Origin Time       17/9/2010 19:21:09	 UTC
Lat.              36.5 N	
Long.             70.8 E	
Depth (Km)        167.0
Magnitude         6.5
 Region           Hindukush                                                        
 Above details taken from IMD 
    
Station Code      MNL
Station Lat.       32.246  N
Station Long.      77.188  E
Station Height(m) 1932.0
Site Class        A   Vs30 between 700 m/sec to 1400 m/sec * 
Record Time       17.09.2010 19:23:37.649 UTC
Sampling Rate     200. Hz
 Record Duration   82.510 Sec.
 Direction         N-S (N positive)
Max. Acceleration     -3.582 cm/sec**2
     
  * For reference see Site Classification link of website 
     
 Base Line Corrected and Low Pass Filtered (Cut Off at 35 Hz) Time History
 Acceleration data in cm/sec**2
    
[...]
      -0.114
      -0.128
      -0.126
      -0.105
      -0.067
      -0.024
       0.012
       0.039
       0.056
       0.063
       0.057
       0.037
       0.006
      -0.033
      -0.076
      -0.118
      -0.159
      -0.196
      -0.226
      -0.249
      -0.271
      -0.294
      -0.312
      -0.318
      -0.307
      -0.289
      -0.273
      -0.259
      -0.243
      -0.217
      -0.177
      -0.131
      -0.093
      -0.075
      -0.074
      -0.082
      -0.092
      -0.102
      -0.115
      -0.127
      -0.132
      -0.127
      -0.116
      -0.101
      -0.087
      -0.071
      -0.047
      -0.008
       0.044
       0.104
       0.168
       0.230
       0.286
       0.332
       0.364
       0.386
       0.399
       0.409
       0.422
       0.440
       0.456
       0.461
       0.447
       0.416
       0.375
       0.327
       0.278
       0.228
       0.180
       0.135
       0.093
       0.051
       0.004
      -0.051
      -0.106
      -0.152
      -0.184
      -0.206
      -0.222
      -0.233
      -0.237
      -0.231
      -0.220
      -0.214
      -0.229
      -0.268
      -0.324
      -0.380
      -0.428
      -0.471
      -0.513
      -0.552
      -0.584
      -0.602
      -0.602
      -0.580
      -0.538
      -0.479
      -0.405
      -0.321
      -0.233
      -0.144
      -0.052
       0.042
       0.138
       0.230
       0.317
       0.398
       0.471
       0.535
       0.591
       0.641
       0.688
       0.729
       0.763
       0.788
       0.808
       0.826
       0.845
       0.859
       0.859
       0.839
       0.802
       0.758
       0.705
       0.635
       0.544
       0.432
       0.304
       0.168
       0.029
      -0.113
      -0.256
      -0.397
      -0.528
      -0.639
      -0.728
      -0.795
      -0.843
      -0.874
      -0.894
      -0.912
      -0.929
      -0.943
      -0.949
      -0.949
      -0.943
      -0.934
      -0.921
      -0.903
      -0.876
      -0.836
      -0.786
      -0.722
      -0.640
      -0.537
      -0.417
      -0.290
      -0.163
      -0.039
       0.081
       0.192
       0.291
       0.373
       0.435
       0.472
       0.486
       0.482
       0.467
       0.449
       0.430
       0.407
       0.374
       0.330
       0.277
       0.217
       0.156
       0.098
       0.054
       0.034
       0.037
       0.057
       0.084
       0.113
       0.140
       0.168
       0.200
       0.233
       0.261
       0.283
       0.302
       0.319
       0.328
       0.322
       0.296
       0.258
       0.212
       0.163
       0.111
       0.057
       0.005
      -0.043
      -0.088
      -0.139
      -0.199
      -0.268
      -0.338
      -0.402
      -0.460
      -0.514
      -0.559
      -0.590
      -0.598
      -0.577
      -0.527
      -0.455
      -0.371
      -0.284
      -0.196
      -0.106
      -0.014
       0.077
       0.162
       0.234
       0.290
       0.332
       0.362
       0.377
       0.374
       0.356
       0.333
       0.313
       0.296
       0.282
       0.269
       0.255
       0.236
       0.213
       0.194
       0.193
       0.219
       0.267
       0.330
       0.393
       0.450
       0.503
       0.553
       0.594
       0.613
       0.606
       0.573
       0.524
       0.462
       0.392
       0.315
       0.240
       0.173
       0.120
       0.086
       0.068
       0.063
       0.070
       0.087
       0.105
       0.107
       0.080
       0.024
      -0.052
      -0.139
      -0.232
      -0.327
      -0.421
      -0.503
      -0.565
      -0.600
      -0.610
      -0.602
      -0.584
      -0.558
      -0.522
      -0.479
      -0.431
      -0.384
      -0.342
      -0.301
      -0.256
      -0.202
      -0.142
      -0.076
      -0.001
       0.092
       0.202
       0.319
       0.430
       0.530
       0.617
       0.692
       0.754
       0.801
       0.832
       0.839
       0.821
       0.778
       0.715
       0.638
       0.555
       0.471
       0.392
       0.318
       0.253
       0.206
       0.179
       0.173
       0.182
       0.200
       0.216
       0.221
       0.214
       0.195
       0.165
       0.122
       0.069
       0.016
      -0.033
      -0.080
      -0.134
      -0.199
      -0.278
      -0.370
      -0.467
      -0.560
      -0.643
      -0.715
      -0.780
      -0.844
      -0.914
      -0.993
      -1.078
      -1.158
      -1.225
      -1.272
      -1.289
      -1.271
      -1.221
      -1.147
      -1.057
      -0.950
      -0.825
      -0.684
      -0.536
      -0.390
      -0.259
      -0.150
      -0.061
       0.015
       0.083
       0.144
       0.196
       0.237
       0.270
       0.299
       0.328
       0.355
       0.374
       0.379
       0.373
       0.367
       0.368
       0.378
       0.393
       0.409
       0.423
       0.430
       0.429
       0.418
       0.398
       0.369
       0.332
       0.282
       0.212
       0.119
       0.008
      -0.109
      -0.222
      -0.324
      -0.411
      -0.478
      -0.518
      -0.525
      -0.499
      -0.447
      -0.374
      -0.286
      -0.185
      -0.074
       0.039
       0.150
       0.254
       0.349
       0.432
       0.501
       0.557
       0.606
       0.646
       0.675
       0.690
       0.689
       0.671
       0.631
       0.567
       0.484
       0.387
       0.279
       0.160
       0.031
      -0.108
      -0.254
      -0.398
      -0.534
      -0.657
      -0.768
      -0.870
      -0.962
      -1.048
      -1.126
      -1.193
      -1.250
      -1.296
      -1.332
      -1.354
      -1.357
      -1.335
      -1.290
      -1.221
      -1.128
      -1.012
      -0.878
      -0.727
      -0.562
      -0.391
      -0.222
      -0.060
       0.092
       0.233
       0.363
       0.482
       0.592
       0.695
       0.793
       0.891
       0.995
       1.103
       1.209
       1.308
       1.396
       1.467
       1.515
       1.541
       1.549
       1.544
       1.525
       1.487
       1.426
       1.340
       1.230
       1.099
       0.952
       0.795
       0.634
       0.475
       0.321
       0.171
       0.020
      -0.133
      -0.287
      -0.437
      -0.573
      -0.688
      -0.776
      -0.838
      -0.871
      -0.867
      -0.820
      -0.732
      -0.613
      -0.475
      -0.326
      -0.170
      -0.015
       0.131
       0.256
       0.346
       0.392
       0.396
       0.361
       0.291
       0.191
       0.066
      -0.074
      -0.220
      -0.364
      -0.496
      -0.609
      -0.696
      -0.753
      -0.777
      -0.770
      -0.738
      -0.690
      -0.628
      -0.552
      -0.461
      -0.358
      -0.254
      -0.162
      -0.091
      -0.043
      -0.018
      -0.016
      -0.041
      -0.095
      -0.176
      -0.276
      -0.383
      -0.487
      -0.581
      -0.661
      -0.727
      -0.774
      -0.799
      -0.796
      -0.768
      -0.714
      -0.633
      -0.523
      -0.391
      -0.245
      -0.096
       0.049
       0.184
       0.304
       0.403
       0.479
       0.523
       0.537
       0.524
       0.494
       0.453
       0.405
       0.359
       0.322
       0.300
       0.295
       0.307
       0.338
       0.388
       0.457
       0.543
       0.636
       0.722
       0.792
       0.841
       0.877
       0.905
       0.931
       0.948
       0.947
       0.920
       0.873
       0.821
       0.773
       0.730
       0.690
       0.654
       0.631
       0.622
       0.622
       0.623
       0.620
       0.616
       0.618
       0.633
       0.658
       0.684
       0.707
       0.727
       0.747
       0.770
       0.792
       0.811
       0.820
       0.815
       0.797
       0.770
       0.736
       0.692
       0.636
       0.567
       0.489
       0.404
       0.306
       0.187
       0.040
      -0.134
      -0.330
      -0.545
      -0.781
      -1.045
      -1.333
      -1.631
      -1.914
      -2.168
      -2.385
      -2.562
      -2.698
      -2.784
      -2.811
      -2.770
      -2.671
      -2.532
      -2.371
      -2.192
      -1.996
      -1.783
      -1.562
      -1.345
      -1.146
      -0.969
      -0.812
      -0.670
      -0.540
      -0.422
      -0.320
      -0.236
      -0.174
      -0.132
      -0.099
      -0.067
      -0.034
      -0.005
       0.018
       0.040
       0.068
       0.103
       0.138
       0.172
       0.205
       0.241
       0.281
       0.326
       0.370
       0.408
       0.439
       0.473
       0.523
       0.603
       0.720
       0.871
       1.041
       1.212
       1.375
       1.527
       1.662
       1.763
       1.815
       1.810
       1.752
       1.650
       1.511
       1.339
       1.137
       0.915
       0.691
       0.489
       0.326
       0.209
       0.136
       0.105
       0.109
       0.143
       0.201
       0.273
       0.348
       0.414
       0.462
       0.489
       0.488
       0.453
       0.385
       0.288
       0.171
       0.038
      -0.105
      -0.250
      -0.388
      -0.518
      -0.643
      -0.772
      -0.908
      -1.047
      -1.184
      -1.310
      -1.425
      -1.529
      -1.618
      -1.684
      -1.720
      -1.723
      -1.692
      -1.632
      -1.551
      -1.458
      -1.359
      -1.250
      -1.127
      -0.992
      -0.856
      -0.729
      -0.621
      -0.534
      -0.463
      -0.399
      -0.342
      -0.292
      -0.242
      -0.178
      -0.092
       0.020
       0.154
       0.311
       0.489
       0.685
       0.890
       1.095
       1.293
       1.478
       1.644
       1.780
       1.872
       1.915
       1.918
       1.892
       1.840
       1.761
       1.652
       1.521
       1.385
       1.260
       1.157
       1.078
       1.016
       0.956
       0.889
       0.809
       0.711
       0.591
       0.451
       0.295
       0.127
      -0.053
      -0.237
      -0.413
      -0.567
      -0.688
      -0.771
      -0.821
      -0.845
      -0.850
      -0.835
      -0.800
      -0.747
      -0.688
      -0.629
      -0.577
      -0.534
      -0.501
      -0.476
      -0.455
      -0.435
      -0.407
      -0.359
      -0.280
      -0.172
      -0.052
       0.061
       0.153
       0.217
       0.256
       0.276
       0.276
       0.249
       0.189
       0.099
      -0.012
      -0.140
      -0.280
      -0.421
      -0.549
      -0.656
      -0.744
      -0.819
      -0.889
      -0.955
      -1.018
      -1.077
      -1.137
      -1.203
      -1.273
      -1.343
      -1.408
      -1.469
      -1.529
      -1.592
      -1.653
      -1.700
      -1.717
      -1.688
      -1.607
      -1.479
      -1.310
      -1.100
      -0.844
      -0.539
      -0.189
       0.194
       0.592
       0.988
       1.371
       1.734
       2.067
       2.361
       2.604
       2.789
       2.907
       2.953
       2.927
       2.834
       2.682
       2.473
       2.212
       1.908
       1.574
       1.222
       0.859
       0.493
       0.131
      -0.219
      -0.546
      -0.844
      -1.106
      -1.329
      -1.515
      -1.666
      -1.785
      -1.868
      -1.911
      -1.913
      -1.874
      -1.800
      -1.693
      -1.552
      -1.381
      -1.188
      -0.981
      -0.762
      -0.538
      -0.325
      -0.140
       0.009
       0.124
       0.206
       0.248
       0.238
       0.163
       0.017
      -0.194
      -0.458
      -0.751
      -1.055
      -1.351
      -1.622
      -1.855
      -2.034
      -2.144
      -2.173
      -2.119
      -1.986
      -1.781
      -1.513
      -1.189
      -0.824
      -0.431
      -0.026
       0.377
       0.764
       1.123
       1.449
       1.736
       1.976
       2.162
       2.287
       2.350
       2.353
       2.306
       2.220
       2.096
       1.932
       1.726
       1.482
       1.213
       0.937
       0.675
       0.437
       0.230
       0.058
      -0.066
      -0.128
      -0.117
      -0.035
       0.104
       0.284
       0.487
       0.696
       0.899
       1.086
       1.250
       1.383
       1.479
       1.539
       1.565
       1.556
       1.513
       1.440
       1.343
       1.225
       1.090
       0.942
       0.782
       0.608
       0.421
       0.221
       0.012
      -0.205
      -0.426
      -0.644
      -0.851
      -1.038
      -1.192
      -1.302
      -1.359
      -1.361
      -1.312
      -1.214
      -1.072
      -0.887
      -0.663
      -0.407
      -0.134
       0.135
       0.383
       0.605
       0.801
       0.975
       1.124
       1.240
       1.316
       1.352
       1.360
       1.353
       1.333
       1.290
       1.218
       1.123
       1.018
       0.913
       0.802
       0.679
       0.543
       0.406
       0.279
       0.167
       0.064
      -0.037
      -0.138
      -0.229
      -0.300
      -0.346
      -0.358
      -0.336
      -0.287
      -0.225
      -0.163
      -0.107
      -0.060
      -0.026
      -0.008
      -0.009
      -0.025
      -0.047
      -0.069
      -0.091
      -0.117
      -0.144
      -0.160
      -0.152
      -0.120
      -0.081
      -0.054
      -0.048
      -0.061
      -0.088
      -0.126
      -0.179
      -0.263
      -0.394
      -0.578
      -0.812
      -1.081
      -1.373
      -1.673
      -1.972
      -2.263
      -2.536
      -2.779
      -2.978
      -3.131
      -3.247
      -3.338
      -3.413
      -3.474
      -3.521
      -3.553
      -3.573
      -3.582
      -3.575
      -3.542
      -3.471
      -3.362
      -3.220
      -3.052
      -2.860
      -2.640
      -2.389
      -2.107
      -1.801
      -1.488
      -1.174
      -0.859
      -0.534
      -0.205
       0.117
       0.420
       0.702
       0.967
       1.219
       1.453
       1.664
       1.848
       2.010
       2.156
       2.288
       2.397
       2.472
       2.514
       2.532
       2.544
       2.562
       2.590
       2.619
       2.636
       2.636
       2.625
       2.618
       2.624
       2.642
       2.666
       2.686
       2.690
       2.670
       2.629
       2.572
       2.507
       2.440
       2.371
       2.297
       2.214
       2.121
       2.016
       1.902
       1.779
       1.647
       1.514
       1.386
       1.267
       1.152
       1.036
       0.916
       0.791
       0.662
       0.529
       0.389
       0.234
       0.063
      -0.117
      -0.288
      -0.440
      -0.569
      -0.680
      -0.784
      -0.888
      -0.998
      -1.108
      -1.217
      -1.325
      -1.431
      -1.527
      -1.603
      -1.659
      -1.697
      -1.720
      -1.726
      -1.712
      -1.681
      -1.640
      -1.598
      -1.559
      -1.525
      -1.491
      -1.456
      -1.420
      -1.385
      -1.352
      -1.323
      -1.301
      -1.294
      -1.304
      -1.330
      -1.362
      -1.390
      -1.402
      -1.392
      -1.355
      -1.284
      -1.172
      -1.017
      -0.826
      -0.609
      -0.373
      -0.119
       0.145
       0.416
       0.688
       0.958
       1.218
       1.461
       1.688
       1.899
       2.096
       2.275
       2.430
       2.562
       2.674
       2.777
       2.875
       2.964
       3.032
       3.070
       3.075
       3.045
       2.973
       2.854
       2.696
       2.517
       2.334
       2.164
       2.019
       1.905
       1.827
       1.784
       1.772
       1.781
       1.792
       1.792
       1.772
       1.721
       1.631
       1.502
       1.335
       1.134
       0.898
       0.629
       0.334
       0.027
      -0.281
      -0.580
      -0.863
      -1.123
      -1.360
      -1.572
      -1.758
      -1.915
      -2.040
      -2.133
      -2.200
      -2.254
      -2.317
      -2.404
      -2.520
      -2.655
      -2.793
      -2.922
      -3.029
      -3.112
      -3.171
      -3.200
      -3.186
      -3.112
      -2.968
      -2.755
      -2.486
      -2.181
      -1.857
      -1.523
      -1.187
      -0.864
      -0.571
      -0.324
      -0.130
       0.014
       0.118
       0.196
       0.261
       0.316
       0.354
       0.368
       0.358
       0.330
       0.291
       0.239
       0.168
       0.067
      -0.071
      -0.240
      -0.423
      -0.601
      -0.763
      -0.907
      -1.034
      -1.145
      -1.240
      -1.314
      -1.361
      -1.381
      -1.376
      -1.355
      -1.331
      -1.320
      -1.337
      -1.388
      -1.465
      -1.561
      -1.672
      -1.797
      -1.933
      -2.074
      -2.209
      -2.327
      -2.412
      -2.450
      -2.429
      -2.351
      -2.220
      -2.054
      -1.866
      -1.667
      -1.459
      -1.239
      -1.009
      -0.771
      -0.528
      -0.286
      -0.048
       0.188
       0.425
       0.665
       0.908
       1.155
       1.406
       1.657
       1.901
       2.131
       2.349
       2.561
       2.766
       2.958
       3.128
       3.259
       3.337
       3.360
       3.336
       3.276
       3.192
       3.088
       2.969
       2.836
       2.693
       2.548
       2.412
       2.292
       2.187
       2.088
       1.976
       1.840
       1.680
       1.507
       1.335
       1.171
       1.014
       0.871
       0.756
       0.681
       0.648
       0.651
       0.681
       0.731
       0.795
       0.872
       0.956
       1.031
       1.076
       1.083
       1.056
       1.005
       0.936
       0.854
       0.763
       0.673
       0.595
       0.539
       0.510
       0.508
       0.538
       0.604
       0.707
       0.838
       0.982
       1.133
       1.287
       1.437
       1.576
       1.696
       1.795
       1.866
       1.899
       1.887
       1.831
       1.738
       1.611
       1.456
       1.274
       1.067
       0.835
       0.577
       0.289
      -0.031
      -0.372
      -0.717
      -1.052
      -1.372
      -1.676
      -1.959
      -2.214
      -2.435
      -2.623
      -2.781
      -2.909
      -3.001
      -3.053
      -3.058
      -3.017
      -2.936
      -2.825
      -2.690
      -2.534
      -2.355
      -2.155
      -1.941
      -1.726
      -1.529
      -1.366
      -1.239
      -1.144
      -1.073
      -1.026
      -1.005
      -1.014
      -1.050
      -1.106
      -1.168
      -1.228
      -1.280
      -1.318
      -1.332
      -1.313
      -1.266
      -1.204
      -1.143
      -1.089
      -1.045
      -1.009
      -0.984
      -0.978
      -1.002
      -1.054
      -1.123
      -1.191
      -1.247
      -1.290
      -1.322
      -1.343
      -1.349
      -1.326
      -1.267
      -1.175
      -1.066
      -0.958
      -0.856
      -0.753
      -0.638
      -0.506
      -0.363
      -0.222
      -0.096
       0.018
       0.133
       0.272
       0.445
       0.651
       0.875
       1.102
       1.321
       1.530
       1.731
       1.917
       2.075
       2.194
       2.274
       2.325
       2.352
       2.355
       2.327
       2.264
       2.171
       2.060
       1.940
       1.807
       1.651
       1.467
       1.262
       1.051
       0.841
       0.631
       0.412
       0.179
      -0.066
      -0.311
      -0.540
      -0.739
      -0.905
      -1.031
      -1.108
      -1.126
      -1.085
      -0.998
      -0.883
      -0.758
      -0.627
