Origin Time       17/9/2010 19:21:09	
Lat.              36.5 N	
Long.             70.8 E	
Depth (Km)        167.0
Magnitude         6.5
 Region           Hindukush                                                        
 Above details taken from IMD 
   
Station Code      MNL
Station Lat.       32.246
Station Long.      77.188
Station Height(m) 1932.0
Site Class        A   Vs30 between 700 m/sec to 1400 m/sec * 
Record Time       17.09.2010 19:23:37.649
Sampling Rate     200. Hz
 Record Duration   82.510 Sec.
 Direction         Vert. (Up positive)
Max. Acceleration     -2.485 cm/sec**2
     
  * For reference see Site Classification link of website 
     
 Base Line Corrected and Low Pass Filtered (Cut Off at 35 Hz) Time History
 Acceleration data in cm/sec**2
    
[...]
       0.093
       0.120
       0.153
       0.179
       0.194
       0.206
       0.219
       0.234
       0.245
       0.250
       0.255
       0.264
       0.269
       0.259
       0.230
       0.188
       0.148
       0.121
       0.117
       0.138
       0.173
       0.202
       0.207
       0.191
       0.170
       0.159
       0.158
       0.148
       0.110
       0.039
      -0.047
      -0.124
      -0.182
      -0.234
      -0.293
      -0.361
      -0.429
      -0.489
      -0.541
      -0.592
      -0.640
      -0.677
      -0.690
      -0.677
      -0.650
      -0.629
      -0.621
      -0.622
      -0.624
      -0.623
      -0.613
      -0.588
      -0.549
      -0.506
      -0.475
      -0.461
      -0.456
      -0.437
      -0.390
      -0.319
      -0.246
      -0.194
      -0.169
      -0.159
      -0.152
      -0.135
      -0.104
      -0.063
      -0.021
       0.016
       0.052
       0.102
       0.173
       0.260
       0.356
       0.449
       0.524
       0.565
       0.566
       0.535
       0.493
       0.460
       0.443
       0.436
       0.424
       0.402
       0.379
       0.371
       0.383
       0.407
       0.429
       0.443
       0.448
       0.442
       0.424
       0.385
       0.321
       0.235
       0.146
       0.071
       0.014
      -0.034
      -0.077
      -0.112
      -0.132
      -0.138
      -0.137
      -0.135
      -0.127
      -0.105
      -0.064
      -0.014
       0.025
       0.034
       0.018
      -0.003
      -0.010
       0.000
       0.011
       0.005
      -0.022
      -0.054
      -0.068
      -0.055
      -0.031
      -0.020
      -0.039
      -0.083
      -0.140
      -0.199
      -0.245
      -0.269
      -0.268
      -0.244
      -0.209
      -0.180
      -0.171
      -0.181
      -0.189
      -0.174
      -0.133
      -0.077
      -0.020
       0.038
       0.104
       0.182
       0.271
       0.360
       0.442
       0.516
       0.588
       0.657
       0.720
       0.777
       0.829
       0.878
       0.916
       0.933
       0.924
       0.893
       0.851
       0.804
       0.753
       0.686
       0.588
       0.450
       0.284
       0.114
      -0.031
      -0.139
      -0.208
      -0.247
      -0.270
      -0.287
      -0.303
      -0.317
      -0.322
      -0.309
      -0.273
      -0.219
      -0.163
      -0.121
      -0.094
      -0.071
      -0.043
      -0.008
       0.035
       0.083
       0.131
       0.171
       0.204
       0.235
       0.268
       0.297
       0.308
       0.289
       0.233
       0.143
       0.028
      -0.099
      -0.224
      -0.331
      -0.405
      -0.444
      -0.458
      -0.465
      -0.471
      -0.467
      -0.443
      -0.403
      -0.363
      -0.345
      -0.357
      -0.395
      -0.444
      -0.492
      -0.536
      -0.570
      -0.591
      -0.602
      -0.608
      -0.609
      -0.592
      -0.545
      -0.473
      -0.393
      -0.325
      -0.278
      -0.240
      -0.189
      -0.113
      -0.027
       0.041
       0.075
       0.089
       0.107
       0.140
       0.182
       0.220
       0.256
       0.296
       0.352
       0.427
       0.510
       0.588
       0.653
       0.708
       0.750
       0.766
       0.736
       0.659
       0.551
       0.439
       0.342
       0.259
       0.180
       0.104
       0.035
      -0.014
      -0.037
      -0.037
      -0.022
      -0.012
      -0.023
      -0.064
      -0.128
      -0.194
      -0.248
      -0.288
      -0.320
      -0.356
      -0.398
      -0.446
      -0.490
      -0.523
      -0.541
      -0.539
      -0.506
      -0.434
      -0.330
      -0.212
      -0.101
      -0.005
       0.075
       0.135
       0.160
       0.139
       0.071
      -0.028
      -0.128
      -0.208
      -0.269
      -0.327
      -0.393
      -0.458
      -0.502
      -0.512
      -0.493
      -0.464
      -0.439
      -0.422
      -0.408
      -0.390
      -0.362
      -0.317
      -0.247
      -0.153
      -0.049
       0.049
       0.133
       0.206
       0.280
       0.357
       0.432
       0.482
       0.491
       0.459
       0.412
       0.374
       0.356
       0.346
       0.331
       0.305
       0.273
       0.243
       0.216
       0.191
       0.166
       0.140
       0.118
       0.102
       0.095
       0.096
       0.107
       0.127
       0.153
       0.168
       0.162
       0.137
       0.113
       0.111
       0.139
       0.187
       0.240
       0.293
       0.360
       0.453
       0.568
       0.685
       0.776
       0.826
       0.829
       0.795
       0.738
       0.672
       0.606
       0.539
       0.471
       0.397
       0.311
       0.214
       0.117
       0.038
      -0.016
      -0.055
      -0.097
      -0.157
      -0.242
      -0.340
      -0.433
      -0.501
      -0.535
      -0.538
      -0.516
      -0.477
      -0.433
      -0.400
      -0.387
      -0.388
      -0.385
      -0.358
      -0.301
      -0.223
      -0.143
      -0.081
      -0.038
      -0.002
       0.041
       0.092
       0.137
       0.158
       0.145
       0.103
       0.052
       0.016
       0.009
       0.024
       0.042
       0.045
       0.025
      -0.007
      -0.029
      -0.025
       0.000
       0.031
       0.049
       0.046
       0.016
      -0.046
      -0.135
      -0.236
      -0.331
      -0.412
      -0.478
      -0.537
      -0.600
      -0.669
      -0.732
      -0.775
      -0.784
      -0.760
      -0.714
      -0.662
      -0.613
      -0.563
      -0.495
      -0.402
      -0.292
      -0.183
      -0.095
      -0.033
       0.004
       0.026
       0.047
       0.076
       0.103
       0.111
       0.089
       0.044
      -0.003
      -0.036
      -0.056
      -0.075
      -0.101
      -0.127
      -0.138
      -0.128
      -0.105
      -0.081
      -0.053
      -0.007
       0.068
       0.163
       0.257
       0.328
       0.367
       0.380
       0.381
       0.376
       0.363
       0.340
       0.316
       0.310
       0.336
       0.391
       0.460
       0.530
       0.598
       0.674
       0.755
       0.821
       0.842
       0.807
       0.734
       0.654
       0.581
       0.506
       0.420
       0.323
       0.229
       0.152
       0.098
       0.063
       0.035
       0.003
      -0.040
      -0.094
      -0.161
      -0.242
      -0.337
      -0.437
      -0.527
      -0.597
      -0.645
      -0.686
      -0.731
      -0.775
      -0.796
      -0.781
      -0.736
      -0.683
      -0.637
      -0.590
      -0.530
      -0.451
      -0.364
      -0.281
      -0.206
      -0.133
      -0.056
       0.025
       0.104
       0.177
       0.248
       0.316
       0.370
       0.403
       0.413
       0.412
       0.404
       0.395
       0.386
       0.374
       0.355
       0.327
       0.292
       0.258
       0.232
       0.212
       0.192
       0.169
       0.139
       0.103
       0.060
       0.021
      -0.003
       0.000
       0.027
       0.066
       0.103
       0.135
       0.170
       0.211
       0.245
       0.256
       0.236
       0.193
       0.138
       0.079
       0.016
      -0.057
      -0.140
      -0.223
      -0.292
      -0.338
      -0.369
      -0.403
      -0.453
      -0.520
      -0.593
      -0.655
      -0.691
      -0.700
      -0.697
      -0.696
      -0.694
      -0.673
      -0.618
      -0.526
      -0.409
      -0.286
      -0.174
      -0.081
      -0.007
       0.051
       0.097
       0.140
       0.187
       0.243
       0.308
       0.378
       0.450
       0.519
       0.578
       0.623
       0.651
       0.659
       0.643
       0.606
       0.554
       0.496
       0.441
       0.386
       0.330
       0.268
       0.204
       0.148
       0.111
       0.099
       0.106
       0.123
       0.142
       0.167
       0.196
       0.224
       0.238
       0.227
       0.200
       0.175
       0.170
       0.177
       0.168
       0.124
       0.052
      -0.023
      -0.082
      -0.120
      -0.148
      -0.173
      -0.188
      -0.171
      -0.103
       0.008
       0.130
       0.226
       0.281
       0.302
       0.304
       0.302
       0.296
       0.271
       0.208
       0.100
      -0.037
      -0.176
      -0.298
      -0.399
      -0.483
      -0.556
      -0.621
      -0.678
      -0.728
      -0.772
      -0.810
      -0.842
      -0.867
      -0.894
      -0.926
      -0.959
      -0.979
      -0.974
      -0.937
      -0.865
      -0.766
      -0.656
      -0.558
      -0.484
      -0.432
      -0.392
      -0.362
      -0.341
      -0.333
      -0.343
      -0.369
      -0.404
      -0.434
      -0.445
      -0.430
      -0.388
      -0.323
      -0.252
      -0.193
      -0.157
      -0.143
      -0.144
      -0.146
      -0.135
      -0.105
      -0.062
      -0.024
       0.004
       0.024
       0.041
       0.051
       0.047
       0.029
       0.008
       0.000
       0.009
       0.031
       0.060
       0.100
       0.153
       0.219
       0.287
       0.351
       0.415
       0.486
       0.561
       0.635
       0.703
       0.760
       0.791
       0.785
       0.746
       0.695
       0.650
       0.615
       0.589
       0.578
       0.590
       0.625
       0.664
       0.689
       0.701
       0.718
       0.759
       0.825
       0.899
       0.966
       1.024
       1.080
       1.135
       1.183
       1.214
       1.224
       1.218
       1.201
       1.184
       1.168
       1.142
       1.097
       1.036
       0.975
       0.926
       0.887
       0.849
       0.803
       0.750
       0.697
       0.647
       0.596
       0.526
       0.428
       0.309
       0.183
       0.061
      -0.056
      -0.168
      -0.273
      -0.379
      -0.492
      -0.616
      -0.753
      -0.906
      -1.069
      -1.220
      -1.332
      -1.386
      -1.387
      -1.356
      -1.315
      -1.268
      -1.210
      -1.145
      -1.087
      -1.057
      -1.060
      -1.088
      -1.121
      -1.144
      -1.160
      -1.178
      -1.204
      -1.234
      -1.257
      -1.263
      -1.245
      -1.213
      -1.178
      -1.157
      -1.158
      -1.182
      -1.223
      -1.270
      -1.305
      -1.309
      -1.271
      -1.195
      -1.096
      -0.988
      -0.872
      -0.738
      -0.584
      -0.424
      -0.281
      -0.173
      -0.099
      -0.036
       0.046
       0.153
       0.257
       0.317
       0.322
       0.293
       0.258
       0.225
       0.179
       0.112
       0.036
      -0.022
      -0.031
       0.025
       0.132
       0.252
       0.345
       0.398
       0.435
       0.482
       0.544
       0.602
       0.635
       0.650
       0.673
       0.727
       0.809
       0.894
       0.963
       1.021
       1.087
       1.166
       1.238
       1.276
       1.270
       1.239
       1.212
       1.204
       1.201
       1.180
       1.129
       1.064
       1.009
       0.982
       0.988
       1.031
       1.103
       1.183
       1.247
       1.280
       1.283
       1.267
       1.240
       1.202
       1.150
       1.083
       1.001
       0.912
       0.827
       0.754
       0.691
       0.630
       0.560
       0.476
       0.385
       0.295
       0.209
       0.116
       0.004
      -0.136
      -0.303
      -0.489
      -0.678
      -0.856
      -1.022
      -1.186
      -1.352
      -1.508
      -1.634
      -1.709
      -1.731
      -1.706
      -1.648
      -1.562
      -1.441
      -1.282
      -1.098
      -0.923
      -0.787
      -0.688
      -0.610
      -0.537
      -0.469
      -0.415
      -0.380
      -0.362
      -0.360
      -0.373
      -0.398
      -0.423
      -0.435
      -0.429
      -0.412
      -0.403
      -0.417
      -0.462
      -0.529
      -0.605
      -0.666
      -0.699
      -0.710
      -0.717
      -0.734
      -0.748
      -0.732
      -0.664
      -0.543
      -0.389
      -0.232
      -0.094
       0.021
       0.130
       0.250
       0.383
       0.512
       0.619
       0.690
       0.729
       0.746
       0.753
       0.746
       0.720
       0.675
       0.627
       0.595
       0.586
       0.587
       0.575
       0.534
       0.471
       0.404
       0.344
       0.285
       0.205
       0.092
      -0.051
      -0.209
      -0.373
      -0.541
      -0.713
      -0.885
      -1.042
      -1.164
      -1.240
      -1.270
      -1.268
      -1.236
      -1.168
      -1.056
      -0.909
      -0.748
      -0.595
      -0.461
      -0.344
      -0.234
      -0.122
       0.001
       0.134
       0.271
       0.399
       0.510
       0.612
       0.721
       0.849
       0.994
       1.141
       1.285
       1.433
       1.592
       1.757
       1.910
       2.029
       2.096
       2.108
       2.081
       2.034
       1.974
       1.900
       1.819
       1.742
       1.676
       1.613
       1.543
       1.470
       1.404
       1.348
       1.299
       1.242
       1.172
       1.094
       1.017
       0.940
       0.849
       0.734
       0.603
       0.479
       0.379
       0.299
       0.224
       0.142
       0.047
      -0.061
      -0.178
      -0.302
      -0.429
      -0.560
      -0.691
      -0.818
      -0.930
      -1.022
      -1.099
      -1.170
      -1.243
      -1.316
      -1.386
      -1.454
      -1.532
      -1.633
      -1.759
      -1.898
      -2.039
      -2.174
      -2.295
      -2.392
      -2.458
      -2.485
      -2.476
      -2.437
      -2.380
      -2.317
      -2.250
      -2.170
      -2.063
      -1.912
      -1.709
      -1.466
      -1.210
      -0.965
      -0.734
      -0.506
      -0.272
      -0.040
       0.173
       0.350
       0.485
       0.581
       0.655
       0.724
       0.795
       0.860
       0.910
       0.941
       0.965
       1.013
       1.112
       1.267
       1.449
       1.613
       1.729
       1.801
       1.851
       1.899
       1.946
       1.975
       1.969
       1.928
       1.867
       1.795
       1.708
       1.598
       1.468
       1.334
       1.206
       1.084
       0.956
       0.821
       0.689
       0.574
       0.477
       0.386
       0.278
       0.144
      -0.009
      -0.164
      -0.317
      -0.474
      -0.637
      -0.798
      -0.944
      -1.066
      -1.162
      -1.237
      -1.296
      -1.336
      -1.350
      -1.340
      -1.320
      -1.309
      -1.314
      -1.323
      -1.311
      -1.260
      -1.171
      -1.059
      -0.942
      -0.829
      -0.713
      -0.591
      -0.466
      -0.353
      -0.262
      -0.202
      -0.173
      -0.168
      -0.171
      -0.170
      -0.158
      -0.133
      -0.096
      -0.053
      -0.016
       0.004
       0.014
       0.038
       0.102
       0.214
       0.356
       0.493
       0.591
       0.641
       0.659
       0.676
       0.706
       0.748
       0.785
       0.804
       0.804
       0.798
       0.797
       0.802
       0.801
       0.780
       0.730
       0.652
       0.554
       0.458
       0.387
       0.351
       0.341
       0.333
       0.312
       0.286
       0.274
       0.284
       0.298
       0.287
       0.233
       0.144
       0.039
      -0.071
      -0.190
      -0.326
      -0.471
      -0.599
      -0.689
      -0.732
      -0.738
      -0.720
      -0.678
      -0.604
      -0.499
      -0.391
      -0.317
      -0.293
      -0.301
      -0.315
      -0.323
      -0.332
      -0.342
      -0.342
      -0.315
      -0.254
      -0.161
      -0.051
       0.060
       0.154
       0.225
       0.278
       0.327
       0.380
       0.429
       0.459
       0.460
       0.445
       0.430
       0.424
       0.425
       0.432
       0.451
       0.484
       0.522
       0.553
       0.572
       0.583
       0.589
       0.594
       0.600
       0.602
       0.593
       0.567
       0.526
       0.481
       0.441
       0.405
       0.364
       0.308
       0.241
       0.179
       0.134
       0.099
       0.054
      -0.013
      -0.091
      -0.154
      -0.187
      -0.189
      -0.178
      -0.173
      -0.187
      -0.227
      -0.290
      -0.369
      -0.456
      -0.536
      -0.600
      -0.649
      -0.699
      -0.761
      -0.833
      -0.899
      -0.949
      -0.982
      -1.012
      -1.052
      -1.105
      -1.157
      -1.192
      -1.206
      -1.202
      -1.185
      -1.158
      -1.126
      -1.096
      -1.074
      -1.061
      -1.053
      -1.046
      -1.038
      -1.022
      -0.989
      -0.932
      -0.842
      -0.721
      -0.583
      -0.451
      -0.341
      -0.243
      -0.132
       0.021
       0.218
       0.431
       0.615
       0.747
       0.840
       0.931
       1.044
       1.170
       1.279
       1.347
       1.384
       1.420
       1.483
       1.572
       1.663
       1.725
       1.754
       1.762
       1.765
       1.763
       1.745
       1.704
       1.637
       1.542
       1.413
       1.246
       1.042
       0.819
       0.612
       0.448
       0.338
       0.267
       0.213
       0.165
       0.123
       0.091
       0.070
       0.051
       0.021
      -0.028
      -0.088
      -0.147
      -0.200
      -0.247
      -0.287
      -0.311
      -0.310
      -0.283
      -0.242
      -0.202
      -0.174
      -0.160
      -0.156
      -0.158
      -0.173
      -0.214
      -0.291
      -0.402
      -0.535
      -0.670
      -0.790
      -0.892
      -0.976
      -1.040
      -1.074
      -1.066
      -1.022
      -0.959
      -0.893
      -0.825
      -0.748
      -0.659
      -0.573
      -0.510
      -0.481
      -0.477
      -0.477
      -0.472
      -0.475
      -0.508
      -0.575
      -0.663
      -0.745
      -0.801
      -0.822
      -0.810
      -0.775
      -0.729
      -0.674
      -0.608
      -0.527
      -0.433
      -0.337
      -0.257
      -0.207
      -0.188
      -0.192
      -0.208
      -0.235
      -0.267
      -0.290
      -0.285
      -0.244
      -0.179
      -0.112
      -0.061
      -0.028
      -0.006
       0.009
       0.019
       0.019
       0.009
      -0.005
      -0.018
      -0.029
      -0.042
      -0.055
      -0.060
      -0.047
      -0.011
       0.039
       0.085
       0.115
       0.128
       0.134
       0.142
       0.152
       0.163
       0.188
       0.243
       0.335
       0.450
       0.566
       0.671
       0.761
       0.833
       0.882
       0.902
       0.895
       0.874
       0.853
       0.832
       0.804
       0.768
       0.731
       0.705
       0.694
       0.698
       0.718
       0.754
       0.799
       0.844
       0.880
       0.905
       0.930
       0.963
       1.002
       1.027
       1.015
       0.961
       0.887
       0.821
       0.772
       0.725
       0.659
       0.571
       0.473
       0.387
       0.327
       0.291
       0.268
       0.251
       0.240
       0.226
       0.198
       0.149
       0.091
       0.041
       0.003
      -0.039
      -0.098
      -0.177
      -0.257
      -0.318
      -0.345
      -0.346
      -0.343
      -0.355
      -0.384
      -0.416
      -0.434
      -0.434
      -0.418
      -0.391
      -0.352
      -0.295
      -0.226
      -0.161
      -0.119
      -0.108
