Origin Time       1/5/2013 06:57:12	 
Lat.              33.1 N	
Long.             75.8 E	
Depth (Km)         15.0
Magnitude         5.8
 Region           JK-HP-Border                                                     
 Above details taken from IMD 
     
Station Code      MOG
Station Lat.       30.825  N
Station Long.      75.155  E
Station Height(m)  237.0
Site Class        C   Vs30 between 200 m/sec to 375 m/sec *  
Record Time       01.05.2013 06:58:12.649
Sampling Rate     200. Hz
 Record Duration   65.950 Sec.
 Direction         E-W (E positive)
Max. Acceleration     -6.188 cm/sec**2
     
  * For reference see Site Classification link of website 
     
 Base Line Corrected and Low Pass Filtered (Cut Off at 35 Hz) Time History
 Acceleration data in cm/sec**2
    
[...]
       1.552
       1.697
       1.811
       1.888
       1.933
       1.960
       1.975
       1.977
       1.958
       1.920
       1.870
       1.822
       1.782
       1.744
       1.703
       1.660
       1.622
       1.593
       1.569
       1.541
       1.500
       1.445
       1.378
       1.304
       1.227
       1.145
       1.053
       0.949
       0.831
       0.701
       0.554
       0.387
       0.196
      -0.013
      -0.231
      -0.450
      -0.662
      -0.868
      -1.065
      -1.244
      -1.394
      -1.510
      -1.596
      -1.662
      -1.717
      -1.768
      -1.814
      -1.850
      -1.869
      -1.869
      -1.855
      -1.831
      -1.799
      -1.759
      -1.703
      -1.628
      -1.528
      -1.406
      -1.261
      -1.094
      -0.908
      -0.714
      -0.528
      -0.362
      -0.213
      -0.073
       0.067
       0.213
       0.362
       0.506
       0.638
       0.759
       0.871
       0.971
       1.048
       1.090
       1.090
       1.048
       0.969
       0.859
       0.725
       0.574
       0.412
       0.249
       0.095
      -0.045
      -0.171
      -0.283
      -0.383
      -0.475
      -0.567
      -0.662
      -0.760
      -0.863
      -0.973
      -1.095
      -1.226
      -1.359
      -1.483
      -1.593
      -1.690
      -1.780
      -1.868
      -1.951
      -2.025
      -2.089
      -2.148
      -2.204
      -2.246
      -2.257
      -2.218
      -2.121
      -1.972
      -1.785
      -1.576
      -1.353
      -1.126
      -0.904
      -0.696
      -0.512
      -0.358
      -0.242
      -0.175
      -0.164
      -0.210
      -0.313
      -0.470
      -0.680
      -0.939
      -1.243
      -1.573
      -1.905
      -2.213
      -2.484
      -2.707
      -2.876
      -2.986
      -3.031
      -3.005
      -2.907
      -2.738
      -2.507
      -2.228
      -1.916
      -1.590
      -1.268
      -0.967
      -0.695
      -0.454
      -0.241
      -0.058
       0.086
       0.188
       0.250
       0.283
       0.296
       0.294
       0.280
       0.256
       0.228
       0.204
       0.187
       0.180
       0.188
       0.219
       0.280
       0.371
       0.485
       0.618
       0.771
       0.952
       1.168
       1.417
       1.687
       1.968
       2.253
       2.548
       2.857
       3.176
       3.494
       3.800
       4.087
       4.350
       4.585
       4.785
       4.941
       5.055
       5.132
       5.182
       5.204
       5.191
       5.142
       5.061
       4.956
       4.834
       4.692
       4.526
       4.333
       4.111
       3.863
       3.592
       3.295
       2.964
       2.593
       2.184
       1.750
       1.309
       0.881
       0.484
       0.130
      -0.176
      -0.431
      -0.637
      -0.799
      -0.919
      -0.995
      -1.026
      -1.016
      -0.975
      -0.915
      -0.845
      -0.781
      -0.736
      -0.720
      -0.736
      -0.789
      -0.881
      -1.012
      -1.175
      -1.357
      -1.542
      -1.713
      -1.859
      -1.984
      -2.092
      -2.180
      -2.239
      -2.261
      -2.245
      -2.199
      -2.135
      -2.068
      -2.005
      -1.946
      -1.882
      -1.806
      -1.715
      -1.605
      -1.475
      -1.318
      -1.120
      -0.873
      -0.582
      -0.272
       0.028
       0.299
       0.529
       0.710
       0.833
       0.889
       0.873
       0.785
       0.632
       0.434
       0.211
      -0.025
      -0.267
      -0.510
      -0.744
      -0.966
      -1.174
      -1.372
      -1.561
      -1.739
      -1.898
      -2.031
      -2.144
      -2.250
      -2.356
      -2.460
      -2.555
      -2.637
      -2.708
      -2.776
      -2.846
      -2.917
      -2.979
      -3.016
      -3.020
      -2.992
      -2.936
      -2.852
      -2.737
      -2.586
      -2.394
      -2.161
      -1.887
      -1.567
      -1.199
      -0.783
      -0.334
       0.133
       0.608
       1.088
       1.566
       2.020
       2.423
       2.753
       3.002
       3.171
       3.263
       3.286
       3.251
       3.171
       3.053
       2.907
       2.740
       2.568
       2.414
       2.303
       2.246
       2.238
       2.269
       2.332
       2.427
       2.556
       2.716
       2.900
       3.090
       3.263
       3.395
       3.470
       3.485
       3.442
       3.346
       3.200
       3.006
       2.762
       2.465
       2.114
       1.708
       1.242
       0.722
       0.164
      -0.411
      -0.984
      -1.545
      -2.088
      -2.611
      -3.107
      -3.562
      -3.951
      -4.251
      -4.455
      -4.571
      -4.610
      -4.581
      -4.488
      -4.333
      -4.119
      -3.852
      -3.543
      -3.204
      -2.845
      -2.477
      -2.116
      -1.770
      -1.442
      -1.125
      -0.818
      -0.528
      -0.265
      -0.031
       0.183
       0.390
       0.602
       0.814
       1.003
       1.144
       1.220
       1.224
       1.157
       1.027
       0.850
       0.647
       0.439
       0.239
       0.061
      -0.085
      -0.189
      -0.244
      -0.248
      -0.206
      -0.126
      -0.012
       0.134
       0.303
       0.480
       0.647
       0.794
       0.913
       0.995
       1.032
       1.023
       0.973
       0.889
       0.780
       0.654
       0.516
       0.373
       0.236
       0.117
       0.028
      -0.026
      -0.044
      -0.034
      -0.006
       0.033
       0.081
       0.140
       0.211
       0.286
       0.358
       0.422
       0.478
       0.527
       0.566
       0.595
       0.616
       0.627
       0.627
       0.610
       0.572
       0.514
       0.447
       0.385
       0.335
       0.299
       0.272
       0.256
       0.256
       0.276
       0.323
       0.401
       0.513
       0.661
       0.846
       1.068
       1.324
       1.604
       1.890
       2.154
       2.370
       2.518
       2.593
       2.598
       2.538
       2.419
       2.246
       2.029
       1.777
       1.503
       1.223
       0.948
       0.681
       0.420
       0.162
      -0.089
      -0.322
      -0.532
      -0.720
      -0.891
      -1.055
      -1.220
      -1.384
      -1.539
      -1.671
      -1.773
      -1.849
      -1.913
      -1.974
      -2.032
      -2.085
      -2.127
      -2.155
      -2.170
      -2.169
      -2.141
      -2.076
      -1.968
      -1.823
      -1.652
      -1.472
      -1.299
      -1.148
      -1.024
      -0.928
      -0.861
      -0.826
      -0.829
      -0.871
      -0.950
      -1.055
      -1.168
      -1.268
      -1.336
      -1.359
      -1.327
      -1.237
      -1.094
      -0.906
      -0.677
      -0.409
      -0.102
       0.234
       0.592
       0.956
       1.313
       1.651
       1.966
       2.255
       2.515
       2.739
       2.925
       3.074
       3.184
       3.254
       3.280
       3.259
       3.190
       3.079
       2.933
       2.761
       2.570
       2.362
       2.141
       1.902
       1.643
       1.363
       1.070
       0.770
       0.466
       0.157
      -0.154
      -0.461
      -0.763
      -1.057
      -1.339
      -1.599
      -1.825
      -2.010
      -2.153
      -2.260
      -2.343
      -2.408
      -2.458
      -2.492
      -2.514
      -2.524
      -2.515
      -2.479
      -2.413
      -2.320
      -2.203
      -2.058
      -1.880
      -1.665
      -1.417
      -1.150
      -0.878
      -0.618
      -0.379
      -0.169
       0.012
       0.176
       0.344
       0.535
       0.755
       0.996
       1.245
       1.495
       1.743
       1.982
       2.200
       2.380
       2.507
       2.579
       2.603
       2.589
       2.541
       2.455
       2.327
       2.160
       1.970
       1.772
       1.583
       1.412
       1.256
       1.116
       0.994
       0.890
       0.800
       0.709
       0.604
       0.479
       0.332
       0.168
      -0.004
      -0.181
      -0.363
      -0.562
      -0.785
      -1.030
      -1.292
      -1.564
      -1.842
      -2.118
      -2.381
      -2.614
      -2.806
      -2.954
      -3.065
      -3.146
      -3.200
      -3.229
      -3.232
      -3.208
      -3.159
      -3.086
      -2.995
      -2.887
      -2.765
      -2.630
      -2.493
      -2.363
      -2.247
      -2.140
      -2.034
      -1.919
      -1.791
      -1.643
      -1.475
      -1.286
      -1.074
      -0.831
      -0.550
      -0.232
       0.116
       0.487
       0.873
       1.266
       1.656
       2.025
       2.346
       2.594
       2.754
       2.828
       2.825
       2.763
       2.658
       2.526
       2.377
       2.212
       2.031
       1.834
       1.623
       1.403
       1.179
       0.956
       0.740
       0.537
       0.354
       0.198
       0.074
      -0.011
      -0.051
      -0.039
       0.022
       0.122
       0.253
       0.408
       0.581
       0.766
       0.955
       1.133
       1.275
       1.355
       1.356
       1.269
       1.096
       0.846
       0.534
       0.180
      -0.203
      -0.598
      -0.980
      -1.318
      -1.583
      -1.759
      -1.846
      -1.858
      -1.818
      -1.738
      -1.622
      -1.471
      -1.298
      -1.119
      -0.940
      -0.753
      -0.539
      -0.286
       0.001
       0.302
       0.593
       0.861
       1.115
       1.362
       1.599
       1.809
       1.972
       2.074
       2.112
       2.094
       2.034
       1.947
       1.850
       1.753
       1.666
       1.590
       1.522
       1.455
       1.387
       1.318
       1.251
       1.187
       1.124
       1.056
       0.975
       0.874
       0.749
       0.602
       0.435
       0.246
       0.034
      -0.205
      -0.469
      -0.756
      -1.058
      -1.366
      -1.672
      -1.969
      -2.249
      -2.503
      -2.724
      -2.910
      -3.061
      -3.179
      -3.262
      -3.309
      -3.313
      -3.267
      -3.170
      -3.019
      -2.813
      -2.549
      -2.230
      -1.865
      -1.471
      -1.066
      -0.667
      -0.281
       0.089
       0.443
       0.766
       1.036
       1.236
       1.362
       1.423
       1.431
       1.394
       1.319
       1.212
       1.083
       0.948
       0.825
       0.724
       0.653
       0.619
       0.628
       0.680
       0.773
       0.902
       1.061
       1.243
       1.438
       1.638
       1.838
       2.028
       2.199
       2.345
       2.461
       2.545
       2.596
       2.616
       2.602
       2.548
       2.446
       2.297
       2.106
       1.879
       1.618
       1.323
       1.002
       0.667
       0.331
       0.010
      -0.287
      -0.551
      -0.775
      -0.954
      -1.090
      -1.188
      -1.257
      -1.301
      -1.320
      -1.321
      -1.311
      -1.300
      -1.289
      -1.273
      -1.241
      -1.180
      -1.083
      -0.952
      -0.791
      -0.601
      -0.384
      -0.148
       0.090
       0.314
       0.509
       0.666
       0.778
       0.836
       0.833
       0.765
       0.632
       0.441
       0.204
      -0.069
      -0.363
      -0.661
      -0.950
      -1.222
      -1.475
      -1.702
      -1.897
      -2.056
      -2.182
      -2.278
      -2.347
      -2.384
      -2.385
      -2.346
      -2.272
      -2.172
      -2.056
      -1.927
      -1.788
      -1.639
      -1.481
      -1.316
      -1.154
      -1.010
      -0.897
      -0.823
      -0.793
      -0.811
      -0.879
      -0.991
      -1.131
      -1.281
      -1.421
      -1.533
      -1.607
      -1.640
      -1.642
      -1.616
      -1.559
      -1.465
      -1.323
      -1.132
      -0.894
      -0.626
      -0.345
      -0.062
       0.223
       0.512
       0.807
       1.103
       1.394
       1.670
       1.923
       2.147
       2.333
       2.469
       2.547
       2.567
       2.536
       2.460
       2.342
       2.190
       2.017
       1.837
       1.659
       1.489
       1.324
       1.164
       1.009
       0.867
       0.740
       0.622
       0.507
       0.388
       0.266
       0.142
       0.022
      -0.083
      -0.164
      -0.219
      -0.251
      -0.259
      -0.242
      -0.205
      -0.161
      -0.124
      -0.110
      -0.130
      -0.185
      -0.272
      -0.389
      -0.543
      -0.743
      -0.985
      -1.253
      -1.529
      -1.795
      -2.042
      -2.263
      -2.456
      -2.621
      -2.753
      -2.846
      -2.895
      -2.897
      -2.849
      -2.749
      -2.599
      -2.407
      -2.181
      -1.931
      -1.663
      -1.383
      -1.094
      -0.805
      -0.522
      -0.246
       0.028
       0.307
       0.591
       0.876
       1.155
       1.424
       1.680
       1.918
       2.137
       2.343
       2.544
       2.748
       2.958
       3.176
       3.398
       3.619
       3.832
       4.028
       4.200
       4.348
       4.476
       4.587
       4.677
       4.737
       4.757
       4.734
       4.678
       4.606
       4.529
       4.442
       4.329
       4.169
       3.958
       3.707
       3.437
       3.167
       2.906
       2.656
       2.414
       2.176
       1.944
       1.724
       1.521
       1.332
       1.153
       0.974
       0.787
       0.583
       0.356
       0.103
      -0.184
      -0.515
      -0.898
      -1.337
      -1.827
      -2.357
      -2.909
      -3.461
      -3.993
      -4.491
      -4.939
      -5.327
      -5.648
      -5.900
      -6.079
      -6.177
      -6.188
      -6.108
      -5.938
      -5.685
      -5.362
      -4.978
      -4.539
      -4.056
      -3.550
      -3.044
      -2.553
      -2.083
      -1.635
      -1.207
      -0.802
      -0.428
      -0.094
       0.192
       0.429
       0.628
       0.799
       0.951
       1.090
       1.223
       1.361
       1.518
       1.701
       1.911
       2.137
       2.366
       2.583
       2.779
       2.952
       3.100
       3.224
       3.321
       3.383
       3.406
       3.388
       3.338
       3.271
       3.197
       3.123
       3.044
       2.955
       2.845
       2.704
       2.521
       2.286
       1.991
       1.638
       1.239
       0.814
       0.381
      -0.043
      -0.449
      -0.835
      -1.201
      -1.546
      -1.868
      -2.167
      -2.443
      -2.696
      -2.926
      -3.141
      -3.351
      -3.560
      -3.765
      -3.951
      -4.105
      -4.217
      -4.283
      -4.296
      -4.250
      -4.140
      -3.967
      -3.742
      -3.486
      -3.220
      -2.957
      -2.705
      -2.466
      -2.240
      -2.024
      -1.817
      -1.616
      -1.415
      -1.203
      -0.971
      -0.714
      -0.434
      -0.141
       0.155
       0.446
       0.731
       1.012
       1.293
       1.568
       1.833
       2.079
       2.292
       2.452
       2.544
       2.567
       2.534
       2.461
       2.364
       2.251
       2.125
       1.989
       1.856
       1.740
       1.655
       1.601
       1.573
       1.562
       1.562
       1.564
       1.559
       1.534
       1.475
       1.372
       1.231
       1.063
       0.878
       0.675
       0.455
       0.224
      -0.007
      -0.232
      -0.451
      -0.664
      -0.872
      -1.076
      -1.272
      -1.454
      -1.620
      -1.768
      -1.894
      -1.990
      -2.047
      -2.060
      -2.024
      -1.940
      -1.814
      -1.656
      -1.478
      -1.286
      -1.079
      -0.858
      -0.627
      -0.398
      -0.185
       0.003
       0.165
       0.305
       0.424
       0.519
       0.580
       0.607
       0.603
       0.573
       0.525
       0.465
       0.399
       0.330
       0.259
       0.189
       0.122
       0.064
       0.022
       0.008
       0.031
       0.092
       0.187
       0.308
       0.435
       0.546
       0.619
       0.638
       0.596
       0.493
       0.337
       0.134
      -0.111
      -0.394
      -0.707
      -1.033
      -1.352
      -1.651
      -1.920
      -2.155
      -2.347
      -2.487
      -2.562
      -2.571
      -2.519
      -2.416
      -2.270
      -2.082
      -1.853
      -1.590
      -1.308
      -1.024
      -0.752
      -0.495
      -0.257
      -0.038
       0.158
       0.330
       0.478
       0.603
       0.702
       0.767
       0.796
       0.798
       0.784
       0.763
       0.733
       0.693
       0.644
       0.597
       0.566
       0.563
       0.587
       0.631
       0.680
       0.730
       0.781
       0.840
       0.909
       0.985
       1.058
       1.111
       1.135
       1.130
       1.102
       1.062
       1.025
       1.000
       0.994
       1.007
       1.031
       1.059
       1.083
       1.104
       1.121
       1.139
       1.156
       1.166
       1.166
       1.155
       1.141
       1.134
       1.138
       1.150
       1.154
       1.138
       1.095
       1.034
       0.964
       0.892
       0.823
       0.754
       0.679
       0.588
       0.479
       0.359
       0.243
       0.147
       0.079
       0.036
       0.013
       0.008
       0.021
       0.054
       0.104
       0.164
       0.231
       0.305
       0.380
       0.442
       0.486
       0.513
       0.539
       0.574
       0.623
       0.682
       0.741
       0.791
       0.828
       0.850
       0.857
       0.842
       0.799
       0.728
       0.640
       0.549
       0.464
       0.385
       0.305
       0.223
       0.143
       0.076
       0.027
      -0.009
      -0.041
      -0.076
      -0.113
      -0.150
      -0.187
      -0.229
      -0.280
      -0.347
      -0.430
      -0.522
      -0.607
      -0.675
      -0.724
      -0.753
      -0.760
      -0.739
      -0.688
      -0.603
      -0.487
      -0.354
      -0.228
      -0.123
      -0.045
       0.007
       0.042
       0.069
       0.099
       0.138
       0.188
       0.254
       0.334
       0.418
       0.492
       0.545
       0.577
       0.591
       0.592
       0.587
       0.579
       0.569
       0.555
       0.544
       0.539
       0.538
       0.535
       0.526
       0.517
       0.509
       0.497
       0.464
       0.397
       0.290
       0.152
       0.001
      -0.141
      -0.265
      -0.374
      -0.478
      -0.587
      -0.704
      -0.826
      -0.948
      -1.073
      -1.206
      -1.351
      -1.504
      -1.651
      -1.782
      -1.889
      -1.967
      -2.015
      -2.033
      -2.022
      -1.978
      -1.900
      -1.791
      -1.660
      -1.521
      -1.393
      -1.291
      -1.227
      -1.205
      -1.224
      -1.285
      -1.390
      -1.535
      -1.710
      -1.907
      -2.108
      -2.296
      -2.454
      -2.569
      -2.638
      -2.654
      -2.612
      -2.511
      -2.352
      -2.134
      -1.859
      -1.535
      -1.175
      -0.795
      -0.411
      -0.039
       0.308
       0.619
       0.894
       1.140
       1.365
       1.572
       1.759
       1.920
       2.047
       2.142
       2.206
       2.238
       2.238
       2.211
       2.165
       2.104
       2.027
       1.937
       1.843
       1.757
       1.693
       1.654
       1.636
       1.631
       1.629
       1.625
       1.614
       1.590
       1.551
       1.495
       1.418
       1.318
       1.190
       1.037
