Origin Time       1/5/2013 06:57:12	  UTC
Lat.              33.1 N	
Long.             75.8 E	
Depth (Km)         15.0
Magnitude         5.8
 Region           JK-HP-Border                                                     
 Above details taken from IMD 
    
Station Code      MOG
Station Lat.       30.825  N
Station Long.      75.155  E
Station Height(m)  237.0
Site Class        C   Vs30 between 200 m/sec to 375 m/sec *  
Record Time       01.05.2013 06:58:12.649 UTC
Sampling Rate     200. Hz
 Record Duration   65.950 Sec.
 Direction         N-S (N positive)
Max. Acceleration     -5.731 cm/sec**2
     
  * For reference see Site Classification link of website 
     
 Base Line Corrected and Low Pass Filtered (Cut Off at 35 Hz) Time History
 Acceleration data in cm/sec**2
    
[...]
      -0.057
       0.050
       0.154
       0.246
       0.322
       0.387
       0.448
       0.504
       0.548
       0.578
       0.595
       0.602
       0.601
       0.588
       0.560
       0.513
       0.454
       0.400
       0.361
       0.337
       0.318
       0.293
       0.262
       0.231
       0.207
       0.191
       0.178
       0.161
       0.140
       0.122
       0.115
       0.117
       0.126
       0.138
       0.156
       0.181
       0.213
       0.247
       0.281
       0.312
       0.343
       0.369
       0.383
       0.380
       0.357
       0.319
       0.277
       0.238
       0.205
       0.172
       0.135
       0.094
       0.054
       0.021
       0.001
      -0.010
      -0.016
      -0.020
      -0.026
      -0.036
      -0.054
      -0.090
      -0.149
      -0.236
      -0.340
      -0.445
      -0.534
      -0.599
      -0.644
      -0.678
      -0.706
      -0.728
      -0.733
      -0.714
      -0.678
      -0.638
      -0.609
      -0.593
      -0.583
      -0.569
      -0.549
      -0.528
      -0.508
      -0.481
      -0.435
      -0.359
      -0.258
      -0.152
      -0.064
      -0.003
       0.032
       0.053
       0.067
       0.073
       0.065
       0.039
       0.000
      -0.043
      -0.080
      -0.107
      -0.120
      -0.119
      -0.101
      -0.070
      -0.030
       0.015
       0.060
       0.102
       0.137
       0.164
       0.185
       0.203
       0.224
       0.250
       0.279
       0.304
       0.314
       0.310
       0.299
       0.294
       0.303
       0.332
       0.375
       0.425
       0.475
       0.522
       0.563
       0.597
       0.621
       0.636
       0.647
       0.657
       0.669
       0.676
       0.664
       0.622
       0.546
       0.444
       0.325
       0.193
       0.049
      -0.108
      -0.271
      -0.429
      -0.573
      -0.698
      -0.806
      -0.895
      -0.958
      -0.989
      -0.993
      -0.980
      -0.963
      -0.947
      -0.934
      -0.922
      -0.903
      -0.864
      -0.797
      -0.698
      -0.575
      -0.439
      -0.300
      -0.170
      -0.051
       0.054
       0.143
       0.213
       0.261
       0.286
       0.291
       0.278
       0.251
       0.214
       0.171
       0.130
       0.102
       0.093
       0.101
       0.112
       0.111
       0.086
       0.037
      -0.030
      -0.106
      -0.182
      -0.253
      -0.317
      -0.370
      -0.411
      -0.442
      -0.470
      -0.496
      -0.517
      -0.527
      -0.518
      -0.491
      -0.452
      -0.411
      -0.379
      -0.357
      -0.338
      -0.309
      -0.260
      -0.190
      -0.109
      -0.032
       0.033
       0.083
       0.122
       0.151
       0.173
       0.191
       0.209
       0.230
       0.253
       0.281
       0.313
       0.344
       0.372
       0.393
       0.408
       0.416
       0.413
       0.393
       0.350
       0.286
       0.207
       0.124
       0.050
      -0.011
      -0.053
      -0.071
      -0.061
      -0.016
       0.063
       0.173
       0.304
       0.442
       0.578
       0.703
       0.818
       0.925
       1.025
       1.115
       1.184
       1.220
       1.220
       1.191
       1.149
       1.108
       1.073
       1.041
       1.009
       0.974
       0.931
       0.873
       0.799
       0.713
       0.622
       0.535
       0.452
       0.369
       0.284
       0.204
       0.143
       0.111
       0.110
       0.132
       0.162
       0.187
       0.197
       0.187
       0.155
       0.101
       0.023
      -0.076
      -0.191
      -0.313
      -0.440
      -0.569
      -0.698
      -0.821
      -0.934
      -1.035
      -1.122
      -1.194
      -1.243
      -1.262
      -1.249
      -1.212
      -1.161
      -1.104
      -1.040
      -0.966
      -0.886
      -0.813
      -0.757
      -0.720
      -0.697
      -0.674
      -0.649
      -0.622
      -0.593
      -0.553
      -0.487
      -0.387
      -0.256
      -0.109
       0.035
       0.160
       0.258
       0.332
       0.385
       0.419
       0.436
       0.438
       0.428
       0.408
       0.379
       0.348
       0.326
       0.326
       0.356
       0.420
       0.514
       0.626
       0.747
       0.863
       0.961
       1.031
       1.067
       1.070
       1.050
       1.015
       0.975
       0.938
       0.909
       0.892
       0.882
       0.873
       0.857
       0.830
       0.800
       0.771
       0.750
       0.734
       0.717
       0.697
       0.668
       0.635
       0.604
       0.592
       0.605
       0.638
       0.673
       0.693
       0.690
       0.663
       0.616
       0.547
       0.456
       0.339
       0.199
       0.037
      -0.143
      -0.337
      -0.540
      -0.737
      -0.914
      -1.064
      -1.185
      -1.279
      -1.348
      -1.395
      -1.426
      -1.454
      -1.485
      -1.522
      -1.556
      -1.573
      -1.564
      -1.525
      -1.460
      -1.373
      -1.264
      -1.135
      -0.987
      -0.828
      -0.664
      -0.503
      -0.355
      -0.233
      -0.146
      -0.095
      -0.076
      -0.078
      -0.095
      -0.124
      -0.162
      -0.205
      -0.244
      -0.279
      -0.318
      -0.371
      -0.444
      -0.536
      -0.641
      -0.752
      -0.871
      -1.000
      -1.136
      -1.264
      -1.362
      -1.416
      -1.422
      -1.387
      -1.316
      -1.212
      -1.075
      -0.901
      -0.696
      -0.469
      -0.227
       0.026
       0.288
       0.554
       0.819
       1.080
       1.335
       1.581
       1.811
       2.017
       2.195
       2.340
       2.447
       2.512
       2.533
       2.510
       2.442
       2.334
       2.192
       2.028
       1.853
       1.677
       1.508
       1.351
       1.209
       1.083
       0.968
       0.858
       0.746
       0.636
       0.534
       0.441
       0.354
       0.266
       0.177
       0.090
       0.012
      -0.052
      -0.102
      -0.141
      -0.172
      -0.198
      -0.223
      -0.248
      -0.271
      -0.291
      -0.308
      -0.326
      -0.346
      -0.368
      -0.396
      -0.437
      -0.505
      -0.612
      -0.761
      -0.950
      -1.173
      -1.423
      -1.691
      -1.963
      -2.220
      -2.444
      -2.619
      -2.738
      -2.801
      -2.808
      -2.766
      -2.686
      -2.579
      -2.458
      -2.330
      -2.198
      -2.061
      -1.913
      -1.751
      -1.566
      -1.350
      -1.093
      -0.790
      -0.443
      -0.066
       0.323
       0.705
       1.062
       1.375
       1.634
       1.828
       1.953
       2.008
       1.998
       1.928
       1.811
       1.661
       1.486
       1.291
       1.072
       0.830
       0.571
       0.301
       0.022
      -0.265
      -0.555
      -0.834
      -1.089
      -1.311
      -1.497
      -1.651
      -1.771
      -1.857
      -1.903
      -1.908
      -1.875
      -1.811
      -1.723
      -1.612
      -1.484
      -1.348
      -1.217
      -1.106
      -1.020
      -0.953
      -0.893
      -0.826
      -0.749
      -0.661
      -0.568
      -0.474
      -0.383
      -0.299
      -0.221
      -0.148
      -0.081
      -0.019
       0.034
       0.069
       0.079
       0.063
       0.032
       0.004
      -0.008
       0.001
       0.034
       0.093
       0.175
       0.276
       0.388
       0.502
       0.610
       0.715
       0.825
       0.944
       1.073
       1.211
       1.357
       1.516
       1.697
       1.906
       2.147
       2.409
       2.679
       2.942
       3.192
       3.420
       3.619
       3.775
       3.876
       3.923
       3.928
       3.909
       3.884
       3.860
       3.833
       3.795
       3.744
       3.684
       3.622
       3.562
       3.503
       3.433
       3.338
       3.205
       3.034
       2.836
       2.619
       2.388
       2.139
       1.862
       1.557
       1.232
       0.905
       0.589
       0.292
       0.010
      -0.266
      -0.546
      -0.836
      -1.132
      -1.429
      -1.721
      -2.006
      -2.284
      -2.546
      -2.776
      -2.953
      -3.058
      -3.086
      -3.040
      -2.926
      -2.748
      -2.513
      -2.228
      -1.893
      -1.508
      -1.078
      -0.615
      -0.145
       0.307
       0.723
       1.093
       1.418
       1.700
       1.940
       2.137
       2.290
       2.399
       2.467
       2.494
       2.475
       2.401
       2.266
       2.073
       1.831
       1.553
       1.250
       0.926
       0.583
       0.221
      -0.154
      -0.529
      -0.884
      -1.201
      -1.472
      -1.703
      -1.907
      -2.094
      -2.262
      -2.404
      -2.517
      -2.604
      -2.673
      -2.726
      -2.761
      -2.768
      -2.738
      -2.673
      -2.587
      -2.499
      -2.424
      -2.367
      -2.328
      -2.311
      -2.325
      -2.374
      -2.458
      -2.573
      -2.714
      -2.876
      -3.045
      -3.202
      -3.332
      -3.436
      -3.528
      -3.628
      -3.745
      -3.881
      -4.029
      -4.187
      -4.352
      -4.516
      -4.671
      -4.800
      -4.883
      -4.901
      -4.837
      -4.681
      -4.434
      -4.104
      -3.706
      -3.255
      -2.763
      -2.235
      -1.679
      -1.099
      -0.502
       0.101
       0.698
       1.277
       1.832
       2.359
       2.850
       3.293
       3.679
       4.007
       4.282
       4.506
       4.664
       4.734
       4.694
       4.537
       4.281
       3.950
       3.575
       3.178
       2.774
       2.378
       2.003
       1.669
       1.391
       1.179
       1.028
       0.928
       0.873
       0.858
       0.882
       0.938
       1.017
       1.107
       1.204
       1.306
       1.409
       1.498
       1.553
       1.558
       1.507
       1.408
       1.272
       1.108
       0.920
       0.706
       0.462
       0.189
      -0.101
      -0.384
      -0.633
      -0.823
      -0.939
      -0.976
      -0.941
      -0.840
      -0.679
      -0.465
      -0.210
       0.065
       0.338
       0.589
       0.807
       0.988
       1.135
       1.258
       1.368
       1.476
       1.588
       1.698
       1.795
       1.868
       1.917
       1.947
       1.965
       1.978
       1.989
       2.002
       2.019
       2.043
       2.076
       2.117
       2.158
       2.185
       2.188
       2.166
       2.119
       2.049
       1.950
       1.814
       1.635
       1.415
       1.165
       0.899
       0.624
       0.343
       0.051
      -0.255
      -0.579
      -0.922
      -1.272
      -1.612
      -1.927
      -2.204
      -2.440
      -2.629
      -2.765
      -2.849
      -2.887
      -2.895
      -2.892
      -2.889
      -2.888
      -2.886
      -2.880
      -2.867
      -2.842
      -2.800
      -2.733
      -2.630
      -2.481
      -2.279
      -2.028
      -1.740
      -1.432
      -1.121
      -0.827
      -0.568
      -0.360
      -0.207
      -0.106
      -0.046
      -0.011
       0.016
       0.046
       0.089
       0.146
       0.208
       0.259
       0.284
       0.276
       0.235
       0.170
       0.090
       0.006
      -0.072
      -0.139
      -0.187
      -0.207
      -0.187
      -0.120
      -0.004
       0.156
       0.347
       0.552
       0.757
       0.949
       1.113
       1.232
       1.295
       1.302
       1.264
       1.197
       1.115
       1.026
       0.932
       0.831
       0.723
       0.607
       0.487
       0.362
       0.230
       0.089
      -0.063
      -0.223
      -0.387
      -0.556
      -0.731
      -0.904
      -1.066
      -1.203
      -1.310
      -1.395
      -1.469
      -1.541
      -1.609
      -1.665
      -1.700
      -1.713
      -1.707
      -1.682
      -1.634
      -1.559
      -1.454
      -1.320
      -1.161
      -0.983
      -0.794
      -0.603
      -0.416
      -0.231
      -0.044
       0.146
       0.335
       0.515
       0.674
       0.805
       0.909
       0.990
       1.052
       1.095
       1.119
       1.127
       1.120
       1.100
       1.065
       1.017
       0.963
       0.910
       0.865
       0.821
       0.768
       0.696
       0.597
       0.473
       0.326
       0.165
       0.004
      -0.144
      -0.269
      -0.370
      -0.454
      -0.532
      -0.613
      -0.697
      -0.779
      -0.847
      -0.890
      -0.900
      -0.879
      -0.835
      -0.778
      -0.716
      -0.650
      -0.584
      -0.518
      -0.459
      -0.404
      -0.346
      -0.273
      -0.185
      -0.090
      -0.001
       0.073
       0.135
       0.195
       0.268
       0.361
       0.476
       0.608
       0.759
       0.932
       1.133
       1.360
       1.603
       1.853
       2.102
       2.349
       2.590
       2.821
       3.030
       3.211
       3.356
       3.465
       3.542
       3.598
       3.645
       3.692
       3.736
       3.767
       3.774
       3.751
       3.699
       3.624
       3.523
       3.394
       3.231
       3.035
       2.812
       2.566
       2.299
       2.018
       1.730
       1.443
       1.162
       0.880
       0.588
       0.274
      -0.070
      -0.445
      -0.845
      -1.264
      -1.699
      -2.145
      -2.593
      -3.033
      -3.453
      -3.846
      -4.212
      -4.550
      -4.853
      -5.111
      -5.315
      -5.466
      -5.575
      -5.653
      -5.706
      -5.731
      -5.723
      -5.674
      -5.583
      -5.454
      -5.290
      -5.087
      -4.836
      -4.528
      -4.168
      -3.766
      -3.341
      -2.910
      -2.485
      -2.070
      -1.669
      -1.281
      -0.910
      -0.561
      -0.242
       0.043
       0.294
       0.520
       0.730
       0.934
       1.134
       1.325
       1.500
       1.652
       1.778
       1.883
       1.974
       2.059
       2.139
       2.209
       2.261
       2.289
       2.290
       2.275
       2.254
       2.240
       2.240
       2.250
       2.256
       2.237
       2.178
       2.076
       1.935
       1.757
       1.545
       1.306
       1.048
       0.784
       0.523
       0.277
       0.060
      -0.121
      -0.260
      -0.355
      -0.406
      -0.414
      -0.377
      -0.301
      -0.190
      -0.057
       0.078
       0.196
       0.283
       0.336
       0.354
       0.330
       0.258
       0.138
      -0.018
      -0.190
      -0.358
      -0.508
      -0.627
      -0.696
      -0.692
      -0.598
      -0.413
      -0.147
       0.182
       0.558
       0.963
       1.376
       1.779
       2.155
       2.501
       2.818
       3.110
       3.372
       3.591
       3.750
       3.842
       3.867
       3.835
       3.757
       3.639
       3.477
       3.263
       2.992
       2.668
       2.300
       1.899
       1.476
       1.050
       0.648
       0.298
       0.016
      -0.191
      -0.327
      -0.404
      -0.426
      -0.399
      -0.329
      -0.225
      -0.096
       0.051
       0.214
       0.387
       0.559
       0.715
       0.837
       0.900
       0.887
       0.788
       0.606
       0.349
       0.023
      -0.364
      -0.796
      -1.251
      -1.706
      -2.144
      -2.561
      -2.954
      -3.317
      -3.634
      -3.889
      -4.076
      -4.202
      -4.284
      -4.335
      -4.363
      -4.371
      -4.359
      -4.326
      -4.273
      -4.198
      -4.103
      -3.989
      -3.859
      -3.711
      -3.534
      -3.309
      -3.026
      -2.686
      -2.307
      -1.917
      -1.540
      -1.198
      -0.901
      -0.655
      -0.464
      -0.328
      -0.245
      -0.206
      -0.204
      -0.229
      -0.277
      -0.338
      -0.398
      -0.437
      -0.437
      -0.390
      -0.296
      -0.167
      -0.020
       0.124
       0.247
       0.327
       0.350
       0.308
       0.202
       0.046
      -0.143
      -0.345
      -0.540
      -0.709
      -0.830
      -0.890
      -0.884
      -0.820
      -0.709
      -0.563
      -0.392
      -0.208
      -0.023
       0.146
       0.288
       0.400
       0.491
       0.573
       0.658
       0.751
       0.855
       0.972
       1.110
       1.274
       1.478
       1.733
       2.044
       2.406
       2.804
       3.216
       3.617
       3.980
       4.282
       4.512
       4.667
       4.752
       4.778
       4.759
       4.711
       4.644
       4.563
       4.467
       4.349
       4.202
       4.022
       3.816
       3.595
       3.373
       3.154
       2.931
       2.691
       2.428
       2.147
       1.859
       1.574
       1.290
       1.002
       0.707
       0.408
       0.107
      -0.198
      -0.511
      -0.838
      -1.175
      -1.520
      -1.866
      -2.203
      -2.519
      -2.804
      -3.052
      -3.267
      -3.458
      -3.633
      -3.796
      -3.946
      -4.076
      -4.183
      -4.268
      -4.334
      -4.382
      -4.405
      -4.397
      -4.351
      -4.266
      -4.141
      -3.979
      -3.787
      -3.573
      -3.347
      -3.121
      -2.900
      -2.685
      -2.466
      -2.231
      -1.969
      -1.676
      -1.351
      -0.999
      -0.624
      -0.234
       0.165
       0.569
       0.971
       1.366
       1.747
       2.108
       2.441
       2.740
       2.997
       3.206
       3.363
       3.468
       3.521
       3.527
       3.492
       3.423
       3.322
       3.191
       3.033
       2.855
       2.673
       2.494
       2.320
       2.141
       1.952
       1.758
       1.570
       1.394
       1.231
       1.074
       0.922
       0.771
       0.614
       0.445
       0.257
       0.055
      -0.152
      -0.352
      -0.547
      -0.741
      -0.938
      -1.133
      -1.313
      -1.471
      -1.602
      -1.705
      -1.781
      -1.829
      -1.844
      -1.830
      -1.791
      -1.737
      -1.673
      -1.595
      -1.496
      -1.367
      -1.206
      -1.009
      -0.774
      -0.504
      -0.210
       0.086
       0.359
       0.592
       0.784
       0.944
       1.088
       1.225
       1.356
       1.479
       1.589
       1.684
       1.764
       1.831
       1.882
       1.919
       1.943
       1.956
       1.961
       1.954
       1.926
       1.871
       1.782
       1.657
       1.500
       1.314
       1.105
       0.882
       0.657
       0.441
       0.241
       0.053
      -0.124
      -0.285
      -0.424
      -0.535
      -0.616
      -0.673
      -0.709
      -0.728
      -0.736
      -0.742
      -0.756
      -0.784
      -0.820
      -0.858
      -0.898
      -0.945
      -1.012
      -1.105
      -1.223
      -1.360
      -1.511
      -1.669
      -1.828
      -1.988
      -2.147
      -2.302
      -2.448
      -2.583
      -2.704
      -2.808
      -2.883
      -2.919
      -2.908
      -2.848
      -2.741
      -2.593
      -2.413
      -2.208
      -1.982
      -1.736
      -1.469
      -1.175
      -0.851
      -0.502
      -0.136
       0.233
       0.598
       0.951
       1.286
       1.594
       1.868
       2.101
       2.284
       2.411
       2.476
       2.480
       2.432
       2.346
       2.229
       2.079
       1.892
       1.668
       1.418
       1.154
       0.883
