Origin Time       1/5/2013 06:57:12	 
Lat.              33.1 N	
Long.             75.8 E	
Depth (Km)         15.0
Magnitude         5.8
 Region           JK-HP-Border                                                     
 Above details taken from IMD 
   
Station Code      MOG
Station Lat.       30.825
Station Long.      75.155
Station Height(m)  237.0
Site Class        C   Vs30 between 200 m/sec to 375 m/sec *  
Record Time       01.05.2013 06:58:12.649
Sampling Rate     200. Hz
 Record Duration   65.950 Sec.
 Direction         Vert. (Up positive)
Max. Acceleration      6.117 cm/sec**2
     
  * For reference see Site Classification link of website 
     
 Base Line Corrected and Low Pass Filtered (Cut Off at 35 Hz) Time History
 Acceleration data in cm/sec**2
    
[...]
       0.101
       0.070
       0.049
       0.030
       0.007
      -0.022
      -0.049
      -0.062
      -0.064
      -0.066
      -0.075
      -0.084
      -0.074
      -0.032
       0.044
       0.142
       0.240
       0.307
       0.327
       0.305
       0.257
       0.194
       0.119
       0.044
      -0.014
      -0.050
      -0.076
      -0.106
      -0.149
      -0.207
      -0.274
      -0.339
      -0.393
      -0.433
      -0.468
      -0.501
      -0.537
      -0.578
      -0.621
      -0.653
      -0.657
      -0.612
      -0.517
      -0.389
      -0.263
      -0.165
      -0.095
      -0.025
       0.068
       0.183
       0.292
       0.364
       0.390
       0.394
       0.403
       0.416
       0.404
       0.349
       0.271
       0.216
       0.218
       0.263
       0.305
       0.298
       0.230
       0.128
       0.030
      -0.036
      -0.070
      -0.094
      -0.130
      -0.186
      -0.262
      -0.351
      -0.440
      -0.515
      -0.556
      -0.548
      -0.488
      -0.386
      -0.263
      -0.137
      -0.018
       0.097
       0.214
       0.335
       0.449
       0.536
       0.583
       0.590
       0.574
       0.556
       0.537
       0.509
       0.470
       0.434
       0.417
       0.416
       0.416
       0.396
       0.348
       0.275
       0.192
       0.109
       0.030
      -0.053
      -0.141
      -0.228
      -0.308
      -0.387
      -0.475
      -0.565
      -0.642
      -0.686
      -0.676
      -0.600
      -0.469
      -0.308
      -0.140
       0.033
       0.209
       0.372
       0.501
       0.590
       0.644
       0.670
       0.671
       0.652
       0.611
       0.542
       0.452
       0.363
       0.288
       0.225
       0.165
       0.113
       0.077
       0.049
       0.008
      -0.066
      -0.178
      -0.319
      -0.469
      -0.613
      -0.742
      -0.857
      -0.951
      -1.008
      -1.009
      -0.952
      -0.847
      -0.698
      -0.501
      -0.254
       0.026
       0.297
       0.504
       0.610
       0.614
       0.548
       0.444
       0.324
       0.209
       0.119
       0.073
       0.069
       0.088
       0.103
       0.098
       0.078
       0.071
       0.101
       0.164
       0.232
       0.274
       0.275
       0.237
       0.168
       0.074
      -0.040
      -0.165
      -0.282
      -0.367
      -0.408
      -0.416
      -0.406
      -0.385
      -0.343
      -0.262
      -0.137
       0.025
       0.197
       0.353
       0.473
       0.551
       0.583
       0.567
       0.506
       0.408
       0.288
       0.160
       0.041
      -0.056
      -0.128
      -0.187
      -0.247
      -0.313
      -0.380
      -0.438
      -0.473
      -0.471
      -0.420
      -0.325
      -0.210
      -0.103
      -0.030
       0.002
       0.000
      -0.023
      -0.061
      -0.117
      -0.182
      -0.221
      -0.191
      -0.077
       0.089
       0.251
       0.361
       0.408
       0.420
       0.440
       0.491
       0.550
       0.572
       0.531
       0.439
       0.330
       0.235
       0.170
       0.142
       0.149
       0.181
       0.224
       0.270
       0.316
       0.356
       0.382
       0.383
       0.352
       0.291
       0.209
       0.115
       0.007
      -0.121
      -0.267
      -0.409
      -0.516
      -0.571
      -0.582
      -0.577
      -0.577
      -0.579
      -0.561
      -0.501
      -0.399
      -0.278
      -0.169
      -0.089
      -0.036
       0.011
       0.072
       0.153
       0.243
       0.329
       0.398
       0.442
       0.461
       0.455
       0.427
       0.373
       0.285
       0.165
       0.025
      -0.121
      -0.268
      -0.419
      -0.575
      -0.721
      -0.830
      -0.886
      -0.893
      -0.875
      -0.857
      -0.850
      -0.841
      -0.807
      -0.728
      -0.600
      -0.431
      -0.236
      -0.029
       0.160
       0.305
       0.393
       0.446
       0.500
       0.578
       0.665
       0.726
       0.732
       0.693
       0.649
       0.632
       0.637
       0.630
       0.589
       0.529
       0.479
       0.451
       0.425
       0.364
       0.253
       0.108
      -0.037
      -0.163
      -0.277
      -0.396
      -0.517
      -0.623
      -0.699
      -0.743
      -0.773
      -0.806
      -0.843
      -0.863
      -0.834
      -0.749
      -0.635
      -0.532
      -0.466
      -0.428
      -0.381
      -0.282
      -0.120
       0.085
       0.289
       0.455
       0.564
       0.615
       0.617
       0.589
       0.556
       0.540
       0.553
       0.581
       0.596
       0.574
       0.510
       0.421
       0.331
       0.263
       0.235
       0.253
       0.311
       0.388
       0.454
       0.475
       0.434
       0.339
       0.225
       0.127
       0.057
       0.002
      -0.057
      -0.132
      -0.211
      -0.271
      -0.298
      -0.303
      -0.312
      -0.331
      -0.348
      -0.342
      -0.306
      -0.259
      -0.240
      -0.270
      -0.328
      -0.361
      -0.325
      -0.219
      -0.081
       0.046
       0.141
       0.213
       0.283
       0.360
       0.425
       0.455
       0.448
       0.426
       0.411
       0.407
       0.408
       0.398
       0.364
       0.306
       0.248
       0.225
       0.258
       0.348
       0.474
       0.594
       0.655
       0.625
       0.511
       0.361
       0.224
       0.129
       0.074
       0.045
       0.026
       0.009
      -0.002
      -0.007
      -0.011
      -0.012
       0.002
       0.047
       0.125
       0.211
       0.275
       0.293
       0.254
       0.169
       0.062
      -0.038
      -0.118
      -0.173
      -0.198
      -0.186
      -0.138
      -0.067
       0.005
       0.057
       0.086
       0.106
       0.140
       0.191
       0.230
       0.224
       0.159
       0.048
      -0.086
      -0.221
      -0.354
      -0.499
      -0.668
      -0.854
      -1.026
      -1.152
      -1.218
      -1.225
      -1.188
      -1.128
      -1.065
      -1.016
      -0.985
      -0.971
      -0.961
      -0.930
      -0.853
      -0.721
      -0.550
      -0.367
      -0.202
      -0.071
       0.031
       0.127
       0.244
       0.395
       0.579
       0.779
       0.977
       1.148
       1.264
       1.307
       1.268
       1.156
       1.001
       0.848
       0.731
       0.654
       0.595
       0.526
       0.428
       0.294
       0.129
      -0.050
      -0.220
      -0.365
      -0.475
      -0.553
      -0.614
      -0.684
      -0.767
      -0.833
      -0.830
      -0.729
      -0.550
      -0.347
      -0.177
      -0.054
       0.053
       0.189
       0.360
       0.524
       0.632
       0.670
       0.654
       0.604
       0.529
       0.428
       0.307
       0.179
       0.070
      -0.004
      -0.050
      -0.102
      -0.190
      -0.325
      -0.494
      -0.669
      -0.820
      -0.931
      -1.003
      -1.058
      -1.110
      -1.148
      -1.149
      -1.104
      -1.018
      -0.908
      -0.777
      -0.607
      -0.374
      -0.077
       0.245
       0.528
       0.728
       0.847
       0.918
       0.966
       0.989
       0.970
       0.904
       0.821
       0.765
       0.762
       0.786
       0.782
       0.708
       0.573
       0.431
       0.330
       0.273
       0.228
       0.161
       0.069
      -0.025
      -0.098
      -0.144
      -0.172
      -0.195
      -0.209
      -0.197
      -0.150
      -0.078
       0.002
       0.087
       0.190
       0.327
       0.497
       0.683
       0.873
       1.072
       1.293
       1.534
       1.766
       1.944
       2.035
       2.032
       1.947
       1.800
       1.605
       1.374
       1.128
       0.896
       0.696
       0.515
       0.325
       0.113
      -0.098
      -0.272
      -0.389
      -0.459
      -0.512
      -0.577
      -0.664
      -0.757
      -0.841
      -0.916
      -0.992
      -1.072
      -1.145
      -1.199
      -1.238
      -1.280
      -1.340
      -1.426
      -1.531
      -1.640
      -1.741
      -1.830
      -1.900
      -1.935
      -1.921
      -1.868
      -1.812
      -1.785
      -1.802
      -1.849
      -1.895
      -1.915
      -1.911
      -1.900
      -1.892
      -1.872
      -1.821
      -1.738
      -1.641
      -1.545
      -1.439
      -1.293
      -1.084
      -0.816
      -0.530
      -0.271
      -0.061
       0.118
       0.305
       0.522
       0.755
       0.964
       1.122
       1.226
       1.299
       1.366
       1.439
       1.512
       1.571
       1.610
       1.626
       1.607
       1.536
       1.394
       1.185
       0.926
       0.646
       0.369
       0.109
      -0.138
      -0.389
      -0.656
      -0.938
      -1.217
      -1.477
      -1.707
      -1.904
      -2.071
      -2.213
      -2.325
      -2.400
      -2.435
      -2.436
      -2.406
      -2.341
      -2.224
      -2.044
      -1.803
      -1.521
      -1.224
      -0.928
      -0.632
      -0.336
      -0.044
       0.238
       0.513
       0.798
       1.110
       1.448
       1.780
       2.061
       2.269
       2.419
       2.547
       2.685
       2.842
       3.012
       3.197
       3.406
       3.646
       3.895
       4.102
       4.214
       4.198
       4.060
       3.833
       3.552
       3.236
       2.889
       2.524
       2.169
       1.859
       1.608
       1.414
       1.269
       1.177
       1.154
       1.215
       1.359
       1.551
       1.733
       1.850
       1.872
       1.807
       1.687
       1.548
       1.408
       1.261
       1.089
       0.876
       0.624
       0.343
       0.046
      -0.253
      -0.535
      -0.775
      -0.963
      -1.109
      -1.244
      -1.405
      -1.606
      -1.838
      -2.079
      -2.314
      -2.542
      -2.763
      -2.967
      -3.138
      -3.266
      -3.353
      -3.407
      -3.440
      -3.449
      -3.419
      -3.326
      -3.168
      -2.962
      -2.731
      -2.492
      -2.248
      -2.008
      -1.786
      -1.597
      -1.444
      -1.310
      -1.169
      -1.004
      -0.821
      -0.639
      -0.470
      -0.306
      -0.124
       0.089
       0.331
       0.589
       0.848
       1.091
       1.306
       1.488
       1.636
       1.754
       1.845
       1.906
       1.932
       1.916
       1.856
       1.767
       1.678
       1.615
       1.575
       1.533
       1.450
       1.298
       1.079
       0.827
       0.590
       0.398
       0.250
       0.126
       0.006
      -0.132
      -0.307
      -0.531
      -0.806
      -1.124
      -1.464
      -1.799
      -2.109
      -2.400
      -2.695
      -3.017
      -3.367
      -3.726
      -4.055
      -4.308
      -4.448
      -4.459
      -4.339
      -4.087
      -3.710
      -3.225
      -2.653
      -2.013
      -1.322
      -0.598
       0.144
       0.886
       1.602
       2.267
       2.864
       3.390
       3.845
       4.226
       4.534
       4.774
       4.946
       5.041
       5.043
       4.939
       4.722
       4.404
       4.008
       3.564
       3.086
       2.578
       2.047
       1.518
       1.022
       0.578
       0.187
      -0.165
      -0.487
      -0.773
      -0.997
      -1.131
      -1.161
      -1.094
      -0.947
      -0.734
      -0.472
      -0.188
       0.094
       0.354
       0.581
       0.768
       0.904
       0.972
       0.957
       0.861
       0.707
       0.517
       0.290
      -0.007
      -0.404
      -0.899
      -1.443
      -1.962
      -2.397
      -2.731
      -2.985
      -3.182
      -3.326
      -3.400
      -3.387
      -3.277
      -3.078
      -2.812
      -2.509
      -2.193
      -1.883
      -1.586
      -1.296
      -0.988
      -0.637
      -0.236
       0.205
       0.672
       1.151
       1.627
       2.079
       2.486
       2.828
       3.089
       3.266
       3.369
       3.405
       3.362
       3.225
       2.994
       2.685
       2.319
       1.918
       1.510
       1.113
       0.735
       0.372
       0.023
      -0.312
      -0.640
      -0.965
      -1.290
      -1.609
      -1.913
      -2.186
      -2.410
      -2.579
      -2.694
      -2.748
      -2.726
      -2.627
      -2.475
      -2.305
      -2.134
      -1.955
      -1.743
      -1.473
      -1.150
      -0.809
      -0.492
      -0.210
       0.060
       0.345
       0.655
       0.970
       1.258
       1.489
       1.660
       1.782
       1.873
       1.935
       1.961
       1.949
       1.910
       1.857
       1.798
       1.735
       1.668
       1.591
       1.498
       1.390
       1.272
       1.149
       1.022
       0.882
       0.717
       0.512
       0.268
       0.002
      -0.256
      -0.475
      -0.626
      -0.686
      -0.653
      -0.538
      -0.361
      -0.134
       0.127
       0.399
       0.657
       0.888
       1.084
       1.235
       1.323
       1.323
       1.212
       0.969
       0.594
       0.114
      -0.423
      -0.971
      -1.504
      -2.027
      -2.553
      -3.081
      -3.587
      -4.042
      -4.431
      -4.757
      -5.023
      -5.219
      -5.330
      -5.341
      -5.253
      -5.069
      -4.778
      -4.360
      -3.800
      -3.117
      -2.361
      -1.594
      -0.846
      -0.102
       0.678
       1.514
       2.376
       3.204
       3.939
       4.553
       5.049
       5.451
       5.772
       6.003
       6.117
       6.100
       5.964
       5.733
       5.415
       4.992
       4.444
       3.770
       3.014
       2.248
       1.538
       0.915
       0.362
      -0.157
      -0.659
      -1.125
      -1.521
      -1.823
      -2.039
      -2.204
      -2.354
      -2.495
      -2.596
      -2.618
      -2.551
      -2.420
      -2.259
      -2.074
      -1.834
      -1.495
      -1.038
      -0.486
       0.102
       0.661
       1.138
       1.504
       1.743
       1.860
       1.875
       1.812
       1.681
       1.486
       1.219
       0.871
       0.441
      -0.057
      -0.588
      -1.105
      -1.556
      -1.904
      -2.136
      -2.272
      -2.356
      -2.418
      -2.464
      -2.482
      -2.460
      -2.392
      -2.276
      -2.103
      -1.853
      -1.521
      -1.131
      -0.730
      -0.346
       0.029
       0.426
       0.858
       1.303
       1.720
       2.069
       2.334
       2.518
       2.629
       2.672
       2.651
       2.585
       2.501
       2.420
       2.335
       2.224
       2.065
       1.852
       1.594
       1.302
       0.973
       0.598
       0.165
      -0.319
      -0.837
      -1.367
      -1.895
      -2.399
      -2.855
      -3.236
      -3.529
      -3.731
      -3.844
      -3.859
      -3.758
      -3.532
      -3.196
      -2.789
      -2.351
      -1.906
      -1.456
      -1.001
      -0.549
      -0.124
       0.245
       0.533
       0.733
       0.856
       0.913
       0.908
       0.850
       0.754
       0.637
       0.502
       0.341
       0.150
      -0.057
      -0.250
      -0.385
      -0.428
      -0.377
      -0.264
      -0.127
       0.014
       0.170
       0.382
       0.689
       1.104
       1.601
       2.127
       2.635
       3.092
       3.476
       3.769
       3.963
       4.065
       4.099
       4.099
       4.087
       4.058
       3.983
       3.836
       3.607
       3.301
       2.934
       2.525
       2.103
       1.687
       1.286
       0.892
       0.481
       0.034
      -0.453
      -0.959
      -1.446
      -1.882
      -2.239
      -2.503
      -2.671
      -2.757
      -2.782
      -2.768
      -2.735
      -2.690
      -2.619
      -2.489
      -2.272
      -1.972
      -1.625
      -1.288
      -1.009
      -0.809
      -0.661
      -0.513
      -0.312
      -0.038
       0.295
       0.640
       0.943
       1.155
       1.261
       1.282
       1.249
       1.188
       1.102
       0.994
       0.869
       0.746
       0.646
       0.574
       0.513
       0.434
       0.325
       0.202
       0.086
      -0.014
      -0.104
      -0.187
      -0.251
      -0.267
      -0.211
      -0.084
       0.083
       0.240
       0.352
       0.413
       0.443
       0.465
       0.494
       0.530
       0.563
       0.588
       0.602
       0.608
       0.597
       0.560
       0.496
       0.414
       0.327
       0.240
       0.141
       0.008
      -0.173
      -0.398
      -0.649
      -0.912
      -1.186
      -1.483
      -1.807
      -2.137
      -2.434
      -2.661
      -2.808
      -2.895
      -2.955
      -3.007
      -3.051
      -3.073
      -3.072
      -3.065
      -3.075
      -3.110
      -3.155
      -3.180
      -3.157
      -3.073
      -2.929
      -2.737
      -2.504
      -2.224
      -1.886
      -1.494
      -1.068
      -0.635
      -0.216
       0.183
       0.566
       0.934
       1.274
       1.562
       1.778
       1.931
       2.053
       2.182
       2.330
       2.487
       2.636
       2.766
       2.877
       2.961
       3.005
       2.990
       2.904
       2.758
       2.586
       2.422
       2.278
       2.142
       1.998
       1.854
       1.733
       1.650
       1.599
       1.544
       1.435
       1.246
       0.985
       0.693
       0.402
       0.118
      -0.178
      -0.516
      -0.905
      -1.316
      -1.693
      -1.987
      -2.192
      -2.330
      -2.422
      -2.480
      -2.508
      -2.520
      -2.535
      -2.574
      -2.648
      -2.747
      -2.831
      -2.849
      -2.770
      -2.591
      -2.329
      -2.011
      -1.658
      -1.283
      -0.880
      -0.442
       0.024
       0.501
       0.966
       1.399
       1.786
       2.123
       2.411
       2.654
       2.850
       2.999
       3.105
       3.177
       3.221
       3.235
       3.214
       3.149
       3.042
       2.900
       2.730
       2.534
       2.312
       2.068
       1.809
       1.543
       1.283
       1.045
       0.833
       0.635
       0.444
       0.267
       0.121
       0.013
      -0.063
      -0.131
      -0.219
      -0.337
      -0.467
      -0.577
      -0.647
      -0.684
      -0.704
      -0.715
      -0.703
      -0.641
      -0.522
      -0.374
      -0.250
      -0.196
      -0.223
      -0.310
      -0.429
      -0.563
      -0.714
      -0.893
      -1.111
      -1.366
      -1.642
      -1.920
      -2.182
      -2.407
      -2.574
      -2.670
      -2.695
      -2.658
      -2.578
      -2.477
      -2.365
      -2.244
      -2.113
      -1.972
      -1.826
      -1.678
      -1.532
      -1.382
      -1.215
      -1.019
      -0.789
      -0.528
      -0.246
       0.051
       0.357
       0.658
       0.936
       1.172
       1.363
       1.511
       1.621
       1.691
       1.710
       1.674
       1.590
       1.477
       1.350
       1.208
       1.037
       0.831
       0.601
       0.371
       0.168
       0.005
      -0.126
      -0.249
      -0.389
      -0.560
      -0.759
      -0.972
      -1.180
      -1.369
      -1.545
      -1.721
      -1.906
      -2.082
      -2.210
      -2.244
      -2.157
      -1.946
      -1.627
      -1.223
      -0.771
      -0.311
       0.117
       0.483
       0.764
