Origin Time       29/05/2008 10:34:46
Lat.              26.6 N 
Long.             91.8 E 
Depth (Km)         33.0
Magnitude         4.2
 Region           DARRANG-ASSAM                                                    
 Above details taken from IMD 
   
Station Code      MOR
Station Lat.       26.248
Station Long.      92.339
Station Height(m)    0.0
Site Class        C   Vs30 between 200 m/sec to 375 m/sec *  
Record Time       29.05.2008 10:34:50.749
Sampling Rate     200. Hz
 Record Duration   33.485 Sec.
 Direction         Vert. (Up positive)
Max. Acceleration    -10.620 cm/sec**2
     
  * For reference see Site Classification link of website 
     
 Base Line Corrected and Low Pass Filtered (Cut Off at 35 Hz) Time History
 Acceleration data in cm/sec**2
    
[...]
      -1.520
      -0.571
       0.385
       1.038
       1.330
       1.384
       1.328
       1.199
       0.971
       0.597
       0.042
      -0.680
      -1.419
      -1.877
      -1.765
      -1.051
      -0.060
       0.728
       1.042
       0.961
       0.711
       0.393
      -0.033
      -0.534
      -0.888
      -0.816
      -0.252
       0.521
       1.036
       1.006
       0.563
       0.128
       0.021
       0.203
       0.372
       0.267
      -0.106
      -0.499
      -0.627
      -0.400
      -0.007
       0.202
      -0.025
      -0.621
      -1.178
      -1.229
      -0.622
       0.318
       1.011
       1.056
       0.513
      -0.178
      -0.544
      -0.401
       0.086
       0.604
       0.921
       0.992
       0.898
       0.738
       0.549
       0.284
      -0.140
      -0.726
      -1.332
      -1.709
      -1.642
      -1.085
      -0.217
       0.632
       1.161
       1.278
       1.107
       0.790
       0.332
      -0.317
      -1.037
      -1.475
      -1.318
      -0.593
       0.321
       0.975
       1.110
       0.724
       0.024
      -0.651
      -0.954
      -0.738
      -0.183
       0.343
       0.568
       0.499
       0.331
       0.220
       0.152
       0.015
      -0.222
      -0.454
      -0.553
      -0.481
      -0.275
       0.001
       0.254
       0.373
       0.321
       0.188
       0.107
       0.121
       0.146
       0.062
      -0.151
      -0.342
      -0.285
       0.094
       0.578
       0.795
       0.549
       0.007
      -0.443
      -0.519
      -0.265
      -0.007
      -0.065
      -0.463
      -0.900
      -0.995
      -0.583
       0.196
       1.003
       1.484
       1.432
       0.894
       0.149
      -0.471
      -0.805
      -0.911
      -0.905
      -0.788
      -0.465
       0.102
       0.798
       1.387
       1.599
       1.238
       0.327
      -0.811
      -1.674
      -1.868
      -1.334
      -0.356
       0.621
       1.205
       1.217
       0.742
       0.025
      -0.689
      -1.216
      -1.357
      -0.915
       0.089
       1.254
       1.987
       1.912
       1.097
      -0.049
      -1.049
      -1.559
      -1.448
      -0.815
       0.029
       0.683
       0.877
       0.641
       0.252
      -0.026
      -0.126
      -0.156
      -0.221
      -0.312
      -0.335
      -0.243
      -0.115
      -0.089
      -0.247
      -0.534
      -0.770
      -0.715
      -0.216
       0.635
       1.494
       1.972
       1.884
       1.307
       0.457
      -0.447
      -1.223
      -1.682
      -1.627
      -1.013
      -0.121
       0.519
       0.512
      -0.054
      -0.669
      -0.811
      -0.319
       0.512
       1.152
       1.185
       0.590
      -0.260
      -0.870
      -0.936
      -0.488
       0.184
       0.705
       0.809
       0.475
      -0.088
      -0.596
      -0.857
      -0.806
      -0.469
       0.062
       0.620
       0.993
       1.005
       0.630
       0.074
      -0.309
      -0.288
      -0.001
       0.142
      -0.114
      -0.593
      -0.880
      -0.707
      -0.126
       0.585
       1.065
       1.002
       0.322
      -0.679
      -1.449
      -1.527
      -0.831
       0.302
       1.327
       1.790
       1.548
       0.793
      -0.115
      -0.857
      -1.238
      -1.149
      -0.586
       0.231
       0.860
       0.902
       0.331
      -0.463
      -0.957
      -0.859
      -0.277
       0.365
       0.594
       0.223
      -0.488
      -0.976
      -0.797
       0.012
       0.940
       1.384
       1.087
       0.276
      -0.556
      -0.972
      -0.803
      -0.171
       0.600
       1.129
       1.143
       0.650
      -0.043
      -0.550
      -0.707
      -0.647
      -0.589
      -0.586
      -0.509
      -0.264
       0.056
       0.261
       0.290
       0.283
       0.411
       0.675
       0.861
       0.699
       0.086
      -0.765
      -1.391
      -1.386
      -0.722
       0.217
       0.939
       1.162
       0.913
       0.423
      -0.030
      -0.264
      -0.264
      -0.159
      -0.108
      -0.164
      -0.235
      -0.181
       0.023
       0.224
       0.185
      -0.198
      -0.756
      -1.130
      -1.020
      -0.392
       0.502
       1.276
       1.605
       1.372
       0.728
       0.005
      -0.492
      -0.668
      -0.605
      -0.403
      -0.095
       0.256
       0.464
       0.326
      -0.162
      -0.718
      -0.960
      -0.683
      -0.009
       0.702
       1.091
       0.980
       0.409
      -0.398
      -1.088
      -1.299
      -0.894
      -0.123
       0.531
       0.712
       0.452
       0.078
      -0.106
      -0.054
       0.043
      -0.022
      -0.268
      -0.502
      -0.469
      -0.030
       0.709
       1.388
       1.561
       1.007
      -0.076
      -1.182
      -1.830
      -1.835
      -1.337
      -0.589
       0.229
       0.987
       1.459
       1.377
       0.687
      -0.283
      -1.001
      -1.115
      -0.674
      -0.029
       0.484
       0.739
       0.762
       0.587
       0.267
      -0.039
      -0.122
       0.088
       0.430
       0.634
       0.536
       0.190
      -0.172
      -0.327
      -0.255
      -0.167
      -0.320
      -0.757
      -1.212
      -1.286
      -0.762
       0.191
       1.091
       1.462
       1.151
       0.430
      -0.211
      -0.425
      -0.223
       0.113
       0.305
       0.256
       0.044
      -0.207
      -0.428
      -0.602
      -0.669
      -0.492
      -0.012
       0.555
       0.787
       0.408
      -0.424
      -1.210
      -1.474
      -1.077
      -0.233
       0.695
       1.391
       1.672
       1.492
       0.929
       0.167
      -0.557
      -1.051
      -1.229
      -1.095
      -0.673
       0.017
       0.879
       1.670
       2.048
       1.724
       0.627
      -0.966
      -2.435
      -3.053
      -2.440
      -0.878
       0.818
       1.821
       1.786
       0.973
      -0.018
      -0.649
      -0.712
      -0.318
       0.298
       0.912
       1.304
       1.277
       0.760
      -0.108
      -1.003
      -1.537
      -1.466
      -0.888
      -0.230
       0.083
      -0.018
      -0.218
      -0.128
       0.401
       1.148
       1.622
       1.362
       0.301
      -1.113
      -2.186
      -2.415
      -1.730
      -0.429
       1.022
       2.175
       2.717
       2.536
       1.723
       0.537
      -0.663
      -1.526
      -1.832
      -1.583
      -1.006
      -0.407
       0.024
       0.268
       0.379
       0.376
       0.280
       0.171
       0.150
       0.228
       0.306
       0.276
       0.128
      -0.057
      -0.213
      -0.345
      -0.483
      -0.600
      -0.573
      -0.268
       0.285
       0.823
       0.998
       0.644
      -0.086
      -0.816
      -1.181
      -1.013
      -0.413
       0.337
       0.933
       1.167
       0.974
       0.447
      -0.193
      -0.723
      -1.050
      -1.171
      -1.023
      -0.463
       0.501
       1.511
       2.009
       1.647
       0.557
      -0.728
      -1.619
      -1.762
      -1.143
      -0.028
       1.137
       1.874
       1.875
       1.164
       0.061
      -1.019
      -1.754
      -1.960
      -1.581
      -0.696
       0.450
       1.456
       1.858
       1.358
       0.116
      -1.200
      -1.792
      -1.264
       0.130
       1.649
       2.478
       2.134
       0.729
      -1.067
      -2.390
      -2.665
      -1.894
      -0.564
       0.708
       1.493
       1.660
       1.291
       0.551
      -0.361
      -1.185
      -1.623
      -1.451
      -0.668
       0.446
       1.432
       1.857
       1.539
       0.658
      -0.334
      -0.979
      -1.074
      -0.744
      -0.282
       0.086
       0.319
       0.464
       0.513
       0.382
       0.044
      -0.387
      -0.713
      -0.784
      -0.577
      -0.195
       0.194
       0.443
       0.500
       0.416
       0.299
       0.242
       0.281
       0.377
       0.441
       0.407
       0.285
       0.120
      -0.084
      -0.371
      -0.717
      -0.953
      -0.864
      -0.410
       0.166
       0.487
       0.332
      -0.166
      -0.584
      -0.537
      -0.006
       0.621
       0.887
       0.652
       0.187
      -0.102
      -0.027
       0.242
       0.355
       0.076
      -0.541
      -1.188
      -1.481
      -1.191
      -0.382
       0.599
       1.289
       1.344
       0.740
      -0.185
      -0.906
      -1.034
      -0.561
       0.176
       0.763
       0.963
       0.815
       0.523
       0.256
      -0.017
      -0.432
      -0.921
      -1.089
      -0.557
       0.541
       1.489
       1.546
       0.604
      -0.697
      -1.489
      -1.349
      -0.546
       0.255
       0.556
       0.358
       0.058
       0.051
       0.375
       0.706
       0.689
       0.277
      -0.236
      -0.475
      -0.276
       0.183
       0.500
       0.356
      -0.218
      -0.873
      -1.262
      -1.306
      -1.156
      -0.964
      -0.715
      -0.287
       0.353
       1.020
       1.423
       1.420
       1.160
       0.957
       1.005
       1.196
       1.172
       0.585
      -0.579
      -1.876
      -2.605
      -2.260
      -0.921
       0.719
       1.753
       1.635
       0.507
      -0.956
      -1.989
      -2.103
      -1.241
       0.204
       1.544
       2.137
       1.754
       0.696
      -0.419
      -1.021
      -0.893
      -0.256
       0.441
       0.858
       0.908
       0.625
       0.025
      -0.823
      -1.635
      -1.977
      -1.585
      -0.613
       0.480
       1.273
       1.607
       1.515
       1.090
       0.489
      -0.033
      -0.245
      -0.140
       0.023
      -0.057
      -0.447
      -0.888
      -0.994
      -0.610
      -0.007
       0.357
       0.280
      -0.027
      -0.193
      -0.005
       0.483
       1.003
       1.171
       0.727
      -0.209
      -1.120
      -1.443
      -0.996
      -0.082
       0.800
       1.300
       1.316
       0.896
       0.189
      -0.572
      -1.148
      -1.396
      -1.276
      -0.812
      -0.124
       0.544
       0.933
       0.927
       0.586
       0.067
      -0.409
      -0.580
      -0.303
       0.286
       0.832
       1.017
       0.723
       0.009
      -0.919
      -1.696
      -1.892
      -1.294
      -0.176
       0.812
       1.150
       0.870
       0.442
       0.267
       0.362
       0.474
       0.386
       0.096
      -0.236
      -0.485
      -0.691
      -0.944
      -1.161
      -1.064
      -0.449
       0.557
       1.495
       1.858
       1.448
       0.545
      -0.261
      -0.469
      -0.004
       0.788
       1.406
       1.475
       0.900
      -0.146
      -1.335
      -2.313
      -2.795
      -2.637
      -1.890
      -0.789
       0.315
       1.063
       1.227
       0.851
       0.273
      -0.063
       0.101
       0.678
       1.302
       1.563
       1.247
       0.462
      -0.405
      -0.911
      -0.834
      -0.300
       0.328
       0.692
       0.627
       0.196
      -0.387
      -0.888
      -1.186
      -1.310
      -1.334
      -1.175
      -0.566
       0.660
       2.185
       3.197
       2.938
       1.385
      -0.629
      -2.001
      -2.139
      -1.260
      -0.073
       0.804
       1.202
       1.324
       1.400
       1.402
       1.061
       0.164
      -1.089
      -2.041
      -2.021
      -0.993
       0.284
       0.837
       0.310
      -0.801
      -1.634
      -1.639
      -0.864
       0.229
       1.166
       1.695
       1.748
       1.327
       0.564
      -0.234
      -0.736
      -0.857
      -0.745
      -0.491
       0.041
       0.939
       1.860
       2.127
       1.316
      -0.251
      -1.645
      -1.960
      -0.937
       0.847
       2.371
       2.879
       2.305
       1.087
      -0.321
      -1.676
      -2.812
      -3.486
      -3.452
      -2.633
      -1.244
       0.236
       1.230
       1.312
       0.404
      -1.178
      -2.832
      -3.918
      -4.051
      -3.266
      -1.930
      -0.456
       0.937
       2.215
       3.344
       4.157
       4.437
       4.070
       3.072
       1.561
      -0.172
      -1.553
      -1.927
      -1.064
       0.479
       1.589
       1.277
      -0.682
      -3.575
      -6.051
      -6.714
      -4.782
      -0.583
       4.413
       8.213
       9.251
       7.035
       2.208
      -3.674
      -8.470
     -10.131
      -7.707
      -2.044
       4.511
       9.284
      10.578
       8.377
       4.106
      -0.317
      -3.474
      -4.841
      -4.564
      -3.076
      -0.930
       1.165
       2.380
       2.074
       0.203
      -2.515
      -4.855
      -5.610
      -4.136
      -0.737
       3.336
       6.402
       7.184
       5.474
       2.235
      -1.005
      -3.086
      -3.837
      -3.890
      -3.923
      -4.071
      -3.986
      -3.350
      -2.238
      -0.980
       0.289
       1.794
       3.732
       5.724
       6.796
       5.964
       2.898
      -1.760
      -6.423
      -9.039
      -8.104
      -3.734
       2.102
       6.591
       7.720
       5.418
       1.412
      -2.054
      -3.572
      -3.009
      -1.010
       1.630
       4.137
       5.651
       5.333
       2.842
      -1.156
      -5.010
      -6.848
      -5.680
      -1.991
       2.641
       6.495
       8.416
       7.969
       5.284
       0.956
      -3.989
      -8.254
     -10.620
     -10.334
      -7.415
      -2.794
       1.935
       5.246
       6.453
       5.892
       4.419
       2.786
       1.472
       0.835
       1.052
       1.754
       1.907
       0.421
      -2.885
      -6.881
      -9.704
      -9.856
      -7.100
      -2.608
       1.739
       4.513
       5.517
       5.568
       5.497
       5.339
       4.432
       2.288
      -0.638
      -2.977
      -3.324
      -1.318
       1.904
       4.310
       4.276
       1.622
      -2.357
      -5.817
      -7.461
      -7.089
      -5.397
      -3.369
      -1.690
      -0.487
       0.552
       1.805
       3.329
       4.741
       5.512
       5.391
       4.554
       3.360
       2.035
       0.643
      -0.670
      -1.548
      -1.659
      -1.100
      -0.511
      -0.714
      -2.152
      -4.454
      -6.443
      -6.663
      -4.240
       0.397
       5.430
       8.455
       7.849
       3.854
      -1.481
      -5.572
      -6.868
      -5.512
      -2.771
       0.031
       2.214
       3.779
       4.931
       5.492
       4.776
       2.242
      -1.577
      -4.916
      -5.831
      -3.676
       0.319
       3.876
       5.154
       3.728
       0.537
      -2.898
      -5.330
      -6.143
      -5.193
      -2.566
       1.378
       5.753
       9.151
      10.128
       7.992
       3.401
      -1.778
      -5.443
      -6.507
      -5.438
      -3.646
      -2.314
      -1.743
      -1.571
      -1.335
      -0.759
       0.196
       1.294
       2.083
       2.183
       1.645
       0.968
       0.670
       0.773
       0.723
      -0.078
      -1.609
      -3.118
      -3.671
      -2.830
      -0.888
       1.354
       3.039
       3.662
       3.215
       1.999
       0.360
      -1.394
      -2.906
      -3.761
      -3.659
      -2.586
      -0.815
       1.210
       2.973
       3.956
       3.819
       2.641
       0.972
      -0.465
      -1.208
      -1.238
      -0.808
      -0.222
       0.161
      -0.081
      -1.151
      -2.663
      -3.672
      -3.242
      -1.110
       2.065
       5.065
       6.780
       6.744
       5.245
       3.017
       0.784
      -1.062
      -2.459
      -3.470
      -4.041
      -3.916
      -2.798
      -0.764
       1.438
       2.656
       2.174
       0.419
      -1.305
      -1.926
      -1.534
      -1.227
      -1.983
      -3.623
      -4.849
      -4.307
      -1.701
       1.958
       5.050
       6.370
       5.789
       4.149
       2.539
       1.488
       0.719
      -0.405
      -2.146
      -3.988
      -4.925
      -4.313
      -2.590
      -1.100
      -1.015
      -2.269
      -3.497
      -3.071
      -0.398
       3.564
       6.937
       8.145
       6.767
       3.504
      -0.403
      -3.746
      -5.720
      -6.101
      -5.185
      -3.483
      -1.441
       0.599
       2.350
       3.650
       4.482
       4.783
       4.274
       2.666
       0.106
      -2.638
      -4.551
      -5.017
      -4.167
      -2.639
      -0.968
       0.767
       2.682
       4.560
       5.746
       5.658
       4.369
       2.647
       1.373
       0.853
       0.633
      -0.022
      -1.483
      -3.538
      -5.654
      -7.328
      -8.178
      -7.863
      -6.133
      -3.116
       0.497
       3.720
       5.798
       6.495
       6.017
       4.791
       3.268
       1.756
       0.372
      -0.804
      -1.531
      -1.485
      -0.614
       0.587
       1.249
       0.729
      -0.827
      -2.468
      -3.080
      -2.188
      -0.237
       1.796
       3.043
       3.163
       2.366
       1.132
      -0.172
      -1.405
      -2.415
      -2.822
      -2.251
      -0.804
       0.802
       1.698
       1.530
       0.726
       0.104
       0.113
       0.419
       0.276
      -0.640
      -1.809
      -2.258
      -1.382
       0.550
       2.576
       3.680
       3.370
       1.857
      -0.190
      -2.062
      -3.282
      -3.646
      -3.146
      -1.951
      -0.367
       1.303
       2.852
       4.067
       4.600
       4.078
       2.428
       0.113
      -2.059
      -3.492
      -4.243
      -4.844
      -5.599
      -6.092
      -5.465
      -3.257
       0.071
       3.365
       5.513
       6.053
       5.300
       3.989
       2.759
       1.846
       1.158
       0.524
      -0.170
      -1.007
      -2.005
      -3.012
      -3.710
      -3.719
      -2.773
      -0.929
       1.281
       3.066
       3.901
       3.840
       3.253
       2.346
       1.030
      -0.747
      -2.635
      -3.946
      -4.136
      -3.233
      -1.794
      -0.533
       0.044
      -0.224
      -1.160
      -2.298
      -2.982
      -2.612
      -0.983
       1.517
       4.069
       5.824
       6.260
       5.325
       3.361
       0.908
      -1.459
      -3.195
      -3.867
      -3.344
      -1.967
      -0.477
       0.349
       0.158
      -0.783
      -1.843
      -2.499
      -2.544
      -1.926
      -0.583
       1.367
       3.360
       4.543
       4.353
       2.952
       1.069
      -0.578
      -1.699
      -2.357
      -2.599
      -2.251
      -1.128
       0.562
       2.135
       2.849
       2.460
       1.393
       0.393
      -0.024
       0.139
       0.512
       0.750
       0.780
       0.699
       0.541
       0.221
      -0.298
      -0.826
      -1.052
      -0.849
      -0.430
      -0.123
      -0.065
      -0.198
      -0.492
      -0.995
      -1.626
      -2.051
      -1.840
      -0.804
       0.804
       2.399
       3.395
       3.460
       2.531
       0.735
      -1.554
      -3.627
      -4.586
      -3.829
      -1.527
       1.300
       3.316
       3.648
       2.363
       0.288
      -1.593
      -2.685
      -2.941
      -2.650
      -2.088
      -1.312
