Origin Time       29/05/2008 10:34:46 UTC
Lat.              26.6 N 
Long.             91.8 E 
Depth (Km)         33.0
Magnitude         4.2
 Region           DARRANG-ASSAM                                                    
 Above details taken from IMD 
    
Station Code      MOR
Station Lat.       26.248  N
Station Long.      92.339  E
Station Height(m)    0.0
Site Class        C   Vs30 between 200 m/sec to 375 m/sec *  
Record Time       29.05.2008 10:34:50.749 UTC
Sampling Rate     200. Hz
 Record Duration   33.485 Sec.
 Direction         N-S (N positive)
Max. Acceleration     17.714 cm/sec**2
     
  * For reference see Site Classification link of website 
     
 Base Line Corrected and Low Pass Filtered (Cut Off at 35 Hz) Time History
 Acceleration data in cm/sec**2
    
[...]
       0.253
       0.107
      -0.001
      -0.045
      -0.021
       0.062
       0.191
       0.328
       0.412
       0.388
       0.249
       0.068
      -0.045
      -0.019
       0.108
       0.215
       0.192
       0.025
      -0.208
      -0.405
      -0.504
      -0.487
      -0.355
      -0.122
       0.159
       0.399
       0.519
       0.496
       0.377
       0.232
       0.104
      -0.011
      -0.138
      -0.279
      -0.393
      -0.404
      -0.266
      -0.033
       0.144
       0.109
      -0.167
      -0.548
      -0.816
      -0.821
      -0.568
      -0.195
       0.121
       0.253
       0.168
      -0.068
      -0.319
      -0.431
      -0.318
      -0.018
       0.323
       0.548
       0.610
       0.593
       0.605
       0.657
       0.640
       0.446
       0.098
      -0.236
      -0.381
      -0.292
      -0.078
       0.099
       0.151
       0.102
       0.025
      -0.039
      -0.107
      -0.209
      -0.336
      -0.428
      -0.427
      -0.319
      -0.144
       0.036
       0.172
       0.239
       0.232
       0.162
       0.066
      -0.002
      -0.005
       0.042
       0.079
       0.055
      -0.027
      -0.115
      -0.170
      -0.189
      -0.180
      -0.135
      -0.044
       0.068
       0.127
       0.070
      -0.096
      -0.284
      -0.397
      -0.402
      -0.353
      -0.322
      -0.337
      -0.351
      -0.291
      -0.107
       0.187
       0.525
       0.810
       0.964
       0.949
       0.790
       0.556
       0.329
       0.161
       0.046
      -0.058
      -0.188
      -0.345
      -0.499
      -0.604
      -0.614
      -0.490
      -0.217
       0.168
       0.559
       0.805
       0.770
       0.414
      -0.157
      -0.727
      -1.078
      -1.098
      -0.820
      -0.358
       0.156
       0.616
       0.923
       0.992
       0.786
       0.356
      -0.159
      -0.591
      -0.822
      -0.821
      -0.637
      -0.365
      -0.116
       0.017
      -0.001
      -0.122
      -0.231
      -0.218
      -0.043
       0.238
       0.516
       0.687
       0.696
       0.552
       0.310
       0.045
      -0.168
      -0.270
      -0.231
      -0.069
       0.144
       0.303
       0.318
       0.171
      -0.066
      -0.268
      -0.321
      -0.182
       0.090
       0.363
       0.506
       0.464
       0.270
      -0.001
      -0.267
      -0.462
      -0.516
      -0.378
      -0.065
       0.293
       0.501
       0.414
       0.059
      -0.367
      -0.620
      -0.582
      -0.331
      -0.078
      -0.002
      -0.128
      -0.314
      -0.367
      -0.185
       0.162
       0.477
       0.565
       0.374
       0.024
      -0.280
      -0.394
      -0.301
      -0.090
       0.130
       0.289
       0.363
       0.359
       0.302
       0.224
       0.139
       0.037
      -0.103
      -0.269
      -0.394
      -0.374
      -0.149
       0.235
       0.632
       0.873
       0.848
       0.553
       0.074
      -0.446
      -0.843
      -0.982
      -0.820
      -0.440
      -0.021
       0.258
       0.313
       0.189
       0.015
      -0.085
      -0.058
       0.062
       0.188
       0.236
       0.167
       0.000
      -0.199
      -0.355
      -0.415
      -0.365
      -0.215
       0.004
       0.229
       0.375
       0.372
       0.207
      -0.048
      -0.271
      -0.352
      -0.250
      -0.021
       0.229
       0.399
       0.448
       0.388
       0.252
       0.073
      -0.109
      -0.236
      -0.254
      -0.149
       0.024
       0.174
       0.226
       0.172
       0.058
      -0.058
      -0.155
      -0.243
      -0.314
      -0.328
      -0.233
      -0.033
       0.195
       0.342
       0.347
       0.242
       0.124
       0.065
       0.062
       0.048
      -0.040
      -0.191
      -0.324
      -0.357
      -0.278
      -0.151
      -0.066
      -0.065
      -0.112
      -0.134
      -0.082
       0.023
       0.113
       0.133
       0.087
       0.022
      -0.018
      -0.039
      -0.084
      -0.182
      -0.291
      -0.309
      -0.153
       0.145
       0.429
       0.512
       0.317
      -0.061
      -0.410
      -0.545
      -0.418
      -0.124
       0.178
       0.360
       0.381
       0.283
       0.150
       0.054
       0.031
       0.076
       0.162
       0.250
       0.304
       0.297
       0.230
       0.133
       0.045
      -0.011
      -0.043
      -0.072
      -0.113
      -0.162
      -0.216
      -0.281
      -0.359
      -0.425
      -0.427
      -0.322
      -0.133
       0.046
       0.113
       0.042
      -0.089
      -0.163
      -0.117
       0.007
       0.110
       0.122
       0.056
      -0.004
       0.033
       0.195
       0.419
       0.579
       0.563
       0.355
       0.055
      -0.179
      -0.239
      -0.132
       0.044
       0.172
       0.181
       0.062
      -0.141
      -0.355
      -0.491
      -0.482
      -0.318
      -0.061
       0.192
       0.360
       0.404
       0.334
       0.195
       0.062
       0.016
       0.083
       0.209
       0.285
       0.234
       0.067
      -0.136
      -0.310
      -0.449
      -0.573
      -0.671
      -0.694
      -0.608
      -0.437
      -0.239
      -0.055
       0.111
       0.248
       0.312
       0.252
       0.085
      -0.098
      -0.200
      -0.196
      -0.132
      -0.049
       0.066
       0.249
       0.490
       0.704
       0.776
       0.649
       0.365
       0.050
      -0.168
      -0.231
      -0.188
      -0.150
      -0.206
      -0.353
      -0.501
      -0.537
      -0.408
      -0.162
       0.082
       0.208
       0.169
       0.004
      -0.192
      -0.331
      -0.373
      -0.322
      -0.194
      -0.007
       0.211
       0.410
       0.537
       0.570
       0.537
       0.497
       0.494
       0.509
       0.464
       0.282
      -0.032
      -0.378
      -0.634
      -0.753
      -0.780
      -0.788
      -0.779
      -0.667
      -0.364
       0.112
       0.604
       0.911
       0.919
       0.665
       0.295
      -0.034
      -0.234
      -0.307
      -0.307
      -0.287
      -0.270
      -0.241
      -0.172
      -0.042
       0.141
       0.347
       0.515
       0.571
       0.448
       0.136
      -0.286
      -0.661
      -0.833
      -0.735
      -0.421
      -0.029
       0.305
       0.508
       0.573
       0.525
       0.387
       0.182
      -0.060
      -0.287
      -0.440
      -0.478
      -0.391
      -0.203
       0.028
       0.223
       0.310
       0.262
       0.131
       0.020
       0.008
       0.086
       0.155
       0.108
      -0.071
      -0.284
      -0.397
      -0.338
      -0.145
       0.082
       0.255
       0.348
       0.375
       0.341
       0.215
      -0.033
      -0.375
      -0.687
      -0.793
      -0.575
      -0.082
       0.461
       0.773
       0.708
       0.352
      -0.056
      -0.300
      -0.322
      -0.211
      -0.083
       0.013
       0.082
       0.129
       0.125
       0.056
      -0.036
      -0.077
      -0.022
       0.109
       0.242
       0.296
       0.227
       0.041
      -0.207
      -0.434
      -0.568
      -0.570
      -0.440
      -0.208
       0.065
       0.295
       0.394
       0.328
       0.159
       0.015
       0.020
       0.209
       0.497
       0.718
       0.717
       0.435
      -0.049
      -0.547
      -0.865
      -0.909
      -0.723
      -0.443
      -0.208
      -0.090
      -0.078
      -0.109
      -0.112
      -0.042
       0.103
       0.286
       0.453
       0.552
       0.547
       0.422
       0.184
      -0.125
      -0.419
      -0.592
      -0.568
      -0.370
      -0.132
      -0.028
      -0.142
      -0.403
      -0.619
      -0.612
      -0.323
       0.154
       0.631
       0.928
       0.944
       0.694
       0.299
      -0.087
      -0.365
      -0.523
      -0.590
      -0.565
      -0.405
      -0.094
       0.293
       0.605
       0.714
       0.605
       0.365
       0.123
      -0.026
      -0.037
       0.068
       0.212
       0.291
       0.228
       0.021
      -0.250
      -0.466
      -0.526
      -0.404
      -0.164
       0.079
       0.226
       0.248
       0.184
       0.091
      -0.007
      -0.129
      -0.278
      -0.403
      -0.406
      -0.217
       0.149
       0.575
       0.895
       0.967
       0.741
       0.282
      -0.267
      -0.735
      -0.976
      -0.917
      -0.595
      -0.152
       0.226
       0.408
       0.392
       0.299
       0.266
       0.327
       0.383
       0.296
       0.029
      -0.304
      -0.528
      -0.552
      -0.431
      -0.295
      -0.227
      -0.208
      -0.160
      -0.025
       0.184
       0.401
       0.539
       0.525
       0.333
       0.005
      -0.355
      -0.632
      -0.763
      -0.753
      -0.646
      -0.485
      -0.302
      -0.115
       0.072
       0.257
       0.433
       0.576
       0.671
       0.716
       0.700
       0.590
       0.344
      -0.023
      -0.397
      -0.608
      -0.540
      -0.215
       0.220
       0.566
       0.658
       0.425
      -0.081
      -0.666
      -1.062
      -1.058
      -0.641
      -0.020
       0.490
       0.668
       0.510
       0.194
      -0.052
      -0.090
       0.085
       0.373
       0.637
       0.760
       0.680
       0.414
       0.043
      -0.337
      -0.660
      -0.900
      -1.045
      -1.064
      -0.915
      -0.595
      -0.179
       0.202
       0.445
       0.537
       0.547
       0.553
       0.571
       0.551
       0.440
       0.242
       0.018
      -0.159
      -0.256
      -0.298
      -0.327
      -0.367
      -0.399
      -0.384
      -0.283
      -0.075
       0.212
       0.491
       0.637
       0.552
       0.252
      -0.113
      -0.347
      -0.338
      -0.137
       0.099
       0.234
       0.239
       0.171
       0.093
       0.014
      -0.097
      -0.268
      -0.504
      -0.770
      -0.996
      -1.087
      -0.960
      -0.611
      -0.136
       0.327
       0.685
       0.946
       1.171
       1.385
       1.526
       1.470
       1.141
       0.596
       0.012
      -0.428
      -0.642
      -0.685
      -0.677
      -0.703
      -0.753
      -0.751
      -0.625
      -0.361
      -0.007
       0.356
       0.641
       0.776
       0.725
       0.511
       0.224
      -0.013
      -0.116
      -0.100
      -0.075
      -0.159
      -0.386
      -0.669
      -0.858
      -0.846
      -0.633
      -0.326
      -0.069
       0.034
      -0.021
      -0.152
      -0.232
      -0.165
       0.060
       0.358
       0.602
       0.720
       0.741
       0.757
       0.807
       0.814
       0.628
       0.173
      -0.460
      -1.039
      -1.342
      -1.288
      -0.966
      -0.550
      -0.184
       0.077
       0.242
       0.323
       0.322
       0.260
       0.208
       0.248
       0.395
       0.555
       0.578
       0.370
      -0.025
      -0.444
      -0.712
      -0.741
      -0.577
      -0.344
      -0.152
      -0.021
       0.099
       0.250
       0.397
       0.465
       0.434
       0.381
       0.412
       0.539
       0.634
       0.526
       0.156
      -0.361
      -0.806
      -1.010
      -0.929
      -0.624
      -0.187
       0.288
       0.700
       0.945
       0.958
       0.752
       0.409
       0.043
      -0.261
      -0.483
      -0.652
      -0.806
      -0.921
      -0.915
      -0.713
      -0.332
       0.102
       0.442
       0.635
       0.760
       0.940
       1.206
       1.446
       1.490
       1.244
       0.765
       0.213
      -0.263
      -0.587
      -0.755
      -0.788
      -0.722
      -0.623
      -0.576
      -0.633
      -0.758
      -0.840
      -0.783
      -0.570
      -0.272
       0.016
       0.241
       0.413
       0.585
       0.804
       1.066
       1.280
       1.288
       0.956
       0.292
      -0.492
      -1.082
      -1.272
      -1.104
      -0.816
      -0.640
      -0.623
      -0.630
      -0.499
      -0.170
       0.289
       0.750
       1.078
       1.140
       0.814
       0.037
      -1.104
      -2.338
      -3.297
      -3.682
      -3.395
      -2.543
      -1.340
      -0.015
       1.242
       2.280
       2.974
       3.214
       2.921
       2.074
       0.745
      -0.911
      -2.709
      -4.475
      -6.064
      -7.363
      -8.277
      -8.690
      -8.385
      -7.044
      -4.408
      -0.558
       3.914
       8.040
      10.872
      11.908
      11.241
       9.405
       7.081
       4.861
       3.172
       2.285
       2.291
       3.040
       4.094
       4.832
       4.687
       3.417
       1.234
      -1.290
      -3.457
      -4.692
      -4.678
      -3.406
      -1.170
       1.485
       3.853
       5.249
       5.236
       3.816
       1.450
      -1.127
      -3.218
      -4.451
      -4.907
      -5.044
      -5.437
      -6.389
      -7.560
      -7.924
      -6.275
      -2.126
       3.638
       8.931
      11.513
      10.234
       5.658
      -0.313
      -5.479
      -8.379
      -8.758
      -7.368
      -5.368
      -3.680
      -2.594
      -1.743
      -0.440
       1.825
       4.980
       8.299
      10.686
      11.171
       9.360
       5.612
       0.838
      -3.964
      -8.155
     -11.563
     -14.171
     -15.641
     -15.130
     -11.703
      -5.159
       3.343
      11.475
      16.744
      17.714
      14.603
       8.975
       2.842
      -2.180
      -5.278
      -6.425
      -6.092
      -4.905
      -3.368
      -1.785
      -0.337
       0.821
       1.579
       1.953
       2.104
       2.207
       2.277
       2.149
       1.676
       0.992
       0.536
       0.691
       1.313
       1.616
       0.658
      -1.835
      -4.973
      -7.037
      -6.517
      -3.169
       1.673
       5.765
       7.178
       5.334
       1.250
      -3.061
      -5.662
      -5.625
      -3.350
      -0.159
       2.497
       3.702
       3.239
       1.368
      -1.438
      -4.508
      -6.881
      -7.446
      -5.496
      -1.340
       3.588
       7.400
       8.816
       7.849
       5.604
       3.397
       1.895
       0.904
      -0.174
      -1.684
      -3.409
      -4.762
      -5.240
      -4.751
      -3.618
      -2.320
      -1.180
      -0.211
       0.812
       2.118
       3.714
       5.340
       6.589
       7.047
       6.374
       4.351
       0.995
      -3.260
      -7.494
     -10.502
     -11.248
      -9.327
      -5.203
      -0.063
       4.609
       7.569
       8.228
       6.775
       3.979
       0.794
      -2.007
      -3.976
      -4.908
      -4.684
      -3.221
      -0.648
       2.466
       5.124
       6.314
       5.600
       3.439
       0.935
      -0.789
      -1.176
      -0.412
       0.798
       1.652
       1.608
       0.554
      -1.176
      -2.925
      -3.938
      -3.673
      -2.080
       0.314
       2.624
       4.012
       4.034
       2.742
       0.539
      -2.037
      -4.448
      -6.207
      -6.943
      -6.545
      -5.277
      -3.694
      -2.354
      -1.516
      -1.079
      -0.787
      -0.523
      -0.404
      -0.616
      -1.148
      -1.706
      -1.901
      -1.565
      -0.899
      -0.316
      -0.131
      -0.334
      -0.614
      -0.542
       0.230
       1.836
       4.100
       6.454
       8.005
       7.889
       5.811
       2.444
      -0.758
      -2.346
      -1.791
       0.165
       2.040
       2.620
       1.681
      -0.044
      -1.480
      -1.871
      -1.064
       0.612
       2.639
       4.529
       5.831
       6.060
       4.753
       1.798
      -2.209
      -5.969
      -8.040
      -7.632
      -5.058
      -1.511
       1.628
       3.464
       3.856
       3.266
       2.376
       1.694
       1.327
       1.017
       0.415
      -0.601
      -1.825
      -2.884
      -3.478
      -3.457
      -2.739
      -1.258
       0.906
       3.388
       5.568
       6.775
       6.506
       4.569
       1.205
      -2.840
      -6.431
      -8.478
      -8.500
      -6.904
      -4.704
      -2.848
      -1.654
      -0.802
       0.176
       1.384
       2.483
       3.045
       2.939
       2.384
       1.697
       1.057
       0.503
       0.040
      -0.314
      -0.582
      -0.846
      -1.173
      -1.521
      -1.734
      -1.616
      -1.063
      -0.154
       0.857
       1.666
       2.076
       2.089
       1.838
       1.459
       1.006
       0.495
       0.000
      -0.330
      -0.394
      -0.272
      -0.223
      -0.497
      -1.101
      -1.734
      -1.967
      -1.534
      -0.511
       0.743
       1.822
       2.497
       2.783
       2.842
       2.801
       2.667
       2.383
       1.949
       1.437
       0.874
       0.124
      -1.028
      -2.626
      -4.302
      -5.344
      -5.105
      -3.510
      -1.228
       0.696
       1.538
       1.370
       0.920
       0.956
       1.678
       2.593
       2.896
       2.068
       0.268
      -1.724
      -2.935
      -2.729
      -1.104
       1.380
       3.907
       5.719
       6.294
       5.414
       3.197
       0.079
      -3.278
      -6.170
      -8.034
      -8.567
      -7.781
      -5.995
      -3.778
      -1.795
      -0.557
      -0.157
      -0.202
      -0.062
       0.670
       1.870
       2.984
       3.449
       3.050
       1.961
       0.518
      -1.003
      -2.417
      -3.529
      -4.067
      -3.759
      -2.480
      -0.359
       2.225
       4.727
       6.556
       7.230
       6.570
       4.828
       2.621
       0.676
      -0.454
      -0.546
       0.274
       1.585
       2.785
       3.283
       2.751
       1.318
      -0.465
      -1.879
      -2.370
      -1.776
      -0.331
       1.466
       3.027
       3.816
       3.470
       1.923
      -0.488
      -3.059
      -4.988
      -5.799
      -5.615
      -4.998
      -4.440
      -3.944
      -3.077
      -1.472
       0.700
       2.711
       3.751
       3.455
       2.087
       0.288
      -1.302
      -2.310
      -2.703
      -2.742
      -2.848
      -3.338
      -4.131
      -4.655
      -4.144
      -2.202
       0.780
       3.724
       5.457
       5.397
       3.822
       1.604
      -0.327
      -1.385
      -1.384
      -0.439
       1.101
       2.669
       3.592
       3.401
       2.127
       0.311
      -1.332
      -2.350
      -2.720
      -2.688
      -2.486
      -2.184
      -1.725
      -1.012
       0.030
       1.373
       2.799
       3.886
       4.189
       3.508
       2.035
       0.258
      -1.321
      -2.415
      -2.985
      -3.081
      -2.683
      -1.706
      -0.176
       1.601
       3.058
       3.625
       3.064
       1.630
      -0.045
      -1.307
      -1.814
      -1.655
      -1.179
      -0.714
      -0.376
      -0.096
       0.221
       0.580
       0.935
       1.293
       1.733
       2.273
       2.734
       2.785
       2.174
       0.970
      -0.432
      -1.563
      -2.200
      -2.476
      -2.697
      -3.030
      -3.319
      -3.172
      -2.270
      -0.656
       1.186
       2.559
       2.916
       2.138
       0.561
      -1.218
      -2.623
