Origin Time       13/03/2008 15:42:38
Lat.              26.6 N 
Long.             91.8 E 
Depth (Km)         33.0
Magnitude         4.0
 Region           DARRANG-ASSAM                                                    
 Above details taken from IMD 
   
Station Code      MOR
Station Lat.       26.248
Station Long.      92.339
Station Height(m)    0.0
Site Class        C   Vs30 between 200 m/sec to 375 m/sec *  
Record Time       13.03.2008 15:42:41.719
Sampling Rate     200. Hz
 Record Duration   30.985 Sec.
 Direction         Vert. (Up positive)
Max. Acceleration      4.192 cm/sec**2
     
  * For reference see Site Classification link of website 
     
 Base Line Corrected and Low Pass Filtered (Cut Off at 35 Hz) Time History
 Acceleration data in cm/sec**2
    
[...]
      -0.288
      -0.484
      -0.448
      -0.295
      -0.143
      -0.022
       0.099
       0.214
       0.249
       0.154
      -0.023
      -0.148
      -0.120
       0.044
       0.212
       0.242
       0.090
      -0.158
      -0.354
      -0.379
      -0.203
       0.112
       0.426
       0.573
       0.428
       0.012
      -0.486
      -0.782
      -0.683
      -0.211
       0.395
       0.835
       0.920
       0.660
       0.234
      -0.137
      -0.314
      -0.298
      -0.182
      -0.061
       0.018
       0.055
       0.042
      -0.051
      -0.236
      -0.448
      -0.544
      -0.401
      -0.033
       0.405
       0.726
       0.842
       0.799
       0.706
       0.629
       0.536
       0.328
      -0.079
      -0.665
      -1.269
      -1.639
      -1.558
      -0.995
      -0.151
       0.635
       1.072
       1.055
       0.692
       0.221
      -0.148
      -0.343
      -0.426
      -0.468
      -0.455
      -0.314
      -0.018
       0.340
       0.589
       0.593
       0.362
       0.036
      -0.220
      -0.324
      -0.310
      -0.262
      -0.236
      -0.230
      -0.219
      -0.194
      -0.165
      -0.142
      -0.116
      -0.050
       0.106
       0.364
       0.638
       0.755
       0.564
       0.082
      -0.478
      -0.815
      -0.749
      -0.330
       0.203
       0.601
       0.730
       0.596
       0.286
      -0.080
      -0.379
      -0.509
      -0.438
      -0.225
       0.009
       0.152
       0.151
       0.022
      -0.170
      -0.332
      -0.392
      -0.339
      -0.217
      -0.092
       0.008
       0.103
       0.221
       0.340
       0.386
       0.303
       0.126
      -0.036
      -0.078
       0.024
       0.208
       0.364
       0.389
       0.238
      -0.046
      -0.357
      -0.584
      -0.670
      -0.640
      -0.554
      -0.451
      -0.325
      -0.157
       0.046
       0.248
       0.406
       0.499
       0.530
       0.522
       0.502
       0.475
       0.414
       0.285
       0.083
      -0.153
      -0.367
      -0.519
      -0.587
      -0.560
      -0.428
      -0.185
       0.141
       0.479
       0.721
       0.746
       0.468
      -0.095
      -0.768
      -1.266
      -1.341
      -0.934
      -0.229
       0.450
       0.820
       0.794
       0.506
       0.182
      -0.017
      -0.074
      -0.062
      -0.056
      -0.073
      -0.086
      -0.061
       0.014
       0.124
       0.235
       0.309
       0.310
       0.210
       0.009
      -0.233
      -0.400
      -0.380
      -0.145
       0.207
       0.498
       0.568
       0.355
      -0.071
      -0.534
      -0.833
      -0.838
      -0.541
      -0.041
       0.496
       0.887
       0.992
       0.768
       0.307
      -0.201
      -0.550
      -0.628
      -0.477
      -0.256
      -0.134
      -0.198
      -0.405
      -0.605
      -0.613
      -0.318
       0.226
       0.813
       1.205
       1.264
       1.003
       0.546
       0.049
      -0.361
      -0.625
      -0.745
      -0.760
      -0.704
      -0.588
      -0.405
      -0.158
       0.122
       0.383
       0.588
       0.724
       0.777
       0.706
       0.468
       0.065
      -0.408
      -0.794
      -0.942
      -0.799
      -0.457
      -0.101
       0.123
       0.193
       0.189
       0.186
       0.194
       0.185
       0.162
       0.164
       0.211
       0.262
       0.253
       0.166
       0.056
      -0.020
      -0.080
      -0.210
      -0.451
      -0.715
      -0.822
      -0.637
      -0.175
       0.390
       0.824
       0.951
       0.735
       0.274
      -0.257
      -0.670
      -0.834
      -0.720
      -0.406
      -0.034
       0.254
       0.377
       0.345
       0.244
       0.176
       0.185
       0.224
       0.208
       0.078
      -0.147
      -0.374
      -0.477
      -0.379
      -0.129
       0.110
       0.166
      -0.015
      -0.321
      -0.546
      -0.510
      -0.179
       0.333
       0.835
       1.158
       1.195
       0.895
       0.308
      -0.384
      -0.910
      -1.054
      -0.790
      -0.282
       0.218
       0.512
       0.539
       0.348
       0.029
      -0.319
      -0.576
      -0.616
      -0.375
       0.066
       0.483
       0.635
       0.432
       0.021
      -0.315
      -0.365
      -0.127
       0.232
       0.525
       0.647
       0.588
       0.380
       0.070
      -0.274
      -0.549
      -0.644
      -0.499
      -0.153
       0.244
       0.483
       0.420
       0.086
      -0.308
      -0.516
      -0.437
      -0.182
       0.027
       0.058
      -0.028
      -0.061
       0.051
       0.220
       0.261
       0.071
      -0.258
      -0.497
      -0.465
      -0.180
       0.155
       0.314
       0.213
      -0.046
      -0.252
      -0.241
       0.001
       0.320
       0.500
       0.416
       0.105
      -0.264
      -0.510
      -0.536
      -0.365
      -0.100
       0.148
       0.319
       0.419
       0.465
       0.440
       0.283
      -0.047
      -0.485
      -0.843
      -0.894
      -0.533
       0.117
       0.744
       1.025
       0.826
       0.279
      -0.312
      -0.655
      -0.640
      -0.361
      -0.005
       0.298
       0.522
       0.687
       0.751
       0.596
       0.141
      -0.516
      -1.079
      -1.237
      -0.891
      -0.237
       0.367
       0.647
       0.572
       0.347
       0.223
       0.281
       0.371
       0.240
      -0.216
      -0.821
      -1.211
      -1.108
      -0.531
       0.205
       0.707
       0.764
       0.452
       0.054
      -0.155
      -0.084
       0.159
       0.389
       0.478
       0.404
       0.232
       0.043
      -0.119
      -0.272
      -0.448
      -0.629
      -0.722
      -0.621
      -0.306
       0.098
       0.389
       0.427
       0.246
       0.020
      -0.079
      -0.004
       0.161
       0.279
       0.254
       0.100
      -0.070
      -0.114
       0.037
       0.318
       0.564
       0.609
       0.393
       0.017
      -0.318
      -0.442
      -0.334
      -0.132
      -0.001
      -0.008
      -0.089
      -0.163
      -0.223
      -0.321
      -0.457
      -0.512
      -0.330
       0.121
       0.670
       1.023
       0.965
       0.527
      -0.033
      -0.421
      -0.501
      -0.359
      -0.201
      -0.208
      -0.418
      -0.701
      -0.845
      -0.678
      -0.187
       0.459
       0.983
       1.135
       0.811
       0.121
      -0.637
      -1.114
      -1.086
      -0.588
       0.114
       0.697
       0.964
       0.917
       0.682
       0.386
       0.105
      -0.121
      -0.260
      -0.301
      -0.265
      -0.188
      -0.100
      -0.033
      -0.021
      -0.082
      -0.191
      -0.286
      -0.310
      -0.242
      -0.106
       0.069
       0.265
       0.465
       0.629
       0.682
       0.554
       0.226
      -0.235
      -0.671
      -0.881
      -0.719
      -0.208
       0.425
       0.855
       0.867
       0.494
      -0.033
      -0.476
      -0.723
      -0.777
      -0.672
      -0.423
      -0.040
       0.413
       0.784
       0.879
       0.590
      -0.010
      -0.668
      -1.068
      -1.004
      -0.510
       0.137
       0.589
       0.653
       0.379
      -0.019
      -0.339
      -0.479
      -0.433
      -0.255
      -0.023
       0.173
       0.253
       0.178
      -0.029
      -0.260
      -0.367
      -0.257
       0.015
       0.282
       0.387
       0.307
       0.152
       0.063
       0.096
       0.208
       0.315
       0.351
       0.296
       0.184
       0.105
       0.149
       0.326
       0.514
       0.521
       0.223
      -0.307
      -0.797
      -0.939
      -0.611
       0.009
       0.549
       0.703
       0.422
      -0.095
      -0.564
      -0.800
      -0.777
      -0.581
      -0.313
      -0.021
       0.283
       0.564
       0.730
       0.680
       0.406
       0.027
      -0.270
      -0.357
      -0.248
      -0.074
       0.025
      -0.016
      -0.161
      -0.328
      -0.448
      -0.487
      -0.442
      -0.333
      -0.200
      -0.060
       0.113
       0.359
       0.646
       0.833
       0.740
       0.313
      -0.272
      -0.679
      -0.653
      -0.228
       0.289
       0.553
       0.419
       0.008
      -0.427
      -0.678
      -0.664
      -0.427
      -0.078
       0.255
       0.481
       0.574
       0.570
       0.508
       0.402
       0.252
       0.085
      -0.040
      -0.080
      -0.057
      -0.044
      -0.093
      -0.173
      -0.206
      -0.166
      -0.101
      -0.049
       0.027
       0.184
       0.380
       0.458
       0.278
      -0.136
      -0.580
      -0.822
      -0.763
      -0.469
      -0.098
       0.211
       0.371
       0.352
       0.162
      -0.145
      -0.452
      -0.598
      -0.456
      -0.030
       0.522
       0.951
       1.048
       0.760
       0.226
      -0.314
      -0.665
      -0.764
      -0.641
      -0.343
       0.088
       0.557
       0.904
       0.981
       0.747
       0.297
      -0.191
      -0.553
      -0.690
      -0.583
      -0.277
       0.143
       0.562
       0.854
       0.915
       0.701
       0.250
      -0.310
      -0.772
      -0.920
      -0.664
      -0.124
       0.411
       0.665
       0.548
       0.188
      -0.185
      -0.408
      -0.463
      -0.442
      -0.424
      -0.400
      -0.296
      -0.071
       0.207
       0.401
       0.424
       0.328
       0.254
       0.280
       0.325
       0.224
      -0.098
      -0.514
      -0.792
      -0.792
      -0.566
      -0.269
      -0.013
       0.187
       0.356
       0.489
       0.554
       0.539
       0.483
       0.437
       0.399
       0.311
       0.124
      -0.133
      -0.370
      -0.501
      -0.495
      -0.370
      -0.167
       0.087
       0.378
       0.687
       0.977
       1.194
       1.273
       1.134
       0.708
      -0.005
      -0.876
      -1.661
      -2.110
      -2.081
      -1.607
      -0.881
      -0.158
       0.367
       0.629
       0.673
       0.549
       0.261
      -0.201
      -0.767
      -1.263
      -1.490
      -1.372
      -1.029
      -0.694
      -0.525
      -0.493
      -0.426
      -0.174
       0.274
       0.805
       1.279
       1.611
       1.784
       1.808
       1.671
       1.341
       0.795
       0.093
      -0.575
      -0.938
      -0.807
      -0.241
       0.444
       0.841
       0.713
       0.152
      -0.489
      -0.856
      -0.856
      -0.685
      -0.601
      -0.663
      -0.674
      -0.392
       0.203
       0.836
       1.157
       1.047
       0.745
       0.647
       0.961
       1.491
       1.746
       1.288
       0.058
      -1.581
      -3.066
      -3.909
      -3.873
      -2.997
      -1.561
      -0.001
       1.230
       1.834
       1.781
       1.286
       0.660
       0.139
      -0.202
      -0.406
      -0.540
      -0.639
      -0.700
      -0.703
      -0.607
      -0.357
       0.078
       0.643
       1.184
       1.532
       1.617
       1.517
       1.379
       1.283
       1.173
       0.920
       0.452
      -0.173
      -0.783
      -1.201
      -1.359
      -1.325
      -1.225
      -1.127
      -1.010
      -0.821
      -0.520
      -0.096
       0.454
       1.106
       1.768
       2.287
       2.524
       2.449
       2.162
       1.805
       1.452
       1.065
       0.562
      -0.054
      -0.642
      -1.031
      -1.199
      -1.334
      -1.687
      -2.346
      -3.111
      -3.600
      -3.468
      -2.618
      -1.253
       0.234
       1.444
       2.107
       2.146
       1.665
       0.907
       0.177
      -0.253
      -0.254
       0.077
       0.448
       0.525
       0.150
      -0.520
      -1.069
      -1.082
      -0.439
       0.582
       1.482
       1.858
       1.600
       0.848
      -0.196
      -1.354
      -2.382
      -2.877
      -2.430
      -0.956
       1.109
       2.962
       3.849
       3.471
       2.126
       0.485
      -0.830
      -1.550
      -1.753
      -1.654
      -1.415
      -1.082
      -0.654
      -0.205
       0.079
       0.043
      -0.232
      -0.424
      -0.249
       0.238
       0.674
       0.730
       0.427
       0.093
       0.018
       0.183
       0.317
       0.191
      -0.165
      -0.499
      -0.532
      -0.160
       0.472
       1.039
       1.224
       0.931
       0.345
      -0.204
      -0.462
      -0.385
      -0.084
       0.290
       0.618
       0.800
       0.733
       0.362
      -0.255
      -0.947
      -1.515
      -1.828
      -1.859
      -1.639
      -1.229
      -0.716
      -0.190
       0.297
       0.760
       1.240
       1.736
       2.180
       2.450
       2.401
       1.905
       0.937
      -0.360
      -1.697
      -2.756
      -3.298
      -3.223
      -2.590
      -1.581
      -0.440
       0.602
       1.368
       1.751
       1.726
       1.375
       0.892
       0.539
       0.504
       0.765
       1.074
       1.122
       0.730
      -0.057
      -1.026
      -1.907
      -2.465
      -2.520
      -1.949
      -0.754
       0.852
       2.421
       3.392
       3.346
       2.255
       0.536
      -1.151
      -2.228
      -2.436
      -1.905
      -1.051
      -0.365
      -0.180
      -0.523
      -1.144
      -1.671
      -1.785
      -1.315
      -0.255
       1.236
       2.818
       3.981
       4.192
       3.163
       1.090
      -1.345
      -3.249
      -3.952
      -3.338
      -1.855
      -0.239
       0.894
       1.333
       1.289
       1.165
       1.259
       1.607
       2.023
       2.263
       2.174
       1.740
       1.023
       0.092
      -0.951
      -1.897
      -2.436
      -2.325
      -1.592
      -0.572
       0.284
       0.680
       0.609
       0.268
      -0.139
      -0.517
      -0.867
      -1.169
      -1.301
      -1.083
      -0.429
       0.523
       1.410
       1.830
       1.585
       0.823
      -0.038
      -0.561
      -0.525
      -0.013
       0.681
       1.207
       1.311
       0.910
       0.096
      -0.885
      -1.693
      -2.007
      -1.705
      -0.971
      -0.210
       0.191
       0.075
      -0.427
      -1.000
      -1.325
      -1.221
      -0.719
      -0.031
       0.574
       0.929
       1.074
       1.204
       1.493
       1.927
       2.289
       2.281
       1.718
       0.658
      -0.585
      -1.594
      -2.061
      -1.958
      -1.544
      -1.190
      -1.130
      -1.313
      -1.464
      -1.292
      -0.680
       0.262
       1.263
       2.026
       2.339
       2.141
       1.536
       0.759
       0.068
      -0.382
      -0.590
      -0.661
      -0.699
      -0.729
      -0.710
      -0.600
      -0.390
      -0.085
       0.329
       0.845
       1.353
       1.613
       1.350
       0.466
      -0.818
      -2.023
      -2.679
      -2.564
      -1.776
      -0.596
       0.675
       1.802
       2.606
       2.940
       2.717
       1.946
       0.757
      -0.613
      -1.849
      -2.643
      -2.799
      -2.319
      -1.414
      -0.426
       0.322
       0.671
       0.670
       0.511
       0.393
       0.414
       0.537
       0.642
       0.625
       0.479
       0.291
       0.154
       0.089
       0.025
      -0.114
      -0.309
      -0.415
      -0.274
       0.112
       0.529
       0.704
       0.538
       0.210
       0.042
       0.238
       0.692
       1.035
       0.901
       0.220
      -0.710
      -1.401
      -1.485
      -0.936
      -0.088
       0.557
       0.643
       0.171
      -0.533
      -1.065
      -1.198
      -0.971
      -0.586
      -0.230
       0.049
       0.347
       0.759
       1.217
       1.478
       1.322
       0.763
       0.081
      -0.382
      -0.491
      -0.408
      -0.432
      -0.714
      -1.092
      -1.199
      -0.786
       0.015
       0.735
       0.910
       0.430
      -0.367
      -0.938
      -0.920
      -0.374
       0.312
       0.770
       0.915
       0.926
       0.976
       1.002
       0.742
       0.006
      -1.069
      -2.037
      -2.407
      -1.958
      -0.874
       0.349
       1.187
       1.369
       0.993
       0.389
      -0.119
      -0.384
      -0.436
      -0.381
      -0.281
      -0.107
       0.192
       0.565
       0.810
       0.708
       0.248
      -0.276
      -0.466
      -0.176
       0.324
       0.553
       0.228
      -0.488
      -1.099
      -1.139
      -0.497
       0.523
       1.410
       1.761
       1.490
       0.824
       0.125
      -0.327
      -0.462
      -0.413
      -0.384
      -0.468
      -0.559
      -0.454
      -0.061
       0.481
       0.882
       0.902
       0.516
      -0.100
      -0.729
      -1.236
      -1.550
      -1.579
      -1.236
      -0.578
       0.130
       0.545
       0.483
       0.072
      -0.305
      -0.263
       0.301
       1.108
       1.687
       1.696
       1.131
       0.308
      -0.331
      -0.465
      -0.056
       0.639
       1.233
       1.444
       1.243
       0.819
       0.401
       0.074
      -0.248
      -0.680
      -1.191
      -1.597
      -1.719
      -1.558
      -1.281
      -1.031
      -0.785
      -0.426
       0.080
       0.602
       0.952
       1.037
       0.894
       0.621
       0.302
       0.004
      -0.210
      -0.315
      -0.358
      -0.408
      -0.449
      -0.369
      -0.096
       0.246
       0.375
       0.083
      -0.525
      -1.056
      -1.137
      -0.743
      -0.205
       0.093
       0.017
      -0.273
      -0.512
      -0.525
      -0.279
       0.171
       0.742
       1.326
       1.770
       1.907
       1.640
       1.015
       0.232
      -0.442
      -0.807
      -0.809
      -0.560
      -0.287
      -0.233
      -0.506
      -0.968
      -1.301
      -1.245
      -0.828
      -0.361
      -0.190
      -0.387
      -0.637
      -0.435
       0.529
       2.071
       3.537
       4.187
       3.661
       2.202
       0.456
      -0.959
      -1.781
      -2.110
      -2.157
      -2.028
      -1.717
      -1.253
      -0.818
      -0.682
      -0.969
      -1.481
      -1.773
      -1.460
      -0.505
       0.723
       1.689
       2.046
       1.846
       1.420
       1.070
       0.864
       0.704
       0.513
       0.321
       0.210
       0.212
       0.278
       0.306
       0.183
      -0.158
      -0.666
      -1.156
      -1.395
      -1.235
      -0.714
      -0.038
       0.519
       0.755
       0.652
       0.385
       0.207
       0.283
       0.602
       1.007
       1.279
       1.203
       0.634
      -0.418
      -1.734
      -2.905
      -3.455
      -3.039
      -1.648
       0.320
       2.196
       3.325
       3.354
       2.377
       0.893
      -0.412
      -0.971
      -0.623
       0.284
       1.098
       1.260
       0.627
      -0.493
      -1.564
      -2.124
      -1.980
      -1.236
      -0.190
       0.808
       1.450
       1.533
       1.013
       0.059
      -0.971
      -1.673
      -1.784
      -1.317
      -0.520
       0.286
       0.881
       1.193
       1.201
       0.858
       0.148
      -0.737
      -1.374
      -1.340
