Origin Time       29/05/2008 10:34:46
Lat.              26.6 N 
Long.             91.8 E 
Depth (Km)         33.0
Magnitude         4.2
 Region           DARRANG-ASSAM                                                    
 Above details taken from IMD 
     
Station Code      MOR
Station Lat.       26.248  N
Station Long.      92.339  E
Station Height(m)    0.0
Site Class        C   Vs30 between 200 m/sec to 375 m/sec *  
Record Time       29.05.2008 10:34:50.749
Sampling Rate     200. Hz
 Record Duration   33.485 Sec.
 Direction         E-W (E positive)
Max. Acceleration    -15.794 cm/sec**2
     
  * For reference see Site Classification link of website 
     
 Base Line Corrected and Low Pass Filtered (Cut Off at 35 Hz) Time History
 Acceleration data in cm/sec**2
    
[...]
      -0.201
      -0.621
      -1.017
      -1.183
      -1.006
      -0.548
      -0.004
       0.421
       0.615
       0.581
       0.386
       0.116
      -0.153
      -0.352
      -0.430
      -0.369
      -0.200
       0.005
       0.177
       0.289
       0.346
       0.329
       0.182
      -0.121
      -0.499
      -0.766
      -0.747
      -0.397
       0.158
       0.691
       1.007
       1.052
       0.903
       0.687
       0.487
       0.322
       0.182
       0.052
      -0.082
      -0.230
      -0.405
      -0.599
      -0.787
      -0.926
      -0.967
      -0.862
      -0.598
      -0.239
       0.083
       0.237
       0.183
       0.007
      -0.132
      -0.100
       0.142
       0.522
       0.884
       1.052
       0.914
       0.494
      -0.046
      -0.483
      -0.641
      -0.473
      -0.071
       0.371
       0.639
       0.591
       0.235
      -0.260
      -0.641
      -0.707
      -0.431
       0.017
       0.373
       0.436
       0.182
      -0.235
      -0.589
      -0.705
      -0.531
      -0.143
       0.299
       0.623
       0.712
       0.566
       0.294
       0.046
      -0.091
      -0.131
      -0.129
      -0.104
      -0.015
       0.161
       0.358
       0.447
       0.352
       0.139
      -0.041
      -0.101
      -0.102
      -0.197
      -0.477
      -0.862
      -1.123
      -1.041
      -0.583
       0.039
       0.496
       0.569
       0.288
      -0.119
      -0.398
      -0.432
      -0.284
      -0.109
      -0.004
       0.061
       0.190
       0.427
       0.687
       0.807
       0.668
       0.292
      -0.154
      -0.452
      -0.469
      -0.244
       0.054
       0.236
       0.219
       0.058
      -0.109
      -0.169
      -0.115
      -0.035
      -0.024
      -0.110
      -0.232
      -0.301
      -0.259
      -0.100
       0.143
       0.399
       0.567
       0.561
       0.387
       0.159
       0.011
      -0.014
      -0.003
      -0.086
      -0.309
      -0.587
      -0.757
      -0.688
      -0.374
       0.068
       0.466
       0.668
       0.592
       0.262
      -0.186
      -0.556
      -0.695
      -0.585
      -0.337
      -0.100
       0.053
       0.160
       0.305
       0.519
       0.738
       0.845
       0.750
       0.453
       0.064
      -0.251
      -0.372
      -0.297
      -0.142
      -0.049
      -0.087
      -0.213
      -0.326
      -0.345
      -0.251
      -0.077
       0.117
       0.269
       0.335
       0.305
       0.209
       0.098
       0.025
       0.010
       0.035
       0.050
       0.016
      -0.081
      -0.223
      -0.371
      -0.458
      -0.404
      -0.166
       0.214
       0.607
       0.842
       0.797
       0.462
      -0.042
      -0.524
      -0.824
      -0.870
      -0.678
      -0.322
       0.085
       0.420
       0.600
       0.610
       0.501
       0.340
       0.171
       0.006
      -0.152
      -0.279
      -0.327
      -0.267
      -0.123
       0.028
       0.107
       0.086
      -0.014
      -0.146
      -0.269
      -0.362
      -0.418
      -0.418
      -0.321
      -0.099
       0.200
       0.436
       0.453
       0.200
      -0.213
      -0.557
      -0.609
      -0.285
       0.300
       0.879
       1.188
       1.113
       0.738
       0.259
      -0.148
      -0.404
      -0.515
      -0.537
      -0.535
      -0.535
      -0.509
      -0.407
      -0.220
      -0.014
       0.122
       0.159
       0.147
       0.155
       0.205
       0.272
       0.328
       0.374
       0.417
       0.439
       0.395
       0.250
       0.021
      -0.213
      -0.353
      -0.344
      -0.220
      -0.091
      -0.071
      -0.187
      -0.355
      -0.450
      -0.408
      -0.253
      -0.049
       0.160
       0.349
       0.467
       0.452
       0.289
       0.054
      -0.139
      -0.230
      -0.237
      -0.205
      -0.139
      -0.011
       0.192
       0.435
       0.638
       0.698
       0.540
       0.165
      -0.313
      -0.701
      -0.811
      -0.571
      -0.080
       0.431
       0.708
       0.610
       0.196
      -0.312
      -0.666
      -0.742
      -0.592
      -0.356
      -0.139
       0.050
       0.254
       0.473
       0.624
       0.607
       0.407
       0.128
      -0.085
      -0.162
      -0.147
      -0.125
      -0.120
      -0.076
       0.056
       0.235
       0.339
       0.269
       0.046
      -0.193
      -0.286
      -0.167
       0.092
       0.324
       0.377
       0.209
      -0.096
      -0.402
      -0.610
      -0.693
      -0.665
      -0.552
      -0.381
      -0.195
      -0.044
       0.057
       0.139
       0.249
       0.390
       0.504
       0.521
       0.423
       0.251
       0.064
      -0.085
      -0.160
      -0.147
      -0.071
       0.020
       0.092
       0.152
       0.224
       0.299
       0.320
       0.235
       0.056
      -0.153
      -0.325
      -0.418
      -0.413
      -0.299
      -0.096
       0.139
       0.325
       0.404
       0.359
       0.205
      -0.034
      -0.319
      -0.558
      -0.617
      -0.417
      -0.021
       0.367
       0.543
       0.450
       0.206
       0.003
      -0.052
      -0.022
      -0.073
      -0.324
      -0.726
      -1.062
      -1.084
      -0.697
      -0.060
       0.503
       0.710
       0.511
       0.123
      -0.134
      -0.071
       0.247
       0.581
       0.722
       0.633
       0.425
       0.233
       0.109
       0.020
      -0.071
      -0.156
      -0.192
      -0.168
      -0.115
      -0.066
      -0.030
       0.002
       0.037
       0.073
       0.099
       0.087
      -0.016
      -0.240
      -0.525
      -0.706
      -0.626
      -0.272
       0.181
       0.492
       0.538
       0.396
       0.250
       0.223
       0.289
       0.338
       0.287
       0.139
      -0.062
      -0.273
      -0.452
      -0.523
      -0.401
      -0.063
       0.379
       0.694
       0.668
       0.267
      -0.301
      -0.702
      -0.692
      -0.284
       0.255
       0.577
       0.490
       0.077
      -0.387
      -0.630
      -0.542
      -0.204
       0.188
       0.446
       0.479
       0.318
       0.061
      -0.184
      -0.332
      -0.338
      -0.226
      -0.092
      -0.060
      -0.199
      -0.463
      -0.689
      -0.684
      -0.368
       0.133
       0.546
       0.644
       0.420
       0.074
      -0.143
      -0.115
       0.077
       0.256
       0.292
       0.185
       0.042
      -0.012
       0.083
       0.283
       0.472
       0.532
       0.405
       0.121
      -0.215
      -0.460
      -0.510
      -0.363
      -0.133
       0.019
      -0.011
      -0.210
      -0.479
      -0.699
      -0.778
      -0.660
      -0.338
       0.127
       0.597
       0.905
       0.934
       0.688
       0.289
      -0.089
      -0.310
      -0.352
      -0.299
      -0.268
      -0.287
      -0.259
      -0.056
       0.328
       0.739
       0.967
       0.889
       0.538
       0.060
      -0.363
      -0.594
      -0.581
      -0.367
      -0.058
       0.206
       0.301
       0.176
      -0.107
      -0.399
      -0.552
      -0.508
      -0.322
      -0.115
       0.013
       0.040
       0.006
      -0.032
      -0.039
      -0.012
       0.030
       0.075
       0.131
       0.209
       0.288
       0.308
       0.224
       0.073
      -0.049
      -0.074
      -0.024
       0.008
      -0.038
      -0.131
      -0.174
      -0.083
       0.149
       0.439
       0.657
       0.695
       0.528
       0.240
      -0.034
      -0.198
      -0.262
      -0.324
      -0.474
      -0.698
      -0.881
      -0.877
      -0.630
      -0.223
       0.153
       0.325
       0.253
       0.051
      -0.120
      -0.180
      -0.172
      -0.182
      -0.220
      -0.192
       0.004
       0.364
       0.742
       0.953
       0.895
       0.607
       0.226
      -0.117
      -0.353
      -0.472
      -0.492
      -0.439
      -0.340
      -0.217
      -0.072
       0.088
       0.214
       0.210
       0.022
      -0.264
      -0.432
      -0.300
       0.104
       0.552
       0.785
       0.711
       0.437
       0.143
      -0.048
      -0.109
      -0.073
       0.004
       0.059
       0.041
      -0.060
      -0.206
      -0.357
      -0.504
      -0.640
      -0.723
      -0.678
      -0.457
      -0.100
       0.260
       0.473
       0.450
       0.204
      -0.147
      -0.415
      -0.417
      -0.092
       0.421
       0.840
       0.916
       0.605
       0.076
      -0.407
      -0.647
      -0.601
      -0.365
      -0.074
       0.175
       0.344
       0.423
       0.395
       0.256
       0.054
      -0.116
      -0.163
      -0.066
       0.116
       0.288
       0.376
       0.352
       0.226
       0.042
      -0.149
      -0.299
      -0.383
      -0.412
      -0.428
      -0.469
      -0.541
      -0.601
      -0.595
      -0.489
      -0.290
      -0.058
       0.115
       0.150
       0.046
      -0.109
      -0.183
      -0.085
       0.182
       0.528
       0.828
       0.974
       0.909
       0.657
       0.339
       0.099
      -0.009
      -0.062
      -0.175
      -0.369
      -0.537
      -0.546
      -0.354
      -0.030
       0.298
       0.506
       0.509
       0.299
      -0.026
      -0.292
      -0.368
      -0.281
      -0.195
      -0.242
      -0.387
      -0.466
      -0.355
      -0.094
       0.137
       0.157
      -0.075
      -0.420
      -0.662
      -0.646
      -0.360
       0.102
       0.615
       1.052
       1.288
       1.221
       0.847
       0.302
      -0.192
      -0.461
      -0.467
      -0.296
      -0.090
       0.027
      -0.012
      -0.193
      -0.420
      -0.562
      -0.521
      -0.302
      -0.018
       0.188
       0.256
       0.255
       0.298
       0.410
       0.493
       0.419
       0.147
      -0.237
      -0.574
      -0.736
      -0.706
      -0.593
      -0.545
      -0.630
      -0.770
      -0.803
      -0.631
      -0.289
       0.107
       0.453
       0.701
       0.858
       0.956
       1.018
       1.029
       0.935
       0.720
       0.454
       0.247
       0.150
       0.108
       0.021
      -0.146
      -0.329
      -0.418
      -0.350
      -0.167
       0.000
       0.008
      -0.208
      -0.566
      -0.871
      -0.947
      -0.763
      -0.433
      -0.094
       0.187
       0.417
       0.603
       0.717
       0.712
       0.575
       0.358
       0.136
      -0.056
      -0.243
      -0.460
      -0.693
      -0.857
      -0.838
      -0.579
      -0.149
       0.284
       0.557
       0.631
       0.599
       0.589
       0.637
       0.646
       0.483
       0.134
      -0.261
      -0.523
      -0.582
      -0.496
      -0.362
      -0.223
      -0.065
       0.119
       0.281
       0.323
       0.172
      -0.149
      -0.498
      -0.674
      -0.553
      -0.188
       0.203
       0.385
       0.295
       0.094
       0.039
       0.258
       0.637
       0.907
       0.849
       0.456
      -0.070
      -0.457
      -0.549
      -0.401
      -0.239
      -0.281
      -0.562
      -0.896
      -1.017
      -0.781
      -0.262
       0.316
       0.738
       0.901
       0.816
       0.561
       0.240
      -0.042
      -0.203
      -0.215
      -0.123
      -0.022
       0.015
      -0.014
      -0.053
      -0.054
      -0.026
      -0.036
      -0.142
      -0.322
      -0.470
      -0.462
      -0.258
       0.078
       0.438
       0.716
       0.811
       0.647
       0.236
      -0.264
      -0.615
      -0.647
      -0.383
      -0.007
       0.285
       0.427
       0.478
       0.502
       0.462
       0.259
      -0.137
      -0.589
      -0.879
      -0.862
      -0.564
      -0.151
       0.159
       0.200
      -0.046
      -0.430
      -0.726
      -0.776
      -0.567
      -0.205
       0.165
       0.433
       0.565
       0.613
       0.672
       0.807
       0.987
       1.072
       0.895
       0.394
      -0.295
      -0.898
      -1.164
      -1.029
      -0.640
      -0.229
       0.033
       0.109
       0.058
      -0.012
       0.012
       0.185
       0.438
       0.580
       0.430
       0.001
      -0.454
      -0.611
      -0.328
       0.219
       0.672
       0.755
       0.454
      -0.001
      -0.340
      -0.444
      -0.395
      -0.356
      -0.425
      -0.607
      -0.877
      -1.210
      -1.549
      -1.815
      -1.952
      -1.932
      -1.689
      -1.105
      -0.137
       1.053
       2.106
       2.638
       2.426
       1.493
       0.084
      -1.444
      -2.765
      -3.717
      -4.335
      -4.715
      -4.805
      -4.312
      -2.843
      -0.206
       3.349
       7.129
      10.267
      12.108
      12.458
      11.539
       9.724
       7.275
       4.295
       0.897
      -2.607
      -5.714
      -7.974
      -9.234
      -9.686
      -9.697
      -9.566
      -9.322
      -8.669
      -7.116
      -4.261
      -0.091
       4.871
       9.651
      13.172
      14.692
      14.067
      11.666
       8.093
       3.986
      -0.004
      -3.235
      -5.262
      -6.072
      -6.088
      -5.783
      -5.221
      -3.995
      -1.746
       1.190
       3.691
       4.534
       3.329
       0.953
      -0.886
      -0.640
       2.136
       6.412
      10.069
      10.885
       7.707
       1.163
      -6.559
     -12.811
     -15.794
     -15.251
     -12.249
      -8.385
      -4.976
      -2.600
      -1.072
       0.208
       1.671
       3.107
       3.740
       2.925
       0.957
      -0.817
      -0.843
       1.393
       4.766
       7.123
       6.705
       3.287
      -1.759
      -6.346
      -8.763
      -8.330
      -5.458
      -1.337
       2.581
       5.166
       5.977
       5.178
       3.097
      -0.058
      -3.972
      -7.774
     -10.070
      -9.688
      -6.566
      -1.913
       2.564
       5.701
       7.342
       7.979
       8.055
       7.588
       6.356
       4.421
       2.419
       1.272
       1.452
       2.376
       2.585
       0.709
      -3.428
      -8.445
     -12.083
     -12.437
      -8.969
      -2.736
       4.168
       9.622
      12.358
      12.257
      10.003
       6.443
       2.203
      -2.215
      -6.072
      -8.302
      -8.000
      -5.197
      -1.221
       1.895
       2.673
       1.204
      -0.925
      -1.798
      -0.549
       2.055
       4.240
       4.499
       2.555
      -0.596
      -3.486
      -5.156
      -5.576
      -5.297
      -4.711
      -3.620
      -1.539
       1.573
       4.901
       7.155
       7.449
       5.894
       3.403
       0.962
      -0.921
      -2.193
      -2.906
      -3.094
      -2.974
      -3.047
      -3.779
      -5.111
      -6.305
      -6.345
      -4.567
      -1.058
       3.369
       7.482
      10.030
      10.105
       7.509
       3.007
      -1.783
      -5.068
      -5.833
      -4.402
      -2.102
      -0.309
       0.340
       0.053
      -0.561
      -0.944
      -0.769
       0.037
       1.295
       2.609
       3.526
       3.754
       3.293
       2.361
       1.226
       0.080
      -0.981
      -1.922
      -2.712
      -3.277
      -3.521
      -3.388
      -2.940
      -2.335
      -1.712
      -1.041
      -0.093
       1.371
       3.274
       5.032
       5.771
       4.865
       2.443
      -0.576
      -2.972
      -3.936
      -3.514
      -2.477
      -1.725
      -1.695
      -2.189
      -2.639
      -2.494
      -1.473
       0.387
       2.757
       5.132
       7.002
       8.005
       7.897
       6.446
       3.514
      -0.531
      -4.496
      -6.676
      -5.918
      -2.665
       0.971
       2.415
       0.320
      -4.513
      -9.673
     -12.696
     -12.501
      -9.717
      -5.826
      -1.944
       1.720
       5.390
       8.858
      11.203
      11.421
       9.369
       6.089
       3.133
       1.484
       1.001
       0.840
       0.322
      -0.549
      -1.280
      -1.472
      -1.228
      -1.065
      -1.414
      -2.142
      -2.536
      -1.840
       0.046
       2.329
       3.807
       3.751
       2.456
       0.995
       0.388
       0.891
       1.898
       2.427
       1.770
      -0.057
      -2.287
      -3.836
      -3.989
      -2.874
      -1.316
      -0.192
       0.184
       0.161
       0.370
       1.219
       2.580
       3.847
       4.319
       3.658
       2.062
      -0.011
      -2.272
      -4.703
      -7.222
      -9.309
     -10.094
      -8.943
      -6.033
      -2.388
       0.689
       2.382
       2.783
       2.695
       2.974
       3.889
       4.941
       5.247
       4.197
       1.913
      -0.800
      -2.947
      -3.914
      -3.747
      -2.990
      -2.243
      -1.765
      -1.378
      -0.698
       0.484
       1.977
       3.269
       3.865
       3.599
       2.690
       1.512
       0.340
      -0.734
      -1.728
      -2.655
      -3.406
      -3.683
      -3.082
      -1.417
       0.942
       3.068
       3.990
       3.403
       2.001
       1.052
       1.448
       2.988
       4.508
       4.803
       3.548
       1.475
      -0.234
      -0.796
      -0.302
       0.395
       0.241
      -1.312
      -3.836
      -6.053
      -6.599
      -4.985
      -1.993
       0.894
       2.614
       3.223
       3.588
       4.411
       5.526
       6.050
       5.156
       2.771
      -0.345
      -3.076
      -4.571
      -4.628
      -3.702
      -2.608
      -2.073
      -2.322
      -2.956
      -3.255
      -2.718
      -1.444
      -0.024
       0.938
       1.276
       1.313
       1.513
       2.070
       2.785
       3.279
       3.312
       2.917
       2.318
       1.774
       1.432
       1.228
       0.884
       0.070
      -1.340
      -3.115
      -4.776
      -5.848
      -6.054
      -5.390
      -4.119
      -2.694
      -1.586
      -1.080
      -1.162
      -1.568
      -1.899
      -1.750
      -0.845
       0.757
       2.516
       3.576
       3.291
       1.716
      -0.416
      -2.253
      -3.364
      -3.772
      -3.558
      -2.602
      -0.780
       1.656
       4.023
       5.600
       6.085
       5.711
       4.976
       4.272
       3.726
       3.300
       2.959
       2.716
       2.572
       2.485
       2.380
       2.120
       1.440
       0.026
      -2.157
      -4.503
      -5.877
      -5.358
      -3.103
      -0.467
       0.894
       0.272
      -1.581
      -3.092
      -3.103
      -1.649
       0.246
       1.443
       1.445
       0.544
      -0.578
      -1.352
      -1.609
      -1.564
      -1.604
      -1.964
      -2.500
      -2.751
      -2.320
      -1.282
      -0.200
       0.355
       0.326
       0.158
       0.281
       0.658
       0.931
       0.937
       0.958
       1.382
       2.169
       2.735
       2.448
       1.261
      -0.135
      -0.828
      -0.407
       0.735
       1.742
       1.942
       1.240
       0.038
      -1.142
      -1.935
      -2.170
      -1.798
      -0.895
       0.284
       1.349
       1.956
       1.979
       1.549
       0.926
       0.342
      -0.072
      -0.272
      -0.274
      -0.132
