Origin Time       13/03/2008 15:42:38 UTC
Lat.              26.6 N 
Long.             91.8 E 
Depth (Km)         33.0
Magnitude         4.0
 Region           DARRANG-ASSAM                                                    
 Above details taken from IMD 
    
Station Code      MOR
Station Lat.       26.248  N
Station Long.      92.339  E
Station Height(m)    0.0
Site Class        C   Vs30 between 200 m/sec to 375 m/sec *  
Record Time       13.03.2008 15:42:41.719 UTC
Sampling Rate     200. Hz
 Record Duration   30.985 Sec.
 Direction         N-S (N positive)
Max. Acceleration     -8.283 cm/sec**2
     
  * For reference see Site Classification link of website 
     
 Base Line Corrected and Low Pass Filtered (Cut Off at 35 Hz) Time History
 Acceleration data in cm/sec**2
    
[...]
      -0.380
      -0.401
      -0.320
      -0.138
       0.093
       0.294
       0.393
       0.353
       0.187
      -0.048
      -0.268
      -0.402
      -0.415
      -0.329
      -0.199
      -0.091
      -0.034
      -0.006
       0.043
       0.146
       0.277
       0.368
       0.357
       0.240
       0.074
      -0.061
      -0.112
      -0.072
       0.029
       0.149
       0.250
       0.297
       0.267
       0.148
      -0.041
      -0.252
      -0.421
      -0.503
      -0.496
      -0.428
      -0.329
      -0.198
      -0.029
       0.161
       0.310
       0.359
       0.298
       0.188
       0.118
       0.145
       0.252
       0.375
       0.457
       0.483
       0.473
       0.441
       0.381
       0.289
       0.180
       0.077
      -0.015
      -0.121
      -0.262
      -0.426
      -0.571
      -0.657
      -0.667
      -0.613
      -0.515
      -0.385
      -0.238
      -0.092
       0.030
       0.117
       0.184
       0.259
       0.349
       0.413
       0.376
       0.181
      -0.149
      -0.502
      -0.729
      -0.737
      -0.544
      -0.258
      -0.013
       0.120
       0.155
       0.174
       0.264
       0.453
       0.680
       0.820
       0.768
       0.514
       0.155
      -0.163
      -0.338
      -0.356
      -0.266
      -0.128
       0.020
       0.149
       0.228
       0.221
       0.115
      -0.065
      -0.271
      -0.459
      -0.603
      -0.698
      -0.738
      -0.709
      -0.595
      -0.395
      -0.143
       0.095
       0.246
       0.266
       0.170
       0.024
      -0.085
      -0.094
       0.006
       0.174
       0.350
       0.486
       0.559
       0.569
       0.529
       0.457
       0.371
       0.278
       0.172
       0.034
      -0.141
      -0.327
      -0.471
      -0.523
      -0.465
      -0.327
      -0.164
      -0.025
       0.075
       0.151
       0.223
       0.286
       0.308
       0.250
       0.109
      -0.070
      -0.217
      -0.278
      -0.235
      -0.108
       0.056
       0.195
       0.250
       0.189
       0.027
      -0.176
      -0.338
      -0.394
      -0.333
      -0.202
      -0.072
       0.011
       0.050
       0.079
       0.129
       0.209
       0.310
       0.415
       0.501
       0.537
       0.490
       0.342
       0.106
      -0.172
      -0.413
      -0.537
      -0.507
      -0.352
      -0.160
      -0.027
       0.005
      -0.027
      -0.041
       0.022
       0.152
       0.284
       0.350
       0.328
       0.245
       0.148
       0.074
       0.040
       0.050
       0.098
       0.162
       0.209
       0.197
       0.102
      -0.069
      -0.279
      -0.478
      -0.625
      -0.690
      -0.660
      -0.547
      -0.392
      -0.255
      -0.176
      -0.145
      -0.108
      -0.006
       0.173
       0.382
       0.544
       0.602
       0.556
       0.456
       0.368
       0.337
       0.353
       0.358
       0.283
       0.106
      -0.121
      -0.299
      -0.347
      -0.259
      -0.108
      -0.006
      -0.038
      -0.206
      -0.435
      -0.612
      -0.660
      -0.585
      -0.463
      -0.384
      -0.386
      -0.433
      -0.445
      -0.358
      -0.168
       0.077
       0.310
       0.488
       0.604
       0.667
       0.680
       0.622
       0.472
       0.231
      -0.062
      -0.337
      -0.523
      -0.576
      -0.487
      -0.283
      -0.010
       0.284
       0.548
       0.737
       0.817
       0.777
       0.635
       0.438
       0.242
       0.098
       0.032
       0.039
       0.081
       0.105
       0.075
      -0.011
      -0.120
      -0.211
      -0.247
      -0.209
      -0.107
       0.017
       0.093
       0.063
      -0.078
      -0.278
      -0.463
      -0.582
      -0.630
      -0.621
      -0.559
      -0.429
      -0.232
      -0.005
       0.177
       0.251
       0.218
       0.147
       0.134
       0.223
       0.369
       0.477
       0.470
       0.345
       0.154
      -0.036
      -0.180
      -0.255
      -0.244
      -0.140
       0.046
       0.275
       0.485
       0.619
       0.639
       0.536
       0.319
       0.020
      -0.301
      -0.558
      -0.676
      -0.632
      -0.469
      -0.274
      -0.122
      -0.043
      -0.014
       0.019
       0.101
       0.234
       0.377
       0.470
       0.472
       0.371
       0.183
      -0.057
      -0.299
      -0.469
      -0.491
      -0.327
      -0.025
       0.291
       0.479
       0.465
       0.278
       0.019
      -0.208
      -0.344
      -0.383
      -0.356
      -0.301
      -0.250
      -0.219
      -0.208
      -0.198
      -0.161
      -0.068
       0.087
       0.279
       0.443
       0.511
       0.440
       0.244
      -0.008
      -0.220
      -0.316
      -0.278
      -0.149
      -0.008
       0.082
       0.101
       0.076
       0.050
       0.053
       0.075
       0.080
       0.027
      -0.099
      -0.267
      -0.407
      -0.443
      -0.350
      -0.179
      -0.028
       0.015
      -0.072
      -0.235
      -0.378
      -0.421
      -0.337
      -0.167
       0.016
       0.159
       0.259
       0.347
       0.452
       0.562
       0.631
       0.611
       0.494
       0.310
       0.105
      -0.086
      -0.245
      -0.362
      -0.425
      -0.415
      -0.324
      -0.167
       0.004
       0.116
       0.114
      -0.007
      -0.187
      -0.335
      -0.375
      -0.285
      -0.112
       0.065
       0.174
       0.184
       0.119
       0.036
       0.002
       0.043
       0.133
       0.195
       0.164
       0.031
      -0.140
      -0.256
      -0.252
      -0.122
       0.088
       0.313
       0.499
       0.613
       0.633
       0.566
       0.453
       0.350
       0.290
       0.248
       0.166
       0.016
      -0.165
      -0.296
      -0.314
      -0.235
      -0.133
      -0.081
      -0.098
      -0.146
      -0.176
      -0.159
      -0.094
       0.005
       0.126
       0.239
       0.295
       0.243
       0.072
      -0.166
      -0.374
      -0.474
      -0.452
      -0.363
      -0.284
      -0.266
      -0.304
      -0.355
      -0.373
      -0.336
      -0.256
      -0.165
      -0.083
      -0.004
       0.101
       0.248
       0.417
       0.541
       0.551
       0.426
       0.223
       0.043
      -0.032
       0.010
       0.110
       0.189
       0.204
       0.157
       0.063
      -0.063
      -0.203
      -0.315
      -0.351
      -0.297
      -0.188
      -0.072
       0.031
       0.136
       0.264
       0.394
       0.468
       0.436
       0.301
       0.128
      -0.008
      -0.088
      -0.145
      -0.219
      -0.307
      -0.361
      -0.350
      -0.300
      -0.281
      -0.342
      -0.458
      -0.538
      -0.494
      -0.308
      -0.041
       0.212
       0.389
       0.483
       0.520
       0.526
       0.508
       0.472
       0.430
       0.393
       0.349
       0.271
       0.135
      -0.053
      -0.247
      -0.390
      -0.440
      -0.389
      -0.264
      -0.114
       0.015
       0.103
       0.159
       0.207
       0.263
       0.319
       0.343
       0.302
       0.193
       0.044
      -0.099
      -0.212
      -0.295
      -0.364
      -0.423
      -0.465
      -0.481
      -0.475
      -0.453
      -0.415
      -0.339
      -0.203
      -0.010
       0.194
       0.334
       0.356
       0.271
       0.143
       0.046
       0.021
       0.065
       0.157
       0.276
       0.398
       0.481
       0.479
       0.368
       0.173
      -0.039
      -0.200
      -0.270
      -0.246
      -0.149
      -0.021
       0.083
       0.120
       0.084
       0.015
      -0.030
      -0.031
      -0.013
      -0.014
      -0.036
      -0.038
       0.020
       0.127
       0.214
       0.213
       0.120
       0.006
      -0.043
       0.002
       0.083
       0.098
      -0.027
      -0.287
      -0.589
      -0.795
      -0.791
      -0.550
      -0.155
       0.228
       0.438
       0.401
       0.168
      -0.120
      -0.312
      -0.336
      -0.217
      -0.045
       0.102
       0.205
       0.292
       0.394
       0.500
       0.561
       0.525
       0.376
       0.154
      -0.069
      -0.221
      -0.265
      -0.214
      -0.124
      -0.056
      -0.049
      -0.109
      -0.221
      -0.354
      -0.462
      -0.487
      -0.389
      -0.184
       0.047
       0.204
       0.238
       0.187
       0.134
       0.127
       0.145
       0.132
       0.068
      -0.013
      -0.050
      -0.012
       0.088
       0.202
       0.288
       0.328
       0.324
       0.278
       0.174
      -0.007
      -0.250
      -0.481
      -0.590
      -0.503
      -0.238
       0.090
       0.331
       0.390
       0.274
       0.074
      -0.104
      -0.200
      -0.208
      -0.166
      -0.127
      -0.126
      -0.163
      -0.190
      -0.131
       0.058
       0.354
       0.657
       0.845
       0.830
       0.606
       0.247
      -0.126
      -0.400
      -0.520
      -0.502
      -0.416
      -0.327
      -0.253
      -0.165
      -0.025
       0.152
       0.292
       0.317
       0.208
       0.020
      -0.151
      -0.233
      -0.208
      -0.113
       0.007
       0.119
       0.210
       0.268
       0.274
       0.222
       0.130
       0.031
      -0.049
      -0.117
      -0.203
      -0.335
      -0.508
      -0.683
      -0.806
      -0.835
      -0.764
      -0.614
      -0.412
      -0.184
       0.042
       0.239
       0.383
       0.463
       0.473
       0.400
       0.233
      -0.016
      -0.279
      -0.452
      -0.456
      -0.297
      -0.068
       0.119
       0.218
       0.281
       0.397
       0.595
       0.795
       0.855
       0.678
       0.303
      -0.110
      -0.392
      -0.469
      -0.404
      -0.326
      -0.329
      -0.400
      -0.445
      -0.375
      -0.185
       0.032
       0.148
       0.075
      -0.186
      -0.559
      -0.935
      -1.211
      -1.321
      -1.245
      -1.009
      -0.666
      -0.272
       0.132
       0.529
       0.907
       1.252
       1.547
       1.776
       1.931
       2.002
       1.969
       1.817
       1.564
       1.260
       0.976
       0.784
       0.739
       0.862
       1.126
       1.453
       1.735
       1.875
       1.822
       1.585
       1.200
       0.702
       0.096
      -0.620
      -1.441
      -2.328
      -3.211
      -3.978
      -4.489
      -4.606
      -4.239
      -3.393
      -2.183
      -0.821
       0.430
       1.313
       1.661
       1.455
       0.856
       0.177
      -0.220
      -0.081
       0.589
       1.484
       2.114
       2.046
       1.129
      -0.417
      -2.112
      -3.455
      -4.135
      -4.115
      -3.558
      -2.716
      -1.833
      -1.100
      -0.624
      -0.397
      -0.301
      -0.165
       0.153
       0.710
       1.483
       2.396
       3.341
       4.189
       4.800
       5.050
       4.875
       4.298
       3.437
       2.478
       1.637
       1.075
       0.815
       0.685
       0.381
      -0.380
      -1.689
      -3.346
      -4.927
      -5.956
      -6.119
      -5.381
      -3.968
      -2.233
      -0.518
       0.935
       1.982
       2.559
       2.665
       2.351
       1.715
       0.887
       0.017
      -0.740
      -1.248
      -1.420
      -1.253
      -0.826
      -0.272
       0.290
       0.798
       1.232
       1.541
       1.605
       1.284
       0.533
      -0.517
      -1.583
      -2.346
      -2.591
      -2.283
      -1.545
      -0.569
       0.482
       1.526
       2.534
       3.468
       4.203
       4.514
       4.158
       3.021
       1.243
      -0.772
      -2.483
      -3.428
      -3.411
      -2.574
      -1.313
      -0.091
       0.736
       1.022
       0.838
       0.411
       0.010
      -0.164
      -0.071
       0.173
       0.385
       0.432
       0.309
       0.094
      -0.139
      -0.385
      -0.679
      -1.009
      -1.268
      -1.318
      -1.109
      -0.759
      -0.490
      -0.463
      -0.658
      -0.902
      -1.024
      -0.991
      -0.899
      -0.844
      -0.800
      -0.621
      -0.169
       0.548
       1.326
       1.852
       1.875
       1.349
       0.477
      -0.378
      -0.871
      -0.833
      -0.336
       0.377
       1.022
       1.398
       1.443
       1.208
       0.808
       0.373
       0.016
      -0.202
      -0.294
      -0.332
      -0.397
      -0.512
      -0.644
      -0.747
      -0.820
      -0.895
      -0.967
      -0.937
      -0.648
      -0.021
       0.820
       1.555
       1.820
       1.437
       0.530
      -0.545
      -1.410
      -1.874
      -1.995
      -1.992
      -2.060
      -2.231
      -2.369
      -2.289
      -1.894
      -1.243
      -0.516
       0.102
       0.529
       0.827
       1.134
       1.552
       2.051
       2.495
       2.755
       2.815
       2.777
       2.755
       2.761
       2.676
       2.338
       1.668
       0.740
      -0.254
      -1.110
      -1.697
      -2.006
      -2.118
      -2.137
      -2.130
      -2.094
      -1.981
      -1.739
      -1.356
      -0.866
      -0.338
       0.160
       0.599
       1.011
       1.477
       2.085
       2.867
       3.778
       4.689
       5.403
       5.677
       5.270
       4.028
       1.971
      -0.660
      -3.443
      -5.892
      -7.595
      -8.283
      -7.862
      -6.421
      -4.252
      -1.830
       0.295
       1.692
       2.212
       2.019
       1.456
       0.848
       0.369
       0.041
      -0.173
      -0.275
      -0.208
       0.106
       0.702
       1.525
       2.417
       3.157
       3.547
       3.495
       3.056
       2.392
       1.674
       1.001
       0.381
      -0.216
      -0.803
      -1.336
      -1.740
      -1.959
      -1.999
      -1.926
      -1.828
      -1.761
      -1.733
      -1.727
      -1.743
      -1.800
      -1.892
      -1.923
      -1.723
      -1.161
      -0.286
       0.637
       1.259
       1.360
       0.991
       0.426
      -0.031
      -0.226
      -0.188
      -0.021
       0.230
       0.600
       1.119
       1.710
       2.180
       2.315
       1.993
       1.228
       0.152
      -1.026
      -2.049
      -2.657
      -2.666
      -2.061
      -1.030
       0.114
       1.068
       1.671
       1.936
       2.005
       2.043
       2.133
       2.223
       2.161
       1.800
       1.101
       0.173
      -0.765
      -1.474
      -1.770
      -1.571
      -0.919
      -0.006
       0.859
       1.351
       1.288
       0.738
      -0.012
      -0.623
      -0.913
      -0.941
      -0.935
      -1.105
      -1.484
      -1.920
      -2.196
      -2.195
      -1.976
      -1.710
      -1.533
      -1.424
      -1.219
      -0.747
       0.009
       0.866
       1.546
       1.862
       1.840
       1.672
       1.566
       1.588
       1.640
       1.578
       1.349
       1.021
       0.691
       0.371
      -0.038
      -0.646
      -1.455
      -2.299
      -2.904
      -3.010
      -2.506
      -1.484
      -0.197
       1.061
       2.066
       2.726
       3.046
       3.074
       2.865
       2.483
       2.009
       1.518
       1.040
       0.557
       0.057
      -0.398
      -0.685
      -0.715
      -0.550
      -0.399
      -0.488
      -0.891
      -1.483
      -2.034
      -2.374
      -2.485
      -2.471
      -2.454
      -2.471
      -2.443
      -2.217
      -1.648
      -0.686
       0.554
       1.799
       2.713
       3.061
       2.849
       2.322
       1.812
       1.524
       1.437
       1.357
       1.089
       0.559
      -0.180
      -1.013
      -1.820
      -2.474
      -2.830
      -2.746
      -2.160
      -1.163
      -0.003
       0.996
       1.562
       1.610
       1.279
       0.865
       0.656
       0.773
       1.118
       1.466
       1.634
       1.589
       1.420
       1.208
       0.924
       0.450
      -0.290
      -1.202
      -2.022
      -2.453
      -2.342
      -1.756
      -0.929
      -0.143
       0.386
       0.555
       0.372
      -0.076
      -0.660
      -1.236
      -1.670
      -1.879
      -1.866
      -1.721
      -1.562
      -1.425
      -1.221
      -0.793
      -0.074
       0.812
       1.579
       1.959
       1.882
       1.517
       1.140
       0.938
       0.917
       0.953
       0.935
       0.858
       0.793
       0.803
       0.875
       0.916
       0.818
       0.521
       0.040
      -0.549
      -1.138
      -1.596
      -1.794
      -1.640
      -1.136
      -0.408
       0.334
       0.889
       1.165
       1.196
       1.099
       0.979
       0.866
       0.708
       0.421
      -0.044
      -0.645
      -1.249
      -1.690
      -1.848
      -1.705
      -1.322
      -0.775
      -0.116
       0.602
       1.255
       1.657
       1.656
       1.274
       0.730
       0.326
       0.256
       0.493
       0.838
       1.059
       1.048
       0.859
       0.645
       0.512
       0.418
       0.203
      -0.276
      -0.994
      -1.710
      -2.100
      -1.961
      -1.358
      -0.590
       0.017
       0.331
       0.492
       0.776
       1.329
       1.995
       2.368
       2.071
       1.042
      -0.376
      -1.632
      -2.295
      -2.260
      -1.721
      -0.959
      -0.170
       0.565
       1.181
       1.563
       1.578
       1.175
       0.432
      -0.482
      -1.389
      -2.132
      -2.567
      -2.570
      -2.094
      -1.240
      -0.271
       0.466
       0.705
       0.415
      -0.161
      -0.621
      -0.631
      -0.106
       0.761
       1.622
       2.150
       2.164
       1.674
       0.867
       0.028
      -0.583
      -0.836
      -0.767
      -0.506
      -0.160
       0.231
       0.659
       1.087
       1.415
       1.534
       1.398
       1.071
       0.703
       0.445
       0.357
       0.374
       0.347
       0.124
      -0.368
      -1.078
      -1.832
      -2.393
      -2.568
      -2.311
      -1.756
      -1.145
      -0.695
      -0.488
      -0.465
      -0.489
      -0.437
      -0.247
       0.073
       0.475
       0.893
       1.259
       1.523
       1.638
       1.551
       1.209
       0.618
      -0.079
      -0.593
      -0.618
      -0.032
       0.957
       1.872
       2.220
       1.775
       0.712
      -0.509
      -1.419
      -1.799
      -1.749
      -1.535
      -1.342
      -1.139
      -0.743
      -0.037
       0.866
       1.639
       1.920
       1.519
       0.504
      -0.848
      -2.173
      -3.123
      -3.431
      -2.958
      -1.736
       0.005
       1.869
       3.377
       4.118
       3.911
       2.905
       1.540
       0.352
      -0.281
      -0.292
       0.100
       0.556
       0.810
       0.774
       0.516
       0.180
      -0.100
      -0.238
      -0.217
      -0.092
       0.016
      -0.033
      -0.333
      -0.869
      -1.502
      -2.011
      -2.175
      -1.869
      -1.131
      -0.185
       0.633
       1.021
       0.868
       0.323
      -0.295
      -0.688
      -0.742
      -0.542
      -0.269
      -0.056
       0.071
       0.154
       0.233
