Origin Time       13/03/2008 15:42:38
Lat.              26.6 N 
Long.             91.8 E 
Depth (Km)         33.0
Magnitude         4.0
 Region           DARRANG-ASSAM                                                    
 Above details taken from IMD 
     
Station Code      MOR
Station Lat.       26.248  N
Station Long.      92.339  E
Station Height(m)    0.0
Site Class        C   Vs30 between 200 m/sec to 375 m/sec *  
Record Time       13.03.2008 15:42:41.719
Sampling Rate     200. Hz
 Record Duration   30.985 Sec.
 Direction         E-W (E positive)
Max. Acceleration     10.086 cm/sec**2
     
  * For reference see Site Classification link of website 
     
 Base Line Corrected and Low Pass Filtered (Cut Off at 35 Hz) Time History
 Acceleration data in cm/sec**2
    
[...]
      -0.493
      -0.455
      -0.315
      -0.139
       0.024
       0.163
       0.294
       0.423
       0.532
       0.600
       0.613
       0.575
       0.511
       0.451
       0.410
       0.378
       0.328
       0.248
       0.160
       0.105
       0.111
       0.152
       0.159
       0.067
      -0.127
      -0.354
      -0.511
      -0.534
      -0.436
      -0.306
      -0.243
      -0.296
      -0.424
      -0.533
      -0.540
      -0.424
      -0.223
      -0.009
       0.141
       0.174
       0.096
      -0.010
      -0.031
       0.095
       0.313
       0.485
       0.486
       0.301
       0.038
      -0.149
      -0.164
      -0.036
       0.117
       0.187
       0.146
       0.053
      -0.010
      -0.010
       0.017
       0.006
      -0.068
      -0.165
      -0.213
      -0.164
      -0.019
       0.187
       0.406
       0.586
       0.675
       0.632
       0.447
       0.152
      -0.181
      -0.446
      -0.549
      -0.457
      -0.231
      -0.002
       0.104
       0.040
      -0.137
      -0.308
      -0.374
      -0.308
      -0.151
       0.031
       0.177
       0.244
       0.214
       0.104
      -0.030
      -0.122
      -0.133
      -0.076
      -0.004
       0.022
      -0.033
      -0.147
      -0.252
      -0.273
      -0.181
      -0.010
       0.149
       0.201
       0.104
      -0.089
      -0.244
      -0.224
       0.013
       0.365
       0.634
       0.644
       0.356
      -0.087
      -0.439
      -0.500
      -0.245
       0.162
       0.479
       0.538
       0.331
      -0.002
      -0.276
      -0.377
      -0.322
      -0.226
      -0.207
      -0.300
      -0.433
      -0.480
      -0.349
      -0.051
       0.292
       0.517
       0.508
       0.246
      -0.184
      -0.628
      -0.910
      -0.903
      -0.600
      -0.137
       0.281
       0.503
       0.522
       0.444
       0.395
       0.421
       0.481
       0.499
       0.444
       0.351
       0.278
       0.261
       0.287
       0.304
       0.258
       0.121
      -0.074
      -0.244
      -0.309
      -0.241
      -0.084
       0.076
       0.155
       0.117
      -0.011
      -0.167
      -0.299
      -0.402
      -0.499
      -0.607
      -0.696
      -0.702
      -0.559
      -0.261
       0.107
       0.398
       0.482
       0.336
       0.060
      -0.180
      -0.250
      -0.118
       0.148
       0.428
       0.623
       0.700
       0.694
       0.653
       0.590
       0.474
       0.264
      -0.026
      -0.307
      -0.460
      -0.424
      -0.246
      -0.051
       0.049
       0.027
      -0.060
      -0.122
      -0.095
       0.019
       0.147
       0.192
       0.098
      -0.111
      -0.343
      -0.495
      -0.502
      -0.369
      -0.159
       0.039
       0.157
       0.163
       0.070
      -0.078
      -0.219
      -0.301
      -0.309
      -0.254
      -0.149
       0.003
       0.188
       0.362
       0.461
       0.439
       0.304
       0.105
      -0.088
      -0.219
      -0.269
      -0.263
      -0.236
      -0.199
      -0.133
      -0.020
       0.119
       0.237
       0.299
       0.314
       0.326
       0.351
       0.344
       0.232
      -0.011
      -0.308
      -0.524
      -0.568
      -0.447
      -0.257
      -0.115
      -0.094
      -0.194
      -0.357
      -0.499
      -0.558
      -0.520
      -0.404
      -0.237
      -0.043
       0.165
       0.365
       0.532
       0.639
       0.682
       0.674
       0.627
       0.532
       0.372
       0.162
      -0.037
      -0.147
      -0.127
      -0.007
       0.131
       0.203
       0.178
       0.104
       0.062
       0.097
       0.175
       0.204
       0.119
      -0.060
      -0.236
      -0.310
      -0.259
      -0.140
      -0.037
       0.005
      -0.008
      -0.045
      -0.097
      -0.164
      -0.239
      -0.287
      -0.267
      -0.159
       0.021
       0.219
       0.356
       0.360
       0.204
      -0.062
      -0.316
      -0.413
      -0.264
       0.088
       0.476
       0.707
       0.688
       0.477
       0.220
       0.039
      -0.041
      -0.085
      -0.180
      -0.350
      -0.522
      -0.565
      -0.380
       0.016
       0.483
       0.824
       0.890
       0.668
       0.284
      -0.084
      -0.321
      -0.428
      -0.477
      -0.519
      -0.545
      -0.513
      -0.409
      -0.280
      -0.202
      -0.213
      -0.274
      -0.307
      -0.257
      -0.141
      -0.014
       0.081
       0.141
       0.191
       0.252
       0.322
       0.369
       0.352
       0.258
       0.129
       0.029
      -0.005
       0.006
       0.004
      -0.040
      -0.087
      -0.051
       0.121
       0.380
       0.587
       0.615
       0.441
       0.152
      -0.137
      -0.350
      -0.465
      -0.481
      -0.393
      -0.204
       0.044
       0.267
       0.367
       0.294
       0.075
      -0.200
      -0.422
      -0.509
      -0.436
      -0.239
       0.002
       0.201
       0.303
       0.297
       0.214
       0.106
       0.019
      -0.033
      -0.082
      -0.168
      -0.297
      -0.414
      -0.442
      -0.337
      -0.126
       0.102
       0.249
       0.265
       0.179
       0.077
       0.036
       0.069
       0.125
       0.146
       0.116
       0.081
       0.100
       0.190
       0.289
       0.298
       0.158
      -0.098
      -0.365
      -0.537
      -0.568
      -0.482
      -0.339
      -0.194
      -0.063
       0.074
       0.254
       0.485
       0.736
       0.932
       0.990
       0.849
       0.523
       0.103
      -0.265
      -0.452
      -0.408
      -0.192
       0.054
       0.180
       0.119
      -0.075
      -0.274
      -0.361
      -0.295
      -0.101
       0.160
       0.413
       0.594
       0.660
       0.589
       0.386
       0.091
      -0.210
      -0.418
      -0.478
      -0.412
      -0.293
      -0.194
      -0.154
      -0.180
      -0.262
      -0.381
      -0.501
      -0.565
      -0.524
      -0.369
      -0.150
       0.051
       0.166
       0.177
       0.119
       0.050
       0.026
       0.077
       0.187
       0.305
       0.371
       0.354
       0.271
       0.173
       0.104
       0.071
       0.045
      -0.004
      -0.075
      -0.139
      -0.170
      -0.165
      -0.130
      -0.065
       0.026
       0.117
       0.167
       0.142
       0.045
      -0.084
      -0.192
      -0.238
      -0.209
      -0.127
      -0.035
       0.029
       0.043
       0.008
      -0.049
      -0.076
      -0.021
       0.122
       0.303
       0.443
       0.486
       0.411
       0.223
      -0.049
      -0.350
      -0.600
      -0.720
      -0.662
      -0.440
      -0.125
       0.187
       0.415
       0.518
       0.492
       0.351
       0.131
      -0.101
      -0.257
      -0.273
      -0.155
       0.024
       0.168
       0.220
       0.179
       0.081
      -0.042
      -0.167
      -0.256
      -0.247
      -0.102
       0.147
       0.374
       0.431
       0.250
      -0.082
      -0.363
      -0.423
      -0.259
      -0.032
       0.073
       0.000
      -0.145
      -0.195
      -0.061
       0.197
       0.419
       0.463
       0.299
       0.029
      -0.194
      -0.269
      -0.207
      -0.103
      -0.076
      -0.187
      -0.404
      -0.610
      -0.674
      -0.542
      -0.277
      -0.007
       0.164
       0.220
       0.230
       0.286
       0.426
       0.606
       0.744
       0.787
       0.748
       0.687
       0.651
       0.633
       0.579
       0.435
       0.208
      -0.028
      -0.182
      -0.219
      -0.191
      -0.198
      -0.315
      -0.527
      -0.727
      -0.777
      -0.610
      -0.286
       0.030
       0.170
       0.067
      -0.204
      -0.483
      -0.626
      -0.586
      -0.417
      -0.214
      -0.047
       0.061
       0.112
       0.111
       0.075
       0.042
       0.052
       0.116
       0.205
       0.276
       0.312
       0.324
       0.337
       0.358
       0.356
       0.285
       0.121
      -0.104
      -0.312
      -0.429
      -0.420
      -0.307
      -0.145
       0.006
       0.110
       0.149
       0.123
       0.052
      -0.019
      -0.036
       0.023
       0.123
       0.198
       0.214
       0.192
       0.173
       0.163
       0.108
      -0.067
      -0.373
      -0.716
      -0.926
      -0.862
      -0.518
      -0.042
       0.352
       0.503
       0.387
       0.122
      -0.114
      -0.197
      -0.120
       0.020
       0.112
       0.114
       0.063
       0.039
       0.100
       0.248
       0.430
       0.563
       0.577
       0.446
       0.203
      -0.074
      -0.289
      -0.380
      -0.346
      -0.240
      -0.122
      -0.028
       0.031
       0.056
       0.054
       0.036
       0.021
       0.023
       0.058
       0.129
       0.218
       0.282
       0.273
       0.172
       0.006
      -0.160
      -0.252
      -0.224
      -0.089
       0.080
       0.186
       0.160
       0.008
      -0.194
      -0.343
      -0.371
      -0.276
      -0.118
       0.033
       0.144
       0.229
       0.323
       0.428
       0.502
       0.480
       0.334
       0.101
      -0.141
      -0.315
      -0.385
      -0.342
      -0.199
      -0.005
       0.137
       0.115
      -0.110
      -0.455
      -0.750
      -0.846
      -0.692
      -0.360
       0.001
       0.249
       0.329
       0.285
       0.212
       0.178
       0.187
       0.202
       0.177
       0.083
      -0.077
      -0.261
      -0.403
      -0.436
      -0.333
      -0.118
       0.129
       0.318
       0.395
       0.372
       0.309
       0.273
       0.304
       0.410
       0.564
       0.700
       0.733
       0.606
       0.340
       0.032
      -0.208
      -0.332
      -0.394
      -0.487
      -0.656
      -0.839
      -0.921
      -0.822
      -0.568
      -0.267
      -0.053
      -0.015
      -0.153
      -0.372
      -0.530
      -0.515
      -0.313
      -0.015
       0.228
       0.289
       0.146
      -0.092
      -0.252
      -0.208
       0.039
       0.373
       0.643
       0.748
       0.687
       0.545
       0.428
       0.396
       0.425
       0.435
       0.353
       0.165
      -0.073
      -0.269
      -0.356
      -0.328
      -0.229
      -0.116
      -0.021
       0.035
       0.025
      -0.071
      -0.231
      -0.372
      -0.392
      -0.244
       0.016
       0.247
       0.319
       0.205
      -0.003
      -0.172
      -0.237
      -0.239
      -0.273
      -0.395
      -0.579
      -0.733
      -0.757
      -0.586
      -0.241
       0.169
       0.486
       0.590
       0.473
       0.251
       0.084
       0.070
       0.194
       0.365
       0.491
       0.533
       0.495
       0.401
       0.286
       0.192
       0.144
       0.129
       0.110
       0.058
      -0.016
      -0.063
      -0.038
       0.066
       0.198
       0.279
       0.258
       0.149
       0.020
      -0.066
      -0.101
      -0.127
      -0.183
      -0.260
      -0.307
      -0.291
      -0.243
      -0.238
      -0.316
      -0.428
      -0.472
      -0.367
      -0.117
       0.186
       0.415
       0.468
       0.317
       0.016
      -0.325
      -0.582
      -0.663
      -0.550
      -0.306
      -0.056
       0.073
       0.036
      -0.100
      -0.192
      -0.114
       0.158
       0.515
       0.773
       0.787
       0.547
       0.180
      -0.146
      -0.321
      -0.337
      -0.256
      -0.158
      -0.090
      -0.047
       0.001
       0.077
       0.163
       0.208
       0.155
      -0.017
      -0.262
      -0.479
      -0.564
      -0.482
      -0.290
      -0.088
       0.056
       0.137
       0.190
       0.236
       0.265
       0.254
       0.214
       0.192
       0.237
       0.346
       0.467
       0.544
       0.555
       0.506
       0.401
       0.234
       0.018
      -0.191
      -0.309
      -0.274
      -0.104
       0.104
       0.231
       0.214
       0.083
      -0.081
      -0.200
      -0.244
      -0.236
      -0.239
      -0.325
      -0.513
      -0.741
      -0.891
      -0.865
      -0.642
      -0.288
       0.090
       0.402
       0.613
       0.746
       0.848
       0.955
       1.075
       1.191
       1.264
       1.242
       1.079
       0.761
       0.317
      -0.192
      -0.704
      -1.191
      -1.657
      -2.117
      -2.562
      -2.945
      -3.211
      -3.337
      -3.348
      -3.282
      -3.123
      -2.790
      -2.178
      -1.234
      -0.006
       1.379
       2.769
       4.023
       5.011
       5.604
       5.695
       5.232
       4.245
       2.849
       1.226
      -0.401
      -1.810
      -2.824
      -3.341
      -3.370
      -3.028
      -2.502
      -1.966
      -1.496
      -1.070
      -0.639
      -0.206
       0.165
       0.410
       0.509
       0.499
       0.453
       0.460
       0.585
       0.848
       1.206
       1.573
       1.859
       2.009
       2.010
       1.867
       1.566
       1.087
       0.450
      -0.227
      -0.744
      -0.897
      -0.578
       0.170
       1.156
       2.100
       2.711
       2.771
       2.187
       1.012
      -0.583
      -2.366
      -4.110
      -5.648
      -6.856
      -7.611
      -7.742
      -7.054
      -5.414
      -2.861
       0.329
       3.688
       6.692
       8.915
      10.086
      10.047
       8.692
       6.018
       2.260
      -1.998
      -5.870
      -8.430
      -9.063
      -7.723
      -4.945
      -1.610
       1.401
       3.481
       4.401
       4.254
       3.312
       1.902
       0.336
      -1.088
      -2.075
      -2.401
      -2.025
      -1.174
      -0.276
       0.229
       0.144
      -0.362
      -0.837
      -0.801
      -0.029
       1.317
       2.752
       3.689
       3.700
       2.719
       1.059
      -0.734
      -2.145
      -2.882
      -2.946
      -2.566
      -2.060
      -1.677
      -1.499
      -1.443
      -1.347
      -1.079
      -0.600
       0.033
       0.711
       1.318
       1.757
       1.952
       1.862
       1.502
       0.958
       0.366
      -0.140
      -0.505
      -0.797
      -1.168
      -1.738
      -2.456
      -3.047
      -3.147
      -2.541
      -1.326
       0.120
       1.365
       2.144
       2.451
       2.455
       2.349
       2.246
       2.164
       2.068
       1.912
       1.655
       1.260
       0.729
       0.126
      -0.414
      -0.755
      -0.833
      -0.699
      -0.458
      -0.186
       0.101
       0.405
       0.668
       0.777
       0.629
       0.201
      -0.429
      -1.097
      -1.591
      -1.706
      -1.353
      -0.651
       0.076
       0.457
       0.279
      -0.374
      -1.160
      -1.665
      -1.636
      -1.097
      -0.301
       0.445
       0.930
       1.108
       1.057
       0.890
       0.683
       0.458
       0.225
       0.038
      -0.004
       0.199
       0.676
       1.354
       2.051
       2.520
       2.523
       1.939
       0.847
      -0.490
      -1.725
      -2.567
      -2.884
      -2.715
      -2.195
      -1.472
      -0.658
       0.165
       0.927
       1.549
       1.933
       1.974
       1.616
       0.908
       0.012
      -0.867
      -1.559
      -1.966
      -2.047
      -1.809
      -1.326
      -0.731
      -0.146
       0.388
       0.903
       1.414
       1.831
       1.984
       1.751
       1.180
       0.472
      -0.162
      -0.671
      -1.179
      -1.847
      -2.708
      -3.588
      -4.177
      -4.196
      -3.544
      -2.360
      -0.948
       0.374
       1.412
       2.144
       2.659
       3.048
       3.307
       3.332
       3.016
       2.369
       1.562
       0.845
       0.394
       0.189
       0.033
      -0.278
      -0.781
      -1.299
      -1.609
      -1.668
      -1.670
      -1.861
      -2.265
      -2.588
      -2.403
      -1.477
       0.013
       1.562
       2.631
       2.939
       2.553
       1.788
       1.008
       0.460
       0.203
       0.132
       0.104
       0.057
       0.060
       0.228
       0.611
       1.123
       1.579
       1.756
       1.469
       0.637
      -0.635
      -2.035
      -3.127
      -3.555
      -3.225
      -2.350
      -1.301
      -0.375
       0.337
       0.913
       1.446
       1.931
       2.263
       2.326
       2.070
       1.522
       0.748
      -0.180
      -1.166
      -2.061
      -2.669
      -2.821
      -2.452
      -1.613
      -0.448
       0.837
       1.967
       2.633
       2.603
       1.846
       0.593
      -0.745
      -1.751
      -2.178
      -2.016
      -1.440
      -0.691
       0.030
       0.613
       1.048
       1.388
       1.681
       1.913
       2.004
       1.868
       1.495
       0.969
       0.424
      -0.035
      -0.389
      -0.704
      -1.065
      -1.491
      -1.892
      -2.124
      -2.095
      -1.854
      -1.585
      -1.475
      -1.568
      -1.698
      -1.597
      -1.105
      -0.301
       0.553
       1.220
       1.635
       1.892
       2.087
       2.192
       2.071
       1.631
       0.955
       0.286
      -0.134
      -0.243
      -0.208
      -0.301
      -0.699
      -1.345
      -1.969
      -2.244
      -1.976
      -1.215
      -0.225
       0.671
       1.268
       1.552
       1.616
       1.509
       1.165
       0.504
      -0.387
      -1.182
      -1.458
      -0.967
       0.182
       1.558
       2.619
       2.974
       2.535
       1.490
       0.154
      -1.194
      -2.376
      -3.296
      -3.879
      -4.073
      -3.887
      -3.421
      -2.833
      -2.252
      -1.673
      -0.953
       0.082
       1.476
       3.051
       4.460
       5.353
       5.523
       4.985
       3.947
       2.713
       1.564
       0.685
       0.147
      -0.056
       0.015
       0.256
       0.533
       0.703
       0.643
       0.273
      -0.408
      -1.310
      -2.269
      -3.100
      -3.643
      -3.792
      -3.507
      -2.816
      -1.819
      -0.686
       0.353
       1.061
       1.297
       1.102
       0.700
       0.376
       0.333
       0.599
       1.022
       1.361
       1.431
       1.215
       0.876
       0.645
       0.660
       0.873
       1.079
       1.028
       0.566
      -0.276
      -1.279
      -2.117
      -2.506
      -2.337
      -1.736
      -1.000
      -0.432
      -0.186
      -0.213
      -0.364
      -0.534
      -0.717
      -0.934
      -1.138
      -1.195
      -0.970
      -0.441
       0.257
       0.909
       1.346
       1.531
       1.539
       1.477
       1.403
       1.284
       1.007
       0.467
      -0.324
      -1.184
      -1.817
      -1.981
      -1.632
      -0.956
      -0.274
       0.135
       0.175
      -0.046
      -0.318
      -0.453
      -0.365
      -0.054
       0.414
       0.919
       1.298
       1.413
       1.237
       0.898
       0.618
       0.564
       0.737
       0.980
       1.094
       0.946
       0.501
      -0.193
      -0.999
      -1.677
      -1.955
      -1.703
      -1.091
      -0.528
      -0.394
      -0.738
      -1.224
      -1.380
      -0.957
