Origin Time       1/5/2013 06:57:12	  UTC
Lat.              33.1 N	
Long.             75.8 E	
Depth (Km)         15.0
Magnitude         5.8
 Region           JK-HP-Border                                                     
 Above details taken from IMD 
    
Station Code      MUK
Station Lat.       31.949  N
Station Long.      75.613  E
Station Height(m)  249.0
Site Class        C   Vs30 between 200 m/sec to 375 m/sec *  
Record Time       01.05.2013 06:57:43.134 UTC
Sampling Rate     200. Hz
 Record Duration   69.740 Sec.
 Direction         N-S (N positive)
Max. Acceleration     15.490 cm/sec**2
     
  * For reference see Site Classification link of website 
     
 Base Line Corrected and Low Pass Filtered (Cut Off at 35 Hz) Time History
 Acceleration data in cm/sec**2
    
[...]
      -0.173
      -0.184
      -0.227
      -0.261
      -0.247
      -0.174
      -0.063
       0.040
       0.090
       0.067
      -0.025
      -0.157
      -0.297
      -0.409
      -0.459
      -0.418
      -0.278
      -0.059
       0.194
       0.419
       0.567
       0.615
       0.569
       0.450
       0.279
       0.070
      -0.168
      -0.421
      -0.667
      -0.873
      -1.006
      -1.041
      -0.965
      -0.781
      -0.503
      -0.161
       0.198
       0.517
       0.747
       0.855
       0.839
       0.719
       0.535
       0.328
       0.146
       0.026
      -0.005
       0.056
       0.196
       0.392
       0.617
       0.841
       1.032
       1.162
       1.208
       1.167
       1.051
       0.883
       0.689
       0.488
       0.296
       0.131
       0.016
      -0.030
      -0.004
       0.074
       0.167
       0.239
       0.269
       0.256
       0.212
       0.144
       0.050
      -0.077
      -0.242
      -0.440
      -0.657
      -0.876
      -1.080
      -1.262
      -1.423
      -1.563
      -1.672
      -1.731
      -1.712
      -1.591
      -1.363
      -1.048
      -0.694
      -0.362
      -0.095
       0.088
       0.200
       0.270
       0.326
       0.384
       0.451
       0.535
       0.656
       0.830
       1.059
       1.321
       1.570
       1.756
       1.840
       1.799
       1.636
       1.371
       1.032
       0.650
       0.257
      -0.118
      -0.450
      -0.725
      -0.946
      -1.123
      -1.265
      -1.378
      -1.461
      -1.518
      -1.552
      -1.559
      -1.525
      -1.428
      -1.252
      -1.002
      -0.702
      -0.384
      -0.074
       0.221
       0.511
       0.806
       1.099
       1.355
       1.520
       1.545
       1.403
       1.110
       0.726
       0.335
       0.012
      -0.206
      -0.331
      -0.405
      -0.468
      -0.535
      -0.598
      -0.640
      -0.658
      -0.672
      -0.720
      -0.837
      -1.029
      -1.269
      -1.507
      -1.691
      -1.786
      -1.787
      -1.704
      -1.548
      -1.326
      -1.043
      -0.716
      -0.371
      -0.033
       0.290
       0.608
       0.928
       1.243
       1.525
       1.736
       1.847
       1.846
       1.732
       1.514
       1.206
       0.839
       0.459
       0.123
      -0.121
      -0.249
      -0.257
      -0.163
      -0.002
       0.178
       0.326
       0.408
       0.409
       0.332
       0.183
      -0.038
      -0.336
      -0.705
      -1.120
      -1.524
      -1.842
      -1.998
      -1.943
      -1.670
      -1.217
      -0.651
      -0.056
       0.486
       0.907
       1.164
       1.249
       1.187
       1.026
       0.819
       0.605
       0.411
       0.253
       0.142
       0.090
       0.101
       0.176
       0.305
       0.473
       0.661
       0.847
       1.011
       1.130
       1.180
       1.143
       1.007
       0.775
       0.462
       0.103
      -0.252
      -0.544
      -0.726
      -0.791
      -0.780
      -0.759
      -0.778
      -0.851
      -0.950
      -1.030
      -1.054
      -1.007
      -0.904
      -0.783
      -0.686
      -0.644
      -0.660
      -0.718
      -0.785
      -0.834
      -0.847
      -0.815
      -0.732
      -0.591
      -0.387
      -0.123
       0.187
       0.521
       0.854
       1.160
       1.409
       1.571
       1.616
       1.533
       1.333
       1.045
       0.703
       0.339
      -0.018
      -0.344
      -0.617
      -0.823
      -0.960
      -1.034
      -1.053
      -1.022
      -0.949
      -0.845
      -0.736
      -0.658
      -0.638
      -0.673
      -0.727
      -0.749
      -0.694
      -0.548
      -0.328
      -0.062
       0.225
       0.525
       0.840
       1.169
       1.496
       1.798
       2.052
       2.246
       2.377
       2.451
       2.472
       2.431
       2.311
       2.086
       1.748
       1.312
       0.818
       0.310
      -0.184
      -0.658
      -1.112
      -1.529
      -1.877
      -2.112
      -2.201
      -2.139
      -1.947
      -1.675
      -1.380
      -1.110
      -0.893
      -0.737
      -0.642
      -0.603
      -0.612
      -0.644
      -0.651
      -0.565
      -0.329
       0.077
       0.614
       1.198
       1.738
       2.169
       2.462
       2.618
       2.651
       2.573
       2.399
       2.152
       1.857
       1.542
       1.224
       0.902
       0.568
       0.214
      -0.156
      -0.521
      -0.849
      -1.107
      -1.266
      -1.309
      -1.238
      -1.079
      -0.879
      -0.681
      -0.507
      -0.362
      -0.251
      -0.185
      -0.177
      -0.230
      -0.331
      -0.454
      -0.567
      -0.638
      -0.651
      -0.605
      -0.517
      -0.411
      -0.316
      -0.251
      -0.224
      -0.227
      -0.234
      -0.224
      -0.188
      -0.144
      -0.126
      -0.176
      -0.314
      -0.528
      -0.772
      -0.976
      -1.070
      -1.006
      -0.778
      -0.430
      -0.039
       0.317
       0.595
       0.789
       0.917
       0.992
       1.003
       0.939
       0.807
       0.650
       0.531
       0.498
       0.561
       0.697
       0.867
       1.030
       1.158
       1.230
       1.239
       1.185
       1.077
       0.924
       0.736
       0.527
       0.321
       0.141
      -0.004
      -0.123
      -0.241
      -0.372
      -0.507
      -0.621
      -0.689
      -0.696
      -0.639
      -0.527
      -0.384
      -0.245
      -0.152
      -0.142
      -0.230
      -0.394
      -0.583
      -0.732
      -0.791
      -0.735
      -0.580
      -0.368
      -0.152
       0.025
       0.141
       0.194
       0.189
       0.133
       0.031
      -0.104
      -0.250
      -0.370
      -0.420
      -0.369
      -0.217
      -0.003
       0.215
       0.382
       0.470
       0.475
       0.418
       0.326
       0.233
       0.161
       0.116
       0.092
       0.076
       0.065
       0.075
       0.128
       0.239
       0.402
       0.601
       0.814
       1.019
       1.190
       1.298
       1.318
       1.244
       1.092
       0.898
       0.705
       0.545
       0.428
       0.344
       0.281
       0.232
       0.201
       0.201
       0.242
       0.320
       0.414
       0.484
       0.492
       0.413
       0.252
       0.037
      -0.194
      -0.413
      -0.601
      -0.752
      -0.867
      -0.951
      -1.021
      -1.094
      -1.173
      -1.241
      -1.259
      -1.182
      -0.972
      -0.625
      -0.173
       0.322
       0.790
       1.176
       1.453
       1.615
       1.670
       1.638
       1.553
       1.453
       1.382
       1.365
       1.412
       1.514
       1.644
       1.760
       1.809
       1.740
       1.518
       1.143
       0.655
       0.119
      -0.388
      -0.804
      -1.098
      -1.281
      -1.385
      -1.444
      -1.464
      -1.425
      -1.302
      -1.091
      -0.819
      -0.531
      -0.264
      -0.033
       0.172
       0.375
       0.596
       0.835
       1.075
       1.276
       1.393
       1.388
       1.254
       1.022
       0.748
       0.495
       0.300
       0.157
       0.032
      -0.119
      -0.323
      -0.587
      -0.905
      -1.259
      -1.618
      -1.943
      -2.197
      -2.365
      -2.458
      -2.501
      -2.508
      -2.472
      -2.369
      -2.176
      -1.882
      -1.498
      -1.051
      -0.573
      -0.096
       0.350
       0.734
       1.033
       1.237
       1.349
       1.380
       1.333
       1.194
       0.945
       0.578
       0.110
      -0.431
      -1.012
      -1.598
      -2.155
      -2.641
      -3.023
      -3.288
      -3.454
      -3.564
      -3.666
      -3.789
      -3.927
      -4.035
      -4.058
      -3.959
      -3.741
      -3.444
      -3.126
      -2.829
      -2.553
      -2.253
      -1.863
      -1.332
      -0.649
       0.154
       1.023
       1.893
       2.694
       3.356
       3.810
       3.998
       3.885
       3.466
       2.775
       1.893
       0.937
       0.026
      -0.749
      -1.348
      -1.773
      -2.049
      -2.214
      -2.305
      -2.362
      -2.416
      -2.476
      -2.531
      -2.546
      -2.474
      -2.272
      -1.911
      -1.386
      -0.711
       0.090
       0.976
       1.902
       2.833
       3.759
       4.694
       5.653
       6.622
       7.560
       8.409
       9.109
       9.619
       9.911
       9.979
       9.837
       9.524
       9.091
       8.580
       8.007
       7.364
       6.631
       5.783
       4.812
       3.730
       2.587
       1.459
       0.429
      -0.433
      -1.080
      -1.492
      -1.660
      -1.589
      -1.305
      -0.864
      -0.355
       0.124
       0.498
       0.745
       0.894
       1.005
       1.138
       1.330
       1.589
       1.902
       2.242
       2.576
       2.878
       3.126
       3.301
       3.387
       3.364
       3.213
       2.914
       2.455
       1.839
       1.084
       0.223
      -0.707
      -1.674
      -2.655
      -3.629
      -4.577
      -5.479
      -6.311
      -7.049
      -7.673
      -8.166
      -8.514
      -8.705
      -8.737
      -8.616
      -8.354
      -7.964
      -7.462
      -6.869
      -6.213
      -5.521
      -4.823
      -4.152
      -3.544
      -3.031
      -2.635
      -2.358
      -2.181
      -2.070
      -1.988
      -1.914
      -1.842
      -1.769
      -1.676
      -1.535
      -1.325
      -1.055
      -0.769
      -0.535
      -0.413
      -0.431
      -0.579
      -0.820
      -1.114
      -1.424
      -1.711
      -1.931
      -2.052
      -2.073
      -2.029
      -1.979
      -1.977
      -2.048
      -2.185
      -2.347
      -2.490
      -2.574
      -2.581
      -2.512
      -2.389
      -2.242
      -2.093
      -1.940
      -1.747
      -1.457
      -1.016
      -0.396
       0.392
       1.297
       2.257
       3.218
       4.149
       5.037
       5.872
       6.643
       7.334
       7.918
       8.350
       8.583
       8.574
       8.307
       7.804
       7.119
       6.330
       5.513
       4.733
       4.029
       3.422
       2.906
       2.448
       1.991
       1.474
       0.856
       0.130
      -0.675
      -1.505
      -2.296
      -2.988
      -3.536
      -3.910
      -4.086
      -4.038
      -3.737
      -3.158
      -2.302
      -1.207
       0.047
       1.354
       2.602
       3.695
       4.573
       5.209
       5.602
       5.755
       5.673
       5.365
       4.861
       4.217
       3.513
       2.825
       2.197
       1.625
       1.065
       0.462
      -0.219
      -0.982
      -1.808
      -2.676
      -3.569
      -4.476
      -5.381
      -6.265
      -7.095
      -7.828
      -8.422
      -8.830
      -9.006
      -8.897
      -8.447
      -7.620
      -6.424
      -4.921
      -3.218
      -1.441
       0.275
       1.800
       3.019
       3.862
       4.304
       4.361
       4.073
       3.514
       2.800
       2.083
       1.509
       1.173
       1.097
       1.234
       1.498
       1.784
       1.984
       1.998
       1.758
       1.253
       0.526
      -0.351
      -1.304
      -2.259
      -3.139
      -3.864
      -4.352
      -4.538
      -4.380
      -3.880
      -3.085
      -2.073
      -0.933
       0.247
       1.384
       2.398
       3.211
       3.755
       3.981
       3.872
       3.450
       2.783
       1.971
       1.136
       0.384
      -0.216
      -0.651
      -0.948
      -1.155
      -1.317
      -1.473
      -1.650
      -1.861
      -2.111
      -2.405
      -2.758
      -3.188
      -3.702
      -4.286
      -4.896
      -5.452
      -5.850
      -5.983
      -5.766
      -5.163
      -4.199
      -2.963
      -1.585
      -0.218
       0.990
       1.917
       2.494
       2.717
       2.638
       2.348
       1.946
       1.530
       1.190
       1.002
       1.016
       1.250
       1.685
       2.275
       2.945
       3.600
       4.137
       4.468
       4.540
       4.334
       3.859
       3.139
       2.220
       1.165
       0.056
      -1.026
      -2.004
      -2.818
      -3.432
      -3.824
      -3.975
      -3.874
      -3.529
      -2.984
      -2.324
      -1.648
      -1.035
      -0.524
      -0.110
       0.243
       0.589
       0.978
       1.450
       2.026
       2.712
       3.499
       4.364
       5.255
       6.099
       6.813
       7.330
       7.625
       7.724
       7.684
       7.573
       7.435
       7.280
       7.084
       6.806
       6.396
       5.796
       4.945
       3.790
       2.312
       0.555
      -1.369
      -3.299
      -5.064
      -6.540
      -7.674
      -8.483
      -9.012
      -9.299
      -9.350
      -9.129
      -8.582
      -7.677
      -6.438
      -4.967
      -3.412
      -1.923
      -0.609
       0.485
       1.368
       2.086
       2.697
       3.252
       3.780
       4.284
       4.738
       5.089
       5.262
       5.182
       4.802
       4.114
       3.143
       1.930
       0.518
      -1.046
      -2.709
      -4.414
      -6.094
      -7.681
      -9.107
     -10.306
     -11.213
     -11.768
     -11.927
     -11.680
     -11.046
     -10.059
      -8.752
      -7.165
      -5.364
      -3.439
      -1.477
       0.461
       2.345
       4.161
       5.909
       7.591
       9.213
      10.767
      12.212
      13.471
      14.460
      15.128
      15.464
      15.490
      15.225
      14.676
      13.839
      12.703
      11.246
       9.457
       7.353
       5.000
       2.506
      -0.005
      -2.412
      -4.619
      -6.558
      -8.195
      -9.531
     -10.578
     -11.342
     -11.812
     -11.969
     -11.821
     -11.410
     -10.784
      -9.969
      -8.965
      -7.781
      -6.465
      -5.098
      -3.763
      -2.519
      -1.386
      -0.358
       0.576
       1.423
       2.179
       2.834
       3.381
       3.818
       4.139
       4.319
       4.293
       3.978
       3.303
       2.255
       0.890
      -0.677
      -2.303
      -3.839
      -5.158
      -6.159
      -6.770
      -6.941
      -6.655
      -5.944
      -4.904
      -3.688
      -2.471
      -1.406
      -0.591
      -0.047
       0.273
       0.451
       0.578
       0.726
       0.955
       1.305
       1.796
       2.422
       3.152
       3.953
       4.799
       5.672
       6.544
       7.351
       8.004
       8.417
       8.546
       8.401
       8.030
       7.490
       6.828
       6.081
       5.284
       4.462
       3.632
       2.791
       1.925
       1.024
       0.086
      -0.871
      -1.819
      -2.731
      -3.586
      -4.379
      -5.111
      -5.789
      -6.421
      -7.011
      -7.544
      -7.984
      -8.267
      -8.322
      -8.094
      -7.563
      -6.753
      -5.732
      -4.592
      -3.417
      -2.251
      -1.100
       0.041
       1.156
       2.195
       3.096
       3.824
       4.387
       4.829
       5.201
       5.525
       5.787
       5.948
       5.968
       5.817
       5.480
       4.955
       4.249
       3.377
       2.364
       1.241
       0.054
      -1.139
      -2.260
      -3.233
      -4.004
      -4.555
      -4.894
      -5.027
      -4.949
      -4.650
      -4.153
      -3.519
      -2.826
      -2.139
      -1.485
      -0.863
      -0.264
       0.321
       0.901
       1.486
       2.089
       2.721
       3.385
       4.064
       4.712
       5.258
       5.612
       5.693
       5.444
       4.857
       3.974
       2.881
       1.683
       0.478
      -0.655
      -1.666
      -2.528
      -3.228
      -3.770
      -4.179
      -4.496
      -4.765
      -5.008
      -5.209
      -5.318
      -5.280
      -5.058
      -4.648
      -4.082
      -3.411
      -2.692
      -1.972
      -1.290
      -0.678
      -0.153
       0.291
       0.695
       1.129
       1.660
       2.330
       3.131
       4.012
       4.894
       5.681
       6.274
       6.581
       6.529
       6.081
       5.251
       4.113
       2.798
       1.463
       0.248
      -0.747
      -1.464
      -1.873
      -1.960
      -1.742
      -1.269
      -0.633
       0.040
       0.626
       1.040
       1.257
       1.299
       1.203
       0.995
       0.699
       0.345
      -0.022
      -0.347
      -0.579
      -0.686
      -0.672
      -0.571
      -0.440
      -0.338
      -0.306
      -0.356
      -0.467
      -0.600
      -0.726
      -0.838
      -0.956
      -1.114
      -1.336
      -1.617
      -1.926
      -2.219
      -2.462
      -2.641
      -2.756
      -2.811
      -2.798
      -2.690
      -2.456
      -2.080
      -1.591
      -1.065
      -0.599
      -0.266
      -0.102
      -0.105
      -0.250
      -0.500
      -0.797
      -1.061
      -1.201
      -1.138
      -0.827
      -0.277
       0.444
       1.228
       1.951
       2.514
       2.864
       3.007
       3.000
       2.921
       2.850
       2.848
       2.952
       3.180
       3.525
       3.946
       4.373
       4.719
       4.911
       4.910
       4.710
       4.333
       3.806
       3.161
       2.424
       1.620
       0.779
      -0.059
      -0.845
      -1.528
      -2.072
      -2.451
      -2.657
      -2.706
      -2.637
      -2.514
      -2.404
      -2.365
      -2.424
      -2.580
      -2.799
      -3.020
      -3.158
      -3.115
      -2.800
      -2.172
      -1.252
      -0.124
       1.092
       2.267
       3.280
       4.034
       4.462
       4.541
       4.296
       3.802
       3.168
       2.500
       1.869
       1.295
       0.753
       0.208
      -0.369
      -0.994
      -1.669
      -2.389
      -3.132
      -3.861
      -4.526
      -5.073
      -5.452
      -5.623
      -5.579
      -5.362
      -5.061
      -4.774
      -4.567
      -4.456
      -4.425
      -4.442
      -4.474
      -4.479
      -4.413
      -4.241
      -3.941
      -3.510
      -2.970
      -2.358
      -1.721
      -1.098
      -0.519
      -0.006
       0.418
       0.727
       0.905
       0.963
       0.946
       0.935
       1.013
       1.246
       1.652
       2.207
       2.850
       3.513
       4.144
       4.716
       5.209
       5.593
       5.837
       5.935
       5.922
       5.866
       5.839
       5.887
       6.016
       6.199
       6.391
       6.533
       6.554
       6.381
       5.968
       5.316
       4.477
       3.537
       2.598
       1.760
       1.103
       0.672
       0.472
       0.465
       0.590
       0.765
       0.908
       0.935
       0.779
       0.404
      -0.172
      -0.876
      -1.602
      -2.240
      -2.709
      -2.970
      -3.031
      -2.932
      -2.736
      -2.505
      -2.289
      -2.118
      -2.003
      -1.946
      -1.948
      -2.003
      -2.100
      -2.215
      -2.317
      -2.385
      -2.418
      -2.437
      -2.480
      -2.584
      -2.767
      -3.005
      -3.233
      -3.362
      -3.320
      -3.076
      -2.651
      -2.105
      -1.523
      -0.984
      -0.544
      -0.234
      -0.068
      -0.048
      -0.169
      -0.404
      -0.708
      -1.026
      -1.295
      -1.463
      -1.484
      -1.325
      -0.971
      -0.433
       0.245
       0.993
