Origin Time       1/5/2013 06:57:12	 
Lat.              33.1 N	
Long.             75.8 E	
Depth (Km)         15.0
Magnitude         5.8
 Region           JK-HP-Border                                                     
 Above details taken from IMD 
   
Station Code      MUK
Station Lat.       31.949
Station Long.      75.613
Station Height(m)  249.0
Site Class        C   Vs30 between 200 m/sec to 375 m/sec *  
Record Time       01.05.2013 06:57:43.134
Sampling Rate     200. Hz
 Record Duration   69.740 Sec.
 Direction         Vert. (Up positive)
Max. Acceleration      6.112 cm/sec**2
     
  * For reference see Site Classification link of website 
     
 Base Line Corrected and Low Pass Filtered (Cut Off at 35 Hz) Time History
 Acceleration data in cm/sec**2
    
[...]
      -0.276
      -0.159
      -0.084
      -0.061
      -0.089
      -0.165
      -0.280
      -0.418
      -0.553
      -0.648
      -0.658
      -0.547
      -0.313
       0.003
       0.326
       0.570
       0.681
       0.650
       0.514
       0.331
       0.148
      -0.015
      -0.164
      -0.313
      -0.461
      -0.574
      -0.595
      -0.485
      -0.256
       0.011
       0.191
       0.168
      -0.110
      -0.599
      -1.166
      -1.632
      -1.842
      -1.716
      -1.275
      -0.626
       0.079
       0.689
       1.106
       1.321
       1.412
       1.491
       1.630
       1.807
       1.915
       1.832
       1.508
       1.007
       0.474
       0.057
      -0.176
      -0.276
      -0.378
      -0.624
      -1.074
      -1.644
      -2.131
      -2.298
      -1.990
      -1.209
      -0.128
       0.973
       1.801
       2.168
       2.046
       1.563
       0.944
       0.415
       0.123
       0.094
       0.235
       0.385
       0.406
       0.247
      -0.028
      -0.287
      -0.405
      -0.336
      -0.137
       0.059
       0.116
      -0.030
      -0.328
      -0.634
      -0.794
      -0.724
      -0.453
      -0.105
       0.169
       0.253
       0.119
      -0.174
      -0.496
      -0.704
      -0.695
      -0.450
      -0.045
       0.389
       0.723
       0.889
       0.899
       0.832
       0.784
       0.814
       0.921
       1.060
       1.167
       1.188
       1.079
       0.806
       0.361
      -0.216
      -0.823
      -1.319
      -1.577
      -1.538
      -1.229
      -0.747
      -0.227
       0.194
       0.405
       0.347
       0.050
      -0.361
      -0.702
      -0.822
      -0.680
      -0.356
       0.011
       0.311
       0.509
       0.641
       0.759
       0.897
       1.042
       1.136
       1.103
       0.893
       0.526
       0.110
      -0.199
      -0.264
      -0.049
       0.364
       0.812
       1.129
       1.215
       1.063
       0.735
       0.320
      -0.094
      -0.440
      -0.672
      -0.764
      -0.716
      -0.548
      -0.300
      -0.027
       0.212
       0.369
       0.425
       0.388
       0.285
       0.143
      -0.018
      -0.175
      -0.290
      -0.320
      -0.252
      -0.136
      -0.071
      -0.138
      -0.346
      -0.614
      -0.825
      -0.892
      -0.799
      -0.604
      -0.416
      -0.358
      -0.513
      -0.877
      -1.337
      -1.715
      -1.847
      -1.648
      -1.135
      -0.412
       0.364
       1.029
       1.446
       1.547
       1.355
       0.980
       0.569
       0.238
       0.023
      -0.106
      -0.200
      -0.282
      -0.343
      -0.361
      -0.320
      -0.219
      -0.078
       0.048
       0.073
      -0.083
      -0.434
      -0.898
      -1.323
      -1.549
      -1.483
      -1.120
      -0.539
       0.126
       0.731
       1.167
       1.399
       1.469
       1.461
       1.444
       1.440
       1.419
       1.343
       1.196
       1.004
       0.825
       0.712
       0.678
       0.680
       0.636
       0.463
       0.124
      -0.354
      -0.874
      -1.299
      -1.503
      -1.430
      -1.130
      -0.733
      -0.388
      -0.194
      -0.165
      -0.233
      -0.275
      -0.171
       0.129
       0.565
       0.998
       1.284
       1.359
       1.258
       1.067
       0.859
       0.663
       0.474
       0.282
       0.096
      -0.039
      -0.045
       0.145
       0.537
       1.038
       1.476
       1.678
       1.551
       1.127
       0.542
      -0.024
      -0.422
      -0.593
      -0.585
      -0.518
      -0.526
      -0.691
      -1.018
      -1.449
      -1.901
      -2.300
      -2.583
      -2.693
      -2.576
      -2.196
      -1.566
      -0.766
       0.072
       0.798
       1.292
       1.489
       1.400
       1.110
       0.755
       0.475
       0.377
       0.509
       0.854
       1.346
       1.881
       2.333
       2.575
       2.509
       2.099
       1.374
       0.415
      -0.664
      -1.716
      -2.569
      -3.055
      -3.074
      -2.651
      -1.949
      -1.217
      -0.691
      -0.516
      -0.698
      -1.105
      -1.517
      -1.699
      -1.500
      -0.930
      -0.163
       0.537
       0.955
       1.014
       0.792
       0.452
       0.152
      -0.007
       0.005
       0.164
       0.410
       0.658
       0.832
       0.898
       0.878
       0.822
       0.764
       0.684
       0.531
       0.277
      -0.043
      -0.323
      -0.439
      -0.319
       0.002
       0.373
       0.583
       0.457
      -0.049
      -0.822
      -1.629
      -2.208
      -2.368
      -2.050
      -1.349
      -0.476
       0.316
       0.820
       0.942
       0.723
       0.304
      -0.130
      -0.415
      -0.446
      -0.203
       0.255
       0.803
       1.287
       1.568
       1.576
       1.336
       0.967
       0.623
       0.415
       0.364
       0.420
       0.521
       0.632
       0.747
       0.870
       0.994
       1.106
       1.189
       1.211
       1.132
       0.922
       0.588
       0.191
      -0.165
      -0.377
      -0.395
      -0.244
      -0.022
       0.147
       0.162
      -0.011
      -0.334
      -0.701
      -0.987
      -1.094
      -1.000
      -0.767
      -0.516
      -0.371
      -0.390
      -0.537
      -0.693
      -0.711
      -0.491
      -0.042
       0.509
       0.965
       1.154
       1.022
       0.657
       0.241
      -0.042
      -0.094
       0.053
       0.262
       0.360
       0.229
      -0.139
      -0.645
      -1.128
      -1.426
      -1.430
      -1.122
      -0.585
       0.021
       0.539
       0.874
       1.024
       1.056
       1.053
       1.071
       1.121
       1.165
       1.143
       1.004
       0.736
       0.381
       0.012
      -0.309
      -0.560
      -0.759
      -0.945
      -1.138
      -1.314
      -1.411
      -1.363
      -1.137
      -0.761
      -0.316
       0.091
       0.362
       0.442
       0.343
       0.153
      -0.012
      -0.065
       0.008
       0.149
       0.273
       0.303
       0.205
      -0.007
      -0.266
      -0.483
      -0.599
      -0.625
      -0.639
      -0.726
      -0.908
      -1.128
      -1.281
      -1.286
      -1.134
      -0.884
      -0.630
      -0.466
      -0.449
      -0.580
      -0.781
      -0.914
      -0.839
      -0.486
       0.094
       0.738
       1.248
       1.473
       1.387
       1.080
       0.701
       0.369
       0.135
      -0.011
      -0.094
      -0.118
      -0.066
       0.075
       0.276
       0.450
       0.491
       0.335
       0.006
      -0.384
      -0.686
      -0.783
      -0.633
      -0.280
       0.171
       0.597
       0.892
       0.997
       0.915
       0.699
       0.428
       0.164
      -0.069
      -0.283
      -0.497
      -0.709
      -0.883
      -0.968
      -0.924
      -0.761
      -0.553
      -0.409
      -0.409
      -0.540
      -0.672
      -0.621
      -0.248
       0.438
       1.267
       1.984
       2.370
       2.335
       1.934
       1.321
       0.679
       0.155
      -0.176
      -0.320
      -0.342
      -0.335
      -0.383
      -0.533
      -0.776
      -1.040
      -1.214
      -1.205
      -0.990
      -0.632
      -0.249
       0.045
       0.193
       0.208
       0.159
       0.129
       0.172
       0.293
       0.449
       0.585
       0.670
       0.706
       0.718
       0.733
       0.773
       0.851
       0.951
       1.022
       0.987
       0.779
       0.388
      -0.127
      -0.641
      -1.017
      -1.166
      -1.093
      -0.905
      -0.751
      -0.742
      -0.894
      -1.121
      -1.282
      -1.253
      -0.991
      -0.567
      -0.151
       0.064
      -0.045
      -0.462
      -1.043
      -1.575
      -1.868
      -1.805
      -1.385
      -0.713
       0.020
       0.616
       0.960
       1.070
       1.060
       1.042
       1.052
       1.048
       0.974
       0.822
       0.650
       0.547
       0.584
       0.775
       1.070
       1.367
       1.549
       1.524
       1.262
       0.799
       0.225
      -0.361
      -0.883
      -1.300
      -1.585
      -1.710
      -1.659
      -1.438
      -1.085
      -0.655
      -0.208
       0.199
       0.515
       0.711
       0.813
       0.908
       1.118
       1.541
       2.183
       2.941
       3.632
       4.050
       4.026
       3.499
       2.567
       1.487
       0.571
       0.053
      -0.027
       0.183
       0.440
       0.537
       0.386
       0.019
      -0.468
      -0.969
      -1.402
      -1.727
      -1.957
      -2.156
      -2.417
      -2.791
      -3.229
      -3.591
      -3.720
      -3.532
      -3.047
      -2.367
      -1.625
      -0.943
      -0.406
      -0.036
       0.216
       0.453
       0.781
       1.245
       1.796
       2.295
       2.574
       2.512
       2.090
       1.421
       0.721
       0.239
       0.161
       0.515
       1.132
       1.695
       1.885
       1.521
       0.621
      -0.597
      -1.795
      -2.633
      -2.899
      -2.602
      -1.941
      -1.193
      -0.583
      -0.218
      -0.090
      -0.119
      -0.201
      -0.264
      -0.299
      -0.345
      -0.438
      -0.552
      -0.591
      -0.455
      -0.110
       0.386
       0.905
       1.323
       1.565
       1.632
       1.566
       1.425
       1.242
       1.010
       0.701
       0.301
      -0.157
      -0.590
      -0.910
      -1.081
      -1.141
      -1.165
      -1.223
      -1.353
      -1.561
      -1.808
      -2.018
      -2.108
      -2.012
      -1.698
      -1.187
      -0.549
       0.115
       0.712
       1.179
       1.478
       1.578
       1.463
       1.167
       0.757
       0.296
      -0.185
      -0.670
      -1.112
      -1.410
      -1.442
      -1.132
      -0.512
       0.263
       0.971
       1.418
       1.528
       1.346
       0.984
       0.539
       0.058
      -0.442
      -0.922
      -1.307
      -1.496
      -1.407
      -1.025
      -0.429
       0.228
       0.770
       1.065
       1.089
       0.948
       0.812
       0.803
       0.930
       1.111
       1.237
       1.232
       1.086
       0.857
       0.645
       0.520
       0.480
       0.447
       0.331
       0.070
      -0.351
      -0.878
      -1.392
      -1.742
      -1.811
      -1.568
      -1.067
      -0.411
       0.289
       0.945
       1.511
       1.978
       2.339
       2.568
       2.622
       2.467
       2.110
       1.610
       1.049
       0.510
       0.065
      -0.229
      -0.346
      -0.312
      -0.210
      -0.162
      -0.270
      -0.562
      -0.978
      -1.428
      -1.859
      -2.257
      -2.614
      -2.902
      -3.077
      -3.091
      -2.903
      -2.488
      -1.857
      -1.067
      -0.211
       0.583
       1.168
       1.424
       1.327
       0.974
       0.546
       0.216
       0.089
       0.191
       0.483
       0.881
       1.288
       1.606
       1.755
       1.692
       1.447
       1.127
       0.873
       0.767
       0.771
       0.757
       0.576
       0.129
      -0.576
      -1.422
      -2.231
      -2.831
      -3.119
      -3.095
      -2.838
      -2.476
      -2.115
      -1.765
      -1.352
      -0.799
      -0.129
       0.524
       0.976
       1.087
       0.816
       0.271
      -0.295
      -0.563
      -0.305
       0.497
       1.634
       2.768
       3.572
       3.849
       3.583
       2.924
       2.114
       1.379
       0.840
       0.481
       0.193
      -0.149
      -0.619
      -1.215
      -1.874
      -2.504
      -3.009
      -3.322
      -3.416
      -3.297
      -2.981
      -2.473
      -1.787
      -0.972
      -0.118
       0.670
       1.287
       1.645
       1.701
       1.482
       1.091
       0.681
       0.411
       0.407
       0.730
       1.349
       2.135
       2.890
       3.403
       3.526
       3.238
       2.634
       1.869
       1.075
       0.331
      -0.314
      -0.826
      -1.200
      -1.470
      -1.669
      -1.769
      -1.685
      -1.360
      -0.850
      -0.327
       0.012
       0.070
      -0.118
      -0.433
      -0.752
      -0.982
      -1.071
      -1.009
      -0.823
      -0.565
      -0.287
      -0.024
       0.201
       0.386
       0.551
       0.708
       0.846
       0.936
       0.955
       0.890
       0.739
       0.513
       0.266
       0.084
       0.040
       0.147
       0.368
       0.640
       0.898
       1.085
       1.152
       1.070
       0.854
       0.561
       0.257
      -0.031
      -0.333
      -0.701
      -1.142
      -1.576
      -1.858
      -1.859
      -1.552
      -1.047
      -0.557
      -0.299
      -0.402
      -0.840
      -1.427
      -1.884
      -1.948
      -1.510
      -0.666
       0.335
       1.221
       1.818
       2.099
       2.152
       2.113
       2.080
       2.070
       2.027
       1.891
       1.648
       1.337
       1.026
       0.774
       0.613
       0.530
       0.481
       0.401
       0.220
      -0.126
      -0.668
      -1.373
      -2.122
      -2.758
      -3.178
      -3.379
      -3.434
      -3.405
      -3.283
      -2.980
      -2.396
      -1.501
      -0.371
       0.808
       1.810
       2.462
       2.726
       2.687
       2.503
       2.341
       2.337
       2.561
       3.007
       3.615
       4.313
       5.039
       5.694
       6.112
       6.093
       5.489
       4.296
       2.669
       0.880
      -0.790
      -2.165
      -3.217
      -4.033
      -4.717
      -5.311
      -5.778
      -6.040
      -6.047
      -5.818
      -5.432
      -4.984
      -4.531
      -4.075
      -3.571
      -2.965
      -2.249
      -1.491
      -0.814
      -0.343
      -0.151
      -0.205
      -0.364
      -0.420
      -0.188
       0.406
       1.307
       2.357
       3.342
       4.040
       4.288
       4.030
       3.345
       2.433
       1.558
       0.953
       0.713
       0.717
       0.677
       0.307
      -0.486
      -1.524
      -2.457
      -2.948
      -2.852
      -2.251
      -1.399
      -0.591
      -0.063
       0.075
      -0.149
      -0.583
      -1.015
      -1.270
      -1.288
      -1.153
      -1.016
      -0.987
      -1.042
      -1.035
      -0.781
      -0.167
       0.779
       1.880
       2.873
       3.508
       3.643
       3.281
       2.560
       1.698
       0.938
       0.471
       0.381
       0.614
       1.012
       1.393
       1.632
       1.683
       1.548
       1.236
       0.740
       0.062
      -0.766
      -1.672
      -2.551
      -3.276
      -3.705
      -3.723
      -3.283
      -2.458
      -1.430
      -0.438
       0.310
       0.696
       0.725
       0.497
       0.160
      -0.146
      -0.316
      -0.291
      -0.063
       0.324
       0.780
       1.200
       1.489
       1.586
       1.488
       1.249
       0.963
       0.730
       0.616
       0.646
       0.804
       1.046
       1.288
       1.426
       1.382
       1.166
       0.875
       0.632
       0.486
       0.370
       0.148
      -0.281
      -0.906
      -1.603
      -2.202
      -2.574
      -2.681
      -2.583
      -2.394
      -2.230
      -2.155
      -2.145
      -2.105
      -1.941
      -1.617
      -1.176
      -0.711
      -0.325
      -0.073
       0.067
       0.199
       0.444
       0.869
       1.453
       2.115
       2.764
       3.331
       3.758
       3.995
       3.995
       3.731
       3.215
       2.516
       1.751
       1.061
       0.544
       0.216
      -0.002
      -0.229
      -0.561
      -1.027
      -1.589
      -2.188
      -2.776
      -3.318
      -3.762
      -4.022
      -3.990
      -3.600
      -2.867
      -1.898
      -0.857
       0.092
       0.839
       1.374
       1.778
       2.163
       2.579
       2.975
       3.233
       3.239
       2.952
       2.433
       1.816
       1.235
       0.768
       0.413
       0.109
      -0.215
      -0.593
      -0.989
      -1.303
      -1.425
      -1.302
      -0.988
      -0.623
      -0.381
      -0.373
      -0.589
      -0.890
      -1.087
      -1.032
      -0.699
      -0.193
       0.304
       0.611
       0.624
       0.345
      -0.125
      -0.634
      -1.027
      -1.198
      -1.124
      -0.859
      -0.481
      -0.077
       0.272
       0.515
       0.662
       0.773
       0.899
       1.021
       1.055
       0.924
       0.625
       0.243
      -0.084
      -0.234
      -0.157
       0.087
       0.349
       0.466
       0.330
      -0.062
      -0.622
      -1.204
      -1.650
      -1.849
      -1.787
      -1.541
      -1.237
      -0.976
      -0.797
      -0.686
      -0.608
      -0.535
      -0.467
      -0.427
      -0.455
      -0.590
      -0.836
      -1.139
      -1.396
      -1.523
      -1.492
      -1.304
      -0.945
      -0.381
       0.388
       1.278
       2.129
       2.765
       3.055
       2.935
       2.439
       1.693
       0.888
       0.237
      -0.094
      -0.033
       0.356
       0.897
       1.383
       1.673
       1.737
       1.620
       1.373
       1.004
       0.485
      -0.198
      -1.005
      -1.824
      -2.490
      -2.843
      -2.796
      -2.378
      -1.733
      -1.053
      -0.493
      -0.131
       0.033
       0.055
       0.044
       0.130
       0.390
       0.807
       1.281
       1.688
       1.938
       2.008
       1.930
       1.752
       1.512
       1.233
       0.944
       0.683
       0.482
       0.344
       0.255
       0.203
       0.175
       0.154
       0.107
      -0.008
      -0.211
      -0.481
      -0.765
      -0.997
      -1.129
      -1.156
      -1.116
      -1.070
      -1.076
      -1.165
      -1.326
      -1.495
      -1.565
      -1.423
      -1.023
      -0.438
       0.153
       0.555
       0.677
       0.595
       0.493
       0.549
       0.839
       1.296
       1.732
       1.925
       1.734
       1.188
       0.488
      -0.097
      -0.366
      -0.285
       0.003
       0.241
       0.196
      -0.226
      -0.921
      -1.639
      -2.098
      -2.108
      -1.642
      -0.844
       0.025
       0.676
       0.918
       0.735
       0.298
      -0.124
      -0.302
      -0.153
       0.250
       0.756
       1.238
       1.636
       1.946
       2.175
       2.305
       2.271
       1.979
       1.363
       0.466
      -0.551
      -1.466
      -2.085
      -2.312
      -2.177
      -1.806
      -1.370
      -1.033
      -0.909
      -1.040
      -1.377
      -1.791
      -2.139
      -2.337
      -2.385
      -2.313
      -2.117
      -1.743
      -1.120
      -0.229
       0.844
       1.892
       2.636
       2.847
       2.471
       1.670
       0.739
      -0.035
      -0.497
      -0.645
      -0.577
      -0.418
      -0.266
      -0.154
      -0.049
       0.101
       0.322
       0.583
       0.814
       0.933
       0.876
       0.621
       0.202
      -0.272
      -0.639
      -0.742
      -0.495
       0.060
       0.770
       1.441
       1.931
       2.181
       2.193
       1.972
       1.514
       0.831
      -0.015
      -0.913
      -1.718
      -2.289
      -2.523
