Origin Time       1/5/2013 06:57:12	 
Lat.              33.1 N	
Long.             75.8 E	
Depth (Km)         15.0
Magnitude         5.8
 Region           JK-HP-Border                                                     
 Above details taken from IMD 
     
Station Code      MUK
Station Lat.       31.949  N
Station Long.      75.613  E
Station Height(m)  249.0
Site Class        C   Vs30 between 200 m/sec to 375 m/sec *  
Record Time       01.05.2013 06:57:43.134
Sampling Rate     200. Hz
 Record Duration   69.740 Sec.
 Direction         E-W (E positive)
Max. Acceleration     -8.557 cm/sec**2
     
  * For reference see Site Classification link of website 
     
 Base Line Corrected and Low Pass Filtered (Cut Off at 35 Hz) Time History
 Acceleration data in cm/sec**2
    
[...]
      -0.104
      -0.164
      -0.167
      -0.114
      -0.015
       0.117
       0.267
       0.416
       0.545
       0.636
       0.689
       0.711
       0.719
       0.717
       0.694
       0.627
       0.497
       0.305
       0.079
      -0.130
      -0.276
      -0.331
      -0.301
      -0.216
      -0.110
      -0.009
       0.073
       0.131
       0.162
       0.167
       0.150
       0.119
       0.081
       0.039
      -0.005
      -0.050
      -0.096
      -0.137
      -0.155
      -0.125
      -0.018
       0.184
       0.472
       0.816
       1.166
       1.473
       1.699
       1.819
       1.820
       1.694
       1.441
       1.077
       0.639
       0.189
      -0.201
      -0.468
      -0.572
      -0.502
      -0.269
       0.095
       0.548
       1.029
       1.465
       1.771
       1.880
       1.763
       1.452
       1.024
       0.579
       0.198
      -0.073
      -0.222
      -0.265
      -0.229
      -0.140
      -0.017
       0.136
       0.326
       0.553
       0.799
       1.025
       1.184
       1.245
       1.198
       1.062
       0.868
       0.653
       0.442
       0.247
       0.069
      -0.104
      -0.278
      -0.452
      -0.607
      -0.720
      -0.773
      -0.758
      -0.676
      -0.526
      -0.304
      -0.013
       0.323
       0.657
       0.935
       1.119
       1.197
       1.179
       1.083
       0.925
       0.727
       0.527
       0.374
       0.316
       0.380
       0.560
       0.826
       1.134
       1.448
       1.740
       1.992
       2.191
       2.325
       2.368
       2.290
       2.059
       1.671
       1.154
       0.568
      -0.009
      -0.508
      -0.880
      -1.117
      -1.240
      -1.292
      -1.323
      -1.382
      -1.507
      -1.720
      -2.027
      -2.411
      -2.839
      -3.269
      -3.660
      -3.975
      -4.186
      -4.274
      -4.233
      -4.074
      -3.826
      -3.520
      -3.183
      -2.832
      -2.479
      -2.137
      -1.820
      -1.534
      -1.271
      -1.011
      -0.727
      -0.407
      -0.057
       0.298
       0.630
       0.919
       1.152
       1.306
       1.339
       1.194
       0.819
       0.205
      -0.612
      -1.553
      -2.538
      -3.500
      -4.397
      -5.201
      -5.887
      -6.433
      -6.834
      -7.105
      -7.271
      -7.352
      -7.351
      -7.263
      -7.088
      -6.838
      -6.542
      -6.232
      -5.922
      -5.596
      -5.218
      -4.744
      -4.143
      -3.399
      -2.508
      -1.477
      -0.323
       0.920
       2.200
       3.457
       4.631
       5.668
       6.521
       7.156
       7.551
       7.692
       7.566
       7.169
       6.536
       5.743
       4.885
       4.041
       3.245
       2.511
       1.857
       1.317
       0.931
       0.719
       0.674
       0.764
       0.945
       1.173
       1.404
       1.597
       1.719
       1.752
       1.697
       1.582
       1.459
       1.393
       1.434
       1.612
       1.926
       2.356
       2.872
       3.434
       3.993
       4.495
       4.887
       5.130
       5.205
       5.116
       4.892
       4.585
       4.262
       3.995
       3.832
       3.781
       3.815
       3.895
       3.991
       4.091
       4.180
       4.235
       4.220
       4.092
       3.804
       3.305
       2.554
       1.535
       0.276
      -1.146
      -2.618
      -4.011
      -5.201
      -6.080
      -6.569
      -6.634
      -6.292
      -5.602
      -4.654
      -3.549
      -2.400
      -1.322
      -0.423
       0.216
       0.554
       0.593
       0.385
       0.011
      -0.429
      -0.841
      -1.144
      -1.272
      -1.176
      -0.835
      -0.256
       0.509
       1.358
       2.155
       2.757
       3.059
       3.005
       2.583
       1.805
       0.708
      -0.625
      -2.068
      -3.468
      -4.693
      -5.654
      -6.319
      -6.701
      -6.836
      -6.767
      -6.531
      -6.165
      -5.707
      -5.198
      -4.674
      -4.163
      -3.683
      -3.254
      -2.904
      -2.667
      -2.558
      -2.550
      -2.574
      -2.541
      -2.367
      -2.001
      -1.439
      -0.722
       0.082
       0.902
       1.678
       2.359
       2.890
       3.224
       3.329
       3.206
       2.887
       2.437
       1.933
       1.453
       1.053
       0.757
       0.558
       0.431
       0.346
       0.277
       0.208
       0.136
       0.061
      -0.013
      -0.090
      -0.176
      -0.278
      -0.390
      -0.489
      -0.545
      -0.525
      -0.404
      -0.175
       0.158
       0.582
       1.069
       1.581
       2.064
       2.459
       2.718
       2.816
       2.765
       2.610
       2.412
       2.223
       2.080
       2.006
       2.011
       2.096
       2.241
       2.406
       2.532
       2.547
       2.385
       2.012
       1.445
       0.745
      -0.003
      -0.715
      -1.322
      -1.764
      -1.990
      -1.964
      -1.674
      -1.144
      -0.438
       0.348
       1.103
       1.723
       2.142
       2.348
       2.369
       2.250
       2.028
       1.732
       1.392
       1.057
       0.782
       0.625
       0.628
       0.811
       1.170
       1.675
       2.286
       2.945
       3.589
       4.143
       4.537
       4.715
       4.640
       4.297
       3.691
       2.858
       1.855
       0.761
      -0.332
      -1.331
      -2.155
      -2.765
      -3.175
      -3.427
      -3.560
      -3.586
      -3.503
      -3.320
      -3.070
      -2.804
      -2.572
      -2.409
      -2.327
      -2.320
      -2.366
      -2.430
      -2.464
      -2.420
      -2.251
      -1.926
      -1.443
      -0.831
      -0.157
       0.494
       1.037
       1.397
       1.513
       1.343
       0.883
       0.177
      -0.688
      -1.597
      -2.442
      -3.145
      -3.675
      -4.033
      -4.231
      -4.288
      -4.232
      -4.107
      -3.964
      -3.840
      -3.744
      -3.657
      -3.540
      -3.349
      -3.051
      -2.647
      -2.172
      -1.686
      -1.241
      -0.862
      -0.544
      -0.273
      -0.035
       0.184
       0.398
       0.623
       0.867
       1.121
       1.367
       1.580
       1.734
       1.817
       1.822
       1.740
       1.551
       1.247
       0.847
       0.395
      -0.058
      -0.474
      -0.832
      -1.129
      -1.370
      -1.556
      -1.668
      -1.675
      -1.555
      -1.315
      -0.996
      -0.665
      -0.394
      -0.238
      -0.213
      -0.278
      -0.347
      -0.317
      -0.108
       0.309
       0.918
       1.670
       2.505
       3.344
       4.095
       4.662
       4.975
       5.004
       4.773
       4.341
       3.784
       3.180
       2.602
       2.111
       1.748
       1.515
       1.369
       1.248
       1.094
       0.867
       0.537
       0.085
      -0.483
      -1.123
      -1.747
      -2.250
      -2.544
      -2.592
      -2.426
      -2.117
      -1.740
      -1.336
      -0.911
      -0.461
      -0.005
       0.416
       0.765
       1.038
       1.271
       1.515
       1.792
       2.088
       2.363
       2.585
       2.737
       2.804
       2.766
       2.593
       2.271
       1.820
       1.282
       0.709
       0.129
      -0.445
      -1.005
      -1.526
      -1.959
      -2.250
      -2.366
      -2.314
      -2.131
      -1.871
      -1.587
      -1.316
      -1.085
      -0.901
      -0.752
      -0.619
      -0.480
      -0.311
      -0.094
       0.181
       0.491
       0.778
       0.970
       1.009
       0.884
       0.629
       0.313
       0.021
      -0.172
      -0.214
      -0.092
       0.168
       0.508
       0.858
       1.143
       1.297
       1.271
       1.043
       0.617
       0.022
      -0.702
      -1.504
      -2.313
      -3.043
      -3.604
      -3.939
      -4.041
      -3.943
      -3.692
      -3.332
      -2.899
      -2.442
      -2.019
      -1.684
      -1.454
      -1.309
      -1.202
      -1.089
      -0.950
      -0.785
      -0.600
      -0.388
      -0.132
       0.182
       0.563
       1.021
       1.560
       2.182
       2.877
       3.626
       4.407
       5.186
       5.912
       6.513
       6.905
       7.009
       6.768
       6.168
       5.249
       4.112
       2.909
       1.802
       0.921
       0.341
       0.089
       0.144
       0.442
       0.877
       1.305
       1.584
       1.597
       1.281
       0.621
      -0.355
      -1.587
      -2.990
      -4.455
      -5.848
      -7.025
      -7.858
      -8.275
      -8.254
      -7.813
      -6.976
      -5.777
      -4.289
      -2.645
      -1.033
       0.351
       1.356
       1.902
       1.990
       1.684
       1.095
       0.370
      -0.333
      -0.872
      -1.154
      -1.147
      -0.870
      -0.370
       0.297
       1.070
       1.877
       2.632
       3.234
       3.593
       3.642
       3.356
       2.756
       1.911
       0.924
      -0.082
      -0.977
      -1.649
      -2.012
      -2.023
      -1.675
      -1.008
      -0.100
       0.936
       1.967
       2.857
       3.501
       3.845
       3.886
       3.658
       3.201
       2.566
       1.825
       1.084
       0.469
       0.088
      -0.012
       0.157
       0.544
       1.082
       1.694
       2.279
       2.711
       2.859
       2.637
       2.030
       1.102
      -0.034
      -1.247
      -2.417
      -3.446
      -4.258
      -4.789
      -4.996
      -4.865
      -4.418
      -3.715
      -2.848
      -1.927
      -1.062
      -0.342
       0.171
       0.448
       0.487
       0.309
      -0.046
      -0.515
      -1.027
      -1.507
      -1.883
      -2.106
      -2.160
      -2.053
      -1.807
      -1.445
      -0.987
      -0.452
       0.136
       0.756
       1.379
       1.974
       2.505
       2.936
       3.233
       3.370
       3.333
       3.126
       2.769
       2.297
       1.755
       1.188
       0.626
       0.077
      -0.464
      -1.001
      -1.528
      -2.029
      -2.492
      -2.915
      -3.303
      -3.656
      -3.960
      -4.182
      -4.273
      -4.190
      -3.919
      -3.486
      -2.953
      -2.389
      -1.853
      -1.375
      -0.964
      -0.619
      -0.335
      -0.101
       0.099
       0.287
       0.495
       0.757
       1.106
       1.561
       2.126
       2.784
       3.489
       4.166
       4.725
       5.088
       5.208
       5.078
       4.724
       4.188
       3.520
       2.773
       2.015
       1.332
       0.809
       0.510
       0.455
       0.614
       0.919
       1.281
       1.609
       1.825
       1.880
       1.761
       1.492
       1.137
       0.778
       0.503
       0.373
       0.405
       0.566
       0.793
       1.018
       1.204
       1.351
       1.475
       1.581
       1.660
       1.685
       1.639
       1.518
       1.330
       1.083
       0.776
       0.396
      -0.060
      -0.574
      -1.106
      -1.618
      -2.089
      -2.519
      -2.910
      -3.256
      -3.543
      -3.759
      -3.899
      -3.966
      -3.958
      -3.873
      -3.714
      -3.501
      -3.271
      -3.064
      -2.900
      -2.774
      -2.646
      -2.458
      -2.149
      -1.686
      -1.078
      -0.385
       0.306
       0.912
       1.389
       1.738
       1.991
       2.181
       2.330
       2.447
       2.530
       2.566
       2.537
       2.437
       2.287
       2.134
       2.031
       2.012
       2.074
       2.179
       2.264
       2.266
       2.151
       1.916
       1.580
       1.172
       0.717
       0.245
      -0.197
      -0.554
      -0.770
      -0.817
      -0.712
      -0.512
      -0.300
      -0.159
      -0.147
      -0.292
      -0.590
      -1.006
      -1.485
      -1.965
      -2.386
      -2.718
      -2.954
      -3.105
      -3.177
      -3.160
      -3.044
      -2.826
      -2.521
      -2.156
      -1.755
      -1.333
      -0.897
      -0.456
      -0.031
       0.351
       0.657
       0.844
       0.860
       0.648
       0.175
      -0.539
      -1.416
      -2.348
      -3.232
      -4.000
      -4.619
      -5.082
      -5.387
      -5.534
      -5.538
      -5.430
      -5.260
      -5.080
      -4.942
      -4.891
      -4.958
      -5.149
      -5.435
      -5.744
      -5.977
      -6.034
      -5.852
      -5.415
      -4.743
      -3.854
      -2.760
      -1.476
      -0.045
       1.445
       2.877
       4.127
       5.101
       5.741
       6.034
       6.007
       5.738
       5.346
       4.975
       4.743
       4.716
       4.887
       5.207
       5.607
       6.038
       6.469
       6.885
       7.269
       7.592
       7.809
       7.874
       7.748
       7.412
       6.871
       6.150
       5.306
       4.415
       3.563
       2.830
       2.274
       1.932
       1.809
       1.874
       2.069
       2.311
       2.514
       2.603
       2.536
       2.313
       1.972
       1.566
       1.153
       0.788
       0.530
       0.431
       0.522
       0.792
       1.192
       1.645
       2.072
       2.407
       2.608
       2.662
       2.574
       2.357
       2.018
       1.556
       0.981
       0.329
      -0.336
      -0.943
      -1.451
      -1.858
      -2.198
      -2.524
      -2.899
      -3.373
      -3.972
      -4.690
      -5.494
      -6.333
      -7.141
      -7.835
      -8.331
      -8.557
      -8.470
      -8.061
      -7.349
      -6.382
      -5.241
      -4.030
      -2.854
      -1.791
      -0.881
      -0.136
       0.442
       0.853
       1.104
       1.225
       1.276
       1.330
       1.438
       1.619
       1.853
       2.109
       2.358
       2.582
       2.768
       2.891
       2.914
       2.792
       2.489
       1.996
       1.339
       0.580
      -0.207
      -0.949
      -1.595
      -2.130
      -2.567
      -2.932
      -3.241
      -3.486
      -3.639
      -3.669
      -3.567
      -3.349
      -3.058
      -2.755
      -2.498
      -2.343
      -2.335
      -2.500
      -2.831
      -3.271
      -3.721
      -4.067
      -4.206
      -4.067
      -3.622
      -2.891
      -1.945
      -0.895
       0.137
       1.048
       1.782
       2.331
       2.717
       2.958
       3.053
       2.987
       2.760
       2.398
       1.955
       1.497
       1.082
       0.755
       0.553
       0.516
       0.685
       1.076
       1.651
       2.303
       2.875
       3.206
       3.183
       2.766
       1.986
       0.929
      -0.288
      -1.531
      -2.682
      -3.660
      -4.422
      -4.958
      -5.274
      -5.381
      -5.291
      -5.013
      -4.552
      -3.909
      -3.085
      -2.090
      -0.948
       0.299
       1.597
       2.883
       4.091
       5.156
       6.033
       6.703
       7.177
       7.471
       7.601
       7.585
       7.450
       7.227
       6.939
       6.600
       6.216
       5.802
       5.375
       4.933
       4.452
       3.892
       3.213
       2.395
       1.441
       0.376
      -0.748
      -1.861
      -2.880
      -3.722
      -4.310
      -4.589
      -4.534
      -4.168
      -3.563
      -2.831
      -2.100
      -1.483
      -1.058
      -0.871
      -0.935
      -1.229
      -1.680
      -2.175
      -2.582
      -2.793
      -2.750
      -2.456
      -1.958
      -1.326
      -0.629
       0.077
       0.735
       1.271
       1.607
       1.678
       1.459
       0.977
       0.305
      -0.460
      -1.229
      -1.943
      -2.578
      -3.125
      -3.579
      -3.914
      -4.088
      -4.048
      -3.757
      -3.213
      -2.465
      -1.597
      -0.712
       0.090
       0.723
       1.118
       1.217
       0.987
       0.433
      -0.381
      -1.337
      -2.288
      -3.093
      -3.641
      -3.867
      -3.745
      -3.278
      -2.485
      -1.403
      -0.112
       1.250
       2.486
       3.392
       3.832
       3.787
       3.348
       2.662
       1.880
       1.121
       0.480
       0.027
      -0.193
      -0.167
       0.069
       0.439
       0.846
       1.195
       1.423
       1.494
       1.391
       1.105
       0.639
       0.011
      -0.732
      -1.516
      -2.249
      -2.837
      -3.198
      -3.276
      -3.061
      -2.599
      -1.991
      -1.359
      -0.793
      -0.311
       0.131
       0.607
       1.172
       1.830
       2.531
       3.195
       3.737
       4.093
       4.224
       4.115
       3.771
       3.219
       2.506
       1.701
       0.893
       0.178
      -0.370
      -0.719
      -0.891
      -0.942
      -0.942
      -0.956
      -1.034
      -1.199
      -1.445
      -1.736
      -2.025
      -2.269
      -2.439
      -2.518
      -2.479
      -2.284
      -1.897
      -1.317
      -0.581
       0.242
       1.085
       1.886
       2.591
       3.144
       3.501
       3.655
       3.634
       3.498
       3.316
       3.145
       3.020
       2.943
       2.882
       2.780
       2.572
       2.226
       1.761
       1.241
       0.737
       0.291
      -0.084
      -0.389
      -0.626
      -0.796
      -0.902
      -0.946
      -0.921
      -0.813
      -0.615
      -0.337
      -0.017
       0.294
       0.548
       0.714
       0.778
       0.735
       0.588
       0.356
       0.077
      -0.194
      -0.410
      -0.549
      -0.624
      -0.664
      -0.690
      -0.698
      -0.669
      -0.588
      -0.465
      -0.323
      -0.177
      -0.015
       0.195
       0.478
       0.825
       1.184
       1.466
       1.580
       1.468
       1.126
       0.599
      -0.046
      -0.729
      -1.368
      -1.879
      -2.187
      -2.241
      -2.033
      -1.610
      -1.064
      -0.505
      -0.031
       0.297
       0.454
       0.433
       0.239
      -0.112
      -0.592
      -1.151
      -1.727
      -2.244
      -2.622
      -2.790
      -2.698
      -2.335
      -1.744
      -1.016
      -0.260
       0.423
       0.952
       1.274
       1.366
       1.239
       0.938
       0.533
       0.100
      -0.292
      -0.595
      -0.782
      -0.847
      -0.813
      -0.725
      -0.638
      -0.591
      -0.580
      -0.569
      -0.533
      -0.487
      -0.491
      -0.601
      -0.829
      -1.140
      -1.468
      -1.748
      -1.932
      -1.996
      -1.933
      -1.750
      -1.457
      -1.062
      -0.573
      -0.002
       0.617
       1.238
       1.805
       2.271
       2.609
       2.808
       2.880
       2.858
       2.792
       2.736
       2.731
       2.780
       2.850
       2.886
       2.843
       2.699
       2.453
       2.110
       1.675
       1.145
       0.529
      -0.144
      -0.823
      -1.446
      -1.955
      -2.313
      -2.506
      -2.541
      -2.434
      -2.199
      -1.845
      -1.390
      -0.870
      -0.341
       0.130
       0.484
       0.677
       0.689
       0.526
       0.210
      -0.226
      -0.737
      -1.254
      -1.691
      -1.961
      -2.019
      -1.884
      -1.624
      -1.315
      -1.000
      -0.683
      -0.348
       0.025
       0.444
       0.903
       1.375
       1.807
       2.132
       2.275
       2.179
       1.825
       1.249
