Origin Time       15/06/2011 00:59:28
Lat.              30.6 N	
Long.             80.1 E	
Depth (Km)         10.0
Magnitude         3.4
 Region           Pithoragarh-Uttarakhand                                          
 Above details taken from IMD 
     
Station Code      MUN
Station Lat.       30.066  N
Station Long.      80.237  E
Station Height(m) 2201.0
Site Class        A   Vs30 between 700 m/sec to 1400 m/sec * 
Record Time       15.06.2011 00:59:16.779
Sampling Rate     200. Hz
 Record Duration   65.515 Sec.
 Direction         E-W (E positive)
Max. Acceleration     11.833 cm/sec**2
     
  * For reference see Site Classification link of website 
     
 Base Line Corrected and Low Pass Filtered (Cut Off at 35 Hz) Time History
 Acceleration data in cm/sec**2
    
[...]
      -0.005
       0.002
       0.007
       0.006
       0.000
      -0.007
      -0.011
      -0.011
      -0.007
      -0.004
      -0.002
      -0.001
      -0.002
      -0.005
      -0.008
      -0.011
      -0.012
      -0.011
      -0.007
      -0.003
       0.000
       0.001
       0.001
      -0.001
      -0.003
      -0.002
       0.000
       0.003
       0.005
       0.007
       0.009
       0.008
       0.004
      -0.002
      -0.005
      -0.002
       0.005
       0.012
       0.014
       0.011
       0.003
      -0.003
      -0.006
      -0.006
      -0.006
      -0.006
      -0.007
      -0.007
      -0.006
      -0.005
      -0.003
       0.000
       0.002
       0.002
       0.000
       0.000
       0.002
       0.004
       0.001
      -0.005
      -0.012
      -0.015
      -0.013
      -0.007
       0.000
       0.005
       0.008
       0.007
       0.004
       0.000
      -0.003
      -0.003
      -0.001
       0.002
       0.006
       0.007
       0.006
       0.002
       0.000
       0.001
       0.002
       0.000
      -0.007
      -0.012
      -0.011
      -0.001
       0.011
       0.020
       0.019
       0.012
       0.003
      -0.004
      -0.008
      -0.009
      -0.009
      -0.009
      -0.010
      -0.010
      -0.010
      -0.008
      -0.003
       0.003
       0.006
       0.005
       0.001
      -0.001
       0.001
       0.006
       0.009
       0.007
       0.001
      -0.008
      -0.014
      -0.015
      -0.011
      -0.004
       0.002
       0.003
       0.001
      -0.003
      -0.003
       0.000
       0.004
       0.003
      -0.003
      -0.011
      -0.016
      -0.015
      -0.009
      -0.002
       0.002
       0.003
       0.000
      -0.002
      -0.003
      -0.003
       0.000
       0.004
       0.009
       0.014
       0.015
       0.012
       0.006
       0.000
      -0.003
      -0.004
      -0.002
      -0.001
       0.003
       0.008
       0.014
       0.019
       0.018
       0.012
       0.003
      -0.002
      -0.001
       0.003
       0.006
       0.004
      -0.001
      -0.005
      -0.004
       0.002
       0.007
       0.007
       0.003
      -0.001
      -0.003
      -0.002
       0.001
       0.004
       0.004
       0.003
       0.000
      -0.001
       0.001
       0.003
       0.004
       0.004
       0.004
       0.006
       0.007
       0.008
       0.008
       0.008
       0.009
       0.010
       0.012
       0.014
       0.014
       0.011
       0.005
      -0.003
      -0.008
      -0.008
      -0.004
       0.001
       0.004
       0.002
      -0.001
      -0.002
       0.000
       0.002
       0.003
       0.002
       0.002
       0.004
       0.006
       0.006
       0.003
       0.000
      -0.002
      -0.005
      -0.009
      -0.014
      -0.016
      -0.014
      -0.008
       0.000
       0.006
       0.009
       0.008
       0.003
      -0.005
      -0.013
      -0.016
      -0.012
      -0.004
       0.005
       0.010
       0.010
       0.007
       0.004
       0.002
      -0.001
      -0.005
      -0.008
      -0.009
      -0.006
      -0.002
       0.000
       0.000
      -0.002
      -0.005
      -0.007
      -0.007
      -0.003
       0.002
       0.001
      -0.009
      -0.020
      -0.017
       0.013
       0.057
       0.080
       0.042
      -0.058
      -0.171
      -0.227
      -0.194
      -0.094
       0.030
       0.154
       0.281
       0.400
       0.455
       0.373
       0.124
      -0.238
      -0.579
      -0.754
      -0.673
      -0.351
       0.094
       0.487
       0.668
       0.577
       0.293
      -0.019
      -0.224
      -0.294
      -0.289
      -0.264
      -0.230
      -0.163
      -0.053
       0.077
       0.187
       0.229
       0.188
       0.100
       0.042
       0.055
       0.091
       0.055
      -0.091
      -0.272
      -0.349
      -0.240
       0.015
       0.285
       0.439
       0.418
       0.244
      -0.027
      -0.319
      -0.529
      -0.553
      -0.358
      -0.040
       0.235
       0.344
       0.282
       0.125
      -0.058
      -0.232
      -0.361
      -0.375
      -0.206
       0.130
       0.496
       0.700
       0.623
       0.316
      -0.043
      -0.288
      -0.371
      -0.357
      -0.320
      -0.266
      -0.150
       0.045
       0.258
       0.382
       0.344
       0.164
      -0.055
      -0.188
      -0.162
      -0.012
       0.127
       0.107
      -0.106
      -0.380
      -0.517
      -0.404
      -0.091
       0.255
       0.465
       0.471
       0.325
       0.153
       0.050
       0.022
      -0.003
      -0.092
      -0.241
      -0.369
      -0.381
      -0.258
      -0.070
       0.089
       0.182
       0.233
       0.274
       0.297
       0.275
       0.186
       0.042
      -0.118
      -0.240
      -0.287
      -0.265
      -0.216
      -0.171
      -0.127
      -0.058
       0.036
       0.118
       0.144
       0.116
       0.084
       0.105
       0.179
       0.246
       0.231
       0.108
      -0.072
      -0.214
      -0.240
      -0.158
      -0.052
      -0.015
      -0.067
      -0.147
      -0.171
      -0.104
       0.017
       0.116
       0.140
       0.100
       0.055
       0.072
       0.173
       0.299
       0.334
       0.181
      -0.135
      -0.444
      -0.550
      -0.395
      -0.123
       0.055
       0.048
      -0.041
      -0.055
       0.051
       0.182
       0.227
       0.187
       0.156
       0.204
       0.289
       0.300
       0.174
      -0.045
      -0.255
      -0.390
      -0.445
      -0.433
      -0.355
      -0.222
      -0.078
       0.026
       0.094
       0.175
       0.292
       0.381
       0.344
       0.162
      -0.056
      -0.164
      -0.122
      -0.034
      -0.036
      -0.145
      -0.235
      -0.159
       0.104
       0.415
       0.579
       0.486
       0.185
      -0.155
      -0.368
      -0.392
      -0.284
      -0.142
      -0.020
       0.086
       0.178
       0.214
       0.135
      -0.057
      -0.267
      -0.381
      -0.363
      -0.283
      -0.224
      -0.193
      -0.120
       0.048
       0.263
       0.412
       0.414
       0.312
       0.234
       0.262
       0.321
       0.234
      -0.097
      -0.549
      -0.849
      -0.789
      -0.403
       0.081
       0.418
       0.511
       0.422
       0.263
       0.109
      -0.017
      -0.107
      -0.142
      -0.106
      -0.005
       0.127
       0.223
       0.199
       0.009
      -0.282
      -0.507
      -0.510
      -0.272
       0.053
       0.249
       0.190
      -0.061
      -0.288
      -0.288
      -0.030
       0.331
       0.594
       0.654
       0.528
       0.289
       0.001
      -0.290
      -0.529
      -0.649
      -0.597
      -0.391
      -0.132
       0.055
       0.116
       0.100
       0.106
       0.189
       0.318
       0.406
       0.377
       0.226
       0.017
      -0.170
      -0.291
      -0.345
      -0.346
      -0.299
      -0.212
      -0.112
      -0.033
       0.021
       0.080
       0.177
       0.288
       0.332
       0.249
       0.077
      -0.055
      -0.054
       0.039
       0.064
      -0.102
      -0.415
      -0.671
      -0.664
      -0.362
       0.067
       0.404
       0.546
       0.542
       0.476
       0.363
       0.162
      -0.125
      -0.405
      -0.557
      -0.531
      -0.370
      -0.153
       0.070
       0.289
       0.483
       0.593
       0.547
       0.332
       0.034
      -0.213
      -0.329
      -0.339
      -0.327
      -0.341
      -0.338
      -0.227
       0.030
       0.360
       0.603
       0.626
       0.411
       0.061
      -0.283
      -0.538
      -0.701
      -0.783
      -0.744
      -0.508
      -0.065
       0.455
       0.844
       0.972
       0.876
       0.678
       0.440
       0.119
      -0.310
      -0.751
      -1.018
      -0.990
      -0.708
      -0.325
       0.021
       0.280
       0.457
       0.552
       0.552
       0.459
       0.314
       0.158
       0.005
      -0.147
      -0.275
      -0.329
      -0.279
      -0.162
      -0.069
      -0.063
      -0.127
      -0.176
      -0.133
       0.015
       0.209
       0.353
       0.368
       0.229
      -0.010
      -0.237
      -0.337
      -0.264
      -0.078
       0.081
       0.097
      -0.044
      -0.234
      -0.308
      -0.169
       0.134
       0.428
       0.546
       0.453
       0.248
       0.066
      -0.047
      -0.143
      -0.282
      -0.439
      -0.504
      -0.384
      -0.102
       0.210
       0.396
       0.383
       0.193
      -0.076
      -0.299
      -0.375
      -0.292
      -0.135
      -0.021
      -0.008
      -0.049
      -0.031
       0.133
       0.426
       0.713
       0.814
       0.632
       0.220
      -0.258
      -0.634
      -0.815
      -0.798
      -0.638
      -0.389
      -0.083
       0.263
       0.610
       0.868
       0.925
       0.690
       0.167
      -0.502
      -1.050
      -1.218
      -0.912
      -0.294
       0.311
       0.625
       0.588
       0.354
       0.141
       0.065
       0.090
       0.094
      -0.018
      -0.228
      -0.405
      -0.413
      -0.229
       0.018
       0.159
       0.142
       0.068
       0.064
       0.141
       0.172
       0.031
      -0.248
      -0.467
      -0.426
      -0.107
       0.305
       0.571
       0.574
       0.367
       0.078
      -0.213
      -0.492
      -0.724
      -0.809
      -0.638
      -0.213
       0.298
       0.648
       0.681
       0.444
       0.149
       0.001
       0.053
       0.197
       0.277
       0.213
       0.043
      -0.133
      -0.250
      -0.325
      -0.406
      -0.493
      -0.509
      -0.378
      -0.114
       0.176
       0.377
       0.445
       0.399
       0.285
       0.137
      -0.018
      -0.141
      -0.174
      -0.082
       0.087
       0.203
       0.144
      -0.079
      -0.301
      -0.333
      -0.147
       0.083
       0.129
      -0.075
      -0.365
      -0.509
      -0.410
      -0.160
       0.092
       0.280
       0.435
       0.594
       0.733
       0.774
       0.634
       0.288
      -0.196
      -0.676
      -0.998
      -1.070
      -0.887
      -0.520
      -0.095
       0.251
       0.432
       0.463
       0.438
       0.444
       0.486
       0.468
       0.277
      -0.098
      -0.519
      -0.794
      -0.813
      -0.601
      -0.269
       0.061
       0.304
       0.439
       0.501
       0.536
       0.558
       0.537
       0.437
       0.252
       0.008
      -0.259
      -0.514
      -0.732
      -0.875
      -0.901
      -0.786
      -0.543
      -0.217
       0.132
       0.449
       0.697
       0.857
       0.900
       0.780
       0.479
       0.073
      -0.273
      -0.422
      -0.395
      -0.350
      -0.418
      -0.550
      -0.549
      -0.259
       0.254
       0.728
       0.908
       0.749
       0.417
       0.097
      -0.166
      -0.443
      -0.763
      -1.034
      -1.105
      -0.898
      -0.458
       0.099
       0.666
       1.152
       1.451
       1.437
       1.046
       0.368
      -0.371
      -0.936
      -1.209
      -1.198
      -0.974
      -0.605
      -0.157
       0.269
       0.535
       0.535
       0.300
       0.008
      -0.133
      -0.042
       0.178
       0.350
       0.369
       0.246
       0.055
      -0.134
      -0.257
      -0.246
      -0.064
       0.230
       0.467
       0.469
       0.182
      -0.287
      -0.760
      -1.105
      -1.266
      -1.213
      -0.912
      -0.357
       0.370
       1.075
       1.518
       1.540
       1.178
       0.652
       0.212
      -0.022
      -0.109
      -0.205
      -0.444
      -0.843
      -1.273
      -1.501
      -1.319
      -0.690
       0.202
       1.055
       1.611
       1.769
       1.582
       1.176
       0.658
       0.070
      -0.579
      -1.260
      -1.870
      -2.234
      -2.162
      -1.569
      -0.610
       0.329
       0.849
       0.842
       0.573
       0.446
       0.668
       1.108
       1.472
       1.580
       1.493
       1.364
       1.190
       0.741
      -0.203
      -1.545
      -2.792
      -3.362
      -3.020
      -2.052
      -1.044
      -0.444
      -0.265
      -0.132
       0.411
       1.542
       2.994
       4.206
       4.676
       4.249
       3.110
       1.539
      -0.277
      -2.158
      -3.707
      -4.335
      -3.673
      -2.033
      -0.385
       0.267
      -0.372
      -1.676
      -2.592
      -2.410
      -1.184
       0.477
       1.947
       2.903
       3.268
       3.009
       2.125
       0.816
      -0.457
      -1.189
      -1.189
      -0.725
      -0.331
      -0.425
      -1.066
      -1.996
      -2.849
      -3.313
      -3.150
      -2.194
      -0.453
       1.718
       3.603
       4.415
       3.815
       2.237
       0.684
       0.060
       0.523
       1.409
       1.748
       0.981
      -0.677
      -2.448
      -3.574
      -3.781
      -3.281
      -2.439
      -1.483
      -0.497
       0.422
       1.106
       1.460
       1.625
       1.932
       2.650
       3.757
       4.923
       5.693
       5.689
       4.731
       2.888
       0.513
      -1.824
      -3.582
      -4.619
      -5.334
      -6.344
      -7.868
      -9.376
      -9.854
      -8.510
      -5.321
      -0.992
       3.522
       7.469
      10.370
      11.833
      11.490
       9.244
       5.566
       1.458
      -1.985
      -4.082
      -4.777
      -4.474
      -3.725
      -2.977
      -2.461
      -2.165
      -1.849
      -1.173
       0.063
       1.668
       3.061
       3.574
       2.857
       1.097
      -1.069
      -2.854
      -3.657
      -3.313
      -2.135
      -0.724
       0.348
       0.814
       0.772
       0.515
       0.267
       0.075
      -0.075
      -0.040
       0.464
       1.557
       2.862
       3.552
       2.886
       0.865
      -1.585
      -3.148
      -3.012
      -1.399
       0.665
       2.077
       2.287
       1.435
       0.068
      -1.198
      -1.889
      -1.778
      -0.988
      -0.024
       0.439
      -0.029
      -1.268
      -2.571
      -3.112
      -2.488
      -0.960
       0.755
       1.979
       2.439
       2.276
       1.805
       1.279
       0.802
       0.369
      -0.024
      -0.279
      -0.213
       0.283
       1.086
       1.855
       2.229
       2.020
       1.262
       0.138
      -1.105
      -2.214
      -2.979
      -3.317
      -3.302
      -3.079
      -2.696
      -2.027
      -0.905
       0.628
       2.208
       3.336
       3.716
       3.439
       2.819
       2.057
       1.095
      -0.167
      -1.552
      -2.564
      -2.773
      -2.222
      -1.429
      -0.946
      -0.891
      -0.907
      -0.546
       0.296
       1.283
       1.935
       1.999
       1.578
       0.967
       0.397
      -0.069
      -0.480
      -0.880
      -1.263
      -1.562
      -1.664
      -1.448
      -0.842
       0.104
       1.201
       2.162
       2.691
       2.611
       1.965
       1.022
       0.160
      -0.351
      -0.501
      -0.536
      -0.769
      -1.316
      -1.948
      -2.177
      -1.602
      -0.261
       1.296
       2.307
       2.297
       1.393
       0.226
      -0.526
      -0.598
      -0.223
       0.190
       0.453
       0.655
       0.896
       1.039
       0.793
       0.034
      -1.000
      -1.860
      -2.237
      -2.187
      -2.022
      -1.993
      -2.059
      -1.931
      -1.314
      -0.169
       1.195
       2.268
       2.649
       2.310
       1.586
       0.904
       0.470
       0.171
      -0.238
      -0.862
      -1.543
      -1.974
      -1.932
      -1.398
      -0.510
       0.546
       1.599
       2.466
       2.946
       2.885
       2.278
       1.304
       0.245
      -0.635
      -1.167
      -1.307
      -1.132
      -0.824
      -0.598
      -0.592
      -0.786
      -1.034
      -1.188
      -1.197
      -1.104
      -0.958
      -0.750
      -0.453
      -0.091
       0.240
       0.428
       0.417
       0.262
       0.128
       0.207
       0.601
       1.222
       1.802
       2.044
       1.818
       1.270
       0.725
       0.453
       0.484
       0.600
       0.491
      -0.054
      -1.021
      -2.135
      -2.952
      -3.069
      -2.359
      -1.071
       0.304
       1.318
       1.797
       1.848
       1.680
       1.409
       1.017
       0.466
      -0.186
      -0.780
      -1.163
      -1.281
      -1.175
      -0.932
      -0.638
      -0.368
      -0.172
      -0.040
       0.095
       0.311
       0.603
       0.835
       0.805
       0.422
      -0.161
      -0.592
      -0.576
      -0.140
       0.374
       0.567
       0.298
      -0.249
      -0.748
      -0.993
      -0.982
      -0.804
      -0.493
      -0.020
       0.584
       1.146
       1.459
       1.451
       1.244
       1.011
       0.803
       0.515
       0.037
      -0.587
      -1.138
      -1.373
      -1.194
      -0.716
      -0.145
       0.379
       0.852
       1.308
       1.681
       1.793
       1.495
       0.827
       0.034
      -0.586
      -0.886
      -0.948
      -0.999
      -1.220
      -1.624
      -2.079
      -2.397
      -2.405
      -1.983
      -1.100
       0.115
       1.375
       2.327
       2.726
       2.553
       2.009
       1.386
       0.899
       0.576
       0.290
      -0.111
      -0.672
      -1.295
      -1.796
      -1.989
      -1.761
      -1.125
      -0.244
       0.602
       1.124
       1.154
       0.727
       0.068
      -0.519
      -0.781
      -0.624
      -0.149
       0.402
       0.779
       0.862
       0.720
       0.545
       0.488
       0.533
       0.504
       0.238
      -0.247
      -0.738
      -0.990
      -0.922
      -0.653
      -0.372
      -0.176
      -0.038
       0.100
       0.225
       0.247
       0.093
      -0.205
      -0.521
      -0.726
      -0.761
      -0.650
      -0.453
      -0.234
      -0.041
       0.106
       0.224
       0.341
       0.451
       0.496
       0.403
       0.175
      -0.076
      -0.182
      -0.039
       0.308
       0.691
       0.947
       1.045
       1.081
       1.168
       1.289
       1.279
       0.950
       0.258
      -0.631
      -1.428
      -1.873
      -1.860
      -1.459
      -0.861
      -0.279
       0.137
       0.338
       0.350
       0.228
       0.026
      -0.183
      -0.291
      -0.197
       0.111
       0.514
       0.827
       0.934
       0.862
       0.731
       0.621
       0.514
       0.328
       0.016
      -0.402
      -0.857
      -1.258
      -1.495
      -1.451
      -1.061
      -0.393
       0.342
       0.881
       1.053
       0.865
       0.470
       0.050
      -0.291
      -0.533
      -0.678
      -0.695
      -0.536
      -0.205
       0.212
       0.579
       0.789
       0.825
       0.742
       0.592
       0.371
       0.057
      -0.313
      -0.622
      -0.755
      -0.691
      -0.511
      -0.306
      -0.100
       0.147
       0.452
       0.755
       0.937
       0.909
       0.668
       0.297
      -0.061
      -0.256
      -0.200
