Origin Time       15/06/2011 00:59:28 UTC
Lat.              30.6 N	
Long.             80.1 E	
Depth (Km)         10.0
Magnitude         3.4
 Region           Pithoragarh-Uttarakhand                                          
 Above details taken from IMD 
    
Station Code      MUN
Station Lat.       30.066  N
Station Long.      80.237  E
Station Height(m) 2201.0
Site Class        A   Vs30 between 700 m/sec to 1400 m/sec * 
Record Time       15.06.2011 00:59:16.779 UTC
Sampling Rate     200. Hz
 Record Duration   65.515 Sec.
 Direction         N-S (N positive)
Max. Acceleration     11.348 cm/sec**2
     
  * For reference see Site Classification link of website 
     
 Base Line Corrected and Low Pass Filtered (Cut Off at 35 Hz) Time History
 Acceleration data in cm/sec**2
    
[...]
      -0.008
      -0.009
      -0.009
      -0.007
      -0.002
       0.002
       0.005
       0.005
       0.003
       0.000
      -0.004
      -0.007
      -0.009
      -0.010
      -0.010
      -0.011
      -0.012
      -0.015
      -0.016
      -0.015
      -0.011
      -0.006
      -0.001
       0.001
       0.000
      -0.004
      -0.007
      -0.009
      -0.010
      -0.009
      -0.008
      -0.006
      -0.001
       0.004
       0.007
       0.006
       0.000
      -0.008
      -0.014
      -0.017
      -0.018
      -0.017
      -0.012
      -0.005
       0.000
      -0.001
      -0.008
      -0.015
      -0.018
      -0.013
      -0.005
       0.003
       0.005
       0.005
       0.004
       0.006
       0.009
       0.011
       0.007
       0.000
      -0.007
      -0.010
      -0.009
      -0.005
      -0.002
      -0.001
      -0.002
      -0.004
      -0.008
      -0.012
      -0.013
      -0.010
      -0.005
      -0.001
       0.000
      -0.002
      -0.003
      -0.004
      -0.005
      -0.005
      -0.004
      -0.003
      -0.002
      -0.002
      -0.003
      -0.003
       0.000
       0.004
       0.006
       0.006
       0.003
       0.000
      -0.002
      -0.004
      -0.005
      -0.007
      -0.010
      -0.013
      -0.014
      -0.011
      -0.006
       0.000
       0.002
       0.000
      -0.005
      -0.010
      -0.010
      -0.005
       0.002
       0.007
       0.007
       0.002
      -0.004
      -0.009
      -0.010
      -0.009
      -0.006
      -0.003
       0.000
       0.003
       0.004
       0.001
      -0.005
      -0.012
      -0.018
      -0.020
      -0.019
      -0.015
      -0.011
      -0.007
      -0.005
      -0.005
      -0.006
      -0.006
      -0.005
      -0.003
      -0.003
      -0.003
      -0.003
      -0.001
       0.002
       0.002
       0.000
      -0.004
      -0.008
      -0.009
      -0.005
       0.000
       0.004
       0.002
      -0.003
      -0.008
      -0.008
      -0.006
      -0.003
      -0.002
      -0.006
      -0.012
      -0.017
      -0.017
      -0.010
      -0.002
       0.001
      -0.002
      -0.008
      -0.012
      -0.011
      -0.005
       0.000
       0.004
       0.005
       0.006
       0.007
       0.006
       0.004
       0.002
       0.001
      -0.001
      -0.003
      -0.004
      -0.005
      -0.003
      -0.002
      -0.002
      -0.006
      -0.013
      -0.019
      -0.019
      -0.014
      -0.005
       0.003
       0.006
       0.002
      -0.004
      -0.009
      -0.011
      -0.010
      -0.009
      -0.008
      -0.008
      -0.008
      -0.007
      -0.004
      -0.001
       0.001
       0.002
       0.001
      -0.001
      -0.003
      -0.005
      -0.009
      -0.012
      -0.013
      -0.012
      -0.009
      -0.003
       0.004
       0.009
       0.010
       0.006
      -0.002
      -0.008
      -0.010
      -0.009
      -0.007
      -0.007
      -0.005
      -0.004
      -0.003
      -0.004
      -0.006
      -0.008
      -0.009
      -0.006
      -0.003
      -0.002
      -0.004
      -0.005
      -0.003
       0.001
       0.005
       0.005
       0.001
      -0.003
      -0.002
       0.003
       0.008
       0.009
       0.006
       0.003
       0.002
       0.002
      -0.002
      -0.010
      -0.018
      -0.022
      -0.017
      -0.007
       0.001
       0.001
      -0.004
      -0.011
      -0.013
      -0.008
       0.000
       0.006
       0.007
       0.005
       0.002
       0.000
      -0.001
      -0.002
      -0.004
      -0.004
      -0.001
       0.004
       0.008
       0.010
       0.009
       0.008
       0.007
       0.006
       0.005
       0.003
       0.001
      -0.001
      -0.001
       0.000
      -0.001
      -0.009
      -0.024
      -0.036
      -0.024
       0.023
       0.084
       0.108
       0.051
      -0.077
      -0.201
      -0.241
      -0.180
      -0.074
       0.018
       0.105
       0.238
       0.421
       0.548
       0.473
       0.146
      -0.319
      -0.705
      -0.842
      -0.698
      -0.357
       0.059
       0.434
       0.661
       0.660
       0.435
       0.084
      -0.256
      -0.490
      -0.573
      -0.483
      -0.230
       0.109
       0.393
       0.503
       0.426
       0.231
      -0.008
      -0.240
      -0.395
      -0.380
      -0.161
       0.160
       0.400
       0.433
       0.281
       0.062
      -0.126
      -0.261
      -0.343
      -0.337
      -0.202
       0.019
       0.175
       0.132
      -0.077
      -0.263
      -0.246
      -0.018
       0.271
       0.446
       0.419
       0.209
      -0.094
      -0.356
      -0.443
      -0.297
       0.003
       0.282
       0.398
       0.335
       0.196
       0.081
       0.000
      -0.109
      -0.278
      -0.441
      -0.474
      -0.307
       0.001
       0.299
       0.438
       0.358
       0.109
      -0.191
      -0.405
      -0.427
      -0.237
       0.069
       0.328
       0.423
       0.353
       0.203
       0.052
      -0.063
      -0.117
      -0.089
       0.014
       0.120
       0.138
       0.034
      -0.126
      -0.244
      -0.276
      -0.252
      -0.217
      -0.175
      -0.118
      -0.053
       0.001
       0.057
       0.147
       0.266
       0.346
       0.309
       0.160
       0.000
      -0.070
      -0.046
      -0.009
      -0.031
      -0.100
      -0.145
      -0.115
      -0.020
       0.086
       0.144
       0.118
       0.020
      -0.093
      -0.146
      -0.115
      -0.046
      -0.017
      -0.054
      -0.103
      -0.076
       0.050
       0.180
       0.177
       0.006
      -0.213
      -0.306
      -0.205
      -0.016
       0.080
       0.003
      -0.146
      -0.183
      -0.035
       0.191
       0.333
       0.334
       0.259
       0.169
       0.052
      -0.109
      -0.242
      -0.223
      -0.029
       0.191
       0.243
       0.088
      -0.133
      -0.262
      -0.282
      -0.275
      -0.270
      -0.183
       0.064
       0.394
       0.592
       0.504
       0.190
      -0.129
      -0.286
      -0.309
      -0.332
      -0.406
      -0.434
      -0.289
       0.029
       0.370
       0.550
       0.474
       0.193
      -0.127
      -0.287
      -0.186
       0.091
       0.320
       0.317
       0.097
      -0.144
      -0.223
      -0.126
       0.024
       0.127
       0.182
       0.223
       0.225
       0.120
      -0.089
      -0.285
      -0.327
      -0.185
       0.038
       0.205
       0.247
       0.188
       0.089
       0.003
      -0.046
      -0.067
      -0.100
      -0.178
      -0.263
      -0.240
      -0.022
       0.331
       0.611
       0.619
       0.350
       0.016
      -0.132
      -0.027
       0.143
       0.114
      -0.195
      -0.580
      -0.714
      -0.446
       0.055
       0.449
       0.539
       0.424
       0.347
       0.399
       0.415
       0.190
      -0.249
      -0.612
      -0.618
      -0.273
       0.143
       0.332
       0.222
      -0.022
      -0.183
      -0.172
      -0.057
       0.054
       0.125
       0.188
       0.263
       0.304
       0.250
       0.092
      -0.102
      -0.233
      -0.229
      -0.092
       0.098
       0.227
       0.220
       0.090
      -0.087
      -0.238
      -0.333
      -0.361
      -0.288
      -0.069
       0.272
       0.599
       0.735
       0.593
       0.252
      -0.092
      -0.279
      -0.283
      -0.201
      -0.132
      -0.096
      -0.059
      -0.006
       0.033
       0.021
      -0.042
      -0.119
      -0.153
      -0.090
       0.097
       0.360
       0.560
       0.545
       0.280
      -0.097
      -0.371
      -0.416
      -0.295
      -0.188
      -0.214
      -0.313
      -0.304
      -0.062
       0.349
       0.720
       0.853
       0.705
       0.387
       0.065
      -0.153
      -0.248
      -0.260
      -0.253
      -0.279
      -0.335
      -0.345
      -0.217
       0.061
       0.376
       0.552
       0.486
       0.225
      -0.077
      -0.276
      -0.318
      -0.233
      -0.080
       0.078
       0.168
       0.139
       0.021
      -0.056
       0.026
       0.238
       0.385
       0.287
      -0.040
      -0.385
      -0.525
      -0.398
      -0.107
       0.207
       0.445
       0.545
       0.488
       0.330
       0.201
       0.186
       0.210
       0.097
      -0.225
      -0.600
      -0.772
      -0.625
      -0.288
       0.015
       0.176
       0.241
       0.280
       0.285
       0.221
       0.128
       0.104
       0.182
       0.263
       0.209
       0.004
      -0.203
      -0.238
      -0.065
       0.178
       0.307
       0.227
      -0.023
      -0.299
      -0.423
      -0.282
       0.070
       0.407
       0.479
       0.218
      -0.192
      -0.460
      -0.422
      -0.157
       0.117
       0.240
       0.200
       0.080
      -0.039
      -0.124
      -0.169
      -0.157
      -0.050
       0.167
       0.436
       0.629
       0.624
       0.401
       0.063
      -0.223
      -0.329
      -0.231
      -0.004
       0.232
       0.384
       0.417
       0.334
       0.141
      -0.147
      -0.482
      -0.783
      -0.941
      -0.846
      -0.443
       0.185
       0.799
       1.129
       1.069
       0.757
       0.441
       0.249
       0.095
      -0.171
      -0.541
      -0.809
      -0.769
      -0.412
       0.055
       0.396
       0.506
       0.432
       0.264
       0.050
      -0.185
      -0.378
      -0.422
      -0.261
       0.019
       0.210
       0.145
      -0.134
      -0.362
      -0.256
       0.191
       0.644
       0.703
       0.298
      -0.208
      -0.362
      -0.056
       0.386
       0.549
       0.317
      -0.067
      -0.283
      -0.234
      -0.076
      -0.008
      -0.078
      -0.184
      -0.215
      -0.143
      -0.002
       0.171
       0.340
       0.451
       0.437
       0.278
       0.048
      -0.126
      -0.182
      -0.187
      -0.260
      -0.438
      -0.607
      -0.586
      -0.277
       0.229
       0.676
       0.806
       0.544
       0.066
      -0.308
      -0.323
       0.044
       0.556
       0.898
       0.898
       0.631
       0.300
       0.025
      -0.229
      -0.525
      -0.796
      -0.861
      -0.625
      -0.217
       0.097
       0.160
       0.048
      -0.051
      -0.063
      -0.095
      -0.246
      -0.427
      -0.412
      -0.089
       0.387
       0.732
       0.802
       0.698
       0.601
       0.555
       0.429
       0.118
      -0.288
      -0.539
      -0.448
      -0.060
       0.376
       0.597
       0.521
       0.285
       0.123
       0.156
       0.277
       0.246
      -0.089
      -0.635
      -1.108
      -1.254
      -1.024
      -0.566
      -0.085
       0.294
       0.549
       0.696
       0.736
       0.674
       0.557
       0.452
       0.389
       0.348
       0.293
       0.182
      -0.019
      -0.308
      -0.591
      -0.720
      -0.606
      -0.319
      -0.040
       0.081
       0.048
      -0.028
      -0.057
      -0.030
       0.036
       0.143
       0.285
       0.406
       0.431
       0.327
       0.121
      -0.112
      -0.281
      -0.308
      -0.174
       0.060
       0.292
       0.452
       0.543
       0.599
       0.602
       0.457
       0.080
      -0.464
      -0.944
      -1.106
      -0.860
      -0.350
       0.160
       0.463
       0.498
       0.346
       0.146
       0.011
      -0.021
       0.006
       0.029
       0.014
      -0.020
      -0.022
       0.051
       0.217
       0.456
       0.714
       0.910
       0.941
       0.726
       0.269
      -0.300
      -0.792
      -1.071
      -1.131
      -1.050
      -0.881
      -0.581
      -0.070
       0.618
       1.242
       1.467
       1.125
       0.386
      -0.332
      -0.669
      -0.568
      -0.253
       0.008
       0.118
       0.139
       0.134
       0.088
      -0.031
      -0.175
      -0.223
      -0.091
       0.187
       0.481
       0.653
       0.623
       0.377
      -0.032
      -0.490
      -0.848
      -0.984
      -0.846
      -0.465
       0.063
       0.611
       1.026
       1.160
       0.926
       0.388
      -0.228
      -0.655
      -0.769
      -0.659
      -0.496
      -0.330
      -0.049
       0.411
       0.870
       1.010
       0.716
       0.271
       0.110
       0.352
       0.609
       0.316
      -0.710
      -2.054
      -3.056
      -3.363
      -3.123
      -2.707
      -2.313
      -1.884
      -1.303
      -0.567
       0.225
       1.016
       1.856
       2.835
       3.981
       5.210
       6.339
       7.112
       7.234
       6.498
       4.927
       2.807
       0.502
      -1.786
      -4.091
      -6.465
      -8.682
     -10.192
     -10.420
      -9.147
      -6.621
      -3.388
      -0.060
       2.813
       4.854
       5.983
       6.451
       6.652
       6.791
       6.696
       5.951
       4.209
       1.458
      -1.910
      -5.153
      -7.337
      -7.684
      -6.015
      -2.993
       0.142
       2.268
       3.022
       2.890
       2.739
       3.201
       4.321
       5.597
       6.270
       5.699
       3.688
       0.623
      -2.701
      -5.456
      -7.125
      -7.591
      -7.033
      -5.799
      -4.396
      -3.471
      -3.527
      -4.432
      -5.194
      -4.465
      -1.547
       2.961
       7.488
      10.511
      11.348
      10.167
       7.472
       3.726
      -0.537
      -4.410
      -6.710
      -6.613
      -4.318
      -1.074
       1.551
       2.590
       2.094
       0.833
      -0.366
      -1.098
      -1.412
      -1.543
      -1.627
      -1.604
      -1.293
      -0.575
       0.481
       1.614
       2.517
       2.982
       2.964
       2.513
       1.671
       0.426
      -1.163
      -2.808
      -3.996
      -4.285
      -3.630
      -2.414
      -1.124
      -0.013
       0.918
       1.660
       2.045
       1.909
       1.388
       0.923
       0.877
       1.161
       1.355
       1.202
       0.916
       0.910
       1.265
       1.582
       1.428
       0.856
       0.348
       0.209
       0.131
      -0.511
      -1.924
      -3.557
      -4.539
      -4.390
      -3.269
      -1.647
       0.091
       1.673
       2.736
       2.845
       1.880
       0.357
      -0.789
      -0.883
      -0.038
       0.974
       1.395
       1.064
       0.459
       0.230
       0.659
       1.460
       2.016
       1.816
       0.750
      -0.888
      -2.573
      -3.745
      -4.002
      -3.240
      -1.738
      -0.078
       1.096
       1.412
       0.950
       0.145
      -0.515
      -0.728
      -0.409
       0.368
       1.418
       2.445
       3.108
       3.147
       2.532
       1.497
       0.411
      -0.435
      -0.942
      -1.167
      -1.234
      -1.284
      -1.417
      -1.579
      -1.538
      -1.045
      -0.102
       0.949
       1.628
       1.628
       0.958
      -0.145
      -1.368
      -2.378
      -2.832
      -2.498
      -1.460
      -0.150
       0.901
       1.421
       1.523
       1.510
       1.585
       1.729
       1.819
       1.778
       1.587
       1.202
       0.559
      -0.274
      -0.991
      -1.235
      -0.950
      -0.519
      -0.454
      -0.910
      -1.483
      -1.533
      -0.736
       0.610
       1.814
       2.307
       1.999
       1.209
       0.325
      -0.432
      -0.998
      -1.312
      -1.265
      -0.811
      -0.090
       0.581
       0.909
       0.849
       0.649
       0.640
       0.904
       1.137
       0.871
      -0.067
      -1.313
      -2.213
      -2.387
      -2.034
      -1.654
      -1.496
      -1.307
      -0.623
       0.683
       2.131
       2.930
       2.604
       1.395
       0.076
      -0.654
      -0.674
      -0.447
      -0.581
      -1.320
      -2.344
      -2.993
      -2.736
      -1.540
       0.122
       1.614
       2.550
       2.932
       2.958
       2.741
       2.238
       1.413
       0.397
      -0.561
      -1.269
      -1.669
      -1.777
      -1.627
      -1.300
      -0.959
      -0.770
      -0.762
      -0.789
      -0.650
      -0.267
       0.268
       0.825
       1.392
       2.029
       2.662
       3.009
       2.775
       1.957
       0.913
       0.101
      -0.301
      -0.508
      -0.880
      -1.551
      -2.291
      -2.689
      -2.472
      -1.701
      -0.715
       0.085
       0.488
       0.561
       0.534
       0.591
       0.722
       0.774
       0.618
       0.278
      -0.098
      -0.365
      -0.463
      -0.406
      -0.242
      -0.066
      -0.022
      -0.227
      -0.640
      -1.014
      -1.046
      -0.615
       0.091
       0.725
       1.067
       1.185
       1.296
       1.508
       1.712
       1.718
       1.454
       1.012
       0.533
       0.073
      -0.407
      -0.944
      -1.468
      -1.795
      -1.736
      -1.247
      -0.517
       0.090
       0.242
      -0.132
      -0.779
      -1.279
      -1.331
      -0.923
      -0.278
       0.351
       0.837
       1.165
       1.320
       1.232
       0.831
       0.145
      -0.654
      -1.293
      -1.514
      -1.206
      -0.486
       0.382
       1.160
       1.748
       2.142
       2.320
       2.196
       1.703
       0.900
      -0.029
      -0.882
      -1.563
      -2.072
      -2.418
      -2.552
      -2.395
      -1.938
      -1.294
      -0.665
      -0.233
      -0.062
      -0.057
      -0.022
       0.218
       0.705
       1.314
       1.825
       2.042
       1.873
       1.354
       0.629
      -0.084
      -0.558
      -0.660
      -0.423
      -0.016
       0.379
       0.658
       0.786
       0.705
       0.316
      -0.399
      -1.240
      -1.833
      -1.904
      -1.517
      -1.024
      -0.743
      -0.686
      -0.601
      -0.243
       0.403
       1.148
       1.754
       2.059
       1.995
       1.563
       0.843
       0.025
      -0.620
      -0.872
      -0.703
      -0.298
       0.099
       0.355
       0.476
       0.480
       0.294
      -0.163
      -0.817
      -1.385
      -1.550
      -1.208
      -0.561
       0.026
       0.291
       0.233
       0.059
      -0.015
       0.073
       0.231
       0.334
       0.314
       0.160
      -0.108
      -0.412
      -0.601
      -0.531
      -0.201
       0.206
       0.471
       0.530
       0.509
       0.571
       0.745
       0.909
       0.910
       0.699
       0.351
      -0.008
      -0.283
      -0.447
      -0.534
      -0.602
      -0.677
      -0.735
      -0.728
      -0.652
      -0.580
      -0.611
      -0.772
      -0.954
      -0.970
      -0.694
      -0.160
       0.475
       1.053
       1.518
       1.878
       2.096
       2.038
       1.573
       0.751
      -0.147
      -0.778
      -1.001
      -0.973
      -0.957
      -1.030
      -1.012
      -0.685
      -0.079
       0.491
       0.672
       0.368
      -0.196
      -0.680
      -0.873
      -0.794
      -0.589
      -0.387
      -0.228
      -0.088
       0.054
       0.182
       0.257
       0.252
       0.180
       0.105
       0.101
       0.191
       0.316
       0.372
       0.298
