Origin Time       04/05/2011 20:57:15
Lat.              30.2 N	
Long.             80.4 E	
Depth (Km)         10.0
Magnitude         5.0
 Region           INDIA-NEPAL                                                      
 Above details taken from IMD 
   
Station Code      MUN
Station Lat.       30.066
Station Long.      80.237
Station Height(m) 2201.0
Site Class        A   Vs30 between 700 m/sec to 1400 m/sec * 
Record Time       04.05.2011 20:57:11.119
Sampling Rate     200. Hz
 Record Duration   81.895 Sec.
 Direction         Vert. (Up positive)
Max. Acceleration     -7.652 cm/sec**2
     
  * For reference see Site Classification link of website 
     
 Base Line Corrected and Low Pass Filtered (Cut Off at 35 Hz) Time History
 Acceleration data in cm/sec**2
    
[...]
       0.001
       0.003
       0.008
       0.012
       0.011
       0.007
       0.003
       0.004
       0.007
       0.011
       0.013
       0.011
       0.007
       0.003
      -0.001
      -0.004
      -0.004
      -0.003
       0.000
       0.002
       0.002
       0.000
      -0.001
       0.000
       0.004
       0.008
       0.009
       0.006
       0.003
       0.001
       0.002
       0.004
       0.004
       0.003
       0.000
      -0.002
      -0.002
       0.000
       0.003
       0.006
       0.006
       0.002
      -0.004
      -0.010
      -0.011
      -0.007
      -0.003
      -0.001
      -0.002
      -0.004
      -0.003
       0.002
       0.005
       0.004
      -0.001
      -0.007
      -0.010
      -0.008
      -0.004
      -0.001
       0.002
       0.004
       0.007
       0.009
       0.009
       0.005
       0.001
      -0.001
       0.000
       0.002
       0.004
       0.006
       0.009
       0.012
       0.014
       0.013
       0.009
       0.003
      -0.001
      -0.004
      -0.003
       0.000
       0.004
       0.007
       0.006
       0.002
      -0.004
      -0.008
      -0.010
      -0.009
      -0.007
      -0.004
      -0.001
       0.003
       0.006
       0.007
       0.006
       0.004
       0.004
       0.003
       0.001
      -0.002
      -0.005
      -0.004
      -0.002
       0.000
      -0.001
      -0.005
      -0.008
      -0.008
      -0.004
       0.003
       0.009
       0.011
       0.009
       0.004
       0.002
       0.001
       0.002
       0.002
       0.000
      -0.003
      -0.004
      -0.004
      -0.003
      -0.001
       0.002
       0.006
       0.008
       0.007
       0.004
      -0.002
      -0.006
      -0.005
      -0.001
       0.005
       0.007
       0.004
       0.001
      -0.001
       0.000
       0.002
       0.002
       0.001
       0.000
      -0.001
      -0.002
      -0.004
      -0.007
      -0.008
      -0.006
      -0.004
      -0.001
       0.001
       0.001
       0.000
      -0.002
      -0.003
      -0.002
       0.001
       0.004
       0.004
       0.001
      -0.002
      -0.003
      -0.003
      -0.001
       0.001
       0.003
       0.004
       0.004
       0.004
       0.003
       0.004
       0.008
       0.011
       0.012
       0.009
       0.005
       0.000
      -0.004
      -0.005
      -0.003
      -0.001
       0.002
       0.004
       0.005
       0.004
       0.004
       0.004
       0.003
      -0.001
      -0.007
      -0.013
      -0.013
      -0.005
       0.005
       0.009
       0.004
      -0.004
      -0.011
      -0.011
      -0.007
      -0.002
       0.003
       0.005
       0.005
       0.003
      -0.001
      -0.006
      -0.009
      -0.010
      -0.009
      -0.006
      -0.001
       0.003
       0.006
       0.005
       0.002
       0.000
       0.000
       0.001
       0.002
       0.003
       0.004
       0.008
       0.014
       0.019
       0.019
       0.016
       0.010
       0.006
       0.003
       0.003
       0.005
       0.008
       0.009
       0.009
       0.008
       0.006
       0.005
       0.004
       0.001
      -0.003
      -0.005
      -0.005
      -0.002
       0.003
       0.007
       0.008
       0.006
       0.001
      -0.003
      -0.005
      -0.003
       0.002
       0.006
       0.006
       0.001
      -0.004
      -0.007
      -0.006
      -0.002
       0.003
       0.006
       0.006
       0.003
      -0.001
      -0.005
      -0.004
       0.001
       0.007
       0.011
       0.011
       0.008
       0.003
       0.000
      -0.003
      -0.004
      -0.003
       0.000
       0.003
       0.003
       0.001
      -0.003
      -0.005
      -0.002
       0.002
       0.003
       0.000
      -0.004
      -0.006
      -0.003
       0.003
       0.007
       0.007
       0.007
       0.006
       0.007
       0.007
       0.006
       0.004
       0.002
      -0.002
      -0.006
      -0.010
      -0.010
      -0.005
       0.001
       0.007
       0.007
       0.005
       0.001
       0.000
       0.001
       0.004
       0.005
       0.005
       0.004
       0.003
       0.004
       0.004
       0.003
       0.001
      -0.001
      -0.001
       0.002
       0.005
       0.006
       0.007
       0.008
       0.010
       0.012
       0.011
       0.006
       0.001
      -0.001
       0.001
       0.004
       0.008
       0.009
       0.009
       0.007
       0.002
      -0.004
      -0.008
      -0.007
      -0.001
       0.007
       0.011
       0.009
       0.003
      -0.002
      -0.003
       0.000
       0.004
       0.006
       0.005
       0.003
       0.003
       0.006
       0.008
       0.008
       0.005
       0.002
       0.002
       0.005
       0.009
       0.012
       0.012
       0.009
       0.005
       0.000
      -0.004
      -0.006
      -0.004
      -0.001
       0.002
       0.002
      -0.001
      -0.007
      -0.009
      -0.006
       0.000
       0.003
      -0.002
      -0.016
      -0.034
      -0.049
      -0.062
      -0.080
      -0.109
      -0.150
      -0.192
      -0.225
      -0.241
      -0.236
      -0.208
      -0.159
      -0.091
      -0.013
       0.060
       0.113
       0.133
       0.114
       0.059
      -0.022
      -0.113
      -0.190
      -0.230
      -0.217
      -0.155
      -0.068
       0.002
       0.013
      -0.049
      -0.160
      -0.266
      -0.309
      -0.260
      -0.114
       0.121
       0.444
       0.832
       1.204
       1.401
       1.246
       0.646
      -0.330
      -1.463
      -2.462
      -3.048
      -3.010
      -2.238
      -0.795
       1.021
       2.687
       3.636
       3.531
       2.461
       0.887
      -0.611
      -1.605
      -1.919
      -1.575
      -0.727
       0.342
       1.239
       1.607
       1.355
       0.781
       0.399
       0.545
       1.087
       1.522
       1.381
       0.599
      -0.481
      -1.405
      -1.901
      -1.951
      -1.659
      -1.142
      -0.526
       0.028
       0.380
       0.498
       0.468
       0.391
       0.258
      -0.065
      -0.720
      -1.705
      -2.810
      -3.644
      -3.761
      -2.870
      -1.062
       1.128
       2.951
       3.853
       3.736
       2.880
       1.648
       0.319
      -0.847
      -1.507
      -1.383
      -0.584
       0.303
       0.624
       0.248
      -0.277
      -0.250
       0.495
       1.423
       1.834
       1.503
       0.800
       0.232
      -0.031
      -0.159
      -0.287
      -0.279
       0.068
       0.638
       0.947
       0.552
      -0.498
      -1.642
      -2.221
      -1.930
      -0.944
       0.292
       1.366
       2.048
       2.273
       2.045
       1.413
       0.512
      -0.427
      -1.160
      -1.571
      -1.732
      -1.855
      -2.149
      -2.662
      -3.195
      -3.351
      -2.744
      -1.243
       0.900
       3.111
       4.721
       5.229
       4.518
       2.897
       0.932
      -0.823
      -2.049
      -2.678
      -2.746
      -2.244
      -1.137
       0.485
       2.272
       3.694
       4.285
       3.863
       2.539
       0.606
      -1.545
      -3.415
      -4.433
      -4.148
      -2.504
      -0.010
       2.385
       3.722
       3.531
       2.075
       0.125
      -1.555
      -2.618
      -3.143
      -3.337
      -3.291
      -2.972
      -2.310
      -1.214
       0.406
       2.411
       4.176
       4.734
       3.512
       1.045
      -1.159
      -1.713
      -0.477
       1.363
       2.368
       2.036
       0.964
      -0.019
      -0.673
      -1.254
      -1.822
      -1.962
      -1.316
      -0.224
       0.423
       0.042
      -1.010
      -1.757
      -1.536
      -0.558
       0.439
       0.985
       1.224
       1.475
       1.583
       0.864
      -1.189
      -4.127
      -6.531
      -6.927
      -4.865
      -1.227
       2.489
       5.197
       6.638
       6.994
       6.323
       4.504
       1.675
      -1.400
      -3.559
      -3.923
      -2.490
      -0.120
       2.025
       3.108
       2.860
       1.459
      -0.627
      -2.703
      -3.994
      -4.019
      -2.944
      -1.507
      -0.471
      -0.064
       0.069
       0.399
       1.011
       1.573
       1.747
       1.518
       1.085
       0.477
      -0.507
      -1.868
      -2.983
      -2.876
      -1.118
       1.515
       3.445
       3.530
       2.009
       0.260
      -0.415
       0.164
       1.109
       1.450
       0.999
       0.287
      -0.218
      -0.641
      -1.416
      -2.551
      -3.353
      -2.975
      -1.301
       0.751
       1.852
       1.312
      -0.388
      -2.004
      -2.468
      -1.568
       0.055
       1.464
       2.038
       1.729
       0.906
       0.039
      -0.503
      -0.525
      -0.094
       0.412
       0.447
      -0.312
      -1.585
      -2.526
      -2.232
      -0.443
       2.131
       4.167
       4.545
       3.056
       0.502
      -1.829
      -2.912
      -2.475
      -1.016
       0.590
       1.593
       1.658
       0.862
      -0.451
      -1.787
      -2.603
      -2.486
      -1.369
       0.366
       2.046
       3.051
       3.129
       2.415
       1.224
      -0.170
      -1.532
      -2.545
      -2.813
      -2.114
      -0.668
       0.877
       1.810
       1.796
       1.055
       0.169
      -0.340
      -0.356
      -0.226
      -0.463
      -1.283
      -2.345
      -2.919
      -2.402
      -0.783
       1.270
       2.809
       3.200
       2.499
       1.303
       0.235
      -0.467
      -0.875
      -1.009
      -0.694
       0.130
       1.048
       1.296
       0.457
      -0.935
      -1.624
      -0.703
       1.424
       3.216
       3.296
       1.657
      -0.398
      -1.508
      -1.376
      -0.726
      -0.300
      -0.135
       0.134
       0.460
       0.174
      -1.237
      -3.247
      -4.421
      -3.599
      -1.006
       1.851
       3.408
       3.230
       2.119
       1.205
       0.963
       1.007
       0.673
      -0.301
      -1.594
      -2.617
      -2.889
      -2.165
      -0.439
       1.953
       4.212
       5.261
       4.323
       1.536
      -1.966
      -4.659
      -5.481
      -4.329
      -1.937
       0.621
       2.406
       2.912
       2.177
       0.735
      -0.620
      -1.252
      -1.016
      -0.293
       0.335
       0.479
       0.121
      -0.485
      -1.029
      -1.296
      -1.225
      -0.891
      -0.446
      -0.045
       0.240
       0.457
       0.742
       1.173
       1.615
       1.720
       1.185
       0.069
      -1.144
      -1.842
      -1.704
      -0.873
       0.210
       1.109
       1.552
       1.408
       0.689
      -0.351
      -1.180
      -1.270
      -0.515
       0.607
       1.402
       1.511
       1.133
       0.709
       0.458
       0.245
      -0.132
      -0.599
      -0.807
      -0.449
       0.414
       1.313
       1.631
       0.986
      -0.526
      -2.344
      -3.705
      -3.997
      -3.030
      -1.137
       0.948
       2.373
       2.527
       1.324
      -0.724
      -2.699
      -3.655
      -3.045
      -1.037
       1.483
       3.314
       3.593
       2.295
       0.207
      -1.599
      -2.378
      -2.003
      -0.830
       0.614
       1.877
       2.665
       2.844
       2.454
       1.728
       1.002
       0.537
       0.345
       0.205
      -0.146
      -0.784
      -1.532
      -2.110
      -2.372
      -2.388
      -2.263
      -1.895
      -1.012
       0.457
       2.042
       2.881
       2.325
       0.507
      -1.668
      -3.126
      -3.288
      -2.285
      -0.662
       1.031
       2.389
       3.051
       2.692
       1.291
      -0.578
      -1.887
      -1.811
      -0.413
       1.293
       2.049
       1.298
      -0.400
      -1.797
      -1.880
      -0.561
       1.386
       2.971
       3.596
       3.196
       2.014
       0.377
      -1.332
      -2.650
      -3.195
      -2.915
      -2.192
      -1.600
      -1.481
      -1.671
      -1.636
      -0.914
       0.465
       1.943
       2.795
       2.622
       1.605
       0.369
      -0.427
      -0.486
      -0.012
       0.475
       0.509
      -0.025
      -0.850
      -1.510
      -1.642
      -1.135
      -0.144
       0.982
       1.823
       2.079
       1.731
       1.061
       0.446
       0.089
      -0.120
      -0.481
      -1.174
      -2.000
      -2.410
      -1.872
      -0.356
       1.481
       2.622
       2.379
       0.920
      -0.803
      -1.712
      -1.311
       0.109
       1.845
       3.250
       3.871
       3.333
       1.410
      -1.599
      -4.593
      -6.059
      -5.075
      -2.136
       1.052
       2.795
       2.612
       1.374
       0.335
       0.037
       0.083
      -0.171
      -0.840
      -1.402
      -1.297
      -0.562
       0.151
       0.184
      -0.502
      -1.275
      -1.393
      -0.599
       0.757
       2.096
       3.028
       3.436
       3.244
       2.252
       0.317
      -2.276
      -4.705
      -5.991
      -5.585
      -3.667
      -1.005
       1.440
       2.893
       3.047
       2.202
       1.127
       0.588
       0.814
       1.332
       1.382
       0.610
      -0.608
      -1.517
      -1.667
      -1.236
      -0.712
      -0.309
       0.262
       1.450
       3.271
       5.034
       5.640
       4.267
       0.973
      -3.186
      -6.559
      -7.652
      -5.883
      -1.962
       2.361
       5.130
       5.171
       2.664
      -1.024
      -4.076
      -5.099
      -3.730
      -0.717
       2.497
       4.486
       4.510
       2.805
       0.394
      -1.483
      -2.032
      -1.336
      -0.292
      -0.003
      -0.925
      -2.420
      -3.140
      -2.073
       0.616
       3.668
       5.610
       5.635
       3.819
       0.785
      -2.620
      -5.405
      -6.575
      -5.597
      -2.952
      -0.104
       1.390
       1.056
      -0.101
      -0.461
       0.756
       2.745
       3.769
       2.621
      -0.372
      -3.584
      -5.266
      -4.678
      -2.376
       0.387
       2.557
       3.764
       4.147
       3.912
       3.127
       1.887
       0.482
      -0.729
      -1.621
      -2.316
      -2.795
      -2.588
      -1.076
       1.657
       4.325
       5.040
       2.794
      -1.435
      -5.064
      -5.671
      -2.780
       1.789
       5.290
       5.962
       4.002
       0.979
      -1.529
      -2.866
      -3.199
      -2.833
      -1.826
      -0.220
       1.512
       2.510
       2.175
       0.796
      -0.637
      -1.357
      -1.558
      -2.063
      -3.213
      -4.211
      -3.765
      -1.444
       1.639
       3.616
       3.422
       1.629
      -0.205
      -0.974
      -0.806
      -0.499
      -0.382
       0.076
       1.447
       3.325
       4.348
       3.432
       0.932
      -1.549
      -2.609
      -2.259
      -1.663
      -1.750
      -2.276
      -2.304
      -1.443
      -0.369
      -0.067
      -0.715
      -1.484
      -1.453
      -0.547
       0.533
       1.211
       1.658
       2.436
       3.652
       4.650
       4.577
       3.215
       1.182
      -0.586
      -1.504
      -1.552
      -1.077
      -0.547
      -0.395
      -0.840
      -1.655
      -2.188
      -1.825
      -0.611
       0.603
       0.801
      -0.234
      -1.548
      -1.710
      -0.052
       2.652
       4.684
       4.603
       2.222
      -1.332
      -4.363
      -5.585
      -4.708
      -2.440
      -0.031
       1.337
       1.111
      -0.274
      -1.555
      -1.417
       0.474
       3.047
       4.529
       3.835
       1.455
      -0.982
      -2.066
      -1.645
      -0.660
      -0.112
      -0.261
      -0.715
      -1.068
      -1.276
      -1.455
      -1.524
      -1.237
      -0.562
       0.146
       0.502
       0.556
       0.762
       1.415
       2.244
       2.639
       2.272
       1.374
       0.444
      -0.219
      -0.615
      -0.799
      -0.682
      -0.170
       0.569
       1.048
       0.781
      -0.306
      -1.712
      -2.644
      -2.546
      -1.491
      -0.170
       0.576
       0.366
      -0.416
      -0.888
      -0.343
       1.179
       2.861
       3.648
       2.928
       0.876
      -1.694
      -3.763
      -4.523
      -3.658
      -1.507
       0.994
       2.754
       3.211
       2.742
       2.340
       2.746
       3.771
       4.484
       4.106
       2.738
       1.203
       0.205
      -0.275
      -0.767
      -1.659
      -2.840
      -3.913
      -4.578
      -4.717
      -4.188
      -2.763
      -0.459
       2.079
       3.716
       3.585
       1.875
      -0.148
      -0.982
       0.021
       2.177
       3.975
       4.192
       2.779
       0.845
      -0.283
      -0.157
       0.473
       0.401
      -0.915
      -2.887
      -4.360
      -4.570
      -3.589
      -2.010
      -0.375
       1.025
       1.968
       2.140
       1.344
      -0.142
      -1.543
      -2.074
      -1.560
      -0.576
       0.078
       0.081
      -0.185
      -0.122
       0.376
       0.713
       0.130
      -1.476
      -3.243
      -3.921
      -2.859
      -0.532
       1.839
       3.167
       3.087
       1.892
       0.117
      -1.762
      -3.359
      -4.302
      -4.271
      -3.170
      -1.271
       0.862
       2.653
       3.799
       4.323
       4.378
       3.980
       2.962
       1.244
      -0.843
      -2.537
      -3.073
      -2.225
      -0.518
       1.118
       1.955
       1.872
       1.243
       0.462
      -0.407
      -1.521
      -2.811
      -3.729
      -3.545
      -1.984
       0.368
       2.297
       2.712
       1.400
      -0.784
      -2.468
      -2.669
      -1.370
       0.633
       2.399
       3.409
       3.644
       3.293
       2.514
       1.426
       0.198
      -0.981
      -2.003
      -2.822
      -3.280
      -3.026
      -1.748
       0.392
       2.533
       3.474
       2.483
      -0.014
      -2.536
      -3.511
      -2.401
      -0.099
       1.719
       1.777
       0.019
      -2.484
      -4.367
      -4.845
      -4.032
      -2.613
      -1.234
      -0.103
       0.933
       2.015
       3.006
       3.589
       3.570
       3.023
       2.159
       1.142
       0.096
      -0.749
      -1.057
      -0.681
       0.015
       0.273
      -0.417
      -1.673
      -2.341
      -1.434
       0.932
       3.522
       4.910
       4.509
       2.848
       1.008
      -0.191
      -0.633
      -0.749
      -1.001
      -1.450
      -1.721
      -1.353
      -0.216
       1.352
       2.775
       3.633
       3.858
       3.583
       2.863
       1.611
      -0.172
      -2.143
      -3.667
      -4.185
      -3.592
      -2.289
      -0.891
       0.136
       0.636
       0.676
       0.378
      -0.198
      -1.064
      -2.193
      -3.364
      -4.131
      -4.038
      -2.936
      -1.137
       0.753
       2.199
       2.958
       3.031
       2.454
       1.221
      -0.591
      -2.686
      -4.603
      -5.923
      -6.409
      -6.002
      -4.766
      -2.912
      -0.821
       1.046
       2.362
       3.106
       3.481
       3.653
       3.565
