Origin Time       04/09/2008 12:53:21
Lat.              30.1°N 
Long.             80.4°E 
Depth (Km)         10.0
Magnitude         5.1
 Region           INDIA(UTTARAKHAND)-TIBET-BORDER-REGION                           
 Above details taken from IMD 
     
Station Code      MUN
Station Lat.       30.066  N
Station Long.      80.237  E
Station Height(m) 2183.0
Site Class        A   Vs30 between 700 m/sec to 1400 m/sec * 
Record Time       04.09.2008 12:53:00.379
Sampling Rate     200. Hz
 Record Duration   70.085 Sec.
 Direction         E-W (E positive)
Max. Acceleration      6.080 cm/sec**2
     
  * For reference see Site Classification link of website 
     
 Base Line Corrected and Low Pass Filtered (Cut Off at 35 Hz) Time History
 Acceleration data in cm/sec**2
    
[...]
       0.022
       0.320
       0.614
       0.817
       0.935
       1.059
       1.248
       1.418
       1.390
       1.078
       0.615
       0.262
       0.183
       0.291
       0.327
       0.085
      -0.412
      -0.946
      -1.299
      -1.420
      -1.414
      -1.400
      -1.397
      -1.323
      -1.087
      -0.654
      -0.070
       0.544
       1.027
       1.228
       1.079
       0.633
       0.044
      -0.510
      -0.914
      -1.139
      -1.187
      -1.035
      -0.672
      -0.187
       0.217
       0.336
       0.127
      -0.239
      -0.474
      -0.373
       0.047
       0.577
       1.008
       1.298
       1.550
       1.820
       1.968
       1.720
       0.931
      -0.229
      -1.342
      -2.041
      -2.236
      -2.097
      -1.850
      -1.612
      -1.370
      -1.042
      -0.518
       0.285
       1.324
       2.344
       2.964
       2.955
       2.473
       1.948
       1.713
       1.725
       1.673
       1.342
       0.819
       0.354
       0.048
      -0.256
      -0.771
      -1.463
      -1.990
      -1.993
      -1.446
      -0.706
      -0.186
       0.004
       0.083
       0.318
       0.761
       1.249
       1.617
       1.847
       1.978
       1.950
       1.599
       0.836
      -0.219
      -1.318
      -2.283
      -3.055
      -3.585
      -3.741
      -3.420
      -2.723
      -1.978
      -1.531
      -1.509
      -1.730
      -1.847
      -1.584
      -0.897
       0.043
       0.982
       1.704
       2.088
       2.116
       1.869
       1.472
       1.002
       0.448
      -0.213
      -0.895
      -1.406
      -1.592
      -1.461
      -1.147
      -0.781
      -0.421
      -0.084
       0.219
       0.508
       0.861
       1.348
       1.931
       2.443
       2.710
       2.713
       2.601
       2.518
       2.412
       2.040
       1.178
      -0.140
      -1.593
      -2.767
      -3.400
      -3.493
      -3.227
      -2.785
      -2.259
      -1.693
      -1.158
      -0.731
      -0.400
      -0.041
       0.469
       1.125
       1.803
       2.371
       2.783
       3.036
       3.052
       2.655
       1.698
       0.222
      -1.486
      -2.998
      -3.918
      -4.044
      -3.453
      -2.462
      -1.475
      -0.792
      -0.498
      -0.485
      -0.575
      -0.635
      -0.604
      -0.456
      -0.175
       0.240
       0.758
       1.305
       1.775
       2.026
       1.921
       1.401
       0.537
      -0.474
      -1.377
      -1.952
      -2.090
      -1.833
      -1.317
      -0.678
       0.008
       0.712
       1.379
       1.909
       2.204
       2.245
       2.122
       1.975
       1.876
       1.773
       1.543
       1.123
       0.573
       0.016
      -0.483
      -0.963
      -1.488
      -2.009
      -2.298
      -2.063
      -1.163
       0.230
       1.699
       2.831
       3.422
       3.506
       3.225
       2.712
       2.059
       1.362
       0.735
       0.280
       0.002
      -0.229
      -0.602
      -1.221
      -2.004
      -2.737
      -3.202
      -3.262
      -2.853
      -1.979
      -0.749
       0.579
       1.670
       2.268
       2.331
       2.017
       1.565
       1.158
       0.857
       0.617
       0.344
      -0.020
      -0.454
      -0.873
      -1.199
      -1.425
      -1.622
      -1.847
      -2.050
      -2.058
      -1.692
      -0.923
       0.090
       1.101
       1.916
       2.487
       2.883
       3.190
       3.387
       3.300
       2.711
       1.559
       0.074
      -1.321
      -2.272
      -2.685
      -2.694
      -2.487
      -2.174
      -1.788
      -1.370
      -1.004
      -0.769
      -0.665
      -0.596
      -0.439
      -0.146
       0.234
       0.612
       0.927
       1.166
       1.362
       1.593
       1.948
       2.431
       2.872
       2.949
       2.354
       1.006
      -0.857
      -2.774
      -4.277
      -5.080
      -5.142
      -4.599
      -3.661
      -2.541
      -1.412
      -0.359
       0.613
       1.493
       2.185
       2.515
       2.360
       1.755
       0.906
       0.094
      -0.455
      -0.667
      -0.615
      -0.440
      -0.251
      -0.099
      -0.001
       0.029
      -0.030
      -0.184
      -0.407
      -0.612
      -0.672
      -0.500
      -0.130
       0.286
       0.586
       0.726
       0.816
       1.002
       1.297
       1.499
       1.313
       0.614
      -0.386
      -1.263
      -1.676
      -1.589
      -1.203
      -0.714
      -0.168
       0.475
       1.164
       1.700
       1.854
       1.528
       0.818
      -0.061
      -0.891
      -1.533
      -1.932
      -2.081
      -1.998
      -1.710
      -1.272
      -0.761
      -0.255
       0.199
       0.573
       0.807
       0.795
       0.461
      -0.111
      -0.651
      -0.849
      -0.588
      -0.044
       0.429
       0.542
       0.236
      -0.315
      -0.849
      -1.157
      -1.167
      -0.936
      -0.575
      -0.158
       0.316
       0.890
       1.576
       2.309
       2.942
       3.279
       3.141
       2.463
       1.367
       0.147
      -0.868
      -1.474
      -1.673
      -1.602
      -1.370
      -0.975
      -0.386
       0.297
       0.825
       0.978
       0.771
       0.447
       0.264
       0.295
       0.458
       0.676
       0.966
       1.347
       1.689
       1.729
       1.281
       0.419
      -0.567
      -1.414
      -2.031
      -2.426
      -2.536
      -2.200
      -1.342
      -0.156
       0.938
       1.561
       1.638
       1.371
       0.983
       0.526
      -0.036
      -0.627
      -1.026
      -1.051
      -0.761
      -0.423
      -0.298
      -0.469
      -0.845
      -1.282
      -1.688
      -2.032
      -2.295
      -2.417
      -2.314
      -1.920
      -1.248
      -0.384
       0.553
       1.462
       2.259
       2.853
       3.145
       3.059
       2.595
       1.850
       0.975
       0.101
      -0.698
      -1.362
      -1.807
      -1.973
      -1.888
      -1.656
      -1.353
      -0.948
      -0.377
       0.308
       0.903
       1.208
       1.216
       1.105
       1.043
       1.013
       0.858
       0.487
       0.024
      -0.274
      -0.263
      -0.052
       0.105
       0.059
      -0.097
      -0.133
       0.091
       0.504
       0.879
       0.971
       0.641
      -0.065
      -0.915
      -1.582
      -1.813
      -1.556
      -0.939
      -0.174
       0.546
       1.088
       1.413
       1.557
       1.565
       1.408
       0.984
       0.241
      -0.690
      -1.517
      -1.957
      -1.919
      -1.523
      -0.955
      -0.325
       0.349
       1.040
       1.628
       1.936
       1.856
       1.424
       0.788
       0.107
      -0.509
      -0.992
      -1.283
      -1.339
      -1.175
      -0.873
      -0.538
      -0.226
       0.068
       0.364
       0.625
       0.735
       0.585
       0.220
      -0.111
      -0.113
       0.298
       0.874
       1.200
       1.000
       0.324
      -0.493
      -1.056
      -1.117
      -0.674
       0.063
       0.768
       1.118
       0.932
       0.305
      -0.399
      -0.783
      -0.708
      -0.398
      -0.235
      -0.427
      -0.847
      -1.156
      -1.071
      -0.558
       0.168
       0.793
       1.080
       0.957
       0.498
      -0.162
      -0.880
      -1.517
      -1.960
      -2.135
      -2.021
      -1.651
      -1.118
      -0.564
      -0.127
       0.155
       0.389
       0.742
       1.285
       1.888
       2.274
       2.192
       1.609
       0.786
       0.131
      -0.079
       0.122
       0.475
       0.745
       0.856
       0.821
       0.635
       0.275
      -0.204
      -0.650
      -0.907
      -0.919
      -0.735
      -0.426
      -0.022
       0.434
       0.810
       0.900
       0.611
       0.126
      -0.170
       0.013
       0.622
       1.309
       1.712
       1.688
       1.327
       0.801
       0.236
      -0.311
      -0.800
      -1.194
      -1.525
      -1.902
      -2.388
      -2.833
      -2.922
      -2.447
      -1.581
      -0.806
      -0.548
      -0.814
      -1.216
      -1.327
      -1.031
      -0.521
       0.008
       0.610
       1.488
       2.642
       3.676
       4.032
       3.432
       2.097
       0.514
      -0.935
      -2.122
      -3.016
      -3.521
      -3.530
      -3.084
      -2.371
      -1.539
      -0.564
       0.642
       2.013
       3.251
       3.980
       3.991
       3.378
       2.463
       1.602
       1.008
       0.708
       0.616
       0.619
       0.634
       0.604
       0.511
       0.367
       0.175
      -0.119
      -0.590
      -1.212
      -1.803
      -2.139
      -2.112
      -1.756
      -1.164
      -0.437
       0.310
       0.969
       1.486
       1.862
       2.067
       2.004
       1.619
       1.036
       0.542
       0.370
       0.478
       0.551
       0.267
      -0.428
      -1.288
      -2.008
      -2.478
      -2.798
      -3.089
      -3.324
      -3.357
      -3.065
      -2.411
      -1.405
      -0.081
       1.403
       2.683
       3.331
       3.170
       2.457
       1.677
       1.110
       0.652
       0.092
      -0.506
      -0.801
      -0.592
      -0.134
       0.070
      -0.202
      -0.641
      -0.752
      -0.406
       0.045
       0.204
       0.079
       0.016
       0.215
       0.427
       0.226
      -0.481
      -1.304
      -1.726
      -1.544
      -0.934
      -0.199
       0.462
       0.948
       1.177
       1.108
       0.853
       0.672
       0.746
       0.954
       0.939
       0.479
      -0.193
      -0.492
       0.013
       1.184
       2.358
       2.823
       2.270
       0.894
      -0.826
      -2.406
      -3.508
      -3.978
      -3.858
      -3.342
      -2.656
      -1.919
      -1.136
      -0.328
       0.335
       0.570
       0.195
      -0.656
      -1.544
      -1.975
      -1.704
      -0.856
       0.215
       1.157
       1.776
       2.046
       2.052
       1.930
       1.789
       1.629
       1.324
       0.747
      -0.064
      -0.883
      -1.458
      -1.696
      -1.679
      -1.517
      -1.240
      -0.829
      -0.315
       0.204
       0.645
       1.005
       1.318
       1.565
       1.623
       1.364
       0.780
       0.008
      -0.785
      -1.507
      -2.104
      -2.461
      -2.431
      -1.998
      -1.380
      -0.900
      -0.725
      -0.713
      -0.530
       0.068
       1.026
       2.024
       2.718
       2.949
       2.778
       2.365
       1.874
       1.433
       1.114
       0.880
       0.586
       0.084
      -0.615
      -1.288
      -1.648
      -1.590
      -1.272
      -0.945
      -0.678
      -0.292
       0.411
       1.365
       2.208
       2.538
       2.223
       1.496
       0.774
       0.345
       0.210
       0.192
       0.166
       0.148
       0.178
       0.171
      -0.021
      -0.429
      -0.877
      -1.121
      -1.059
      -0.786
      -0.451
      -0.103
       0.312
       0.795
       1.182
       1.234
       0.842
       0.144
      -0.572
      -1.095
      -1.430
      -1.727
      -2.064
      -2.305
      -2.185
      -1.556
      -0.546
       0.544
       1.458
       2.105
       2.488
       2.591
       2.350
       1.712
       0.727
      -0.381
      -1.237
      -1.482
      -1.013
      -0.093
       0.797
       1.264
       1.201
       0.760
       0.180
      -0.347
      -0.732
      -0.989
      -1.211
      -1.520
      -1.993
      -2.568
      -3.023
      -3.104
      -2.720
      -2.037
      -1.347
      -0.822
      -0.392
       0.146
       0.911
       1.804
       2.562
       2.964
       3.001
       2.848
       2.689
       2.570
       2.418
       2.139
       1.663
       0.947
       0.011
      -0.981
      -1.745
      -2.029
      -1.816
      -1.354
      -0.975
      -0.841
      -0.850
      -0.781
      -0.529
      -0.187
       0.111
       0.342
       0.577
       0.823
       0.970
       0.908
       0.683
       0.492
       0.520
       0.787
       1.161
       1.508
       1.801
       2.096
       2.396
       2.596
       2.578
       2.358
       2.116
       2.038
       2.128
       2.188
       1.983
       1.438
       0.687
      -0.025
      -0.504
      -0.699
      -0.687
      -0.585
      -0.498
      -0.528
      -0.785
      -1.318
      -2.007
      -2.552
      -2.634
      -2.133
      -1.235
      -0.315
       0.302
       0.537
       0.563
       0.634
       0.884
       1.222
       1.390
       1.119
       0.295
      -0.943
      -2.240
      -3.214
      -3.666
      -3.665
      -3.443
      -3.201
      -2.986
      -2.700
      -2.234
      -1.624
      -1.097
      -0.929
      -1.214
      -1.773
      -2.287
      -2.529
      -2.464
      -2.164
      -1.695
      -1.103
      -0.466
       0.106
       0.555
       0.935
       1.355
       1.840
       2.262
       2.432
       2.254
       1.785
       1.160
       0.508
      -0.054
      -0.366
      -0.242
       0.430
       1.558
       2.828
       3.842
       4.320
       4.221
       3.701
       2.980
       2.236
       1.565
       0.988
       0.481
       0.010
      -0.417
      -0.755
      -0.990
      -1.220
      -1.637
      -2.368
      -3.308
      -4.111
      -4.386
      -3.919
      -2.748
      -1.076
       0.856
       2.817
       4.553
       5.749
       6.080
       5.349
       3.614
       1.210
      -1.363
      -3.606
      -5.176
      -5.935
      -5.892
      -5.091
      -3.583
      -1.515
       0.757
       2.707
       3.847
       3.971
       3.247
       2.096
       0.950
       0.077
      -0.459
      -0.726
      -0.842
      -0.918
      -1.030
      -1.192
      -1.366
      -1.478
      -1.447
      -1.214
      -0.763
      -0.140
       0.558
       1.201
       1.664
       1.882
       1.891
       1.795
       1.667
       1.479
       1.130
       0.556
      -0.196
      -0.984
      -1.654
      -2.106
      -2.282
      -2.108
      -1.487
      -0.417
       0.900
       2.103
       2.864
       3.042
       2.654
       1.755
       0.386
      -1.337
      -3.141
      -4.648
      -5.557
      -5.781
      -5.441
      -4.728
      -3.788
      -2.697
      -1.506
      -0.297
       0.804
       1.660
       2.166
       2.287
       2.056
       1.546
       0.843
       0.021
      -0.859
      -1.725
      -2.468
      -2.915
      -2.863
      -2.169
      -0.873
       0.721
       2.127
       2.908
       2.913
       2.336
       1.547
       0.851
       0.336
      -0.076
      -0.462
      -0.766
      -0.844
      -0.612
      -0.148
       0.372
       0.839
       1.267
       1.715
       2.158
       2.479
       2.573
       2.448
       2.210
       1.963
       1.727
       1.456
       1.119
       0.753
       0.410
       0.100
      -0.184
      -0.381
      -0.381
      -0.162
       0.116
       0.220
       0.052
      -0.271
      -0.558
      -0.737
      -0.868
      -0.975
      -0.938
      -0.619
      -0.076
       0.404
       0.535
       0.271
      -0.192
      -0.631
      -0.965
      -1.223
      -1.427
      -1.550
      -1.574
      -1.526
      -1.435
      -1.255
      -0.866
      -0.197
       0.630
       1.317
       1.591
       1.436
       1.111
       0.954
       1.125
       1.513
       1.835
       1.833
       1.437
       0.782
       0.115
      -0.336
      -0.458
      -0.274
       0.100
       0.528
       0.922
       1.258
       1.538
       1.734
       1.767
       1.552
       1.086
       0.523
       0.126
       0.116
       0.504
       1.060
       1.466
       1.535
       1.330
       1.064
       0.905
       0.853
       0.802
       0.666
       0.464
       0.298
       0.267
       0.397
       0.623
       0.824
       0.885
       0.741
       0.384
      -0.151
      -0.795
      -1.450
      -1.982
      -2.260
      -2.201
      -1.815
      -1.217
      -0.585
      -0.078
       0.240
       0.396
       0.440
       0.374
       0.162
      -0.216
      -0.708
      -1.215
      -1.642
      -1.946
      -2.120
      -2.168
      -2.088
      -1.888
      -1.602
      -1.278
      -0.969
      -0.709
      -0.496
      -0.297
      -0.061
       0.258
       0.666
       1.113
       1.498
       1.705
       1.656
       1.348
       0.831
       0.168
      -0.587
      -1.356
      -1.994
      -2.318
      -2.205
      -1.697
      -1.001
      -0.376
       0.015
       0.187
       0.276
       0.379
       0.442
       0.307
      -0.114
      -0.739
      -1.381
      -1.898
      -2.234
      -2.368
      -2.260
      -1.896
      -1.341
      -0.732
      -0.201
       0.205
       0.527
       0.826
       1.086
       1.198
       1.054
       0.667
       0.172
      -0.286
      -0.651
      -0.921
      -1.049
      -0.924
      -0.490
       0.134
       0.699
       1.018
       1.130
       1.264
       1.591
       2.033
       2.303
       2.161
       1.623
       0.944
       0.404
       0.100
      -0.096
      -0.385
      -0.864
      -1.448
      -1.952
      -2.218
      -2.184
      -1.866
      -1.315
      -0.606
       0.147
       0.794
       1.195
       1.282
       1.080
       0.660
       0.090
      -0.544
      -1.099
      -1.390
      -1.318
      -0.961
      -0.527
      -0.208
      -0.049
       0.042
       0.189
       0.439
       0.739
       0.997
       1.144
       1.163
       1.083
       0.971
       0.918
       0.993
       1.210
       1.518
       1.834
       2.090
       2.244
       2.273
       2.163
       1.916
       1.558
       1.127
       0.663
       0.202
      -0.233
      -0.624
      -0.957
      -1.207
      -1.334
      -1.296
      -1.061
      -0.631
      -0.064
       0.518
       0.977
       1.215
       1.213
       1.021
       0.728
       0.432
       0.192
       0.004
      -0.198
      -0.475
      -0.825
      -1.168
      -1.375
      -1.329
      -0.996
      -0.466
       0.083
       0.499
       0.748
       0.901
       1.012
       1.024
       0.792
       0.211
      -0.659
      -1.581
      -2.254
      -2.489
      -2.315
      -1.932
      -1.534
      -1.156
      -0.666
       0.088
       1.108
       2.198
       3.072
       3.508
       3.446
       2.952
       2.132
       1.087
      -0.060
      -1.120
      -1.866
      -2.133
      -1.918
      -1.371
      -0.695
      -0.036
       0.548
       1.038
       1.384
       1.488
       1.264
       0.734
       0.059
      -0.520
      -0.812
      -0.793
      -0.602
      -0.447
      -0.452
      -0.580
      -0.654
      -0.474
       0.049
       0.807
       1.515
       1.872
       1.757
       1.315
       0.848
       0.600
       0.597
       0.675
       0.656
       0.520
       0.407
       0.459
       0.650
       0.781
       0.647
       0.214
      -0.344
      -0.782
      -0.945
      -0.837
      -0.572
      -0.291
      -0.116
      -0.125
      -0.342
      -0.730
      -1.212
      -1.703
      -2.133
      -2.442
      -2.558
      -2.424
      -2.034
      -1.462
      -0.838
      -0.284
