Origin Time       04/05/2011 20:57:15
Lat.              30.2 N	
Long.             80.4 E	
Depth (Km)         10.0
Magnitude         5.0
 Region           INDIA-NEPAL                                                      
 Above details taken from IMD 
     
Station Code      MUN
Station Lat.       30.066  N
Station Long.      80.237  E
Station Height(m) 2201.0
Site Class        A   Vs30 between 700 m/sec to 1400 m/sec * 
Record Time       04.05.2011 20:57:11.119
Sampling Rate     200. Hz
 Record Duration   81.895 Sec.
 Direction         E-W (E positive)
Max. Acceleration      7.395 cm/sec**2
     
  * For reference see Site Classification link of website 
     
 Base Line Corrected and Low Pass Filtered (Cut Off at 35 Hz) Time History
 Acceleration data in cm/sec**2
    
[...]
       0.684
       0.476
       0.093
      -0.320
      -0.645
      -0.839
      -0.866
      -0.656
      -0.173
       0.469
       1.008
       1.200
       0.980
       0.495
      -0.040
      -0.491
      -0.836
      -1.057
      -1.060
      -0.724
      -0.043
       0.804
       1.530
       1.901
       1.845
       1.455
       0.907
       0.324
      -0.289
      -0.970
      -1.671
      -2.195
      -2.304
      -1.882
      -1.014
       0.076
       1.129
       1.932
       2.363
       2.391
       2.037
       1.329
       0.304
      -0.944
      -2.209
      -3.193
      -3.610
      -3.322
      -2.406
      -1.096
       0.345
       1.706
       2.810
       3.472
       3.535
       2.936
       1.736
       0.123
      -1.587
      -2.970
      -3.617
      -3.352
      -2.352
      -1.052
       0.132
       1.008
       1.572
       1.830
       1.709
       1.140
       0.200
      -0.863
      -1.705
      -2.011
      -1.603
      -0.534
       0.888
       2.183
       2.881
       2.735
       1.859
       0.663
      -0.404
      -1.122
      -1.540
      -1.787
      -1.855
      -1.613
      -0.980
      -0.073
       0.828
       1.436
       1.586
       1.269
       0.594
      -0.275
      -1.140
      -1.807
      -2.140
      -2.101
      -1.738
      -1.100
      -0.215
       0.842
       1.844
       2.450
       2.414
       1.772
       0.826
      -0.071
      -0.724
      -1.100
      -1.183
      -0.888
      -0.136
       0.977
       2.131
       2.901
       2.979
       2.320
       1.146
      -0.195
      -1.389
      -2.248
      -2.675
      -2.609
      -2.038
      -1.068
       0.032
       0.904
       1.283
       1.129
       0.619
      -0.017
      -0.649
      -1.238
      -1.708
      -1.864
      -1.507
      -0.637
       0.462
       1.358
       1.710
       1.426
       0.661
      -0.301
      -1.188
      -1.799
      -2.010
      -1.750
      -1.023
       0.050
       1.223
       2.172
       2.613
       2.429
       1.758
       0.949
       0.382
       0.230
       0.340
       0.353
       0.011
      -0.588
      -1.028
      -0.910
      -0.213
       0.660
       1.183
       1.095
       0.529
      -0.172
      -0.733
      -1.074
      -1.230
      -1.215
      -0.981
      -0.523
       0.039
       0.499
       0.706
       0.622
       0.289
      -0.234
      -0.882
      -1.539
      -2.030
      -2.165
      -1.836
      -1.097
      -0.144
       0.775
       1.452
       1.767
       1.701
       1.340
       0.826
       0.266
      -0.303
      -0.838
      -1.205
      -1.194
      -0.679
       0.246
       1.286
       2.103
       2.488
       2.431
       2.077
       1.636
       1.289
       1.130
       1.115
       1.063
       0.752
       0.078
      -0.813
      -1.575
      -1.886
      -1.689
      -1.248
      -0.941
      -0.953
      -1.124
      -1.105
      -0.699
      -0.072
       0.385
       0.415
       0.087
      -0.334
      -0.685
      -0.997
      -1.332
      -1.591
      -1.549
      -1.079
      -0.308
       0.451
       0.919
       0.992
       0.723
       0.237
      -0.299
      -0.671
      -0.690
      -0.323
       0.250
       0.751
       1.005
       1.045
       1.019
       1.037
       1.070
       0.995
       0.723
       0.297
      -0.130
      -0.410
      -0.487
      -0.371
      -0.092
       0.286
       0.617
       0.732
       0.606
       0.425
       0.416
       0.584
       0.669
       0.402
      -0.181
      -0.719
      -0.846
      -0.534
      -0.109
       0.052
      -0.185
      -0.691
      -1.268
      -1.802
      -2.233
      -2.446
      -2.251
      -1.512
      -0.316
       0.972
       1.858
       1.992
       1.399
       0.488
      -0.203
      -0.346
      -0.003
       0.498
       0.850
       0.967
       0.962
       0.978
       1.058
       1.114
       1.001
       0.630
       0.039
      -0.606
      -1.109
      -1.343
      -1.298
      -1.037
      -0.640
      -0.198
       0.167
       0.330
       0.247
      -0.013
      -0.338
      -0.647
      -0.901
      -1.053
      -1.058
      -0.928
      -0.774
      -0.747
      -0.902
      -1.100
      -1.063
      -0.593
       0.224
       1.039
       1.499
       1.510
       1.266
       1.041
       0.974
       1.027
       1.107
       1.195
       1.315
       1.413
       1.321
       0.892
       0.159
      -0.656
      -1.289
      -1.603
      -1.615
      -1.416
      -1.087
      -0.689
      -0.276
       0.100
       0.411
       0.647
       0.792
       0.810
       0.667
       0.366
      -0.048
      -0.507
      -0.921
      -1.169
      -1.111
      -0.668
       0.079
       0.890
       1.480
       1.676
       1.494
       1.104
       0.708
       0.411
       0.172
      -0.129
      -0.559
      -1.050
      -1.424
      -1.505
      -1.233
      -0.720
      -0.195
       0.129
       0.173
       0.011
      -0.207
      -0.379
      -0.508
      -0.652
      -0.809
      -0.860
      -0.626
      -0.028
       0.813
       1.606
       2.049
       1.967
       1.379
       0.479
      -0.452
      -1.138
      -1.387
      -1.144
      -0.524
       0.206
       0.731
       0.861
       0.654
       0.359
       0.220
       0.297
       0.463
       0.532
       0.384
       0.009
      -0.513
      -1.049
      -1.453
      -1.588
      -1.331
      -0.614
       0.507
       1.769
       2.724
       2.930
       2.219
       0.864
      -0.530
      -1.375
      -1.439
      -0.939
      -0.332
       0.008
       0.004
      -0.138
      -0.103
       0.299
       0.981
       1.608
       1.805
       1.406
       0.550
      -0.447
      -1.292
      -1.839
      -2.049
      -1.934
      -1.545
      -1.017
      -0.551
      -0.324
      -0.376
      -0.584
      -0.728
      -0.622
      -0.216
       0.368
       0.895
       1.139
       1.007
       0.590
       0.116
      -0.204
      -0.315
      -0.340
      -0.437
      -0.621
      -0.735
      -0.590
      -0.146
       0.432
       0.890
       1.068
       0.998
       0.857
       0.813
       0.891
       0.935
       0.715
       0.115
      -0.722
      -1.439
      -1.700
      -1.463
      -1.001
      -0.651
      -0.502
      -0.326
       0.183
       1.084
       2.060
       2.616
       2.420
       1.543
       0.390
      -0.598
      -1.206
      -1.478
      -1.555
      -1.507
      -1.311
      -0.947
      -0.480
      -0.006
       0.475
       1.058
       1.763
       2.357
       2.418
       1.649
       0.147
      -1.607
      -3.016
      -3.672
      -3.507
      -2.744
      -1.717
      -0.678
       0.301
       1.275
       2.245
       3.011
       3.224
       2.652
       1.417
      -0.026
      -1.184
      -1.806
      -1.919
      -1.666
      -1.148
      -0.393
       0.558
       1.578
       2.449
       2.923
       2.793
       1.955
       0.508
      -1.176
      -2.530
      -3.070
      -2.675
      -1.645
      -0.497
       0.305
       0.532
       0.232
      -0.333
      -0.844
      -1.104
      -1.127
      -1.054
      -0.977
      -0.846
      -0.532
       0.033
       0.776
       1.534
       2.123
       2.372
       2.152
       1.451
       0.437
      -0.585
      -1.308
      -1.546
      -1.260
      -0.516
       0.530
       1.620
       2.418
       2.603
       2.014
       0.756
      -0.790
      -2.125
      -2.880
      -2.992
      -2.653
      -2.077
      -1.313
      -0.281
       0.988
       2.160
       2.700
       2.252
       0.968
      -0.519
      -1.493
      -1.572
      -0.862
       0.194
       1.088
       1.472
       1.291
       0.805
       0.432
       0.458
       0.802
       1.055
       0.801
      -0.015
      -0.989
      -1.543
      -1.351
      -0.563
       0.354
       0.983
       1.202
       1.121
       0.850
       0.385
      -0.300
      -1.101
      -1.760
      -1.994
      -1.653
      -0.796
       0.308
       1.255
       1.660
       1.355
       0.521
      -0.393
      -0.925
      -0.858
      -0.319
       0.338
       0.752
       0.752
       0.413
      -0.042
      -0.384
      -0.478
      -0.306
       0.024
       0.292
       0.277
      -0.079
      -0.596
      -0.994
      -1.124
      -1.079
      -1.050
      -1.074
      -0.942
      -0.413
       0.481
       1.367
       1.817
       1.691
       1.194
       0.612
       0.059
      -0.505
      -1.056
      -1.390
      -1.290
      -0.772
      -0.108
       0.429
       0.775
       1.021
       1.174
       1.077
       0.598
      -0.139
      -0.777
      -1.012
      -0.857
      -0.599
      -0.495
      -0.533
      -0.495
      -0.234
       0.148
       0.405
       0.393
       0.221
       0.152
       0.385
       0.898
       1.472
       1.832
       1.787
       1.318
       0.592
      -0.103
      -0.504
      -0.507
      -0.221
       0.108
       0.246
       0.088
      -0.331
      -0.930
      -1.624
      -2.261
      -2.553
      -2.201
      -1.150
       0.247
       1.408
       1.940
       1.922
       1.773
       1.814
       1.950
       1.787
       1.041
      -0.170
      -1.444
      -2.422
      -3.000
      -3.227
      -3.103
      -2.532
      -1.505
      -0.253
       0.835
       1.485
       1.675
       1.533
       1.156
       0.603
       0.010
      -0.396
      -0.457
      -0.247
       0.000
       0.137
       0.254
       0.549
       1.034
       1.405
       1.254
       0.452
      -0.685
      -1.615
      -1.976
      -1.801
      -1.414
      -1.138
      -1.076
      -1.097
      -0.956
      -0.495
       0.205
       0.812
       0.970
       0.623
       0.154
       0.108
       0.701
       1.550
       1.926
       1.338
      -0.065
      -1.614
      -2.619
      -2.818
      -2.460
      -2.042
      -1.925
      -2.066
      -2.044
      -1.381
       0.013
       1.649
       2.737
       2.768
       1.932
       0.956
       0.482
       0.533
       0.541
      -0.086
      -1.374
      -2.698
      -3.270
      -2.770
      -1.567
      -0.351
       0.433
       0.847
       1.246
       1.860
       2.563
       3.016
       2.982
       2.497
       1.775
       1.001
       0.227
      -0.561
      -1.329
      -1.966
      -2.347
      -2.414
      -2.200
      -1.805
      -1.346
      -0.913
      -0.512
      -0.044
       0.620
       1.523
       2.505
       3.235
       3.371
       2.788
       1.694
       0.515
      -0.386
      -0.941
      -1.358
      -1.851
      -2.345
      -2.451
      -1.785
      -0.362
       1.300
       2.531
       2.992
       2.878
       2.648
       2.595
       2.643
       2.507
       1.998
       1.192
       0.370
      -0.192
      -0.415
      -0.481
      -0.704
      -1.293
      -2.178
      -3.018
      -3.395
      -3.059
      -2.076
      -0.779
       0.440
       1.326
       1.822
       1.988
       1.882
       1.534
       1.003
       0.435
       0.038
      -0.003
       0.409
       1.246
       2.328
       3.304
       3.759
       3.416
       2.311
       0.780
      -0.765
      -2.063
      -3.089
      -3.953
      -4.750
      -5.468
      -5.993
      -6.150
      -5.769
      -4.771
      -3.245
      -1.458
       0.256
       1.670
       2.763
       3.637
       4.347
       4.763
       4.612
       3.676
       2.018
       0.071
      -1.525
      -2.282
      -2.153
      -1.534
      -0.958
      -0.708
      -0.678
      -0.551
      -0.123
       0.537
       1.194
       1.666
       1.959
       2.209
       2.545
       2.949
       3.224
       3.092
       2.379
       1.196
      -0.054
      -0.884
      -1.030
      -0.635
      -0.122
       0.140
       0.109
       0.032
       0.159
       0.483
       0.747
       0.678
       0.191
      -0.589
      -1.439
      -2.136
      -2.481
      -2.324
      -1.639
      -0.591
       0.496
       1.285
       1.599
       1.479
       1.098
       0.618
       0.092
      -0.531
      -1.332
      -2.305
      -3.296
      -4.042
      -4.307
      -4.005
      -3.220
      -2.136
      -0.968
       0.083
       0.863
       1.336
       1.619
       1.918
       2.367
       2.889
       3.214
       3.061
       2.354
       1.281
       0.173
      -0.710
      -1.310
      -1.754
      -2.219
      -2.783
      -3.338
      -3.655
      -3.545
      -2.980
      -2.077
      -0.974
       0.252
       1.511
       2.605
       3.249
       3.258
       2.710
       1.903
       1.132
       0.491
      -0.112
      -0.777
      -1.447
      -1.913
      -1.965
      -1.532
      -0.722
       0.239
       1.082
       1.561
       1.535
       1.035
       0.253
      -0.549
      -1.133
      -1.335
      -1.077
      -0.387
       0.584
       1.576
       2.299
       2.561
       2.361
       1.863
       1.273
       0.708
       0.200
      -0.206
      -0.367
      -0.089
       0.727
       1.920
       3.039
       3.542
       3.110
       1.844
       0.193
      -1.344
      -2.474
      -3.169
      -3.552
      -3.723
      -3.671
      -3.309
      -2.590
      -1.601
      -0.575
       0.223
       0.623
       0.607
       0.260
      -0.309
      -1.008
      -1.745
      -2.380
      -2.699
      -2.430
      -1.329
       0.655
       3.216
       5.680
       7.247
       7.395
       6.160
       4.082
       1.857
      -0.024
      -1.402
      -2.319
      -2.842
      -3.010
      -2.886
      -2.579
      -2.185
      -1.723
      -1.167
      -0.514
       0.174
       0.787
       1.217
       1.404
       1.369
       1.212
       1.055
       0.935
       0.787
       0.540
       0.230
      -0.036
      -0.218
      -0.405
      -0.726
      -1.185
      -1.618
      -1.801
      -1.610
      -1.107
      -0.489
       0.027
       0.295
       0.271
       0.031
      -0.220
      -0.234
       0.110
       0.671
       1.112
       1.151
       0.813
       0.429
       0.354
       0.659
       1.085
       1.281
       1.090
       0.599
      -0.033
      -0.742
      -1.541
      -2.360
      -2.958
      -3.041
      -2.476
      -1.394
      -0.123
       0.967
       1.621
       1.784
       1.597
       1.311
       1.141
       1.132
       1.138
       0.940
       0.457
      -0.163
      -0.662
      -0.892
      -0.907
      -0.867
      -0.882
      -0.950
      -1.008
      -1.018
      -0.999
      -0.993
      -1.024
      -1.090
      -1.178
      -1.273
      -1.342
      -1.320
      -1.129
      -0.724
      -0.140
       0.503
       1.067
       1.483
       1.789
       2.070
       2.365
       2.625
       2.760
       2.708
       2.448
       1.954
       1.187
       0.145
      -1.066
      -2.241
      -3.153
      -3.657
      -3.733
      -3.464
      -2.968
      -2.333
      -1.600
      -0.770
       0.152
       1.120
       2.029
       2.751
       3.190
       3.307
       3.127
       2.728
       2.254
       1.880
       1.721
       1.731
       1.684
       1.321
       0.572
      -0.356
      -1.103
      -1.400
      -1.220
      -0.730
      -0.148
       0.375
       0.770
       1.007
       1.039
       0.810
       0.286
      -0.496
      -1.424
      -2.321
      -3.006
      -3.370
      -3.428
      -3.290
      -3.027
      -2.562
      -1.702
      -0.318
       1.461
       3.222
       4.452
       4.825
       4.384
       3.493
       2.595
       1.963
       1.589
       1.264
       0.773
       0.068
      -0.714
      -1.371
      -1.796
      -2.033
      -2.199
      -2.362
      -2.471
      -2.410
      -2.076
      -1.447
      -0.591
       0.351
       1.200
       1.784
       1.981
       1.742
       1.083
       0.077
      -1.148
      -2.376
      -3.323
      -3.728
      -3.481
      -2.694
      -1.649
      -0.634
       0.212
       0.939
       1.654
       2.358
       2.867
       2.905
       2.275
       1.000
      -0.662
      -2.303
      -3.493
      -3.904
      -3.434
      -2.270
      -0.839
       0.400
       1.179
       1.499
       1.523
       1.413
       1.259
       1.102
       0.995
       0.995
       1.108
       1.235
       1.244
       1.094
       0.902
       0.866
       1.108
       1.581
       2.073
       2.311
       2.102
       1.436
       0.511
      -0.364
      -0.908
      -1.001
      -0.719
      -0.269
       0.125
       0.320
       0.289
       0.103
      -0.118
      -0.252
      -0.231
      -0.059
       0.193
       0.437
       0.608
       0.696
       0.739
       0.793
       0.867
       0.892
       0.750
       0.364
      -0.239
      -0.953
      -1.653
      -2.231
      -2.588
      -2.620
      -2.247
      -1.492
      -0.533
       0.315
       0.741
       0.612
       0.044
      -0.700
      -1.378
      -1.874
      -2.158
      -2.216
      -2.020
      -1.564
      -0.890
      -0.073
       0.802
       1.632
       2.291
       2.652
       2.653
       2.332
       1.802
       1.162
       0.439
      -0.381
      -1.264
      -2.057
      -2.527
      -2.470
      -1.826
      -0.732
       0.504
       1.510
       2.000
       1.893
       1.344
       0.660
       0.138
      -0.060
       0.046
       0.324
       0.644
       0.937
       1.171
       1.294
       1.210
       0.851
       0.250
      -0.452
      -1.089
      -1.551
      -1.805
      -1.851
      -1.678
      -1.263
      -0.629
       0.102
       0.744
       1.144
       1.248
       1.075
       0.653
       0.021
      -0.713
      -1.333
      -1.576
      -1.282
      -0.518
       0.411
       1.104
       1.266
       0.833
      -0.039
      -1.085
      -2.038
      -2.685
      -2.895
      -2.634
      -1.976
      -1.090
      -0.179
       0.597
       1.151
       1.450
       1.490
       1.302
       0.964
       0.586
       0.244
      -0.053
      -0.351
      -0.679
      -0.986
      -1.146
      -1.041
      -0.676
      -0.213
       0.138
       0.290
       0.339
       0.451
       0.692
       0.955
       1.064
       0.944
       0.702
       0.536
       0.559
       0.700
       0.780
       0.695
       0.505
       0.381
       0.457
       0.747
       1.161
       1.580
       1.908
       2.082
       2.056
       1.806
       1.342
       0.711
      -0.032
      -0.851
      -1.712
      -2.513
      -3.069
      -3.180
      -2.762
      -1.918
      -0.862
       0.212
       1.204
       2.053
       2.639
       2.789
       2.411
       1.618
       0.701
      -0.041
      -0.462
      -0.595
      -0.547
      -0.404
      -0.219
      -0.043
       0.078
       0.127
       0.122
       0.067
      -0.071
      -0.326
      -0.661
      -0.957
      -1.083
      -0.970
      -0.642
      -0.188
       0.273
       0.604
       0.695
       0.512
       0.132
      -0.304
      -0.672
      -0.920
      -1.038
      -1.019
      -0.870
      -0.646
      -0.445
      -0.342
      -0.342
      -0.398
      -0.469
      -0.531
      -0.545
      -0.431
      -0.116
       0.384
       0.934
       1.345
       1.491
       1.371
