Origin Time       01/05/2009 22:36:25
Lat.              29.9 N 
Long.             80.1 E 
Depth (Km)         10.0
Magnitude         4.6
 Region           Bageshwar-Uttarakhand                                            
 Above details taken from IMD 
   
Station Code      MUN
Station Lat.       30.066
Station Long.      80.237
Station Height(m) 2201.0
Site Class        A   Vs30 between 700 m/sec to 1400 m/sec * 
Record Time       01.05.2010 22:36:20.414
Sampling Rate     200. Hz
 Record Duration   66.790 Sec.
 Direction         Vert. (Up positive)
Max. Acceleration    -11.823 cm/sec**2
     
  * For reference see Site Classification link of website 
     
 Base Line Corrected and Low Pass Filtered (Cut Off at 35 Hz) Time History
 Acceleration data in cm/sec**2
    
[...]
      -0.008
      -0.008
      -0.007
      -0.007
      -0.007
      -0.005
       0.000
       0.005
       0.007
       0.004
       0.001
      -0.001
       0.000
       0.002
       0.003
       0.002
       0.000
      -0.001
      -0.001
      -0.002
      -0.004
      -0.005
      -0.001
       0.003
       0.005
       0.004
       0.002
       0.001
       0.000
      -0.002
      -0.005
      -0.007
      -0.008
      -0.008
      -0.006
      -0.003
       0.003
       0.010
       0.018
       0.021
       0.018
       0.011
       0.005
       0.002
       0.000
      -0.003
      -0.005
      -0.006
      -0.005
      -0.002
       0.001
       0.002
       0.002
       0.003
       0.004
       0.005
       0.004
       0.003
       0.002
       0.000
      -0.006
      -0.014
      -0.018
      -0.017
      -0.012
      -0.006
      -0.002
      -0.001
      -0.002
      -0.003
      -0.003
      -0.002
      -0.001
       0.002
       0.007
       0.012
       0.012
       0.008
       0.002
      -0.003
      -0.004
      -0.003
      -0.001
      -0.003
      -0.007
      -0.010
      -0.011
      -0.010
      -0.008
      -0.005
      -0.001
       0.002
       0.003
       0.001
      -0.002
      -0.004
      -0.006
      -0.008
      -0.008
      -0.008
      -0.009
      -0.011
      -0.013
      -0.013
      -0.013
      -0.010
      -0.005
       0.000
       0.002
       0.003
       0.002
       0.001
      -0.001
      -0.003
      -0.003
      -0.004
      -0.006
      -0.007
      -0.008
      -0.008
      -0.008
      -0.008
      -0.008
      -0.008
      -0.009
      -0.009
      -0.007
      -0.006
      -0.007
      -0.008
      -0.008
      -0.007
      -0.007
      -0.009
      -0.010
      -0.007
      -0.002
       0.003
       0.005
       0.001
      -0.006
      -0.014
      -0.017
      -0.016
      -0.012
      -0.007
      -0.002
       0.001
      -0.001
      -0.006
      -0.012
      -0.016
      -0.015
      -0.011
      -0.006
      -0.004
      -0.006
      -0.010
      -0.011
      -0.009
      -0.006
      -0.005
      -0.007
      -0.008
      -0.008
      -0.006
      -0.002
       0.001
       0.002
       0.002
       0.003
       0.003
      -0.001
      -0.008
      -0.014
      -0.016
      -0.012
      -0.006
      -0.004
      -0.007
      -0.014
      -0.020
      -0.019
      -0.012
      -0.006
      -0.006
      -0.011
      -0.016
      -0.016
      -0.011
      -0.006
      -0.004
      -0.007
      -0.011
      -0.011
      -0.007
      -0.002
       0.000
      -0.001
      -0.003
      -0.004
      -0.003
      -0.001
      -0.001
      -0.009
      -0.026
      -0.052
      -0.094
      -0.172
      -0.314
      -0.549
      -0.889
      -1.315
      -1.764
      -2.126
      -2.258
      -2.006
      -1.255
       0.005
       1.614
       3.241
       4.461
       4.901
       4.383
       3.003
       1.120
      -0.725
      -1.958
      -2.181
      -1.365
       0.071
       1.392
       1.895
       1.268
      -0.252
      -2.041
      -3.463
      -4.178
      -4.185
      -3.631
      -2.619
      -1.186
       0.585
       2.496
       4.265
       5.596
       6.201
       5.808
       4.228
       1.533
      -1.781
      -4.833
      -6.724
      -6.991
      -5.789
      -3.661
      -1.150
       1.352
       3.467
       4.690
       4.526
       2.885
       0.392
      -1.764
      -2.466
      -1.399
       0.736
       2.714
       3.580
       3.087
       1.572
      -0.409
      -2.310
      -3.640
      -4.043
      -3.483
      -2.355
      -1.321
      -0.866
      -0.915
      -0.860
      -0.065
       1.527
       3.240
       4.153
       3.829
       2.655
       1.481
       0.904
       0.822
       0.651
      -0.076
      -1.282
      -2.452
      -3.106
      -3.141
      -2.761
      -2.193
      -1.508
      -0.687
       0.232
       1.130
       1.901
       2.506
       2.909
       2.989
       2.538
       1.403
      -0.324
      -2.205
      -3.582
      -3.896
      -3.018
      -1.340
       0.450
       1.775
       2.442
       2.584
       2.366
       1.781
       0.751
      -0.575
      -1.710
      -2.089
      -1.523
      -0.408
       0.521
       0.700
       0.091
      -0.880
      -1.680
      -2.009
      -1.853
      -1.303
      -0.385
       0.891
       2.341
       3.539
       4.005
       3.496
       2.154
       0.436
      -1.073
      -1.880
      -1.774
      -0.954
       0.026
       0.526
       0.199
      -0.784
      -1.835
      -2.323
      -1.972
      -1.009
       0.036
       0.694
       0.827
       0.620
       0.380
       0.320
       0.490
       0.800
       1.060
       1.039
       0.589
      -0.231
      -1.148
      -1.834
      -2.102
      -1.963
      -1.522
      -0.849
       0.034
       1.023
       1.838
       2.151
       1.875
       1.323
       0.992
       1.144
       1.548
       1.627
       0.893
      -0.657
      -2.473
      -3.746
      -3.886
      -2.851
      -1.140
       0.476
       1.302
       1.025
      -0.085
      -1.238
      -1.541
      -0.612
       1.071
       2.486
       2.834
       2.131
       1.099
       0.475
       0.389
       0.372
      -0.064
      -0.890
      -1.594
      -1.692
      -1.188
      -0.523
      -0.127
      -0.058
      -0.069
       0.036
       0.201
       0.263
       0.258
       0.473
       1.107
       1.870
       2.029
       1.032
      -0.825
      -2.434
      -2.723
      -1.569
       0.137
       1.321
       1.569
       1.205
       0.672
       0.035
      -0.853
      -1.820
      -2.208
      -1.412
       0.391
       2.151
       2.723
       1.823
       0.270
      -0.726
      -0.557
       0.375
       1.104
       0.959
       0.044
      -0.995
      -1.610
      -1.730
      -1.587
      -1.297
      -0.735
       0.175
       1.184
       1.839
       1.904
       1.573
       1.186
       0.769
      -0.031
      -1.422
      -2.931
      -3.556
      -2.593
      -0.347
       2.012
       3.302
       3.114
       1.868
       0.277
      -1.189
      -2.374
      -3.150
      -3.227
      -2.368
      -0.763
       0.923
       1.998
       2.259
       2.066
       1.900
       1.881
       1.716
       1.107
       0.137
      -0.758
      -1.220
      -1.323
      -1.431
      -1.722
      -1.908
      -1.505
      -0.372
       1.047
       2.013
       2.030
       1.155
      -0.113
      -1.198
      -1.723
      -1.569
      -0.861
       0.054
       0.723
       0.869
       0.590
       0.265
       0.207
       0.425
       0.677
       0.703
       0.415
      -0.090
      -0.608
      -0.926
      -0.900
      -0.543
      -0.066
       0.203
       0.043
      -0.452
      -0.872
      -0.750
       0.083
       1.316
       2.289
       2.395
       1.502
       0.084
      -1.073
      -1.399
      -0.905
      -0.102
       0.415
       0.379
      -0.017
      -0.320
      -0.191
       0.311
       0.742
       0.610
      -0.208
      -1.326
      -2.093
      -2.033
      -1.171
      -0.028
       0.733
       0.784
       0.340
      -0.107
      -0.272
      -0.295
      -0.450
      -0.720
      -0.734
      -0.163
       0.843
       1.656
       1.690
       0.973
       0.171
      -0.027
       0.409
       0.843
       0.643
      -0.167
      -0.967
      -1.178
      -0.781
      -0.218
       0.144
       0.349
       0.666
       1.131
       1.379
       0.970
      -0.125
      -1.393
      -2.151
      -2.041
      -1.228
      -0.189
       0.638
       1.058
       1.114
       0.937
       0.623
       0.219
      -0.190
      -0.445
      -0.427
      -0.223
      -0.134
      -0.394
      -0.881
      -1.158
      -0.867
      -0.063
       0.849
       1.483
       1.722
       1.630
       1.207
       0.362
      -0.840
      -1.972
      -2.428
      -1.888
      -0.607
       0.745
       1.521
       1.436
       0.622
      -0.514
      -1.500
      -1.950
      -1.674
      -0.738
       0.507
       1.504
       1.777
       1.262
       0.399
      -0.208
      -0.261
       0.064
       0.380
       0.465
       0.361
       0.159
      -0.195
      -0.790
      -1.459
      -1.708
      -1.086
       0.291
       1.631
       2.018
       1.167
      -0.314
      -1.383
      -1.307
      -0.128
       1.415
       2.410
       2.352
       1.426
       0.294
      -0.408
      -0.460
      -0.101
       0.221
       0.161
      -0.333
      -1.008
      -1.487
      -1.510
      -1.077
      -0.394
       0.273
       0.707
       0.760
       0.387
      -0.307
      -1.058
      -1.534
      -1.520
      -1.067
      -0.479
      -0.099
      -0.048
      -0.134
      -0.007
       0.560
       1.478
       2.358
       2.709
       2.245
       1.075
      -0.348
      -1.497
      -2.042
      -1.954
      -1.424
      -0.710
      -0.042
       0.411
       0.567
       0.505
       0.479
       0.730
       1.186
       1.402
       0.953
      -0.063
      -0.971
      -1.078
      -0.349
       0.489
       0.593
      -0.209
      -1.264
      -1.727
      -1.346
      -0.610
      -0.175
      -0.228
      -0.424
      -0.361
      -0.021
       0.292
       0.372
       0.358
       0.546
       0.991
       1.367
       1.250
       0.549
      -0.368
      -0.982
      -1.081
      -0.898
      -0.805
      -0.895
      -0.918
      -0.612
      -0.026
       0.531
       0.815
       0.851
       0.817
       0.821
       0.812
       0.676
       0.358
      -0.064
      -0.390
      -0.394
       0.003
       0.581
       0.882
       0.543
      -0.337
      -1.172
      -1.350
      -0.793
      -0.043
       0.255
      -0.034
      -0.433
      -0.354
       0.318
       1.112
       1.400
       0.947
       0.066
      -0.711
      -1.080
      -1.068
      -0.787
      -0.244
       0.538
       1.287
       1.522
       0.932
      -0.259
      -1.321
      -1.484
      -0.510
       1.063
       2.235
       2.229
       1.053
      -0.542
      -1.668
      -1.912
      -1.473
      -0.850
      -0.441
      -0.361
      -0.471
      -0.541
      -0.424
      -0.123
       0.276
       0.647
       0.823
       0.657
       0.202
      -0.214
      -0.239
       0.138
       0.560
       0.690
       0.571
       0.557
       0.883
       1.365
       1.528
       1.049
       0.051
      -1.003
      -1.690
      -1.882
      -1.671
      -1.157
      -0.387
       0.510
       1.241
       1.494
       1.193
       0.562
      -0.059
      -0.459
      -0.670
      -0.869
      -1.177
      -1.504
      -1.614
      -1.330
      -0.706
      -0.005
       0.480
       0.614
       0.512
       0.449
       0.637
       1.025
       1.318
       1.239
       0.763
       0.132
      -0.335
      -0.456
      -0.298
      -0.134
      -0.222
      -0.566
      -0.885
      -0.853
      -0.400
       0.234
       0.690
       0.723
       0.309
      -0.391
      -1.118
      -1.591
      -1.558
      -0.865
       0.384
       1.726
       2.501
       2.302
       1.351
       0.381
       0.047
       0.378
       0.760
       0.503
      -0.504
      -1.643
      -2.104
      -1.627
      -0.735
      -0.205
      -0.327
      -0.710
      -0.783
      -0.393
       0.118
       0.355
       0.284
       0.189
       0.291
       0.487
       0.517
       0.343
       0.246
       0.473
       0.850
       0.885
       0.333
      -0.404
      -0.561
       0.225
       1.431
       1.999
       1.258
      -0.445
      -2.017
      -2.535
      -1.922
      -0.823
       0.073
       0.526
       0.658
       0.590
       0.292
      -0.210
      -0.644
      -0.616
       0.033
       1.025
       1.824
       2.028
       1.590
       0.725
      -0.312
      -1.310
      -2.031
      -2.221
      -1.772
      -0.877
       0.053
       0.660
       0.853
       0.766
       0.570
       0.352
       0.163
       0.085
       0.178
       0.387
       0.538
       0.499
       0.314
       0.168
       0.191
       0.304
       0.295
       0.056
      -0.263
      -0.364
      -0.118
       0.224
       0.173
      -0.568
      -1.756
      -2.702
      -2.792
      -1.967
      -0.719
       0.399
       1.238
       2.034
       2.938
       3.602
       3.333
       1.735
      -0.780
      -3.150
      -4.336
      -3.903
      -2.097
       0.435
       2.923
       4.607
       4.879
       3.561
       1.115
      -1.489
      -3.299
      -3.900
      -3.506
      -2.575
      -1.375
       0.063
       1.638
       2.914
       3.274
       2.383
       0.563
      -1.302
      -2.298
      -2.081
      -1.080
      -0.171
      -0.062
      -0.869
      -2.123
      -3.109
      -3.265
      -2.447
      -1.020
       0.277
       0.756
       0.319
      -0.295
       0.053
       1.949
       4.759
       6.942
       7.193
       5.374
       2.429
      -0.510
      -2.846
      -4.438
      -5.092
      -4.438
      -2.385
       0.418
       2.816
       3.901
       3.548
       2.229
       0.424
      -1.624
      -3.591
      -4.746
      -4.296
      -2.215
       0.346
       1.727
       1.038
      -1.122
      -3.197
      -3.897
      -3.032
      -1.326
       0.405
       1.893
       3.409
       5.242
       7.170
       8.369
       7.817
       4.925
       0.007
      -5.644
     -10.154
     -11.823
      -9.957
      -5.288
       0.359
       4.988
       7.347
       7.308
       5.609
       3.252
       0.984
      -0.848
      -2.154
      -2.954
      -3.320
      -3.329
      -2.948
      -2.074
      -0.775
       0.509
       1.175
       1.022
       0.632
       1.041
       2.817
       5.310
       6.870
       5.998
       2.578
      -1.882
      -5.252
      -6.260
      -5.309
      -3.981
      -3.684
      -4.481
      -5.028
      -3.672
       0.133
       5.205
       9.306
      10.598
       8.698
       4.627
      -0.132
      -4.472
      -7.791
      -9.597
      -9.356
      -6.885
      -2.865
       1.267
       4.105
       5.086
       4.618
       3.531
       2.455
       1.623
       1.049
       0.711
       0.511
       0.172
      -0.653
      -2.015
      -3.382
      -3.871
      -2.950
      -1.000
       0.857
       1.608
       1.135
       0.241
      -0.057
       0.687
       2.103
       3.410
       4.003
       3.731
       2.742
       1.231
      -0.589
      -2.359
      -3.585
      -3.892
      -3.310
      -2.257
      -1.199
      -0.313
       0.502
       1.352
       2.117
       2.482
       2.131
       0.944
      -0.865
      -2.676
      -3.609
      -2.977
      -0.845
       1.749
       3.270
       2.704
       0.385
      -2.163
      -3.378
      -2.854
      -1.500
      -0.554
      -0.416
      -0.372
       0.634
       2.901
       5.511
       6.908
       6.053
       3.256
      -0.006
      -2.149
      -2.611
      -2.134
      -1.985
      -2.795
      -4.051
      -4.653
      -3.907
      -2.018
       0.285
       2.397
       4.052
       5.037
       4.983
       3.655
       1.412
      -0.814
      -2.153
      -2.437
      -2.166
      -1.827
      -1.331
      -0.173
       1.806
       3.867
       4.708
       3.501
       0.717
      -2.121
      -3.619
      -3.580
      -2.945
      -2.689
      -2.811
      -2.424
      -0.819
       1.654
       3.787
       4.515
       3.650
       1.752
      -0.491
      -2.585
      -4.100
      -4.506
      -3.386
      -0.909
       1.964
       3.871
       3.900
       2.260
       0.198
      -0.897
      -0.514
       0.679
       1.508
       1.301
       0.322
      -0.684
      -1.275
      -1.586
      -1.899
      -2.094
      -1.650
      -0.228
       1.747
       3.180
       3.097
       1.427
      -0.943
      -2.875
      -3.779
      -3.840
      -3.615
      -3.403
      -2.951
      -1.724
       0.484
       3.172
       5.312
       5.993
       5.017
       3.045
       1.180
       0.271
       0.378
       0.764
       0.445
      -1.058
      -3.264
      -4.972
      -5.089
      -3.443
      -0.888
       1.384
       2.682
       3.045
       2.822
       2.210
       1.251
       0.143
      -0.640
      -0.660
       0.036
       0.807
       0.894
       0.122
      -0.861
      -1.145
      -0.465
       0.517
       0.879
       0.360
      -0.479
      -0.960
      -1.045
      -1.318
      -2.225
      -3.409
      -3.896
      -3.012
      -1.091
       0.751
       1.554
       1.193
       0.231
      -0.700
      -1.266
      -1.319
      -0.717
       0.507
       1.840
       2.425
       1.793
       0.513
      -0.068
       1.040
       3.447
       5.513
       5.611
       3.470
       0.409
      -1.770
      -2.248
      -1.707
      -1.499
      -2.279
      -3.384
      -3.480
      -1.817
       1.071
       3.822
       5.308
       5.283
       4.140
       2.284
      -0.121
      -2.858
      -5.324
      -6.676
      -6.407
      -4.780
      -2.639
      -0.726
       0.806
       2.198
       3.488
       4.238
       3.891
       2.358
       0.221
      -1.613
      -2.451
      -2.148
      -1.071
       0.178
       1.033
       1.074
       0.072
      -1.868
      -4.070
      -5.294
      -4.331
      -0.942
       3.622
       7.158
       7.895
       5.693
       2.108
      -0.742
      -1.622
      -0.812
       0.436
       0.972
       0.427
      -0.876
      -2.361
      -3.506
      -3.897
      -3.283
      -1.752
       0.179
       1.793
       2.670
       2.982
       3.188
       3.444
       3.363
       2.423
       0.550
      -1.746
      -3.735
      -4.893
      -5.041
      -4.242
      -2.725
      -0.922
       0.571
       1.279
       1.253
       1.132
       1.666
       3.021
       4.509
       5.067
       4.077
       1.835
      -0.719
      -2.649
      -3.477
      -3.202
      -2.135
      -0.811
       0.133
       0.241
      -0.425
      -1.268
      -1.548
      -0.922
       0.289
       1.323
       1.520
       0.796
      -0.301
      -1.015
      -0.998
      -0.618
      -0.634
      -1.470
      -2.737
      -3.511
      -3.155
      -1.881
      -0.462
       0.582
       1.435
       2.583
       4.056
       5.166
       5.083
       3.602
       1.331
      -0.836
      -2.370
      -3.243
      -3.591
      -3.386
      -2.518
      -1.078
       0.582
       2.106
       3.339
       4.194
       4.412
       3.647
       1.904
      -0.184
      -1.640
      -1.811
      -0.827
       0.561
       1.554
       1.752
       1.183
       0.079
      -1.248
      -2.350
      -2.667
      -1.844
      -0.137
       1.560
       2.233
       1.438
      -0.411
      -2.383
      -3.684
      -4.102
      -3.967
      -3.733
      -3.557
      -3.198
      -2.289
      -0.729
       1.125
       2.661
       3.433
       3.462
       3.131
       2.790
       2.442
       1.820
       0.749
      -0.570
      -1.627
      -1.943
      -1.385
      -0.246
       0.935
       1.700
       1.934
       1.890
       1.897
       1.983
       1.779
       0.852
      -0.810
      -2.639
      -3.814
