Origin Time       27/8/2009 16:54:15 
Lat.              30.0 N 
Long.             80.0 E 
Depth (Km)         14.0
Magnitude         3.9
 Region           UTTARAKHAND-INDIA                                                
 Above details taken from IMD 
     
Station Code      MUN
Station Lat.       30.066  N
Station Long.      80.237  E
Station Height(m) 2201.0
Site Class        A   Vs30 between 700 m/sec to 1400 m/sec * 
Record Time       27.08.2009 16:54:12.249
Sampling Rate     200. Hz
 Record Duration   65.165 Sec.
 Direction         E-W (E positive)
Max. Acceleration     -6.460 cm/sec**2
     
  * For reference see Site Classification link of website 
     
 Base Line Corrected and Low Pass Filtered (Cut Off at 35 Hz) Time History
 Acceleration data in cm/sec**2
    
[...]
      -0.018
      -0.015
      -0.010
      -0.006
      -0.004
      -0.004
      -0.004
      -0.006
      -0.008
      -0.013
      -0.016
      -0.018
      -0.016
      -0.011
      -0.007
      -0.004
      -0.004
      -0.003
      -0.003
      -0.002
      -0.003
      -0.006
      -0.010
      -0.013
      -0.012
      -0.011
      -0.009
      -0.010
      -0.014
      -0.019
      -0.024
      -0.027
      -0.024
      -0.016
      -0.004
       0.007
       0.013
       0.014
       0.008
       0.001
      -0.003
      -0.003
       0.000
       0.001
      -0.003
      -0.011
      -0.016
      -0.016
      -0.012
      -0.010
      -0.011
      -0.011
      -0.009
      -0.006
      -0.006
      -0.011
      -0.015
      -0.015
      -0.010
      -0.003
      -0.001
      -0.002
      -0.003
      -0.003
      -0.002
      -0.003
      -0.007
      -0.011
      -0.014
      -0.014
      -0.013
      -0.009
      -0.006
      -0.007
      -0.012
      -0.015
      -0.013
      -0.006
       0.001
       0.003
      -0.001
      -0.007
      -0.009
      -0.005
       0.003
       0.010
       0.012
       0.011
       0.007
       0.004
       0.002
       0.001
       0.000
       0.004
       0.011
       0.018
       0.022
       0.018
       0.010
       0.003
       0.002
       0.004
       0.006
       0.004
       0.001
      -0.002
      -0.005
      -0.008
      -0.011
      -0.011
      -0.007
      -0.001
       0.005
       0.007
       0.007
       0.006
       0.004
       0.001
      -0.004
      -0.008
      -0.007
      -0.001
       0.005
       0.010
       0.012
       0.010
       0.008
       0.007
       0.009
       0.012
       0.015
       0.013
       0.007
      -0.002
      -0.007
      -0.005
       0.004
       0.013
       0.018
       0.018
       0.017
       0.016
       0.015
       0.013
       0.011
       0.010
       0.008
       0.005
       0.001
      -0.003
      -0.004
      -0.003
       0.000
       0.003
       0.005
       0.003
       0.000
       0.000
       0.005
       0.011
       0.012
       0.009
       0.006
       0.008
       0.015
       0.018
       0.014
       0.007
       0.002
       0.003
       0.008
       0.012
       0.012
       0.010
       0.006
       0.005
       0.006
       0.007
       0.007
       0.007
       0.010
       0.016
       0.020
       0.018
       0.011
       0.004
       0.002
       0.004
       0.006
       0.007
       0.007
       0.009
       0.011
       0.013
       0.012
       0.009
       0.006
       0.004
       0.004
       0.007
       0.013
       0.017
       0.015
       0.008
       0.001
      -0.001
       0.004
       0.011
       0.017
       0.020
       0.020
       0.016
       0.008
       0.001
      -0.003
       0.001
       0.011
       0.020
       0.023
       0.019
       0.012
       0.008
       0.008
       0.012
       0.014
       0.010
       0.002
      -0.006
      -0.007
      -0.002
       0.008
       0.017
       0.022
       0.021
       0.016
       0.009
       0.004
       0.000
      -0.003
      -0.002
       0.002
       0.008
       0.012
       0.010
       0.004
      -0.002
      -0.003
       0.000
       0.005
       0.009
       0.008
       0.005
       0.001
      -0.001
       0.000
       0.002
       0.003
       0.002
       0.001
       0.002
       0.004
       0.006
       0.005
       0.002
       0.000
       0.003
       0.008
       0.014
       0.016
       0.015
       0.013
       0.012
       0.012
       0.011
       0.007
       0.003
       0.002
       0.004
       0.007
       0.008
       0.007
       0.005
       0.004
       0.003
       0.002
      -0.002
      -0.004
      -0.003
       0.003
       0.010
       0.014
       0.014
       0.010
       0.007
       0.006
       0.008
       0.012
       0.013
       0.009
       0.002
      -0.004
      -0.003
       0.004
       0.012
       0.016
       0.014
       0.010
       0.008
       0.009
       0.010
       0.010
       0.009
       0.009
       0.008
       0.005
       0.000
      -0.002
       0.002
       0.011
       0.018
       0.019
       0.016
       0.012
       0.010
       0.013
       0.017
       0.022
       0.024
       0.025
       0.030
       0.046
       0.081
       0.128
       0.170
       0.181
       0.139
       0.038
      -0.100
      -0.232
      -0.309
      -0.297
      -0.196
      -0.045
       0.097
       0.179
       0.186
       0.140
       0.082
       0.047
       0.035
       0.019
      -0.023
      -0.084
      -0.126
      -0.117
      -0.054
       0.038
       0.127
       0.187
       0.199
       0.159
       0.083
       0.000
      -0.065
      -0.102
      -0.119
      -0.122
      -0.108
      -0.074
      -0.030
       0.011
       0.042
       0.073
       0.105
       0.117
       0.088
       0.015
      -0.071
      -0.136
      -0.166
      -0.166
      -0.145
      -0.103
      -0.036
       0.066
       0.195
       0.324
       0.402
       0.388
       0.274
       0.089
      -0.121
      -0.311
      -0.433
      -0.437
      -0.299
      -0.049
       0.220
       0.398
       0.417
       0.281
       0.066
      -0.126
      -0.222
      -0.195
      -0.066
       0.101
       0.212
       0.196
       0.058
      -0.110
      -0.194
      -0.146
      -0.011
       0.109
       0.135
       0.058
      -0.074
      -0.193
      -0.243
      -0.186
      -0.034
       0.143
       0.237
       0.179
       0.002
      -0.180
      -0.254
      -0.188
      -0.044
       0.082
       0.125
       0.094
       0.055
       0.065
       0.122
       0.165
       0.139
       0.058
      -0.003
       0.033
       0.174
       0.338
       0.402
       0.293
       0.039
      -0.246
      -0.445
      -0.503
      -0.440
      -0.312
      -0.180
      -0.099
      -0.085
      -0.094
      -0.044
       0.109
       0.316
       0.472
       0.506
       0.422
       0.264
       0.061
      -0.153
      -0.305
      -0.302
      -0.123
       0.119
       0.258
       0.205
       0.015
      -0.192
      -0.338
      -0.412
      -0.421
      -0.350
      -0.184
       0.053
       0.292
       0.461
       0.536
       0.530
       0.453
       0.293
       0.059
      -0.182
      -0.322
      -0.294
      -0.124
       0.083
       0.214
       0.212
       0.100
      -0.049
      -0.167
      -0.229
      -0.242
      -0.212
      -0.137
      -0.037
       0.027
      -0.015
      -0.167
      -0.321
      -0.302
      -0.012
       0.441
       0.781
       0.762
       0.372
      -0.159
      -0.540
      -0.618
      -0.431
      -0.118
       0.188
       0.404
       0.488
       0.427
       0.237
      -0.031
      -0.307
      -0.518
      -0.603
      -0.526
      -0.299
      -0.010
       0.205
       0.249
       0.142
       0.005
      -0.027
       0.091
       0.299
       0.476
       0.520
       0.400
       0.152
      -0.160
      -0.454
      -0.637
      -0.616
      -0.354
       0.079
       0.523
       0.802
       0.804
       0.521
       0.047
      -0.456
      -0.809
      -0.879
      -0.648
      -0.237
       0.142
       0.314
       0.251
       0.083
      -0.019
       0.009
       0.098
       0.136
       0.087
       0.021
       0.040
       0.169
       0.330
       0.399
       0.312
       0.117
      -0.063
      -0.128
      -0.082
      -0.021
      -0.037
      -0.139
      -0.259
      -0.321
      -0.308
      -0.258
      -0.206
      -0.148
      -0.069
       0.015
       0.065
       0.068
       0.059
       0.094
       0.181
       0.271
       0.300
       0.263
       0.212
       0.194
       0.200
       0.173
       0.084
      -0.030
      -0.098
      -0.092
      -0.057
      -0.063
      -0.142
      -0.255
      -0.330
      -0.313
      -0.209
      -0.078
       0.010
       0.020
      -0.024
      -0.059
      -0.025
       0.077
       0.181
       0.211
       0.159
       0.103
       0.124
       0.220
       0.297
       0.255
       0.076
      -0.155
      -0.332
      -0.405
      -0.399
      -0.353
      -0.274
      -0.153
      -0.007
       0.119
       0.191
       0.203
       0.164
       0.091
       0.027
       0.021
       0.086
       0.166
       0.180
       0.094
      -0.046
      -0.155
      -0.178
      -0.121
      -0.027
       0.067
       0.151
       0.223
       0.256
       0.216
       0.091
      -0.084
      -0.244
      -0.345
      -0.381
      -0.373
      -0.338
      -0.265
      -0.137
       0.048
       0.255
       0.428
       0.532
       0.565
       0.541
       0.463
       0.318
       0.099
      -0.170
      -0.422
      -0.564
      -0.520
      -0.307
      -0.051
       0.085
       0.023
      -0.172
      -0.349
      -0.379
      -0.235
       0.019
       0.277
       0.426
       0.383
       0.161
      -0.104
      -0.248
      -0.216
      -0.104
      -0.035
      -0.029
      -0.008
       0.084
       0.201
       0.246
       0.167
       0.020
      -0.071
      -0.007
       0.193
       0.395
       0.455
       0.327
       0.065
      -0.248
      -0.545
      -0.768
      -0.856
      -0.760
      -0.478
      -0.067
       0.371
       0.718
       0.885
       0.842
       0.625
       0.317
       0.019
      -0.177
      -0.233
      -0.193
      -0.154
      -0.178
      -0.220
      -0.175
       0.001
       0.204
       0.260
       0.081
      -0.236
      -0.472
      -0.459
      -0.219
       0.053
       0.149
       0.038
      -0.105
      -0.067
       0.202
       0.533
       0.694
       0.576
       0.257
      -0.090
      -0.331
      -0.430
      -0.428
      -0.378
      -0.307
      -0.219
      -0.112
       0.019
       0.171
       0.316
       0.394
       0.359
       0.214
       0.000
      -0.240
      -0.461
      -0.607
      -0.627
      -0.517
      -0.327
      -0.123
       0.039
       0.137
       0.202
       0.308
       0.502
       0.744
       0.909
       0.864
       0.532
      -0.034
      -0.627
      -0.948
      -0.794
      -0.238
       0.392
       0.737
       0.672
       0.371
       0.121
       0.078
       0.167
       0.196
       0.041
      -0.270
      -0.596
      -0.788
      -0.778
      -0.621
      -0.459
      -0.391
      -0.371
      -0.248
       0.085
       0.550
       0.913
       0.952
       0.620
       0.085
      -0.390
      -0.613
      -0.533
      -0.211
       0.237
       0.659
       0.897
       0.849
       0.528
       0.064
      -0.372
      -0.660
      -0.777
      -0.777
      -0.726
      -0.645
      -0.493
      -0.222
       0.148
       0.515
       0.748
       0.764
       0.577
       0.282
      -0.008
      -0.211
      -0.302
      -0.285
      -0.164
       0.042
       0.259
       0.344
       0.193
      -0.140
      -0.443
      -0.517
      -0.349
      -0.121
      -0.029
      -0.116
      -0.239
      -0.203
       0.057
       0.408
       0.607
       0.508
       0.192
      -0.095
      -0.141
       0.057
       0.305
       0.378
       0.195
      -0.140
      -0.437
      -0.559
      -0.478
      -0.249
       0.036
       0.275
       0.387
       0.343
       0.190
       0.035
      -0.022
       0.038
       0.132
       0.139
      -0.002
      -0.247
      -0.480
      -0.585
      -0.491
      -0.206
       0.185
       0.524
       0.648
       0.479
       0.106
      -0.261
      -0.438
      -0.392
      -0.229
      -0.069
       0.038
       0.110
       0.159
       0.169
       0.123
       0.051
       0.018
       0.064
       0.166
       0.256
       0.274
       0.206
       0.073
      -0.083
      -0.223
      -0.330
      -0.393
      -0.395
      -0.301
      -0.106
       0.123
       0.265
       0.246
       0.101
      -0.066
      -0.192
      -0.285
      -0.360
      -0.374
      -0.251
       0.015
       0.303
       0.436
       0.321
       0.037
      -0.220
      -0.284
      -0.144
       0.077
       0.244
       0.295
       0.245
       0.129
       0.003
      -0.059
       0.005
       0.172
       0.318
       0.316
       0.161
      -0.031
      -0.135
      -0.139
      -0.131
      -0.184
      -0.282
      -0.337
      -0.278
      -0.113
       0.073
       0.174
       0.142
       0.042
       0.005
       0.109
       0.297
       0.432
       0.426
       0.296
       0.103
      -0.123
      -0.383
      -0.635
      -0.750
      -0.597
      -0.196
       0.226
       0.386
       0.207
      -0.107
      -0.249
      -0.099
       0.189
       0.350
       0.241
      -0.065
      -0.368
      -0.482
      -0.352
      -0.066
       0.229
       0.422
       0.473
       0.397
       0.241
       0.078
      -0.040
      -0.142
      -0.335
      -0.705
      -1.195
      -1.595
      -1.664
      -1.282
      -0.508
       0.463
       1.386
       2.036
       2.256
       1.987
       1.281
       0.297
      -0.712
      -1.453
      -1.716
      -1.495
      -0.971
      -0.349
       0.279
       0.906
       1.468
       1.798
       1.750
       1.370
       0.910
       0.635
       0.606
       0.623
       0.411
      -0.087
      -0.566
      -0.551
       0.177
       1.305
       2.145
       2.131
       1.244
      -0.024
      -1.125
      -1.909
      -2.660
      -3.718
      -5.054
      -6.181
      -6.460
      -5.520
      -3.510
      -1.012
       1.273
       2.860
       3.593
       3.546
       2.869
       1.759
       0.516
      -0.476
      -0.906
      -0.669
       0.157
       1.428
       2.967
       4.471
       5.482
       5.578
       4.710
       3.318
       2.022
       1.109
       0.349
      -0.636
      -1.842
      -2.781
      -2.934
      -2.288
      -1.413
      -1.020
      -1.413
      -2.297
      -3.046
      -3.185
      -2.677
      -1.866
      -1.207
      -1.016
      -1.336
      -1.882
      -2.117
      -1.531
      -0.031
       1.895
       3.440
       4.007
       3.575
       2.631
       1.736
       1.114
       0.625
       0.094
      -0.409
      -0.636
      -0.472
      -0.092
       0.211
       0.305
       0.302
       0.390
       0.597
       0.711
       0.399
      -0.557
      -2.058
      -3.636
      -4.631
      -4.498
      -3.110
      -0.853
       1.542
       3.365
       4.243
       4.195
       3.450
       2.240
       0.756
      -0.755
      -1.910
      -2.307
      -1.781
      -0.581
       0.741
       1.686
       2.100
       2.143
       2.002
       1.658
       0.936
      -0.222
      -1.530
      -2.461
      -2.617
      -2.062
      -1.293
      -0.849
      -0.895
      -1.125
      -1.072
      -0.521
       0.302
       0.910
       0.894
       0.177
      -0.947
      -1.949
      -2.292
      -1.700
      -0.336
       1.269
       2.532
       3.145
       3.153
       2.776
       2.184
       1.424
       0.498
      -0.554
      -1.605
      -2.425
      -2.714
      -2.247
      -1.076
       0.406
       1.647
       2.268
       2.257
       1.872
       1.353
       0.725
      -0.101
      -1.040
      -1.733
      -1.797
      -1.207
      -0.372
       0.189
       0.252
      -0.010
      -0.266
      -0.319
      -0.225
      -0.209
      -0.474
      -1.023
      -1.616
      -1.872
      -1.512
      -0.567
       0.601
       1.524
       1.921
       1.827
       1.468
       1.042
       0.614
       0.174
      -0.263
      -0.657
      -0.998
      -1.308
      -1.576
      -1.682
      -1.463
      -0.863
      -0.055
       0.628
       0.925
       0.836
       0.579
       0.356
       0.166
      -0.140
      -0.620
      -1.092
      -1.245
      -0.912
      -0.214
       0.545
       1.127
       1.469
       1.616
       1.596
       1.407
       1.081
       0.729
       0.516
       0.583
       0.957
       1.501
       1.937
       1.961
       1.420
       0.453
      -0.553
      -1.176
      -1.234
      -0.891
      -0.520
      -0.411
      -0.581
      -0.816
      -0.914
      -0.864
      -0.827
      -0.943
      -1.168
      -1.323
      -1.276
      -1.085
      -0.933
      -0.932
      -0.999
      -0.912
      -0.494
       0.231
       1.026
       1.573
       1.659
       1.298
       0.691
       0.079
      -0.371
      -0.575
      -0.477
      -0.063
       0.558
       1.148
       1.444
       1.321
       0.851
       0.242
      -0.305
      -0.674
      -0.840
      -0.828
      -0.688
      -0.485
      -0.306
      -0.232
      -0.305
      -0.507
      -0.755
      -0.954
      -1.049
      -1.048
      -0.988
      -0.878
      -0.649
      -0.154
       0.722
       1.897
       2.980
       3.430
       2.921
       1.630
       0.151
      -0.902
      -1.284
      -1.197
      -1.032
      -1.027
      -1.120
      -1.071
      -0.726
      -0.164
       0.363
       0.644
       0.664
       0.581
       0.559
       0.617
       0.629
       0.455
       0.077
      -0.375
      -0.716
      -0.825
      -0.679
      -0.333
       0.126
       0.587
       0.925
       1.045
       0.937
       0.694
       0.448
       0.289
       0.236
       0.273
       0.362
       0.414
       0.301
      -0.061
      -0.597
      -1.088
      -1.317
      -1.246
      -1.042
      -0.929
      -0.999
      -1.136
      -1.134
      -0.887
      -0.465
      -0.032
       0.296
       0.497
       0.584
       0.573
       0.489
       0.378
       0.286
       0.244
       0.272
       0.409
       0.697
       1.129
       1.613
       1.993
       2.129
       1.970
       1.581
       1.107
       0.684
       0.351
       0.041
      -0.343
      -0.826
      -1.321
      -1.666
      -1.721
      -1.463
      -1.020
      -0.602
      -0.381
      -0.380
      -0.490
      -0.577
      -0.584
      -0.557
      -0.595
      -0.757
      -0.984
      -1.096
      -0.900
      -0.364
       0.318
       0.818
       0.896
       0.560
       0.057
      -0.318
      -0.426
      -0.331
      -0.187
      -0.088
      -0.027
       0.038
       0.120
       0.207
       0.309
       0.462
       0.673
       0.868
       0.928
       0.795
       0.554
       0.392
       0.466
       0.770
       1.120
       1.264
       1.054
       0.550
      -0.023
      -0.444
      -0.656
      -0.773
      -0.926
      -1.098
      -1.131
      -0.888
      -0.416
       0.077
       0.396
       0.483
       0.401
       0.229
      -0.003
      -0.293
      -0.614
      -0.915
      -1.141
      -1.259
      -1.252
      -1.111
      -0.846
      -0.506
      -0.161
       0.131
       0.353
       0.522
       0.658
       0.748
       0.738
       0.590
       0.342
       0.118
       0.044
       0.154
       0.349
       0.480
       0.456
       0.289
       0.055
      -0.178
      -0.370
      -0.485
      -0.460
      -0.248
       0.109
       0.469
       0.683
       0.695
       0.556
       0.338
       0.073
      -0.241
      -0.569
      -0.811
      -0.847
      -0.631
      -0.241
       0.156
       0.416
       0.505
       0.478
       0.384
       0.224
      -0.006
      -0.240
