Origin Time       27/8/2009 16:54:15 
Lat.              30.0 N 
Long.             80.0 E 
Depth (Km)         14.0
Magnitude         3.9
 Region           UTTARAKHAND-INDIA                                                
 Above details taken from IMD 
   
Station Code      MUN
Station Lat.       30.066
Station Long.      80.237
Station Height(m) 2201.0
Site Class        A   Vs30 between 700 m/sec to 1400 m/sec * 
Record Time       27.08.2009 16:54:12.249
Sampling Rate     200. Hz
 Record Duration   65.165 Sec.
 Direction         Vert. (Up positive)
Max. Acceleration     -4.475 cm/sec**2
     
  * For reference see Site Classification link of website 
     
 Base Line Corrected and Low Pass Filtered (Cut Off at 35 Hz) Time History
 Acceleration data in cm/sec**2
    
[...]
       0.002
       0.004
       0.004
      -0.001
      -0.008
      -0.014
      -0.016
      -0.012
      -0.005
       0.001
       0.003
       0.000
      -0.006
      -0.012
      -0.015
      -0.013
      -0.010
      -0.007
      -0.006
      -0.004
       0.001
       0.006
       0.007
       0.002
      -0.005
      -0.009
      -0.007
      -0.001
       0.002
       0.003
       0.001
      -0.001
       0.001
       0.003
       0.004
       0.002
      -0.002
      -0.003
      -0.002
       0.000
       0.001
      -0.001
      -0.006
      -0.010
      -0.011
      -0.010
      -0.008
      -0.006
      -0.006
      -0.006
      -0.006
      -0.005
       0.000
       0.004
       0.005
       0.003
      -0.002
      -0.005
      -0.004
      -0.002
      -0.001
       0.000
       0.000
       0.003
       0.005
       0.007
       0.005
       0.003
       0.002
       0.002
       0.003
       0.004
       0.003
       0.001
       0.001
       0.002
       0.002
      -0.001
      -0.007
      -0.012
      -0.012
      -0.008
      -0.002
       0.000
      -0.002
      -0.004
      -0.005
      -0.004
      -0.002
      -0.001
      -0.002
      -0.002
      -0.002
       0.000
       0.000
      -0.003
      -0.007
      -0.008
      -0.006
       0.000
       0.004
       0.004
       0.000
      -0.003
      -0.002
       0.001
       0.004
       0.003
      -0.003
      -0.009
      -0.010
      -0.007
      -0.004
      -0.002
      -0.004
      -0.006
      -0.007
      -0.007
      -0.007
      -0.010
      -0.012
      -0.011
      -0.005
       0.004
       0.011
       0.013
       0.011
       0.007
       0.003
       0.002
       0.001
       0.001
       0.001
       0.004
       0.007
       0.009
       0.009
       0.007
       0.005
       0.004
       0.005
       0.006
       0.005
       0.001
      -0.004
      -0.007
      -0.007
      -0.004
      -0.002
      -0.003
      -0.005
      -0.006
      -0.004
       0.000
       0.002
       0.000
      -0.004
      -0.007
      -0.006
      -0.004
      -0.001
       0.001
       0.003
       0.004
       0.002
       0.000
      -0.002
      -0.003
      -0.004
      -0.004
      -0.004
      -0.004
      -0.006
      -0.008
      -0.011
      -0.012
      -0.011
      -0.010
      -0.009
      -0.006
      -0.003
      -0.001
      -0.001
      -0.005
      -0.010
      -0.011
      -0.008
      -0.003
      -0.002
      -0.005
      -0.011
      -0.014
      -0.010
      -0.001
       0.009
       0.015
       0.014
       0.008
       0.003
       0.002
       0.004
       0.005
       0.003
      -0.002
      -0.005
      -0.004
      -0.002
      -0.001
      -0.003
      -0.005
      -0.006
      -0.004
      -0.003
      -0.002
      -0.001
       0.001
       0.005
       0.007
       0.004
      -0.002
      -0.007
      -0.007
      -0.003
       0.000
       0.000
      -0.003
      -0.006
      -0.006
      -0.002
       0.003
       0.005
       0.004
       0.001
      -0.003
      -0.006
      -0.006
      -0.005
      -0.002
       0.000
       0.002
       0.002
       0.003
       0.002
       0.000
      -0.001
       0.001
       0.006
       0.012
       0.014
       0.009
       0.002
      -0.002
      -0.001
       0.004
       0.009
       0.009
       0.006
       0.004
       0.007
       0.010
       0.009
       0.005
       0.000
      -0.001
       0.002
       0.007
       0.009
       0.006
       0.001
      -0.005
      -0.008
      -0.009
      -0.007
      -0.004
      -0.001
       0.002
       0.001
      -0.003
      -0.006
      -0.006
      -0.001
       0.004
       0.006
       0.002
      -0.003
      -0.006
      -0.006
      -0.004
      -0.004
      -0.005
      -0.005
      -0.002
       0.003
       0.007
       0.007
       0.004
      -0.001
      -0.004
      -0.005
      -0.002
       0.001
       0.002
       0.001
       0.000
       0.000
       0.001
       0.001
       0.000
      -0.001
       0.000
       0.002
       0.005
       0.004
       0.001
      -0.002
      -0.004
      -0.001
       0.002
       0.004
       0.001
      -0.005
      -0.010
      -0.009
      -0.002
       0.006
       0.009
       0.004
      -0.004
      -0.010
      -0.009
      -0.003
       0.003
       0.001
      -0.005
      -0.010
      -0.006
       0.005
       0.013
       0.014
       0.007
      -0.001
      -0.004
       0.002
       0.013
       0.027
       0.049
       0.087
       0.158
       0.268
       0.400
       0.504
       0.510
       0.358
       0.042
      -0.366
      -0.739
      -0.937
      -0.878
      -0.579
      -0.157
       0.212
       0.381
       0.301
       0.048
      -0.219
      -0.353
      -0.297
      -0.108
       0.100
       0.228
       0.242
       0.172
       0.081
       0.028
       0.037
       0.088
       0.135
       0.130
       0.060
      -0.047
      -0.139
      -0.173
      -0.138
      -0.059
       0.013
       0.026
      -0.034
      -0.118
      -0.140
      -0.040
       0.165
       0.387
       0.527
       0.515
       0.338
       0.032
      -0.305
      -0.540
      -0.566
      -0.365
      -0.025
       0.314
       0.527
       0.547
       0.366
       0.033
      -0.357
      -0.689
      -0.876
      -0.895
      -0.757
      -0.474
      -0.043
       0.490
       0.966
       1.153
       0.904
       0.301
      -0.357
      -0.748
      -0.712
      -0.303
       0.295
       0.872
       1.233
       1.212
       0.719
      -0.155
      -1.087
      -1.633
      -1.496
      -0.740
       0.214
       0.837
       0.813
       0.230
      -0.502
      -0.931
      -0.843
      -0.325
       0.350
       0.899
       1.132
       0.990
       0.558
       0.048
      -0.289
      -0.322
      -0.143
      -0.007
      -0.124
      -0.472
      -0.816
      -0.898
      -0.631
      -0.147
       0.306
       0.534
       0.495
       0.306
       0.156
       0.188
       0.391
       0.603
       0.621
       0.370
      -0.039
      -0.403
      -0.596
      -0.634
      -0.604
      -0.544
      -0.417
      -0.197
       0.055
       0.234
       0.286
       0.241
       0.146
      -0.010
      -0.243
      -0.465
      -0.461
      -0.055
       0.696
       1.459
       1.792
       1.420
       0.418
      -0.816
      -1.766
      -2.069
      -1.651
      -0.695
       0.500
       1.602
       2.257
       2.145
       1.164
      -0.366
      -1.742
      -2.279
      -1.780
      -0.666
       0.388
       0.959
       1.058
       0.897
       0.580
       0.055
      -0.658
      -1.294
      -1.470
      -1.011
      -0.130
       0.730
       1.192
       1.116
       0.571
      -0.237
      -0.981
      -1.280
      -0.888
       0.085
       1.159
       1.746
       1.520
       0.594
      -0.596
      -1.548
      -1.903
      -1.548
      -0.631
       0.488
       1.385
       1.761
       1.567
       0.963
       0.186
      -0.544
      -1.033
      -1.125
      -0.803
      -0.252
       0.233
       0.460
       0.457
       0.376
       0.300
       0.184
      -0.041
      -0.331
      -0.529
      -0.495
      -0.246
       0.055
       0.226
       0.199
       0.060
      -0.036
       0.012
       0.164
       0.268
       0.212
       0.058
      -0.017
       0.076
       0.205
       0.135
      -0.218
      -0.658
      -0.854
      -0.635
      -0.148
       0.268
       0.392
       0.291
       0.197
       0.212
       0.195
      -0.051
      -0.481
      -0.766
      -0.573
       0.098
       0.852
       1.194
       0.912
       0.210
      -0.472
      -0.770
      -0.594
      -0.111
       0.396
       0.692
       0.664
       0.338
      -0.155
      -0.609
      -0.815
      -0.658
      -0.202
       0.303
       0.553
       0.389
      -0.073
      -0.505
      -0.599
      -0.286
       0.219
       0.594
       0.640
       0.378
      -0.021
      -0.372
      -0.535
      -0.429
      -0.068
       0.389
       0.680
       0.611
       0.208
      -0.292
      -0.613
      -0.623
      -0.379
      -0.052
       0.187
       0.237
       0.087
      -0.185
      -0.437
      -0.519
      -0.369
      -0.064
       0.223
       0.359
       0.345
       0.281
       0.242
       0.203
       0.085
      -0.123
      -0.294
      -0.250
       0.071
       0.508
       0.769
       0.651
       0.192
      -0.351
      -0.676
      -0.632
      -0.299
       0.083
       0.312
       0.358
       0.328
       0.298
       0.210
      -0.056
      -0.488
      -0.870
      -0.922
      -0.555
       0.029
       0.488
       0.612
       0.437
       0.149
      -0.096
      -0.245
      -0.298
      -0.255
      -0.130
       0.015
       0.101
       0.106
       0.092
       0.137
       0.229
       0.274
       0.204
       0.081
       0.040
       0.148
       0.309
       0.348
       0.167
      -0.189
      -0.605
      -0.970
      -1.171
      -1.063
      -0.536
       0.331
       1.202
       1.639
       1.409
       0.679
      -0.107
      -0.567
      -0.615
      -0.403
      -0.120
       0.138
       0.331
       0.403
       0.275
      -0.075
      -0.539
      -0.913
      -1.014
      -0.793
      -0.337
       0.206
       0.688
       0.969
       0.942
       0.598
       0.076
      -0.386
      -0.587
      -0.503
      -0.307
      -0.241
      -0.399
      -0.621
      -0.601
      -0.182
       0.464
       0.942
       0.961
       0.577
       0.119
      -0.131
      -0.167
      -0.187
      -0.334
      -0.528
      -0.547
      -0.259
       0.240
       0.693
       0.877
       0.739
       0.370
      -0.097
      -0.530
      -0.761
      -0.617
      -0.092
       0.524
       0.774
       0.399
      -0.399
      -1.062
      -1.097
      -0.451
       0.468
       1.119
       1.198
       0.763
       0.097
      -0.507
      -0.873
      -0.947
      -0.752
      -0.347
       0.186
       0.712
       1.029
       0.949
       0.466
      -0.163
      -0.554
      -0.496
      -0.127
       0.185
       0.155
      -0.167
      -0.466
      -0.486
      -0.288
      -0.166
      -0.304
      -0.559
      -0.586
      -0.171
       0.570
       1.261
       1.531
       1.258
       0.614
      -0.104
      -0.690
      -1.080
      -1.226
      -1.004
      -0.338
       0.571
       1.211
       1.095
       0.241
      -0.722
      -1.039
      -0.506
       0.325
       0.658
       0.193
      -0.642
      -1.130
      -0.922
      -0.273
       0.275
       0.433
       0.369
       0.441
       0.744
       0.957
       0.668
      -0.173
      -1.098
      -1.456
      -0.948
       0.108
       1.030
       1.338
       1.084
       0.658
       0.312
      -0.062
      -0.655
      -1.318
      -1.544
      -0.954
       0.201
       1.146
       1.264
       0.672
       0.069
       0.001
       0.345
       0.507
       0.093
      -0.699
      -1.314
      -1.383
      -0.996
      -0.470
       0.020
       0.515
       1.026
       1.323
       1.072
       0.212
      -0.844
      -1.419
      -1.054
       0.117
       1.390
       1.935
       1.348
      -0.068
      -1.478
      -2.049
      -1.468
      -0.112
       1.245
       1.934
       1.735
       0.869
      -0.242
      -1.183
      -1.642
      -1.497
      -0.915
      -0.319
      -0.096
      -0.260
      -0.414
      -0.129
       0.597
       1.268
       1.336
       0.713
      -0.152
      -0.667
      -0.549
       0.039
       0.676
       0.972
       0.748
       0.086
      -0.710
      -1.242
      -1.208
      -0.586
       0.317
       1.019
       1.153
       0.676
      -0.124
      -0.826
      -1.120
      -0.957
      -0.504
       0.000
       0.383
       0.569
       0.559
       0.393
       0.143
      -0.084
      -0.167
      -0.049
       0.181
       0.321
       0.233
      -0.007
      -0.188
      -0.192
      -0.108
      -0.102
      -0.208
      -0.293
      -0.248
      -0.137
      -0.126
      -0.236
      -0.253
       0.052
       0.613
       1.045
       0.976
       0.396
      -0.298
      -0.635
      -0.459
      -0.020
       0.287
       0.269
       0.023
      -0.258
      -0.480
      -0.633
      -0.656
      -0.456
      -0.064
       0.276
       0.296
       0.001
      -0.264
      -0.127
       0.414
       0.928
       0.945
       0.411
      -0.230
      -0.430
      -0.033
       0.588
       0.887
       0.644
       0.121
      -0.276
      -0.421
      -0.494
      -0.634
      -0.698
      -0.453
       0.065
       0.472
       0.393
      -0.133
      -0.664
      -0.804
      -0.587
      -0.358
      -0.310
      -0.257
       0.062
       0.526
       0.614
      -0.050
      -1.152
      -1.755
      -1.040
       0.905
       2.983
       3.825
       2.809
       0.534
      -1.637
      -2.560
      -1.993
      -0.531
       0.971
       1.895
       1.965
       1.162
      -0.260
      -1.653
      -2.141
      -1.196
       0.766
       2.432
       2.478
       0.640
      -1.963
      -3.616
      -3.289
      -1.351
       0.837
       2.029
       1.919
       1.047
       0.082
      -0.754
      -1.609
      -2.518
      -3.093
      -2.750
      -1.263
       0.899
       2.829
       3.827
       3.876
       3.489
       3.090
       2.539
       1.322
      -0.749
      -3.053
      -4.475
      -4.290
      -2.786
      -1.007
       0.137
       0.545
       0.804
       1.454
       2.390
       2.920
       2.395
       0.812
      -1.144
      -2.640
      -3.289
      -3.273
      -2.954
      -2.437
      -1.531
      -0.089
       1.665
       3.186
       3.945
       3.729
       2.687
       1.207
      -0.224
      -1.156
      -1.336
      -0.877
      -0.262
      -0.088
      -0.642
      -1.606
      -2.227
      -1.945
      -0.961
      -0.133
      -0.153
      -0.791
      -1.050
      -0.200
       1.336
       2.242
       1.565
      -0.284
      -1.833
      -1.859
      -0.419
       1.331
       2.229
       1.972
       1.074
       0.208
      -0.236
      -0.121
       0.570
       1.569
       2.197
       1.767
       0.319
      -1.162
      -1.508
      -0.448
       1.106
       1.839
       1.124
      -0.603
      -2.337
      -3.270
      -3.148
      -2.101
      -0.403
       1.556
       3.202
       3.941
       3.507
       2.122
       0.290
      -1.519
      -2.924
      -3.526
      -3.006
      -1.501
       0.181
       0.979
       0.431
      -0.805
      -1.408
      -0.543
       1.324
       2.790
       2.749
       1.324
      -0.414
      -1.553
      -2.092
      -2.572
      -3.113
      -3.051
      -1.659
       0.832
       3.138
       3.974
       3.162
       1.634
       0.425
      -0.223
      -0.778
      -1.629
      -2.527
      -2.776
      -1.892
      -0.053
       1.963
       3.204
       3.032
       1.447
      -0.845
      -2.738
      -3.316
      -2.372
      -0.470
       1.448
       2.585
       2.632
       1.838
       0.856
       0.367
       0.608
       1.117
       1.076
       0.102
      -1.222
      -1.761
      -0.912
       0.712
       1.776
       1.446
       0.109
      -1.069
      -1.219
      -0.427
       0.538
       1.005
       0.861
       0.381
      -0.169
      -0.697
      -1.190
      -1.626
      -1.945
      -2.008
      -1.586
      -0.556
       0.801
       1.777
       1.697
       0.504
      -1.120
      -2.266
      -2.469
      -1.939
      -1.206
      -0.618
      -0.170
       0.304
       0.885
       1.498
       1.975
       2.138
       1.896
       1.341
       0.733
       0.318
       0.126
      -0.008
      -0.190
      -0.301
      -0.167
       0.115
       0.143
      -0.334
      -0.992
      -1.132
      -0.425
       0.625
       1.116
       0.682
      -0.131
      -0.484
      -0.177
       0.189
      -0.026
      -0.703
      -1.072
      -0.594
       0.394
       0.993
       0.663
      -0.230
      -0.833
      -0.674
      -0.074
       0.279
       0.064
      -0.405
      -0.587
      -0.288
       0.161
       0.248
      -0.238
      -1.017
      -1.510
      -1.246
      -0.193
       1.161
       2.086
       2.137
       1.540
       1.053
       1.290
       2.101
       2.616
       1.991
       0.203
      -1.808
      -2.811
      -2.223
      -0.523
       1.172
       1.947
       1.633
       0.685
      -0.334
      -1.143
      -1.753
      -2.229
      -2.523
      -2.526
      -2.205
      -1.651
      -0.996
      -0.326
       0.318
       0.868
       1.188
       1.152
       0.764
       0.197
      -0.293
      -0.496
      -0.300
       0.289
       1.142
       1.984
       2.463
       2.325
       1.599
       0.617
      -0.183
      -0.540
      -0.517
      -0.398
      -0.435
      -0.675
      -0.941
      -0.966
      -0.572
       0.194
       1.053
       1.632
       1.637
       0.991
      -0.122
      -1.326
      -2.225
      -2.603
      -2.497
      -2.099
      -1.567
      -0.939
      -0.221
       0.460
       0.852
       0.780
       0.356
      -0.086
      -0.300
      -0.342
      -0.433
      -0.616
      -0.624
      -0.157
       0.694
       1.394
       1.399
       0.701
      -0.105
      -0.342
       0.142
       0.909
       1.406
       1.458
       1.286
       1.129
       0.952
       0.552
      -0.092
      -0.658
      -0.729
      -0.238
       0.383
       0.538
       0.008
      -0.825
      -1.302
      -1.059
      -0.345
       0.203
       0.114
      -0.493
      -1.000
      -0.821
       0.065
       1.075
       1.503
       1.094
       0.209
      -0.519
      -0.704
      -0.472
      -0.259
      -0.361
      -0.662
      -0.752
      -0.323
       0.552
       1.448
       1.899
       1.726
       1.118
       0.427
      -0.107
      -0.460
      -0.710
      -0.876
      -0.901
      -0.765
      -0.540
      -0.323
      -0.137
       0.059
       0.253
       0.319
       0.104
      -0.388
      -0.905
      -1.080
      -0.720
       0.004
       0.613
       0.638
      -0.043
      -1.078
      -1.840
      -1.820
      -0.952
       0.330
       1.331
       1.522
       0.877
      -0.095
      -0.709
      -0.582
       0.117
       0.849
       1.140
       0.917
       0.468
       0.145
       0.088
       0.199
       0.290
       0.227
       0.001
      -0.281
      -0.418
      -0.201
       0.428
       1.250
       1.815
       1.694
       0.786
      -0.556
      -1.703
      -2.132
      -1.741
      -0.886
      -0.112
       0.231
       0.192
       0.104
       0.241
       0.576
       0.837
       0.785
       0.430
       0.001
      -0.285
      -0.394
      -0.455
      -0.601
      -0.839
      -1.061
      -1.124
      -0.919
      -0.451
       0.103
       0.439
       0.355
      -0.010
      -0.220
       0.085
       0.816
       1.453
       1.485
       0.851
      -0.031
      -0.639
      -0.740
      -0.462
      -0.072
       0.243
       0.410
       0.412
       0.291
       0.186
       0.272
       0.597
       0.980
       1.105
       0.761
       0.040
