Origin Time       15/06/2011 00:59:28
Lat.              30.6 N	
Long.             80.1 E	
Depth (Km)         10.0
Magnitude         3.4
 Region           Pithoragarh-Uttarakhand                                          
 Above details taken from IMD 
   
Station Code      MUN
Station Lat.       30.066
Station Long.      80.237
Station Height(m) 2201.0
Site Class        A   Vs30 between 700 m/sec to 1400 m/sec * 
Record Time       15.06.2011 00:59:16.779
Sampling Rate     200. Hz
 Record Duration   65.515 Sec.
 Direction         Vert. (Up positive)
Max. Acceleration     -9.836 cm/sec**2
     
  * For reference see Site Classification link of website 
     
 Base Line Corrected and Low Pass Filtered (Cut Off at 35 Hz) Time History
 Acceleration data in cm/sec**2
    
[...]
      -0.004
      -0.003
       0.000
       0.004
       0.006
       0.004
       0.001
      -0.003
      -0.005
      -0.006
      -0.008
      -0.010
      -0.012
      -0.012
      -0.010
      -0.007
      -0.004
      -0.002
       0.001
       0.003
       0.006
       0.007
       0.007
       0.002
      -0.006
      -0.015
      -0.019
      -0.019
      -0.012
      -0.003
       0.004
       0.006
       0.004
       0.000
      -0.002
      -0.003
      -0.002
      -0.002
      -0.002
      -0.002
       0.000
       0.003
       0.006
       0.006
       0.002
      -0.005
      -0.009
      -0.008
      -0.002
       0.005
       0.006
      -0.002
      -0.014
      -0.019
      -0.013
       0.001
       0.013
       0.016
       0.009
      -0.002
      -0.010
      -0.013
      -0.012
      -0.010
      -0.006
      -0.004
      -0.003
      -0.004
      -0.004
      -0.001
       0.004
       0.007
       0.004
      -0.001
      -0.006
      -0.006
      -0.004
      -0.001
       0.003
       0.008
       0.015
       0.021
       0.022
       0.018
       0.011
       0.006
       0.005
       0.004
       0.002
      -0.003
      -0.007
      -0.007
      -0.003
       0.001
       0.003
       0.003
       0.003
       0.004
       0.006
       0.007
       0.006
       0.004
       0.000
      -0.005
      -0.011
      -0.014
      -0.012
      -0.005
       0.003
       0.009
       0.011
       0.009
       0.004
       0.000
       0.000
       0.003
       0.004
       0.002
      -0.003
      -0.005
      -0.004
      -0.001
       0.001
       0.000
      -0.001
       0.001
       0.006
       0.011
       0.011
       0.006
       0.000
      -0.001
       0.003
       0.011
       0.017
       0.018
       0.013
       0.005
      -0.002
      -0.005
      -0.005
      -0.005
      -0.004
      -0.002
       0.003
       0.010
       0.014
       0.011
       0.003
      -0.003
      -0.004
      -0.003
      -0.003
      -0.007
      -0.012
      -0.014
      -0.009
      -0.002
       0.004
       0.006
       0.005
       0.002
      -0.002
      -0.007
      -0.009
      -0.007
      -0.001
       0.005
       0.005
      -0.001
      -0.008
      -0.013
      -0.012
      -0.004
       0.007
       0.014
       0.015
       0.010
       0.003
      -0.002
      -0.004
      -0.003
      -0.001
       0.001
       0.003
       0.004
       0.004
       0.005
       0.003
       0.001
      -0.003
      -0.004
      -0.001
       0.003
       0.006
       0.007
       0.008
       0.009
       0.009
       0.008
       0.003
      -0.001
      -0.003
       0.000
       0.005
       0.008
       0.008
       0.004
       0.001
       0.002
       0.007
       0.013
       0.016
       0.015
       0.012
       0.008
       0.006
       0.004
       0.001
       0.000
      -0.002
      -0.004
      -0.006
      -0.006
      -0.001
       0.005
       0.011
       0.013
       0.012
       0.011
       0.011
       0.009
       0.004
      -0.006
      -0.016
      -0.020
      -0.019
      -0.014
      -0.008
      -0.002
       0.002
       0.004
       0.004
       0.003
       0.002
       0.005
       0.007
       0.009
       0.009
       0.009
       0.011
       0.013
       0.011
       0.005
       0.000
       0.003
       0.015
       0.024
       0.016
      -0.009
      -0.026
       0.005
       0.089
       0.177
       0.175
       0.026
      -0.235
      -0.483
      -0.592
      -0.517
      -0.290
       0.042
       0.455
       0.908
       1.266
       1.312
       0.888
       0.054
      -0.891
      -1.569
      -1.724
      -1.316
      -0.484
       0.517
       1.356
       1.705
       1.376
       0.459
      -0.666
      -1.496
      -1.669
      -1.156
      -0.255
       0.596
       1.048
       1.001
       0.604
       0.127
      -0.228
      -0.427
      -0.518
      -0.498
      -0.294
       0.090
       0.481
       0.647
       0.504
       0.197
      -0.061
      -0.180
      -0.214
      -0.216
      -0.154
       0.007
       0.177
       0.186
      -0.044
      -0.372
      -0.532
      -0.356
       0.081
       0.513
       0.682
       0.491
       0.036
      -0.482
      -0.847
      -0.908
      -0.630
      -0.106
       0.479
       0.933
       1.117
       0.996
       0.628
       0.132
      -0.357
      -0.705
      -0.817
      -0.673
      -0.355
      -0.002
       0.272
       0.427
       0.466
       0.380
       0.153
      -0.172
      -0.461
      -0.538
      -0.305
       0.159
       0.608
       0.752
       0.441
      -0.213
      -0.879
      -1.185
      -0.937
      -0.259
       0.456
       0.802
       0.652
       0.213
      -0.189
      -0.356
      -0.285
      -0.085
       0.105
       0.183
       0.136
       0.040
      -0.002
       0.062
       0.184
       0.240
       0.142
      -0.043
      -0.139
      -0.032
       0.202
       0.381
       0.368
       0.145
      -0.216
      -0.574
      -0.769
      -0.710
      -0.442
      -0.089
       0.249
       0.534
       0.733
       0.776
       0.593
       0.201
      -0.223
      -0.420
      -0.251
       0.150
       0.438
       0.328
      -0.175
      -0.768
      -1.059
      -0.867
      -0.364
       0.079
       0.228
       0.142
       0.021
      -0.017
       0.027
       0.142
       0.341
       0.572
       0.656
       0.403
      -0.173
      -0.742
      -0.866
      -0.389
       0.371
       0.879
       0.828
       0.324
      -0.289
      -0.717
      -0.832
      -0.616
      -0.114
       0.530
       1.040
       1.119
       0.679
      -0.040
      -0.635
      -0.837
      -0.671
      -0.351
      -0.055
       0.178
       0.360
       0.446
       0.344
       0.041
      -0.328
      -0.561
      -0.544
      -0.331
      -0.088
       0.029
      -0.011
      -0.097
      -0.061
       0.177
       0.524
       0.762
       0.713
       0.382
      -0.025
      -0.262
      -0.250
      -0.139
      -0.159
      -0.379
      -0.624
      -0.613
      -0.209
       0.443
       0.992
       1.127
       0.783
       0.155
      -0.468
      -0.893
      -1.090
      -1.097
      -0.924
      -0.554
      -0.035
       0.458
       0.700
       0.598
       0.324
       0.191
       0.369
       0.686
       0.764
       0.366
      -0.353
      -0.943
      -1.019
      -0.579
       0.019
       0.409
       0.524
       0.546
       0.584
       0.506
       0.129
      -0.453
      -0.834
      -0.630
       0.106
       0.849
       1.027
       0.522
      -0.230
      -0.661
      -0.570
      -0.243
      -0.097
      -0.259
      -0.491
      -0.490
      -0.235
      -0.019
      -0.126
      -0.497
      -0.728
      -0.451
       0.304
       1.123
       1.557
       1.425
       0.866
       0.191
      -0.301
      -0.477
      -0.422
      -0.332
      -0.346
      -0.452
      -0.531
      -0.459
      -0.208
       0.120
       0.355
       0.373
       0.176
      -0.115
      -0.292
      -0.152
       0.336
       0.913
       1.161
       0.837
       0.085
      -0.693
      -1.153
      -1.208
      -0.973
      -0.590
      -0.123
       0.396
       0.851
       1.028
       0.775
       0.186
      -0.413
      -0.694
      -0.567
      -0.215
       0.076
       0.150
       0.082
       0.067
       0.210
       0.435
       0.579
       0.534
       0.292
      -0.073
      -0.436
      -0.666
      -0.700
      -0.573
      -0.361
      -0.096
       0.227
       0.560
       0.765
       0.721
       0.451
       0.116
      -0.144
      -0.327
      -0.522
      -0.739
      -0.838
      -0.650
      -0.168
       0.399
       0.775
       0.840
       0.684
       0.463
       0.224
      -0.089
      -0.490
      -0.857
      -0.982
      -0.733
      -0.166
       0.478
       0.897
       0.899
       0.514
      -0.014
      -0.369
      -0.362
      -0.056
       0.266
       0.321
       0.055
      -0.320
      -0.529
      -0.445
      -0.124
       0.282
       0.592
       0.647
       0.391
      -0.061
      -0.474
      -0.657
      -0.583
      -0.357
      -0.077
       0.236
       0.569
       0.809
       0.766
       0.344
      -0.324
      -0.935
      -1.196
      -0.967
      -0.327
       0.456
       1.038
       1.166
       0.806
       0.154
      -0.471
      -0.779
      -0.639
      -0.143
       0.454
       0.849
       0.830
       0.378
      -0.310
      -0.907
      -1.127
      -0.879
      -0.307
       0.303
       0.695
       0.771
       0.588
       0.244
      -0.195
      -0.651
      -0.954
      -0.886
      -0.354
       0.464
       1.166
       1.370
       0.988
       0.286
      -0.345
      -0.681
      -0.765
      -0.730
      -0.618
      -0.375
       0.004
       0.386
       0.613
       0.686
       0.755
       0.861
       0.759
       0.142
      -0.906
      -1.783
      -1.824
      -0.892
       0.442
       1.315
       1.221
       0.395
      -0.414
      -0.606
      -0.224
       0.187
       0.165
      -0.262
      -0.680
      -0.711
      -0.326
       0.211
       0.647
       0.950
       1.192
       1.266
       0.893
      -0.010
      -1.046
      -1.559
      -1.217
      -0.368
       0.243
       0.160
      -0.353
      -0.604
      -0.212
       0.508
       0.914
       0.710
       0.178
      -0.203
      -0.243
      -0.125
      -0.092
      -0.124
       0.055
       0.619
       1.333
       1.646
       1.131
      -0.134
      -1.561
      -2.420
      -2.298
      -1.344
      -0.127
       0.771
       1.096
       0.957
       0.627
       0.321
       0.130
       0.061
       0.090
       0.161
       0.168
       0.015
      -0.268
      -0.498
      -0.482
      -0.221
       0.059
       0.095
      -0.145
      -0.384
      -0.261
       0.306
       0.995
       1.351
       1.177
       0.654
       0.070
      -0.483
      -1.109
      -1.814
      -2.274
      -1.998
      -0.820
       0.770
       1.882
       1.938
       1.151
       0.280
      -0.066
       0.108
       0.340
       0.222
      -0.242
      -0.730
      -0.940
      -0.840
      -0.586
      -0.300
       0.022
       0.419
       0.837
       1.125
       1.121
       0.769
       0.183
      -0.413
      -0.836
      -1.034
      -1.010
      -0.711
      -0.108
       0.608
       1.022
       0.834
       0.191
      -0.364
      -0.333
       0.332
       1.161
       1.493
       0.936
      -0.349
      -1.739
      -2.527
      -2.311
      -1.224
       0.135
       1.078
       1.286
       0.940
       0.439
       0.092
       0.045
       0.328
       0.791
       1.109
       0.990
       0.395
      -0.454
      -1.235
      -1.683
      -1.676
      -1.251
      -0.553
       0.229
       0.892
       1.275
       1.329
       1.123
       0.723
       0.139
      -0.568
      -1.198
      -1.501
      -1.367
      -0.889
      -0.269
       0.315
       0.797
       1.209
       1.570
       1.777
       1.653
       1.135
       0.373
      -0.380
      -0.973
      -1.428
      -1.835
      -2.177
      -2.241
      -1.735
      -0.565
       0.941
       2.146
       2.501
       1.924
       0.848
      -0.091
      -0.473
      -0.319
       0.033
       0.254
       0.238
       0.026
      -0.348
      -0.867
      -1.398
      -1.660
      -1.371
      -0.483
       0.692
       1.600
       1.817
       1.373
       0.692
       0.168
      -0.153
      -0.479
      -0.893
      -1.169
      -0.987
      -0.293
       0.578
       1.146
       1.159
       0.734
       0.175
      -0.287
      -0.570
      -0.659
      -0.556
      -0.311
      -0.001
       0.323
       0.608
       0.704
       0.401
      -0.326
      -1.145
      -1.505
      -1.049
       0.045
       1.096
       1.395
       0.772
      -0.233
      -0.832
      -0.678
      -0.082
       0.410
       0.616
       0.802
       1.227
       1.706
       1.717
       0.941
      -0.372
      -1.575
      -2.127
      -1.902
      -1.108
      -0.030
       1.042
       1.705
       1.473
       0.118
      -1.957
      -3.762
      -4.257
      -3.017
      -0.528
       2.068
       3.607
       3.557
       2.265
       0.636
      -0.494
      -0.828
      -0.638
      -0.397
      -0.333
      -0.255
       0.182
       1.048
       1.977
       2.443
       2.173
       1.343
       0.397
      -0.326
      -0.836
      -1.389
      -2.134
      -2.879
      -3.211
      -2.855
      -1.906
      -0.743
       0.262
       0.966
       1.447
       1.818
       2.053
       1.997
       1.550
       0.824
       0.047
      -0.693
      -1.469
      -2.222
      -2.592
      -2.222
      -1.199
      -0.040
       0.781
       1.228
       1.625
       2.251
       3.016
       3.503
       3.335
       2.522
       1.385
       0.146
      -1.316
      -3.168
      -5.098
      -6.206
      -5.586
      -3.163
       0.037
       2.543
       3.480
       3.057
       2.098
       1.238
       0.561
      -0.139
      -0.871
      -1.228
      -0.662
       0.898
       2.666
       3.390
       2.300
      -0.212
      -2.789
      -4.044
      -3.527
      -2.005
      -0.778
      -0.579
      -1.057
      -1.230
      -0.335
       1.738
       4.478
       6.940
       7.989
       6.766
       3.210
      -1.719
      -6.401
      -9.333
      -9.836
      -8.202
      -5.232
      -1.655
       2.028
       5.286
       7.398
       7.745
       6.321
       3.918
       1.667
       0.213
      -0.748
      -2.086
      -4.260
      -6.611
      -7.642
      -6.190
      -2.549
       1.556
       4.282
       5.028
       4.506
       3.636
       2.650
       1.319
      -0.249
      -1.333
      -1.207
       0.025
       1.297
       1.413
       0.113
      -1.689
      -2.791
      -2.784
      -2.247
      -1.969
      -2.048
      -1.742
      -0.228
       2.357
       4.614
       4.811
       2.382
      -1.395
      -4.222
      -4.411
      -2.023
       1.241
       3.226
       2.766
       0.371
      -2.263
      -3.434
      -2.454
       0.069
       2.696
       4.109
       3.925
       2.771
       1.559
       0.687
      -0.098
      -1.191
      -2.544
      -3.575
      -3.593
      -2.344
      -0.220
       1.991
       3.511
       3.861
       3.019
       1.446
      -0.149
      -1.234
      -1.737
      -1.983
      -2.346
      -2.893
      -3.263
      -2.928
      -1.669
       0.172
       1.923
       3.016
       3.192
       2.456
       1.041
      -0.557
      -1.661
      -1.707
      -0.590
       1.177
       2.674
       3.096
       2.221
       0.457
      -1.495
      -2.990
      -3.577
      -3.035
      -1.441
       0.756
       2.771
       3.745
       3.207
       1.438
      -0.672
      -2.266
      -3.051
      -3.219
      -2.996
      -2.425
      -1.523
      -0.446
       0.605
       1.559
       2.481
       3.342
       3.810
       3.365
       1.773
      -0.497
      -2.458
      -3.310
      -2.998
      -2.084
      -1.123
      -0.215
       0.893
       2.319
       3.702
       4.380
       3.945
       2.583
       0.847
      -0.828
      -2.315
      -3.541
      -4.198
      -3.859
      -2.468
      -0.658
       0.594
       0.777
       0.289
      -0.007
       0.336
       0.967
       1.182
       0.688
      -0.108
      -0.541
      -0.381
      -0.013
       0.077
      -0.084
       0.013
       0.727
       1.746
       2.249
       1.598
      -0.074
      -1.846
      -2.616
      -1.924
      -0.315
       1.099
       1.506
       0.941
       0.136
      -0.106
       0.469
       1.377
       1.772
       1.109
      -0.437
      -2.150
      -3.303
      -3.566
      -3.067
      -2.197
      -1.321
      -0.575
       0.130
       0.925
       1.773
       2.434
       2.613
       2.199
       1.398
       0.628
       0.250
       0.338
       0.655
       0.838
       0.674
       0.259
      -0.119
      -0.289
      -0.396
      -0.736
      -1.384
      -1.980
      -1.968
      -1.115
       0.168
       1.083
       1.113
       0.480
      -0.073
       0.027
       0.652
       1.098
       0.729
      -0.439
      -1.729
      -2.324
      -1.827
      -0.456
       1.154
       2.295
       2.503
       1.755
       0.442
      -0.890
      -1.867
      -2.405
      -2.582
      -2.440
      -1.924
      -1.000
       0.187
       1.316
       2.084
       2.392
       2.340
       2.088
       1.742
       1.335
       0.857
       0.303
      -0.271
      -0.738
      -0.982
      -1.003
      -0.900
      -0.767
      -0.615
      -0.412
      -0.172
       0.032
       0.140
       0.212
       0.416
       0.880
       1.522
       2.035
       2.065
       1.451
       0.353
      -0.828
      -1.657
      -1.889
      -1.597
      -1.126
      -0.849
      -0.876
      -0.994
      -0.908
      -0.526
      -0.010
       0.420
       0.684
       0.862
       1.053
       1.228
       1.182
       0.685
      -0.285
      -1.422
      -2.226
      -2.291
      -1.562
      -0.393
       0.630
       1.028
       0.722
       0.036
      -0.560
      -0.746
      -0.462
       0.144
       0.807
       1.227
       1.187
       0.704
       0.072
      -0.327
      -0.339
      -0.171
      -0.153
      -0.355
      -0.480
      -0.183
       0.503
       1.115
       1.179
       0.698
       0.180
       0.109
       0.421
       0.549
       0.053
      -0.833
      -1.348
      -0.957
       0.082
       0.930
       0.987
       0.458
       0.066
       0.244
       0.671
       0.654
      -0.074
      -1.020
      -1.374
      -0.784
       0.313
       1.101
       1.107
       0.551
       0.006
      -0.203
      -0.209
      -0.291
      -0.477
      -0.552
      -0.413
      -0.292
      -0.547
      -1.210
      -1.825
      -1.799
      -0.956
       0.286
       1.246
       1.504
       1.128
       0.503
      -0.011
      -0.296
      -0.437
      -0.533
      -0.563
      -0.435
      -0.123
       0.293
       0.701
       1.040
       1.287
       1.420
       1.405
       1.211
       0.832
       0.292
      -0.353
      -0.997
      -1.492
      -1.678
      -1.460
      -0.868
      -0.073
       0.682
       1.166
       1.250
       0.956
       0.465
       0.024
      -0.235
      -0.404
      -0.692
      -1.159
      -1.535
      -1.379
      -0.517
       0.662
       1.433
       1.340
       0.594
      -0.150
      -0.407
      -0.250
      -0.119
      -0.310
      -0.689
      -0.864
      -0.574
       0.094
       0.795
       1.187
       1.122
       0.669
       0.013
      -0.648
      -1.143
      -1.325
      -1.099
      -0.503
       0.229
       0.758
       0.855
       0.584
       0.248
       0.131
       0.261
       0.418
       0.363
       0.055
      -0.356
      -0.696
      -0.873
      -0.824
      -0.463
       0.238
       1.094
       1.714
       1.730
       1.079
       0.094
      -0.715
      -1.010
      -0.821
      -0.447
      -0.181
      -0.129
      -0.204
      -0.255
      -0.191
      -0.035
       0.119
