Origin Time       04/09/2008 12:53:21
Lat.              30.1°N 
Long.             80.4°E 
Depth (Km)         10.0
Magnitude         5.1
 Region           INDIA(UTTARAKHAND)-TIBET-BORDER-REGION                           
 Above details taken from IMD 
   
Station Code      MUN
Station Lat.       30.066
Station Long.      80.237
Station Height(m) 2183.0
Site Class        A   Vs30 between 700 m/sec to 1400 m/sec * 
Record Time       04.09.2008 12:53:00.379
Sampling Rate     200. Hz
 Record Duration   70.085 Sec.
 Direction         Vert. (Up positive)
Max. Acceleration     -9.464 cm/sec**2
     
  * For reference see Site Classification link of website 
     
 Base Line Corrected and Low Pass Filtered (Cut Off at 35 Hz) Time History
 Acceleration data in cm/sec**2
    
[...]
       0.013
       0.012
       0.009
       0.003
      -0.002
      -0.004
      -0.003
       0.000
       0.003
       0.005
       0.005
       0.004
       0.003
       0.004
       0.006
       0.006
       0.006
       0.006
       0.007
       0.008
       0.010
       0.010
       0.010
       0.009
       0.006
       0.003
       0.004
       0.008
       0.013
       0.013
       0.008
       0.001
      -0.002
       0.001
       0.007
       0.010
       0.009
       0.006
       0.006
       0.009
       0.012
       0.011
       0.006
       0.001
      -0.002
      -0.002
      -0.001
       0.000
       0.001
       0.002
       0.005
       0.008
       0.010
       0.009
       0.008
       0.006
       0.006
       0.006
       0.007
       0.006
       0.002
      -0.001
      -0.003
      -0.003
      -0.001
       0.000
      -0.001
      -0.002
      -0.004
      -0.006
      -0.006
      -0.004
      -0.002
      -0.001
      -0.001
      -0.002
      -0.002
      -0.001
       0.002
       0.003
       0.002
      -0.001
      -0.003
      -0.003
      -0.002
      -0.002
       0.000
       0.003
       0.005
       0.004
      -0.001
      -0.004
      -0.001
       0.005
       0.009
       0.008
       0.003
       0.000
       0.000
       0.002
       0.002
       0.000
      -0.004
      -0.006
      -0.006
      -0.003
       0.000
       0.004
       0.007
       0.010
       0.010
       0.009
       0.008
       0.006
       0.003
       0.000
      -0.001
      -0.001
      -0.002
      -0.003
      -0.003
      -0.001
       0.001
       0.001
       0.001
       0.001
       0.004
       0.005
       0.003
      -0.002
      -0.005
      -0.003
       0.003
       0.007
       0.006
       0.001
      -0.002
      -0.001
       0.001
       0.002
       0.000
      -0.002
      -0.002
       0.002
       0.004
       0.004
      -0.002
      -0.009
      -0.014
      -0.014
      -0.010
      -0.005
       0.000
       0.003
       0.004
       0.004
       0.006
       0.007
       0.005
       0.000
      -0.004
      -0.006
      -0.004
       0.000
       0.003
       0.006
       0.009
       0.009
       0.006
      -0.001
      -0.010
      -0.016
      -0.015
      -0.008
       0.000
       0.005
       0.006
       0.003
       0.000
      -0.003
      -0.004
      -0.004
      -0.001
       0.004
       0.008
       0.008
       0.005
      -0.001
      -0.007
      -0.010
      -0.011
      -0.010
      -0.008
      -0.002
       0.004
       0.009
       0.009
       0.006
       0.001
      -0.003
      -0.005
      -0.005
      -0.002
       0.004
       0.008
       0.008
       0.004
       0.000
      -0.003
      -0.004
      -0.003
      -0.005
      -0.007
      -0.009
      -0.009
      -0.008
      -0.005
      -0.004
      -0.002
      -0.001
      -0.001
       0.001
       0.003
       0.005
       0.006
       0.004
      -0.001
      -0.004
      -0.004
       0.000
       0.005
       0.006
       0.003
      -0.002
      -0.004
      -0.005
      -0.006
      -0.007
      -0.009
      -0.007
      -0.002
       0.003
       0.006
       0.004
       0.000
      -0.004
      -0.006
      -0.006
      -0.004
      -0.003
      -0.003
      -0.005
      -0.008
      -0.009
      -0.004
       0.005
       0.013
       0.014
       0.009
       0.001
      -0.004
      -0.004
      -0.002
       0.001
       0.002
       0.001
       0.000
      -0.001
      -0.002
      -0.003
      -0.003
       0.000
       0.004
       0.006
       0.005
       0.003
       0.001
       0.001
       0.000
      -0.002
      -0.003
      -0.004
      -0.006
      -0.009
      -0.012
      -0.012
      -0.008
       0.001
       0.012
       0.019
       0.018
       0.011
       0.004
       0.002
       0.004
       0.007
       0.007
       0.003
      -0.002
      -0.006
      -0.007
      -0.005
      -0.001
       0.003
       0.006
       0.007
       0.006
       0.005
       0.006
       0.007
       0.007
       0.004
       0.001
      -0.001
       0.001
       0.004
       0.007
       0.007
       0.005
       0.003
       0.001
       0.001
       0.002
       0.002
       0.003
       0.003
       0.003
       0.004
       0.006
       0.008
       0.007
       0.003
      -0.001
      -0.003
      -0.003
      -0.001
       0.000
       0.002
       0.005
       0.010
       0.013
       0.014
       0.013
       0.012
       0.011
       0.007
       0.001
      -0.003
      -0.003
       0.002
       0.006
       0.004
      -0.002
      -0.008
      -0.010
      -0.007
      -0.003
       0.000
       0.000
       0.002
       0.008
       0.015
       0.019
       0.013
       0.001
      -0.007
      -0.005
       0.005
       0.013
       0.013
       0.007
       0.002
       0.003
       0.008
       0.011
       0.008
       0.003
       0.000
       0.002
       0.006
       0.006
       0.004
       0.001
      -0.001
      -0.003
      -0.004
      -0.006
      -0.006
      -0.003
       0.002
       0.005
       0.005
       0.001
      -0.001
      -0.001
       0.002
       0.004
       0.003
       0.001
       0.002
       0.006
       0.010
       0.011
       0.009
       0.007
       0.009
       0.014
       0.017
       0.015
       0.009
       0.003
       0.003
       0.007
       0.011
       0.010
       0.005
      -0.002
      -0.007
      -0.009
      -0.010
      -0.009
      -0.006
      -0.001
       0.005
       0.009
       0.008
       0.005
       0.001
      -0.001
      -0.001
      -0.001
      -0.001
       0.000
       0.004
       0.009
       0.012
       0.010
       0.004
       0.001
       0.004
       0.011
       0.013
       0.009
       0.001
      -0.004
      -0.004
      -0.001
      -0.001
      -0.003
      -0.006
      -0.005
      -0.002
       0.003
       0.005
       0.004
       0.003
       0.003
       0.003
       0.005
       0.009
       0.014
       0.021
       0.027
       0.028
       0.023
       0.012
       0.001
      -0.006
      -0.006
      -0.003
       0.001
       0.002
       0.001
       0.001
       0.003
       0.007
       0.013
       0.016
       0.016
       0.014
       0.011
       0.004
      -0.003
      -0.008
      -0.006
      -0.001
       0.004
       0.005
       0.002
       0.000
       0.001
       0.004
       0.006
       0.005
       0.003
       0.002
       0.005
       0.011
       0.017
       0.020
       0.017
       0.010
       0.005
       0.003
       0.004
       0.004
       0.003
       0.003
       0.006
       0.008
       0.007
       0.003
       0.000
       0.001
       0.006
       0.012
       0.015
       0.013
       0.010
       0.006
       0.004
       0.004
       0.005
       0.003
      -0.003
      -0.007
      -0.006
       0.002
       0.011
       0.014
       0.009
      -0.001
      -0.008
      -0.009
      -0.006
      -0.001
       0.001
       0.002
       0.001
       0.001
      -0.001
      -0.002
      -0.004
      -0.002
       0.003
       0.008
       0.010
       0.008
       0.005
       0.005
       0.009
       0.013
       0.013
       0.008
       0.001
      -0.005
      -0.006
      -0.002
       0.004
       0.008
       0.008
       0.004
      -0.002
      -0.006
      -0.004
       0.004
       0.014
       0.019
       0.015
       0.006
       0.001
       0.003
       0.008
       0.011
       0.008
       0.000
      -0.005
      -0.006
      -0.003
       0.000
       0.002
       0.000
      -0.003
      -0.005
      -0.002
       0.002
       0.005
       0.002
      -0.005
      -0.010
      -0.009
      -0.004
       0.002
       0.005
       0.007
       0.007
       0.007
       0.008
       0.007
       0.006
       0.003
       0.000
      -0.003
      -0.007
      -0.010
      -0.011
      -0.009
      -0.006
      -0.002
       0.002
       0.007
       0.011
       0.011
       0.008
       0.003
      -0.001
      -0.002
      -0.003
      -0.003
      -0.002
       0.002
       0.008
       0.013
       0.013
       0.007
       0.002
       0.001
       0.002
       0.003
       0.000
      -0.003
      -0.004
      -0.002
       0.000
       0.000
       0.000
       0.000
       0.003
       0.006
       0.007
       0.004
      -0.002
      -0.006
      -0.005
       0.001
       0.007
       0.009
       0.005
      -0.002
      -0.007
      -0.007
      -0.002
       0.004
       0.010
       0.014
       0.013
       0.008
       0.002
      -0.001
       0.000
       0.002
       0.001
      -0.004
      -0.008
      -0.006
       0.001
       0.007
       0.007
       0.001
      -0.006
      -0.009
      -0.004
       0.005
       0.010
       0.008
       0.003
       0.000
       0.001
       0.003
       0.003
       0.000
      -0.002
       0.001
       0.007
       0.011
       0.007
      -0.001
      -0.009
      -0.008
       0.000
       0.009
       0.012
       0.010
       0.006
       0.004
       0.006
       0.011
       0.014
       0.014
       0.012
       0.007
       0.002
      -0.002
      -0.003
      -0.002
       0.001
       0.003
       0.005
       0.006
       0.005
       0.004
       0.004
       0.004
       0.003
       0.000
      -0.001
       0.001
       0.004
       0.003
      -0.003
      -0.011
      -0.014
      -0.011
      -0.002
       0.007
       0.013
       0.016
       0.015
       0.011
       0.006
       0.003
       0.003
       0.006
       0.010
       0.013
       0.012
       0.010
       0.007
       0.004
       0.000
      -0.003
      -0.004
      -0.002
       0.002
       0.006
       0.007
       0.004
       0.000
      -0.002
      -0.002
      -0.001
       0.000
       0.000
       0.001
       0.002
       0.003
       0.005
       0.007
       0.009
       0.010
       0.009
       0.008
       0.006
       0.004
       0.002
       0.001
       0.003
       0.002
      -0.003
      -0.010
      -0.014
      -0.013
      -0.008
      -0.003
       0.001
       0.003
       0.005
       0.007
       0.007
       0.005
       0.004
       0.005
       0.005
       0.004
       0.001
      -0.002
      -0.004
      -0.005
      -0.006
      -0.006
      -0.003
       0.001
       0.003
       0.002
       0.001
       0.001
       0.003
       0.004
       0.002
      -0.004
      -0.012
      -0.024
      -0.039
      -0.062
      -0.104
      -0.179
      -0.308
      -0.501
      -0.753
      -1.038
      -1.324
      -1.579
      -1.775
      -1.877
      -1.844
      -1.641
      -1.273
      -0.816
      -0.408
      -0.185
      -0.198
      -0.358
      -0.477
      -0.374
       0.015
       0.608
       1.237
       1.739
       2.000
       1.955
       1.569
       0.885
       0.092
      -0.486
      -0.562
      -0.115
       0.528
       0.882
       0.659
       0.000
      -0.622
      -0.759
      -0.296
       0.513
       1.259
       1.623
       1.483
       0.894
       0.052
      -0.756
      -1.240
      -1.277
      -1.006
      -0.756
      -0.788
      -1.073
      -1.294
      -1.106
      -0.412
       0.591
       1.598
       2.400
       2.927
       3.191
       3.242
       3.220
       3.376
       3.909
       4.682
       5.116
       4.512
       2.624
      -0.038
      -2.494
      -3.972
      -4.407
      -4.355
      -4.438
      -4.832
      -5.196
      -5.040
      -4.134
      -2.650
      -1.023
       0.261
       0.852
       0.702
       0.155
      -0.163
       0.285
       1.531
       2.992
       3.822
       3.503
       2.207
       0.609
      -0.708
      -1.682
      -2.632
      -3.728
      -4.645
      -4.786
      -3.817
      -1.962
       0.214
       2.266
       4.047
       5.438
       6.055
       5.445
       3.655
       1.532
       0.261
       0.450
       1.595
       2.436
       1.937
       0.039
      -2.372
      -4.152
      -4.625
      -3.879
      -2.554
      -1.355
      -0.599
      -0.083
       0.631
       1.750
       2.988
       3.791
       3.871
       3.540
       3.444
       3.867
       4.317
       3.892
       2.137
      -0.447
      -2.754
      -3.979
      -4.218
      -4.274
      -4.816
      -5.696
      -6.077
      -5.278
      -3.492
      -1.621
      -0.383
       0.343
       1.238
       2.630
       3.961
       4.273
       3.282
       1.870
       1.355
       2.210
       3.554
       3.967
       2.814
       0.797
      -0.773
      -1.216
      -1.033
      -1.288
      -2.457
      -3.843
      -4.103
      -2.416
       0.717
       3.706
       4.922
       3.730
       0.817
      -2.342
      -4.398
      -4.770
      -3.721
      -1.965
      -0.201
       1.145
       1.919
       2.069
       1.552
       0.400
      -1.117
      -2.447
      -2.952
      -2.299
      -0.777
       0.798
       1.608
       1.421
       0.709
       0.184
       0.176
       0.422
       0.429
       0.047
      -0.316
      -0.076
       0.882
       1.936
       2.147
       1.026
      -1.013
      -2.905
      -3.703
      -3.293
      -2.464
      -2.224
      -2.829
      -3.408
      -2.640
       0.035
       3.726
       6.600
       7.179
       5.360
       2.353
      -0.309
      -1.770
      -2.061
      -1.559
      -0.419
       1.419
       3.736
       5.649
       5.890
       3.673
      -0.563
      -5.241
      -8.550
      -9.464
      -8.136
      -5.525
      -2.697
      -0.342
       1.259
       2.051
       2.114
       1.703
       1.228
       1.064
       1.335
       1.832
       2.143
       1.947
       1.287
       0.565
       0.160
       0.008
      -0.414
      -1.582
      -3.332
      -4.754
      -4.752
      -2.873
       0.237
       3.191
       4.761
       4.560
       3.031
       0.959
      -0.953
      -2.216
      -2.548
      -1.940
      -0.778
       0.259
       0.602
       0.232
      -0.298
      -0.371
       0.105
       0.628
       0.637
       0.115
      -0.389
      -0.321
       0.311
       0.963
       1.100
       0.682
       0.138
      -0.090
       0.070
       0.335
       0.420
       0.335
       0.355
       0.754
       1.576
       2.570
       3.280
       3.227
       2.160
       0.271
      -1.789
      -3.198
      -3.448
      -2.690
      -1.631
      -0.997
      -0.979
      -1.104
      -0.664
       0.621
       2.248
       3.231
       2.865
       1.357
      -0.281
      -0.989
      -0.443
       0.786
       1.805
       2.153
       2.089
       2.182
       2.650
       3.081
       2.801
       1.494
      -0.489
      -2.384
      -3.597
      -4.075
      -4.169
      -4.139
      -3.817
      -2.767
      -0.811
       1.577
       3.461
       4.095
       3.474
       2.273
       1.230
       0.560
      -0.065
      -1.053
      -2.416
      -3.729
      -4.465
      -4.361
      -3.489
      -2.063
      -0.263
       1.694
       3.383
       4.212
       3.773
       2.227
       0.335
      -0.977
      -1.204
      -0.552
       0.312
       0.818
       0.870
       0.768
       0.844
       1.200
       1.687
       2.036
       1.988
       1.376
       0.228
      -1.194
      -2.475
      -3.217
      -3.173
      -2.288
      -0.688
       1.286
       3.052
       3.924
       3.476
       1.921
       0.074
      -1.197
      -1.604
      -1.550
      -1.651
      -2.188
      -2.987
      -3.696
      -4.097
      -4.161
      -3.935
      -3.460
      -2.791
      -2.041
      -1.328
      -0.654
       0.106
       1.043
       2.035
       2.775
       3.023
       2.832
       2.535
       2.481
       2.735
       2.986
       2.778
       1.868
       0.456
      -0.915
      -1.722
      -1.783
      -1.278
      -0.513
       0.283
       0.928
       1.167
       0.774
      -0.158
      -1.108
      -1.434
      -0.882
       0.194
       1.143
       1.590
       1.704
       1.895
       2.278
       2.500
       2.088
       0.963
      -0.412
      -1.416
      -1.817
      -1.927
      -2.199
      -2.681
      -2.933
      -2.479
      -1.302
       0.107
       1.122
       1.396
       0.966
       0.055
      -1.108
      -2.243
      -2.906
      -2.640
      -1.358
       0.409
       1.751
       2.003
       1.243
       0.216
      -0.298
      -0.138
       0.147
      -0.115
      -1.018
      -1.938
      -2.085
      -1.206
       0.239
       1.536
       2.287
       2.547
       2.503
       2.131
       1.265
      -0.015
      -1.174
      -1.520
      -0.764
       0.734
       2.222
       3.042
       2.925
       1.977
       0.533
      -0.937
      -1.854
      -1.694
      -0.372
       1.471
       2.723
       2.583
       1.199
      -0.438
      -1.279
      -1.003
      -0.162
       0.380
       0.149
      -0.696
      -1.674
      -2.395
      -2.680
      -2.439
      -1.612
      -0.327
       0.983
       1.758
       1.735
       1.194
       0.703
       0.596
       0.722
       0.696
       0.301
      -0.369
      -1.045
      -1.463
      -1.480
      -1.140
      -0.711
      -0.588
      -1.017
      -1.778
      -2.188
      -1.602
      -0.032
       1.735
       2.721
       2.496
       1.433
       0.289
      -0.442
      -0.808
      -1.116
      -1.463
      -1.611
      -1.301
      -0.619
       0.013
       0.193
      -0.104
      -0.489
      -0.477
       0.081
       0.818
       1.103
       0.540
      -0.707
      -2.047
      -2.881
      -2.916
      -2.192
      -0.940
       0.483
       1.589
       1.869
       1.128
      -0.206
      -1.241
      -1.270
      -0.376
       0.615
       0.850
       0.204
      -0.628
      -0.779
       0.044
       1.383
       2.501
       2.963
       2.799
       2.286
       1.670
       1.072
       0.509
      -0.081
      -0.803
      -1.670
      -2.447
      -2.679
      -1.985
      -0.432
       1.333
       2.401
       2.198
       0.929
      -0.527
      -1.210
      -0.692
       0.731
       2.324
       3.367
       3.426
       2.385
       0.386
      -2.157
      -4.537
      -5.890
      -5.547
      -3.405
      -0.059
       3.400
       5.788
       6.290
       4.819
       2.101
      -0.593
      -2.019
      -1.593
       0.233
       2.143
       2.676
       1.174
      -1.678
      -4.155
      -4.559
      -2.395
       1.208
       4.196
       4.926
       3.190
       0.220
      -2.226
      -3.002
      -2.150
      -0.625
       0.479
       0.600
      -0.112
      -1.046
      -1.546
      -1.243
      -0.196
       1.194
       2.350
       2.710
       1.891
      -0.126
      -2.854
      -5.337
      -6.500
      -5.733
      -3.320
      -0.327
       2.027
       3.090
       3.041
       2.533
       2.083
       1.792
       1.540
       1.315
       1.229
       1.258
       1.133
       0.602
      -0.208
      -0.867
      -1.162
      -1.494
      -2.524
      -4.286
      -5.687
      -5.143
      -2.000
       2.520
       5.906
       6.123
       3.075
      -1.470
      -5.226
      -6.752
      -5.846
      -3.120
       0.510
       3.960
       6.027
       5.846
       3.651
       0.965
      -0.358
