Origin Time       04/04/2011 11:31:40 UTC
Lat.              29.6 N	
Long.             80.8 E	
Depth (Km)         10.0
Magnitude         5.7
 Region           NEPAL-INDIA-BORDER-REGION                                        
 Above details taken from IMD 
    
Station Code      MUN
Station Lat.       30.066  N
Station Long.      80.237  E
Station Height(m) 2201.0
Site Class        A   Vs30 between 700 m/sec to 1400 m/sec * 
Record Time       04.04.2011 11:31:44.544 UTC
Sampling Rate     200. Hz
 Record Duration   81.180 Sec.
 Direction         N-S (N positive)
Max. Acceleration     25.093 cm/sec**2
     
  * For reference see Site Classification link of website 
     
 Base Line Corrected and Low Pass Filtered (Cut Off at 35 Hz) Time History
 Acceleration data in cm/sec**2
    
[...]
       0.505
       0.456
       0.357
       0.162
      -0.127
      -0.503
      -0.931
      -1.271
      -1.290
      -0.814
       0.080
       1.025
       1.593
       1.600
       1.219
       0.788
       0.509
       0.348
       0.184
      -0.018
      -0.198
      -0.323
      -0.467
      -0.751
      -1.221
      -1.785
      -2.260
      -2.488
      -2.419
      -2.122
      -1.726
      -1.355
      -1.071
      -0.852
      -0.611
      -0.263
       0.213
       0.728
       1.101
       1.141
       0.770
       0.104
      -0.569
      -0.920
      -0.763
      -0.143
       0.727
       1.627
       2.434
       3.078
       3.463
       3.460
       3.001
       2.172
       1.181
       0.230
      -0.573
      -1.203
      -1.646
      -1.859
      -1.799
      -1.481
      -1.020
      -0.611
      -0.446
      -0.619
      -1.074
      -1.634
      -2.081
      -2.233
      -1.972
      -1.262
      -0.162
       1.150
       2.396
       3.266
       3.518
       3.067
       2.033
       0.713
      -0.522
      -1.365
      -1.667
      -1.446
      -0.843
      -0.063
       0.680
       1.202
       1.399
       1.266
       0.871
       0.291
      -0.406
      -1.136
      -1.755
      -2.069
      -1.926
      -1.328
      -0.456
       0.415
       1.034
       1.227
       0.900
       0.075
      -1.053
      -2.130
      -2.811
      -2.959
      -2.666
      -2.085
      -1.258
      -0.154
       1.130
       2.265
       2.841
       2.680
       1.994
       1.230
       0.723
       0.481
       0.294
       0.038
      -0.146
       0.004
       0.582
       1.375
       2.035
       2.325
       2.198
       1.688
       0.819
      -0.336
      -1.564
      -2.512
      -2.842
      -2.392
      -1.253
       0.289
       1.889
       3.254
       4.176
       4.502
       4.123
       3.035
       1.408
      -0.419
      -2.056
      -3.215
      -3.787
      -3.807
      -3.370
      -2.603
      -1.686
      -0.873
      -0.428
      -0.496
      -0.991
      -1.615
      -2.032
      -2.059
      -1.730
      -1.195
      -0.581
       0.055
       0.668
       1.158
       1.413
       1.405
       1.221
       0.967
       0.680
       0.349
       0.025
      -0.157
      -0.086
       0.217
       0.616
       0.992
       1.314
       1.584
       1.752
       1.714
       1.438
       1.055
       0.787
       0.744
       0.766
       0.499
      -0.321
      -1.600
      -2.854
      -3.473
      -3.078
      -1.732
       0.115
       1.871
       3.062
       3.465
       3.095
       2.134
       0.865
      -0.380
      -1.303
      -1.727
      -1.642
      -1.166
      -0.468
       0.275
       0.845
       0.976
       0.481
      -0.536
      -1.634
      -2.277
      -2.214
      -1.655
      -1.059
      -0.717
      -0.508
      -0.042
       0.946
       2.306
       3.512
       4.016
       3.631
       2.640
       1.538
       0.667
       0.052
      -0.489
      -1.102
      -1.771
      -2.346
      -2.672
      -2.668
      -2.339
      -1.751
      -1.022
      -0.318
       0.159
       0.262
       0.030
      -0.287
      -0.389
      -0.189
       0.085
       0.112
      -0.177
      -0.484
      -0.424
       0.063
       0.598
       0.692
       0.222
      -0.435
      -0.721
      -0.393
       0.291
       0.824
       0.914
       0.706
       0.579
       0.764
       1.155
       1.478
       1.585
       1.566
       1.564
       1.525
       1.164
       0.234
      -1.160
      -2.529
      -3.313
      -3.285
      -2.704
      -2.064
      -1.676
      -1.448
      -1.055
      -0.340
       0.462
       0.885
       0.634
      -0.157
      -1.027
      -1.549
      -1.619
      -1.459
      -1.375
      -1.492
      -1.685
      -1.724
      -1.491
      -1.089
      -0.757
      -0.663
      -0.754
      -0.765
      -0.409
       0.404
       1.491
       2.508
       3.175
       3.435
       3.395
       3.131
       2.564
       1.582
       0.306
      -0.821
      -1.313
      -1.055
      -0.427
       0.036
       0.117
       0.040
       0.143
       0.465
       0.671
       0.374
      -0.470
      -1.461
      -2.001
      -1.656
      -0.383
       1.468
       3.317
       4.594
       4.960
       4.398
       3.158
       1.619
       0.174
      -0.840
      -1.212
      -0.927
      -0.185
       0.679
       1.336
       1.598
       1.461
       1.032
       0.373
      -0.577
      -1.891
      -3.437
      -4.797
      -5.487
      -5.290
      -4.373
      -3.084
      -1.644
      -0.065
       1.656
       3.277
       4.312
       4.313
       3.211
       1.415
      -0.420
      -1.764
      -2.403
      -2.370
      -1.766
      -0.700
       0.637
       1.914
       2.765
       2.977
       2.579
       1.737
       0.561
      -0.931
      -2.652
      -4.253
      -5.162
      -4.887
      -3.353
      -0.987
       1.474
       3.319
       4.116
       3.791
       2.557
       0.767
      -1.193
      -2.944
      -4.106
      -4.332
      -3.463
      -1.698
       0.387
       2.062
       2.788
       2.476
       1.490
       0.409
      -0.297
      -0.480
      -0.303
      -0.044
       0.136
       0.273
       0.487
       0.801
       1.098
       1.252
       1.304
       1.461
       1.914
       2.646
       3.397
       3.820
       3.688
       3.009
       1.971
       0.789
      -0.398
      -1.488
      -2.315
      -2.641
      -2.309
      -1.434
      -0.433
       0.164
      -0.004
      -0.939
      -2.302
      -3.594
      -4.393
      -4.525
      -4.071
      -3.218
      -2.089
      -0.719
       0.805
       2.252
       3.320
       3.809
       3.712
       3.144
       2.234
       1.109
      -0.040
      -0.927
      -1.269
      -0.934
      -0.026
       1.171
       2.332
       3.189
       3.568
       3.389
       2.667
       1.521
       0.170
      -1.115
      -2.088
      -2.597
      -2.641
      -2.360
      -2.001
      -1.814
      -1.936
      -2.302
      -2.683
      -2.835
      -2.661
      -2.265
      -1.870
      -1.672
      -1.722
      -1.883
      -1.895
      -1.515
      -0.668
       0.488
       1.641
       2.489
       2.881
       2.829
       2.450
       1.881
       1.207
       0.428
      -0.466
      -1.334
      -1.803
      -1.420
       0.010
       2.203
       4.497
       6.200
       6.893
       6.502
       5.205
       3.313
       1.224
      -0.631
      -1.903
      -2.456
      -2.408
      -2.024
      -1.568
      -1.241
      -1.199
      -1.554
      -2.307
      -3.293
      -4.231
      -4.872
      -5.100
      -4.924
      -4.383
      -3.482
      -2.206
      -0.620
       1.043
       2.375
       2.934
       2.477
       1.125
      -0.651
      -2.227
      -3.075
      -2.965
      -2.024
      -0.647
       0.705
       1.691
       2.151
       2.074
       1.552
       0.759
      -0.068
      -0.691
      -0.961
      -0.896
      -0.701
      -0.703
      -1.157
      -2.010
      -2.814
      -2.973
      -2.196
      -0.773
       0.614
       1.394
       1.477
       1.190
       0.924
       0.863
       1.007
       1.323
       1.823
       2.499
       3.245
       3.833
       3.964
       3.399
       2.107
       0.380
      -1.239
      -2.211
      -2.300
      -1.660
      -0.667
       0.343
       1.196
       1.786
       1.960
       1.544
       0.572
      -0.565
      -1.276
      -1.199
      -0.485
       0.365
       0.973
       1.396
       1.970
       2.853
       3.747
       4.091
       3.540
       2.278
       0.854
      -0.246
      -0.881
      -1.176
      -1.253
      -1.093
      -0.636
       0.029
       0.620
       0.792
       0.350
      -0.635
      -1.863
      -2.968
      -3.665
      -3.803
      -3.358
      -2.423
      -1.246
      -0.229
       0.188
      -0.246
      -1.419
      -2.898
      -4.187
      -4.982
      -5.219
      -4.899
      -3.934
      -2.201
       0.220
       2.866
       5.009
       6.039
       5.850
       4.893
       3.850
       3.195
       2.990
       3.003
       2.973
       2.785
       2.477
       2.144
       1.822
       1.462
       0.986
       0.379
      -0.257
      -0.751
      -0.983
      -0.977
      -0.901
      -0.944
      -1.186
      -1.543
      -1.837
      -1.903
      -1.671
      -1.216
      -0.742
      -0.494
      -0.572
      -0.818
      -0.883
      -0.483
       0.372
       1.369
       2.103
       2.356
       2.225
       2.014
       1.967
       2.057
       2.004
       1.507
       0.538
      -0.578
      -1.353
      -1.474
      -0.997
      -0.267
       0.353
       0.696
       0.803
       0.781
       0.699
       0.606
       0.609
       0.834
       1.251
       1.579
       1.409
       0.499
      -1.022
      -2.733
      -4.181
      -5.088
      -5.384
      -5.104
      -4.328
      -3.181
      -1.855
      -0.583
       0.410
       0.929
       0.831
       0.101
      -1.031
      -2.091
      -2.593
      -2.373
      -1.718
      -1.111
      -0.816
      -0.691
      -0.402
       0.195
       0.877
       1.254
       1.125
       0.645
       0.182
       0.029
       0.248
       0.712
       1.222
       1.617
       1.808
       1.790
       1.619
       1.378
       1.120
       0.809
       0.325
      -0.447
      -1.459
      -2.439
      -2.994
      -2.844
      -1.982
      -0.644
       0.849
       2.235
       3.330
       3.979
       4.011
       3.294
       1.853
      -0.038
      -1.916
      -3.337
      -4.084
      -4.181
      -3.728
      -2.765
      -1.348
       0.271
       1.620
       2.227
       1.898
       0.808
      -0.649
      -2.089
      -3.261
      -4.011
      -4.212
      -3.789
      -2.829
      -1.613
      -0.513
       0.158
       0.234
      -0.295
      -1.302
      -2.538
      -3.684
      -4.460
      -4.740
      -4.573
      -4.092
      -3.395
      -2.513
      -1.474
      -0.404
       0.476
       0.933
       0.831
       0.186
      -0.823
      -1.878
      -2.613
      -2.756
      -2.256
      -1.268
      -0.023
       1.281
       2.472
       3.339
       3.652
       3.289
       2.361
       1.208
       0.229
      -0.289
      -0.226
       0.416
       1.559
       3.000
       4.374
       5.262
       5.409
       4.880
       3.988
       3.067
       2.289
       1.638
       1.001
       0.274
      -0.573
      -1.474
      -2.294
      -2.889
      -3.167
      -3.115
      -2.781
      -2.238
      -1.549
      -0.749
       0.158
       1.208
       2.475
       4.047
       5.962
       8.129
      10.282
      12.012
      12.896
      12.658
      11.269
       8.960
       6.196
       3.609
       1.830
       1.231
       1.705
       2.680
       3.380
       3.181
       1.840
      -0.477
      -3.312
      -6.087
      -8.247
      -9.353
      -9.136
      -7.547
      -4.814
      -1.427
       1.988
       4.838
       6.684
       7.299
       6.716
       5.232
       3.338
       1.558
       0.252
      -0.492
      -0.830
      -1.011
      -1.241
      -1.665
      -2.433
      -3.693
      -5.457
      -7.467
      -9.238
     -10.278
     -10.293
      -9.230
      -7.185
      -4.301
      -0.770
       3.072
       6.669
       9.353
      10.609
      10.319
       8.769
       6.428
       3.718
       0.957
      -1.559
      -3.527
      -4.714
      -5.052
      -4.611
      -3.505
      -1.874
       0.038
       1.861
       3.220
       3.931
       4.054
       3.799
       3.382
       2.968
       2.705
       2.731
       3.079
       3.541
       3.651
       2.887
       0.977
      -1.919
      -5.292
      -8.568
     -11.317
     -13.261
     -14.136
     -13.644
     -11.608
      -8.171
      -3.840
       0.700
       4.810
       8.035
      10.104
      10.907
      10.520
       9.266
       7.729
       6.627
       6.515
       7.482
       9.096
      10.695
      11.809
      12.321
      12.265
      11.520
       9.780
       6.878
       3.116
      -0.748
      -3.899
      -5.907
      -6.871
      -7.231
      -7.461
      -7.884
      -8.644
      -9.766
     -11.178
     -12.681
     -13.937
     -14.589
     -14.452
     -13.629
     -12.399
     -10.991
      -9.461
      -7.791
      -6.104
      -4.761
      -4.192
      -4.565
      -5.550
      -6.417
      -6.423
      -5.224
      -3.009
      -0.284
       2.515
       5.225
       7.845
      10.282
      12.246
      13.403
      13.590
      12.872
      11.400
       9.290
       6.659
       3.756
       0.956
      -1.423
      -3.336
      -5.045
      -6.924
      -9.166
     -11.623
     -13.927
     -15.762
     -17.026
     -17.742
     -17.820
     -16.958
     -14.802
     -11.245
      -6.616
      -1.618
       2.939
       6.458
       8.771
      10.152
      11.107
      12.065
      13.144
      14.181
      14.959
      15.431
      15.710
      15.871
      15.781
      15.113
      13.556
      10.997
       7.594
       3.686
      -0.360
      -4.284
      -7.976
     -11.419
     -14.592
     -17.409
     -19.731
     -21.390
     -22.208
     -22.011
     -20.685
     -18.294
     -15.168
     -11.805
      -8.592
      -5.563
      -2.455
       0.980
       4.717
       8.491
      12.062
      15.394
      18.570
      21.528
      23.895
      25.093
      24.626
      22.342
      18.503
      13.689
       8.613
       3.940
       0.142
      -2.563
      -4.207
      -5.001
      -5.224
      -5.123
      -4.870
      -4.554
      -4.158
      -3.545
      -2.535
      -1.059
       0.743
       2.612
       4.376
       6.080
       7.885
       9.809
      11.524
      12.418
      11.898
       9.722
       6.159
       1.901
      -2.232
      -5.592
      -7.855
      -8.960
      -8.966
      -8.004
      -6.348
      -4.478
      -2.969
      -2.239
      -2.345
      -3.009
      -3.841
      -4.548
      -4.979
      -5.049
      -4.699
      -3.961
      -3.033
      -2.190
      -1.579
      -1.095
      -0.503
       0.293
       1.109
       1.593
       1.498
       0.890
       0.125
      -0.353
      -0.240
       0.504
       1.680
       2.969
       4.066
       4.731
       4.782
       4.106
       2.725
       0.844
      -1.213
      -3.147
      -4.764
      -5.938
      -6.518
      -6.307
      -5.165
      -3.169
      -0.681
       1.739
       3.544
       4.390
       4.207
       3.140
       1.423
      -0.713
      -3.076
      -5.487
      -7.744
      -9.612
     -10.886
     -11.482
     -11.514
     -11.286
     -11.149
     -11.278
     -11.534
     -11.521
     -10.848
      -9.364
      -7.215
      -4.716
      -2.164
       0.254
       2.421
       4.204
       5.465
       6.175
       6.486
       6.640
       6.765
       6.770
       6.457
       5.758
       4.893
       4.276
       4.236
       4.769
       5.520
       6.016
       5.967
       5.469
       4.965
       4.977
       5.763
       7.145
       8.664
       9.937
      10.937
      11.974
      13.380
      15.137
      16.754
      17.508
      16.891
      14.924
      12.071
       8.838
       5.412
       1.656
      -2.586
      -7.197
     -11.728
     -15.581
     -18.219
     -19.322
     -18.857
     -17.123
     -14.714
     -12.342
     -10.546
      -9.432
      -8.627
      -7.532
      -5.766
      -3.466
      -1.207
       0.400
       1.097
       1.059
       0.658
       0.164
      -0.357
      -0.949
      -1.602
      -2.177
      -2.495
      -2.505
      -2.379
      -2.409
      -2.777
      -3.396
      -3.980
      -4.273
      -4.233
      -3.994
      -3.705
      -3.426
      -3.137
      -2.797
      -2.357
      -1.755
      -0.931
       0.143
       1.453
       2.949
       4.520
       5.971
       7.017
       7.388
       7.008
       6.142
       5.342
       5.160
       5.830
       7.166
       8.750
      10.209
      11.311
      11.894
      11.838
      11.172
      10.199
       9.376
       8.995
       8.924
       8.685
       7.806
       6.162
       4.012
       1.745
      -0.416
      -2.480
      -4.493
      -6.320
      -7.651
      -8.228
      -8.062
      -7.435
      -6.687
      -6.000
      -5.358
      -4.674
      -3.919
      -3.134
      -2.352
      -1.559
      -0.756
      -0.026
       0.473
       0.623
       0.423
      -0.019
      -0.585
      -1.221
      -1.904
      -2.542
      -2.932
      -2.879
      -2.433
      -1.995
      -2.145
      -3.257
      -5.215
      -7.475
      -9.398
     -10.594
     -11.016
     -10.856
     -10.382
      -9.813
      -9.262
      -8.718
      -8.082
      -7.261
      -6.251
      -5.153
      -4.106
      -3.205
      -2.460
      -1.849
      -1.384
      -1.143
      -1.208
      -1.558
      -2.018
      -2.311
      -2.166
      -1.379
       0.199
       2.672
       6.039
      10.102
      14.427
      18.451
      21.673
      23.818
      24.884
      25.052
      24.500
      23.235
      21.081
      17.865
      13.657
       8.855
       4.036
      -0.282
      -3.808
      -6.492
      -8.437
      -9.768
     -10.533
     -10.666
     -10.053
      -8.688
      -6.824
      -4.963
      -3.608
      -2.917
      -2.603
      -2.214
      -1.554
      -0.830
      -0.393
      -0.350
      -0.441
      -0.277
       0.302
       1.109
       1.816
       2.270
       2.577
       2.885
       3.111
       2.934
       2.047
       0.410
      -1.752
      -4.152
      -6.596
      -8.944
     -10.984
     -12.412
     -12.959
     -12.524
     -11.198
      -9.193
      -6.768
      -4.213
      -1.820
       0.209
       1.885
       3.452
       5.213
       7.238
       9.189
      10.418
      10.273
       8.392
       4.833
       0.027
      -5.328
     -10.373
     -14.241
     -16.250
     -16.131
     -14.130
     -10.886
      -7.118
      -3.321
       0.329
       3.849
       7.248
      10.423
      13.199
      15.402
      16.878
      17.449
      16.921
      15.163
      12.253
       8.571
       4.747
       1.425
      -1.028
      -2.653
      -3.786
      -4.790
      -5.845
      -6.880
      -7.669
      -7.983
      -7.717
      -6.912
      -5.683
      -4.144
      -2.419
      -0.687
       0.817
       1.882
       2.427
       2.541
       2.420
       2.270
       2.243
       2.419
       2.820
       3.430
       4.197
       5.014
       5.702
       6.058
       5.944
       5.329
       4.240
       2.692
       0.705
      -1.610
      -3.960
      -5.871
      -6.813
      -6.430
      -4.782
      -2.367
       0.133
       2.229
       3.795
       4.937
       5.768
       6.321
       6.631
       6.779
       6.813
       6.617
       5.910
       4.415
       2.085
      -0.796
      -3.696
      -6.029
      -7.385
      -7.679
      -7.142
      -6.173
      -5.146
      -4.304
      -3.780
      -3.631
      -3.830
      -4.225
      -4.528
      -4.384
      -3.518
      -1.906
       0.141
       2.080
       3.396
       3.861
       3.616
       3.029
       2.453
       2.034
       1.678
