Origin Time       04/09/2008 12:53:21 UTC
Lat.              30.1°N 
Long.             80.4°E 
Depth (Km)         10.0
Magnitude         5.1
 Region           INDIA(UTTARAKHAND)-TIBET-BORDER-REGION                           
 Above details taken from IMD 
    
Station Code      MUN
Station Lat.       30.066  N
Station Long.      80.237  E
Station Height(m) 2183.0
Site Class        A   Vs30 between 700 m/sec to 1400 m/sec * 
Record Time       04.09.2008 12:53:00.379 UTC
Sampling Rate     200. Hz
 Record Duration   70.085 Sec.
 Direction         N-S (N positive)
Max. Acceleration    -11.452 cm/sec**2
     
  * For reference see Site Classification link of website 
     
 Base Line Corrected and Low Pass Filtered (Cut Off at 35 Hz) Time History
 Acceleration data in cm/sec**2
    
[...]
      -0.008
      -0.003
       0.001
       0.002
      -0.001
      -0.004
      -0.006
      -0.007
      -0.007
      -0.007
      -0.006
      -0.004
      -0.004
      -0.005
      -0.008
      -0.010
      -0.009
      -0.004
       0.001
       0.003
       0.001
      -0.002
      -0.004
      -0.003
      -0.001
      -0.001
      -0.003
      -0.007
      -0.010
      -0.011
      -0.008
      -0.005
      -0.002
      -0.001
       0.000
       0.000
      -0.001
      -0.003
      -0.006
      -0.009
      -0.008
      -0.003
       0.002
       0.004
       0.001
      -0.004
      -0.008
      -0.010
      -0.010
      -0.010
      -0.011
      -0.009
      -0.005
      -0.001
       0.000
      -0.004
      -0.009
      -0.013
      -0.014
      -0.011
      -0.005
       0.002
       0.004
       0.000
      -0.007
      -0.011
      -0.009
      -0.003
       0.002
       0.002
      -0.001
      -0.004
      -0.006
      -0.006
      -0.005
      -0.003
      -0.003
      -0.004
      -0.006
      -0.008
      -0.008
      -0.004
       0.000
       0.003
       0.003
       0.002
       0.001
       0.001
       0.001
      -0.002
      -0.004
      -0.005
      -0.001
       0.004
       0.008
       0.008
       0.006
       0.002
      -0.001
       0.001
       0.008
       0.015
       0.017
       0.013
       0.005
       0.000
       0.002
       0.006
       0.008
       0.004
      -0.001
      -0.004
      -0.004
      -0.002
       0.000
       0.002
       0.005
       0.009
       0.013
       0.013
       0.010
       0.004
       0.002
       0.004
       0.009
       0.012
       0.009
       0.002
      -0.004
      -0.003
       0.002
       0.008
       0.011
       0.010
       0.005
       0.001
      -0.001
      -0.001
      -0.001
      -0.003
      -0.008
      -0.012
      -0.015
      -0.014
      -0.013
      -0.016
      -0.027
      -0.049
      -0.081
      -0.119
      -0.155
      -0.184
      -0.198
      -0.194
      -0.162
      -0.091
       0.028
       0.192
       0.371
       0.517
       0.586
       0.562
       0.469
       0.365
       0.301
       0.294
       0.326
       0.367
       0.408
       0.451
       0.485
       0.474
       0.385
       0.246
       0.161
       0.247
       0.528
       0.888
       1.151
       1.212
       1.121
       1.019
       0.999
       1.022
       0.976
       0.804
       0.565
       0.353
       0.180
      -0.033
      -0.355
      -0.752
      -1.101
      -1.292
      -1.294
      -1.124
      -0.810
      -0.382
       0.093
       0.508
       0.764
       0.838
       0.774
       0.621
       0.388
       0.092
      -0.184
      -0.322
      -0.301
      -0.277
      -0.484
      -1.010
      -1.648
      -2.023
      -1.906
      -1.427
      -0.955
      -0.744
      -0.694
      -0.463
       0.189
       1.149
       2.024
       2.429
       2.236
       1.596
       0.782
       0.002
      -0.667
      -1.238
      -1.745
      -2.210
      -2.607
      -2.846
      -2.805
      -2.419
      -1.741
      -0.925
      -0.144
       0.499
       1.009
       1.467
       1.949
       2.466
       2.975
       3.436
       3.820
       4.037
       3.864
       3.022
       1.432
      -0.544
      -2.186
      -2.891
      -2.647
      -2.039
      -1.735
      -1.920
      -2.193
      -1.980
      -1.057
       0.273
       1.432
       1.980
       1.865
       1.412
       1.093
       1.178
       1.460
       1.316
       0.184
      -1.855
      -3.946
      -5.026
      -4.667
      -3.455
      -2.506
      -2.498
      -3.138
      -3.536
      -3.099
      -2.025
      -0.959
      -0.267
       0.273
       1.075
       2.117
       2.827
       2.637
       1.608
       0.433
      -0.214
      -0.299
      -0.381
      -0.977
      -2.012
      -2.858
      -2.872
      -1.903
      -0.367
       1.072
       1.924
       2.116
       1.946
       1.819
       1.949
       2.215
       2.295
       1.981
       1.413
       1.010
       1.136
       1.763
       2.457
       2.685
       2.201
       1.194
       0.118
      -0.596
      -0.715
      -0.241
       0.605
       1.419
       1.759
       1.376
       0.376
      -0.884
      -2.072
      -3.083
      -3.961
      -4.632
      -4.803
      -4.169
      -2.756
      -1.006
       0.519
       1.518
       2.052
       2.311
       2.353
       2.120
       1.674
       1.280
       1.182
       1.274
       1.102
       0.290
      -1.022
      -2.209
      -2.679
      -2.368
      -1.768
      -1.468
      -1.645
      -1.935
      -1.744
      -0.731
       0.913
       2.567
       3.574
       3.630
       2.934
       1.968
       1.113
       0.429
      -0.216
      -0.849
      -1.272
      -1.255
      -0.805
      -0.211
       0.213
       0.397
       0.529
       0.782
       1.094
       1.256
       1.197
       1.123
       1.297
       1.708
       1.962
       1.566
       0.356
      -1.293
      -2.687
      -3.261
      -2.926
      -2.046
      -1.122
      -0.459
      -0.042
       0.320
       0.751
       1.202
       1.556
       1.794
       2.045
       2.458
       3.043
       3.625
       3.922
       3.690
       2.849
       1.526
      -0.015
      -1.467
      -2.564
      -3.131
      -3.124
      -2.663
      -2.017
      -1.509
      -1.356
      -1.563
      -1.932
      -2.221
      -2.307
      -2.209
      -1.985
      -1.629
      -1.097
      -0.411
       0.283
       0.808
       1.078
       1.137
       1.071
       0.938
       0.752
       0.527
       0.288
       0.039
      -0.262
      -0.658
      -1.110
      -1.466
      -1.538
      -1.237
      -0.664
      -0.060
       0.365
       0.580
       0.731
       0.984
       1.382
       1.837
       2.221
       2.447
       2.472
       2.252
       1.735
       0.909
      -0.136
      -1.203
      -2.080
      -2.651
      -2.928
      -2.969
      -2.776
      -2.276
      -1.421
      -0.315
       0.756
       1.455
       1.622
       1.407
       1.173
       1.190
       1.377
       1.396
       1.032
       0.482
       0.192
       0.382
       0.758
       0.740
       0.009
      -1.154
      -2.080
      -2.274
      -1.783
      -1.060
      -0.482
      -0.016
       0.669
       1.796
       3.177
       4.285
       4.607
       4.014
       2.831
       1.582
       0.603
      -0.137
      -0.899
      -1.854
      -2.889
      -3.681
      -3.947
      -3.645
      -2.984
      -2.241
      -1.552
      -0.855
      -0.033
       0.905
       1.795
       2.438
       2.725
       2.664
       2.337
       1.856
       1.337
       0.875
       0.530
       0.304
       0.136
      -0.087
      -0.474
      -1.053
      -1.737
      -2.351
      -2.716
      -2.722
      -2.352
      -1.658
      -0.743
       0.230
       1.047
       1.532
       1.663
       1.598
       1.517
       1.447
       1.234
       0.707
      -0.132
      -1.069
      -1.841
      -2.328
      -2.587
      -2.708
      -2.664
      -2.322
      -1.620
      -0.697
       0.144
       0.620
       0.630
       0.287
      -0.164
      -0.462
      -0.435
      -0.058
       0.547
       1.166
       1.580
       1.647
       1.364
       0.883
       0.430
       0.152
      -0.001
      -0.234
      -0.698
      -1.300
      -1.707
      -1.573
      -0.852
       0.083
       0.657
       0.510
      -0.222
      -1.018
      -1.402
      -1.296
      -0.989
      -0.762
      -0.589
      -0.241
       0.378
       1.077
       1.573
       1.757
       1.720
       1.564
       1.262
       0.765
       0.215
      -0.048
       0.249
       1.012
       1.785
       2.081
       1.736
       0.969
       0.152
      -0.474
      -0.880
      -1.129
      -1.242
      -1.194
      -1.002
      -0.754
      -0.540
      -0.376
      -0.241
      -0.167
      -0.243
      -0.492
      -0.790
      -0.946
      -0.876
      -0.641
      -0.351
      -0.028
       0.378
       0.868
       1.295
       1.441
       1.190
       0.637
       0.021
      -0.433
      -0.618
      -0.570
      -0.435
      -0.389
      -0.543
      -0.842
      -1.085
      -1.060
      -0.710
      -0.194
       0.235
       0.422
       0.406
       0.349
       0.396
       0.592
       0.876
       1.144
       1.310
       1.350
       1.296
       1.198
       1.077
       0.892
       0.563
       0.069
      -0.488
      -0.932
      -1.145
      -1.111
      -0.862
      -0.430
       0.108
       0.582
       0.815
       0.801
       0.757
       0.932
       1.352
       1.772
       1.915
       1.742
       1.461
       1.308
       1.331
       1.382
       1.304
       1.088
       0.871
       0.775
       0.786
       0.789
       0.722
       0.643
       0.619
       0.587
       0.368
      -0.144
      -0.809
      -1.309
      -1.396
      -1.128
      -0.834
      -0.830
      -1.120
      -1.376
      -1.230
      -0.613
       0.169
       0.694
       0.740
       0.398
      -0.100
      -0.616
      -1.202
      -1.975
      -2.900
      -3.692
      -3.947
      -3.439
      -2.340
      -1.145
      -0.332
      -0.050
      -0.106
      -0.220
      -0.277
      -0.335
      -0.448
      -0.546
      -0.481
      -0.172
       0.331
       0.910
       1.444
       1.814
       1.859
       1.434
       0.569
      -0.442
      -1.180
      -1.398
      -1.170
      -0.762
      -0.410
      -0.210
      -0.177
      -0.289
      -0.464
      -0.541
      -0.362
       0.106
       0.728
       1.301
       1.697
       1.898
       1.919
       1.740
       1.324
       0.678
      -0.113
      -0.902
      -1.499
      -1.706
      -1.419
      -0.724
       0.105
       0.744
       1.013
       0.969
       0.840
       0.854
       1.085
       1.394
       1.527
       1.318
       0.837
       0.308
      -0.124
      -0.505
      -0.920
      -1.272
      -1.304
      -0.858
      -0.093
       0.603
       0.910
       0.797
       0.472
       0.146
      -0.125
      -0.401
      -0.713
      -1.002
      -1.202
      -1.348
      -1.518
      -1.665
      -1.579
      -1.102
      -0.390
       0.117
       0.077
      -0.356
      -0.559
       0.059
       1.499
       3.104
       4.057
       3.989
       3.169
       2.159
       1.329
       0.689
       0.086
      -0.522
      -1.029
      -1.322
      -1.404
      -1.352
      -1.195
      -0.871
      -0.339
       0.284
       0.768
       0.986
       1.071
       1.298
       1.782
       2.323
       2.557
       2.278
       1.625
       0.932
       0.433
       0.109
      -0.162
      -0.388
      -0.453
      -0.310
      -0.115
      -0.100
      -0.326
      -0.576
      -0.537
      -0.062
       0.702
       1.421
       1.768
       1.589
       0.987
       0.275
      -0.227
      -0.433
      -0.546
      -0.813
      -1.218
      -1.461
      -1.296
      -0.850
      -0.562
      -0.803
      -1.551
      -2.419
      -2.973
      -3.034
      -2.744
      -2.380
      -2.069
      -1.677
      -0.992
      -0.056
       0.717
       0.837
       0.191
      -0.816
      -1.613
      -1.944
      -2.023
      -2.228
      -2.636
      -2.840
      -2.248
      -0.666
       1.378
       2.931
       3.339
       2.722
       1.780
       1.157
       0.987
       0.988
       0.855
       0.513
       0.033
      -0.532
      -1.130
      -1.594
      -1.685
      -1.355
      -0.920
      -0.859
      -1.307
      -1.765
      -1.428
       0.039
       2.019
       3.344
       3.273
       2.115
       0.847
       0.170
      -0.017
      -0.242
      -0.763
      -1.359
      -1.712
      -1.780
      -1.725
      -1.572
      -1.152
      -0.393
       0.411
       0.769
       0.451
      -0.238
      -0.669
      -0.392
       0.558
       1.755
       2.705
       3.073
       2.700
       1.605
       0.040
      -1.482
      -2.392
      -2.385
      -1.606
      -0.512
       0.455
       1.113
       1.514
       1.714
       1.634
       1.142
       0.254
      -0.805
      -1.712
      -2.203
      -2.183
      -1.756
      -1.191
      -0.773
      -0.604
      -0.520
      -0.251
       0.271
       0.776
       0.878
       0.456
      -0.205
      -0.682
      -0.784
      -0.627
      -0.422
      -0.271
      -0.202
      -0.299
      -0.668
      -1.224
      -1.605
      -1.417
      -0.669
       0.119
       0.334
      -0.127
      -0.706
      -0.685
       0.141
       1.294
       2.098
       2.283
       2.100
       1.903
       1.748
       1.455
       0.993
       0.649
       0.762
       1.334
       1.959
       2.147
       1.717
       0.883
      -0.001
      -0.756
      -1.438
      -2.110
      -2.625
      -2.671
      -2.038
      -0.823
       0.602
       1.800
       2.499
       2.749
       2.896
       3.344
       4.232
       5.290
       6.025
       6.075
       5.416
       4.254
       2.766
       1.001
      -0.942
      -2.720
      -3.836
      -4.026
      -3.541
      -3.021
      -3.008
      -3.524
      -4.068
      -4.049
      -3.274
      -2.076
      -0.925
       0.066
       1.225
       2.903
       4.995
       6.930
       8.088
       8.213
       7.467
       6.193
       4.653
       2.947
       1.074
      -0.982
      -3.217
      -5.600
      -8.007
     -10.119
     -11.425
     -11.452
     -10.101
      -7.819
      -5.384
      -3.447
      -2.184
      -1.325
      -0.489
       0.494
       1.480
       2.167
       2.327
       1.967
       1.299
       0.546
      -0.288
      -1.459
      -3.225
      -5.465
      -7.532
      -8.540
      -7.891
      -5.639
      -2.411
       0.997
       4.010
       6.391
       8.103
       9.123
       9.423
       9.075
       8.297
       7.361
       6.424
       5.463
       4.354
       3.012
       1.463
      -0.173
      -1.740
      -3.095
      -4.133
      -4.770
      -4.896
      -4.377
      -3.171
      -1.464
       0.329
       1.758
       2.625
       3.102
       3.524
       4.010
       4.270
       3.850
       2.596
       0.898
      -0.552
      -1.279
      -1.377
      -1.369
      -1.704
      -2.330
      -2.774
      -2.631
      -1.944
      -1.097
      -0.390
       0.216
       0.915
       1.710
       2.307
       2.371
       1.836
       0.912
      -0.199
      -1.506
      -3.071
      -4.671
      -5.737
      -5.739
      -4.676
      -3.159
      -1.998
      -1.671
      -2.088
      -2.768
      -3.207
      -3.162
      -2.671
      -1.903
      -1.003
      -0.074
       0.769
       1.375
       1.635
       1.578
       1.372
       1.194
       1.097
       1.004
       0.812
       0.491
       0.082
      -0.350
      -0.741
      -0.986
      -0.907
      -0.319
       0.823
       2.321
       3.802
       4.909
       5.469
       5.527
       5.251
       4.784
       4.143
       3.232
       1.949
       0.295
      -1.591
      -3.477
      -5.097
      -6.186
      -6.495
      -5.842
      -4.220
      -1.902
       0.563
       2.526
       3.549
       3.658
       3.302
       2.995
       2.928
       2.865
       2.392
       1.276
      -0.359
      -2.102
      -3.498
      -4.273
      -4.439
      -4.218
      -3.847
      -3.386
      -2.659
      -1.389
       0.548
       2.944
       5.275
       6.924
       7.461
       6.849
       5.430
       3.698
       1.988
       0.314
      -1.525
      -3.639
      -5.813
      -7.537
      -8.293
      -7.855
      -6.385
      -4.290
      -1.986
       0.235
       2.174
       3.622
       4.341
       4.177
       3.208
       1.781
       0.405
      -0.466
      -0.635
      -0.238
       0.369
       0.836
       0.998
       0.904
       0.681
       0.407
       0.134
       0.010
       0.287
       1.126
       2.387
       3.650
       4.493
       4.778
       4.657
       4.328
       3.800
       2.918
       1.589
      -0.023
      -1.556
      -2.671
      -3.249
      -3.422
      -3.438
      -3.470
      -3.480
      -3.257
      -2.608
      -1.563
      -0.444
       0.295
       0.353
      -0.206
      -0.992
      -1.577
      -1.773
      -1.665
      -1.411
      -1.039
      -0.482
       0.244
       0.919
       1.230
       0.994
       0.306
      -0.542
      -1.261
      -1.691
      -1.780
      -1.535
      -1.039
      -0.456
       0.087
       0.643
       1.411
       2.482
       3.592
       4.200
       3.887
       2.735
       1.274
       0.056
      -0.745
      -1.306
      -1.807
      -2.175
      -2.192
      -1.779
      -1.135
      -0.570
      -0.240
      -0.060
       0.162
       0.512
       0.913
       1.231
       1.399
       1.445
       1.410
       1.280
       1.010
       0.614
       0.231
       0.069
       0.234
       0.594
       0.817
       0.600
      -0.088
      -0.945
      -1.524
      -1.532
      -1.026
      -0.332
       0.204
       0.443
       0.483
       0.524
       0.666
       0.818
       0.772
       0.384
      -0.283
      -0.967
      -1.371
      -1.350
      -0.993
      -0.548
      -0.240
      -0.130
      -0.103
       0.022
       0.358
       0.884
       1.460
       1.886
       1.960
       1.561
       0.726
      -0.296
      -1.128
      -1.465
      -1.272
      -0.822
      -0.494
      -0.481
      -0.658
      -0.715
      -0.444
       0.112
       0.761
       1.358
       1.884
       2.354
       2.738
       2.981
       3.065
       3.001
       2.734
       2.140
       1.194
       0.143
      -0.593
      -0.778
      -0.629
      -0.681
      -1.352
      -2.608
      -4.008
      -5.015
      -5.286
      -4.758
      -3.571
      -1.985
      -0.347
       0.958
       1.622
       1.597
       1.156
       0.736
       0.653
       0.912
       1.256
       1.379
       1.139
       0.623
       0.026
      -0.535
      -1.106
      -1.804
      -2.636
      -3.389
      -3.729
      -3.426
      -2.546
      -1.444
      -0.548
      -0.113
      -0.125
      -0.400
      -0.740
      -1.018
      -1.166
      -1.157
      -1.022
      -0.862
      -0.814
      -0.954
      -1.229
      -1.492
      -1.615
      -1.573
      -1.450
      -1.367
      -1.361
      -1.310
      -0.975
      -0.170
       1.056
       2.397
       3.462
       4.028
       4.149
       4.042
       3.842
       3.473
       2.766
       1.709
       0.563
      -0.276
      -0.577
      -0.439
      -0.196
      -0.137
      -0.308
      -0.544
      -0.652
      -0.565
      -0.342
      -0.060
       0.274
       0.709
       1.241
       1.736
       1.989
       1.892
       1.552
       1.230
       1.135
       1.244
       1.347
       1.242
       0.906
       0.490
       0.162
      -0.032
      -0.202
      -0.496
      -0.951
      -1.429
      -1.714
      -1.684
      -1.406
      -1.055
      -0.755
      -0.490
      -0.187
       0.158
       0.455
       0.616
       0.647
       0.631
       0.635
       0.649
       0.621
       0.532
       0.439
       0.403
       0.372
       0.180
      -0.281
      -0.906
      -1.428
      -1.643
