Origin Time       04/04/2011 11:31:40
Lat.              29.6 N	
Long.             80.8 E	
Depth (Km)         10.0
Magnitude         5.7
 Region           NEPAL-INDIA-BORDER-REGION                                        
 Above details taken from IMD 
     
Station Code      MUN
Station Lat.       30.066  N
Station Long.      80.237  E
Station Height(m) 2201.0
Site Class        A   Vs30 between 700 m/sec to 1400 m/sec * 
Record Time       04.04.2011 11:31:44.544
Sampling Rate     200. Hz
 Record Duration   81.180 Sec.
 Direction         E-W (E positive)
Max. Acceleration     19.145 cm/sec**2
     
  * For reference see Site Classification link of website 
     
 Base Line Corrected and Low Pass Filtered (Cut Off at 35 Hz) Time History
 Acceleration data in cm/sec**2
    
[...]
       2.859
       2.620
       2.224
       1.745
       1.225
       0.666
       0.048
      -0.602
      -1.174
      -1.513
      -1.548
      -1.389
      -1.283
      -1.430
      -1.803
      -2.140
      -2.128
      -1.633
      -0.800
       0.051
       0.626
       0.803
       0.644
       0.293
      -0.152
      -0.692
      -1.377
      -2.205
      -3.048
      -3.676
      -3.856
      -3.461
      -2.533
      -1.265
       0.054
       1.124
       1.715
       1.722
       1.170
       0.190
      -1.016
      -2.202
      -3.111
      -3.534
      -3.378
      -2.691
      -1.607
      -0.290
       1.098
       2.356
       3.235
       3.518
       3.138
       2.258
       1.220
       0.389
      -0.004
       0.049
       0.382
       0.780
       1.097
       1.286
       1.341
       1.251
       1.010
       0.650
       0.277
       0.054
       0.150
       0.656
       1.524
       2.570
       3.540
       4.198
       4.381
       4.017
       3.111
       1.757
       0.141
      -1.457
      -2.721
      -3.390
      -3.350
      -2.673
      -1.571
      -0.299
       0.921
       1.888
       2.391
       2.229
       1.328
      -0.165
      -1.911
      -3.507
      -4.625
      -5.092
      -4.898
      -4.169
      -3.105
      -1.935
      -0.875
      -0.095
       0.293
       0.238
      -0.250
      -1.056
      -1.911
      -2.420
      -2.225
      -1.226
       0.332
       1.995
       3.352
       4.222
       4.617
       4.570
       4.018
       2.867
       1.160
      -0.815
      -2.577
      -3.653
      -3.802
      -3.129
      -2.018
      -0.911
      -0.076
       0.496
       0.972
       1.436
       1.758
       1.705
       1.201
       0.474
      -0.057
      -0.065
       0.470
       1.266
       1.936
       2.236
       2.194
       2.047
       2.018
       2.111
       2.077
       1.602
       0.578
      -0.753
      -1.922
      -2.539
      -2.521
      -2.093
      -1.557
      -1.076
      -0.624
      -0.110
       0.461
       0.944
       1.124
       0.861
       0.194
      -0.649
      -1.338
      -1.584
      -1.266
      -0.489
       0.481
       1.365
       1.990
       2.306
       2.303
       1.946
       1.189
       0.063
      -1.245
      -2.424
      -3.165
      -3.328
      -3.000
      -2.419
      -1.822
      -1.343
      -1.004
      -0.780
      -0.656
      -0.647
      -0.789
      -1.090
      -1.476
      -1.779
      -1.786
      -1.350
      -0.487
       0.616
       1.681
       2.476
       2.914
       3.053
       3.005
       2.793
       2.292
       1.340
      -0.056
      -1.600
      -2.835
      -3.426
      -3.355
      -2.860
      -2.193
      -1.418
      -0.456
       0.702
       1.833
       2.561
       2.640
       2.175
       1.559
       1.169
       1.087
       1.081
       0.858
       0.335
      -0.301
      -0.792
      -1.038
      -1.150
      -1.284
      -1.454
      -1.545
      -1.479
      -1.360
      -1.391
      -1.659
      -1.999
      -2.098
      -1.758
      -1.066
      -0.332
       0.158
       0.340
       0.387
       0.547
       0.939
       1.464
       1.869
       1.931
       1.633
       1.201
       0.954
       1.080
       1.497
       1.921
       2.091
       1.960
       1.683
       1.421
       1.179
       0.835
       0.337
      -0.166
      -0.386
      -0.136
       0.484
       1.129
       1.441
       1.276
       0.738
       0.034
      -0.672
      -1.276
      -1.675
      -1.761
      -1.483
      -0.909
      -0.201
       0.454
       0.896
       1.018
       0.792
       0.298
      -0.305
      -0.853
      -1.245
      -1.432
      -1.356
      -0.934
      -0.168
       0.716
       1.293
       1.179
       0.293
      -1.077
      -2.478
      -3.549
      -4.151
      -4.300
      -4.035
      -3.346
      -2.225
      -0.758
       0.832
       2.234
       3.153
       3.397
       2.930
       1.894
       0.576
      -0.695
      -1.664
      -2.193
      -2.223
      -1.720
      -0.718
       0.607
       1.910
       2.779
       2.919
       2.280
       1.070
      -0.361
      -1.659
      -2.563
      -2.932
      -2.724
      -1.960
      -0.711
       0.914
       2.728
       4.428
       5.612
       5.913
       5.173
       3.553
       1.480
      -0.528
      -2.050
      -2.857
      -2.888
      -2.174
      -0.796
       1.068
       3.081
       4.763
       5.650
       5.488
       4.353
       2.609
       0.751
      -0.758
      -1.593
      -1.611
      -0.867
       0.412
       1.892
       3.214
       4.066
       4.246
       3.701
       2.533
       0.939
      -0.884
      -2.774
      -4.570
      -6.055
      -6.990
      -7.237
      -6.851
      -6.061
      -5.143
      -4.294
      -3.565
      -2.882
      -2.136
      -1.298
      -0.488
       0.082
       0.247
       0.038
      -0.310
      -0.471
      -0.222
       0.435
       1.299
       2.103
       2.642
       2.816
       2.586
       1.944
       0.944
      -0.238
      -1.316
      -2.005
      -2.157
      -1.802
      -1.077
      -0.138
       0.865
       1.757
       2.308
       2.273
       1.501
       0.068
      -1.657
      -3.112
      -3.776
      -3.431
      -2.251
      -0.677
       0.843
       2.064
       2.966
       3.610
       3.972
       3.933
       3.389
       2.392
       1.156
      -0.029
      -0.904
      -1.309
      -1.210
      -0.704
       0.020
       0.773
       1.460
       2.082
       2.632
       2.977
       2.867
       2.119
       0.811
      -0.690
      -1.910
      -2.543
      -2.592
      -2.294
      -1.904
      -1.526
      -1.111
      -0.582
       0.037
       0.577
       0.810
       0.576
      -0.115
      -1.082
      -2.053
      -2.751
      -2.967
      -2.606
      -1.732
      -0.566
       0.578
       1.391
       1.648
       1.238
       0.182
      -1.344
      -3.021
      -4.468
      -5.389
      -5.674
      -5.372
      -4.569
      -3.322
      -1.719
       0.015
       1.527
       2.499
       2.808
       2.556
       1.971
       1.296
       0.750
       0.521
       0.714
       1.287
       2.049
       2.749
       3.190
       3.268
       2.954
       2.259
       1.243
       0.072
      -0.935
      -1.371
      -0.945
       0.309
       2.000
       3.592
       4.692
       5.197
       5.207
       4.831
       4.073
       2.890
       1.345
      -0.307
      -1.713
      -2.632
      -3.055
      -3.109
      -2.871
      -2.278
      -1.265
       0.039
       1.274
       2.038
       2.143
       1.734
       1.181
       0.838
       0.837
       1.041
       1.188
       1.125
       0.945
       0.897
       1.129
       1.507
       1.693
       1.430
       0.792
       0.142
      -0.183
      -0.159
      -0.078
      -0.263
      -0.772
      -1.370
      -1.774
      -1.930
      -2.048
      -2.409
      -3.116
      -3.998
      -4.690
      -4.828
      -4.248
      -3.088
      -1.721
      -0.555
       0.139
       0.269
      -0.156
      -1.092
      -2.435
      -3.922
      -5.100
      -5.446
      -4.630
      -2.731
      -0.234
       2.210
       4.060
       5.055
       5.209
       4.733
       3.920
       3.026
       2.143
       1.198
       0.091
      -1.101
      -2.069
      -2.448
      -2.100
      -1.254
      -0.365
       0.198
       0.396
       0.494
       0.827
       1.547
       2.524
       3.448
       4.039
       4.180
       3.905
       3.293
       2.401
       1.253
      -0.111
      -1.600
      -3.040
      -4.194
      -4.817
      -4.730
      -3.875
      -2.352
      -0.416
       1.573
       3.253
       4.377
       4.857
       4.728
       4.060
       2.908
       1.356
      -0.382
      -1.931
      -2.893
      -3.072
      -2.593
      -1.784
      -0.948
      -0.219
       0.411
       0.964
       1.392
       1.610
       1.581
       1.347
       0.969
       0.447
      -0.254
      -1.103
      -1.945
      -2.575
      -2.878
      -2.901
      -2.788
      -2.643
      -2.429
      -2.001
      -1.262
      -0.303
       0.572
       0.998
       0.780
       0.043
      -0.825
      -1.435
      -1.669
      -1.763
      -2.102
      -2.875
      -3.846
      -4.461
      -4.234
      -3.121
      -1.566
      -0.166
       0.764
       1.378
       2.080
       3.123
       4.373
       5.402
       5.808
       5.454
       4.477
       3.103
       1.516
      -0.122
      -1.576
      -2.545
      -2.791
      -2.263
      -1.097
       0.455
       2.090
       3.485
       4.356
       4.543
       4.067
       3.101
       1.871
       0.571
      -0.623
      -1.498
      -1.806
      -1.398
      -0.346
       1.070
       2.488
       3.615
       4.281
       4.407
       3.971
       2.995
       1.580
      -0.096
      -1.793
      -3.264
      -4.284
      -4.690
      -4.412
      -3.514
      -2.177
      -0.626
       0.921
       2.250
       3.105
       3.240
       2.567
       1.296
      -0.121
      -1.203
      -1.672
      -1.531
      -0.977
      -0.266
       0.374
       0.766
       0.759
       0.247
      -0.791
      -2.227
      -3.784
      -5.101
      -5.834
      -5.762
      -4.881
      -3.414
      -1.718
      -0.128
       1.128
       1.900
       2.067
       1.550
       0.382
      -1.247
      -2.995
      -4.439
      -5.192
      -5.030
      -3.982
      -2.301
      -0.375
       1.383
       2.630
       3.181
       3.053
       2.419
       1.517
       0.569
      -0.229
      -0.702
      -0.729
      -0.302
       0.461
       1.358
       2.160
       2.645
       2.626
       2.002
       0.822
      -0.689
      -2.181
      -3.303
      -3.829
      -3.728
      -3.146
      -2.318
      -1.460
      -0.713
      -0.159
       0.112
      -0.024
      -0.637
      -1.633
      -2.725
      -3.551
      -3.843
      -3.526
      -2.683
      -1.463
      -0.029
       1.408
       2.549
       3.061
       2.746
       1.686
       0.209
      -1.291
      -2.539
      -3.413
      -3.882
      -3.945
      -3.642
      -3.099
      -2.514
      -2.040
      -1.681
      -1.288
      -0.683
       0.218
       1.399
       2.818
       4.439
       6.200
       7.975
       9.582
      10.819
      11.503
      11.496
      10.758
       9.391
       7.651
       5.871
       4.349
       3.266
       2.687
       2.605
       2.947
       3.523
       3.994
       3.947
       3.078
       1.352
      -0.949
      -3.297
      -5.069
      -5.733
      -5.039
      -3.111
      -0.412
       2.419
       4.760
       6.158
       6.407
       5.558
       3.865
       1.716
      -0.436
      -2.183
      -3.264
      -3.629
      -3.403
      -2.800
      -2.031
      -1.244
      -0.530
       0.020
       0.294
       0.219
      -0.143
      -0.560
      -0.734
      -0.455
       0.325
       1.548
       3.142
       5.022
       6.971
       8.542
       9.169
       8.440
       6.334
       3.240
      -0.243
      -3.524
      -6.120
      -7.663
      -7.946
      -7.022
      -5.244
      -3.142
      -1.208
       0.227
       0.933
       0.693
      -0.667
      -3.103
      -6.187
      -9.168
     -11.251
     -11.931
     -11.159
      -9.280
      -6.841
      -4.428
      -2.587
      -1.740
      -2.075
      -3.446
      -5.422
      -7.432
      -8.931
      -9.509
      -8.949
      -7.273
      -4.739
      -1.763
       1.195
       3.697
       5.357
       5.899
       5.276
       3.762
       1.902
       0.308
      -0.597
      -0.725
      -0.301
       0.329
       0.917
       1.425
       1.908
       2.279
       2.213
       1.307
      -0.611
      -3.311
      -6.247
      -8.806
     -10.567
     -11.402
     -11.406
     -10.734
      -9.475
      -7.653
      -5.298
      -2.500
       0.612
       3.886
       7.139
      10.112
      12.494
      14.029
      14.636
      14.402
      13.435
      11.718
       9.134
       5.648
       1.492
      -2.801
      -6.561
      -9.224
     -10.522
     -10.523
      -9.517
      -7.857
      -5.829
      -3.636
      -1.478
       0.354
       1.483
       1.607
       0.702
      -0.892
      -2.601
      -3.858
      -4.275
      -3.686
      -2.107
       0.298
       3.259
       6.462
       9.609
      12.401
      14.496
      15.535
      15.279
      13.755
      11.285
       8.364
       5.478
       2.980
       1.051
      -0.265
      -0.990
      -1.174
      -0.900
      -0.306
       0.420
       1.082
       1.542
       1.789
       1.957
       2.245
       2.773
       3.482
       4.172
       4.631
       4.763
       4.601
       4.228
       3.668
       2.860
       1.715
       0.246
      -1.342
      -2.640
      -3.155
      -2.529
      -0.754
       1.765
       4.368
       6.442
       7.658
       7.973
       7.461
       6.150
       4.064
       1.383
      -1.465
      -3.923
      -5.561
      -6.262
      -6.215
      -5.772
      -5.331
      -5.306
      -6.067
      -7.771
     -10.193
     -12.747
     -14.755
     -15.774
     -15.735
     -14.827
     -13.277
     -11.235
      -8.822
      -6.236
      -3.765
      -1.686
      -0.117
       1.057
       2.145
       3.485
       5.269
       7.480
       9.934
      12.392
      14.655
      16.603
      18.148
      19.109
      19.145
      17.835
      14.917
      10.501
       5.110
      -0.499
      -5.613
      -9.768
     -12.796
     -14.730
     -15.668
     -15.710
     -15.005
     -13.842
     -12.657
     -11.870
     -11.675
     -11.961
     -12.422
     -12.741
     -12.697
     -12.181
     -11.169
      -9.725
      -7.977
      -6.079
      -4.187
      -2.474
      -1.150
      -0.418
      -0.380
      -0.954
      -1.865
      -2.748
      -3.298
      -3.374
      -2.975
      -2.146
      -0.932
       0.560
       2.087
       3.290
       3.869
       3.788
       3.345
       3.021
       3.210
       4.030
       5.341
       6.926
       8.671
      10.594
      12.728
      14.966
      16.994
      18.391
      18.839
      18.318
      17.131
      15.757
      14.609
      13.834
      13.286
      12.667
      11.768
      10.615
       9.403
       8.293
       7.223
       5.884
       3.871
       0.930
      -2.847
      -6.991
     -10.816
     -13.688
     -15.262
     -15.554
     -14.833
     -13.414
     -11.506
      -9.211
      -6.619
      -3.886
      -1.235
       1.078
       2.820
       3.837
       4.113
       3.784
       3.073
       2.187
       1.248
       0.310
      -0.587
      -1.405
      -2.153
      -2.916
      -3.814
      -4.892
      -6.048
      -7.072
      -7.755
      -7.972
      -7.677
      -6.849
      -5.482
      -3.636
      -1.491
       0.665
       2.531
       3.874
       4.556
       4.511
       3.740
       2.354
       0.624
      -1.074
      -2.417
      -3.267
      -3.660
      -3.653
      -3.216
      -2.262
      -0.796
       1.002
       2.851
       4.515
       5.872
       6.876
       7.501
       7.753
       7.712
       7.531
       7.357
       7.215
       6.977
       6.439
       5.480
       4.166
       2.713
       1.327
       0.036
      -1.314
      -2.874
      -4.571
      -6.087
      -7.072
      -7.418
      -7.331
      -7.133
      -6.966
      -6.657
      -5.855
      -4.334
      -2.197
       0.175
       2.372
       4.186
       5.630
       6.790
       7.649
       8.015
       7.579
       6.042
       3.282
      -0.505
      -4.790
      -8.875
     -12.168
     -14.391
     -15.589
     -15.944
     -15.534
     -14.255
     -11.966
      -8.734
      -4.965
      -1.276
       1.757
       3.817
       4.882
       5.129
       4.784
       3.995
       2.815
       1.275
      -0.515
      -2.338
      -3.934
      -5.091
      -5.701
      -5.776
      -5.433
      -4.848
      -4.195
      -3.583
      -3.028
      -2.461
      -1.769
      -0.835
       0.398
       1.884
       3.446
       4.829
       5.801
       6.239
       6.146
       5.600
       4.697
       3.555
       2.369
       1.392
       0.808
       0.574
       0.415
       0.047
      -0.556
      -1.093
      -1.148
      -0.514
       0.661
       1.984
       3.055
       3.636
       3.675
       3.260
       2.596
       1.974
       1.693
       1.914
       2.581
       3.481
       4.436
       5.436
       6.592
       7.947
       9.315
      10.303
      10.478
       9.577
       7.623
       4.921
       1.931
      -0.933
      -3.472
      -5.721
      -7.796
      -9.686
     -11.177
     -11.952
     -11.776
     -10.600
      -8.542
      -5.805
      -2.651
       0.570
       3.399
       5.370
       6.177
       5.775
       4.347
       2.203
      -0.282
      -2.697
      -4.656
      -5.905
      -6.390
      -6.207
      -5.486
      -4.283
      -2.585
      -0.416
       2.043
       4.445
       6.427
       7.780
       8.495
       8.661
       8.361
       7.681
       6.775
       5.866
       5.146
       4.669
       4.384
       4.249
       4.283
       4.490
       4.743
       4.818
       4.575
       4.113
       3.697
       3.517
       3.472
       3.223
       2.451
       1.104
      -0.559
      -2.121
      -3.220
      -3.674
      -3.501
      -2.849
      -1.884
      -0.714
       0.610
       2.005
       3.277
       4.142
       4.361
       3.889
       2.890
       1.599
       0.148
      -1.486
      -3.358
      -5.378
      -7.228
      -8.487
      -8.846
      -8.244
      -6.844
      -4.916
      -2.770
      -0.738
       0.832
       1.637
       1.513
       0.507
      -1.112
      -2.933
      -4.549
      -5.693
      -6.305
      -6.489
      -6.384
      -6.036
      -5.363
      -4.275
      -2.855
      -1.432
      -0.443
      -0.167
      -0.581
      -1.449
      -2.523
      -3.636
      -4.651
      -5.400
      -5.752
      -5.714
      -5.441
      -5.110
      -4.791
      -4.433
      -3.961
      -3.392
      -2.875
      -2.589
      -2.571
      -2.611
      -2.332
      -1.419
       0.143
       2.007
       3.625
       4.540
       4.609
       4.040
       3.224
       2.491
       1.964
       1.591
       1.280
       1.013
       0.847
       0.832
       0.954
       1.150
       1.386
       1.678
       2.018
       2.277
       2.218
       1.643
       0.571
      -0.756
      -2.029
      -3.062
      -3.820
      -4.275
      -4.290
      -3.668
      -2.344
      -0.497
       1.519
       3.370
       4.890
       6.112
       7.170
       8.173
       9.127
       9.953
      10.554
      10.888
      10.990
      10.950
      10.852
      10.685
      10.294
       9.440
       7.967
       5.949
       3.697
       1.588
      -0.161
      -1.599
      -2.953
      -4.394
      -5.842
      -6.996
      -7.560
      -7.497
      -7.057
      -6.590
      -6.294
      -6.103
      -5.777
      -5.098
      -4.053
      -2.863
      -1.848
      -1.246
      -1.087
      -1.219
      -1.451
      -1.705
      -2.050
      -2.625
      -3.518
      -4.687
      -5.950
