Origin Time       01/05/2009 22:36:25 UTC
Lat.              29.9 N 
Long.             80.1 E 
Depth (Km)         10.0
Magnitude         4.6
 Region           Bageshwar-Uttarakhand                                            
 Above details taken from IMD 
    
Station Code      MUN
Station Lat.       30.066  N
Station Long.      80.237  E
Station Height(m) 2201.0
Site Class        A   Vs30 between 700 m/sec to 1400 m/sec * 
Record Time       01.05.2010 22:36:20.414 UTC
Sampling Rate     200. Hz
 Record Duration   66.790 Sec.
 Direction         N-S (N positive)
Max. Acceleration     -8.914 cm/sec**2
     
  * For reference see Site Classification link of website 
     
 Base Line Corrected and Low Pass Filtered (Cut Off at 35 Hz) Time History
 Acceleration data in cm/sec**2
    
[...]
       0.002
      -0.002
      -0.008
      -0.013
      -0.013
      -0.006
       0.005
       0.015
       0.017
       0.012
       0.004
      -0.001
       0.002
       0.008
       0.013
       0.013
       0.009
       0.004
       0.002
       0.003
       0.007
       0.010
       0.010
       0.005
       0.000
      -0.005
      -0.008
      -0.006
      -0.003
       0.001
       0.003
       0.002
       0.001
      -0.001
      -0.004
      -0.007
      -0.009
      -0.009
      -0.006
       0.000
       0.005
       0.005
       0.001
      -0.005
      -0.007
      -0.004
       0.002
       0.007
       0.010
       0.009
       0.006
       0.003
      -0.001
      -0.003
      -0.005
      -0.005
      -0.003
      -0.001
       0.002
       0.002
       0.002
       0.003
       0.005
       0.006
       0.004
      -0.001
      -0.006
      -0.009
      -0.009
      -0.007
      -0.006
      -0.007
      -0.007
      -0.005
      -0.001
       0.002
       0.003
       0.001
      -0.002
      -0.006
      -0.009
      -0.010
      -0.009
      -0.006
      -0.003
      -0.004
      -0.008
      -0.014
      -0.015
      -0.010
      -0.001
       0.006
       0.008
       0.006
       0.002
       0.000
       0.000
       0.002
       0.003
       0.003
       0.003
       0.002
       0.000
      -0.002
      -0.001
       0.004
       0.008
       0.007
       0.000
      -0.010
      -0.017
      -0.016
      -0.009
      -0.001
       0.003
       0.004
       0.005
       0.008
       0.009
       0.006
       0.000
      -0.006
      -0.007
      -0.004
       0.003
       0.009
       0.011
       0.008
       0.002
      -0.003
      -0.003
      -0.001
       0.001
       0.002
       0.001
       0.001
       0.001
       0.002
       0.002
       0.004
       0.005
       0.007
       0.008
       0.009
       0.011
       0.011
       0.010
       0.007
       0.004
       0.004
       0.008
       0.011
       0.013
       0.011
       0.006
       0.002
       0.001
       0.002
       0.004
       0.003
       0.001
      -0.002
      -0.005
      -0.008
      -0.010
      -0.010
      -0.012
      -0.013
      -0.013
      -0.009
      -0.004
      -0.001
       0.001
       0.000
      -0.002
      -0.003
      -0.002
       0.000
       0.002
       0.002
       0.002
       0.003
       0.004
       0.006
       0.006
       0.003
      -0.002
      -0.008
      -0.010
      -0.008
      -0.005
      -0.003
      -0.002
      -0.002
      -0.004
      -0.006
      -0.007
      -0.006
      -0.003
      -0.001
       0.000
       0.000
       0.000
      -0.001
      -0.004
      -0.008
      -0.012
      -0.012
      -0.008
       0.000
       0.007
       0.011
       0.010
       0.006
       0.003
       0.006
       0.014
       0.022
       0.024
       0.018
       0.007
      -0.003
      -0.009
      -0.007
       0.000
       0.006
       0.009
       0.008
       0.007
       0.008
       0.011
       0.012
       0.011
       0.008
       0.004
       0.001
       0.001
       0.000
      -0.002
      -0.010
      -0.023
      -0.046
      -0.087
      -0.158
      -0.267
      -0.409
      -0.562
      -0.685
      -0.729
      -0.637
      -0.367
       0.095
       0.707
       1.349
       1.845
       2.024
       1.794
       1.179
       0.310
      -0.606
      -1.323
      -1.622
      -1.408
      -0.792
      -0.069
       0.436
       0.538
       0.267
      -0.209
      -0.732
      -1.222
      -1.629
      -1.824
      -1.608
      -0.857
       0.303
       1.510
       2.395
       2.797
       2.764
       2.381
       1.663
       0.631
      -0.565
      -1.638
      -2.313
      -2.463
      -2.143
      -1.489
      -0.616
       0.378
       1.329
       1.951
       1.919
       1.096
      -0.276
      -1.603
      -2.263
      -2.002
      -1.079
      -0.021
       0.781
       1.262
       1.549
       1.690
       1.582
       1.138
       0.479
      -0.099
      -0.357
      -0.298
      -0.125
      -0.047
      -0.130
      -0.310
      -0.504
      -0.689
      -0.854
      -0.926
      -0.776
      -0.333
       0.300
       0.835
       0.937
       0.462
      -0.371
      -1.071
      -1.210
      -0.772
      -0.162
       0.172
       0.155
       0.121
       0.441
       1.112
       1.728
       1.844
       1.362
       0.599
      -0.019
      -0.318
      -0.475
      -0.758
      -1.194
      -1.497
      -1.337
      -0.669
       0.196
       0.838
       1.013
       0.714
       0.057
      -0.827
      -1.759
      -2.466
      -2.632
      -2.064
      -0.836
       0.695
       2.033
       2.786
       2.838
       2.360
       1.635
       0.857
       0.079
      -0.672
      -1.241
      -1.360
      -0.876
       0.013
       0.790
       0.949
       0.393
      -0.479
      -1.095
      -1.127
      -0.665
      -0.060
       0.355
       0.442
       0.282
       0.080
       0.002
       0.041
       0.040
      -0.147
      -0.492
      -0.803
      -0.881
      -0.663
      -0.235
       0.228
       0.560
       0.706
       0.747
       0.798
       0.854
       0.789
       0.528
       0.187
      -0.006
       0.082
       0.386
       0.720
       0.912
       0.845
       0.457
      -0.215
      -0.979
      -1.534
      -1.648
      -1.329
      -0.816
      -0.393
      -0.191
      -0.137
      -0.048
       0.201
       0.562
       0.843
       0.896
       0.767
       0.638
       0.589
       0.472
       0.081
      -0.563
      -1.151
      -1.343
      -1.087
      -0.615
      -0.147
       0.321
       0.889
       1.441
       1.596
       1.056
      -0.021
      -1.071
      -1.579
      -1.486
      -1.127
      -0.827
      -0.599
      -0.264
       0.211
       0.599
       0.668
       0.494
       0.418
       0.687
       1.162
       1.418
       1.114
       0.277
      -0.699
      -1.320
      -1.319
      -0.804
      -0.144
       0.329
       0.509
       0.457
       0.190
      -0.355
      -1.125
      -1.771
      -1.803
      -1.014
       0.264
       1.379
       1.852
       1.679
       1.202
       0.757
       0.463
       0.280
       0.170
       0.161
       0.246
       0.285
       0.066
      -0.485
      -1.134
      -1.456
      -1.167
      -0.375
       0.502
       1.070
       1.208
       1.028
       0.655
       0.101
      -0.635
      -1.377
      -1.753
      -1.463
      -0.577
       0.462
       1.188
       1.440
       1.362
       1.121
       0.713
       0.088
      -0.611
      -1.025
      -0.869
      -0.235
       0.429
       0.683
       0.454
       0.054
      -0.135
      -0.006
       0.215
       0.200
      -0.174
      -0.733
      -1.175
      -1.317
      -1.206
      -0.981
      -0.684
      -0.224
       0.447
       1.166
       1.588
       1.420
       0.650
      -0.394
      -1.225
      -1.492
      -1.170
      -0.505
       0.190
       0.710
       1.000
       1.115
       1.116
       1.002
       0.718
       0.256
      -0.271
      -0.655
      -0.739
      -0.545
      -0.257
      -0.058
       0.027
       0.099
       0.208
       0.263
       0.136
      -0.160
      -0.442
      -0.531
      -0.425
      -0.270
      -0.182
      -0.148
      -0.083
       0.037
       0.131
       0.106
      -0.001
       0.004
       0.293
       0.786
       1.138
       1.028
       0.468
      -0.209
      -0.682
      -0.903
      -1.015
      -1.083
      -0.992
      -0.614
      -0.004
       0.588
       0.915
       0.935
       0.806
       0.673
       0.500
       0.155
      -0.348
      -0.757
      -0.777
      -0.344
       0.303
       0.812
       0.989
       0.882
       0.648
       0.351
      -0.069
      -0.621
      -1.107
      -1.224
      -0.860
      -0.261
       0.162
       0.228
       0.167
       0.354
       0.858
       1.291
       1.158
       0.366
      -0.642
      -1.270
      -1.271
      -0.887
      -0.537
      -0.400
      -0.323
      -0.068
       0.381
       0.773
       0.818
       0.469
      -0.019
      -0.304
      -0.253
      -0.045
      -0.003
      -0.283
      -0.707
      -0.915
      -0.683
      -0.099
       0.532
       0.917
       0.916
       0.582
       0.106
      -0.274
      -0.390
      -0.243
       0.018
       0.221
       0.305
       0.357
       0.474
       0.619
       0.607
       0.275
      -0.320
      -0.872
      -1.035
      -0.693
      -0.073
       0.415
       0.479
       0.167
      -0.186
      -0.255
       0.006
       0.377
       0.610
       0.629
       0.523
       0.408
       0.308
       0.169
      -0.059
      -0.347
      -0.600
      -0.740
      -0.775
      -0.776
      -0.790
      -0.791
      -0.714
      -0.499
      -0.136
       0.312
       0.711
       0.921
       0.921
       0.833
       0.795
       0.799
       0.702
       0.413
       0.052
      -0.141
      -0.083
       0.006
      -0.197
      -0.756
      -1.355
      -1.558
      -1.205
      -0.547
      -0.023
       0.102
      -0.105
      -0.366
      -0.441
      -0.272
       0.034
       0.334
       0.556
       0.737
       0.945
       1.163
       1.275
       1.167
       0.866
       0.535
       0.311
       0.129
      -0.224
      -0.866
      -1.592
      -1.956
      -1.616
      -0.652
       0.427
       1.030
       0.909
       0.312
      -0.270
      -0.496
      -0.332
       0.083
       0.617
       1.156
       1.512
       1.455
       0.934
       0.244
      -0.135
       0.040
       0.485
       0.576
      -0.098
      -1.333
      -2.457
      -2.864
      -2.453
      -1.601
      -0.777
      -0.194
       0.213
       0.570
       0.887
       1.094
       1.185
       1.257
       1.401
       1.577
       1.642
       1.479
       1.086
       0.557
      -0.003
      -0.514
      -0.907
      -1.129
      -1.193
      -1.205
      -1.306
      -1.543
      -1.803
      -1.878
      -1.630
      -1.109
      -0.524
      -0.078
       0.197
       0.445
       0.816
       1.303
       1.754
       2.007
       1.979
       1.653
       1.035
       0.201
      -0.654
      -1.250
      -1.374
      -1.025
      -0.436
       0.045
       0.166
      -0.061
      -0.377
      -0.499
      -0.324
       0.059
       0.500
       0.878
       1.081
       0.993
       0.592
       0.033
      -0.432
      -0.654
      -0.701
      -0.755
      -0.924
      -1.137
      -1.220
      -1.071
      -0.773
      -0.519
      -0.371
      -0.134
       0.449
       1.360
       2.227
       2.613
       2.383
       1.787
       1.228
       0.944
       0.871
       0.758
       0.411
      -0.159
      -0.804
      -1.410
      -1.949
      -2.357
      -2.439
      -2.001
      -1.094
      -0.082
       0.594
       0.740
       0.501
       0.187
       0.015
       0.029
       0.175
       0.408
       0.702
       0.988
       1.139
       1.048
       0.707
       0.202
      -0.340
      -0.784
      -1.017
      -1.006
      -0.808
      -0.521
      -0.221
       0.037
       0.199
       0.224
       0.137
       0.040
       0.062
       0.256
       0.524
       0.670
       0.563
       0.265
      -0.025
      -0.171
      -0.221
      -0.318
      -0.524
      -0.751
      -0.834
      -0.641
      -0.153
       0.485
       0.995
       1.117
       0.832
       0.401
       0.144
       0.151
       0.222
       0.121
      -0.149
      -0.358
      -0.326
      -0.147
      -0.092
      -0.303
      -0.631
      -0.795
      -0.695
      -0.504
      -0.452
      -0.532
      -0.469
       0.010
       0.853
       1.626
       1.825
       1.294
       0.384
      -0.339
      -0.568
      -0.447
      -0.314
      -0.319
      -0.326
      -0.170
       0.088
       0.211
       0.080
      -0.138
      -0.160
       0.095
       0.433
       0.629
       0.667
       0.680
       0.690
       0.514
      -0.023
      -0.806
      -1.432
      -1.541
      -1.132
      -0.548
      -0.156
      -0.058
      -0.093
      -0.056
       0.097
       0.246
       0.236
       0.027
      -0.280
      -0.490
      -0.426
      -0.034
       0.563
       1.122
       1.411
       1.307
       0.836
       0.153
      -0.509
      -0.925
      -0.990
      -0.767
      -0.422
      -0.125
       0.013
      -0.075
      -0.424
      -0.990
      -1.590
      -1.944
      -1.840
      -1.262
      -0.376
       0.620
       1.583
       2.379
       2.805
       2.677
       2.015
       1.084
       0.198
      -0.547
      -1.302
      -2.221
      -3.198
      -3.859
      -3.855
      -3.147
      -2.015
      -0.779
       0.474
       1.874
       3.506
       5.171
       6.381
       6.600
       5.561
       3.462
       0.912
      -1.362
      -2.874
      -3.533
      -3.544
      -3.201
      -2.759
      -2.424
      -2.347
      -2.553
      -2.876
      -3.027
      -2.757
      -2.002
      -0.859
       0.508
       1.919
       3.125
       3.786
       3.628
       2.684
       1.365
       0.183
      -0.613
      -1.143
      -1.589
      -1.844
      -1.510
      -0.315
       1.511
       3.300
       4.439
       4.781
       4.594
       4.170
       3.579
       2.775
       1.839
       1.026
       0.552
       0.369
       0.153
      -0.493
      -1.787
      -3.660
      -5.801
      -7.739
      -8.914
      -8.775
      -6.988
      -3.694
       0.363
       4.028
       6.218
       6.423
       4.910
       2.540
       0.374
      -0.684
      -0.155
       1.791
       4.286
       6.061
       6.098
       4.229
       1.209
      -1.833
      -4.094
      -5.368
      -5.768
      -5.362
      -4.142
      -2.289
      -0.309
       1.166
       1.724
       1.357
       0.359
      -0.878
      -1.983
      -2.601
      -2.441
      -1.441
       0.095
       1.614
       2.637
       3.012
       2.876
       2.426
       1.775
       0.996
       0.249
      -0.168
       0.044
       0.927
       2.093
       2.893
       2.839
       1.922
       0.488
      -1.147
      -2.877
      -4.610
      -6.003
      -6.529
      -5.868
      -4.213
      -2.165
      -0.347
       0.890
       1.483
       1.508
       1.093
       0.453
      -0.079
      -0.148
       0.430
       1.533
       2.786
       3.750
       4.090
       3.618
       2.280
       0.220
      -2.083
      -3.845
      -4.350
      -3.456
      -1.738
      -0.088
       0.897
       1.226
       1.312
       1.489
       1.670
       1.438
       0.484
      -0.979
      -2.255
      -2.668
      -2.068
      -0.870
       0.375
       1.388
       2.192
       2.848
       3.257
       3.199
       2.529
       1.317
      -0.156
      -1.484
      -2.244
      -2.134
      -1.140
       0.357
       1.703
       2.317
       2.031
       1.146
       0.156
      -0.640
      -1.272
      -1.890
      -2.442
      -2.665
      -2.406
      -1.855
      -1.379
      -1.119
      -0.873
      -0.423
       0.101
       0.257
      -0.244
      -1.159
      -1.822
      -1.665
      -0.608
       1.037
       2.933
       4.869
       6.562
       7.486
       7.082
       5.232
       2.512
      -0.040
      -1.526
      -1.707
      -1.089
      -0.545
      -0.755
      -1.867
      -3.535
      -5.218
      -6.461
      -6.997
      -6.708
      -5.605
      -3.883
      -1.946
      -0.289
       0.781
       1.367
       1.909
       2.788
       3.926
       4.752
       4.621
       3.345
       1.391
      -0.443
      -1.584
      -2.012
      -2.060
      -1.938
      -1.485
      -0.423
       1.159
       2.648
       3.296
       2.802
       1.552
       0.290
      -0.447
      -0.601
      -0.396
       0.006
       0.575
       1.229
       1.738
       1.888
       1.707
       1.441
       1.259
       1.014
       0.313
      -1.148
      -3.261
      -5.437
      -6.861
      -6.935
      -5.639
      -3.538
      -1.412
       0.206
       1.232
       1.869
       2.287
       2.490
       2.439
       2.251
       2.191
       2.430
       2.835
       3.023
       2.690
       1.917
       1.139
       0.778
       0.926
       1.348
       1.730
       1.830
       1.458
       0.448
      -1.229
      -3.323
      -5.298
      -6.530
      -6.569
      -5.301
      -2.990
      -0.251
       2.084
       3.302
       3.170
       2.034
       0.551
      -0.693
      -1.389
      -1.497
      -1.161
      -0.633
      -0.147
       0.259
       0.829
       1.885
       3.409
       4.826
       5.328
       4.529
       2.816
       1.038
      -0.119
      -0.443
      -0.053
       0.833
       1.876
       2.524
       2.191
       0.639
      -1.783
      -4.292
      -6.100
      -6.801
      -6.506
      -5.660
      -4.695
      -3.785
      -2.894
      -1.975
      -1.043
      -0.068
       1.097
       2.570
       4.199
       5.524
       6.038
       5.559
       4.379
       3.057
       2.004
       1.237
       0.487
      -0.452
      -1.462
      -2.174
      -2.292
      -1.836
      -1.065
      -0.225
       0.587
       1.331
       1.919
       2.232
       2.215
       1.869
       1.194
       0.172
      -1.122
      -2.415
      -3.278
      -3.325
      -2.423
      -0.774
       1.131
       2.684
       3.420
       3.227
       2.376
       1.302
       0.358
      -0.288
      -0.618
      -0.715
      -0.737
      -0.885
      -1.331
      -2.135
      -3.188
      -4.235
      -4.991
      -5.329
      -5.325
      -5.094
      -4.528
      -3.274
      -1.055
       1.925
       4.926
       7.089
       7.968
       7.698
       6.679
       5.147
       3.090
       0.554
      -2.042
      -3.981
      -4.669
      -4.029
      -2.535
      -0.910
       0.247
       0.679
       0.488
       0.033
      -0.220
       0.118
       1.150
       2.566
       3.745
       4.056
       3.165
       1.167
      -1.482
      -4.127
      -6.129
      -7.060
      -6.806
      -5.545
      -3.647
      -1.569
       0.258
       1.538
       2.160
       2.199
       1.891
       1.591
       1.638
       2.131
       2.809
       3.190
       2.927
       2.087
       1.092
       0.389
       0.119
       0.039
      -0.253
      -0.985
      -2.018
      -2.934
      -3.308
      -2.950
      -1.935
      -0.495
       1.085
       2.464
       3.256
       3.176
       2.263
       0.948
      -0.142
      -0.550
      -0.254
       0.395
       0.997
       1.392
       1.667
       1.930
       2.105
       1.936
       1.173
      -0.243
      -2.112
      -4.024
      -5.457
      -5.964
      -5.408
      -4.110
      -2.702
      -1.708
      -1.179
      -0.699
       0.218
       1.658
       3.203
       4.295
       4.732
       4.798
       4.879
       4.982
       4.686
       3.599
       1.873
       0.208
      -0.730
      -0.924
      -1.017
      -1.687
      -2.992
      -4.308
      -4.875
      -4.384
      -3.115
      -1.636
      -0.435
       0.226
       0.272
      -0.228
      -1.021
      -1.683
      -1.789
      -1.204
      -0.207
       0.704
       1.192
       1.267
