Origin Time       01/05/2009 22:36:25
Lat.              29.9 N 
Long.             80.1 E 
Depth (Km)         10.0
Magnitude         4.6
 Region           Bageshwar-Uttarakhand                                            
 Above details taken from IMD 
     
Station Code      MUN
Station Lat.       30.066  N
Station Long.      80.237  E
Station Height(m) 2201.0
Site Class        A   Vs30 between 700 m/sec to 1400 m/sec * 
Record Time       01.05.2010 22:36:20.414
Sampling Rate     200. Hz
 Record Duration   66.790 Sec.
 Direction         E-W (E positive)
Max. Acceleration      9.075 cm/sec**2
     
  * For reference see Site Classification link of website 
     
 Base Line Corrected and Low Pass Filtered (Cut Off at 35 Hz) Time History
 Acceleration data in cm/sec**2
    
[...]
      -0.003
      -0.005
      -0.008
      -0.009
      -0.006
       0.000
       0.008
       0.012
       0.010
       0.006
       0.001
      -0.003
      -0.005
      -0.009
      -0.014
      -0.018
      -0.017
      -0.012
      -0.005
       0.000
       0.000
      -0.003
      -0.005
      -0.004
      -0.003
      -0.001
      -0.001
      -0.002
      -0.004
      -0.005
      -0.006
      -0.006
      -0.004
      -0.003
      -0.003
      -0.006
      -0.011
      -0.012
      -0.009
      -0.002
       0.004
       0.005
       0.001
      -0.007
      -0.014
      -0.018
      -0.018
      -0.014
      -0.009
      -0.001
       0.006
       0.012
       0.012
       0.007
      -0.001
      -0.006
      -0.005
       0.001
       0.006
       0.008
       0.005
       0.002
      -0.001
      -0.002
      -0.003
      -0.004
      -0.005
      -0.005
      -0.006
      -0.006
      -0.003
       0.001
       0.007
       0.009
       0.009
       0.007
       0.004
       0.001
      -0.002
      -0.005
      -0.007
      -0.007
      -0.005
      -0.003
      -0.001
       0.001
       0.002
       0.001
      -0.002
      -0.004
      -0.004
      -0.002
       0.001
       0.002
       0.002
       0.002
       0.001
       0.002
       0.002
       0.000
      -0.002
      -0.003
       0.000
       0.004
       0.006
       0.004
      -0.003
      -0.011
      -0.016
      -0.014
      -0.008
      -0.003
      -0.003
      -0.009
      -0.016
      -0.018
      -0.014
      -0.006
       0.002
       0.005
       0.003
      -0.002
      -0.004
      -0.001
       0.008
       0.016
       0.019
       0.013
       0.001
      -0.007
      -0.007
       0.000
       0.006
       0.005
      -0.003
      -0.011
      -0.013
      -0.007
       0.001
       0.006
       0.005
       0.001
      -0.002
      -0.001
       0.003
       0.007
       0.008
       0.006
       0.003
       0.001
      -0.001
      -0.004
      -0.009
      -0.016
      -0.019
      -0.016
      -0.008
       0.000
       0.001
      -0.004
      -0.013
      -0.018
      -0.016
      -0.008
       0.001
       0.005
       0.003
      -0.004
      -0.011
      -0.016
      -0.017
      -0.015
      -0.014
      -0.012
      -0.009
      -0.005
      -0.004
      -0.005
      -0.008
      -0.010
      -0.011
      -0.010
      -0.010
      -0.010
      -0.011
      -0.012
      -0.011
      -0.009
      -0.008
      -0.007
      -0.007
      -0.006
      -0.004
      -0.003
      -0.002
      -0.002
      -0.006
      -0.013
      -0.026
      -0.048
      -0.084
      -0.147
      -0.247
      -0.382
      -0.536
      -0.668
      -0.730
      -0.670
      -0.445
      -0.040
       0.505
       1.081
       1.530
       1.698
       1.501
       0.957
       0.181
      -0.629
      -1.239
      -1.449
      -1.190
      -0.584
       0.095
       0.565
       0.681
       0.483
       0.122
      -0.276
      -0.672
      -1.081
      -1.459
      -1.649
      -1.459
      -0.806
       0.206
       1.350
       2.377
       3.055
       3.179
       2.614
       1.383
      -0.280
      -1.983
      -3.270
      -3.763
      -3.281
      -1.919
      -0.020
       1.909
       3.341
       3.875
       3.380
       2.053
       0.356
      -1.159
      -2.074
      -2.274
      -1.943
      -1.408
      -0.928
      -0.582
      -0.295
       0.033
       0.407
       0.703
       0.750
       0.449
      -0.136
      -0.787
      -1.219
      -1.224
      -0.766
       0.019
       0.906
       1.686
       2.204
       2.343
       2.026
       1.281
       0.292
      -0.653
      -1.326
      -1.689
      -1.853
      -1.917
      -1.867
      -1.630
      -1.204
      -0.683
      -0.143
       0.470
       1.291
       2.313
       3.239
       3.581
       2.999
       1.582
      -0.173
      -1.672
      -2.550
      -2.774
      -2.513
      -1.950
      -1.189
      -0.285
       0.700
       1.636
       2.286
       2.360
       1.676
       0.360
      -1.122
      -2.190
      -2.490
      -2.073
      -1.290
      -0.487
       0.217
       0.886
       1.555
       2.078
       2.210
       1.810
       0.952
      -0.139
      -1.207
      -2.018
      -2.372
      -2.164
      -1.471
      -0.570
       0.206
       0.677
       0.893
       1.013
       1.115
       1.108
       0.856
       0.376
      -0.078
      -0.170
       0.227
       0.883
       1.354
       1.305
       0.731
      -0.088
      -0.810
      -1.234
      -1.342
      -1.238
      -1.044
      -0.844
      -0.681
      -0.595
      -0.613
      -0.692
      -0.687
      -0.429
       0.140
       0.904
       1.633
       2.100
       2.168
       1.828
       1.189
       0.430
      -0.269
      -0.775
      -1.043
      -1.139
      -1.204
      -1.347
      -1.532
      -1.569
      -1.223
      -0.393
       0.744
       1.764
       2.217
       1.917
       1.057
       0.048
      -0.764
      -1.244
      -1.421
      -1.344
      -1.029
      -0.513
       0.094
       0.635
       0.970
       1.014
       0.742
       0.243
      -0.247
      -0.439
      -0.215
       0.206
       0.401
       0.086
      -0.620
      -1.255
      -1.373
      -0.868
      -0.010
       0.801
       1.290
       1.355
       1.002
       0.343
      -0.377
      -0.856
      -0.931
      -0.677
      -0.282
       0.121
       0.497
       0.792
       0.888
       0.707
       0.359
       0.122
       0.211
       0.532
       0.698
       0.329
      -0.595
      -1.634
      -2.157
      -1.777
      -0.622
       0.749
       1.732
       2.031
       1.732
       1.101
       0.343
      -0.469
      -1.280
      -1.948
      -2.258
      -2.055
      -1.369
      -0.420
       0.504
       1.184
       1.529
       1.549
       1.298
       0.852
       0.306
      -0.228
      -0.623
      -0.767
      -0.627
      -0.298
       0.050
       0.295
       0.438
       0.545
       0.640
       0.660
       0.520
       0.192
      -0.267
      -0.762
      -1.186
      -1.408
      -1.266
      -0.663
       0.280
       1.187
       1.645
       1.484
       0.871
       0.129
      -0.508
      -0.973
      -1.248
      -1.254
      -0.879
      -0.122
       0.808
       1.550
       1.798
       1.468
       0.726
      -0.125
      -0.794
      -1.119
      -1.114
      -0.943
      -0.793
      -0.744
      -0.713
      -0.511
       0.003
       0.761
       1.464
       1.766
       1.508
       0.819
       0.006
      -0.641
      -0.981
      -1.035
      -0.907
      -0.695
      -0.457
      -0.231
      -0.057
       0.045
       0.101
       0.154
       0.200
       0.170
       0.026
      -0.143
      -0.153
       0.117
       0.584
       0.970
       1.004
       0.650
       0.162
      -0.114
      -0.041
       0.202
       0.283
       0.007
      -0.546
      -1.124
      -1.500
      -1.570
      -1.337
      -0.853
      -0.195
       0.510
       1.080
       1.333
       1.198
       0.768
       0.221
      -0.304
      -0.733
      -1.000
      -1.025
      -0.760
      -0.252
       0.362
       0.926
       1.342
       1.588
       1.651
       1.472
       0.999
       0.287
      -0.458
      -0.993
      -1.181
      -1.045
      -0.703
      -0.280
       0.114
       0.372
       0.392
       0.147
      -0.253
      -0.625
      -0.858
      -1.000
      -1.165
      -1.357
      -1.404
      -1.102
      -0.420
       0.437
       1.174
       1.585
       1.622
       1.349
       0.873
       0.318
      -0.173
      -0.485
      -0.587
      -0.542
      -0.424
      -0.256
      -0.010
       0.341
       0.762
       1.108
       1.173
       0.832
       0.181
      -0.491
      -0.875
      -0.848
      -0.544
      -0.237
      -0.135
      -0.239
      -0.383
      -0.402
      -0.260
      -0.039
       0.144
       0.205
       0.118
      -0.064
      -0.234
      -0.310
      -0.299
      -0.258
      -0.201
      -0.079
       0.149
       0.429
       0.612
       0.537
       0.158
      -0.367
      -0.743
      -0.739
      -0.369
       0.117
       0.423
       0.419
       0.215
       0.067
       0.168
       0.485
       0.778
       0.804
       0.534
       0.157
      -0.118
      -0.229
      -0.244
      -0.243
      -0.244
      -0.234
      -0.208
      -0.175
      -0.125
      -0.039
       0.069
       0.144
       0.151
       0.128
       0.149
       0.217
       0.219
       0.018
      -0.418
      -0.955
      -1.356
      -1.428
      -1.127
      -0.571
       0.022
       0.456
       0.666
       0.748
       0.849
       1.015
       1.136
       1.046
       0.682
       0.141
      -0.406
      -0.853
      -1.186
      -1.405
      -1.430
      -1.134
      -0.460
       0.457
       1.296
       1.705
       1.511
       0.853
       0.091
      -0.419
      -0.528
      -0.335
      -0.085
       0.008
      -0.124
      -0.377
      -0.565
      -0.527
      -0.217
       0.265
       0.706
       0.899
       0.754
       0.359
      -0.087
      -0.377
      -0.390
      -0.126
       0.321
       0.804
       1.149
       1.183
       0.810
       0.128
      -0.578
      -1.014
      -1.093
      -0.980
      -0.910
      -0.988
      -1.156
      -1.293
      -1.310
      -1.146
      -0.743
      -0.093
       0.666
       1.240
       1.339
       0.909
       0.207
      -0.365
      -0.543
      -0.361
      -0.065
       0.132
       0.233
       0.398
       0.738
       1.153
       1.403
       1.300
       0.839
       0.171
      -0.519
      -1.092
      -1.470
      -1.617
      -1.533
      -1.260
      -0.891
      -0.553
      -0.331
      -0.179
       0.063
       0.526
       1.151
       1.683
       1.837
       1.503
       0.833
       0.160
      -0.206
      -0.164
       0.128
       0.377
       0.361
       0.050
      -0.428
      -0.893
      -1.194
      -1.245
      -1.042
      -0.665
      -0.220
       0.206
       0.548
       0.738
       0.739
       0.585
       0.380
       0.254
       0.305
       0.534
       0.775
       0.746
       0.249
      -0.629
      -1.515
      -1.985
      -1.820
      -1.115
      -0.199
       0.534
       0.804
       0.563
       0.002
      -0.542
      -0.753
      -0.492
       0.147
       0.896
       1.466
       1.672
       1.483
       1.003
       0.416
      -0.069
      -0.309
      -0.311
      -0.211
      -0.170
      -0.280
      -0.575
      -1.029
      -1.502
      -1.723
      -1.413
      -0.494
       0.796
       1.970
       2.534
       2.269
       1.369
       0.310
      -0.451
      -0.711
      -0.557
      -0.241
      -0.020
      -0.030
      -0.259
      -0.588
      -0.884
      -1.038
      -0.960
      -0.605
      -0.036
       0.544
       0.879
       0.809
       0.367
      -0.238
      -0.734
      -0.900
      -0.660
      -0.107
       0.532
       0.991
       1.098
       0.875
       0.543
       0.360
       0.421
       0.572
       0.554
       0.240
      -0.271
      -0.763
      -1.097
      -1.279
      -1.387
      -1.451
      -1.398
      -1.111
      -0.559
       0.110
       0.621
       0.764
       0.564
       0.278
       0.220
       0.542
       1.132
       1.677
       1.853
       1.486
       0.645
      -0.379
      -1.181
      -1.458
      -1.201
      -0.711
      -0.388
      -0.450
      -0.792
      -1.115
      -1.162
      -0.869
      -0.327
       0.323
       0.932
       1.330
       1.370
       1.031
       0.469
      -0.084
      -0.469
      -0.670
      -0.740
      -0.705
      -0.547
      -0.287
      -0.021
       0.139
       0.173
       0.183
       0.306
       0.586
       0.901
       1.026
       0.804
       0.286
      -0.254
      -0.484
      -0.255
       0.256
       0.632
       0.521
      -0.082
      -0.812
      -1.230
      -1.151
      -0.753
      -0.376
      -0.238
      -0.296
      -0.340
      -0.209
       0.064
       0.280
       0.241
      -0.089
      -0.550
      -0.891
      -0.928
      -0.663
      -0.244
       0.195
       0.659
       1.221
       1.842
       2.287
       2.294
       1.804
       1.006
       0.173
      -0.525
      -1.052
      -1.425
      -1.656
      -1.761
      -1.789
      -1.788
      -1.699
      -1.349
      -0.593
       0.468
       1.437
       1.829
       1.395
       0.336
      -0.768
      -1.263
      -0.805
       0.427
       1.810
       2.654
       2.602
       1.764
       0.537
      -0.730
      -1.888
      -2.885
      -3.547
      -3.551
      -2.643
      -0.913
       1.165
       2.962
       4.036
       4.309
       4.031
       3.586
       3.249
       3.005
       2.528
       1.412
      -0.490
      -2.870
      -5.085
      -6.502
      -6.824
      -6.182
      -4.989
      -3.686
      -2.530
      -1.502
      -0.370
       1.107
       2.939
       4.800
       6.180
       6.673
       6.182
       4.898
       3.136
       1.153
      -0.896
      -2.866
      -4.493
      -5.367
      -5.082
      -3.500
      -0.973
       1.677
       3.508
       3.995
       3.330
       2.238
       1.443
       1.232
       1.399
       1.522
       1.250
       0.421
      -0.978
      -2.848
      -4.930
      -6.770
      -7.825
      -7.661
      -6.092
      -3.217
       0.559
       4.501
       7.646
       9.075
       8.270
       5.390
       1.336
      -2.504
      -4.820
      -4.991
      -3.356
      -0.933
       1.192
       2.409
       2.763
       2.707
       2.663
       2.683
       2.449
       1.595
       0.061
      -1.784
      -3.357
      -4.255
      -4.535
      -4.610
      -4.835
      -5.095
      -4.778
      -3.217
      -0.294
       3.278
       6.270
       7.651
       7.205
       5.579
       3.757
       2.384
       1.469
       0.637
      -0.384
      -1.463
      -2.151
      -2.042
      -1.105
       0.270
       1.517
       2.211
       2.218
       1.636
       0.669
      -0.440
      -1.448
      -2.175
      -2.564
      -2.669
      -2.567
      -2.320
      -2.002
      -1.739
      -1.642
      -1.693
      -1.698
      -1.424
      -0.822
      -0.092
       0.486
       0.808
       1.002
       1.245
       1.606
       2.082
       2.720
       3.592
       4.581
       5.253
       5.060
       3.795
       1.873
       0.080
      -1.006
      -1.370
      -1.401
      -1.468
      -1.714
      -2.163
      -2.859
      -3.782
      -4.668
      -5.047
      -4.626
      -3.649
      -2.801
      -2.627
      -3.015
      -3.284
      -2.793
      -1.460
       0.277
       1.898
       3.178
       4.171
       4.952
       5.414
       5.357
       4.739
       3.833
       3.085
       2.802
       2.917
       3.010
       2.544
       1.198
      -0.868
      -2.975
      -4.251
      -4.162
      -2.892
      -1.213
       0.055
       0.536
       0.359
      -0.195
      -1.018
      -2.145
      -3.479
      -4.676
      -5.364
      -5.433
      -5.019
      -4.173
      -2.690
      -0.377
       2.502
       5.122
       6.554
       6.393
       5.015
       3.228
       1.651
       0.420
      -0.590
      -1.396
      -1.841
      -1.822
      -1.448
      -0.929
      -0.371
       0.244
       0.913
       1.464
       1.601
       1.085
      -0.066
      -1.505
      -2.714
      -3.277
      -3.059
      -2.145
      -0.689
       1.107
       2.877
       4.051
       4.096
       2.915
       1.034
      -0.679
      -1.575
      -1.600
      -1.167
      -0.672
      -0.139
       0.679
       1.871
       3.076
       3.685
       3.345
       2.215
       0.738
      -0.779
      -2.318
      -3.922
      -5.416
      -6.384
      -6.440
      -5.508
      -3.877
      -2.010
      -0.327
       0.932
       1.747
       2.253
       2.594
       2.783
       2.711
       2.267
       1.478
       0.551
      -0.176
      -0.342
       0.298
       1.717
       3.520
       5.019
       5.542
       4.853
       3.339
       1.725
       0.521
      -0.305
      -1.105
      -2.082
      -3.057
      -3.663
      -3.671
      -3.142
      -2.372
      -1.759
      -1.671
      -2.265
      -3.336
      -4.328
      -4.622
      -3.925
      -2.450
      -0.702
       0.947
       2.505
       4.184
       5.983
       7.469
       7.997
       7.130
       4.906
       1.832
      -1.329
      -3.821
      -5.139
      -5.188
      -4.284
      -2.971
      -1.712
      -0.635
       0.476
       1.884
       3.525
       4.865
       5.177
       4.065
       1.828
      -0.665
      -2.541
      -3.499
      -3.898
      -4.318
      -4.954
      -5.393
      -4.935
      -3.176
      -0.364
       2.735
       5.269
       6.690
       6.873
       6.006
       4.394
       2.329
       0.069
      -2.121
      -3.966
      -5.238
      -5.826
      -5.748
      -5.117
      -4.076
      -2.708
      -0.999
       1.058
       3.244
       5.023
       5.771
       5.214
       3.686
       1.968
       0.783
       0.371
       0.447
       0.536
       0.361
      -0.017
      -0.355
      -0.471
      -0.363
      -0.184
      -0.120
      -0.254
      -0.469
      -0.484
      -0.029
       0.925
       2.077
       2.926
       3.031
       2.207
       0.539
      -1.689
      -4.040
      -5.954
      -6.870
      -6.484
      -4.928
      -2.674
      -0.245
       2.005
       3.881
       5.242
       5.979
       6.070
       5.598
       4.675
       3.352
       1.608
      -0.537
      -2.882
      -5.026
      -6.488
      -6.892
      -6.079
      -4.155
      -1.493
       1.314
       3.624
       4.989
       5.296
       4.729
       3.627
       2.338
       1.136
       0.155
      -0.618
      -1.296
      -2.009
      -2.786
      -3.468
      -3.713
      -3.168
      -1.737
       0.237
       2.077
       3.106
       3.019
       2.030
       0.734
      -0.215
      -0.456
      -0.116
       0.294
       0.236
      -0.489
      -1.620
      -2.645
      -3.160
      -3.103
      -2.694
      -2.171
      -1.597
      -0.872
       0.096
       1.231
       2.262
       2.856
       2.786
       2.036
       0.797
      -0.584
      -1.706
      -2.257
      -2.145
      -1.533
      -0.747
      -0.126
       0.118
      -0.033
      -0.420
      -0.792
      -0.903
      -0.611
       0.032
       0.740
       1.123
       0.952
       0.363
      -0.200
      -0.294
       0.225
       1.145
       2.070
       2.656
       2.725
       2.246
       1.272
      -0.041
      -1.366
      -2.262
      -2.410
      -1.878
      -1.133
      -0.722
      -0.870
      -1.309
      -1.483
      -0.962
       0.242
       1.675
       2.743
       3.078
       2.677
       1.772
       0.623
      -0.580
      -1.687
      -2.560
      -3.114
      -3.350
      -3.333
      -3.107
      -2.631
      -1.794
      -0.546
       0.969
       2.408
       3.391
       3.694
       3.325
       2.489
       1.499
       0.663
       0.135
      -0.157
      -0.422
      -0.772
      -1.071
      -1.036
      -0.546
       0.149
       0.544
       0.273
