Origin Time       19/08/2008 10:54:26 UTC
Lat.              30.1°N 
Long.             80.1°E 
Depth (Km)         15.0
Magnitude         4.3
 Region           PITHORAGARH                                                      
 Above details taken from IMD 
    
Station Code      MUN
Station Lat.       30.066  N
Station Long.      80.237  E
Station Height(m) 2183.0
Site Class        A   Vs30 between 700 m/sec to 1400 m/sec * 
Record Time       19.08.2008 10:54:18.169 UTC
Sampling Rate     200. Hz
 Record Duration   65.480 Sec.
 Direction         N-S (N positive)
Max. Acceleration     13.440 cm/sec**2
     
  * For reference see Site Classification link of website 
     
 Base Line Corrected and Low Pass Filtered (Cut Off at 35 Hz) Time History
 Acceleration data in cm/sec**2
    
[...]
       0.006
       0.005
      -0.001
      -0.008
      -0.012
      -0.011
      -0.006
       0.001
       0.006
       0.007
       0.005
       0.003
       0.000
      -0.001
      -0.002
      -0.002
      -0.001
       0.002
       0.003
       0.001
      -0.005
      -0.011
      -0.011
      -0.006
       0.001
       0.004
       0.003
       0.001
       0.001
       0.004
       0.007
       0.006
       0.001
      -0.004
      -0.005
      -0.002
       0.003
       0.006
       0.006
       0.005
       0.006
       0.009
       0.010
       0.007
       0.003
       0.000
       0.003
       0.009
       0.015
       0.017
       0.014
       0.010
       0.007
       0.005
       0.004
       0.003
       0.000
      -0.003
      -0.004
      -0.002
       0.000
       0.001
       0.001
      -0.001
       0.000
       0.002
       0.005
       0.006
       0.006
       0.006
       0.006
       0.005
       0.003
       0.002
       0.003
       0.006
       0.006
       0.001
      -0.007
      -0.013
      -0.016
      -0.015
      -0.013
      -0.011
      -0.010
      -0.008
      -0.006
      -0.001
       0.005
       0.011
       0.013
       0.011
       0.009
       0.008
       0.008
       0.006
       0.004
       0.003
       0.005
       0.007
       0.009
       0.009
       0.009
       0.009
       0.008
       0.006
       0.003
       0.001
       0.002
       0.002
       0.001
       0.001
       0.004
       0.009
       0.013
       0.011
       0.002
      -0.008
      -0.011
      -0.006
       0.003
       0.009
       0.010
       0.008
       0.007
       0.010
       0.015
       0.016
       0.013
       0.009
       0.006
       0.005
       0.001
      -0.004
      -0.008
      -0.009
      -0.006
      -0.002
      -0.002
      -0.003
      -0.004
      -0.004
      -0.002
       0.001
       0.002
       0.003
       0.002
       0.000
      -0.002
      -0.004
      -0.004
      -0.003
      -0.001
       0.001
       0.003
       0.002
      -0.003
      -0.008
      -0.011
      -0.009
      -0.004
      -0.003
      -0.005
      -0.007
      -0.006
      -0.002
       0.002
       0.003
       0.000
      -0.005
      -0.009
      -0.010
      -0.007
      -0.002
       0.004
       0.007
       0.006
       0.004
       0.003
       0.005
       0.010
       0.016
       0.020
       0.021
       0.017
       0.011
       0.008
       0.007
       0.008
       0.004
      -0.001
      -0.005
      -0.003
       0.002
       0.002
      -0.002
      -0.007
      -0.007
      -0.004
       0.000
       0.001
      -0.002
      -0.006
      -0.011
      -0.013
      -0.012
      -0.007
       0.000
       0.004
       0.004
       0.001
       0.000
       0.005
       0.010
       0.011
       0.010
       0.007
       0.006
       0.004
       0.001
      -0.005
      -0.009
      -0.011
      -0.009
      -0.007
      -0.006
      -0.006
      -0.005
      -0.005
      -0.004
      -0.003
      -0.002
       0.000
       0.001
       0.002
       0.002
       0.004
       0.004
       0.003
       0.001
       0.000
       0.000
       0.000
       0.001
       0.003
       0.004
       0.005
       0.004
       0.003
       0.005
       0.008
       0.009
       0.006
      -0.002
      -0.009
      -0.012
      -0.009
      -0.004
       0.002
       0.004
       0.001
      -0.006
      -0.010
      -0.010
      -0.005
       0.002
       0.004
       0.003
       0.001
      -0.001
       0.000
       0.002
       0.003
       0.003
       0.003
       0.006
       0.011
       0.016
       0.016
       0.010
       0.002
      -0.004
      -0.005
      -0.006
      -0.009
      -0.011
      -0.010
      -0.006
      -0.002
      -0.001
      -0.004
      -0.007
      -0.009
      -0.009
      -0.007
      -0.003
       0.002
       0.009
       0.015
       0.020
       0.021
       0.016
       0.006
      -0.004
      -0.010
      -0.006
       0.003
       0.011
       0.014
       0.011
       0.008
       0.006
       0.006
       0.005
       0.003
       0.002
       0.003
       0.005
       0.006
       0.004
       0.001
      -0.001
      -0.002
      -0.001
       0.000
       0.003
       0.007
       0.010
       0.011
       0.010
       0.008
       0.007
       0.008
       0.008
       0.007
       0.004
       0.000
      -0.003
      -0.004
      -0.004
      -0.004
      -0.003
       0.001
       0.006
       0.011
       0.011
       0.008
       0.003
       0.000
      -0.001
       0.000
       0.002
       0.005
       0.007
       0.008
       0.007
       0.006
       0.008
       0.010
       0.011
       0.009
       0.004
      -0.002
      -0.006
      -0.007
      -0.007
      -0.003
       0.002
       0.007
       0.009
       0.009
       0.009
       0.010
       0.011
       0.010
       0.005
       0.000
      -0.001
       0.001
       0.006
       0.012
       0.015
       0.014
       0.010
       0.006
       0.005
       0.009
       0.015
       0.017
       0.014
       0.007
       0.000
      -0.004
      -0.004
       0.000
       0.004
       0.008
       0.010
       0.010
       0.010
       0.009
       0.006
       0.002
      -0.001
       0.000
       0.003
       0.006
       0.007
       0.006
       0.004
       0.002
       0.001
      -0.001
      -0.002
      -0.003
      -0.003
      -0.003
      -0.001
       0.002
       0.005
       0.005
       0.004
       0.006
       0.011
       0.015
       0.016
       0.015
       0.014
       0.013
       0.010
       0.005
       0.001
       0.003
       0.010
       0.015
       0.014
       0.006
      -0.004
      -0.009
      -0.009
      -0.005
       0.000
       0.001
      -0.001
      -0.007
      -0.011
      -0.011
      -0.007
      -0.002
       0.000
      -0.001
      -0.003
      -0.004
      -0.004
      -0.003
       0.001
       0.007
       0.012
       0.014
       0.011
       0.006
       0.003
       0.003
       0.006
       0.007
       0.004
      -0.002
      -0.005
      -0.003
       0.005
       0.015
       0.021
       0.017
       0.003
      -0.007
      -0.001
       0.019
       0.028
      -0.007
      -0.093
      -0.190
      -0.237
      -0.204
      -0.149
      -0.171
      -0.310
      -0.460
      -0.437
      -0.165
       0.205
       0.436
       0.505
       0.683
       1.211
       1.881
       2.066
       1.319
      -0.084
      -1.337
      -1.899
      -1.974
      -2.092
      -2.278
      -1.896
      -0.427
       1.722
       3.368
       3.561
       2.388
       0.767
      -0.468
      -1.199
      -1.799
      -2.424
      -2.695
      -2.118
      -0.727
       0.808
       1.726
       1.799
       1.409
       1.088
       1.034
       1.042
       0.812
       0.283
      -0.334
      -0.810
      -1.127
      -1.413
      -1.664
      -1.629
      -1.046
       0.043
       1.213
       1.906
       1.810
       1.073
       0.152
      -0.534
      -0.844
      -0.870
      -0.755
      -0.544
      -0.169
       0.421
       1.065
       1.413
       1.205
       0.564
      -0.088
      -0.393
      -0.343
      -0.228
      -0.341
      -0.715
      -1.099
      -1.187
      -0.894
      -0.402
       0.049
       0.376
       0.657
       0.956
       1.151
       0.972
       0.243
      -0.858
      -1.817
      -2.124
      -1.635
      -0.621
       0.489
       1.386
       1.940
       2.099
       1.835
       1.221
       0.491
      -0.081
      -0.399
      -0.583
      -0.777
      -0.950
      -0.966
      -0.797
      -0.578
      -0.442
      -0.357
      -0.190
       0.096
       0.346
       0.352
       0.094
      -0.204
      -0.286
      -0.140
       0.001
      -0.054
      -0.216
      -0.218
       0.062
       0.427
       0.542
       0.304
      -0.013
      -0.007
       0.440
       1.022
       1.280
       1.014
       0.418
      -0.160
      -0.538
      -0.763
      -0.921
      -0.972
      -0.824
      -0.498
      -0.134
       0.148
       0.339
       0.457
       0.444
       0.229
      -0.120
      -0.407
      -0.495
      -0.453
      -0.450
      -0.528
      -0.523
      -0.245
       0.305
       0.903
       1.286
       1.340
       1.131
       0.790
       0.390
      -0.055
      -0.507
      -0.855
      -0.976
      -0.857
      -0.610
      -0.385
      -0.238
      -0.111
       0.078
       0.330
       0.562
       0.698
       0.746
       0.751
       0.672
       0.365
      -0.242
      -0.959
      -1.403
      -1.334
      -0.877
      -0.364
       0.034
       0.419
       0.909
       1.339
       1.322
       0.644
      -0.446
      -1.367
      -1.659
      -1.312
      -0.667
      -0.059
       0.411
       0.768
       0.956
       0.823
       0.316
      -0.369
      -0.886
      -0.989
      -0.705
      -0.251
       0.180
       0.531
       0.794
       0.905
       0.807
       0.581
       0.426
       0.444
       0.521
       0.444
       0.132
      -0.292
      -0.658
      -0.908
      -1.077
      -1.140
      -0.970
      -0.499
       0.110
       0.553
       0.654
       0.514
       0.357
       0.265
       0.123
      -0.177
      -0.544
      -0.724
      -0.554
      -0.144
       0.215
       0.339
       0.321
       0.378
       0.585
       0.795
       0.811
       0.594
       0.259
      -0.064
      -0.339
      -0.586
      -0.772
      -0.780
      -0.506
      -0.002
       0.502
       0.749
       0.635
       0.268
      -0.126
      -0.364
      -0.411
      -0.346
      -0.253
      -0.149
       0.001
       0.220
       0.467
       0.627
       0.581
       0.310
      -0.062
      -0.345
      -0.445
      -0.433
      -0.445
      -0.521
      -0.568
      -0.476
      -0.246
       0.008
       0.150
       0.112
      -0.061
      -0.227
      -0.224
       0.005
       0.348
       0.604
       0.635
       0.449
       0.141
      -0.198
      -0.517
      -0.764
      -0.866
      -0.765
      -0.451
       0.021
       0.525
       0.878
       0.935
       0.705
       0.384
       0.206
       0.242
       0.343
       0.291
      -0.003
      -0.426
      -0.776
      -0.913
      -0.809
      -0.493
       0.001
       0.588
       1.071
       1.225
       0.976
       0.491
       0.025
      -0.298
      -0.522
      -0.708
      -0.822
      -0.789
      -0.624
      -0.451
      -0.375
      -0.377
      -0.337
      -0.149
       0.184
       0.572
       0.888
       1.019
       0.893
       0.526
       0.049
      -0.343
      -0.495
      -0.390
      -0.156
       0.027
       0.055
      -0.048
      -0.206
      -0.360
      -0.454
      -0.394
      -0.106
       0.359
       0.808
       1.031
       0.953
       0.660
       0.289
      -0.093
      -0.488
      -0.853
      -1.026
      -0.823
      -0.237
       0.442
       0.774
       0.508
      -0.172
      -0.754
      -0.806
      -0.329
       0.275
       0.540
       0.295
      -0.245
      -0.662
      -0.642
      -0.212
       0.288
       0.510
       0.430
       0.356
       0.561
       0.933
       1.029
       0.518
      -0.433
      -1.246
      -1.431
      -0.998
      -0.398
      -0.065
      -0.038
       0.003
       0.354
       0.943
       1.355
       1.179
       0.400
      -0.532
      -1.023
      -0.792
      -0.089
       0.513
       0.568
       0.099
      -0.429
      -0.480
       0.115
       1.000
       1.552
       1.345
       0.453
      -0.630
      -1.356
      -1.471
      -1.132
      -0.715
      -0.511
      -0.556
      -0.692
      -0.760
      -0.728
      -0.657
      -0.601
      -0.539
      -0.408
      -0.161
       0.192
       0.610
       1.040
       1.406
       1.591
       1.484
       1.081
       0.539
       0.080
      -0.161
      -0.192
      -0.094
       0.068
       0.249
       0.389
       0.403
       0.254
       0.022
      -0.136
      -0.142
      -0.081
      -0.093
      -0.206
      -0.333
      -0.424
      -0.535
      -0.716
      -0.882
      -0.861
      -0.603
      -0.314
      -0.295
      -0.586
      -0.830
      -0.563
       0.310
       1.375
       2.064
       2.086
       1.544
       0.728
      -0.077
      -0.657
      -0.896
      -0.860
      -0.794
      -0.907
      -1.143
      -1.194
      -0.797
      -0.003
       0.837
       1.338
       1.332
       0.935
       0.416
       0.026
      -0.126
      -0.083
       0.019
       0.044
      -0.093
      -0.387
      -0.729
      -0.934
      -0.866
      -0.536
      -0.090
       0.341
       0.755
       1.208
       1.620
       1.732
       1.358
       0.643
      -0.017
      -0.352
      -0.452
      -0.597
      -0.889
      -1.117
      -0.972
      -0.384
       0.349
       0.768
       0.644
       0.184
      -0.158
      -0.090
       0.289
       0.623
       0.599
       0.138
      -0.641
      -1.540
      -2.379
      -3.037
      -3.465
      -3.726
      -3.966
      -4.305
      -4.731
      -5.121
      -5.344
      -5.331
      -5.050
      -4.468
      -3.540
      -2.254
      -0.677
       1.061
       2.834
       4.545
       6.094
       7.348
       8.166
       8.412
       7.899
       6.390
       3.772
       0.365
      -2.956
      -5.052
      -5.076
      -2.908
       0.828
       5.112
       8.989
      11.849
      13.395
      13.440
      11.817
       8.585
       4.283
      -0.141
      -3.766
      -6.105
      -7.165
      -7.258
      -6.858
      -6.507
      -6.633
      -7.259
      -7.887
      -7.846
      -6.884
      -5.410
      -3.994
      -2.620
      -0.579
       2.720
       6.817
      10.166
      11.184
       9.479
       6.180
       3.092
       1.389
       0.917
       0.626
      -0.332
      -1.844
      -3.065
      -3.313
      -2.716
      -1.995
      -1.675
      -1.603
      -1.241
      -0.328
       0.834
       1.672
       1.752
       0.933
      -0.670
      -2.622
      -4.152
      -4.484
      -3.437
      -1.713
      -0.431
      -0.212
      -0.636
      -0.646
       0.454
       2.326
       3.865
       4.096
       2.870
       0.820
      -1.280
      -3.082
      -4.662
      -6.055
      -6.897
      -6.572
      -4.762
      -1.859
       1.137
       3.210
       3.918
       3.473
       2.308
       0.669
      -1.327
      -3.338
      -4.754
      -5.115
      -4.514
      -3.465
      -2.371
      -1.201
       0.275
       2.041
       3.725
       4.911
       5.456
       5.439
       4.951
       4.050
       2.920
       1.920
       1.382
       1.364
       1.608
       1.768
       1.691
       1.493
       1.382
       1.411
       1.418
       1.197
       0.719
       0.199
      -0.094
      -0.109
      -0.117
      -0.510
      -1.448
      -2.665
      -3.606
      -3.773
      -2.983
      -1.436
       0.374
       1.836
       2.461
       2.122
       1.115
      -0.064
      -1.056
      -1.782
      -2.285
      -2.488
      -2.180
      -1.237
       0.144
       1.486
       2.319
       2.491
       2.242
       1.981
       1.952
       2.063
       2.004
       1.535
       0.715
      -0.138
      -0.722
      -1.029
      -1.312
      -1.765
      -2.253
      -2.405
      -1.991
      -1.173
      -0.368
       0.124
       0.333
       0.445
       0.482
       0.240
      -0.435
      -1.384
      -2.235
      -2.761
      -3.084
      -3.499
      -4.130
      -4.782
      -5.110
      -4.873
      -4.032
      -2.666
      -0.905
       1.014
       2.701
       3.756
       4.024
       3.703
       3.130
       2.487
       1.736
       0.867
       0.099
      -0.253
      -0.122
       0.188
       0.287
       0.093
      -0.087
       0.115
       0.761
       1.552
       2.122
       2.342
       2.349
       2.322
       2.289
       2.150
       1.843
       1.434
       1.054
       0.781
       0.598
       0.435
       0.215
      -0.108
      -0.503
      -0.839
      -0.931
      -0.661
      -0.084
       0.585
       1.147
       1.591
       2.084
       2.733
       3.388
       3.728
       3.527
       2.823
       1.789
       0.537
      -0.909
      -2.444
      -3.796
      -4.654
      -4.899
      -4.683
      -4.275
      -3.854
      -3.447
      -3.010
      -2.551
      -2.150
      -1.899
      -1.821
      -1.834
      -1.778
      -1.503
      -0.967
      -0.297
       0.266
       0.548
       0.574
       0.545
       0.659
       0.940
       1.232
       1.354
       1.278
       1.168
       1.247
       1.606
       2.109
       2.460
       2.382
       1.801
       0.915
       0.092
      -0.351
      -0.318
       0.032
       0.411
       0.575
       0.431
       0.018
      -0.567
      -1.225
      -1.841
      -2.260
      -2.317
      -1.947
      -1.272
      -0.571
      -0.120
      -0.016
      -0.151
      -0.316
      -0.341
      -0.169
       0.168
       0.575
       0.942
       1.176
       1.230
       1.103
       0.807
       0.372
      -0.103
      -0.432
      -0.434
      -0.065
       0.530
       1.123
       1.550
       1.781
       1.872
       1.862
       1.731
       1.440
       1.010
       0.548
       0.191
       0.049
       0.160
       0.455
       0.747
       0.795
       0.456
      -0.194
      -0.900
      -1.412
      -1.652
      -1.725
      -1.771
      -1.818
      -1.797
      -1.633
      -1.301
      -0.791
      -0.081
       0.797
       1.676
       2.284
       2.399
       2.021
       1.402
       0.891
       0.695
       0.742
       0.760
       0.507
      -0.044
      -0.699
      -1.212
      -1.479
      -1.587
      -1.679
      -1.775
      -1.751
      -1.488
      -1.035
      -0.609
      -0.408
      -0.451
      -0.602
      -0.730
      -0.835
      -0.979
      -1.150
      -1.221
      -1.085
      -0.800
      -0.553
      -0.451
      -0.355
       0.036
       0.902
       2.085
       3.153
       3.700
       3.612
       3.101
       2.492
       1.993
       1.638
       1.384
       1.210
       1.126
       1.109
       1.049
       0.786
       0.221
      -0.564
      -1.330
      -1.847
      -2.075
      -2.154
      -2.232
      -2.295
      -2.188
      -1.814
      -1.301
      -0.941
      -0.938
      -1.183
      -1.328
      -1.102
      -0.559
      -0.008
       0.310
       0.423
       0.532
       0.723
       0.849
       0.697
       0.249
      -0.252
      -0.487
      -0.326
       0.087
       0.442
       0.490
       0.200
      -0.259
      -0.662
      -0.857
      -0.786
      -0.457
       0.090
       0.784
       1.519
       2.155
       2.539
       2.568
       2.234
       1.633
       0.919
       0.245
      -0.277
      -0.613
      -0.811
      -0.958
      -1.112
      -1.267
      -1.375
      -1.406
      -1.391
      -1.402
      -1.468
      -1.528
      -1.467
      -1.228
      -0.875
      -0.543
      -0.321
      -0.179
      -0.021
       0.204
       0.440
       0.565
       0.491
       0.229
      -0.121
      -0.456
      -0.735
      -0.987
      -1.241
      -1.444
      -1.446
      -1.095
      -0.381
