Origin Time       06/07/2010 19:08:20
Lat.              29.8 N	
Long.             80.4 E	
Depth (Km)         10.0
Magnitude         5.1
 Region           INDIA-NEPAL                                                      
 Above details taken from IMD 
   
Station Code      MUN
Station Lat.       30.066
Station Long.      80.237
Station Height(m) 2201.0
Site Class        A   Vs30 between 700 m/sec to 1400 m/sec * 
Record Time       06.07.2010 19:08:15.864
Sampling Rate     200. Hz
 Record Duration   65.440 Sec.
 Direction         Vert. (Up positive)
Max. Acceleration      5.736 cm/sec**2
     
  * For reference see Site Classification link of website 
     
 Base Line Corrected and Low Pass Filtered (Cut Off at 35 Hz) Time History
 Acceleration data in cm/sec**2
    
[...]
      -0.006
      -0.007
      -0.006
      -0.004
      -0.004
      -0.005
      -0.005
      -0.004
      -0.001
       0.002
       0.004
       0.005
       0.005
       0.003
       0.000
      -0.004
      -0.008
      -0.009
      -0.008
      -0.007
      -0.006
      -0.006
      -0.006
      -0.004
      -0.002
      -0.002
      -0.002
      -0.003
      -0.003
      -0.003
      -0.005
      -0.008
      -0.009
      -0.006
      -0.001
       0.003
       0.004
       0.003
       0.001
       0.000
      -0.001
      -0.001
      -0.002
      -0.003
      -0.002
      -0.001
       0.001
       0.002
       0.000
      -0.005
      -0.009
      -0.008
      -0.003
       0.003
       0.005
       0.003
      -0.001
      -0.005
      -0.007
      -0.008
      -0.008
      -0.007
      -0.004
       0.001
       0.006
       0.009
       0.009
       0.007
       0.003
       0.000
       0.000
       0.004
       0.008
       0.007
       0.002
      -0.002
      -0.002
       0.002
       0.007
       0.008
       0.003
      -0.004
      -0.009
      -0.010
      -0.006
      -0.002
       0.000
      -0.001
      -0.002
       0.000
       0.004
       0.005
       0.003
      -0.002
      -0.005
      -0.006
      -0.007
      -0.008
      -0.009
      -0.008
      -0.005
      -0.002
      -0.002
      -0.004
      -0.006
      -0.005
      -0.004
      -0.002
      -0.001
       0.000
       0.000
       0.000
      -0.002
      -0.003
      -0.004
      -0.003
      -0.004
      -0.006
      -0.007
      -0.006
      -0.002
       0.002
       0.001
      -0.005
      -0.012
      -0.015
      -0.011
      -0.001
       0.006
       0.008
       0.004
      -0.001
      -0.003
      -0.003
      -0.002
      -0.002
      -0.003
      -0.002
      -0.001
       0.001
       0.001
      -0.001
      -0.005
      -0.008
      -0.009
      -0.009
      -0.009
      -0.009
      -0.008
      -0.005
       0.000
       0.003
       0.004
       0.000
      -0.006
      -0.011
      -0.014
      -0.013
      -0.008
      -0.002
       0.003
       0.002
      -0.004
      -0.012
      -0.017
      -0.015
      -0.009
      -0.004
      -0.004
      -0.007
      -0.011
      -0.013
      -0.013
      -0.012
      -0.010
      -0.008
      -0.005
      -0.001
       0.002
       0.001
      -0.004
      -0.010
      -0.014
      -0.013
      -0.009
      -0.005
      -0.005
      -0.008
      -0.011
      -0.008
      -0.002
       0.004
       0.006
       0.003
      -0.002
      -0.007
      -0.008
      -0.006
      -0.002
       0.001
       0.000
      -0.004
      -0.008
      -0.007
      -0.003
       0.001
       0.002
      -0.001
      -0.005
      -0.007
      -0.008
      -0.007
      -0.006
      -0.005
      -0.003
      -0.001
       0.000
      -0.001
      -0.001
       0.000
       0.002
       0.002
       0.001
       0.000
      -0.001
       0.001
       0.002
       0.000
      -0.005
      -0.012
      -0.016
      -0.017
      -0.014
      -0.012
      -0.016
      -0.026
      -0.036
      -0.042
      -0.039
      -0.031
      -0.025
      -0.025
      -0.030
      -0.036
      -0.041
      -0.046
      -0.052
      -0.058
      -0.059
      -0.047
      -0.020
       0.015
       0.045
       0.063
       0.066
       0.057
       0.034
      -0.002
      -0.051
      -0.102
      -0.139
      -0.142
      -0.104
      -0.032
       0.051
       0.117
       0.152
       0.153
       0.125
       0.067
      -0.025
      -0.141
      -0.239
      -0.260
      -0.165
       0.026
       0.244
       0.412
       0.492
       0.486
       0.404
       0.238
      -0.022
      -0.344
      -0.630
      -0.757
      -0.659
      -0.375
      -0.015
       0.318
       0.590
       0.814
       0.973
       0.978
       0.718
       0.162
      -0.578
      -1.286
      -1.735
      -1.782
      -1.394
      -0.625
       0.394
       1.444
       2.225
       2.445
       1.973
       0.947
      -0.278
      -1.306
      -1.881
      -1.950
      -1.616
      -1.032
      -0.334
       0.376
       1.000
       1.425
       1.547
       1.321
       0.803
       0.132
      -0.536
      -1.091
      -1.473
      -1.623
      -1.454
      -0.888
       0.031
       1.075
       1.903
       2.226
       1.953
       1.193
       0.149
      -0.974
      -1.969
      -2.594
      -2.605
      -1.906
      -0.672
       0.689
       1.755
       2.296
       2.309
       1.905
       1.188
       0.249
      -0.752
      -1.558
      -1.906
      -1.666
      -0.920
       0.070
       0.960
       1.425
       1.269
       0.526
      -0.506
      -1.358
      -1.601
      -1.087
      -0.063
       0.924
       1.339
       0.990
       0.129
      -0.740
      -1.178
      -1.015
      -0.344
       0.574
       1.386
       1.727
       1.380
       0.469
      -0.537
      -1.136
      -1.183
      -0.955
      -0.806
      -0.746
      -0.438
       0.393
       1.564
       2.503
       2.689
       2.029
       0.838
      -0.471
      -1.624
      -2.478
      -2.882
      -2.640
      -1.640
      -0.020
       1.745
       2.964
       3.065
       1.970
       0.210
      -1.380
      -2.188
      -2.142
      -1.590
      -0.926
      -0.333
       0.176
       0.591
       0.861
       1.003
       1.143
       1.383
       1.620
       1.535
       0.819
      -0.547
      -2.164
      -3.332
      -3.372
      -2.009
       0.376
       2.825
       4.243
       4.000
       2.293
      -0.017
      -1.954
      -2.929
      -2.872
      -2.049
      -0.852
       0.298
       1.013
       1.068
       0.522
      -0.311
      -1.022
      -1.282
      -0.934
      -0.050
       1.060
       1.947
       2.270
       2.010
       1.429
       0.796
       0.140
      -0.716
      -1.853
      -3.003
      -3.615
      -3.225
      -1.831
       0.060
       1.776
       2.907
       3.445
       3.557
       3.247
       2.297
       0.564
      -1.656
      -3.604
      -4.469
      -3.900
      -2.169
       0.084
       2.201
       3.640
       3.960
       2.925
       0.747
      -1.829
      -3.814
      -4.501
      -3.791
      -2.107
      -0.052
       1.851
       3.195
       3.659
       3.119
       1.813
       0.336
      -0.664
      -0.882
      -0.507
      -0.009
       0.229
       0.125
      -0.173
      -0.496
      -0.766
      -0.934
      -0.889
      -0.501
       0.220
       1.041
       1.618
       1.696
       1.225
       0.353
      -0.670
      -1.582
      -2.188
      -2.382
      -2.140
      -1.487
      -0.489
       0.739
       1.991
       2.938
       3.188
       2.493
       0.966
      -0.895
      -2.446
      -3.218
      -3.060
      -2.062
      -0.420
       1.552
       3.329
       4.230
       3.766
       2.032
      -0.228
      -2.046
      -2.840
      -2.735
      -2.334
      -2.121
      -2.042
      -1.643
      -0.598
       0.911
       2.347
       3.287
       3.639
       3.450
       2.634
       1.062
      -1.076
      -3.094
      -4.135
      -3.747
      -2.212
      -0.325
       1.120
       1.730
       1.570
       0.986
       0.393
       0.100
       0.179
       0.463
       0.675
       0.635
       0.371
       0.045
      -0.210
      -0.381
      -0.510
      -0.570
      -0.465
      -0.166
       0.171
       0.283
       0.034
      -0.434
      -0.794
      -0.801
      -0.487
      -0.076
       0.259
       0.535
       0.835
       1.110
       1.162
       0.837
       0.194
      -0.534
      -1.115
      -1.431
      -1.442
      -1.122
      -0.484
       0.307
       0.930
       1.098
       0.776
       0.190
      -0.378
      -0.757
      -0.869
      -0.626
       0.029
       0.967
       1.792
       2.013
       1.364
       0.032
      -1.417
      -2.360
      -2.443
      -1.717
      -0.569
       0.490
       1.090
       1.183
       1.023
       0.919
       0.925
       0.774
       0.144
      -0.943
      -1.973
      -2.230
      -1.334
       0.433
       2.281
       3.383
       3.282
       2.016
       0.027
      -2.006
      -3.372
      -3.605
      -2.725
      -1.231
       0.216
       1.203
       1.718
       1.962
       2.040
       1.860
       1.290
       0.355
      -0.722
      -1.646
      -2.195
      -2.291
      -1.957
      -1.246
      -0.212
       1.032
       2.209
       2.878
       2.628
       1.370
      -0.497
      -2.224
      -3.099
      -2.807
      -1.548
       0.095
       1.429
       1.940
       1.514
       0.474
      -0.619
      -1.289
      -1.404
      -1.180
      -0.976
      -0.999
      -1.134
      -1.004
      -0.238
       1.210
       2.888
       4.001
       3.858
       2.340
       0.043
      -2.065
      -3.209
      -3.170
      -2.225
      -0.841
       0.551
       1.558
       1.819
       1.176
      -0.066
      -1.165
      -1.393
      -0.600
       0.634
       1.451
       1.358
       0.512
      -0.536
      -1.276
      -1.482
      -1.171
      -0.503
       0.256
       0.775
       0.808
       0.383
      -0.162
      -0.401
      -0.151
       0.361
       0.686
       0.550
       0.110
      -0.203
      -0.088
       0.357
       0.738
       0.700
       0.156
      -0.734
      -1.709
      -2.479
      -2.712
      -2.118
      -0.671
       1.205
       2.745
       3.251
       2.528
       0.982
      -0.656
      -1.777
      -2.162
      -1.931
      -1.349
      -0.664
      -0.059
       0.363
       0.607
       0.793
       1.082
       1.516
       1.893
       1.841
       1.088
      -0.242
      -1.588
      -2.278
      -1.988
      -0.973
       0.161
       0.908
       1.157
       1.084
       0.854
       0.479
      -0.064
      -0.668
      -1.127
      -1.294
      -1.170
      -0.817
      -0.236
       0.576
       1.482
       2.157
       2.259
       1.670
       0.574
      -0.652
      -1.633
      -2.110
      -2.007
      -1.444
      -0.702
      -0.086
       0.237
       0.306
       0.267
       0.229
       0.196
       0.110
      -0.046
      -0.168
      -0.066
       0.399
       1.154
       1.874
       2.149
       1.745
       0.778
      -0.368
      -1.294
      -1.815
      -1.989
      -1.967
      -1.806
      -1.411
      -0.647
       0.467
       1.645
       2.422
       2.428
       1.657
       0.504
      -0.467
      -0.873
      -0.689
      -0.165
       0.398
       0.774
       0.832
       0.553
       0.091
      -0.248
      -0.211
       0.143
       0.429
       0.240
      -0.461
      -1.250
      -1.556
      -1.102
      -0.096
       0.950
       1.569
       1.587
       1.150
       0.575
       0.148
      -0.031
      -0.080
      -0.231
      -0.627
      -1.181
      -1.599
      -1.586
      -1.083
      -0.327
       0.318
       0.646
       0.757
       0.905
       1.199
       1.451
       1.351
       0.795
       0.022
      -0.592
      -0.845
      -0.804
      -0.638
      -0.413
      -0.088
       0.334
       0.708
       0.830
       0.612
       0.162
      -0.297
      -0.575
      -0.605
      -0.435
      -0.172
       0.049
       0.101
      -0.077
      -0.393
      -0.600
      -0.443
       0.112
       0.793
       1.217
       1.194
       0.863
       0.531
       0.422
       0.570
       0.867
       1.111
       1.018
       0.338
      -0.879
      -2.115
      -2.620
      -1.966
      -0.461
       1.033
       1.719
       1.398
       0.494
      -0.345
      -0.699
      -0.548
      -0.167
       0.099
       0.034
      -0.340
      -0.781
      -0.956
      -0.647
       0.099
       0.963
       1.520
       1.476
       0.844
      -0.056
      -0.785
      -1.064
      -0.958
      -0.803
      -0.909
      -1.272
      -1.532
      -1.252
      -0.294
       1.030
       2.153
       2.639
       2.443
       1.859
       1.243
       0.742
       0.252
      -0.393
      -1.168
      -1.780
      -1.863
      -1.302
      -0.400
       0.272
       0.240
      -0.555
      -1.682
      -2.447
      -2.274
      -1.062
       0.694
       2.130
       2.507
       1.688
       0.243
      -0.901
      -1.048
      -0.153
       1.172
       2.050
       1.877
       0.683
      -0.899
      -2.047
      -2.279
      -1.734
      -1.002
      -0.659
      -0.845
      -1.188
      -1.124
      -0.332
       1.026
       2.401
       3.189
       3.034
       1.960
       0.313
      -1.366
      -2.530
      -2.842
      -2.358
      -1.496
      -0.760
      -0.384
      -0.215
       0.063
       0.584
       1.150
       1.411
       1.178
       0.548
      -0.214
      -0.877
      -1.302
      -1.366
      -0.923
       0.087
       1.486
       2.812
       3.500
       3.173
       1.847
      -0.098
      -2.108
      -3.655
      -4.368
      -4.123
      -3.078
      -1.603
      -0.101
       1.180
       2.180
       2.907
       3.274
       3.077
       2.149
       0.594
      -1.133
      -2.410
      -2.820
      -2.400
      -1.567
      -0.756
      -0.106
       0.524
       1.249
       1.887
       2.011
       1.302
      -0.140
      -1.794
      -3.004
      -3.302
      -2.544
      -0.917
       1.119
       2.915
       3.838
       3.540
       2.131
       0.101
      -1.936
      -3.513
      -4.378
      -4.394
      -3.435
      -1.469
       1.218
       3.903
       5.638
       5.736
       4.175
       1.641
      -0.859
      -2.524
      -3.097
      -2.820
      -2.147
      -1.462
      -0.972
      -0.745
      -0.753
      -0.853
      -0.792
      -0.356
       0.421
       1.198
       1.531
       1.217
       0.457
      -0.276
      -0.557
      -0.259
       0.402
       1.037
       1.356
       1.367
       1.309
       1.339
       1.268
       0.681
      -0.596
      -2.148
      -3.150
      -2.985
      -1.736
      -0.097
       1.182
       1.767
       1.748
       1.303
       0.486
      -0.660
      -1.876
      -2.711
      -2.834
      -2.326
      -1.617
      -1.101
      -0.810
      -0.466
       0.175
       1.059
       1.902
       2.461
       2.692
       2.654
       2.317
       1.565
       0.435
      -0.685
      -1.185
      -0.677
       0.645
       2.062
       2.773
       2.371
       1.023
      -0.703
      -2.190
      -3.070
      -3.340
      -3.242
      -2.996
      -2.587
      -1.813
      -0.579
       0.839
       1.879
       2.110
       1.590
       0.800
       0.229
       0.014
      -0.042
      -0.138
      -0.214
      -0.035
       0.477
       1.046
       1.255
       0.992
       0.650
       0.811
       1.686
       2.848
       3.530
       3.193
       1.887
       0.136
      -1.443
      -2.467
      -2.849
      -2.688
      -2.162
      -1.506
      -1.004
      -0.901
      -1.257
      -1.866
      -2.332
      -2.236
      -1.339
       0.273
       2.204
       3.914
       4.972
       5.193
       4.619
       3.413
       1.807
       0.111
      -1.306
      -2.127
      -2.245
      -1.837
      -1.264
      -0.858
      -0.743
      -0.809
      -0.806
      -0.503
       0.158
       0.997
       1.638
       1.675
       0.909
      -0.491
      -2.021
      -3.098
      -3.394
      -2.968
      -2.118
      -1.115
      -0.088
       0.896
       1.695
       2.104
       2.017
       1.573
       1.097
       0.859
       0.840
       0.755
       0.335
      -0.370
      -0.965
      -0.998
      -0.309
       0.842
       1.966
       2.669
       2.846
       2.627
       2.186
       1.594
       0.825
      -0.116
      -1.102
      -1.915
      -2.366
      -2.364
      -1.883
      -0.909
       0.484
       1.980
       3.000
       2.939
       1.571
      -0.708
      -3.013
      -4.405
      -4.360
      -2.985
      -0.902
       1.077
       2.304
       2.519
       1.884
       0.860
      -0.013
      -0.340
      -0.058
       0.543
       1.007
       1.031
       0.660
       0.184
      -0.168
      -0.418
      -0.729
      -1.127
      -1.361
      -1.099
      -0.284
       0.695
       1.236
       0.982
       0.098
      -0.877
      -1.432
      -1.388
      -0.902
      -0.270
       0.256
       0.534
       0.521
       0.254
      -0.164
      -0.598
      -0.928
      -1.074
      -0.980
      -0.601
       0.047
       0.810
       1.408
       1.580
       1.289
       0.782
       0.450
       0.572
       1.131
       1.841
       2.309
       2.248
       1.608
       0.584
      -0.491
      -1.292
      -1.623
      -1.464
      -0.956
      -0.359
       0.026
      -0.034
      -0.570
      -1.347
      -1.956
      -2.023
      -1.449
      -0.485
       0.402
       0.813
       0.643
       0.106
      -0.444
      -0.747
      -0.745
      -0.527
      -0.207
       0.139
       0.442
       0.608
       0.561
       0.340
       0.123
       0.114
       0.389
       0.832
       1.213
       1.337
       1.129
       0.643
       0.021
      -0.549
      -0.893
      -0.951
      -0.826
      -0.699
      -0.624
      -0.448
       0.013
       0.677
       1.125
       0.902
      -0.062
      -1.303
      -2.136
      -2.154
      -1.483
      -0.594
       0.105
       0.499
       0.683
       0.745
       0.673
       0.458
       0.213
       0.108
       0.179
       0.252
       0.105
      -0.270
      -0.623
      -0.693
      -0.467
      -0.180
      -0.064
      -0.111
      -0.121
       0.057
       0.348
       0.551
       0.570
       0.524
       0.585
       0.759
       0.848
       0.648
       0.163
      -0.395
      -0.794
      -0.967
      -1.005
      -1.000
      -0.926
      -0.682
      -0.242
       0.263
       0.603
       0.606
       0.267
      -0.245
      -0.683
      -0.848
      -0.688
      -0.317
       0.051
       0.224
       0.125
      -0.183
      -0.570
      -0.928
      -1.205
      -1.349
      -1.276
      -0.915
      -0.298
       0.425
       1.061
       1.467
       1.576
       1.373
       0.909
       0.333
      -0.120
      -0.273
      -0.162
      -0.040
      -0.157
      -0.530
      -0.923
      -1.038
      -0.754
      -0.198
       0.373
       0.752
       0.880
       0.809
       0.614
       0.354
       0.086
      -0.102
      -0.138
      -0.051
       0.011
      -0.118
      -0.463
      -0.837
      -0.990
      -0.837
      -0.544
      -0.360
      -0.357
      -0.335
      -0.016
       0.658
       1.398
       1.753
       1.456
       0.641
      -0.269
      -0.893
      -1.148
      -1.212
      -1.285
      -1.385
      -1.373
      -1.125
      -0.683
      -0.224
       0.117
       0.380
       0.722
       1.212
       1.721
       2.017
       1.963
       1.600
       1.057
       0.424
      -0.250
      -0.871
      -1.271
      -1.291
      -0.920
      -0.314
       0.303
       0.780
       1.081
       1.221
       1.188
       0.927
       0.395
      -0.371
      -1.236
      -2.016
      -2.533
      -2.647
      -2.275
      -1.444
      -0.343
       0.696
       1.353
       1.504
       1.293
       1.008
       0.858
       0.841
       0.804
       0.615
       0.274
      -0.098
