Origin Time       19/08/2008 10:54:26
Lat.              30.1°N 
Long.             80.1°E 
Depth (Km)         15.0
Magnitude         4.3
 Region           PITHORAGARH                                                      
 Above details taken from IMD 
   
Station Code      MUN
Station Lat.       30.066
Station Long.      80.237
Station Height(m) 2183.0
Site Class        A   Vs30 between 700 m/sec to 1400 m/sec * 
Record Time       19.08.2008 10:54:18.169
Sampling Rate     200. Hz
 Record Duration   65.480 Sec.
 Direction         Vert. (Up positive)
Max. Acceleration    -13.581 cm/sec**2
     
  * For reference see Site Classification link of website 
     
 Base Line Corrected and Low Pass Filtered (Cut Off at 35 Hz) Time History
 Acceleration data in cm/sec**2
    
[...]
      -0.003
      -0.002
       0.001
       0.003
       0.002
      -0.003
      -0.010
      -0.015
      -0.016
      -0.011
      -0.003
       0.003
       0.004
      -0.002
      -0.009
      -0.012
      -0.010
      -0.004
       0.000
       0.000
      -0.004
      -0.008
      -0.011
      -0.012
      -0.013
      -0.013
      -0.010
      -0.005
       0.002
       0.006
       0.005
       0.002
      -0.002
      -0.003
      -0.003
      -0.003
      -0.004
      -0.004
      -0.001
       0.004
       0.005
       0.001
      -0.006
      -0.013
      -0.015
      -0.015
      -0.013
      -0.012
      -0.009
      -0.006
      -0.003
      -0.004
      -0.006
      -0.010
      -0.013
      -0.015
      -0.015
      -0.012
      -0.007
      -0.002
      -0.001
      -0.004
      -0.008
      -0.007
      -0.002
       0.003
       0.004
       0.000
      -0.006
      -0.010
      -0.011
      -0.009
      -0.004
       0.000
       0.003
       0.005
       0.004
       0.003
       0.001
      -0.003
      -0.007
      -0.009
      -0.010
      -0.008
      -0.005
       0.000
       0.004
       0.004
      -0.001
      -0.010
      -0.014
      -0.011
      -0.003
       0.002
       0.001
      -0.004
      -0.004
      -0.001
       0.004
       0.005
       0.002
      -0.002
      -0.005
      -0.006
      -0.005
      -0.005
      -0.004
      -0.003
      -0.003
      -0.004
      -0.002
       0.000
       0.003
       0.005
       0.006
       0.005
       0.002
      -0.001
      -0.001
       0.003
       0.008
       0.010
       0.008
       0.004
       0.002
       0.002
       0.003
       0.004
       0.005
       0.006
       0.005
       0.000
      -0.006
      -0.012
      -0.013
      -0.008
       0.000
       0.007
       0.008
       0.004
      -0.002
      -0.007
      -0.008
      -0.008
      -0.007
      -0.008
      -0.009
      -0.006
      -0.001
       0.004
       0.004
      -0.001
      -0.006
      -0.009
      -0.008
      -0.005
      -0.002
       0.000
      -0.001
      -0.002
      -0.001
       0.003
       0.006
       0.006
       0.000
      -0.006
      -0.008
      -0.006
      -0.001
       0.002
      -0.001
      -0.005
      -0.007
      -0.004
       0.001
       0.005
       0.006
       0.003
      -0.001
      -0.002
       0.002
       0.007
       0.011
       0.011
       0.008
       0.005
       0.002
      -0.001
      -0.004
      -0.006
      -0.007
      -0.008
      -0.010
      -0.011
      -0.010
      -0.006
      -0.001
       0.000
      -0.002
      -0.004
      -0.004
      -0.003
      -0.001
       0.000
       0.001
       0.001
      -0.001
      -0.003
      -0.005
      -0.006
      -0.004
      -0.001
       0.003
       0.006
       0.007
       0.004
      -0.001
      -0.004
      -0.004
      -0.003
      -0.002
      -0.003
      -0.003
      -0.003
      -0.004
      -0.006
      -0.009
      -0.010
      -0.006
      -0.001
       0.000
      -0.004
      -0.009
      -0.010
      -0.008
      -0.006
      -0.007
      -0.009
      -0.009
      -0.004
       0.005
       0.013
       0.013
       0.005
      -0.006
      -0.011
      -0.007
       0.002
       0.009
       0.006
      -0.003
      -0.010
      -0.010
      -0.004
       0.000
      -0.001
      -0.006
      -0.014
      -0.018
      -0.017
      -0.011
      -0.004
      -0.001
      -0.002
      -0.004
      -0.004
      -0.001
       0.003
       0.003
       0.001
       0.000
       0.000
       0.002
       0.003
       0.003
       0.002
       0.000
      -0.003
      -0.005
      -0.005
      -0.004
      -0.003
      -0.006
      -0.008
      -0.006
       0.000
       0.005
       0.007
       0.003
      -0.002
      -0.007
      -0.009
      -0.008
      -0.006
      -0.004
      -0.006
      -0.010
      -0.014
      -0.012
      -0.004
       0.005
       0.010
       0.009
       0.005
       0.002
       0.002
       0.002
       0.003
       0.003
       0.004
       0.004
       0.004
       0.004
       0.005
       0.005
       0.005
       0.003
       0.001
      -0.001
      -0.003
      -0.004
      -0.004
      -0.003
      -0.004
      -0.006
      -0.007
      -0.006
      -0.004
      -0.004
      -0.006
      -0.008
      -0.006
       0.000
       0.006
       0.006
       0.001
      -0.002
      -0.001
       0.002
       0.003
       0.000
      -0.004
      -0.005
      -0.003
      -0.001
      -0.003
      -0.008
      -0.014
      -0.016
      -0.012
      -0.005
       0.002
       0.004
       0.003
       0.001
      -0.001
      -0.003
      -0.004
      -0.002
       0.001
       0.004
       0.002
      -0.003
      -0.006
      -0.005
      -0.002
       0.000
      -0.004
      -0.010
      -0.015
      -0.015
      -0.013
      -0.010
      -0.009
      -0.008
      -0.007
      -0.005
      -0.003
      -0.001
      -0.002
      -0.005
      -0.010
      -0.011
      -0.008
      -0.004
      -0.003
      -0.005
      -0.006
      -0.005
      -0.003
      -0.005
      -0.010
      -0.014
      -0.015
      -0.014
      -0.013
      -0.011
      -0.008
      -0.002
       0.002
       0.002
      -0.001
      -0.005
      -0.006
      -0.007
      -0.008
      -0.010
      -0.012
      -0.011
      -0.006
       0.000
       0.005
       0.007
       0.007
       0.006
       0.006
       0.006
       0.005
       0.001
      -0.004
      -0.006
      -0.007
      -0.006
      -0.007
      -0.008
      -0.009
      -0.009
      -0.007
      -0.005
      -0.003
      -0.003
      -0.005
      -0.009
      -0.010
      -0.007
       0.000
       0.006
       0.009
       0.009
       0.010
       0.011
       0.012
       0.009
       0.004
      -0.001
      -0.002
      -0.001
      -0.001
      -0.003
      -0.004
      -0.003
      -0.001
      -0.003
      -0.010
      -0.017
      -0.015
       0.002
       0.022
       0.000
      -0.106
      -0.301
      -0.515
      -0.653
      -0.681
      -0.688
      -0.812
      -1.080
      -1.315
      -1.254
      -0.796
      -0.099
       0.612
       1.348
       2.343
       3.659
       4.801
       4.901
       3.431
       0.764
      -2.030
      -4.001
      -4.893
      -4.934
      -4.193
      -2.374
       0.652
       4.163
       6.651
       6.771
       4.389
       0.730
      -2.510
      -4.263
      -4.523
      -3.932
      -3.037
      -1.900
      -0.355
       1.394
       2.561
       2.363
       0.943
      -0.472
      -0.602
       0.580
       1.708
       1.330
      -0.624
      -2.756
      -3.560
      -2.787
      -1.400
      -0.297
       0.674
       2.214
       4.226
       5.355
       4.197
       0.901
      -2.656
      -4.390
      -3.703
      -1.762
      -0.243
       0.141
      -0.072
      -0.070
       0.262
       0.454
       0.294
       0.203
       0.697
       1.675
       2.370
       2.005
       0.529
      -1.263
      -2.380
      -2.426
      -1.771
      -1.027
      -0.511
      -0.169
       0.206
       0.738
       1.348
       1.799
       1.889
       1.581
       0.971
       0.196
      -0.573
      -1.150
      -1.413
      -1.345
      -1.011
      -0.568
      -0.260
      -0.272
      -0.567
      -0.883
      -0.907
      -0.423
       0.572
       1.765
       2.580
       2.523
       1.586
       0.305
      -0.630
      -0.902
      -0.765
      -0.731
      -1.038
      -1.428
      -1.491
      -1.137
      -0.625
      -0.177
       0.273
       0.873
       1.510
       1.797
       1.421
       0.477
      -0.564
      -1.219
      -1.313
      -0.968
      -0.403
       0.193
       0.662
       0.911
       0.969
       0.955
       0.959
       0.960
       0.868
       0.614
       0.215
      -0.222
      -0.568
      -0.746
      -0.760
      -0.681
      -0.587
      -0.531
      -0.526
      -0.557
      -0.573
      -0.490
      -0.245
       0.111
       0.393
       0.412
       0.134
      -0.296
      -0.665
      -0.826
      -0.751
      -0.509
      -0.199
       0.115
       0.414
       0.672
       0.833
       0.838
       0.694
       0.468
       0.233
       0.014
      -0.193
      -0.369
      -0.455
      -0.392
      -0.173
       0.114
       0.288
       0.166
      -0.271
      -0.778
      -0.931
      -0.408
       0.739
       2.042
       2.877
       2.826
       1.871
       0.298
      -1.493
      -3.089
      -4.057
      -4.025
      -2.883
      -0.962
       1.017
       2.323
       2.667
       2.331
       1.813
       1.354
       0.819
       0.056
      -0.760
      -1.197
      -1.024
      -0.557
      -0.439
      -0.975
      -1.693
      -1.712
      -0.631
       1.013
       2.233
       2.481
       1.992
       1.320
       0.709
       0.001
      -0.905
      -1.685
      -1.788
      -1.042
       0.061
       0.765
       0.735
       0.268
      -0.116
      -0.187
      -0.100
      -0.101
      -0.252
      -0.418
      -0.453
      -0.330
      -0.087
       0.258
       0.645
       0.863
       0.656
       0.003
      -0.765
      -1.213
      -1.135
      -0.636
       0.039
       0.653
       1.018
       1.033
       0.757
       0.433
       0.336
       0.516
       0.674
       0.402
      -0.363
      -1.180
      -1.492
      -1.163
      -0.570
      -0.157
       0.024
       0.273
       0.788
       1.307
       1.274
       0.396
      -0.966
      -2.021
      -2.181
      -1.513
      -0.583
       0.085
       0.380
       0.491
       0.556
       0.512
       0.273
      -0.045
      -0.131
       0.249
       0.982
       1.630
       1.762
       1.304
       0.574
      -0.044
      -0.425
      -0.724
      -1.107
      -1.489
      -1.572
      -1.130
      -0.262
       0.654
       1.232
       1.328
       1.047
       0.592
       0.122
      -0.275
      -0.541
      -0.629
      -0.531
      -0.324
      -0.162
      -0.191
      -0.433
      -0.734
      -0.815
      -0.442
       0.369
       1.265
       1.741
       1.493
       0.644
      -0.367
      -1.090
      -1.282
      -0.945
      -0.253
       0.503
       0.985
       0.936
       0.352
      -0.461
      -1.037
      -1.040
      -0.462
       0.392
       1.078
       1.244
       0.821
       0.065
      -0.607
      -0.895
      -0.773
      -0.430
      -0.099
       0.074
       0.053
      -0.166
      -0.586
      -1.116
      -1.451
      -1.189
      -0.169
       1.266
       2.418
       2.709
       2.093
       1.032
       0.098
      -0.434
      -0.681
      -0.884
      -1.100
      -1.119
      -0.680
       0.211
       1.113
       1.355
       0.528
      -1.100
      -2.644
      -3.157
      -2.278
      -0.506
       1.117
       1.714
       1.193
       0.277
      -0.111
       0.396
       1.380
       2.105
       2.176
       1.760
       1.229
       0.641
      -0.298
      -1.745
      -3.262
      -4.008
      -3.441
      -1.829
      -0.060
       1.036
       1.245
       1.037
       1.121
       1.850
       2.867
       3.337
       2.613
       0.830
      -1.133
      -2.322
      -2.422
      -1.881
      -1.371
      -1.152
      -0.982
      -0.571
       0.014
       0.454
       0.590
       0.607
       0.788
       1.160
       1.420
       1.208
       0.473
      -0.424
      -0.972
      -0.916
      -0.437
       0.014
       0.070
      -0.251
      -0.527
      -0.276
       0.564
       1.464
       1.670
       0.848
      -0.591
      -1.798
      -2.132
      -1.568
      -0.607
       0.161
       0.432
       0.284
      -0.002
      -0.175
      -0.124
       0.151
       0.567
       0.958
       1.103
       0.834
       0.140
      -0.758
      -1.424
      -1.427
      -0.703
       0.280
       0.839
       0.653
       0.051
      -0.272
       0.128
       1.021
       1.688
       1.561
       0.721
      -0.246
      -0.814
      -0.884
      -0.677
      -0.466
      -0.454
      -0.733
      -1.193
      -1.491
      -1.238
      -0.316
       0.936
       1.922
       2.224
       1.857
       1.097
       0.192
      -0.655
      -1.120
      -0.852
       0.090
       0.993
       0.948
      -0.285
      -1.868
      -2.478
      -1.426
       0.694
       2.457
       2.719
       1.424
      -0.500
      -1.897
      -2.159
      -1.477
      -0.517
       0.173
       0.504
       0.714
       0.943
       1.001
       0.581
      -0.290
      -1.084
      -1.194
      -0.569
       0.120
       0.076
      -0.807
      -1.764
      -1.827
      -0.708
       0.948
       2.148
       2.415
       2.110
       1.927
       2.110
       2.235
       1.737
       0.536
      -0.899
      -2.012
      -2.595
      -2.819
      -2.890
      -2.698
      -1.875
      -0.284
       1.601
       2.967
       3.371
       3.099
       2.784
       2.677
       2.355
       1.190
      -0.932
      -3.402
      -5.389
      -6.424
      -6.468
      -5.607
      -3.895
      -1.571
       0.750
       2.297
       2.658
       2.132
       1.556
       1.739
       2.934
       4.707
       6.171
       6.387
       4.738
       1.213
      -3.434
      -7.761
     -10.125
      -9.535
      -6.306
      -1.925
       1.910
       4.348
       5.677
       6.669
       7.610
       7.998
       7.214
       5.380
       3.300
       1.499
      -0.477
      -3.543
      -7.802
     -11.863
     -13.581
     -11.632
      -6.555
      -0.443
       4.399
       6.719
       6.685
       5.394
       4.072
       3.420
       3.239
       2.529
       0.205
      -3.877
      -8.353
     -10.876
      -9.613
      -4.689
       1.600
       6.214
       7.446
       5.974
       3.985
       3.227
       3.709
       4.082
       3.106
       0.757
      -1.889
      -3.664
      -4.183
      -3.919
      -3.580
      -3.393
      -2.887
      -1.385
       1.206
       4.061
       5.968
       6.264
       5.253
       3.697
       1.927
      -0.414
      -3.623
      -6.955
      -8.661
      -7.341
      -3.361
       1.154
       3.874
       3.971
       2.524
       1.401
       1.662
       2.836
       3.567
       2.954
       1.298
      -0.330
      -1.162
      -1.367
      -1.719
      -2.666
      -3.755
      -4.004
      -2.902
      -0.991
       0.564
       0.957
       0.359
      -0.309
      -0.149
       1.012
       2.517
       3.432
       3.237
       2.083
       0.533
      -0.861
      -1.821
      -2.372
      -2.640
      -2.574
      -1.895
      -0.435
       1.460
       2.952
       3.260
       2.266
       0.610
      -0.800
      -1.379
      -1.033
       0.060
       1.637
       3.237
       4.084
       3.404
       1.075
      -2.015
      -4.404
      -5.006
      -3.780
      -1.626
       0.285
       1.129
       0.668
      -0.806
      -2.619
      -3.955
      -4.199
      -3.268
      -1.655
      -0.116
       0.824
       1.155
       1.219
       1.288
       1.336
       1.238
       1.083
       1.135
       1.430
       1.503
       0.712
      -1.010
      -2.770
      -3.271
      -1.929
       0.555
       2.762
       3.716
       3.526
       3.032
       2.899
       3.021
       2.733
       1.569
      -0.172
      -1.612
      -2.029
      -1.444
      -0.560
      -0.175
      -0.559
      -1.264
      -1.514
      -0.896
       0.238
       1.081
       1.120
       0.602
       0.231
       0.423
       0.933
       1.182
       0.860
       0.142
      -0.608
      -1.200
      -1.625
      -1.824
      -1.605
      -0.894
       0.001
       0.467
       0.053
      -1.109
      -2.310
      -2.731
      -1.990
      -0.391
       1.240
       2.016
       1.510
       0.028
      -1.574
      -2.453
      -2.325
      -1.570
      -0.841
      -0.560
      -0.709
      -1.010
      -1.241
      -1.326
      -1.151
      -0.447
       1.001
       2.944
       4.568
       4.958
       3.796
       1.707
      -0.125
      -0.766
      -0.136
       1.066
       2.008
       2.320
       2.160
       1.831
       1.453
       1.013
       0.607
       0.479
       0.765
       1.255
       1.484
       1.107
       0.201
      -0.765
      -1.263
      -1.084
      -0.487
      -0.022
      -0.150
      -0.929
      -1.974
      -2.723
      -2.851
      -2.508
      -2.110
      -1.864
      -1.553
      -0.855
       0.142
       0.871
       0.782
      -0.096
      -1.126
      -1.598
      -1.310
      -0.655
      -0.202
      -0.201
      -0.441
      -0.487
      -0.051
       0.774
       1.557
       1.813
       1.360
       0.496
      -0.155
      -0.089
       0.680
       1.592
       1.930
       1.340
       0.079
      -1.152
      -1.653
      -1.138
       0.131
       1.545
       2.507
       2.709
       2.203
       1.291
       0.334
      -0.395
      -0.762
      -0.765
      -0.547
      -0.383
      -0.558
      -1.156
      -1.948
      -2.508
      -2.524
      -2.018
      -1.296
      -0.659
      -0.194
       0.158
       0.381
       0.333
      -0.054
      -0.570
      -0.826
      -0.619
      -0.198
      -0.077
      -0.534
      -1.276
      -1.655
      -1.236
      -0.135
       1.132
       2.046
       2.349
       2.082
       1.479
       0.814
       0.244
      -0.233
      -0.656
      -0.924
      -0.778
      -0.037
       1.094
       2.014
       2.164
       1.529
       0.674
       0.237
       0.367
       0.679
       0.695
       0.292
      -0.278
      -0.760
      -1.146
      -1.517
      -1.710
      -1.329
      -0.186
       1.293
       2.248
       2.069
       0.952
      -0.267
      -0.832
      -0.655
      -0.232
      -0.032
      -0.036
       0.128
       0.654
       1.240
       1.350
       0.744
      -0.292
      -1.231
      -1.749
      -1.854
      -1.637
      -1.005
       0.255
       2.066
       3.765
       4.382
       3.382
       1.222
      -0.887
      -1.876
      -1.616
      -0.917
      -0.730
      -1.266
      -1.872
      -1.754
      -0.811
       0.287
       0.775
       0.486
      -0.134
      -0.578
      -0.754
      -0.922
      -1.257
      -1.589
      -1.608
      -1.275
      -0.929
      -0.958
      -1.360
      -1.659
      -1.263
       0.000
       1.619
       2.698
       2.628
       1.559
       0.237
      -0.621
      -0.840
      -0.741
      -0.675
      -0.647
      -0.442
      -0.031
       0.291
       0.263
       0.056
       0.163
       0.845
       1.743
       2.105
       1.458
       0.086
      -1.173
      -1.656
      -1.420
      -1.049
      -0.965
      -1.012
      -0.721
       0.071
       0.935
       1.216
       0.701
      -0.096
      -0.386
       0.104
       0.839
       1.017
       0.409
      -0.387
      -0.534
       0.217
       1.298
       1.900
       1.709
       1.086
       0.576
       0.357
       0.206
      -0.084
      -0.381
      -0.373
       0.000
       0.383
       0.320
      -0.261
      -0.925
      -1.100
      -0.594
       0.212
       0.682
       0.467
      -0.201
      -0.719
      -0.655
      -0.114
       0.398
       0.469
       0.132
      -0.247
      -0.366
      -0.225
      -0.023
