Origin Time       04/05/2011 20:57:15 UTC
Lat.              30.2 N	
Long.             80.4 E	
Depth (Km)         10.0
Magnitude         5.0
 Region           INDIA-NEPAL                                                      
 Above details taken from IMD 
    
Station Code      MUN
Station Lat.       30.066  N
Station Long.      80.237  E
Station Height(m) 2201.0
Site Class        A   Vs30 between 700 m/sec to 1400 m/sec * 
Record Time       04.05.2011 20:57:11.119 UTC
Sampling Rate     200. Hz
 Record Duration   81.895 Sec.
 Direction         N-S (N positive)
Max. Acceleration      7.229 cm/sec**2
     
  * For reference see Site Classification link of website 
     
 Base Line Corrected and Low Pass Filtered (Cut Off at 35 Hz) Time History
 Acceleration data in cm/sec**2
    
[...]
       0.041
       0.212
       0.336
       0.374
       0.329
       0.243
       0.157
       0.084
       0.004
      -0.102
      -0.224
      -0.325
      -0.371
      -0.356
      -0.309
      -0.272
      -0.273
      -0.311
      -0.360
      -0.399
      -0.413
      -0.400
      -0.356
      -0.277
      -0.169
      -0.055
       0.035
       0.087
       0.111
       0.130
       0.157
       0.187
       0.205
       0.191
       0.132
       0.024
      -0.122
      -0.270
      -0.359
      -0.339
      -0.206
      -0.012
       0.164
       0.261
       0.268
       0.212
       0.128
       0.039
      -0.041
      -0.096
      -0.106
      -0.068
      -0.001
       0.058
       0.079
       0.052
      -0.008
      -0.075
      -0.132
      -0.166
      -0.176
      -0.159
      -0.118
      -0.060
       0.004
       0.063
       0.113
       0.152
       0.182
       0.205
       0.218
       0.220
       0.209
       0.189
       0.172
       0.173
       0.201
       0.247
       0.280
       0.267
       0.201
       0.110
       0.042
       0.031
       0.078
       0.161
       0.244
       0.291
       0.272
       0.166
      -0.026
      -0.276
      -0.526
      -0.710
      -0.784
      -0.745
      -0.625
      -0.466
      -0.306
      -0.170
      -0.073
      -0.027
      -0.040
      -0.114
      -0.238
      -0.379
      -0.481
      -0.498
      -0.414
      -0.260
      -0.092
       0.045
       0.137
       0.194
       0.231
       0.245
       0.227
       0.173
       0.100
       0.040
       0.018
       0.034
       0.068
       0.096
       0.101
       0.082
       0.053
       0.030
       0.020
       0.018
       0.009
      -0.019
      -0.063
      -0.099
      -0.102
      -0.060
       0.020
       0.113
       0.206
       0.301
       0.408
       0.524
       0.622
       0.663
       0.625
       0.512
       0.356
       0.198
       0.071
      -0.010
      -0.045
      -0.039
      -0.002
       0.058
       0.128
       0.197
       0.253
       0.286
       0.288
       0.255
       0.194
       0.114
       0.019
      -0.098
      -0.235
      -0.361
      -0.427
      -0.402
      -0.308
      -0.210
      -0.162
      -0.156
      -0.134
      -0.046
       0.096
       0.226
       0.274
       0.226
       0.112
      -0.021
      -0.149
      -0.258
      -0.325
      -0.311
      -0.191
       0.003
       0.187
       0.269
       0.220
       0.093
      -0.017
      -0.040
       0.028
       0.136
       0.215
       0.218
       0.129
      -0.032
      -0.211
      -0.342
      -0.392
      -0.388
      -0.400
      -0.478
      -0.593
      -0.647
      -0.535
      -0.231
       0.198
       0.631
       0.960
       1.123
       1.104
       0.932
       0.671
       0.405
       0.208
       0.092
       0.007
      -0.110
      -0.268
      -0.405
      -0.445
      -0.368
      -0.225
      -0.079
       0.045
       0.151
       0.227
       0.220
       0.097
      -0.095
      -0.238
      -0.236
      -0.102
       0.062
       0.154
       0.152
       0.100
       0.051
       0.017
      -0.011
      -0.027
       0.012
       0.148
       0.365
       0.590
       0.732
       0.755
       0.706
       0.672
       0.708
       0.784
       0.797
       0.642
       0.296
      -0.156
      -0.566
      -0.819
      -0.893
      -0.858
      -0.815
      -0.814
      -0.832
      -0.799
      -0.671
      -0.472
      -0.280
      -0.162
      -0.117
      -0.078
       0.026
       0.197
       0.356
       0.390
       0.232
      -0.079
      -0.406
      -0.603
      -0.608
      -0.477
      -0.330
      -0.256
      -0.262
      -0.290
      -0.275
      -0.196
      -0.077
       0.043
       0.135
       0.182
       0.178
       0.130
       0.066
       0.033
       0.060
       0.130
       0.189
       0.186
       0.116
       0.021
      -0.048
      -0.073
      -0.072
      -0.068
      -0.046
       0.041
       0.226
       0.476
       0.681
       0.711
       0.502
       0.105
      -0.336
      -0.664
      -0.791
      -0.730
      -0.572
      -0.423
      -0.347
      -0.343
      -0.368
      -0.374
      -0.334
      -0.257
      -0.150
       0.001
       0.226
       0.526
       0.824
       0.995
       0.949
       0.708
       0.409
       0.205
       0.153
       0.186
       0.182
       0.080
      -0.073
      -0.182
      -0.202
      -0.180
      -0.187
      -0.231
      -0.241
      -0.151
       0.016
       0.160
       0.193
       0.127
       0.048
       0.015
      -0.010
      -0.130
      -0.391
      -0.724
      -0.978
      -1.039
      -0.903
      -0.660
      -0.419
      -0.236
      -0.115
      -0.032
       0.038
       0.121
       0.238
       0.386
       0.521
       0.580
       0.526
       0.377
       0.179
      -0.041
      -0.281
      -0.518
      -0.673
      -0.661
      -0.471
      -0.209
      -0.016
       0.056
       0.078
       0.163
       0.331
       0.476
       0.453
       0.206
      -0.179
      -0.537
      -0.747
      -0.800
      -0.778
      -0.763
      -0.768
      -0.736
      -0.616
      -0.414
      -0.191
       0.006
       0.184
       0.387
       0.638
       0.895
       1.065
       1.055
       0.825
       0.414
      -0.068
      -0.488
      -0.747
      -0.821
      -0.748
      -0.578
      -0.340
      -0.052
       0.244
       0.478
       0.594
       0.595
       0.536
       0.476
       0.417
       0.306
       0.089
      -0.222
      -0.533
      -0.728
      -0.746
      -0.622
      -0.446
      -0.290
      -0.155
       0.006
       0.221
       0.446
       0.589
       0.590
       0.481
       0.354
       0.285
       0.267
       0.239
       0.153
       0.026
      -0.076
      -0.109
      -0.090
      -0.086
      -0.143
      -0.242
      -0.308
      -0.260
      -0.075
       0.204
       0.494
       0.721
       0.847
       0.855
       0.729
       0.467
       0.110
      -0.251
      -0.524
      -0.659
      -0.664
      -0.572
      -0.407
      -0.186
       0.053
       0.244
       0.322
       0.280
       0.175
       0.091
       0.070
       0.085
       0.066
      -0.029
      -0.180
      -0.318
      -0.374
      -0.340
      -0.272
      -0.240
      -0.271
      -0.315
      -0.289
      -0.143
       0.092
       0.313
       0.414
       0.347
       0.136
      -0.148
      -0.411
      -0.566
      -0.554
      -0.389
      -0.165
      -0.016
      -0.015
      -0.126
      -0.240
      -0.271
      -0.220
      -0.149
      -0.108
      -0.075
       0.013
       0.191
       0.406
       0.548
       0.533
       0.388
       0.222
       0.129
       0.103
       0.052
      -0.093
      -0.304
      -0.470
      -0.486
      -0.320
      -0.014
       0.357
       0.707
       0.949
       0.996
       0.811
       0.451
       0.058
      -0.214
      -0.286
      -0.201
      -0.078
      -0.024
      -0.069
      -0.163
      -0.235
      -0.247
      -0.226
      -0.223
      -0.258
      -0.286
      -0.220
      -0.010
       0.305
       0.611
       0.788
       0.784
       0.645
       0.474
       0.360
       0.312
       0.260
       0.108
      -0.169
      -0.479
      -0.657
      -0.583
      -0.280
       0.082
       0.312
       0.329
       0.208
       0.086
       0.040
       0.042
       0.023
      -0.039
      -0.097
      -0.089
      -0.007
       0.094
       0.141
       0.101
      -0.011
      -0.155
      -0.287
      -0.358
      -0.323
      -0.163
       0.079
       0.299
       0.375
       0.237
      -0.080
      -0.455
      -0.747
      -0.870
      -0.817
      -0.627
      -0.350
      -0.032
       0.257
       0.431
       0.422
       0.240
      -0.011
      -0.196
      -0.232
      -0.132
       0.018
       0.123
       0.127
       0.031
      -0.116
      -0.244
      -0.290
      -0.229
      -0.084
       0.080
       0.172
       0.119
      -0.095
      -0.394
      -0.635
      -0.681
      -0.478
      -0.098
       0.305
       0.580
       0.662
       0.580
       0.406
       0.192
      -0.045
      -0.274
      -0.422
      -0.407
      -0.218
       0.044
       0.224
       0.230
       0.098
      -0.064
      -0.188
      -0.285
      -0.378
      -0.422
      -0.310
       0.018
       0.465
       0.807
       0.849
       0.587
       0.215
      -0.031
      -0.057
       0.041
       0.110
       0.097
       0.081
       0.158
       0.305
       0.390
       0.295
       0.038
      -0.228
      -0.319
      -0.138
       0.278
       0.781
       1.172
       1.266
       0.967
       0.342
      -0.380
      -0.924
      -1.126
      -1.012
      -0.731
      -0.414
      -0.107
       0.196
       0.470
       0.650
       0.678
       0.558
       0.339
       0.067
      -0.223
      -0.466
      -0.550
      -0.386
      -0.006
       0.407
       0.624
       0.518
       0.137
      -0.358
      -0.796
      -1.048
      -1.012
      -0.636
       0.008
       0.685
       1.107
       1.123
       0.833
       0.488
       0.266
       0.150
       0.010
      -0.203
      -0.383
      -0.402
      -0.279
      -0.210
      -0.380
      -0.775
      -1.156
      -1.242
      -0.917
      -0.305
       0.328
       0.736
       0.815
       0.616
       0.292
       0.012
      -0.134
      -0.177
      -0.234
      -0.376
      -0.528
      -0.497
      -0.141
       0.464
       1.024
       1.206
       0.871
       0.175
      -0.527
      -0.915
      -0.908
      -0.680
      -0.491
      -0.466
      -0.518
      -0.464
      -0.225
       0.082
       0.238
       0.129
      -0.134
      -0.295
      -0.167
       0.197
       0.530
       0.570
       0.280
      -0.117
      -0.334
      -0.256
      -0.025
       0.117
       0.052
      -0.134
      -0.273
      -0.302
      -0.303
      -0.381
      -0.522
      -0.582
      -0.411
       0.004
       0.515
       0.923
       1.118
       1.127
       1.029
       0.842
       0.520
       0.045
      -0.488
      -0.891
      -1.011
      -0.834
      -0.482
      -0.120
       0.153
       0.323
       0.419
       0.445
       0.369
       0.164
      -0.153
      -0.514
      -0.829
      -1.018
      -1.030
      -0.860
      -0.552
      -0.214
       0.020
       0.072
       0.000
      -0.041
       0.075
       0.319
       0.545
       0.629
       0.573
       0.480
       0.440
       0.451
       0.443
       0.372
       0.266
       0.185
       0.141
       0.070
      -0.097
      -0.339
      -0.542
      -0.597
      -0.507
      -0.371
      -0.275
      -0.205
      -0.066
       0.194
       0.495
       0.656
       0.526
       0.112
      -0.414
      -0.828
      -0.986
      -0.878
      -0.581
      -0.191
       0.213
       0.551
       0.736
       0.704
       0.464
       0.101
      -0.261
      -0.506
      -0.544
      -0.339
       0.058
       0.497
       0.805
       0.897
       0.822
       0.695
       0.579
       0.455
       0.290
       0.101
      -0.065
      -0.196
      -0.339
      -0.539
      -0.772
      -0.942
      -0.958
      -0.828
      -0.646
      -0.497
      -0.368
      -0.175
       0.112
       0.399
       0.535
       0.462
       0.278
       0.150
       0.156
       0.232
       0.268
       0.237
       0.214
       0.267
       0.359
       0.379
       0.268
       0.100
       0.043
       0.209
       0.549
       0.873
       0.977
       0.796
       0.449
       0.146
       0.029
       0.068
       0.100
      -0.014
      -0.250
      -0.438
      -0.417
      -0.198
       0.037
       0.094
      -0.057
      -0.252
      -0.281
      -0.076
       0.219
       0.361
       0.204
      -0.181
      -0.569
      -0.764
      -0.752
      -0.666
      -0.638
      -0.668
      -0.649
      -0.488
      -0.208
       0.071
       0.240
       0.273
       0.220
       0.132
       0.026
      -0.093
      -0.193
      -0.221
      -0.154
      -0.031
       0.070
       0.069
      -0.065
      -0.288
      -0.481
      -0.516
      -0.353
      -0.082
       0.140
       0.221
       0.206
       0.211
       0.295
       0.391
       0.365
       0.141
      -0.234
      -0.628
      -0.914
      -1.033
      -0.998
      -0.881
      -0.781
      -0.773
      -0.842
      -0.869
      -0.701
      -0.280
       0.282
       0.767
       1.000
       0.969
       0.803
       0.646
       0.534
       0.403
       0.195
      -0.033
      -0.146
      -0.068
       0.116
       0.210
       0.077
      -0.246
      -0.590
      -0.817
      -0.928
      -1.010
      -1.103
      -1.114
      -0.901
      -0.433
       0.129
       0.525
       0.598
       0.424
       0.265
       0.367
       0.780
       1.343
       1.817
       2.049
       2.026
       1.808
       1.439
       0.910
       0.204
      -0.641
      -1.515
      -2.276
      -2.801
      -3.027
      -2.947
      -2.593
      -2.007
      -1.233
      -0.323
       0.655
       1.631
       2.555
       3.376
       4.018
       4.363
       4.287
       3.716
       2.671
       1.273
      -0.303
      -1.885
      -3.340
      -4.577
      -5.523
      -6.107
      -6.257
      -5.923
      -5.109
      -3.874
      -2.316
      -0.543
       1.340
       3.211
       4.912
       6.253
       7.057
       7.229
       6.796
       5.891
       4.683
       3.304
       1.813
       0.217
      -1.459
      -3.105
      -4.501
      -5.404
      -5.675
      -5.364
      -4.661
      -3.759
      -2.749
      -1.642
      -0.453
       0.744
       1.834
       2.713
       3.305
       3.561
       3.460
       3.040
       2.392
       1.632
       0.853
       0.113
      -0.535
      -1.033
      -1.331
      -1.426
      -1.368
      -1.227
      -1.046
      -0.820
      -0.524
      -0.164
       0.192
       0.434
       0.467
       0.273
      -0.060
      -0.393
      -0.619
      -0.735
      -0.825
      -0.964
      -1.122
      -1.162
      -0.954
      -0.477
       0.151
       0.741
       1.128
       1.234
       1.085
       0.789
       0.486
       0.295
       0.262
       0.350
       0.481
       0.597
       0.679
       0.703
       0.589
       0.232
      -0.404
      -1.192
      -1.875
      -2.197
      -2.072
      -1.635
      -1.155
      -0.864
      -0.824
      -0.919
      -0.964
      -0.852
      -0.587
      -0.214
       0.265
       0.892
       1.663
       2.469
       3.135
       3.526
       3.625
       3.501
       3.208
       2.715
       1.949
       0.899
      -0.313
      -1.464
      -2.339
      -2.840
      -2.997
      -2.894
      -2.600
      -2.156
      -1.611
      -1.034
      -0.483
       0.038
       0.554
       1.061
       1.483
       1.712
       1.690
       1.455
       1.120
       0.802
       0.559
       0.380
       0.205
      -0.047
      -0.432
      -0.935
      -1.447
      -1.795
      -1.828
      -1.508
      -0.944
      -0.334
       0.150
       0.449
       0.606
       0.683
       0.696
       0.619
       0.440
       0.192
      -0.069
      -0.316
      -0.560
      -0.818
      -1.065
      -1.240
      -1.265
      -1.099
      -0.763
      -0.349
       0.010
       0.204
       0.205
       0.074
      -0.072
      -0.129
      -0.036
       0.220
       0.613
       1.072
       1.489
       1.738
       1.731
       1.467
       1.037
       0.587
       0.250
       0.094
       0.102
       0.204
       0.321
       0.397
       0.394
       0.272
      -0.001
      -0.400
      -0.811
      -1.063
      -1.031
      -0.716
      -0.244
       0.208
       0.505
       0.592
       0.496
       0.290
       0.056
      -0.156
      -0.340
      -0.529
      -0.754
      -0.998
      -1.187
      -1.236
      -1.121
      -0.897
      -0.656
      -0.457
      -0.294
      -0.131
       0.034
       0.153
       0.179
       0.124
       0.069
       0.103
       0.245
       0.416
       0.490
       0.391
       0.153
      -0.099
      -0.239
      -0.211
      -0.045
       0.194
       0.450
       0.687
       0.873
       0.965
       0.928
       0.766
       0.535
       0.313
       0.152
       0.050
      -0.044
      -0.187
      -0.401
      -0.649
      -0.861
      -0.980
      -1.008
      -1.002
      -1.022
      -1.070
      -1.068
      -0.914
      -0.570
      -0.104
       0.347
       0.667
       0.827
       0.885
       0.940
       1.062
       1.267
       1.514
       1.729
       1.829
       1.745
       1.455
       1.009
       0.522
       0.116
      -0.156
      -0.337
      -0.523
      -0.771
      -1.045
      -1.247
      -1.311
      -1.268
      -1.221
      -1.244
      -1.305
      -1.288
      -1.104
      -0.773
      -0.416
      -0.144
       0.028
       0.179
       0.407
       0.742
       1.128
       1.461
       1.647
       1.642
       1.449
       1.102
       0.652
       0.170
      -0.270
      -0.611
      -0.831
      -0.939
      -0.950
      -0.880
      -0.764
      -0.666
      -0.660
      -0.765
      -0.904
      -0.938
      -0.760
      -0.365
       0.155
       0.675
       1.099
       1.374
       1.481
       1.426
       1.241
       0.967
       0.641
       0.289
      -0.065
      -0.407
      -0.733
      -1.044
      -1.317
      -1.496
      -1.522
      -1.378
      -1.111
      -0.797
      -0.483
      -0.169
       0.167
       0.522
       0.854
       1.102
       1.223
       1.214
       1.097
       0.905
       0.662
       0.388
       0.107
      -0.153
      -0.365
      -0.524
      -0.646
      -0.758
      -0.872
      -0.966
      -0.987
      -0.887
      -0.661
      -0.375
      -0.137
      -0.032
      -0.066
      -0.158
      -0.203
      -0.152
      -0.040
       0.055
       0.089
       0.087
       0.111
       0.173
       0.218
       0.171
       0.034
      -0.095
      -0.094
       0.075
       0.326
       0.521
       0.584
       0.546
       0.483
       0.431
       0.346
       0.171
      -0.081
      -0.306
      -0.379
      -0.261
      -0.040
       0.145
       0.212
       0.190
       0.171
       0.214
       0.303
       0.382
       0.441
       0.531
       0.695
       0.895
       1.006
       0.921
       0.644
       0.293
       0.006
      -0.144
      -0.173
      -0.139
      -0.090
      -0.063
      -0.099
      -0.238
      -0.477
      -0.742
      -0.916
      -0.918
      -0.762
      -0.545
      -0.363
      -0.239
      -0.135
      -0.023
       0.054
       0.021
      -0.136
      -0.331
      -0.446
      -0.431
      -0.340
      -0.260
      -0.221
      -0.181
      -0.089
       0.052
       0.179
       0.246
       0.266
       0.299
       0.382
       0.487
       0.558
       0.575
       0.586
       0.662
       0.812
       0.959
       0.993
       0.853
       0.577
       0.263
       0.003
      -0.169
      -0.275
      -0.362
      -0.462
      -0.580
      -0.694
      -0.773
      -0.789
      -0.724
      -0.575
      -0.358
      -0.107
       0.134
       0.323
       0.429
