Origin Time       19/08/2008 10:54:26
Lat.              30.1°N 
Long.             80.1°E 
Depth (Km)         15.0
Magnitude         4.3
 Region           PITHORAGARH                                                      
 Above details taken from IMD 
     
Station Code      MUN
Station Lat.       30.066  N
Station Long.      80.237  E
Station Height(m) 2183.0
Site Class        A   Vs30 between 700 m/sec to 1400 m/sec * 
Record Time       19.08.2008 10:54:18.169
Sampling Rate     200. Hz
 Record Duration   65.480 Sec.
 Direction         E-W (E positive)
Max. Acceleration     -9.939 cm/sec**2
     
  * For reference see Site Classification link of website 
     
 Base Line Corrected and Low Pass Filtered (Cut Off at 35 Hz) Time History
 Acceleration data in cm/sec**2
    
[...]
       0.010
       0.011
       0.009
       0.004
      -0.002
      -0.007
      -0.009
      -0.009
      -0.008
      -0.008
      -0.009
      -0.009
      -0.004
       0.004
       0.010
       0.011
       0.007
       0.002
       0.002
       0.004
       0.006
       0.003
      -0.001
      -0.002
       0.002
       0.009
       0.013
       0.010
       0.004
       0.001
       0.003
       0.008
       0.011
       0.007
       0.001
      -0.004
      -0.004
      -0.001
       0.003
       0.006
       0.005
       0.003
       0.000
      -0.003
      -0.006
      -0.005
       0.000
       0.008
       0.014
       0.014
       0.007
      -0.003
      -0.008
      -0.006
       0.003
       0.012
       0.015
       0.012
       0.005
      -0.001
      -0.003
       0.000
       0.004
       0.006
       0.006
       0.004
       0.002
      -0.001
      -0.004
      -0.005
      -0.005
      -0.005
      -0.005
      -0.004
      -0.005
      -0.008
      -0.010
      -0.009
      -0.006
      -0.002
       0.001
       0.002
       0.001
      -0.002
      -0.003
      -0.002
       0.001
       0.005
       0.005
       0.002
      -0.004
      -0.013
      -0.018
      -0.016
      -0.008
       0.002
       0.009
       0.010
       0.007
       0.004
       0.003
       0.003
       0.002
       0.000
      -0.002
      -0.002
       0.001
       0.003
       0.003
       0.003
       0.003
       0.006
       0.008
       0.011
       0.012
       0.013
       0.013
       0.010
       0.006
       0.003
      -0.001
      -0.006
      -0.011
      -0.013
      -0.012
      -0.007
       0.000
       0.004
       0.006
       0.006
       0.006
       0.006
       0.003
      -0.002
      -0.009
      -0.011
      -0.006
       0.004
       0.010
       0.010
       0.003
      -0.005
      -0.008
      -0.008
      -0.004
       0.001
       0.006
       0.009
       0.010
       0.009
       0.004
      -0.001
      -0.005
      -0.006
      -0.006
      -0.005
      -0.004
      -0.002
       0.002
       0.006
       0.009
       0.010
       0.008
       0.005
       0.003
       0.005
       0.007
       0.007
       0.004
      -0.002
      -0.007
      -0.006
      -0.001
       0.006
       0.010
       0.009
       0.004
      -0.003
      -0.006
      -0.003
       0.003
       0.008
       0.011
       0.011
       0.007
       0.000
      -0.005
      -0.006
      -0.001
       0.008
       0.017
       0.020
       0.018
       0.012
       0.009
       0.009
       0.013
       0.015
       0.012
       0.006
       0.001
       0.001
       0.003
       0.003
       0.001
      -0.002
      -0.001
       0.002
       0.005
       0.005
       0.003
       0.004
       0.007
       0.009
       0.006
       0.002
      -0.001
       0.000
       0.001
       0.000
      -0.002
      -0.003
       0.001
       0.006
       0.009
       0.006
      -0.001
      -0.006
      -0.006
      -0.001
       0.003
       0.004
       0.000
      -0.005
      -0.009
      -0.012
      -0.011
      -0.007
      -0.004
      -0.003
      -0.005
      -0.006
      -0.003
       0.002
       0.006
       0.006
       0.003
       0.001
       0.003
       0.006
       0.008
       0.006
       0.003
       0.001
       0.002
       0.002
       0.000
      -0.002
      -0.004
      -0.004
      -0.002
       0.002
       0.004
       0.004
       0.001
      -0.004
      -0.007
      -0.004
       0.003
       0.011
       0.013
       0.008
      -0.003
      -0.014
      -0.018
      -0.015
      -0.007
       0.002
       0.008
       0.012
       0.013
       0.012
       0.009
       0.005
       0.001
       0.000
       0.001
       0.005
       0.006
       0.002
      -0.006
      -0.013
      -0.013
      -0.009
      -0.003
      -0.001
      -0.001
      -0.001
       0.001
       0.002
       0.001
      -0.001
      -0.004
      -0.004
      -0.005
      -0.006
      -0.006
      -0.003
       0.002
       0.005
       0.006
       0.004
       0.001
       0.001
       0.002
       0.004
       0.003
      -0.002
      -0.006
      -0.008
      -0.007
      -0.006
      -0.006
      -0.007
      -0.007
      -0.003
       0.003
       0.006
       0.005
       0.001
      -0.004
      -0.007
      -0.006
      -0.001
       0.005
       0.009
       0.009
       0.007
       0.004
       0.002
       0.001
      -0.001
      -0.004
      -0.005
      -0.005
      -0.002
       0.002
       0.004
       0.004
       0.003
       0.004
       0.005
       0.006
       0.005
       0.002
      -0.003
      -0.007
      -0.010
      -0.009
      -0.007
      -0.003
       0.001
       0.003
       0.004
       0.003
       0.000
      -0.004
      -0.006
      -0.005
      -0.002
       0.001
       0.002
       0.001
       0.001
       0.002
       0.003
       0.004
       0.005
       0.007
       0.008
       0.008
       0.004
      -0.003
      -0.010
      -0.013
      -0.012
      -0.007
      -0.003
      -0.001
      -0.002
      -0.004
      -0.005
      -0.004
      -0.003
      -0.003
      -0.003
      -0.004
      -0.005
      -0.005
      -0.004
      -0.001
       0.001
       0.001
      -0.003
      -0.010
      -0.016
      -0.016
      -0.011
      -0.004
       0.001
       0.001
      -0.002
      -0.005
      -0.003
       0.002
       0.007
       0.007
       0.002
      -0.006
      -0.012
      -0.013
      -0.011
      -0.008
      -0.005
      -0.002
       0.001
       0.003
       0.003
       0.001
       0.000
       0.002
       0.007
       0.012
       0.014
       0.012
       0.004
      -0.005
      -0.012
      -0.012
      -0.009
      -0.009
      -0.011
      -0.011
      -0.005
      -0.003
      -0.025
      -0.078
      -0.145
      -0.189
      -0.189
      -0.174
      -0.204
      -0.299
      -0.396
      -0.385
      -0.222
       0.013
       0.203
       0.351
       0.600
       1.032
       1.462
       1.519
       0.993
       0.077
      -0.805
      -1.402
      -1.778
      -2.035
      -1.998
      -1.328
       0.029
       1.608
       2.710
       2.913
       2.313
       1.298
       0.168
      -1.005
      -2.164
      -3.012
      -3.104
      -2.261
      -0.851
       0.459
       1.272
       1.716
       2.097
       2.406
       2.291
       1.494
       0.226
      -0.962
      -1.649
      -1.848
      -1.843
      -1.748
      -1.309
      -0.220
       1.382
       2.832
       3.394
       2.800
       1.381
      -0.239
      -1.573
      -2.441
      -2.849
      -2.791
      -2.249
      -1.330
      -0.312
       0.511
       1.028
       1.349
       1.649
       1.956
       2.089
       1.802
       1.016
      -0.105
      -1.259
      -2.163
      -2.608
      -2.489
      -1.824
      -0.770
       0.433
       1.527
       2.275
       2.498
       2.140
       1.327
       0.345
      -0.487
      -0.988
      -1.199
      -1.288
      -1.357
      -1.325
      -1.028
      -0.422
       0.322
       0.948
       1.330
       1.533
       1.645
       1.591
       1.176
       0.339
      -0.674
      -1.450
      -1.727
      -1.555
      -1.166
      -0.749
      -0.366
      -0.026
       0.232
       0.348
       0.321
       0.244
       0.236
       0.339
       0.490
       0.575
       0.500
       0.235
      -0.163
      -0.556
      -0.783
      -0.758
      -0.527
      -0.229
       0.019
       0.189
       0.325
       0.457
       0.546
       0.512
       0.330
       0.094
      -0.051
      -0.048
       0.023
       0.056
       0.053
       0.093
       0.199
       0.263
       0.161
      -0.099
      -0.372
      -0.508
      -0.470
      -0.320
      -0.139
       0.012
       0.099
       0.126
       0.153
       0.245
       0.390
       0.472
       0.366
       0.058
      -0.333
      -0.649
      -0.800
      -0.774
      -0.585
      -0.239
       0.228
       0.706
       1.045
       1.136
       0.977
       0.660
       0.298
      -0.034
      -0.298
      -0.482
      -0.614
      -0.762
      -0.974
      -1.171
      -1.157
      -0.782
      -0.099
       0.649
       1.227
       1.543
       1.605
       1.388
       0.813
      -0.108
      -1.136
      -1.882
      -2.066
      -1.702
      -1.037
      -0.305
       0.397
       1.027
       1.484
       1.639
       1.461
       1.059
       0.571
       0.045
      -0.569
      -1.274
      -1.905
      -2.177
      -1.894
      -1.120
      -0.117
       0.855
       1.640
       2.116
       2.127
       1.577
       0.598
      -0.445
      -1.148
      -1.313
      -1.020
      -0.504
       0.011
       0.381
       0.527
       0.446
       0.236
       0.069
       0.068
       0.197
       0.290
       0.203
      -0.050
      -0.306
      -0.388
      -0.264
      -0.055
       0.098
       0.167
       0.217
       0.262
       0.207
      -0.042
      -0.440
      -0.792
      -0.900
      -0.706
      -0.316
       0.109
       0.471
       0.742
       0.889
       0.845
       0.573
       0.143
      -0.294
      -0.613
      -0.781
      -0.818
      -0.730
      -0.488
      -0.091
       0.384
       0.803
       1.044
       1.051
       0.835
       0.443
      -0.052
      -0.537
      -0.875
      -0.958
      -0.790
      -0.489
      -0.213
      -0.048
       0.032
       0.114
       0.239
       0.371
       0.452
       0.482
       0.507
       0.548
       0.569
       0.506
       0.317
       0.010
      -0.362
      -0.703
      -0.905
      -0.919
      -0.806
      -0.681
      -0.579
      -0.403
      -0.034
       0.488
       0.944
       1.105
       0.921
       0.531
       0.133
      -0.150
      -0.313
      -0.427
      -0.548
      -0.656
      -0.666
      -0.491
      -0.116
       0.375
       0.823
       1.061
       0.999
       0.681
       0.263
      -0.105
      -0.361
      -0.527
      -0.628
      -0.653
      -0.585
      -0.435
      -0.241
      -0.034
       0.168
       0.336
       0.418
       0.389
       0.297
       0.250
       0.303
       0.377
       0.318
       0.065
      -0.266
      -0.475
      -0.461
      -0.300
      -0.153
      -0.119
      -0.171
      -0.229
      -0.239
      -0.183
      -0.051
       0.140
       0.320
       0.406
       0.366
       0.261
       0.190
       0.197
       0.217
       0.128
      -0.118
      -0.406
      -0.519
      -0.331
       0.042
       0.294
       0.167
      -0.309
      -0.813
      -0.970
      -0.628
       0.058
       0.738
       1.085
       0.981
       0.584
       0.207
       0.082
       0.181
       0.283
       0.187
      -0.139
      -0.590
      -1.031
      -1.361
      -1.515
      -1.450
      -1.150
      -0.627
       0.066
       0.828
       1.503
       1.924
       2.002
       1.799
       1.489
       1.207
       0.917
       0.450
      -0.303
      -1.215
      -1.963
      -2.235
      -1.932
      -1.207
      -0.340
       0.452
       1.102
       1.633
       2.029
       2.164
       1.874
       1.108
       0.022
      -1.051
      -1.786
      -2.054
      -1.966
      -1.740
      -1.513
      -1.271
      -0.932
      -0.464
       0.081
       0.605
       1.017
       1.245
       1.230
       0.951
       0.459
      -0.109
      -0.583
      -0.862
      -0.931
      -0.814
      -0.531
      -0.124
       0.316
       0.702
       1.004
       1.219
       1.282
       1.072
       0.546
      -0.122
      -0.595
      -0.624
      -0.297
      -0.003
      -0.100
      -0.597
      -1.160
      -1.413
      -1.207
      -0.668
      -0.029
       0.537
       0.955
       1.164
       1.099
       0.775
       0.362
       0.107
       0.145
       0.389
       0.603
       0.563
       0.180
      -0.464
      -1.130
      -1.520
      -1.448
      -0.973
      -0.341
       0.222
       0.650
       0.986
       1.246
       1.370
       1.288
       0.995
       0.578
       0.165
      -0.146
      -0.350
      -0.549
      -0.856
      -1.266
      -1.615
      -1.688
      -1.394
      -0.823
      -0.160
       0.447
       0.921
       1.219
       1.304
       1.192
       0.982
       0.811
       0.736
       0.701
       0.585
       0.293
      -0.200
      -0.838
      -1.471
      -1.884
      -1.885
      -1.402
      -0.559
       0.346
       0.991
       1.252
       1.274
       1.264
       1.246
       1.057
       0.603
      -0.001
      -0.570
      -1.065
      -1.598
      -2.224
      -2.782
      -2.999
      -2.744
      -2.164
      -1.554
      -1.101
      -0.758
      -0.361
       0.147
       0.607
       0.784
       0.613
       0.292
       0.112
       0.194
       0.364
       0.289
      -0.239
      -1.075
      -1.745
      -1.731
      -0.825
       0.746
       2.518
       4.113
       5.394
       6.327
       6.769
       6.456
       5.235
       3.318
       1.291
      -0.171
      -0.686
      -0.359
       0.358
       0.992
       1.303
       1.299
       1.150
       1.099
       1.351
       1.902
       2.421
       2.406
       1.519
      -0.180
      -2.332
      -4.561
      -6.625
      -8.325
      -9.372
      -9.428
      -8.272
      -5.965
      -2.879
       0.414
       3.312
       5.357
       6.336
       6.248
       5.150
       3.013
      -0.166
      -4.034
      -7.677
      -9.914
      -9.939
      -7.821
      -4.428
      -0.856
       2.139
       4.300
       5.662
       6.309
       6.310
       5.749
       4.707
       3.208
       1.233
      -1.165
      -3.722
      -5.937
      -7.210
      -7.123
      -5.665
      -3.250
      -0.487
       2.088
       4.146
       5.516
       6.087
       5.783
       4.610
       2.727
       0.477
      -1.635
      -3.076
      -3.496
      -2.875
      -1.507
       0.154
       1.696
       2.899
       3.772
       4.415
       4.791
       4.608
       3.495
       1.345
      -1.490
      -4.314
      -6.384
      -7.171
      -6.488
      -4.555
      -1.981
       0.398
       1.886
       2.273
       1.916
       1.438
       1.294
       1.540
       1.902
       2.023
       1.699
       0.960
       0.014
      -0.886
      -1.526
      -1.754
      -1.478
      -0.682
       0.528
       1.890
       3.011
       3.500
       3.167
       2.191
       1.075
       0.326
       0.084
       0.028
      -0.306
      -1.059
      -1.884
      -2.271
      -2.040
      -1.492
      -1.059
      -0.833
      -0.515
       0.170
       1.054
       1.571
       1.236
       0.065
      -1.426
      -2.611
      -3.163
      -3.160
      -2.887
      -2.530
      -2.074
      -1.430
      -0.632
       0.153
       0.785
       1.328
       2.011
       3.020
       4.250
       5.265
       5.524
       4.732
       3.055
       1.041
      -0.702
      -1.828
      -2.368
      -2.575
      -2.656
      -2.613
      -2.302
      -1.612
      -0.618
       0.395
       1.062
       1.162
       0.794
       0.334
       0.147
       0.292
       0.493
       0.413
      -0.044
      -0.664
      -1.114
      -1.184
      -0.886
      -0.412
      -0.001
       0.175
       0.071
      -0.234
      -0.577
      -0.768
      -0.661
      -0.244
       0.310
       0.717
       0.744
       0.358
      -0.241
      -0.736
      -0.895
      -0.729
      -0.474
      -0.413
      -0.654
      -1.044
      -1.292
      -1.187
      -0.761
      -0.247
       0.103
       0.212
       0.192
       0.199
       0.234
       0.132
      -0.261
      -0.879
      -1.417
      -1.542
      -1.149
      -0.419
       0.368
       1.080
       1.786
       2.552
       3.248
       3.594
       3.418
       2.830
       2.122
       1.511
       0.998
       0.455
      -0.189
      -0.849
      -1.366
      -1.656
      -1.763
      -1.765
      -1.649
      -1.321
      -0.754
      -0.117
       0.287
       0.235
      -0.243
      -0.864
      -1.270
      -1.254
      -0.872
      -0.379
      -0.030
       0.073
      -0.014
      -0.190
      -0.393
      -0.583
      -0.689
      -0.589
      -0.179
       0.528
       1.363
       2.048
       2.346
       2.196
       1.761
       1.317
       1.058
       0.968
       0.856
       0.538
       0.011
      -0.520
      -0.792
      -0.682
      -0.298
       0.120
       0.367
       0.384
       0.247
       0.075
      -0.061
      -0.178
      -0.340
      -0.595
      -0.912
      -1.169
      -1.217
      -0.976
      -0.521
      -0.065
       0.167
       0.095
      -0.163
      -0.393
      -0.460
      -0.379
      -0.248
      -0.130
      -0.019
       0.109
       0.230
       0.270
       0.166
      -0.061
      -0.292
      -0.386
      -0.269
       0.013
       0.318
       0.480
       0.408
       0.145
      -0.128
      -0.204
       0.021
       0.473
       0.962
       1.304
       1.413
       1.291
       0.972
       0.499
      -0.047
      -0.514
      -0.724
      -0.604
      -0.255
       0.110
       0.303
       0.255
       0.008
      -0.358
      -0.776
      -1.192
      -1.530
      -1.693
      -1.614
      -1.316
      -0.908
      -0.524
      -0.243
      -0.045
       0.158
       0.438
       0.771
       1.013
       0.983
       0.591
      -0.069
      -0.750
      -1.194
      -1.286
      -1.109
      -0.859
      -0.696
      -0.642
      -0.595
      -0.418
      -0.035
       0.515
       1.099
       1.560
       1.824
       1.935
       1.995
       2.056
       2.067
       1.912
       1.499
       0.824
      -0.006
      -0.796
      -1.305
      -1.350
      -0.935
      -0.291
       0.261
       0.544
       0.626
       0.703
       0.880
       1.071
       1.073
       0.719
      -0.021
      -1.027
      -2.054
      -2.813
      -3.063
      -2.714
      -1.877
      -0.837
       0.078
       0.644
       0.797
       0.599
       0.159
      -0.402
      -0.954
      -1.371
      -1.565
      -1.510
      -1.224
      -0.760
      -0.222
       0.228
       0.439
       0.375
       0.169
       0.037
       0.132
       0.427
       0.731
       0.821
       0.608
       0.202
      -0.170
      -0.319
      -0.181
       0.195
       0.700
       1.189
       1.513
       1.558
       1.286
       0.766
       0.151
      -0.373
      -0.688
      -0.788
      -0.738
      -0.574
      -0.258
       0.265
       0.948
       1.617
       2.051
       2.134
       1.929
       1.599
       1.258
       0.900
       0.451
      -0.105
      -0.672
      -1.091
      -1.240
      -1.107
      -0.805
      -0.532
      -0.473
      -0.696
      -1.104
      -1.492
      -1.657
      -1.516
      -1.159
      -0.786
      -0.565
      -0.512
      -0.498
      -0.391
      -0.184
       0.003
       0.052
      -0.039
      -0.170
      -0.238
      -0.236
      -0.253
      -0.397
      -0.679
      -0.965
      -1.026
      -0.689
       0.033
       0.901
       1.585
       1.878
       1.826
       1.637
       1.471
       1.322
       1.091
       0.741
       0.347
       0.011
      -0.227
      -0.391
      -0.513
      -0.586
      -0.575
      -0.453
