Origin Time       27/8/2009 16:54:15  UTC
Lat.              30.0 N 
Long.             80.0 E 
Depth (Km)         14.0
Magnitude         3.9
 Region           UTTARAKHAND-INDIA                                                
 Above details taken from IMD 
    
Station Code      MUN
Station Lat.       30.066  N
Station Long.      80.237  E
Station Height(m) 2201.0
Site Class        A   Vs30 between 700 m/sec to 1400 m/sec * 
Record Time       27.08.2009 16:54:12.249 UTC
Sampling Rate     200. Hz
 Record Duration   65.165 Sec.
 Direction         N-S (N positive)
Max. Acceleration      7.807 cm/sec**2
     
  * For reference see Site Classification link of website 
     
 Base Line Corrected and Low Pass Filtered (Cut Off at 35 Hz) Time History
 Acceleration data in cm/sec**2
    
[...]
      -0.016
      -0.013
      -0.006
       0.000
       0.002
       0.001
      -0.001
      -0.003
      -0.004
      -0.004
      -0.005
      -0.006
      -0.005
      -0.003
      -0.001
      -0.001
      -0.002
      -0.003
      -0.005
      -0.005
      -0.005
      -0.005
      -0.006
      -0.007
      -0.009
      -0.006
      -0.001
       0.005
       0.008
       0.005
       0.000
      -0.001
       0.002
       0.007
       0.010
       0.008
       0.002
      -0.004
      -0.007
      -0.007
      -0.005
      -0.003
      -0.003
      -0.002
       0.000
       0.003
       0.003
       0.000
      -0.006
      -0.013
      -0.015
      -0.011
      -0.004
       0.000
       0.000
      -0.001
       0.002
       0.009
       0.016
       0.018
       0.014
       0.006
       0.000
      -0.002
       0.000
       0.004
       0.006
       0.006
       0.004
       0.000
      -0.002
       0.000
       0.004
       0.006
       0.005
       0.000
      -0.003
      -0.002
       0.003
       0.007
       0.009
       0.008
       0.005
       0.001
      -0.003
      -0.007
      -0.008
      -0.004
       0.002
       0.008
       0.012
       0.011
       0.006
      -0.001
      -0.006
      -0.004
       0.005
       0.014
       0.018
       0.013
       0.005
      -0.001
      -0.002
       0.001
       0.005
       0.006
       0.005
       0.004
       0.003
       0.001
      -0.002
      -0.004
      -0.003
       0.002
       0.005
       0.002
      -0.006
      -0.012
      -0.010
      -0.001
       0.010
       0.016
       0.014
       0.006
      -0.002
      -0.008
      -0.009
      -0.006
      -0.002
       0.001
       0.001
      -0.001
      -0.003
      -0.003
      -0.002
       0.001
       0.005
       0.006
       0.004
      -0.002
      -0.007
      -0.006
      -0.001
       0.005
       0.009
       0.008
       0.005
       0.001
       0.000
       0.001
       0.005
       0.007
       0.008
       0.007
       0.006
       0.005
       0.002
      -0.002
      -0.006
      -0.007
      -0.006
      -0.005
      -0.005
      -0.008
      -0.012
      -0.013
      -0.010
      -0.004
       0.000
       0.001
       0.000
      -0.001
      -0.001
      -0.001
       0.000
       0.002
       0.003
       0.004
       0.002
       0.001
       0.002
       0.006
       0.009
       0.009
       0.006
       0.002
       0.000
       0.001
       0.004
       0.007
       0.006
       0.001
      -0.005
      -0.007
      -0.004
       0.004
       0.010
       0.011
       0.010
       0.011
       0.014
       0.016
       0.013
       0.005
      -0.002
      -0.003
       0.001
       0.008
       0.011
       0.010
       0.007
       0.005
       0.007
       0.009
       0.010
       0.009
       0.006
       0.003
       0.001
       0.001
       0.002
       0.004
       0.004
       0.002
      -0.003
      -0.008
      -0.009
      -0.005
       0.000
       0.005
       0.010
       0.013
       0.014
       0.011
       0.007
       0.002
      -0.001
      -0.001
       0.002
       0.005
       0.004
      -0.001
      -0.006
      -0.007
      -0.003
       0.001
       0.004
       0.004
       0.004
       0.004
       0.003
       0.003
       0.003
       0.005
       0.012
       0.019
       0.024
       0.022
       0.015
       0.008
       0.005
       0.007
       0.011
       0.011
       0.006
      -0.001
      -0.005
      -0.004
       0.002
       0.007
       0.009
       0.006
       0.003
       0.001
       0.000
      -0.001
      -0.001
       0.001
       0.005
       0.007
       0.005
       0.000
      -0.003
       0.000
       0.009
       0.018
       0.023
       0.021
       0.017
       0.015
       0.015
       0.016
       0.015
       0.011
       0.007
       0.006
       0.009
       0.014
       0.018
       0.016
       0.010
       0.003
      -0.002
      -0.003
       0.000
       0.007
       0.015
       0.020
       0.019
       0.014
       0.009
       0.009
       0.012
       0.016
       0.018
       0.016
       0.014
       0.012
       0.011
       0.011
       0.011
       0.009
       0.005
       0.000
      -0.003
      -0.001
       0.005
       0.011
       0.015
       0.015
       0.013
       0.009
       0.004
       0.003
       0.007
       0.013
       0.017
       0.014
       0.008
       0.001
      -0.003
      -0.003
      -0.001
       0.002
       0.007
       0.010
       0.010
       0.008
       0.006
       0.005
       0.003
      -0.002
      -0.007
      -0.009
      -0.007
      -0.001
       0.004
       0.004
       0.002
       0.001
       0.004
       0.009
       0.016
       0.026
       0.045
       0.083
       0.137
       0.185
       0.194
       0.134
       0.007
      -0.153
      -0.291
      -0.360
      -0.338
      -0.235
      -0.088
       0.054
       0.148
       0.177
       0.155
       0.114
       0.079
       0.050
       0.011
      -0.040
      -0.072
      -0.044
       0.046
       0.150
       0.203
       0.178
       0.097
       0.007
      -0.058
      -0.087
      -0.072
      -0.020
       0.037
       0.050
      -0.006
      -0.110
      -0.202
      -0.233
      -0.195
      -0.107
       0.009
       0.128
       0.215
       0.237
       0.188
       0.102
       0.028
      -0.006
      -0.006
       0.001
      -0.004
      -0.015
      -0.003
       0.059
       0.157
       0.222
       0.173
      -0.012
      -0.271
      -0.501
      -0.622
      -0.603
      -0.447
      -0.182
       0.135
       0.410
       0.550
       0.513
       0.341
       0.131
      -0.027
      -0.108
      -0.126
      -0.081
       0.052
       0.254
       0.425
       0.437
       0.233
      -0.108
      -0.422
      -0.562
      -0.485
      -0.253
       0.011
       0.191
       0.215
       0.095
      -0.091
      -0.250
      -0.335
      -0.348
      -0.291
      -0.144
       0.098
       0.366
       0.531
       0.490
       0.262
      -0.014
      -0.179
      -0.162
      -0.013
       0.153
       0.235
       0.196
       0.072
      -0.072
      -0.167
      -0.179
      -0.113
      -0.014
       0.057
       0.064
       0.003
      -0.099
      -0.202
      -0.259
      -0.230
      -0.111
       0.038
       0.134
       0.147
       0.129
       0.147
       0.195
       0.211
       0.168
       0.122
       0.128
       0.141
       0.049
      -0.168
      -0.365
      -0.359
      -0.128
       0.163
       0.326
       0.307
       0.170
      -0.018
      -0.255
      -0.529
      -0.745
      -0.740
      -0.412
       0.163
       0.752
       1.090
       1.022
       0.567
      -0.096
      -0.697
      -0.967
      -0.775
      -0.215
       0.426
       0.845
       0.893
       0.629
       0.213
      -0.220
      -0.594
      -0.844
      -0.876
      -0.636
      -0.200
       0.224
       0.412
       0.277
      -0.079
      -0.433
      -0.579
      -0.432
      -0.061
       0.365
       0.678
       0.803
       0.763
       0.612
       0.370
       0.040
      -0.320
      -0.571
      -0.558
      -0.250
       0.196
       0.510
       0.490
       0.135
      -0.355
      -0.714
      -0.775
      -0.550
      -0.201
       0.087
       0.234
       0.298
       0.374
       0.463
       0.458
       0.265
      -0.069
      -0.359
      -0.425
      -0.259
      -0.042
       0.006
      -0.169
      -0.407
      -0.464
      -0.223
       0.217
       0.625
       0.808
       0.722
       0.449
       0.110
      -0.209
      -0.458
      -0.589
      -0.564
      -0.398
      -0.162
       0.063
       0.222
       0.285
       0.234
       0.083
      -0.093
      -0.186
      -0.139
       0.022
       0.219
       0.385
       0.476
       0.446
       0.265
      -0.019
      -0.268
      -0.354
      -0.279
      -0.170
      -0.152
      -0.227
      -0.305
      -0.317
      -0.286
      -0.252
      -0.194
      -0.046
       0.190
       0.401
       0.456
       0.335
       0.147
       0.021
       0.004
       0.059
       0.147
       0.258
       0.372
       0.409
       0.283
       0.000
      -0.304
      -0.461
      -0.401
      -0.202
      -0.011
       0.077
       0.061
      -0.005
      -0.075
      -0.144
      -0.217
      -0.283
      -0.307
      -0.257
      -0.130
       0.042
       0.211
       0.323
       0.346
       0.288
       0.196
       0.117
       0.077
       0.077
       0.112
       0.167
       0.215
       0.219
       0.143
      -0.022
      -0.236
      -0.410
      -0.466
      -0.394
      -0.255
      -0.134
      -0.098
      -0.168
      -0.309
      -0.421
      -0.390
      -0.177
       0.126
       0.345
       0.354
       0.174
      -0.048
      -0.157
      -0.090
       0.098
       0.301
       0.444
       0.506
       0.495
       0.421
       0.294
       0.142
      -0.007
      -0.145
      -0.271
      -0.354
      -0.328
      -0.155
       0.098
       0.269
       0.216
      -0.059
      -0.390
      -0.563
      -0.472
      -0.180
       0.156
       0.390
       0.461
       0.379
       0.196
      -0.010
      -0.165
      -0.231
      -0.214
      -0.146
      -0.050
       0.063
       0.172
       0.227
       0.190
       0.072
      -0.083
      -0.241
      -0.375
      -0.413
      -0.265
       0.061
       0.402
       0.552
       0.437
       0.170
      -0.083
      -0.241
      -0.335
      -0.398
      -0.387
      -0.218
       0.106
       0.435
       0.567
       0.426
       0.142
      -0.082
      -0.161
      -0.180
      -0.248
      -0.351
      -0.362
      -0.190
       0.104
       0.337
       0.356
       0.165
      -0.080
      -0.207
      -0.162
      -0.023
       0.093
       0.131
       0.111
       0.071
       0.041
       0.057
       0.162
       0.334
       0.433
       0.301
      -0.076
      -0.509
      -0.726
      -0.593
      -0.218
       0.121
       0.185
      -0.030
      -0.288
      -0.315
      -0.045
       0.315
       0.484
       0.373
       0.145
       0.024
       0.073
       0.144
       0.044
      -0.254
      -0.568
      -0.665
      -0.446
      -0.014
       0.416
       0.654
       0.636
       0.450
       0.269
       0.189
       0.135
      -0.062
      -0.442
      -0.809
      -0.869
      -0.506
       0.059
       0.409
       0.294
      -0.118
      -0.371
      -0.150
       0.420
       0.901
       0.941
       0.542
      -0.008
      -0.408
      -0.531
      -0.442
      -0.282
      -0.169
      -0.135
      -0.127
      -0.064
       0.075
       0.220
       0.268
       0.177
      -0.012
      -0.217
      -0.355
      -0.336
      -0.108
       0.259
       0.551
       0.558
       0.292
       0.008
      -0.010
       0.264
       0.554
       0.513
       0.046
      -0.580
      -0.956
      -0.868
      -0.450
      -0.003
       0.284
       0.435
       0.557
       0.645
       0.568
       0.221
      -0.314
      -0.777
      -0.905
      -0.632
      -0.149
       0.246
       0.376
       0.309
       0.256
       0.333
       0.438
       0.363
       0.030
      -0.387
      -0.609
      -0.504
      -0.206
       0.039
       0.098
       0.032
      -0.039
      -0.104
      -0.236
      -0.427
      -0.508
      -0.303
       0.134
       0.512
       0.551
       0.249
      -0.133
      -0.317
      -0.251
      -0.101
      -0.050
      -0.110
      -0.137
       0.017
       0.360
       0.752
       0.989
       0.909
       0.499
      -0.075
      -0.536
      -0.682
      -0.534
      -0.289
      -0.113
       0.018
       0.221
       0.482
       0.577
       0.285
      -0.327
      -0.887
      -1.009
      -0.616
       0.026
       0.539
       0.699
       0.542
       0.256
       0.022
      -0.076
      -0.042
       0.073
       0.194
       0.249
       0.196
       0.043
      -0.156
      -0.324
      -0.396
      -0.349
      -0.213
      -0.056
       0.046
       0.051
      -0.015
      -0.084
      -0.118
      -0.144
      -0.208
      -0.289
      -0.296
      -0.150
       0.123
       0.380
       0.452
       0.273
      -0.050
      -0.287
      -0.261
      -0.015
       0.206
       0.184
      -0.062
      -0.292
      -0.301
      -0.113
       0.066
       0.070
      -0.072
      -0.189
      -0.141
       0.070
       0.332
       0.524
       0.591
       0.551
       0.445
       0.302
       0.153
       0.041
      -0.021
      -0.100
      -0.281
      -0.545
      -0.733
      -0.679
      -0.380
      -0.019
       0.208
       0.260
       0.244
       0.244
       0.213
       0.052
      -0.224
      -0.429
      -0.351
       0.035
       0.487
       0.645
       0.328
      -0.279
      -0.731
      -0.697
      -0.253
       0.194
       0.294
       0.041
      -0.273
      -0.375
      -0.252
      -0.099
      -0.048
      -0.006
       0.206
       0.570
       0.802
       0.641
       0.177
      -0.178
      -0.086
       0.368
       0.745
       0.657
       0.096
      -0.596
      -1.044
      -1.122
      -0.981
      -0.831
      -0.730
      -0.605
      -0.429
      -0.341
      -0.541
      -1.109
      -1.933
      -2.812
      -3.598
      -4.217
      -4.598
      -4.610
      -4.089
      -2.908
      -1.066
       1.250
       3.668
       5.755
       7.181
       7.807
       7.616
       6.628
       4.945
       2.859
       0.866
      -0.509
      -0.943
      -0.479
       0.499
       1.458
       1.976
       1.877
       1.183
      -0.031
      -1.658
      -3.409
      -4.723
      -4.970
      -3.876
      -1.795
       0.468
       2.165
       3.026
       3.244
       3.107
       2.660
       1.717
       0.185
      -1.659
      -3.215
      -3.903
      -3.513
      -2.263
      -0.567
       1.209
       2.758
       3.728
       3.775
       2.823
       1.221
      -0.468
      -1.816
      -2.657
      -2.909
      -2.483
      -1.489
      -0.450
      -0.075
      -0.651
      -1.680
      -2.229
      -1.737
      -0.520
       0.521
       0.693
       0.041
      -0.830
      -1.330
      -1.258
      -0.738
      -0.005
       0.718
       1.258
       1.547
       1.675
       1.829
       2.125
       2.464
       2.562
       2.139
       1.126
      -0.293
      -1.815
      -3.178
      -4.166
      -4.525
      -3.982
      -2.463
      -0.316
       1.753
       3.040
       3.232
       2.508
       1.294
      -0.050
      -1.297
      -2.192
      -2.387
      -1.690
      -0.353
       1.018
       1.905
       2.235
       2.262
       2.153
       1.758
       0.826
      -0.598
      -2.023
      -2.806
      -2.589
      -1.528
      -0.154
       0.948
       1.428
       1.303
       0.918
       0.742
       1.054
       1.718
       2.237
       2.082
       1.051
      -0.581
      -2.195
      -3.148
      -3.103
      -2.184
      -0.871
       0.292
       0.984
       1.189
       1.030
       0.545
      -0.340
      -1.588
      -2.844
      -3.526
      -3.200
      -1.911
      -0.160
       1.472
       2.676
       3.428
       3.711
       3.338
       2.138
       0.319
      -1.451
      -2.413
      -2.229
      -1.194
       0.015
       0.829
       1.140
       1.284
       1.665
       2.322
       2.776
       2.373
       0.890
      -1.118
      -2.646
      -2.979
      -2.186
      -0.921
       0.189
       0.910
       1.266
       1.252
       0.818
       0.122
      -0.392
      -0.331
       0.165
       0.414
      -0.217
      -1.647
      -3.060
      -3.582
      -2.980
      -1.751
      -0.636
      -0.073
      -0.052
      -0.316
      -0.617
      -0.836
      -0.967
      -1.041
      -1.043
      -0.866
      -0.369
       0.470
       1.446
       2.213
       2.537
       2.490
       2.363
       2.369
       2.435
       2.311
       1.885
       1.339
       0.958
       0.805
       0.660
       0.322
      -0.081
      -0.177
       0.227
       0.843
       1.092
       0.618
      -0.398
      -1.403
      -1.928
      -1.907
      -1.626
      -1.429
      -1.460
      -1.626
      -1.746
      -1.716
      -1.574
      -1.456
      -1.471
      -1.582
      -1.589
      -1.256
      -0.501
       0.546
       1.653
       2.638
       3.393
       3.801
       3.726
       3.125
       2.206
       1.385
       1.021
       1.109
       1.244
       0.951
       0.095
      -0.984
      -1.736
      -1.843
      -1.447
      -1.004
      -0.913
      -1.259
      -1.826
      -2.321
      -2.560
      -2.498
      -2.173
      -1.650
      -1.033
      -0.474
      -0.123
      -0.036
      -0.124
      -0.194
      -0.072
       0.300
       0.835
       1.386
       1.854
       2.214
       2.457
       2.507
       2.238
       1.592
       0.693
      -0.195
      -0.823
      -1.121
      -1.200
      -1.220
      -1.260
      -1.331
      -1.460
      -1.699
      -2.021
      -2.221
      -2.008
      -1.255
      -0.177
       0.760
       1.170
       1.024
       0.637
       0.396
       0.500
       0.908
       1.453
       1.952
       2.262
       2.313
       2.117
       1.719
       1.156
       0.469
      -0.255
      -0.854
      -1.146
      -1.018
      -0.517
       0.141
       0.664
       0.839
       0.663
       0.336
       0.100
       0.052
       0.097
       0.093
       0.031
       0.051
       0.276
       0.633
       0.853
       0.685
       0.122
      -0.570
      -1.050
      -1.165
      -1.050
      -0.969
      -1.051
      -1.188
      -1.162
      -0.878
      -0.438
      -0.019
       0.286
       0.502
       0.672
       0.780
       0.771
       0.641
       0.453
       0.268
       0.079
      -0.157
      -0.441
      -0.706
      -0.901
      -1.058
      -1.238
      -1.415
      -1.444
      -1.175
      -0.565
       0.278
       1.125
       1.693
       1.749
       1.259
       0.477
      -0.153
      -0.266
       0.170
       0.850
       1.355
       1.425
       1.078
       0.538
       0.055
      -0.256
      -0.454
      -0.668
      -0.948
      -1.217
      -1.326
      -1.174
      -0.785
      -0.312
       0.036
       0.113
      -0.063
      -0.315
      -0.437
      -0.348
      -0.134
       0.041
       0.068
      -0.024
      -0.096
      -0.002
       0.298
       0.697
       0.994
       1.022
       0.756
       0.320
      -0.111
      -0.407
      -0.516
      -0.428
      -0.171
       0.156
       0.382
       0.365
       0.129
      -0.130
      -0.196
      -0.027
       0.198
       0.242
       0.017
      -0.352
      -0.624
      -0.603
      -0.251
       0.292
       0.766
       0.942
       0.779
       0.479
       0.338
       0.486
       0.755
       0.819
       0.488
      -0.119
      -0.695
      -1.010
      -1.065
      -1.012
      -0.973
      -0.960
      -0.918
      -0.827
      -0.733
      -0.705
      -0.774
      -0.887
      -0.914
      -0.734
      -0.334
       0.149
       0.526
       0.695
       0.695
       0.621
       0.515
       0.364
       0.189
       0.084
       0.150
       0.399
