Origin Time       04/04/2011 11:31:40
Lat.              29.6 N	
Long.             80.8 E	
Depth (Km)         10.0
Magnitude         5.7
 Region           NEPAL-INDIA-BORDER-REGION                                        
 Above details taken from IMD 
   
Station Code      MUN
Station Lat.       30.066
Station Long.      80.237
Station Height(m) 2201.0
Site Class        A   Vs30 between 700 m/sec to 1400 m/sec * 
Record Time       04.04.2011 11:31:44.544
Sampling Rate     200. Hz
 Record Duration   81.180 Sec.
 Direction         Vert. (Up positive)
Max. Acceleration    -12.748 cm/sec**2
     
  * For reference see Site Classification link of website 
     
 Base Line Corrected and Low Pass Filtered (Cut Off at 35 Hz) Time History
 Acceleration data in cm/sec**2
    
[...]
       0.196
      -0.212
      -1.004
      -2.103
      -3.057
      -3.306
      -2.619
      -1.295
       0.040
       0.844
       0.926
       0.453
      -0.210
      -0.645
      -0.505
       0.343
       1.692
       2.997
       3.615
       3.169
       1.775
      -0.065
      -1.787
      -3.034
      -3.681
      -3.716
      -3.164
      -2.130
      -0.895
       0.135
       0.637
       0.612
       0.381
       0.305
       0.450
       0.543
       0.244
      -0.540
      -1.592
      -2.580
      -3.235
      -3.379
      -2.897
      -1.826
      -0.524
       0.378
       0.327
      -0.708
      -2.123
      -3.037
      -2.868
      -1.680
      -0.092
       1.141
       1.561
       1.215
       0.578
       0.262
       0.655
       1.673
       2.796
       3.410
       3.242
       2.562
       2.009
       2.182
       3.270
       4.929
       6.417
       6.911
       5.880
       3.382
       0.086
      -3.005
      -5.051
      -5.764
      -5.459
      -4.722
      -3.928
      -2.992
      -1.555
       0.527
       2.796
       4.313
       4.232
       2.419
      -0.399
      -3.066
      -4.678
      -4.981
      -4.284
      -3.053
      -1.594
      -0.039
       1.505
       2.868
       3.897
       4.539
       4.770
       4.483
       3.525
       1.933
       0.121
      -1.278
      -1.806
      -1.473
      -0.708
      -0.086
      -0.059
      -0.814
      -2.199
      -3.735
      -4.826
      -5.088
      -4.571
      -3.617
      -2.497
      -1.189
       0.450
       2.319
       3.943
       4.751
       4.521
       3.534
       2.306
       1.155
       0.056
      -1.113
      -2.219
      -2.824
      -2.511
      -1.278
       0.384
       1.791
       2.459
       2.289
       1.448
       0.134
      -1.525
      -3.357
      -4.973
      -5.826
      -5.517
      -4.064
      -1.864
       0.574
       2.793
       4.371
       4.907
       4.182
       2.373
       0.041
      -2.141
      -3.671
      -4.290
      -3.905
      -2.563
      -0.534
       1.675
       3.506
       4.575
       4.790
       4.282
       3.290
       2.078
       0.885
      -0.108
      -0.796
      -1.127
      -1.069
      -0.638
       0.042
       0.726
       1.179
       1.368
       1.506
       1.864
       2.498
       3.134
       3.337
       2.828
       1.705
       0.391
      -0.642
      -1.163
      -1.283
      -1.317
      -1.541
      -1.971
      -2.277
      -1.938
      -0.651
       1.241
       2.704
       2.600
       0.577
      -2.455
      -4.781
      -5.015
      -3.035
       0.046
       2.742
       4.116
       4.068
       3.008
       1.424
      -0.284
      -1.773
      -2.784
      -3.223
      -3.182
      -2.793
      -2.106
      -1.172
      -0.251
       0.174
      -0.296
      -1.547
      -2.876
      -3.414
      -2.769
      -1.353
      -0.088
       0.308
      -0.101
      -0.528
      -0.142
       1.179
       2.692
       3.381
       2.803
       1.428
       0.211
      -0.165
       0.270
       0.930
       1.164
       0.690
      -0.272
      -1.170
      -1.459
      -0.925
       0.216
       1.490
       2.452
       2.857
       2.623
       1.765
       0.434
      -1.031
      -2.181
      -2.698
      -2.581
      -2.090
      -1.503
      -0.909
      -0.257
       0.422
       0.901
       0.932
       0.581
       0.316
       0.658
       1.646
       2.663
       2.851
       1.823
       0.008
      -1.646
      -2.357
      -1.986
      -0.984
       0.068
       0.872
       1.477
       2.002
       2.346
       2.196
       1.367
       0.129
      -0.862
      -1.079
      -0.659
      -0.358
      -0.863
      -2.090
      -3.177
      -3.242
      -2.203
      -0.862
      -0.172
      -0.387
      -0.892
      -0.855
      -0.019
       1.117
       1.837
       1.880
       1.593
       1.477
       1.642
       1.703
       1.208
       0.166
      -0.828
      -1.005
      -0.048
       1.591
       2.954
       3.242
       2.379
       0.998
      -0.160
      -0.905
      -1.709
      -3.125
      -5.069
      -6.663
      -6.852
      -5.257
      -2.518
       0.166
       1.873
       2.430
       2.175
       1.348
      -0.192
      -2.607
      -5.492
      -7.766
      -8.260
      -6.483
      -2.909
       1.370
       5.226
       7.871
       8.911
       8.328
       6.490
       4.117
       2.050
       0.878
       0.686
       1.085
       1.462
       1.307
       0.501
      -0.530
      -1.000
      -0.335
       1.239
       2.652
       2.677
       0.852
      -2.138
      -4.913
      -6.314
      -6.018
      -4.442
      -2.189
       0.365
       2.977
       5.193
       6.314
       5.840
       3.982
       1.610
      -0.388
      -1.723
      -2.681
      -3.531
      -4.055
      -3.717
      -2.266
      -0.112
       1.916
       3.126
       3.284
       2.455
       0.729
      -1.772
      -4.620
      -6.948
      -7.777
      -6.615
      -3.868
      -0.688
       1.635
       2.339
       1.484
      -0.250
      -2.085
      -3.576
      -4.677
      -5.468
      -5.830
      -5.392
      -3.814
      -1.204
       1.741
       4.044
       5.015
       4.671
       3.658
       2.801
       2.618
       3.129
       3.983
       4.730
       5.037
       4.771
       3.999
       2.925
       1.817
       0.938
       0.506
       0.672
       1.433
       2.542
       3.538
       3.995
       3.810
       3.206
       2.400
       1.323
      -0.230
      -2.131
      -3.679
      -3.956
      -2.563
      -0.064
       2.256
       3.163
       2.198
      -0.105
      -2.587
      -4.136
      -4.247
      -3.164
      -1.555
      -0.026
       1.144
       1.919
       2.326
       2.425
       2.375
       2.356
       2.332
       1.918
       0.617
      -1.638
      -4.106
      -5.487
      -4.774
      -2.093
       1.225
       3.506
       3.877
       2.769
       1.395
       0.698
       0.679
       0.609
      -0.198
      -1.783
      -3.566
      -4.832
      -5.187
      -4.685
      -3.664
      -2.505
      -1.453
      -0.551
       0.305
       1.197
       2.007
       2.376
       1.903
       0.478
      -1.516
      -3.333
      -4.266
      -4.025
      -2.844
      -1.274
       0.142
       1.085
       1.487
       1.455
       1.165
       0.722
       0.035
      -1.157
      -2.983
      -5.078
      -6.506
      -6.200
      -3.683
       0.449
       4.673
       7.330
       7.530
       5.577
       2.655
       0.089
      -1.270
      -1.251
      -0.248
       1.056
       2.037
       2.418
       2.362
       2.256
       2.368
       2.648
       2.819
       2.621
       1.975
       0.982
      -0.113
      -0.881
      -0.734
       0.792
       3.569
       6.627
       8.483
       7.958
       4.920
       0.399
      -4.023
      -7.052
      -8.219
      -7.870
      -6.754
      -5.527
      -4.472
      -3.564
      -2.741
      -2.071
      -1.657
      -1.427
      -1.111
      -0.490
       0.347
       1.021
       1.139
       0.577
      -0.471
      -1.622
      -2.482
      -2.781
      -2.425
      -1.509
      -0.288
       0.880
       1.610
       1.598
       0.769
      -0.627
      -2.062
      -2.942
      -2.868
      -1.795
      -0.024
       1.902
       3.377
       3.939
       3.448
       2.134
       0.477
      -0.980
      -1.782
      -1.675
      -0.692
       0.819
       2.295
       3.180
       3.120
       2.050
       0.222
      -1.762
      -3.068
      -3.048
      -1.728
       0.107
       1.479
       2.036
       2.320
       3.170
       4.768
       6.291
       6.555
       5.059
       2.393
      -0.319
      -2.317
      -3.553
      -4.286
      -4.482
      -3.716
      -1.655
       1.381
       4.362
       6.075
       5.837
       3.864
       1.123
      -1.202
      -2.307
      -2.098
      -1.108
      -0.086
       0.461
       0.470
       0.175
      -0.196
      -0.616
      -1.227
      -2.142
      -3.271
      -4.260
      -4.592
      -3.820
      -1.888
       0.628
       2.607
       2.941
       1.260
      -1.709
      -4.525
      -5.895
      -5.409
      -3.660
      -1.732
      -0.463
       0.023
       0.222
       0.734
       1.762
       2.998
       3.880
       3.950
       3.058
       1.379
      -0.695
      -2.684
      -4.163
      -4.879
      -4.797
      -4.043
      -2.804
      -1.288
       0.239
       1.446
       2.085
       2.177
       2.000
       1.854
       1.865
       2.032
       2.369
       2.875
       3.365
       3.469
       2.964
       2.106
       1.510
       1.566
       1.956
       1.858
       0.719
      -1.123
      -2.592
      -2.680
      -1.226
       0.957
       2.623
       2.865
       1.603
      -0.434
      -2.104
      -2.418
      -1.039
       1.471
       3.843
       4.732
       3.498
       0.625
      -2.539
      -4.609
      -4.969
      -4.019
      -2.719
      -1.860
      -1.585
      -1.437
      -0.803
       0.587
       2.397
       3.776
       3.806
       2.109
      -0.774
      -3.556
      -4.947
      -4.440
      -2.542
      -0.278
       1.573
       2.853
       3.760
       4.349
       4.370
       3.592
       2.182
       0.670
      -0.507
      -1.370
      -2.281
      -3.448
      -4.588
      -5.096
      -4.535
      -2.950
      -0.735
       1.687
       3.962
       5.637
       6.108
       4.920
       2.194
      -1.296
      -4.527
      -6.764
      -7.795
      -7.764
      -6.879
      -5.275
      -3.098
      -0.648
       1.615
       3.236
       3.971
       3.880
       3.243
       2.427
       1.781
       1.604
       2.077
       3.133
       4.385
       5.258
       5.286
       4.393
       2.927
       1.424
       0.271
      -0.483
      -0.988
      -1.286
      -1.164
      -0.391
       0.906
       2.136
       2.593
       1.969
       0.550
      -1.081
      -2.500
      -3.607
      -4.376
      -4.604
      -4.000
      -2.529
      -0.555
       1.407
       3.065
       4.415
       5.444
       5.860
       5.194
       3.210
       0.241
      -2.857
      -5.113
      -5.929
      -5.292
      -3.642
      -1.522
       0.683
       2.738
       4.383
       5.216
       4.797
       2.932
      -0.087
      -3.485
      -6.280
      -7.685
      -7.378
      -5.550
      -2.784
       0.120
       2.342
       3.303
       2.940
       1.776
       0.638
       0.125
       0.204
       0.274
      -0.334
      -1.792
      -3.598
      -4.894
      -4.973
      -3.632
      -1.211
       1.542
       3.698
       4.454
       3.496
       1.217
      -1.439
      -3.475
      -4.322
      -3.956
      -2.667
      -0.824
       1.119
       2.526
       2.687
       1.193
      -1.723
      -5.161
      -7.923
      -9.011
      -7.990
      -5.077
      -1.013
       3.155
       6.351
       7.777
       7.154
       4.737
       1.138
      -2.855
      -6.335
      -8.337
      -8.119
      -5.583
      -1.481
       2.878
       6.261
       7.991
       7.984
       6.454
       3.682
       0.091
      -3.585
      -6.382
      -7.515
      -6.782
      -4.559
      -1.438
       2.094
       5.641
       8.694
      10.606
      10.879
       9.507
       7.020
       4.137
       1.342
      -1.232
      -3.482
      -4.988
      -5.155
      -3.815
      -1.638
       0.193
       0.835
       0.359
      -0.477
      -0.975
      -1.049
      -1.122
      -1.535
      -2.109
      -2.231
      -1.350
       0.581
       3.063
       5.371
       6.934
       7.502
       7.018
       5.404
       2.567
      -1.330
      -5.593
      -9.039
     -10.402
      -8.931
      -4.839
       0.653
       5.763
       8.926
       9.483
       7.871
       5.146
       2.228
      -0.536
      -3.159
      -5.486
      -6.927
      -6.734
      -4.554
      -0.785
       3.533
       7.161
       9.106
       8.830
       6.268
       1.866
      -3.371
      -8.033
     -10.833
     -11.253
      -9.745
      -7.288
      -4.682
      -2.233
      -0.022
       1.680
       2.378
       1.764
       0.098
      -1.871
      -3.362
      -3.980
      -3.769
      -2.986
      -1.888
      -0.689
       0.349
       0.887
       0.688
      -0.114
      -0.958
      -1.209
      -0.688
       0.158
       0.671
       0.618
       0.425
       0.752
       1.799
       2.981
       3.256
       1.865
      -1.041
      -4.316
      -6.352
      -5.990
      -3.280
       0.456
       3.400
       4.420
       3.803
       2.934
       3.123
       4.542
       6.149
       6.605
       5.316
       2.801
       0.266
      -1.122
      -0.744
       1.340
       4.517
       7.850
      10.392
      11.578
      11.471
      10.561
       9.251
       7.493
       4.953
       1.509
      -2.402
      -5.895
      -8.080
      -8.465
      -7.122
      -4.637
      -1.926
       0.103
       0.963
       0.815
       0.280
      -0.067
      -0.106
      -0.169
      -0.664
      -1.690
      -2.925
      -3.823
      -3.921
      -3.085
      -1.586
       0.059
       1.445
       2.580
       3.805
       5.364
       6.999
       7.986
       7.624
       5.761
       2.938
       0.071
      -2.010
      -2.856
      -2.477
      -1.343
      -0.297
      -0.248
      -1.724
      -4.552
      -7.951
     -10.923
     -12.663
     -12.748
     -11.102
      -7.943
      -3.816
       0.357
       3.422
       4.379
       2.850
      -0.692
      -5.054
      -8.804
     -10.832
     -10.726
      -8.783
      -5.743
      -2.432
       0.531
       2.859
       4.550
       5.724
       6.457
       6.676
       6.171
       4.762
       2.564
       0.102
      -1.869
      -2.740
      -2.314
      -0.837
       1.152
       3.002
       4.099
       4.001
       2.590
       0.172
      -2.603
      -5.016
      -6.575
      -7.097
      -6.597
      -5.162
      -2.972
      -0.404
       1.948
       3.481
       3.884
       3.255
       1.926
       0.198
      -1.717
      -3.521
      -4.705
      -4.759
      -3.601
      -1.774
      -0.086
       1.045
       1.908
       3.117
       4.873
       6.564
       7.108
       5.715
       2.458
      -1.756
      -5.648
      -8.118
      -8.589
      -7.138
      -4.423
      -1.423
       0.986
       2.439
       3.176
       3.712
       4.375
       5.103
       5.627
       5.772
       5.573
       5.192
       4.836
       4.735
       5.109
       6.006
       7.133
       7.847
       7.422
       5.457
       2.192
      -1.470
      -4.296
      -5.331
      -4.421
      -2.279
       0.017
       1.721
       2.777
       3.571
       4.400
       5.130
       5.307
       4.520
       2.726
       0.364
      -1.773
      -2.879
      -2.543
      -1.011
       0.888
       2.144
       2.133
       1.011
      -0.374
      -1.055
      -0.643
       0.347
       0.776
      -0.351
      -3.112
      -6.467
      -8.873
      -9.284
      -7.789
      -5.438
      -3.479
      -2.617
      -2.760
      -3.264
      -3.402
      -2.753
      -1.392
       0.145
       1.160
       1.277
       0.760
       0.362
       0.776
       2.167
       4.189
       6.374
       8.431
      10.151
      11.156
      10.925
       9.192
       6.322
       3.216
       0.765
      -0.702
      -1.490
      -2.153
      -3.026
      -4.071
      -5.048
      -5.758
      -6.100
      -5.998
      -5.403
      -4.463
      -3.646
      -3.511
      -4.233
      -5.323
      -5.881
      -5.241
      -3.475
      -1.351
       0.206
       0.780
       0.763
       1.045
       2.270
       4.212
       5.817
       5.971
       4.414
       1.993
       0.042
      -0.561
       0.129
       1.376
       2.378
       2.710
       2.372
       1.591
       0.606
      -0.396
      -1.256
      -1.836
      -2.049
      -1.892
      -1.445
      -0.916
      -0.689
      -1.202
      -2.599
      -4.424
      -5.726
      -5.630
      -3.931
      -1.226
       1.483
       3.332
       3.881
       3.125
       1.440
      -0.457
      -1.683
      -1.602
      -0.295
       1.344
       2.098
       1.241
      -0.949
      -3.401
      -5.025
      -5.392
      -4.806
      -3.816
      -2.716
      -1.441
       0.166
       2.042
       3.816
       4.965
       5.082
       4.095
       2.335
       0.427
      -0.943
      -1.338
      -0.833
      -0.016
       0.340
      -0.219
      -1.511
      -2.860
      -3.590
      -3.495
      -2.918
      -2.387
      -2.166
      -2.096
      -1.841
      -1.235
      -0.391
       0.474
       1.245
       1.954
       2.690
       3.554
       4.665
       6.094
       7.698
       9.007
       9.367
       8.305
       5.864
       2.649
      -0.466
      -2.767
      -4.011
      -4.430
      -4.486
      -4.545
      -4.671
      -4.652
      -4.211
      -3.265
      -2.049
      -1.046
      -0.743
      -1.359
      -2.687
      -4.158
      -5.102
      -5.048
      -3.941
      -2.165
      -0.362
       0.900
       1.423
       1.433
       1.340
       1.410
       1.643
       1.933
       2.275
       2.746
       3.286
       3.554
       3.093
       1.675
      -0.450
      -2.645
      -4.224
      -4.753
      -4.144
      -2.605
      -0.556
       1.461
       2.966
       3.746
       3.908
       3.723
       3.394
       2.938
       2.216
       1.072
      -0.487
      -2.161
      -3.426
      -3.824
      -3.272
      -2.086
      -0.699
       0.653
       1.953
       3.194
       4.233
       4.909
       5.252
       5.475
       5.717
       5.872
       5.748
       5.374
       5.034
       4.924
       4.825
       4.224
       2.843
       0.988
      -0.703
      -1.845
      -2.571
      -3.170
      -3.551
      -3.218
      -1.837
       0.203
       1.863
       2.145
       0.752
      -1.787
      -4.511
      -6.491
      -7.108
      -6.179
      -4.060
      -1.605
       0.194
       0.760
       0.251
      -0.670
      -1.387
      -1.718
      -1.822
      -1.881
      -1.940
      -2.009
      -2.194
      -2.643
      -3.414
      -4.390
      -5.273
      -5.604
      -4.886
      -2.868
       0.188
       3.487
       6.048
       7.202
       6.893
       5.558
       3.736
       1.784
      -0.082
      -1.587
      -2.364
      -2.179
      -1.164
       0.213
       1.409
       2.055
       2.018
       1.337
       0.200
      -1.072
      -2.133
      -2.820
      -3.231
      -3.561
      -3.841
      -3.853
      -3.329
      -2.235
      -0.853
       0.432
       1.456
       2.393
       3.505
       4.772
       5.785
       6.033
       5.317
       3.880
       2.214
       0.754
      -0.306
      -1.021
      -1.600
      -2.255
      -3.047
      -3.811
      -4.199
      -3.866
      -2.722
      -1.099
       0.336
       0.917
       0.382
      -0.937
      -2.273
      -2.873
      -2.409
      -1.124
       0.357
       1.338
       1.360
       0.395
      -1.138
      -2.598
      -3.523
      -3.886
      -3.962
      -3.924
      -3.583
      -2.573
      -0.809
       1.240
       2.739
