Origin Time       06/07/2010 19:08:20
Lat.              29.8 N	
Long.             80.4 E	
Depth (Km)         10.0
Magnitude         5.1
 Region           INDIA-NEPAL                                                      
 Above details taken from IMD 
     
Station Code      MUN
Station Lat.       30.066  N
Station Long.      80.237  E
Station Height(m) 2201.0
Site Class        A   Vs30 between 700 m/sec to 1400 m/sec * 
Record Time       06.07.2010 19:08:15.864
Sampling Rate     200. Hz
 Record Duration   65.440 Sec.
 Direction         E-W (E positive)
Max. Acceleration     -5.427 cm/sec**2
     
  * For reference see Site Classification link of website 
     
 Base Line Corrected and Low Pass Filtered (Cut Off at 35 Hz) Time History
 Acceleration data in cm/sec**2
    
[...]
      -0.003
      -0.002
      -0.002
      -0.003
      -0.004
      -0.004
      -0.001
       0.006
       0.011
       0.012
       0.007
       0.001
      -0.004
      -0.003
       0.002
       0.008
       0.011
       0.011
       0.007
       0.003
      -0.002
      -0.008
      -0.014
      -0.018
      -0.018
      -0.013
      -0.005
       0.001
       0.001
      -0.005
      -0.015
      -0.022
      -0.022
      -0.015
      -0.004
       0.005
       0.008
       0.005
       0.001
       0.000
       0.002
       0.002
       0.003
       0.004
       0.007
       0.010
       0.010
       0.008
       0.003
      -0.001
      -0.004
      -0.004
      -0.002
       0.000
       0.002
       0.005
       0.007
       0.005
      -0.001
      -0.009
      -0.014
      -0.016
      -0.013
      -0.007
      -0.001
       0.001
       0.001
       0.000
       0.001
       0.003
       0.003
       0.003
       0.002
       0.003
       0.007
       0.012
       0.013
       0.010
       0.003
      -0.003
      -0.006
      -0.004
       0.000
       0.004
       0.006
       0.006
       0.005
       0.004
       0.004
       0.006
       0.010
       0.014
       0.015
       0.014
       0.010
       0.007
       0.007
       0.009
       0.012
       0.013
       0.012
       0.010
       0.011
       0.015
       0.018
       0.018
       0.014
       0.008
       0.003
       0.000
      -0.001
       0.001
       0.003
       0.006
       0.007
       0.007
       0.007
       0.007
       0.006
       0.004
       0.000
      -0.006
      -0.009
      -0.009
      -0.006
      -0.004
      -0.004
      -0.005
      -0.006
      -0.004
       0.000
       0.006
       0.012
       0.014
       0.012
       0.006
       0.001
      -0.003
      -0.004
      -0.002
       0.004
       0.012
       0.019
       0.020
       0.016
       0.008
       0.002
       0.001
       0.004
       0.007
       0.009
       0.010
       0.013
       0.016
       0.017
       0.014
       0.009
       0.004
       0.004
       0.008
       0.013
       0.014
       0.010
       0.005
       0.005
       0.010
       0.016
       0.019
       0.016
       0.008
       0.000
      -0.005
      -0.005
       0.000
       0.003
       0.003
      -0.001
      -0.004
      -0.002
       0.003
       0.010
       0.012
       0.010
       0.006
       0.003
       0.002
       0.002
       0.001
       0.002
       0.003
       0.003
       0.001
      -0.004
      -0.006
      -0.004
       0.000
       0.004
       0.003
      -0.002
      -0.006
      -0.006
       0.000
       0.010
       0.018
       0.019
       0.013
       0.003
      -0.006
      -0.011
      -0.011
      -0.007
       0.000
       0.004
       0.003
      -0.003
      -0.008
      -0.008
       0.001
       0.011
       0.016
       0.013
       0.005
       0.001
       0.002
       0.007
       0.011
       0.011
       0.009
       0.007
       0.005
       0.004
       0.004
       0.006
       0.007
       0.008
       0.007
       0.006
       0.004
       0.004
       0.008
       0.018
       0.030
       0.039
       0.040
       0.032
       0.021
       0.011
       0.003
      -0.004
      -0.012
      -0.019
      -0.020
      -0.006
       0.023
       0.059
       0.085
       0.088
       0.068
       0.041
       0.017
      -0.003
      -0.027
      -0.059
      -0.086
      -0.085
      -0.042
       0.033
       0.107
       0.145
       0.132
       0.077
       0.008
      -0.055
      -0.110
      -0.159
      -0.190
      -0.178
      -0.099
       0.044
       0.208
       0.333
       0.377
       0.338
       0.237
       0.090
      -0.106
      -0.346
      -0.577
      -0.702
      -0.632
      -0.349
       0.063
       0.469
       0.756
       0.873
       0.823
       0.625
       0.295
      -0.130
      -0.577
      -0.937
      -1.101
      -1.013
      -0.695
      -0.225
       0.295
       0.777
       1.143
       1.319
       1.229
       0.842
       0.219
      -0.482
      -1.058
      -1.357
      -1.329
      -1.013
      -0.494
       0.124
       0.712
       1.122
       1.236
       1.027
       0.574
       0.012
      -0.529
      -0.948
      -1.160
      -1.093
      -0.735
      -0.163
       0.466
       0.983
       1.273
       1.285
       1.024
       0.532
      -0.107
      -0.772
      -1.328
      -1.649
      -1.635
      -1.236
      -0.497
       0.401
       1.166
       1.538
       1.447
       1.048
       0.576
       0.159
      -0.228
      -0.644
      -1.041
      -1.260
      -1.155
      -0.713
      -0.068
       0.571
       1.010
       1.137
       0.952
       0.571
       0.162
      -0.154
      -0.361
      -0.514
      -0.641
      -0.694
      -0.610
      -0.396
      -0.137
       0.091
       0.291
       0.513
       0.761
       0.942
       0.913
       0.595
       0.044
      -0.548
      -0.951
      -1.026
      -0.813
      -0.474
      -0.147
       0.165
       0.539
       0.955
       1.214
       1.060
       0.435
      -0.409
      -1.072
      -1.296
      -1.127
      -0.786
      -0.419
       0.029
       0.687
       1.520
       2.214
       2.335
       1.639
       0.296
      -1.174
      -2.209
      -2.515
      -2.169
      -1.457
      -0.645
       0.139
       0.846
       1.387
       1.609
       1.412
       0.872
       0.226
      -0.272
      -0.520
      -0.607
      -0.696
      -0.849
      -0.939
      -0.749
      -0.186
       0.567
       1.125
       1.169
       0.697
       0.027
      -0.442
      -0.515
      -0.288
      -0.010
       0.135
       0.123
       0.034
      -0.070
      -0.198
      -0.392
      -0.634
      -0.808
      -0.751
      -0.366
       0.289
       0.996
       1.479
       1.539
       1.163
       0.501
      -0.253
      -0.976
      -1.606
      -2.034
      -2.052
      -1.494
      -0.425
       0.811
       1.765
       2.143
       1.925
       1.304
       0.513
      -0.275
      -0.941
      -1.349
      -1.355
      -0.910
      -0.140
       0.694
       1.332
       1.627
       1.549
       1.126
       0.399
      -0.549
      -1.529
      -2.251
      -2.431
      -1.966
      -1.015
       0.084
       1.004
       1.560
       1.727
       1.564
       1.151
       0.574
      -0.051
      -0.574
      -0.865
      -0.890
      -0.730
      -0.512
      -0.316
      -0.144
       0.034
       0.223
       0.394
       0.511
       0.562
       0.551
       0.455
       0.202
      -0.261
      -0.879
      -1.456
      -1.748
      -1.597
      -1.012
      -0.135
       0.841
       1.735
       2.396
       2.691
       2.503
       1.768
       0.544
      -0.936
      -2.305
      -3.204
      -3.432
      -2.989
      -2.020
      -0.709
       0.741
       2.067
       2.936
       3.040
       2.280
       0.889
      -0.635
      -1.767
      -2.222
      -2.038
      -1.448
      -0.670
       0.192
       1.075
       1.831
       2.226
       2.076
       1.409
       0.466
      -0.460
      -1.197
      -1.720
      -2.040
      -2.106
      -1.822
      -1.162
      -0.239
       0.707
       1.391
       1.604
       1.318
       0.726
       0.138
      -0.223
      -0.365
      -0.463
      -0.633
      -0.775
      -0.663
      -0.185
       0.517
       1.136
       1.411
       1.277
       0.851
       0.316
      -0.181
      -0.563
      -0.803
      -0.910
      -0.922
      -0.874
      -0.756
      -0.532
      -0.208
       0.127
       0.357
       0.435
       0.426
       0.431
       0.475
       0.466
       0.287
      -0.066
      -0.426
      -0.565
      -0.365
       0.086
       0.556
       0.814
       0.753
       0.425
      -0.004
      -0.348
      -0.492
      -0.459
      -0.391
      -0.457
      -0.718
      -1.061
      -1.260
      -1.111
      -0.559
       0.274
       1.147
       1.807
       2.080
       1.924
       1.417
       0.698
      -0.106
      -0.921
      -1.696
      -2.343
      -2.685
      -2.507
      -1.706
      -0.424
       0.957
       1.993
       2.404
       2.197
       1.584
       0.797
      -0.035
      -0.848
      -1.523
      -1.861
      -1.702
      -1.070
      -0.190
       0.638
       1.170
       1.295
       1.025
       0.501
      -0.032
      -0.316
      -0.233
       0.113
       0.478
       0.673
       0.681
       0.602
       0.513
       0.378
       0.083
      -0.436
      -1.096
      -1.683
      -1.945
      -1.724
      -1.017
       0.010
       1.082
       1.911
       2.299
       2.210
       1.743
       1.064
       0.337
      -0.302
      -0.754
      -0.970
      -0.980
      -0.875
      -0.748
      -0.622
      -0.440
      -0.141
       0.241
       0.565
       0.673
       0.521
       0.215
      -0.079
      -0.246
      -0.266
      -0.178
      -0.048
       0.042
       0.016
      -0.145
      -0.361
      -0.492
      -0.436
      -0.213
       0.057
       0.252
       0.337
       0.354
       0.343
       0.286
       0.144
      -0.072
      -0.283
      -0.405
      -0.420
      -0.386
      -0.372
      -0.388
      -0.373
      -0.250
       0.000
       0.310
       0.561
       0.666
       0.636
       0.567
       0.551
       0.584
       0.570
       0.396
       0.042
      -0.383
      -0.697
      -0.739
      -0.447
       0.125
       0.817
       1.393
       1.610
       1.331
       0.627
      -0.237
      -0.943
      -1.293
      -1.275
      -0.989
      -0.529
       0.039
       0.634
       1.115
       1.337
       1.229
       0.833
       0.273
      -0.316
      -0.827
      -1.182
      -1.317
      -1.195
      -0.828
      -0.295
       0.275
       0.742
       1.001
       1.016
       0.811
       0.453
       0.027
      -0.374
      -0.671
      -0.805
      -0.733
      -0.437
       0.054
       0.624
       1.081
       1.229
       0.977
       0.398
      -0.319
      -0.959
      -1.356
      -1.412
      -1.106
      -0.520
       0.153
       0.685
       0.941
       0.934
       0.766
       0.513
       0.193
      -0.178
      -0.509
      -0.651
      -0.497
      -0.074
       0.463
       0.905
       1.092
       0.987
       0.679
       0.323
       0.024
      -0.224
      -0.494
      -0.818
      -1.103
      -1.177
      -0.922
      -0.389
       0.201
       0.577
       0.596
       0.331
       0.021
      -0.102
       0.038
       0.338
       0.615
       0.750
       0.746
       0.679
       0.580
       0.405
       0.095
      -0.326
      -0.742
      -1.040
      -1.187
      -1.212
      -1.123
      -0.888
      -0.498
      -0.019
       0.426
       0.746
       0.942
       1.056
       1.097
       1.011
       0.740
       0.298
      -0.206
      -0.624
      -0.853
      -0.863
      -0.677
      -0.356
       0.009
       0.306
       0.462
       0.472
       0.386
       0.250
       0.073
      -0.141
      -0.336
      -0.417
      -0.334
      -0.145
       0.026
       0.104
       0.142
       0.250
       0.470
       0.715
       0.838
       0.749
       0.475
       0.135
      -0.128
      -0.231
      -0.189
      -0.094
      -0.049
      -0.116
      -0.287
      -0.509
      -0.708
      -0.823
      -0.811
      -0.666
      -0.419
      -0.136
       0.116
       0.301
       0.426
       0.511
       0.551
       0.492
       0.248
      -0.219
      -0.814
      -1.304
      -1.432
      -1.094
      -0.438
       0.223
       0.620
       0.694
       0.581
       0.463
       0.417
       0.383
       0.246
      -0.058
      -0.475
      -0.842
      -0.979
      -0.799
      -0.387
       0.050
       0.312
       0.333
       0.193
       0.042
      -0.022
      -0.016
      -0.033
      -0.148
      -0.330
      -0.431
      -0.270
       0.242
       1.001
       1.717
       2.063
       1.884
       1.312
       0.687
       0.326
       0.311
       0.461
       0.506
       0.316
       0.000
      -0.211
      -0.183
       0.000
       0.109
      -0.045
      -0.486
      -1.081
      -1.616
      -1.892
      -1.807
      -1.399
      -0.848
      -0.378
      -0.126
      -0.057
       0.002
       0.233
       0.689
       1.260
       1.732
       1.899
       1.668
       1.100
       0.389
      -0.224
      -0.574
      -0.656
      -0.604
      -0.571
      -0.604
      -0.620
      -0.493
      -0.186
       0.201
       0.482
       0.505
       0.242
      -0.199
      -0.642
      -0.939
      -1.013
      -0.845
      -0.440
       0.181
       0.944
       1.694
       2.226
       2.363
       2.037
       1.314
       0.360
      -0.640
      -1.560
      -2.335
      -2.901
      -3.132
      -2.863
      -2.004
      -0.656
       0.860
       2.106
       2.731
       2.628
       1.962
       1.040
       0.124
      -0.667
      -1.315
      -1.783
      -1.957
      -1.708
      -1.041
      -0.188
       0.476
       0.630
       0.207
      -0.563
      -1.293
      -1.647
      -1.487
      -0.869
       0.059
       1.134
       2.184
       2.987
       3.307
       2.999
       2.108
       0.851
      -0.481
      -1.636
      -2.450
      -2.840
      -2.764
      -2.207
      -1.189
       0.178
       1.661
       2.927
       3.638
       3.570
       2.706
       1.248
      -0.484
      -2.198
      -3.705
      -4.856
      -5.427
      -5.133
      -3.834
      -1.739
       0.589
       2.484
       3.509
       3.625
       3.115
       2.357
       1.613
       0.957
       0.344
      -0.253
      -0.768
      -1.083
      -1.132
      -0.984
      -0.831
      -0.866
      -1.133
      -1.465
      -1.574
      -1.256
      -0.537
       0.370
       1.228
       1.917
       2.435
       2.804
       2.993
       2.933
       2.578
       1.951
       1.119
       0.158
      -0.840
      -1.732
      -2.350
      -2.597
      -2.517
      -2.253
      -1.912
      -1.495
      -0.960
      -0.364
       0.112
       0.287
       0.163
      -0.053
      -0.091
       0.188
       0.722
       1.324
       1.826
       2.153
       2.300
       2.261
       1.988
       1.438
       0.643
      -0.269
      -1.127
      -1.767
      -2.040
      -1.821
      -1.056
       0.154
       1.532
       2.703
       3.340
       3.274
       2.549
       1.399
       0.147
      -0.930
      -1.715
      -2.253
      -2.631
      -2.842
      -2.767
      -2.315
      -1.589
      -0.883
      -0.498
      -0.541
      -0.875
      -1.244
      -1.433
      -1.351
      -1.010
      -0.466
       0.200
       0.877
       1.428
       1.728
       1.707
       1.371
       0.797
       0.149
      -0.332
      -0.432
      -0.102
       0.484
       1.045
       1.386
       1.502
       1.512
       1.494
       1.404
       1.137
       0.657
       0.042
      -0.594
      -1.186
      -1.710
      -2.103
      -2.243
      -2.041
      -1.557
      -0.995
      -0.554
      -0.276
      -0.054
       0.211
       0.485
       0.637
       0.594
       0.439
       0.347
       0.424
       0.613
       0.739
       0.645
       0.279
      -0.297
      -0.963
      -1.573
      -1.968
      -1.998
      -1.606
      -0.900
      -0.140
       0.396
       0.580
       0.498
       0.370
       0.397
       0.642
       1.009
       1.297
       1.304
       0.933
       0.258
      -0.509
      -1.137
      -1.514
      -1.684
      -1.773
      -1.865
      -1.925
      -1.830
      -1.454
      -0.760
       0.158
       1.086
       1.764
       2.008
       1.826
       1.444
       1.190
       1.305
       1.801
       2.458
       2.954
       3.036
       2.629
       1.853
       0.956
       0.189
      -0.305
      -0.532
      -0.603
      -0.631
      -0.653
      -0.632
      -0.530
      -0.365
      -0.205
      -0.106
      -0.070
      -0.066
      -0.082
      -0.156
      -0.358
      -0.719
      -1.170
      -1.541
      -1.632
      -1.322
      -0.641
       0.224
       1.016
       1.533
       1.701
       1.558
       1.175
       0.616
      -0.036
      -0.651
      -1.100
      -1.337
      -1.429
      -1.454
      -1.379
      -1.051
      -0.352
       0.634
       1.612
       2.250
       2.370
       2.020
       1.383
       0.661
       0.008
      -0.479
      -0.759
      -0.832
      -0.720
      -0.449
      -0.066
       0.328
       0.600
       0.644
       0.456
       0.144
      -0.148
      -0.343
      -0.480
      -0.660
      -0.934
      -1.229
      -1.384
      -1.257
      -0.827
      -0.226
       0.334
       0.685
       0.786
       0.717
       0.582
       0.411
       0.162
      -0.188
      -0.561
      -0.793
      -0.753
      -0.451
      -0.029
       0.342
       0.563
       0.622
       0.530
       0.281
      -0.121
      -0.600
      -0.997
      -1.155
      -1.011
      -0.629
      -0.132
       0.374
       0.817
       1.131
       1.243
       1.137
       0.899
       0.682
       0.591
       0.582
       0.504
       0.224
      -0.257
      -0.812
      -1.281
      -1.567
      -1.643
      -1.506
      -1.162
      -0.649
      -0.055
       0.499
       0.903
       1.096
       1.078
       0.897
       0.616
       0.286
      -0.056
      -0.373
      -0.625
      -0.783
      -0.844
      -0.823
      -0.745
      -0.639
      -0.541
      -0.476
      -0.440
      -0.390
      -0.279
      -0.101
       0.071
       0.129
       0.011
      -0.236
      -0.464
      -0.507
      -0.282
       0.168
       0.707
       1.193
       1.552
       1.792
       1.941
       1.973
       1.804
       1.352
       0.625
      -0.256
      -1.104
      -1.760
      -2.153
      -2.309
      -2.319
      -2.282
      -2.237
      -2.127
      -1.820
      -1.207
      -0.301
       0.724
       1.617
       2.180
       2.362
       2.241
       1.935
       1.529
       1.059
       0.547
       0.029
      -0.450
      -0.843
      -1.119
      -1.278
      -1.347
      -1.358
      -1.327
      -1.243
      -1.080
      -0.816
      -0.453
      -0.032
       0.364
       0.631
       0.710
       0.627
       0.477
       0.350
       0.273
       0.210
       0.119
       0.003
      -0.083
      -0.068
       0.087
       0.360
       0.670
       0.924
       1.077
       1.150
       1.183
       1.188
       1.126
       0.949
       0.626
       0.166
      -0.386
      -0.954
      -1.433
      -1.710
      -1.690
      -1.356
      -0.796
      -0.184
       0.316
       0.633
       0.793
       0.860
       0.858
       0.763
       0.545
       0.216
      -0.165
      -0.534
      -0.857
      -1.112
      -1.252
      -1.189
      -0.850
      -0.253
       0.461
       1.075
       1.393
       1.329
       0.941
       0.408
      -0.047
      -0.270
      -0.261
      -0.161
      -0.131
      -0.215
      -0.322
      -0.318
      -0.148
       0.121
       0.351
       0.421
       0.273
      -0.087
      -0.597
      -1.135
      -1.533
      -1.642
      -1.423
      -0.965
      -0.412
       0.139
       0.655
       1.117
       1.473
       1.653
       1.633
