Origin Time       06/07/2010 19:08:20 UTC
Lat.              29.8 N	
Long.             80.4 E	
Depth (Km)         10.0
Magnitude         5.1
 Region           INDIA-NEPAL                                                      
 Above details taken from IMD 
    
Station Code      MUN
Station Lat.       30.066  N
Station Long.      80.237  E
Station Height(m) 2201.0
Site Class        A   Vs30 between 700 m/sec to 1400 m/sec * 
Record Time       06.07.2010 19:08:15.864 UTC
Sampling Rate     200. Hz
 Record Duration   65.440 Sec.
 Direction         N-S (N positive)
Max. Acceleration     -6.787 cm/sec**2
     
  * For reference see Site Classification link of website 
     
 Base Line Corrected and Low Pass Filtered (Cut Off at 35 Hz) Time History
 Acceleration data in cm/sec**2
    
[...]
       0.004
       0.001
      -0.003
      -0.005
      -0.004
      -0.003
      -0.002
      -0.002
      -0.005
      -0.006
      -0.006
      -0.004
      -0.002
      -0.001
      -0.001
       0.000
       0.000
      -0.001
      -0.004
      -0.007
      -0.006
      -0.001
       0.002
       0.001
      -0.004
      -0.009
      -0.009
      -0.005
       0.001
       0.006
       0.010
       0.012
       0.012
       0.009
       0.006
       0.005
       0.005
       0.006
       0.006
       0.004
       0.002
       0.000
       0.000
       0.000
       0.001
       0.000
      -0.001
       0.000
       0.004
       0.009
       0.012
       0.008
       0.001
      -0.005
      -0.004
       0.004
       0.013
       0.017
       0.012
       0.003
      -0.005
      -0.008
      -0.007
      -0.003
       0.000
       0.003
       0.004
       0.005
       0.005
       0.004
       0.002
      -0.001
      -0.002
      -0.003
      -0.003
      -0.003
      -0.003
      -0.003
      -0.002
      -0.002
      -0.003
      -0.004
      -0.004
      -0.003
       0.000
       0.002
       0.002
      -0.001
      -0.005
      -0.005
      -0.003
      -0.003
      -0.005
      -0.009
      -0.009
      -0.005
       0.002
       0.007
       0.006
      -0.001
      -0.010
      -0.014
      -0.010
       0.001
       0.012
       0.016
       0.011
       0.002
      -0.003
      -0.002
       0.003
       0.008
       0.010
       0.008
       0.006
       0.005
       0.008
       0.012
       0.014
       0.012
       0.007
       0.002
       0.000
      -0.001
      -0.001
      -0.003
      -0.006
      -0.005
      -0.003
      -0.001
      -0.001
      -0.004
      -0.006
      -0.005
      -0.001
       0.002
       0.002
      -0.001
      -0.003
      -0.002
       0.002
       0.004
       0.002
      -0.002
      -0.005
      -0.005
      -0.003
      -0.002
      -0.003
      -0.003
      -0.001
       0.003
       0.005
       0.002
      -0.004
      -0.010
      -0.012
      -0.011
      -0.009
      -0.010
      -0.013
      -0.013
      -0.010
      -0.004
       0.002
       0.004
       0.002
      -0.001
      -0.004
      -0.005
      -0.005
      -0.005
      -0.009
      -0.015
      -0.021
      -0.024
      -0.022
      -0.016
      -0.009
      -0.005
      -0.003
      -0.003
      -0.005
      -0.011
      -0.020
      -0.032
      -0.038
      -0.034
      -0.017
       0.003
       0.018
       0.022
       0.020
       0.018
       0.014
       0.004
      -0.017
      -0.044
      -0.066
      -0.072
      -0.057
      -0.028
       0.005
       0.030
       0.044
       0.050
       0.047
       0.031
      -0.007
      -0.062
      -0.117
      -0.138
      -0.103
      -0.020
       0.077
       0.157
       0.206
       0.224
       0.206
       0.132
      -0.009
      -0.192
      -0.349
      -0.412
      -0.357
      -0.215
      -0.042
       0.122
       0.269
       0.396
       0.478
       0.465
       0.316
       0.042
      -0.286
      -0.570
      -0.736
      -0.751
      -0.615
      -0.330
       0.096
       0.603
       1.050
       1.254
       1.091
       0.587
      -0.084
      -0.702
      -1.102
      -1.217
      -1.051
      -0.651
      -0.105
       0.451
       0.868
       1.037
       0.928
       0.591
       0.120
      -0.366
      -0.749
      -0.942
      -0.915
      -0.696
      -0.342
       0.090
       0.539
       0.921
       1.136
       1.114
       0.848
       0.396
      -0.172
      -0.783
      -1.330
      -1.639
      -1.534
      -0.971
      -0.118
       0.727
       1.324
       1.595
       1.560
       1.227
       0.598
      -0.232
      -1.022
      -1.501
      -1.540
      -1.203
      -0.631
       0.066
       0.797
       1.387
       1.583
       1.222
       0.404
      -0.520
      -1.168
      -1.346
      -1.090
      -0.577
      -0.023
       0.378
       0.504
       0.359
       0.078
      -0.160
      -0.227
      -0.093
       0.188
       0.500
       0.702
       0.696
       0.480
       0.141
      -0.225
      -0.581
      -0.908
      -1.103
      -0.976
      -0.411
       0.438
       1.165
       1.389
       1.037
       0.364
      -0.307
      -0.820
      -1.186
      -1.404
      -1.354
      -0.892
      -0.031
       1.005
       1.869
       2.241
       1.956
       1.068
      -0.151
      -1.317
      -2.086
      -2.285
      -1.924
      -1.138
      -0.144
       0.797
       1.439
       1.652
       1.493
       1.156
       0.825
       0.536
       0.193
      -0.305
      -0.917
      -1.445
      -1.621
      -1.267
      -0.420
       0.640
       1.495
       1.791
       1.431
       0.605
      -0.347
      -1.133
      -1.586
      -1.614
      -1.165
      -0.285
       0.786
       1.652
       1.935
       1.478
       0.438
      -0.772
      -1.653
      -1.844
      -1.315
      -0.377
       0.530
       1.125
       1.391
       1.422
       1.211
       0.650
      -0.245
      -1.169
      -1.670
      -1.500
      -0.826
      -0.077
       0.427
       0.696
       0.930
       1.205
       1.315
       0.950
       0.028
      -1.159
      -2.086
      -2.305
      -1.685
      -0.457
       0.927
       2.027
       2.579
       2.498
       1.798
       0.556
      -1.032
      -2.581
      -3.599
      -3.688
      -2.757
      -1.079
       0.831
       2.429
       3.309
       3.297
       2.474
       1.148
      -0.236
      -1.266
      -1.717
      -1.589
      -1.025
      -0.232
       0.551
       1.074
       1.158
       0.793
       0.161
      -0.463
      -0.870
      -0.990
      -0.868
      -0.595
      -0.284
      -0.062
      -0.017
      -0.121
      -0.232
      -0.207
      -0.029
       0.222
       0.495
       0.837
       1.282
       1.705
       1.822
       1.382
       0.380
      -0.882
      -1.966
      -2.544
      -2.520
      -1.965
      -1.003
       0.217
       1.444
       2.315
       2.507
       1.955
       0.903
      -0.267
      -1.253
      -1.904
      -2.149
      -1.924
      -1.210
      -0.127
       1.038
       1.942
       2.362
       2.294
       1.891
       1.294
       0.529
      -0.423
      -1.456
      -2.281
      -2.561
      -2.127
      -1.100
       0.174
       1.282
       1.891
       1.850
       1.240
       0.331
      -0.552
      -1.187
      -1.517
      -1.557
      -1.292
      -0.696
       0.137
       0.948
       1.440
       1.503
       1.279
       1.028
       0.891
       0.810
       0.623
       0.237
      -0.307
      -0.873
      -1.299
      -1.457
      -1.309
      -0.937
      -0.490
      -0.079
       0.269
       0.565
       0.766
       0.775
       0.537
       0.128
      -0.257
      -0.427
      -0.315
       0.011
       0.419
       0.787
       1.012
       1.013
       0.753
       0.272
      -0.329
      -0.920
      -1.360
      -1.520
      -1.340
      -0.884
      -0.350
       0.034
       0.146
       0.050
      -0.049
       0.053
       0.434
       1.001
       1.543
       1.856
       1.834
       1.500
       0.945
       0.240
      -0.591
      -1.507
      -2.354
      -2.849
      -2.706
      -1.831
      -0.434
       1.061
       2.211
       2.723
       2.491
       1.582
       0.240
      -1.133
      -2.096
      -2.362
      -1.930
      -1.035
       0.017
       0.989
       1.731
       2.115
       2.036
       1.484
       0.618
      -0.278
      -0.935
      -1.205
      -1.081
      -0.641
      -0.009
       0.656
       1.180
       1.409
       1.241
       0.645
      -0.322
      -1.487
      -2.548
      -3.144
      -3.017
      -2.153
      -0.783
       0.722
       1.984
       2.704
       2.732
       2.127
       1.159
       0.196
      -0.479
      -0.794
      -0.864
      -0.845
      -0.780
      -0.591
      -0.210
       0.277
       0.632
       0.634
       0.256
      -0.313
      -0.803
      -1.025
      -0.928
      -0.557
      -0.004
       0.611
       1.132
       1.389
       1.247
       0.684
      -0.164
      -1.036
      -1.648
      -1.804
      -1.458
      -0.721
       0.168
       0.907
       1.250
       1.124
       0.677
       0.191
      -0.091
      -0.103
       0.045
       0.195
       0.260
       0.248
       0.190
       0.075
      -0.132
      -0.420
      -0.683
      -0.760
      -0.548
      -0.095
       0.402
       0.722
       0.758
       0.542
       0.180
      -0.230
      -0.589
      -0.762
      -0.633
      -0.225
       0.236
       0.458
       0.287
      -0.195
      -0.770
      -1.244
      -1.513
      -1.514
      -1.177
      -0.482
       0.443
       1.328
       1.899
       2.031
       1.785
       1.306
       0.706
       0.044
      -0.608
      -1.133
      -1.409
      -1.393
      -1.148
      -0.792
      -0.426
      -0.101
       0.158
       0.326
       0.369
       0.277
       0.079
      -0.159
      -0.359
      -0.448
      -0.369
      -0.101
       0.324
       0.811
       1.205
       1.345
       1.133
       0.607
      -0.075
      -0.706
      -1.121
      -1.243
      -1.078
      -0.688
      -0.175
       0.333
       0.710
       0.875
       0.811
       0.554
       0.172
      -0.243
      -0.606
      -0.850
      -0.913
      -0.729
      -0.269
       0.389
       1.023
       1.369
       1.291
       0.875
       0.344
      -0.131
      -0.534
      -0.917
      -1.254
      -1.411
      -1.272
      -0.876
      -0.421
      -0.109
      -0.018
      -0.073
      -0.147
      -0.165
      -0.124
      -0.033
       0.149
       0.490
       0.977
       1.437
       1.621
       1.400
       0.888
       0.358
       0.010
      -0.165
      -0.332
      -0.616
      -0.961
      -1.169
      -1.069
      -0.672
      -0.160
       0.254
       0.468
       0.506
       0.446
       0.357
       0.279
       0.222
       0.170
       0.105
       0.053
       0.078
       0.213
       0.381
       0.438
       0.301
       0.039
      -0.174
      -0.210
      -0.084
       0.079
       0.176
       0.189
       0.149
       0.059
      -0.105
      -0.316
      -0.466
      -0.456
      -0.295
      -0.105
      -0.019
      -0.093
      -0.307
      -0.605
      -0.912
      -1.114
      -1.084
      -0.765
      -0.246
       0.276
       0.624
       0.752
       0.730
       0.643
       0.520
       0.351
       0.146
      -0.053
      -0.202
      -0.300
      -0.380
      -0.460
      -0.495
      -0.404
      -0.171
       0.069
       0.094
      -0.216
      -0.725
      -1.107
      -1.100
      -0.702
      -0.139
       0.350
       0.677
       0.886
       1.015
       1.027
       0.854
       0.495
       0.060
      -0.287
      -0.426
      -0.360
      -0.203
      -0.087
      -0.070
      -0.102
      -0.106
      -0.070
      -0.061
      -0.131
      -0.241
      -0.286
      -0.204
      -0.049
       0.072
       0.096
       0.057
       0.029
       0.053
       0.100
       0.104
       0.021
      -0.128
      -0.265
      -0.318
      -0.277
      -0.189
      -0.103
      -0.028
       0.073
       0.259
       0.557
       0.913
       1.159
       1.079
       0.547
      -0.360
      -1.363
      -2.115
      -2.359
      -2.038
      -1.299
      -0.431
       0.262
       0.599
       0.613
       0.519
       0.560
       0.819
       1.167
       1.378
       1.330
       1.107
       0.900
       0.823
       0.817
       0.728
       0.469
       0.101
      -0.204
      -0.299
      -0.156
       0.111
       0.324
       0.341
       0.125
      -0.246
      -0.630
      -0.891
      -0.946
      -0.765
      -0.345
       0.299
       1.109
       1.957
       2.688
       3.175
       3.355
       3.185
       2.606
       1.590
       0.235
      -1.212
      -2.459
      -3.314
      -3.729
      -3.723
      -3.319
      -2.553
      -1.551
      -0.540
       0.222
       0.557
       0.443
       0.017
      -0.472
      -0.730
      -0.522
       0.214
       1.303
       2.388
       3.085
       3.145
       2.519
       1.335
      -0.163
      -1.670
      -2.867
      -3.505
      -3.460
      -2.757
      -1.557
      -0.111
       1.300
       2.440
       3.180
       3.490
       3.357
       2.735
       1.580
      -0.046
      -1.878
      -3.474
      -4.357
      -4.210
      -3.038
      -1.215
       0.643
       1.953
       2.443
       2.227
       1.626
       0.903
       0.159
      -0.550
      -1.039
      -1.005
      -0.236
       1.137
       2.576
       3.347
       2.899
       1.178
      -1.315
      -3.749
      -5.341
      -5.677
      -4.822
      -3.182
      -1.236
       0.653
       2.252
       3.355
       3.771
       3.471
       2.708
       1.915
       1.419
       1.224
       1.095
       0.808
       0.334
      -0.192
      -0.631
      -0.956
      -1.257
      -1.617
      -1.983
      -2.158
      -1.967
      -1.454
      -0.893
      -0.554
      -0.473
      -0.460
      -0.324
      -0.062
       0.178
       0.301
       0.379
       0.577
       0.971
       1.461
       1.857
       2.036
       2.041
       2.028
       2.152
       2.459
       2.863
       3.206
       3.334
       3.171
       2.739
       2.107
       1.293
       0.234
      -1.131
      -2.731
      -4.327
      -5.635
      -6.471
      -6.787
      -6.602
      -5.931
      -4.823
      -3.432
      -2.000
      -0.734
       0.320
       1.276
       2.258
       3.242
       4.060
       4.561
       4.774
       4.875
       4.972
       4.942
       4.502
       3.478
       1.988
       0.364
      -1.085
      -2.230
      -3.064
      -3.564
      -3.658
      -3.333
      -2.744
      -2.184
      -1.922
      -2.026
      -2.315
      -2.476
      -2.297
      -1.823
      -1.305
      -0.981
      -0.876
      -0.801
      -0.532
       0.032
       0.842
       1.788
       2.783
       3.757
       4.599
       5.132
       5.196
       4.781
       4.057
       3.249
       2.470
       1.660
       0.696
      -0.444
      -1.633
      -2.679
      -3.451
      -3.914
      -4.057
      -3.834
      -3.182
      -2.094
      -0.684
       0.816
       2.106
       2.900
       2.990
       2.312
       0.974
      -0.741
      -2.450
      -3.787
      -4.530
      -4.650
      -4.274
      -3.588
      -2.766
      -1.931
      -1.151
      -0.423
       0.342
       1.292
       2.535
       4.005
       5.415
       6.356
       6.505
       5.788
       4.409
       2.736
       1.124
      -0.218
      -1.259
      -2.091
      -2.831
      -3.535
      -4.173
      -4.644
      -4.828
      -4.608
      -3.937
      -2.899
      -1.747
      -0.812
      -0.335
      -0.326
      -0.591
      -0.876
      -1.035
      -1.052
      -0.947
      -0.671
      -0.134
       0.677
       1.614
       2.432
       2.953
       3.175
       3.242
       3.322
       3.503
       3.776
       4.070
       4.273
       4.231
       3.783
       2.832
       1.428
      -0.230
      -1.852
      -3.156
      -3.924
      -4.055
      -3.597
      -2.767
      -1.895
      -1.302
      -1.148
      -1.355
      -1.654
      -1.744
      -1.490
      -1.017
      -0.626
      -0.558
      -0.781
      -0.976
      -0.757
       0.048
       1.276
       2.568
       3.605
       4.225
       4.366
       3.989
       3.114
       1.935
       0.812
       0.089
      -0.137
      -0.065
      -0.011
      -0.166
      -0.525
      -1.006
      -1.584
      -2.291
      -3.102
      -3.863
      -4.364
      -4.488
      -4.284
      -3.912
      -3.512
      -3.108
      -2.584
      -1.774
      -0.594
       0.859
       2.335
       3.545
       4.297
       4.547
       4.363
       3.874
       3.243
       2.673
       2.361
       2.397
       2.662
       2.857
       2.695
       2.115
       1.328
       0.647
       0.249
       0.086
      -0.020
      -0.210
      -0.501
      -0.822
      -1.089
      -1.259
      -1.333
      -1.336
      -1.287
      -1.187
      -1.049
      -0.933
      -0.965
      -1.267
      -1.842
      -2.528
      -3.070
      -3.278
      -3.128
      -2.723
      -2.152
      -1.398
      -0.390
       0.833
       2.035
       2.889
       3.220
       3.140
       2.911
       2.674
       2.310
       1.613
       0.587
      -0.457
      -1.122
      -1.259
      -1.072
      -0.914
      -1.002
      -1.302
      -1.644
      -1.883
      -1.944
      -1.777
      -1.310
      -0.520
       0.449
       1.273
       1.610
       1.328
       0.605
      -0.175
      -0.663
      -0.709
      -0.378
       0.158
       0.733
       1.243
       1.637
       1.884
       1.976
       1.952
       1.904
       1.928
       2.039
       2.158
       2.180
       2.079
       1.909
       1.709
       1.405
       0.859
       0.019
      -0.972
      -1.844
      -2.387
      -2.579
      -2.550
      -2.455
      -2.385
      -2.357
      -2.345
      -2.308
      -2.190
      -1.946
      -1.566
      -1.091
      -0.603
      -0.192
       0.078
       0.203
       0.243
       0.285
       0.385
       0.530
       0.664
       0.743
       0.766
       0.773
       0.810
       0.902
       1.044
       1.212
       1.369
       1.455
       1.407
       1.198
       0.872
       0.520
       0.209
      -0.044
      -0.244
      -0.367
      -0.361
      -0.196
       0.094
       0.414
       0.660
       0.744
       0.611
       0.260
      -0.254
      -0.842
      -1.437
      -2.007
      -2.503
      -2.804
      -2.753
      -2.258
      -1.374
      -0.303
       0.688
       1.375
       1.653
       1.569
       1.289
       1.019
       0.913
       1.003
       1.182
       1.259
       1.073
       0.601
      -0.034
      -0.656
      -1.144
      -1.475
      -1.680
      -1.769
      -1.723
      -1.534
      -1.257
      -1.011
      -0.908
      -0.991
      -1.203
      -1.417
      -1.507
      -1.404
      -1.129
      -0.761
      -0.376
       0.008
       0.427
       0.893
       1.321
       1.546
       1.442
       1.035
       0.513
       0.124
       0.050
       0.320
       0.805
       1.270
       1.486
       1.347
       0.931
       0.441
       0.056
      -0.199
      -0.428
      -0.716
      -1.011
      -1.174
      -1.136
      -0.989
      -0.893
      -0.911
      -0.946
      -0.846
      -0.558
      -0.170
       0.177
       0.414
       0.570
       0.703
       0.819
       0.869
       0.810
       0.676
       0.545
       0.468
       0.413
       0.291
       0.035
      -0.345
      -0.763
      -1.097
      -1.236
      -1.119
      -0.755
      -0.222
       0.351
       0.839
       1.166
       1.333
       1.392
       1.395
       1.342
       1.170
       0.801
       0.213
      -0.524
      -1.268
      -1.859
      -2.172
      -2.146
      -1.806
      -1.256
      -0.644
      -0.093
       0.329
       0.608
       0.747
       0.741
       0.593
       0.340
       0.080
      -0.063
      -0.004
       0.228
       0.506
       0.693
       0.733
       0.678
