Origin Time       14/03/2010 6:53:21	
Lat.              31.7 N	
Long.             76.1 E	
Depth (Km)         29.0
Magnitude         4.6
 Region           HIMACHAL-PUNJAB-(HOSHIARPUR)-BORDER                              
 Above details taken from IMD 
     
Station Code      BHA
Station Lat.       31.552  N
Station Long.      77.923  E
Station Height(m) 1566.0
Site Class        A   Vs30 between 700 m/sec to 1400 m/sec * 
Record Time       14.03.2010 06:53:43.649
Sampling Rate     200. Hz
 Record Duration   80.450 Sec.
 Direction         E-W (E positive)
Max. Acceleration     -4.234 cm/sec**2
     
  * For reference see Site Classification link of website 
     
 Base Line Corrected and Low Pass Filtered (Cut Off at 35 Hz) Time History
 Acceleration data in cm/sec**2
    
[...]
       0.050
       0.008
      -0.062
      -0.146
      -0.221
      -0.265
      -0.269
      -0.238
      -0.187
      -0.126
      -0.065
      -0.006
       0.048
       0.096
       0.140
       0.189
       0.246
       0.303
       0.346
       0.365
       0.364
       0.349
       0.321
       0.274
       0.201
       0.106
       0.008
      -0.070
      -0.111
      -0.120
      -0.116
      -0.125
      -0.161
      -0.221
      -0.289
      -0.341
      -0.363
      -0.347
      -0.301
      -0.236
      -0.165
      -0.099
      -0.044
       0.002
       0.036
       0.055
       0.055
       0.040
       0.022
       0.019
       0.046
       0.102
       0.175
       0.244
       0.292
       0.312
       0.309
       0.287
       0.249
       0.201
       0.154
       0.117
       0.091
       0.074
       0.057
       0.030
      -0.012
      -0.068
      -0.130
      -0.188
      -0.234
      -0.264
      -0.275
      -0.268
      -0.246
      -0.215
      -0.186
      -0.170
      -0.175
      -0.199
      -0.228
      -0.239
      -0.211
      -0.139
      -0.035
       0.074
       0.167
       0.235
       0.274
       0.287
       0.276
       0.253
       0.234
       0.228
       0.230
       0.233
       0.230
       0.222
       0.209
       0.184
       0.140
       0.074
      -0.004
      -0.077
      -0.126
      -0.151
      -0.169
      -0.207
      -0.278
      -0.369
      -0.448
      -0.479
      -0.447
      -0.366
      -0.263
      -0.159
      -0.062
       0.028
       0.108
       0.169
       0.209
       0.236
       0.262
       0.294
       0.325
       0.340
       0.326
       0.282
       0.212
       0.128
       0.038
      -0.046
      -0.114
      -0.155
      -0.164
      -0.146
      -0.107
      -0.057
       0.001
       0.063
       0.123
       0.164
       0.167
       0.125
       0.045
      -0.048
      -0.130
      -0.194
      -0.245
      -0.295
      -0.345
      -0.380
      -0.380
      -0.333
      -0.248
      -0.148
      -0.055
       0.013
       0.055
       0.078
       0.094
       0.108
       0.117
       0.112
       0.083
       0.038
      -0.006
      -0.024
      -0.003
       0.059
       0.147
       0.241
       0.328
       0.398
       0.446
       0.461
       0.439
       0.382
       0.301
       0.211
       0.123
       0.040
      -0.045
      -0.143
      -0.257
      -0.379
      -0.491
      -0.575
      -0.620
      -0.627
      -0.603
      -0.549
      -0.461
      -0.342
      -0.204
      -0.065
       0.060
       0.170
       0.265
       0.338
       0.375
       0.369
       0.327
       0.271
       0.225
       0.204
       0.207
       0.222
       0.235
       0.241
       0.235
       0.216
       0.185
       0.147
       0.111
       0.081
       0.053
       0.017
      -0.035
      -0.097
      -0.156
      -0.201
      -0.231
      -0.249
      -0.251
      -0.228
      -0.177
      -0.108
      -0.035
       0.024
       0.054
       0.045
      -0.008
      -0.095
      -0.191
      -0.273
      -0.325
      -0.346
      -0.342
      -0.321
      -0.288
      -0.244
      -0.193
      -0.138
      -0.072
       0.014
       0.134
       0.288
       0.459
       0.614
       0.717
       0.738
       0.676
       0.550
       0.397
       0.248
       0.123
       0.027
      -0.047
      -0.115
      -0.190
      -0.278
      -0.372
      -0.451
      -0.489
      -0.466
      -0.378
      -0.244
      -0.101
       0.012
       0.069
       0.068
       0.033
      -0.004
      -0.017
       0.000
       0.036
       0.070
       0.082
       0.061
       0.005
      -0.072
      -0.149
      -0.206
      -0.230
      -0.217
      -0.170
      -0.101
      -0.023
       0.050
       0.103
       0.127
       0.125
       0.110
       0.104
       0.124
       0.173
       0.242
       0.308
       0.348
       0.345
       0.303
       0.233
       0.150
       0.064
      -0.025
      -0.116
      -0.209
      -0.300
      -0.387
      -0.468
      -0.538
      -0.585
      -0.590
      -0.537
      -0.424
      -0.262
      -0.072
       0.124
       0.304
       0.449
       0.544
       0.580
       0.559
       0.498
       0.423
       0.354
       0.300
       0.251
       0.191
       0.112
       0.017
      -0.082
      -0.169
      -0.234
      -0.276
      -0.300
      -0.311
      -0.314
      -0.311
      -0.303
      -0.289
      -0.267
      -0.237
      -0.201
      -0.166
      -0.136
      -0.114
      -0.097
      -0.078
      -0.051
      -0.014
       0.033
       0.090
       0.159
       0.239
       0.316
       0.372
       0.390
       0.361
       0.287
       0.182
       0.066
      -0.038
      -0.113
      -0.148
      -0.144
      -0.106
      -0.050
       0.010
       0.056
       0.077
       0.073
       0.055
       0.042
       0.038
       0.039
       0.028
      -0.009
      -0.082
      -0.184
      -0.301
      -0.407
      -0.475
      -0.489
      -0.444
      -0.353
      -0.239
      -0.126
      -0.024
       0.069
       0.163
       0.260
       0.356
       0.443
       0.516
       0.562
       0.567
       0.518
       0.417
       0.280
       0.134
       0.000
      -0.112
      -0.200
      -0.266
      -0.310
      -0.330
      -0.325
      -0.299
      -0.259
      -0.219
      -0.183
      -0.149
      -0.105
      -0.047
       0.016
       0.066
       0.086
       0.073
       0.034
      -0.016
      -0.060
      -0.084
      -0.081
      -0.054
      -0.015
       0.017
       0.031
       0.030
       0.027
       0.040
       0.073
       0.119
       0.168
       0.206
       0.228
       0.230
       0.212
       0.177
       0.135
       0.095
       0.062
       0.037
       0.012
      -0.017
      -0.051
      -0.083
      -0.112
      -0.137
      -0.158
      -0.178
      -0.205
      -0.242
      -0.283
      -0.311
      -0.311
      -0.279
      -0.223
      -0.155
      -0.085
      -0.018
       0.044
       0.093
       0.124
       0.146
       0.170
       0.206
       0.243
       0.264
       0.251
       0.206
       0.142
       0.079
       0.029
      -0.008
      -0.032
      -0.040
      -0.028
       0.002
       0.042
       0.077
       0.096
       0.097
       0.080
       0.049
       0.009
      -0.035
      -0.079
      -0.117
      -0.147
      -0.169
      -0.182
      -0.186
      -0.176
      -0.150
      -0.117
      -0.090
      -0.074
      -0.062
      -0.040
      -0.001
       0.050
       0.103
       0.145
       0.172
       0.188
       0.194
       0.192
       0.177
       0.146
       0.101
       0.046
      -0.012
      -0.073
      -0.136
      -0.201
      -0.255
      -0.280
      -0.262
      -0.207
      -0.135
      -0.071
      -0.029
      -0.008
       0.004
       0.023
       0.063
       0.126
       0.196
       0.252
       0.271
       0.249
       0.196
       0.137
       0.092
       0.070
       0.068
       0.073
       0.068
       0.042
      -0.007
      -0.071
      -0.138
      -0.192
      -0.228
      -0.247
      -0.250
      -0.239
      -0.215
      -0.181
      -0.140
      -0.097
      -0.052
      -0.009
       0.035
       0.078
       0.117
       0.149
       0.174
       0.193
       0.211
       0.226
       0.231
       0.214
       0.165
       0.090
       0.013
      -0.041
      -0.063
      -0.062
      -0.058
      -0.068
      -0.092
      -0.114
      -0.120
      -0.103
      -0.069
      -0.027
       0.017
       0.065
       0.121
       0.185
       0.247
       0.293
       0.309
       0.283
       0.216
       0.117
       0.005
      -0.097
      -0.167
      -0.196
      -0.194
      -0.180
      -0.171
      -0.175
      -0.196
      -0.227
      -0.262
      -0.290
      -0.299
      -0.280
      -0.223
      -0.128
      -0.003
       0.130
       0.239
       0.303
       0.316
       0.295
       0.270
       0.263
       0.275
       0.287
       0.275
       0.230
       0.160
       0.084
       0.014
      -0.047
      -0.101
      -0.146
      -0.171
      -0.166
      -0.130
      -0.080
      -0.038
      -0.028
      -0.062
      -0.141
      -0.254
      -0.378
      -0.491
      -0.572
      -0.610
      -0.604
      -0.562
      -0.498
      -0.429
      -0.367
      -0.313
      -0.256
      -0.175
      -0.050
       0.123
       0.335
       0.561
       0.770
       0.927
       1.004
       0.987
       0.888
       0.741
       0.583
       0.447
       0.344
       0.275
       0.228
       0.192
       0.152
       0.094
       0.010
      -0.102
      -0.231
      -0.362
      -0.478
      -0.565
      -0.610
      -0.608
      -0.560
      -0.476
      -0.376
      -0.286
      -0.229
      -0.207
      -0.203
      -0.187
      -0.131
      -0.030
       0.106
       0.252
       0.379
       0.467
       0.506
       0.499
       0.456
       0.394
       0.327
       0.265
       0.206
       0.148
       0.083
       0.009
      -0.075
      -0.163
      -0.247
      -0.319
      -0.380
      -0.427
      -0.457
      -0.462
      -0.438
      -0.388
      -0.325
      -0.265
      -0.222
      -0.196
      -0.177
      -0.153
      -0.117
      -0.066
      -0.002
       0.076
       0.162
       0.251
       0.340
       0.426
       0.501
       0.551
       0.562
       0.531
       0.462
       0.370
       0.268
       0.166
       0.071
      -0.014
      -0.093
      -0.176
      -0.269
      -0.371
      -0.464
      -0.530
      -0.556
      -0.538
      -0.483
      -0.405
      -0.323
      -0.253
      -0.202
      -0.168
      -0.141
      -0.112
      -0.077
      -0.025
       0.055
       0.178
       0.348
       0.550
       0.752
       0.919
       1.025
       1.065
       1.048
       0.994
       0.921
       0.843
       0.758
       0.652
       0.502
       0.291
       0.023
      -0.276
      -0.576
      -0.853
      -1.100
      -1.311
      -1.472
      -1.562
      -1.567
      -1.488
      -1.343
      -1.154
      -0.938
      -0.695
      -0.410
      -0.066
       0.342
       0.795
       1.249
       1.654
       1.960
       2.135
       2.167
       2.063
       1.838
       1.512
       1.108
       0.650
       0.172
      -0.296
      -0.724
      -1.091
      -1.386
      -1.603
      -1.742
      -1.808
      -1.811
      -1.757
      -1.646
      -1.475
      -1.242
      -0.954
      -0.624
      -0.276
       0.062
       0.365
       0.611
       0.791
       0.911
       0.986
       1.036
       1.081
       1.133
       1.193
       1.256
       1.307
       1.328
       1.295
       1.193
       1.016
       0.770
       0.475
       0.165
      -0.128
      -0.384
      -0.597
      -0.775
      -0.925
      -1.048
      -1.142
      -1.198
      -1.208
      -1.170
      -1.085
      -0.962
      -0.814
      -0.657
      -0.503
      -0.350
      -0.188
      -0.007
       0.183
       0.358
       0.489
       0.565
       0.596
       0.612
       0.641
       0.691
       0.755
       0.814
       0.852
       0.857
       0.818
       0.723
       0.571
       0.373
       0.148
      -0.075
      -0.275
      -0.443
      -0.582
      -0.703
      -0.818
      -0.936
      -1.055
      -1.163
      -1.240
      -1.268
      -1.240
      -1.163
      -1.043
      -0.885
      -0.689
      -0.455
      -0.192
       0.082
       0.346
       0.589
       0.815
       1.029
       1.231
       1.413
       1.563
       1.674
       1.742
       1.762
       1.731
       1.641
       1.487
       1.270
       1.000
       0.694
       0.365
       0.018
      -0.349
      -0.734
      -1.131
      -1.512
      -1.842
      -2.088
      -2.228
      -2.260
      -2.195
      -2.047
      -1.837
      -1.583
      -1.300
      -0.998
      -0.685
      -0.359
      -0.023
       0.316
       0.643
       0.941
       1.195
       1.393
       1.526
       1.590
       1.590
       1.544
       1.472
       1.390
       1.298
       1.189
       1.057
       0.906
       0.743
       0.576
       0.405
       0.230
       0.055
      -0.114
      -0.281
      -0.451
      -0.629
      -0.812
      -0.990
      -1.148
      -1.270
      -1.340
      -1.346
      -1.290
      -1.177
      -1.016
      -0.815
      -0.577
      -0.306
      -0.009
       0.303
       0.616
       0.915
       1.183
       1.402
       1.556
       1.639
       1.650
       1.587
       1.445
       1.224
       0.935
       0.595
       0.225
      -0.154
      -0.526
      -0.883
      -1.220
      -1.534
      -1.819
      -2.056
      -2.214
      -2.261
      -2.176
      -1.961
      -1.636
      -1.238
      -0.798
      -0.341
       0.122
       0.585
       1.036
       1.452
       1.796
       2.037
       2.154
       2.143
       2.015
       1.796
       1.521
       1.222
       0.914
       0.592
       0.242
      -0.147
      -0.573
      -1.020
      -1.464
      -1.876
      -2.228
      -2.498
      -2.672
      -2.733
      -2.663
      -2.445
      -2.070
      -1.553
      -0.922
      -0.218
       0.521
       1.256
       1.951
       2.575
       3.107
       3.533
       3.839
       4.004
       4.006
       3.830
       3.480
       2.974
       2.339
       1.606
       0.804
      -0.027
      -0.854
      -1.648
      -2.386
      -3.046
      -3.597
      -4.001
      -4.221
      -4.234
      -4.043
      -3.668
      -3.134
      -2.454
      -1.638
      -0.706
       0.297
       1.297
       2.202
       2.924
       3.411
       3.651
       3.662
       3.470
       3.096
       2.568
       1.931
       1.244
       0.559
      -0.091
      -0.686
      -1.208
      -1.638
      -1.958
      -2.153
      -2.218
      -2.161
      -2.002
      -1.773
      -1.504
      -1.218
      -0.917
      -0.589
      -0.219
       0.191
       0.617
       1.022
       1.368
       1.632
       1.805
       1.893
       1.903
       1.839
       1.699
       1.482
       1.194
       0.843
       0.442
       0.000
      -0.466
      -0.934
      -1.377
      -1.767
      -2.072
      -2.261
      -2.306
      -2.201
      -1.966
      -1.639
      -1.264
      -0.869
      -0.474
      -0.090
       0.268
       0.590
       0.867
       1.094
       1.263
       1.363
       1.383
       1.320
       1.183
       0.994
       0.780
       0.569
       0.380
       0.225
       0.113
       0.043
       0.014
       0.018
       0.049
       0.102
       0.175
       0.263
       0.354
       0.423
       0.440
       0.388
       0.260
       0.068
      -0.160
      -0.385
      -0.560
      -0.653
      -0.661
      -0.606
      -0.529
      -0.471
      -0.455
      -0.481
      -0.526
      -0.565
      -0.586
      -0.589
      -0.585
      -0.577
      -0.559
      -0.523
      -0.467
      -0.404
      -0.351
      -0.314
      -0.277
      -0.215
      -0.107
       0.048
       0.229
       0.407
       0.559
       0.673
       0.745
       0.771
       0.749
       0.685
       0.595
       0.497
       0.401
       0.307
       0.218
       0.137
       0.071
       0.016
      -0.040
      -0.111
      -0.192
      -0.255
      -0.269
      -0.218
      -0.105
       0.056
       0.253
       0.472
       0.688
       0.864
       0.963
       0.966
       0.881
       0.732
       0.547
       0.338
       0.105
      -0.153
      -0.426
      -0.693
      -0.926
      -1.099
      -1.195
      -1.213
      -1.162
      -1.052
      -0.884
      -0.658
      -0.379
      -0.064
       0.260
       0.561
       0.814
       0.997
       1.095
       1.103
       1.024
       0.873
       0.670
       0.443
       0.211
      -0.011
      -0.214
      -0.393
      -0.542
      -0.660
      -0.743
      -0.785
      -0.775
      -0.700
      -0.557
      -0.356
      -0.126
       0.090
       0.259
       0.361
       0.400
       0.384
       0.326
       0.232
       0.105
      -0.045
      -0.204
      -0.356
      -0.491
      -0.604
      -0.687
      -0.726
      -0.705
      -0.615
      -0.452
      -0.226
       0.044
       0.328
       0.594
       0.811
       0.957
       1.024
       1.021
       0.968
       0.886
       0.783
       0.653
       0.478
       0.242
      -0.052
      -0.383
      -0.720
      -1.034
      -1.295
      -1.471
      -1.530
      -1.456
      -1.259
      -0.977
      -0.665
      -0.375
      -0.135
       0.061
       0.237
       0.427
       0.650
       0.907
       1.178
       1.431
       1.629
       1.744
       1.766
       1.700
       1.563
       1.369
       1.122
       0.821
       0.469
       0.089
      -0.281
      -0.604
      -0.860
      -1.048
      -1.185
      -1.288
      -1.367
      -1.413
      -1.409
      -1.341
      -1.204
      -1.009
      -0.773
      -0.516
      -0.259
      -0.021
       0.189
       0.375
       0.547
       0.707
       0.844
       0.931
       0.940
       0.861
       0.702
       0.486
       0.239
      -0.019
      -0.273
      -0.506
      -0.696
      -0.814
      -0.830
      -0.731
      -0.522
      -0.231
       0.100
       0.420
       0.683
       0.852
       0.914
       0.880
       0.771
       0.616
       0.433
       0.228
      -0.003
      -0.262
      -0.536
      -0.792
      -0.986
      -1.077
      -1.049
      -0.915
      -0.708
      -0.460
      -0.193
       0.078
       0.326
       0.522
       0.637
       0.669
       0.642
       0.594
       0.557
       0.542
       0.534
       0.510
       0.455
       0.370
       0.267
       0.156
       0.037
      -0.095
      -0.239
      -0.375
      -0.484
      -0.560
      -0.618
      -0.679
      -0.750
      -0.809
      -0.816
      -0.731
      -0.541
      -0.260
       0.069
       0.394
       0.672
       0.876
       0.996
       1.037
       1.010
       0.928
       0.805
       0.665
       0.531
       0.418
       0.319
       0.206
       0.049
      -0.157
      -0.385
      -0.580
      -0.690
      -0.695
      -0.615
      -0.486
      -0.342
      -0.203
      -0.087
      -0.019
      -0.021
      -0.091
      -0.191
      -0.265
      -0.276
      -0.223
      -0.138
      -0.057
      -0.001
       0.029
       0.037
       0.027
       0.003
      -0.026
      -0.050
      -0.062
      -0.060
      -0.057
      -0.066
      -0.090
      -0.120
      -0.135
      -0.121
      -0.079
      -0.022
       0.035
       0.082
       0.118
       0.153
       0.197
       0.255
       0.319
       0.373
       0.398
       0.376
       0.299
       0.171
       0.004
      -0.177
      -0.341
      -0.451
      -0.476
      -0.410
      -0.269
      -0.092
       0.079
       0.208
       0.282
       0.309
       0.308
       0.301
       0.300
       0.309
       0.332
       0.362
       0.377
       0.345
       0.241
       0.069
      -0.135
      -0.322
      -0.447
      -0.490
      -0.451
      -0.348
      -0.205
      -0.059
       0.049
       0.089
       0.053
      -0.039
      -0.149
      -0.242
      -0.300
      -0.331
      -0.348
      -0.358
      -0.350
      -0.309
      -0.230
      -0.128
