Origin Time       14/03/2010 6:53:21	
Lat.              31.7 N	
Long.             76.1 E	
Depth (Km)         29.0
Magnitude         4.6
 Region           HIMACHAL-PUNJAB-(HOSHIARPUR)-BORDER                              
 Above details taken from IMD 
   
Station Code      BHA
Station Lat.       31.552
Station Long.      77.923
Station Height(m) 1566.0
Site Class        A   Vs30 between 700 m/sec to 1400 m/sec * 
Record Time       14.03.2010 06:53:43.649
Sampling Rate     200. Hz
 Record Duration   80.450 Sec.
 Direction         Vert. (Up positive)
Max. Acceleration     -2.416 cm/sec**2
     
  * For reference see Site Classification link of website 
     
 Base Line Corrected and Low Pass Filtered (Cut Off at 35 Hz) Time History
 Acceleration data in cm/sec**2
    
[...]
      -0.036
      -0.033
      -0.018
      -0.016
      -0.044
      -0.098
      -0.154
      -0.179
      -0.157
      -0.099
      -0.027
       0.042
       0.109
       0.172
       0.224
       0.244
       0.217
       0.145
       0.048
      -0.052
      -0.141
      -0.208
      -0.249
      -0.252
      -0.217
      -0.151
      -0.066
       0.025
       0.113
       0.190
       0.248
       0.278
       0.281
       0.264
       0.234
       0.192
       0.134
       0.064
      -0.004
      -0.056
      -0.092
      -0.120
      -0.146
      -0.166
      -0.174
      -0.170
      -0.161
      -0.151
      -0.134
      -0.096
      -0.037
       0.023
       0.056
       0.048
       0.010
      -0.025
      -0.026
       0.015
       0.077
       0.126
       0.147
       0.153
       0.169
       0.210
       0.257
       0.274
       0.239
       0.158
       0.069
       0.005
      -0.019
      -0.020
      -0.026
      -0.059
      -0.124
      -0.210
      -0.296
      -0.355
      -0.369
      -0.334
      -0.264
      -0.178
      -0.090
       0.001
       0.093
       0.169
       0.211
       0.205
       0.160
       0.098
       0.044
       0.015
       0.016
       0.044
       0.085
       0.117
       0.119
       0.084
       0.026
      -0.027
      -0.055
      -0.055
      -0.044
      -0.036
      -0.036
      -0.039
      -0.037
      -0.029
      -0.019
      -0.014
      -0.019
      -0.031
      -0.037
      -0.015
       0.047
       0.141
       0.235
       0.288
       0.273
       0.197
       0.090
      -0.008
      -0.079
      -0.120
      -0.137
      -0.139
      -0.133
      -0.133
      -0.145
      -0.163
      -0.164
      -0.131
      -0.065
       0.005
       0.052
       0.074
       0.084
       0.097
       0.108
       0.106
       0.097
       0.097
       0.118
       0.149
       0.158
       0.118
       0.035
      -0.067
      -0.159
      -0.225
      -0.259
      -0.257
      -0.211
      -0.120
       0.001
       0.126
       0.229
       0.290
       0.297
       0.249
       0.159
       0.061
      -0.009
      -0.026
       0.000
       0.040
       0.061
       0.049
       0.012
      -0.036
      -0.084
      -0.124
      -0.149
      -0.153
      -0.133
      -0.090
      -0.030
       0.029
       0.067
       0.071
       0.045
       0.009
      -0.013
      -0.007
       0.027
       0.075
       0.114
       0.123
       0.088
       0.016
      -0.068
      -0.128
      -0.136
      -0.091
      -0.018
       0.049
       0.090
       0.110
       0.127
       0.154
       0.186
       0.197
       0.163
       0.080
      -0.029
      -0.132
      -0.208
      -0.253
      -0.272
      -0.262
      -0.218
      -0.138
      -0.036
       0.063
       0.133
       0.160
       0.144
       0.094
       0.022
      -0.050
      -0.098
      -0.101
      -0.057
       0.010
       0.064
       0.079
       0.059
       0.030
       0.024
       0.051
       0.098
       0.140
       0.163
       0.158
       0.130
       0.082
       0.014
      -0.072
      -0.169
      -0.255
      -0.307
      -0.304
      -0.243
      -0.137
      -0.008
       0.120
       0.225
       0.288
       0.297
       0.257
       0.181
       0.092
       0.010
      -0.051
      -0.083
      -0.086
      -0.065
      -0.030
       0.011
       0.053
       0.094
       0.135
       0.174
       0.202
       0.204
       0.167
       0.088
      -0.019
      -0.126
      -0.203
      -0.239
      -0.239
      -0.222
      -0.201
      -0.179
      -0.154
      -0.126
      -0.101
      -0.077
      -0.040
       0.031
       0.143
       0.281
       0.403
       0.467
       0.447
       0.350
       0.207
       0.059
      -0.059
      -0.131
      -0.162
      -0.166
      -0.156
      -0.138
      -0.120
      -0.110
      -0.113
      -0.128
      -0.142
      -0.139
      -0.100
      -0.018
       0.093
       0.201
       0.271
       0.284
       0.239
       0.151
       0.047
      -0.037
      -0.072
      -0.050
       0.009
       0.066
       0.085
       0.057
      -0.004
      -0.071
      -0.122
      -0.147
      -0.147
      -0.128
      -0.103
      -0.085
      -0.071
      -0.046
      -0.002
       0.047
       0.071
       0.049
      -0.011
      -0.074
      -0.105
      -0.090
      -0.040
       0.020
       0.075
       0.114
       0.135
       0.140
       0.135
       0.126
       0.114
       0.097
       0.075
       0.052
       0.035
       0.026
       0.023
       0.021
       0.017
       0.009
      -0.009
      -0.037
      -0.074
      -0.109
      -0.131
      -0.134
      -0.121
      -0.101
      -0.080
      -0.057
      -0.025
       0.019
       0.068
       0.102
       0.108
       0.091
       0.070
       0.060
       0.060
       0.054
       0.028
      -0.015
      -0.053
      -0.064
      -0.039
       0.010
       0.054
       0.068
       0.046
       0.010
      -0.014
      -0.013
       0.004
       0.014
       0.003
      -0.018
      -0.024
       0.003
       0.055
       0.107
       0.137
       0.141
       0.129
       0.111
       0.089
       0.060
       0.025
      -0.013
      -0.048
      -0.076
      -0.092
      -0.096
      -0.091
      -0.083
      -0.078
      -0.076
      -0.078
      -0.084
      -0.089
      -0.081
      -0.046
       0.013
       0.080
       0.137
       0.177
       0.205
       0.222
       0.222
       0.199
       0.157
       0.112
       0.073
       0.036
      -0.011
      -0.071
      -0.131
      -0.169
      -0.168
      -0.129
      -0.073
      -0.030
      -0.024
      -0.055
      -0.098
      -0.119
      -0.101
      -0.057
      -0.017
       0.000
      -0.005
      -0.014
      -0.015
      -0.002
       0.022
       0.052
       0.089
       0.130
       0.169
       0.200
       0.215
       0.211
       0.188
       0.145
       0.084
       0.004
      -0.088
      -0.175
      -0.233
      -0.235
      -0.171
      -0.058
       0.064
       0.158
       0.206
       0.210
       0.184
       0.142
       0.098
       0.060
       0.038
       0.033
       0.037
       0.039
       0.031
       0.014
      -0.004
      -0.018
      -0.027
      -0.034
      -0.042
      -0.053
      -0.062
      -0.064
      -0.054
      -0.035
      -0.016
      -0.011
      -0.027
      -0.063
      -0.104
      -0.128
      -0.117
      -0.074
      -0.022
       0.011
       0.017
       0.009
       0.016
       0.051
       0.103
       0.144
       0.152
       0.135
       0.117
       0.122
       0.143
       0.152
       0.118
       0.039
      -0.058
      -0.129
      -0.143
      -0.102
      -0.037
       0.021
       0.054
       0.065
       0.063
       0.048
       0.015
      -0.044
      -0.122
      -0.202
      -0.263
      -0.293
      -0.289
      -0.261
      -0.227
      -0.201
      -0.189
      -0.185
      -0.171
      -0.137
      -0.084
      -0.025
       0.028
       0.070
       0.107
       0.144
       0.182
       0.216
       0.239
       0.242
       0.218
       0.157
       0.060
      -0.061
      -0.172
      -0.235
      -0.231
      -0.175
      -0.107
      -0.061
      -0.039
      -0.010
       0.058
       0.166
       0.280
       0.349
       0.341
       0.258
       0.135
       0.018
      -0.054
      -0.067
      -0.037
       0.006
       0.036
       0.049
       0.054
       0.067
       0.096
       0.129
       0.145
       0.131
       0.091
       0.043
       0.008
      -0.008
      -0.011
      -0.009
      -0.005
       0.005
       0.031
       0.071
       0.114
       0.136
       0.118
       0.058
      -0.023
      -0.104
      -0.175
      -0.241
      -0.303
      -0.342
      -0.331
      -0.254
      -0.133
      -0.010
       0.080
       0.127
       0.151
       0.182
       0.236
       0.297
       0.327
       0.293
       0.188
       0.047
      -0.080
      -0.155
      -0.167
      -0.129
      -0.058
       0.030
       0.126
       0.214
       0.272
       0.276
       0.214
       0.084
      -0.096
      -0.298
      -0.480
      -0.601
      -0.642
      -0.612
      -0.536
      -0.434
      -0.318
      -0.195
      -0.076
       0.024
       0.093
       0.130
       0.146
       0.154
       0.165
       0.182
       0.209
       0.250
       0.306
       0.371
       0.425
       0.448
       0.433
       0.385
       0.319
       0.245
       0.165
       0.071
      -0.044
      -0.182
      -0.330
      -0.464
      -0.553
      -0.579
      -0.545
      -0.469
      -0.370
      -0.256
      -0.126
       0.011
       0.145
       0.260
       0.352
       0.422
       0.477
       0.523
       0.557
       0.571
       0.551
       0.484
       0.371
       0.223
       0.065
      -0.078
      -0.191
      -0.266
      -0.301
      -0.299
      -0.274
      -0.241
      -0.219
      -0.216
      -0.229
      -0.249
      -0.259
      -0.244
      -0.194
      -0.111
      -0.004
       0.113
       0.227
       0.323
       0.384
       0.397
       0.360
       0.288
       0.200
       0.112
       0.030
      -0.045
      -0.108
      -0.152
      -0.174
      -0.182
      -0.184
      -0.176
      -0.147
      -0.091
      -0.023
       0.030
       0.050
       0.038
       0.010
      -0.024
      -0.060
      -0.094
      -0.119
      -0.124
      -0.105
      -0.063
      -0.004
       0.072
       0.162
       0.259
       0.339
       0.374
       0.351
       0.278
       0.185
       0.101
       0.033
      -0.024
      -0.074
      -0.113
      -0.132
      -0.124
      -0.084
      -0.015
       0.067
       0.136
       0.166
       0.145
       0.088
       0.021
      -0.026
      -0.034
      -0.004
       0.044
       0.083
       0.094
       0.080
       0.056
       0.035
       0.020
       0.001
      -0.032
      -0.084
      -0.154
      -0.233
      -0.307
      -0.359
      -0.382
      -0.395
      -0.426
      -0.493
      -0.583
      -0.656
      -0.676
      -0.627
      -0.521
      -0.386
      -0.242
      -0.090
       0.087
       0.298
       0.530
       0.744
       0.896
       0.967
       0.964
       0.908
       0.817
       0.698
       0.550
       0.377
       0.191
       0.003
      -0.176
      -0.345
      -0.503
      -0.643
      -0.752
      -0.816
      -0.825
      -0.782
      -0.701
      -0.596
      -0.479
      -0.348
      -0.204
      -0.051
       0.097
       0.227
       0.329
       0.402
       0.446
       0.458
       0.432
       0.373
       0.298
       0.234
       0.194
       0.175
       0.165
       0.155
       0.151
       0.163
       0.194
       0.238
       0.279
       0.301
       0.296
       0.271
       0.238
       0.207
       0.178
       0.137
       0.071
      -0.031
      -0.163
      -0.309
      -0.436
      -0.505
      -0.483
      -0.358
      -0.152
       0.084
       0.292
       0.434
       0.505
       0.532
       0.546
       0.563
       0.569
       0.540
       0.461
       0.341
       0.202
       0.064
      -0.061
      -0.167
      -0.254
      -0.325
      -0.386
      -0.442
      -0.489
      -0.520
      -0.540
      -0.560
      -0.588
      -0.613
      -0.602
      -0.524
      -0.366
      -0.147
       0.096
       0.326
       0.517
       0.656
       0.741
       0.776
       0.770
       0.730
       0.664
       0.576
       0.471
       0.350
       0.220
       0.086
      -0.047
      -0.171
      -0.281
      -0.370
      -0.436
      -0.493
      -0.556
      -0.632
      -0.715
      -0.803
      -0.902
      -1.031
      -1.192
      -1.352
      -1.442
      -1.393
      -1.176
      -0.819
      -0.379
       0.097
       0.581
       1.054
       1.478
       1.798
       1.956
       1.913
       1.668
       1.263
       0.772
       0.268
      -0.205
      -0.636
      -1.029
      -1.366
      -1.609
      -1.712
      -1.665
      -1.497
      -1.264
      -1.018
      -0.779
      -0.535
      -0.257
       0.079
       0.462
       0.851
       1.199
       1.486
       1.724
       1.919
       2.052
       2.077
       1.958
       1.691
       1.299
       0.816
       0.271
      -0.312
      -0.906
      -1.467
      -1.938
      -2.262
      -2.403
      -2.367
      -2.189
      -1.908
      -1.545
      -1.107
      -0.602
      -0.059
       0.476
       0.950
       1.320
       1.566
       1.697
       1.745
       1.739
       1.682
       1.551
       1.333
       1.055
       0.771
       0.520
       0.303
       0.085
      -0.155
      -0.407
      -0.637
      -0.821
      -0.962
      -1.079
      -1.184
      -1.265
      -1.296
      -1.252
      -1.129
      -0.956
      -0.773
      -0.602
      -0.432
      -0.226
       0.047
       0.383
       0.739
       1.056
       1.288
       1.426
       1.494
       1.519
       1.501
       1.402
       1.172
       0.797
       0.316
      -0.196
      -0.676
      -1.098
      -1.468
      -1.789
      -2.041
      -2.184
      -2.186
      -2.038
      -1.755
      -1.365
      -0.897
      -0.387
       0.127
       0.605
       1.018
       1.350
       1.593
       1.744
       1.799
       1.762
       1.653
       1.520
       1.412
       1.346
       1.289
       1.176
       0.945
       0.573
       0.082
      -0.478
      -1.049
      -1.568
      -1.987
      -2.275
      -2.416
      -2.397
      -2.207
      -1.856
      -1.380
      -0.831
      -0.254
       0.315
       0.840
       1.277
       1.581
       1.727
       1.730
       1.630
       1.473
       1.281
       1.047
       0.754
       0.398
       0.004
      -0.388
      -0.739
      -1.042
      -1.319
      -1.582
      -1.802
      -1.914
      -1.874
      -1.695
      -1.426
      -1.102
      -0.719
      -0.260
       0.253
       0.747
       1.134
       1.367
       1.453
       1.440
       1.373
       1.281
       1.171
       1.040
       0.871
       0.652
       0.381
       0.073
      -0.242
      -0.534
      -0.779
      -0.965
      -1.089
      -1.152
      -1.155
      -1.096
      -0.969
      -0.771
      -0.510
      -0.200
       0.139
       0.484
       0.814
       1.105
       1.325
       1.428
       1.381
       1.187
       0.893
       0.562
       0.242
      -0.054
      -0.317
      -0.528
      -0.658
      -0.697
      -0.659
      -0.569
      -0.441
      -0.286
      -0.124
       0.001
       0.049
       0.012
      -0.069
      -0.135
      -0.158
      -0.161
      -0.196
      -0.284
      -0.389
      -0.434
      -0.359
      -0.160
       0.112
       0.390
       0.619
       0.769
       0.824
       0.785
       0.670
       0.516
       0.359
       0.216
       0.084
      -0.051
      -0.191
      -0.325
      -0.430
      -0.487
      -0.485
      -0.435
      -0.363
      -0.311
      -0.319
      -0.397
      -0.517
      -0.622
      -0.665
      -0.631
      -0.528
      -0.373
      -0.170
       0.072
       0.331
       0.565
       0.726
       0.780
       0.725
       0.589
       0.413
       0.227
       0.040
      -0.150
      -0.329
      -0.465
      -0.524
      -0.496
      -0.398
      -0.263
      -0.113
       0.044
       0.200
       0.331
       0.410
       0.421
       0.367
       0.263
       0.130
      -0.012
      -0.135
      -0.214
      -0.232
      -0.194
      -0.124
      -0.054
      -0.008
      -0.001
      -0.044
      -0.138
      -0.257
      -0.349
      -0.356
      -0.257
      -0.074
       0.138
       0.327
       0.466
       0.543
       0.548
       0.473
       0.320
       0.115
      -0.101
      -0.288
      -0.428
      -0.515
      -0.552
      -0.541
      -0.482
      -0.380
      -0.247
      -0.092
       0.073
       0.236
       0.370
       0.443
       0.426
       0.323
       0.165
      -0.005
      -0.154
      -0.270
      -0.351
      -0.381
      -0.337
      -0.201
       0.011
       0.248
       0.449
       0.570
       0.613
       0.610
       0.584
       0.534
       0.447
       0.325
       0.185
       0.047
      -0.089
      -0.228
      -0.369
      -0.487
      -0.553
      -0.548
      -0.478
      -0.371
      -0.262
      -0.181
      -0.141
      -0.135
      -0.137
      -0.120
      -0.072
      -0.010
       0.035
       0.033
      -0.016
      -0.084
      -0.119
      -0.073
       0.077
       0.309
       0.561
       0.758
       0.851
       0.832
       0.722
       0.544
       0.312
       0.034
      -0.271
      -0.565
      -0.807
      -0.963
      -1.016
      -0.972
      -0.842
      -0.642
      -0.394
      -0.136
       0.089
       0.247
       0.332
       0.354
       0.336
       0.295
       0.241
       0.179
       0.118
       0.077
       0.081
       0.149
       0.269
       0.401
       0.487
       0.490
       0.408
       0.267
       0.097
      -0.089
      -0.293
      -0.518
      -0.752
      -0.964
      -1.119
      -1.192
      -1.173
      -1.068
      -0.889
      -0.646
      -0.348
      -0.005
       0.358
       0.711
       1.014
       1.230
       1.332
       1.314
       1.201
       1.033
       0.844
       0.640
       0.406
       0.130
      -0.173
      -0.463
      -0.691
      -0.828
      -0.870
      -0.833
      -0.735
      -0.592
      -0.414
      -0.214
      -0.015
       0.152
       0.248
       0.247
       0.151
       0.003
      -0.125
      -0.174
      -0.124
      -0.010
       0.106
       0.186
       0.233
       0.280
       0.357
       0.460
       0.547
       0.560
       0.465
       0.267
       0.014
      -0.231
      -0.420
      -0.530
      -0.554
      -0.495
      -0.374
      -0.232
      -0.124
      -0.086
      -0.110
      -0.156
      -0.180
      -0.173
      -0.160
      -0.167
      -0.190
      -0.193
      -0.136
      -0.013
       0.135
       0.246
       0.275
       0.224
       0.145
       0.092
       0.092
       0.121
       0.142
       0.132
       0.100
       0.074
       0.070
       0.082
       0.087
       0.070
       0.029
      -0.019
      -0.058
      -0.084
      -0.108
      -0.150
      -0.220
      -0.307
      -0.377
      -0.391
      -0.333
      -0.221
      -0.083
       0.063
       0.220
       0.391
       0.553
       0.661
       0.682
       0.618
       0.504
       0.375
       0.244
       0.098
      -0.075
      -0.267
      -0.438
      -0.546
      -0.570
      -0.527
      -0.466
      -0.433
      -0.440
      -0.459
      -0.451
      -0.388
      -0.275
      -0.128
       0.036
       0.204
       0.366
       0.508
       0.609
       0.645
       0.598
       0.480
       0.326
       0.179
       0.065
      -0.018
      -0.083
      -0.140
      -0.185
      -0.217
      -0.245
      -0.280
      -0.327
      -0.368
      -0.364
      -0.280
      -0.119
       0.069
       0.210
       0.254
       0.207
       0.122
       0.048
       0.002
      -0.033
      -0.074
      -0.112
      -0.118
      -0.069
       0.026
       0.133
       0.216
       0.267
       0.304
       0.356
       0.433
       0.511
       0.541
       0.483
       0.330
