Origin Time       14/03/2010 6:53:21	 UTC
Lat.              31.7 N	
Long.             76.1 E	
Depth (Km)         29.0
Magnitude         4.6
 Region           HIMACHAL-PUNJAB-(HOSHIARPUR)-BORDER                              
 Above details taken from IMD 
    
Station Code      BHA
Station Lat.       31.552  N
Station Long.      77.923  E
Station Height(m) 1566.0
Site Class        A   Vs30 between 700 m/sec to 1400 m/sec * 
Record Time       14.03.2010 06:53:43.649 UTC
Sampling Rate     200. Hz
 Record Duration   80.450 Sec.
 Direction         N-S (N positive)
Max. Acceleration      2.418 cm/sec**2
     
  * For reference see Site Classification link of website 
     
 Base Line Corrected and Low Pass Filtered (Cut Off at 35 Hz) Time History
 Acceleration data in cm/sec**2
    
[...]
       0.116
       0.006
      -0.098
      -0.176
      -0.223
      -0.242
      -0.241
      -0.228
      -0.211
      -0.193
      -0.174
      -0.153
      -0.130
      -0.105
      -0.078
      -0.050
      -0.025
      -0.010
      -0.004
      -0.003
       0.005
       0.026
       0.067
       0.124
       0.194
       0.264
       0.321
       0.349
       0.339
       0.292
       0.223
       0.150
       0.087
       0.034
      -0.016
      -0.071
      -0.133
      -0.197
      -0.249
      -0.275
      -0.267
      -0.227
      -0.168
      -0.106
      -0.056
      -0.028
      -0.022
      -0.030
      -0.041
      -0.044
      -0.035
      -0.015
       0.011
       0.039
       0.071
       0.104
       0.134
       0.154
       0.157
       0.147
       0.124
       0.092
       0.053
       0.017
      -0.007
      -0.012
       0.000
       0.017
       0.024
       0.016
      -0.004
      -0.027
      -0.044
      -0.052
      -0.050
      -0.037
      -0.015
       0.012
       0.037
       0.059
       0.079
       0.096
       0.106
       0.105
       0.089
       0.059
       0.021
      -0.020
      -0.057
      -0.085
      -0.098
      -0.098
      -0.090
      -0.086
      -0.095
      -0.120
      -0.152
      -0.179
      -0.189
      -0.180
      -0.158
      -0.129
      -0.094
      -0.052
      -0.004
       0.043
       0.080
       0.108
       0.136
       0.172
       0.215
       0.254
       0.273
       0.260
       0.217
       0.157
       0.100
       0.061
       0.042
       0.033
       0.021
      -0.003
      -0.033
      -0.062
      -0.082
      -0.091
      -0.093
      -0.093
      -0.099
      -0.119
      -0.155
      -0.198
      -0.229
      -0.233
      -0.203
      -0.143
      -0.067
       0.008
       0.068
       0.106
       0.122
       0.122
       0.115
       0.104
       0.088
       0.061
       0.024
      -0.010
      -0.025
      -0.007
       0.038
       0.092
       0.133
       0.145
       0.128
       0.093
       0.052
       0.012
      -0.026
      -0.061
      -0.085
      -0.091
      -0.071
      -0.025
       0.035
       0.088
       0.114
       0.105
       0.064
       0.009
      -0.042
      -0.077
      -0.089
      -0.081
      -0.062
      -0.040
      -0.022
      -0.010
      -0.006
      -0.012
      -0.027
      -0.052
      -0.080
      -0.103
      -0.112
      -0.107
      -0.091
      -0.071
      -0.049
      -0.021
       0.019
       0.074
       0.133
       0.176
       0.189
       0.170
       0.135
       0.099
       0.071
       0.053
       0.042
       0.035
       0.032
       0.034
       0.036
       0.030
       0.009
      -0.024
      -0.059
      -0.081
      -0.085
      -0.076
      -0.064
      -0.060
      -0.067
      -0.081
      -0.092
      -0.093
      -0.084
      -0.071
      -0.066
      -0.071
      -0.082
      -0.080
      -0.050
       0.013
       0.095
       0.175
       0.230
       0.249
       0.233
       0.198
       0.161
       0.136
       0.128
       0.131
       0.134
       0.121
       0.085
       0.028
      -0.039
      -0.103
      -0.161
      -0.211
      -0.254
      -0.289
      -0.314
      -0.318
      -0.293
      -0.236
      -0.155
      -0.067
       0.010
       0.063
       0.087
       0.087
       0.072
       0.054
       0.046
       0.064
       0.120
       0.213
       0.328
       0.431
       0.489
       0.484
       0.419
       0.317
       0.211
       0.123
       0.060
       0.011
      -0.043
      -0.116
      -0.205
      -0.291
      -0.347
      -0.357
      -0.323
      -0.267
      -0.212
      -0.173
      -0.145
      -0.112
      -0.065
      -0.008
       0.046
       0.083
       0.103
       0.109
       0.106
       0.096
       0.078
       0.054
       0.025
      -0.005
      -0.028
      -0.036
      -0.024
       0.005
       0.039
       0.066
       0.077
       0.073
       0.057
       0.035
       0.010
      -0.012
      -0.024
      -0.022
      -0.008
       0.012
       0.026
       0.029
       0.016
      -0.013
      -0.055
      -0.101
      -0.142
      -0.172
      -0.190
      -0.197
      -0.191
      -0.170
      -0.131
      -0.079
      -0.027
       0.016
       0.048
       0.083
       0.138
       0.221
       0.321
       0.407
       0.455
       0.452
       0.407
       0.333
       0.241
       0.135
       0.019
      -0.098
      -0.202
      -0.283
      -0.338
      -0.369
      -0.377
      -0.361
      -0.319
      -0.258
      -0.191
      -0.131
      -0.084
      -0.049
      -0.018
       0.011
       0.040
       0.069
       0.105
       0.156
       0.225
       0.303
       0.370
       0.403
       0.390
       0.337
       0.264
       0.192
       0.126
       0.066
       0.007
      -0.051
      -0.102
      -0.146
      -0.183
      -0.214
      -0.235
      -0.239
      -0.216
      -0.164
      -0.091
      -0.014
       0.049
       0.087
       0.097
       0.080
       0.043
      -0.005
      -0.054
      -0.093
      -0.120
      -0.140
      -0.158
      -0.174
      -0.183
      -0.179
      -0.158
      -0.124
      -0.083
      -0.042
      -0.008
       0.018
       0.037
       0.057
       0.089
       0.143
       0.216
       0.291
       0.342
       0.352
       0.320
       0.259
       0.186
       0.113
       0.045
      -0.023
      -0.090
      -0.152
      -0.193
      -0.201
      -0.175
      -0.129
      -0.086
      -0.064
      -0.069
      -0.095
      -0.126
      -0.150
      -0.155
      -0.136
      -0.092
      -0.026
       0.049
       0.120
       0.171
       0.201
       0.212
       0.207
       0.183
       0.136
       0.066
      -0.010
      -0.068
      -0.093
      -0.083
      -0.056
      -0.027
      -0.008
       0.004
       0.016
       0.032
       0.047
       0.056
       0.055
       0.047
       0.035
       0.023
       0.014
       0.009
       0.007
       0.004
      -0.002
      -0.010
      -0.019
      -0.035
      -0.063
      -0.103
      -0.141
      -0.158
      -0.136
      -0.073
       0.012
       0.093
       0.149
       0.173
       0.171
       0.155
       0.133
       0.108
       0.079
       0.047
       0.014
      -0.016
      -0.039
      -0.055
      -0.065
      -0.070
      -0.075
      -0.087
      -0.110
      -0.143
      -0.181
      -0.214
      -0.231
      -0.227
      -0.198
      -0.147
      -0.084
      -0.019
       0.046
       0.112
       0.182
       0.257
       0.326
       0.375
       0.392
       0.373
       0.324
       0.251
       0.163
       0.073
      -0.006
      -0.067
      -0.110
      -0.142
      -0.173
      -0.201
      -0.219
      -0.221
      -0.205
      -0.181
      -0.162
      -0.154
      -0.157
      -0.165
      -0.171
      -0.176
      -0.181
      -0.179
      -0.150
      -0.080
       0.030
       0.155
       0.260
       0.323
       0.340
       0.318
       0.272
       0.216
       0.154
       0.089
       0.020
      -0.051
      -0.116
      -0.163
      -0.181
      -0.161
      -0.104
      -0.022
       0.065
       0.129
       0.148
       0.115
       0.046
      -0.027
      -0.073
      -0.084
      -0.070
      -0.052
      -0.045
      -0.053
      -0.064
      -0.068
      -0.064
      -0.062
      -0.072
      -0.098
      -0.132
      -0.164
      -0.184
      -0.187
      -0.172
      -0.143
      -0.106
      -0.064
      -0.021
       0.018
       0.047
       0.061
       0.060
       0.050
       0.035
       0.020
       0.010
       0.014
       0.039
       0.088
       0.149
       0.201
       0.230
       0.231
       0.215
       0.197
       0.184
       0.177
       0.175
       0.181
       0.202
       0.237
       0.273
       0.287
       0.262
       0.197
       0.111
       0.029
      -0.033
      -0.072
      -0.097
      -0.124
      -0.160
      -0.203
      -0.236
      -0.246
      -0.229
      -0.194
      -0.159
      -0.143
      -0.152
      -0.178
      -0.199
      -0.193
      -0.151
      -0.081
       0.000
       0.078
       0.152
       0.227
       0.309
       0.393
       0.469
       0.519
       0.529
       0.490
       0.409
       0.311
       0.225
       0.169
       0.141
       0.125
       0.107
       0.078
       0.035
      -0.025
      -0.105
      -0.207
      -0.321
      -0.427
      -0.502
      -0.538
      -0.536
      -0.511
      -0.476
      -0.445
      -0.423
      -0.411
      -0.403
      -0.388
      -0.361
      -0.318
      -0.262
      -0.195
      -0.121
      -0.041
       0.040
       0.115
       0.176
       0.220
       0.252
       0.273
       0.281
       0.273
       0.243
       0.198
       0.153
       0.127
       0.129
       0.155
       0.194
       0.233
       0.265
       0.287
       0.300
       0.307
       0.312
       0.314
       0.308
       0.290
       0.258
       0.211
       0.156
       0.100
       0.051
       0.014
      -0.012
      -0.034
      -0.064
      -0.111
      -0.172
      -0.235
      -0.283
      -0.311
      -0.324
      -0.334
      -0.345
      -0.354
      -0.355
      -0.344
      -0.324
      -0.299
      -0.266
      -0.220
      -0.153
      -0.068
       0.021
       0.096
       0.143
       0.157
       0.147
       0.131
       0.123
       0.134
       0.163
       0.202
       0.241
       0.271
       0.287
       0.291
       0.294
       0.306
       0.323
       0.331
       0.316
       0.273
       0.210
       0.143
       0.089
       0.059
       0.059
       0.086
       0.128
       0.165
       0.171
       0.127
       0.028
      -0.117
      -0.279
      -0.425
      -0.526
      -0.577
      -0.584
      -0.564
      -0.526
      -0.476
      -0.418
      -0.355
      -0.292
      -0.234
      -0.188
      -0.158
      -0.145
      -0.135
      -0.105
      -0.035
       0.082
       0.230
       0.378
       0.499
       0.583
       0.633
       0.661
       0.674
       0.672
       0.652
       0.612
       0.547
       0.453
       0.326
       0.169
      -0.003
      -0.165
      -0.294
      -0.383
      -0.443
      -0.489
      -0.526
      -0.548
      -0.549
      -0.530
      -0.506
      -0.491
      -0.493
      -0.509
      -0.529
      -0.539
      -0.523
      -0.464
      -0.348
      -0.175
       0.043
       0.282
       0.515
       0.716
       0.863
       0.940
       0.943
       0.881
       0.776
       0.650
       0.525
       0.415
       0.326
       0.260
       0.217
       0.192
       0.173
       0.150
       0.108
       0.035
      -0.073
      -0.209
      -0.356
      -0.500
      -0.635
      -0.752
      -0.839
      -0.877
      -0.856
      -0.778
      -0.655
      -0.506
      -0.342
      -0.180
      -0.039
       0.061
       0.110
       0.117
       0.109
       0.107
       0.123
       0.151
       0.182
       0.204
       0.216
       0.222
       0.231
       0.249
       0.282
       0.333
       0.406
       0.491
       0.571
       0.625
       0.641
       0.618
       0.568
       0.498
       0.414
       0.316
       0.205
       0.085
      -0.035
      -0.146
      -0.236
      -0.298
      -0.329
      -0.338
      -0.342
      -0.357
      -0.395
      -0.453
      -0.510
      -0.539
      -0.514
      -0.432
      -0.314
      -0.196
      -0.106
      -0.051
      -0.017
       0.017
       0.059
       0.101
       0.129
       0.141
       0.147
       0.163
       0.195
       0.240
       0.288
       0.334
       0.371
       0.393
       0.397
       0.383
       0.359
       0.333
       0.311
       0.294
       0.282
       0.278
       0.285
       0.302
       0.318
       0.315
       0.275
       0.193
       0.081
      -0.037
      -0.140
      -0.217
      -0.272
      -0.316
      -0.368
      -0.439
      -0.536
      -0.655
      -0.787
      -0.916
      -1.029
      -1.119
      -1.189
      -1.241
      -1.272
      -1.270
      -1.212
      -1.083
      -0.881
      -0.621
      -0.331
      -0.035
       0.254
       0.537
       0.814
       1.081
       1.322
       1.519
       1.657
       1.731
       1.742
       1.693
       1.592
       1.448
       1.274
       1.077
       0.866
       0.650
       0.438
       0.233
       0.037
      -0.153
      -0.341
      -0.532
      -0.733
      -0.943
      -1.154
      -1.353
      -1.521
      -1.645
      -1.713
      -1.710
      -1.623
      -1.446
      -1.198
      -0.916
      -0.646
      -0.426
      -0.274
      -0.188
      -0.156
      -0.153
      -0.151
      -0.115
      -0.012
       0.174
       0.441
       0.767
       1.122
       1.472
       1.775
       1.986
       2.069
       2.016
       1.848
       1.601
       1.306
       0.983
       0.637
       0.280
      -0.067
      -0.365
      -0.579
      -0.690
      -0.701
      -0.637
      -0.527
      -0.399
      -0.273
      -0.167
      -0.088
      -0.040
      -0.017
      -0.005
       0.005
       0.016
       0.019
       0.012
       0.000
       0.000
       0.020
       0.045
       0.040
      -0.031
      -0.179
      -0.387
      -0.625
      -0.869
      -1.108
      -1.328
      -1.509
      -1.623
      -1.652
      -1.592
      -1.446
      -1.215
      -0.896
      -0.487
      -0.008
       0.502
       1.001
       1.453
       1.836
       2.132
       2.329
       2.418
       2.402
       2.292
       2.099
       1.840
       1.524
       1.164
       0.773
       0.375
      -0.003
      -0.340
      -0.632
      -0.886
      -1.107
      -1.298
      -1.464
      -1.614
      -1.750
      -1.849
      -1.865
      -1.758
      -1.523
      -1.196
      -0.826
      -0.444
      -0.065
       0.296
       0.606
       0.833
       0.960
       0.995
       0.956
       0.855
       0.692
       0.464
       0.184
      -0.122
      -0.423
      -0.691
      -0.912
      -1.076
      -1.179
      -1.218
      -1.195
      -1.104
      -0.940
      -0.695
      -0.370
       0.023
       0.453
       0.884
       1.285
       1.642
       1.942
       2.166
       2.274
       2.233
       2.040
       1.733
       1.372
       1.002
       0.644
       0.306
      -0.005
      -0.273
      -0.496
      -0.690
      -0.883
      -1.093
      -1.324
      -1.551
      -1.733
      -1.825
      -1.795
      -1.645
      -1.405
      -1.109
      -0.767
      -0.372
       0.068
       0.508
       0.881
       1.143
       1.302
       1.399
       1.454
       1.445
       1.328
       1.087
       0.759
       0.415
       0.109
      -0.147
      -0.367
      -0.553
      -0.684
      -0.729
      -0.674
      -0.539
      -0.361
      -0.178
      -0.027
       0.068
       0.097
       0.077
       0.039
       0.016
       0.023
       0.061
       0.128
       0.226
       0.351
       0.485
       0.593
       0.630
       0.557
       0.363
       0.068
      -0.282
      -0.637
      -0.958
      -1.218
      -1.391
      -1.446
      -1.361
      -1.139
      -0.816
      -0.444
      -0.071
       0.270
       0.553
       0.753
       0.856
       0.863
       0.795
       0.683
       0.563
       0.461
       0.386
       0.327
       0.266
       0.193
       0.105
       0.005
      -0.108
      -0.230
      -0.354
      -0.461
      -0.532
      -0.546
      -0.495
      -0.386
      -0.239
      -0.078
       0.081
       0.229
       0.357
       0.447
       0.483
       0.461
       0.395
       0.311
       0.233
       0.178
       0.146
       0.128
       0.109
       0.084
       0.057
       0.039
       0.037
       0.045
       0.053
       0.052
       0.042
       0.024
      -0.001
      -0.030
      -0.056
      -0.060
      -0.025
       0.055
       0.164
       0.273
       0.358
       0.405
       0.410
       0.370
       0.284
       0.159
       0.012
      -0.143
      -0.297
      -0.446
      -0.584
      -0.696
      -0.763
      -0.772
      -0.734
      -0.673
      -0.614
      -0.569
      -0.534
      -0.494
      -0.427
      -0.316
      -0.153
       0.065
       0.325
       0.604
       0.862
       1.055
       1.155
       1.158
       1.084
       0.957
       0.792
       0.594
       0.364
       0.117
      -0.117
      -0.303
      -0.420
      -0.473
      -0.486
      -0.496
      -0.528
      -0.591
      -0.666
      -0.723
      -0.732
      -0.678
      -0.563
      -0.400
      -0.207
       0.000
       0.200
       0.374
       0.505
       0.585
       0.615
       0.604
       0.564
       0.501
       0.412
       0.293
       0.146
      -0.015
      -0.169
      -0.299
      -0.391
      -0.435
      -0.420
      -0.342
      -0.210
      -0.043
       0.136
       0.311
       0.466
       0.588
       0.654
       0.645
       0.552
       0.384
       0.169
      -0.045
      -0.212
      -0.303
      -0.309
      -0.246
      -0.144
      -0.034
       0.055
       0.098
       0.079
      -0.005
      -0.140
      -0.296
      -0.441
      -0.547
      -0.603
      -0.601
      -0.538
      -0.412
      -0.229
      -0.004
       0.235
       0.456
       0.629
       0.727
       0.736
       0.652
       0.482
       0.242
      -0.046
      -0.348
      -0.625
      -0.828
      -0.914
      -0.860
      -0.679
      -0.413
      -0.122
       0.138
       0.329
       0.432
       0.448
       0.387
       0.267
       0.109
      -0.069
      -0.242
      -0.381
      -0.459
      -0.465
      -0.404
      -0.296
      -0.160
      -0.014
       0.130
       0.259
       0.365
       0.448
       0.516
       0.581
       0.645
       0.694
       0.703
       0.651
       0.530
       0.356
       0.159
      -0.031
      -0.197
      -0.337
      -0.450
      -0.528
      -0.552
      -0.502
      -0.373
      -0.189
       0.002
       0.143
       0.190
       0.128
      -0.024
      -0.217
      -0.396
      -0.514
      -0.547
      -0.489
      -0.349
      -0.141
       0.115
       0.394
       0.659
       0.869
       0.991
       1.012
       0.944
       0.813
       0.645
       0.464
       0.285
       0.114
      -0.048
      -0.199
      -0.334
      -0.441
      -0.505
      -0.518
      -0.483
      -0.412
      -0.322
      -0.231
      -0.154
      -0.103
      -0.088
      -0.110
      -0.156
      -0.203
      -0.232
      -0.236
      -0.220
      -0.193
      -0.156
      -0.111
      -0.059
      -0.004
       0.050
       0.103
       0.155
       0.195
       0.204
       0.163
       0.073
      -0.045
      -0.152
      -0.214
      -0.219
      -0.173
      -0.098
      -0.012
       0.073
       0.150
       0.213
       0.252
       0.256
       0.220
       0.147
       0.046
      -0.065
      -0.164
      -0.225
      -0.232
      -0.181
      -0.090
       0.016
       0.110
       0.175
       0.203
       0.190
       0.137
       0.047
      -0.066
      -0.178
      -0.263
      -0.301
      -0.290
      -0.242
      -0.178
      -0.113
      -0.056
       0.000
       0.067
       0.156
       0.261
       0.362
       0.432
       0.455
       0.429
       0.367
       0.288
       0.209
