Origin Time       21/9/2009 9:43:47	 
Lat.              30.9 N	
Long.             79.1 E	
Depth (Km)         13.0
Magnitude         4.7
 Region           UTTARKASHI-UTTARAKHAND                                           
 Above details taken from IMD 
   
Station Code      BHA
Station Lat.       31.552
Station Long.      77.923
Station Height(m) 1566.0
Site Class        A   Vs30 between 700 m/sec to 1400 m/sec * 
Record Time       21.09.2009 09:43:51.189
Sampling Rate     200. Hz
 Record Duration   86.870 Sec.
 Direction         Vert. (Up positive)
Max. Acceleration     -4.033 cm/sec**2
     
  * For reference see Site Classification link of website 
     
 Base Line Corrected and Low Pass Filtered (Cut Off at 35 Hz) Time History
 Acceleration data in cm/sec**2
    
[...]
      -0.571
      -0.549
      -0.393
      -0.179
      -0.021
       0.024
       0.007
       0.039
       0.184
       0.393
       0.553
       0.583
       0.492
       0.337
       0.168
      -0.001
      -0.170
      -0.333
      -0.482
      -0.605
      -0.673
      -0.638
      -0.471
      -0.208
       0.057
       0.229
       0.281
       0.279
       0.328
       0.491
       0.728
       0.909
       0.892
       0.620
       0.164
      -0.316
      -0.669
      -0.845
      -0.891
      -0.876
      -0.817
      -0.680
      -0.435
      -0.111
       0.213
       0.459
       0.602
       0.670
       0.716
       0.779
       0.856
       0.902
       0.852
       0.660
       0.332
      -0.078
      -0.503
      -0.879
      -1.149
      -1.261
      -1.181
      -0.916
      -0.515
      -0.043
       0.425
       0.800
       0.981
       0.903
       0.595
       0.199
      -0.105
      -0.212
      -0.159
      -0.079
      -0.086
      -0.182
      -0.270
      -0.253
      -0.122
       0.042
       0.132
       0.092
      -0.059
      -0.241
      -0.347
      -0.299
      -0.107
       0.115
       0.214
       0.118
      -0.101
      -0.288
      -0.327
      -0.223
      -0.073
       0.031
       0.069
       0.086
       0.140
       0.254
       0.411
       0.564
       0.655
       0.638
       0.494
       0.241
      -0.072
      -0.378
      -0.608
      -0.712
      -0.683
      -0.561
      -0.423
      -0.325
      -0.267
      -0.193
      -0.056
       0.139
       0.336
       0.488
       0.583
       0.636
       0.641
       0.555
       0.326
      -0.042
      -0.452
      -0.749
      -0.818
      -0.663
      -0.400
      -0.161
      -0.002
       0.109
       0.222
       0.331
       0.373
       0.274
       0.023
      -0.298
      -0.538
      -0.553
      -0.312
       0.063
       0.366
       0.440
       0.289
       0.061
      -0.069
      -0.023
       0.140
       0.297
       0.361
       0.328
       0.256
       0.198
       0.166
       0.140
       0.086
      -0.019
      -0.172
      -0.342
      -0.481
      -0.550
      -0.542
      -0.482
      -0.395
      -0.283
      -0.138
       0.029
       0.184
       0.300
       0.387
       0.477
       0.585
       0.677
       0.684
       0.562
       0.331
       0.066
      -0.151
      -0.281
      -0.343
      -0.384
      -0.437
      -0.488
      -0.490
      -0.412
      -0.275
      -0.136
      -0.050
      -0.036
      -0.072
      -0.119
      -0.143
      -0.126
      -0.067
       0.038
       0.197
       0.398
       0.586
       0.667
       0.580
       0.351
       0.096
      -0.071
      -0.130
      -0.155
      -0.228
      -0.352
      -0.445
      -0.423
      -0.271
      -0.056
       0.124
       0.191
       0.121
      -0.045
      -0.220
      -0.314
      -0.293
      -0.197
      -0.104
      -0.047
       0.015
       0.150
       0.389
       0.682
       0.933
       1.045
       0.957
       0.665
       0.225
      -0.249
      -0.635
      -0.862
      -0.954
      -1.003
      -1.080
      -1.170
      -1.171
      -0.971
      -0.539
       0.045
       0.619
       1.031
       1.218
       1.229
       1.172
       1.125
       1.077
       0.952
       0.683
       0.275
      -0.192
      -0.605
      -0.880
      -1.003
      -1.019
      -0.988
      -0.925
      -0.808
      -0.611
      -0.354
      -0.087
       0.145
       0.323
       0.438
       0.475
       0.424
       0.303
       0.169
       0.091
       0.113
       0.220
       0.336
       0.368
       0.280
       0.125
       0.013
       0.014
       0.092
       0.132
       0.037
      -0.183
      -0.424
      -0.589
      -0.663
      -0.699
      -0.735
      -0.749
      -0.684
      -0.514
      -0.266
       0.005
       0.262
       0.498
       0.708
       0.875
       0.966
       0.958
       0.862
       0.720
       0.577
       0.453
       0.323
       0.157
      -0.054
      -0.275
      -0.461
      -0.583
      -0.634
      -0.620
      -0.543
      -0.401
      -0.204
       0.008
       0.170
       0.227
       0.168
       0.025
      -0.154
      -0.334
      -0.481
      -0.552
      -0.501
      -0.315
      -0.048
       0.198
       0.339
       0.372
       0.375
       0.445
       0.615
       0.823
       0.936
       0.824
       0.453
      -0.069
      -0.521
      -0.701
      -0.557
      -0.222
       0.079
       0.177
       0.053
      -0.188
      -0.414
      -0.557
      -0.620
      -0.629
      -0.585
      -0.468
      -0.266
      -0.003
       0.264
       0.473
       0.576
       0.562
       0.456
       0.300
       0.123
      -0.066
      -0.264
      -0.443
      -0.551
      -0.551
      -0.463
      -0.351
      -0.265
      -0.182
      -0.021
       0.274
       0.643
       0.917
       0.938
       0.692
       0.331
       0.054
      -0.049
      -0.047
      -0.077
      -0.198
      -0.340
      -0.372
      -0.231
       0.003
       0.155
       0.079
      -0.225
      -0.586
      -0.768
      -0.619
      -0.168
       0.393
       0.831
       1.008
       0.924
       0.678
       0.386
       0.123
      -0.089
      -0.265
      -0.426
      -0.570
      -0.659
      -0.650
      -0.541
      -0.377
      -0.208
      -0.043
       0.145
       0.362
       0.553
       0.626
       0.536
       0.328
       0.099
      -0.080
      -0.200
      -0.298
      -0.407
      -0.516
      -0.567
      -0.495
      -0.272
       0.047
       0.352
       0.545
       0.601
       0.570
       0.514
       0.451
       0.352
       0.195
      -0.007
      -0.211
      -0.386
      -0.522
      -0.605
      -0.596
      -0.461
      -0.236
      -0.036
       0.018
      -0.084
      -0.221
      -0.228
      -0.043
       0.237
       0.443
       0.470
       0.361
       0.249
       0.246
       0.356
       0.483
       0.507
       0.356
       0.039
      -0.355
      -0.693
      -0.847
      -0.762
      -0.485
      -0.148
       0.110
       0.214
       0.179
       0.080
      -0.009
      -0.045
      -0.029
       0.008
       0.031
       0.032
       0.045
       0.104
       0.196
       0.256
       0.227
       0.123
       0.021
       0.005
       0.088
       0.204
       0.252
       0.173
      -0.017
      -0.247
      -0.437
      -0.536
      -0.531
      -0.447
      -0.323
      -0.194
      -0.086
      -0.014
       0.003
      -0.043
      -0.118
      -0.146
      -0.049
       0.192
       0.512
       0.795
       0.922
       0.815
       0.469
      -0.022
      -0.476
      -0.715
      -0.684
      -0.487
      -0.299
      -0.211
      -0.166
      -0.034
       0.232
       0.528
       0.673
       0.573
       0.296
       0.012
      -0.150
      -0.182
      -0.180
      -0.230
      -0.335
      -0.421
      -0.410
      -0.298
      -0.161
      -0.094
      -0.134
      -0.220
      -0.235
      -0.096
       0.163
       0.406
       0.490
       0.381
       0.188
       0.081
       0.156
       0.349
       0.490
       0.448
       0.235
      -0.009
      -0.143
      -0.141
      -0.094
      -0.125
      -0.280
      -0.496
      -0.655
      -0.675
      -0.559
      -0.381
      -0.220
      -0.106
      -0.020
       0.071
       0.183
       0.317
       0.468
       0.618
       0.725
       0.747
       0.676
       0.554
       0.426
       0.295
       0.122
      -0.124
      -0.424
      -0.714
      -0.921
      -0.990
      -0.894
      -0.656
      -0.358
      -0.113
       0.001
      -0.009
      -0.059
      -0.054
       0.059
       0.254
       0.448
       0.546
       0.514
       0.404
       0.321
       0.323
       0.362
       0.336
       0.199
       0.020
      -0.092
      -0.097
      -0.069
      -0.109
      -0.238
      -0.378
      -0.433
      -0.365
      -0.217
      -0.062
       0.053
       0.123
       0.163
       0.175
       0.140
       0.036
      -0.132
      -0.315
      -0.443
      -0.476
      -0.426
      -0.352
      -0.301
      -0.270
      -0.204
      -0.049
       0.191
       0.444
       0.620
       0.674
       0.629
       0.556
       0.513
       0.503
       0.478
       0.374
       0.163
      -0.131
      -0.437
      -0.674
      -0.787
      -0.772
      -0.666
      -0.515
      -0.342
      -0.149
       0.063
       0.261
       0.384
       0.377
       0.234
       0.014
      -0.192
      -0.307
      -0.307
      -0.223
      -0.099
       0.051
       0.245
       0.486
       0.716
       0.829
       0.743
       0.473
       0.138
      -0.114
      -0.205
      -0.159
      -0.075
      -0.059
      -0.159
      -0.347
      -0.535
      -0.632
      -0.608
      -0.510
      -0.421
      -0.370
      -0.317
      -0.203
      -0.035
       0.113
       0.172
       0.157
       0.150
       0.207
       0.299
       0.343
       0.301
       0.224
       0.215
       0.329
       0.519
       0.660
       0.641
       0.443
       0.134
      -0.180
      -0.427
      -0.590
      -0.690
      -0.749
      -0.770
      -0.726
      -0.592
      -0.370
      -0.106
       0.131
       0.289
       0.354
       0.354
       0.329
       0.313
       0.318
       0.341
       0.366
       0.372
       0.350
       0.310
       0.265
       0.213
       0.133
       0.002
      -0.169
      -0.335
      -0.444
      -0.483
      -0.489
      -0.515
      -0.578
      -0.630
      -0.594
      -0.423
      -0.139
       0.179
       0.447
       0.622
       0.711
       0.747
       0.754
       0.726
       0.626
       0.430
       0.164
      -0.096
      -0.275
      -0.359
      -0.407
      -0.487
      -0.604
      -0.692
      -0.688
      -0.600
      -0.495
      -0.419
      -0.347
      -0.214
       0.003
       0.257
       0.471
       0.612
       0.702
       0.773
       0.827
       0.840
       0.794
       0.686
       0.518
       0.297
       0.051
      -0.160
      -0.275
      -0.284
      -0.262
      -0.323
      -0.525
      -0.807
      -1.029
      -1.072
      -0.929
      -0.692
      -0.471
      -0.321
      -0.232
      -0.180
      -0.147
      -0.112
      -0.038
       0.116
       0.352
       0.625
       0.871
       1.039
       1.097
       1.036
       0.863
       0.610
       0.327
       0.046
      -0.235
      -0.537
      -0.857
      -1.134
      -1.264
      -1.165
      -0.843
      -0.407
      -0.003
       0.273
       0.426
       0.521
       0.601
       0.643
       0.607
       0.493
       0.357
       0.248
       0.167
       0.097
       0.058
       0.101
       0.229
       0.360
       0.387
       0.276
       0.094
      -0.067
      -0.181
      -0.309
      -0.521
      -0.799
      -1.011
      -1.001
      -0.716
      -0.270
       0.118
       0.285
       0.227
       0.075
      -0.047
      -0.116
      -0.197
      -0.338
      -0.499
      -0.575
      -0.476
      -0.191
       0.206
       0.597
       0.861
       0.919
       0.756
       0.431
       0.049
      -0.291
      -0.533
      -0.667
      -0.703
      -0.655
      -0.542
      -0.403
      -0.303
      -0.296
      -0.381
      -0.472
      -0.455
      -0.268
       0.051
       0.408
       0.744
       1.066
       1.397
       1.699
       1.869
       1.796
       1.446
       0.898
       0.315
      -0.136
      -0.378
      -0.468
      -0.555
      -0.757
      -1.053
      -1.295
      -1.328
      -1.125
      -0.800
      -0.501
      -0.306
      -0.195
      -0.107
      -0.016
       0.062
       0.093
       0.073
       0.057
       0.123
       0.314
       0.580
       0.793
       0.831
       0.655
       0.318
      -0.095
      -0.518
      -0.904
      -1.191
      -1.306
      -1.210
      -0.936
      -0.572
      -0.212
       0.088
       0.312
       0.457
       0.536
       0.575
       0.608
       0.657
       0.714
       0.760
       0.774
       0.743
       0.656
       0.526
       0.400
       0.336
       0.354
       0.399
       0.366
       0.179
      -0.157
      -0.565
      -0.957
      -1.282
      -1.512
      -1.602
      -1.473
      -1.073
      -0.464
       0.179
       0.653
       0.855
       0.831
       0.710
       0.587
       0.473
       0.321
       0.105
      -0.143
      -0.363
      -0.532
      -0.689
      -0.891
      -1.135
      -1.321
      -1.304
      -1.000
      -0.443
       0.233
       0.877
       1.374
       1.660
       1.706
       1.526
       1.181
       0.782
       0.452
       0.282
       0.290
       0.415
       0.543
       0.560
       0.400
       0.078
      -0.330
      -0.734
      -1.061
      -1.249
      -1.236
      -0.972
      -0.491
       0.059
       0.481
       0.656
       0.638
       0.596
       0.645
       0.724
       0.642
       0.282
      -0.242
      -0.660
      -0.776
      -0.644
      -0.492
      -0.473
      -0.505
      -0.388
      -0.075
       0.205
       0.114
      -0.488
      -1.399
      -2.224
      -2.674
      -2.734
      -2.564
      -2.277
      -1.833
      -1.143
      -0.232
       0.726
       1.524
       2.074
       2.435
       2.716
       2.960
       3.127
       3.169
       3.104
       2.988
       2.845
       2.634
       2.307
       1.854
       1.291
       0.601
      -0.266
      -1.315
      -2.425
      -3.363
      -3.917
      -4.033
      -3.849
      -3.565
      -3.282
      -2.927
      -2.336
      -1.442
      -0.380
       0.579
       1.224
       1.553
       1.738
       1.952
       2.213
       2.400
       2.388
       2.180
       1.892
       1.624
       1.354
       0.966
       0.370
      -0.388
      -1.153
      -1.774
      -2.198
      -2.461
      -2.608
      -2.635
      -2.498
      -2.171
      -1.682
      -1.107
      -0.531
      -0.003
       0.478
       0.956
       1.483
       2.081
       2.710
       3.266
       3.639
       3.760
       3.622
       3.252
       2.682
       1.938
       1.069
       0.177
      -0.596
      -1.133
      -1.419
      -1.557
      -1.699
      -1.943
      -2.270
      -2.570
      -2.711
      -2.622
      -2.329
      -1.946
      -1.616
      -1.425
      -1.333
      -1.199
      -0.875
      -0.300
       0.462
       1.273
       1.991
       2.508
       2.763
       2.745
       2.500
       2.118
       1.685
       1.254
       0.827
       0.384
      -0.078
      -0.518
      -0.855
      -1.005
      -0.952
      -0.783
      -0.669
      -0.768
      -1.124
      -1.629
      -2.079
      -2.299
      -2.231
      -1.954
      -1.615
      -1.311
      -1.019
      -0.626
      -0.043
       0.698
       1.436
       1.972
       2.197
       2.159
       2.029
       1.976
       2.060
       2.198
       2.222
       1.983
       1.419
       0.572
      -0.429
      -1.394
      -2.122
      -2.472
      -2.450
      -2.227
      -2.029
      -1.984
      -2.038
      -2.020
      -1.797
      -1.370
      -0.843
      -0.323
       0.151
       0.583
       0.952
       1.195
       1.266
       1.196
       1.087
       1.023
       1.006
       0.982
       0.927
       0.884
       0.929
       1.077
       1.237
       1.265
       1.052
       0.594
      -0.005
      -0.600
      -1.078
      -1.401
      -1.596
      -1.700
      -1.699
      -1.534
      -1.171
      -0.676
      -0.195
       0.151
       0.362
       0.530
       0.721
       0.907
       1.018
       1.044
       1.064
       1.165
       1.353
       1.546
       1.638
       1.546
       1.233
       0.705
       0.030
      -0.670
      -1.282
      -1.774
      -2.193
      -2.580
      -2.858
      -2.840
      -2.362
      -1.438
      -0.298
       0.732
       1.417
       1.726
       1.794
       1.777
       1.731
       1.607
       1.348
       0.979
       0.610
       0.365
       0.298
       0.364
       0.451
       0.442
       0.273
      -0.054
      -0.490
      -0.975
      -1.452
      -1.842
      -2.040
      -1.954
      -1.592
      -1.086
      -0.608
      -0.248
       0.041
       0.361
       0.736
       1.080
       1.267
       1.242
       1.041
       0.746
       0.427
       0.136
      -0.063
      -0.110
       0.021
       0.284
       0.567
       0.741
       0.738
       0.589
       0.393
       0.233
       0.104
      -0.076
      -0.374
      -0.752
      -1.075
      -1.219
      -1.168
      -1.012
      -0.857
      -0.750
      -0.686
      -0.653
      -0.638
      -0.619
      -0.563
      -0.452
      -0.305
      -0.163
      -0.059
       0.011
       0.092
       0.246
       0.516
       0.898
       1.328
       1.710
       1.959
       2.034
       1.952
       1.757
       1.491
       1.166
       0.765
       0.275
      -0.280
      -0.825
      -1.253
      -1.466
      -1.429
      -1.193
      -0.886
      -0.656
      -0.591
      -0.662
      -0.740
      -0.686
      -0.461
      -0.161
       0.059
       0.115
       0.071
       0.077
       0.222
       0.433
       0.529
       0.375
       0.007
      -0.386
      -0.606
      -0.579
      -0.388
      -0.192
      -0.116
      -0.167
      -0.248
      -0.235
      -0.078
       0.161
       0.365
       0.466
       0.493
       0.524
       0.611
       0.735
       0.832
       0.836
       0.714
       0.463
       0.100
      -0.354
      -0.868
      -1.386
      -1.807
      -1.995
      -1.844
      -1.372
      -0.758
      -0.271
      -0.121
      -0.323
      -0.668
      -0.844
      -0.617
       0.022
       0.868
       1.652
       2.213
       2.551
       2.737
       2.779
       2.575
       2.017
       1.145
       0.182
      -0.595
      -1.029
      -1.161
      -1.158
      -1.169
      -1.227
      -1.241
      -1.090
      -0.740
      -0.297
       0.058
       0.204
       0.166
       0.078
       0.046
       0.040
      -0.060
      -0.335
      -0.708
      -0.992
      -1.029
      -0.824
      -0.527
      -0.297
      -0.164
      -0.027
       0.218
       0.545
       0.799
       0.831
       0.633
       0.343
       0.139
       0.118
       0.262
       0.485
       0.685
       0.774
       0.703
       0.495
       0.262
       0.157
       0.275
       0.582
       0.925
       1.134
       1.130
       0.949
       0.676
       0.356
      -0.046
      -0.591
      -1.290
      -2.049
      -2.693
      -3.029
      -2.946
      -2.482
      -1.813
      -1.153
      -0.630
      -0.257
       0.015
       0.216
       0.353
       0.458
       0.610
       0.893
       1.310
       1.754
       2.056
       2.081
       1.801
       1.299
       0.710
       0.169
      -0.238
      -0.480
      -0.572
      -0.553
      -0.465
      -0.347
      -0.223
      -0.125
      -0.110
      -0.254
      -0.596
      -1.075
      -1.513
      -1.702
      -1.539
      -1.096
      -0.555
      -0.067
       0.346
       0.758
       1.229
       1.714
       2.064
       2.117
       1.798
       1.175
       0.435
      -0.206
      -0.615
      -0.791
      -0.829
      -0.822
      -0.794
      -0.701
      -0.493
      -0.166
       0.208
