Origin Time       21/9/2009 9:43:47	  UTC
Lat.              30.9 N	
Long.             79.1 E	
Depth (Km)         13.0
Magnitude         4.7
 Region           UTTARKASHI-UTTARAKHAND                                           
 Above details taken from IMD 
    
Station Code      BHA
Station Lat.       31.552  N
Station Long.      77.923  E
Station Height(m) 1566.0
Site Class        A   Vs30 between 700 m/sec to 1400 m/sec * 
Record Time       21.09.2009 09:43:51.189 UTC
Sampling Rate     200. Hz
 Record Duration   86.870 Sec.
 Direction         N-S (N positive)
Max. Acceleration     10.096 cm/sec**2
     
  * For reference see Site Classification link of website 
     
 Base Line Corrected and Low Pass Filtered (Cut Off at 35 Hz) Time History
 Acceleration data in cm/sec**2
    
[...]
       0.181
      -0.107
      -0.360
      -0.547
      -0.673
      -0.762
      -0.820
      -0.818
      -0.705
      -0.458
      -0.095
       0.317
       0.696
       0.958
       1.061
       1.013
       0.864
       0.670
       0.470
       0.276
       0.090
      -0.098
      -0.291
      -0.473
      -0.612
      -0.679
      -0.673
      -0.618
      -0.536
      -0.424
      -0.249
       0.011
       0.331
       0.639
       0.847
       0.907
       0.816
       0.600
       0.287
      -0.098
      -0.515
      -0.903
      -1.195
      -1.342
      -1.332
      -1.191
      -0.960
      -0.679
      -0.373
      -0.058
       0.252
       0.536
       0.771
       0.931
       0.994
       0.957
       0.839
       0.672
       0.488
       0.308
       0.133
      -0.040
      -0.210
      -0.351
      -0.425
      -0.397
      -0.268
      -0.083
       0.083
       0.162
       0.127
       0.012
      -0.112
      -0.174
      -0.142
      -0.034
       0.096
       0.190
       0.218
       0.184
       0.117
       0.049
       0.002
      -0.011
       0.019
       0.090
       0.180
       0.250
       0.264
       0.195
       0.036
      -0.209
      -0.520
      -0.855
      -1.149
      -1.321
      -1.312
      -1.115
      -0.779
      -0.378
       0.021
       0.372
       0.657
       0.880
       1.058
       1.197
       1.284
       1.292
       1.208
       1.052
       0.856
       0.632
       0.368
       0.055
      -0.275
      -0.558
      -0.742
      -0.820
      -0.831
      -0.809
      -0.751
      -0.625
      -0.416
      -0.154
       0.093
       0.257
       0.306
       0.257
       0.148
       0.017
      -0.112
      -0.227
      -0.319
      -0.387
      -0.428
      -0.431
      -0.377
      -0.260
      -0.109
       0.024
       0.096
       0.100
       0.080
       0.105
       0.224
       0.427
       0.646
       0.786
       0.774
       0.585
       0.255
      -0.129
      -0.452
      -0.615
      -0.570
      -0.325
       0.069
       0.528
       0.944
       1.217
       1.296
       1.195
       0.969
       0.677
       0.351
      -0.003
      -0.378
      -0.750
      -1.079
      -1.335
      -1.512
      -1.615
      -1.645
      -1.601
      -1.483
      -1.299
      -1.054
      -0.750
      -0.392
       0.006
       0.419
       0.821
       1.182
       1.479
       1.686
       1.772
       1.708
       1.491
       1.162
       0.803
       0.506
       0.331
       0.273
       0.266
       0.213
       0.051
      -0.215
      -0.521
      -0.792
      -0.985
      -1.092
      -1.125
      -1.105
      -1.051
      -0.976
      -0.889
      -0.785
      -0.636
      -0.396
      -0.027
       0.455
       0.971
       1.413
       1.692
       1.768
       1.640
       1.325
       0.851
       0.260
      -0.368
      -0.933
      -1.339
      -1.539
      -1.538
      -1.384
      -1.137
      -0.853
      -0.569
      -0.286
       0.016
       0.362
       0.745
       1.119
       1.410
       1.550
       1.511
       1.316
       1.015
       0.647
       0.224
      -0.241
      -0.694
      -1.054
      -1.257
      -1.292
      -1.204
      -1.048
      -0.854
      -0.625
      -0.356
      -0.070
       0.182
       0.355
       0.432
       0.434
       0.395
       0.334
       0.250
       0.138
       0.013
      -0.078
      -0.094
      -0.033
       0.055
       0.116
       0.132
       0.133
       0.165
       0.258
       0.393
       0.511
       0.539
       0.438
       0.223
      -0.043
      -0.284
      -0.442
      -0.483
      -0.404
      -0.229
      -0.008
       0.195
       0.337
       0.418
       0.468
       0.515
       0.546
       0.525
       0.430
       0.273
       0.077
      -0.156
      -0.442
      -0.787
      -1.165
      -1.519
      -1.775
      -1.867
      -1.753
      -1.435
      -0.955
      -0.384
       0.199
       0.717
       1.108
       1.342
       1.428
       1.417
       1.393
       1.422
       1.505
       1.564
       1.494
       1.249
       0.872
       0.459
       0.089
      -0.211
      -0.449
      -0.619
      -0.679
      -0.586
      -0.367
      -0.137
      -0.044
      -0.175
      -0.505
      -0.921
      -1.295
      -1.544
      -1.665
      -1.710
      -1.731
      -1.726
      -1.640
      -1.400
      -0.967
      -0.354
       0.374
       1.124
       1.796
       2.314
       2.636
       2.754
       2.687
       2.469
       2.128
       1.668
       1.079
       0.371
      -0.397
      -1.116
      -1.667
      -1.970
      -2.023
      -1.889
      -1.644
      -1.331
      -0.951
      -0.508
      -0.039
       0.382
       0.684
       0.839
       0.871
       0.829
       0.745
       0.607
       0.386
       0.076
      -0.284
      -0.628
      -0.892
      -1.043
      -1.064
      -0.953
      -0.717
      -0.383
      -0.004
       0.343
       0.586
       0.690
       0.659
       0.524
       0.329
       0.128
      -0.023
      -0.091
      -0.083
      -0.036
      -0.003
      -0.021
      -0.099
      -0.206
      -0.276
      -0.226
      -0.004
       0.379
       0.842
       1.264
       1.526
       1.558
       1.349
       0.932
       0.371
      -0.246
      -0.820
      -1.269
      -1.542
      -1.625
      -1.533
      -1.298
      -0.967
      -0.598
      -0.251
       0.028
       0.218
       0.332
       0.404
       0.473
       0.547
       0.600
       0.577
       0.427
       0.143
      -0.226
      -0.582
      -0.815
      -0.851
      -0.680
      -0.362
       0.004
       0.338
       0.621
       0.879
       1.129
       1.330
       1.415
       1.340
       1.122
       0.818
       0.476
       0.111
      -0.281
      -0.682
      -1.040
      -1.304
      -1.460
      -1.535
      -1.548
      -1.478
      -1.277
      -0.926
      -0.470
      -0.001
       0.388
       0.644
       0.772
       0.805
       0.777
       0.691
       0.543
       0.341
       0.138
       0.008
       0.014
       0.153
       0.348
       0.491
       0.510
       0.412
       0.254
       0.096
      -0.035
      -0.139
      -0.217
      -0.265
      -0.279
      -0.270
      -0.264
      -0.288
      -0.348
      -0.417
      -0.439
      -0.364
      -0.166
       0.131
       0.455
       0.705
       0.803
       0.744
       0.586
       0.403
       0.234
       0.075
      -0.097
      -0.292
      -0.499
      -0.682
      -0.800
      -0.829
      -0.778
      -0.684
      -0.592
      -0.514
      -0.423
      -0.275
      -0.056
       0.209
       0.475
       0.709
       0.894
       1.007
       1.011
       0.885
       0.656
       0.403
       0.219
       0.158
       0.215
       0.330
       0.429
       0.458
       0.386
       0.205
      -0.076
      -0.415
      -0.741
      -0.975
      -1.066
      -1.004
      -0.832
      -0.621
      -0.445
      -0.348
      -0.335
      -0.382
      -0.443
      -0.468
      -0.419
      -0.284
      -0.087
       0.129
       0.315
       0.437
       0.491
       0.493
       0.463
       0.408
       0.334
       0.260
       0.224
       0.260
       0.371
       0.519
       0.639
       0.659
       0.527
       0.241
      -0.138
      -0.504
      -0.754
      -0.832
      -0.763
      -0.625
      -0.494
      -0.391
      -0.290
      -0.161
      -0.004
       0.151
       0.277
       0.376
       0.483
       0.638
       0.849
       1.063
       1.189
       1.149
       0.915
       0.518
       0.029
      -0.461
      -0.863
      -1.111
      -1.196
      -1.162
      -1.078
      -0.992
      -0.914
      -0.822
      -0.695
      -0.532
      -0.341
      -0.129
       0.096
       0.312
       0.485
       0.584
       0.593
       0.516
       0.379
       0.228
       0.111
       0.057
       0.064
       0.113
       0.188
       0.268
       0.324
       0.324
       0.267
       0.198
       0.172
       0.211
       0.273
       0.281
       0.178
      -0.026
      -0.260
      -0.435
      -0.503
      -0.463
      -0.345
      -0.187
      -0.027
       0.108
       0.209
       0.283
       0.348
       0.417
       0.487
       0.529
       0.501
       0.376
       0.171
      -0.059
      -0.244
      -0.336
      -0.335
      -0.285
      -0.245
      -0.255
      -0.314
      -0.387
      -0.432
      -0.416
      -0.326
      -0.174
       0.004
       0.172
       0.319
       0.450
       0.564
       0.628
       0.592
       0.429
       0.173
      -0.091
      -0.274
      -0.334
      -0.297
      -0.228
      -0.180
      -0.173
      -0.196
      -0.221
      -0.218
      -0.166
      -0.075
       0.022
       0.085
       0.091
       0.044
      -0.026
      -0.079
      -0.085
      -0.039
       0.035
       0.098
       0.115
       0.073
      -0.006
      -0.073
      -0.075
       0.014
       0.177
       0.365
       0.513
       0.568
       0.511
       0.369
       0.192
       0.032
      -0.077
      -0.119
      -0.102
      -0.046
       0.025
       0.105
       0.195
       0.295
       0.386
       0.432
       0.403
       0.295
       0.130
      -0.053
      -0.226
      -0.384
      -0.538
      -0.699
      -0.859
      -0.999
      -1.096
      -1.127
      -1.069
      -0.920
      -0.692
      -0.416
      -0.122
       0.150
       0.365
       0.500
       0.561
       0.578
       0.587
       0.606
       0.625
       0.613
       0.542
       0.413
       0.251
       0.088
      -0.064
      -0.215
      -0.377
      -0.544
      -0.669
      -0.693
      -0.580
      -0.363
      -0.123
       0.062
       0.174
       0.243
       0.303
       0.349
       0.353
       0.297
       0.191
       0.065
      -0.065
      -0.207
      -0.365
      -0.516
      -0.614
      -0.627
      -0.561
      -0.455
      -0.353
      -0.276
      -0.227
      -0.188
      -0.132
      -0.034
       0.118
       0.321
       0.554
       0.773
       0.925
       0.972
       0.911
       0.775
       0.618
       0.501
       0.464
       0.505
       0.570
       0.574
       0.445
       0.162
      -0.245
      -0.709
      -1.159
      -1.534
      -1.794
      -1.908
      -1.869
      -1.690
      -1.403
      -1.039
      -0.617
      -0.158
       0.305
       0.746
       1.152
       1.521
       1.835
       2.054
       2.126
       2.020
       1.748
       1.367
       0.954
       0.577
       0.260
      -0.012
      -0.279
      -0.581
      -0.937
      -1.331
      -1.703
      -1.967
      -2.044
      -1.904
      -1.571
      -1.111
      -0.605
      -0.129
       0.267
       0.570
       0.806
       1.012
       1.214
       1.406
       1.572
       1.703
       1.800
       1.844
       1.794
       1.611
       1.299
       0.901
       0.474
       0.060
      -0.314
      -0.635
      -0.917
      -1.195
      -1.498
      -1.816
      -2.094
      -2.257
      -2.243
      -2.028
      -1.617
      -1.036
      -0.324
       0.468
       1.269
       1.999
       2.581
       2.960
       3.107
       3.028
       2.761
       2.371
       1.937
       1.520
       1.139
       0.748
       0.259
      -0.399
      -1.228
      -2.155
      -3.064
      -3.836
      -4.372
      -4.609
      -4.531
      -4.166
      -3.567
      -2.811
      -1.996
      -1.226
      -0.564
      -0.003
       0.538
       1.157
       1.890
       2.681
       3.418
       3.982
       4.287
       4.273
       3.924
       3.292
       2.502
       1.701
       0.984
       0.363
      -0.201
      -0.751
      -1.305
      -1.846
      -2.329
      -2.704
      -2.941
      -3.033
      -2.990
      -2.808
      -2.475
      -1.982
      -1.357
      -0.673
      -0.030
       0.488
       0.844
       1.037
       1.083
       0.999
       0.815
       0.579
       0.327
       0.070
      -0.213
      -0.551
      -0.955
      -1.402
      -1.828
      -2.130
      -2.207
      -1.990
      -1.478
      -0.739
       0.117
       0.972
       1.742
       2.381
       2.866
       3.180
       3.316
       3.296
       3.164
       2.964
       2.705
       2.358
       1.885
       1.295
       0.658
       0.083
      -0.341
      -0.593
      -0.702
      -0.713
      -0.652
      -0.533
      -0.375
      -0.210
      -0.065
       0.036
       0.081
       0.053
      -0.069
      -0.308
      -0.686
      -1.208
      -1.852
      -2.534
      -3.096
      -3.357
      -3.191
      -2.600
      -1.698
      -0.645
       0.413
       1.356
       2.081
       2.497
       2.558
       2.281
       1.751
       1.080
       0.360
      -0.349
      -1.011
      -1.601
      -2.089
      -2.422
      -2.516
      -2.293
      -1.751
      -0.996
      -0.193
       0.520
       1.088
       1.516
       1.817
       1.980
       1.993
       1.902
       1.815
       1.854
       2.068
       2.403
       2.746
       3.016
       3.203
       3.324
       3.370
       3.290
       3.039
       2.618
       2.064
       1.399
       0.608
      -0.335
      -1.401
      -2.509
      -3.573
      -4.555
      -5.454
      -6.262
      -6.941
      -7.448
      -7.758
      -7.861
      -7.734
      -7.339
      -6.631
      -5.587
      -4.225
      -2.610
      -0.845
       0.951
       2.672
       4.266
       5.743
       7.135
       8.416
       9.455
      10.062
      10.096
       9.540
       8.497
       7.113
       5.508
       3.764
       1.963
       0.217
      -1.353
      -2.683
      -3.801
      -4.787
      -5.677
      -6.402
      -6.826
      -6.840
      -6.431
      -5.667
      -4.641
      -3.420
      -2.070
      -0.690
       0.578
       1.608
       2.345
       2.798
       2.989
       2.918
       2.579
       2.007
       1.294
       0.565
      -0.081
      -0.600
      -1.000
      -1.309
      -1.545
      -1.716
      -1.833
      -1.910
      -1.939
      -1.874
      -1.657
      -1.257
      -0.694
      -0.033
       0.653
       1.319
       1.964
       2.618
       3.310
       4.037
       4.757
       5.394
       5.840
       5.972
       5.677
       4.899
       3.673
       2.132
       0.486
      -1.054
      -2.350
      -3.383
      -4.233
      -5.013
      -5.791
      -6.552
      -7.197
      -7.587
      -7.601
      -7.178
      -6.340
      -5.179
      -3.836
      -2.471
      -1.208
      -0.082
       0.962
       2.015
       3.118
       4.211
       5.156
       5.829
       6.199
       6.342
       6.356
       6.280
       6.075
       5.681
       5.081
       4.327
       3.524
       2.769
       2.113
       1.536
       0.959
       0.280
      -0.579
      -1.622
      -2.755
      -3.821
      -4.675
      -5.242
      -5.523
      -5.551
      -5.352
      -4.940
      -4.336
      -3.584
      -2.754
      -1.908
      -1.083
      -0.299
       0.415
       1.018
       1.485
       1.824
       2.065
       2.216
       2.241
       2.091
       1.744
       1.237
       0.654
       0.081
      -0.425
      -0.841
      -1.155
      -1.347
      -1.383
      -1.239
      -0.916
      -0.449
       0.094
       0.634
       1.108
       1.484
       1.758
       1.938
       2.028
       2.024
       1.904
       1.643
       1.234
       0.724
       0.210
      -0.218
      -0.527
      -0.753
      -0.956
      -1.166
      -1.372
      -1.553
      -1.711
      -1.858
      -1.982
      -2.029
      -1.936
      -1.675
      -1.273
      -0.795
      -0.314
       0.110
       0.428
       0.604
       0.622
       0.491
       0.262
       0.012
      -0.191
      -0.321
      -0.389
      -0.413
      -0.391
      -0.302
      -0.135
       0.088
       0.321
       0.514
       0.639
       0.710
       0.778
       0.901
       1.107
       1.372
       1.627
       1.800
       1.853
       1.793
       1.659
       1.486
       1.297
       1.093
       0.864
       0.593
       0.274
      -0.067
      -0.384
      -0.637
      -0.822
      -0.958
      -1.053
      -1.091
      -1.046
      -0.910
      -0.706
      -0.478
      -0.271
      -0.125
      -0.081
      -0.179
      -0.433
      -0.804
      -1.193
      -1.481
      -1.579
      -1.476
      -1.235
      -0.944
      -0.661
      -0.394
      -0.131
       0.113
       0.276
       0.290
       0.137
      -0.115
      -0.331
      -0.364
      -0.114
       0.421
       1.151
       1.942
       2.669
       3.250
       3.641
       3.819
       3.770
       3.487
       2.975
       2.258
       1.387
       0.454
      -0.422
      -1.127
      -1.626
      -1.999
      -2.396
      -2.916
      -3.522
      -4.062
      -4.374
      -4.388
      -4.141
      -3.730
      -3.238
      -2.708
      -2.154
      -1.577
      -0.971
      -0.310
       0.423
       1.204
       1.954
       2.574
       3.009
       3.279
       3.453
       3.581
       3.643
       3.557
       3.238
       2.675
       1.960
       1.242
       0.645
       0.213
      -0.091
      -0.340
      -0.591
      -0.847
      -1.051
      -1.120
      -0.993
      -0.670
      -0.217
       0.252
       0.620
       0.809
       0.797
       0.607
       0.265
      -0.214
      -0.822
      -1.535
      -2.300
      -3.043
      -3.686
      -4.165
      -4.419
      -4.403
      -4.095
      -3.519
      -2.722
      -1.738
      -0.573
       0.748
       2.121
       3.346
       4.201
       4.547
       4.393
       3.885
       3.226
       2.580
       2.007
       1.464
       0.877
       0.219
      -0.448
      -1.015
      -1.393
      -1.568
      -1.586
      -1.506
      -1.353
      -1.137
      -0.884
      -0.645
      -0.462
      -0.327
      -0.185
       0.028
       0.337
       0.711
       1.072
       1.342
       1.473
       1.462
       1.331
       1.108
       0.824
       0.512
       0.201
      -0.079
      -0.306
      -0.470
      -0.578
      -0.650
      -0.708
      -0.762
      -0.815
      -0.854
      -0.861
      -0.836
      -0.805
      -0.810
      -0.879
      -1.004
      -1.136
      -1.217
      -1.207
      -1.113
      -0.972
      -0.808
      -0.596
      -0.277
       0.180
       0.739
       1.294
       1.723
       1.942
       1.935
       1.756
       1.504
       1.292
       1.205
       1.269
       1.428
       1.564
       1.570
       1.420
       1.190
       0.985
       0.860
       0.790
       0.708
       0.569
       0.393
       0.246
       0.187
       0.224
       0.315
       0.404
       0.438
       0.368
       0.149
      -0.243
      -0.795
      -1.453
      -2.144
      -2.798
      -3.351
      -3.739
      -3.895
      -3.769
      -3.362
      -2.742
      -2.012
      -1.275
      -0.593
      -0.001
       0.482
       0.845
       1.085
       1.213
       1.250
       1.216
       1.132
       1.008
       0.846
       0.656
       0.473
       0.356
       0.354
       0.463
       0.622
       0.740
       0.762
       0.709
       0.644
       0.619
       0.637
       0.681
       0.754
       0.881
       1.066
       1.270
       1.431
       1.508
       1.516
       1.503
       1.499
