Origin Time       21/9/2009 9:43:47	 
Lat.              30.9 N	
Long.             79.1 E	
Depth (Km)         13.0
Magnitude         4.7
 Region           UTTARKASHI-UTTARAKHAND                                           
 Above details taken from IMD 
     
Station Code      BHA
Station Lat.       31.552  N
Station Long.      77.923  E
Station Height(m) 1566.0
Site Class        A   Vs30 between 700 m/sec to 1400 m/sec * 
Record Time       21.09.2009 09:43:51.189
Sampling Rate     200. Hz
 Record Duration   86.870 Sec.
 Direction         E-W (E positive)
Max. Acceleration      5.352 cm/sec**2
     
  * For reference see Site Classification link of website 
     
 Base Line Corrected and Low Pass Filtered (Cut Off at 35 Hz) Time History
 Acceleration data in cm/sec**2
    
[...]
       0.139
      -0.152
      -0.328
      -0.365
      -0.279
      -0.121
       0.030
       0.111
       0.106
       0.056
       0.019
       0.022
       0.035
       0.000
      -0.120
      -0.300
      -0.461
      -0.530
      -0.493
      -0.403
      -0.332
      -0.323
      -0.361
      -0.398
      -0.400
      -0.370
      -0.341
      -0.338
      -0.353
      -0.349
      -0.291
      -0.178
      -0.043
       0.074
       0.158
       0.222
       0.285
       0.337
       0.351
       0.304
       0.212
       0.125
       0.097
       0.152
       0.275
       0.430
       0.582
       0.713
       0.823
       0.913
       0.976
       0.987
       0.915
       0.741
       0.476
       0.165
      -0.136
      -0.390
      -0.589
      -0.742
      -0.856
      -0.926
      -0.936
      -0.876
      -0.750
      -0.578
      -0.378
      -0.158
       0.077
       0.297
       0.442
       0.453
       0.313
       0.064
      -0.218
      -0.466
      -0.649
      -0.769
      -0.834
      -0.846
      -0.788
      -0.643
      -0.402
      -0.090
       0.234
       0.506
       0.683
       0.770
       0.802
       0.816
       0.829
       0.828
       0.793
       0.714
       0.600
       0.463
       0.318
       0.174
       0.046
      -0.039
      -0.055
       0.003
       0.112
       0.218
       0.258
       0.195
       0.035
      -0.186
      -0.423
      -0.650
      -0.857
      -1.025
      -1.120
      -1.105
      -0.965
      -0.721
      -0.423
      -0.120
       0.159
       0.403
       0.603
       0.740
       0.793
       0.757
       0.646
       0.497
       0.351
       0.242
       0.182
       0.166
       0.170
       0.153
       0.076
      -0.078
      -0.283
      -0.471
      -0.567
      -0.528
      -0.364
      -0.131
       0.094
       0.243
       0.277
       0.191
       0.009
      -0.226
      -0.465
      -0.670
      -0.814
      -0.882
      -0.860
      -0.736
      -0.512
      -0.205
       0.147
       0.495
       0.785
       0.975
       1.044
       0.989
       0.829
       0.592
       0.321
       0.066
      -0.132
      -0.256
      -0.309
      -0.300
      -0.235
      -0.114
       0.059
       0.264
       0.476
       0.670
       0.829
       0.935
       0.960
       0.872
       0.658
       0.337
      -0.036
      -0.391
      -0.676
      -0.874
      -1.009
      -1.120
      -1.225
      -1.304
      -1.322
      -1.259
      -1.134
      -0.988
      -0.846
      -0.700
      -0.522
      -0.302
      -0.050
       0.208
       0.458
       0.694
       0.903
       1.054
       1.111
       1.061
       0.947
       0.844
       0.811
       0.847
       0.895
       0.887
       0.781
       0.575
       0.289
      -0.049
      -0.395
      -0.691
      -0.874
      -0.908
      -0.801
      -0.604
      -0.382
      -0.182
      -0.023
       0.099
       0.191
       0.256
       0.284
       0.266
       0.200
       0.107
       0.017
      -0.045
      -0.069
      -0.064
      -0.041
      -0.004
       0.038
       0.068
       0.055
      -0.033
      -0.211
      -0.457
      -0.711
      -0.892
      -0.933
      -0.814
      -0.563
      -0.232
       0.114
       0.420
       0.640
       0.759
       0.793
       0.774
       0.721
       0.624
       0.458
       0.219
      -0.047
      -0.268
      -0.385
      -0.387
      -0.313
      -0.221
      -0.154
      -0.121
      -0.103
      -0.073
      -0.017
       0.065
       0.161
       0.258
       0.328
       0.336
       0.249
       0.059
      -0.206
      -0.489
      -0.722
      -0.845
      -0.828
      -0.678
      -0.429
      -0.128
       0.178
       0.451
       0.662
       0.793
       0.831
       0.766
       0.597
       0.337
       0.016
      -0.326
      -0.626
      -0.815
      -0.835
      -0.676
      -0.389
      -0.058
       0.232
       0.440
       0.563
       0.627
       0.656
       0.667
       0.660
       0.627
       0.554
       0.431
       0.261
       0.068
      -0.120
      -0.283
      -0.414
      -0.518
      -0.595
      -0.643
      -0.652
      -0.616
      -0.527
      -0.380
      -0.175
       0.065
       0.291
       0.440
       0.472
       0.393
       0.248
       0.101
      -0.002
      -0.044
      -0.040
      -0.028
      -0.043
      -0.093
      -0.147
      -0.156
      -0.090
       0.043
       0.197
       0.322
       0.385
       0.381
       0.322
       0.229
       0.125
       0.032
      -0.045
      -0.120
      -0.216
      -0.343
      -0.476
      -0.559
      -0.543
      -0.413
      -0.202
       0.029
       0.229
       0.368
       0.427
       0.386
       0.225
      -0.047
      -0.364
      -0.619
      -0.727
      -0.675
      -0.520
      -0.341
      -0.188
      -0.061
       0.072
       0.233
       0.415
       0.583
       0.693
       0.717
       0.664
       0.571
       0.485
       0.431
       0.397
       0.345
       0.243
       0.092
      -0.073
      -0.200
      -0.259
      -0.255
      -0.225
      -0.207
      -0.212
      -0.212
      -0.158
      -0.019
       0.183
       0.375
       0.476
       0.450
       0.331
       0.197
       0.099
       0.034
      -0.049
      -0.186
      -0.372
      -0.558
      -0.703
      -0.798
      -0.855
      -0.874
      -0.824
      -0.666
      -0.397
      -0.064
       0.264
       0.533
       0.726
       0.855
       0.927
       0.933
       0.861
       0.717
       0.545
       0.398
       0.306
       0.255
       0.211
       0.152
       0.090
       0.052
       0.051
       0.066
       0.054
      -0.020
      -0.153
      -0.310
      -0.444
      -0.527
      -0.561
      -0.566
      -0.565
      -0.577
      -0.611
      -0.663
      -0.723
      -0.783
      -0.822
      -0.809
      -0.703
      -0.489
      -0.198
       0.103
       0.358
       0.563
       0.757
       0.970
       1.170
       1.280
       1.240
       1.064
       0.824
       0.586
       0.357
       0.103
      -0.184
      -0.452
      -0.607
      -0.601
      -0.476
      -0.348
      -0.315
      -0.384
      -0.469
      -0.463
      -0.323
      -0.096
       0.120
       0.250
       0.296
       0.320
       0.390
       0.518
       0.646
       0.692
       0.608
       0.410
       0.167
      -0.049
      -0.198
      -0.280
      -0.303
      -0.277
      -0.219
      -0.164
      -0.161
      -0.240
      -0.395
      -0.582
      -0.744
      -0.843
      -0.866
      -0.819
      -0.717
      -0.575
      -0.413
      -0.255
      -0.115
       0.019
       0.177
       0.390
       0.651
       0.910
       1.090
       1.135
       1.043
       0.865
       0.671
       0.520
       0.441
       0.435
       0.477
       0.531
       0.564
       0.548
       0.464
       0.292
       0.025
      -0.318
      -0.690
      -1.032
      -1.290
      -1.431
      -1.447
      -1.345
      -1.142
      -0.851
      -0.490
      -0.090
       0.286
       0.558
       0.678
       0.664
       0.595
       0.555
       0.568
       0.594
       0.571
       0.475
       0.332
       0.195
       0.103
       0.064
       0.058
       0.058
       0.037
      -0.015
      -0.096
      -0.190
      -0.274
      -0.325
      -0.338
      -0.324
      -0.304
      -0.298
      -0.308
      -0.326
      -0.328
      -0.288
      -0.185
      -0.011
       0.220
       0.460
       0.639
       0.701
       0.633
       0.481
       0.305
       0.143
      -0.007
      -0.157
      -0.296
      -0.388
      -0.401
      -0.342
      -0.255
      -0.186
      -0.141
      -0.087
       0.011
       0.149
       0.271
       0.312
       0.250
       0.135
       0.058
       0.080
       0.190
       0.307
       0.344
       0.270
       0.136
       0.025
      -0.002
       0.054
       0.136
       0.183
       0.161
       0.080
      -0.030
      -0.139
      -0.234
      -0.317
      -0.396
      -0.478
      -0.557
      -0.606
      -0.592
      -0.495
      -0.331
      -0.136
       0.054
       0.226
       0.379
       0.504
       0.581
       0.587
       0.525
       0.429
       0.349
       0.321
       0.351
       0.400
       0.407
       0.316
       0.107
      -0.184
      -0.485
      -0.730
      -0.886
      -0.964
      -0.994
      -0.984
      -0.910
      -0.728
      -0.418
      -0.019
       0.380
       0.684
       0.850
       0.899
       0.885
       0.851
       0.802
       0.722
       0.607
       0.476
       0.362
       0.279
       0.217
       0.149
       0.068
      -0.006
      -0.026
       0.036
       0.154
       0.242
       0.205
       0.012
      -0.276
      -0.552
      -0.738
      -0.831
      -0.878
      -0.921
      -0.956
      -0.952
      -0.881
      -0.750
      -0.583
      -0.398
      -0.201
       0.002
       0.189
       0.324
       0.377
       0.349
       0.280
       0.234
       0.259
       0.353
       0.465
       0.535
       0.531
       0.467
       0.381
       0.301
       0.230
       0.155
       0.065
      -0.037
      -0.129
      -0.191
      -0.213
      -0.200
      -0.168
      -0.127
      -0.081
      -0.025
       0.048
       0.141
       0.255
       0.380
       0.501
       0.600
       0.669
       0.722
       0.778
       0.838
       0.868
       0.821
       0.673
       0.440
       0.167
      -0.101
      -0.345
      -0.573
      -0.808
      -1.069
      -1.347
      -1.608
      -1.795
      -1.854
      -1.752
      -1.496
      -1.133
      -0.732
      -0.367
      -0.092
       0.073
       0.144
       0.162
       0.164
       0.169
       0.174
       0.167
       0.144
       0.113
       0.100
       0.136
       0.239
       0.394
       0.553
       0.657
       0.666
       0.570
       0.400
       0.222
       0.122
       0.171
       0.383
       0.703
       1.031
       1.277
       1.395
       1.378
       1.233
       0.980
       0.663
       0.358
       0.144
       0.056
       0.057
       0.064
       0.003
      -0.136
      -0.295
      -0.398
      -0.420
      -0.408
      -0.440
      -0.554
      -0.719
      -0.869
      -0.964
      -1.012
      -1.043
      -1.064
      -1.034
      -0.901
      -0.652
      -0.339
      -0.061
       0.099
       0.122
       0.064
       0.012
       0.029
       0.124
       0.262
       0.393
       0.488
       0.539
       0.555
       0.548
       0.526
       0.486
       0.423
       0.341
       0.264
       0.220
       0.212
       0.211
       0.174
       0.080
      -0.047
      -0.150
      -0.171
      -0.092
       0.052
       0.206
       0.332
       0.444
       0.581
       0.756
       0.925
       1.010
       0.961
       0.796
       0.571
       0.325
       0.047
      -0.294
      -0.698
      -1.110
      -1.439
      -1.602
      -1.565
      -1.357
      -1.066
      -0.787
      -0.573
      -0.411
      -0.268
      -0.127
      -0.006
       0.070
       0.093
       0.071
       0.014
      -0.073
      -0.173
      -0.246
      -0.238
      -0.132
       0.033
       0.168
       0.193
       0.077
      -0.160
      -0.467
      -0.786
      -1.062
      -1.252
      -1.325
      -1.276
      -1.134
      -0.959
      -0.803
      -0.669
      -0.501
      -0.236
       0.124
       0.492
       0.740
       0.793
       0.681
       0.510
       0.382
       0.327
       0.296
       0.227
       0.111
       0.004
      -0.017
       0.091
       0.329
       0.682
       1.141
       1.700
       2.307
       2.847
       3.168
       3.149
       2.770
       2.119
       1.352
       0.619
       0.010
      -0.458
      -0.820
      -1.124
      -1.409
      -1.692
      -1.963
      -2.193
      -2.347
      -2.405
      -2.362
      -2.217
      -1.954
      -1.570
      -1.099
      -0.621
      -0.228
       0.025
       0.142
       0.180
       0.206
       0.263
       0.359
       0.472
       0.576
       0.667
       0.770
       0.924
       1.145
       1.409
       1.665
       1.865
       1.999
       2.085
       2.133
       2.120
       2.008
       1.785
       1.497
       1.211
       0.958
       0.695
       0.341
      -0.153
      -0.752
      -1.360
      -1.877
      -2.250
      -2.465
      -2.524
      -2.419
      -2.142
      -1.703
      -1.146
      -0.527
       0.090
       0.624
       0.977
       1.060
       0.855
       0.439
      -0.049
      -0.483
      -0.784
      -0.917
      -0.861
      -0.617
      -0.243
       0.138
       0.376
       0.384
       0.183
      -0.120
      -0.406
      -0.615
      -0.740
      -0.788
      -0.734
      -0.534
      -0.172
       0.301
       0.775
       1.138
       1.329
       1.350
       1.239
       1.039
       0.788
       0.524
       0.294
       0.147
       0.131
       0.276
       0.574
       0.956
       1.312
       1.541
       1.593
       1.482
       1.265
       1.006
       0.745
       0.488
       0.214
      -0.108
      -0.500
      -0.950
      -1.414
      -1.828
      -2.143
      -2.360
      -2.523
      -2.684
      -2.867
      -3.051
      -3.180
      -3.180
      -2.995
      -2.614
      -2.088
      -1.509
      -0.970
      -0.514
      -0.125
       0.253
       0.670
       1.148
       1.683
       2.270
       2.917
       3.619
       4.326
       4.930
       5.303
       5.352
       5.057
       4.476
       3.709
       2.868
       2.045
       1.298
       0.646
       0.078
      -0.433
      -0.919
      -1.408
      -1.912
      -2.425
      -2.920
      -3.366
      -3.743
      -4.044
      -4.270
      -4.423
      -4.500
      -4.494
      -4.396
      -4.188
      -3.847
      -3.357
      -2.747
      -2.094
      -1.494
      -1.002
      -0.583
      -0.143
       0.397
       1.031
       1.676
       2.248
       2.724
       3.151
       3.592
       4.063
       4.510
       4.844
       4.990
       4.937
       4.731
       4.450
       4.158
       3.886
       3.629
       3.365
       3.073
       2.743
       2.370
       1.933
       1.384
       0.668
      -0.234
      -1.278
      -2.358
      -3.343
      -4.128
      -4.668
      -4.974
      -5.097
      -5.092
      -4.994
      -4.818
      -4.581
      -4.319
      -4.077
      -3.869
      -3.652
      -3.341
      -2.867
      -2.225
      -1.484
      -0.737
      -0.046
       0.576
       1.133
       1.615
       1.999
       2.276
       2.474
       2.627
       2.731
       2.738
       2.598
       2.306
       1.918
       1.520
       1.194
       0.985
       0.889
       0.885
       0.965
       1.143
       1.428
       1.785
       2.131
       2.388
       2.522
       2.555
       2.520
       2.423
       2.236
       1.930
       1.493
       0.933
       0.273
      -0.444
      -1.162
      -1.842
      -2.488
      -3.141
      -3.823
      -4.485
      -5.017
      -5.294
      -5.250
      -4.917
      -4.397
      -3.794
      -3.158
      -2.478
      -1.728
      -0.918
      -0.104
       0.641
       1.261
       1.735
       2.078
       2.343
       2.598
       2.893
       3.217
       3.480
       3.563
       3.391
       2.985
       2.441
       1.886
       1.420
       1.111
       0.992
       1.055
       1.246
       1.475
       1.641
       1.664
       1.513
       1.210
       0.820
       0.411
       0.016
      -0.358
      -0.714
      -1.026
      -1.246
      -1.319
      -1.225
      -0.999
      -0.736
      -0.565
      -0.595
      -0.857
      -1.282
      -1.743
      -2.128
      -2.387
      -2.520
      -2.531
      -2.401
      -2.114
      -1.695
      -1.219
      -0.781
      -0.471
      -0.342
      -0.404
      -0.598
      -0.801
      -0.872
      -0.724
      -0.356
       0.159
       0.737
       1.329
       1.942
       2.603
       3.312
       4.004
       4.548
       4.791
       4.631
       4.076
       3.254
       2.349
       1.517
       0.823
       0.248
      -0.261
      -0.733
      -1.154
      -1.495
      -1.741
      -1.912
      -2.053
      -2.202
      -2.371
      -2.540
      -2.667
      -2.715
      -2.667
      -2.525
      -2.304
      -2.023
      -1.697
      -1.341
      -0.983
      -0.682
      -0.521
      -0.556
      -0.755
      -0.991
      -1.104
      -0.995
      -0.661
      -0.156
       0.471
       1.207
       2.049
       2.950
       3.800
       4.455
       4.794
       4.775
       4.433
       3.844
       3.080
       2.200
       1.278
       0.416
      -0.275
      -0.736
      -0.999
      -1.159
      -1.310
      -1.494
      -1.694
      -1.875
      -2.018
      -2.134
      -2.262
      -2.430
      -2.635
      -2.822
      -2.915
      -2.866
      -2.699
      -2.504
      -2.382
      -2.370
      -2.410
      -2.375
      -2.149
      -1.682
      -1.011
      -0.221
       0.615
       1.462
       2.311
       3.140
       3.894
       4.494
       4.858
       4.927
       4.675
       4.129
       3.373
       2.530
       1.722
       1.029
       0.472
       0.025
      -0.358
      -0.710
      -1.034
      -1.299
      -1.469
      -1.543
      -1.565
      -1.579
      -1.577
      -1.500
      -1.287
      -0.943
      -0.540
      -0.176
       0.084
       0.233
       0.288
       0.250
       0.100
      -0.166
      -0.504
      -0.832
      -1.085
      -1.254
      -1.386
      -1.532
      -1.690
      -1.795
      -1.767
      -1.569
      -1.229
      -0.819
      -0.407
      -0.022
       0.337
       0.686
       1.026
       1.338
       1.596
       1.769
       1.824
       1.743
       1.546
       1.305
       1.123
       1.091
       1.242
       1.553
       1.974
       2.434
       2.853
       3.140
       3.215
       3.033
       2.604
       1.989
       1.274
       0.533
      -0.191
      -0.881
      -1.526
      -2.102
      -2.586
      -2.970
      -3.268
      -3.493
      -3.627
      -3.627
      -3.462
      -3.153
      -2.786
      -2.459
      -2.219
      -2.033
      -1.818
      -1.516
      -1.145
      -0.785
      -0.510
      -0.312
      -0.105
       0.212
       0.677
       1.244
       1.820
       2.311
       2.656
       2.833
       2.860
       2.792
       2.698
       2.632
       2.599
       2.563
       2.488
       2.375
       2.257
       2.156
       2.050
       1.884
       1.609
       1.214
       0.728
       0.195
      -0.355
      -0.920
      -1.523
      -2.177
      -2.855
      -3.484
      -3.983
      -4.312
      -4.484
      -4.538
      -4.485
      -4.290
      -3.901
      -3.299
      -2.526
      -1.666
      -0.797
       0.040
       0.853
       1.674
       2.507
       3.292
       3.922
       4.300
       4.394
       4.243
       3.915
       3.468
       2.939
       2.355
       1.750
       1.160
       0.618
       0.149
      -0.255
      -0.632
      -1.036
      -1.500
      -1.999
      -2.453
      -2.765
      -2.867
      -2.743
      -2.414
      -1.914
      -1.282
      -0.569
       0.145
       0.770
       1.231
       1.505
       1.618
       1.630
       1.608
       1.614
