Origin Time       17/9/2010 19:21:09	
Lat.              36.5 N	
Long.             70.8 E	
Depth (Km)        167.0
Magnitude         6.5
 Region           Hindukush                                                        
 Above details taken from IMD 
     
Station Code      BHA
Station Lat.       31.552  N
Station Long.      77.923  E
Station Height(m) 1566.0
Site Class        A   Vs30 between 700 m/sec to 1400 m/sec * 
Record Time       17.09.2010 19:23:56.629
Sampling Rate     200. Hz
 Record Duration   86.390 Sec.
 Direction         E-W (E positive)
Max. Acceleration      3.993 cm/sec**2
     
  * For reference see Site Classification link of website 
     
 Base Line Corrected and Low Pass Filtered (Cut Off at 35 Hz) Time History
 Acceleration data in cm/sec**2
    
[...]
      -0.381
      -0.309
      -0.234
      -0.163
      -0.095
      -0.021
       0.061
       0.150
       0.233
       0.297
       0.329
       0.329
       0.305
       0.269
       0.231
       0.192
       0.152
       0.106
       0.047
      -0.025
      -0.102
      -0.170
      -0.214
      -0.222
      -0.193
      -0.135
      -0.065
      -0.003
       0.037
       0.047
       0.025
      -0.023
      -0.085
      -0.149
      -0.206
      -0.251
      -0.284
      -0.305
      -0.318
      -0.330
      -0.340
      -0.344
      -0.330
      -0.292
      -0.224
      -0.130
      -0.017
       0.103
       0.215
       0.310
       0.381
       0.431
       0.467
       0.497
       0.520
       0.529
       0.519
       0.488
       0.442
       0.393
       0.349
       0.315
       0.286
       0.257
       0.225
       0.184
       0.128
       0.052
      -0.043
      -0.152
      -0.265
      -0.374
      -0.473
      -0.559
      -0.628
      -0.673
      -0.685
      -0.661
      -0.607
      -0.534
      -0.453
      -0.373
      -0.298
      -0.233
      -0.181
      -0.145
      -0.126
      -0.126
      -0.141
      -0.169
      -0.204
      -0.236
      -0.257
      -0.255
      -0.227
      -0.171
      -0.094
      -0.007
       0.080
       0.162
       0.241
       0.323
       0.407
       0.488
       0.552
       0.584
       0.575
       0.527
       0.451
       0.363
       0.273
       0.188
       0.108
       0.033
      -0.040
      -0.115
      -0.188
      -0.252
      -0.293
      -0.303
      -0.278
      -0.222
      -0.144
      -0.053
       0.047
       0.153
       0.266
       0.383
       0.502
       0.620
       0.731
       0.827
       0.894
       0.919
       0.889
       0.804
       0.670
       0.505
       0.325
       0.144
      -0.025
      -0.175
      -0.302
      -0.407
      -0.493
      -0.564
      -0.622
      -0.669
      -0.704
      -0.726
      -0.735
      -0.731
      -0.716
      -0.695
      -0.671
      -0.649
      -0.626
      -0.602
      -0.574
      -0.536
      -0.484
      -0.413
      -0.327
      -0.230
      -0.129
      -0.029
       0.071
       0.168
       0.258
       0.335
       0.392
       0.433
       0.472
       0.521
       0.585
       0.650
       0.701
       0.718
       0.697
       0.642
       0.565
       0.475
       0.377
       0.270
       0.147
       0.005
      -0.159
      -0.340
      -0.527
      -0.702
      -0.850
      -0.964
      -1.039
      -1.078
      -1.082
      -1.050
      -0.978
      -0.862
      -0.703
      -0.504
      -0.271
      -0.013
       0.251
       0.504
       0.728
       0.912
       1.056
       1.163
       1.238
       1.277
       1.275
       1.230
       1.146
       1.030
       0.884
       0.707
       0.499
       0.267
       0.024
      -0.212
      -0.425
      -0.607
      -0.755
      -0.869
      -0.943
      -0.972
      -0.954
      -0.893
      -0.794
      -0.665
      -0.513
      -0.345
      -0.169
       0.007
       0.168
       0.305
       0.413
       0.493
       0.550
       0.584
       0.595
       0.578
       0.532
       0.461
       0.372
       0.267
       0.146
       0.015
      -0.121
      -0.251
      -0.366
      -0.458
      -0.522
      -0.558
      -0.567
      -0.553
      -0.520
      -0.472
      -0.413
      -0.343
      -0.264
      -0.181
      -0.099
      -0.025
       0.036
       0.085
       0.122
       0.153
       0.180
       0.206
       0.232
       0.257
       0.276
       0.284
       0.276
       0.253
       0.219
       0.183
       0.153
       0.135
       0.132
       0.139
       0.149
       0.158
       0.168
       0.178
       0.188
       0.195
       0.194
       0.178
       0.144
       0.089
       0.016
      -0.069
      -0.155
      -0.231
      -0.288
      -0.326
      -0.349
      -0.365
      -0.377
      -0.384
      -0.382
      -0.368
      -0.336
      -0.288
      -0.228
      -0.160
      -0.091
      -0.029
       0.018
       0.046
       0.058
       0.057
       0.050
       0.042
       0.036
       0.036
       0.045
       0.062
       0.087
       0.116
       0.149
       0.191
       0.247
       0.319
       0.403
       0.491
       0.574
       0.643
       0.688
       0.707
       0.705
       0.697
       0.697
       0.712
       0.738
       0.760
       0.769
       0.760
       0.734
       0.691
       0.630
       0.545
       0.428
       0.275
       0.088
      -0.125
      -0.346
      -0.558
      -0.748
      -0.909
      -1.043
      -1.151
      -1.235
      -1.292
      -1.318
      -1.316
      -1.289
      -1.240
      -1.166
      -1.065
      -0.936
      -0.780
      -0.603
      -0.410
      -0.205
       0.008
       0.228
       0.448
       0.662
       0.861
       1.036
       1.184
       1.305
       1.402
       1.477
       1.525
       1.533
       1.489
       1.381
       1.204
       0.959
       0.651
       0.292
      -0.098
      -0.493
      -0.861
      -1.179
      -1.434
      -1.623
      -1.745
      -1.799
      -1.788
      -1.719
      -1.604
      -1.455
      -1.279
      -1.078
      -0.854
      -0.613
      -0.369
      -0.135
       0.082
       0.286
       0.485
       0.682
       0.873
       1.044
       1.184
       1.285
       1.354
       1.399
       1.423
       1.425
       1.397
       1.329
       1.211
       1.041
       0.823
       0.571
       0.300
       0.031
      -0.215
      -0.414
      -0.555
      -0.638
      -0.674
      -0.674
      -0.646
      -0.591
      -0.510
      -0.412
      -0.318
      -0.253
      -0.239
      -0.286
      -0.391
      -0.539
      -0.712
      -0.896
      -1.080
      -1.255
      -1.409
      -1.522
      -1.576
      -1.555
      -1.456
      -1.279
      -1.033
      -0.729
      -0.382
      -0.008
       0.369
       0.725
       1.041
       1.308
       1.528
       1.707
       1.857
       1.980
       2.072
       2.123
       2.124
       2.065
       1.940
       1.750
       1.500
       1.199
       0.859
       0.485
       0.082
      -0.348
      -0.799
      -1.262
      -1.718
      -2.146
      -2.519
      -2.806
      -2.981
      -3.027
      -2.938
      -2.720
      -2.379
      -1.929
      -1.392
      -0.801
      -0.194
       0.395
       0.942
       1.438
       1.877
       2.248
       2.534
       2.719
       2.796
       2.766
       2.640
       2.433
       2.157
       1.825
       1.449
       1.040
       0.613
       0.176
      -0.263
      -0.694
      -1.103
      -1.475
      -1.796
      -2.060
      -2.266
      -2.413
      -2.498
      -2.509
      -2.440
      -2.291
      -2.072
      -1.793
      -1.469
      -1.111
      -0.735
      -0.357
       0.014
       0.372
       0.714
       1.030
       1.306
       1.528
       1.692
       1.805
       1.873
       1.894
       1.858
       1.756
       1.583
       1.346
       1.056
       0.737
       0.417
       0.125
      -0.125
      -0.332
      -0.504
      -0.646
      -0.762
      -0.855
      -0.927
      -0.979
      -1.008
      -1.004
      -0.965
      -0.893
      -0.796
      -0.683
      -0.560
      -0.432
      -0.300
      -0.162
      -0.013
       0.153
       0.338
       0.537
       0.743
       0.942
       1.122
       1.278
       1.407
       1.509
       1.581
       1.616
       1.616
       1.577
       1.502
       1.390
       1.243
       1.065
       0.857
       0.625
       0.367
       0.084
      -0.224
      -0.549
      -0.880
      -1.204
      -1.508
      -1.786
      -2.032
      -2.252
      -2.446
      -2.614
      -2.749
      -2.844
      -2.893
      -2.885
      -2.809
      -2.651
      -2.405
      -2.079
      -1.692
      -1.270
      -0.832
      -0.381
       0.088
       0.577
       1.076
       1.564
       2.018
       2.424
       2.777
       3.074
       3.307
       3.460
       3.516
       3.465
       3.311
       3.069
       2.757
       2.390
       1.979
       1.532
       1.061
       0.585
       0.120
      -0.317
      -0.721
      -1.086
      -1.409
      -1.689
      -1.924
      -2.116
      -2.261
      -2.353
      -2.385
      -2.347
      -2.236
      -2.056
      -1.817
      -1.529
      -1.205
      -0.859
      -0.508
      -0.162
       0.176
       0.506
       0.823
       1.115
       1.367
       1.567
       1.714
       1.811
       1.862
       1.867
       1.824
       1.735
       1.603
       1.436
       1.246
       1.041
       0.825
       0.594
       0.342
       0.066
      -0.232
      -0.542
      -0.853
      -1.150
      -1.420
      -1.656
      -1.858
      -2.026
      -2.160
      -2.253
      -2.295
      -2.267
      -2.152
      -1.941
      -1.640
      -1.266
      -0.843
      -0.394
       0.066
       0.532
       1.005
       1.484
       1.958
       2.410
       2.818
       3.159
       3.410
       3.553
       3.573
       3.468
       3.240
       2.904
       2.480
       1.987
       1.444
       0.865
       0.263
      -0.347
      -0.945
      -1.506
      -2.004
      -2.419
      -2.734
      -2.943
      -3.045
      -3.051
      -2.972
      -2.819
      -2.607
      -2.349
      -2.061
      -1.755
      -1.448
      -1.159
      -0.910
      -0.713
      -0.566
      -0.457
      -0.369
      -0.289
      -0.204
      -0.104
       0.016
       0.157
       0.312
       0.472
       0.631
       0.792
       0.960
       1.143
       1.339
       1.535
       1.710
       1.836
       1.892
       1.870
       1.770
       1.597
       1.367
       1.096
       0.800
       0.489
       0.162
      -0.178
      -0.522
      -0.849
      -1.133
      -1.352
      -1.497
      -1.572
      -1.580
      -1.521
      -1.393
      -1.198
      -0.941
      -0.631
      -0.279
       0.104
       0.503
       0.891
       1.234
       1.500
       1.676
       1.765
       1.777
       1.720
       1.596
       1.408
       1.157
       0.849
       0.491
       0.100
      -0.302
      -0.688
      -1.029
      -1.299
      -1.482
      -1.573
      -1.571
      -1.481
      -1.310
      -1.071
      -0.773
      -0.430
      -0.063
       0.303
       0.640
       0.925
       1.138
       1.270
       1.320
       1.294
       1.198
       1.037
       0.822
       0.565
       0.285
       0.003
      -0.261
      -0.491
      -0.683
      -0.840
      -0.971
      -1.081
      -1.173
      -1.249
      -1.305
      -1.332
      -1.322
      -1.268
      -1.166
      -1.019
      -0.838
      -0.637
      -0.429
      -0.221
      -0.014
       0.197
       0.417
       0.650
       0.886
       1.110
       1.303
       1.449
       1.534
       1.554
       1.512
       1.417
       1.278
       1.106
       0.910
       0.697
       0.468
       0.221
      -0.045
      -0.322
      -0.595
      -0.849
      -1.075
      -1.274
      -1.449
      -1.607
      -1.753
      -1.888
      -2.007
      -2.100
      -2.149
      -2.135
      -2.042
      -1.870
      -1.624
      -1.318
      -0.963
      -0.569
      -0.141
       0.315
       0.795
       1.288
       1.780
       2.249
       2.666
       3.001
       3.232
       3.347
       3.343
       3.224
       2.996
       2.675
       2.277
       1.821
       1.325
       0.804
       0.276
      -0.241
      -0.727
      -1.166
      -1.547
      -1.866
      -2.123
      -2.315
      -2.433
      -2.466
      -2.400
      -2.232
      -1.972
      -1.643
      -1.266
      -0.863
      -0.447
      -0.037
       0.351
       0.698
       0.986
       1.197
       1.321
       1.355
       1.299
       1.159
       0.941
       0.656
       0.326
      -0.019
      -0.347
      -0.628
      -0.845
      -0.990
      -1.061
      -1.056
      -0.974
      -0.820
      -0.605
      -0.340
      -0.040
       0.285
       0.619
       0.944
       1.234
       1.462
       1.613
       1.683
       1.677
       1.601
       1.464
       1.272
       1.034
       0.756
       0.444
       0.102
      -0.262
      -0.634
      -0.994
      -1.323
      -1.604
      -1.827
      -1.976
      -2.033
      -1.979
      -1.812
      -1.547
      -1.217
      -0.855
      -0.485
      -0.114
       0.257
       0.621
       0.966
       1.275
       1.532
       1.727
       1.847
       1.877
       1.811
       1.648
       1.403
       1.100
       0.770
       0.440
       0.127
      -0.156
      -0.403
      -0.609
      -0.771
      -0.892
      -0.975
      -1.028
      -1.060
      -1.079
      -1.090
      -1.091
      -1.075
      -1.036
      -0.978
      -0.915
      -0.864
      -0.834
      -0.826
      -0.838
      -0.868
      -0.914
      -0.970
      -1.023
      -1.055
      -1.051
      -1.002
      -0.910
      -0.780
      -0.609
      -0.385
      -0.094
       0.273
       0.706
       1.182
       1.667
       2.123
       2.517
       2.828
       3.041
       3.149
       3.149
       3.041
       2.826
       2.505
       2.082
       1.563
       0.958
       0.285
      -0.432
      -1.163
      -1.872
      -2.523
      -3.078
      -3.502
      -3.767
      -3.857
      -3.763
      -3.496
      -3.079
      -2.548
      -1.942
      -1.293
      -0.623
       0.056
       0.736
       1.406
       2.045
       2.630
       3.139
       3.549
       3.837
       3.988
       3.993
       3.853
       3.583
       3.205
       2.749
       2.244
       1.711
       1.160
       0.599
       0.034
      -0.523
      -1.059
      -1.557
      -1.998
      -2.359
      -2.618
      -2.759
      -2.777
      -2.682
      -2.496
      -2.245
      -1.958
      -1.660
      -1.368
      -1.089
      -0.821
      -0.561
      -0.310
      -0.076
       0.134
       0.318
       0.483
       0.637
       0.788
       0.935
       1.071
       1.187
       1.272
       1.318
       1.322
       1.286
       1.214
       1.107
       0.972
       0.814
       0.639
       0.448
       0.239
       0.012
      -0.228
      -0.468
      -0.696
      -0.905
      -1.099
      -1.283
      -1.458
      -1.618
      -1.753
      -1.860
      -1.941
      -1.994
      -2.016
      -1.998
      -1.931
      -1.811
      -1.635
      -1.401
      -1.107
      -0.752
      -0.338
       0.123
       0.615
       1.115
       1.601
       2.050
       2.446
       2.777
       3.034
       3.203
       3.267
       3.213
       3.030
       2.721
       2.308
       1.826
       1.305
       0.764
       0.214
      -0.337
      -0.878
      -1.393
      -1.870
      -2.296
      -2.657
      -2.939
      -3.129
      -3.225
      -3.238
      -3.179
      -3.054
      -2.856
      -2.575
      -2.213
      -1.787
      -1.326
      -0.862
      -0.417
      -0.005
       0.368
       0.701
       0.999
       1.268
       1.512
       1.723
       1.882
       1.964
       1.952
       1.838
       1.633
       1.364
       1.069
       0.782
       0.525
       0.309
       0.134
      -0.001
      -0.097
      -0.156
      -0.183
      -0.187
      -0.175
      -0.146
      -0.092
      -0.004
       0.119
       0.263
       0.403
       0.515
       0.588
       0.619
       0.618
       0.597
       0.564
       0.526
       0.487
       0.449
       0.409
       0.358
       0.289
       0.201
       0.102
       0.011
      -0.056
      -0.093
      -0.105
      -0.101
      -0.088
      -0.067
      -0.039
       0.001
       0.056
       0.128
       0.213
       0.298
       0.368
       0.411
       0.419
       0.391
       0.330
       0.233
       0.100
      -0.071
      -0.275
      -0.507
      -0.761
      -1.025
      -1.275
      -1.483
      -1.620
      -1.666
      -1.615
      -1.472
      -1.249
      -0.957
      -0.611
      -0.224
       0.187
       0.609
       1.029
       1.436
       1.813
       2.136
       2.384
       2.537
       2.585
       2.527
       2.368
       2.121
       1.806
       1.446
       1.061
       0.665
       0.264
      -0.137
      -0.527
      -0.896
      -1.224
      -1.493
      -1.686
      -1.797
      -1.833
      -1.812
      -1.749
      -1.655
      -1.525
      -1.351
      -1.126
      -0.853
      -0.552
      -0.250
       0.024
       0.246
       0.402
       0.493
       0.528
       0.519
       0.474
       0.398
       0.287
       0.144
      -0.029
      -0.215
      -0.393
      -0.538
      -0.628
      -0.653
      -0.615
      -0.526
      -0.399
      -0.246
      -0.075
       0.103
       0.273
       0.423
       0.537
       0.600
       0.604
       0.543
       0.422
       0.252
       0.050
      -0.166
      -0.381
      -0.580
      -0.750
      -0.879
      -0.961
      -0.999
      -1.006
      -0.996
      -0.985
      -0.977
      -0.967
      -0.944
      -0.893
      -0.808
      -0.684
      -0.526
      -0.343
      -0.146
       0.056
       0.260
       0.466
       0.673
       0.879
       1.078
       1.255
       1.390
       1.462
       1.456
       1.371
       1.218
       1.021
       0.809
       0.606
       0.420
       0.249
       0.084
      -0.074
      -0.214
      -0.320
      -0.376
      -0.375
      -0.320
      -0.223
      -0.101
       0.029
       0.153
       0.262
       0.357
       0.439
       0.504
       0.545
       0.556
       0.545
       0.525
       0.514
       0.521
       0.546
       0.576
       0.601
       0.615
       0.614
       0.597
       0.558
       0.486
       0.364
       0.179
      -0.075
      -0.387
      -0.732
      -1.079
      -1.402
      -1.679
      -1.901
      -2.061
      -2.153
      -2.172
      -2.115
      -1.990
      -1.806
      -1.564
      -1.260
      -0.896
      -0.482
      -0.040
       0.400
       0.813
       1.177
       1.472
       1.685
       1.804
       1.827
       1.762
       1.621
       1.425
       1.192
       0.941
       0.683
       0.422
       0.158
      -0.098
      -0.329
      -0.510
      -0.626
      -0.671
      -0.648
      -0.566
      -0.434
      -0.259
      -0.051
       0.173
       0.397
       0.606
       0.795
       0.961
       1.097
       1.193
       1.231
       1.197
       1.087
       0.912
       0.690
       0.441
       0.176
      -0.095
      -0.372
      -0.652
      -0.927
      -1.178
      -1.375
      -1.490
      -1.504
      -1.417
      -1.239
      -0.985
      -0.670
      -0.308
       0.081
       0.470
       0.833
       1.148
       1.399
       1.569
       1.643
       1.617
       1.496
       1.298
       1.040
       0.741
       0.414
       0.077
      -0.252
      -0.558
      -0.831
      -1.064
      -1.252
      -1.386
      -1.466
      -1.502
      -1.504
      -1.471
      -1.390
      -1.251
      -1.055
      -0.819
      -0.575
      -0.348
      -0.151
       0.021
       0.175
       0.317
       0.440
       0.533
       0.585
       0.588
       0.542
       0.447
       0.310
       0.140
      -0.041
      -0.211
      -0.347
      -0.438
      -0.483
      -0.488
      -0.458
      -0.393
      -0.290
      -0.146
       0.033
       0.233
       0.433
       0.616
