Origin Time       22/10/2009 19:51:25 UTC
Lat.              36.5°N	
Long.             71.0°E	
Depth (Km)        168.0
Magnitude         6.3
 Region           HINDUKUSH-REGION-AFGHANISTAN                                     
 Above details taken from IMD 
    
Station Code      BHA
Station Lat.       31.552  N
Station Long.      77.923  E
Station Height(m) 1566.0
Site Class        A   Vs30 between 700 m/sec to 1400 m/sec * 
Record Time       22.10.2009 19:54:10.889 UTC
Sampling Rate     200. Hz
 Record Duration   66.515 Sec.
 Direction         N-S (N positive)
Max. Acceleration     -3.479 cm/sec**2
     
  * For reference see Site Classification link of website 
     
 Base Line Corrected and Low Pass Filtered (Cut Off at 35 Hz) Time History
 Acceleration data in cm/sec**2
    
[...]
      -0.329
      -0.454
      -0.556
      -0.622
      -0.650
      -0.649
      -0.628
      -0.584
      -0.502
      -0.369
      -0.195
      -0.009
       0.160
       0.295
       0.398
       0.479
       0.545
       0.596
       0.627
       0.636
       0.621
       0.580
       0.512
       0.414
       0.291
       0.158
       0.039
      -0.050
      -0.110
      -0.160
      -0.221
      -0.307
      -0.410
      -0.509
      -0.579
      -0.605
      -0.587
      -0.535
      -0.464
      -0.383
      -0.297
      -0.210
      -0.122
      -0.031
       0.069
       0.188
       0.328
       0.479
       0.618
       0.718
       0.751
       0.709
       0.603
       0.469
       0.343
       0.246
       0.175
       0.114
       0.050
      -0.017
      -0.079
      -0.127
      -0.167
      -0.213
      -0.277
      -0.359
      -0.444
      -0.510
      -0.542
      -0.536
      -0.503
      -0.461
      -0.420
      -0.380
      -0.328
      -0.257
      -0.171
      -0.083
      -0.012
       0.033
       0.058
       0.079
       0.113
       0.165
       0.225
       0.283
       0.331
       0.374
       0.417
       0.462
       0.497
       0.508
       0.485
       0.428
       0.350
       0.268
       0.193
       0.127
       0.063
      -0.006
      -0.080
      -0.150
      -0.206
      -0.248
      -0.286
      -0.329
      -0.378
      -0.423
      -0.450
      -0.451
      -0.425
      -0.377
      -0.312
      -0.237
      -0.161
      -0.098
      -0.053
      -0.018
       0.025
       0.085
       0.158
       0.225
       0.272
       0.294
       0.294
       0.282
       0.264
       0.243
       0.224
       0.207
       0.187
       0.154
       0.104
       0.043
      -0.014
      -0.057
      -0.084
      -0.102
      -0.119
      -0.140
      -0.168
      -0.203
      -0.245
      -0.293
      -0.340
      -0.375
      -0.385
      -0.361
      -0.301
      -0.204
      -0.077
       0.067
       0.205
       0.316
       0.385
       0.408
       0.392
       0.350
       0.297
       0.247
       0.209
       0.185
       0.166
       0.137
       0.083
       0.002
      -0.094
      -0.188
      -0.261
      -0.305
      -0.319
      -0.306
      -0.272
      -0.221
      -0.160
      -0.097
      -0.042
       0.000
       0.036
       0.079
       0.137
       0.206
       0.269
       0.311
       0.325
       0.316
       0.291
       0.259
       0.225
       0.187
       0.147
       0.103
       0.055
       0.005
      -0.048
      -0.103
      -0.160
      -0.215
      -0.261
      -0.290
      -0.300
      -0.298
      -0.294
      -0.292
      -0.295
      -0.299
      -0.303
      -0.306
      -0.303
      -0.277
      -0.214
      -0.110
       0.016
       0.134
       0.219
       0.265
       0.287
       0.300
       0.317
       0.333
       0.331
       0.298
       0.227
       0.130
       0.026
      -0.065
      -0.137
      -0.198
      -0.254
      -0.300
      -0.316
      -0.289
      -0.217
      -0.123
      -0.036
       0.018
       0.030
       0.006
      -0.036
      -0.076
      -0.098
      -0.094
      -0.060
      -0.001
       0.064
       0.107
       0.113
       0.078
       0.022
      -0.024
      -0.029
       0.024
       0.132
       0.269
       0.402
       0.503
       0.556
       0.554
       0.499
       0.402
       0.282
       0.167
       0.084
       0.038
       0.014
      -0.016
      -0.070
      -0.149
      -0.236
      -0.312
      -0.361
      -0.373
      -0.349
      -0.294
      -0.221
      -0.152
      -0.109
      -0.099
      -0.108
      -0.110
      -0.089
      -0.044
       0.014
       0.072
       0.129
       0.184
       0.236
       0.285
       0.324
       0.346
       0.344
       0.310
       0.246
       0.162
       0.073
      -0.010
      -0.082
      -0.143
      -0.196
      -0.245
      -0.294
      -0.348
      -0.403
      -0.451
      -0.483
      -0.489
      -0.460
      -0.397
      -0.309
      -0.219
      -0.151
      -0.114
      -0.104
      -0.099
      -0.081
      -0.037
       0.030
       0.113
       0.207
       0.304
       0.398
       0.476
       0.531
       0.563
       0.572
       0.562
       0.536
       0.497
       0.444
       0.379
       0.306
       0.232
       0.165
       0.105
       0.043
      -0.033
      -0.129
      -0.237
      -0.336
      -0.404
      -0.430
      -0.427
      -0.418
      -0.428
      -0.467
      -0.522
      -0.566
      -0.579
      -0.553
      -0.499
      -0.426
      -0.340
      -0.244
      -0.150
      -0.075
      -0.031
      -0.013
      -0.002
       0.019
       0.061
       0.118
       0.182
       0.244
       0.305
       0.370
       0.437
       0.495
       0.525
       0.516
       0.475
       0.432
       0.423
       0.471
       0.567
       0.679
       0.764
       0.785
       0.723
       0.588
       0.406
       0.207
       0.009
      -0.182
      -0.365
      -0.533
      -0.674
      -0.778
      -0.845
      -0.885
      -0.917
      -0.954
      -0.994
      -1.028
      -1.043
      -1.026
      -0.972
      -0.882
      -0.765
      -0.633
      -0.497
      -0.361
      -0.222
      -0.076
       0.081
       0.247
       0.419
       0.599
       0.786
       0.970
       1.125
       1.224
       1.249
       1.203
       1.110
       0.996
       0.885
       0.786
       0.695
       0.601
       0.493
       0.369
       0.238
       0.123
       0.046
       0.018
       0.032
       0.071
       0.109
       0.124
       0.099
       0.023
      -0.102
      -0.264
      -0.440
      -0.608
      -0.751
      -0.862
      -0.944
      -1.001
      -1.033
      -1.035
      -0.999
      -0.927
      -0.832
      -0.729
      -0.627
      -0.524
      -0.408
      -0.268
      -0.102
       0.074
       0.236
       0.358
       0.427
       0.451
       0.454
       0.465
       0.505
       0.581
       0.693
       0.829
       0.966
       1.073
       1.113
       1.065
       0.925
       0.719
       0.485
       0.263
       0.078
      -0.063
      -0.162
      -0.224
      -0.256
      -0.266
      -0.262
      -0.253
      -0.241
      -0.216
      -0.163
      -0.083
       0.004
       0.062
       0.066
       0.015
      -0.073
      -0.168
      -0.252
      -0.321
      -0.384
      -0.449
      -0.509
      -0.548
      -0.549
      -0.508
      -0.442
      -0.369
      -0.298
      -0.220
      -0.118
       0.015
       0.167
       0.307
       0.409
       0.460
       0.464
       0.435
       0.393
       0.353
       0.324
       0.312
       0.321
       0.347
       0.375
       0.376
       0.322
       0.200
       0.029
      -0.153
      -0.303
      -0.397
      -0.438
      -0.451
      -0.464
      -0.495
      -0.546
      -0.607
      -0.661
      -0.688
      -0.667
      -0.581
      -0.424
      -0.207
       0.028
       0.229
       0.347
       0.367
       0.314
       0.237
       0.181
       0.169
       0.191
       0.220
       0.228
       0.202
       0.144
       0.074
       0.014
      -0.010
       0.013
       0.084
       0.188
       0.303
       0.400
       0.455
       0.460
       0.421
       0.357
       0.288
       0.225
       0.170
       0.117
       0.048
      -0.051
      -0.183
      -0.336
      -0.491
      -0.627
      -0.726
      -0.781
      -0.794
      -0.775
      -0.739
      -0.702
      -0.672
      -0.650
      -0.626
      -0.591
      -0.536
      -0.450
      -0.317
      -0.125
       0.121
       0.395
       0.655
       0.863
       1.011
       1.123
       1.237
       1.380
       1.549
       1.716
       1.844
       1.896
       1.851
       1.707
       1.475
       1.178
       0.837
       0.472
       0.101
      -0.260
      -0.596
      -0.896
      -1.159
      -1.389
      -1.598
      -1.797
      -1.994
      -2.183
      -2.344
      -2.449
      -2.471
      -2.396
      -2.230
      -1.990
      -1.696
      -1.361
      -0.994
      -0.599
      -0.177
       0.269
       0.729
       1.188
       1.626
       2.025
       2.372
       2.653
       2.851
       2.944
       2.906
       2.727
       2.412
       1.984
       1.479
       0.943
       0.429
      -0.015
      -0.366
      -0.631
      -0.840
      -1.027
      -1.211
      -1.389
      -1.535
      -1.621
      -1.618
      -1.512
      -1.306
      -1.020
      -0.695
      -0.377
      -0.105
       0.094
       0.214
       0.270
       0.289
       0.301
       0.322
       0.351
       0.367
       0.338
       0.236
       0.048
      -0.216
      -0.518
      -0.810
      -1.050
      -1.214
      -1.294
      -1.296
      -1.222
      -1.074
      -0.865
      -0.613
      -0.338
      -0.046
       0.275
       0.630
       1.006
       1.367
       1.668
       1.879
       1.992
       2.017
       1.966
       1.847
       1.668
       1.450
       1.221
       1.008
       0.826
       0.671
       0.533
       0.398
       0.264
       0.135
       0.016
      -0.099
      -0.225
      -0.381
      -0.580
      -0.822
      -1.096
      -1.379
      -1.650
      -1.892
      -2.092
      -2.235
      -2.301
      -2.267
      -2.123
      -1.878
      -1.555
      -1.184
      -0.792
      -0.394
       0.003
       0.389
       0.756
       1.096
       1.405
       1.680
       1.914
       2.097
       2.219
       2.269
       2.243
       2.143
       1.972
       1.734
       1.439
       1.102
       0.738
       0.360
      -0.028
      -0.422
      -0.816
      -1.194
      -1.543
      -1.848
      -2.097
      -2.273
      -2.362
      -2.354
      -2.253
      -2.065
      -1.801
      -1.466
      -1.065
      -0.616
      -0.153
       0.279
       0.639
       0.904
       1.075
       1.172
       1.221
       1.244
       1.251
       1.245
       1.224
       1.183
       1.123
       1.048
       0.976
       0.923
       0.899
       0.895
       0.895
       0.880
       0.838
       0.769
       0.680
       0.583
       0.483
       0.377
       0.262
       0.131
      -0.016
      -0.178
      -0.353
      -0.533
      -0.706
      -0.859
      -0.979
      -1.066
      -1.130
      -1.190
      -1.258
      -1.342
      -1.443
      -1.555
      -1.664
      -1.748
      -1.781
      -1.746
      -1.636
      -1.456
      -1.212
      -0.906
      -0.540
      -0.129
       0.293
       0.694
       1.053
       1.374
       1.663
       1.921
       2.129
       2.255
       2.280
       2.212
       2.084
       1.933
       1.779
       1.627
       1.472
       1.314
       1.157
       0.998
       0.837
       0.679
       0.528
       0.385
       0.237
       0.063
      -0.158
      -0.430
      -0.738
      -1.051
      -1.338
      -1.582
      -1.773
      -1.911
      -1.995
      -2.030
      -2.018
      -1.957
      -1.842
      -1.668
      -1.435
      -1.159
      -0.861
      -0.569
      -0.305
      -0.084
       0.097
       0.254
       0.416
       0.604
       0.822
       1.051
       1.267
       1.453
       1.606
       1.732
       1.832
       1.905
       1.940
       1.924
       1.844
       1.690
       1.455
       1.136
       0.733
       0.250
      -0.291
      -0.846
      -1.352
      -1.751
      -2.013
      -2.148
      -2.192
      -2.177
      -2.119
      -2.014
      -1.850
      -1.617
      -1.315
      -0.948
      -0.529
      -0.078
       0.374
       0.791
       1.146
       1.429
       1.648
       1.815
       1.941
       2.035
       2.104
       2.149
       2.167
       2.143
       2.057
       1.885
       1.614
       1.239
       0.768
       0.215
      -0.401
      -1.044
      -1.662
      -2.196
      -2.607
      -2.891
      -3.064
      -3.149
      -3.147
      -3.047
      -2.843
      -2.544
      -2.184
      -1.803
      -1.433
      -1.090
      -0.776
      -0.483
      -0.205
       0.060
       0.308
       0.534
       0.738
       0.931
       1.125
       1.329
       1.542
       1.753
       1.944
       2.104
       2.231
       2.317
       2.349
       2.303
       2.164
       1.939
       1.657
       1.360
       1.087
       0.861
       0.687
       0.553
       0.441
       0.329
       0.204
       0.061
      -0.098
      -0.261
      -0.417
      -0.555
      -0.680
      -0.815
      -0.989
      -1.227
      -1.536
      -1.893
      -2.248
      -2.542
      -2.720
      -2.750
      -2.626
      -2.362
      -1.987
      -1.533
      -1.029
      -0.506
       0.000
       0.456
       0.842
       1.163
       1.446
       1.716
       1.974
       2.197
       2.354
       2.423
       2.403
       2.301
       2.128
       1.895
       1.618
       1.310
       0.983
       0.640
       0.277
      -0.111
      -0.529
      -0.974
      -1.427
      -1.855
      -2.222
      -2.502
      -2.690
      -2.789
      -2.792
      -2.689
      -2.471
      -2.147
      -1.742
      -1.287
      -0.802
      -0.296
       0.224
       0.744
       1.240
       1.684
       2.050
       2.318
       2.485
       2.566
       2.589
       2.584
       2.570
       2.549
       2.509
       2.431
       2.293
       2.071
       1.741
       1.295
       0.745
       0.130
      -0.500
      -1.102
      -1.649
      -2.124
      -2.517
      -2.822
      -3.046
      -3.209
      -3.335
      -3.431
      -3.479
      -3.437
      -3.261
      -2.930
      -2.458
      -1.892
      -1.294
      -0.724
      -0.220
       0.202
       0.548
       0.837
       1.094
       1.347
       1.622
       1.935
       2.286
       2.654
       2.994
       3.247
       3.365
       3.335
       3.185
       2.962
       2.708
       2.434
       2.125
       1.760
       1.326
       0.833
       0.308
      -0.218
      -0.715
      -1.156
      -1.526
      -1.820
      -2.041
      -2.202
      -2.313
      -2.381
      -2.407
      -2.383
      -2.307
      -2.186
      -2.037
      -1.872
      -1.686
      -1.459
      -1.166
      -0.794
      -0.359
       0.093
       0.512
       0.863
       1.140
       1.354
       1.511
       1.606
       1.628
       1.574
       1.452
       1.268
       1.020
       0.694
       0.284
      -0.191
      -0.681
      -1.123
      -1.451
      -1.618
      -1.606
      -1.426
      -1.113
      -0.715
      -0.274
       0.172
       0.591
       0.961
       1.270
       1.524
       1.740
       1.935
       2.109
       2.239
       2.292
       2.239
       2.077
       1.827
       1.518
       1.179
       0.821
       0.447
       0.063
      -0.313
      -0.666
      -0.989
      -1.295
      -1.599
      -1.903
      -2.191
      -2.429
      -2.584
      -2.628
      -2.547
      -2.340
      -2.022
      -1.618
      -1.160
      -0.678
      -0.185
       0.310
       0.802
       1.269
       1.680
       1.997
       2.185
       2.227
       2.127
       1.905
       1.590
       1.208
       0.783
       0.336
      -0.106
      -0.515
      -0.864
      -1.131
      -1.302
      -1.377
      -1.360
      -1.260
      -1.092
      -0.884
      -0.666
      -0.464
      -0.286
      -0.120
       0.047
       0.217
       0.372
       0.480
       0.519
       0.485
       0.395
       0.282
       0.187
       0.149
       0.190
       0.297
       0.424
       0.508
       0.500
       0.390
       0.206
      -0.006
      -0.215
      -0.408
      -0.582
      -0.728
      -0.829
      -0.873
      -0.857
      -0.786
      -0.668
      -0.509
      -0.314
      -0.087
       0.166
       0.442
       0.735
       1.032
       1.307
       1.530
       1.667
       1.696
       1.610
       1.418
       1.141
       0.803
       0.423
       0.016
      -0.404
      -0.820
      -1.212
      -1.563
      -1.854
      -2.066
      -2.176
      -2.166
      -2.040
      -1.819
      -1.548
      -1.270
      -1.012
      -0.775
      -0.537
      -0.270
       0.045
       0.402
       0.768
       1.095
       1.341
       1.494
       1.572
       1.612
       1.641
       1.669
       1.685
       1.671
       1.615
       1.506
       1.335
       1.094
       0.785
       0.420
       0.018
      -0.397
      -0.795
      -1.139
      -1.389
      -1.522
      -1.547
      -1.500
      -1.429
      -1.369
      -1.328
      -1.295
      -1.250
      -1.175
      -1.065
      -0.921
      -0.753
      -0.575
      -0.398
      -0.234
      -0.098
      -0.002
       0.052
       0.083
       0.118
       0.178
       0.259
       0.346
       0.421
       0.474
       0.517
       0.567
       0.643
       0.751
       0.886
       1.037
       1.200
       1.374
       1.559
       1.752
       1.947
       2.130
       2.274
       2.347
       2.312
       2.143
       1.840
       1.430
       0.955
       0.462
      -0.012
      -0.447
      -0.845
      -1.222
      -1.599
      -1.981
      -2.351
      -2.675
      -2.913
      -3.025
      -2.990
      -2.809
      -2.517
      -2.168
      -1.817
      -1.491
      -1.182
      -0.861
      -0.497
      -0.076
       0.404
       0.931
       1.478
       2.008
       2.475
       2.844
       3.094
       3.220
       3.227
       3.125
       2.928
       2.647
       2.291
       1.864
       1.366
       0.803
       0.195
      -0.418
      -0.988
      -1.480
      -1.880
      -2.191
      -2.414
      -2.547
      -2.582
      -2.520
      -2.370
      -2.148
      -1.869
      -1.545
      -1.183
      -0.785
      -0.350
       0.109
       0.566
       0.982
       1.318
       1.557
       1.701
       1.766
       1.767
       1.719
       1.634
       1.524
       1.398
       1.252
       1.069
       0.827
       0.510
       0.122
      -0.309
      -0.738
      -1.116
      -1.405
      -1.580
      -1.639
      -1.595
      -1.482
      -1.334
      -1.184
      -1.041
      -0.900
      -0.750
      -0.594
      -0.449
      -0.325
      -0.220
      -0.122
      -0.022
       0.070
       0.141
       0.188
       0.223
       0.266
       0.325
       0.395
       0.470
       0.554
       0.654
       0.769
       0.878
       0.943
       0.935
       0.842
       0.674
       0.458
       0.229
       0.022
      -0.136
      -0.240
      -0.302
      -0.351
      -0.410
      -0.488
      -0.577
      -0.657
      -0.712
      -0.733
      -0.722
      -0.679
      -0.610
      -0.523
      -0.435
      -0.362
      -0.308
      -0.262
      -0.202
      -0.117
      -0.010
       0.109
       0.229
       0.343
       0.445
       0.528
       0.589
       0.633
       0.668
       0.700
       0.734
       0.776
       0.827
       0.882
       0.926
       0.934
       0.872
       0.707
       0.421
       0.024
      -0.439
      -0.900
      -1.278
      -1.523
      -1.630
      -1.632
      -1.579
      -1.505
      -1.425
      -1.341
      -1.242
      -1.116
      -0.948
      -0.724
      -0.448
      -0.141
       0.164
       0.439
       0.675
       0.879
       1.061
       1.224
       1.364
       1.478
       1.568
       1.639
       1.693
       1.724
       1.717
       1.653
       1.515
