Origin Time       22/10/2009 19:51:25
Lat.              36.5°N	
Long.             71.0°E	
Depth (Km)        168.0
Magnitude         6.3
 Region           HINDUKUSH-REGION-AFGHANISTAN                                     
 Above details taken from IMD 
     
Station Code      BHA
Station Lat.       31.552  N
Station Long.      77.923  E
Station Height(m) 1566.0
Site Class        A   Vs30 between 700 m/sec to 1400 m/sec * 
Record Time       22.10.2009 19:54:10.889
Sampling Rate     200. Hz
 Record Duration   66.515 Sec.
 Direction         E-W (E positive)
Max. Acceleration     -3.959 cm/sec**2
     
  * For reference see Site Classification link of website 
     
 Base Line Corrected and Low Pass Filtered (Cut Off at 35 Hz) Time History
 Acceleration data in cm/sec**2
    
[...]
      -0.027
      -0.056
      -0.076
      -0.093
      -0.107
      -0.113
      -0.106
      -0.086
      -0.067
      -0.063
      -0.080
      -0.113
      -0.151
      -0.185
      -0.208
      -0.212
      -0.194
      -0.157
      -0.114
      -0.082
      -0.069
      -0.070
      -0.076
      -0.080
      -0.080
      -0.079
      -0.078
      -0.076
      -0.069
      -0.051
      -0.017
       0.035
       0.105
       0.186
       0.267
       0.338
       0.385
       0.402
       0.383
       0.336
       0.272
       0.205
       0.143
       0.092
       0.054
       0.027
       0.005
      -0.017
      -0.040
      -0.062
      -0.079
      -0.088
      -0.090
      -0.095
      -0.110
      -0.137
      -0.168
      -0.195
      -0.213
      -0.224
      -0.238
      -0.258
      -0.280
      -0.295
      -0.296
      -0.288
      -0.277
      -0.266
      -0.250
      -0.224
      -0.187
      -0.147
      -0.106
      -0.062
      -0.009
       0.053
       0.118
       0.182
       0.250
       0.329
       0.421
       0.511
       0.575
       0.593
       0.561
       0.489
       0.400
       0.316
       0.249
       0.197
       0.144
       0.070
      -0.032
      -0.151
      -0.263
      -0.342
      -0.376
      -0.371
      -0.344
      -0.313
      -0.286
      -0.262
      -0.234
      -0.198
      -0.153
      -0.104
      -0.057
      -0.017
       0.012
       0.026
       0.023
       0.006
      -0.016
      -0.032
      -0.037
      -0.030
      -0.016
      -0.002
       0.003
      -0.004
      -0.020
      -0.038
      -0.049
      -0.048
      -0.042
      -0.039
      -0.048
      -0.070
      -0.090
      -0.088
      -0.054
       0.004
       0.063
       0.102
       0.122
       0.136
       0.159
       0.191
       0.218
       0.231
       0.228
       0.222
       0.220
       0.219
       0.200
       0.148
       0.060
      -0.047
      -0.148
      -0.227
      -0.284
      -0.327
      -0.359
      -0.375
      -0.366
      -0.323
      -0.255
      -0.176
      -0.103
      -0.043
       0.008
       0.059
       0.117
       0.175
       0.224
       0.256
       0.271
       0.275
       0.273
       0.267
       0.255
       0.233
       0.202
       0.166
       0.139
       0.131
       0.141
       0.156
       0.158
       0.134
       0.085
       0.018
      -0.056
      -0.126
      -0.178
      -0.201
      -0.191
      -0.157
      -0.119
      -0.095
      -0.090
      -0.093
      -0.094
      -0.086
      -0.078
      -0.078
      -0.091
      -0.109
      -0.116
      -0.096
      -0.043
       0.032
       0.110
       0.173
       0.210
       0.220
       0.204
       0.166
       0.114
       0.060
       0.017
      -0.007
      -0.014
      -0.013
      -0.013
      -0.017
      -0.024
      -0.028
      -0.024
      -0.009
       0.016
       0.046
       0.071
       0.081
       0.074
       0.051
       0.024
       0.006
       0.005
       0.018
       0.031
       0.024
      -0.009
      -0.064
      -0.125
      -0.180
      -0.222
      -0.248
      -0.250
      -0.219
      -0.150
      -0.054
       0.046
       0.123
       0.166
       0.176
       0.167
       0.154
       0.145
       0.142
       0.147
       0.160
       0.178
       0.195
       0.205
       0.199
       0.173
       0.131
       0.080
       0.031
      -0.010
      -0.047
      -0.088
      -0.137
      -0.188
      -0.228
      -0.253
      -0.268
      -0.286
      -0.317
      -0.357
      -0.397
      -0.427
      -0.445
      -0.454
      -0.459
      -0.455
      -0.434
      -0.394
      -0.335
      -0.264
      -0.185
      -0.099
      -0.001
       0.106
       0.214
       0.316
       0.402
       0.471
       0.519
       0.544
       0.543
       0.516
       0.467
       0.398
       0.310
       0.202
       0.081
      -0.041
      -0.142
      -0.202
      -0.213
      -0.182
      -0.135
      -0.099
      -0.091
      -0.111
      -0.148
      -0.191
      -0.230
      -0.261
      -0.281
      -0.285
      -0.272
      -0.241
      -0.194
      -0.133
      -0.057
       0.034
       0.133
       0.223
       0.283
       0.295
       0.259
       0.194
       0.128
       0.078
       0.047
       0.024
      -0.004
      -0.039
      -0.084
      -0.136
      -0.195
      -0.253
      -0.304
      -0.343
      -0.376
      -0.407
      -0.436
      -0.453
      -0.445
      -0.407
      -0.342
      -0.256
      -0.161
      -0.066
       0.018
       0.093
       0.174
       0.277
       0.402
       0.530
       0.635
       0.701
       0.728
       0.728
       0.712
       0.685
       0.651
       0.613
       0.569
       0.513
       0.431
       0.316
       0.174
       0.021
      -0.119
      -0.226
      -0.286
      -0.298
      -0.273
      -0.232
      -0.191
      -0.152
      -0.107
      -0.054
      -0.007
       0.014
      -0.001
      -0.043
      -0.086
      -0.107
      -0.101
      -0.086
      -0.083
      -0.107
      -0.154
      -0.208
      -0.248
      -0.255
      -0.219
      -0.143
      -0.045
       0.047
       0.108
       0.127
       0.108
       0.069
       0.031
       0.011
       0.018
       0.050
       0.100
       0.162
       0.232
       0.307
       0.381
       0.439
       0.469
       0.465
       0.429
       0.370
       0.299
       0.227
       0.153
       0.074
      -0.018
      -0.120
      -0.217
      -0.290
      -0.329
      -0.346
      -0.362
      -0.395
      -0.449
      -0.513
      -0.572
      -0.617
      -0.645
      -0.658
      -0.656
      -0.635
      -0.582
      -0.490
      -0.359
      -0.203
      -0.043
       0.102
       0.219
       0.299
       0.339
       0.347
       0.342
       0.348
       0.377
       0.419
       0.456
       0.471
       0.463
       0.434
       0.389
       0.327
       0.252
       0.174
       0.100
       0.028
      -0.046
      -0.129
      -0.215
      -0.298
      -0.371
      -0.428
      -0.470
      -0.492
      -0.496
      -0.485
      -0.468
      -0.451
      -0.432
      -0.402
      -0.357
      -0.300
      -0.242
      -0.193
      -0.159
      -0.138
      -0.127
      -0.124
      -0.132
      -0.155
      -0.194
      -0.252
      -0.325
      -0.406
      -0.480
      -0.531
      -0.545
      -0.512
      -0.430
      -0.305
      -0.153
      -0.003
       0.117
       0.193
       0.234
       0.264
       0.301
       0.352
       0.411
       0.467
       0.517
       0.564
       0.614
       0.670
       0.726
       0.767
       0.774
       0.733
       0.642
       0.517
       0.384
       0.273
       0.204
       0.177
       0.173
       0.163
       0.122
       0.043
      -0.058
      -0.156
      -0.226
      -0.257
      -0.257
      -0.244
      -0.235
      -0.231
      -0.229
      -0.223
      -0.216
      -0.211
      -0.204
      -0.183
      -0.134
      -0.050
       0.062
       0.184
       0.304
       0.413
       0.504
       0.561
       0.561
       0.488
       0.345
       0.156
      -0.045
      -0.231
      -0.387
      -0.510
      -0.604
      -0.675
      -0.729
      -0.766
      -0.777
      -0.752
      -0.691
      -0.606
      -0.509
      -0.404
      -0.288
      -0.163
      -0.035
       0.093
       0.230
       0.392
       0.584
       0.792
       0.986
       1.147
       1.273
       1.379
       1.473
       1.546
       1.580
       1.562
       1.488
       1.369
       1.213
       1.023
       0.800
       0.547
       0.277
       0.006
      -0.253
      -0.497
      -0.728
      -0.949
      -1.154
      -1.339
      -1.500
      -1.640
      -1.769
      -1.895
      -2.013
      -2.104
      -2.136
      -2.076
      -1.905
      -1.625
      -1.253
      -0.822
      -0.370
       0.065
       0.449
       0.763
       1.001
       1.173
       1.293
       1.372
       1.420
       1.445
       1.458
       1.467
       1.475
       1.483
       1.488
       1.483
       1.457
       1.399
       1.296
       1.145
       0.951
       0.726
       0.484
       0.238
      -0.010
      -0.259
      -0.506
      -0.749
      -0.982
      -1.196
      -1.381
      -1.529
      -1.633
      -1.689
      -1.699
      -1.666
      -1.595
      -1.484
      -1.329
      -1.134
      -0.908
      -0.668
      -0.421
      -0.172
       0.082
       0.337
       0.584
       0.806
       0.989
       1.122
       1.208
       1.249
       1.249
       1.207
       1.119
       0.986
       0.819
       0.636
       0.459
       0.304
       0.172
       0.055
      -0.058
      -0.172
      -0.288
      -0.400
      -0.506
      -0.601
      -0.678
      -0.732
      -0.760
      -0.766
      -0.760
      -0.753
      -0.748
      -0.740
      -0.713
      -0.653
      -0.554
      -0.427
      -0.294
      -0.168
      -0.047
       0.082
       0.230
       0.389
       0.539
       0.654
       0.722
       0.738
       0.708
       0.640
       0.546
       0.437
       0.324
       0.217
       0.120
       0.033
      -0.048
      -0.131
      -0.228
      -0.341
      -0.466
      -0.584
      -0.678
      -0.734
      -0.743
      -0.708
      -0.636
      -0.538
      -0.422
      -0.293
      -0.151
       0.002
       0.157
       0.297
       0.406
       0.472
       0.494
       0.485
       0.457
       0.419
       0.361
       0.264
       0.114
      -0.080
      -0.283
      -0.451
      -0.549
      -0.570
      -0.530
      -0.457
      -0.373
      -0.294
      -0.233
      -0.196
      -0.178
      -0.161
      -0.115
      -0.024
       0.109
       0.264
       0.417
       0.553
       0.665
       0.749
       0.797
       0.801
       0.761
       0.682
       0.576
       0.453
       0.315
       0.161
      -0.011
      -0.194
      -0.379
      -0.553
      -0.708
      -0.842
      -0.949
      -1.020
      -1.048
      -1.027
      -0.963
      -0.866
      -0.748
      -0.622
      -0.500
      -0.397
      -0.321
      -0.275
      -0.247
      -0.222
      -0.176
      -0.088
       0.054
       0.245
       0.459
       0.660
       0.817
       0.913
       0.951
       0.944
       0.912
       0.872
       0.846
       0.845
       0.869
       0.899
       0.911
       0.880
       0.794
       0.654
       0.474
       0.274
       0.073
      -0.118
      -0.295
      -0.455
      -0.593
      -0.699
      -0.770
      -0.807
      -0.816
      -0.803
      -0.769
      -0.711
      -0.633
      -0.538
      -0.429
      -0.309
      -0.184
      -0.064
       0.036
       0.105
       0.141
       0.153
       0.156
       0.161
       0.179
       0.212
       0.258
       0.306
       0.332
       0.312
       0.233
       0.108
      -0.039
      -0.180
      -0.299
      -0.389
      -0.448
      -0.477
      -0.470
      -0.420
      -0.315
      -0.143
       0.096
       0.386
       0.698
       1.002
       1.271
       1.491
       1.659
       1.777
       1.851
       1.886
       1.884
       1.833
       1.717
       1.520
       1.240
       0.885
       0.474
       0.028
      -0.435
      -0.903
      -1.361
      -1.790
      -2.165
      -2.456
      -2.639
      -2.709
      -2.678
      -2.572
      -2.422
      -2.250
      -2.071
      -1.889
      -1.699
      -1.487
      -1.243
      -0.957
      -0.630
      -0.269
       0.111
       0.492
       0.855
       1.184
       1.466
       1.694
       1.863
       1.971
       2.022
       2.027
       2.006
       1.975
       1.938
       1.889
       1.814
       1.697
       1.522
       1.277
       0.963
       0.595
       0.200
      -0.197
      -0.576
      -0.924
      -1.229
      -1.485
      -1.699
      -1.884
      -2.045
      -2.169
      -2.218
      -2.154
      -1.960
      -1.651
      -1.267
      -0.848
      -0.423
      -0.007
       0.388
       0.736
       1.006
       1.174
       1.228
       1.172
       1.028
       0.825
       0.609
       0.422
       0.292
       0.222
       0.186
       0.154
       0.105
       0.034
      -0.046
      -0.121
      -0.187
      -0.245
      -0.299
      -0.344
      -0.367
      -0.355
      -0.306
      -0.230
      -0.142
      -0.055
       0.029
       0.107
       0.175
       0.224
       0.252
       0.270
       0.298
       0.345
       0.407
       0.472
       0.536
       0.611
       0.707
       0.819
       0.927
       1.017
       1.085
       1.139
       1.183
       1.208
       1.200
       1.142
       1.033
       0.885
       0.721
       0.567
       0.443
       0.357
       0.298
       0.246
       0.173
       0.061
      -0.100
      -0.309
      -0.559
      -0.840
      -1.137
      -1.427
      -1.689
      -1.911
      -2.101
      -2.278
      -2.459
      -2.640
      -2.798
      -2.899
      -2.918
      -2.847
      -2.694
      -2.479
      -2.219
      -1.924
      -1.597
      -1.229
      -0.809
      -0.336
       0.171
       0.683
       1.167
       1.601
       1.978
       2.297
       2.562
       2.775
       2.944
       3.077
       3.180
       3.258
       3.306
       3.315
       3.276
       3.183
       3.025
       2.787
       2.459
       2.038
       1.541
       0.996
       0.427
      -0.149
      -0.720
      -1.275
      -1.798
      -2.275
      -2.697
      -3.062
      -3.376
      -3.638
      -3.837
      -3.950
      -3.959
      -3.861
      -3.662
      -3.375
      -3.008
      -2.569
      -2.074
      -1.545
      -1.006
      -0.474
       0.049
       0.568
       1.084
       1.579
       2.024
       2.395
       2.692
       2.936
       3.147
       3.328
       3.457
       3.512
       3.486
       3.392
       3.244
       3.043
       2.776
       2.432
       2.005
       1.505
       0.946
       0.348
      -0.265
      -0.863
      -1.415
      -1.895
      -2.288
      -2.596
      -2.827
      -2.989
      -3.089
      -3.133
      -3.130
      -3.086
      -3.004
      -2.883
      -2.718
      -2.500
      -2.218
      -1.868
      -1.458
      -1.011
      -0.555
      -0.120
       0.274
       0.621
       0.928
       1.199
       1.441
       1.654
       1.839
       1.996
       2.121
       2.214
       2.278
       2.322
       2.357
       2.387
       2.417
       2.445
       2.464
       2.454
       2.383
       2.221
       1.957
       1.610
       1.213
       0.797
       0.379
      -0.039
      -0.455
      -0.866
      -1.258
      -1.615
      -1.927
      -2.187
      -2.400
      -2.571
      -2.699
      -2.777
      -2.798
      -2.757
      -2.650
      -2.474
      -2.226
      -1.909
      -1.534
      -1.117
      -0.676
      -0.230
       0.198
       0.585
       0.912
       1.167
       1.348
       1.462
       1.518
       1.528
       1.507
       1.470
       1.428
       1.381
       1.321
       1.236
       1.127
       1.003
       0.884
       0.781
       0.695
       0.617
       0.543
       0.469
       0.389
       0.289
       0.150
      -0.041
      -0.280
      -0.546
      -0.809
      -1.038
      -1.211
      -1.303
      -1.298
      -1.193
      -1.007
      -0.778
      -0.554
      -0.372
      -0.253
      -0.201
      -0.204
      -0.244
      -0.297
      -0.346
      -0.377
      -0.385
      -0.368
      -0.324
      -0.257
      -0.180
      -0.111
      -0.061
      -0.019
       0.041
       0.147
       0.312
       0.525
       0.760
       0.985
       1.172
       1.308
       1.395
       1.443
       1.461
       1.451
       1.411
       1.344
       1.265
       1.189
       1.120
       1.040
       0.918
       0.738
       0.510
       0.258
      -0.002
      -0.283
      -0.610
      -0.986
      -1.370
      -1.694
      -1.904
      -1.990
      -1.981
      -1.917
      -1.823
      -1.706
      -1.564
      -1.394
      -1.196
      -0.975
      -0.743
      -0.517
      -0.315
      -0.148
      -0.011
       0.115
       0.263
       0.461
       0.721
       1.028
       1.342
       1.614
       1.802
       1.884
       1.856
       1.723
       1.499
       1.200
       0.849
       0.478
       0.122
      -0.190
      -0.445
      -0.647
      -0.812
      -0.952
      -1.076
      -1.192
      -1.304
      -1.411
      -1.494
      -1.521
      -1.465
      -1.321
      -1.115
      -0.895
      -0.709
      -0.582
      -0.515
      -0.483
      -0.452
      -0.390
      -0.282
      -0.129
       0.057
       0.267
       0.498
       0.748
       1.010
       1.267
       1.486
       1.635
       1.685
       1.636
       1.509
       1.342
       1.172
       1.016
       0.875
       0.732
       0.567
       0.362
       0.113
      -0.172
      -0.469
      -0.747
      -0.978
      -1.149
      -1.260
      -1.315
      -1.311
      -1.244
      -1.114
      -0.942
      -0.757
      -0.595
      -0.482
      -0.428
      -0.421
      -0.434
      -0.434
      -0.390
      -0.281
      -0.109
       0.109
       0.343
       0.562
       0.739
       0.853
       0.895
       0.868
       0.787
       0.681
       0.583
       0.519
       0.496
       0.500
       0.506
       0.486
       0.420
       0.302
       0.143
      -0.030
      -0.189
      -0.319
      -0.423
      -0.508
      -0.579
      -0.630
      -0.656
      -0.657
      -0.651
      -0.654
      -0.676
      -0.711
      -0.742
      -0.742
      -0.688
      -0.563
      -0.374
      -0.147
       0.081
       0.285
       0.458
       0.611
       0.754
       0.879
       0.969
       1.014
       1.017
       1.000
       0.985
       0.988
       1.015
       1.060
       1.113
       1.154
       1.160
       1.119
       1.030
       0.911
       0.785
       0.671
       0.578
       0.506
       0.447
       0.394
       0.337
       0.271
       0.184
       0.061
      -0.113
      -0.344
      -0.621
      -0.913
      -1.176
      -1.372
      -1.484
      -1.519
      -1.505
      -1.476
      -1.461
      -1.464
      -1.479
      -1.491
      -1.490
      -1.465
      -1.402
      -1.278
      -1.081
      -0.814
      -0.503
      -0.185
       0.108
       0.358
       0.555
       0.699
       0.803
       0.896
       1.017
       1.189
       1.399
       1.607
       1.769
       1.858
       1.872
       1.818
       1.702
       1.532
       1.311
       1.048
       0.750
       0.423
       0.077
      -0.273
      -0.612
      -0.926
      -1.212
      -1.465
      -1.674
      -1.818
      -1.875
      -1.830
      -1.689
      -1.473
      -1.215
      -0.955
      -0.725
      -0.543
      -0.416
      -0.338
      -0.299
      -0.282
      -0.274
      -0.260
      -0.233
      -0.186
      -0.116
      -0.017
       0.120
       0.300
       0.512
       0.728
       0.917
       1.058
       1.149
       1.195
       1.201
       1.172
       1.116
       1.038
       0.936
       0.795
       0.608
       0.386
       0.162
      -0.025
      -0.153
      -0.222
      -0.243
      -0.230
      -0.182
      -0.092
       0.039
       0.195
       0.346
       0.462
       0.523
       0.524
       0.475
       0.394
       0.300
       0.203
