Origin Time       22/10/2009 19:51:25
Lat.              36.5°N	
Long.             71.0°E	
Depth (Km)        168.0
Magnitude         6.3
 Region           HINDUKUSH-REGION-AFGHANISTAN                                     
 Above details taken from IMD 
   
Station Code      BHA
Station Lat.       31.552
Station Long.      77.923
Station Height(m) 1566.0
Site Class        A   Vs30 between 700 m/sec to 1400 m/sec * 
Record Time       22.10.2009 19:54:10.889
Sampling Rate     200. Hz
 Record Duration   66.515 Sec.
 Direction         Vert. (Up positive)
Max. Acceleration      1.541 cm/sec**2
     
  * For reference see Site Classification link of website 
     
 Base Line Corrected and Low Pass Filtered (Cut Off at 35 Hz) Time History
 Acceleration data in cm/sec**2
    
[...]
      -0.103
      -0.070
      -0.056
      -0.048
      -0.035
      -0.010
       0.025
       0.060
       0.088
       0.108
       0.127
       0.155
       0.192
       0.227
       0.243
       0.228
       0.185
       0.131
       0.077
       0.025
      -0.035
      -0.106
      -0.179
      -0.231
      -0.241
      -0.206
      -0.144
      -0.087
      -0.057
      -0.059
      -0.072
      -0.070
      -0.037
       0.019
       0.070
       0.089
       0.074
       0.051
       0.052
       0.088
       0.137
       0.163
       0.149
       0.106
       0.060
       0.030
       0.018
       0.016
       0.023
       0.039
       0.061
       0.074
       0.066
       0.036
      -0.001
      -0.027
      -0.036
      -0.038
      -0.044
      -0.058
      -0.075
      -0.090
      -0.101
      -0.113
      -0.130
      -0.147
      -0.151
      -0.126
      -0.066
       0.017
       0.097
       0.145
       0.147
       0.110
       0.062
       0.030
       0.027
       0.041
       0.044
       0.020
      -0.022
      -0.056
      -0.067
      -0.060
      -0.056
      -0.071
      -0.106
      -0.150
      -0.191
      -0.225
      -0.246
      -0.245
      -0.219
      -0.169
      -0.105
      -0.035
       0.037
       0.104
       0.160
       0.195
       0.203
       0.191
       0.168
       0.146
       0.132
       0.126
       0.126
       0.126
       0.123
       0.122
       0.128
       0.140
       0.145
       0.127
       0.080
       0.012
      -0.057
      -0.111
      -0.148
      -0.180
      -0.215
      -0.251
      -0.270
      -0.256
      -0.202
      -0.121
      -0.035
       0.036
       0.083
       0.113
       0.137
       0.158
       0.167
       0.152
       0.111
       0.055
       0.009
      -0.005
       0.017
       0.056
       0.085
       0.087
       0.068
       0.053
       0.058
       0.073
       0.072
       0.037
      -0.025
      -0.078
      -0.091
      -0.062
      -0.021
      -0.006
      -0.035
      -0.094
      -0.146
      -0.163
      -0.138
      -0.086
      -0.029
       0.016
       0.042
       0.051
       0.049
       0.049
       0.059
       0.081
       0.107
       0.119
       0.105
       0.068
       0.022
      -0.016
      -0.045
      -0.072
      -0.108
      -0.153
      -0.198
      -0.225
      -0.224
      -0.194
      -0.142
      -0.075
      -0.009
       0.041
       0.066
       0.074
       0.089
       0.129
       0.187
       0.227
       0.211
       0.129
       0.009
      -0.098
      -0.151
      -0.142
      -0.090
      -0.027
       0.024
       0.055
       0.075
       0.095
       0.113
       0.116
       0.091
       0.046
       0.007
       0.001
       0.027
       0.057
       0.057
       0.013
      -0.066
      -0.149
      -0.205
      -0.213
      -0.170
      -0.094
      -0.014
       0.043
       0.069
       0.068
       0.057
       0.053
       0.066
       0.100
       0.150
       0.205
       0.248
       0.261
       0.229
       0.158
       0.069
      -0.009
      -0.061
      -0.097
      -0.131
      -0.164
      -0.173
      -0.140
      -0.077
      -0.022
      -0.009
      -0.042
      -0.090
      -0.116
      -0.102
      -0.059
      -0.014
       0.011
       0.004
      -0.031
      -0.082
      -0.134
      -0.177
      -0.210
      -0.233
      -0.247
      -0.245
      -0.220
      -0.172
      -0.108
      -0.041
       0.018
       0.063
       0.088
       0.085
       0.056
       0.021
       0.004
       0.026
       0.080
       0.132
       0.144
       0.100
       0.013
      -0.077
      -0.131
      -0.133
      -0.093
      -0.038
       0.000
       0.006
      -0.012
      -0.030
      -0.026
       0.009
       0.065
       0.130
       0.196
       0.264
       0.327
       0.372
       0.377
       0.330
       0.232
       0.102
      -0.027
      -0.119
      -0.155
      -0.141
      -0.104
      -0.073
      -0.058
      -0.050
      -0.036
      -0.016
      -0.002
      -0.009
      -0.041
      -0.094
      -0.152
      -0.194
      -0.203
      -0.182
      -0.153
      -0.144
      -0.164
      -0.198
      -0.219
      -0.209
      -0.174
      -0.134
      -0.103
      -0.082
      -0.068
      -0.059
      -0.054
      -0.043
      -0.011
       0.053
       0.134
       0.202
       0.227
       0.205
       0.153
       0.099
       0.058
       0.030
       0.000
      -0.038
      -0.077
      -0.096
      -0.074
      -0.007
       0.092
       0.198
       0.285
       0.343
       0.369
       0.371
       0.360
       0.349
       0.344
       0.343
       0.333
       0.298
       0.227
       0.126
       0.017
      -0.073
      -0.128
      -0.154
      -0.172
      -0.206
      -0.257
      -0.307
      -0.329
      -0.308
      -0.252
      -0.183
      -0.125
      -0.089
      -0.068
      -0.041
       0.008
       0.078
       0.149
       0.203
       0.237
       0.261
       0.281
       0.291
       0.276
       0.232
       0.170
       0.111
       0.071
       0.056
       0.058
       0.064
       0.063
       0.056
       0.052
       0.057
       0.062
       0.051
       0.020
      -0.017
      -0.047
      -0.072
      -0.114
      -0.193
      -0.300
      -0.398
      -0.440
      -0.399
      -0.288
      -0.155
      -0.052
      -0.007
      -0.003
      -0.002
       0.020
       0.052
       0.059
       0.018
      -0.054
      -0.113
      -0.116
      -0.051
       0.060
       0.180
       0.278
       0.338
       0.360
       0.354
       0.331
       0.302
       0.272
       0.242
       0.212
       0.186
       0.172
       0.182
       0.216
       0.260
       0.287
       0.284
       0.253
       0.212
       0.171
       0.126
       0.066
      -0.013
      -0.102
      -0.190
      -0.265
      -0.326
      -0.363
      -0.360
      -0.306
      -0.207
      -0.095
      -0.009
       0.030
       0.029
       0.011
      -0.003
      -0.007
      -0.001
       0.009
       0.018
       0.024
       0.027
       0.025
       0.012
      -0.016
      -0.056
      -0.090
      -0.102
      -0.091
      -0.074
      -0.071
      -0.083
      -0.099
      -0.111
      -0.124
      -0.149
      -0.189
      -0.236
      -0.275
      -0.298
      -0.304
      -0.293
      -0.266
      -0.225
      -0.185
      -0.156
      -0.143
      -0.136
      -0.120
      -0.084
      -0.029
       0.030
       0.077
       0.105
       0.112
       0.107
       0.101
       0.105
       0.118
       0.128
       0.115
       0.067
      -0.002
      -0.058
      -0.072
      -0.045
      -0.010
       0.000
      -0.020
      -0.038
      -0.019
       0.050
       0.153
       0.263
       0.365
       0.455
       0.523
       0.552
       0.526
       0.446
       0.331
       0.204
       0.085
      -0.014
      -0.089
      -0.140
      -0.183
      -0.235
      -0.311
      -0.401
      -0.479
      -0.520
      -0.516
      -0.475
      -0.406
      -0.314
      -0.203
      -0.085
       0.021
       0.099
       0.149
       0.185
       0.225
       0.273
       0.318
       0.343
       0.341
       0.316
       0.280
       0.236
       0.180
       0.111
       0.040
      -0.014
      -0.031
      -0.011
       0.028
       0.067
       0.097
       0.124
       0.151
       0.173
       0.180
       0.160
       0.113
       0.046
      -0.028
      -0.099
      -0.153
      -0.185
      -0.193
      -0.183
      -0.153
      -0.103
      -0.038
       0.026
       0.063
       0.055
      -0.001
      -0.088
      -0.177
      -0.235
      -0.238
      -0.186
      -0.101
      -0.019
       0.031
       0.045
       0.042
       0.053
       0.097
       0.170
       0.240
       0.273
       0.250
       0.185
       0.110
       0.051
       0.013
      -0.018
      -0.050
      -0.085
      -0.120
      -0.153
      -0.191
      -0.231
      -0.262
      -0.276
      -0.272
      -0.259
      -0.240
      -0.210
      -0.163
      -0.104
      -0.044
       0.000
       0.024
       0.031
       0.034
       0.043
       0.066
       0.113
       0.188
       0.287
       0.394
       0.475
       0.496
       0.442
       0.322
       0.162
      -0.009
      -0.171
      -0.312
      -0.423
      -0.494
      -0.523
      -0.519
      -0.495
      -0.467
      -0.444
      -0.427
      -0.402
      -0.345
      -0.231
      -0.057
       0.149
       0.337
       0.463
       0.519
       0.526
       0.519
       0.519
       0.522
       0.511
       0.468
       0.382
       0.259
       0.117
      -0.021
      -0.140
      -0.235
      -0.300
      -0.327
      -0.316
      -0.274
      -0.214
      -0.141
      -0.048
       0.070
       0.204
       0.327
       0.412
       0.450
       0.455
       0.457
       0.478
       0.518
       0.557
       0.563
       0.517
       0.428
       0.324
       0.237
       0.173
       0.109
       0.010
      -0.138
      -0.307
      -0.450
      -0.531
      -0.552
      -0.545
      -0.542
      -0.553
      -0.563
      -0.548
      -0.492
      -0.397
      -0.285
      -0.181
      -0.104
      -0.055
      -0.025
      -0.009
      -0.006
      -0.019
      -0.047
      -0.083
      -0.117
      -0.131
      -0.112
      -0.053
       0.035
       0.127
       0.199
       0.242
       0.265
       0.287
       0.322
       0.361
       0.382
       0.364
       0.308
       0.241
       0.190
       0.158
       0.125
       0.070
      -0.008
      -0.090
      -0.161
      -0.216
      -0.261
      -0.293
      -0.302
      -0.279
      -0.231
      -0.177
      -0.130
      -0.090
      -0.035
       0.053
       0.178
       0.310
       0.401
       0.407
       0.320
       0.175
       0.020
      -0.118
      -0.250
      -0.397
      -0.558
      -0.702
      -0.792
      -0.816
      -0.792
      -0.754
      -0.720
      -0.677
      -0.597
      -0.465
      -0.285
      -0.083
       0.115
       0.285
       0.422
       0.529
       0.622
       0.705
       0.769
       0.798
       0.785
       0.745
       0.697
       0.654
       0.612
       0.562
       0.499
       0.420
       0.322
       0.201
       0.063
      -0.071
      -0.170
      -0.203
      -0.158
      -0.054
       0.074
       0.193
       0.287
       0.355
       0.393
       0.382
       0.295
       0.118
      -0.131
      -0.407
      -0.654
      -0.831
      -0.927
      -0.960
      -0.964
      -0.954
      -0.925
      -0.855
      -0.731
      -0.557
      -0.353
      -0.142
       0.060
       0.235
       0.369
       0.457
       0.506
       0.527
       0.525
       0.488
       0.401
       0.264
       0.110
      -0.010
      -0.055
      -0.019
       0.070
       0.181
       0.294
       0.403
       0.501
       0.565
       0.571
       0.501
       0.363
       0.180
      -0.013
      -0.191
      -0.337
      -0.452
      -0.543
      -0.617
      -0.671
      -0.692
      -0.665
      -0.584
      -0.456
      -0.304
      -0.154
      -0.023
       0.085
       0.183
       0.277
       0.366
       0.432
       0.451
       0.409
       0.304
       0.159
       0.009
      -0.107
      -0.169
      -0.176
      -0.143
      -0.088
      -0.023
       0.039
       0.096
       0.145
       0.189
       0.225
       0.244
       0.234
       0.192
       0.127
       0.047
      -0.043
      -0.142
      -0.244
      -0.340
      -0.421
      -0.480
      -0.514
      -0.519
      -0.495
      -0.449
      -0.398
      -0.351
      -0.307
      -0.258
      -0.198
      -0.131
      -0.067
      -0.011
       0.044
       0.112
       0.202
       0.306
       0.404
       0.476
       0.514
       0.524
       0.520
       0.511
       0.493
       0.452
       0.373
       0.243
       0.066
      -0.135
      -0.321
      -0.448
      -0.493
      -0.461
      -0.377
      -0.263
      -0.129
       0.016
       0.156
       0.260
       0.303
       0.274
       0.186
       0.061
      -0.080
      -0.221
      -0.347
      -0.447
      -0.516
      -0.558
      -0.577
      -0.571
      -0.527
      -0.437
      -0.301
      -0.130
       0.068
       0.285
       0.512
       0.725
       0.898
       1.013
       1.071
       1.080
       1.049
       0.978
       0.870
       0.747
       0.648
       0.605
       0.622
       0.667
       0.692
       0.667
       0.584
       0.459
       0.306
       0.138
      -0.039
      -0.225
      -0.434
      -0.683
      -0.968
      -1.250
      -1.459
      -1.534
      -1.458
      -1.260
      -0.996
      -0.718
      -0.458
      -0.229
      -0.031
       0.145
       0.310
       0.462
       0.589
       0.677
       0.717
       0.715
       0.681
       0.633
       0.586
       0.553
       0.536
       0.523
       0.492
       0.423
       0.308
       0.155
      -0.020
      -0.204
      -0.390
      -0.570
      -0.726
      -0.828
      -0.849
      -0.779
      -0.636
      -0.454
      -0.271
      -0.119
      -0.023
       0.005
      -0.030
      -0.108
      -0.211
      -0.323
      -0.434
      -0.536
      -0.621
      -0.679
      -0.703
      -0.686
      -0.631
      -0.556
      -0.481
      -0.424
      -0.389
      -0.372
      -0.360
      -0.329
      -0.246
      -0.091
       0.128
       0.379
       0.635
       0.881
       1.111
       1.312
       1.462
       1.541
       1.535
       1.443
       1.272
       1.037
       0.757
       0.457
       0.165
      -0.094
      -0.295
      -0.417
      -0.458
      -0.436
      -0.382
      -0.319
      -0.249
      -0.173
      -0.106
      -0.085
      -0.147
      -0.296
      -0.502
      -0.702
      -0.840
      -0.884
      -0.842
      -0.738
      -0.589
      -0.382
      -0.101
       0.239
       0.579
       0.832
       0.931
       0.867
       0.691
       0.481
       0.299
       0.162
       0.042
      -0.104
      -0.294
      -0.501
      -0.669
      -0.749
      -0.726
      -0.620
      -0.469
      -0.312
      -0.176
      -0.076
      -0.012
       0.034
       0.091
       0.172
       0.268
       0.346
       0.375
       0.350
       0.299
       0.272
       0.309
       0.414
       0.543
       0.628
       0.612
       0.482
       0.279
       0.072
      -0.086
      -0.187
      -0.259
      -0.333
      -0.411
      -0.469
      -0.479
      -0.430
      -0.332
      -0.201
      -0.049
       0.110
       0.261
       0.385
       0.475
       0.535
       0.569
       0.568
       0.506
       0.360
       0.127
      -0.159
      -0.445
      -0.684
      -0.854
      -0.957
      -1.002
      -0.990
      -0.917
      -0.788
      -0.618
      -0.429
      -0.244
      -0.086
       0.027
       0.093
       0.128
       0.159
       0.200
       0.248
       0.284
       0.298
       0.298
       0.301
       0.324
       0.372
       0.439
       0.505
       0.547
       0.546
       0.499
       0.421
       0.337
       0.257
       0.166
       0.038
      -0.139
      -0.340
      -0.521
      -0.644
      -0.704
      -0.720
      -0.711
      -0.674
      -0.594
      -0.471
      -0.325
      -0.187
      -0.074
       0.024
       0.129
       0.253
       0.389
       0.516
       0.609
       0.649
       0.636
       0.588
       0.533
       0.490
       0.454
       0.396
       0.300
       0.178
       0.060
      -0.041
      -0.143
      -0.280
      -0.465
      -0.669
      -0.832
      -0.899
      -0.847
      -0.699
      -0.511
      -0.337
      -0.204
      -0.103
      -0.006
       0.112
       0.249
       0.389
       0.515
       0.620
       0.704
       0.758
       0.773
       0.739
       0.667
       0.578
       0.499
       0.441
       0.400
       0.359
       0.302
       0.229
       0.155
       0.109
       0.108
       0.142
       0.177
       0.179
       0.144
       0.094
       0.047
      -0.010
      -0.112
      -0.283
      -0.504
      -0.716
      -0.857
      -0.902
      -0.872
      -0.803
      -0.713
      -0.587
      -0.407
      -0.186
       0.030
       0.188
       0.267
       0.280
       0.268
       0.260
       0.257
       0.224
       0.122
      -0.057
      -0.272
      -0.452
      -0.533
      -0.503
      -0.392
      -0.247
      -0.097
       0.058
       0.225
       0.393
       0.529
       0.599
       0.592
       0.523
       0.425
       0.319
       0.212
       0.099
      -0.016
      -0.112
      -0.168
      -0.182
      -0.178
      -0.188
      -0.219
      -0.255
      -0.267
      -0.237
      -0.163
      -0.052
       0.084
       0.224
       0.335
       0.387
       0.373
       0.311
       0.238
       0.186
       0.162
       0.158
       0.162
       0.170
       0.181
       0.188
       0.177
       0.136
       0.066
      -0.008
      -0.055
      -0.064
      -0.057
      -0.071
      -0.136
      -0.249
      -0.380
      -0.478
      -0.507
      -0.455
      -0.343
      -0.210
      -0.087
       0.020
       0.120
       0.218
       0.302
       0.353
       0.357
       0.310
       0.214
       0.081
      -0.060
      -0.167
      -0.204
      -0.165
      -0.081
       0.005
       0.063
       0.086
       0.080
       0.050
      -0.006
      -0.095
      -0.207
      -0.311
      -0.368
      -0.358
      -0.295
      -0.217
      -0.151
      -0.091
      -0.010
       0.112
       0.260
       0.393
       0.468
       0.470
       0.424
       0.363
       0.303
       0.228
       0.105
      -0.069
      -0.260
      -0.421
      -0.526
      -0.581
      -0.606
      -0.601
      -0.547
      -0.434
      -0.287
      -0.159
      -0.099
      -0.121
      -0.208
      -0.328
      -0.450
      -0.545
      -0.588
      -0.565
      -0.482
      -0.350
      -0.177
       0.038
       0.288
       0.537
       0.729
       0.819
       0.800
       0.702
       0.561
       0.405
       0.260
       0.158
       0.138
       0.218
       0.377
       0.560
       0.701
       0.755
       0.714
       0.595
       0.422
       0.208
      -0.046
      -0.330
      -0.618
      -0.864
      -1.017
      -1.054
      -0.987
      -0.863
      -0.733
      -0.618
      -0.498
      -0.332
      -0.098
       0.182
       0.454
       0.662
       0.780
       0.809
       0.756
       0.630
       0.443
       0.225
       0.020
      -0.125
      -0.183
      -0.160
      -0.100
      -0.056
      -0.059
      -0.093
      -0.107
      -0.065
       0.018
       0.087
       0.089
       0.017
      -0.087
      -0.167
      -0.191
      -0.158
      -0.097
      -0.037
       0.006
       0.041
       0.097
       0.198
       0.339
       0.482
       0.582
       0.615
       0.583
       0.498
       0.358
       0.151
      -0.116
      -0.404
      -0.653
      -0.805
      -0.832
      -0.750
      -0.606
      -0.448
      -0.304
      -0.170
      -0.028
       0.123
       0.258
       0.336
       0.342
       0.299
       0.259
       0.263
       0.312
       0.377
       0.418
       0.408
       0.350
       0.271
       0.216
       0.215
       0.255
       0.280
       0.222
