Origin Time       2/3/2013 01:30:40	  UTC
Lat.              24.8 N	
Long.             92.2 E	
Depth (Km)         10.0
Magnitude         5.2
 Region           India-Bangladesh-Border                                          
 Above details taken from IMD 
    
Station Code      NAU
Station Lat.       26.349  N
Station Long.      92.690  E
Station Height(m)   78.0
Site Class        C   Vs30 between 200 m/sec to 375 m/sec *  
Record Time       02.03.2013 01:30:18.794 UTC
Sampling Rate     200. Hz
 Record Duration  115.980 Sec.
 Direction         N-S (N positive)
Max. Acceleration      5.673 cm/sec**2
     
  * For reference see Site Classification link of website 
     
 Base Line Corrected and Low Pass Filtered (Cut Off at 35 Hz) Time History
 Acceleration data in cm/sec**2
    
[...]
       0.596
       0.688
       0.744
       0.765
       0.743
       0.682
       0.603
       0.533
       0.490
       0.480
       0.492
       0.510
       0.522
       0.527
       0.539
       0.577
       0.644
       0.725
       0.796
       0.842
       0.862
       0.857
       0.817
       0.721
       0.549
       0.308
       0.031
      -0.226
      -0.417
      -0.520
      -0.542
      -0.501
      -0.415
      -0.303
      -0.193
      -0.118
      -0.103
      -0.144
      -0.206
      -0.243
      -0.225
      -0.156
      -0.060
       0.034
       0.108
       0.157
       0.187
       0.207
       0.222
       0.222
       0.184
       0.087
      -0.060
      -0.217
      -0.336
      -0.386
      -0.364
      -0.286
      -0.167
      -0.020
       0.147
       0.318
       0.470
       0.579
       0.628
       0.617
       0.566
       0.507
       0.465
       0.441
       0.420
       0.377
       0.294
       0.170
       0.022
      -0.119
      -0.220
      -0.262
      -0.253
      -0.224
      -0.203
      -0.202
      -0.214
      -0.228
      -0.246
      -0.283
      -0.353
      -0.466
      -0.611
      -0.760
      -0.880
      -0.947
      -0.964
      -0.950
      -0.927
      -0.905
      -0.884
      -0.851
      -0.794
      -0.708
      -0.601
      -0.486
      -0.370
      -0.251
      -0.115
       0.038
       0.192
       0.313
       0.359
       0.303
       0.149
      -0.057
      -0.251
      -0.376
      -0.409
      -0.359
      -0.257
      -0.141
      -0.041
       0.026
       0.054
       0.038
      -0.022
      -0.117
      -0.230
      -0.334
      -0.410
      -0.450
      -0.464
      -0.464
      -0.463
      -0.468
      -0.486
      -0.519
      -0.557
      -0.582
      -0.577
      -0.529
      -0.440
      -0.315
      -0.162
       0.009
       0.177
       0.310
       0.378
       0.372
       0.307
       0.214
       0.117
       0.028
      -0.051
      -0.113
      -0.151
      -0.158
      -0.142
      -0.124
      -0.119
      -0.130
      -0.145
      -0.147
      -0.126
      -0.084
      -0.033
       0.008
       0.029
       0.037
       0.050
       0.093
       0.176
       0.279
       0.362
       0.380
       0.315
       0.180
       0.014
      -0.132
      -0.214
      -0.202
      -0.093
       0.085
       0.283
       0.460
       0.599
       0.721
       0.850
       0.994
       1.131
       1.224
       1.252
       1.222
       1.165
       1.110
       1.074
       1.065
       1.082
       1.111
       1.122
       1.070
       0.929
       0.709
       0.463
       0.262
       0.158
       0.171
       0.282
       0.452
       0.628
       0.757
       0.798
       0.727
       0.542
       0.271
      -0.049
      -0.379
      -0.690
      -0.964
      -1.183
      -1.331
      -1.397
      -1.397
      -1.376
      -1.383
      -1.442
      -1.532
      -1.602
      -1.598
      -1.492
      -1.297
      -1.055
      -0.822
      -0.645
      -0.537
      -0.475
      -0.407
      -0.294
      -0.127
       0.070
       0.263
       0.425
       0.536
       0.586
       0.579
       0.533
       0.467
       0.398
       0.337
       0.290
       0.255
       0.229
       0.210
       0.206
       0.224
       0.254
       0.274
       0.267
       0.231
       0.181
       0.131
       0.087
       0.051
       0.031
       0.039
       0.083
       0.157
       0.244
       0.328
       0.399
       0.460
       0.520
       0.586
       0.650
       0.702
       0.743
       0.790
       0.857
       0.927
       0.954
       0.894
       0.736
       0.515
       0.294
       0.130
       0.047
       0.028
       0.027
       0.009
      -0.036
      -0.093
      -0.151
      -0.225
      -0.351
      -0.559
      -0.835
      -1.115
      -1.319
      -1.393
      -1.329
      -1.170
      -0.981
      -0.823
      -0.721
      -0.667
      -0.624
      -0.564
      -0.486
      -0.407
      -0.337
      -0.257
      -0.137
       0.031
       0.223
       0.385
       0.469
       0.456
       0.368
       0.256
       0.167
       0.128
       0.139
       0.184
       0.250
       0.318
       0.361
       0.347
       0.250
       0.065
      -0.187
      -0.458
      -0.695
      -0.862
      -0.956
      -0.996
      -0.998
      -0.958
      -0.867
      -0.718
      -0.525
      -0.320
      -0.145
      -0.032
       0.004
      -0.029
      -0.104
      -0.193
      -0.271
      -0.320
      -0.337
      -0.333
      -0.335
      -0.368
      -0.434
      -0.511
      -0.568
      -0.577
      -0.531
      -0.440
      -0.330
      -0.228
      -0.152
      -0.102
      -0.072
      -0.062
      -0.076
      -0.115
      -0.167
      -0.206
      -0.199
      -0.115
       0.057
       0.293
       0.537
       0.718
       0.798
       0.786
       0.732
       0.685
       0.669
       0.686
       0.726
       0.784
       0.858
       0.952
       1.070
       1.206
       1.336
       1.416
       1.406
       1.286
       1.075
       0.822
       0.578
       0.373
       0.208
       0.066
      -0.068
      -0.200
      -0.324
      -0.426
      -0.497
      -0.540
      -0.570
      -0.608
      -0.668
      -0.759
      -0.880
      -1.023
      -1.170
      -1.297
      -1.374
      -1.380
      -1.298
      -1.125
      -0.878
      -0.591
      -0.302
      -0.042
       0.175
       0.340
       0.444
       0.476
       0.426
       0.301
       0.137
      -0.012
      -0.094
      -0.088
      -0.005
       0.117
       0.239
       0.338
       0.408
       0.453
       0.474
       0.457
       0.389
       0.272
       0.130
       0.002
      -0.082
      -0.115
      -0.110
      -0.091
      -0.082
      -0.089
      -0.095
      -0.073
      -0.007
       0.095
       0.202
       0.279
       0.306
       0.284
       0.231
       0.167
       0.107
       0.062
       0.042
       0.061
       0.129
       0.242
       0.372
       0.474
       0.515
       0.491
       0.440
       0.419
       0.475
       0.620
       0.832
       1.070
       1.292
       1.462
       1.563
       1.591
       1.559
       1.478
       1.356
       1.198
       1.014
       0.826
       0.653
       0.503
       0.367
       0.230
       0.088
      -0.048
      -0.157
      -0.218
      -0.221
      -0.170
      -0.083
       0.009
       0.072
       0.071
      -0.022
      -0.213
      -0.487
      -0.806
      -1.126
      -1.410
      -1.634
      -1.792
      -1.890
      -1.945
      -1.977
      -2.010
      -2.049
      -2.079
      -2.068
      -1.986
      -1.831
      -1.629
      -1.418
      -1.233
      -1.095
      -1.005
      -0.943
      -0.875
      -0.771
      -0.630
      -0.483
      -0.370
      -0.309
      -0.281
      -0.248
      -0.188
      -0.093
       0.034
       0.194
       0.377
       0.570
       0.752
       0.910
       1.027
       1.092
       1.105
       1.079
       1.038
       1.002
       0.980
       0.965
       0.943
       0.901
       0.830
       0.734
       0.626
       0.517
       0.401
       0.266
       0.102
      -0.083
      -0.272
      -0.453
      -0.616
      -0.747
      -0.827
      -0.839
      -0.791
      -0.706
      -0.610
      -0.509
      -0.391
      -0.241
      -0.060
       0.134
       0.306
       0.421
       0.455
       0.405
       0.287
       0.126
      -0.054
      -0.233
      -0.390
      -0.497
      -0.531
      -0.486
      -0.376
      -0.232
      -0.084
       0.039
       0.127
       0.187
       0.242
       0.310
       0.391
       0.474
       0.552
       0.630
       0.715
       0.806
       0.889
       0.947
       0.969
       0.948
       0.883
       0.786
       0.678
       0.593
       0.562
       0.599
       0.684
       0.776
       0.829
       0.809
       0.709
       0.537
       0.312
       0.057
      -0.203
      -0.444
      -0.648
      -0.802
      -0.902
      -0.942
      -0.921
      -0.841
      -0.714
      -0.562
      -0.415
      -0.297
      -0.219
      -0.172
      -0.150
      -0.147
      -0.162
      -0.185
      -0.199
      -0.191
      -0.163
      -0.125
      -0.079
      -0.012
       0.096
       0.250
       0.433
       0.618
       0.780
       0.910
       1.003
       1.064
       1.105
       1.139
       1.168
       1.179
       1.157
       1.105
       1.040
       0.979
       0.921
       0.850
       0.756
       0.642
       0.526
       0.425
       0.345
       0.275
       0.197
       0.094
      -0.040
      -0.203
      -0.389
      -0.584
      -0.762
      -0.897
      -0.986
      -1.052
      -1.135
      -1.258
      -1.412
      -1.552
      -1.631
      -1.628
      -1.572
      -1.512
      -1.482
      -1.473
      -1.446
      -1.363
      -1.207
      -0.981
      -0.704
      -0.422
      -0.191
      -0.059
      -0.036
      -0.096
      -0.194
      -0.289
      -0.361
      -0.403
      -0.414
      -0.393
      -0.334
      -0.237
      -0.108
       0.030
       0.148
       0.219
       0.238
       0.214
       0.164
       0.093
       0.003
      -0.100
      -0.199
      -0.271
      -0.298
      -0.277
      -0.227
      -0.180
      -0.161
      -0.168
      -0.165
      -0.101
       0.050
       0.265
       0.478
       0.631
       0.697
       0.694
       0.661
       0.637
       0.654
       0.731
       0.862
       1.015
       1.142
       1.198
       1.163
       1.048
       0.885
       0.716
       0.578
       0.495
       0.475
       0.510
       0.574
       0.639
       0.682
       0.692
       0.670
       0.627
       0.581
       0.551
       0.540
       0.524
       0.463
       0.337
       0.165
      -0.009
      -0.148
      -0.244
      -0.312
      -0.380
      -0.474
      -0.609
      -0.786
      -0.984
      -1.164
      -1.286
      -1.320
      -1.259
      -1.117
      -0.927
      -0.733
      -0.566
      -0.445
      -0.376
      -0.355
      -0.377
      -0.429
      -0.495
      -0.556
      -0.596
      -0.593
      -0.525
      -0.368
      -0.115
       0.208
       0.538
       0.795
       0.914
       0.872
       0.693
       0.437
       0.185
       0.003
      -0.088
      -0.120
      -0.150
      -0.212
      -0.295
      -0.367
      -0.406
      -0.423
      -0.435
      -0.452
      -0.466
      -0.459
      -0.417
      -0.339
      -0.237
      -0.137
      -0.061
      -0.010
       0.040
       0.128
       0.279
       0.494
       0.738
       0.952
       1.069
       1.044
       0.873
       0.611
       0.347
       0.158
       0.078
       0.090
       0.145
       0.199
       0.221
       0.207
       0.169
       0.123
       0.073
       0.011
      -0.062
      -0.139
      -0.207
      -0.267
      -0.322
      -0.371
      -0.406
      -0.421
      -0.416
      -0.384
      -0.313
      -0.193
      -0.035
       0.124
       0.244
       0.292
       0.256
       0.141
      -0.021
      -0.187
      -0.310
      -0.358
      -0.327
      -0.237
      -0.128
      -0.040
       0.000
      -0.012
      -0.064
      -0.137
      -0.213
      -0.275
      -0.305
      -0.295
      -0.256
      -0.212
      -0.188
      -0.185
      -0.184
      -0.155
      -0.089
      -0.005
       0.063
       0.088
       0.073
       0.052
       0.077
       0.190
       0.400
       0.679
       0.967
       1.189
       1.278
       1.198
       0.966
       0.647
       0.323
       0.057
      -0.128
      -0.239
      -0.284
      -0.267
      -0.192
      -0.082
       0.019
       0.067
       0.035
      -0.073
      -0.227
      -0.390
      -0.534
      -0.651
      -0.744
      -0.810
      -0.824
      -0.754
      -0.594
      -0.376
      -0.168
      -0.034
      -0.007
      -0.067
      -0.155
      -0.193
      -0.124
       0.070
       0.358
       0.690
       1.020
       1.321
       1.575
       1.766
       1.878
       1.911
       1.876
       1.782
       1.634
       1.432
       1.193
       0.951
       0.747
       0.606
       0.529
       0.487
       0.440
       0.361
       0.253
       0.156
       0.124
       0.182
       0.313
       0.473
       0.633
       0.791
       0.942
       1.050
       1.064
       0.955
       0.750
       0.511
       0.292
       0.114
      -0.034
      -0.184
      -0.361
      -0.570
      -0.785
      -0.961
      -1.076
      -1.165
      -1.319
      -1.630
      -2.127
      -2.738
      -3.308
      -3.673
      -3.729
      -3.478
      -3.024
      -2.527
      -2.133
      -1.909
      -1.829
      -1.793
      -1.699
      -1.486
      -1.161
      -0.769
      -0.365
       0.021
       0.378
       0.708
       0.997
       1.216
       1.330
       1.328
       1.234
       1.097
       0.969
       0.876
       0.806
       0.704
       0.504
       0.163
      -0.304
      -0.821
      -1.272
      -1.544
      -1.568
      -1.341
      -0.923
      -0.415
       0.081
       0.489
       0.770
       0.920
       0.965
       0.957
       0.966
       1.040
       1.160
       1.242
       1.178
       0.903
       0.422
      -0.205
      -0.886
      -1.527
      -2.031
      -2.310
      -2.306
      -2.004
      -1.457
      -0.768
      -0.056
       0.591
       1.146
       1.631
       2.097
       2.597
       3.177
       3.845
       4.554
       5.187
       5.600
       5.673
       5.359
       4.692
       3.768
       2.703
       1.600
       0.532
      -0.458
      -1.354
      -2.151
      -2.827
      -3.315
      -3.502
      -3.259
      -2.510
      -1.277
       0.293
       1.954
       3.421
       4.454
       4.927
       4.864
       4.422
       3.819
       3.251
       2.824
       2.527
       2.254
       1.856
       1.209
       0.278
      -0.864
      -2.048
      -3.058
      -3.707
      -3.903
      -3.681
      -3.173
      -2.534
      -1.873
      -1.234
      -0.623
      -0.047
       0.465
       0.874
       1.144
       1.259
       1.218
       1.026
       0.689
       0.224
      -0.335
      -0.931
      -1.499
      -1.980
      -2.339
      -2.580
      -2.733
      -2.824
      -2.830
      -2.667
      -2.226
      -1.454
      -0.409
       0.729
       1.714
       2.322
       2.430
       2.072
       1.407
       0.641
      -0.051
      -0.561
      -0.840
      -0.902
      -0.827
      -0.754
      -0.821
      -1.094
      -1.547
      -2.085
      -2.605
      -3.032
      -3.330
      -3.500
      -3.557
      -3.521
      -3.421
      -3.315
      -3.285
      -3.408
      -3.706
      -4.115
      -4.502
      -4.710
      -4.626
      -4.226
      -3.590
      -2.861
      -2.176
      -1.581
      -1.015
      -0.376
       0.377
       1.178
       1.887
       2.374
       2.572
       2.488
       2.181
       1.738
       1.248
       0.775
       0.366
       0.059
      -0.095
      -0.051
       0.198
       0.581
       0.966
       1.209
       1.216
       0.994
       0.649
       0.338
       0.188
       0.236
       0.415
       0.606
       0.708
       0.680
       0.535
       0.302
       0.000
      -0.346
      -0.674
      -0.871
      -0.814
      -0.438
       0.206
       0.953
       1.586
       1.930
       1.927
       1.647
       1.243
       0.892
       0.732
       0.817
       1.108
       1.495
       1.849
       2.069
       2.099
       1.926
       1.559
       1.026
       0.386
      -0.258
      -0.761
      -0.985
      -0.872
      -0.481
       0.037
       0.519
       0.862
       1.046
       1.102
       1.067
       0.958
       0.771
       0.519
       0.255
       0.091
       0.144
       0.467
       0.987
       1.516
       1.828
       1.768
       1.327
       0.649
      -0.037
      -0.535
      -0.767
      -0.796
      -0.776
      -0.860
      -1.126
      -1.553
      -2.044
      -2.486
      -2.782
      -2.864
      -2.692
      -2.270
      -1.655
      -0.969
      -0.359
       0.052
       0.202
       0.105
      -0.162
      -0.490
      -0.760
      -0.867
      -0.719
      -0.257
       0.513
       1.485
       2.452
       3.152
       3.347
       2.913
       1.907
       0.579
      -0.679
      -1.469
      -1.533
      -0.853
       0.343
       1.690
       2.831
       3.537
       3.751
       3.561
       3.121
       2.571
       1.981
       1.348
       0.656
      -0.053
      -0.645
      -0.935
      -0.776
      -0.163
       0.735
       1.632
       2.247
       2.414
       2.124
       1.495
       0.687
      -0.166
      -0.984
      -1.719
      -2.326
      -2.754
      -2.975
      -3.002
      -2.891
      -2.716
      -2.544
      -2.408
      -2.302
      -2.175
      -1.938
      -1.494
      -0.774
       0.203
       1.309
       2.339
       3.090
       3.451
       3.425
       3.107
       2.604
       1.990
       1.299
       0.578
      -0.078
      -0.548
      -0.766
      -0.774
      -0.705
      -0.701
      -0.834
      -1.085
      -1.364
      -1.551
      -1.540
      -1.275
      -0.784
      -0.168
       0.448
       0.982
       1.418
       1.780
       2.089
       2.334
       2.481
       2.490
       2.330
       1.990
       1.480
       0.838
       0.135
      -0.541
      -1.118
      -1.555
      -1.840
      -1.978
      -1.985
      -1.890
      -1.727
      -1.524
      -1.283
      -0.993
      -0.648
      -0.279
       0.048
       0.255
       0.290
       0.146
      -0.137
      -0.480
      -0.772
      -0.902
      -0.806
      -0.521
      -0.192
      -0.003
      -0.074
      -0.379
      -0.751
      -0.978
      -0.936
      -0.673
      -0.373
      -0.245
      -0.382
      -0.712
      -1.043
      -1.204
      -1.160
      -1.037
      -1.015
      -1.185
      -1.468
      -1.659
      -1.560
      -1.096
      -0.356
       0.477
       1.248
       1.905
       2.503
       3.119
       3.754
       4.300
       4.587
       4.494
       4.043
       3.408
       2.819
       2.431
       2.248
       2.134
       1.912
       1.462
       0.783
      -0.017
      -0.775
      -1.356
      -1.704
      -1.871
      -1.982
      -2.163
      -2.467
      -2.830
      -3.105
      -3.129
      -2.801
      -2.138
      -1.281
      -0.457
       0.099
       0.233
      -0.070
      -0.684
      -1.420
      -2.120
      -2.715
      -3.202
      -3.592
      -3.870
      -3.994
      -3.909
      -3.569
      -2.975
      -2.190
      -1.325
      -0.496
       0.240
       0.904
       1.576
       2.340
       3.218
       4.134
       4.928
       5.426
       5.519
       5.199
       4.529
       3.600
       2.514
       1.391
       0.374
      -0.404
      -0.867
      -1.023
      -0.956
      -0.783
      -0.606
      -0.472
      -0.361
      -0.216
       0.006
       0.285
       0.520
       0.576
       0.354
      -0.145
      -0.828
      -1.560
      -2.229
      -2.770
      -3.167
      -3.436
      -3.589
      -3.599
      -3.396
      -2.897
      -2.078
      -1.016
       0.116
       1.111
       1.808
       2.147
       2.183
       2.046
       1.875
       1.748
       1.674
