Origin Time       21/9/2009 8:53:04	 
Lat.              27.3 N	
Long.             91.5 E	
Depth (Km)          8.0
Magnitude         6.2
 Region           BHUTAN                                                           
 Above details taken from IMD 
   
Station Code      NAU
Station Lat.       26.349
Station Long.      92.683
Station Height(m)   72.0
Site Class        C   Vs30 between 200 m/sec to 375 m/sec *  
Record Time       21.09.2009 08:53:37.999
Sampling Rate     200. Hz
 Record Duration  106.535 Sec.
 Direction         Vert. (Up positive)
Max. Acceleration    -13.135 cm/sec**2
     
  * For reference see Site Classification link of website 
     
 Base Line Corrected and Low Pass Filtered (Cut Off at 35 Hz) Time History
 Acceleration data in cm/sec**2
    
[...]
      -6.144
      -6.452
      -6.422
      -6.042
      -5.320
      -4.294
      -3.033
      -1.651
      -0.291
       0.896
       1.781
       2.279
       2.361
       2.038
       1.349
       0.357
      -0.843
      -2.111
      -3.281
      -4.202
      -4.775
      -4.964
      -4.778
      -4.235
      -3.366
      -2.222
      -0.895
       0.494
       1.819
       2.990
       3.951
       4.660
       5.058
       5.072
       4.651
       3.809
       2.630
       1.230
      -0.277
      -1.797
      -3.253
      -4.578
      -5.703
      -6.548
      -7.036
      -7.117
      -6.783
      -6.066
      -5.016
      -3.691
      -2.161
      -0.526
       1.083
       2.524
       3.673
       4.454
       4.835
       4.819
       4.431
       3.723
       2.793
       1.773
       0.806
       0.005
      -0.570
      -0.907
      -1.025
      -0.954
      -0.734
      -0.422
      -0.100
       0.140
       0.216
       0.073
      -0.314
      -0.944
      -1.785
      -2.772
      -3.797
      -4.722
      -5.402
      -5.716
      -5.592
      -4.999
      -3.942
      -2.460
      -0.640
       1.375
       3.399
       5.236
       6.709
       7.667
       7.988
       7.585
       6.437
       4.606
       2.243
      -0.430
      -3.148
      -5.626
      -7.591
      -8.813
      -9.147
      -8.562
      -7.150
      -5.099
      -2.656
      -0.084
       2.371
       4.495
       6.108
       7.067
       7.284
       6.752
       5.560
       3.869
       1.886
      -0.162
      -2.041
      -3.543
      -4.509
      -4.861
      -4.598
      -3.789
      -2.555
      -1.057
       0.539
       2.086
       3.465
       4.574
       5.310
       5.571
       5.298
       4.524
       3.387
       2.079
       0.786
      -0.357
      -1.258
      -1.856
      -2.110
      -2.024
      -1.670
      -1.178
      -0.709
      -0.408
      -0.379
      -0.661
      -1.218
      -1.949
      -2.716
      -3.366
      -3.758
      -3.800
      -3.466
      -2.797
      -1.894
      -0.895
       0.063
       0.876
       1.490
       1.876
       2.008
       1.864
       1.464
       0.882
       0.228
      -0.383
      -0.853
      -1.100
      -1.051
      -0.667
       0.024
       0.924
       1.885
       2.747
       3.364
       3.629
       3.496
       2.981
       2.154
       1.131
       0.051
      -0.942
      -1.716
      -2.141
      -2.103
      -1.534
      -0.460
       0.972
       2.506
       3.833
       4.674
       4.855
       4.337
       3.205
       1.628
      -0.197
      -2.068
      -3.802
      -5.243
      -6.270
      -6.783
      -6.693
      -5.934
      -4.510
      -2.558
      -0.381
       1.636
       3.176
       4.098
       4.409
       4.164
       3.401
       2.173
       0.591
      -1.144
      -2.773
      -4.049
      -4.797
      -4.949
      -4.523
      -3.595
      -2.271
      -0.672
       1.045
       2.688
       4.062
       5.022
       5.511
       5.544
       5.166
       4.442
       3.452
       2.295
       1.077
      -0.104
      -1.160
      -2.011
      -2.588
      -2.862
      -2.866
      -2.682
      -2.395
      -2.039
      -1.600
      -1.056
      -0.429
       0.209
       0.779
       1.235
       1.578
       1.827
       1.979
       2.009
       1.894
       1.631
       1.247
       0.794
       0.354
       0.009
      -0.197
      -0.274
      -0.246
      -0.111
       0.146
       0.504
       0.886
       1.174
       1.249
       1.022
       0.458
      -0.417
      -1.529
      -2.769
      -4.029
      -5.217
      -6.230
      -6.926
      -7.151
      -6.807
      -5.892
      -4.463
      -2.577
      -0.295
       2.243
       4.752
       6.863
       8.279
       8.891
       8.749
       7.972
       6.701
       5.087
       3.292
       1.475
      -0.213
      -1.620
      -2.594
      -3.002
      -2.789
      -2.003
      -0.755
       0.826
       2.596
       4.364
       5.882
       6.892
       7.193
       6.703
       5.490
       3.739
       1.676
      -0.509
      -2.676
      -4.692
      -6.406
      -7.673
      -8.403
      -8.569
      -8.187
      -7.310
      -6.038
      -4.529
      -2.986
      -1.612
      -0.564
       0.077
       0.323
       0.262
       0.023
      -0.253
      -0.431
      -0.399
      -0.078
       0.570
       1.538
       2.784
       4.236
       5.787
       7.286
       8.544
       9.360
       9.569
       9.071
       7.865
       6.045
       3.785
       1.312
      -1.129
      -3.297
      -4.989
      -6.080
      -6.546
      -6.444
      -5.851
      -4.831
      -3.454
      -1.837
      -0.166
       1.334
       2.449
       3.025
       2.984
       2.320
       1.100
      -0.527
      -2.314
      -3.954
      -5.160
      -5.756
      -5.701
      -5.067
      -3.981
      -2.589
      -1.046
       0.473
       1.793
       2.769
       3.325
       3.447
       3.173
       2.570
       1.725
       0.768
      -0.119
      -0.754
      -1.037
      -1.001
      -0.769
      -0.468
      -0.174
       0.080
       0.262
       0.330
       0.250
       0.019
      -0.335
      -0.764
      -1.220
      -1.660
      -2.046
      -2.334
      -2.463
      -2.380
      -2.072
      -1.577
      -0.961
      -0.297
       0.344
       0.889
       1.270
       1.430
       1.328
       0.964
       0.413
      -0.160
      -0.546
      -0.578
      -0.215
       0.452
       1.278
       2.154
       3.022
       3.848
       4.579
       5.134
       5.410
       5.281
       4.635
       3.423
       1.703
      -0.344
      -2.462
      -4.386
      -5.909
      -6.910
      -7.343
      -7.217
      -6.582
      -5.549
      -4.309
      -3.100
      -2.128
      -1.521
      -1.326
      -1.540
      -2.117
      -2.938
      -3.811
      -4.500
      -4.803
      -4.615
      -3.933
      -2.832
      -1.445
       0.059
       1.508
       2.763
       3.735
       4.379
       4.680
       4.655
       4.362
       3.916
       3.487
       3.254
       3.329
       3.688
       4.180
       4.594
       4.750
       4.541
       3.951
       3.050
       1.984
       0.934
       0.041
      -0.650
      -1.170
      -1.552
      -1.760
      -1.711
      -1.359
      -0.771
      -0.108
       0.442
       0.736
       0.713
       0.407
      -0.064
      -0.527
      -0.802
      -0.745
      -0.268
       0.671
       2.056
       3.789
       5.680
       7.503
       9.047
      10.153
      10.707
      10.632
       9.909
       8.574
       6.715
       4.472
       2.036
      -0.360
      -2.489
      -4.174
      -5.295
      -5.791
      -5.666
      -5.014
      -3.999
      -2.804
      -1.599
      -0.539
       0.213
       0.507
       0.256
      -0.504
      -1.621
      -2.913
      -4.244
      -5.504
      -6.532
      -7.113
      -7.051
      -6.264
      -4.812
      -2.860
      -0.627
       1.636
       3.656
       5.160
       5.946
       5.922
       5.089
       3.527
       1.421
      -0.929
      -3.178
      -5.046
      -6.375
      -7.093
      -7.148
      -6.511
      -5.240
      -3.544
      -1.745
      -0.159
       1.021
       1.760
       2.110
       2.143
       1.938
       1.606
       1.281
       1.060
       0.952
       0.899
       0.860
       0.854
       0.942
       1.145
       1.409
       1.623
       1.692
       1.596
       1.376
       1.070
       0.651
       0.022
      -0.917
      -2.194
      -3.707
      -5.240
      -6.555
      -7.478
      -7.929
      -7.887
      -7.361
      -6.382
      -5.024
      -3.395
      -1.620
       0.184
       1.905
       3.430
       4.636
       5.400
       5.633
       5.305
       4.458
       3.202
       1.690
       0.105
      -1.363
      -2.539
      -3.275
      -3.466
      -3.061
      -2.084
      -0.642
       1.087
       2.891
       4.570
       5.972
       7.018
       7.699
       8.034
       8.016
       7.581
       6.632
       5.104
       3.039
       0.621
      -1.844
      -4.022
      -5.652
      -6.613
      -6.920
      -6.664
      -5.945
      -4.838
      -3.417
      -1.796
      -0.140
       1.357
       2.517
       3.208
       3.375
       3.045
       2.313
       1.302
       0.131
      -1.084
      -2.222
      -3.161
      -3.809
      -4.135
      -4.162
      -3.937
      -3.524
      -3.016
      -2.531
      -2.185
      -2.041
      -2.092
      -2.289
      -2.555
      -2.806
      -2.962
      -2.967
      -2.808
      -2.493
      -2.023
      -1.379
      -0.553
       0.403
       1.373
       2.206
       2.784
       3.077
       3.142
       3.081
       2.966
       2.796
       2.510
       2.063
       1.481
       0.852
       0.258
      -0.253
      -0.652
      -0.890
      -0.910
      -0.687
      -0.268
       0.242
       0.722
       1.067
       1.204
       1.089
       0.717
       0.118
      -0.643
      -1.461
      -2.189
      -2.652
      -2.705
      -2.300
      -1.496
      -0.412
       0.828
       2.120
       3.370
       4.486
       5.391
       6.051
       6.477
       6.711
       6.797
       6.778
       6.694
       6.579
       6.447
       6.284
       6.046
       5.686
       5.180
       4.552
       3.844
       3.088
       2.287
       1.434
       0.508
      -0.518
      -1.646
      -2.827
      -3.950
      -4.869
      -5.459
      -5.644
      -5.404
      -4.773
      -3.846
      -2.771
      -1.716
      -0.820
      -0.176
       0.154
       0.124
      -0.288
      -1.046
      -2.036
      -3.077
      -3.967
      -4.533
      -4.660
      -4.287
      -3.410
      -2.078
      -0.399
       1.453
       3.250
       4.746
       5.716
       5.998
       5.523
       4.343
       2.662
       0.800
      -0.886
      -2.098
      -2.662
      -2.530
      -1.763
      -0.501
       1.045
       2.624
       3.996
       4.978
       5.469
       5.435
       4.886
       3.868
       2.469
       0.819
      -0.922
      -2.595
      -4.085
      -5.308
      -6.200
      -6.704
      -6.789
      -6.478
      -5.845
      -5.004
      -4.071
      -3.130
      -2.215
      -1.307
      -0.357
       0.681
       1.810
       2.969
       4.049
       4.945
       5.584
       5.930
       5.969
       5.717
       5.219
       4.541
       3.744
       2.859
       1.892
       0.854
      -0.210
      -1.226
      -2.119
      -2.835
      -3.366
      -3.749
      -4.044
      -4.276
      -4.405
      -4.336
      -3.985
      -3.358
      -2.558
      -1.742
      -1.039
      -0.514
      -0.187
      -0.078
      -0.202
      -0.536
      -0.999
      -1.474
      -1.850
      -2.038
      -1.977
      -1.641
      -1.057
      -0.317
       0.442
       1.075
       1.460
       1.522
       1.243
       0.675
      -0.074
      -0.874
      -1.617
      -2.226
      -2.641
      -2.794
      -2.625
      -2.115
      -1.328
      -0.397
       0.515
       1.273
       1.822
       2.191
       2.453
       2.661
       2.813
       2.881
       2.849
       2.739
       2.589
       2.418
       2.226
       2.018
       1.811
       1.618
       1.437
       1.266
       1.128
       1.068
       1.133
       1.353
       1.722
       2.185
       2.636
       2.939
       2.968
       2.649
       1.965
       0.959
      -0.282
      -1.627
      -2.915
      -3.982
      -4.698
      -5.001
      -4.899
      -4.463
      -3.814
      -3.096
      -2.428
      -1.878
      -1.453
      -1.138
      -0.934
      -0.860
      -0.919
      -1.058
      -1.179
      -1.165
      -0.923
      -0.403
       0.375
       1.325
       2.323
       3.252
       4.035
       4.635
       5.027
       5.191
       5.134
       4.931
       4.708
       4.572
       4.535
       4.502
       4.335
       3.935
       3.282
       2.414
       1.379
       0.191
      -1.151
      -2.594
      -3.969
      -5.039
      -5.629
      -5.727
      -5.461
      -4.974
      -4.339
      -3.579
      -2.742
      -1.926
      -1.262
      -0.881
      -0.894
      -1.352
      -2.221
      -3.383
      -4.672
      -5.922
      -6.973
      -7.667
      -7.852
      -7.397
      -6.217
      -4.301
      -1.748
       1.220
       4.272
       7.044
       9.211
      10.551
      10.947
      10.383
       8.931
       6.737
       4.009
       1.002
      -1.985
      -4.627
      -6.625
      -7.790
      -8.080
      -7.581
      -6.424
      -4.738
      -2.686
      -0.523
       1.424
       2.836
       3.500
       3.326
       2.325
       0.587
      -1.712
      -4.313
      -6.883
      -9.083
     -10.632
     -11.326
     -11.039
      -9.737
      -7.537
      -4.709
      -1.604
       1.444
       4.140
       6.212
       7.428
       7.677
       7.034
       5.739
       4.097
       2.373
       0.764
      -0.584
      -1.538
      -2.001
      -1.964
      -1.522
      -0.826
      -0.021
       0.776
       1.456
       1.920
       2.110
       2.030
       1.743
       1.332
       0.852
       0.326
      -0.241
      -0.830
      -1.388
      -1.832
      -2.063
      -1.988
      -1.538
      -0.689
       0.542
       2.112
       3.949
       5.920
       7.814
       9.380
      10.389
      10.690
      10.197
       8.868
       6.698
       3.761
       0.255
      -3.494
      -7.079
     -10.092
     -12.183
     -13.135
     -12.907
     -11.644
      -9.602
      -7.030
      -4.113
      -1.000
       2.116
       4.966
       7.259
       8.765
       9.358
       9.024
       7.848
       6.003
       3.736
       1.329
      -0.931
      -2.803
      -4.121
      -4.807
      -4.841
      -4.234
      -3.014
      -1.252
       0.891
       3.128
       5.080
       6.389
       6.854
       6.476
       5.385
       3.772
       1.858
      -0.113
      -1.922
      -3.408
      -4.464
      -4.991
      -4.885
      -4.105
      -2.767
      -1.152
       0.408
       1.649
       2.403
       2.573
       2.128
       1.128
      -0.264
      -1.802
      -3.214
      -4.265
      -4.816
      -4.815
      -4.263
      -3.185
      -1.656
       0.180
       2.117
       3.932
       5.418
       6.402
       6.758
       6.424
       5.420
       3.842
       1.864
      -0.271
      -2.268
      -3.870
      -4.944
      -5.501
      -5.621
      -5.345
      -4.646
      -3.499
      -1.964
      -0.201
       1.580
       3.176
       4.405
       5.120
       5.241
       4.790
       3.891
       2.729
       1.508
       0.438
      -0.292
      -0.557
      -0.334
       0.286
       1.143
       2.046
       2.825
       3.356
       3.566
       3.427
       2.925
       2.059
       0.865
      -0.545
      -1.990
      -3.261
      -4.192
      -4.704
      -4.812
      -4.584
      -4.100
      -3.418
      -2.572
      -1.597
      -0.566
       0.420
       1.261
       1.910
       2.369
       2.655
       2.746
       2.562
       2.014
       1.083
      -0.118
      -1.389
      -2.525
      -3.379
      -3.872
      -3.965
      -3.644
      -2.922
      -1.866
      -0.619
       0.624
       1.681
       2.447
       2.906
       3.102
       3.059
       2.743
       2.098
       1.149
       0.045
      -1.003
      -1.826
      -2.376
      -2.694
      -2.827
      -2.761
      -2.428
      -1.774
      -0.824
       0.310
       1.481
       2.555
       3.432
       4.043
       4.335
       4.287
       3.929
       3.347
       2.657
       1.955
       1.292
       0.693
       0.191
      -0.152
      -0.270
      -0.138
       0.202
       0.661
       1.137
       1.534
       1.768
       1.764
       1.446
       0.750
      -0.359
      -1.841
      -3.562
      -5.309
      -6.837
      -7.943
      -8.525
      -8.592
      -8.228
      -7.526
      -6.542
      -5.294
      -3.803
      -2.128
      -0.383
       1.280
       2.701
       3.757
       4.382
       4.582
       4.415
       3.959
       3.274
       2.410
       1.433
       0.446
      -0.429
      -1.095
      -1.518
      -1.722
      -1.745
      -1.610
      -1.316
      -0.877
      -0.335
       0.243
       0.790
       1.247
       1.571
       1.734
       1.729
       1.570
       1.293
       0.957
       0.632
       0.385
       0.245
       0.198
       0.197
       0.205
       0.220
       0.286
       0.453
       0.755
       1.189
       1.710
       2.251
       2.734
       3.097
       3.307
       3.378
       3.346
       3.234
       3.028
       2.699
       2.253
       1.764
       1.350
       1.132
       1.185
       1.511
       2.055
       2.737
       3.480
       4.213
       4.867
       5.359
       5.582
       5.419
       4.783
       3.655
       2.079
       0.147
      -2.019
      -4.268
      -6.425
      -8.310
      -9.754
     -10.614
     -10.784
     -10.212
      -8.932
      -7.091
      -4.943
      -2.795
      -0.929
       0.459
       1.275
       1.511
       1.235
       0.577
      -0.284
      -1.152
      -1.842
      -2.203
      -2.129
      -1.563
      -0.498
       0.988
       2.706
       4.392
       5.786
       6.708
       7.078
       6.884
       6.156
       4.964
       3.437
       1.749
       0.080
      -1.417
      -2.620
      -3.428
      -3.765
      -3.605
      -3.014
      -2.145
      -1.194
      -0.307
       0.463
       1.138
       1.741
       2.231
       2.519
       2.526
       2.231
       1.680
       0.955
       0.156
      -0.621
      -1.302
      -1.839
      -2.192
      -2.316
      -2.159
      -1.703
      -0.993
      -0.146
       0.683
       1.341
       1.707
       1.711
       1.349
       0.704
      -0.072
      -0.814
      -1.408
      -1.815
      -2.043
      -2.107
      -2.016
      -1.794
      -1.489
      -1.173
      -0.899
      -0.697
      -0.576
      -0.536
      -0.580
      -0.693
      -0.832
      -0.923
      -0.898
      -0.744
      -0.513
      -0.290
      -0.147
      -0.112
      -0.164
      -0.247
      -0.297
      -0.263
      -0.110
       0.181
       0.624
       1.216
       1.939
       2.736
       3.513
       4.147
       4.523
       4.569
       4.274
       3.694
       2.919
       2.051
       1.183
       0.398
      -0.242
      -0.695
      -0.937
      -0.966
      -0.809
      -0.517
      -0.161
       0.170
       0.372
       0.323
      -0.076
      -0.857
      -1.956
      -3.224
      -4.480
      -5.543
      -6.248
      -6.452
      -6.064
      -5.110
      -3.766
      -2.305
      -0.995
      -0.016
       0.556
       0.738
       0.618
       0.321
      -0.040
      -0.394
      -0.711
      -0.970
      -1.136
      -1.148
      -0.943
      -0.472
       0.286
       1.303
       2.499
       3.735
       4.844
       5.663
       6.082
       6.062
       5.640
       4.906
       3.981
       2.986
       2.043
       1.261
       0.733
       0.515
       0.613
       0.969
       1.459
       1.921
       2.200
       2.182
       1.810
       1.067
      -0.040
      -1.474
      -3.154
      -4.948
      -6.690
      -8.198
      -9.306
      -9.876
      -9.833
