Origin Time       07/10/2013 20:54:03 UTC
Lat.              26.3 N	
Long.             92.5 E	
Depth (Km)         10.0
Magnitude         3.7
 Region           Naogaon-Assam                                                    
 Above details taken from IMD 
    
Station Code      NAU
Station Lat.       26.349  N
Station Long.      92.690  E
Station Height(m)   78.0
Site Class        C   Vs30 between 200 m/sec to 375 m/sec *  
Record Time       07.10.2013 20:53:41.244 UTC
Sampling Rate     200. Hz
 Record Duration   92.905 Sec.
 Direction         N-S (N positive)
Max. Acceleration     -8.536 cm/sec**2
     
  * For reference see Site Classification link of website 
     
 Base Line Corrected and Low Pass Filtered (Cut Off at 35 Hz) Time History
 Acceleration data in cm/sec**2
    
[...]
      -0.068
       0.014
       0.105
       0.192
       0.242
       0.219
       0.116
      -0.030
      -0.155
      -0.210
      -0.197
      -0.161
      -0.137
      -0.116
      -0.064
       0.036
       0.152
       0.227
       0.230
       0.170
       0.082
      -0.002
      -0.066
      -0.110
      -0.148
      -0.191
      -0.229
      -0.238
      -0.183
      -0.052
       0.137
       0.330
       0.457
       0.471
       0.384
       0.258
       0.162
       0.119
       0.098
       0.057
      -0.008
      -0.072
      -0.114
      -0.141
      -0.173
      -0.213
      -0.242
      -0.245
      -0.224
      -0.200
      -0.192
      -0.207
      -0.232
      -0.236
      -0.185
      -0.075
       0.052
       0.141
       0.168
       0.156
       0.145
       0.149
       0.160
       0.158
       0.130
       0.056
      -0.079
      -0.268
      -0.464
      -0.601
      -0.620
      -0.508
      -0.302
      -0.069
       0.137
       0.292
       0.396
       0.451
       0.441
       0.339
       0.134
      -0.135
      -0.391
      -0.555
      -0.590
      -0.504
      -0.330
      -0.105
       0.139
       0.368
       0.557
       0.695
       0.785
       0.823
       0.789
       0.679
       0.516
       0.343
       0.190
       0.064
      -0.038
      -0.116
      -0.169
      -0.196
      -0.194
      -0.146
      -0.034
       0.128
       0.266
       0.292
       0.168
      -0.065
      -0.326
      -0.543
      -0.685
      -0.746
      -0.727
      -0.622
      -0.445
      -0.231
      -0.023
       0.150
       0.274
       0.337
       0.327
       0.236
       0.063
      -0.173
      -0.427
      -0.626
      -0.698
      -0.616
      -0.419
      -0.193
      -0.013
       0.093
       0.140
       0.161
       0.191
       0.239
       0.282
       0.276
       0.212
       0.133
       0.107
       0.165
       0.264
       0.319
       0.270
       0.127
      -0.044
      -0.173
      -0.216
      -0.165
      -0.035
       0.152
       0.370
       0.573
       0.710
       0.748
       0.696
       0.600
       0.512
       0.463
       0.439
       0.400
       0.305
       0.136
      -0.098
      -0.358
      -0.581
      -0.705
      -0.702
      -0.593
      -0.443
      -0.329
      -0.303
      -0.357
      -0.430
      -0.456
      -0.408
      -0.309
      -0.212
      -0.158
      -0.143
      -0.131
      -0.087
      -0.006
       0.084
       0.146
       0.160
       0.138
       0.103
       0.067
       0.016
      -0.067
      -0.181
      -0.293
      -0.340
      -0.268
      -0.087
       0.119
       0.253
       0.285
       0.263
       0.268
       0.337
       0.443
       0.517
       0.509
       0.414
       0.270
       0.142
       0.080
       0.081
       0.089
       0.049
      -0.053
      -0.191
      -0.337
      -0.488
      -0.661
      -0.862
      -1.060
      -1.182
      -1.160
      -0.982
      -0.711
      -0.441
      -0.246
      -0.141
      -0.090
      -0.024
       0.129
       0.396
       0.727
       1.010
       1.138
       1.079
       0.890
       0.682
       0.546
       0.507
       0.521
       0.522
       0.488
       0.462
       0.498
       0.592
       0.673
       0.658
       0.519
       0.292
       0.045
      -0.158
      -0.288
      -0.348
      -0.369
      -0.389
      -0.427
      -0.476
      -0.502
      -0.476
      -0.388
      -0.245
      -0.074
       0.076
       0.142
       0.072
      -0.135
      -0.414
      -0.654
      -0.763
      -0.728
      -0.616
      -0.493
      -0.359
      -0.185
       0.025
       0.209
       0.302
       0.290
       0.228
       0.193
       0.223
       0.284
       0.297
       0.212
       0.057
      -0.083
      -0.137
      -0.097
       0.000
       0.126
       0.291
       0.498
       0.719
       0.903
       1.004
       0.994
       0.858
       0.602
       0.253
      -0.141
      -0.526
      -0.843
      -1.027
      -1.033
      -0.886
      -0.693
      -0.583
      -0.597
      -0.655
      -0.630
      -0.457
      -0.193
       0.037
       0.132
       0.094
       0.011
      -0.022
       0.016
       0.064
       0.049
      -0.042
      -0.153
      -0.217
      -0.211
      -0.139
      -0.006
       0.183
       0.387
       0.538
       0.579
       0.516
       0.410
       0.317
       0.253
       0.211
       0.182
       0.166
       0.155
       0.147
       0.152
       0.181
       0.233
       0.293
       0.318
       0.253
       0.065
      -0.214
      -0.480
      -0.618
      -0.582
      -0.429
      -0.263
      -0.162
      -0.133
      -0.138
      -0.139
      -0.121
      -0.077
      -0.003
       0.109
       0.252
       0.401
       0.512
       0.540
       0.467
       0.307
       0.103
      -0.087
      -0.211
      -0.245
      -0.218
      -0.195
      -0.238
      -0.354
      -0.481
      -0.534
      -0.454
      -0.253
      -0.004
       0.201
       0.310
       0.349
       0.387
       0.465
       0.551
       0.574
       0.487
       0.315
       0.128
      -0.002
      -0.039
       0.012
       0.104
       0.179
       0.205
       0.182
       0.118
       0.013
      -0.125
      -0.271
      -0.387
      -0.452
      -0.481
      -0.505
      -0.543
      -0.594
      -0.629
      -0.612
      -0.514
      -0.338
      -0.127
       0.062
       0.188
       0.246
       0.263
       0.282
       0.341
       0.438
       0.532
       0.566
       0.519
       0.413
       0.295
       0.196
       0.121
       0.059
       0.005
      -0.043
      -0.084
      -0.114
      -0.115
      -0.068
       0.019
       0.097
       0.102
       0.017
      -0.116
      -0.230
      -0.292
      -0.314
      -0.321
      -0.340
      -0.389
      -0.462
      -0.511
      -0.473
      -0.336
      -0.164
      -0.044
      -0.010
      -0.013
       0.012
       0.085
       0.169
       0.211
       0.199
       0.165
       0.148
       0.159
       0.178
       0.184
       0.172
       0.151
       0.127
       0.095
       0.050
       0.000
      -0.017
       0.056
       0.233
       0.453
       0.604
       0.608
       0.489
       0.341
       0.238
       0.186
       0.158
       0.140
       0.129
       0.104
       0.034
      -0.090
      -0.240
      -0.378
      -0.481
      -0.538
      -0.531
      -0.453
      -0.330
      -0.218
      -0.159
      -0.155
      -0.177
      -0.189
      -0.176
      -0.149
      -0.135
      -0.148
      -0.177
      -0.193
      -0.175
      -0.111
       0.008
       0.189
       0.413
       0.626
       0.757
       0.757
       0.638
       0.469
       0.335
       0.283
       0.285
       0.268
       0.178
       0.019
      -0.160
      -0.300
      -0.374
      -0.397
      -0.403
      -0.412
      -0.420
      -0.408
      -0.366
      -0.305
      -0.236
      -0.158
      -0.057
       0.065
       0.179
       0.246
       0.251
       0.216
       0.169
       0.123
       0.081
       0.046
       0.029
       0.020
      -0.008
      -0.077
      -0.163
      -0.216
      -0.208
      -0.167
      -0.147
      -0.175
      -0.222
      -0.226
      -0.133
       0.079
       0.386
       0.709
       0.936
       0.990
       0.877
       0.660
       0.398
       0.127
      -0.113
      -0.274
      -0.340
      -0.361
      -0.410
      -0.512
      -0.631
      -0.709
      -0.709
      -0.630
      -0.493
      -0.327
      -0.162
      -0.013
       0.125
       0.257
       0.380
       0.478
       0.541
       0.557
       0.504
       0.361
       0.143
      -0.092
      -0.284
      -0.412
      -0.480
      -0.485
      -0.406
      -0.242
      -0.041
       0.111
       0.159
       0.119
       0.060
       0.044
       0.086
       0.170
       0.287
       0.432
       0.577
       0.668
       0.661
       0.563
       0.415
       0.254
       0.083
      -0.108
      -0.313
      -0.513
      -0.681
      -0.785
      -0.788
      -0.675
      -0.466
      -0.210
       0.035
       0.211
       0.282
       0.254
       0.175
       0.112
       0.096
       0.104
       0.101
       0.107
       0.178
       0.316
       0.438
       0.444
       0.306
       0.099
      -0.068
      -0.141
      -0.162
      -0.215
      -0.331
      -0.453
      -0.487
      -0.398
      -0.236
      -0.087
      -0.002
       0.037
       0.092
       0.210
       0.372
       0.493
       0.486
       0.343
       0.135
      -0.041
      -0.141
      -0.180
      -0.188
      -0.186
      -0.177
      -0.169
      -0.163
      -0.140
      -0.071
       0.051
       0.191
       0.287
       0.283
       0.161
      -0.050
      -0.285
      -0.465
      -0.537
      -0.492
      -0.377
      -0.261
      -0.185
      -0.123
      -0.021
       0.155
       0.382
       0.602
       0.748
       0.766
       0.622
       0.320
      -0.070
      -0.413
      -0.574
      -0.515
      -0.319
      -0.120
      -0.007
       0.017
       0.008
       0.026
       0.090
       0.179
       0.241
       0.211
       0.050
      -0.191
      -0.375
      -0.369
      -0.155
       0.166
       0.452
       0.608
       0.616
       0.515
       0.370
       0.246
       0.168
       0.101
      -0.037
      -0.292
      -0.614
      -0.875
      -0.957
      -0.825
      -0.539
      -0.207
       0.066
       0.230
       0.310
       0.365
       0.434
       0.507
       0.560
       0.595
       0.623
       0.614
       0.490
       0.209
      -0.142
      -0.374
      -0.346
      -0.094
       0.204
       0.376
       0.384
       0.328
       0.338
       0.456
       0.594
       0.601
       0.398
       0.040
      -0.329
      -0.594
      -0.731
      -0.784
      -0.777
      -0.703
      -0.579
      -0.484
      -0.489
      -0.566
      -0.597
      -0.488
      -0.253
       0.008
       0.185
       0.216
       0.113
      -0.049
      -0.173
      -0.197
      -0.127
      -0.018
       0.088
       0.190
       0.304
       0.419
       0.518
       0.597
       0.657
       0.682
       0.650
       0.560
       0.426
       0.251
       0.025
      -0.236
      -0.458
      -0.536
      -0.413
      -0.131
       0.188
       0.420
       0.506
       0.469
       0.378
       0.299
       0.249
       0.201
       0.099
      -0.100
      -0.385
      -0.669
      -0.829
      -0.791
      -0.596
      -0.375
      -0.247
      -0.254
      -0.361
      -0.517
      -0.663
      -0.731
      -0.665
      -0.457
      -0.155
       0.157
       0.400
       0.532
       0.564
       0.560
       0.596
       0.709
       0.863
       0.958
       0.905
       0.687
       0.377
       0.099
      -0.039
      -0.008
       0.107
       0.148
       0.008
      -0.278
      -0.555
      -0.667
      -0.572
      -0.368
      -0.199
      -0.148
      -0.178
      -0.186
      -0.094
       0.086
       0.267
       0.344
       0.250
      -0.009
      -0.349
      -0.644
      -0.782
      -0.718
      -0.476
      -0.139
       0.178
       0.345
       0.280
       0.032
      -0.212
      -0.238
       0.033
       0.488
       0.917
       1.145
       1.115
       0.875
       0.533
       0.198
      -0.069
      -0.260
      -0.399
      -0.521
      -0.655
      -0.811
      -0.950
      -0.987
      -0.834
      -0.470
       0.033
       0.555
       1.006
       1.340
       1.517
       1.489
       1.238
       0.809
       0.293
      -0.223
      -0.687
      -1.067
      -1.315
      -1.375
      -1.207
      -0.830
      -0.322
       0.188
       0.570
       0.747
       0.737
       0.633
       0.508
       0.347
       0.084
      -0.283
      -0.636
      -0.826
      -0.806
      -0.660
      -0.505
      -0.383
      -0.248
      -0.027
       0.292
       0.615
       0.778
       0.670
       0.333
      -0.052
      -0.287
      -0.288
      -0.116
       0.097
       0.247
       0.306
       0.300
       0.277
       0.284
       0.359
       0.518
       0.725
       0.887
       0.895
       0.684
       0.279
      -0.202
      -0.600
      -0.787
      -0.737
      -0.535
      -0.324
      -0.233
      -0.311
      -0.492
      -0.637
      -0.634
      -0.478
      -0.248
      -0.041
       0.088
       0.140
       0.172
       0.263
       0.456
       0.714
       0.922
       0.951
       0.739
       0.334
      -0.130
      -0.503
      -0.672
      -0.602
      -0.359
      -0.092
       0.062
       0.078
       0.053
       0.113
       0.275
       0.425
       0.414
       0.185
      -0.175
      -0.502
      -0.656
      -0.596
      -0.397
      -0.193
      -0.091
      -0.123
      -0.247
      -0.392
      -0.513
      -0.620
      -0.772
      -1.023
      -1.377
      -1.790
      -2.191
      -2.512
      -2.703
      -2.735
      -2.605
      -2.320
      -1.870
      -1.218
      -0.321
       0.795
       1.976
       2.959
       3.499
       3.535
       3.258
       3.026
       3.169
       3.807
       4.772
       5.697
       6.202
       6.070
       5.309
       4.128
       2.859
       1.834
       1.241
       1.047
       1.025
       0.879
       0.382
      -0.540
      -1.803
      -3.208
      -4.491
      -5.342
      -5.431
      -4.529
      -2.735
      -0.666
       0.665
       0.350
      -1.788
      -4.932
      -7.618
      -8.536
      -7.269
      -4.533
      -1.735
      -0.118
      -0.053
      -0.929
      -1.687
      -1.558
      -0.499
       0.922
       2.020
       2.475
       2.485
       2.534
       2.950
       3.617
       4.051
       3.782
       2.712
       1.177
      -0.301
      -1.352
      -1.933
      -2.243
      -2.468
      -2.574
      -2.321
      -1.516
      -0.292
       0.862
       1.404
       1.140
       0.402
      -0.178
      -0.089
       0.755
       2.030
       3.249
       4.042
       4.299
       4.152
       3.844
       3.581
       3.431
       3.315
       3.090
       2.686
       2.188
       1.810
       1.724
       1.879
       1.935
       1.434
       0.115
      -1.864
      -3.965
      -5.557
      -6.249
      -6.054
      -5.300
      -4.378
      -3.509
      -2.721
      -2.008
      -1.495
      -1.393
      -1.796
      -2.525
      -3.218
      -3.600
      -3.682
      -3.711
      -3.904
      -4.212
      -4.297
      -3.760
      -2.422
      -0.451
       1.719
       3.581
       4.721
       4.917
       4.207
       2.913
       1.582
       0.830
       1.091
       2.411
       4.381
       6.275
       7.323
       7.042
       5.465
       3.156
       0.953
      -0.444
      -0.797
      -0.364
       0.322
       0.758
       0.660
       0.008
      -1.015
      -2.139
      -3.122
      -3.820
      -4.174
      -4.151
      -3.702
      -2.792
      -1.462
       0.109
       1.628
       2.782
       3.354
       3.294
       2.713
       1.818
       0.817
      -0.142
      -0.936
      -1.410
      -1.395
      -0.818
       0.190
       1.302
       2.131
       2.399
       2.043
       1.227
       0.272
      -0.482
      -0.855
      -0.934
      -0.989
      -1.243
      -1.657
      -1.940
      -1.757
      -1.005
       0.077
       1.035
       1.466
       1.218
       0.415
      -0.681
      -1.825
      -2.855
      -3.656
      -4.136
      -4.267
      -4.115
      -3.772
      -3.271
      -2.576
      -1.675
      -0.680
       0.219
       0.910
       1.468
       2.075
       2.829
       3.640
       4.300
       4.650
       4.648
       4.304
       3.620
       2.631
       1.511
       0.570
       0.087
       0.117
       0.442
       0.727
       0.764
       0.580
       0.354
       0.237
       0.239
       0.265
       0.232
       0.146
       0.090
       0.148
       0.322
       0.518
       0.576
       0.352
      -0.212
      -1.046
      -1.975
      -2.798
      -3.361
      -3.605
      -3.570
      -3.360
      -3.097
      -2.864
      -2.674
      -2.483
      -2.235
      -1.896
      -1.453
      -0.891
      -0.209
       0.523
       1.141
       1.454
       1.373
       0.987
       0.525
       0.220
       0.193
       0.408
       0.727
       1.014
       1.224
       1.405
       1.624
       1.884
       2.115
       2.242
       2.249
       2.183
       2.099
       2.010
       1.906
       1.792
       1.675
       1.509
       1.171
       0.530
      -0.445
      -1.604
      -2.656
      -3.308
      -3.398
      -2.959
      -2.170
      -1.263
      -0.411
       0.322
       0.959
       1.526
       1.998
       2.306
       2.369
       2.134
       1.606
       0.866
       0.046
      -0.737
      -1.427
      -2.015
      -2.463
      -2.659
      -2.467
      -1.858
      -0.969
      -0.052
       0.659
       1.022
       0.989
       0.571
      -0.161
      -1.052
      -1.876
      -2.419
      -2.575
      -2.370
      -1.900
      -1.245
      -0.443
       0.473
       1.421
       2.247
       2.765
       2.856
       2.556
       2.047
       1.540
       1.128
       0.759
       0.339
      -0.112
      -0.404
      -0.284
       0.365
       1.392
       2.415
       2.994
       2.859
       2.065
       0.984
       0.100
      -0.294
      -0.273
      -0.193
      -0.406
      -0.991
      -1.708
      -2.187
      -2.208
      -1.847
      -1.415
      -1.258
      -1.534
      -2.094
      -2.555
      -2.535
      -1.900
      -0.851
       0.208
       0.896
       1.057
       0.783
       0.298
      -0.191
      -0.548
      -0.711
      -0.663
      -0.410
       0.035
       0.648
       1.360
       2.055
       2.603
       2.902
       2.908
       2.631
       2.108
       1.381
       0.503
      -0.430
      -1.292
      -1.961
      -2.348
      -2.410
      -2.157
      -1.673
      -1.106
      -0.614
      -0.297
      -0.165
      -0.166
      -0.256
      -0.428
      -0.685
      -0.998
      -1.298
      -1.503
      -1.529
      -1.308
      -0.811
      -0.092
       0.713
       1.441
       1.984
       2.335
       2.556
       2.683
       2.672
       2.413
       1.819
       0.896
      -0.224
      -1.313
      -2.118
      -2.431
      -2.153
      -1.327
      -0.148
       1.061
       1.942
       2.233
       1.872
       1.029
       0.024
      -0.809
      -1.270
      -1.353
      -1.217
      -1.070
      -1.045
      -1.132
      -1.205
      -1.130
      -0.859
      -0.462
      -0.075
       0.194
       0.344
       0.467
       0.676
       1.004
       1.391
       1.747
       2.033
       2.263
       2.433
       2.484
       2.346
       2.028
       1.639
       1.319
       1.118
       0.928
       0.539
      -0.223
      -1.359
      -2.642
      -3.686
      -4.128
      -3.814
      -2.884
      -1.714
      -0.742
      -0.277
      -0.389
      -0.914
      -1.564
      -2.054
      -2.206
      -2.002
      -1.551
      -0.993
      -0.418
       0.156
       0.722
       1.216
       1.516
       1.532
       1.316
       1.066
       1.017
       1.298
       1.851
       2.454
       2.832
       2.806
       2.369
       1.670
