Origin Time       09/1/2013 01:41:52	 UTC
Lat.              25.4 N	
Long.             94.9 E	
Depth (Km)         89.0
Magnitude         5.9
 Region           Myanmar-India-Border-Region                                      
 Above details taken from IMD 
    
Station Code      NAU
Station Lat.       26.349  N
Station Long.      92.690  E
Station Height(m)   78.0
Site Class        C   Vs30 between 200 m/sec to 375 m/sec *  
Record Time       09.01.2013 01:39:33.524 UTC
Sampling Rate     200. Hz
 Record Duration  140.145 Sec.
 Direction         N-S (N positive)
Max. Acceleration    -22.291 cm/sec**2
     
  * For reference see Site Classification link of website 
     
 Base Line Corrected and Low Pass Filtered (Cut Off at 35 Hz) Time History
 Acceleration data in cm/sec**2
    
[...]
      -0.423
      -0.740
      -0.904
      -0.981
      -1.043
      -1.123
      -1.199
      -1.234
      -1.222
      -1.191
      -1.177
      -1.180
      -1.166
      -1.095
      -0.942
      -0.705
      -0.400
      -0.052
       0.315
       0.666
       0.943
       1.065
       0.972
       0.695
       0.367
       0.160
       0.182
       0.422
       0.776
       1.127
       1.390
       1.528
       1.547
       1.466
       1.300
       1.047
       0.718
       0.355
       0.022
      -0.240
      -0.437
      -0.603
      -0.761
      -0.907
      -1.017
      -1.048
      -0.951
      -0.697
      -0.296
       0.187
       0.655
       1.010
       1.181
       1.142
       0.923
       0.588
       0.208
      -0.159
      -0.470
      -0.677
      -0.731
      -0.610
      -0.354
      -0.057
       0.170
       0.251
       0.175
      -0.006
      -0.209
      -0.365
      -0.445
      -0.472
      -0.484
      -0.494
      -0.466
      -0.343
      -0.108
       0.189
       0.452
       0.585
       0.539
       0.327
       0.015
      -0.280
      -0.434
      -0.364
      -0.096
       0.238
       0.457
       0.433
       0.165
      -0.228
      -0.582
      -0.785
      -0.822
      -0.743
      -0.600
      -0.412
      -0.177
       0.094
       0.374
       0.637
       0.865
       1.027
       1.068
       0.920
       0.548
      -0.021
      -0.684
      -1.277
      -1.632
      -1.648
      -1.332
      -0.799
      -0.217
       0.263
       0.551
       0.635
       0.556
       0.369
       0.123
      -0.137
      -0.353
      -0.456
      -0.402
      -0.205
       0.064
       0.315
       0.492
       0.590
       0.641
       0.676
       0.703
       0.700
       0.635
       0.482
       0.241
      -0.039
      -0.274
      -0.377
      -0.307
      -0.089
       0.205
       0.499
       0.745
       0.913
       0.972
       0.885
       0.648
       0.339
       0.089
       0.011
       0.116
       0.315
       0.485
       0.553
       0.506
       0.357
       0.104
      -0.252
      -0.674
      -1.062
      -1.286
      -1.256
      -0.978
      -0.553
      -0.116
       0.230
       0.438
       0.508
       0.459
       0.320
       0.124
      -0.099
      -0.327
      -0.559
      -0.803
      -1.057
      -1.285
      -1.424
      -1.422
      -1.279
      -1.057
      -0.855
      -0.761
      -0.811
      -0.967
      -1.117
      -1.126
      -0.906
      -0.459
       0.125
       0.720
       1.210
       1.530
       1.685
       1.741
       1.776
       1.820
       1.839
       1.765
       1.549
       1.206
       0.827
       0.542
       0.436
       0.494
       0.605
       0.634
       0.501
       0.222
      -0.114
      -0.405
      -0.587
      -0.660
      -0.664
      -0.630
      -0.553
      -0.419
      -0.242
      -0.094
      -0.072
      -0.236
      -0.561
      -0.952
      -1.302
      -1.543
      -1.649
      -1.623
      -1.492
      -1.307
      -1.128
      -0.990
      -0.869
      -0.702
      -0.440
      -0.079
       0.332
       0.718
       0.991
       1.070
       0.922
       0.596
       0.229
      -0.017
      -0.027
       0.203
       0.574
       0.931
       1.136
       1.130
       0.944
       0.678
       0.451
       0.349
       0.394
       0.548
       0.752
       0.960
       1.140
       1.243
       1.199
       0.964
       0.573
       0.146
      -0.164
      -0.256
      -0.140
       0.076
       0.237
       0.239
       0.083
      -0.137
      -0.328
      -0.471
      -0.617
      -0.805
      -1.003
      -1.130
      -1.125
      -0.982
      -0.746
      -0.469
      -0.199
       0.023
       0.151
       0.129
      -0.066
      -0.389
      -0.703
      -0.844
      -0.713
      -0.352
       0.090
       0.456
       0.675
       0.767
       0.788
       0.757
       0.650
       0.440
       0.145
      -0.168
      -0.416
      -0.533
      -0.495
      -0.324
      -0.093
       0.096
       0.166
       0.115
       0.019
      -0.032
      -0.001
       0.071
       0.100
       0.023
      -0.143
      -0.298
      -0.319
      -0.140
       0.207
       0.622
       1.006
       1.296
       1.467
       1.514
       1.441
       1.269
       1.035
       0.768
       0.460
       0.067
      -0.428
      -0.964
      -1.396
      -1.564
      -1.395
      -0.951
      -0.397
       0.095
       0.416
       0.537
       0.487
       0.325
       0.109
      -0.143
      -0.471
      -0.918
      -1.451
      -1.935
      -2.204
      -2.163
      -1.834
      -1.325
      -0.747
      -0.166
       0.387
       0.857
       1.138
       1.118
       0.774
       0.212
      -0.379
      -0.828
      -1.043
      -1.002
      -0.722
      -0.246
       0.344
       0.919
       1.333
       1.476
       1.329
       0.977
       0.572
       0.261
       0.123
       0.139
       0.215
       0.242
       0.157
      -0.018
      -0.197
      -0.293
      -0.261
      -0.094
       0.188
       0.533
       0.848
       1.033
       1.035
       0.880
       0.627
       0.314
      -0.046
      -0.424
      -0.759
      -0.988
      -1.104
      -1.151
      -1.161
      -1.089
      -0.847
      -0.390
       0.210
       0.776
       1.125
       1.180
       1.008
       0.770
       0.601
       0.530
       0.497
       0.436
       0.333
       0.225
       0.152
       0.131
       0.140
       0.134
       0.063
      -0.100
      -0.342
      -0.616
      -0.863
      -1.043
      -1.156
      -1.222
      -1.259
      -1.261
      -1.214
      -1.103
      -0.923
      -0.680
      -0.390
      -0.079
       0.230
       0.514
       0.753
       0.909
       0.923
       0.741
       0.348
      -0.199
      -0.778
      -1.248
      -1.485
      -1.417
      -1.041
      -0.439
       0.226
       0.764
       1.039
       1.035
       0.864
       0.693
       0.637
       0.693
       0.765
       0.762
       0.673
       0.564
       0.511
       0.532
       0.568
       0.522
       0.340
       0.050
      -0.257
      -0.485
      -0.560
      -0.433
      -0.092
       0.398
       0.900
       1.264
       1.389
       1.249
       0.882
       0.377
      -0.145
      -0.555
      -0.748
      -0.680
      -0.388
       0.023
       0.442
       0.813
       1.154
       1.494
       1.794
       1.922
       1.706
       1.043
      -0.013
      -1.224
      -2.246
      -2.792
      -2.758
      -2.251
      -1.511
      -0.786
      -0.240
       0.100
       0.324
       0.567
       0.902
       1.267
       1.488
       1.382
       0.886
       0.115
      -0.688
      -1.268
      -1.466
      -1.278
      -0.835
      -0.340
       0.040
       0.263
       0.410
       0.589
       0.821
       1.023
       1.076
       0.909
       0.556
       0.150
      -0.143
      -0.224
      -0.121
       0.055
       0.189
       0.237
       0.214
       0.148
       0.052
      -0.067
      -0.192
      -0.304
      -0.405
      -0.511
      -0.629
      -0.738
      -0.793
      -0.739
      -0.542
      -0.218
       0.154
       0.461
       0.621
       0.620
       0.497
       0.282
      -0.048
      -0.546
      -1.219
      -1.971
      -2.615
      -2.960
      -2.912
      -2.532
      -1.997
      -1.492
      -1.120
      -0.880
      -0.727
      -0.624
      -0.560
      -0.529
      -0.527
      -0.560
      -0.625
      -0.682
      -0.654
      -0.484
      -0.180
       0.181
       0.507
       0.713
       0.735
       0.526
       0.100
      -0.441
      -0.924
      -1.196
      -1.206
      -1.020
      -0.767
      -0.562
      -0.465
      -0.458
      -0.462
      -0.377
      -0.145
       0.195
       0.523
       0.714
       0.719
       0.588
       0.431
       0.366
       0.452
       0.652
       0.832
       0.845
       0.641
       0.322
       0.087
       0.102
       0.390
       0.824
       1.232
       1.507
       1.653
       1.751
       1.890
       2.119
       2.428
       2.746
       2.951
       2.913
       2.564
       1.961
       1.281
       0.731
       0.440
       0.412
       0.570
       0.820
       1.095
       1.356
       1.580
       1.762
       1.917
       2.083
       2.300
       2.584
       2.916
       3.264
       3.624
       4.018
       4.448
       4.861
       5.152
       5.208
       4.951
       4.364
       3.487
       2.391
       1.149
      -0.183
      -1.554
      -2.904
      -4.144
      -5.147
      -5.780
      -5.968
      -5.768
      -5.361
      -4.960
      -4.680
      -4.511
      -4.397
      -4.321
      -4.316
      -4.418
      -4.639
      -4.951
      -5.276
      -5.466
      -5.352
      -4.834
      -3.964
      -2.948
      -2.063
      -1.554
      -1.549
      -2.015
      -2.757
      -3.481
      -3.908
      -3.891
      -3.469
      -2.796
      -2.011
      -1.150
      -0.171
       0.974
       2.278
       3.668
       5.020
       6.178
       6.985
       7.338
       7.242
       6.812
       6.207
       5.539
       4.816
       3.984
       3.017
       1.992
       1.059
       0.327
      -0.234
      -0.770
      -1.401
      -2.090
      -2.638
      -2.826
      -2.575
      -2.013
      -1.399
      -0.982
      -0.892
      -1.098
      -1.437
      -1.700
      -1.716
      -1.434
      -0.930
      -0.368
       0.082
       0.309
       0.292
       0.071
      -0.294
      -0.744
      -1.194
      -1.518
      -1.577
      -1.295
      -0.704
       0.069
       0.874
       1.609
       2.224
       2.683
       2.906
       2.776
       2.201
       1.185
      -0.143
      -1.574
      -2.862
      -3.761
      -4.056
      -3.614
      -2.418
      -0.593
       1.597
       3.772
       5.526
       6.544
       6.674
       5.938
       4.503
       2.675
       0.879
      -0.439
      -0.946
      -0.530
       0.675
       2.332
       3.985
       5.173
       5.575
       5.120
       4.005
       2.586
       1.208
       0.057
      -0.868
      -1.664
      -2.370
      -2.870
      -2.921
      -2.301
      -0.989
       0.753
       2.480
       3.782
       4.451
       4.500
       4.036
       3.161
       1.963
       0.562
      -0.857
      -2.087
      -2.961
      -3.403
      -3.456
      -3.265
      -3.037
      -2.967
      -3.154
      -3.576
      -4.097
      -4.522
      -4.652
      -4.355
      -3.651
      -2.766
      -2.072
      -1.915
      -2.441
      -3.556
      -4.996
      -6.443
      -7.592
      -8.193
      -8.108
      -7.362
      -6.118
      -4.592
      -2.952
      -1.266
       0.475
       2.285
       4.098
       5.734
       6.931
       7.482
       7.366
       6.789
       6.096
       5.616
       5.528
       5.780
       6.109
       6.150
       5.631
       4.526
       3.071
       1.591
       0.276
      -0.909
      -2.100
      -3.295
      -4.251
      -4.607
      -4.143
      -2.935
      -1.311
       0.321
       1.629
       2.418
       2.612
       2.210
       1.283
      -0.006
      -1.416
      -2.722
      -3.842
      -4.892
      -6.087
      -7.558
      -9.224
     -10.795
     -11.889
     -12.191
     -11.585
     -10.186
      -8.259
      -6.057
      -3.677
      -1.035
       2.023
       5.546
       9.362
      13.105
      16.342
      18.701
      19.935
      19.957
      18.837
      16.785
      14.092
      11.061
       7.941
       4.895
       2.034
      -0.519
      -2.593
      -3.997
      -4.608
      -4.441
      -3.671
      -2.595
      -1.570
      -0.897
      -0.720
      -0.964
      -1.399
      -1.761
      -1.873
      -1.723
      -1.474
      -1.425
      -1.858
      -2.850
      -4.171
      -5.395
      -6.168
      -6.406
      -6.292
      -6.099
      -6.026
      -6.114
      -6.226
      -6.069
      -5.300
      -3.713
      -1.431
       1.056
       3.092
       4.150
       4.063
       3.054
       1.587
       0.166
      -0.851
      -1.354
      -1.496
      -1.608
      -2.080
      -3.203
      -5.026
      -7.260
      -9.304
     -10.424
     -10.027
      -7.922
      -4.448
      -0.393
       3.321
       6.011
       7.455
       7.824
       7.447
       6.601
       5.475
       4.240
       3.103
       2.269
       1.861
       1.849
       2.035
       2.084
       1.612
       0.345
      -1.722
      -4.242
      -6.613
      -8.194
      -8.551
      -7.583
      -5.487
      -2.617
       0.678
       4.128
       7.498
      10.469
      12.605
      13.500
      13.000
      11.298
       8.787
       5.838
       2.742
      -0.192
      -2.588
      -4.132
      -4.744
      -4.626
      -4.149
      -3.708
      -3.582
      -3.854
      -4.396
      -4.980
      -5.439
      -5.730
      -5.859
      -5.733
      -5.126
      -3.791
      -1.632
       1.194
       4.325
       7.325
       9.765
      11.230
      11.333
       9.853
       6.964
       3.308
      -0.225
      -2.908
      -4.467
      -5.034
      -4.873
      -4.112
      -2.710
      -0.661
       1.728
       3.793
       4.804
       4.384
       2.733
       0.493
      -1.558
      -2.771
      -2.745
      -1.383
       1.069
       4.067
       6.929
       9.072
      10.176
      10.199
       9.234
       7.354
       4.555
       0.819
      -3.766
      -8.907
     -14.060
     -18.481
     -21.396
     -22.291
     -21.133
     -18.352
     -14.595
     -10.474
      -6.460
      -2.894
      -0.005
       2.111
       3.478
       4.190
       4.402
       4.374
       4.491
       5.132
       6.497
       8.518
      10.918
      13.294
      15.154
      15.957
      15.287
      13.087
       9.750
       5.934
       2.234
      -0.999
      -3.616
      -5.530
      -6.682
      -7.079
      -6.828
      -6.084
      -4.963
      -3.475
      -1.556
       0.781
       3.282
       5.464
       6.855
       7.276
       6.934
       6.252
       5.626
       5.280
       5.243
       5.351
       5.268
       4.602
       3.120
       0.922
      -1.560
      -3.778
      -5.359
      -6.275
      -6.793
      -7.239
      -7.779
      -8.338
      -8.669
      -8.493
      -7.626
      -6.078
      -4.053
      -1.851
       0.287
       2.226
       3.873
       5.092
       5.715
       5.610
       4.728
       3.112
       0.915
      -1.594
      -4.062
      -6.117
      -7.449
      -7.858
      -7.292
      -5.845
      -3.728
      -1.264
       1.099
       2.800
       3.259
       2.034
      -0.992
      -5.431
     -10.344
     -14.423
     -16.445
     -15.769
     -12.572
      -7.714
      -2.358
       2.397
       5.776
       7.487
       7.733
       7.037
       5.929
       4.669
       3.210
       1.412
      -0.686
      -2.735
      -4.157
      -4.378
      -3.093
      -0.467
       2.836
       5.820
       7.492
       7.225
       5.029
       1.572
      -2.084
      -4.918
      -6.332
      -6.282
      -5.132
      -3.370
      -1.376
       0.630
       2.496
       4.018
       4.979
       5.320
       5.263
       5.187
       5.352
       5.747
       6.219
       6.709
       7.305
       8.074
       8.865
       9.293
       8.925
       7.496
       5.023
       1.829
      -1.521
      -4.345
      -6.039
      -6.284
      -5.151
      -3.064
      -0.602
       1.752
       3.783
       5.506
       6.984
       8.144
       8.760
       8.600
       7.606
       6.000
       4.239
       2.841
       2.151
       2.164
       2.490
       2.496
       1.587
      -0.479
      -3.420
      -6.531
      -9.015
     -10.350
     -10.462
      -9.680
      -8.509
      -7.394
      -6.564
      -6.030
      -5.674
      -5.372
      -5.075
      -4.821
      -4.657
      -4.494
      -4.029
      -2.877
      -0.860
       1.790
       4.554
       6.967
       8.885
      10.438
      11.747
      12.674
      12.803
      11.652
       8.968
       4.968
       0.379
      -3.755
      -6.457
      -7.218
      -6.174
      -3.983
      -1.498
       0.550
       1.691
       1.701
       0.545
      -1.632
      -4.469
      -7.400
      -9.791
     -11.152
     -11.284
     -10.224
      -8.089
      -5.075
      -1.644
       1.367
       3.003
       2.739
       0.898
      -1.442
      -3.048
      -3.244
      -2.263
      -1.054
      -0.673
      -1.661
      -3.776
      -6.179
      -7.893
      -8.248
      -7.125
      -4.986
      -2.686
      -1.141
      -0.975
      -2.272
      -4.588
      -7.184
      -9.349
     -10.598
     -10.697
      -9.600
      -7.411
      -4.382
      -0.895
       2.639
       5.914
       8.805
      11.323
      13.498
      15.329
      16.806
      17.909
      18.567
      18.639
      18.016
      16.720
      14.901
      12.725
      10.280
       7.611
       4.828
       2.172
      -0.045
      -1.574
      -2.330
      -2.405
      -1.973
      -1.187
      -0.141
       1.019
       1.961
       2.157
       1.146
      -1.085
      -3.916
      -6.341
      -7.498
      -7.111
      -5.575
      -3.686
      -2.252
      -1.751
      -2.122
      -2.789
      -2.993
      -2.319
      -1.056
      -0.086
      -0.320
      -2.073
      -4.812
      -7.426
      -8.829
      -8.530
      -6.856
      -4.713
      -3.022
      -2.215
      -2.115
      -2.221
      -2.113
      -1.667
      -1.019
      -0.406
      -0.012
       0.115
       0.058
      -0.028
      -0.013
       0.147
       0.406
       0.676
       0.881
       0.991
       0.995
       0.860
       0.547
       0.136
      -0.050
       0.485
       2.092
       4.601
       7.230
       8.896
       8.777
       6.783
       3.646
       0.596
      -1.204
      -1.133
       0.699
       3.588
       6.563
       8.750
       9.658
       9.327
       8.241
       6.983
       5.823
       4.549
       2.663
      -0.228
      -4.141
      -8.689
     -13.213
     -16.951
     -19.215
     -19.604
     -18.212
     -15.681
     -12.959
     -10.847
      -9.609
      -8.942
      -8.288
      -7.239
      -5.712
      -3.863
      -1.909
      -0.021
       1.706
       3.243
       4.615
       5.874
       7.051
       8.136
       9.107
       9.998
      10.898
      11.853
      12.734
      13.236
      13.032
      11.968
      10.155
       7.899
       5.554
       3.418
       1.724
       0.676
       0.436
       1.017
       2.165
       3.374
       4.082
       3.968
       3.122
       1.978
       1.042
       0.604
       0.615
       0.770
       0.735
       0.337
      -0.401
      -1.377
      -2.542
      -3.934
      -5.583
      -7.364
      -8.916
      -9.700
      -9.200
      -7.173
      -3.808
       0.310
       4.401
       7.712
       9.668
       9.938
       8.493
       5.649
       2.048
      -1.501
      -4.276
      -5.850
      -6.181
      -5.546
      -4.385
      -3.114
      -1.994
      -1.143
      -0.662
      -0.734
      -1.571
      -3.227
      -5.438
      -7.665
      -9.339
     -10.129
     -10.079
      -9.560
      -9.106
      -9.192
      -9.992
     -11.201
     -12.071
     -11.768
      -9.863
      -6.617
