Origin Time       02/10/2012 18:37:39
Lat.              26.9 N	
Long.             92.8 E	
Depth (Km)         35.0
Magnitude         5.1
 Region           Sonitpur-Assam                                                   
 Above details taken from IMD 
     
Station Code      NAU
Station Lat.       26.349  N
Station Long.      92.690  E
Station Height(m)   72.0
Site Class        C   Vs30 between 200 m/sec to 375 m/sec *  
Record Time       02.10.2012 18:36:21.539
Sampling Rate     200. Hz
 Record Duration   85.530 Sec.
 Direction         E-W (E positive)
Max. Acceleration      8.061 cm/sec**2
     
  * For reference see Site Classification link of website 
     
 Base Line Corrected and Low Pass Filtered (Cut Off at 35 Hz) Time History
 Acceleration data in cm/sec**2
    
[...]
       0.198
      -0.055
      -0.367
      -0.642
      -0.813
      -0.843
      -0.712
      -0.409
       0.048
       0.593
       1.109
       1.457
       1.535
       1.340
       0.985
       0.629
       0.375
       0.216
       0.080
      -0.080
      -0.245
      -0.368
      -0.447
      -0.523
      -0.623
      -0.698
      -0.652
      -0.448
      -0.177
      -0.010
      -0.058
      -0.274
      -0.496
      -0.586
      -0.534
      -0.427
      -0.340
      -0.271
      -0.168
      -0.002
       0.202
       0.409
       0.603
       0.786
       0.937
       0.993
       0.878
       0.573
       0.160
      -0.203
      -0.370
      -0.301
      -0.067
       0.223
       0.500
       0.758
       1.010
       1.229
       1.321
       1.178
       0.756
       0.141
      -0.485
      -0.934
      -1.105
      -1.008
      -0.722
      -0.333
       0.084
       0.445
       0.657
       0.646
       0.404
       0.013
      -0.394
      -0.722
      -0.958
      -1.150
      -1.318
      -1.403
      -1.290
      -0.908
      -0.303
       0.360
       0.880
       1.130
       1.119
       0.969
       0.817
       0.726
       0.658
       0.536
       0.322
       0.049
      -0.210
      -0.385
      -0.439
      -0.354
      -0.146
       0.116
       0.309
       0.295
       0.021
      -0.431
      -0.869
      -1.106
      -1.079
      -0.871
      -0.615
      -0.367
      -0.071
       0.352
       0.899
       1.480
       1.992
       2.406
       2.756
       3.076
       3.342
       3.491
       3.469
       3.276
       2.955
       2.569
       2.182
       1.858
       1.647
       1.554
       1.522
       1.452
       1.269
       0.958
       0.550
       0.088
      -0.386
      -0.827
      -1.184
      -1.420
      -1.528
      -1.532
      -1.458
      -1.327
      -1.168
      -1.029
      -0.954
      -0.948
      -0.970
      -0.965
      -0.924
      -0.897
      -0.955
      -1.123
      -1.344
      -1.532
      -1.651
      -1.732
      -1.823
      -1.918
      -1.954
      -1.865
      -1.633
      -1.286
      -0.864
      -0.400
       0.079
       0.522
       0.843
       0.934
       0.723
       0.229
      -0.422
      -1.049
      -1.495
      -1.696
      -1.686
      -1.562
      -1.436
      -1.385
      -1.417
      -1.486
      -1.528
      -1.515
      -1.487
      -1.527
      -1.685
      -1.934
      -2.188
      -2.367
      -2.452
      -2.472
      -2.456
      -2.390
      -2.229
      -1.947
      -1.571
      -1.160
      -0.762
      -0.380
       0.010
       0.420
       0.811
       1.102
       1.193
       1.010
       0.539
      -0.165
      -1.011
      -1.892
      -2.701
      -3.350
      -3.778
      -3.965
      -3.931
      -3.716
      -3.358
      -2.884
      -2.332
      -1.760
      -1.246
      -0.844
      -0.545
      -0.261
       0.135
       0.744
       1.563
       2.481
       3.342
       4.032
       4.523
       4.830
       4.936
       4.783
       4.335
       3.649
       2.884
       2.203
       1.669
       1.230
       0.791
       0.327
      -0.078
      -0.276
      -0.164
       0.229
       0.730
       1.118
       1.252
       1.146
       0.940
       0.787
       0.759
       0.827
       0.920
       0.982
       1.011
       1.045
       1.135
       1.322
       1.635
       2.093
       2.689
       3.355
       3.965
       4.377
       4.500
       4.306
       3.806
       3.019
       1.982
       0.786
      -0.420
      -1.468
      -2.240
      -2.699
      -2.885
      -2.898
      -2.888
      -3.031
      -3.447
      -4.097
      -4.750
      -5.086
      -4.861
      -4.007
      -2.606
      -0.812
       1.183
       3.115
       4.635
       5.400
       5.234
       4.237
       2.743
       1.141
      -0.291
      -1.430
      -2.212
      -2.537
      -2.285
      -1.432
      -0.151
       1.219
       2.309
       2.884
       2.915
       2.524
       1.867
       1.058
       0.179
      -0.669
      -1.364
      -1.814
      -1.982
      -1.865
      -1.449
      -0.697
       0.387
       1.698
       3.014
       4.052
       4.564
       4.430
       3.706
       2.602
       1.396
       0.324
      -0.491
      -1.054
      -1.443
      -1.720
      -1.867
      -1.794
      -1.407
      -0.689
       0.261
       1.237
       1.998
       2.373
       2.355
       2.110
       1.884
       1.821
       1.858
       1.742
       1.204
       0.150
      -1.245
      -2.606
      -3.552
      -3.897
      -3.739
      -3.373
      -3.076
      -2.913
      -2.705
      -2.204
      -1.329
      -0.251
       0.738
       1.447
       1.886
       2.149
       2.230
       1.966
       1.169
      -0.189
      -1.886
      -3.540
      -4.764
      -5.298
      -5.059
      -4.148
      -2.843
      -1.558
      -0.720
      -0.600
      -1.178
      -2.163
      -3.163
      -3.876
      -4.180
      -4.077
      -3.610
      -2.843
      -1.911
      -1.031
      -0.417
      -0.165
      -0.217
      -0.432
      -0.695
      -0.964
      -1.244
      -1.527
      -1.759
      -1.854
      -1.710
      -1.246
      -0.443
       0.621
       1.774
       2.795
       3.495
       3.789
       3.738
       3.538
       3.430
       3.560
       3.855
       4.044
       3.829
       3.090
       1.991
       0.862
      -0.031
      -0.643
      -1.117
      -1.601
      -2.099
      -2.478
      -2.598
      -2.434
      -2.077
      -1.630
      -1.104
      -0.440
       0.408
       1.398
       2.413
       3.323
       4.039
       4.514
       4.705
       4.570
       4.092
       3.323
       2.354
       1.267
       0.116
      -1.049
      -2.149
      -3.104
      -3.866
      -4.436
      -4.810
      -4.934
      -4.707
      -4.052
      -2.989
      -1.640
      -0.155
       1.362
       2.862
       4.288
       5.515
       6.354
       6.638
       6.302
       5.418
       4.148
       2.699
       1.274
       0.038
      -0.930
      -1.652
      -2.193
      -2.567
      -2.702
      -2.514
      -2.026
      -1.447
      -1.133
      -1.395
      -2.273
      -3.441
      -4.350
      -4.523
      -3.775
      -2.244
      -0.251
       1.856
       3.786
       5.321
       6.306
       6.646
       6.306
       5.341
       3.921
       2.302
       0.746
      -0.542
      -1.424
      -1.807
      -1.647
      -0.985
       0.048
       1.261
       2.451
       3.421
       3.987
       4.015
       3.480
       2.502
       1.308
       0.154
      -0.746
      -1.263
      -1.363
      -1.109
      -0.630
      -0.078
       0.407
       0.720
       0.791
       0.584
       0.100
      -0.606
      -1.415
      -2.132
      -2.506
      -2.310
      -1.443
      -0.037
       1.541
       2.807
       3.372
       3.127
       2.245
       1.022
      -0.312
      -1.619
      -2.768
      -3.576
      -3.898
      -3.768
      -3.436
      -3.217
      -3.273
      -3.485
      -3.535
      -3.139
      -2.270
      -1.202
      -0.341
       0.014
      -0.189
      -0.814
      -1.694
      -2.735
      -3.884
      -5.013
      -5.836
      -5.969
      -5.145
      -3.435
      -1.284
       0.689
       2.005
       2.527
       2.455
       2.144
       1.865
       1.667
       1.398
       0.853
      -0.058
      -1.202
      -2.235
      -2.771
      -2.602
      -1.842
      -0.850
       0.017
       0.650
       1.239
       2.101
       3.394
       4.934
       6.227
       6.709
       6.058
       4.381
       2.184
       0.127
      -1.282
      -1.907
      -1.975
      -1.871
      -1.859
      -1.900
      -1.689
      -0.894
       0.561
       2.391
       4.080
       5.151
       5.361
       4.732
       3.436
       1.688
      -0.286
      -2.225
      -3.856
      -4.977
      -5.529
      -5.580
      -5.223
      -4.500
      -3.435
      -2.155
      -0.966
      -0.252
      -0.265
      -0.949
      -1.916
      -2.617
      -2.611
      -1.780
      -0.358
       1.264
       2.767
       3.981
       4.761
       4.879
       4.116
       2.518
       0.531
      -1.169
      -2.073
      -2.125
      -1.677
      -1.182
      -0.902
      -0.809
      -0.698
      -0.361
       0.256
       1.019
       1.676
       1.986
       1.839
       1.299
       0.549
      -0.229
      -0.929
      -1.495
      -1.847
      -1.872
      -1.485
      -0.711
       0.317
       1.420
       2.441
       3.273
       3.822
       4.002
       3.765
       3.170
       2.394
       1.646
       1.061
       0.644
       0.291
      -0.121
      -0.661
      -1.286
      -1.850
      -2.163
      -2.076
      -1.544
      -0.662
       0.357
       1.238
       1.754
       1.829
       1.577
       1.217
       0.913
       0.680
       0.430
       0.122
      -0.145
      -0.211
      -0.039
       0.155
      -0.003
      -0.744
      -1.916
      -3.033
      -3.590
      -3.372
      -2.523
      -1.371
      -0.237
       0.645
       1.092
       0.980
       0.321
      -0.670
      -1.647
      -2.315
      -2.584
      -2.579
      -2.518
      -2.546
      -2.651
      -2.651
      -2.285
      -1.369
       0.014
       1.473
       2.491
       2.753
       2.369
       1.794
       1.516
       1.766
       2.437
       3.219
       3.807
       4.031
       3.878
       3.452
       2.907
       2.363
       1.853
       1.328
       0.736
       0.109
      -0.419
      -0.685
      -0.614
      -0.289
       0.079
       0.255
       0.097
      -0.376
      -0.997
      -1.531
      -1.775
      -1.635
      -1.123
      -0.331
       0.615
       1.555
       2.297
       2.650
       2.524
       2.016
       1.399
       0.975
       0.898
       1.092
       1.318
       1.308
       0.887
       0.016
      -1.207
      -2.566
      -3.743
      -4.409
      -4.371
      -3.705
      -2.747
      -1.898
      -1.376
      -1.102
      -0.842
      -0.452
      -0.022
       0.215
       0.086
      -0.378
      -0.971
      -1.460
      -1.707
      -1.696
      -1.488
      -1.174
      -0.860
      -0.654
      -0.624
      -0.739
      -0.880
      -0.919
      -0.816
      -0.631
      -0.453
      -0.331
      -0.292
      -0.392
      -0.717
      -1.322
      -2.158
      -3.067
      -3.849
      -4.319
      -4.336
      -3.796
      -2.662
      -1.003
       0.964
       2.919
       4.556
       5.696
       6.328
       6.546
       6.468
       6.187
       5.758
       5.183
       4.415
       3.383
       2.056
       0.518
      -1.002
      -2.195
      -2.834
      -2.935
      -2.783
      -2.751
      -3.023
      -3.430
      -3.532
      -2.910
      -1.449
       0.545
       2.464
       3.687
       3.884
       3.172
       2.019
       0.960
       0.308
       0.024
      -0.171
      -0.547
      -1.144
      -1.746
      -2.050
      -1.908
      -1.459
      -1.048
      -0.995
      -1.363
      -1.888
      -2.130
      -1.733
      -0.667
       0.700
       1.756
       1.961
       1.158
      -0.325
      -1.838
      -2.760
      -2.796
      -2.057
      -0.898
       0.341
       1.497
       2.552
       3.462
       4.048
       4.052
       3.346
       2.070
       0.597
      -0.666
      -1.461
      -1.759
      -1.702
      -1.502
      -1.321
      -1.196
      -1.038
      -0.726
      -0.234
       0.331
       0.826
       1.200
       1.532
       1.904
       2.244
       2.301
       1.819
       0.776
      -0.521
      -1.564
      -1.941
      -1.559
      -0.697
       0.159
       0.573
       0.382
      -0.222
      -0.827
      -1.066
      -0.820
      -0.238
       0.413
       0.904
       1.110
       0.993
       0.573
      -0.055
      -0.714
      -1.173
      -1.232
      -0.824
      -0.055
       0.836
       1.603
       2.114
       2.390
       2.542
       2.667
       2.768
       2.732
       2.373
       1.543
       0.259
      -1.231
      -2.520
      -3.265
      -3.410
      -3.235
      -3.134
      -3.294
      -3.542
      -3.508
      -2.949
      -1.976
      -0.981
      -0.359
      -0.254
      -0.502
      -0.775
      -0.776
      -0.354
       0.458
       1.442
       2.237
       2.462
       1.929
       0.835
      -0.282
      -0.843
      -0.584
       0.295
       1.305
       2.002
       2.206
       1.969
       1.391
       0.494
      -0.723
      -2.155
      -3.528
      -4.486
      -4.750
      -4.247
      -3.142
      -1.766
      -0.489
       0.412
       0.819
       0.795
       0.541
       0.335
       0.440
       1.014
       2.031
       3.282
       4.458
       5.280
       5.585
       5.333
       4.557
       3.343
       1.867
       0.448
      -0.506
      -0.688
      -0.112
       0.860
       1.744
       2.229
       2.281
       2.023
       1.526
       0.750
      -0.337
      -1.609
      -2.792
      -3.637
      -4.074
      -4.206
      -4.145
      -3.864
      -3.227
      -2.166
      -0.847
       0.360
       1.097
       1.280
       1.181
       1.242
       1.719
       2.424
       2.776
       2.185
       0.512
      -1.745
      -3.719
      -4.717
      -4.639
      -3.987
      -3.477
      -3.576
      -4.257
      -5.106
      -5.649
      -5.647
      -5.176
      -4.452
      -3.582
      -2.448
      -0.830
       1.332
       3.775
       5.993
       7.494
       8.061
       7.827
       7.143
       6.354
       5.624
       4.926
       4.160
       3.283
       2.372
       1.561
       0.944
       0.521
       0.220
      -0.026
      -0.230
      -0.375
      -0.485
      -0.646
      -0.920
      -1.222
      -1.290
      -0.842
       0.191
       1.560
       2.814
       3.530
       3.479
       2.663
       1.255
      -0.466
      -2.172
      -3.554
      -4.417
      -4.742
      -4.651
      -4.282
      -3.696
      -2.908
      -1.978
      -1.035
      -0.195
       0.502
       1.082
       1.564
       1.890
       1.948
       1.654
       1.014
       0.118
      -0.899
      -1.874
      -2.646
      -3.111
      -3.297
      -3.351
      -3.452
      -3.680
      -3.972
      -4.185
      -4.232
      -4.136
      -3.962
      -3.695
      -3.225
      -2.456
      -1.405
      -0.213
       0.929
       1.862
       2.523
       2.939
       3.176
       3.253
       3.099
       2.608
       1.761
       0.701
      -0.311
      -1.053
      -1.478
      -1.699
      -1.824
      -1.794
      -1.369
      -0.320
       1.340
       3.283
       5.014
       6.109
       6.383
       5.901
       4.903
       3.683
       2.503
       1.530
       0.832
       0.426
       0.321
       0.496
       0.844
       1.154
       1.209
       0.909
       0.334
      -0.319
      -0.864
      -1.223
      -1.430
      -1.549
      -1.608
      -1.606
      -1.575
      -1.590
      -1.681
      -1.722
      -1.479
      -0.817
       0.098
       0.850
       1.070
       0.747
       0.264
       0.111
       0.506
       1.235
       1.845
       2.018
       1.793
       1.476
       1.369
       1.572
       1.990
       2.441
       2.737
       2.713
       2.268
       1.417
       0.332
      -0.714
      -1.453
      -1.734
      -1.569
      -1.122
      -0.642
      -0.349
      -0.335
      -0.529
      -0.730
      -0.708
      -0.321
       0.402
       1.272
       2.050
       2.585
       2.865
       2.924
       2.712
       2.083
       0.896
      -0.841
      -2.929
      -5.017
      -6.703
      -7.614
      -7.490
      -6.243
      -4.027
      -1.253
       1.496
       3.649
       4.860
       5.110
       4.664
       3.895
       3.117
       2.473
       1.954
       1.485
       1.038
       0.651
       0.359
       0.096
      -0.261
      -0.731
      -1.118
      -1.127
      -0.626
       0.193
       0.910
       1.156
       0.862
       0.268
      -0.289
      -0.636
      -0.861
      -1.168
      -1.641
      -2.128
      -2.348
      -2.123
      -1.551
      -0.970
      -0.772
      -1.172
      -2.059
      -3.038
      -3.640
      -3.601
      -3.001
      -2.188
      -1.532
      -1.231
      -1.278
      -1.571
      -2.003
      -2.445
      -2.699
      -2.541
      -1.875
      -0.857
       0.168
       0.899
       1.305
       1.626
       2.107
       2.687
       2.950
       2.412
       0.954
      -1.005
      -2.762
      -3.817
      -4.151
      -4.077
      -3.839
      -3.376
      -2.481
      -1.156
       0.242
       1.231
       1.591
       1.531
       1.503
       1.853
       2.612
       3.550
       4.386
       4.956
       5.246
       5.293
       5.087
       4.569
       3.715
       2.629
       1.542
       0.707
       0.265
       0.168
       0.193
       0.048
      -0.479
      -1.389
      -2.447
      -3.282
      -3.561
      -3.133
      -2.092
      -0.734
       0.558
       1.461
       1.789
       1.506
       0.712
      -0.370
      -1.411
      -2.059
      -2.074
      -1.421
      -0.276
       1.047
       2.188
       2.825
       2.789
       2.143
       1.182
       0.307
      -0.170
      -0.176
       0.109
       0.380
       0.413
       0.202
      -0.065
      -0.185
      -0.132
      -0.114
      -0.415
      -1.162
      -2.194
      -3.163
      -3.776
      -3.977
      -3.905
      -3.708
      -3.417
      -2.994
      -2.457
      -1.912
      -1.459
      -1.068
      -0.584
       0.159
       1.219
       2.528
       3.929
       5.193
       6.007
       6.014
       4.968
       2.932
       0.397
      -1.832
      -2.959
      -2.585
      -0.939
       1.226
       3.010
       3.798
       3.493
       2.454
       1.236
       0.290
      -0.214
      -0.398
      -0.551
      -0.937
      -1.638
      -2.503
      -3.209
      -3.416
      -2.930
      -1.804
      -0.312
       1.191
       2.421
       3.255
       3.722
       3.917
       3.902
       3.661
       3.130
       2.285
       1.217
       0.134
      -0.714
      -1.138
      -1.095
      -0.727
      -0.324
      -0.204
      -0.547
      -1.269
      -2.040
      -2.479
      -2.391
      -1.874
      -1.191
      -0.573
      -0.097
       0.252
       0.479
       0.547
       0.432
       0.185
      -0.094
      -0.337
      -0.545
      -0.748
      -0.929
      -1.020
      -0.981
      -0.868
      -0.817
      -0.943
      -1.256
      -1.684
      -2.150
      -2.597
      -2.940
      -3.028
      -2.707
      -1.978
      -1.104
      -0.524
      -0.581
      -1.257
      -2.150
      -2.730
      -2.679
      -2.055
      -1.163
      -0.295
       0.436
       1.067
       1.659
       2.242
       2.828
       3.428
       4.013
       4.479
       4.665
       4.453
       3.869
       3.111
       2.443
       2.035
       1.844
       1.657
       1.241
       0.517
      -0.377
      -1.126
      -1.377
      -0.919
       0.196
       1.645
       2.975
       3.804
       3.984
       3.610
       2.923
       2.156
       1.449
       0.839
       0.308
      -0.177
      -0.649
      -1.165
      -1.807
      -2.634
      -3.600
      -4.475
      -4.900
      -4.555
