Origin Time       14/7/2012 19:55:18	 UTC
Lat.              25.5 N	
Long.             94.2 E	
Depth (Km)         35.0
Magnitude         5.5
 Region           Kohima-Nagaland                                                  
 Above details taken from IMD 
    
Station Code      NAU
Station Lat.       26.349  N
Station Long.      92.690  E
Station Height(m)   78.0
Site Class        C   Vs30 between 200 m/sec to 375 m/sec *  
Record Time       14.07.2012 19:55:52.674 UTC
Sampling Rate     200. Hz
 Record Duration   84.595 Sec.
 Direction         N-S (N positive)
Max. Acceleration     -6.727 cm/sec**2
     
  * For reference see Site Classification link of website 
     
 Base Line Corrected and Low Pass Filtered (Cut Off at 35 Hz) Time History
 Acceleration data in cm/sec**2
    
[...]
       1.903
       2.303
       2.567
       2.656
       2.587
       2.416
       2.200
       1.960
       1.685
       1.356
       0.975
       0.563
       0.146
      -0.264
      -0.664
      -1.052
      -1.415
      -1.739
      -2.013
      -2.243
      -2.443
      -2.626
      -2.787
      -2.907
      -2.966
      -2.950
      -2.856
      -2.669
      -2.373
      -1.960
      -1.453
      -0.908
      -0.401
       0.002
       0.271
       0.415
       0.467
       0.460
       0.409
       0.306
       0.128
      -0.146
      -0.521
      -0.973
      -1.443
      -1.849
      -2.113
      -2.189
      -2.073
      -1.795
      -1.406
      -0.958
      -0.502
      -0.078
       0.280
       0.551
       0.725
       0.806
       0.811
       0.775
       0.741
       0.749
       0.818
       0.951
       1.144
       1.402
       1.740
       2.166
       2.648
       3.108
       3.440
       3.557
       3.431
       3.100
       2.656
       2.199
       1.802
       1.506
       1.333
       1.295
       1.400
       1.626
       1.916
       2.174
       2.295
       2.195
       1.837
       1.244
       0.486
      -0.346
      -1.156
      -1.858
      -2.401
      -2.776
      -3.023
      -3.206
      -3.377
      -3.547
      -3.684
      -3.732
      -3.640
      -3.386
      -2.978
      -2.442
      -1.814
      -1.143
      -0.495
       0.055
       0.438
       0.619
       0.611
       0.469
       0.268
       0.078
      -0.054
      -0.102
      -0.058
       0.079
       0.301
       0.588
       0.911
       1.232
       1.532
       1.811
       2.087
       2.375
       2.666
       2.920
       3.085
       3.109
       2.962
       2.638
       2.156
       1.556
       0.895
       0.238
      -0.354
      -0.837
      -1.190
      -1.414
      -1.537
      -1.607
      -1.687
      -1.835
      -2.074
      -2.379
      -2.687
      -2.930
      -3.072
      -3.113
      -3.079
      -2.984
      -2.823
      -2.576
      -2.235
      -1.815
      -1.358
      -0.909
      -0.498
      -0.126
       0.223
       0.559
       0.869
       1.128
       1.332
       1.524
       1.778
       2.162
       2.691
       3.320
       3.966
       4.541
       4.976
       5.232
       5.295
       5.177
       4.905
       4.513
       4.026
       3.458
       2.822
       2.146
       1.483
       0.897
       0.438
       0.113
      -0.115
      -0.307
      -0.511
      -0.748
      -1.003
      -1.246
      -1.453
      -1.619
      -1.752
      -1.862
      -1.949
      -2.004
      -2.022
      -1.995
      -1.909
      -1.751
      -1.516
      -1.229
      -0.945
      -0.729
      -0.628
      -0.648
      -0.762
      -0.923
      -1.093
      -1.249
      -1.396
      -1.548
      -1.715
      -1.895
      -2.071
      -2.221
      -2.313
      -2.310
      -2.175
      -1.890
      -1.462
      -0.926
      -0.333
       0.268
       0.829
       1.305
       1.657
       1.873
       1.967
       1.965
       1.890
       1.746
       1.534
       1.272
       1.002
       0.780
       0.649
       0.611
       0.632
       0.656
       0.641
       0.580
       0.499
       0.437
       0.426
       0.468
       0.538
       0.581
       0.542
       0.383
       0.108
      -0.253
      -0.650
      -1.037
      -1.365
      -1.591
      -1.686
      -1.650
      -1.511
      -1.318
      -1.119
      -0.956
      -0.864
      -0.874
      -1.018
      -1.300
      -1.687
      -2.097
      -2.432
      -2.607
      -2.594
      -2.426
      -2.182
      -1.937
      -1.723
      -1.514
      -1.252
      -0.874
      -0.335
       0.384
       1.271
       2.279
       3.319
       4.267
       4.991
       5.382
       5.387
       5.022
       4.373
       3.571
       2.764
       2.070
       1.550
       1.206
       0.989
       0.825
       0.640
       0.374
       0.008
      -0.426
      -0.849
      -1.164
      -1.286
      -1.180
      -0.866
      -0.416
       0.074
       0.504
       0.784
       0.855
       0.693
       0.318
      -0.209
      -0.791
      -1.312
      -1.667
      -1.797
      -1.712
      -1.478
      -1.183
      -0.895
      -0.638
      -0.404
      -0.182
       0.018
       0.160
       0.203
       0.122
      -0.072
      -0.341
      -0.632
      -0.894
      -1.080
      -1.154
      -1.096
      -0.915
      -0.641
      -0.319
       0.007
       0.293
       0.497
       0.579
       0.520
       0.334
       0.074
      -0.173
      -0.310
      -0.252
       0.039
       0.540
       1.160
       1.768
       2.225
       2.427
       2.332
       1.969
       1.423
       0.806
       0.228
      -0.226
      -0.515
      -0.645
      -0.663
      -0.635
      -0.615
      -0.625
      -0.640
      -0.603
      -0.464
      -0.212
       0.118
       0.466
       0.769
       0.968
       1.023
       0.914
       0.649
       0.267
      -0.178
      -0.635
      -1.079
      -1.499
      -1.888
      -2.223
      -2.483
      -2.651
      -2.732
      -2.736
      -2.681
      -2.592
      -2.498
      -2.431
      -2.407
      -2.422
      -2.456
      -2.477
      -2.445
      -2.304
      -2.000
      -1.506
      -0.846
      -0.089
       0.671
       1.351
       1.896
       2.275
       2.486
       2.545
       2.482
       2.329
       2.112
       1.851
       1.563
       1.262
       0.953
       0.630
       0.282
      -0.084
      -0.426
      -0.693
      -0.850
      -0.899
      -0.885
      -0.870
      -0.916
      -1.056
      -1.295
      -1.607
      -1.946
      -2.253
      -2.459
      -2.499
      -2.324
      -1.920
      -1.315
      -0.576
       0.209
       0.953
       1.578
       2.035
       2.307
       2.418
       2.426
       2.406
       2.414
       2.472
       2.558
       2.624
       2.623
       2.534
       2.371
       2.173
       1.990
       1.858
       1.791
       1.774
       1.780
       1.780
       1.761
       1.730
       1.702
       1.686
       1.671
       1.629
       1.531
       1.363
       1.127
       0.838
       0.511
       0.159
      -0.218
      -0.631
      -1.094
      -1.615
      -2.182
      -2.776
      -3.378
      -3.962
      -4.484
      -4.874
      -5.053
      -4.963
      -4.591
      -3.963
      -3.130
      -2.160
      -1.131
      -0.132
       0.749
       1.444
       1.920
       2.187
       2.299
       2.331
       2.368
       2.471
       2.667
       2.926
       3.177
       3.340
       3.360
       3.238
       3.015
       2.749
       2.481
       2.224
       1.962
       1.669
       1.332
       0.968
       0.620
       0.339
       0.157
       0.067
       0.026
      -0.030
      -0.154
      -0.365
      -0.641
      -0.938
      -1.218
      -1.476
      -1.737
      -2.039
      -2.392
      -2.771
      -3.124
      -3.394
      -3.541
      -3.545
      -3.402
      -3.120
      -2.714
      -2.211
      -1.660
      -1.118
      -0.639
      -0.267
      -0.030
       0.067
       0.042
      -0.064
      -0.200
      -0.320
      -0.395
      -0.426
      -0.445
      -0.495
      -0.598
      -0.735
      -0.855
      -0.901
      -0.846
      -0.697
      -0.480
      -0.219
       0.085
       0.444
       0.871
       1.349
       1.827
       2.239
       2.521
       2.636
       2.569
       2.315
       1.868
       1.231
       0.429
      -0.464
      -1.330
      -2.025
      -2.440
      -2.533
      -2.346
      -1.975
      -1.532
      -1.115
      -0.799
      -0.632
      -0.641
      -0.824
      -1.149
      -1.551
      -1.951
      -2.278
      -2.499
      -2.623
      -2.684
      -2.714
      -2.728
      -2.723
      -2.675
      -2.544
      -2.283
      -1.843
      -1.183
      -0.282
       0.832
       2.062
       3.257
       4.260
       4.967
       5.362
       5.493
       5.437
       5.264
       5.027
       4.761
       4.488
       4.212
       3.927
       3.625
       3.306
       2.977
       2.657
       2.364
       2.124
       1.959
       1.883
       1.886
       1.939
       1.999
       2.019
       1.960
       1.789
       1.479
       1.023
       0.445
      -0.189
      -0.784
      -1.242
      -1.502
      -1.562
      -1.489
      -1.397
      -1.413
      -1.630
      -2.075
      -2.700
      -3.400
      -4.053
      -4.552
      -4.832
      -4.877
      -4.711
      -4.384
      -3.956
      -3.490
      -3.039
      -2.634
      -2.282
      -1.960
      -1.627
      -1.227
      -0.715
      -0.072
       0.674
       1.447
       2.143
       2.659
       2.929
       2.953
       2.789
       2.531
       2.278
       2.108
       2.066
       2.161
       2.370
       2.645
       2.929
       3.168
       3.325
       3.393
       3.397
       3.378
       3.380
       3.434
       3.546
       3.699
       3.867
       4.027
       4.156
       4.235
       4.251
       4.202
       4.093
       3.916
       3.640
       3.213
       2.591
       1.772
       0.807
      -0.215
      -1.197
      -2.065
      -2.785
      -3.371
      -3.861
      -4.298
      -4.709
      -5.093
      -5.434
      -5.714
      -5.934
      -6.105
      -6.247
      -6.369
      -6.457
      -6.475
      -6.390
      -6.198
      -5.946
      -5.716
      -5.591
      -5.601
      -5.709
      -5.814
      -5.794
      -5.550
      -5.033
      -4.246
      -3.233
      -2.063
      -0.822
       0.398
       1.511
       2.452
       3.176
       3.673
       3.967
       4.121
       4.222
       4.354
       4.567
       4.856
       5.165
       5.411
       5.507
       5.390
       5.038
       4.474
       3.754
       2.958
       2.171
       1.476
       0.931
       0.557
       0.328
       0.174
       0.003
      -0.273
      -0.709
      -1.312
      -2.042
      -2.823
      -3.574
      -4.222
      -4.715
      -5.020
      -5.121
      -5.015
      -4.723
      -4.289
      -3.775
      -3.243
      -2.731
      -2.252
      -1.805
      -1.390
      -1.014
      -0.686
      -0.408
      -0.166
       0.067
       0.316
       0.602
       0.934
       1.316
       1.737
       2.178
       2.600
       2.955
       3.194
       3.274
       3.180
       2.937
       2.606
       2.269
       1.991
       1.809
       1.731
       1.750
       1.852
       2.010
       2.189
       2.352
       2.475
       2.552
       2.581
       2.566
       2.504
       2.387
       2.209
       1.959
       1.628
       1.216
       0.745
       0.261
      -0.186
      -0.573
      -0.912
      -1.241
      -1.584
      -1.930
      -2.245
      -2.513
      -2.748
      -2.995
      -3.292
      -3.647
      -4.032
      -4.384
      -4.633
      -4.720
      -4.610
      -4.302
      -3.824
      -3.227
      -2.567
      -1.892
      -1.233
      -0.612
      -0.042
       0.463
       0.901
       1.277
       1.602
       1.886
       2.137
       2.353
       2.526
       2.645
       2.699
       2.688
       2.627
       2.548
       2.475
       2.414
       2.345
       2.248
       2.124
       2.005
       1.920
       1.865
       1.791
       1.619
       1.280
       0.748
       0.062
      -0.680
      -1.347
      -1.823
      -2.043
      -2.022
      -1.836
      -1.587
      -1.356
      -1.170
      -1.013
      -0.849
      -0.662
      -0.461
      -0.277
      -0.141
      -0.058
      -0.012
       0.027
       0.082
       0.163
       0.280
       0.443
       0.650
       0.886
       1.126
       1.352
       1.567
       1.784
       2.010
       2.236
       2.429
       2.544
       2.536
       2.370
       2.043
       1.584
       1.055
       0.524
       0.044
      -0.356
      -0.669
      -0.898
      -1.044
      -1.113
      -1.112
      -1.064
      -1.011
      -1.004
      -1.092
      -1.292
      -1.580
      -1.902
      -2.196
      -2.420
      -2.561
      -2.613
      -2.563
      -2.394
      -2.100
      -1.708
      -1.284
      -0.922
      -0.707
      -0.685
      -0.832
      -1.065
      -1.273
      -1.362
      -1.287
      -1.049
      -0.686
      -0.246
       0.220
       0.661
       1.037
       1.326
       1.529
       1.663
       1.760
       1.841
       1.910
       1.952
       1.955
       1.932
       1.935
       2.034
       2.268
       2.612
       2.973
       3.236
       3.318
       3.205
       2.941
       2.598
       2.229
       1.852
       1.464
       1.070
       0.699
       0.401
       0.201
       0.077
      -0.035
      -0.205
      -0.471
      -0.825
      -1.230
      -1.651
      -2.069
      -2.480
      -2.889
      -3.298
      -3.701
      -4.082
      -4.410
      -4.647
      -4.762
      -4.746
      -4.619
      -4.416
      -4.167
      -3.878
      -3.521
      -3.055
      -2.451
      -1.721
      -0.920
      -0.135
       0.555
       1.088
       1.432
       1.582
       1.564
       1.436
       1.283
       1.197
       1.254
       1.495
       1.906
       2.428
       2.974
       3.462
       3.839
       4.081
       4.192
       4.200
       4.155
       4.125
       4.172
       4.327
       4.572
       4.833
       5.008
       5.004
       4.773
       4.319
       3.679
       2.894
       1.999
       1.028
       0.016
      -1.000
      -1.983
      -2.904
      -3.749
      -4.519
      -5.215
      -5.823
      -6.310
      -6.626
      -6.727
      -6.589
      -6.220
      -5.659
      -4.967
      -4.218
      -3.488
      -2.840
      -2.303
      -1.867
      -1.485
      -1.104
      -0.686
      -0.219
       0.282
       0.793
       1.287
       1.747
       2.167
       2.544
       2.872
       3.146
       3.368
       3.553
       3.722
       3.893
       4.074
       4.255
       4.417
       4.534
       4.577
       4.506
       4.282
       3.881
       3.323
       2.685
       2.072
       1.569
       1.198
       0.922
       0.675
       0.404
       0.099
      -0.209
      -0.475
      -0.668
      -0.785
      -0.838
      -0.842
      -0.812
      -0.756
      -0.683
      -0.605
      -0.553
      -0.574
      -0.723
      -1.036
      -1.499
      -2.051
      -2.598
      -3.051
      -3.359
      -3.515
      -3.540
      -3.456
      -3.261
      -2.941
      -2.492
      -1.950
      -1.395
      -0.922
      -0.604
      -0.458
      -0.446
      -0.492
      -0.515
      -0.463
      -0.323
      -0.125
       0.081
       0.240
       0.308
       0.262
       0.102
      -0.146
      -0.446
      -0.755
      -1.036
      -1.255
      -1.392
      -1.437
      -1.390
      -1.258
      -1.048
      -0.760
      -0.390
       0.051
       0.530
       0.987
       1.355
       1.578
       1.630
       1.517
       1.276
       0.970
       0.673
       0.457
       0.377
       0.456
       0.682
       1.013
       1.388
       1.750
       2.067
       2.331
       2.546
       2.697
       2.738
       2.614
       2.295
       1.799
       1.189
       0.550
      -0.039
      -0.530
      -0.908
      -1.187
      -1.394
      -1.541
      -1.627
      -1.646
      -1.598
      -1.503
      -1.380
      -1.242
      -1.082
      -0.881
      -0.618
      -0.289
       0.083
       0.443
       0.720
       0.861
       0.863
       0.780
       0.699
       0.690
       0.768
       0.881
       0.942
       0.886
       0.697
       0.413
       0.098
      -0.189
      -0.422
      -0.605
      -0.761
      -0.912
      -1.060
      -1.190
      -1.275
      -1.296
      -1.247
      -1.132
      -0.967
      -0.768
      -0.550
      -0.329
      -0.130
       0.004
       0.019
      -0.130
      -0.460
      -0.945
      -1.524
      -2.117
      -2.657
      -3.099
      -3.425
      -3.630
      -3.724
      -3.726
      -3.662
      -3.554
      -3.411
      -3.225
      -2.965
      -2.599
      -2.106
      -1.502
      -0.833
      -0.164
       0.445
       0.957
       1.368
       1.701
       1.996
       2.279
       2.552
       2.789
       2.960
       3.041
       3.022
       2.890
       2.634
       2.253
       1.770
       1.238
       0.735
       0.337
       0.099
       0.028
       0.089
       0.208
       0.303
       0.309
       0.203
       0.004
      -0.242
      -0.497
      -0.741
      -0.975
      -1.194
      -1.377
      -1.494
      -1.518
      -1.450
      -1.316
      -1.157
      -1.002
      -0.856
      -0.691
      -0.456
      -0.103
       0.392
       1.013
       1.705
       2.391
       2.992
       3.444
       3.698
       3.729
       3.536
       3.147
       2.617
       2.021
       1.438
       0.938
       0.564
       0.330
       0.227
       0.233
       0.323
       0.475
       0.669
       0.886
       1.103
       1.300
       1.453
       1.541
       1.545
       1.455
       1.273
       1.020
       0.725
       0.410
       0.075
      -0.292
      -0.693
      -1.099
      -1.449
      -1.675
      -1.740
      -1.656
      -1.473
      -1.254
      -1.056
      -0.915
      -0.851
      -0.865
      -0.924
      -0.971
      -0.945
      -0.812
      -0.575
      -0.275
       0.027
       0.273
       0.432
       0.512
       0.548
       0.579
       0.621
       0.661
       0.669
       0.613
       0.471
       0.229
      -0.111
      -0.528
      -0.965
      -1.340
      -1.561
      -1.574
      -1.380
      -1.037
      -0.628
      -0.233
       0.089
       0.301
       0.384
       0.340
       0.191
      -0.025
      -0.262
      -0.479
      -0.650
      -0.775
      -0.876
      -0.981
      -1.106
      -1.253
      -1.407
      -1.558
      -1.701
      -1.837
      -1.970
      -2.095
      -2.193
      -2.231
      -2.170
      -1.979
      -1.641
      -1.152
      -0.536
       0.160
       0.861
       1.485
       1.967
       2.272
       2.397
       2.347
       2.134
       1.769
       1.273
       0.683
       0.047
      -0.576
      -1.126
      -1.536
      -1.748
      -1.724
      -1.466
      -1.018
      -0.459
       0.120
       0.647
       1.094
       1.477
       1.832
       2.170
       2.470
       2.675
       2.729
       2.592
       2.257
       1.754
       1.148
       0.527
      -0.012
      -0.395
      -0.590
      -0.615
      -0.519
      -0.348
      -0.127
       0.144
       0.466
       0.826
       1.188
       1.501
       1.721
       1.821
       1.790
       1.636
       1.378
       1.050
       0.693
       0.347
       0.041
      -0.216
      -0.435
      -0.650
      -0.895
      -1.196
      -1.544
      -1.894
      -2.181
      -2.346
      -2.355
      -2.213
      -1.948
      -1.608
      -1.246
      -0.904
      -0.608
      -0.368
      -0.186
      -0.049
       0.070
       0.206
       0.387
       0.617
       0.880
       1.152
       1.421
       1.682
       1.930
       2.149
       2.310
       2.377
       2.326
       2.151
       1.870
       1.506
       1.078
       0.596
       0.076
      -0.454
      -0.940
      -1.318
      -1.543
      -1.613
      -1.582
      -1.537
      -1.556
      -1.676
      -1.877
      -2.103
      -2.286
      -2.387
      -2.409
      -2.388
