Origin Time       06/11/2013 04:16:16 UTC
Lat.              26.5 N	
Long.             93.5 E	
Depth (Km)         20.0
Magnitude         5.5
 Region           Karbi-Assam                                                      
 Above details taken from IMD 
    
Station Code      NAU
Station Lat.       26.349  N
Station Long.      92.690  E
Station Height(m)   72.0
Site Class        C   Vs30 between 200 m/sec to 375 m/sec *  
Record Time       06.11.2013 04:16:06.764 UTC
Sampling Rate     200. Hz
 Record Duration  120.205 Sec.
 Direction         N-S (N positive)
Max. Acceleration    -23.782 cm/sec**2
     
  * For reference see Site Classification link of website 
     
 Base Line Corrected and Low Pass Filtered (Cut Off at 35 Hz) Time History
 Acceleration data in cm/sec**2
    
[...]
       0.403
       0.717
       0.805
       0.689
       0.473
       0.262
       0.093
      -0.073
      -0.305
      -0.639
      -1.044
      -1.436
      -1.732
      -1.895
      -1.937
      -1.880
      -1.719
      -1.408
      -0.888
      -0.145
       0.741
       1.604
       2.262
       2.596
       2.570
       2.233
       1.694
       1.095
       0.567
       0.174
      -0.107
      -0.334
      -0.520
      -0.598
      -0.483
      -0.176
       0.206
       0.498
       0.588
       0.472
       0.223
      -0.070
      -0.345
      -0.557
      -0.660
      -0.618
      -0.436
      -0.172
       0.084
       0.257
       0.329
       0.344
       0.372
       0.442
       0.517
       0.524
       0.414
       0.207
      -0.020
      -0.192
      -0.279
      -0.315
      -0.368
      -0.493
      -0.703
      -0.959
      -1.187
      -1.304
      -1.240
      -0.954
      -0.459
       0.160
       0.763
       1.204
       1.397
       1.352
       1.149
       0.888
       0.646
       0.464
       0.351
       0.284
       0.221
       0.127
       0.004
      -0.109
      -0.163
      -0.132
      -0.024
       0.129
       0.283
       0.392
       0.420
       0.347
       0.180
      -0.038
      -0.233
      -0.320
      -0.263
      -0.122
      -0.031
      -0.107
      -0.356
      -0.667
      -0.901
      -0.978
      -0.918
      -0.789
      -0.660
      -0.565
      -0.514
      -0.505
      -0.516
      -0.498
      -0.394
      -0.175
       0.127
       0.421
       0.604
       0.606
       0.420
       0.118
      -0.167
      -0.299
      -0.213
       0.040
       0.333
       0.547
       0.628
       0.606
       0.562
       0.580
       0.687
       0.828
       0.885
       0.775
       0.511
       0.194
      -0.062
      -0.184
      -0.151
       0.020
       0.270
       0.515
       0.688
       0.774
       0.800
       0.784
       0.712
       0.558
       0.331
       0.080
      -0.135
      -0.272
      -0.310
      -0.257
      -0.148
      -0.039
       0.007
      -0.050
      -0.216
      -0.460
      -0.720
      -0.936
      -1.086
      -1.207
      -1.366
      -1.590
      -1.816
      -1.910
      -1.771
      -1.422
      -1.004
      -0.649
      -0.359
      -0.019
       0.464
       1.037
       1.517
       1.732
       1.656
       1.409
       1.148
       0.939
       0.737
       0.453
       0.056
      -0.389
      -0.756
      -0.939
      -0.901
      -0.677
      -0.347
       0.000
       0.298
       0.534
       0.739
       0.954
       1.182
       1.382
       1.493
       1.461
       1.253
       0.866
       0.337
      -0.255
      -0.814
      -1.264
      -1.569
      -1.716
      -1.692
      -1.478
      -1.091
      -0.606
      -0.137
       0.223
       0.455
       0.600
       0.698
       0.749
       0.719
       0.584
       0.370
       0.147
      -0.007
      -0.060
      -0.061
      -0.114
      -0.299
      -0.605
      -0.914
      -1.088
      -1.056
      -0.853
      -0.578
      -0.333
      -0.192
      -0.183
      -0.286
      -0.451
      -0.631
      -0.785
      -0.863
      -0.807
      -0.571
      -0.142
       0.458
       1.175
       1.909
       2.512
       2.808
       2.662
       2.057
       1.123
       0.092
      -0.810
      -1.442
      -1.768
      -1.823
      -1.661
      -1.327
      -0.858
      -0.302
       0.270
       0.756
       1.046
       1.083
       0.908
       0.659
       0.489
       0.478
       0.594
       0.732
       0.782
       0.683
       0.438
       0.104
      -0.231
      -0.482
      -0.602
      -0.606
      -0.558
      -0.528
      -0.551
      -0.606
      -0.640
      -0.616
      -0.529
      -0.414
      -0.317
      -0.269
      -0.261
      -0.264
      -0.264
      -0.274
      -0.288
      -0.253
      -0.092
       0.220
       0.610
       0.934
       1.065
       0.952
       0.637
       0.232
      -0.113
      -0.269
      -0.192
       0.050
       0.325
       0.528
       0.632
       0.655
       0.618
       0.526
       0.368
       0.117
      -0.269
      -0.796
      -1.378
      -1.849
      -2.064
      -1.993
      -1.735
      -1.415
      -1.089
      -0.736
      -0.331
       0.099
       0.486
       0.769
       0.934
       1.013
       1.058
       1.103
       1.136
       1.102
       0.966
       0.763
       0.587
       0.522
       0.576
       0.672
       0.709
       0.615
       0.372
      -0.003
      -0.458
      -0.906
      -1.244
      -1.397
      -1.360
      -1.183
      -0.932
      -0.655
      -0.393
      -0.210
      -0.177
      -0.318
      -0.572
      -0.821
      -0.967
      -0.984
      -0.913
      -0.814
      -0.725
      -0.630
      -0.469
      -0.183
       0.223
       0.652
       0.960
       1.048
       0.926
       0.695
       0.488
       0.403
       0.473
       0.643
       0.797
       0.823
       0.709
       0.568
       0.560
       0.753
       1.049
       1.226
       1.096
       0.634
       0.017
      -0.488
      -0.690
      -0.581
      -0.305
      -0.039
       0.129
       0.226
       0.327
       0.461
       0.570
       0.562
       0.398
       0.137
      -0.105
      -0.235
      -0.233
      -0.147
      -0.054
      -0.017
      -0.051
      -0.099
      -0.059
       0.151
       0.535
       1.018
       1.480
       1.784
       1.811
       1.512
       0.953
       0.310
      -0.214
      -0.483
      -0.501
      -0.391
      -0.307
      -0.339
      -0.471
      -0.600
      -0.617
      -0.493
      -0.316
      -0.244
      -0.396
      -0.763
      -1.208
      -1.545
      -1.634
      -1.438
      -1.016
      -0.477
       0.056
       0.480
       0.728
       0.787
       0.697
       0.542
       0.426
       0.426
       0.560
       0.756
       0.899
       0.908
       0.780
       0.571
       0.341
       0.119
      -0.091
      -0.313
      -0.580
      -0.897
      -1.206
      -1.400
      -1.399
      -1.209
      -0.919
      -0.625
      -0.367
      -0.122
       0.131
       0.366
       0.516
       0.531
       0.438
       0.323
       0.257
       0.224
       0.134
      -0.079
      -0.358
      -0.548
      -0.508
      -0.223
       0.172
       0.477
       0.546
       0.361
       0.007
      -0.385
      -0.709
      -0.906
      -0.964
      -0.912
      -0.812
      -0.728
      -0.693
      -0.692
      -0.691
      -0.676
      -0.646
      -0.594
      -0.503
      -0.366
      -0.204
      -0.042
       0.132
       0.367
       0.699
       1.082
       1.373
       1.403
       1.092
       0.536
      -0.028
      -0.359
      -0.350
      -0.073
       0.291
       0.558
       0.612
       0.443
       0.140
      -0.151
      -0.299
      -0.251
      -0.047
       0.204
       0.368
       0.361
       0.198
      -0.001
      -0.092
      -0.009
       0.187
       0.366
       0.451
       0.479
       0.539
       0.660
       0.754
       0.693
       0.433
       0.062
      -0.268
      -0.453
      -0.493
      -0.467
      -0.473
      -0.571
      -0.760
      -0.968
      -1.070
      -0.959
      -0.609
      -0.103
       0.410
       0.793
       1.003
       1.107
       1.220
       1.395
       1.559
       1.562
       1.295
       0.780
       0.126
      -0.559
      -1.213
      -1.776
      -2.150
      -2.227
      -1.953
      -1.371
      -0.595
       0.243
       1.016
       1.611
       1.941
       1.980
       1.798
       1.520
       1.248
       1.003
       0.750
       0.484
       0.275
       0.220
       0.338
       0.517
       0.576
       0.397
       0.008
      -0.432
      -0.748
      -0.847
      -0.757
      -0.588
      -0.433
      -0.300
      -0.127
       0.138
       0.453
       0.686
       0.686
       0.381
      -0.180
      -0.839
      -1.381
      -1.628
      -1.529
      -1.184
      -0.791
      -0.522
      -0.431
      -0.456
      -0.500
      -0.519
      -0.525
      -0.527
      -0.495
      -0.381
      -0.169
       0.107
       0.420
       0.794
       1.283
       1.887
       2.476
       2.825
       2.732
       2.140
       1.178
       0.097
      -0.863
      -1.565
      -1.983
      -2.141
      -2.062
      -1.766
      -1.304
      -0.756
      -0.210
       0.260
       0.581
       0.683
       0.540
       0.235
      -0.044
      -0.080
       0.233
       0.804
       1.377
       1.668
       1.528
       1.014
       0.331
      -0.290
      -0.690
      -0.819
      -0.707
      -0.418
       0.003
       0.547
       1.214
       1.952
       2.633
       3.094
       3.232
       3.055
       2.669
       2.214
       1.801
       1.474
       1.199
       0.899
       0.534
       0.167
      -0.063
      -0.047
       0.189
       0.496
       0.706
       0.752
       0.724
       0.804
       1.141
       1.742
       2.443
       2.996
       3.223
       3.115
       2.794
       2.369
       1.851
       1.206
       0.471
      -0.203
      -0.650
      -0.802
      -0.698
      -0.405
       0.055
       0.692
       1.471
       2.260
       2.853
       3.052
       2.765
       2.030
       0.976
      -0.244
      -1.482
      -2.580
      -3.360
      -3.659
      -3.410
      -2.717
      -1.835
      -1.039
      -0.471
      -0.123
       0.046
       0.004
      -0.334
      -0.987
      -1.861
      -2.787
      -3.590
      -4.111
      -4.209
      -3.755
      -2.671
      -0.978
       1.167
       3.498
       5.686
       7.368
       8.177
       7.832
       6.266
       3.705
       0.630
      -2.364
      -4.739
      -6.167
      -6.562
      -6.024
      -4.751
      -3.010
      -1.144
       0.463
       1.487
       1.763
       1.318
       0.320
      -1.015
      -2.466
      -3.819
      -4.897
      -5.634
      -6.122
      -6.571
      -7.168
      -7.962
      -8.860
      -9.716
     -10.390
     -10.760
     -10.685
     -10.020
      -8.666
      -6.657
      -4.221
      -1.751
       0.312
       1.621
       2.014
       1.536
       0.409
      -1.027
      -2.424
      -3.503
      -4.081
      -4.062
      -3.453
      -2.411
      -1.275
      -0.514
      -0.556
      -1.562
      -3.297
      -5.177
      -6.485
      -6.641
      -5.414
      -2.967
       0.270
       3.838
       7.391
      10.655
      13.278
      14.768
      14.654
      12.763
       9.414
       5.376
       1.597
      -1.135
      -2.481
      -2.624
      -2.093
      -1.432
      -0.899
      -0.389
       0.407
       1.716
       3.497
       5.432
       7.083
       8.061
       8.134
       7.242
       5.455
       2.907
      -0.239
      -3.762
      -7.347
     -10.588
     -13.062
     -14.412
     -14.411
     -13.008
     -10.342
      -6.736
      -2.643
       1.455
       5.140
       8.142
      10.351
      11.803
      12.623
      12.975
      12.980
      12.685
      12.079
      11.147
       9.902
       8.386
       6.660
       4.820
       3.012
       1.436
       0.330
      -0.104
       0.191
       1.010
       1.871
       2.173
       1.499
      -0.129
      -2.266
      -4.321
      -5.843
      -6.554
      -6.226
      -4.646
      -1.781
       2.053
       6.198
       9.866
      12.362
      13.191
      12.072
       8.966
       4.116
      -1.907
      -8.208
     -13.662
     -17.142
     -17.857
     -15.637
     -10.955
      -4.666
       2.307
       9.132
      15.023
      19.209
      21.073
      20.392
      17.461
      12.993
       7.866
       2.876
      -1.473
      -5.095
      -8.283
     -11.439
     -14.732
     -17.903
     -20.391
     -21.646
     -21.378
     -19.627
     -16.683
     -12.971
      -8.951
      -5.063
      -1.703
       0.817
       2.352
       3.011
       3.146
       3.181
       3.356
       3.571
       3.456
       2.659
       1.124
      -0.832
      -2.707
      -4.101
      -4.904
      -5.259
      -5.350
      -5.184
      -4.531
      -3.079
      -0.671
       2.553
       6.201
       9.787
      12.871
      15.132
      16.392
      16.607
      15.826
      14.083
      11.346
       7.592
       2.963
      -2.163
      -7.297
     -12.023
     -16.031
     -18.984
     -20.420
     -19.911
     -17.405
     -13.399
      -8.768
      -4.356
      -0.673
       2.166
       4.290
       5.887
       7.061
       7.760
       7.817
       7.049
       5.374
       2.860
      -0.276
      -3.644
      -6.662
      -8.625
      -8.969
      -7.578
      -4.920
      -1.829
       0.928
       2.995
       4.444
       5.544
       6.517
       7.432
       8.227
       8.758
       8.844
       8.298
       6.987
       4.923
       2.322
      -0.450
      -3.060
      -5.370
      -7.425
      -9.256
     -10.699
     -11.392
     -10.964
      -9.264
      -6.472
      -3.034
       0.539
       3.865
       6.765
       9.183
      11.041
      12.181
      12.477
      12.009
      11.104
      10.150
       9.347
       8.614
       7.720
       6.524
       5.110
       3.784
       2.964
       3.025
       4.135
       6.141
       8.562
      10.720
      11.955
      11.856
      10.415
       8.034
       5.369
       3.044
       1.353
       0.114
      -1.232
      -3.295
      -6.364
     -10.221
     -14.235
     -17.722
     -20.297
     -21.983
     -23.025
     -23.618
     -23.782
     -23.454
     -22.620
     -21.343
     -19.662
     -17.530
     -14.843
     -11.561
      -7.761
      -3.603
       0.780
       5.307
       9.858
      14.115
      17.518
      19.407
      19.298
      17.135
      13.387
       8.955
       4.926
       2.264
       1.535
       2.711
       5.155
       7.827
       9.681
      10.052
       8.870
       6.597
       3.955
       1.599
      -0.138
      -1.300
      -2.192
      -3.168
      -4.436
      -5.963
      -7.498
      -8.707
      -9.392
      -9.661
      -9.883
     -10.396
     -11.182
     -11.803
     -11.701
     -10.609
      -8.708
      -6.427
      -4.097
      -1.785
       0.593
       3.023
       5.294
       7.144
       8.493
       9.506
      10.402
      11.196
      11.609
      11.220
       9.752
       7.265
       4.165
       1.007
      -1.720
      -3.681
      -4.672
      -4.593
      -3.499
      -1.638
       0.596
       2.783
       4.577
       5.712
       5.988
       5.289
       3.636
       1.195
      -1.789
      -5.060
      -8.322
     -11.154
     -13.015
     -13.404
     -12.076
      -9.195
      -5.295
      -1.078
       2.840
       6.099
       8.613
      10.489
      11.911
      13.027
      13.861
      14.292
      14.146
      13.350
      12.038
      10.500
       9.011
       7.651
       6.280
       4.686
       2.811
       0.880
      -0.695
      -1.557
      -1.621
      -1.091
      -0.310
       0.431
       0.976
       1.235
       1.097
       0.426
      -0.827
      -2.511
      -4.273
      -5.685
      -6.422
      -6.359
      -5.523
      -4.011
      -1.986
       0.255
       2.241
       3.449
       3.553
       2.629
       1.101
      -0.538
      -2.008
      -3.282
      -4.382
      -5.169
      -5.397
      -4.990
      -4.248
      -3.701
      -3.717
      -4.216
      -4.749
      -4.859
      -4.367
      -3.384
      -2.114
      -0.690
       0.812
       2.239
       3.278
       3.532
       2.752
       1.068
      -0.970
      -2.607
      -3.239
      -2.713
      -1.401
      -0.016
       0.707
       0.302
      -1.262
      -3.558
      -5.818
      -7.189
      -7.066
      -5.371
      -2.604
       0.400
       2.884
       4.507
       5.383
       5.868
       6.296
       6.857
       7.613
       8.534
       9.476
      10.144
      10.132
       9.069
       6.816
       3.588
      -0.072
      -3.489
      -6.116
      -7.713
      -8.345
      -8.248
      -7.676
      -6.841
      -5.902
      -4.971
      -4.116
      -3.375
      -2.759
      -2.258
      -1.837
      -1.420
      -0.891
      -0.158
       0.704
       1.395
       1.507
       0.776
      -0.712
      -2.526
      -4.069
      -4.813
      -4.461
      -3.023
      -0.844
       1.446
       3.092
       3.468
       2.329
      -0.047
      -2.918
      -5.333
      -6.497
      -6.092
      -4.370
      -1.959
       0.467
       2.462
       3.866
       4.700
       5.022
       4.853
       4.212
       3.217
       2.116
       1.182
       0.570
       0.272
       0.230
       0.471
       1.108
       2.191
       3.587
       5.032
       6.299
       7.268
       7.842
       7.842
       7.095
       5.663
       3.970
       2.625
       2.035
       2.124
       2.390
       2.267
       1.515
       0.342
      -0.787
      -1.470
      -1.583
      -1.283
      -0.878
      -0.676
      -0.914
      -1.708
      -3.006
      -4.550
      -5.940
      -6.810
      -7.009
      -6.651
      -6.009
      -5.354
      -4.844
      -4.485
      -4.178
      -3.802
      -3.288
      -2.617
      -1.783
      -0.794
       0.246
       1.103
       1.515
       1.369
       0.802
       0.115
      -0.390
      -0.539
      -0.324
       0.117
       0.552
       0.771
       0.732
       0.665
       1.009
       2.158
       4.158
       6.563
       8.556
       9.302
       8.346
       5.856
       2.549
      -0.648
      -2.990
      -4.121
      -4.082
      -3.191
      -1.889
      -0.586
       0.470
       1.188
       1.508
       1.292
       0.358
      -1.320
      -3.455
      -5.510
      -6.979
      -7.628
      -7.520
      -6.847
      -5.772
      -4.410
      -2.912
      -1.561
      -0.747
      -0.813
      -1.835
      -3.517
      -5.284
      -6.519
      -6.823
      -6.162
      -4.855
      -3.380
      -2.133
      -1.268
      -0.737
      -0.461
      -0.456
      -0.795
      -1.410
      -1.936
      -1.795
      -0.533
       1.814
       4.631
       7.020
       8.295
       8.307
       7.372
       5.947
       4.343
       2.662
       0.922
      -0.801
      -2.336
      -3.516
      -4.296
      -4.789
      -5.154
      -5.488
      -5.784
      -5.993
      -6.069
      -5.973
      -5.629
      -4.909
      -3.661
      -1.772
       0.756
       3.730
       6.753
       9.306
      10.926
      11.362
      10.635
       8.997
       6.807
       4.408
       2.026
      -0.235
      -2.266
      -3.785
      -4.339
      -3.537
      -1.370
       1.682
       4.878
       7.570
       9.434
      10.477
      10.916
      11.055
      11.162
      11.323
      11.360
      10.889
       9.558
       7.307
       4.466
       1.625
      -0.632
      -1.970
      -2.411
      -2.276
      -1.967
      -1.717
      -1.439
      -0.835
       0.305
       1.830
       3.231
       3.928
       3.648
       2.609
       1.383
       0.526
       0.239
       0.295
       0.256
      -0.203
      -1.116
      -2.291
      -3.531
      -4.777
      -6.080
      -7.441
      -8.692
      -9.515
      -9.590
      -8.760
      -7.099
      -4.880
      -2.494
      -0.356
       1.194
       2.011
       2.207
       2.092
       1.954
