Origin Time       21/08/2013 08:41:51
Lat.              26.7 N	
Long.             92.4 E	
Depth (Km)         22.0
Magnitude         3.9
 Region           Sonitpur-Assam                                                   
 Above details taken from IMD 
   
Station Code      NAU
Station Lat.       26.349
Station Long.      92.690
Station Height(m)   78.0
Site Class        C   Vs30 between 200 m/sec to 375 m/sec *  
Record Time       21.08.2013 08:41:38.254
Sampling Rate     200. Hz
 Record Duration   82.135 Sec.
 Direction         Vert. (Up positive)
Max. Acceleration      5.785 cm/sec**2
     
  * For reference see Site Classification link of website 
     
 Base Line Corrected and Low Pass Filtered (Cut Off at 35 Hz) Time History
 Acceleration data in cm/sec**2
    
[...]
       0.120
       0.286
       0.373
       0.340
       0.222
       0.106
       0.050
       0.031
      -0.015
      -0.109
      -0.194
      -0.184
      -0.073
       0.044
       0.058
      -0.036
      -0.119
      -0.068
       0.126
       0.343
       0.429
       0.315
       0.053
      -0.220
      -0.375
      -0.356
      -0.202
      -0.012
       0.127
       0.193
       0.226
       0.274
       0.345
       0.392
       0.347
       0.169
      -0.106
      -0.371
      -0.512
      -0.495
      -0.393
      -0.333
      -0.387
      -0.493
      -0.503
      -0.322
       0.000
       0.310
       0.490
       0.537
       0.529
       0.521
       0.492
       0.378
       0.157
      -0.106
      -0.296
      -0.337
      -0.238
      -0.084
       0.033
       0.066
       0.033
      -0.004
       0.016
       0.105
       0.212
       0.252
       0.171
      -0.010
      -0.208
      -0.352
      -0.427
      -0.451
      -0.447
      -0.422
      -0.362
      -0.230
       0.000
       0.307
       0.620
       0.860
       0.975
       0.944
       0.774
       0.483
       0.109
      -0.270
      -0.560
      -0.697
      -0.697
      -0.633
      -0.573
      -0.542
      -0.515
      -0.421
      -0.196
       0.143
       0.469
       0.629
       0.562
       0.349
       0.145
       0.049
       0.027
      -0.034
      -0.203
      -0.422
      -0.552
      -0.494
      -0.270
       0.008
       0.223
       0.325
       0.334
       0.282
       0.184
       0.048
      -0.094
      -0.186
      -0.175
      -0.051
       0.122
       0.233
       0.202
       0.054
      -0.095
      -0.138
      -0.052
       0.103
       0.245
       0.329
       0.341
       0.258
       0.055
      -0.236
      -0.494
      -0.572
      -0.425
      -0.164
       0.018
       0.002
      -0.143
      -0.215
      -0.049
       0.323
       0.676
       0.765
       0.524
       0.103
      -0.259
      -0.424
      -0.428
      -0.397
      -0.422
      -0.498
      -0.561
      -0.571
      -0.542
      -0.507
      -0.450
      -0.301
       0.000
       0.416
       0.808
       1.010
       0.954
       0.725
       0.501
       0.413
       0.442
       0.445
       0.294
      -0.006
      -0.334
      -0.569
      -0.666
      -0.642
      -0.513
      -0.288
      -0.009
       0.232
       0.347
       0.339
       0.305
       0.345
       0.463
       0.568
       0.561
       0.417
       0.188
      -0.050
      -0.251
      -0.401
      -0.509
      -0.592
      -0.661
      -0.710
      -0.705
      -0.611
      -0.415
      -0.123
       0.238
       0.602
       0.877
       0.986
       0.924
       0.765
       0.597
       0.449
       0.288
       0.083
      -0.154
      -0.385
      -0.594
      -0.792
      -0.964
      -1.050
      -0.989
      -0.777
      -0.473
      -0.142
       0.181
       0.460
       0.621
       0.587
       0.387
       0.171
       0.089
       0.132
       0.128
      -0.076
      -0.425
      -0.684
      -0.660
      -0.399
      -0.146
      -0.099
      -0.235
      -0.358
      -0.313
      -0.110
       0.142
       0.377
       0.602
       0.808
       0.926
       0.895
       0.758
       0.638
       0.610
       0.609
       0.490
       0.176
      -0.246
      -0.598
      -0.757
      -0.740
      -0.665
      -0.627
      -0.606
      -0.496
      -0.219
       0.159
       0.446
       0.476
       0.265
       0.037
       0.039
       0.316
       0.629
       0.649
       0.264
      -0.293
      -0.631
      -0.536
      -0.137
       0.219
       0.270
       0.037
      -0.239
      -0.330
      -0.190
       0.059
       0.254
       0.289
       0.136
      -0.172
      -0.546
      -0.854
      -0.948
      -0.738
      -0.279
       0.234
       0.580
       0.653
       0.524
       0.372
       0.347
       0.452
       0.552
       0.506
       0.297
       0.014
      -0.247
      -0.462
      -0.649
      -0.805
      -0.858
      -0.716
      -0.366
       0.068
       0.394
       0.497
       0.416
       0.284
       0.208
       0.180
       0.113
      -0.066
      -0.338
      -0.611
      -0.780
      -0.766
      -0.520
      -0.049
       0.543
       1.078
       1.381
       1.385
       1.172
       0.907
       0.705
       0.541
       0.288
      -0.150
      -0.725
      -1.236
      -1.455
      -1.307
      -0.930
      -0.552
      -0.289
      -0.072
       0.218
       0.584
       0.882
       0.958
       0.796
       0.518
       0.246
      -0.020
      -0.365
      -0.812
      -1.214
      -1.339
      -1.063
      -0.499
       0.087
       0.481
       0.651
       0.692
       0.679
       0.585
       0.342
      -0.044
      -0.448
      -0.692
      -0.680
      -0.467
      -0.204
      -0.010
       0.090
       0.137
       0.174
       0.215
       0.258
       0.296
       0.312
       0.280
       0.185
       0.043
      -0.111
      -0.253
      -0.375
      -0.461
      -0.470
      -0.364
      -0.168
       0.044
       0.202
       0.289
       0.337
       0.393
       0.479
       0.562
       0.570
       0.437
       0.159
      -0.198
      -0.532
      -0.768
      -0.899
      -0.945
      -0.890
      -0.668
      -0.243
       0.300
       0.790
       1.087
       1.171
       1.115
       0.996
       0.818
       0.525
       0.104
      -0.351
      -0.687
      -0.836
      -0.876
      -0.946
      -1.074
      -1.117
      -0.892
      -0.363
       0.286
       0.777
       0.946
       0.852
       0.689
       0.604
       0.564
       0.430
       0.128
      -0.250
      -0.522
      -0.577
      -0.458
      -0.278
      -0.099
       0.098
       0.330
       0.548
       0.649
       0.572
       0.369
       0.171
       0.073
       0.050
      -0.013
      -0.198
      -0.481
      -0.745
      -0.870
      -0.797
      -0.567
      -0.282
      -0.027
       0.177
       0.358
       0.529
       0.660
       0.689
       0.574
       0.329
       0.025
      -0.259
      -0.487
      -0.670
      -0.808
      -0.856
      -0.736
      -0.413
       0.038
       0.453
       0.676
       0.673
       0.542
       0.429
       0.398
       0.398
       0.344
       0.217
       0.066
      -0.077
      -0.231
      -0.398
      -0.517
      -0.505
      -0.352
      -0.142
       0.024
       0.116
       0.175
       0.240
       0.280
       0.238
       0.121
       0.023
       0.042
       0.177
       0.322
       0.347
       0.202
      -0.048
      -0.278
      -0.392
      -0.375
      -0.269
      -0.132
      -0.013
       0.061
       0.095
       0.108
       0.105
       0.064
      -0.041
      -0.215
      -0.422
      -0.594
      -0.674
      -0.660
      -0.589
      -0.476
      -0.288
       0.006
       0.356
       0.622
       0.658
       0.432
       0.084
      -0.163
      -0.171
       0.003
       0.175
       0.212
       0.132
       0.047
       0.033
       0.072
       0.110
       0.132
       0.165
       0.211
       0.218
       0.140
       0.003
      -0.098
      -0.086
       0.041
       0.234
       0.444
       0.629
       0.717
       0.617
       0.300
      -0.123
      -0.463
      -0.624
      -0.678
      -0.750
      -0.841
      -0.811
      -0.543
      -0.091
       0.362
       0.654
       0.745
       0.668
       0.458
       0.149
      -0.193
      -0.485
      -0.720
      -0.996
      -1.418
      -1.938
      -2.308
      -2.244
      -1.664
      -0.771
       0.111
       0.789
       1.289
       1.731
       2.167
       2.523
       2.670
       2.518
       2.077
       1.454
       0.797
       0.233
      -0.166
      -0.364
      -0.365
      -0.227
      -0.069
       0.005
      -0.022
      -0.076
      -0.069
       0.035
       0.211
       0.406
       0.553
       0.573
       0.392
      -0.006
      -0.532
      -1.018
      -1.325
      -1.422
      -1.365
      -1.218
      -1.025
      -0.835
      -0.694
      -0.588
      -0.422
      -0.106
       0.311
       0.634
       0.684
       0.474
       0.209
       0.103
       0.195
       0.336
       0.338
       0.147
      -0.131
      -0.350
      -0.471
      -0.570
      -0.728
      -0.914
      -0.990
      -0.805
      -0.303
       0.437
       1.234
       1.889
       2.246
       2.225
       1.818
       1.103
       0.230
      -0.631
      -1.363
      -1.924
      -2.299
      -2.410
      -2.095
      -1.222
       0.106
       1.490
       2.430
       2.660
       2.327
       1.834
       1.496
       1.303
       0.979
       0.269
      -0.823
      -1.999
      -2.858
      -3.127
      -2.788
      -2.057
      -1.238
      -0.555
      -0.023
       0.536
       1.303
       2.244
       3.072
       3.445
       3.211
       2.477
       1.465
       0.317
      -0.929
      -2.206
      -3.293
      -3.883
      -3.771
      -2.990
      -1.779
      -0.438
       0.821
       1.901
       2.774
       3.424
       3.806
       3.837
       3.420
       2.516
       1.196
      -0.367
      -1.949
      -3.325
      -4.287
      -4.662
      -4.349
      -3.352
      -1.830
      -0.110
       1.383
       2.306
       2.552
       2.265
       1.677
       0.919
      -0.011
      -1.113
      -2.235
      -3.068
      -3.339
      -3.015
      -2.317
      -1.513
      -0.717
       0.112
       0.995
       1.808
       2.337
       2.446
       2.150
       1.546
       0.699
      -0.356
      -1.476
      -2.320
      -2.495
      -1.853
      -0.682
       0.464
       1.173
       1.475
       1.755
       2.337
       3.144
       3.741
       3.686
       2.853
       1.442
      -0.247
      -1.989
      -3.571
      -4.637
      -4.731
      -3.634
      -1.660
       0.446
       1.987
       2.739
       2.940
       2.936
       2.859
       2.606
       2.004
       0.948
      -0.536
      -2.254
      -3.810
      -4.730
      -4.730
      -3.933
      -2.787
      -1.693
      -0.702
       0.416
       1.826
       3.340
       4.489
       4.842
       4.269
       2.968
       1.290
      -0.431
      -1.914
      -2.889
      -3.128
      -2.580
      -1.466
      -0.191
       0.896
       1.662
       2.159
       2.471
       2.608
       2.502
       2.072
       1.291
       0.209
      -1.081
      -2.444
      -3.664
      -4.420
      -4.421
      -3.625
      -2.338
      -1.026
       0.019
       0.836
       1.630
       2.464
       3.147
       3.406
       3.116
       2.354
       1.302
       0.175
      -0.779
      -1.340
      -1.436
      -1.209
      -0.902
      -0.655
      -0.375
       0.136
       0.913
       1.689
       2.089
       1.957
       1.459
       0.854
       0.230
      -0.475
      -1.243
      -1.844
      -2.010
      -1.708
      -1.187
      -0.733
      -0.437
      -0.211
       0.014
       0.214
       0.359
       0.495
       0.664
       0.785
       0.685
       0.305
      -0.182
      -0.480
      -0.441
      -0.193
      -0.019
      -0.082
      -0.285
      -0.398
      -0.303
      -0.109
      -0.014
      -0.097
      -0.257
      -0.339
      -0.294
      -0.216
      -0.266
      -0.539
      -0.965
      -1.324
      -1.373
      -1.011
      -0.322
       0.502
       1.292
       1.953
       2.423
       2.618
       2.441
       1.842
       0.896
      -0.145
      -0.902
      -1.076
      -0.665
       0.003
       0.497
       0.574
       0.327
       0.047
      -0.052
      -0.017
      -0.066
      -0.335
      -0.741
      -1.088
      -1.272
      -1.373
      -1.521
      -1.720
      -1.800
      -1.581
      -1.050
      -0.386
       0.193
       0.575
       0.774
       0.852
       0.833
       0.676
       0.351
      -0.046
      -0.299
      -0.224
       0.143
       0.531
       0.619
       0.297
      -0.230
      -0.583
      -0.497
      -0.006
       0.629
       1.131
       1.352
       1.274
       0.946
       0.456
      -0.054
      -0.429
      -0.596
      -0.615
      -0.595
      -0.554
      -0.399
      -0.073
       0.297
       0.442
       0.189
      -0.328
      -0.706
      -0.572
       0.121
       1.045
       1.756
       2.026
       1.950
       1.764
       1.591
       1.352
       0.891
       0.144
      -0.778
      -1.645
      -2.257
      -2.571
      -2.698
      -2.774
      -2.834
      -2.816
      -2.655
      -2.346
      -1.939
      -1.483
      -0.986
      -0.434
       0.150
       0.680
       1.049
       1.220
       1.290
       1.448
       1.852
       2.478
       3.102
       3.436
       3.343
       2.925
       2.425
       2.035
       1.777
       1.542
       1.230
       0.852
       0.471
       0.064
      -0.519
      -1.425
      -2.657
      -4.020
      -5.173
      -5.755
      -5.547
      -4.592
      -3.167
      -1.633
      -0.283
       0.722
       1.340
       1.614
       1.660
       1.651
       1.747
       2.002
       2.306
       2.456
       2.295
       1.830
       1.249
       0.816
       0.727
       1.002
       1.476
       1.902
       2.104
       2.040
       1.753
       1.292
       0.684
      -0.031
      -0.786
      -1.535
      -2.293
      -3.109
      -3.990
      -4.812
      -5.315
      -5.237
      -4.520
      -3.408
      -2.286
      -1.362
      -0.501
       0.594
       2.058
       3.691
       5.066
       5.785
       5.673
       4.828
       3.531
       2.095
       0.751
      -0.361
      -1.122
      -1.391
      -1.066
      -0.212
       0.880
       1.804
       2.258
       2.204
       1.835
       1.353
       0.778
      -0.036
      -1.171
      -2.460
      -3.564
      -4.242
      -4.530
      -4.660
      -4.802
      -4.869
      -4.579
      -3.732
      -2.420
      -0.971
       0.315
       1.349
       2.210
       2.965
       3.558
       3.844
       3.706
       3.162
       2.359
       1.456
       0.541
      -0.356
      -1.186
      -1.842
      -2.183
      -2.080
      -1.455
      -0.363
       0.952
       2.115
       2.804
       2.936
       2.679
       2.276
       1.827
       1.256
       0.497
      -0.316
      -0.861
      -0.870
      -0.377
       0.275
       0.689
       0.721
       0.550
       0.465
       0.577
       0.744
       0.751
       0.562
       0.356
       0.298
       0.320
       0.154
      -0.395
      -1.253
      -2.130
      -2.735
      -2.942
      -2.804
      -2.464
      -2.036
      -1.552
      -0.991
      -0.359
       0.273
       0.793
       1.106
       1.174
       1.025
       0.745
       0.446
       0.209
       0.040
      -0.118
      -0.323
      -0.590
      -0.880
      -1.139
      -1.349
      -1.531
      -1.697
      -1.791
      -1.723
      -1.447
      -1.006
      -0.503
      -0.034
       0.367
       0.721
       1.041
       1.261
       1.280
       1.093
       0.857
       0.814
       1.112
       1.676
       2.240
       2.523
       2.442
       2.157
       1.897
       1.736
       1.577
       1.332
       1.073
       0.969
       1.080
       1.252
       1.222
       0.845
       0.191
      -0.574
      -1.348
      -2.090
      -2.705
      -3.033
      -3.015
      -2.780
      -2.524
      -2.299
      -1.968
      -1.368
      -0.512
       0.373
       1.011
       1.276
       1.229
       0.983
       0.584
       0.044
      -0.541
      -0.963
      -1.029
      -0.745
      -0.349
      -0.101
      -0.043
      -0.018
       0.081
       0.144
       0.003
      -0.285
      -0.410
      -0.132
       0.427
       0.910
       1.098
       1.048
       0.890
       0.666
       0.414
       0.242
       0.247
       0.425
       0.700
       0.968
       1.118
       1.104
       1.020
       1.044
       1.273
       1.607
       1.803
       1.642
       1.087
       0.286
      -0.569
      -1.342
      -1.936
      -2.273
      -2.336
      -2.200
      -1.982
      -1.790
      -1.694
      -1.698
      -1.729
      -1.694
      -1.553
      -1.321
      -1.041
      -0.773
      -0.557
      -0.379
      -0.197
       0.002
       0.209
       0.433
       0.701
       1.006
       1.307
       1.559
       1.701
       1.644
       1.335
       0.858
       0.443
       0.324
       0.551
       0.923
       1.138
       1.042
       0.737
       0.443
       0.273
       0.152
      -0.073
      -0.490
      -1.059
      -1.663
      -2.165
      -2.439
      -2.363
      -1.868
      -1.023
      -0.067
       0.698
       1.084
       1.117
       0.971
       0.811
       0.684
       0.538
       0.315
       0.012
      -0.314
      -0.569
      -0.646
      -0.474
      -0.071
       0.423
       0.806
       0.944
       0.867
       0.749
       0.750
       0.868
       0.948
       0.842
       0.553
       0.219
      -0.045
      -0.253
      -0.494
      -0.774
      -0.984
      -1.012
      -0.850
      -0.591
      -0.365
      -0.285
      -0.368
      -0.484
      -0.447
      -0.221
       0.005
      -0.012
      -0.312
      -0.660
      -0.743
      -0.439
       0.078
       0.490
       0.606
       0.482
       0.312
       0.224
       0.201
       0.152
       0.012
      -0.213
      -0.452
      -0.605
      -0.606
      -0.466
      -0.234
       0.082
       0.535
       1.166
       1.896
       2.521
       2.832
       2.772
       2.473
       2.131
       1.841
       1.544
       1.104
       0.454
      -0.325
      -1.041
      -1.506
      -1.621
      -1.406
      -0.970
      -0.464
      -0.022
       0.296
       0.499
       0.614
       0.631
       0.512
       0.239
      -0.136
      -0.496
      -0.728
      -0.805
      -0.811
      -0.888
      -1.139
      -1.529
      -1.883
      -1.992
      -1.768
      -1.318
      -0.887
      -0.686
      -0.728
      -0.806
      -0.664
      -0.211
       0.403
       0.938
       1.263
       1.428
       1.544
       1.629
       1.585
       1.324
       0.893
       0.459
       0.158
      -0.002
      -0.103
      -0.195
      -0.254
      -0.261
      -0.274
      -0.398
      -0.684
      -1.079
      -1.474
      -1.771
      -1.920
      -1.919
      -1.818
      -1.669
      -1.469
      -1.156
      -0.690
      -0.152
       0.255
       0.343
       0.102
      -0.249
      -0.420
      -0.303
      -0.058
       0.088
       0.107
       0.197
       0.543
       1.081
       1.545
       1.726
       1.664
       1.561
       1.548
       1.564
       1.459
       1.172
       0.781
       0.410
       0.134
      -0.030
      -0.088
      -0.061
      -0.017
      -0.052
      -0.219
      -0.463
      -0.664
      -0.735
      -0.675
      -0.520
      -0.273
       0.074
       0.469
       0.786
       0.918
       0.901
       0.901
       1.060
       1.334
       1.513
       1.420
       1.069
       0.627
       0.248
      -0.040
      -0.290
      -0.523
      -0.700
      -0.789
      -0.834
      -0.900
      -0.994
      -1.048
      -0.989
      -0.817
      -0.617
      -0.502
      -0.527
      -0.651
      -0.765
      -0.781
      -0.681
      -0.509
      -0.325
      -0.169
      -0.048
