Origin Time       18/9/2011 12:40:47	
Lat.              27.6 N	
Long.             88.2 E	
Depth (Km)         10.0
Magnitude         6.8
 Region           India(Sikkim)-Nepar-Border                                       
 Above details taken from IMD 
     
Station Code      NAU
Station Lat.       26.349  N
Station Long.      92.690  E
Station Height(m)   72.0
Site Class        C   Vs30 between 200 m/sec to 375 m/sec *  
Record Time       18.09.2011 12:42:18.024
Sampling Rate     200. Hz
 Record Duration  183.600 Sec.
 Direction         E-W (E positive)
Max. Acceleration     20.020 cm/sec**2
     
  * For reference see Site Classification link of website 
     
 Base Line Corrected and Low Pass Filtered (Cut Off at 35 Hz) Time History
 Acceleration data in cm/sec**2
    
[...]
       4.738
       4.705
       4.647
       4.550
       4.409
       4.229
       4.025
       3.803
       3.561
       3.286
       2.968
       2.606
       2.206
       1.785
       1.369
       0.992
       0.683
       0.453
       0.292
       0.181
       0.104
       0.050
       0.005
      -0.059
      -0.192
      -0.443
      -0.840
      -1.368
      -1.977
      -2.614
      -3.248
      -3.870
      -4.459
      -4.958
      -5.289
      -5.414
      -5.367
      -5.215
      -5.003
      -4.734
      -4.409
      -4.051
      -3.693
      -3.354
      -3.037
      -2.734
      -2.447
      -2.188
      -1.966
      -1.779
      -1.619
      -1.483
      -1.375
      -1.300
      -1.257
      -1.232
      -1.207
      -1.163
      -1.086
      -0.968
      -0.819
      -0.673
      -0.584
      -0.600
      -0.732
      -0.952
      -1.201
      -1.419
      -1.568
      -1.630
      -1.600
      -1.471
      -1.243
      -0.922
      -0.520
      -0.057
       0.445
       0.957
       1.448
       1.891
       2.272
       2.595
       2.879
       3.138
       3.375
       3.590
       3.791
       3.997
       4.229
       4.501
       4.814
       5.157
       5.511
       5.842
       6.105
       6.254
       6.260
       6.128
       5.886
       5.562
       5.174
       4.735
       4.262
       3.789
       3.363
       3.030
       2.824
       2.760
       2.823
       2.963
       3.102
       3.159
       3.075
       2.839
       2.479
       2.031
       1.519
       0.960
       0.383
      -0.157
      -0.598
      -0.894
      -1.039
      -1.054
      -0.973
      -0.825
      -0.634
      -0.413
      -0.165
       0.122
       0.450
       0.787
       1.070
       1.233
       1.256
       1.186
       1.110
       1.097
       1.167
       1.297
       1.463
       1.664
       1.907
       2.191
       2.490
       2.771
       3.010
       3.198
       3.336
       3.425
       3.467
       3.480
       3.500
       3.561
       3.677
       3.822
       3.952
       4.039
       4.084
       4.104
       4.098
       4.039
       3.895
       3.649
       3.302
       2.855
       2.309
       1.673
       0.986
       0.312
      -0.288
      -0.785
      -1.185
      -1.504
      -1.736
      -1.852
      -1.822
      -1.640
      -1.337
      -0.971
      -0.610
      -0.313
      -0.111
      -0.003
       0.029
       0.005
      -0.066
      -0.179
      -0.316
      -0.430
      -0.468
      -0.399
      -0.241
      -0.058
       0.079
       0.126
       0.085
      -0.022
      -0.184
      -0.425
      -0.774
      -1.235
      -1.762
      -2.283
      -2.730
      -3.074
      -3.316
      -3.478
      -3.582
      -3.648
      -3.697
      -3.739
      -3.775
      -3.805
      -3.837
      -3.888
      -3.974
      -4.089
      -4.197
      -4.251
      -4.214
      -4.081
      -3.875
      -3.628
      -3.373
      -3.131
      -2.929
      -2.797
      -2.756
      -2.807
      -2.923
      -3.055
      -3.148
      -3.167
      -3.093
      -2.931
      -2.692
      -2.393
      -2.054
      -1.706
      -1.388
      -1.144
      -1.008
      -0.993
      -1.095
      -1.304
      -1.601
      -1.958
      -2.337
      -2.697
      -3.008
      -3.259
      -3.462
      -3.636
      -3.797
      -3.946
      -4.064
      -4.118
      -4.083
      -3.954
      -3.762
      -3.560
      -3.409
      -3.342
      -3.351
      -3.392
      -3.421
      -3.413
      -3.372
      -3.316
      -3.265
      -3.237
      -3.235
      -3.258
      -3.295
      -3.336
      -3.384
      -3.453
      -3.559
      -3.707
      -3.887
      -4.092
      -4.334
      -4.626
      -4.966
      -5.326
      -5.663
      -5.937
      -6.126
      -6.226
      -6.245
      -6.191
      -6.060
      -5.825
      -5.450
      -4.915
      -4.234
      -3.457
      -2.639
      -1.821
      -1.012
      -0.206
       0.603
       1.408
       2.195
       2.951
       3.665
       4.319
       4.887
       5.338
       5.646
       5.804
       5.830
       5.762
       5.634
       5.453
       5.208
       4.898
       4.562
       4.253
       4.005
       3.808
       3.624
       3.429
       3.233
       3.065
       2.944
       2.857
       2.780
       2.695
       2.603
       2.521
       2.471
       2.465
       2.497
       2.555
       2.623
       2.697
       2.775
       2.855
       2.925
       2.969
       2.974
       2.939
       2.870
       2.771
       2.640
       2.470
       2.255
       1.997
       1.707
       1.388
       1.038
       0.649
       0.233
      -0.182
      -0.565
      -0.900
      -1.195
      -1.466
      -1.720
      -1.957
      -2.175
      -2.377
      -2.572
      -2.761
      -2.937
      -3.093
      -3.235
      -3.381
      -3.540
      -3.696
      -3.801
      -3.801
      -3.666
      -3.411
      -3.088
      -2.764
      -2.488
      -2.279
      -2.138
      -2.063
      -2.074
      -2.205
      -2.475
      -2.861
      -3.302
      -3.727
      -4.091
      -4.381
      -4.584
      -4.682
      -4.662
      -4.534
      -4.329
      -4.078
      -3.806
      -3.545
      -3.334
      -3.211
      -3.181
      -3.203
      -3.211
      -3.145
      -2.977
      -2.714
      -2.388
      -2.038
      -1.687
      -1.337
      -0.974
      -0.584
      -0.166
       0.271
       0.710
       1.137
       1.535
       1.887
       2.178
       2.401
       2.552
       2.623
       2.591
       2.439
       2.176
       1.850
       1.526
       1.251
       1.031
       0.834
       0.627
       0.396
       0.152
      -0.089
      -0.315
      -0.519
      -0.692
      -0.814
      -0.865
      -0.831
      -0.718
      -0.550
      -0.361
      -0.180
      -0.020
       0.120
       0.243
       0.336
       0.370
       0.311
       0.141
      -0.125
      -0.444
      -0.756
      -1.004
      -1.157
      -1.217
      -1.212
      -1.174
      -1.112
      -1.001
      -0.801
      -0.482
      -0.054
       0.427
       0.890
       1.277
       1.572
       1.796
       1.985
       2.163
       2.331
       2.469
       2.551
       2.554
       2.471
       2.313
       2.102
       1.870
       1.657
       1.496
       1.408
       1.389
       1.408
       1.425
       1.407
       1.336
       1.204
       1.006
       0.736
       0.392
      -0.023
      -0.501
      -1.033
      -1.605
      -2.198
      -2.794
      -3.376
      -3.931
      -4.456
      -4.952
      -5.427
      -5.887
      -6.336
      -6.776
      -7.207
      -7.636
      -8.064
      -8.484
      -8.880
      -9.233
      -9.529
      -9.768
      -9.954
     -10.089
     -10.167
     -10.172
     -10.089
      -9.913
      -9.656
      -9.346
      -9.018
      -8.697
      -8.386
      -8.068
      -7.710
      -7.278
      -6.759
      -6.170
      -5.552
      -4.953
      -4.400
      -3.892
      -3.408
      -2.927
      -2.442
      -1.956
      -1.470
      -0.982
      -0.487
       0.020
       0.532
       1.040
       1.539
       2.028
       2.514
       3.007
       3.511
       4.012
       4.480
       4.891
       5.242
       5.549
       5.823
       6.058
       6.237
       6.354
       6.421
       6.466
       6.520
       6.607
       6.731
       6.868
       6.975
       7.005
       6.922
       6.715
       6.391
       5.979
       5.512
       5.025
       4.540
       4.058
       3.563
       3.029
       2.440
       1.797
       1.122
       0.451
      -0.178
      -0.741
      -1.221
      -1.611
      -1.904
      -2.095
      -2.187
      -2.190
      -2.120
      -2.000
      -1.853
      -1.699
      -1.552
      -1.411
      -1.268
      -1.113
      -0.942
      -0.758
      -0.577
      -0.421
      -0.315
      -0.277
      -0.312
      -0.410
      -0.552
      -0.708
      -0.853
      -0.966
      -1.044
      -1.097
      -1.145
      -1.202
      -1.272
      -1.346
      -1.412
      -1.454
      -1.459
      -1.414
      -1.313
      -1.155
      -0.952
      -0.721
      -0.478
      -0.242
      -0.023
       0.171
       0.337
       0.473
       0.580
       0.655
       0.698
       0.717
       0.729
       0.757
       0.817
       0.921
       1.071
       1.264
       1.491
       1.725
       1.935
       2.096
       2.213
       2.315
       2.441
       2.621
       2.865
       3.160
       3.489
       3.833
       4.173
       4.491
       4.764
       4.971
       5.093
       5.114
       5.017
       4.784
       4.393
       3.827
       3.090
       2.208
       1.226
       0.193
      -0.851
      -1.884
      -2.894
      -3.875
      -4.822
      -5.732
      -6.609
      -7.457
      -8.277
      -9.062
      -9.800
     -10.480
     -11.096
     -11.642
     -12.105
     -12.473
     -12.736
     -12.888
     -12.925
     -12.838
     -12.629
     -12.303
     -11.874
     -11.359
     -10.781
     -10.165
      -9.538
      -8.924
      -8.335
      -7.777
      -7.244
      -6.724
      -6.203
      -5.670
      -5.124
      -4.567
      -4.004
      -3.435
      -2.862
      -2.286
      -1.709
      -1.126
      -0.528
       0.093
       0.734
       1.381
       2.011
       2.604
       3.164
       3.714
       4.280
       4.869
       5.461
       6.025
       6.540
       7.003
       7.417
       7.777
       8.064
       8.263
       8.372
       8.404
       8.382
       8.327
       8.263
       8.209
       8.175
       8.162
       8.157
       8.144
       8.099
       7.994
       7.800
       7.493
       7.069
       6.535
       5.914
       5.236
       4.534
       3.848
       3.212
       2.652
       2.179
       1.785
       1.448
       1.151
       0.895
       0.698
       0.580
       0.545
       0.575
       0.642
       0.727
       0.827
       0.956
       1.134
       1.374
       1.675
       2.020
       2.390
       2.762
       3.118
       3.443
       3.721
       3.945
       4.124
       4.287
       4.472
       4.703
       4.973
       5.243
       5.468
       5.626
       5.723
       5.778
       5.800
       5.790
       5.757
       5.721
       5.705
       5.712
       5.721
       5.712
       5.683
       5.660
       5.673
       5.742
       5.862
       6.009
       6.154
       6.262
       6.303
       6.249
       6.082
       5.789
       5.366
       4.818
       4.166
       3.457
       2.766
       2.175
       1.742
       1.476
       1.339
       1.281
       1.260
       1.258
       1.267
       1.279
       1.281
       1.261
       1.209
       1.116
       0.977
       0.796
       0.586
       0.363
       0.135
      -0.098
      -0.340
      -0.579
      -0.794
      -0.957
      -1.051
      -1.077
      -1.043
      -0.955
      -0.814
      -0.626
      -0.404
      -0.174
       0.045
       0.243
       0.427
       0.605
       0.789
       0.989
       1.224
       1.518
       1.889
       2.337
       2.830
       3.318
       3.759
       4.134
       4.452
       4.736
       5.003
       5.256
       5.481
       5.661
       5.775
       5.819
       5.801
       5.745
       5.682
       5.633
       5.607
       5.599
       5.599
       5.596
       5.584
       5.554
       5.497
       5.402
       5.259
       5.061
       4.800
       4.461
       4.035
       3.519
       2.923
       2.269
       1.575
       0.858
       0.128
      -0.612
      -1.359
      -2.111
      -2.864
      -3.614
      -4.355
      -5.074
      -5.752
      -6.367
      -6.904
      -7.354
      -7.710
      -7.958
      -8.088
      -8.099
      -8.002
      -7.803
      -7.503
      -7.092
      -6.566
      -5.927
      -5.185
      -4.352
      -3.447
      -2.495
      -1.527
      -0.568
       0.364
       1.254
       2.085
       2.835
       3.477
       3.993
       4.377
       4.646
       4.824
       4.939
       5.007
       5.038
       5.033
       4.989
       4.893
       4.724
       4.466
       4.117
       3.681
       3.164
       2.561
       1.862
       1.071
       0.211
      -0.680
      -1.571
      -2.440
      -3.280
      -4.079
      -4.820
      -5.480
      -6.041
      -6.485
      -6.797
      -6.965
      -6.985
      -6.874
      -6.671
      -6.428
      -6.193
      -5.992
      -5.821
      -5.660
      -5.489
      -5.303
      -5.114
      -4.930
      -4.740
      -4.524
      -4.273
      -4.000
      -3.737
      -3.505
      -3.297
      -3.089
      -2.868
      -2.649
      -2.456
      -2.298
      -2.159
      -2.013
      -1.853
      -1.705
      -1.610
      -1.592
      -1.646
      -1.742
      -1.851
      -1.961
      -2.077
      -2.212
      -2.374
      -2.570
      -2.802
      -3.052
      -3.287
      -3.472
      -3.606
      -3.727
      -3.895
      -4.142
      -4.437
      -4.699
      -4.844
      -4.831
      -4.667
      -4.398
      -4.076
      -3.744
      -3.419
      -3.101
      -2.791
      -2.506
      -2.271
      -2.092
      -1.940
      -1.764
      -1.530
      -1.235
      -0.889
      -0.490
      -0.009
       0.584
       1.300
       2.128
       3.044
       4.027
       5.054
       6.091
       7.103
       8.064
       8.955
       9.758
      10.456
      11.053
      11.587
      12.122
      12.703
      13.340
      14.023
      14.773
      15.654
      16.704
      17.844
      18.882
      19.618
      19.973
      20.020
      19.889
      19.671
      19.380
      18.995
      18.505
      17.918
      17.247
      16.515
      15.742
      14.948
      14.146
      13.344
      12.542
      11.725
      10.858
       9.916
       8.912
       7.894
       6.901
       5.919
       4.884
       3.748
       2.576
       1.552
       0.848
       0.442
       0.111
      -0.347
      -0.881
      -1.231
      -1.214
      -0.940
      -0.704
      -0.716
      -0.952
      -1.252
      -1.484
      -1.598
      -1.584
      -1.428
      -1.124
      -0.698
      -0.199
       0.306
       0.750
       1.075
       1.261
       1.349
       1.428
       1.592
       1.887
       2.293
       2.734
       3.120
       3.398
       3.570
       3.673
       3.735
       3.765
       3.766
       3.752
       3.727
       3.672
       3.550
       3.344
       3.082
       2.829
       2.639
       2.533
       2.492
       2.465
       2.385
       2.185
       1.819
       1.270
       0.547
      -0.335
      -1.368
      -2.545
      -3.848
      -5.230
      -6.606
      -7.869
      -8.924
      -9.734
     -10.336
     -10.806
     -11.207
     -11.557
     -11.847
     -12.077
     -12.267
     -12.436
     -12.577
     -12.654
     -12.629
     -12.490
     -12.255
     -11.959
     -11.630
     -11.273
     -10.880
     -10.437
      -9.935
      -9.379
      -8.788
      -8.193
      -7.630
      -7.135
      -6.726
      -6.410
      -6.179
      -6.026
      -5.949
      -5.949
      -6.021
      -6.149
      -6.299
      -6.428
      -6.503
      -6.512
      -6.466
      -6.370
      -6.206
      -5.938
      -5.551
      -5.057
      -4.493
      -3.890
      -3.262
      -2.624
      -2.011
      -1.486
      -1.112
      -0.929
      -0.932
      -1.082
      -1.326
      -1.610
      -1.885
      -2.116
      -2.284
      -2.393
      -2.449
      -2.451
      -2.392
      -2.280
      -2.157
      -2.088
      -2.121
      -2.266
      -2.495
      -2.771
      -3.070
      -3.393
      -3.760
      -4.184
      -4.652
      -5.126
      -5.564
      -5.943
      -6.268
      -6.562
      -6.838
      -7.099
      -7.339
      -7.565
      -7.786
      -8.009
      -8.222
      -8.402
      -8.526
      -8.585
      -8.584
      -8.540
      -8.475
      -8.410
      -8.359
      -8.330
      -8.328
      -8.355
      -8.408
      -8.478
      -8.552
      -8.625
      -8.700
      -8.775
      -8.839
      -8.876
      -8.882
      -8.868
      -8.843
      -8.787
      -8.667
      -8.463
      -8.191
      -7.894
      -7.603
      -7.323
      -7.028
      -6.683
      -6.267
      -5.776
      -5.228
      -4.653
      -4.084
      -3.552
      -3.079
      -2.674
      -2.339
      -2.061
      -1.821
      -1.594
      -1.354
      -1.073
      -0.722
      -0.284
       0.239
       0.828
       1.447
       2.059
       2.634
       3.155
       3.618
       4.027
       4.380
       4.673
       4.898
       5.059
       5.168
       5.247
       5.325
       5.430
       5.596
       5.858
       6.247
       6.776
       7.435
       8.195
       9.016
       9.866
      10.722
      11.571
      12.406
      13.219
      13.996
      14.722
      15.376
      15.944
      16.419
      16.805
      17.104
      17.313
      17.432
      17.462
      17.403
      17.246
      16.974
      16.579
      16.070
      15.478
      14.842
      14.199
      13.573
      12.973
      12.394
      11.826
      11.267
      10.720
      10.190
       9.675
       9.165
       8.642
       8.095
       7.524
       6.941
       6.362
       5.802
       5.274
       4.791
       4.370
       4.027
       3.774
       3.622
       3.574
       3.632
       3.794
       4.051
       4.381
       4.754
       5.134
       5.488
       5.792
       6.032
       6.198
       6.293
       6.326
       6.307
       6.242
       6.122
       5.933
       5.661
       5.307
       4.878
       4.387
       3.843
       3.250
       2.610
       1.931
       1.235
       0.549
      -0.097
      -0.680
      -1.184
      -1.609
      -1.969
      -2.294
      -2.612
      -2.931
      -3.234
      -3.494
      -3.696
      -3.844
      -3.946
      -4.007
      -4.024
      -4.002
      -3.953
      -3.902
      -3.870
      -3.859
      -3.855
      -3.845
      -3.840
      -3.863
      -3.923
      -3.996
      -4.043
      -4.040
      -3.983
      -3.882
      -3.758
      -3.635
      -3.546
      -3.522
      -3.580
      -3.708
      -3.875
      -4.039
      -4.166
      -4.237
      -4.251
      -4.226
      -4.184
      -4.143
      -4.105
      -4.064
      -4.009
      -3.939
      -3.856
      -3.766
      -3.674
      -3.584
      -3.503
      -3.432
      -3.375
      -3.331
      -3.307
      -3.309
      -3.344
      -3.415
      -3.509
      -3.602
      -3.668
      -3.690
      -3.668
      -3.617
      -3.552
      -3.485
      -3.427
      -3.393
      -3.402
      -3.474
      -3.625
      -3.846
      -4.111
      -4.382
      -4.632
      -4.863
      -5.096
      -5.359
      -5.662
      -5.997
      -6.348
      -6.694
      -7.013
      -7.280
      -7.474
      -7.581
      -7.606
      -7.565
      -7.480
      -7.365
      -7.228
      -7.068
      -6.877
      -6.639
      -6.342
      -5.982
      -5.569
      -5.123
      -4.656
      -4.172
      -3.657
      -3.098
      -2.493
      -1.859
      -1.230
      -0.634
      -0.075
       0.470
       1.030
       1.613
       2.189
       2.721
       3.194
       3.636
       4.089
       4.573
       5.070
       5.542
       5.951
       6.258
       6.435
       6.473
       6.392
       6.228
       6.011
       5.739
       5.393
       4.963
       4.475
       3.973
