Origin Time       21/9/2009 8:53:04	 
Lat.              27.3 N	
Long.             91.5 E	
Depth (Km)          8.0
Magnitude         6.2
 Region           BHUTAN                                                           
 Above details taken from IMD 
     
Station Code      NAU
Station Lat.       26.349  N
Station Long.      92.683  E
Station Height(m)   72.0
Site Class        C   Vs30 between 200 m/sec to 375 m/sec *  
Record Time       21.09.2009 08:53:37.999
Sampling Rate     200. Hz
 Record Duration  106.535 Sec.
 Direction         E-W (E positive)
Max. Acceleration    -13.638 cm/sec**2
     
  * For reference see Site Classification link of website 
     
 Base Line Corrected and Low Pass Filtered (Cut Off at 35 Hz) Time History
 Acceleration data in cm/sec**2
    
[...]
      -0.996
      -0.991
      -0.936
      -0.846
      -0.741
      -0.643
      -0.573
      -0.544
      -0.555
      -0.597
      -0.656
      -0.725
      -0.806
      -0.909
      -1.045
      -1.212
      -1.401
      -1.596
      -1.781
      -1.940
      -2.057
      -2.114
      -2.106
      -2.047
      -1.968
      -1.903
      -1.873
      -1.880
      -1.908
      -1.932
      -1.925
      -1.867
      -1.752
      -1.588
      -1.396
      -1.198
      -1.009
      -0.839
      -0.693
      -0.580
      -0.515
      -0.519
      -0.607
      -0.769
      -0.968
      -1.144
      -1.244
      -1.230
      -1.092
      -0.842
      -0.503
      -0.106
       0.320
       0.751
       1.175
       1.587
       1.979
       2.340
       2.655
       2.919
       3.140
       3.331
       3.504
       3.661
       3.801
       3.920
       4.012
       4.056
       4.027
       3.900
       3.665
       3.337
       2.951
       2.550
       2.175
       1.849
       1.582
       1.366
       1.192
       1.048
       0.932
       0.847
       0.803
       0.808
       0.860
       0.944
       1.040
       1.134
       1.225
       1.316
       1.414
       1.521
       1.639
       1.771
       1.915
       2.062
       2.199
       2.314
       2.398
       2.443
       2.431
       2.330
       2.103
       1.727
       1.208
       0.591
      -0.056
      -0.667
      -1.192
      -1.607
      -1.904
      -2.089
      -2.171
      -2.152
      -2.023
      -1.779
      -1.425
      -0.989
      -0.515
      -0.046
       0.391
       0.789
       1.151
       1.482
       1.792
       2.094
       2.406
       2.745
       3.122
       3.537
       3.973
       4.400
       4.790
       5.116
       5.361
       5.509
       5.550
       5.474
       5.281
       4.986
       4.611
       4.181
       3.711
       3.207
       2.674
       2.123
       1.572
       1.044
       0.555
       0.110
      -0.294
      -0.659
      -0.992
      -1.303
      -1.610
      -1.929
      -2.270
      -2.632
      -3.002
      -3.354
      -3.638
      -3.797
      -3.787
      -3.604
      -3.282
      -2.873
      -2.427
      -1.977
      -1.552
      -1.187
      -0.921
      -0.773
      -0.720
      -0.692
      -0.603
      -0.401
      -0.106
       0.209
       0.487
       0.737
       1.019
       1.363
       1.731
       2.054
       2.285
       2.417
       2.461
       2.421
       2.289
       2.068
       1.783
       1.469
       1.155
       0.859
       0.588
       0.343
       0.127
      -0.053
      -0.180
      -0.225
      -0.156
       0.046
       0.369
       0.760
       1.146
       1.463
       1.689
       1.837
       1.937
       2.014
       2.075
       2.119
       2.133
       2.100
       1.995
       1.800
       1.502
       1.105
       0.634
       0.130
      -0.367
      -0.827
      -1.240
      -1.606
      -1.933
      -2.226
      -2.482
      -2.704
      -2.911
      -3.147
      -3.461
      -3.891
      -4.444
      -5.094
      -5.792
      -6.478
      -7.098
      -7.617
      -8.028
      -8.354
      -8.631
      -8.893
      -9.157
      -9.432
      -9.722
     -10.036
     -10.372
     -10.701
     -10.982
     -11.189
     -11.323
     -11.387
     -11.330
     -11.040
     -10.414
      -9.466
      -8.331
      -7.165
      -6.038
      -4.954
      -3.947
      -3.125
      -2.615
      -2.485
      -2.732
      -3.312
      -4.169
      -5.230
      -6.377
      -7.465
      -8.356
      -8.950
      -9.195
      -9.088
      -8.669
      -8.013
      -7.206
      -6.322
      -5.411
      -4.500
      -3.605
      -2.744
      -1.945
      -1.236
      -0.638
      -0.152
       0.241
       0.576
       0.890
       1.209
       1.545
       1.896
       2.260
       2.641
       3.038
       3.443
       3.831
       4.165
       4.412
       4.553
       4.594
       4.556
       4.470
       4.369
       4.291
       4.275
       4.355
       4.552
       4.869
       5.285
       5.761
       6.242
       6.668
       6.989
       7.164
       7.155
       6.915
       6.411
       5.635
       4.635
       3.512
       2.395
       1.412
       0.645
       0.129
      -0.143
      -0.195
      -0.052
       0.270
       0.760
       1.402
       2.158
       2.962
       3.738
       4.425
       5.001
       5.479
       5.892
       6.273
       6.643
       7.015
       7.390
       7.761
       8.112
       8.416
       8.638
       8.741
       8.687
       8.439
       7.962
       7.224
       6.214
       4.951
       3.496
       1.945
       0.409
      -1.016
      -2.257
      -3.266
      -4.001
      -4.416
      -4.468
      -4.142
      -3.471
      -2.523
      -1.372
      -0.079
       1.311
       2.746
       4.151
       5.428
       6.473
       7.199
       7.554
       7.521
       7.115
       6.385
       5.414
       4.324
       3.258
       2.355
       1.717
       1.400
       1.408
       1.706
       2.242
       2.957
       3.802
       4.728
       5.688
       6.630
       7.495
       8.230
       8.798
       9.197
       9.453
       9.600
       9.658
       9.628
       9.501
       9.263
       8.892
       8.368
       7.675
       6.808
       5.761
       4.543
       3.187
       1.756
       0.327
      -1.031
      -2.262
      -3.307
      -4.096
      -4.571
      -4.718
      -4.577
      -4.230
      -3.762
      -3.230
      -2.649
      -1.996
      -1.241
      -0.374
       0.572
       1.527
       2.403
       3.118
       3.615
       3.865
       3.871
       3.650
       3.224
       2.604
       1.797
       0.820
      -0.290
      -1.487
      -2.719
      -3.940
      -5.104
      -6.162
      -7.071
      -7.792
      -8.293
      -8.534
      -8.464
      -8.041
      -7.253
      -6.153
      -4.855
      -3.491
      -2.177
      -0.996
      -0.016
       0.718
       1.200
       1.479
       1.634
       1.730
       1.805
       1.881
       1.983
       2.128
       2.320
       2.540
       2.746
       2.873
       2.847
       2.606
       2.140
       1.487
       0.709
      -0.129
      -0.968
      -1.754
      -2.444
      -3.015
      -3.480
      -3.869
      -4.222
      -4.572
      -4.941
      -5.346
      -5.806
      -6.327
      -6.890
      -7.459
      -8.004
      -8.525
      -9.036
      -9.530
      -9.960
     -10.259
     -10.392
     -10.399
     -10.357
     -10.297
     -10.158
      -9.830
      -9.222
      -8.287
      -7.023
      -5.455
      -3.633
      -1.646
       0.370
       2.248
       3.835
       5.026
       5.776
       6.083
       5.975
       5.489
       4.665
       3.548
       2.198
       0.704
      -0.813
      -2.216
      -3.379
      -4.196
      -4.592
      -4.545
      -4.101
      -3.358
      -2.430
      -1.407
      -0.343
       0.718
       1.717
       2.579
       3.252
       3.734
       4.076
       4.347
       4.606
       4.882
       5.160
       5.389
       5.505
       5.467
       5.264
       4.907
       4.398
       3.723
       2.870
       1.848
       0.699
      -0.512
      -1.724
      -2.893
      -3.987
      -4.970
      -5.804
      -6.447
      -6.874
      -7.077
      -7.066
      -6.862
      -6.503
      -6.029
      -5.475
      -4.856
      -4.179
      -3.457
      -2.729
      -2.055
      -1.488
      -1.061
      -0.782
      -0.648
      -0.660
      -0.823
      -1.127
      -1.536
      -1.995
      -2.438
      -2.810
      -3.068
      -3.168
      -3.058
      -2.682
      -1.993
      -0.985
       0.290
       1.722
       3.153
       4.416
       5.370
       5.918
       6.004
       5.606
       4.729
       3.408
       1.720
      -0.205
      -2.210
      -4.133
      -5.838
      -7.225
      -8.238
      -8.861
      -9.116
      -9.051
      -8.717
      -8.158
      -7.399
      -6.462
      -5.379
      -4.210
      -3.034
      -1.937
      -0.974
      -0.168
       0.476
       0.941
       1.206
       1.271
       1.178
       0.992
       0.771
       0.555
       0.381
       0.290
       0.316
       0.460
       0.684
       0.936
       1.177
       1.395
       1.585
       1.736
       1.811
       1.775
       1.614
       1.357
       1.060
       0.780
       0.554
       0.406
       0.358
       0.430
       0.635
       0.972
       1.434
       2.020
       2.736
       3.593
       4.573
       5.622
       6.650
       7.554
       8.248
       8.681
       8.835
       8.727
       8.395
       7.894
       7.297
       6.682
       6.124
       5.666
       5.316
       5.053
       4.858
       4.730
       4.685
       4.733
       4.852
       4.982
       5.038
       4.942
       4.642
       4.139
       3.484
       2.775
       2.123
       1.613
       1.273
       1.074
       0.948
       0.822
       0.642
       0.389
       0.069
      -0.297
      -0.694
      -1.121
      -1.581
      -2.057
      -2.509
      -2.894
      -3.194
      -3.429
      -3.641
      -3.866
      -4.122
      -4.400
      -4.678
      -4.917
      -5.080
      -5.138
      -5.089
      -4.953
      -4.756
      -4.523
      -4.261
      -3.960
      -3.582
      -3.073
      -2.376
      -1.465
      -0.369
       0.828
       2.012
       3.071
       3.922
       4.514
       4.837
       4.909
       4.770
       4.472
       4.068
       3.613
       3.153
       2.726
       2.358
       2.066
       1.857
       1.726
       1.662
       1.646
       1.655
       1.655
       1.601
       1.443
       1.139
       0.668
       0.045
      -0.671
      -1.380
      -1.963
      -2.303
      -2.307
      -1.937
      -1.216
      -0.236
       0.872
       1.963
       2.909
       3.618
       4.039
       4.167
       4.024
       3.650
       3.089
       2.380
       1.559
       0.668
      -0.242
      -1.118
      -1.920
      -2.623
      -3.206
      -3.639
      -3.889
      -3.930
      -3.760
      -3.396
      -2.871
      -2.232
      -1.547
      -0.898
      -0.377
      -0.064
      -0.007
      -0.212
      -0.641
      -1.225
      -1.879
      -2.533
      -3.142
      -3.690
      -4.172
      -4.574
      -4.872
      -5.052
      -5.129
      -5.147
      -5.159
      -5.190
      -5.228
      -5.231
      -5.151
      -4.955
      -4.648
      -4.267
      -3.868
      -3.496
      -3.172
      -2.891
      -2.631
      -2.376
      -2.123
      -1.889
      -1.704
      -1.599
      -1.590
      -1.680
      -1.857
      -2.117
      -2.464
      -2.908
      -3.439
      -4.024
      -4.611
      -5.147
      -5.587
      -5.904
      -6.085
      -6.138
      -6.082
      -5.943
      -5.739
      -5.481
      -5.158
      -4.735
      -4.166
      -3.423
      -2.518
      -1.510
      -0.484
       0.471
       1.281
       1.895
       2.284
       2.459
       2.471
       2.406
       2.358
       2.400
       2.561
       2.836
       3.203
       3.630
       4.088
       4.548
       4.987
       5.386
       5.736
       6.047
       6.346
       6.665
       7.016
       7.384
       7.746
       8.102
       8.480
       8.901
       9.339
       9.715
       9.935
       9.936
       9.702
       9.245
       8.584
       7.723
       6.651
       5.360
       3.856
       2.176
       0.392
      -1.388
      -3.043
      -4.466
      -5.578
      -6.335
      -6.724
      -6.770
      -6.527
      -6.074
      -5.495
      -4.862
      -4.231
      -3.627
      -3.054
      -2.504
      -1.970
      -1.472
      -1.053
      -0.763
      -0.627
      -0.629
      -0.717
      -0.832
      -0.922
      -0.961
      -0.937
      -0.858
      -0.739
      -0.604
      -0.474
      -0.370
      -0.306
      -0.279
      -0.258
      -0.172
       0.085
       0.607
       1.420
       2.455
       3.584
       4.679
       5.660
       6.492
       7.160
       7.670
       8.071
       8.447
       8.872
       9.359
       9.858
      10.288
      10.564
      10.615
      10.380
       9.832
       8.992
       7.940
       6.794
       5.672
       4.667
       3.828
       3.162
       2.647
       2.258
       1.983
       1.826
       1.789
       1.844
       1.930
       1.968
       1.893
       1.677
       1.331
       0.882
       0.353
      -0.254
      -0.942
      -1.706
      -2.523
      -3.361
      -4.183
      -4.948
      -5.609
      -6.122
      -6.457
      -6.596
      -6.548
      -6.344
      -6.043
      -5.716
      -5.440
      -5.269
      -5.221
      -5.273
      -5.377
      -5.489
      -5.578
      -5.618
      -5.571
      -5.380
      -4.984
      -4.339
      -3.435
      -2.310
      -1.048
       0.228
       1.380
       2.287
       2.878
       3.150
       3.155
       2.971
       2.678
       2.345
       2.039
       1.815
       1.719
       1.773
       1.978
       2.316
       2.767
       3.322
       3.973
       4.685
       5.380
       5.943
       6.269
       6.307
       6.078
       5.650
       5.105
       4.504
       3.887
       3.280
       2.691
       2.116
       1.537
       0.936
       0.304
      -0.353
      -1.017
      -1.674
      -2.320
      -2.970
      -3.640
      -4.345
      -5.091
      -5.879
      -6.707
      -7.569
      -8.449
      -9.339
     -10.236
     -11.140
     -12.011
     -12.756
     -13.270
     -13.528
     -13.612
     -13.632
     -13.638
     -13.617
     -13.564
     -13.513
     -13.495
     -13.481
     -13.388
     -13.130
     -12.676
     -12.047
     -11.275
     -10.370
      -9.342
      -8.232
      -7.119
      -6.101
      -5.246
      -4.576
      -4.074
      -3.712
      -3.457
      -3.273
      -3.117
      -2.950
      -2.764
      -2.595
      -2.495
      -2.487
      -2.537
      -2.560
      -2.466
      -2.188
      -1.700
      -1.024
      -0.234
       0.559
       1.241
       1.741
       2.048
       2.200
       2.261
       2.282
       2.282
       2.257
       2.212
       2.192
       2.262
       2.464
       2.799
       3.242
       3.758
       4.295
       4.783
       5.142
       5.315
       5.292
       5.111
       4.838
       4.545
       4.287
       4.097
       3.981
       3.918
       3.877
       3.825
       3.752
       3.672
       3.624
       3.640
       3.728
       3.863
       4.004
       4.110
       4.159
       4.145
       4.084
       4.007
       3.954
       3.974
       4.120
       4.434
       4.939
       5.617
       6.405
       7.192
       7.855
       8.304
       8.527
       8.586
       8.565
       8.504
       8.393
       8.248
       8.159
       8.251
       8.572
       9.050
       9.548
       9.955
      10.215
      10.296
      10.163
       9.790
       9.188
       8.419
       7.568
       6.712
       5.909
       5.202
       4.620
       4.177
       3.863
       3.646
       3.482
       3.324
       3.114
       2.785
       2.276
       1.566
       0.702
      -0.223
      -1.107
      -1.869
      -2.449
      -2.792
      -2.863
      -2.674
      -2.305
      -1.878
      -1.488
      -1.161
      -0.875
      -0.611
      -0.377
      -0.199
      -0.078
       0.017
       0.124
       0.246
       0.348
       0.379
       0.308
       0.150
      -0.042
      -0.196
      -0.253
      -0.176
       0.045
       0.410
       0.916
       1.563
       2.359
       3.298
       4.333
       5.357
       6.220
       6.777
       6.950
       6.755
       6.279
       5.625
       4.872
       4.060
       3.203
       2.306
       1.381
       0.447
      -0.477
      -1.374
      -2.220
      -2.978
      -3.601
      -4.058
      -4.348
      -4.503
      -4.567
      -4.577
      -4.547
      -4.479
      -4.386
      -4.317
      -4.346
      -4.531
      -4.879
      -5.351
      -5.906
      -6.542
      -7.276
      -8.102
      -8.964
      -9.773
     -10.442
     -10.906
     -11.113
     -11.020
     -10.618
      -9.944
      -9.068
      -8.063
      -6.971
      -5.808
      -4.579
      -3.308
      -2.048
      -0.883
       0.107
       0.872
       1.408
       1.744
       1.907
       1.906
       1.744
       1.431
       0.994
       0.468
      -0.117
      -0.743
      -1.397
      -2.048
      -2.642
      -3.102
      -3.356
      -3.375
      -3.180
      -2.830
      -2.385
      -1.882
      -1.344
      -0.792
      -0.256
       0.227
       0.630
       0.935
       1.130
       1.213
       1.206
       1.154
       1.103
       1.065
       0.999
       0.818
       0.434
      -0.193
      -1.039
      -2.028
      -3.057
      -4.018
      -4.812
      -5.356
      -5.599
      -5.535
      -5.202
      -4.677
      -4.054
      -3.425
      -2.881
      -2.504
      -2.363
      -2.488
      -2.842
      -3.314
      -3.750
      -4.009
      -4.009
      -3.754
      -3.311
      -2.774
      -2.222
      -1.693
      -1.195
      -0.714
      -0.228
       0.294
       0.899
       1.647
       2.587
       3.733
       5.040
       6.400
       7.658
       8.646
       9.227
       9.328
       8.953
       8.193
       7.208
       6.201
       5.373
       4.862
       4.703
       4.823
       5.089
       5.371
       5.588
       5.712
       5.750
       5.722
       5.652
       5.547
       5.390
       5.125
       4.678
       3.995
       3.072
       1.963
       0.765
      -0.414
      -1.473
      -2.330
      -2.925
      -3.216
      -3.175
      -2.790
      -2.068
      -1.053
       0.171
       1.482
       2.737
       3.808
       4.599
       5.058
       5.181
       4.989
       4.518
       3.814
       2.931
       1.936
       0.900
      -0.112
      -1.047
      -1.867
      -2.542
      -3.043
      -3.326
      -3.336
      -3.021
      -2.355
      -1.352
      -0.079
       1.341
       2.748
       3.967
       4.840
       5.259
       5.182
       4.643
       3.733
       2.576
       1.286
      -0.056
      -1.402
      -2.719
      -3.972
      -5.121
      -6.125
      -6.951
      -7.564
      -7.933
      -8.039
      -7.888
      -7.505
      -6.914
      -6.105
      -5.050
      -3.750
      -2.284
      -0.794
       0.572
       1.705
       2.539
       3.054
       3.275
       3.262
       3.091
       2.819
       2.469
       2.044
       1.537
       0.959
       0.343
      -0.249
      -0.748
      -1.104
      -1.318
      -1.433
      -1.510
      -1.585
      -1.664
      -1.722
      -1.727
      -1.645
      -1.455
      -1.165
      -0.823
      -0.516
      -0.337
      -0.343
      -0.534
      -0.853
      -1.227
      -1.588
      -1.887
      -2.077
      -2.121
      -2.002
      -1.741
      -1.397
      -1.041
      -0.731
      -0.484
      -0.282
      -0.083
       0.151
       0.442
       0.787
       1.165
       1.537
       1.858
       2.082
       2.189
       2.185
       2.102
       1.970
       1.802
       1.590
       1.318
       0.982
       0.597
       0.195
      -0.189
      -0.533
      -0.831
      -1.093
      -1.334
      -1.560
      -1.768
      -1.938
      -2.061
      -2.142
      -2.212
      -2.315
      -2.485
      -2.742
      -3.082
