Origin Time       10/7/2012 13:03:41	
Lat.              26.5 N	
Long.             93.2 E	
Depth (Km)         56.0
Magnitude         4.5
 Region           Karbi-Anglong-Assam                                              
 Above details taken from IMD 
   
Station Code      NAU
Station Lat.       26.349
Station Long.      92.690
Station Height(m)   78.0
Site Class        C   Vs30 between 200 m/sec to 375 m/sec *  
Record Time       10.07.2012 13:03:46.624
Sampling Rate     200. Hz
 Record Duration   66.170 Sec.
 Direction         Vert. (Up positive)
Max. Acceleration    -11.637 cm/sec**2
     
  * For reference see Site Classification link of website 
     
 Base Line Corrected and Low Pass Filtered (Cut Off at 35 Hz) Time History
 Acceleration data in cm/sec**2
    
[...]
       0.788
       0.682
       0.328
      -0.275
      -0.955
      -1.462
      -1.617
      -1.401
      -0.942
      -0.402
       0.125
       0.618
       1.048
       1.335
       1.395
       1.200
       0.795
       0.270
      -0.260
      -0.673
      -0.906
      -0.998
      -1.044
      -1.086
      -1.054
      -0.829
      -0.367
       0.233
       0.770
       1.057
       1.025
       0.755
       0.412
       0.146
       0.021
       0.011
       0.040
       0.059
       0.093
       0.214
       0.411
       0.537
       0.432
       0.112
      -0.241
      -0.480
      -0.623
      -0.740
      -0.798
      -0.695
      -0.426
      -0.134
       0.035
       0.091
       0.172
       0.373
       0.626
       0.745
       0.596
       0.223
      -0.200
      -0.505
      -0.629
      -0.581
      -0.386
      -0.091
       0.207
       0.398
       0.457
       0.467
       0.536
       0.692
       0.855
       0.893
       0.709
       0.311
      -0.173
      -0.571
      -0.774
      -0.799
      -0.756
      -0.751
      -0.797
      -0.812
      -0.699
      -0.448
      -0.134
       0.171
       0.471
       0.800
       1.121
       1.310
       1.249
       0.915
       0.372
      -0.292
      -0.993
      -1.616
      -2.023
      -2.095
      -1.795
      -1.175
      -0.334
       0.607
       1.503
       2.188
       2.533
       2.506
       2.177
       1.630
       0.896
       0.003
      -0.938
      -1.728
      -2.183
      -2.219
      -1.842
      -1.132
      -0.256
       0.562
       1.139
       1.422
       1.443
       1.234
       0.809
       0.234
      -0.372
      -0.907
      -1.345
      -1.684
      -1.859
      -1.742
      -1.249
      -0.463
       0.364
       0.957
       1.208
       1.226
       1.207
       1.232
       1.217
       1.042
       0.691
       0.268
      -0.121
      -0.446
      -0.729
      -0.977
      -1.172
      -1.306
      -1.384
      -1.377
      -1.181
      -0.677
       0.145
       1.121
       1.977
       2.496
       2.631
       2.472
       2.097
       1.488
       0.599
      -0.497
      -1.575
      -2.362
      -2.682
      -2.531
      -2.056
      -1.449
      -0.831
      -0.203
       0.472
       1.132
       1.597
       1.713
       1.491
       1.084
       0.652
       0.260
      -0.111
      -0.481
      -0.816
      -1.029
      -1.045
      -0.874
      -0.614
      -0.381
      -0.213
      -0.059
       0.156
       0.453
       0.789
       1.096
       1.321
       1.436
       1.414
       1.218
       0.822
       0.234
      -0.488
      -1.254
      -1.939
      -2.406
      -2.533
      -2.264
      -1.639
      -0.789
       0.118
       0.935
       1.576
       2.011
       2.230
       2.202
       1.893
       1.312
       0.542
      -0.274
      -0.995
      -1.518
      -1.781
      -1.746
      -1.409
      -0.844
      -0.212
       0.308
       0.626
       0.780
       0.881
       0.991
       1.031
       0.846
       0.370
      -0.248
      -0.712
      -0.802
      -0.551
      -0.199
       0.014
       0.039
       0.002
       0.028
       0.116
       0.185
       0.203
       0.222
       0.289
       0.361
       0.323
       0.104
      -0.239
      -0.551
      -0.693
      -0.645
      -0.505
      -0.383
      -0.325
      -0.303
      -0.276
      -0.222
      -0.139
      -0.039
       0.058
       0.133
       0.190
       0.267
       0.395
       0.552
       0.669
       0.688
       0.609
       0.484
       0.368
       0.279
       0.209
       0.157
       0.126
       0.086
      -0.036
      -0.284
      -0.614
      -0.918
      -1.104
      -1.141
      -1.045
      -0.837
      -0.545
      -0.203
       0.156
       0.509
       0.834
       1.106
       1.309
       1.428
       1.411
       1.164
       0.618
      -0.166
      -0.978
      -1.567
      -1.784
      -1.648
      -1.287
      -0.822
      -0.304
       0.257
       0.830
       1.346
       1.696
       1.770
       1.515
       1.000
       0.403
      -0.109
      -0.489
      -0.789
      -1.053
      -1.251
      -1.311
      -1.206
      -0.981
      -0.712
      -0.437
      -0.133
       0.224
       0.591
       0.879
       1.029
       1.057
       1.003
       0.884
       0.707
       0.502
       0.291
       0.032
      -0.348
      -0.847
      -1.337
      -1.632
      -1.599
      -1.222
      -0.614
       0.027
       0.520
       0.807
       0.953
       1.038
       1.061
       0.973
       0.756
       0.441
       0.071
      -0.323
      -0.721
      -1.102
      -1.410
      -1.504
      -1.200
      -0.451
       0.516
       1.313
       1.670
       1.619
       1.391
       1.184
       0.998
       0.693
       0.184
      -0.428
      -0.929
      -1.206
      -1.337
      -1.447
      -1.522
      -1.418
      -1.052
      -0.517
       0.012
       0.434
       0.749
       0.980
       1.119
       1.157
       1.107
       1.000
       0.842
       0.611
       0.265
      -0.211
      -0.755
      -1.226
      -1.487
      -1.500
      -1.321
      -1.021
      -0.614
      -0.095
       0.496
       1.044
       1.388
       1.381
       1.001
       0.439
       0.030
       0.015
       0.312
       0.587
       0.549
       0.183
      -0.283
      -0.607
      -0.700
      -0.643
      -0.556
      -0.482
      -0.368
      -0.158
       0.117
       0.336
       0.375
       0.190
      -0.151
      -0.491
      -0.663
      -0.589
      -0.337
      -0.061
       0.143
       0.316
       0.559
       0.870
       1.099
       1.087
       0.831
       0.470
       0.125
      -0.199
      -0.536
      -0.841
      -1.014
      -1.021
      -0.947
      -0.901
      -0.886
      -0.804
      -0.574
      -0.229
       0.119
       0.401
       0.649
       0.913
       1.154
       1.259
       1.162
       0.911
       0.616
       0.367
       0.196
       0.081
      -0.033
      -0.184
      -0.348
      -0.462
      -0.520
      -0.613
      -0.829
      -1.127
      -1.324
      -1.225
      -0.766
      -0.054
       0.695
       1.282
       1.634
       1.800
       1.822
       1.630
       1.091
       0.180
      -0.913
      -1.861
      -2.382
      -2.361
      -1.868
      -1.098
      -0.261
       0.507
       1.146
       1.607
       1.803
       1.648
       1.149
       0.461
      -0.171
      -0.575
      -0.783
      -0.971
      -1.227
      -1.412
      -1.304
      -0.837
      -0.169
       0.480
       0.977
       1.280
       1.375
       1.285
       1.081
       0.855
       0.659
       0.504
       0.373
       0.216
      -0.044
      -0.471
      -1.038
      -1.616
      -2.039
      -2.199
      -2.069
      -1.673
      -1.035
      -0.202
       0.700
       1.479
       2.006
       2.310
       2.500
       2.560
       2.299
       1.553
       0.432
      -0.707
      -1.533
      -1.973
      -2.178
      -2.269
      -2.170
      -1.695
      -0.814
       0.210
       0.975
       1.252
       1.150
       0.948
       0.791
       0.601
       0.270
      -0.140
      -0.445
      -0.536
      -0.463
      -0.321
      -0.130
       0.135
       0.431
       0.638
       0.659
       0.492
       0.189
      -0.219
      -0.717
      -1.230
      -1.580
      -1.563
      -1.074
      -0.176
       0.925
       1.935
       2.546
       2.530
       1.880
       0.883
      -0.009
      -0.464
      -0.503
      -0.448
      -0.629
      -1.118
      -1.705
      -2.086
      -2.084
      -1.725
      -1.152
      -0.487
       0.226
       0.949
       1.566
       1.915
       1.940
       1.783
       1.647
       1.556
       1.290
       0.579
      -0.590
      -1.884
      -2.804
      -3.020
      -2.545
      -1.668
      -0.715
       0.128
       0.815
       1.337
       1.684
       1.883
       2.008
       2.073
       1.963
       1.531
       0.784
      -0.092
      -0.888
      -1.507
      -1.935
      -2.161
      -2.174
      -1.995
      -1.635
      -1.055
      -0.229
       0.741
       1.594
       2.052
       2.008
       1.592
       1.040
       0.480
      -0.121
      -0.775
      -1.294
      -1.414
      -1.105
      -0.650
      -0.333
      -0.134
       0.179
       0.697
       1.208
       1.420
       1.247
       0.866
       0.510
       0.278
       0.100
      -0.137
      -0.463
      -0.822
      -1.170
      -1.529
      -1.899
      -2.132
      -1.974
      -1.278
      -0.143
       1.122
       2.159
       2.694
       2.639
       2.135
       1.441
       0.722
      -0.036
      -0.864
      -1.618
      -2.021
      -1.906
      -1.366
      -0.670
      -0.074
       0.304
       0.486
       0.571
       0.629
       0.666
       0.655
       0.603
       0.544
       0.504
       0.489
       0.484
       0.419
       0.173
      -0.294
      -0.803
      -1.034
      -0.825
      -0.375
      -0.077
      -0.122
      -0.310
      -0.299
       0.007
       0.355
       0.428
       0.194
      -0.071
      -0.101
       0.074
       0.204
       0.134
      -0.026
      -0.070
       0.043
       0.153
       0.100
      -0.089
      -0.214
      -0.111
       0.167
       0.389
       0.373
       0.158
      -0.088
      -0.277
      -0.458
      -0.667
      -0.806
      -0.709
      -0.322
       0.247
       0.792
       1.120
       1.130
       0.844
       0.372
      -0.166
      -0.689
      -1.124
      -1.388
      -1.430
      -1.249
      -0.840
      -0.164
       0.752
       1.698
       2.329
       2.379
       1.841
       0.952
       0.037
      -0.652
      -1.009
      -1.059
      -0.904
      -0.695
      -0.589
      -0.667
      -0.838
      -0.875
      -0.610
      -0.113
       0.362
       0.632
       0.751
       0.897
       1.126
       1.299
       1.232
       0.867
       0.300
      -0.327
      -0.914
      -1.410
      -1.773
      -1.949
      -1.896
      -1.598
      -1.051
      -0.268
       0.656
       1.520
       2.106
       2.317
       2.180
       1.744
       1.053
       0.223
      -0.528
      -1.015
      -1.214
      -1.237
      -1.185
      -1.080
      -0.904
      -0.651
      -0.318
       0.099
       0.577
       1.018
       1.261
       1.181
       0.809
       0.341
      -0.004
      -0.153
      -0.197
      -0.261
      -0.381
      -0.499
      -0.543
      -0.497
      -0.389
      -0.247
      -0.074
       0.122
       0.299
       0.398
       0.389
       0.282
       0.100
      -0.120
      -0.304
      -0.370
      -0.309
      -0.209
      -0.171
      -0.199
      -0.194
      -0.031
       0.347
       0.874
       1.341
       1.477
       1.121
       0.380
      -0.428
      -1.014
      -1.311
      -1.429
      -1.460
      -1.365
      -1.052
      -0.516
       0.115
       0.678
       1.098
       1.409
       1.645
       1.743
       1.568
       1.056
       0.308
      -0.463
      -1.059
      -1.365
      -1.361
      -1.139
      -0.889
      -0.765
      -0.713
      -0.502
       0.026
       0.761
       1.403
       1.694
       1.576
       1.177
       0.693
       0.236
      -0.230
      -0.783
      -1.371
      -1.792
      -1.867
      -1.579
      -1.038
      -0.389
       0.216
       0.649
       0.916
       1.166
       1.508
       1.822
       1.837
       1.437
       0.798
       0.206
      -0.244
      -0.694
      -1.286
      -1.929
      -2.346
      -2.355
      -2.036
      -1.615
      -1.196
      -0.662
       0.180
       1.353
       2.603
       3.509
       3.729
       3.202
       2.158
       0.935
      -0.255
      -1.376
      -2.413
      -3.209
      -3.511
      -3.200
      -2.421
      -1.475
      -0.584
       0.229
       1.034
       1.823
       2.447
       2.715
       2.540
       1.984
       1.199
       0.374
      -0.282
      -0.602
      -0.590
      -0.444
      -0.404
      -0.510
      -0.574
      -0.389
       0.020
       0.376
       0.377
      -0.045
      -0.644
      -1.029
      -0.975
      -0.609
      -0.302
      -0.328
      -0.615
      -0.833
      -0.733
      -0.377
      -0.033
       0.126
       0.204
       0.458
       1.029
       1.779
       2.374
       2.514
       2.136
       1.440
       0.712
       0.123
      -0.309
      -0.607
      -0.752
      -0.726
      -0.561
      -0.312
      -0.032
       0.185
       0.202
      -0.095
      -0.704
      -1.510
      -2.350
      -3.070
      -3.542
      -3.701
      -3.550
      -3.106
      -2.314
      -1.055
       0.692
       2.675
       4.382
       5.314
       5.287
       4.496
       3.278
       1.840
       0.252
      -1.380
      -2.806
      -3.737
      -4.020
      -3.713
      -3.028
      -2.182
      -1.267
      -0.221
       1.010
       2.290
       3.292
       3.718
       3.543
       3.025
       2.494
       2.127
       1.863
       1.487
       0.816
      -0.111
      -1.010
      -1.543
      -1.572
      -1.240
      -0.817
      -0.451
      -0.064
       0.548
       1.470
       2.476
       3.063
       2.748
       1.412
      -0.589
      -2.637
      -4.206
      -5.101
      -5.435
      -5.429
      -5.167
      -4.485
      -3.109
      -0.931
       1.844
       4.785
       7.402
       9.207
       9.754
       8.805
       6.513
       3.349
      -0.203
      -3.827
      -7.254
     -10.048
     -11.637
     -11.602
      -9.927
      -6.977
      -3.270
       0.736
       4.650
       8.041
      10.375
      11.195
      10.413
       8.405
       5.737
       2.770
      -0.435
      -3.796
      -6.894
      -9.031
      -9.649
      -8.679
      -6.536
      -3.832
      -1.104
       1.298
       3.190
       4.499
       5.223
       5.392
       5.051
       4.272
       3.174
       1.908
       0.617
      -0.601
      -1.695
      -2.607
      -3.237
      -3.501
      -3.429
      -3.154
      -2.778
      -2.276
      -1.581
      -0.726
       0.159
       1.004
       1.863
       2.767
       3.523
       3.756
       3.191
       1.894
       0.238
      -1.339
      -2.523
      -3.122
      -3.002
      -2.118
      -0.614
       1.140
       2.666
       3.567
       3.660
       2.973
       1.674
       0.029
      -1.603
      -2.825
      -3.328
      -3.025
      -2.080
      -0.817
       0.448
       1.533
       2.404
       3.056
       3.368
       3.128
       2.233
       0.865
      -0.612
      -1.940
      -3.098
      -4.106
      -4.758
      -4.672
      -3.659
      -1.952
      -0.032
       1.725
       3.132
       4.006
       4.076
       3.230
       1.755
       0.219
      -0.953
      -1.728
      -2.298
      -2.745
      -2.922
      -2.617
      -1.787
      -0.607
       0.679
       1.919
       3.044
       3.936
       4.378
       4.199
       3.437
       2.328
       1.113
      -0.114
      -1.374
      -2.638
      -3.712
      -4.304
      -4.231
      -3.552
      -2.516
      -1.357
      -0.172
       1.025
       2.165
       3.057
       3.445
       3.125
       2.064
       0.451
      -1.355
      -2.935
      -3.936
      -4.146
      -3.562
      -2.377
      -0.891
       0.600
       1.857
       2.687
       2.995
       2.861
       2.492
       2.019
       1.381
       0.476
      -0.570
      -1.393
      -1.693
      -1.505
      -1.118
      -0.746
      -0.353
       0.212
       0.946
       1.615
       1.942
       1.866
       1.595
       1.394
       1.295
       1.053
       0.412
      -0.607
      -1.692
      -2.502
      -2.906
      -2.970
      -2.763
      -2.221
      -1.228
       0.184
       1.734
       3.041
       3.885
       4.282
       4.272
       3.710
       2.368
       0.270
      -2.118
      -4.134
      -5.346
      -5.743
      -5.530
      -4.805
      -3.497
      -1.586
       0.708
       2.960
       4.715
       5.645
       5.613
       4.692
       3.116
       1.212
      -0.647
      -2.058
      -2.702
      -2.540
      -1.870
      -1.098
      -0.448
       0.044
       0.322
       0.240
      -0.258
      -0.991
      -1.676
      -2.184
      -2.571
      -2.877
      -2.972
      -2.651
      -1.861
      -0.801
       0.228
       1.059
       1.737
       2.373
       2.968
       3.417
       3.691
       3.903
       4.172
       4.421
       4.381
       3.790
       2.581
       0.918
      -0.913
      -2.642
      -4.104
      -5.214
      -5.860
      -5.849
      -5.043
      -3.582
      -1.898
      -0.443
       0.610
       1.371
       1.961
       2.284
       2.097
       1.300
       0.153
      -0.849
      -1.346
      -1.363
      -1.158
      -0.869
      -0.415
       0.246
       0.921
       1.347
       1.502
       1.624
       1.894
       2.192
       2.231
       1.899
       1.408
       1.061
       0.918
       0.732
       0.251
      -0.446
      -0.978
      -1.016
      -0.624
      -0.212
      -0.177
      -0.551
      -0.999
      -1.157
      -1.013
      -0.945
      -1.353
      -2.243
      -3.185
      -3.670
      -3.487
      -2.783
      -1.823
      -0.744
       0.488
       1.943
       3.554
       5.054
       6.082
       6.382
       5.901
       4.722
       2.967
       0.816
      -1.393
      -3.216
      -4.315
      -4.622
      -4.300
      -3.556
      -2.547
      -1.393
      -0.212
       0.888
       1.792
       2.321
       2.253
       1.456
       0.026
      -1.714
      -3.319
      -4.351
      -4.491
      -3.643
      -2.004
       0.002
       1.924
       3.467
       4.535
       5.146
       5.316
       5.026
       4.281
       3.179
       1.917
       0.700
      -0.365
      -1.294
      -2.137
      -2.889
      -3.503
      -3.985
      -4.403
      -4.775
      -4.964
      -4.704
      -3.743
      -2.038
       0.082
       1.972
       3.035
       3.167
       2.783
       2.357
       1.997
       1.519
       0.842
       0.172
      -0.185
      -0.101
       0.292
       0.753
       1.155
       1.568
       2.101
       2.650
       2.857
       2.386
       1.216
      -0.355
      -1.960
      -3.342
      -4.339
      -4.831
      -4.786
      -4.297
      -3.512
      -2.507
      -1.284
       0.131
       1.617
       2.976
       4.011
       4.598
       4.735
       4.548
       4.216
       3.846
       3.391
       2.699
       1.659
       0.335
      -1.053
      -2.264
      -3.165
      -3.702
      -3.791
      -3.342
      -2.471
      -1.621
      -1.291
      -1.567
      -1.980
      -1.966
      -1.423
      -0.743
      -0.327
      -0.177
       0.011
       0.456
       1.051
       1.477
       1.506
       1.197
       0.808
       0.516
       0.259
      -0.100
      -0.491
      -0.640
      -0.351
       0.285
       0.999
       1.583
       1.991
       2.289
       2.569
       2.841
       2.944
       2.601
       1.634
       0.122
      -1.640
      -3.294
      -4.519
      -5.125
      -5.123
      -4.682
      -3.976
      -3.092
      -2.067
      -0.937
       0.311
       1.743
       3.322
       4.760
       5.607
       5.557
       4.679
       3.345
       1.952
       0.687
