Origin Time       09/1/2013 01:41:52	
Lat.              25.4 N	
Long.             94.9 E	
Depth (Km)         89.0
Magnitude         5.9
 Region           Myanmar-India-Border-Region                                      
 Above details taken from IMD 
   
Station Code      NAU
Station Lat.       26.349
Station Long.      92.690
Station Height(m)   78.0
Site Class        C   Vs30 between 200 m/sec to 375 m/sec *  
Record Time       09.01.2013 01:39:33.524
Sampling Rate     200. Hz
 Record Duration  140.145 Sec.
 Direction         Vert. (Up positive)
Max. Acceleration     26.694 cm/sec**2
     
  * For reference see Site Classification link of website 
     
 Base Line Corrected and Low Pass Filtered (Cut Off at 35 Hz) Time History
 Acceleration data in cm/sec**2
    
[...]
      -0.878
       0.250
       1.352
       2.284
       2.785
       2.615
       1.752
       0.441
      -0.957
      -2.165
      -3.058
      -3.581
      -3.669
      -3.274
      -2.421
      -1.171
       0.401
       2.129
       3.652
       4.536
       4.565
       3.905
       2.915
       1.826
       0.619
      -0.807
      -2.392
      -3.839
      -4.756
      -4.871
      -4.155
      -2.781
      -1.013
       0.844
       2.448
       3.506
       3.943
       3.930
       3.673
       3.175
       2.252
       0.798
      -0.999
      -2.694
      -3.832
      -4.198
      -3.897
      -3.210
      -2.348
      -1.318
      -0.064
       1.317
       2.530
       3.279
       3.459
       3.146
       2.472
       1.530
       0.405
      -0.753
      -1.726
      -2.294
      -2.323
      -1.823
      -0.951
       0.035
       0.860
       1.355
       1.521
       1.494
       1.421
       1.349
       1.235
       1.056
       0.878
       0.780
       0.706
       0.457
      -0.109
      -0.857
      -1.444
      -1.620
      -1.458
      -1.255
      -1.231
      -1.344
      -1.398
      -1.267
      -1.002
      -0.714
      -0.407
       0.043
       0.744
       1.618
       2.403
       2.817
       2.737
       2.249
       1.553
       0.825
       0.134
      -0.561
      -1.333
      -2.201
      -3.073
      -3.776
      -4.121
      -3.955
      -3.192
      -1.854
      -0.103
       1.749
       3.286
       4.125
       4.088
       3.296
       2.081
       0.768
      -0.472
      -1.595
      -2.564
      -3.282
      -3.609
      -3.419
      -2.674
      -1.459
       0.038
       1.592
       2.946
       3.794
       3.836
       2.956
       1.385
      -0.361
      -1.742
      -2.448
      -2.472
      -2.021
      -1.373
      -0.739
      -0.197
       0.287
       0.755
       1.181
       1.485
       1.606
       1.550
       1.377
       1.137
       0.800
       0.257
      -0.552
      -1.499
      -2.286
      -2.634
      -2.463
      -1.883
      -1.059
      -0.105
       0.904
       1.870
       2.642
       3.041
       2.938
       2.327
       1.342
       0.178
      -1.020
      -2.182
      -3.228
      -3.992
      -4.243
      -3.801
      -2.642
      -0.940
       0.986
       2.772
       4.095
       4.726
       4.543
       3.575
       2.051
       0.352
      -1.147
      -2.233
      -2.855
      -3.006
      -2.639
      -1.722
      -0.362
       1.130
       2.345
       2.964
       2.890
       2.213
       1.109
      -0.198
      -1.402
      -2.178
      -2.363
      -2.087
      -1.645
      -1.238
      -0.870
      -0.481
      -0.102
       0.175
       0.342
       0.510
       0.779
       1.131
       1.442
       1.596
       1.552
       1.321
       0.918
       0.329
      -0.460
      -1.394
      -2.288
      -2.903
      -3.100
      -2.921
      -2.512
      -1.961
      -1.261
      -0.389
       0.593
       1.544
       2.323
       2.844
       3.060
       2.931
       2.440
       1.669
       0.832
       0.190
      -0.134
      -0.246
      -0.355
      -0.533
      -0.647
      -0.546
      -0.277
      -0.068
      -0.111
      -0.386
      -0.714
      -0.914
      -0.913
      -0.752
      -0.560
      -0.474
      -0.558
      -0.737
      -0.843
      -0.718
      -0.336
       0.163
       0.540
       0.597
       0.314
      -0.097
      -0.310
      -0.094
       0.520
       1.273
       1.862
       2.118
       2.071
       1.879
       1.683
       1.478
       1.124
       0.492
      -0.373
      -1.260
      -1.929
      -2.258
      -2.263
      -2.040
      -1.673
      -1.160
      -0.409
       0.645
       1.866
       2.919
       3.489
       3.526
       3.219
       2.738
       2.053
       1.042
      -0.265
      -1.591
      -2.572
      -2.996
      -2.934
      -2.641
      -2.357
      -2.158
      -1.964
      -1.643
      -1.101
      -0.332
       0.550
       1.316
       1.727
       1.695
       1.351
       0.947
       0.660
       0.484
       0.278
      -0.088
      -0.612
      -1.139
      -1.464
      -1.470
      -1.189
      -0.735
      -0.182
       0.476
       1.216
       1.870
       2.175
       1.984
       1.415
       0.745
       0.159
      -0.371
      -0.929
      -1.453
      -1.739
      -1.624
      -1.114
      -0.345
       0.509
       1.239
       1.594
       1.365
       0.553
      -0.562
      -1.558
      -2.121
      -2.193
      -1.900
      -1.372
      -0.662
       0.186
       1.035
       1.690
       2.037
       2.079
       1.821
       1.201
       0.204
      -0.972
      -1.982
      -2.577
      -2.731
      -2.503
      -1.858
      -0.733
       0.755
       2.233
       3.266
       3.609
       3.310
       2.595
       1.686
       0.706
      -0.285
      -1.202
      -1.929
      -2.396
      -2.634
      -2.683
      -2.487
      -1.949
      -1.094
      -0.110
       0.788
       1.491
       1.942
       2.035
       1.667
       0.885
      -0.056
      -0.809
      -1.138
      -1.051
      -0.759
      -0.493
      -0.314
      -0.142
       0.037
       0.061
      -0.216
      -0.648
      -0.813
      -0.395
       0.474
       1.281
       1.575
       1.326
       0.882
       0.606
       0.593
       0.691
       0.704
       0.529
       0.147
      -0.395
      -0.943
      -1.227
      -1.025
      -0.366
       0.445
       1.068
       1.355
       1.331
       1.039
       0.487
      -0.251
      -0.945
      -1.305
      -1.179
      -0.706
      -0.290
      -0.361
      -1.049
      -2.017
      -2.645
      -2.477
      -1.531
      -0.218
       1.044
       2.108
       3.038
       3.823
       4.228
       3.952
       2.930
       1.443
      -0.096
      -1.455
      -2.617
      -3.565
      -4.113
      -4.042
      -3.332
      -2.204
      -0.937
       0.305
       1.452
       2.428
       3.121
       3.457
       3.438
       3.064
       2.245
       0.846
      -1.099
      -3.205
      -4.772
      -5.134
      -4.094
      -2.096
       0.058
       1.763
       2.948
       3.895
       4.741
       5.195
       4.752
       3.167
       0.729
      -1.907
      -4.123
      -5.596
      -6.264
      -6.135
      -5.152
      -3.262
      -0.588
       2.448
       5.215
       7.125
       7.867
       7.453
       6.126
       4.211
       1.964
      -0.497
      -3.092
      -5.576
      -7.456
      -8.197
      -7.545
      -5.658
      -2.987
      -0.080
       2.524
       4.367
       5.189
       5.013
       4.077
       2.636
       0.842
      -1.190
      -3.251
      -5.012
      -6.153
      -6.460
      -5.813
      -4.156
      -1.594
       1.474
       4.390
       6.493
       7.409
       7.147
       5.982
       4.248
       2.210
       0.094
      -1.826
      -3.252
      -4.008
      -4.149
      -3.881
      -3.393
      -2.762
      -1.975
      -0.971
       0.312
       1.815
       3.243
       4.127
       4.115
       3.238
       1.888
       0.510
      -0.698
      -1.802
      -2.907
      -3.902
      -4.415
      -4.051
      -2.711
      -0.703
       1.465
       3.359
       4.706
       5.303
       4.976
       3.726
       1.877
      -0.025
      -1.533
      -2.546
      -3.213
      -3.606
      -3.556
      -2.852
      -1.576
      -0.145
       1.033
       1.883
       2.552
       3.003
       2.854
       1.753
      -0.132
      -2.086
      -3.342
      -3.579
      -2.995
      -1.999
      -0.882
       0.268
       1.457
       2.658
       3.760
       4.576
       4.873
       4.466
       3.361
       1.837
       0.320
      -0.896
      -1.830
      -2.702
      -3.617
      -4.389
      -4.709
      -4.463
      -3.837
      -3.060
      -2.139
      -0.926
       0.558
       1.972
       2.911
       3.242
       3.167
       2.968
       2.761
       2.481
       2.009
       1.252
       0.162
      -1.186
      -2.481
      -3.232
      -3.065
      -1.995
      -0.411
       1.222
       2.589
       3.487
       3.699
       3.040
       1.571
      -0.316
      -2.109
      -3.466
      -4.295
      -4.609
      -4.404
      -3.753
      -2.926
      -2.247
      -1.779
      -1.248
      -0.391
       0.631
       1.306
       1.268
       0.696
       0.158
       0.113
       0.567
       1.178
       1.625
       1.832
       1.868
       1.729
       1.347
       0.813
       0.423
       0.398
       0.577
       0.532
       0.009
      -0.796
      -1.409
      -1.495
      -1.072
      -0.377
       0.413
       1.271
       2.140
       2.754
       2.756
       2.060
       1.019
       0.126
      -0.447
      -0.943
      -1.671
      -2.635
      -3.494
      -3.799
      -3.256
      -1.896
      -0.099
       1.549
       2.536
       2.664
       2.119
       1.356
       0.813
       0.594
       0.389
      -0.211
      -1.243
      -2.241
      -2.606
      -2.106
      -0.974
       0.407
       1.846
       3.335
       4.773
       5.787
       5.886
       4.852
       2.967
       0.818
      -1.123
      -2.735
      -4.089
      -5.141
      -5.663
      -5.425
      -4.408
      -2.838
      -1.056
       0.611
       1.902
       2.630
       2.729
       2.304
       1.567
       0.708
      -0.134
      -0.786
      -1.040
      -0.825
      -0.372
      -0.073
      -0.114
      -0.272
      -0.139
       0.420
       1.090
       1.391
       1.106
       0.412
      -0.352
      -0.957
      -1.358
      -1.580
      -1.620
      -1.421
      -0.925
      -0.111
       0.962
       2.146
       3.229
       4.004
       4.303
       4.001
       3.020
       1.404
      -0.583
      -2.494
      -3.933
      -4.783
      -5.172
      -5.177
      -4.635
      -3.310
      -1.247
       1.106
       3.151
       4.483
       4.978
       4.632
       3.454
       1.558
      -0.689
      -2.756
      -4.258
      -5.156
      -5.624
      -5.703
      -5.147
      -3.636
      -1.141
       1.924
       4.884
       7.107
       8.177
       7.921
       6.408
       3.947
       1.037
      -1.800
      -4.208
      -6.086
      -7.479
      -8.347
      -8.437
      -7.439
      -5.316
      -2.462
       0.495
       3.053
       5.007
       6.292
       6.755
       6.199
       4.662
       2.589
       0.614
      -0.855
      -1.807
      -2.407
      -2.644
      -2.266
      -1.063
       0.818
       2.838
       4.356
       4.980
       4.720
       3.832
       2.568
       1.065
      -0.573
      -2.166
      -3.479
      -4.353
      -4.797
      -4.929
      -4.822
      -4.402
      -3.553
      -2.296
      -0.848
       0.546
       1.817
       3.085
       4.494
       6.014
       7.353
       8.053
       7.744
       6.424
       4.486
       2.440
       0.577
      -1.093
      -2.648
      -4.086
      -5.349
      -6.384
      -7.093
      -7.273
      -6.744
      -5.553
      -4.001
      -2.407
      -0.861
       0.762
       2.542
       4.290
       5.608
       6.202
       6.125
       5.685
       5.118
       4.388
       3.338
       1.945
       0.333
      -1.431
      -3.388
      -5.452
      -7.190
      -7.963
      -7.346
      -5.455
      -2.891
      -0.402
       1.473
       2.539
       2.850
       2.540
       1.752
       0.673
      -0.452
      -1.407
      -2.095
      -2.496
      -2.531
      -2.052
      -1.022
       0.304
       1.477
       2.143
       2.254
       2.010
       1.654
       1.305
       0.925
       0.418
      -0.218
      -0.752
      -0.759
       0.112
       1.802
       3.785
       5.397
       6.306
       6.652
       6.740
       6.622
       6.014
       4.579
       2.268
      -0.616
      -3.647
      -6.531
      -9.143
     -11.343
     -12.826
     -13.198
     -12.197
      -9.858
      -6.519
      -2.729
       0.891
       3.849
       5.976
       7.425
       8.425
       9.013
       9.038
       8.363
       7.010
       5.124
       2.895
       0.529
      -1.751
      -3.759
      -5.356
      -6.388
      -6.634
      -5.909
      -4.282
      -2.217
      -0.409
       0.616
       0.840
       0.721
       0.774
       1.162
       1.630
       1.831
       1.715
       1.652
       2.157
       3.417
       5.029
       6.203
       6.326
       5.354
       3.710
       1.852
       0.018
      -1.679
      -3.077
      -4.019
      -4.535
      -4.838
      -5.110
      -5.304
      -5.164
      -4.412
      -2.936
      -0.915
       1.155
       2.549
       2.603
       1.103
      -1.509
      -4.388
      -6.799
      -8.408
      -9.073
      -8.484
      -6.231
      -2.300
       2.596
       7.310
      10.941
      13.231
      14.361
      14.479
      13.420
      10.819
       6.468
       0.663
      -5.724
     -11.503
     -15.606
     -17.426
     -16.915
     -14.460
     -10.616
      -5.856
      -0.507
       5.114
      10.500
      14.902
      17.465
      17.521
      14.932
      10.301
       4.835
      -0.203
      -4.103
      -6.886
      -8.872
     -10.086
     -10.138
      -8.670
      -5.820
      -2.192
       1.585
       5.158
       8.303
      10.574
      11.189
       9.361
       4.869
      -1.586
      -8.555
     -14.484
     -18.365
     -19.941
     -19.425
     -17.072
     -13.001
      -7.337
      -0.443
       7.032
      14.279
      20.467
      24.813
      26.694
      25.831
      22.374
      16.776
       9.619
       1.650
      -6.039
     -12.097
     -15.499
     -16.174
     -14.980
     -12.916
     -10.363
      -7.160
      -3.326
       0.479
       3.272
       4.429
       3.963
       2.251
      -0.337
      -3.448
      -6.522
      -8.751
      -9.410
      -8.287
      -5.808
      -2.790
      -0.012
       2.121
       3.636
       4.756
       5.545
       5.728
       4.852
       2.703
      -0.359
      -3.424
      -5.438
      -5.685
      -3.989
      -0.609
       3.913
       8.754
      12.854
      15.250
      15.557
      14.099
      11.474
       8.016
       3.742
      -1.166
      -5.965
      -9.589
     -11.300
     -11.102
      -9.534
      -7.164
      -4.309
      -1.173
       1.885
       4.313
       5.630
       5.710
       4.791
       3.244
       1.372
      -0.587
      -2.348
      -3.637
      -4.347
      -4.540
      -4.238
      -3.301
      -1.666
       0.311
       1.882
       2.379
       1.703
       0.357
      -1.000
      -2.085
      -3.095
      -4.288
      -5.419
      -5.637
      -4.031
      -0.419
       4.348
       8.851
      11.949
      13.261
      12.958
      11.257
       8.238
       4.080
      -0.721
      -5.507
      -9.791
     -13.378
     -16.136
     -17.754
     -17.755
     -15.777
     -11.862
      -6.571
      -0.863
       4.190
       7.769
       9.582
       9.909
       9.355
       8.464
       7.408
       5.955
       3.793
       0.993
      -1.793
      -3.674
      -4.149
      -3.430
      -2.169
      -0.927
       0.069
       0.793
       1.241
       1.456
       1.582
       1.773
       2.027
       2.176
       2.052
       1.651
       1.148
       0.786
       0.777
       1.239
       2.171
       3.419
       4.644
       5.368
       5.177
       4.009
       2.232
       0.320
      -1.582
      -3.657
      -5.918
      -7.823
      -8.531
      -7.571
      -5.212
      -2.232
       0.572
       2.690
       3.917
       4.214
       3.623
       2.269
       0.409
      -1.612
      -3.497
      -5.051
      -6.092
      -6.372
      -5.697
      -4.162
      -2.198
      -0.361
       0.963
       1.723
       2.213
       2.903
       4.069
       5.445
       6.293
       5.982
       4.525
       2.521
       0.630
      -0.791
      -1.603
      -1.661
      -0.809
       0.926
       3.201
       5.383
       6.725
       6.635
       4.955
       2.036
      -1.422
      -4.618
      -6.850
      -7.728
      -7.357
      -6.312
      -5.298
      -4.750
      -4.672
      -4.731
      -4.484
      -3.652
      -2.305
      -0.779
       0.622
       1.785
       2.603
       2.781
       2.003
       0.332
      -1.664
      -3.218
      -3.738
      -2.889
      -0.510
       3.330
       8.102
      12.729
      15.926
      16.819
      15.418
      12.499
       8.934
       5.060
       0.726
      -4.065
      -8.733
     -12.426
     -14.667
     -15.596
     -15.638
     -15.068
     -13.909
     -12.114
      -9.748
      -6.964
      -3.896
      -0.672
       2.411
       4.804
       5.972
       5.841
       4.957
       4.129
       3.870
       4.181
       4.776
       5.450
       6.235
       7.287
       8.662
      10.146
      11.253
      11.368
       9.909
       6.461
       1.038
      -5.576
     -11.770
     -15.699
     -16.260
     -13.649
      -8.997
      -3.515
       1.929
       6.579
       9.524
      10.042
       8.257
       5.247
       2.316
       0.086
      -1.697
      -3.537
      -5.412
      -6.636
      -6.458
      -4.812
      -2.444
      -0.302
       1.195
       2.277
       3.280
       4.096
       4.184
       3.076
       0.811
      -2.042
      -4.715
      -6.632
      -7.591
      -7.679
      -7.059
      -5.837
      -4.121
      -2.126
      -0.141
       1.586
       2.882
       3.626
       3.835
       3.774
       3.807
       4.020
       4.068
       3.534
       2.417
       1.203
       0.503
       0.733
       2.054
       4.349
       7.110
       9.455
      10.456
       9.573
       6.851
       2.815
      -1.782
      -6.214
      -9.912
     -12.471
     -13.601
     -13.197
     -11.467
      -8.915
      -6.052
      -3.139
      -0.237
       2.550
       5.001
       6.909
       8.114
       8.346
       7.208
       4.525
       0.721
      -3.266
      -6.502
      -8.489
      -9.147
      -8.478
      -6.330
      -2.519
       2.732
       8.442
      13.095
      15.435
      15.184
      12.986
       9.728
       5.993
       2.097
      -1.607
      -4.700
      -6.966
      -8.566
      -9.838
     -10.878
     -11.323
     -10.582
      -8.334
      -4.837
      -0.738
       3.333
       6.922
       9.547
      10.559
       9.414
       6.118
       1.351
      -3.834
      -8.424
     -11.684
     -13.253
     -13.172
     -11.814
      -9.696
      -7.231
      -4.578
      -1.686
       1.471
       4.632
       7.252
       8.852
       9.360
       9.125
       8.614
       8.137
       7.804
       7.643
       7.689
       7.925
       8.144
       7.932
       6.872
       4.833
       2.073
      -0.936
      -3.772
      -6.166
      -7.903
      -8.749
      -8.579
      -7.549
      -6.075
      -4.566
      -3.169
      -1.772
      -0.283
       1.057
       1.673
       1.082
      -0.542
      -2.225
      -2.746
      -1.517
       0.929
       3.270
       4.300
       3.606
       1.539
      -1.235
      -4.014
      -6.049
      -6.640
      -5.482
      -2.915
       0.239
       3.151
       5.389
       7.001
       8.227
       9.122
       9.429
       8.857
       7.427
       5.469
       3.340
       1.216
      -0.824
      -2.618
      -3.951
