Origin Time       23/02/2014 17:04:50
Lat.              27.2 N	
Long.             92.5 E	
Depth (Km)         10.0
Magnitude         4.8
 Region           Kameng-Arunachal-Pradesh                                         
 Above details taken from IMD 
   
Station Code      NAU
Station Lat.       26.349
Station Long.      92.690
Station Height(m)   78.0
Site Class        C   Vs30 between 200 m/sec to 375 m/sec *  
Record Time       23.02.2014 17:04:49.504
Sampling Rate     200. Hz
 Record Duration   84.775 Sec.
 Direction         Vert. (Up positive)
Max. Acceleration      5.765 cm/sec**2
     
  * For reference see Site Classification link of website 
     
 Base Line Corrected and Low Pass Filtered (Cut Off at 35 Hz) Time History
 Acceleration data in cm/sec**2
    
[...]
      -0.354
      -0.452
      -0.466
      -0.396
      -0.254
      -0.071
       0.112
       0.252
       0.314
       0.295
       0.223
       0.141
       0.079
       0.028
      -0.042
      -0.153
      -0.281
      -0.377
      -0.399
      -0.348
      -0.263
      -0.176
      -0.079
       0.056
       0.226
       0.372
       0.428
       0.378
       0.275
       0.190
       0.159
       0.164
       0.167
       0.140
       0.079
       0.002
      -0.060
      -0.078
      -0.046
       0.019
       0.086
       0.131
       0.143
       0.125
       0.080
       0.012
      -0.073
      -0.164
      -0.256
      -0.334
      -0.382
      -0.383
      -0.336
      -0.252
      -0.147
      -0.028
       0.094
       0.196
       0.243
       0.213
       0.124
       0.033
      -0.011
      -0.005
       0.006
      -0.024
      -0.100
      -0.180
      -0.210
      -0.162
      -0.048
       0.092
       0.211
       0.280
       0.297
       0.283
       0.270
       0.279
       0.309
       0.332
       0.307
       0.203
       0.022
      -0.189
      -0.364
      -0.447
      -0.422
      -0.317
      -0.174
      -0.029
       0.099
       0.191
       0.225
       0.193
       0.114
       0.024
      -0.050
      -0.109
      -0.175
      -0.260
      -0.341
      -0.362
      -0.281
      -0.109
       0.086
       0.228
       0.288
       0.294
       0.286
       0.271
       0.222
       0.125
       0.013
      -0.071
      -0.117
      -0.160
      -0.233
      -0.320
      -0.362
      -0.313
      -0.184
      -0.033
       0.083
       0.150
       0.194
       0.239
       0.275
       0.258
       0.149
      -0.040
      -0.245
      -0.392
      -0.445
      -0.424
      -0.378
      -0.330
      -0.260
      -0.137
       0.040
       0.226
       0.375
       0.478
       0.554
       0.606
       0.598
       0.494
       0.310
       0.112
      -0.033
      -0.106
      -0.136
      -0.157
      -0.183
      -0.204
      -0.196
      -0.135
      -0.011
       0.158
       0.321
       0.420
       0.436
       0.397
       0.353
       0.327
       0.296
       0.217
       0.068
      -0.128
      -0.318
      -0.455
      -0.516
      -0.503
      -0.434
      -0.326
      -0.192
      -0.050
       0.060
       0.086
       0.002
      -0.168
      -0.354
      -0.479
      -0.499
      -0.409
      -0.229
       0.014
       0.279
       0.502
       0.624
       0.618
       0.508
       0.352
       0.201
       0.074
      -0.043
      -0.178
      -0.339
      -0.493
      -0.579
      -0.546
      -0.393
      -0.179
       0.019
       0.163
       0.259
       0.332
       0.381
       0.387
       0.342
       0.258
       0.151
       0.026
      -0.115
      -0.240
      -0.299
      -0.264
      -0.169
      -0.083
      -0.055
      -0.063
      -0.047
       0.037
       0.171
       0.285
       0.321
       0.274
       0.196
       0.145
       0.130
       0.116
       0.067
      -0.014
      -0.090
      -0.130
      -0.135
      -0.126
      -0.110
      -0.058
       0.066
       0.260
       0.466
       0.600
       0.604
       0.478
       0.269
       0.036
      -0.172
      -0.324
      -0.413
      -0.449
      -0.453
      -0.440
      -0.413
      -0.354
      -0.243
      -0.088
       0.071
       0.193
       0.269
       0.319
       0.345
       0.309
       0.155
      -0.131
      -0.473
      -0.745
      -0.849
      -0.777
      -0.590
      -0.351
      -0.093
       0.175
       0.433
       0.642
       0.767
       0.796
       0.732
       0.578
       0.337
       0.033
      -0.276
      -0.511
      -0.612
      -0.575
      -0.450
      -0.304
      -0.187
      -0.100
      -0.003
       0.146
       0.348
       0.542
       0.639
       0.587
       0.408
       0.173
      -0.058
      -0.262
      -0.444
      -0.603
      -0.715
      -0.740
      -0.649
      -0.444
      -0.167
       0.119
       0.356
       0.522
       0.624
       0.679
       0.679
       0.594
       0.398
       0.099
      -0.248
      -0.565
      -0.777
      -0.837
      -0.735
      -0.496
      -0.174
       0.164
       0.464
       0.694
       0.845
       0.904
       0.845
       0.655
       0.358
       0.024
      -0.278
      -0.513
      -0.683
      -0.781
      -0.765
      -0.590
      -0.266
       0.123
       0.454
       0.641
       0.670
       0.591
       0.467
       0.349
       0.249
       0.147
       0.010
      -0.176
      -0.373
      -0.508
      -0.528
      -0.448
      -0.330
      -0.230
      -0.152
      -0.079
      -0.011
       0.036
       0.056
       0.073
       0.106
       0.141
       0.138
       0.080
      -0.009
      -0.091
      -0.161
      -0.248
      -0.364
      -0.468
      -0.488
      -0.385
      -0.189
       0.022
       0.181
       0.269
       0.302
       0.298
       0.258
       0.184
       0.092
       0.016
      -0.013
       0.013
       0.084
       0.189
       0.331
       0.507
       0.687
       0.802
       0.780
       0.596
       0.291
      -0.055
      -0.373
      -0.626
      -0.791
      -0.836
      -0.730
      -0.482
      -0.155
       0.160
       0.407
       0.582
       0.701
       0.754
       0.691
       0.476
       0.141
      -0.220
      -0.509
      -0.692
      -0.794
      -0.848
      -0.848
      -0.758
      -0.561
      -0.297
      -0.041
       0.148
       0.271
       0.368
       0.470
       0.554
       0.551
       0.413
       0.171
      -0.073
      -0.224
      -0.275
      -0.298
      -0.374
      -0.504
      -0.605
      -0.581
      -0.402
      -0.127
       0.150
       0.365
       0.505
       0.585
       0.619
       0.614
       0.572
       0.490
       0.354
       0.164
      -0.052
      -0.234
      -0.323
      -0.296
      -0.177
      -0.014
       0.149
       0.284
       0.365
       0.376
       0.324
       0.235
       0.140
       0.041
      -0.075
      -0.212
      -0.349
      -0.447
      -0.480
      -0.436
      -0.317
      -0.146
       0.016
       0.078
      -0.019
      -0.242
      -0.470
      -0.577
      -0.524
      -0.370
      -0.204
      -0.057
       0.098
       0.287
       0.491
       0.646
       0.700
       0.641
       0.497
       0.295
       0.042
      -0.258
      -0.575
      -0.840
      -0.978
      -0.958
      -0.809
      -0.588
      -0.337
      -0.066
       0.221
       0.491
       0.682
       0.741
       0.662
       0.494
       0.305
       0.151
       0.050
      -0.015
      -0.079
      -0.169
      -0.283
      -0.372
      -0.361
      -0.193
       0.130
       0.526
       0.864
       1.039
       1.016
       0.841
       0.590
       0.326
       0.080
      -0.148
      -0.362
      -0.552
      -0.683
      -0.711
      -0.601
      -0.358
      -0.039
       0.257
       0.436
       0.460
       0.365
       0.216
       0.049
      -0.138
      -0.351
      -0.565
      -0.727
      -0.788
      -0.731
      -0.566
      -0.322
      -0.035
       0.258
       0.522
       0.733
       0.873
       0.916
       0.850
       0.693
       0.498
       0.325
       0.193
       0.063
      -0.120
      -0.349
      -0.534
      -0.557
      -0.369
      -0.026
       0.358
       0.689
       0.930
       1.073
       1.093
       0.949
       0.624
       0.150
      -0.402
      -0.960
      -1.469
      -1.868
      -2.095
      -2.092
      -1.837
      -1.346
      -0.684
       0.046
       0.729
       1.264
       1.581
       1.656
       1.498
       1.134
       0.606
      -0.023
      -0.649
      -1.147
      -1.413
      -1.414
      -1.195
      -0.841
      -0.433
      -0.029
       0.331
       0.622
       0.835
       0.982
       1.068
       1.072
       0.947
       0.664
       0.250
      -0.211
      -0.630
      -0.959
      -1.199
      -1.358
      -1.425
      -1.366
      -1.140
      -0.741
      -0.219
       0.320
       0.762
       1.036
       1.133
       1.072
       0.857
       0.473
      -0.070
      -0.697
      -1.267
      -1.640
      -1.729
      -1.517
      -1.032
      -0.337
       0.455
       1.204
       1.785
       2.135
       2.247
       2.123
       1.754
       1.152
       0.388
      -0.412
      -1.116
      -1.628
      -1.886
      -1.856
      -1.531
      -0.968
      -0.280
       0.419
       1.069
       1.656
       2.138
       2.402
       2.310
       1.815
       1.025
       0.151
      -0.619
      -1.197
      -1.571
      -1.740
      -1.684
      -1.412
      -0.989
      -0.503
      -0.012
       0.471
       0.928
       1.295
       1.467
       1.370
       0.999
       0.419
      -0.280
      -1.002
      -1.646
      -2.114
      -2.346
      -2.329
      -2.088
      -1.664
      -1.115
      -0.526
       0.001
       0.404
       0.712
       1.026
       1.407
       1.789
       2.007
       1.934
       1.588
       1.106
       0.621
       0.172
      -0.276
      -0.728
      -1.093
      -1.238
      -1.102
      -0.756
      -0.334
       0.093
       0.557
       1.117
       1.738
       2.272
       2.525
       2.376
       1.822
       0.959
      -0.073
      -1.135
      -2.119
      -2.948
      -3.563
      -3.893
      -3.839
      -3.305
      -2.265
      -0.815
       0.823
       2.362
       3.551
       4.243
       4.397
       4.020
       3.130
       1.796
       0.202
      -1.358
      -2.590
      -3.332
      -3.589
      -3.449
      -2.975
      -2.196
      -1.183
      -0.086
       0.920
       1.728
       2.317
       2.670
       2.714
       2.360
       1.613
       0.622
      -0.400
      -1.287
      -1.961
      -2.377
      -2.474
      -2.205
      -1.597
      -0.778
       0.095
       0.912
       1.618
       2.168
       2.507
       2.599
       2.454
       2.105
       1.570
       0.843
      -0.061
      -1.060
      -2.011
      -2.745
      -3.128
      -3.086
      -2.619
      -1.804
      -0.789
       0.238
       1.114
       1.747
       2.112
       2.212
       2.047
       1.635
       1.062
       0.478
       0.042
      -0.168
      -0.186
      -0.118
      -0.051
      -0.002
       0.062
       0.151
       0.226
       0.250
       0.231
       0.222
       0.279
       0.429
       0.665
       0.942
       1.189
       1.322
       1.286
       1.070
       0.684
       0.122
      -0.640
      -1.580
      -2.577
      -3.422
      -3.904
      -3.902
      -3.418
      -2.541
      -1.394
      -0.116
       1.127
       2.151
       2.816
       3.072
       2.935
       2.436
       1.611
       0.543
      -0.623
      -1.719
      -2.602
      -3.152
      -3.260
      -2.854
      -1.959
      -0.740
       0.540
       1.639
       2.427
       2.901
       3.107
       3.078
       2.823
       2.356
       1.716
       0.958
       0.138
      -0.689
      -1.446
      -2.031
      -2.346
      -2.354
      -2.099
      -1.660
      -1.071
      -0.314
       0.610
       1.581
       2.362
       2.699
       2.482
       1.816
       0.939
       0.054
      -0.762
      -1.513
      -2.165
      -2.573
      -2.540
      -1.957
      -0.913
       0.323
       1.448
       2.251
       2.644
       2.597
       2.076
       1.076
      -0.305
      -1.825
      -3.171
      -4.087
      -4.469
      -4.338
      -3.758
      -2.799
      -1.561
      -0.190
       1.147
       2.316
       3.226
       3.792
       3.912
       3.510
       2.627
       1.467
       0.321
      -0.586
      -1.197
      -1.584
      -1.828
      -1.932
      -1.835
      -1.475
      -0.857
      -0.077
       0.706
       1.343
       1.750
       1.927
       1.907
       1.702
       1.291
       0.673
      -0.067
      -0.762
      -1.222
      -1.312
      -1.002
      -0.367
       0.434
       1.214
       1.806
       2.089
       1.992
       1.492
       0.624
      -0.495
      -1.663
      -2.646
      -3.266
      -3.462
      -3.275
      -2.775
      -2.027
      -1.094
      -0.074
       0.905
       1.716
       2.273
       2.525
       2.446
       2.031
       1.329
       0.471
      -0.358
      -0.993
      -1.358
      -1.463
      -1.344
      -1.012
      -0.462
       0.269
       1.070
       1.777
       2.247
       2.427
       2.380
       2.223
       2.042
       1.853
       1.640
       1.404
       1.163
       0.913
       0.618
       0.262
      -0.101
      -0.357
      -0.426
      -0.359
      -0.336
      -0.538
      -1.025
      -1.716
      -2.475
      -3.194
      -3.822
      -4.318
      -4.612
      -4.603
      -4.188
      -3.320
      -2.036
      -0.473
       1.152
       2.586
       3.612
       4.111
       4.077
       3.586
       2.765
       1.780
       0.814
       0.034
      -0.449
      -0.587
      -0.396
       0.042
       0.592
       1.124
       1.577
       1.959
       2.274
       2.451
       2.356
       1.890
       1.088
       0.100
      -0.913
      -1.882
      -2.812
      -3.683
      -4.384
      -4.755
      -4.670
      -4.112
      -3.166
      -1.978
      -0.714
       0.460
       1.386
       1.947
       2.104
       1.910
       1.470
       0.891
       0.255
      -0.384
      -0.967
      -1.411
      -1.607
      -1.468
      -0.978
      -0.187
       0.837
       2.029
       3.298
       4.486
       5.377
       5.765
       5.544
       4.734
       3.458
       1.897
       0.258
      -1.267
      -2.544
      -3.510
      -4.159
      -4.502
      -4.552
      -4.353
      -3.979
      -3.512
      -2.996
      -2.416
      -1.726
      -0.910
      -0.023
       0.825
       1.534
       2.059
       2.403
       2.589
       2.643
       2.599
       2.522
       2.486
       2.513
       2.527
       2.399
       2.045
       1.498
       0.861
       0.219
      -0.430
      -1.131
      -1.892
      -2.643
      -3.261
      -3.630
      -3.693
      -3.454
      -2.978
      -2.361
      -1.696
      -1.047
      -0.449
       0.058
       0.417
       0.558
       0.440
       0.083
      -0.412
      -0.874
      -1.102
      -0.944
      -0.376
       0.459
       1.322
       2.009
       2.446
       2.686
       2.808
       2.841
       2.754
       2.502
       2.083
       1.542
       0.945
       0.350
      -0.211
      -0.725
      -1.191
      -1.585
      -1.856
      -1.953
      -1.883
      -1.724
      -1.563
      -1.412
      -1.202
      -0.862
      -0.395
       0.132
       0.658
       1.157
       1.607
       1.946
       2.084
       1.968
       1.623
       1.137
       0.620
       0.171
      -0.125
      -0.213
      -0.085
       0.195
       0.508
       0.731
       0.788
       0.661
       0.369
      -0.048
      -0.541
      -1.057
      -1.560
      -2.027
      -2.425
      -2.703
      -2.809
      -2.715
      -2.430
      -1.990
      -1.454
      -0.882
      -0.312
       0.255
       0.827
       1.367
       1.773
       1.935
       1.826
       1.533
       1.177
       0.815
       0.414
      -0.051
      -0.507
      -0.807
      -0.849
      -0.669
      -0.396
      -0.138
       0.111
       0.433
       0.883
       1.410
       1.885
       2.187
       2.258
       2.106
       1.758
       1.229
       0.534
      -0.286
      -1.134
      -1.872
      -2.351
      -2.464
      -2.201
      -1.661
      -1.005
      -0.381
       0.125
       0.491
       0.719
       0.819
       0.813
       0.733
       0.613
       0.469
       0.305
       0.151
       0.076
       0.142
       0.342
       0.583
       0.748
       0.779
       0.712
       0.630
       0.582
       0.532
       0.397
       0.124
      -0.252
      -0.633
      -0.934
      -1.137
      -1.276
      -1.387
      -1.472
      -1.497
      -1.435
      -1.297
      -1.118
      -0.925
      -0.739
      -0.594
      -0.528
      -0.532
      -0.533
      -0.447
      -0.272
      -0.098
      -0.019
      -0.025
       0.005
       0.194
       0.555
       0.982
       1.346
       1.584
       1.694
       1.695
       1.596
       1.419
       1.214
       1.031
       0.880
       0.729
       0.539
       0.306
       0.071
      -0.117
      -0.239
      -0.322
      -0.414
      -0.550
      -0.729
      -0.918
      -1.067
      -1.131
      -1.075
      -0.885
      -0.547
      -0.056
       0.569
       1.239
       1.797
       2.088
       2.054
       1.760
       1.325
       0.823
       0.243
      -0.458
      -1.273
      -2.114
      -2.842
      -3.320
      -3.465
      -3.280
      -2.832
      -2.197
      -1.425
      -0.551
       0.358
       1.198
       1.858
       2.273
       2.425
       2.320
       1.962
       1.364
       0.599
      -0.200
      -0.887
      -1.376
      -1.654
      -1.729
      -1.580
      -1.166
      -0.504
       0.281
       0.999
       1.513
       1.812
       1.967
       2.022
       1.947
       1.703
       1.324
       0.918
       0.586
       0.358
       0.198
       0.066
      -0.048
      -0.119
      -0.118
      -0.042
       0.080
       0.198
       0.266
       0.253
       0.154
       0.000
      -0.163
      -0.308
      -0.446
      -0.612
      -0.810
      -0.978
      -1.026
      -0.927
      -0.777
      -0.735
      -0.882
      -1.136
      -1.320
      -1.312
      -1.143
      -0.946
      -0.812
      -0.695
      -0.476
      -0.085
       0.432
       0.966
       1.436
       1.817
       2.101
       2.270
       2.295
       2.157
       1.854
       1.390
       0.777
       0.065
      -0.649
      -1.259
      -1.694
      -1.925
      -1.934
      -1.704
      -1.262
      -0.705
      -0.177
       0.218
       0.458
       0.574
       0.579
       0.448
       0.149
      -0.293
      -0.780
      -1.183
      -1.414
      -1.443
      -1.264
      -0.872
      -0.283
       0.421
       1.103
       1.643
       1.997
       2.197
       2.280
       2.227
       1.997
       1.616
       1.222
       0.988
       0.971
       1.062
       1.089
       0.948
       0.670
       0.348
       0.048
      -0.235
      -0.527
      -0.818
      -1.061
      -1.222
      -1.305
      -1.342
      -1.371
      -1.438
      -1.594
      -1.851
      -2.150
      -2.370
      -2.386
      -2.152
      -1.734
      -1.264
      -0.855
      -0.546
      -0.303
      -0.072
       0.176
       0.425
       0.641
       0.812
       0.951
       1.069
       1.151
       1.157
       1.052
       0.834
       0.562
       0.336
       0.233
       0.258
       0.339
       0.389
       0.361
       0.269
       0.158
       0.058
      -0.037
      -0.152
      -0.293
      -0.430
      -0.510
      -0.495
      -0.388
      -0.222
      -0.030
       0.171
       0.358
       0.477
       0.458
       0.279
      -0.004
      -0.264
      -0.380
      -0.300
      -0.053
       0.286
       0.643
       0.942
       1.107
       1.075
       0.849
       0.512
       0.192
      -0.020
      -0.108
      -0.113
      -0.086
      -0.066
      -0.091
      -0.187
      -0.332
      -0.440
      -0.397
      -0.158
       0.217
