Origin Time       10/7/2012 13:03:41	 UTC
Lat.              26.5 N	
Long.             93.2 E	
Depth (Km)         56.0
Magnitude         4.5
 Region           Karbi-Anglong-Assam                                              
 Above details taken from IMD 
    
Station Code      NAU
Station Lat.       26.349  N
Station Long.      92.690  E
Station Height(m)   78.0
Site Class        C   Vs30 between 200 m/sec to 375 m/sec *  
Record Time       10.07.2012 13:03:46.624 UTC
Sampling Rate     200. Hz
 Record Duration   66.170 Sec.
 Direction         N-S (N positive)
Max. Acceleration     -5.869 cm/sec**2
     
  * For reference see Site Classification link of website 
     
 Base Line Corrected and Low Pass Filtered (Cut Off at 35 Hz) Time History
 Acceleration data in cm/sec**2
    
[...]
       0.059
       0.048
       0.023
       0.009
       0.023
       0.069
       0.138
       0.212
       0.265
       0.270
       0.218
       0.133
       0.050
      -0.007
      -0.044
      -0.087
      -0.153
      -0.224
      -0.262
      -0.235
      -0.145
      -0.017
       0.113
       0.210
       0.240
       0.180
       0.036
      -0.147
      -0.306
      -0.387
      -0.363
      -0.244
      -0.064
       0.127
       0.277
       0.347
       0.325
       0.234
       0.115
       0.006
      -0.074
      -0.127
      -0.159
      -0.167
      -0.135
      -0.055
       0.055
       0.153
       0.198
       0.170
       0.087
      -0.004
      -0.054
      -0.043
       0.018
       0.105
       0.192
       0.259
       0.285
       0.256
       0.161
       0.000
      -0.202
      -0.397
      -0.528
      -0.552
      -0.456
      -0.258
       0.003
       0.278
       0.514
       0.661
       0.690
       0.599
       0.412
       0.179
      -0.043
      -0.201
      -0.274
      -0.281
      -0.264
      -0.261
      -0.277
      -0.284
      -0.245
      -0.148
      -0.030
       0.050
       0.050
      -0.028
      -0.139
      -0.222
      -0.237
      -0.176
      -0.063
       0.060
       0.154
       0.197
       0.189
       0.155
       0.126
       0.120
       0.122
       0.100
       0.031
      -0.080
      -0.199
      -0.284
      -0.305
      -0.256
      -0.164
      -0.071
      -0.013
      -0.007
      -0.048
      -0.108
      -0.152
      -0.145
      -0.076
       0.037
       0.156
       0.248
       0.302
       0.328
       0.328
       0.284
       0.180
       0.027
      -0.137
      -0.267
      -0.333
      -0.326
      -0.249
      -0.123
       0.022
       0.147
       0.218
       0.222
       0.175
       0.112
       0.070
       0.057
       0.064
       0.080
       0.105
       0.139
       0.180
       0.213
       0.220
       0.177
       0.075
      -0.062
      -0.185
      -0.252
      -0.256
      -0.214
      -0.147
      -0.072
      -0.006
       0.036
       0.049
       0.037
       0.004
      -0.047
      -0.104
      -0.149
      -0.173
      -0.181
      -0.183
      -0.180
      -0.163
      -0.111
      -0.014
       0.114
       0.224
       0.266
       0.231
       0.161
       0.112
       0.115
       0.157
       0.188
       0.158
       0.049
      -0.100
      -0.221
      -0.262
      -0.224
      -0.145
      -0.062
       0.016
       0.106
       0.223
       0.355
       0.455
       0.465
       0.366
       0.193
       0.004
      -0.166
      -0.317
      -0.458
      -0.574
      -0.633
      -0.613
      -0.511
      -0.347
      -0.154
       0.024
       0.150
       0.211
       0.216
       0.192
       0.163
       0.139
       0.121
       0.101
       0.069
       0.029
      -0.012
      -0.051
      -0.094
      -0.131
      -0.141
      -0.096
       0.011
       0.156
       0.292
       0.365
       0.346
       0.249
       0.125
       0.029
      -0.016
      -0.031
      -0.056
      -0.117
      -0.197
      -0.256
      -0.260
      -0.211
      -0.137
      -0.065
      -0.003
       0.064
       0.151
       0.248
       0.326
       0.356
       0.330
       0.259
       0.155
       0.019
      -0.145
      -0.317
      -0.453
      -0.514
      -0.494
      -0.425
      -0.359
      -0.321
      -0.289
      -0.223
      -0.098
       0.068
       0.226
       0.325
       0.350
       0.327
       0.304
       0.309
       0.326
       0.318
       0.252
       0.130
      -0.015
      -0.134
      -0.182
      -0.145
      -0.048
       0.068
       0.173
       0.252
       0.299
       0.308
       0.282
       0.230
       0.165
       0.098
       0.030
      -0.032
      -0.076
      -0.090
      -0.064
       0.002
       0.096
       0.197
       0.277
       0.298
       0.225
       0.046
      -0.202
      -0.445
      -0.620
      -0.701
      -0.703
      -0.657
      -0.582
      -0.479
      -0.336
      -0.146
       0.062
       0.238
       0.338
       0.349
       0.288
       0.177
       0.037
      -0.119
      -0.274
      -0.389
      -0.410
      -0.295
      -0.064
       0.201
       0.402
       0.491
       0.482
       0.412
       0.309
       0.192
       0.085
       0.017
       0.007
       0.053
       0.142
       0.263
       0.412
       0.569
       0.687
       0.699
       0.569
       0.324
       0.036
      -0.219
      -0.405
      -0.528
      -0.612
      -0.668
      -0.680
      -0.623
      -0.496
      -0.336
      -0.192
      -0.088
      -0.007
       0.072
       0.130
       0.123
       0.037
      -0.077
      -0.137
      -0.106
      -0.024
       0.034
       0.021
      -0.050
      -0.133
      -0.200
      -0.248
      -0.284
      -0.296
      -0.265
      -0.184
      -0.070
       0.050
       0.149
       0.206
       0.206
       0.157
       0.101
       0.094
       0.162
       0.267
       0.329
       0.292
       0.170
       0.046
       0.004
       0.087
       0.268
       0.471
       0.605
       0.601
       0.449
       0.203
      -0.038
      -0.187
      -0.207
      -0.119
       0.028
       0.194
       0.345
       0.439
       0.433
       0.309
       0.100
      -0.115
      -0.254
      -0.290
      -0.260
      -0.235
      -0.254
      -0.285
      -0.255
      -0.123
       0.070
       0.224
       0.254
       0.139
      -0.081
      -0.342
      -0.584
      -0.759
      -0.849
      -0.860
      -0.817
      -0.733
      -0.600
      -0.405
      -0.151
       0.135
       0.402
       0.591
       0.659
       0.602
       0.458
       0.289
       0.163
       0.121
       0.149
       0.185
       0.172
       0.103
       0.011
      -0.069
      -0.122
      -0.132
      -0.069
       0.088
       0.315
       0.540
       0.675
       0.678
       0.581
       0.456
       0.347
       0.243
       0.110
      -0.050
      -0.199
      -0.304
      -0.372
      -0.430
      -0.484
      -0.514
      -0.492
      -0.419
      -0.313
      -0.197
      -0.080
       0.041
       0.163
       0.263
       0.301
       0.252
       0.130
      -0.017
      -0.145
      -0.233
      -0.287
      -0.326
      -0.366
      -0.403
      -0.405
      -0.337
      -0.197
      -0.016
       0.163
       0.298
       0.361
       0.338
       0.249
       0.141
       0.061
       0.024
       0.008
      -0.020
      -0.064
      -0.097
      -0.085
      -0.020
       0.072
       0.153
       0.203
       0.230
       0.258
       0.305
       0.372
       0.438
       0.468
       0.431
       0.317
       0.149
      -0.029
      -0.176
      -0.267
      -0.303
      -0.314
      -0.332
      -0.358
      -0.369
      -0.338
      -0.260
      -0.146
      -0.020
       0.081
       0.115
       0.064
      -0.051
      -0.176
      -0.257
      -0.259
      -0.176
      -0.036
       0.113
       0.226
       0.282
       0.270
       0.191
       0.065
      -0.065
      -0.164
      -0.226
      -0.265
      -0.276
      -0.227
      -0.094
       0.112
       0.340
       0.534
       0.651
       0.661
       0.551
       0.327
       0.032
      -0.257
      -0.460
      -0.535
      -0.503
      -0.419
      -0.329
      -0.249
      -0.182
      -0.137
      -0.116
      -0.101
      -0.055
       0.047
       0.194
       0.341
       0.445
       0.489
       0.489
       0.471
       0.439
       0.379
       0.283
       0.164
       0.048
      -0.054
      -0.145
      -0.238
      -0.338
      -0.435
      -0.499
      -0.493
      -0.390
      -0.196
       0.042
       0.257
       0.384
       0.397
       0.325
       0.234
       0.169
       0.118
       0.043
      -0.076
      -0.213
      -0.316
      -0.342
      -0.273
      -0.126
       0.047
       0.181
       0.218
       0.132
      -0.062
      -0.303
      -0.506
      -0.590
      -0.514
      -0.288
       0.023
       0.336
       0.578
       0.710
       0.726
       0.644
       0.501
       0.336
       0.171
       0.008
      -0.162
      -0.337
      -0.495
      -0.611
      -0.655
      -0.597
      -0.425
      -0.163
       0.125
       0.361
       0.492
       0.505
       0.431
       0.314
       0.191
       0.078
      -0.021
      -0.104
      -0.156
      -0.168
      -0.138
      -0.081
      -0.025
      -0.010
      -0.060
      -0.158
      -0.248
      -0.278
      -0.243
      -0.182
      -0.136
      -0.110
      -0.088
      -0.061
      -0.036
      -0.012
       0.028
       0.099
       0.188
       0.259
       0.275
       0.227
       0.134
       0.030
      -0.066
      -0.142
      -0.169
      -0.122
      -0.007
       0.128
       0.241
       0.330
       0.406
       0.450
       0.422
       0.311
       0.159
       0.034
      -0.023
      -0.015
       0.019
       0.046
       0.056
       0.065
       0.083
       0.090
       0.064
      -0.005
      -0.106
      -0.220
      -0.323
      -0.392
      -0.405
      -0.357
      -0.262
      -0.156
      -0.072
      -0.023
       0.000
       0.022
       0.059
       0.118
       0.197
       0.285
       0.353
       0.353
       0.246
       0.044
      -0.183
      -0.342
      -0.382
      -0.323
      -0.230
      -0.161
      -0.131
      -0.112
      -0.071
       0.000
       0.085
       0.159
       0.205
       0.207
       0.158
       0.065
      -0.042
      -0.124
      -0.155
      -0.131
      -0.078
      -0.036
      -0.041
      -0.102
      -0.188
      -0.244
      -0.220
      -0.092
       0.126
       0.376
       0.570
       0.634
       0.544
       0.338
       0.085
      -0.137
      -0.275
      -0.316
      -0.282
      -0.220
      -0.165
      -0.124
      -0.077
      -0.008
       0.079
       0.172
       0.254
       0.297
       0.269
       0.164
       0.027
      -0.073
      -0.091
      -0.031
       0.060
       0.121
       0.111
       0.021
      -0.120
      -0.260
      -0.335
      -0.300
      -0.153
       0.043
       0.186
       0.206
       0.111
      -0.026
      -0.121
      -0.137
      -0.083
      -0.001
       0.060
       0.067
       0.008
      -0.100
      -0.208
      -0.254
      -0.202
      -0.067
       0.085
       0.193
       0.236
       0.244
       0.268
       0.342
       0.449
       0.521
       0.479
       0.292
       0.010
      -0.273
      -0.475
      -0.560
      -0.528
      -0.399
      -0.205
       0.007
       0.185
       0.288
       0.299
       0.235
       0.138
       0.054
       0.009
       0.001
       0.015
       0.038
       0.068
       0.108
       0.162
       0.225
       0.267
       0.241
       0.122
      -0.070
      -0.269
      -0.409
      -0.463
      -0.448
      -0.406
      -0.375
      -0.371
      -0.383
      -0.392
      -0.386
      -0.353
      -0.266
      -0.091
       0.171
       0.456
       0.658
       0.687
       0.521
       0.234
      -0.040
      -0.173
      -0.116
       0.072
       0.266
       0.369
       0.367
       0.317
       0.287
       0.301
       0.330
       0.301
       0.148
      -0.140
      -0.489
      -0.766
      -0.864
      -0.776
      -0.601
      -0.461
      -0.401
      -0.366
      -0.257
      -0.031
       0.261
       0.509
       0.618
       0.569
       0.413
       0.225
       0.067
      -0.027
      -0.061
      -0.086
      -0.169
      -0.337
      -0.535
      -0.656
      -0.612
      -0.401
      -0.109
       0.160
       0.351
       0.478
       0.589
       0.710
       0.817
       0.848
       0.740
       0.464
       0.045
      -0.434
      -0.855
      -1.102
      -1.111
      -0.899
      -0.553
      -0.175
       0.164
       0.446
       0.690
       0.909
       1.076
       1.120
       0.969
       0.615
       0.141
      -0.307
      -0.599
      -0.684
      -0.595
      -0.397
      -0.142
       0.136
       0.399
       0.586
       0.634
       0.522
       0.292
       0.024
      -0.216
      -0.406
      -0.552
      -0.655
      -0.705
      -0.693
      -0.629
      -0.537
      -0.445
      -0.371
      -0.315
      -0.255
      -0.154
       0.024
       0.285
       0.585
       0.827
       0.896
       0.734
       0.399
       0.042
      -0.192
      -0.265
      -0.243
      -0.204
      -0.164
      -0.071
       0.147
       0.534
       1.089
       1.744
       2.374
       2.828
       2.995
       2.864
       2.523
       2.084
       1.591
       0.996
       0.230
      -0.701
      -1.678
      -2.515
      -3.043
      -3.160
      -2.843
      -2.130
      -1.130
      -0.021
       0.955
       1.563
       1.666
       1.270
       0.520
      -0.345
      -1.052
      -1.370
      -1.195
      -0.593
       0.242
       1.074
       1.694
       1.929
       1.646
       0.792
      -0.553
      -2.168
      -3.743
      -4.959
      -5.576
      -5.491
      -4.776
      -3.658
      -2.424
      -1.288
      -0.308
       0.596
       1.493
       2.301
       2.777
       2.673
       1.964
       0.936
       0.076
      -0.187
       0.292
       1.303
       2.397
       3.131
       3.286
       2.941
       2.366
       1.830
       1.447
       1.152
       0.795
       0.277
      -0.368
      -0.993
      -1.457
      -1.745
      -2.014
      -2.499
      -3.337
      -4.418
      -5.399
      -5.869
      -5.588
      -4.618
      -3.281
      -1.952
      -0.849
       0.041
       0.853
       1.665
       2.406
       2.883
       2.887
       2.319
       1.287
       0.105
      -0.826
      -1.213
      -1.001
      -0.350
       0.491
       1.314
       2.019
       2.594
       3.060
       3.420
       3.632
       3.641
       3.408
       2.947
       2.326
       1.663
       1.087
       0.673
       0.412
       0.221
       0.006
      -0.275
      -0.585
      -0.838
      -0.969
      -0.996
      -1.017
      -1.123
      -1.294
      -1.375
      -1.165
      -0.562
       0.355
       1.354
       2.161
       2.565
       2.472
       1.883
       0.865
      -0.441
      -1.792
      -2.874
      -3.408
      -3.274
      -2.553
      -1.470
      -0.298
       0.736
       1.489
       1.902
       1.964
       1.700
       1.195
       0.588
       0.003
      -0.546
      -1.164
      -1.963
      -2.901
      -3.710
      -3.981
      -3.385
      -1.886
       0.197
       2.322
       3.956
       4.767
       4.706
       3.973
       2.909
       1.858
       1.038
       0.504
       0.195
       0.058
       0.125
       0.500
       1.222
       2.125
       2.821
       2.852
       1.948
       0.207
      -1.919
      -3.832
      -5.058
      -5.427
      -5.075
      -4.301
      -3.387
      -2.476
      -1.574
      -0.627
       0.385
       1.406
       2.314
       2.978
       3.300
       3.232
       2.786
       2.062
       1.263
       0.627
       0.287
       0.153
      -0.048
      -0.587
      -1.526
      -2.670
      -3.684
      -4.290
      -4.396
      -4.104
      -3.614
      -3.089
      -2.554
      -1.899
      -0.983
       0.230
       1.598
       2.841
       3.662
       3.885
       3.529
       2.793
       1.954
       1.239
       0.740
       0.407
       0.113
      -0.258
      -0.726
      -1.182
      -1.427
      -1.293
      -0.765
      -0.025
       0.601
       0.789
       0.392
      -0.454
      -1.397
      -2.082
      -2.339
      -2.186
      -1.700
      -0.938
       0.049
       1.145
       2.168
       2.926
       3.313
       3.359
       3.178
       2.859
       2.382
       1.660
       0.665
      -0.486
      -1.552
      -2.274
      -2.485
      -2.179
      -1.510
      -0.727
      -0.072
       0.306
       0.384
       0.243
       0.031
      -0.110
      -0.118
      -0.041
      -0.003
      -0.104
      -0.356
      -0.677
      -0.970
      -1.196
      -1.384
      -1.549
      -1.611
      -1.392
      -0.734
       0.375
       1.756
       3.113
       4.155
       4.681
       4.601
       3.932
       2.775
       1.289
      -0.339
      -1.901
      -3.184
      -4.029
      -4.379
      -4.282
      -3.830
      -3.115
      -2.224
      -1.246
      -0.265
       0.659
       1.501
       2.255
       2.920
       3.470
       3.833
       3.900
       3.570
       2.803
       1.666
       0.327
      -0.967
      -1.994
      -2.654
      -2.972
      -2.995
      -2.699
      -2.037
      -1.069
      -0.009
       0.864
       1.357
       1.456
       1.305
       1.074
       0.857
       0.644
       0.401
       0.129
      -0.123
      -0.288
      -0.304
      -0.147
       0.135
       0.416
       0.545
       0.438
       0.129
      -0.248
      -0.535
      -0.624
      -0.512
      -0.301
      -0.133
      -0.086
      -0.124
      -0.145
      -0.099
      -0.052
      -0.133
      -0.406
      -0.796
      -1.126
      -1.233
      -1.074
      -0.747
      -0.430
      -0.273
      -0.321
      -0.481
      -0.572
      -0.423
       0.029
       0.676
       1.276
       1.568
       1.399
       0.785
      -0.117
      -1.088
      -1.905
      -2.384
      -2.420
      -2.004
      -1.235
      -0.290
       0.630
       1.375
       1.895
       2.211
       2.329
       2.221
       1.882
       1.400
       0.921
       0.560
       0.333
       0.170
      -0.013
      -0.243
      -0.473
      -0.634
      -0.737
      -0.894
      -1.239
      -1.789
      -2.398
      -2.833
      -2.905
      -2.557
      -1.891
      -1.111
      -0.424
       0.067
       0.392
       0.676
       1.040
       1.535
       2.104
       2.594
       2.820
       2.660
       2.127
       1.364
       0.593
       0.037
      -0.168
      -0.035
       0.306
       0.720
       1.140
       1.535
       1.820
       1.844
       1.485
       0.753
      -0.179
      -1.054
      -1.670
      -1.982
      -2.098
      -2.181
      -2.332
      -2.529
      -2.647
      -2.530
      -2.087
      -1.362
      -0.509
       0.315
       1.037
       1.659
       2.168
       2.482
       2.501
       2.197
       1.670
       1.102
       0.666
       0.442
       0.397
       0.421
       0.395
       0.251
       0.000
      -0.279
      -0.511
      -0.691
      -0.899
      -1.240
      -1.743
      -2.312
      -2.755
      -2.891
      -2.648
      -2.095
      -1.366
      -0.568
       0.270
       1.157
       2.067
       2.882
       3.402
       3.431
       2.889
       1.892
       0.729
      -0.251
      -0.786
      -0.797
      -0.355
       0.384
       1.245
       2.029
       2.521
       2.533
       1.983
       0.962
      -0.261
      -1.332
      -1.965
      -2.069
      -1.763
      -1.286
      -0.870
      -0.631
      -0.562
      -0.586
      -0.644
      -0.737
      -0.901
      -1.160
      -1.473
      -1.742
      -1.856
      -1.763
      -1.500
      -1.159
      -0.819
      -0.499
      -0.164
       0.214
       0.608
       0.944
       1.162
       1.279
       1.381
       1.548
       1.771
       1.942
       1.918
       1.623
       1.122
       0.614
       0.320
