Origin Time       22/12/2012 16:41:44 UTC
Lat.              22.5 N	
Long.             94.8 E	
Depth (Km)        115.0
Magnitude         5.7
 Region           Myanmar                                                          
 Above details taken from IMD 
    
Station Code      NAU
Station Lat.       26.349  N
Station Long.      92.690  E
Station Height(m)   78.0
Site Class        C   Vs30 between 200 m/sec to 375 m/sec *  
Record Time       22.12.2012 16:40:53.209 UTC
Sampling Rate     200. Hz
 Record Duration   74.660 Sec.
 Direction         N-S (N positive)
Max. Acceleration     -9.187 cm/sec**2
     
  * For reference see Site Classification link of website 
     
 Base Line Corrected and Low Pass Filtered (Cut Off at 35 Hz) Time History
 Acceleration data in cm/sec**2
    
[...]
      -0.051
      -0.007
       0.025
       0.038
       0.033
       0.019
       0.011
       0.018
       0.041
       0.070
       0.095
       0.103
       0.091
       0.064
       0.028
      -0.007
      -0.034
      -0.050
      -0.058
      -0.066
      -0.083
      -0.106
      -0.126
      -0.126
      -0.096
      -0.040
       0.023
       0.068
       0.083
       0.071
       0.049
       0.030
       0.017
       0.003
      -0.019
      -0.052
      -0.087
      -0.113
      -0.125
      -0.124
      -0.119
      -0.120
      -0.135
      -0.164
      -0.205
      -0.254
      -0.301
      -0.333
      -0.335
      -0.296
      -0.215
      -0.105
       0.009
       0.098
       0.142
       0.141
       0.109
       0.065
       0.023
      -0.014
      -0.049
      -0.083
      -0.111
      -0.123
      -0.110
      -0.066
       0.006
       0.095
       0.189
       0.278
       0.353
       0.404
       0.423
       0.403
       0.348
       0.270
       0.186
       0.111
       0.049
       0.005
      -0.024
      -0.042
      -0.060
      -0.088
      -0.128
      -0.175
      -0.220
      -0.254
      -0.273
      -0.276
      -0.264
      -0.240
      -0.202
      -0.147
      -0.071
       0.026
       0.136
       0.246
       0.336
       0.391
       0.402
       0.370
       0.302
       0.210
       0.104
      -0.009
      -0.120
      -0.216
      -0.283
      -0.308
      -0.288
      -0.229
      -0.150
      -0.066
       0.014
       0.091
       0.165
       0.233
       0.281
       0.295
       0.271
       0.219
       0.159
       0.111
       0.088
       0.086
       0.094
       0.096
       0.080
       0.047
       0.007
      -0.023
      -0.032
      -0.019
       0.007
       0.033
       0.051
       0.061
       0.071
       0.085
       0.104
       0.119
       0.116
       0.087
       0.035
      -0.024
      -0.069
      -0.090
      -0.088
      -0.071
      -0.048
      -0.027
      -0.008
       0.010
       0.030
       0.054
       0.079
       0.094
       0.092
       0.074
       0.048
       0.026
       0.013
       0.010
       0.012
       0.013
       0.008
      -0.007
      -0.034
      -0.071
      -0.114
      -0.166
      -0.230
      -0.305
      -0.385
      -0.451
      -0.484
      -0.466
      -0.390
      -0.267
      -0.118
       0.031
       0.166
       0.281
       0.380
       0.461
       0.518
       0.542
       0.532
       0.491
       0.429
       0.350
       0.249
       0.120
      -0.030
      -0.176
      -0.287
      -0.341
      -0.335
      -0.285
      -0.211
      -0.134
      -0.072
      -0.033
      -0.019
      -0.031
      -0.065
      -0.120
      -0.187
      -0.249
      -0.286
      -0.291
      -0.269
      -0.240
      -0.218
      -0.210
      -0.214
      -0.224
      -0.238
      -0.255
      -0.280
      -0.312
      -0.344
      -0.359
      -0.343
      -0.289
      -0.205
      -0.107
      -0.016
       0.056
       0.107
       0.140
       0.162
       0.176
       0.179
       0.167
       0.140
       0.106
       0.080
       0.073
       0.090
       0.119
       0.140
       0.137
       0.110
       0.071
       0.042
       0.035
       0.048
       0.068
       0.078
       0.071
       0.051
       0.030
       0.021
       0.027
       0.042
       0.053
       0.049
       0.032
       0.011
       0.000
       0.006
       0.029
       0.060
       0.094
       0.124
       0.149
       0.168
       0.183
       0.196
       0.209
       0.217
       0.221
       0.222
       0.226
       0.233
       0.233
       0.213
       0.160
       0.074
      -0.031
      -0.131
      -0.209
      -0.255
      -0.270
      -0.264
      -0.244
      -0.220
      -0.195
      -0.166
      -0.126
      -0.069
       0.009
       0.103
       0.196
       0.266
       0.297
       0.284
       0.239
       0.179
       0.120
       0.064
       0.010
      -0.044
      -0.089
      -0.111
      -0.098
      -0.049
       0.025
       0.101
       0.160
       0.190
       0.190
       0.170
       0.143
       0.125
       0.127
       0.153
       0.193
       0.233
       0.254
       0.244
       0.202
       0.136
       0.061
      -0.005
      -0.052
      -0.077
      -0.088
      -0.092
      -0.094
      -0.088
      -0.071
      -0.043
      -0.019
      -0.012
      -0.032
      -0.077
      -0.139
      -0.209
      -0.282
      -0.353
      -0.414
      -0.456
      -0.474
      -0.460
      -0.414
      -0.338
      -0.240
      -0.132
      -0.029
       0.052
       0.104
       0.127
       0.124
       0.103
       0.069
       0.032
       0.001
      -0.013
      -0.011
       0.000
       0.005
      -0.009
      -0.043
      -0.092
      -0.138
      -0.166
      -0.167
      -0.144
      -0.105
      -0.060
      -0.019
       0.016
       0.045
       0.068
       0.086
       0.097
       0.102
       0.101
       0.103
       0.122
       0.168
       0.243
       0.331
       0.407
       0.446
       0.435
       0.374
       0.272
       0.142
       0.000
      -0.138
      -0.253
      -0.338
      -0.388
      -0.406
      -0.389
      -0.334
      -0.245
      -0.138
      -0.038
       0.034
       0.072
       0.090
       0.105
       0.128
       0.155
       0.172
       0.163
       0.115
       0.032
      -0.071
      -0.170
      -0.244
      -0.287
      -0.299
      -0.286
      -0.251
      -0.197
      -0.129
      -0.054
       0.016
       0.074
       0.111
       0.123
       0.108
       0.071
       0.019
      -0.040
      -0.102
      -0.159
      -0.196
      -0.199
      -0.159
      -0.086
      -0.008
       0.050
       0.080
       0.088
       0.093
       0.103
       0.115
       0.118
       0.104
       0.075
       0.047
       0.036
       0.048
       0.077
       0.108
       0.132
       0.147
       0.159
       0.175
       0.200
       0.240
       0.290
       0.342
       0.379
       0.389
       0.368
       0.324
       0.271
       0.222
       0.191
       0.182
       0.195
       0.223
       0.255
       0.279
       0.285
       0.264
       0.215
       0.140
       0.046
      -0.060
      -0.171
      -0.278
      -0.367
      -0.424
      -0.439
      -0.411
      -0.347
      -0.261
      -0.168
      -0.078
       0.004
       0.076
       0.129
       0.146
       0.114
       0.039
      -0.055
      -0.133
      -0.176
      -0.184
      -0.171
      -0.154
      -0.144
      -0.138
      -0.131
      -0.116
      -0.097
      -0.086
      -0.091
      -0.114
      -0.144
      -0.162
      -0.149
      -0.096
      -0.007
       0.103
       0.203
       0.269
       0.285
       0.252
       0.192
       0.130
       0.087
       0.069
       0.070
       0.077
       0.085
       0.087
       0.080
       0.063
       0.033
      -0.011
      -0.064
      -0.121
      -0.167
      -0.191
      -0.189
      -0.170
      -0.147
      -0.131
      -0.123
      -0.120
      -0.116
      -0.111
      -0.101
      -0.087
      -0.069
      -0.054
      -0.053
      -0.069
      -0.097
      -0.123
      -0.135
      -0.120
      -0.073
       0.000
       0.084
       0.158
       0.209
       0.235
       0.250
       0.261
       0.265
       0.246
       0.191
       0.103
      -0.005
      -0.110
      -0.198
      -0.257
      -0.284
      -0.281
      -0.255
      -0.212
      -0.153
      -0.080
       0.002
       0.077
       0.124
       0.123
       0.071
      -0.013
      -0.099
      -0.157
      -0.176
      -0.163
      -0.139
      -0.125
      -0.135
      -0.172
      -0.230
      -0.292
      -0.339
      -0.362
      -0.365
      -0.357
      -0.345
      -0.324
      -0.289
      -0.236
      -0.171
      -0.102
      -0.037
       0.017
       0.051
       0.061
       0.054
       0.050
       0.068
       0.118
       0.192
       0.272
       0.334
       0.367
       0.369
       0.348
       0.318
       0.288
       0.262
       0.239
       0.220
       0.202
       0.186
       0.179
       0.187
       0.211
       0.245
       0.273
       0.281
       0.268
       0.243
       0.220
       0.202
       0.184
       0.154
       0.105
       0.037
      -0.044
      -0.127
      -0.199
      -0.258
      -0.310
      -0.361
      -0.405
      -0.422
      -0.390
      -0.298
      -0.159
      -0.001
       0.142
       0.244
       0.292
       0.290
       0.254
       0.200
       0.140
       0.079
       0.018
      -0.043
      -0.101
      -0.147
      -0.166
      -0.146
      -0.089
      -0.016
       0.038
       0.047
       0.006
      -0.061
      -0.120
      -0.147
      -0.137
      -0.106
      -0.071
      -0.044
      -0.019
       0.015
       0.067
       0.131
       0.190
       0.226
       0.231
       0.212
       0.187
       0.176
       0.185
       0.207
       0.225
       0.229
       0.214
       0.183
       0.137
       0.078
       0.011
      -0.064
      -0.146
      -0.235
      -0.324
      -0.397
      -0.429
      -0.402
      -0.320
      -0.207
      -0.099
      -0.026
      -0.007
      -0.039
      -0.109
      -0.201
      -0.303
      -0.409
      -0.511
      -0.592
      -0.632
      -0.614
      -0.532
      -0.394
      -0.222
      -0.044
       0.113
       0.234
       0.314
       0.353
       0.353
       0.315
       0.242
       0.149
       0.055
      -0.022
      -0.066
      -0.071
      -0.031
       0.052
       0.174
       0.324
       0.486
       0.639
       0.761
       0.834
       0.855
       0.833
       0.785
       0.728
       0.665
       0.596
       0.521
       0.441
       0.359
       0.281
       0.215
       0.166
       0.126
       0.079
       0.006
      -0.097
      -0.218
      -0.337
      -0.434
      -0.504
      -0.548
      -0.574
      -0.585
      -0.588
      -0.584
      -0.568
      -0.532
      -0.467
      -0.373
      -0.263
      -0.158
      -0.082
      -0.050
      -0.058
      -0.082
      -0.098
      -0.089
      -0.058
      -0.022
       0.005
       0.020
       0.030
       0.042
       0.061
       0.083
       0.107
       0.135
       0.165
       0.197
       0.224
       0.241
       0.247
       0.247
       0.253
       0.269
       0.291
       0.304
       0.288
       0.240
       0.170
       0.098
       0.038
      -0.007
      -0.041
      -0.064
      -0.072
      -0.062
      -0.035
      -0.006
       0.002
      -0.031
      -0.112
      -0.233
      -0.378
      -0.531
      -0.687
      -0.841
      -0.982
      -1.092
      -1.155
      -1.159
      -1.103
      -0.991
      -0.835
      -0.650
      -0.460
      -0.290
      -0.161
      -0.084
      -0.052
      -0.037
      -0.001
       0.081
       0.211
       0.369
       0.525
       0.654
       0.734
       0.758
       0.729
       0.665
       0.592
       0.534
       0.508
       0.516
       0.551
       0.608
       0.685
       0.775
       0.862
       0.930
       0.965
       0.962
       0.918
       0.828
       0.692
       0.513
       0.309
       0.102
      -0.090
      -0.254
      -0.389
      -0.498
      -0.589
      -0.672
      -0.752
      -0.829
      -0.900
      -0.958
      -1.001
      -1.030
      -1.052
      -1.076
      -1.111
      -1.161
      -1.223
      -1.294
      -1.369
      -1.442
      -1.503
      -1.538
      -1.538
      -1.500
      -1.426
      -1.323
      -1.195
      -1.048
      -0.886
      -0.715
      -0.537
      -0.356
      -0.178
      -0.004
       0.172
       0.358
       0.559
       0.764
       0.961
       1.142
       1.306
       1.455
       1.589
       1.699
       1.779
       1.823
       1.822
       1.770
       1.659
       1.484
       1.246
       0.941
       0.565
       0.117
      -0.391
      -0.922
      -1.423
      -1.850
      -2.181
      -2.420
      -2.580
      -2.667
      -2.675
      -2.592
      -2.415
      -2.158
      -1.850
      -1.531
      -1.236
      -0.979
      -0.749
      -0.525
      -0.298
      -0.078
       0.108
       0.233
       0.278
       0.240
       0.132
      -0.027
      -0.218
      -0.429
      -0.647
      -0.861
      -1.050
      -1.188
      -1.245
      -1.197
      -1.029
      -0.738
      -0.338
       0.143
       0.668
       1.200
       1.711
       2.170
       2.546
       2.803
       2.915
       2.880
       2.736
       2.551
       2.397
       2.330
       2.374
       2.522
       2.747
       3.011
       3.280
       3.528
       3.745
       3.923
       4.057
       4.136
       4.160
       4.144
       4.111
       4.079
       4.056
       4.043
       4.031
       3.991
       3.870
       3.611
       3.180
       2.586
       1.876
       1.112
       0.346
      -0.396
      -1.104
      -1.777
      -2.400
      -2.945
      -3.383
      -3.696
      -3.871
      -3.900
      -3.773
      -3.484
      -3.038
      -2.455
      -1.761
      -0.987
      -0.160
       0.688
       1.525
       2.324
       3.062
       3.718
       4.271
       4.692
       4.949
       5.011
       4.861
       4.507
       3.984
       3.358
       2.706
       2.105
       1.614
       1.256
       1.013
       0.830
       0.628
       0.326
      -0.144
      -0.820
      -1.705
      -2.765
      -3.936
      -5.132
      -6.266
      -7.260
      -8.063
      -8.653
      -9.027
      -9.187
      -9.133
      -8.869
      -8.425
      -7.859
      -7.244
      -6.643
      -6.091
      -5.597
      -5.145
      -4.707
      -4.250
      -3.747
      -3.188
      -2.571
      -1.896
      -1.158
      -0.351
       0.517
       1.425
       2.345
       3.257
       4.143
       4.984
       5.745
       6.368
       6.771
       6.866
       6.595
       5.962
       5.055
       4.011
       2.975
       2.059
       1.326
       0.790
       0.424
       0.154
      -0.122
      -0.504
      -1.039
      -1.705
      -2.410
      -3.025
      -3.436
      -3.584
      -3.472
      -3.155
      -2.710
      -2.219
      -1.759
      -1.409
      -1.233
      -1.277
      -1.562
      -2.071
      -2.745
      -3.471
      -4.102
      -4.496
      -4.554
      -4.249
      -3.617
      -2.737
      -1.705
      -0.607
       0.496
       1.573
       2.607
       3.580
       4.454
       5.167
       5.649
       5.854
       5.775
       5.458
       4.976
       4.402
       3.788
       3.170
       2.580
       2.067
       1.685
       1.487
       1.497
       1.703
       2.061
       2.504
       2.949
       3.310
       3.513
       3.513
       3.312
       2.954
       2.518
       2.099
       1.783
       1.629
       1.649
       1.814
       2.057
       2.287
       2.401
       2.301
       1.913
       1.212
       0.224
      -0.978
      -2.296
      -3.625
      -4.862
      -5.910
      -6.683
      -7.110
      -7.150
      -6.809
      -6.153
      -5.297
      -4.374
      -3.493
      -2.714
      -2.058
      -1.535
      -1.168
      -0.993
      -1.051
      -1.362
      -1.904
      -2.593
      -3.281
      -3.785
      -3.945
      -3.686
      -3.022
      -2.029
      -0.796
       0.606
       2.112
       3.629
       5.035
       6.209
       7.071
       7.593
       7.779
       7.628
       7.139
       6.337
       5.279
       4.053
       2.738
       1.391
       0.043
      -1.268
      -2.485
      -3.525
      -4.304
      -4.776
      -4.948
      -4.890
      -4.712
      -4.530
      -4.439
      -4.463
      -4.553
      -4.619
      -4.600
      -4.498
      -4.346
      -4.167
      -3.955
      -3.699
      -3.385
      -2.987
      -2.467
      -1.824
      -1.127
      -0.487
       0.017
       0.388
       0.680
       0.931
       1.127
       1.243
       1.286
       1.317
       1.429
       1.707
       2.186
       2.838
       3.584
       4.334
       5.021
       5.601
       6.030
       6.242
       6.153
       5.711
       4.926
       3.898
       2.794
       1.803
       1.074
       0.676
       0.583
       0.699
       0.898
       1.072
       1.163
       1.189
       1.220
       1.340
       1.589
       1.941
       2.308
       2.572
       2.615
       2.339
       1.690
       0.673
      -0.623
      -2.025
      -3.317
      -4.305
      -4.878
      -5.025
      -4.795
      -4.271
      -3.559
      -2.797
      -2.128
      -1.659
      -1.432
      -1.436
      -1.634
      -1.960
      -2.310
      -2.551
      -2.558
      -2.255
      -1.633
      -0.745
       0.313
       1.428
       2.484
       3.369
       3.988
       4.280
       4.244
       3.933
       3.439
       2.860
       2.290
       1.810
       1.470
       1.262
       1.125
       0.990
       0.841
       0.736
       0.746
       0.867
       0.988
       0.957
       0.678
       0.165
      -0.482
      -1.144
      -1.741
      -2.254
      -2.700
      -3.097
      -3.436
      -3.695
      -3.874
      -4.006
      -4.148
      -4.341
      -4.582
      -4.828
      -5.020
      -5.121
      -5.117
      -5.022
      -4.858
      -4.639
      -4.349
      -3.944
      -3.369
      -2.594
      -1.634
      -0.549
       0.593
       1.733
       2.837
       3.882
       4.841
       5.672
       6.312
       6.681
       6.702
       6.320
       5.527
       4.370
       2.938
       1.351
      -0.256
      -1.748
      -3.010
      -3.961
      -4.553
      -4.765
      -4.596
      -4.070
      -3.243
      -2.206
      -1.073
       0.035
       1.019
       1.822
       2.436
       2.885
       3.199
       3.395
       3.473
       3.435
       3.305
       3.147
       3.051
       3.099
       3.331
       3.731
       4.256
       4.860
       5.503
       6.131
       6.659
       6.984
       7.017
       6.712
       6.080
       5.178
       4.102
       2.967
       1.887
       0.953
       0.214
      -0.322
      -0.686
      -0.930
      -1.103
      -1.244
      -1.376
      -1.517
      -1.693
      -1.934
      -2.275
      -2.746
      -3.367
      -4.132
      -4.990
      -5.846
      -6.569
      -7.036
      -7.169
      -6.951
      -6.412
      -5.607
      -4.597
      -3.452
      -2.259
      -1.122
      -0.127
       0.693
       1.359
       1.912
       2.363
       2.687
       2.869
       2.960
       3.086
       3.380
       3.892
       4.542
       5.163
       5.596
       5.763
       5.669
       5.362
       4.884
       4.266
       3.531
       2.696
       1.769
       0.777
      -0.209
      -1.073
      -1.716
      -2.124
      -2.393
      -2.658
      -3.010
      -3.438
      -3.847
      -4.119
      -4.174
      -4.008
      -3.689
      -3.330
      -3.035
      -2.864
      -2.811
      -2.822
      -2.838
      -2.829
      -2.817
      -2.843
      -2.934
      -3.058
      -3.133
      -3.067
      -2.809
      -2.374
      -1.819
      -1.185
      -0.471
       0.325
       1.146
       1.871
       2.373
       2.592
       2.554
       2.343
       2.060
       1.801
       1.656
       1.695
       1.953
       2.398
       2.925
       3.363
       3.536
       3.324
       2.728
       1.872
