Origin Time       4/2/2011 13:53:39	  UTC
Lat.              24.8 N	
Long.             94.6 E	
Depth (Km)         30.0
Magnitude         6.4
 Region           Myanmar-India-Border                                             
 Above details taken from IMD 
    
Station Code      NAU
Station Lat.       26.349  N
Station Long.      92.690  E
Station Height(m)   72.0
Site Class        C   Vs30 between 200 m/sec to 375 m/sec *  
Record Time       04.02.2011 13:53:55.784 UTC
Sampling Rate     200. Hz
 Record Duration  135.445 Sec.
 Direction         N-S (N positive)
Max. Acceleration    -26.086 cm/sec**2
     
  * For reference see Site Classification link of website 
     
 Base Line Corrected and Low Pass Filtered (Cut Off at 35 Hz) Time History
 Acceleration data in cm/sec**2
    
[...]
      -0.826
      -0.764
      -0.645
      -0.597
      -0.688
      -0.881
      -1.049
      -1.055
      -0.839
      -0.445
       0.006
       0.378
       0.564
       0.511
       0.245
      -0.130
      -0.487
      -0.751
      -0.931
      -1.095
      -1.279
      -1.436
      -1.461
      -1.283
      -0.932
      -0.523
      -0.175
       0.059
       0.214
       0.358
       0.541
       0.771
       1.032
       1.302
       1.549
       1.730
       1.808
       1.790
       1.713
       1.604
       1.432
       1.133
       0.667
       0.085
      -0.474
      -0.844
      -0.928
      -0.752
      -0.441
      -0.136
       0.079
       0.191
       0.239
       0.283
       0.367
       0.483
       0.554
       0.479
       0.202
      -0.231
      -0.688
      -1.028
      -1.190
      -1.217
      -1.200
      -1.192
      -1.163
      -1.030
      -0.739
      -0.334
       0.059
       0.317
       0.396
       0.338
       0.216
       0.096
       0.022
       0.020
       0.078
       0.131
       0.077
      -0.148
      -0.515
      -0.908
      -1.196
      -1.307
      -1.248
      -1.078
      -0.863
      -0.658
      -0.497
      -0.385
      -0.298
      -0.207
      -0.103
      -0.014
       0.013
      -0.051
      -0.205
      -0.433
      -0.707
      -0.979
      -1.170
      -1.193
      -1.008
      -0.670
      -0.308
      -0.056
       0.033
       0.007
      -0.020
       0.052
       0.244
       0.479
       0.625
       0.575
       0.324
      -0.015
      -0.269
      -0.307
      -0.109
       0.243
       0.632
       0.967
       1.185
       1.224
       1.017
       0.556
      -0.054
      -0.612
      -0.922
      -0.911
      -0.659
      -0.325
      -0.035
       0.201
       0.454
       0.777
       1.122
       1.361
       1.399
       1.252
       1.036
       0.865
       0.762
       0.661
       0.509
       0.339
       0.251
       0.305
       0.452
       0.568
       0.550
       0.393
       0.160
      -0.090
      -0.346
      -0.600
      -0.798
      -0.851
      -0.710
      -0.434
      -0.171
      -0.071
      -0.175
      -0.395
      -0.567
      -0.560
      -0.358
      -0.068
       0.147
       0.152
      -0.097
      -0.540
      -1.043
      -1.438
      -1.586
      -1.427
      -1.001
      -0.439
       0.077
       0.372
       0.338
      -0.002
      -0.478
      -0.844
      -0.927
      -0.734
      -0.445
      -0.263
      -0.262
      -0.350
      -0.357
      -0.177
       0.171
       0.581
       0.943
       1.197
       1.329
       1.357
       1.316
       1.248
       1.164
       1.027
       0.774
       0.397
      -0.016
      -0.311
      -0.383
      -0.251
      -0.045
       0.108
       0.190
       0.289
       0.505
       0.854
       1.237
       1.518
       1.606
       1.507
       1.289
       1.023
       0.747
       0.478
       0.234
       0.044
      -0.064
      -0.091
      -0.073
      -0.055
      -0.075
      -0.165
      -0.372
      -0.741
      -1.262
      -1.837
      -2.293
      -2.452
      -2.215
      -1.622
      -0.842
      -0.098
       0.437
       0.700
       0.732
       0.618
       0.433
       0.223
       0.012
      -0.188
      -0.370
      -0.518
      -0.586
      -0.515
      -0.288
       0.021
       0.270
       0.345
       0.257
       0.138
       0.149
       0.381
       0.815
       1.347
       1.857
       2.256
       2.506
       2.588
       2.479
       2.162
       1.672
       1.111
       0.602
       0.212
      -0.075
      -0.302
      -0.465
      -0.521
      -0.459
      -0.351
      -0.332
      -0.513
      -0.916
      -1.461
      -2.026
      -2.507
      -2.864
      -3.109
      -3.272
      -3.359
      -3.318
      -3.052
      -2.483
      -1.619
      -0.585
       0.414
       1.169
       1.541
       1.503
       1.136
       0.599
       0.078
      -0.296
      -0.498
      -0.600
      -0.690
      -0.800
      -0.892
      -0.903
      -0.812
      -0.655
      -0.505
      -0.435
      -0.497
      -0.736
      -1.192
      -1.872
      -2.714
      -3.583
      -4.336
      -4.887
      -5.224
      -5.352
      -5.223
      -4.758
      -3.935
      -2.860
      -1.751
      -0.852
      -0.334
      -0.251
      -0.525
      -0.977
      -1.392
      -1.570
      -1.361
      -0.688
       0.416
       1.769
       3.071
       4.005
       4.383
       4.211
       3.650
       2.921
       2.223
       1.684
       1.337
       1.137
       1.016
       0.956
       1.016
       1.282
       1.773
       2.389
       2.932
       3.189
       3.040
       2.509
       1.735
       0.869
      -0.004
      -0.859
      -1.648
      -2.247
      -2.493
      -2.305
      -1.754
      -1.033
      -0.349
       0.164
       0.471
       0.592
       0.567
       0.452
       0.321
       0.251
       0.301
       0.500
       0.862
       1.411
       2.172
       3.125
       4.147
       5.010
       5.483
       5.465
       5.041
       4.424
       3.816
       3.332
       3.001
       2.808
       2.720
       2.700
       2.695
       2.650
       2.510
       2.241
       1.819
       1.216
       0.387
      -0.700
      -2.010
      -3.392
      -4.606
      -5.411
      -5.653
      -5.303
      -4.425
      -3.143
      -1.629
      -0.129
       1.048
       1.586
       1.293
       0.199
      -1.421
      -3.131
      -4.491
      -5.191
      -5.109
      -4.287
      -2.858
      -0.998
       1.078
       3.097
       4.754
       5.787
       6.057
       5.569
       4.450
       2.920
       1.260
      -0.236
      -1.330
      -1.913
      -2.022
      -1.818
      -1.521
      -1.326
      -1.341
      -1.562
      -1.928
      -2.402
      -2.986
      -3.662
      -4.328
      -4.801
      -4.909
      -4.588
      -3.911
      -3.026
      -2.068
      -1.105
      -0.153
       0.781
       1.682
       2.529
       3.301
       3.962
       4.420
       4.524
       4.139
       3.265
       2.087
       0.907
      -0.010
      -0.530
      -0.618
      -0.257
       0.564
       1.762
       3.077
       4.126
       4.576
       4.281
       3.305
       1.843
       0.154
      -1.436
      -2.532
      -2.724
      -1.757
       0.300
       3.003
       5.658
       7.571
       8.293
       7.734
       6.103
       3.753
       1.050
      -1.644
      -3.946
      -5.473
      -5.932
      -5.208
      -3.408
      -0.859
       1.902
       4.172
       5.251
       4.721
       2.697
      -0.177
      -3.040
      -5.225
      -6.497
      -6.978
      -6.917
      -6.496
      -5.759
      -4.658
      -3.142
      -1.233
       0.907
       2.982
       4.625
       5.534
       5.620
       5.055
       4.164
       3.197
       2.166
       0.885
      -0.776
      -2.629
      -4.123
      -4.611
      -3.758
      -1.786
       0.635
       2.756
       4.119
       4.692
       4.725
       4.483
       4.057
       3.366
       2.289
       0.792
      -1.041
      -3.067
      -5.139
      -7.115
      -8.815
      -9.999
     -10.399
      -9.790
      -8.097
      -5.470
      -2.315
       0.799
       3.341
       5.014
       5.852
       6.155
       6.317
       6.627
       7.133
       7.655
       7.953
       7.924
       7.657
       7.320
       6.970
       6.462
       5.540
       4.016
       1.912
      -0.537
      -2.967
      -5.007
      -6.394
      -7.078
      -7.238
      -7.201
      -7.289
      -7.701
      -8.475
      -9.505
     -10.533
     -11.142
     -10.850
      -9.310
      -6.538
      -2.977
       0.663
       3.685
       5.627
       6.303
       5.721
       4.023
       1.507
      -1.352
      -3.968
      -5.798
      -6.475
      -5.866
      -4.080
      -1.475
       1.405
       3.987
       5.877
       6.970
       7.438
       7.629
       7.944
       8.666
       9.781
      10.902
      11.403
      10.777
       8.983
       6.534
       4.224
       2.657
       1.896
       1.453
       0.623
      -1.046
      -3.474
      -6.132
      -8.389
      -9.840
     -10.390
     -10.146
      -9.240
      -7.750
      -5.744
      -3.405
      -1.098
       0.736
       1.794
       2.058
       1.746
       1.108
       0.275
      -0.731
      -1.817
      -2.660
      -2.737
      -1.582
       0.834
       3.865
       6.310
       6.922
       5.028
       0.892
      -4.412
      -9.510
     -13.287
     -15.187
     -15.190
     -13.570
     -10.655
      -6.741
      -2.174
       2.511
       6.587
       9.352
      10.435
       9.991
       8.594
       6.915
       5.401
       4.189
       3.236
       2.488
       1.946
       1.649
       1.686
       2.239
       3.535
       5.646
       8.273
      10.742
      12.299
      12.523
      11.509
       9.695
       7.486
       5.032
       2.306
      -0.655
      -3.585
      -6.056
      -7.718
      -8.527
      -8.786
      -8.957
      -9.389
     -10.156
     -11.103
     -12.010
     -12.709
     -13.066
     -12.916
     -12.043
     -10.279
      -7.639
      -4.380
      -0.926
       2.262
       4.778
       6.328
       6.832
       6.552
       6.111
       6.261
       7.480
       9.614
      11.843
      13.032
      12.301
       9.470
       5.149
       0.419
      -3.707
      -6.719
      -8.690
      -9.954
     -10.706
     -10.869
     -10.249
      -8.724
      -6.226
      -2.673
       1.893
       7.016
      11.779
      15.226
      16.953
      17.255
      16.631
      15.150
      12.393
       8.072
       2.657
      -2.710
      -6.941
      -9.643
     -11.107
     -11.798
     -11.923
     -11.407
     -10.171
      -8.381
      -6.485
      -5.029
      -4.350
      -4.344
      -4.503
      -4.233
      -3.256
      -1.761
      -0.207
       1.082
       2.221
       3.725
       6.127
       9.500
      13.212
      16.104
      17.033
      15.452
      11.706
       6.905
       2.430
      -0.651
      -1.992
      -1.981
      -1.391
      -0.921
      -0.896
      -1.288
      -1.959
      -2.875
      -4.114
      -5.668
      -7.250
      -8.348
      -8.530
      -7.730
      -6.294
      -4.758
      -3.544
      -2.760
      -2.188
      -1.465
      -0.349
       1.148
       2.850
       4.577
       6.183
       7.460
       8.085
       7.708
       6.145
       3.482
      -0.012
      -4.059
      -8.402
     -12.594
     -15.792
     -16.859
     -14.885
      -9.821
      -2.734
       4.579
      10.415
      13.888
      15.048
      14.420
      12.438
       9.281
       5.159
       0.675
      -3.158
      -5.305
      -5.225
      -3.193
      -0.234
       2.342
       3.592
       3.365
       2.191
       0.756
      -0.586
      -1.939
      -3.641
      -5.941
      -8.807
     -11.947
     -14.931
     -17.269
     -18.425
     -17.856
     -15.201
     -10.563
      -4.700
       1.066
       5.317
       7.175
       6.715
       4.852
       2.770
       1.304
       0.665
       0.536
       0.374
      -0.256
      -1.424
      -2.739
      -3.510
      -3.133
      -1.457
       1.138
       4.030
       6.744
       9.117
      11.126
      12.621
      13.251
      12.682
      10.888
       8.230
       5.268
       2.457
      -0.032
      -2.266
      -4.332
      -6.143
      -7.401
      -7.742
      -6.942
      -5.075
      -2.559
      -0.081
       1.605
       1.981
       1.041
      -0.665
      -2.331
      -3.406
      -3.941
      -4.464
      -5.444
      -6.801
      -7.855
      -7.728
      -5.834
      -2.108
       3.046
       8.940
      14.760
      19.656
      22.796
      23.460
      21.243
      16.317
       9.532
       2.163
      -4.567
      -9.800
     -13.006
     -13.823
     -12.120
      -8.303
      -3.477
       0.839
       3.335
       3.462
       1.548
      -1.525
      -4.804
      -7.601
      -9.547
     -10.462
     -10.261
      -9.019
      -7.104
      -5.173
      -3.954
      -3.909
      -5.022
      -6.857
      -8.854
     -10.605
     -11.887
     -12.456
     -11.879
      -9.619
      -5.375
       0.609
       7.461
      13.917
      18.735
      21.116
      20.949
      18.797
      15.618
      12.339
       9.501
       7.192
       5.294
       3.771
       2.758
       2.400
       2.651
       3.254
       3.935
       4.617
       5.481
       6.800
       8.698
      11.017
      13.376
      15.355
      16.658
      17.164
      16.852
      15.664
      13.414
       9.841
       4.784
      -1.593
      -8.683
     -15.497
     -20.916
     -24.060
     -24.572
     -22.674
     -18.966
     -14.174
      -9.031
      -4.315
      -0.841
       0.750
       0.297
      -1.728
      -4.396
      -6.726
      -8.079
      -8.340
      -7.828
      -7.033
      -6.353
      -6.006
      -6.060
      -6.483
      -7.098
      -7.536
      -7.328
      -6.107
      -3.787
      -0.605
       2.977
       6.414
       9.211
      10.996
      11.547
      10.813
       9.010
       6.721
       4.825
       4.165
       5.104
       7.319
       9.996
      12.268
      13.560
      13.666
      12.651
      10.747
       8.315
       5.767
       3.444
       1.530
       0.113
      -0.713
      -0.868
      -0.470
       0.002
      -0.207
      -1.799
      -5.058
      -9.682
     -14.919
     -19.864
     -23.732
     -25.945
     -26.086
     -23.888
     -19.391
     -13.171
      -6.363
      -0.293
       4.109
       6.698
       8.011
       8.796
       9.556
      10.372
      10.999
      11.074
      10.322
       8.733
       6.641
       4.616
       3.201
       2.620
       2.708
       3.087
       3.458
       3.784
       4.274
       5.170
       6.462
       7.718
       8.224
       7.437
       5.423
       2.877
       0.605
      -1.116
      -2.708
      -4.836
      -7.778
     -11.195
     -14.427
     -16.933
     -18.465
     -18.985
     -18.517
     -17.112
     -14.884
     -12.029
      -8.812
      -5.537
      -2.505
       0.064
       2.108
       3.725
       5.095
       6.375
       7.652
       8.953
      10.258
      11.472
      12.395
      12.745
      12.265
      10.860
       8.688
       6.151
       3.771
       1.996
       0.979
       0.472
      -0.060
      -1.113
      -2.783
      -4.629
      -5.879
      -5.848
      -4.281
      -1.424
       2.172
       5.903
       9.242
      11.718
      12.834
      12.120
       9.353
       4.822
      -0.619
      -5.800
      -9.686
     -11.766
     -12.193
     -11.644
     -11.000
     -10.987
     -11.883
     -13.356
     -14.540
     -14.366
     -12.090
      -7.733
      -2.160
       3.294
       7.472
       9.880
      10.705
      10.421
       9.349
       7.575
       5.215
       2.675
       0.583
      -0.545
      -0.605
       0.072
       0.907
       1.315
       0.881
      -0.545
      -2.809
      -5.482
      -7.963
      -9.622
      -9.924
      -8.487
      -5.172
      -0.268
       5.339
      10.271
      13.152
      13.245
      10.815
       6.943
       2.923
      -0.337
      -2.532
      -3.734
      -4.036
      -3.403
      -1.823
       0.479
       3.008
       5.206
       6.726
       7.553
       7.912
       8.066
       8.152
       8.107
       7.725
       6.766
       5.089
       2.730
      -0.074
      -2.967
      -5.617
      -7.842
      -9.604
     -10.851
     -11.365
     -10.802
      -8.910
      -5.774
      -1.904
       1.880
       4.723
       6.014
       5.555
       3.545
       0.424
      -3.294
      -7.155
     -10.769
     -13.756
     -15.685
     -16.141
     -14.897
     -12.088
      -8.259
      -4.237
      -0.866
       1.273
       2.059
       1.813
       1.088
       0.383
      -0.034
      -0.108
       0.142
       0.752
       1.833
       3.490
       5.689
       8.129
      10.220
      11.286
      10.923
       9.273
       6.982
       4.830
       3.302
       2.416
       1.907
       1.572
       1.470
       1.814
       2.684
       3.861
       4.909
       5.424
       5.260
       4.572
       3.655
       2.725
       1.827
       0.944
       0.182
      -0.208
      -0.016
       0.725
       1.737
       2.721
       3.604
       4.544
       5.671
       6.816
       7.479
       7.108
       5.438
       2.621
      -0.909
      -4.672
      -8.286
     -11.459
     -13.920
     -15.402
     -15.737
     -15.024
     -13.707
     -12.461
     -11.862
     -12.052
     -12.603
     -12.670
     -11.378
      -8.228
      -3.319
       2.722
       9.019
      14.749
      19.303
      22.298
      23.543
      23.040
      20.995
      17.757
      13.659
       8.879
       3.461
      -2.475
      -8.534
     -14.049
     -18.331
     -20.931
     -21.701
     -20.670
     -17.931
     -13.688
      -8.396
      -2.804
       2.197
       5.853
       7.778
       8.008
       6.860
       4.724
       1.911
      -1.342
      -4.742
      -7.797
      -9.805
     -10.075
      -8.322
      -4.999
      -1.271
       1.465
       2.311
       1.339
      -0.530
      -2.193
      -3.071
      -3.320
      -3.425
      -3.589
      -3.454
      -2.351
       0.158
       3.919
       8.245
      12.289
      15.402
      17.275
      17.909
      17.536
      16.509
      15.169
      13.714
      12.195
      10.657
       9.295
       8.444
       8.370
       9.020
       9.943
      10.491
      10.118
       8.577
       5.918
       2.380
      -1.702
      -5.981
     -10.156
     -13.999
     -17.294
     -19.739
     -20.952
     -20.621
     -18.717
     -15.561
     -11.696
      -7.679
      -3.980
      -0.993
       0.950
       1.667
       1.242
       0.021
      -1.543
      -3.101
      -4.510
      -5.755
      -6.746
      -7.171
      -6.590
      -4.737
      -1.812
       1.500
       4.335
       6.076
       6.621
       6.376
       6.047
       6.353
       7.742
      10.153
      12.961
      15.188
      15.941
      14.809
      12.016
       8.258
       4.390
       1.105
      -1.246
      -2.689
      -3.479
      -3.858
      -3.867
      -3.405
      -2.473
      -1.373
      -0.611
      -0.619
      -1.552
      -3.302
      -5.600
      -8.054
     -10.145
     -11.317
     -11.177
      -9.704
      -7.291
      -4.609
      -2.373
      -1.129
      -1.100
      -2.112
      -3.601
      -4.752
      -4.750
      -3.105
       0.090
       4.142
       8.027
      10.846
      12.202
      12.264
      11.497
      10.258
       8.567
       6.213
       3.065
      -0.665
      -4.405
      -7.440
      -9.199
      -9.476
      -8.490
      -6.780
      -4.971
      -3.550
      -2.743
      -2.520
      -2.639
      -2.701
      -2.245
      -0.942
       1.161
       3.526
       5.297
       5.709
       4.491
       1.980
      -1.124
      -4.150
      -6.731
      -8.765
     -10.177
     -10.711
      -9.970
      -7.670
      -3.905
       0.800
       5.656
       9.869
      12.821
      14.172
      13.915
      12.376
      10.122
       7.771
       5.788
       4.371
       3.430
       2.696
       1.915
       1.013
