Origin Time       22/12/2012 16:41:44
Lat.              22.5 N	
Long.             94.8 E	
Depth (Km)        115.0
Magnitude         5.7
 Region           Myanmar                                                          
 Above details taken from IMD 
     
Station Code      NAU
Station Lat.       26.349  N
Station Long.      92.690  E
Station Height(m)   78.0
Site Class        C   Vs30 between 200 m/sec to 375 m/sec *  
Record Time       22.12.2012 16:40:53.209
Sampling Rate     200. Hz
 Record Duration   74.660 Sec.
 Direction         E-W (E positive)
Max. Acceleration     -8.868 cm/sec**2
     
  * For reference see Site Classification link of website 
     
 Base Line Corrected and Low Pass Filtered (Cut Off at 35 Hz) Time History
 Acceleration data in cm/sec**2
    
[...]
       0.006
      -0.050
      -0.083
      -0.101
      -0.114
      -0.126
      -0.134
      -0.136
      -0.136
      -0.139
      -0.147
      -0.150
      -0.137
      -0.102
      -0.053
      -0.009
       0.016
       0.016
       0.002
      -0.015
      -0.025
      -0.027
      -0.020
      -0.005
       0.021
       0.056
       0.097
       0.136
       0.165
       0.181
       0.189
       0.199
       0.220
       0.253
       0.292
       0.329
       0.350
       0.339
       0.277
       0.160
       0.006
      -0.144
      -0.249
      -0.290
      -0.275
      -0.233
      -0.185
      -0.137
      -0.083
      -0.020
       0.042
       0.082
       0.085
       0.047
      -0.017
      -0.084
      -0.140
      -0.175
      -0.185
      -0.168
      -0.117
      -0.039
       0.053
       0.129
       0.169
       0.165
       0.133
       0.103
       0.099
       0.127
       0.176
       0.228
       0.269
       0.290
       0.293
       0.279
       0.255
       0.230
       0.212
       0.210
       0.230
       0.265
       0.296
       0.296
       0.249
       0.157
       0.041
      -0.073
      -0.166
      -0.233
      -0.276
      -0.302
      -0.315
      -0.318
      -0.312
      -0.296
      -0.274
      -0.253
      -0.245
      -0.262
      -0.302
      -0.353
      -0.394
      -0.412
      -0.413
      -0.409
      -0.412
      -0.421
      -0.430
      -0.431
      -0.419
      -0.397
      -0.366
      -0.317
      -0.239
      -0.124
       0.018
       0.159
       0.268
       0.334
       0.365
       0.380
       0.398
       0.426
       0.462
       0.501
       0.538
       0.569
       0.587
       0.584
       0.555
       0.502
       0.439
       0.381
       0.339
       0.312
       0.296
       0.289
       0.293
       0.306
       0.312
       0.283
       0.198
       0.051
      -0.138
      -0.334
      -0.500
      -0.610
      -0.652
      -0.628
      -0.548
      -0.433
      -0.306
      -0.189
      -0.097
      -0.041
      -0.022
      -0.033
      -0.058
      -0.075
      -0.071
      -0.050
      -0.032
      -0.048
      -0.120
      -0.241
      -0.380
      -0.490
      -0.537
      -0.518
      -0.454
      -0.380
      -0.317
      -0.265
      -0.207
      -0.116
       0.016
       0.168
       0.295
       0.360
       0.363
       0.342
       0.351
       0.416
       0.521
       0.621
       0.674
       0.660
       0.592
       0.500
       0.414
       0.352
       0.307
       0.265
       0.221
       0.182
       0.164
       0.172
       0.188
       0.183
       0.133
       0.041
      -0.063
      -0.140
      -0.164
      -0.139
      -0.095
      -0.067
      -0.081
      -0.135
      -0.208
      -0.274
      -0.322
      -0.361
      -0.409
      -0.472
      -0.539
      -0.594
      -0.622
      -0.621
      -0.596
      -0.555
      -0.508
      -0.458
      -0.406
      -0.353
      -0.300
      -0.249
      -0.194
      -0.128
      -0.044
       0.054
       0.152
       0.228
       0.264
       0.259
       0.231
       0.205
       0.198
       0.204
       0.204
       0.179
       0.128
       0.069
       0.025
       0.004
      -0.003
      -0.005
      -0.003
       0.013
       0.050
       0.102
       0.148
       0.169
       0.158
       0.127
       0.093
       0.071
       0.058
       0.042
       0.007
      -0.053
      -0.137
      -0.235
      -0.333
      -0.412
      -0.455
      -0.452
      -0.408
      -0.350
      -0.306
      -0.294
      -0.315
      -0.358
      -0.409
      -0.465
      -0.530
      -0.603
      -0.679
      -0.747
      -0.799
      -0.834
      -0.854
      -0.862
      -0.850
      -0.804
      -0.713
      -0.574
      -0.398
      -0.204
      -0.013
       0.155
       0.287
       0.381
       0.444
       0.483
       0.496
       0.470
       0.393
       0.270
       0.126
      -0.002
      -0.090
      -0.139
      -0.165
      -0.183
      -0.200
      -0.218
      -0.247
      -0.308
      -0.410
      -0.542
      -0.673
      -0.777
      -0.846
      -0.893
      -0.935
      -0.980
      -1.013
      -1.006
      -0.938
      -0.808
      -0.640
      -0.472
      -0.337
      -0.256
      -0.227
      -0.239
      -0.277
      -0.339
      -0.441
      -0.600
      -0.815
      -1.054
      -1.271
      -1.437
      -1.551
      -1.641
      -1.737
      -1.851
      -1.973
      -2.079
      -2.146
      -2.156
      -2.102
      -1.980
      -1.789
      -1.537
      -1.231
      -0.870
      -0.446
       0.052
       0.619
       1.231
       1.841
       2.399
       2.875
       3.263
       3.568
       3.789
       3.908
       3.902
       3.757
       3.483
       3.107
       2.667
       2.209
       1.776
       1.417
       1.167
       1.049
       1.061
       1.185
       1.393
       1.654
       1.935
       2.200
       2.415
       2.569
       2.679
       2.789
       2.941
       3.151
       3.393
       3.621
       3.791
       3.884
       3.900
       3.856
       3.762
       3.624
       3.435
       3.191
       2.883
       2.495
       2.020
       1.468
       0.883
       0.333
      -0.117
      -0.423
      -0.571
      -0.561
      -0.403
      -0.113
       0.282
       0.745
       1.232
       1.710
       2.159
       2.564
       2.900
       3.127
       3.204
       3.112
       2.865
       2.500
       2.052
       1.551
       1.025
       0.510
       0.052
      -0.316
      -0.587
      -0.780
      -0.925
      -1.035
      -1.105
      -1.130
      -1.142
      -1.228
      -1.496
      -2.007
      -2.718
      -3.487
      -4.137
      -4.544
      -4.665
      -4.529
      -4.186
      -3.682
      -3.064
      -2.394
      -1.753
      -1.220
      -0.846
      -0.639
      -0.580
      -0.653
      -0.849
      -1.162
      -1.571
      -2.035
      -2.497
      -2.898
      -3.186
      -3.328
      -3.315
      -3.168
      -2.932
      -2.653
      -2.356
      -2.049
      -1.733
      -1.437
      -1.223
      -1.175
      -1.359
      -1.789
      -2.409
      -3.116
      -3.793
      -4.339
      -4.678
      -4.764
      -4.580
      -4.153
      -3.570
      -2.961
      -2.466
      -2.182
      -2.127
      -2.246
      -2.442
      -2.623
      -2.725
      -2.708
      -2.554
      -2.265
      -1.877
      -1.463
      -1.111
      -0.878
      -0.762
      -0.687
      -0.544
      -0.248
       0.211
       0.752
       1.234
       1.526
       1.574
       1.420
       1.183
       0.997
       0.953
       1.077
       1.346
       1.715
       2.146
       2.608
       3.071
       3.500
       3.846
       4.068
       4.139
       4.054
       3.819
       3.447
       2.966
       2.442
       1.986
       1.729
       1.777
       2.166
       2.852
       3.734
       4.689
       5.608
       6.398
       6.978
       7.267
       7.195
       6.734
       5.916
       4.830
       3.573
       2.204
       0.738
      -0.819
      -2.420
      -3.967
      -5.336
      -6.427
      -7.198
      -7.678
      -7.939
      -8.051
      -8.037
      -7.852
      -7.413
      -6.647
      -5.544
      -4.173
      -2.664
      -1.173
       0.151
       1.185
       1.851
       2.125
       2.052
       1.726
       1.267
       0.773
       0.275
      -0.271
      -0.945
      -1.793
      -2.769
      -3.751
      -4.590
      -5.162
      -5.373
      -5.129
      -4.342
      -2.976
      -1.109
       1.053
       3.237
       5.189
       6.753
       7.872
       8.555
       8.816
       8.660
       8.092
       7.138
       5.878
       4.465
       3.102
       1.976
       1.155
       0.561
       0.041
      -0.513
      -1.089
      -1.575
      -1.827
      -1.733
      -1.254
      -0.456
       0.473
       1.258
       1.644
       1.521
       0.968
       0.177
      -0.651
      -1.384
      -1.945
      -2.278
      -2.336
      -2.117
      -1.692
      -1.194
      -0.766
      -0.496
      -0.380
      -0.341
      -0.288
      -0.185
      -0.069
      -0.023
      -0.113
      -0.348
      -0.686
      -1.064
      -1.439
      -1.795
      -2.135
      -2.456
      -2.735
      -2.925
      -2.977
      -2.874
      -2.654
      -2.386
      -2.122
      -1.848
      -1.472
      -0.871
       0.039
       1.241
       2.606
       3.943
       5.076
       5.909
       6.434
       6.706
       6.796
       6.765
       6.648
       6.450
       6.129
       5.603
       4.790
       3.666
       2.300
       0.828
      -0.600
      -1.855
      -2.834
      -3.452
      -3.658
      -3.461
      -2.942
      -2.222
      -1.396
      -0.494
       0.508
       1.638
       2.861
       4.062
       5.067
       5.700
       5.842
       5.462
       4.599
       3.331
       1.745
      -0.047
      -1.877
      -3.506
      -4.669
      -5.179
      -5.031
      -4.427
      -3.684
      -3.057
      -2.628
      -2.325
      -2.041
      -1.741
      -1.471
      -1.294
      -1.242
      -1.302
      -1.442
      -1.642
      -1.904
      -2.251
      -2.707
      -3.271
      -3.893
      -4.472
      -4.894
      -5.081
      -5.036
      -4.837
      -4.599
      -4.407
      -4.275
      -4.139
      -3.915
      -3.558
      -3.091
      -2.590
      -2.124
      -1.713
      -1.315
      -0.850
      -0.250
       0.507
       1.376
       2.267
       3.090
       3.776
       4.285
       4.584
       4.646
       4.474
       4.136
       3.757
       3.479
       3.383
       3.443
       3.534
       3.511
       3.288
       2.890
       2.424
       2.009
       1.709
       1.534
       1.472
       1.522
       1.688
       1.952
       2.241
       2.430
       2.395
       2.073
       1.497
       0.774
       0.012
      -0.732
      -1.454
      -2.144
      -2.734
      -3.113
      -3.193
      -2.981
      -2.585
      -2.154
      -1.791
      -1.521
      -1.316
      -1.159
      -1.079
      -1.137
      -1.375
      -1.779
      -2.279
      -2.796
      -3.282
      -3.738
      -4.198
      -4.697
      -5.227
      -5.721
      -6.062
      -6.126
      -5.827
      -5.136
      -4.080
      -2.731
      -1.202
       0.350
       1.731
       2.741
       3.235
       3.188
       2.713
       2.027
       1.362
       0.888
       0.662
       0.649
       0.776
       0.981
       1.224
       1.473
       1.690
       1.846
       1.963
       2.110
       2.360
       2.723
       3.141
       3.549
       3.945
       4.387
       4.909
       5.457
       5.902
       6.113
       6.029
       5.680
       5.162
       4.591
       4.063
       3.607
       3.158
       2.567
       1.682
       0.455
      -1.009
      -2.490
      -3.769
      -4.731
      -5.379
      -5.775
      -5.961
      -5.939
      -5.699
      -5.267
      -4.720
      -4.169
      -3.725
      -3.471
      -3.441
      -3.608
      -3.875
      -4.086
      -4.065
      -3.682
      -2.912
      -1.845
      -0.624
       0.635
       1.871
       3.034
       4.005
       4.621
       4.766
       4.471
       3.891
       3.191
       2.454
       1.687
       0.900
       0.176
      -0.342
      -0.545
      -0.443
      -0.180
       0.057
       0.158
       0.180
       0.310
       0.738
       1.507
       2.457
       3.320
       3.883
       4.080
       3.956
       3.587
       3.050
       2.444
       1.890
       1.478
       1.215
       1.025
       0.826
       0.603
       0.428
       0.402
       0.573
       0.882
       1.168
       1.237
       0.954
       0.318
      -0.531
      -1.373
      -2.014
      -2.361
      -2.436
      -2.319
      -2.071
      -1.708
      -1.224
      -0.661
      -0.136
       0.185
       0.171
      -0.197
      -0.813
      -1.498
      -2.089
      -2.510
      -2.773
      -2.941
      -3.064
      -3.138
      -3.106
      -2.905
      -2.514
      -1.972
      -1.334
      -0.629
       0.146
       0.990
       1.858
       2.664
       3.308
       3.713
       3.835
       3.657
       3.185
       2.457
       1.556
       0.617
      -0.198
      -0.745
      -0.953
      -0.860
      -0.595
      -0.333
      -0.204
      -0.235
      -0.345
      -0.398
      -0.278
       0.059
       0.579
       1.199
       1.834
       2.433
       2.984
       3.483
       3.911
       4.231
       4.420
       4.494
       4.491
       4.425
       4.243
       3.829
       3.054
       1.844
       0.232
      -1.624
      -3.467
      -5.024
      -6.103
      -6.651
      -6.755
      -6.561
      -6.213
      -5.803
      -5.375
      -4.939
      -4.475
      -3.936
      -3.255
      -2.382
      -1.336
      -0.236
       0.742
       1.451
       1.863
       2.074
       2.230
       2.425
       2.649
       2.820
       2.851
       2.706
       2.397
       1.966
       1.464
       0.956
       0.525
       0.260
       0.233
       0.457
       0.880
       1.396
       1.882
       2.229
       2.375
       2.313
       2.089
       1.767
       1.386
       0.943
       0.413
      -0.210
      -0.881
      -1.513
      -2.019
      -2.357
      -2.552
      -2.681
      -2.823
      -3.022
      -3.272
      -3.537
      -3.777
      -3.961
      -4.067
      -4.082
      -4.025
      -3.959
      -3.981
      -4.194
      -4.671
      -5.432
      -6.415
      -7.466
      -8.361
      -8.868
      -8.839
      -8.292
      -7.414
      -6.476
      -5.664
      -4.972
      -4.235
      -3.277
      -2.059
      -0.700
       0.589
       1.615
       2.278
       2.602
       2.729
       2.852
       3.112
       3.521
       3.972
       4.346
       4.596
       4.758
       4.879
       4.974
       5.063
       5.208
       5.471
       5.793
       5.969
       5.768
       5.119
       4.150
       3.069
       2.024
       1.055
       0.158
      -0.636
      -1.223
      -1.477
      -1.323
      -0.782
       0.030
       0.950
       1.833
       2.595
       3.218
       3.719
       4.104
       4.334
       4.328
       4.001
       3.319
       2.336
       1.194
       0.069
      -0.883
      -1.559
      -1.908
      -1.915
      -1.582
      -0.947
      -0.089
       0.879
       1.837
       2.706
       3.456
       4.093
       4.621
       5.007
       5.195
       5.143
       4.875
       4.479
       4.042
       3.597
       3.130
       2.625
       2.095
       1.561
       1.032
       0.505
      -0.002
      -0.440
      -0.757
      -0.958
      -1.117
      -1.321
      -1.568
      -1.746
      -1.698
      -1.347
      -0.760
      -0.099
       0.471
       0.853
       1.009
       0.917
       0.555
      -0.073
      -0.909
      -1.850
      -2.795
      -3.681
      -4.473
      -5.138
      -5.641
      -5.966
      -6.144
      -6.247
      -6.341
      -6.428
      -6.427
      -6.212
      -5.691
      -4.859
      -3.806
      -2.668
      -1.582
      -0.658
       0.043
       0.509
       0.778
       0.897
       0.885
       0.744
       0.510
       0.270
       0.127
       0.122
       0.186
       0.192
       0.051
      -0.216
      -0.489
      -0.632
      -0.567
      -0.278
       0.225
       0.935
       1.809
       2.723
       3.487
       3.953
       4.123
       4.154
       4.221
       4.359
       4.448
       4.327
       3.938
       3.368
       2.787
       2.338
       2.057
       1.892
       1.769
       1.664
       1.608
       1.632
       1.713
       1.758
       1.648
       1.312
       0.779
       0.177
      -0.341
      -0.694
      -0.918
      -1.137
      -1.463
      -1.923
      -2.426
      -2.820
      -2.970
      -2.829
      -2.444
      -1.899
      -1.254
      -0.515
       0.345
       1.330
       2.387
       3.403
       4.236
       4.733
       4.750
       4.202
       3.138
       1.759
       0.340
      -0.924
      -2.015
      -3.056
      -4.171
      -5.360
      -6.487
      -7.362
      -7.852
      -7.925
      -7.622
      -6.998
      -6.069
      -4.818
      -3.249
      -1.456
       0.356
       1.919
       3.004
       3.521
       3.533
       3.192
       2.645
       1.988
       1.273
       0.535
      -0.190
      -0.852
      -1.376
      -1.666
      -1.643
      -1.300
      -0.729
      -0.090
       0.458
       0.815
       0.949
       0.883
       0.658
       0.324
      -0.074
      -0.496
      -0.904
      -1.257
      -1.510
      -1.623
      -1.579
      -1.396
      -1.130
      -0.851
      -0.620
      -0.467
      -0.388
      -0.355
      -0.334
      -0.294
      -0.204
      -0.024
       0.289
       0.751
       1.308
       1.827
       2.136
       2.108
       1.726
       1.078
       0.308
      -0.457
      -1.128
      -1.645
      -1.958
      -2.039
      -1.904
      -1.618
      -1.260
      -0.864
      -0.407
       0.164
       0.866
       1.645
       2.371
       2.893
       3.118
       3.059
       2.835
       2.588
       2.400
       2.252
       2.055
       1.725
       1.260
       0.751
       0.331
       0.102
       0.083
       0.211
       0.385
       0.520
       0.580
       0.588
       0.587
       0.607
       0.636
       0.619
       0.485
       0.181
      -0.300
      -0.901
      -1.517
      -2.022
      -2.300
      -2.277
      -1.940
      -1.337
      -0.556
       0.308
       1.190
       2.067
       2.941
       3.802
       4.586
       5.190
       5.511
       5.506
       5.194
       4.623
       3.829
       2.835
       1.686
       0.461
      -0.744
      -1.864
      -2.892
      -3.852
      -4.745
      -5.510
      -6.038
      -6.220
      -6.004
      -5.417
      -4.567
      -3.610
      -2.696
      -1.923
      -1.327
      -0.906
      -0.656
      -0.573
      -0.629
      -0.767
      -0.911
      -1.026
      -1.132
      -1.286
      -1.507
      -1.728
      -1.817
      -1.643
      -1.160
      -0.444
       0.338
       0.999
       1.424
       1.603
       1.605
       1.504
       1.327
       1.059
       0.687
       0.244
      -0.184
      -0.495
      -0.615
      -0.525
      -0.260
       0.102
       0.461
       0.729
       0.876
       0.953
       1.080
       1.374
       1.872
       2.495
       3.091
       3.522
       3.746
       3.816
       3.824
       3.815
       3.746
       3.525
       3.083
       2.428
       1.641
       0.826
       0.052
      -0.664
      -1.332
      -1.943
      -2.432
      -2.687
      -2.604
      -2.155
      -1.417
      -0.551
       0.266
       0.914
       1.351
       1.594
       1.660
       1.561
       1.322
       1.018
       0.751
       0.587
       0.505
       0.399
       0.158
      -0.254
      -0.763
      -1.238
      -1.572
      -1.746
      -1.804
      -1.782
      -1.661
      -1.385
      -0.913
      -0.264
       0.492
       1.274
       2.009
       2.619
       3.005
       3.054
       2.710
       2.027
       1.186
       0.424
      -0.068
      -0.239
      -0.195
      -0.127
      -0.182
      -0.375
      -0.580
      -0.631
      -0.430
      -0.002
       0.533
       1.033
       1.389
       1.541
