Origin Time       14/7/2012 19:55:18	
Lat.              25.5 N	
Long.             94.2 E	
Depth (Km)         35.0
Magnitude         5.5
 Region           Kohima-Nagaland                                                  
 Above details taken from IMD 
   
Station Code      NAU
Station Lat.       26.349
Station Long.      92.690
Station Height(m)   78.0
Site Class        C   Vs30 between 200 m/sec to 375 m/sec *  
Record Time       14.07.2012 19:55:52.674
Sampling Rate     200. Hz
 Record Duration   84.595 Sec.
 Direction         Vert. (Up positive)
Max. Acceleration      5.932 cm/sec**2
     
  * For reference see Site Classification link of website 
     
 Base Line Corrected and Low Pass Filtered (Cut Off at 35 Hz) Time History
 Acceleration data in cm/sec**2
    
[...]
      -0.237
      -0.673
      -1.064
      -1.410
      -1.718
      -1.970
      -2.129
      -2.165
      -2.068
      -1.836
      -1.455
      -0.923
      -0.296
       0.278
       0.616
       0.623
       0.370
       0.030
      -0.257
      -0.458
      -0.589
      -0.632
      -0.528
      -0.253
       0.137
       0.534
       0.840
       1.008
       1.051
       1.018
       0.958
       0.868
       0.687
       0.364
      -0.069
      -0.486
      -0.733
      -0.721
      -0.457
      -0.015
       0.527
       1.110
       1.681
       2.165
       2.446
       2.411
       2.008
       1.280
       0.351
      -0.629
      -1.538
      -2.288
      -2.814
      -3.060
      -2.995
      -2.638
      -2.081
      -1.480
      -1.004
      -0.757
      -0.739
      -0.880
      -1.102
      -1.348
      -1.566
      -1.678
      -1.581
      -1.186
      -0.466
       0.503
       1.574
       2.594
       3.464
       4.124
       4.505
       4.524
       4.137
       3.408
       2.499
       1.569
       0.681
      -0.199
      -1.118
      -2.052
      -2.885
      -3.471
      -3.703
      -3.553
      -3.069
      -2.355
      -1.530
      -0.695
       0.078
       0.718
       1.137
       1.250
       1.020
       0.491
      -0.230
      -1.005
      -1.698
      -2.171
      -2.295
      -1.973
      -1.192
      -0.060
       1.210
       2.373
       3.229
       3.661
       3.638
       3.209
       2.472
       1.533
       0.464
      -0.676
      -1.771
      -2.634
      -3.060
      -2.923
      -2.222
      -1.086
       0.273
       1.616
       2.731
       3.484
       3.842
       3.849
       3.573
       3.047
       2.269
       1.250
       0.059
      -1.185
      -2.357
      -3.348
      -4.058
      -4.391
      -4.292
      -3.778
      -2.938
      -1.883
      -0.725
       0.409
       1.374
       2.041
       2.347
       2.280
       1.850
       1.076
       0.035
      -1.102
      -2.102
      -2.753
      -2.922
      -2.557
      -1.674
      -0.374
       1.123
       2.513
       3.510
       3.957
       3.839
       3.236
       2.280
       1.161
       0.109
      -0.688
      -1.175
      -1.421
      -1.515
      -1.459
      -1.177
      -0.636
       0.066
       0.737
       1.215
       1.434
       1.384
       1.057
       0.462
      -0.324
      -1.150
      -1.879
      -2.478
      -3.016
      -3.566
      -4.092
      -4.416
      -4.324
      -3.713
      -2.691
      -1.526
      -0.500
       0.246
       0.762
       1.197
       1.664
       2.163
       2.591
       2.832
       2.809
       2.515
       1.991
       1.327
       0.665
       0.188
       0.054
       0.310
       0.836
       1.397
       1.781
       1.903
       1.812
       1.589
       1.276
       0.886
       0.457
       0.070
      -0.190
      -0.281
      -0.217
      -0.042
       0.201
       0.477
       0.748
       0.941
       0.958
       0.739
       0.327
      -0.130
      -0.467
      -0.620
      -0.663
      -0.738
      -0.932
      -1.210
      -1.473
      -1.664
      -1.809
      -1.961
      -2.114
      -2.192
      -2.120
      -1.885
      -1.530
      -1.094
      -0.576
       0.024
       0.656
       1.205
       1.557
       1.685
       1.665
       1.598
       1.520
       1.395
       1.185
       0.919
       0.666
       0.476
       0.330
       0.158
      -0.095
      -0.416
      -0.715
      -0.875
      -0.830
      -0.604
      -0.293
      -0.001
       0.201
       0.281
       0.230
       0.065
      -0.177
      -0.475
      -0.825
      -1.199
      -1.499
      -1.592
      -1.408
      -0.981
      -0.393
       0.300
       1.069
       1.851
       2.519
       2.923
       2.969
       2.652
       2.040
       1.222
       0.275
      -0.730
      -1.715
      -2.585
      -3.239
      -3.591
      -3.583
      -3.222
      -2.609
      -1.912
      -1.276
      -0.745
      -0.291
       0.081
       0.294
       0.276
       0.051
      -0.248
      -0.476
      -0.550
      -0.444
      -0.135
       0.412
       1.197
       2.132
       3.042
       3.726
       4.045
       3.988
       3.655
       3.169
       2.576
       1.819
       0.814
      -0.430
      -1.763
      -2.950
      -3.775
      -4.100
      -3.856
      -3.037
      -1.712
      -0.059
       1.656
       3.129
       4.095
       4.384
       3.956
       2.900
       1.403
      -0.304
      -1.989
      -3.445
      -4.488
      -4.973
      -4.828
      -4.095
      -2.935
      -1.583
      -0.283
       0.775
       1.495
       1.883
       2.022
       1.999
       1.845
       1.533
       1.037
       0.395
      -0.284
      -0.880
      -1.317
      -1.573
      -1.652
      -1.569
      -1.344
      -1.007
      -0.596
      -0.150
       0.300
       0.746
       1.214
       1.747
       2.340
       2.899
       3.262
       3.297
       2.983
       2.422
       1.765
       1.122
       0.534
       0.004
      -0.451
      -0.793
      -1.017
      -1.182
      -1.377
      -1.648
      -1.951
      -2.196
      -2.310
      -2.298
      -2.222
      -2.134
      -2.015
      -1.790
      -1.393
      -0.844
      -0.239
       0.314
       0.784
       1.226
       1.710
       2.227
       2.677
       2.929
       2.899
       2.565
       1.959
       1.163
       0.314
      -0.438
      -0.985
      -1.299
      -1.423
      -1.442
      -1.437
      -1.445
      -1.409
      -1.211
      -0.762
      -0.107
       0.575
       1.076
       1.263
       1.119
       0.704
       0.124
      -0.484
      -0.971
      -1.234
      -1.254
      -1.088
      -0.814
      -0.489
      -0.150
       0.155
       0.382
       0.537
       0.672
       0.820
       0.946
       0.982
       0.919
       0.854
       0.930
       1.206
       1.588
       1.886
       1.954
       1.803
       1.562
       1.369
       1.271
       1.224
       1.161
       1.049
       0.888
       0.673
       0.360
      -0.136
      -0.870
      -1.794
      -2.744
      -3.526
      -4.024
      -4.230
      -4.186
      -3.909
      -3.388
      -2.634
      -1.735
      -0.833
      -0.062
       0.519
       0.915
       1.139
       1.164
       0.951
       0.528
       0.025
      -0.368
      -0.513
      -0.404
      -0.133
       0.209
       0.607
       1.083
       1.625
       2.137
       2.494
       2.604
       2.459
       2.133
       1.740
       1.383
       1.103
       0.873
       0.657
       0.464
       0.362
       0.426
       0.683
       1.062
       1.414
       1.576
       1.464
       1.104
       0.595
       0.034
      -0.536
      -1.109
      -1.672
      -2.185
      -2.597
      -2.872
      -2.977
      -2.853
      -2.431
      -1.694
      -0.731
       0.281
       1.147
       1.723
       1.939
       1.777
       1.263
       0.472
      -0.454
      -1.316
      -1.932
      -2.220
      -2.216
      -2.006
      -1.640
      -1.114
      -0.433
       0.332
       1.044
       1.567
       1.835
       1.859
       1.674
       1.289
       0.687
      -0.096
      -0.920
      -1.589
      -1.958
      -1.996
      -1.749
      -1.258
      -0.549
       0.324
       1.250
       2.075
       2.643
       2.841
       2.638
       2.110
       1.403
       0.659
      -0.035
      -0.642
      -1.147
      -1.543
      -1.797
      -1.837
      -1.577
      -0.992
      -0.167
       0.739
       1.570
       2.213
       2.595
       2.681
       2.481
       2.040
       1.411
       0.653
      -0.163
      -0.950
      -1.609
      -2.039
      -2.163
      -1.983
      -1.599
      -1.152
      -0.728
      -0.344
      -0.024
       0.145
       0.082
      -0.196
      -0.569
      -0.931
      -1.283
      -1.686
      -2.145
      -2.531
      -2.645
      -2.351
      -1.680
      -0.800
       0.079
       0.805
       1.292
       1.497
       1.401
       1.045
       0.541
       0.046
      -0.315
      -0.498
      -0.545
      -0.545
      -0.549
      -0.518
      -0.347
       0.032
       0.580
       1.177
       1.702
       2.083
       2.280
       2.275
       2.085
       1.779
       1.433
       1.074
       0.678
       0.242
      -0.156
      -0.376
      -0.309
       0.033
       0.531
       1.038
       1.465
       1.776
       1.920
       1.799
       1.335
       0.558
      -0.387
      -1.338
      -2.204
      -2.955
      -3.541
      -3.859
      -3.804
      -3.347
      -2.554
      -1.555
      -0.506
       0.432
       1.122
       1.479
       1.498
       1.243
       0.802
       0.253
      -0.335
      -0.885
      -1.313
      -1.548
      -1.542
      -1.266
      -0.722
       0.026
       0.847
       1.605
       2.230
       2.716
       3.053
       3.183
       3.028
       2.558
       1.826
       0.954
       0.104
      -0.576
      -0.999
      -1.174
      -1.198
      -1.184
      -1.185
      -1.173
      -1.100
      -0.966
      -0.835
      -0.771
      -0.792
      -0.878
      -1.008
      -1.159
      -1.290
      -1.332
      -1.216
      -0.901
      -0.406
       0.180
       0.732
       1.160
       1.456
       1.650
       1.740
       1.679
       1.416
       0.950
       0.339
      -0.324
      -0.924
      -1.359
      -1.581
      -1.613
      -1.515
      -1.340
      -1.111
      -0.827
      -0.471
      -0.025
       0.484
       0.963
       1.287
       1.378
       1.261
       1.017
       0.712
       0.353
      -0.057
      -0.470
      -0.795
      -0.972
      -1.010
      -0.950
      -0.801
      -0.534
      -0.150
       0.262
       0.572
       0.696
       0.649
       0.519
       0.399
       0.343
       0.356
       0.400
       0.432
       0.444
       0.460
       0.505
       0.568
       0.619
       0.640
       0.646
       0.646
       0.621
       0.535
       0.368
       0.128
      -0.151
      -0.421
      -0.626
      -0.718
      -0.685
      -0.555
      -0.378
      -0.186
       0.030
       0.291
       0.573
       0.789
       0.839
       0.692
       0.398
       0.041
      -0.302
      -0.570
      -0.707
      -0.683
      -0.531
      -0.333
      -0.153
      -0.005
       0.121
       0.199
       0.172
       0.009
      -0.266
      -0.581
      -0.861
      -1.047
      -1.108
      -1.041
      -0.853
      -0.553
      -0.154
       0.306
       0.755
       1.115
       1.348
       1.465
       1.510
       1.511
       1.462
       1.338
       1.136
       0.896
       0.685
       0.550
       0.485
       0.426
       0.302
       0.082
      -0.188
      -0.409
      -0.496
      -0.429
      -0.256
      -0.045
       0.161
       0.343
       0.492
       0.596
       0.635
       0.584
       0.395
       0.010
      -0.601
      -1.386
      -2.213
      -2.910
      -3.332
      -3.407
      -3.140
      -2.590
      -1.838
      -0.969
      -0.088
       0.673
       1.200
       1.449
       1.451
       1.267
       0.942
       0.512
       0.032
      -0.425
      -0.793
      -1.041
      -1.168
      -1.188
      -1.107
      -0.917
      -0.606
      -0.195
       0.248
       0.633
       0.898
       1.050
       1.155
       1.283
       1.456
       1.643
       1.783
       1.838
       1.791
       1.626
       1.322
       0.880
       0.361
      -0.128
      -0.497
      -0.718
      -0.815
      -0.826
      -0.784
      -0.723
      -0.673
      -0.649
      -0.645
      -0.656
      -0.696
      -0.802
      -0.999
      -1.274
      -1.562
      -1.771
      -1.828
      -1.707
      -1.430
      -1.030
      -0.516
       0.120
       0.847
       1.553
       2.064
       2.248
       2.098
       1.733
       1.307
       0.936
       0.670
       0.526
       0.490
       0.499
       0.440
       0.213
      -0.187
      -0.655
      -1.033
      -1.184
      -1.027
      -0.563
       0.120
       0.859
       1.486
       1.908
       2.128
       2.174
       2.038
       1.679
       1.078
       0.289
      -0.569
      -1.372
      -2.033
      -2.515
      -2.807
      -2.901
      -2.785
      -2.453
      -1.909
      -1.173
      -0.274
       0.734
       1.760
       2.668
       3.310
       3.571
       3.417
       2.895
       2.110
       1.185
       0.229
      -0.671
      -1.443
      -2.023
      -2.367
      -2.464
      -2.335
      -2.018
      -1.549
      -0.956
      -0.288
       0.374
       0.942
       1.378
       1.713
       1.986
       2.160
       2.125
       1.790
       1.185
       0.456
      -0.226
      -0.782
      -1.244
      -1.674
      -2.058
      -2.285
      -2.232
      -1.889
      -1.393
      -0.954
      -0.710
      -0.644
      -0.624
      -0.525
      -0.322
      -0.085
       0.095
       0.169
       0.138
       0.041
      -0.075
      -0.156
      -0.160
      -0.070
       0.098
       0.297
       0.476
       0.606
       0.690
       0.736
       0.738
       0.689
       0.617
       0.588
       0.647
       0.777
       0.919
       1.055
       1.241
       1.547
       1.966
       2.382
       2.640
       2.636
       2.343
       1.777
       0.959
      -0.088
      -1.312
      -2.610
      -3.832
      -4.817
      -5.452
      -5.686
      -5.505
      -4.886
      -3.825
      -2.374
      -0.667
       1.112
       2.785
       4.203
       5.248
       5.835
       5.932
       5.575
       4.860
       3.909
       2.822
       1.652
       0.433
      -0.771
      -1.846
      -2.667
      -3.171
      -3.381
      -3.385
      -3.266
      -3.049
      -2.708
      -2.236
      -1.712
      -1.267
      -0.979
      -0.803
      -0.627
      -0.379
      -0.082
       0.215
       0.528
       0.940
       1.513
       2.213
       2.910
       3.451
       3.733
       3.723
       3.413
       2.776
       1.776
       0.431
      -1.130
      -2.696
      -4.058
      -5.062
      -5.619
      -5.684
      -5.258
      -4.413
      -3.279
      -2.014
      -0.745
       0.457
       1.548
       2.444
       3.023
       3.199
       3.029
       2.710
       2.464
       2.399
       2.474
       2.578
       2.626
       2.599
       2.507
       2.326
       1.978
       1.385
       0.543
      -0.452
      -1.463
      -2.398
      -3.224
      -3.901
      -4.326
      -4.368
      -3.968
      -3.202
      -2.241
      -1.262
      -0.379
       0.346
       0.864
       1.130
       1.134
       0.928
       0.610
       0.276
      -0.010
      -0.209
      -0.286
      -0.219
      -0.014
       0.278
       0.605
       0.952
       1.338
       1.748
       2.087
       2.231
       2.136
       1.867
       1.524
       1.137
       0.667
       0.093
      -0.509
      -0.987
      -1.214
      -1.168
      -0.931
      -0.607
      -0.247
       0.143
       0.536
       0.837
       0.935
       0.790
       0.477
       0.117
      -0.214
      -0.529
      -0.877
      -1.283
      -1.710
      -2.098
      -2.412
      -2.652
      -2.815
      -2.845
      -2.657
      -2.214
      -1.572
      -0.838
      -0.093
       0.626
       1.280
       1.795
       2.096
       2.175
       2.113
       2.025
       1.982
       1.978
       1.967
       1.911
       1.803
       1.649
       1.460
       1.245
       1.019
       0.795
       0.582
       0.385
       0.228
       0.147
       0.159
       0.225
       0.251
       0.134
      -0.188
      -0.704
      -1.333
      -1.950
      -2.417
      -2.623
      -2.530
      -2.202
      -1.772
      -1.356
      -0.971
      -0.549
      -0.018
       0.605
       1.220
       1.708
       1.984
       2.012
       1.777
       1.292
       0.615
      -0.138
      -0.825
      -1.337
      -1.647
      -1.815
      -1.934
      -2.063
      -2.165
      -2.137
      -1.900
      -1.484
      -1.009
      -0.588
      -0.238
       0.101
       0.488
       0.930
       1.380
       1.778
       2.080
       2.270
       2.358
       2.378
       2.369
       2.347
       2.280
       2.103
       1.766
       1.277
       0.705
       0.145
      -0.330
      -0.696
      -0.986
      -1.263
      -1.567
      -1.893
      -2.207
      -2.476
      -2.676
      -2.786
      -2.797
      -2.717
      -2.556
      -2.289
      -1.844
      -1.143
      -0.178
       0.946
       2.051
       2.985
       3.692
       4.191
       4.490
       4.542
       4.289
       3.738
       2.994
       2.198
       1.444
       0.757
       0.132
      -0.409
      -0.824
      -1.105
      -1.309
      -1.526
      -1.814
      -2.149
      -2.446
      -2.627
      -2.665
      -2.576
      -2.364
      -2.014
      -1.513
      -0.906
      -0.284
       0.260
       0.683
       1.001
       1.252
       1.459
       1.618
       1.713
       1.717
       1.588
       1.280
       0.790
       0.198
      -0.344
      -0.689
      -0.772
      -0.642
      -0.406
      -0.137
       0.158
       0.498
       0.867
       1.195
       1.397
       1.420
       1.248
       0.878
       0.309
      -0.436
      -1.285
      -2.114
      -2.777
      -3.135
      -3.109
      -2.715
      -2.063
      -1.298
      -0.533
       0.155
       0.703
       1.071
       1.274
       1.392
       1.509
       1.642
       1.747
       1.778
       1.739
       1.654
       1.528
       1.332
       1.041
       0.667
       0.270
      -0.070
      -0.301
      -0.431
      -0.523
      -0.661
      -0.908
      -1.274
      -1.688
      -2.008
      -2.082
      -1.850
      -1.388
      -0.845
      -0.343
       0.054
       0.311
       0.382
       0.239
      -0.075
      -0.463
      -0.835
      -1.159
      -1.444
      -1.687
      -1.838
      -1.817
      -1.549
      -1.010
      -0.245
       0.660
       1.624
       2.584
       3.461
       4.143
       4.510
       4.515
       4.221
       3.758
       3.238
       2.695
       2.089
       1.367
       0.497
      -0.514
      -1.616
      -2.728
      -3.743
      -4.541
      -5.006
      -5.067
      -4.743
      -4.142
      -3.394
      -2.569
      -1.679
      -0.740
       0.176
       0.971
       1.591
       2.043
       2.345
       2.478
       2.404
       2.126
       1.707
       1.231
       0.754
       0.310
      -0.062
      -0.308
      -0.383
      -0.273
      -0.001
       0.374
       0.755
       1.028
       1.098
       0.930
       0.549
       0.024
      -0.574
      -1.192
      -1.798
      -2.343
      -2.750
      -2.943
      -2.904
      -2.688
      -2.360
      -1.935
      -1.379
      -0.681
       0.105
       0.881
       1.566
       2.111
       2.490
       2.683
       2.682
       2.506
       2.208
       1.851
       1.470
       1.050
       0.559
       0.008
      -0.519
      -0.918
      -1.141
      -1.218
      -1.213
      -1.173
      -1.126
      -1.124
      -1.249
      -1.574
      -2.091
      -2.676
      -3.135
      -3.303
      -3.119
      -2.613
      -1.840
      -0.847
       0.297
       1.464
       2.490
       3.255
       3.743
       4.022
       4.160
       4.174
       4.049
       3.796
       3.472
