Origin Time       06/11/2013 04:16:16
Lat.              26.5 N	
Long.             93.5 E	
Depth (Km)         20.0
Magnitude         5.5
 Region           Karbi-Assam                                                      
 Above details taken from IMD 
   
Station Code      NAU
Station Lat.       26.349
Station Long.      92.690
Station Height(m)   72.0
Site Class        C   Vs30 between 200 m/sec to 375 m/sec *  
Record Time       06.11.2013 04:16:06.764
Sampling Rate     200. Hz
 Record Duration  120.205 Sec.
 Direction         Vert. (Up positive)
Max. Acceleration    -21.523 cm/sec**2
     
  * For reference see Site Classification link of website 
     
 Base Line Corrected and Low Pass Filtered (Cut Off at 35 Hz) Time History
 Acceleration data in cm/sec**2
    
[...]
      -0.479
      -0.290
      -0.462
      -0.982
      -1.406
      -1.228
      -0.300
       1.075
       2.382
       3.171
       3.209
       2.530
       1.403
       0.182
      -0.909
      -1.863
      -2.758
      -3.549
      -4.030
      -4.028
      -3.607
      -3.006
      -2.354
      -1.525
      -0.339
       1.128
       2.515
       3.473
       3.915
       3.936
       3.574
       2.763
       1.540
       0.199
      -0.883
      -1.558
      -1.997
      -2.425
      -2.826
      -2.947
      -2.580
      -1.791
      -0.855
      -0.007
       0.702
       1.335
       1.936
       2.492
       2.974
       3.331
       3.459
       3.220
       2.547
       1.516
       0.298
      -0.948
      -2.097
      -3.001
      -3.466
      -3.349
      -2.680
      -1.672
      -0.589
       0.365
       1.053
       1.364
       1.245
       0.779
       0.190
      -0.284
      -0.532
      -0.572
      -0.457
      -0.222
       0.058
       0.216
       0.068
      -0.425
      -1.078
      -1.583
      -1.720
      -1.502
      -1.114
      -0.730
      -0.374
       0.052
       0.610
       1.209
       1.629
       1.675
       1.329
       0.777
       0.290
       0.055
       0.082
       0.253
       0.411
       0.446
       0.351
       0.257
       0.389
       0.888
       1.597
       2.086
       1.955
       1.193
       0.177
      -0.695
      -1.367
      -2.075
      -2.945
      -3.695
      -3.830
      -3.114
      -1.813
      -0.464
       0.573
       1.290
       1.834
       2.250
       2.476
       2.514
       2.477
       2.443
       2.322
       1.927
       1.162
       0.131
      -0.954
      -1.917
      -2.662
      -3.116
      -3.176
      -2.748
      -1.817
      -0.490
       0.991
       2.289
       3.071
       3.160
       2.634
       1.746
       0.731
      -0.321
      -1.412
      -2.483
      -3.342
      -3.747
      -3.553
      -2.774
      -1.562
      -0.141
       1.235
       2.359
       3.134
       3.569
       3.682
       3.412
       2.691
       1.615
       0.472
      -0.472
      -1.250
      -2.149
      -3.340
      -4.556
      -5.194
      -4.776
      -3.324
      -1.322
       0.640
       2.184
       3.173
       3.559
       3.349
       2.709
       1.965
       1.365
       0.857
       0.185
      -0.748
      -1.652
      -2.004
      -1.478
      -0.267
       1.023
       1.814
       1.917
       1.528
       0.958
       0.374
      -0.254
      -0.998
      -1.782
      -2.348
      -2.419
      -1.914
      -1.032
      -0.134
       0.486
       0.771
       0.859
       0.880
       0.800
       0.490
      -0.083
      -0.762
      -1.310
      -1.617
      -1.783
      -1.995
      -2.290
      -2.452
      -2.171
      -1.319
      -0.080
       1.194
       2.224
       2.924
       3.315
       3.413
       3.205
       2.716
       2.027
       1.198
       0.193
      -1.057
      -2.456
      -3.630
      -4.094
      -3.590
      -2.288
      -0.638
       0.960
       2.330
       3.414
       4.114
       4.309
       3.997
       3.341
       2.525
       1.577
       0.373
      -1.150
      -2.761
      -3.946
      -4.201
      -3.399
      -1.906
      -0.355
       0.723
       1.131
       1.009
       0.685
       0.486
       0.569
       0.841
       1.042
       0.956
       0.575
       0.058
      -0.465
      -0.991
      -1.565
      -2.126
      -2.506
      -2.554
      -2.240
      -1.616
      -0.707
       0.511
       2.001
       3.534
       4.715
       5.152
       4.667
       3.389
       1.716
       0.129
      -1.046
      -1.822
      -2.497
      -3.367
      -4.404
      -5.203
      -5.272
      -4.395
      -2.739
      -0.665
       1.461
       3.261
       4.337
       4.476
       3.903
       3.185
       2.739
       2.443
       1.768
       0.324
      -1.745
      -3.861
      -5.449
      -6.255
      -6.317
      -5.744
      -4.597
      -2.963
      -1.032
       0.972
       2.910
       4.731
       6.345
       7.528
       7.980
       7.497
       6.086
       3.971
       1.525
      -0.813
      -2.660
      -3.810
      -4.258
      -4.109
      -3.501
      -2.612
      -1.698
      -0.992
      -0.547
      -0.208
       0.193
       0.632
       0.878
       0.709
       0.122
      -0.650
      -1.306
      -1.620
      -1.483
      -0.946
      -0.266
       0.190
       0.231
       0.075
       0.197
       0.843
       1.680
       2.022
       1.478
       0.379
      -0.517
      -0.782
      -0.723
      -0.986
      -1.812
      -2.753
      -3.115
      -2.569
      -1.312
       0.246
       1.812
       3.239
       4.354
       4.898
       4.661
       3.627
       1.969
      -0.047
      -2.123
      -3.910
      -5.062
      -5.391
      -4.960
      -3.966
      -2.534
      -0.705
       1.365
       3.275
       4.563
       5.036
       4.878
       4.430
       3.877
       3.169
       2.196
       0.965
      -0.393
      -1.711
      -2.815
      -3.501
      -3.600
      -3.096
      -2.193
      -1.230
      -0.504
      -0.098
       0.139
       0.412
       0.761
       1.043
       1.128
       1.047
       0.924
       0.796
       0.536
      -0.022
      -0.868
      -1.713
      -2.143
      -1.944
      -1.295
      -0.617
      -0.234
      -0.168
      -0.230
      -0.248
      -0.190
      -0.130
      -0.139
      -0.211
      -0.255
      -0.156
       0.151
       0.607
       1.018
       1.124
       0.761
       0.023
      -0.756
      -1.214
      -1.235
      -1.048
      -1.067
      -1.557
      -2.384
      -3.063
      -3.096
      -2.302
      -0.867
       0.868
       2.622
       4.194
       5.343
       5.747
       5.183
       3.806
       2.165
       0.830
      -0.039
      -0.717
      -1.507
      -2.350
      -2.831
      -2.544
      -1.442
       0.126
       1.661
       2.824
       3.526
       3.763
       3.414
       2.285
       0.378
      -1.902
      -3.864
      -4.917
      -4.899
      -4.083
      -2.887
      -1.584
      -0.276
       0.947
       1.932
       2.551
       2.774
       2.651
       2.247
       1.625
       0.859
       0.016
      -0.873
      -1.832
      -2.878
      -3.901
      -4.608
      -4.654
      -3.887
      -2.475
      -0.826
       0.617
       1.544
       1.878
       1.776
       1.511
       1.287
       1.104
       0.831
       0.422
       0.047
      -0.049
       0.168
       0.464
       0.596
       0.556
       0.475
       0.371
       0.134
      -0.214
      -0.370
       0.006
       0.881
       1.775
       2.111
       1.653
       0.612
      -0.581
      -1.527
      -1.979
      -1.884
      -1.410
      -0.876
      -0.564
      -0.557
      -0.747
      -0.942
      -0.975
      -0.743
      -0.234
       0.431
       0.975
       1.083
       0.664
       0.019
      -0.344
      -0.135
       0.463
       0.998
       1.161
       0.991
       0.685
       0.305
      -0.255
      -1.020
      -1.761
      -2.133
      -1.982
      -1.433
      -0.714
       0.027
       0.730
       1.348
       1.846
       2.243
       2.579
       2.828
       2.847
       2.473
       1.672
       0.620
      -0.363
      -0.994
      -1.208
      -1.176
      -1.119
      -1.033
      -0.637
       0.354
       1.849
       3.270
       3.866
       3.185
       1.373
      -0.904
      -2.882
      -4.161
      -4.819
      -5.112
      -5.106
      -4.649
      -3.604
      -2.017
      -0.054
       2.123
       4.326
       6.236
       7.383
       7.370
       6.170
       4.229
       2.217
       0.621
      -0.465
      -1.242
      -1.918
      -2.526
      -2.949
      -3.073
      -2.916
      -2.582
      -2.119
      -1.474
      -0.608
       0.366
       1.213
       1.794
       2.222
       2.749
       3.418
       3.806
       3.213
       1.270
      -1.601
      -4.378
      -6.163
      -6.728
      -6.416
      -5.621
      -4.416
      -2.640
      -0.247
       2.460
       4.917
       6.603
       7.297
       7.091
       6.215
       4.835
       3.000
       0.743
      -1.751
      -4.067
      -5.673
      -6.200
      -5.728
      -4.756
      -3.834
      -3.149
      -2.452
      -1.355
       0.281
       2.185
       3.793
       4.563
       4.284
       3.231
       1.991
       1.057
       0.491
      -0.018
      -0.763
      -1.701
      -2.511
      -2.919
      -2.884
      -2.474
      -1.665
      -0.395
       1.172
       2.518
       3.056
       2.582
       1.444
       0.213
      -0.790
      -1.635
      -2.511
      -3.406
      -4.059
      -4.164
      -3.550
      -2.211
      -0.294
       1.883
       3.870
       5.260
       5.877
       5.733
       4.819
       3.042
       0.419
      -2.699
      -5.701
      -7.996
      -9.208
      -9.180
      -7.918
      -5.627
      -2.747
       0.179
       2.752
       4.866
       6.546
       7.688
       8.025
       7.391
       5.941
       3.997
       1.711
      -0.995
      -4.098
      -7.147
      -9.381
     -10.206
      -9.520
      -7.607
      -4.825
      -1.497
       1.949
       4.925
       6.909
       7.758
       7.786
       7.489
       7.102
       6.392
       4.864
       2.229
      -1.258
      -4.861
      -7.768
      -9.511
     -10.091
      -9.726
      -8.513
      -6.359
      -3.237
       0.539
       4.295
       7.252
       8.855
       8.941
       7.695
       5.492
       2.765
      -0.057
      -2.567
      -4.404
      -5.271
      -4.954
      -3.383
      -0.745
       2.420
       5.310
       7.148
       7.501
       6.370
       4.064
       1.015
      -2.354
      -5.653
      -8.446
     -10.183
     -10.308
      -8.605
      -5.464
      -1.732
       1.786
       4.703
       6.958
       8.468
       9.045
       8.675
       7.742
       6.765
       5.908
       4.824
       3.092
       0.753
      -1.670
      -3.723
      -5.453
      -7.203
      -9.000
     -10.294
     -10.379
      -8.981
      -6.401
      -3.189
       0.193
       3.401
       6.095
       7.964
       8.874
       8.883
       8.025
       6.159
       3.162
      -0.698
      -4.671
      -7.932
     -10.096
     -11.288
     -11.724
     -11.301
      -9.673
      -6.671
      -2.588
       1.915
       6.134
       9.574
      12.008
      13.408
      13.852
      13.476
      12.410
      10.691
       8.228
       4.933
       0.914
      -3.437
      -7.540
     -10.810
     -12.815
     -13.335
     -12.276
      -9.591
      -5.368
      -0.079
       5.332
       9.760
      12.441
      13.169
      12.073
       9.261
       4.802
      -0.904
      -6.825
     -11.523
     -13.844
     -13.491
     -11.002
      -7.267
      -3.034
       1.237
       5.178
       8.249
       9.751
       9.204
       6.734
       3.090
      -0.749
      -4.020
      -6.361
      -7.662
      -7.813
      -6.637
      -4.145
      -0.841
       2.392
       4.858
       6.491
       7.685
       8.661
       9.081
       8.285
       5.920
       2.359
      -1.502
      -4.874
      -7.552
      -9.767
     -11.575
     -12.445
     -11.568
      -8.603
      -4.102
       0.836
       5.312
       9.043
      12.136
      14.518
      15.649
      14.837
      11.890
       7.429
       2.507
      -2.060
      -5.941
      -8.959
     -10.735
     -10.778
      -8.905
      -5.519
      -1.489
       2.242
       4.998
       6.467
       6.538
       5.174
       2.518
      -0.924
      -4.341
      -6.935
      -8.231
      -8.158
      -6.940
      -4.895
      -2.275
       0.692
       3.641
       6.017
       7.248
       6.968
       5.119
       2.004
      -1.675
      -4.956
      -7.013
      -7.609
      -7.180
      -6.398
      -5.522
      -4.137
      -1.585
       2.273
       6.780
      10.924
      13.955
      15.483
      15.174
      12.728
       8.300
       2.765
      -2.728
      -7.530
     -11.709
     -15.422
     -18.143
     -18.698
     -16.216
     -11.053
      -4.703
       1.257
       6.127
      10.039
      13.170
      15.207
      15.605
      14.181
      11.314
       7.641
       3.667
      -0.337
      -4.175
      -7.566
     -10.116
     -11.399
     -11.104
      -9.223
      -6.174
      -2.694
       0.535
       3.241
       5.578
       7.790
       9.844
      11.385
      11.985
      11.438
       9.825
       7.406
       4.502
       1.457
      -1.416
      -3.896
      -5.879
      -7.351
      -8.364
      -9.003
      -9.294
      -9.094
      -8.118
      -6.143
      -3.297
      -0.178
       2.390
       3.857
       4.281
       4.149
       3.884
       3.540
       2.960
       2.108
       1.178
       0.388
      -0.279
      -1.047
      -2.040
      -3.016
      -3.432
      -2.813
      -1.096
       1.297
       3.657
       5.368
       6.247
       6.587
       6.826
       7.082
       6.956
       5.769
       3.098
      -0.774
      -4.883
      -8.197
     -10.264
     -11.257
     -11.417
     -10.648
      -8.764
      -6.059
      -3.435
      -1.815
      -1.371
      -1.377
      -0.914
       0.289
       1.789
       3.137
       4.444
       6.164
       8.476
      11.020
      13.174
      14.412
      14.390
      12.870
       9.791
       5.423
       0.369
      -4.709
      -9.408
     -13.629
     -17.311
     -20.130
     -21.523
     -21.054
     -18.770
     -15.176
     -10.839
      -6.099
      -1.143
       3.725
       8.027
      11.321
      13.385
      14.225
      13.970
      12.829
      11.067
       8.963
       6.730
       4.432
       1.956
      -0.843
      -3.839
      -6.458
      -7.934
      -7.846
      -6.405
      -4.209
      -1.775
       0.630
       2.820
       4.516
       5.406
       5.325
       4.339
       2.637
       0.414
      -2.054
      -4.252
      -5.531
      -5.600
      -4.942
      -4.567
      -5.172
      -6.533
      -7.771
      -8.184
      -7.759
      -6.901
      -5.830
      -4.339
      -2.136
       0.677
       3.558
       5.963
       7.774
       9.228
      10.436
      11.113
      10.810
       9.378
       7.170
       4.852
       3.046
       2.018
       1.559
       1.115
       0.191
      -1.228
      -2.609
      -3.273
      -2.935
      -1.874
      -0.592
       0.622
       1.770
       2.782
       3.206
       2.387
       0.082
      -3.134
      -6.187
      -8.334
      -9.688
     -10.938
     -12.556
     -14.260
     -15.178
     -14.527
     -12.177
      -8.679
      -4.796
      -1.016
       2.551
       5.899
       8.795
      10.757
      11.355
      10.560
       8.796
       6.669
       4.664
       3.052
       1.959
       1.383
       1.182
       1.135
       1.098
       1.088
       1.214
       1.579
       2.258
       3.350
       4.966
       7.076
       9.295
      10.878
      11.036
       9.380
       6.103
       1.780
      -2.912
      -7.311
     -10.791
     -12.907
     -13.574
     -13.052
     -11.727
      -9.935
      -7.926
      -5.873
      -3.839
      -1.813
       0.185
       2.034
       3.566
       4.691
       5.431
       5.831
       5.833
       5.299
       4.229
       2.915
       1.792
       1.047
       0.431
      -0.464
      -1.702
      -2.831
      -3.252
      -2.766
      -1.788
      -1.036
      -0.981
      -1.508
      -2.024
      -1.859
      -0.612
       1.710
       4.706
       7.710
      10.026
      11.198
      11.136
      10.004
       8.032
       5.445
       2.512
      -0.468
      -3.317
      -6.067
      -8.773
     -11.232
     -12.979
     -13.622
     -13.140
     -11.835
     -10.037
      -7.947
      -5.718
      -3.539
      -1.500
       0.614
       3.184
       6.243
       9.096
      10.643
      10.240
       8.314
       6.147
       4.962
       5.084
       5.834
       6.220
       5.752
       4.685
       3.596
       2.890
       2.720
       3.122
       3.982
       4.835
       4.900
       3.504
       0.596
      -3.127
      -6.616
      -9.126
     -10.608
     -11.535
     -12.314
     -12.860
     -12.744
     -11.695
      -9.840
      -7.500
      -4.907
      -2.241
       0.143
       1.711
       2.109
       1.573
       0.882
       0.795
       1.475
       2.490
       3.364
       4.037
       4.785
       5.802
       6.958
       7.976
       8.733
       9.262
       9.442
       8.816
       6.898
       3.792
       0.448
      -1.822
      -2.257
      -1.189
       0.218
       0.786
       0.045
      -1.608
      -3.312
      -4.405
      -4.916
      -5.526
      -6.972
      -9.326
     -11.780
     -13.186
     -12.914
     -11.243
      -8.964
      -6.623
      -4.197
      -1.463
       1.440
       3.951
       5.568
       6.318
       6.691
       7.104
       7.482
       7.382
       6.510
       5.030
       3.313
       1.480
      -0.650
      -3.081
      -5.237
      -6.230
      -5.668
      -4.110
      -2.626
      -1.824
      -1.332
      -0.252
       1.891
       4.634
       6.981
       8.286
       8.736
       8.971
       9.304
       9.360
       8.483
       6.455
       3.778
       1.302
      -0.423
      -1.438
      -2.124
      -2.714
      -3.074
      -2.892
      -2.034
      -0.693
       0.753
       1.955
       2.686
       2.809
       2.266
       1.105
      -0.526
      -2.463
      -4.624
      -6.993
      -9.471
     -11.722
     -13.199
     -13.398
     -12.164
      -9.770
      -6.717
      -3.418
      -0.055
       3.314
       6.542
       9.317
      11.281
      12.205
      12.068
      11.067
       9.615
       8.270
       7.548
       7.649
       8.302
       8.862
       8.636
       7.254
       4.823
       1.763
      -1.457
      -4.431
      -6.776
      -8.161
      -8.499
      -8.067
      -7.338
      -6.630
      -5.923
      -5.016
      -3.830
      -2.513
      -1.296
      -0.311
       0.414
       0.827
       0.776
       0.125
      -1.023
      -2.258
      -3.102
      -3.372
      -3.249
      -3.018
      -2.780
      -2.424
      -1.794
      -0.814
       0.515
       2.156
       4.012
       5.831
       7.155
       7.459
       6.448
       4.273
       1.449
      -1.431
      -3.920
      -5.756
      -6.811
      -7.052
      -6.537
      -5.408
      -3.854
      -2.033
      -0.037
       2.000
       3.766
       4.853
       5.012
       4.257
       2.654
       0.142
      -3.246
      -6.935
      -9.754
     -10.553
      -9.009
      -5.785
      -1.892
       1.993
       5.527
       8.257
       9.540
       9.101
       7.522
       5.952
       5.200
       5.114
       4.875
       3.884
       2.347
       1.016
       0.440
       0.530
       0.818
       0.978
       1.043
       1.192
       1.469
       1.704
       1.601
       0.808
      -1.001
      -3.911
      -7.525
     -10.981
     -13.350
     -14.135
     -13.487
     -11.977
     -10.134
      -8.118
      -5.751
      -2.787
       0.836
       4.886
       8.849
      12.034
      13.851
      14.148
      13.296
      11.867
      10.166
       8.088
       5.443
       2.445
