Origin Time       23/02/2014 17:04:50
Lat.              27.2 N	
Long.             92.5 E	
Depth (Km)         10.0
Magnitude         4.8
 Region           Kameng-Arunachal-Pradesh                                         
 Above details taken from IMD 
     
Station Code      NAU
Station Lat.       26.349  N
Station Long.      92.690  E
Station Height(m)   78.0
Site Class        C   Vs30 between 200 m/sec to 375 m/sec *  
Record Time       23.02.2014 17:04:49.504
Sampling Rate     200. Hz
 Record Duration   84.775 Sec.
 Direction         E-W (E positive)
Max. Acceleration     -5.222 cm/sec**2
     
  * For reference see Site Classification link of website 
     
 Base Line Corrected and Low Pass Filtered (Cut Off at 35 Hz) Time History
 Acceleration data in cm/sec**2
    
[...]
       0.156
       0.134
       0.088
       0.038
      -0.009
      -0.050
      -0.083
      -0.106
      -0.112
      -0.099
      -0.068
      -0.016
       0.058
       0.146
       0.233
       0.302
       0.339
       0.340
       0.308
       0.250
       0.173
       0.087
      -0.004
      -0.101
      -0.197
      -0.277
      -0.323
      -0.325
      -0.286
      -0.217
      -0.135
      -0.053
       0.023
       0.090
       0.149
       0.200
       0.233
       0.238
       0.204
       0.132
       0.033
      -0.070
      -0.153
      -0.193
      -0.183
      -0.127
      -0.043
       0.047
       0.122
       0.169
       0.188
       0.184
       0.167
       0.139
       0.101
       0.056
       0.009
      -0.036
      -0.072
      -0.100
      -0.123
      -0.148
      -0.178
      -0.201
      -0.202
      -0.175
      -0.131
      -0.094
      -0.079
      -0.080
      -0.079
      -0.060
      -0.023
       0.013
       0.027
       0.010
      -0.027
      -0.057
      -0.058
      -0.026
       0.026
       0.079
       0.124
       0.154
       0.167
       0.163
       0.147
       0.127
       0.111
       0.094
       0.064
       0.014
      -0.047
      -0.097
      -0.113
      -0.086
      -0.032
       0.026
       0.066
       0.079
       0.068
       0.041
       0.006
      -0.037
      -0.090
      -0.149
      -0.202
      -0.233
      -0.226
      -0.173
      -0.088
       0.006
       0.080
       0.116
       0.104
       0.051
      -0.025
      -0.094
      -0.131
      -0.125
      -0.093
      -0.055
      -0.023
       0.014
       0.072
       0.158
       0.255
       0.333
       0.358
       0.323
       0.245
       0.164
       0.112
       0.093
       0.090
       0.078
       0.047
       0.000
      -0.053
      -0.103
      -0.145
      -0.173
      -0.180
      -0.163
      -0.131
      -0.095
      -0.064
      -0.034
       0.007
       0.061
       0.109
       0.119
       0.080
       0.011
      -0.048
      -0.065
      -0.040
       0.003
       0.038
       0.052
       0.050
       0.039
       0.026
       0.010
      -0.010
      -0.024
      -0.023
      -0.002
       0.035
       0.072
       0.091
       0.079
       0.034
      -0.035
      -0.107
      -0.158
      -0.179
      -0.173
      -0.154
      -0.140
      -0.137
      -0.139
      -0.133
      -0.102
      -0.037
       0.057
       0.166
       0.263
       0.316
       0.302
       0.221
       0.099
      -0.021
      -0.106
      -0.145
      -0.156
      -0.164
      -0.174
      -0.168
      -0.117
      -0.012
       0.117
       0.219
       0.250
       0.202
       0.103
      -0.002
      -0.082
      -0.134
      -0.170
      -0.197
      -0.217
      -0.226
      -0.231
      -0.247
      -0.283
      -0.325
      -0.342
      -0.304
      -0.201
      -0.058
       0.074
       0.141
       0.120
       0.030
      -0.072
      -0.128
      -0.112
      -0.041
       0.042
       0.099
       0.117
       0.108
       0.092
       0.083
       0.081
       0.077
       0.061
       0.038
       0.021
       0.022
       0.044
       0.075
       0.103
       0.128
       0.155
       0.186
       0.209
       0.208
       0.179
       0.134
       0.095
       0.076
       0.079
       0.097
       0.114
       0.114
       0.082
       0.017
      -0.059
      -0.106
      -0.088
      -0.003
       0.110
       0.191
       0.196
       0.124
       0.015
      -0.082
      -0.138
      -0.159
      -0.168
      -0.183
      -0.200
      -0.202
      -0.175
      -0.123
      -0.068
      -0.034
      -0.027
      -0.037
      -0.051
      -0.068
      -0.094
      -0.129
      -0.159
      -0.160
      -0.122
      -0.055
       0.014
       0.067
       0.100
       0.123
       0.152
       0.188
       0.216
       0.217
       0.182
       0.123
       0.072
       0.056
       0.084
       0.139
       0.189
       0.213
       0.205
       0.183
       0.166
       0.160
       0.153
       0.120
       0.046
      -0.056
      -0.146
      -0.185
      -0.162
      -0.102
      -0.050
      -0.035
      -0.058
      -0.096
      -0.129
      -0.147
      -0.154
      -0.155
      -0.149
      -0.134
      -0.108
      -0.071
      -0.026
       0.025
       0.077
       0.116
       0.129
       0.115
       0.089
       0.071
       0.068
       0.065
       0.032
      -0.043
      -0.142
      -0.224
      -0.252
      -0.219
      -0.149
      -0.078
      -0.024
       0.012
       0.039
       0.062
       0.076
       0.077
       0.060
       0.024
      -0.031
      -0.098
      -0.160
      -0.194
      -0.185
      -0.129
      -0.036
       0.074
       0.185
       0.277
       0.336
       0.352
       0.328
       0.279
       0.219
       0.158
       0.100
       0.042
      -0.010
      -0.046
      -0.052
      -0.027
       0.020
       0.069
       0.104
       0.114
       0.102
       0.080
       0.056
       0.033
       0.004
      -0.048
      -0.134
      -0.254
      -0.378
      -0.464
      -0.479
      -0.425
      -0.335
      -0.247
      -0.182
      -0.135
      -0.091
      -0.042
       0.006
       0.033
       0.022
      -0.032
      -0.108
      -0.169
      -0.178
      -0.119
      -0.010
       0.107
       0.197
       0.252
       0.293
       0.340
       0.391
       0.420
       0.397
       0.312
       0.183
       0.042
      -0.078
      -0.158
      -0.192
      -0.182
      -0.140
      -0.080
      -0.023
       0.019
       0.047
       0.070
       0.096
       0.114
       0.104
       0.048
      -0.046
      -0.149
      -0.227
      -0.257
      -0.237
      -0.186
      -0.126
      -0.070
      -0.025
       0.014
       0.047
       0.074
       0.087
       0.084
       0.062
       0.023
      -0.025
      -0.074
      -0.110
      -0.132
      -0.148
      -0.173
      -0.213
      -0.255
      -0.273
      -0.249
      -0.189
      -0.116
      -0.054
      -0.002
       0.061
       0.151
       0.257
       0.338
       0.356
       0.311
       0.237
       0.180
       0.155
       0.145
       0.124
       0.087
       0.052
       0.033
       0.022
       0.004
      -0.027
      -0.049
      -0.042
      -0.004
       0.035
       0.039
      -0.002
      -0.059
      -0.084
      -0.051
       0.027
       0.104
       0.132
       0.097
       0.022
      -0.045
      -0.066
      -0.034
       0.028
       0.088
       0.122
       0.123
       0.097
       0.060
       0.029
       0.022
       0.039
       0.060
       0.057
       0.019
      -0.043
      -0.097
      -0.115
      -0.098
      -0.066
      -0.042
      -0.034
      -0.030
      -0.024
      -0.020
      -0.037
      -0.080
      -0.132
      -0.167
      -0.174
      -0.167
      -0.168
      -0.179
      -0.189
      -0.185
      -0.180
      -0.190
      -0.208
      -0.196
      -0.112
       0.045
       0.229
       0.372
       0.436
       0.429
       0.384
       0.324
       0.244
       0.131
      -0.010
      -0.146
      -0.228
      -0.227
      -0.150
      -0.041
       0.051
       0.088
       0.067
       0.014
      -0.028
      -0.018
       0.060
       0.182
       0.296
       0.347
       0.312
       0.210
       0.092
      -0.001
      -0.064
      -0.122
      -0.197
      -0.283
      -0.343
      -0.340
      -0.261
      -0.134
      -0.014
       0.049
       0.041
      -0.006
      -0.047
      -0.053
      -0.033
      -0.015
      -0.017
      -0.037
      -0.059
      -0.077
      -0.100
      -0.144
      -0.209
      -0.274
      -0.311
      -0.301
      -0.249
      -0.179
      -0.117
      -0.075
      -0.044
      -0.012
       0.035
       0.094
       0.156
       0.200
       0.210
       0.178
       0.114
       0.038
      -0.026
      -0.063
      -0.069
      -0.047
      -0.003
       0.055
       0.110
       0.149
       0.163
       0.162
       0.161
       0.175
       0.204
       0.227
       0.224
       0.186
       0.124
       0.056
      -0.004
      -0.056
      -0.107
      -0.161
      -0.211
      -0.244
      -0.246
      -0.209
      -0.140
      -0.059
       0.005
       0.030
       0.013
      -0.024
      -0.050
      -0.045
      -0.008
       0.038
       0.068
       0.069
       0.053
       0.037
       0.031
       0.037
       0.043
       0.044
       0.038
       0.030
       0.027
       0.038
       0.072
       0.131
       0.204
       0.271
       0.311
       0.309
       0.266
       0.196
       0.122
       0.065
       0.032
       0.013
      -0.013
      -0.068
      -0.155
      -0.259
      -0.348
      -0.390
      -0.373
      -0.307
      -0.217
      -0.131
      -0.066
      -0.027
      -0.015
      -0.033
      -0.072
      -0.109
      -0.115
      -0.072
       0.013
       0.115
       0.210
       0.285
       0.337
       0.359
       0.338
       0.269
       0.166
       0.058
      -0.023
      -0.067
      -0.086
      -0.104
      -0.131
      -0.166
      -0.198
      -0.221
      -0.230
      -0.216
      -0.168
      -0.083
       0.021
       0.114
       0.172
       0.194
       0.196
       0.194
       0.181
       0.135
       0.043
      -0.084
      -0.211
      -0.300
      -0.341
      -0.349
      -0.350
      -0.358
      -0.360
      -0.323
      -0.219
      -0.045
       0.163
       0.343
       0.443
       0.455
       0.409
       0.343
       0.273
       0.190
       0.084
      -0.032
      -0.132
      -0.196
      -0.228
      -0.252
      -0.282
      -0.308
      -0.303
      -0.249
      -0.162
      -0.075
      -0.018
       0.009
       0.030
       0.076
       0.160
       0.263
       0.340
       0.351
       0.290
       0.184
       0.070
      -0.022
      -0.086
      -0.128
      -0.159
      -0.189
      -0.214
      -0.228
      -0.223
      -0.202
      -0.176
      -0.152
      -0.122
      -0.072
       0.008
       0.106
       0.188
       0.221
       0.191
       0.116
       0.036
      -0.007
       0.012
       0.083
       0.173
       0.247
       0.289
       0.299
       0.288
       0.257
       0.201
       0.116
       0.013
      -0.090
      -0.175
      -0.235
      -0.276
      -0.306
      -0.323
      -0.315
      -0.263
      -0.152
       0.017
       0.222
       0.416
       0.547
       0.580
       0.513
       0.377
       0.216
       0.062
      -0.078
      -0.212
      -0.338
      -0.441
      -0.496
      -0.487
      -0.411
      -0.275
      -0.094
       0.097
       0.254
       0.338
       0.341
       0.296
       0.243
       0.202
       0.154
       0.065
      -0.066
      -0.195
      -0.260
      -0.225
      -0.103
       0.069
       0.264
       0.467
       0.666
       0.833
       0.937
       0.966
       0.925
       0.826
       0.681
       0.505
       0.318
       0.151
       0.030
      -0.033
      -0.044
      -0.021
       0.022
       0.078
       0.139
       0.194
       0.225
       0.232
       0.231
       0.244
       0.286
       0.352
       0.418
       0.456
       0.448
       0.393
       0.316
       0.266
       0.283
       0.377
       0.516
       0.645
       0.718
       0.727
       0.695
       0.658
       0.630
       0.597
       0.532
       0.413
       0.243
       0.052
      -0.113
      -0.212
      -0.238
      -0.224
      -0.226
      -0.285
      -0.404
      -0.545
      -0.661
      -0.737
      -0.795
      -0.878
      -1.004
      -1.155
      -1.296
      -1.398
      -1.454
      -1.463
      -1.422
      -1.331
      -1.205
      -1.091
      -1.041
      -1.085
      -1.211
      -1.380
      -1.556
      -1.730
      -1.903
      -2.065
      -2.175
      -2.188
      -2.080
      -1.862
      -1.558
      -1.185
      -0.745
      -0.245
       0.282
       0.775
       1.162
       1.396
       1.474
       1.421
       1.258
       0.986
       0.609
       0.169
      -0.245
      -0.524
      -0.587
      -0.412
      -0.032
       0.481
       1.042
       1.564
       1.968
       2.194
       2.208
       1.996
       1.567
       0.968
       0.293
      -0.332
      -0.781
      -0.985
      -0.949
      -0.740
      -0.428
      -0.054
       0.369
       0.803
       1.161
       1.311
       1.147
       0.642
      -0.117
      -0.953
      -1.673
      -2.135
      -2.301
      -2.213
      -1.948
      -1.561
      -1.069
      -0.475
       0.187
       0.832
       1.351
       1.659
       1.738
       1.626
       1.370
       0.983
       0.449
      -0.235
      -1.013
      -1.774
      -2.383
      -2.725
      -2.739
      -2.421
      -1.820
      -1.023
      -0.138
       0.721
       1.464
       2.041
       2.441
       2.668
       2.703
       2.498
       2.009
       1.254
       0.331
      -0.611
      -1.424
      -2.004
      -2.293
      -2.272
      -1.951
      -1.372
      -0.614
       0.222
       1.034
       1.743
       2.304
       2.690
       2.880
       2.846
       2.573
       2.097
       1.516
       0.966
       0.561
       0.350
       0.308
       0.377
       0.513
       0.707
       0.975
       1.320
       1.708
       2.080
       2.377
       2.567
       2.639
       2.588
       2.405
       2.076
       1.584
       0.912
       0.058
      -0.939
      -2.000
      -3.020
      -3.909
      -4.601
      -5.049
      -5.222
      -5.106
      -4.718
      -4.095
      -3.288
      -2.355
      -1.369
      -0.417
       0.414
       1.067
       1.532
       1.834
       1.998
       2.018
       1.854
       1.456
       0.810
      -0.034
      -0.965
      -1.828
      -2.457
      -2.715
      -2.541
      -1.999
      -1.268
      -0.569
      -0.061
       0.227
       0.376
       0.503
       0.684
       0.915
       1.123
       1.206
       1.083
       0.729
       0.194
      -0.401
      -0.898
      -1.155
      -1.103
      -0.783
      -0.322
       0.127
       0.468
       0.695
       0.862
       1.003
       1.086
       1.033
       0.800
       0.434
       0.072
      -0.140
      -0.130
       0.068
       0.347
       0.598
       0.763
       0.851
       0.911
       0.987
       1.080
       1.151
       1.145
       1.035
       0.855
       0.684
       0.593
       0.591
       0.614
       0.560
       0.365
       0.050
      -0.273
      -0.457
      -0.410
      -0.161
       0.147
       0.350
       0.365
       0.231
       0.057
      -0.071
      -0.149
      -0.239
      -0.409
      -0.662
      -0.918
      -1.051
      -0.961
      -0.636
      -0.167
       0.296
       0.606
       0.675
       0.496
       0.151
      -0.215
      -0.447
      -0.453
      -0.261
      -0.002
       0.161
       0.131
      -0.077
      -0.367
      -0.637
      -0.844
      -1.006
      -1.158
      -1.306
      -1.408
      -1.401
      -1.249
      -0.966
      -0.606
      -0.218
       0.191
       0.655
       1.217
       1.890
       2.624
       3.309
       3.791
       3.926
       3.631
       2.929
       1.937
       0.819
      -0.268
      -1.212
      -1.944
      -2.433
      -2.687
      -2.736
      -2.626
      -2.394
      -2.060
      -1.624
      -1.083
      -0.465
       0.147
       0.633
       0.890
       0.892
       0.713
       0.476
       0.282
       0.170
       0.122
       0.105
       0.108
       0.152
       0.273
       0.485
       0.758
       1.020
       1.195
       1.240
       1.157
       0.980
       0.740
       0.451
       0.120
      -0.229
      -0.535
      -0.724
      -0.753
      -0.649
      -0.506
      -0.422
      -0.433
      -0.491
      -0.519
      -0.485
      -0.430
      -0.427
      -0.503
      -0.606
      -0.649
      -0.602
      -0.533
      -0.559
      -0.724
      -0.931
      -0.992
      -0.769
      -0.293
       0.243
       0.601
       0.639
       0.369
      -0.070
      -0.496
      -0.763
      -0.813
      -0.694
      -0.520
      -0.397
      -0.347
      -0.299
      -0.153
       0.126
       0.466
       0.737
       0.839
       0.771
       0.623
       0.510
       0.497
       0.558
       0.621
       0.627
       0.582
       0.540
       0.554
       0.615
       0.655
       0.586
       0.376
       0.087
      -0.157
      -0.246
      -0.165
       0.011
       0.172
       0.246
       0.224
       0.144
       0.056
      -0.009
      -0.040
      -0.055
      -0.075
      -0.104
      -0.108
      -0.043
       0.088
       0.200
       0.162
      -0.118
      -0.607
      -1.149
      -1.532
      -1.618
      -1.410
      -1.049
      -0.720
      -0.539
      -0.494
      -0.475
      -0.359
      -0.087
       0.315
       0.764
       1.163
       1.440
       1.557
       1.523
       1.378
       1.165
       0.899
       0.564
       0.149
      -0.317
      -0.755
      -1.078
      -1.244
      -1.281
      -1.260
      -1.234
      -1.199
      -1.115
      -0.959
      -0.760
      -0.571
      -0.413
      -0.246
      -0.002
       0.339
       0.707
       0.974
       1.035
       0.879
       0.594
       0.304
       0.096
      -0.015
      -0.070
      -0.118
      -0.187
      -0.271
      -0.336
      -0.329
      -0.202
       0.052
       0.366
       0.619
       0.690
       0.550
       0.299
       0.116
       0.135
       0.329
       0.512
       0.455
       0.054
      -0.578
      -1.179
      -1.496
      -1.417
      -1.004
      -0.428
       0.125
       0.522
       0.716
       0.730
       0.638
       0.520
       0.438
       0.417
       0.445
       0.482
       0.485
       0.435
       0.361
       0.327
       0.404
       0.612
       0.900
       1.146
       1.210
       1.007
       0.562
       0.005
      -0.488
      -0.777
      -0.809
      -0.639
      -0.400
      -0.248
      -0.284
      -0.486
      -0.717
      -0.792
      -0.599
      -0.181
       0.282
       0.568
       0.541
       0.222
      -0.242
      -0.667
      -0.937
      -1.034
      -1.027
      -1.007
      -1.033
      -1.099
      -1.136
      -1.059
      -0.826
      -0.468
      -0.066
       0.312
       0.643
       0.934
       1.174
       1.312
       1.275
       1.017
       0.554
      -0.018
      -0.547
      -0.875
      -0.906
      -0.652
      -0.232
       0.204
       0.560
       0.839
       1.112
       1.437
       1.794
       2.086
       2.198
       2.068
       1.730
       1.293
       0.888
       0.599
       0.424
       0.285
       0.074
      -0.273
      -0.722
      -1.141
      -1.377
      -1.350
      -1.093
      -0.719
      -0.343
      -0.037
       0.160
       0.220
       0.122
      -0.127
      -0.463
      -0.771
      -0.934
      -0.879
      -0.618
      -0.229
       0.179
       0.517
       0.736
       0.821
       0.764
       0.562
       0.232
      -0.177
      -0.597
      -0.966
      -1.239
      -1.389
      -1.407
      -1.314
      -1.168
      -1.044
      -0.989
      -0.992
      -0.978
      -0.858
      -0.584
      -0.185
       0.246
       0.598
       0.794
       0.816
       0.699
       0.511
       0.332
       0.229
