Origin Time       02/10/2012 18:37:39 UTC
Lat.              26.9 N	
Long.             92.8 E	
Depth (Km)         35.0
Magnitude         5.1
 Region           Sonitpur-Assam                                                   
 Above details taken from IMD 
    
Station Code      NAU
Station Lat.       26.349  N
Station Long.      92.690  E
Station Height(m)   72.0
Site Class        C   Vs30 between 200 m/sec to 375 m/sec *  
Record Time       02.10.2012 18:36:21.539 UTC
Sampling Rate     200. Hz
 Record Duration   85.530 Sec.
 Direction         N-S (N positive)
Max. Acceleration    -10.707 cm/sec**2
     
  * For reference see Site Classification link of website 
     
 Base Line Corrected and Low Pass Filtered (Cut Off at 35 Hz) Time History
 Acceleration data in cm/sec**2
    
[...]
      -0.629
      -0.261
       0.178
       0.598
       0.900
       1.022
       0.952
       0.705
       0.307
      -0.199
      -0.726
      -1.133
      -1.284
      -1.136
      -0.768
      -0.335
       0.024
       0.253
       0.367
       0.401
       0.367
       0.259
       0.088
      -0.096
      -0.225
      -0.252
      -0.164
       0.028
       0.327
       0.750
       1.291
       1.883
       2.387
       2.658
       2.613
       2.277
       1.750
       1.151
       0.564
       0.044
      -0.362
      -0.614
      -0.690
      -0.609
      -0.435
      -0.259
      -0.165
      -0.189
      -0.296
      -0.401
      -0.424
      -0.331
      -0.144
       0.079
       0.282
       0.429
       0.523
       0.588
       0.642
       0.664
       0.598
       0.395
       0.054
      -0.375
      -0.818
      -1.216
      -1.530
      -1.736
      -1.810
      -1.726
      -1.469
      -1.039
      -0.474
       0.147
       0.719
       1.152
       1.401
       1.476
       1.427
       1.312
       1.178
       1.050
       0.935
       0.820
       0.690
       0.544
       0.411
       0.333
       0.332
       0.384
       0.428
       0.410
       0.315
       0.179
       0.053
      -0.035
      -0.098
      -0.178
      -0.304
      -0.479
      -0.684
      -0.896
      -1.089
      -1.222
      -1.232
      -1.068
      -0.738
      -0.334
       0.012
       0.211
       0.265
       0.256
       0.266
       0.304
       0.297
       0.158
      -0.133
      -0.490
      -0.775
      -0.888
      -0.827
      -0.676
      -0.530
      -0.429
      -0.341
      -0.206
       0.016
       0.306
       0.598
       0.794
       0.809
       0.612
       0.252
      -0.161
      -0.517
      -0.763
      -0.913
      -1.008
      -1.057
      -1.026
      -0.870
      -0.573
      -0.189
       0.185
       0.447
       0.544
       0.477
       0.269
      -0.058
      -0.476
      -0.930
      -1.332
      -1.594
      -1.655
      -1.509
      -1.200
      -0.804
      -0.396
      -0.018
       0.330
       0.671
       1.008
       1.321
       1.573
       1.732
       1.770
       1.666
       1.408
       1.018
       0.564
       0.144
      -0.163
      -0.335
      -0.410
      -0.435
      -0.432
      -0.393
      -0.310
      -0.193
      -0.071
       0.029
       0.099
       0.142
       0.164
       0.164
       0.138
       0.090
       0.030
      -0.023
      -0.040
       0.011
       0.138
       0.294
       0.378
       0.300
       0.053
      -0.257
      -0.461
      -0.435
      -0.182
       0.177
       0.489
       0.667
       0.723
       0.723
       0.720
       0.716
       0.682
       0.595
       0.463
       0.313
       0.153
      -0.038
      -0.270
      -0.499
      -0.625
      -0.555
      -0.285
       0.078
       0.374
       0.479
       0.372
       0.130
      -0.118
      -0.270
      -0.300
      -0.237
      -0.114
       0.067
       0.309
       0.578
       0.789
       0.854
       0.738
       0.472
       0.121
      -0.266
      -0.661
      -1.034
      -1.319
      -1.434
      -1.330
      -1.033
      -0.645
      -0.297
      -0.073
       0.032
       0.093
       0.181
       0.300
       0.390
       0.379
       0.248
       0.040
      -0.175
      -0.339
      -0.433
      -0.480
      -0.517
      -0.577
      -0.668
      -0.772
      -0.855
      -0.887
      -0.846
      -0.729
      -0.547
      -0.325
      -0.091
       0.131
       0.333
       0.528
       0.742
       0.985
       1.236
       1.449
       1.570
       1.571
       1.464
       1.288
       1.087
       0.870
       0.611
       0.271
      -0.156
      -0.617
      -1.004
      -1.197
      -1.132
      -0.855
      -0.496
      -0.193
      -0.016
       0.040
       0.005
      -0.111
      -0.310
      -0.568
      -0.817
      -0.965
      -0.953
      -0.791
      -0.555
      -0.330
      -0.143
       0.038
       0.249
       0.463
       0.589
       0.544
       0.317
      -0.019
      -0.361
      -0.641
      -0.842
      -0.962
      -0.979
      -0.860
      -0.594
      -0.226
       0.160
       0.491
       0.738
       0.907
       1.003
       0.998
       0.834
       0.469
      -0.083
      -0.721
      -1.282
      -1.601
      -1.597
      -1.316
      -0.903
      -0.501
      -0.166
       0.153
       0.538
       1.011
       1.503
       1.908
       2.156
       2.239
       2.178
       1.991
       1.700
       1.365
       1.094
       0.997
       1.110
       1.353
       1.564
       1.584
       1.346
       0.910
       0.408
      -0.034
      -0.369
      -0.628
      -0.864
      -1.093
      -1.269
      -1.314
      -1.171
      -0.851
      -0.447
      -0.089
       0.116
       0.136
       0.018
      -0.141
      -0.253
      -0.292
      -0.304
      -0.359
      -0.469
      -0.561
      -0.546
      -0.412
      -0.260
      -0.225
      -0.340
      -0.489
      -0.475
      -0.181
       0.340
       0.884
       1.247
       1.356
       1.287
       1.169
       1.061
       0.933
       0.730
       0.450
       0.157
      -0.070
      -0.193
      -0.244
      -0.287
      -0.372
      -0.499
      -0.625
      -0.704
      -0.712
      -0.655
      -0.549
      -0.407
      -0.243
      -0.078
       0.054
       0.115
       0.086
      -0.017
      -0.151
      -0.276
      -0.384
      -0.497
      -0.637
      -0.799
      -0.963
      -1.110
      -1.237
      -1.345
      -1.428
      -1.478
      -1.498
      -1.506
      -1.512
      -1.495
      -1.410
      -1.223
      -0.947
      -0.641
      -0.371
      -0.173
      -0.042
       0.039
       0.078
       0.068
       0.014
      -0.045
      -0.047
       0.055
       0.245
       0.442
       0.540
       0.476
       0.276
       0.043
      -0.098
      -0.076
       0.086
       0.290
       0.429
       0.447
       0.371
       0.277
       0.234
       0.254
       0.287
       0.284
       0.245
       0.218
       0.248
       0.339
       0.464
       0.609
       0.788
       1.033
       1.333
       1.618
       1.776
       1.737
       1.527
       1.254
       1.025
       0.849
       0.641
       0.305
      -0.168
      -0.680
      -1.092
      -1.303
      -1.293
      -1.132
      -0.941
      -0.831
      -0.856
      -1.003
      -1.216
      -1.424
      -1.558
      -1.563
      -1.420
      -1.160
      -0.846
      -0.531
      -0.235
       0.072
       0.432
       0.860
       1.297
       1.640
       1.812
       1.830
       1.794
       1.797
       1.850
       1.871
       1.759
       1.470
       1.055
       0.633
       0.322
       0.180
       0.193
       0.311
       0.494
       0.718
       0.960
       1.173
       1.285
       1.206
       0.876
       0.311
      -0.379
      -1.040
      -1.544
      -1.826
      -1.871
      -1.690
      -1.327
      -0.868
      -0.416
      -0.040
       0.251
       0.495
       0.727
       0.946
       1.108
       1.165
       1.107
       0.963
       0.769
       0.531
       0.220
      -0.177
      -0.617
      -0.992
      -1.188
      -1.152
      -0.925
      -0.638
      -0.441
      -0.434
      -0.604
      -0.837
      -0.975
      -0.899
      -0.587
      -0.121
       0.353
       0.706
       0.884
       0.923
       0.894
       0.837
       0.732
       0.525
       0.191
      -0.216
      -0.554
      -0.672
      -0.506
      -0.146
       0.207
       0.358
       0.220
      -0.157
      -0.634
      -1.053
      -1.286
      -1.284
      -1.098
      -0.862
      -0.725
      -0.772
      -0.995
      -1.303
      -1.583
      -1.757
      -1.799
      -1.714
      -1.496
      -1.126
      -0.606
      -0.011
       0.522
       0.851
       0.904
       0.718
       0.417
       0.146
      -0.012
      -0.073
      -0.130
      -0.262
      -0.472
      -0.679
      -0.795
      -0.797
      -0.747
      -0.737
      -0.817
      -0.958
      -1.076
      -1.092
      -0.989
      -0.825
      -0.687
      -0.634
      -0.666
      -0.734
      -0.782
      -0.772
      -0.687
      -0.508
      -0.213
       0.199
       0.682
       1.156
       1.543
       1.788
       1.853
       1.709
       1.365
       0.891
       0.420
       0.093
      -0.001
       0.154
       0.508
       0.975
       1.451
       1.834
       2.050
       2.063
       1.887
       1.588
       1.260
       0.984
       0.776
       0.589
       0.354
       0.055
      -0.245
      -0.451
      -0.509
      -0.443
      -0.315
      -0.175
      -0.041
       0.082
       0.183
       0.255
       0.294
       0.299
       0.261
       0.161
      -0.013
      -0.245
      -0.481
      -0.642
      -0.664
      -0.534
      -0.291
      -0.005
       0.264
       0.498
       0.712
       0.925
       1.133
       1.301
       1.378
       1.315
       1.094
       0.745
       0.346
      -0.016
      -0.289
      -0.476
      -0.603
      -0.688
      -0.743
      -0.783
      -0.816
      -0.832
      -0.796
      -0.677
      -0.482
      -0.261
      -0.074
       0.057
       0.176
       0.340
       0.547
       0.712
       0.713
       0.488
       0.089
      -0.354
      -0.700
      -0.870
      -0.847
      -0.666
      -0.390
      -0.106
       0.084
       0.102
      -0.067
      -0.352
      -0.625
      -0.767
      -0.722
      -0.493
      -0.112
       0.375
       0.903
       1.366
       1.638
       1.624
       1.311
       0.795
       0.247
      -0.191
      -0.491
      -0.746
      -1.072
      -1.503
      -1.955
      -2.292
      -2.432
      -2.403
      -2.312
      -2.245
      -2.194
      -2.067
      -1.752
      -1.181
      -0.365
       0.611
       1.595
       2.372
       2.712
       2.455
       1.623
       0.446
      -0.724
      -1.564
      -1.905
      -1.767
      -1.305
      -0.711
      -0.110
       0.457
       0.968
       1.336
       1.405
       1.066
       0.357
      -0.538
      -1.376
      -1.965
      -2.210
      -2.105
      -1.708
      -1.118
      -0.456
       0.154
       0.605
       0.825
       0.799
       0.584
       0.294
       0.063
      -0.010
       0.110
       0.391
       0.761
       1.160
       1.564
       1.963
       2.322
       2.585
       2.720
       2.760
       2.786
       2.862
       2.995
       3.150
       3.298
       3.430
       3.529
       3.527
       3.294
       2.714
       1.777
       0.635
      -0.463
      -1.276
      -1.654
      -1.554
      -1.022
      -0.189
       0.758
       1.629
       2.300
       2.732
       2.946
       2.973
       2.835
       2.566
       2.228
       1.933
       1.800
       1.906
       2.245
       2.756
       3.353
       3.936
       4.373
       4.495
       4.151
       3.277
       1.949
       0.343
      -1.343
      -2.962
      -4.441
      -5.740
      -6.808
      -7.589
      -8.059
      -8.240
      -8.161
      -7.824
      -7.213
      -6.348
      -5.316
      -4.263
      -3.354
      -2.733
      -2.485
      -2.633
      -3.139
      -3.914
      -4.823
      -5.703
      -6.396
      -6.784
      -6.791
      -6.388
      -5.597
      -4.501
      -3.246
      -1.996
      -0.890
      -0.005
       0.621
       0.969
       1.025
       0.801
       0.367
      -0.140
      -0.539
      -0.668
      -0.439
       0.135
       0.958
       1.884
       2.768
       3.496
       3.994
       4.218
       4.140
       3.748
       3.070
       2.182
       1.192
       0.207
      -0.693
      -1.442
      -1.956
      -2.123
      -1.851
      -1.133
      -0.080
       1.120
       2.286
       3.307
       4.130
       4.714
       4.999
       4.935
       4.538
       3.942
       3.366
       3.020
       2.993
       3.204
       3.464
       3.593
       3.509
       3.235
       2.844
       2.391
       1.886
       1.315
       0.687
       0.063
      -0.457
      -0.776
      -0.841
      -0.649
      -0.234
       0.339
       0.989
       1.614
       2.110
       2.391
       2.407
       2.134
       1.571
       0.766
      -0.148
      -0.959
      -1.451
      -1.531
      -1.304
      -1.037
      -1.024
      -1.435
      -2.254
      -3.319
      -4.416
      -5.344
      -5.929
      -6.042
      -5.606
      -4.618
      -3.148
      -1.334
       0.602
       2.369
       3.672
       4.325
       4.331
       3.875
       3.222
       2.607
       2.164
       1.923
       1.854
       1.941
       2.190
       2.596
       3.095
       3.566
       3.883
       3.946
       3.690
       3.112
       2.318
       1.522
       0.957
       0.732
       0.771
       0.879
       0.892
       0.775
       0.605
       0.479
       0.418
       0.350
       0.159
      -0.238
      -0.849
      -1.616
      -2.435
      -3.177
      -3.691
      -3.818
      -3.415
      -2.398
      -0.819
       1.095
       2.969
       4.414
       5.201
       5.347
       5.047
       4.517
       3.855
       3.027
       1.965
       0.679
      -0.712
      -2.029
      -3.133
      -3.988
      -4.662
      -5.263
      -5.841
      -6.314
      -6.497
      -6.210
      -5.410
      -4.225
      -2.899
      -1.681
      -0.773
      -0.330
      -0.471
      -1.243
      -2.573
      -4.251
      -6.002
      -7.592
      -8.898
      -9.888
     -10.530
     -10.707
     -10.218
      -8.863
      -6.569
      -3.491
      -0.020
       3.297
       5.912
       7.446
       7.798
       7.129
       5.756
       4.030
       2.247
       0.627
      -0.689
      -1.636
      -2.223
      -2.518
      -2.611
      -2.567
      -2.385
      -2.001
      -1.329
      -0.331
       0.927
       2.280
       3.519
       4.439
       4.869
       4.694
       3.895
       2.583
       1.009
      -0.480
      -1.507
      -1.754
      -1.077
       0.406
       2.322
       4.172
       5.504
       6.048
       5.750
       4.754
       3.343
       1.886
       0.756
       0.240
       0.435
       1.205
       2.240
       3.213
       3.909
       4.240
       4.158
       3.584
       2.437
       0.742
      -1.303
      -3.375
      -5.141
      -6.363
      -6.927
      -6.821
      -6.095
      -4.850
      -3.240
      -1.446
       0.391
       2.198
       3.947
       5.565
       6.913
       7.829
       8.185
       7.902
       6.930
       5.264
       2.997
       0.363
      -2.303
      -4.674
      -6.541
      -7.815
      -8.433
      -8.278
      -7.212
      -5.216
      -2.517
       0.427
       3.082
       5.030
       6.072
       6.220
       5.612
       4.442
       2.934
       1.313
      -0.232
      -1.564
      -2.571
      -3.116
      -3.059
      -2.368
      -1.217
       0.023
       0.927
       1.191
       0.758
      -0.141
      -1.068
      -1.549
      -1.286
      -0.286
       1.162
       2.627
       3.693
       4.086
       3.750
       2.856
       1.712
       0.622
      -0.227
      -0.762
      -0.961
      -0.792
      -0.244
       0.609
       1.578
       2.414
       2.927
       3.055
       2.865
       2.500
       2.139
       1.936
       1.950
       2.103
       2.218
       2.133
       1.791
       1.242
       0.579
      -0.111
      -0.776
      -1.388
      -1.921
      -2.342
      -2.653
      -2.936
      -3.344
      -4.001
      -4.878
      -5.741
      -6.227
      -6.011
      -4.962
      -3.209
      -1.089
       0.997
       2.709
       3.830
       4.273
       4.069
       3.323
       2.178
       0.784
      -0.695
      -2.071
      -3.157
      -3.832
      -4.080
      -3.974
      -3.617
      -3.088
      -2.465
      -1.860
      -1.402
      -1.129
      -0.911
      -0.523
       0.153
       0.961
       1.501
       1.339
       0.283
      -1.479
      -3.463
      -5.130
      -6.103
      -6.246
      -5.609
      -4.350
      -2.667
      -0.770
       1.115
       2.742
       3.856
       4.255
       3.880
       2.867
       1.519
       0.201
      -0.808
      -1.408
      -1.661
      -1.694
      -1.590
      -1.343
      -0.906
      -0.286
       0.421
       1.082
       1.618
       2.012
       2.242
       2.214
       1.796
       0.937
      -0.231
      -1.400
      -2.214
      -2.435
      -2.053
      -1.272
      -0.416
       0.201
       0.379
       0.105
      -0.449
      -1.017
      -1.389
      -1.527
      -1.553
      -1.615
      -1.737
      -1.770
      -1.498
      -0.798
       0.256
       1.425
       2.438
       3.128
       3.494
       3.656
       3.763
       3.893
       4.011
       3.980
       3.636
       2.902
       1.867
       0.796
       0.030
      -0.194
       0.103
       0.637
       1.054
       1.181
       1.150
       1.293
       1.892
       2.974
       4.294
       5.484
       6.253
       6.492
       6.273
       5.753
       5.070
       4.271
       3.308
       2.118
       0.724
      -0.699
      -1.872
      -2.549
      -2.658
      -2.351
      -1.939
      -1.727
      -1.858
      -2.258
      -2.716
      -3.024
      -3.086
      -2.946
      -2.734
      -2.567
      -2.468
      -2.360
      -2.131
      -1.713
      -1.121
      -0.457
       0.122
       0.468
       0.498
       0.237
      -0.187
      -0.587
      -0.793
      -0.742
      -0.517
      -0.320
      -0.352
      -0.693
      -1.237
      -1.725
      -1.872
      -1.544
      -0.879
      -0.256
      -0.082
      -0.519
      -1.350
      -2.084
      -2.255
      -1.706
      -0.676
       0.363
       0.981
       1.000
       0.538
      -0.089
      -0.541
      -0.618
      -0.361
      -0.044
      -0.016
      -0.475
      -1.345
      -2.348
      -3.206
      -3.783
      -4.055
      -3.989
      -3.463
      -2.320
      -0.504
       1.817
       4.230
       6.208
       7.305
       7.317
       6.330
       4.654
       2.707
       0.905
      -0.426
      -1.098
      -1.094
      -0.551
       0.264
       1.021
       1.414
       1.258
       0.549
      -0.532
      -1.685
      -2.581
      -2.978
      -2.814
      -2.221
      -1.450
      -0.750
      -0.274
      -0.048
      -0.011
      -0.070
      -0.137
      -0.133
      -0.010
       0.198
       0.340
       0.192
      -0.421
      -1.513
      -2.905
      -4.287
      -5.323
      -5.742
      -5.418
      -4.407
      -2.923
      -1.238
       0.429
       1.941
       3.197
       4.073
       4.426
       4.165
       3.338
       2.141
       0.862
      -0.247
      -1.060
      -1.597
      -1.952
      -2.207
      -2.410
      -2.616
      -2.912
      -3.357
      -3.873
      -4.217
      -4.073
      -3.229
      -1.718
       0.187
       2.112
       3.717
       4.764
       5.108
       4.700
       3.620
       2.118
       0.594
      -0.519
      -0.918
      -0.547
       0.411
       1.659
       2.927
       4.038
       4.877
       5.349
       5.393
       5.023
       4.346
       3.543
       2.831
       2.398
       2.344
       2.635
       3.118
       3.599
       3.909
       3.936
       3.615
       2.942
       2.014
       1.038
