Origin Time       30/10/2012 01:40:24
Lat.              26.2 N	
Long.             92.4 E	
Depth (Km)         15.0
Magnitude         3.9
 Region           Morigaon-Assam                                                   
 Above details taken from IMD 
     
Station Code      NAU
Station Lat.       26.349  N
Station Long.      92.690  E
Station Height(m)   72.0
Site Class        C   Vs30 between 200 m/sec to 375 m/sec *  
Record Time       30.10.2012 01:38:40.874
Sampling Rate     200. Hz
 Record Duration   66.110 Sec.
 Direction         E-W (E positive)
Max. Acceleration      8.970 cm/sec**2
     
  * For reference see Site Classification link of website 
     
 Base Line Corrected and Low Pass Filtered (Cut Off at 35 Hz) Time History
 Acceleration data in cm/sec**2
    
[...]
       0.026
       0.094
       0.186
       0.268
       0.277
       0.180
       0.015
      -0.121
      -0.146
      -0.051
       0.102
       0.220
       0.244
       0.174
       0.056
      -0.040
      -0.074
      -0.049
      -0.002
       0.034
       0.053
       0.059
       0.045
       0.006
      -0.048
      -0.076
      -0.040
       0.058
       0.173
       0.247
       0.252
       0.204
       0.137
       0.063
      -0.029
      -0.145
      -0.258
      -0.315
      -0.291
      -0.211
      -0.136
      -0.104
      -0.098
      -0.077
      -0.024
       0.029
       0.040
       0.003
      -0.038
      -0.033
       0.018
       0.057
       0.017
      -0.111
      -0.257
      -0.329
      -0.283
      -0.151
      -0.003
       0.095
       0.113
       0.052
      -0.061
      -0.183
      -0.259
      -0.250
      -0.152
      -0.001
       0.140
       0.216
       0.206
       0.139
       0.076
       0.068
       0.118
       0.183
       0.207
       0.161
       0.058
      -0.057
      -0.138
      -0.160
      -0.128
      -0.061
       0.019
       0.099
       0.169
       0.209
       0.198
       0.132
       0.042
      -0.018
      -0.002
       0.084
       0.174
       0.188
       0.094
      -0.066
      -0.203
      -0.255
      -0.220
      -0.147
      -0.082
      -0.045
      -0.029
      -0.037
      -0.075
      -0.140
      -0.201
      -0.222
      -0.193
      -0.145
      -0.121
      -0.134
      -0.157
      -0.149
      -0.096
      -0.012
       0.070
       0.127
       0.151
       0.145
       0.113
       0.058
      -0.012
      -0.068
      -0.076
      -0.018
       0.085
       0.175
       0.199
       0.144
       0.055
      -0.003
       0.005
       0.058
       0.109
       0.121
       0.083
       0.012
      -0.063
      -0.114
      -0.127
      -0.103
      -0.048
       0.031
       0.115
       0.170
       0.162
       0.085
      -0.026
      -0.122
      -0.171
      -0.168
      -0.129
      -0.074
      -0.023
       0.007
       0.007
      -0.020
      -0.055
      -0.078
      -0.080
      -0.072
      -0.056
      -0.023
       0.041
       0.120
       0.163
       0.123
       0.008
      -0.115
      -0.164
      -0.121
      -0.043
      -0.014
      -0.061
      -0.130
      -0.140
      -0.070
       0.022
       0.061
       0.039
       0.020
       0.063
       0.160
       0.238
       0.239
       0.164
       0.051
      -0.077
      -0.212
      -0.332
      -0.382
      -0.326
      -0.188
      -0.044
       0.043
       0.074
       0.092
       0.130
       0.184
       0.231
       0.262
       0.276
       0.257
       0.165
      -0.004
      -0.189
      -0.288
      -0.246
      -0.104
       0.044
       0.136
       0.181
       0.205
       0.194
       0.109
      -0.045
      -0.187
      -0.221
      -0.124
       0.034
       0.152
       0.178
       0.127
       0.045
      -0.031
      -0.087
      -0.125
      -0.151
      -0.167
      -0.166
      -0.137
      -0.071
       0.020
       0.092
       0.086
      -0.028
      -0.209
      -0.362
      -0.396
      -0.286
      -0.085
       0.118
       0.258
       0.316
       0.303
       0.238
       0.126
      -0.017
      -0.150
      -0.214
      -0.175
      -0.057
       0.059
       0.091
       0.016
      -0.107
      -0.179
      -0.142
      -0.027
       0.058
       0.014
      -0.158
      -0.345
      -0.402
      -0.267
      -0.005
       0.252
       0.397
       0.396
       0.278
       0.098
      -0.080
      -0.200
      -0.230
      -0.176
      -0.066
       0.062
       0.175
       0.243
       0.249
       0.195
       0.105
       0.010
      -0.057
      -0.070
      -0.012
       0.100
       0.211
       0.254
       0.193
       0.061
      -0.075
      -0.173
      -0.236
      -0.278
      -0.283
      -0.213
      -0.072
       0.079
       0.157
       0.132
       0.046
      -0.019
      -0.016
       0.045
       0.126
       0.198
       0.252
       0.283
       0.279
       0.227
       0.134
       0.039
      -0.011
      -0.001
       0.036
       0.049
       0.013
      -0.050
      -0.100
      -0.112
      -0.093
      -0.071
      -0.074
      -0.113
      -0.180
      -0.253
      -0.310
      -0.330
      -0.294
      -0.196
      -0.059
       0.069
       0.139
       0.129
       0.059
      -0.026
      -0.086
      -0.107
      -0.108
      -0.118
      -0.143
      -0.168
      -0.183
      -0.196
      -0.209
      -0.202
      -0.144
      -0.040
       0.050
       0.065
      -0.002
      -0.094
      -0.148
      -0.136
      -0.075
       0.003
       0.069
       0.109
       0.131
       0.149
       0.167
       0.171
       0.143
       0.089
       0.036
       0.014
       0.032
       0.070
       0.096
       0.088
       0.049
       0.005
      -0.011
       0.012
       0.063
       0.116
       0.144
       0.136
       0.101
       0.068
       0.069
       0.118
       0.197
       0.258
       0.242
       0.122
      -0.068
      -0.245
      -0.325
      -0.281
      -0.147
       0.013
       0.137
       0.189
       0.150
       0.033
      -0.105
      -0.184
      -0.158
      -0.063
       0.010
      -0.010
      -0.119
      -0.246
      -0.314
      -0.286
      -0.183
      -0.061
       0.020
       0.037
       0.010
      -0.017
      -0.009
       0.031
       0.058
       0.023
      -0.082
      -0.197
      -0.227
      -0.132
       0.028
       0.134
       0.115
       0.019
      -0.034
       0.025
       0.150
       0.232
       0.222
       0.170
       0.149
       0.159
       0.125
       0.009
      -0.112
      -0.121
       0.002
       0.135
       0.138
       0.003
      -0.143
      -0.179
      -0.107
      -0.032
      -0.027
      -0.062
      -0.059
      -0.008
       0.014
      -0.063
      -0.210
      -0.313
      -0.288
      -0.166
      -0.059
      -0.040
      -0.075
      -0.077
      -0.007
       0.084
       0.127
       0.108
       0.072
       0.062
       0.070
       0.052
      -0.009
      -0.084
      -0.116
      -0.084
      -0.027
      -0.006
      -0.040
      -0.082
      -0.061
       0.042
       0.168
       0.225
       0.167
       0.021
      -0.129
      -0.191
      -0.122
       0.047
       0.219
       0.305
       0.283
       0.203
       0.123
       0.061
       0.004
      -0.048
      -0.071
      -0.042
       0.011
       0.027
      -0.039
      -0.164
      -0.269
      -0.280
      -0.189
      -0.049
       0.080
       0.183
       0.271
       0.330
       0.313
       0.189
       0.001
      -0.159
      -0.227
      -0.222
      -0.214
      -0.239
      -0.266
      -0.237
      -0.134
      -0.001
       0.099
       0.129
       0.091
       0.005
      -0.103
      -0.199
      -0.242
      -0.194
      -0.063
       0.092
       0.188
       0.184
       0.098
      -0.022
      -0.131
      -0.200
      -0.204
      -0.120
       0.031
       0.168
       0.193
       0.080
      -0.088
      -0.180
      -0.123
       0.032
       0.165
       0.191
       0.115
       0.010
      -0.068
      -0.111
      -0.136
      -0.147
      -0.135
      -0.106
      -0.089
      -0.102
      -0.126
      -0.111
      -0.030
       0.085
       0.163
       0.164
       0.119
       0.094
       0.116
       0.148
       0.129
       0.037
      -0.085
      -0.153
      -0.111
       0.031
       0.197
       0.288
       0.235
       0.041
      -0.220
      -0.425
      -0.468
      -0.318
      -0.051
       0.203
       0.345
       0.353
       0.256
       0.090
      -0.100
      -0.241
      -0.252
      -0.117
       0.085
       0.236
       0.269
       0.205
       0.104
       0.007
      -0.086
      -0.179
      -0.245
      -0.236
      -0.137
      -0.007
       0.063
       0.023
      -0.081
      -0.148
      -0.119
      -0.033
       0.006
      -0.053
      -0.155
      -0.189
      -0.111
       0.010
       0.065
       0.014
      -0.075
      -0.091
       0.021
       0.215
       0.386
       0.444
       0.364
       0.186
      -0.013
      -0.167
      -0.241
      -0.236
      -0.167
      -0.049
       0.093
       0.214
       0.264
       0.226
       0.140
       0.060
       0.000
      -0.074
      -0.181
      -0.287
      -0.332
      -0.292
      -0.210
      -0.145
      -0.108
      -0.054
       0.062
       0.218
       0.313
       0.242
       0.004
      -0.264
      -0.375
      -0.239
       0.055
       0.307
       0.378
       0.302
       0.249
       0.351
       0.559
       0.673
       0.514
       0.085
      -0.417
      -0.735
      -0.734
      -0.474
      -0.144
       0.090
       0.173
       0.139
       0.028
      -0.142
      -0.340
      -0.502
      -0.555
      -0.465
      -0.265
      -0.031
       0.156
       0.248
       0.249
       0.207
       0.168
       0.148
       0.143
       0.142
       0.139
       0.116
       0.068
       0.019
       0.012
       0.063
       0.122
       0.104
      -0.028
      -0.225
      -0.379
      -0.404
      -0.287
      -0.086
       0.117
       0.265
       0.336
       0.321
       0.209
      -0.002
      -0.269
      -0.486
      -0.531
      -0.344
       0.009
       0.366
       0.564
       0.535
       0.343
       0.106
      -0.098
      -0.267
      -0.404
      -0.445
      -0.294
       0.048
       0.409
       0.561
       0.411
       0.096
      -0.139
      -0.145
       0.028
       0.195
       0.209
       0.064
      -0.129
      -0.251
      -0.257
      -0.178
      -0.071
       0.020
       0.069
       0.059
      -0.001
      -0.062
      -0.053
       0.057
       0.224
       0.354
       0.363
       0.225
      -0.007
      -0.223
      -0.307
      -0.212
      -0.005
       0.183
       0.244
       0.159
      -0.010
      -0.164
      -0.219
      -0.155
      -0.034
       0.034
      -0.034
      -0.219
      -0.396
      -0.407
      -0.190
       0.154
       0.417
       0.425
       0.172
      -0.174
      -0.392
      -0.381
      -0.222
      -0.084
      -0.059
      -0.095
      -0.068
       0.076
       0.259
       0.345
       0.278
       0.129
       0.007
      -0.055
      -0.092
      -0.136
      -0.160
      -0.126
      -0.042
       0.032
       0.048
       0.020
       0.003
       0.024
       0.043
       0.006
      -0.084
      -0.140
      -0.083
       0.062
       0.178
       0.157
       0.003
      -0.189
      -0.320
      -0.358
      -0.326
      -0.243
      -0.099
       0.107
       0.309
       0.397
       0.307
       0.095
      -0.095
      -0.158
      -0.112
      -0.061
      -0.075
      -0.122
      -0.129
      -0.061
       0.062
       0.211
       0.361
       0.467
       0.465
       0.326
       0.099
      -0.116
      -0.235
      -0.232
      -0.133
       0.022
       0.211
       0.422
       0.610
       0.679
       0.537
       0.200
      -0.185
      -0.434
      -0.461
      -0.313
      -0.099
       0.090
       0.203
       0.198
       0.052
      -0.214
      -0.506
      -0.669
      -0.583
      -0.263
       0.102
       0.267
       0.107
      -0.284
      -0.663
      -0.813
      -0.664
      -0.300
       0.134
       0.511
       0.747
       0.787
       0.624
       0.320
       0.005
      -0.197
      -0.248
      -0.214
      -0.192
      -0.211
      -0.215
      -0.123
       0.081
       0.320
       0.476
       0.474
       0.332
       0.138
      -0.018
      -0.104
      -0.146
      -0.170
      -0.161
      -0.094
       0.004
       0.051
      -0.026
      -0.205
      -0.380
      -0.439
      -0.350
      -0.158
       0.067
       0.288
       0.485
       0.617
       0.606
       0.408
       0.100
      -0.131
      -0.123
       0.108
       0.383
       0.506
       0.411
       0.174
      -0.070
      -0.221
      -0.250
      -0.203
      -0.166
      -0.208
      -0.341
      -0.507
      -0.631
      -0.682
      -0.705
      -0.784
      -0.941
      -1.092
      -1.127
      -1.033
      -0.928
      -0.949
      -1.092
      -1.186
      -1.008
      -0.489
       0.185
       0.662
       0.660
       0.165
      -0.572
      -1.207
      -1.492
      -1.370
      -0.946
      -0.408
       0.076
       0.437
       0.721
       1.016
       1.334
       1.586
       1.659
       1.539
       1.342
       1.235
       1.299
       1.475
       1.625
       1.668
       1.651
       1.700
       1.903
       2.227
       2.522
       2.597
       2.291
       1.520
       0.351
      -0.947
      -1.925
      -2.127
      -1.368
       0.069
       1.482
       2.106
       1.548
      -0.001
      -1.904
      -3.409
      -3.916
      -3.148
      -1.286
       0.927
       2.355
       2.077
       0.115
      -2.355
      -3.674
      -2.869
      -0.399
       2.176
       3.381
       2.881
       1.578
       0.740
       0.962
       1.794
       2.213
       1.452
      -0.448
      -2.667
      -4.089
      -3.929
      -2.167
       0.406
       2.590
       3.430
       2.729
       1.069
      -0.669
      -1.887
      -2.522
      -2.862
      -3.184
      -3.518
      -3.652
      -3.311
      -2.390
      -1.140
      -0.157
      -0.084
      -1.127
      -2.704
      -3.578
      -2.566
       0.577
       4.773
       8.107
       8.970
       7.085
       3.666
       0.592
      -0.838
      -0.652
       0.064
       0.184
      -0.542
      -1.405
      -1.469
      -0.424
       1.167
       2.357
       2.539
       1.791
       0.670
      -0.259
      -0.776
      -1.034
      -1.326
      -1.796
      -2.316
      -2.581
      -2.337
      -1.544
      -0.389
       0.802
       1.659
       1.845
       1.151
      -0.381
      -2.373
      -4.153
      -4.972
      -4.334
      -2.286
       0.483
       2.860
       3.838
       3.078
       1.147
      -0.822
      -1.813
      -1.497
      -0.272
       1.147
       2.195
       2.652
       2.554
       2.022
       1.165
       0.068
      -1.157
      -2.294
      -3.008
      -2.975
      -2.121
      -0.789
       0.394
       0.914
       0.750
       0.364
       0.307
       0.746
       1.311
       1.390
       0.632
      -0.730
      -2.008
      -2.531
      -2.090
      -1.005
       0.187
       1.119
       1.705
       1.975
       1.875
       1.282
       0.203
      -1.066
      -2.004
      -2.149
      -1.375
       0.049
       1.640
       2.919
       3.550
       3.368
       2.406
       0.907
      -0.715
      -1.998
      -2.551
      -2.163
      -0.904
       0.794
       2.223
       2.704
       1.988
       0.443
      -1.147
      -2.058
      -2.023
      -1.310
      -0.456
       0.125
       0.345
       0.355
       0.291
       0.142
      -0.140
      -0.455
      -0.563
      -0.308
       0.194
       0.615
       0.667
       0.308
      -0.258
      -0.736
      -0.893
      -0.636
      -0.043
       0.621
       0.959
       0.648
      -0.314
      -1.516
      -2.353
      -2.416
      -1.745
      -0.736
       0.167
       0.707
       0.820
       0.532
      -0.065
      -0.742
      -1.123
      -0.884
      -0.036
       0.987
       1.574
       1.356
       0.458
      -0.614
      -1.327
      -1.443
      -1.071
      -0.485
       0.105
       0.641
       1.145
       1.592
       1.874
       1.888
       1.680
       1.444
       1.367
       1.443
       1.482
       1.314
       0.968
       0.635
       0.452
       0.335
       0.057
      -0.535
      -1.355
      -2.095
      -2.383
      -1.980
      -0.937
       0.355
       1.312
       1.461
       0.723
      -0.522
      -1.654
      -2.151
      -1.827
      -0.874
       0.262
       1.080
       1.235
       0.661
      -0.407
      -1.531
      -2.248
      -2.284
      -1.686
      -0.803
      -0.073
       0.240
       0.202
       0.102
       0.205
       0.532
       0.878
       1.024
       0.932
       0.740
       0.583
       0.446
       0.223
      -0.085
      -0.287
      -0.158
       0.310
       0.829
       1.017
       0.712
       0.126
      -0.306
      -0.251
       0.294
       1.031
       1.588
       1.741
       1.484
       0.952
       0.326
      -0.220
      -0.528
      -0.508
      -0.201
       0.197
       0.432
       0.352
       0.010
      -0.392
      -0.656
      -0.721
      -0.654
      -0.567
      -0.550
      -0.661
      -0.934
      -1.332
      -1.711
      -1.858
      -1.620
      -1.034
      -0.327
       0.228
       0.482
       0.460
       0.266
      -0.020
      -0.347
      -0.612
      -0.631
      -0.262
       0.420
       1.094
       1.382
       1.115
       0.432
      -0.344
      -0.937
      -1.219
      -1.176
      -0.825
      -0.236
       0.422
       0.910
       1.063
       0.922
       0.696
       0.596
       0.687
       0.896
       1.105
       1.218
       1.158
       0.881
       0.444
       0.050
      -0.044
       0.274
       0.856
       1.388
       1.600
       1.406
       0.899
       0.271
      -0.260
      -0.513
      -0.428
      -0.139
       0.081
      -0.003
      -0.418
      -0.961
      -1.338
      -1.350
      -0.995
      -0.468
      -0.083
      -0.129
      -0.706
      -1.604
      -2.352
      -2.463
      -1.748
      -0.466
       0.828
       1.609
       1.647
       1.053
       0.141
      -0.729
      -1.271
      -1.347
      -1.026
      -0.559
      -0.236
      -0.192
      -0.327
      -0.395
      -0.207
       0.224
       0.697
       0.969
       0.920
       0.622
       0.280
       0.101
       0.173
       0.425
       0.688
       0.802
       0.697
       0.401
       0.001
      -0.377
      -0.588
      -0.513
      -0.143
       0.382
       0.824
       0.980
       0.796
       0.411
       0.082
       0.041
       0.325
       0.725
       0.906
       0.643
       0.000
      -0.700
      -1.094
      -1.013
      -0.567
      -0.035
       0.316
       0.365
       0.149
      -0.204
      -0.554
      -0.794
      -0.883
      -0.847
      -0.748
      -0.637
      -0.521
      -0.394
      -0.297
      -0.318
      -0.514
      -0.825
      -1.079
      -1.115
      -0.904
      -0.541
      -0.144
       0.233
       0.583
       0.870
       1.003
       0.897
       0.561
       0.127
      -0.201
      -0.244
       0.040
       0.503
       0.866
       0.887
       0.528
      -0.005
      -0.389
      -0.394
      -0.008
       0.588
       1.148
       1.493
       1.560
       1.378
       1.037
       0.634
       0.244
      -0.103
      -0.399
      -0.612
      -0.684
      -0.575
      -0.333
      -0.087
       0.038
       0.023
      -0.044
      -0.047
       0.049
       0.177
       0.217
       0.100
      -0.142
      -0.393
      -0.532
      -0.490
      -0.280
       0.008
       0.218
       0.194
      -0.116
      -0.584
      -0.942
      -0.958
      -0.589
       0.008
       0.592
       0.985
       1.111
       0.957
       0.521
      -0.158
      -0.936
      -1.546
      -1.710
      -1.329
      -0.588
