Origin Time       30/10/2012 01:40:24
Lat.              26.2 N	
Long.             92.4 E	
Depth (Km)         15.0
Magnitude         3.9
 Region           Morigaon-Assam                                                   
 Above details taken from IMD 
   
Station Code      NAU
Station Lat.       26.349
Station Long.      92.690
Station Height(m)   72.0
Site Class        C   Vs30 between 200 m/sec to 375 m/sec *  
Record Time       30.10.2012 01:38:40.874
Sampling Rate     200. Hz
 Record Duration   66.110 Sec.
 Direction         Vert. (Up positive)
Max. Acceleration      6.858 cm/sec**2
     
  * For reference see Site Classification link of website 
     
 Base Line Corrected and Low Pass Filtered (Cut Off at 35 Hz) Time History
 Acceleration data in cm/sec**2
    
[...]
      -0.191
      -0.375
      -0.537
      -0.661
      -0.691
      -0.579
      -0.377
      -0.225
      -0.205
      -0.238
      -0.158
       0.106
       0.463
       0.751
       0.872
       0.822
       0.645
       0.380
       0.078
      -0.184
      -0.335
      -0.371
      -0.343
      -0.277
      -0.150
       0.040
       0.205
       0.235
       0.134
       0.026
       0.027
       0.119
       0.187
       0.143
       0.009
      -0.130
      -0.223
      -0.284
      -0.330
      -0.322
      -0.200
       0.022
       0.240
       0.347
       0.303
       0.125
      -0.138
      -0.384
      -0.477
      -0.340
      -0.039
       0.270
       0.451
       0.449
       0.275
       0.007
      -0.208
      -0.238
      -0.101
       0.038
       0.036
      -0.072
      -0.117
      -0.010
       0.149
       0.181
       0.040
      -0.140
      -0.190
      -0.068
       0.120
       0.245
       0.248
       0.139
      -0.051
      -0.280
      -0.474
      -0.544
      -0.442
      -0.192
       0.136
       0.459
       0.685
       0.713
       0.495
       0.114
      -0.238
      -0.405
      -0.385
      -0.289
      -0.196
      -0.095
       0.044
       0.180
       0.237
       0.206
       0.181
       0.258
       0.418
       0.523
       0.452
       0.223
      -0.042
      -0.238
      -0.344
      -0.379
      -0.351
      -0.262
      -0.119
       0.064
       0.247
       0.332
       0.221
      -0.068
      -0.363
      -0.483
      -0.414
      -0.316
      -0.330
      -0.428
      -0.461
      -0.326
      -0.052
       0.266
       0.570
       0.843
       1.020
       0.983
       0.674
       0.205
      -0.196
      -0.377
      -0.377
      -0.350
      -0.401
      -0.522
      -0.644
      -0.701
      -0.631
      -0.378
       0.055
       0.540
       0.852
       0.821
       0.479
       0.039
      -0.275
      -0.384
      -0.348
      -0.269
      -0.210
      -0.193
      -0.228
      -0.307
      -0.373
      -0.320
      -0.088
       0.243
       0.481
       0.500
       0.355
       0.216
       0.176
       0.194
       0.195
       0.149
       0.047
      -0.119
      -0.294
      -0.340
      -0.155
       0.178
       0.455
       0.537
       0.470
       0.376
       0.303
       0.204
       0.040
      -0.147
      -0.268
      -0.296
      -0.302
      -0.392
      -0.575
      -0.740
      -0.752
      -0.580
      -0.304
      -0.029
       0.192
       0.351
       0.442
       0.458
       0.406
       0.319
       0.244
       0.223
       0.264
       0.306
       0.255
       0.079
      -0.127
      -0.219
      -0.148
      -0.003
       0.086
       0.056
      -0.088
      -0.312
      -0.537
      -0.640
      -0.528
      -0.242
       0.075
       0.307
       0.453
       0.559
       0.618
       0.578
       0.430
       0.234
       0.055
      -0.110
      -0.289
      -0.477
      -0.617
      -0.649
      -0.556
      -0.367
      -0.137
       0.082
       0.262
       0.403
       0.502
       0.530
       0.443
       0.233
      -0.036
      -0.258
      -0.360
      -0.348
      -0.286
      -0.228
      -0.171
      -0.077
       0.060
       0.185
       0.213
       0.117
      -0.035
      -0.126
      -0.086
       0.039
       0.122
       0.052
      -0.178
      -0.451
      -0.586
      -0.465
      -0.124
       0.255
       0.477
       0.480
       0.357
       0.244
       0.195
       0.180
       0.162
       0.150
       0.152
       0.119
      -0.035
      -0.339
      -0.701
      -0.953
      -0.963
      -0.720
      -0.331
       0.071
       0.416
       0.694
       0.884
       0.921
       0.772
       0.520
       0.320
       0.259
       0.247
       0.098
      -0.279
      -0.760
      -1.089
      -1.096
      -0.821
      -0.429
      -0.030
       0.364
       0.736
       0.978
       0.986
       0.803
       0.607
       0.518
       0.452
       0.218
      -0.247
      -0.751
      -0.992
      -0.851
      -0.503
      -0.242
      -0.187
      -0.237
      -0.254
      -0.226
      -0.199
      -0.136
       0.063
       0.404
       0.724
       0.825
       0.645
       0.294
      -0.066
      -0.335
      -0.492
      -0.540
      -0.487
      -0.384
      -0.319
      -0.339
      -0.376
      -0.315
      -0.137
       0.045
       0.132
       0.182
       0.342
       0.657
       0.985
       1.117
       0.953
       0.560
       0.107
      -0.246
      -0.431
      -0.483
      -0.485
      -0.490
      -0.497
      -0.487
      -0.459
      -0.434
      -0.410
      -0.322
      -0.085
       0.298
       0.681
       0.874
       0.813
       0.602
       0.378
       0.152
      -0.150
      -0.532
      -0.854
      -0.963
      -0.836
      -0.588
      -0.335
      -0.101
       0.147
       0.405
       0.621
       0.758
       0.844
       0.922
       0.978
       0.921
       0.665
       0.211
      -0.328
      -0.790
      -1.068
      -1.166
      -1.156
      -1.074
      -0.881
      -0.521
      -0.032
       0.454
       0.798
       0.954
       0.961
       0.872
       0.711
       0.503
       0.285
       0.062
      -0.235
      -0.659
      -1.105
      -1.311
      -1.091
      -0.553
      -0.024
       0.256
       0.317
       0.337
       0.399
       0.431
       0.367
       0.285
       0.320
       0.470
       0.544
       0.384
       0.061
      -0.192
      -0.252
      -0.212
      -0.193
      -0.150
       0.017
       0.224
       0.209
      -0.135
      -0.554
      -0.647
      -0.293
       0.232
       0.550
       0.528
       0.292
       0.007
      -0.266
      -0.488
      -0.559
      -0.405
      -0.134
       0.028
      -0.031
      -0.176
      -0.196
      -0.051
       0.103
       0.142
       0.133
       0.227
       0.394
       0.386
       0.011
      -0.586
      -1.001
      -0.947
      -0.513
      -0.039
       0.205
       0.205
       0.147
       0.203
       0.371
       0.480
       0.369
       0.080
      -0.164
      -0.170
       0.048
       0.325
       0.534
       0.663
       0.730
       0.692
       0.494
       0.172
      -0.134
      -0.286
      -0.272
      -0.194
      -0.166
      -0.227
      -0.333
      -0.401
      -0.375
      -0.274
      -0.194
      -0.213
      -0.273
      -0.220
       0.012
       0.268
       0.294
       0.011
      -0.364
      -0.519
      -0.369
      -0.128
      -0.060
      -0.176
      -0.262
      -0.161
       0.040
       0.155
       0.153
       0.187
       0.368
       0.600
       0.681
       0.526
       0.274
       0.153
       0.252
       0.405
       0.340
      -0.029
      -0.483
      -0.700
      -0.573
      -0.286
      -0.097
      -0.086
      -0.138
      -0.115
       0.017
       0.187
       0.311
       0.365
       0.378
       0.379
       0.328
       0.146
      -0.188
      -0.579
      -0.865
      -0.939
      -0.796
      -0.500
      -0.152
       0.128
       0.259
       0.255
       0.217
       0.235
       0.328
       0.454
       0.539
       0.497
       0.300
       0.067
      -0.002
       0.144
       0.300
       0.211
      -0.129
      -0.478
      -0.618
      -0.546
      -0.382
      -0.208
      -0.058
       0.024
       0.021
       0.008
       0.086
       0.242
       0.322
       0.190
      -0.099
      -0.327
      -0.323
      -0.141
       0.015
       0.018
      -0.064
      -0.087
      -0.010
       0.085
       0.125
       0.120
       0.115
       0.097
       0.027
      -0.063
      -0.071
       0.047
       0.191
       0.216
       0.097
      -0.054
      -0.128
      -0.134
      -0.154
      -0.218
      -0.279
      -0.285
      -0.248
      -0.224
      -0.242
      -0.250
      -0.150
       0.115
       0.480
       0.773
       0.866
       0.797
       0.705
       0.633
       0.457
       0.067
      -0.413
      -0.667
      -0.512
      -0.139
       0.014
      -0.300
      -0.856
      -1.140
      -0.842
      -0.165
       0.380
       0.489
       0.324
       0.254
       0.407
       0.560
       0.466
       0.179
      -0.015
       0.040
       0.181
       0.135
      -0.154
      -0.459
      -0.550
      -0.452
      -0.380
      -0.416
      -0.361
       0.029
       0.667
       1.122
       1.039
       0.549
       0.156
       0.191
       0.435
       0.347
      -0.329
      -1.265
      -1.837
      -1.691
      -1.016
      -0.315
       0.060
       0.165
       0.299
       0.619
       0.949
       0.980
       0.630
       0.164
      -0.074
      -0.009
       0.105
      -0.033
      -0.469
      -0.952
      -1.145
      -0.895
      -0.352
       0.133
       0.290
       0.150
       0.016
       0.174
       0.645
       1.184
       1.486
       1.406
       1.025
       0.539
       0.081
      -0.347
      -0.756
      -1.039
      -1.043
      -0.794
      -0.544
      -0.506
      -0.577
      -0.426
       0.115
       0.822
       1.275
       1.256
       0.901
       0.478
       0.118
      -0.207
      -0.503
      -0.663
      -0.590
      -0.359
      -0.195
      -0.255
      -0.465
      -0.583
      -0.444
      -0.115
       0.171
       0.249
       0.161
       0.078
       0.088
       0.109
       0.024
      -0.131
      -0.164
       0.033
       0.310
       0.373
       0.106
      -0.267
      -0.392
      -0.147
       0.232
       0.411
       0.296
       0.094
       0.044
       0.154
       0.223
       0.094
      -0.181
      -0.439
      -0.594
      -0.671
      -0.677
      -0.526
      -0.154
       0.340
       0.742
       0.903
       0.857
       0.732
       0.599
       0.439
       0.233
       0.020
      -0.174
      -0.411
      -0.759
      -1.123
      -1.240
      -0.916
      -0.247
       0.442
       0.846
       0.858
       0.554
       0.109
      -0.255
      -0.340
      -0.102
       0.273
       0.478
       0.308
      -0.169
      -0.650
      -0.824
      -0.637
      -0.336
      -0.217
      -0.307
      -0.342
      -0.093
       0.348
       0.652
       0.599
       0.317
       0.144
       0.264
       0.484
       0.430
       0.003
      -0.420
      -0.341
       0.279
       0.906
       0.969
       0.474
      -0.027
      -0.062
       0.256
       0.400
       0.040
      -0.629
      -1.143
      -1.244
      -1.046
      -0.790
      -0.569
      -0.307
       0.068
       0.510
       0.872
       0.987
       0.763
       0.284
      -0.177
      -0.319
      -0.074
       0.301
       0.437
       0.189
      -0.241
      -0.512
      -0.479
      -0.322
      -0.328
      -0.579
      -0.865
      -0.899
      -0.574
       0.010
       0.667
       1.229
       1.546
       1.490
       1.021
       0.257
      -0.527
      -1.009
      -1.036
      -0.784
      -0.644
      -0.852
      -1.227
      -1.340
      -0.945
      -0.186
       0.607
       1.212
       1.551
       1.556
       1.163
       0.474
      -0.194
      -0.516
      -0.412
      -0.051
       0.363
       0.749
       1.044
       1.056
       0.566
      -0.379
      -1.349
      -1.829
      -1.647
      -1.067
      -0.476
      -0.029
       0.355
       0.753
       1.081
       1.173
       0.963
       0.564
       0.183
      -0.041
      -0.130
      -0.209
      -0.379
      -0.625
      -0.824
      -0.796
      -0.430
       0.178
       0.705
       0.824
       0.511
       0.087
      -0.077
       0.106
       0.401
       0.497
       0.226
      -0.365
      -1.033
      -1.382
      -1.049
      -0.022
       1.194
       1.863
       1.592
       0.649
      -0.305
      -0.805
      -0.930
      -1.085
      -1.498
      -1.923
      -1.863
      -1.091
       0.080
       1.070
       1.558
       1.695
       1.814
       1.964
       1.808
       1.028
      -0.218
      -1.308
      -1.698
      -1.421
      -1.003
      -0.892
      -1.015
      -0.919
      -0.308
       0.621
       1.386
       1.716
       1.779
       1.910
       2.169
       2.246
       1.805
       0.850
      -0.280
      -1.214
      -1.786
      -2.013
      -1.976
      -1.753
      -1.388
      -0.887
      -0.285
       0.285
       0.662
       0.858
       1.091
       1.529
       1.993
       2.018
       1.258
      -0.148
      -1.592
      -2.411
      -2.376
      -1.847
      -1.432
      -1.449
      -1.716
      -1.843
      -1.637
      -1.133
      -0.320
       0.918
       2.462
       3.702
       3.877
       2.775
       1.025
      -0.415
      -1.097
      -1.406
      -2.039
      -3.187
      -4.257
      -4.419
      -3.360
      -1.510
       0.361
       1.684
       2.327
       2.494
       2.442
       2.237
       1.767
       1.043
       0.418
       0.326
       0.734
       1.017
       0.555
      -0.588
      -1.735
      -2.296
      -2.212
      -1.673
      -0.667
       0.931
       2.867
       4.391
       4.785
       3.948
       2.393
       0.765
      -0.541
      -1.415
      -1.913
      -2.205
      -2.528
      -3.001
      -3.437
      -3.394
      -2.522
      -0.938
       0.796
       2.156
       3.077
       3.812
       4.368
       4.306
       3.190
       1.148
      -1.177
      -3.140
      -4.441
      -5.071
      -5.115
      -4.671
      -3.810
      -2.555
      -0.957
       0.816
       2.544
       4.118
       5.516
       6.569
       6.858
       5.963
       3.827
       0.880
      -2.132
      -4.445
      -5.571
      -5.501
      -4.653
      -3.549
      -2.490
      -1.511
      -0.555
       0.404
       1.374
       2.343
       3.218
       3.817
       3.958
       3.516
       2.405
       0.633
      -1.538
      -3.545
      -4.776
      -4.944
      -4.219
      -2.987
      -1.543
      -0.015
       1.476
       2.689
       3.354
       3.370
       2.875
       2.134
       1.350
       0.601
      -0.098
      -0.717
      -1.201
      -1.527
      -1.701
      -1.698
      -1.455
      -0.978
      -0.402
       0.145
       0.687
       1.310
       1.930
       2.246
       1.994
       1.205
       0.209
      -0.578
      -0.925
      -0.949
      -1.025
      -1.404
      -1.873
      -1.907
      -1.230
      -0.179
       0.592
       0.755
       0.591
       0.661
       1.217
       1.928
       2.170
       1.624
       0.596
      -0.303
      -0.765
      -0.992
      -1.278
      -1.575
      -1.599
      -1.278
      -0.876
      -0.672
      -0.635
      -0.524
      -0.188
       0.281
       0.676
       0.880
       0.921
       0.873
       0.738
       0.487
       0.197
       0.051
       0.127
       0.260
       0.239
       0.125
       0.214
       0.636
       1.127
       1.271
       0.919
       0.280
      -0.315
      -0.645
      -0.642
      -0.360
       0.002
       0.152
      -0.103
      -0.665
      -1.189
      -1.349
      -1.052
      -0.426
       0.324
       1.000
       1.389
       1.281
       0.633
      -0.268
      -0.934
      -1.087
      -0.942
      -0.959
      -1.294
      -1.607
      -1.487
      -0.971
      -0.508
      -0.426
      -0.548
      -0.375
       0.381
       1.501
       2.436
       2.755
       2.446
       1.794
       1.055
       0.308
      -0.387
      -0.827
      -0.785
      -0.286
       0.339
       0.704
       0.634
       0.215
      -0.303
      -0.620
      -0.471
       0.244
       1.350
       2.396
       2.814
       2.196
       0.575
      -1.512
      -3.299
      -4.272
      -4.467
      -4.310
      -4.159
      -3.975
      -3.402
      -2.145
      -0.287
       1.708
       3.255
       3.945
       3.685
       2.675
       1.323
       0.103
      -0.628
      -0.766
      -0.463
       0.011
       0.436
       0.746
       1.007
       1.287
       1.530
       1.591
       1.422
       1.194
       1.209
       1.638
       2.331
       2.863
       2.791
       1.919
       0.391
      -1.444
      -3.195
      -4.500
      -5.064
      -4.788
      -3.925
      -2.964
      -2.245
      -1.662
      -0.877
       0.137
       0.876
       0.765
      -0.155
      -1.111
      -1.229
      -0.276
       1.209
       2.439
       2.990
       2.984
       2.793
       2.659
       2.543
       2.283
       1.814
       1.213
       0.555
      -0.188
      -1.034
      -1.811
      -2.167
      -1.815
      -0.764
       0.684
       2.102
       3.068
       3.204
       2.237
       0.209
      -2.319
      -4.365
      -5.044
      -4.186
      -2.476
      -0.946
      -0.258
      -0.395
      -0.943
      -1.554
      -2.106
      -2.479
      -2.346
      -1.313
       0.663
       3.042
       4.941
       5.689
       5.168
       3.714
       1.788
      -0.157
      -1.625
      -2.151
      -1.639
      -0.596
       0.169
       0.227
      -0.108
      -0.154
       0.410
       1.277
       1.933
       2.208
       2.262
       2.108
       1.367
      -0.322
      -2.696
      -4.827
      -5.760
      -5.186
      -3.528
      -1.490
       0.334
       1.504
       1.707
       0.942
      -0.295
      -1.216
      -1.308
      -0.688
       0.133
       0.775
       1.193
       1.410
       1.259
       0.556
      -0.492
      -1.239
      -1.093
      -0.038
       1.373
       2.487
       2.974
       2.857
       2.302
       1.475
       0.540
      -0.307
      -0.886
      -1.112
      -1.036
      -0.820
      -0.677
      -0.756
      -1.027
      -1.262
      -1.192
      -0.690
       0.168
       1.147
       1.931
       2.238
       1.992
       1.364
       0.596
      -0.215
      -1.066
      -1.804
      -2.081
      -1.674
      -0.799
       0.006
       0.336
       0.218
      -0.020
      -0.093
       0.092
       0.495
       1.014
       1.449
       1.475
       0.819
      -0.456
      -1.868
      -2.783
      -2.865
      -2.257
      -1.357
      -0.475
       0.248
       0.648
       0.461
      -0.416
      -1.626
      -2.428
      -2.185
      -0.837
       1.063
       2.688
       3.362
       2.827
       1.328
      -0.501
      -1.946
      -2.555
      -2.280
      -1.358
      -0.117
       1.123
       2.106
       2.699
       2.909
       2.786
       2.358
       1.716
       1.109
       0.837
       0.983
       1.280
       1.287
       0.716
      -0.333
      -1.431
      -2.135
      -2.309
      -2.149
      -1.882
      -1.492
      -0.826
       0.055
       0.742
       0.804
       0.238
      -0.439
      -0.616
      -0.124
       0.612
       0.932
       0.499
      -0.434
      -1.248
      -1.494
      -1.242
      -0.945
      -0.969
      -1.263
      -1.462
      -1.244
      -0.589
       0.238
       0.913
       1.255
       1.306
       1.222
       1.091
       0.876
       0.544
       0.229
       0.151
       0.328
       0.455
       0.173
      -0.495
      -1.070
      -1.052
      -0.434
       0.271
       0.509
       0.173
      -0.356
      -0.604
      -0.403
       0.041
       0.424
       0.635
       0.804
       1.085
       1.431
       1.595
       1.390
       0.940
       0.617
       0.664
       0.896
       0.834
       0.183
      -0.822
