Origin Time       16/4/2013 01:23:19	
Lat.              26.3 N	
Long.             92.0 E	
Depth (Km)         16.0
Magnitude         4.6
 Region           Assam-Darrang                                                    
 Above details taken from IMD 
   
Station Code      NAU
Station Lat.       26.349
Station Long.      92.690
Station Height(m)   78.0
Site Class        C   Vs30 between 200 m/sec to 375 m/sec *  
Record Time       16.04.2013 01:23:09.629
Sampling Rate     200. Hz
 Record Duration   90.335 Sec.
 Direction         Vert. (Up positive)
Max. Acceleration     10.689 cm/sec**2
     
  * For reference see Site Classification link of website 
     
 Base Line Corrected and Low Pass Filtered (Cut Off at 35 Hz) Time History
 Acceleration data in cm/sec**2
    
[...]
       2.797
       2.931
       2.712
       2.186
       1.372
       0.315
      -0.856
      -1.930
      -2.692
      -3.015
      -2.900
      -2.457
      -1.817
      -1.074
      -0.266
       0.574
       1.360
       1.957
       2.245
       2.212
       1.963
       1.624
       1.228
       0.695
      -0.044
      -0.892
      -1.595
      -1.914
      -1.811
      -1.456
      -1.068
      -0.746
      -0.434
      -0.031
       0.479
       0.990
       1.346
       1.438
       1.249
       0.842
       0.318
      -0.222
      -0.704
      -1.095
      -1.376
      -1.510
      -1.443
      -1.144
      -0.645
      -0.047
       0.517
       0.934
       1.146
       1.139
       0.927
       0.551
       0.103
      -0.275
      -0.446
      -0.349
      -0.033
       0.390
       0.812
       1.160
       1.384
       1.458
       1.378
       1.161
       0.829
       0.415
      -0.034
      -0.457
      -0.801
      -1.026
      -1.107
      -1.030
      -0.787
      -0.398
       0.067
       0.504
       0.815
       0.962
       0.967
       0.859
       0.641
       0.299
      -0.158
      -0.679
      -1.182
      -1.585
      -1.836
      -1.951
      -2.002
      -2.042
      -2.013
      -1.763
      -1.179
      -0.310
       0.641
       1.453
       2.001
       2.252
       2.194
       1.826
       1.210
       0.497
      -0.152
      -0.653
      -1.007
      -1.238
      -1.339
      -1.267
      -0.969
      -0.405
       0.402
       1.320
       2.128
       2.617
       2.710
       2.468
       1.984
       1.296
       0.415
      -0.554
      -1.384
      -1.850
      -1.894
      -1.651
      -1.311
      -0.971
      -0.625
      -0.255
       0.086
       0.293
       0.295
       0.107
      -0.190
      -0.502
      -0.771
      -0.977
      -1.134
      -1.257
      -1.313
      -1.204
      -0.835
      -0.212
       0.518
       1.144
       1.492
       1.497
       1.199
       0.704
       0.146
      -0.337
      -0.619
      -0.640
      -0.433
      -0.105
       0.241
       0.551
       0.805
       0.989
       1.084
       1.087
       1.009
       0.858
       0.629
       0.337
       0.046
      -0.162
      -0.273
      -0.366
      -0.511
      -0.650
      -0.622
      -0.321
       0.163
       0.599
       0.809
       0.804
       0.724
       0.676
       0.627
       0.461
       0.094
      -0.450
      -1.039
      -1.502
      -1.724
      -1.725
      -1.617
      -1.479
      -1.258
      -0.855
      -0.298
       0.223
       0.506
       0.519
       0.415
       0.377
       0.444
       0.470
       0.273
      -0.171
      -0.659
      -0.910
      -0.786
      -0.381
       0.075
       0.409
       0.616
       0.806
       1.049
       1.252
       1.229
       0.888
       0.373
      -0.034
      -0.157
      -0.060
       0.074
       0.172
       0.325
       0.623
       1.006
       1.298
       1.350
       1.119
       0.638
      -0.019
      -0.721
      -1.288
      -1.591
      -1.651
      -1.608
      -1.579
      -1.543
      -1.379
      -0.988
      -0.380
       0.323
       0.939
       1.294
       1.305
       1.024
       0.603
       0.199
      -0.110
      -0.330
      -0.489
      -0.588
      -0.603
      -0.534
      -0.421
      -0.316
      -0.243
      -0.206
      -0.218
      -0.278
      -0.331
      -0.275
      -0.049
       0.302
       0.651
       0.881
       0.936
       0.814
       0.547
       0.211
      -0.077
      -0.223
      -0.220
      -0.164
      -0.175
      -0.297
      -0.457
      -0.515
      -0.376
      -0.073
       0.260
       0.528
       0.761
       1.055
       1.400
       1.608
       1.471
       0.980
       0.362
      -0.119
      -0.401
      -0.638
      -0.993
      -1.417
      -1.668
      -1.538
      -1.076
      -0.560
      -0.251
      -0.174
      -0.120
       0.142
       0.644
       1.177
       1.458
       1.355
       0.964
       0.501
       0.116
      -0.181
      -0.460
      -0.751
      -0.987
      -1.060
      -0.928
      -0.677
      -0.434
      -0.239
      -0.003
       0.355
       0.768
       1.039
       1.026
       0.792
       0.545
       0.402
       0.258
      -0.059
      -0.516
      -0.833
      -0.773
      -0.431
      -0.158
      -0.173
      -0.318
      -0.270
       0.053
       0.359
       0.293
      -0.160
      -0.652
      -0.822
      -0.623
      -0.298
      -0.100
      -0.080
      -0.108
      -0.026
       0.244
       0.675
       1.165
       1.572
       1.766
       1.680
       1.345
       0.866
       0.356
      -0.106
      -0.482
      -0.759
      -0.956
      -1.124
      -1.297
      -1.432
      -1.416
      -1.161
      -0.718
      -0.265
       0.045
       0.217
       0.360
       0.526
       0.640
       0.607
       0.453
       0.316
       0.277
       0.248
       0.056
      -0.351
      -0.814
      -1.089
      -1.065
      -0.817
      -0.471
      -0.053
       0.496
       1.173
       1.826
       2.218
       2.195
       1.778
       1.121
       0.381
      -0.351
      -1.031
      -1.615
      -2.035
      -2.199
      -2.027
      -1.505
      -0.741
       0.054
       0.669
       1.030
       1.214
       1.339
       1.411
       1.325
       1.000
       0.503
      -0.009
      -0.443
      -0.827
      -1.208
      -1.523
      -1.626
      -1.419
      -0.961
      -0.424
       0.064
       0.505
       0.968
       1.434
       1.755
       1.770
       1.429
       0.810
       0.043
      -0.759
      -1.509
      -2.123
      -2.510
      -2.568
      -2.222
      -1.474
      -0.452
       0.624
       1.538
       2.175
       2.528
       2.618
       2.413
       1.862
       1.008
       0.039
      -0.807
      -1.378
      -1.647
      -1.645
      -1.386
      -0.879
      -0.179
       0.590
       1.261
       1.697
       1.839
       1.697
       1.312
       0.734
       0.037
      -0.678
      -1.294
      -1.704
      -1.841
      -1.711
      -1.403
      -1.024
      -0.615
      -0.139
       0.434
       1.037
       1.522
       1.766
       1.762
       1.605
       1.379
       1.070
       0.595
      -0.054
      -0.732
      -1.212
      -1.359
      -1.231
      -1.014
      -0.852
      -0.730
      -0.537
      -0.244
       0.021
       0.079
      -0.117
      -0.429
      -0.670
      -0.765
      -0.766
      -0.718
      -0.562
      -0.184
       0.407
       1.016
       1.388
       1.411
       1.159
       0.752
       0.213
      -0.508
      -1.375
      -2.156
      -2.522
      -2.277
      -1.514
      -0.541
       0.346
       1.040
       1.600
       2.072
       2.363
       2.310
       1.865
       1.198
       0.558
       0.070
      -0.320
      -0.689
      -0.975
      -1.021
      -0.762
      -0.327
       0.081
       0.379
       0.643
       0.933
       1.168
       1.206
       1.004
       0.656
       0.253
      -0.201
      -0.729
      -1.249
      -1.564
      -1.520
      -1.163
      -0.725
      -0.413
      -0.236
      -0.042
       0.303
       0.762
       1.143
       1.251
       1.059
       0.730
       0.466
       0.324
       0.188
      -0.073
      -0.442
      -0.754
      -0.867
      -0.822
      -0.794
      -0.869
      -0.908
      -0.691
      -0.190
       0.341
       0.584
       0.445
       0.123
      -0.088
      -0.042
       0.191
       0.443
       0.590
       0.594
       0.467
       0.237
      -0.041
      -0.286
      -0.451
      -0.554
      -0.641
      -0.702
      -0.653
      -0.407
       0.032
       0.560
       1.050
       1.422
       1.621
       1.568
       1.176
       0.447
      -0.472
      -1.352
      -2.009
      -2.364
      -2.427
      -2.243
      -1.863
      -1.326
      -0.664
       0.076
       0.818
       1.478
       1.993
       2.324
       2.415
       2.181
       1.576
       0.691
      -0.254
      -1.022
      -1.490
      -1.685
      -1.714
      -1.653
      -1.476
      -1.076
      -0.379
       0.550
       1.501
       2.224
       2.543
       2.426
       1.971
       1.314
       0.554
      -0.253
      -1.019
      -1.622
      -1.998
      -2.193
      -2.267
      -2.144
      -1.637
      -0.671
       0.541
       1.591
       2.168
       2.265
       2.106
       1.873
       1.557
       1.046
       0.333
      -0.419
      -1.005
      -1.332
      -1.429
      -1.348
      -1.107
      -0.734
      -0.327
      -0.009
       0.168
       0.251
       0.322
       0.402
       0.438
       0.377
       0.223
       0.008
      -0.257
      -0.563
      -0.820
      -0.848
      -0.521
       0.073
       0.664
       0.995
       1.013
       0.850
       0.651
       0.447
       0.207
      -0.056
      -0.282
      -0.471
      -0.707
      -1.043
      -1.378
      -1.516
      -1.355
      -0.980
      -0.560
      -0.152
       0.321
       0.911
       1.501
       1.881
       1.950
       1.780
       1.475
       1.031
       0.402
      -0.305
      -0.789
      -0.767
      -0.230
       0.509
       1.062
       1.267
       1.259
       1.264
       1.347
       1.368
       1.157
       0.707
       0.187
      -0.225
      -0.495
      -0.706
      -0.890
      -0.952
      -0.793
      -0.489
      -0.263
      -0.257
      -0.390
      -0.470
      -0.440
      -0.436
      -0.630
      -1.034
      -1.483
      -1.792
      -1.902
      -1.884
      -1.829
      -1.767
      -1.668
      -1.482
      -1.155
      -0.684
      -0.170
       0.199
       0.288
       0.149
      -0.005
       0.013
       0.211
       0.438
       0.543
       0.491
       0.339
       0.140
      -0.081
      -0.292
      -0.425
      -0.433
      -0.330
      -0.172
       0.011
       0.224
       0.462
       0.651
       0.677
       0.478
       0.125
      -0.200
      -0.331
      -0.251
      -0.079
       0.051
       0.105
       0.123
       0.116
       0.028
      -0.201
      -0.535
      -0.800
      -0.776
      -0.363
       0.346
       1.177
       2.054
       3.007
       4.006
       4.826
       5.143
       4.762
       3.760
       2.409
       0.994
      -0.309
      -1.401
      -2.198
      -2.637
      -2.733
      -2.573
      -2.220
      -1.656
      -0.851
       0.127
       1.089
       1.820
       2.194
       2.175
       1.767
       0.994
      -0.048
      -1.173
      -2.194
      -3.025
      -3.657
      -4.053
      -4.095
      -3.670
      -2.770
      -1.519
      -0.106
       1.272
       2.441
       3.261
       3.635
       3.506
       2.868
       1.806
       0.508
      -0.775
      -1.837
      -2.608
      -3.137
      -3.470
      -3.564
      -3.318
      -2.677
      -1.671
      -0.399
       1.018
       2.439
       3.715
       4.718
       5.371
       5.636
       5.469
       4.810
       3.636
       2.050
       0.296
      -1.340
      -2.672
      -3.683
      -4.449
      -4.980
      -5.163
      -4.850
      -4.027
      -2.846
      -1.523
      -0.202
       1.050
       2.149
       2.938
       3.257
       3.077
       2.553
       1.916
       1.313
       0.732
       0.081
      -0.702
      -1.601
      -2.543
      -3.438
      -4.169
      -4.588
      -4.543
      -3.948
      -2.828
      -1.327
       0.329
       1.916
       3.272
       4.297
       4.891
       4.939
       4.388
       3.336
       2.003
       0.608
      -0.705
      -1.840
      -2.673
      -3.071
      -2.957
      -2.369
      -1.429
      -0.267
       1.016
       2.328
       3.509
       4.315
       4.503
       3.991
       2.929
       1.604
       0.250
      -1.045
      -2.271
      -3.356
      -4.140
      -4.457
      -4.238
      -3.540
      -2.499
      -1.283
      -0.057
       1.040
       1.914
       2.537
       2.925
       3.109
       3.074
       2.755
       2.112
       1.219
       0.261
      -0.576
      -1.217
      -1.678
      -1.948
      -1.905
      -1.402
      -0.438
       0.758
       1.838
       2.524
       2.684
       2.288
       1.366
       0.046
      -1.425
      -2.773
      -3.819
      -4.498
      -4.753
      -4.470
      -3.588
      -2.258
      -0.826
       0.393
       1.326
       2.089
       2.756
       3.218
       3.298
       2.963
       2.358
       1.652
       0.898
       0.095
      -0.675
      -1.238
      -1.464
      -1.378
      -1.118
      -0.789
      -0.391
       0.140
       0.821
       1.573
       2.264
       2.759
       2.921
       2.608
       1.755
       0.469
      -0.992
      -2.383
      -3.616
      -4.713
      -5.622
      -6.096
      -5.810
      -4.603
      -2.644
      -0.385
       1.652
       3.080
       3.738
       3.690
       3.138
       2.293
       1.288
       0.207
      -0.789
      -1.418
      -1.424
      -0.790
       0.236
       1.337
       2.346
       3.285
       4.224
       5.109
       5.704
       5.697
       4.914
       3.471
       1.742
       0.145
      -1.095
      -2.022
      -2.821
      -3.596
      -4.260
      -4.623
      -4.559
      -4.095
      -3.336
      -2.364
      -1.239
      -0.093
       0.835
       1.309
       1.249
       0.757
      -0.021
      -1.026
      -2.285
      -3.770
      -5.260
      -6.336
      -6.529
      -5.557
      -3.467
      -0.593
       2.616
       5.724
       8.335
      10.083
      10.689
      10.045
       8.268
       5.653
       2.602
      -0.461
      -3.143
      -5.138
      -6.271
      -6.491
      -5.835
      -4.405
      -2.408
      -0.207
       1.729
       3.019
       3.545
       3.454
       2.960
       2.134
       0.912
      -0.723
      -2.556
      -4.161
      -5.126
      -5.311
      -4.924
      -4.357
      -3.889
      -3.499
      -2.942
      -2.025
      -0.800
       0.504
       1.705
       2.793
       3.822
       4.741
       5.379
       5.614
       5.478
       5.096
       4.546
       3.851
       3.097
       2.485
       2.209
       2.266
       2.437
       2.487
       2.345
       2.083
       1.730
       1.178
       0.288
      -0.929
      -2.271
      -3.463
      -4.283
      -4.588
      -4.312
      -3.535
      -2.550
      -1.764
      -1.453
      -1.596
      -1.967
      -2.380
      -2.809
      -3.276
      -3.675
      -3.781
      -3.425
      -2.664
      -1.753
      -0.964
      -0.416
      -0.068
       0.152
       0.247
       0.174
      -0.052
      -0.291
      -0.328
       0.002
       0.696
       1.579
       2.417
       3.068
       3.507
       3.706
       3.537
       2.864
       1.736
       0.423
      -0.755
      -1.627
      -2.175
      -2.409
      -2.290
      -1.794
      -1.006
      -0.099
       0.772
       1.531
       2.128
       2.471
       2.479
       2.186
       1.758
       1.364
       1.019
       0.595
       0.010
      -0.629
      -1.082
      -1.171
      -0.910
      -0.439
       0.116
       0.674
       1.139
       1.353
       1.172
       0.601
      -0.158
      -0.836
      -1.266
      -1.445
      -1.428
      -1.240
      -0.887
      -0.439
      -0.046
       0.149
       0.112
      -0.068
      -0.244
      -0.299
      -0.174
       0.136
       0.591
       1.094
       1.482
       1.586
       1.349
       0.895
       0.430
       0.059
      -0.275
      -0.654
      -1.039
      -1.289
      -1.336
      -1.271
      -1.225
      -1.195
      -1.031
      -0.612
       0.020
       0.705
       1.311
       1.782
       2.082
       2.145
       1.896
       1.314
       0.457
      -0.563
      -1.620
      -2.570
      -3.260
      -3.582
      -3.553
      -3.310
      -2.980
      -2.550
      -1.919
      -1.069
      -0.148
       0.659
       1.318
       1.933
       2.541
       2.955
       2.900
       2.317
       1.497
       0.889
       0.749
       0.986
       1.315
       1.536
       1.673
       1.843
       2.050
       2.144
       1.973
       1.524
       0.892
       0.178
      -0.554
      -1.251
      -1.869
      -2.405
      -2.883
      -3.270
      -3.447
      -3.295
      -2.815
      -2.143
      -1.443
      -0.811
      -0.286
       0.084
       0.243
       0.217
       0.140
       0.142
       0.235
       0.317
       0.291
       0.162
       0.014
      -0.070
      -0.061
       0.003
       0.058
       0.079
       0.121
       0.318
       0.792
       1.558
       2.465
       3.259
       3.703
       3.676
       3.187
       2.330
       1.252
       0.125
      -0.863
      -1.573
      -1.972
      -2.124
      -2.084
      -1.805
      -1.198
      -0.279
       0.767
       1.681
       2.275
       2.468
       2.227
       1.536
       0.440
      -0.890
      -2.215
      -3.377
      -4.386
      -5.294
      -5.985
      -6.145
      -5.476
      -3.986
      -2.051
      -0.165
       1.398
       2.676
       3.772
       4.583
       4.821
       4.320
       3.260
       2.052
       1.038
       0.313
      -0.201
      -0.582
      -0.804
      -0.786
      -0.514
      -0.123
       0.169
       0.245
       0.176
       0.123
       0.163
       0.249
       0.323
       0.389
       0.477
       0.570
       0.597
       0.491
       0.238
      -0.128
      -0.569
      -1.060
      -1.555
      -1.953
      -2.137
      -2.062
      -1.800
      -1.501
      -1.304
      -1.286
      -1.446
      -1.720
      -1.965
      -1.955
      -1.465
      -0.430
       0.957
       2.343
       3.419
       4.061
       4.278
       4.111
       3.594
       2.808
       1.927
       1.195
       0.844
       0.987
       1.576
       2.453
       3.437
       4.368
       5.084
       5.420
       5.246
       4.514
       3.252
       1.558
      -0.420
      -2.500
      -4.510
      -6.300
      -7.706
      -8.515
      -8.518
      -7.631
      -5.999
      -3.967
      -1.939
      -0.250
       0.879
       1.345
       1.176
       0.542
      -0.327
      -1.251
      -2.143
      -2.943
      -3.531
      -3.737
      -3.450
      -2.698
      -1.630
      -0.405
       0.878
       2.152
       3.324
       4.283
       4.950
       5.289
       5.252
       4.736
       3.652
       2.055
       0.213
      -1.480
      -2.685
      -3.242
      -3.170
      -2.568
      -1.542
      -0.214
       1.248
       2.630
       3.728
       4.377
       4.434
       3.744
       2.220
       0.003
      -2.476
      -4.633
      -5.972
      -6.265
      -5.544
      -3.998
      -1.884
       0.475
       2.648
       4.163
       4.681
       4.155
       2.820
       1.048
      -0.806
      -2.457
      -3.642
      -4.106
      -3.687
      -2.472
      -0.812
       0.886
       2.414
       3.792
       5.066
       6.107
       6.622
       6.362
       5.341
       3.876
       2.381
       1.096
      -0.002
      -1.025
      -1.942
      -2.568
      -2.723
      -2.399
      -1.772
      -1.082
      -0.496
      -0.070
       0.186
       0.232
       0.012
      -0.480
      -1.156
      -1.868
      -2.470
      -2.857
      -2.989
      -2.894
      -2.659
      -2.394
      -2.185
      -2.051
      -1.952
