Origin Time       30/10/2012 01:40:24 UTC
Lat.              26.2 N	
Long.             92.4 E	
Depth (Km)         15.0
Magnitude         3.9
 Region           Morigaon-Assam                                                   
 Above details taken from IMD 
    
Station Code      NAU
Station Lat.       26.349  N
Station Long.      92.690  E
Station Height(m)   72.0
Site Class        C   Vs30 between 200 m/sec to 375 m/sec *  
Record Time       30.10.2012 01:38:40.874 UTC
Sampling Rate     200. Hz
 Record Duration   66.110 Sec.
 Direction         N-S (N positive)
Max. Acceleration      5.899 cm/sec**2
     
  * For reference see Site Classification link of website 
     
 Base Line Corrected and Low Pass Filtered (Cut Off at 35 Hz) Time History
 Acceleration data in cm/sec**2
    
[...]
      -0.200
      -0.198
      -0.131
      -0.033
       0.056
       0.120
       0.161
       0.179
       0.167
       0.129
       0.073
       0.012
      -0.046
      -0.095
      -0.138
      -0.189
      -0.256
      -0.321
      -0.336
      -0.259
      -0.097
       0.081
       0.189
       0.175
       0.059
      -0.077
      -0.148
      -0.119
      -0.023
       0.075
       0.125
       0.121
       0.086
       0.048
       0.024
       0.021
       0.041
       0.075
       0.103
       0.108
       0.085
       0.043
       0.000
      -0.031
      -0.041
      -0.027
       0.012
       0.060
       0.092
       0.080
       0.018
      -0.077
      -0.168
      -0.223
      -0.228
      -0.193
      -0.145
      -0.108
      -0.088
      -0.076
      -0.056
      -0.021
       0.023
       0.061
       0.078
       0.069
       0.041
       0.011
      -0.004
      -0.004
      -0.002
      -0.012
      -0.032
      -0.038
      -0.001
       0.085
       0.183
       0.241
       0.234
       0.189
       0.155
       0.155
       0.162
       0.122
       0.010
      -0.147
      -0.287
      -0.360
      -0.353
      -0.285
      -0.186
      -0.083
       0.001
       0.056
       0.086
       0.100
       0.105
       0.096
       0.062
      -0.003
      -0.090
      -0.172
      -0.222
      -0.231
      -0.211
      -0.172
      -0.106
       0.001
       0.138
       0.268
       0.351
       0.368
       0.324
       0.237
       0.121
      -0.013
      -0.150
      -0.262
      -0.307
      -0.261
      -0.130
       0.051
       0.235
       0.370
       0.415
       0.346
       0.179
      -0.032
      -0.222
      -0.341
      -0.358
      -0.277
      -0.136
      -0.004
       0.058
       0.028
      -0.051
      -0.109
      -0.087
       0.014
       0.134
       0.195
       0.154
       0.029
      -0.117
      -0.219
      -0.244
      -0.202
      -0.136
      -0.084
      -0.063
      -0.059
      -0.043
       0.009
       0.100
       0.199
       0.249
       0.210
       0.094
      -0.033
      -0.103
      -0.101
      -0.067
      -0.055
      -0.076
      -0.100
      -0.087
      -0.032
       0.044
       0.110
       0.151
       0.164
       0.145
       0.095
       0.019
      -0.067
      -0.136
      -0.162
      -0.133
      -0.066
      -0.001
       0.029
       0.008
      -0.045
      -0.094
      -0.101
      -0.047
       0.051
       0.152
       0.207
       0.192
       0.124
       0.047
      -0.008
      -0.040
      -0.066
      -0.086
      -0.086
      -0.060
      -0.024
       0.004
       0.026
       0.055
       0.090
       0.102
       0.054
      -0.060
      -0.185
      -0.243
      -0.194
      -0.067
       0.063
       0.145
       0.166
       0.137
       0.076
       0.009
      -0.029
      -0.021
       0.011
       0.024
      -0.006
      -0.050
      -0.065
      -0.032
       0.023
       0.062
       0.059
       0.011
      -0.074
      -0.180
      -0.278
      -0.324
      -0.279
      -0.149
       0.017
       0.167
       0.268
       0.314
       0.302
       0.228
       0.104
      -0.023
      -0.093
      -0.073
       0.014
       0.116
       0.182
       0.177
       0.092
      -0.040
      -0.156
      -0.199
      -0.153
      -0.055
       0.032
       0.047
      -0.032
      -0.163
      -0.256
      -0.243
      -0.134
      -0.012
       0.046
       0.028
      -0.021
      -0.057
      -0.078
      -0.106
      -0.146
      -0.178
      -0.181
      -0.159
      -0.129
      -0.096
      -0.055
      -0.009
       0.026
       0.050
       0.077
       0.122
       0.182
       0.238
       0.277
       0.300
       0.312
       0.314
       0.309
       0.308
       0.317
       0.317
       0.276
       0.182
       0.062
      -0.039
      -0.100
      -0.119
      -0.104
      -0.051
       0.032
       0.122
       0.192
       0.219
       0.189
       0.101
      -0.023
      -0.150
      -0.247
      -0.296
      -0.290
      -0.229
      -0.136
      -0.061
      -0.048
      -0.112
      -0.220
      -0.325
      -0.389
      -0.400
      -0.363
      -0.285
      -0.173
      -0.048
       0.053
       0.098
       0.086
       0.054
       0.031
       0.001
      -0.081
      -0.217
      -0.337
      -0.347
      -0.212
       0.015
       0.232
       0.344
       0.310
       0.172
       0.026
      -0.032
       0.027
       0.172
       0.341
       0.473
       0.517
       0.443
       0.279
       0.100
      -0.016
      -0.050
      -0.040
      -0.044
      -0.091
      -0.163
      -0.207
      -0.169
      -0.037
       0.138
       0.276
       0.308
       0.214
       0.034
      -0.149
      -0.257
      -0.269
      -0.216
      -0.142
      -0.072
      -0.017
       0.009
      -0.009
      -0.065
      -0.125
      -0.158
      -0.158
      -0.141
      -0.115
      -0.066
       0.011
       0.099
       0.159
       0.156
       0.080
      -0.041
      -0.152
      -0.206
      -0.193
      -0.143
      -0.094
      -0.066
      -0.049
      -0.024
       0.022
       0.090
       0.161
       0.198
       0.168
       0.078
      -0.018
      -0.060
      -0.026
       0.055
       0.138
       0.192
       0.212
       0.188
       0.109
      -0.017
      -0.142
      -0.194
      -0.134
       0.012
       0.170
       0.284
       0.350
       0.390
       0.399
       0.345
       0.216
       0.058
      -0.060
      -0.116
      -0.150
      -0.208
      -0.282
      -0.303
      -0.223
      -0.080
       0.020
      -0.006
      -0.133
      -0.260
      -0.300
      -0.264
      -0.230
      -0.252
      -0.300
      -0.307
      -0.249
      -0.165
      -0.102
      -0.065
      -0.026
       0.032
       0.092
       0.126
       0.119
       0.088
       0.066
       0.069
       0.085
       0.096
       0.103
       0.124
       0.158
       0.169
       0.125
       0.044
      -0.009
       0.026
       0.147
       0.283
       0.353
       0.313
       0.186
       0.041
      -0.051
      -0.064
      -0.028
       0.008
       0.026
       0.046
       0.096
       0.179
       0.255
       0.259
       0.151
      -0.039
      -0.221
      -0.317
      -0.320
      -0.278
      -0.230
      -0.167
      -0.068
       0.051
       0.122
       0.090
      -0.032
      -0.170
      -0.252
      -0.264
      -0.237
      -0.200
      -0.152
      -0.083
       0.001
       0.077
       0.133
       0.178
       0.211
       0.211
       0.149
       0.028
      -0.108
      -0.199
      -0.212
      -0.162
      -0.093
      -0.044
      -0.023
      -0.008
       0.027
       0.091
       0.169
       0.232
       0.253
       0.220
       0.144
       0.058
       0.002
       0.000
       0.044
       0.098
       0.120
       0.089
       0.016
      -0.059
      -0.105
      -0.119
      -0.122
      -0.119
      -0.094
      -0.036
       0.030
       0.055
       0.014
      -0.068
      -0.143
      -0.183
      -0.188
      -0.165
      -0.121
      -0.077
      -0.073
      -0.136
      -0.235
      -0.293
      -0.252
      -0.128
       0.011
       0.097
       0.107
       0.070
       0.045
       0.070
       0.141
       0.216
       0.259
       0.270
       0.265
       0.254
       0.233
       0.197
       0.143
       0.074
      -0.001
      -0.061
      -0.084
      -0.061
      -0.006
       0.054
       0.094
       0.103
       0.092
       0.076
       0.054
       0.022
      -0.011
      -0.019
      -0.002
       0.002
      -0.052
      -0.151
      -0.213
      -0.155
       0.021
       0.216
       0.317
       0.285
       0.169
       0.036
      -0.089
      -0.215
      -0.331
      -0.389
      -0.344
      -0.207
      -0.040
       0.092
       0.159
       0.172
       0.154
       0.108
       0.014
      -0.146
      -0.344
      -0.500
      -0.525
      -0.390
      -0.158
       0.050
       0.142
       0.122
       0.079
       0.098
       0.185
       0.269
       0.272
       0.170
       0.009
      -0.125
      -0.157
      -0.080
       0.038
       0.116
       0.124
       0.091
       0.052
       0.024
       0.021
       0.068
       0.167
       0.262
       0.276
       0.183
       0.051
      -0.019
       0.021
       0.120
       0.179
       0.141
       0.027
      -0.091
      -0.143
      -0.090
       0.059
       0.235
       0.331
       0.259
       0.020
      -0.277
      -0.476
      -0.472
      -0.268
       0.029
       0.275
       0.353
       0.234
      -0.011
      -0.258
      -0.394
      -0.384
      -0.273
      -0.148
      -0.078
      -0.066
      -0.069
      -0.047
       0.000
       0.044
       0.068
       0.079
       0.090
       0.101
       0.096
       0.052
      -0.040
      -0.161
      -0.265
      -0.293
      -0.217
      -0.064
       0.091
       0.168
       0.126
      -0.017
      -0.181
      -0.246
      -0.126
       0.167
       0.506
       0.718
       0.696
       0.454
       0.102
      -0.221
      -0.414
      -0.438
      -0.314
      -0.108
       0.098
       0.231
       0.260
       0.194
       0.068
      -0.075
      -0.182
      -0.217
      -0.197
      -0.189
      -0.239
      -0.306
      -0.278
      -0.091
       0.187
       0.393
       0.402
       0.237
       0.042
      -0.050
      -0.010
       0.103
       0.229
       0.336
       0.394
       0.371
       0.255
       0.091
      -0.059
      -0.154
      -0.188
      -0.168
      -0.107
      -0.019
       0.089
       0.226
       0.377
       0.474
       0.431
       0.228
      -0.056
      -0.291
      -0.386
      -0.337
      -0.215
      -0.119
      -0.112
      -0.188
      -0.276
      -0.308
      -0.280
      -0.235
      -0.205
      -0.175
      -0.117
      -0.034
       0.046
       0.104
       0.143
       0.175
       0.184
       0.124
      -0.018
      -0.180
      -0.261
      -0.223
      -0.106
       0.024
       0.142
       0.246
       0.320
       0.331
       0.256
       0.102
      -0.093
      -0.266
      -0.354
      -0.328
      -0.207
      -0.022
       0.209
       0.453
       0.620
       0.593
       0.339
      -0.017
      -0.264
      -0.270
      -0.076
       0.158
       0.291
       0.268
       0.107
      -0.135
      -0.376
      -0.531
      -0.548
      -0.437
      -0.265
      -0.122
      -0.059
      -0.057
      -0.060
      -0.052
      -0.075
      -0.151
      -0.212
      -0.151
       0.059
       0.322
       0.499
       0.511
       0.374
       0.175
       0.020
      -0.021
       0.032
       0.101
       0.125
       0.095
       0.038
      -0.004
       0.027
       0.175
       0.400
       0.573
       0.562
       0.354
       0.064
      -0.164
      -0.264
      -0.280
      -0.311
      -0.422
      -0.585
      -0.695
      -0.657
      -0.466
      -0.201
       0.041
       0.201
       0.261
       0.220
       0.106
      -0.013
      -0.055
       0.016
       0.155
       0.273
       0.293
       0.190
       0.004
      -0.189
      -0.319
      -0.358
      -0.311
      -0.191
      -0.013
       0.198
       0.393
       0.523
       0.564
       0.523
       0.426
       0.302
       0.179
       0.061
      -0.068
      -0.209
      -0.313
      -0.310
      -0.175
       0.043
       0.263
       0.411
       0.430
       0.296
       0.047
      -0.212
      -0.380
      -0.410
      -0.320
      -0.160
       0.013
       0.152
       0.236
       0.265
       0.228
       0.098
      -0.107
      -0.287
      -0.318
      -0.155
       0.126
       0.374
       0.470
       0.391
       0.218
       0.068
      -0.003
      -0.048
      -0.162
      -0.378
      -0.628
      -0.800
      -0.824
      -0.711
      -0.523
      -0.325
      -0.153
      -0.045
      -0.075
      -0.331
      -0.822
      -1.419
      -1.919
      -2.192
      -2.259
      -2.234
      -2.210
      -2.207
      -2.187
      -2.092
      -1.887
      -1.600
      -1.331
      -1.182
      -1.193
      -1.349
      -1.621
      -1.949
      -2.168
      -2.002
      -1.237
       0.066
       1.499
       2.513
       2.775
       2.400
       1.877
       1.722
       2.112
       2.788
       3.285
       3.308
       2.944
       2.590
       2.665
       3.326
       4.360
       5.311
       5.759
       5.546
       4.840
       3.998
       3.361
       3.071
       3.035
       3.022
       2.854
       2.511
       2.079
       1.604
       1.025
       0.269
      -0.626
      -1.477
      -2.058
      -2.230
      -2.012
      -1.571
      -1.163
      -1.057
      -1.460
      -2.412
      -3.677
      -4.753
      -5.075
      -4.341
      -2.737
      -0.881
       0.494
       0.894
       0.254
      -1.122
      -2.749
      -4.132
      -4.848
      -4.627
      -3.466
      -1.690
       0.132
       1.434
       1.909
       1.595
       0.781
      -0.208
      -1.168
      -2.043
      -2.813
      -3.336
      -3.312
      -2.448
      -0.742
       1.322
       2.911
       3.289
       2.300
       0.498
      -1.185
      -2.010
      -1.819
      -0.999
      -0.094
       0.587
       1.097
       1.665
       2.414
       3.243
       3.917
       4.242
       4.133
       3.591
       2.661
       1.490
       0.410
      -0.086
       0.427
       1.986
       4.053
       5.668
       5.899
       4.358
       1.450
      -1.784
      -4.164
      -4.942
      -4.142
      -2.497
      -1.012
      -0.415
      -0.810
      -1.751
      -2.655
      -3.224
      -3.569
      -3.983
      -4.597
      -5.212
      -5.429
      -4.960
      -3.845
      -2.459
      -1.282
      -0.651
      -0.641
      -1.105
      -1.765
      -2.286
      -2.342
      -1.728
      -0.467
       1.176
       2.791
       4.012
       4.665
       4.819
       4.695
       4.510
       4.331
       4.017
       3.316
       2.107
       0.619
      -0.566
      -0.843
      -0.024
       1.429
       2.638
       2.877
       2.066
       0.795
      -0.138
      -0.323
       0.007
       0.230
      -0.141
      -1.083
      -2.116
      -2.674
      -2.471
      -1.625
      -0.504
       0.498
       1.083
       1.057
       0.337
      -0.969
      -2.467
      -3.559
      -3.723
      -2.844
      -1.303
       0.272
       1.368
       1.792
       1.621
       1.055
       0.310
      -0.435
      -1.057
      -1.455
      -1.496
      -1.012
       0.048
       1.436
       2.601
       2.951
       2.241
       0.762
      -0.829
      -1.914
      -2.238
      -1.928
      -1.274
      -0.480
       0.395
       1.330
       2.193
       2.739
       2.753
       2.211
       1.313
       0.367
      -0.355
      -0.719
      -0.720
      -0.443
      -0.011
       0.457
       0.888
       1.271
       1.597
       1.786
       1.696
       1.260
       0.586
      -0.086
      -0.521
      -0.612
      -0.395
      -0.008
       0.337
       0.375
      -0.114
      -1.147
      -2.422
      -3.405
      -3.613
      -2.937
      -1.735
      -0.601
      -0.004
      -0.050
      -0.499
      -0.974
      -1.179
      -1.035
      -0.662
      -0.255
       0.060
       0.278
       0.435
       0.507
       0.409
       0.109
      -0.282
      -0.549
      -0.515
      -0.135
       0.506
       1.235
       1.832
       2.081
       1.872
       1.288
       0.594
       0.120
       0.089
       0.498
       1.107
       1.565
       1.614
       1.226
       0.594
      -0.021
      -0.444
      -0.643
      -0.687
      -0.655
      -0.589
      -0.503
      -0.411
      -0.349
      -0.342
      -0.394
      -0.494
      -0.630
      -0.765
      -0.828
      -0.737
      -0.454
      -0.003
       0.543
       1.065
       1.390
       1.306
       0.679
      -0.384
      -1.488
      -2.107
      -1.914
      -1.034
      -0.019
       0.485
       0.167
      -0.742
      -1.622
      -1.872
      -1.278
      -0.107
       1.086
       1.779
       1.736
       1.093
       0.262
      -0.298
      -0.317
       0.170
       0.873
       1.424
       1.563
       1.258
       0.708
       0.246
       0.149
       0.475
       1.015
       1.427
       1.451
       1.068
       0.486
       0.001
      -0.171
       0.027
       0.490
       1.010
       1.360
       1.390
       1.106
       0.651
       0.202
      -0.160
      -0.475
      -0.823
      -1.222
      -1.611
      -1.919
      -2.139
      -2.315
      -2.460
      -2.519
      -2.412
      -2.114
      -1.676
      -1.180
      -0.697
      -0.286
      -0.008
       0.073
      -0.072
      -0.386
      -0.706
      -0.821
      -0.574
       0.043
       0.863
       1.596
       1.932
       1.683
       0.904
      -0.082
      -0.840
      -1.062
      -0.724
      -0.041
       0.722
       1.371
       1.800
       1.959
       1.863
       1.604
       1.302
       1.013
       0.701
       0.309
      -0.134
      -0.475
      -0.513
      -0.141
       0.543
       1.259
       1.694
       1.671
       1.229
       0.571
      -0.052
      -0.459
      -0.622
      -0.648
      -0.675
      -0.746
      -0.780
      -0.674
      -0.419
      -0.111
       0.119
       0.185
       0.078
      -0.145
      -0.392
      -0.562
      -0.586
      -0.464
      -0.288
      -0.199
      -0.305
      -0.603
      -0.987
      -1.334
      -1.567
      -1.650
      -1.540
      -1.185
      -0.599
       0.074
       0.592
       0.733
       0.426
      -0.178
      -0.758
      -0.981
      -0.699
      -0.042
       0.652
       1.024
       0.899
       0.373
      -0.237
      -0.574
      -0.450
       0.051
       0.653
       1.075
       1.197
       1.089
       0.922
       0.834
       0.854
       0.916
       0.942
       0.926
       0.926
       0.994
       1.109
       1.175
       1.066
       0.694
       0.071
      -0.663
      -1.269
      -1.530
      -1.376
      -0.919
      -0.378
       0.038
       0.210
       0.121
      -0.167
      -0.545
      -0.892
      -1.101
      -1.111
      -0.935
      -0.670
      -0.470
      -0.466
      -0.689
      -1.030
      -1.302
      -1.349
      -1.135
      -0.748
      -0.326
       0.030
       0.304
       0.530
       0.736
       0.905
       1.006
       1.019
       0.955
       0.852
       0.759
       0.713
       0.711
       0.722
       0.715
       0.695
       0.687
       0.699
       0.709
       0.688
       0.641
       0.605
       0.621
       0.702
       0.800
       0.817
       0.645
       0.254
      -0.250
      -0.677
      -0.883
      -0.861
      -0.717
      -0.556
      -0.410
      -0.270
      -0.154
      -0.126
      -0.232
      -0.452
      -0.696
      -0.857
      -0.871
      -0.748
      -0.572
      -0.454
      -0.477
      -0.647
      -0.875
      -1.016
      -0.937
      -0.611
      -0.165
       0.178
       0.240
       0.032
      -0.221
      -0.224
       0.170
       0.829
       1.417
       1.623
       1.360
       0.783
       0.154
      -0.317
      -0.541
      -0.531
      -0.360
      -0.125
       0.076
       0.161
