Origin Time       10/7/2012 13:03:41	
Lat.              26.5 N	
Long.             93.2 E	
Depth (Km)         56.0
Magnitude         4.5
 Region           Karbi-Anglong-Assam                                              
 Above details taken from IMD 
     
Station Code      NAU
Station Lat.       26.349  N
Station Long.      92.690  E
Station Height(m)   78.0
Site Class        C   Vs30 between 200 m/sec to 375 m/sec *  
Record Time       10.07.2012 13:03:46.624
Sampling Rate     200. Hz
 Record Duration   66.170 Sec.
 Direction         E-W (E positive)
Max. Acceleration      7.448 cm/sec**2
     
  * For reference see Site Classification link of website 
     
 Base Line Corrected and Low Pass Filtered (Cut Off at 35 Hz) Time History
 Acceleration data in cm/sec**2
    
[...]
       0.332
       0.401
       0.439
       0.436
       0.379
       0.259
       0.080
      -0.133
      -0.333
      -0.457
      -0.457
      -0.338
      -0.170
      -0.049
      -0.035
      -0.119
      -0.233
      -0.305
      -0.301
      -0.234
      -0.148
      -0.091
      -0.086
      -0.119
      -0.145
      -0.119
      -0.031
       0.089
       0.191
       0.240
       0.229
       0.177
       0.103
       0.014
      -0.087
      -0.185
      -0.247
      -0.242
      -0.167
      -0.055
       0.051
       0.123
       0.160
       0.163
       0.134
       0.078
       0.016
      -0.015
       0.011
       0.087
       0.169
       0.211
       0.196
       0.150
       0.117
       0.132
       0.198
       0.283
       0.337
       0.320
       0.220
       0.055
      -0.135
      -0.296
      -0.386
      -0.386
      -0.315
      -0.222
      -0.154
      -0.130
      -0.126
      -0.104
      -0.040
       0.050
       0.122
       0.140
       0.108
       0.062
       0.031
       0.008
      -0.032
      -0.099
      -0.170
      -0.216
      -0.221
      -0.201
      -0.178
      -0.162
      -0.143
      -0.110
      -0.075
      -0.066
      -0.100
      -0.158
      -0.201
      -0.202
      -0.167
      -0.121
      -0.075
      -0.016
       0.080
       0.218
       0.359
       0.454
       0.475
       0.438
       0.380
       0.326
       0.275
       0.209
       0.102
      -0.060
      -0.269
      -0.484
      -0.651
      -0.721
      -0.666
      -0.490
      -0.219
       0.103
       0.431
       0.722
       0.929
       0.996
       0.886
       0.606
       0.231
      -0.126
      -0.358
      -0.416
      -0.330
      -0.192
      -0.101
      -0.113
      -0.215
      -0.361
      -0.496
      -0.583
      -0.599
      -0.546
      -0.439
      -0.295
      -0.119
       0.085
       0.295
       0.472
       0.579
       0.593
       0.520
       0.386
       0.225
       0.061
      -0.103
      -0.268
      -0.420
      -0.523
      -0.537
      -0.441
      -0.247
      -0.003
       0.227
       0.377
       0.410
       0.330
       0.175
       0.004
      -0.130
      -0.194
      -0.183
      -0.112
      -0.017
       0.063
       0.086
       0.029
      -0.109
      -0.288
      -0.437
      -0.485
      -0.399
      -0.214
      -0.019
       0.096
       0.100
       0.036
      -0.011
       0.013
       0.100
       0.194
       0.239
       0.212
       0.142
       0.093
       0.124
       0.241
       0.387
       0.486
       0.495
       0.416
       0.280
       0.114
      -0.052
      -0.176
      -0.217
      -0.168
      -0.087
      -0.054
      -0.123
      -0.271
      -0.415
      -0.480
      -0.452
      -0.385
      -0.335
      -0.296
      -0.199
       0.015
       0.329
       0.638
       0.812
       0.783
       0.573
       0.273
      -0.019
      -0.238
      -0.360
      -0.390
      -0.354
      -0.294
      -0.251
      -0.239
      -0.237
      -0.208
      -0.136
      -0.027
       0.098
       0.209
       0.276
       0.269
       0.172
       0.000
      -0.199
      -0.359
      -0.416
      -0.349
      -0.187
       0.003
       0.148
       0.197
       0.145
       0.021
      -0.120
      -0.230
      -0.287
      -0.293
      -0.258
      -0.179
      -0.058
       0.091
       0.233
       0.330
       0.353
       0.298
       0.190
       0.079
       0.011
       0.011
       0.063
       0.123
       0.138
       0.087
       0.001
      -0.054
      -0.028
       0.076
       0.210
       0.328
       0.404
       0.437
       0.433
       0.398
       0.330
       0.222
       0.071
      -0.104
      -0.255
      -0.336
      -0.341
      -0.306
      -0.283
      -0.285
      -0.278
      -0.218
      -0.119
      -0.050
      -0.072
      -0.169
      -0.254
      -0.246
      -0.144
      -0.018
       0.052
       0.043
      -0.002
      -0.028
      -0.023
      -0.023
      -0.054
      -0.097
      -0.106
      -0.063
       0.003
       0.047
       0.056
       0.053
       0.069
       0.101
       0.120
       0.105
       0.066
       0.034
       0.019
      -0.005
      -0.071
      -0.186
      -0.305
      -0.361
      -0.311
      -0.154
       0.085
       0.370
       0.641
       0.808
       0.775
       0.505
       0.060
      -0.416
      -0.768
      -0.901
      -0.809
      -0.557
      -0.246
       0.028
       0.212
       0.297
       0.309
       0.272
       0.180
       0.007
      -0.249
      -0.525
      -0.710
      -0.714
      -0.529
      -0.232
       0.066
       0.278
       0.374
       0.380
       0.350
       0.344
       0.386
       0.446
       0.465
       0.395
       0.236
       0.035
      -0.148
      -0.282
      -0.367
      -0.408
      -0.384
      -0.261
      -0.039
       0.214
       0.396
       0.426
       0.298
       0.073
      -0.161
      -0.321
      -0.349
      -0.220
       0.049
       0.392
       0.705
       0.878
       0.851
       0.647
       0.345
       0.027
      -0.249
      -0.446
      -0.536
      -0.519
      -0.436
      -0.350
      -0.301
      -0.288
      -0.283
      -0.256
      -0.180
      -0.033
       0.184
       0.431
       0.630
       0.701
       0.608
       0.390
       0.127
      -0.120
      -0.340
      -0.532
      -0.669
      -0.712
      -0.663
      -0.572
      -0.478
      -0.367
      -0.200
       0.018
       0.218
       0.311
       0.276
       0.179
       0.125
       0.163
       0.253
       0.301
       0.249
       0.117
      -0.028
      -0.120
      -0.119
      -0.023
       0.122
       0.228
       0.222
       0.098
      -0.087
      -0.261
      -0.375
      -0.406
      -0.347
      -0.207
      -0.025
       0.145
       0.265
       0.322
       0.316
       0.244
       0.108
      -0.068
      -0.241
      -0.354
      -0.379
      -0.334
      -0.259
      -0.168
      -0.037
       0.160
       0.408
       0.643
       0.776
       0.742
       0.532
       0.191
      -0.198
      -0.551
      -0.809
      -0.943
      -0.932
      -0.758
      -0.432
      -0.023
       0.354
       0.595
       0.670
       0.627
       0.537
       0.427
       0.284
       0.104
      -0.060
      -0.130
      -0.078
       0.039
       0.115
       0.075
      -0.079
      -0.280
      -0.454
      -0.565
      -0.607
      -0.575
      -0.462
      -0.279
      -0.073
       0.104
       0.230
       0.314
       0.356
       0.334
       0.237
       0.096
      -0.018
      -0.051
      -0.001
       0.086
       0.157
       0.194
       0.209
       0.204
       0.156
       0.049
      -0.083
      -0.171
      -0.170
      -0.096
      -0.002
       0.082
       0.164
       0.250
       0.317
       0.317
       0.223
       0.051
      -0.150
      -0.324
      -0.436
      -0.476
      -0.459
      -0.413
      -0.358
      -0.287
      -0.178
      -0.022
       0.147
       0.268
       0.294
       0.238
       0.163
       0.127
       0.137
       0.156
       0.150
       0.129
       0.123
       0.132
       0.101
      -0.028
      -0.240
      -0.430
      -0.477
      -0.337
      -0.086
       0.127
       0.189
       0.094
      -0.059
      -0.145
      -0.118
      -0.024
       0.060
       0.100
       0.116
       0.118
       0.076
      -0.045
      -0.218
      -0.349
      -0.349
      -0.212
      -0.020
       0.124
       0.176
       0.163
       0.137
       0.133
       0.155
       0.192
       0.225
       0.238
       0.226
       0.204
       0.198
       0.216
       0.230
       0.186
       0.052
      -0.130
      -0.260
      -0.269
      -0.188
      -0.129
      -0.180
      -0.323
      -0.458
      -0.497
      -0.427
      -0.304
      -0.192
      -0.104
      -0.010
       0.123
       0.284
       0.417
       0.462
       0.396
       0.236
       0.026
      -0.175
      -0.305
      -0.320
      -0.229
      -0.095
       0.001
       0.012
      -0.048
      -0.109
      -0.090
       0.048
       0.266
       0.474
       0.592
       0.592
       0.498
       0.347
       0.180
       0.043
      -0.025
      -0.022
       0.010
       0.016
      -0.040
      -0.159
      -0.306
      -0.427
      -0.473
      -0.419
      -0.276
      -0.080
       0.114
       0.250
       0.299
       0.271
       0.192
       0.070
      -0.096
      -0.280
      -0.400
      -0.367
      -0.159
       0.149
       0.419
       0.535
       0.464
       0.257
       0.000
      -0.242
      -0.450
      -0.625
      -0.749
      -0.767
      -0.618
      -0.301
       0.093
       0.417
       0.554
       0.501
       0.353
       0.230
       0.198
       0.241
       0.294
       0.297
       0.237
       0.142
       0.051
      -0.021
      -0.086
      -0.154
      -0.219
      -0.268
      -0.304
      -0.343
      -0.386
      -0.405
      -0.355
      -0.220
      -0.035
       0.141
       0.263
       0.328
       0.340
       0.293
       0.172
      -0.006
      -0.182
      -0.283
      -0.284
      -0.215
      -0.132
      -0.062
       0.009
       0.102
       0.220
       0.325
       0.357
       0.274
       0.097
      -0.096
      -0.218
      -0.230
      -0.164
      -0.105
      -0.121
      -0.208
      -0.293
      -0.291
      -0.170
       0.018
       0.171
       0.222
       0.198
       0.190
       0.269
       0.421
       0.549
       0.545
       0.363
       0.067
      -0.207
      -0.337
      -0.303
      -0.203
      -0.170
      -0.253
      -0.375
      -0.408
      -0.287
      -0.069
       0.122
       0.200
       0.182
       0.155
       0.184
       0.255
       0.310
       0.318
       0.301
       0.298
       0.309
       0.293
       0.218
       0.113
       0.037
       0.007
      -0.030
      -0.136
      -0.307
      -0.477
      -0.587
      -0.641
      -0.683
      -0.719
      -0.680
      -0.483
      -0.122
       0.291
       0.591
       0.667
       0.534
       0.315
       0.167
       0.179
       0.327
       0.492
       0.538
       0.412
       0.181
      -0.019
      -0.089
      -0.037
       0.044
       0.062
      -0.015
      -0.148
      -0.271
      -0.341
      -0.355
      -0.334
      -0.304
      -0.277
      -0.244
      -0.188
      -0.091
       0.049
       0.207
       0.333
       0.379
       0.336
       0.235
       0.115
      -0.008
      -0.137
      -0.272
      -0.399
      -0.491
      -0.521
      -0.476
      -0.364
      -0.210
      -0.040
       0.125
       0.266
       0.348
       0.333
       0.215
       0.050
      -0.069
      -0.070
       0.038
       0.167
       0.215
       0.157
       0.071
       0.079
       0.223
       0.411
       0.477
       0.316
      -0.029
      -0.402
      -0.650
      -0.715
      -0.645
      -0.516
      -0.373
      -0.228
      -0.089
       0.030
       0.120
       0.198
       0.295
       0.416
       0.516
       0.522
       0.390
       0.137
      -0.162
      -0.409
      -0.527
      -0.475
      -0.274
      -0.007
       0.217
       0.316
       0.285
       0.184
       0.081
       0.000
      -0.076
      -0.153
      -0.187
      -0.112
       0.081
       0.302
       0.405
       0.290
      -0.005
      -0.330
      -0.508
      -0.442
      -0.156
       0.219
       0.512
       0.603
       0.491
       0.279
       0.091
      -0.003
      -0.010
       0.024
       0.065
       0.105
       0.155
       0.224
       0.299
       0.342
       0.302
       0.154
      -0.069
      -0.280
      -0.394
      -0.383
      -0.293
      -0.197
      -0.134
      -0.093
      -0.039
       0.026
       0.048
      -0.046
      -0.265
      -0.515
      -0.644
      -0.562
      -0.326
      -0.092
       0.020
       0.027
       0.071
       0.279
       0.643
       1.006
       1.163
       1.004
       0.583
       0.086
      -0.271
      -0.350
      -0.164
       0.150
       0.421
       0.562
       0.600
       0.618
       0.658
       0.676
       0.591
       0.374
       0.080
      -0.196
      -0.402
      -0.551
      -0.692
      -0.858
      -1.055
      -1.259
      -1.420
      -1.477
      -1.418
      -1.313
      -1.278
      -1.370
      -1.512
      -1.529
      -1.271
      -0.749
      -0.155
       0.261
       0.352
       0.145
      -0.218
      -0.599
      -0.907
      -1.085
      -1.087
      -0.899
      -0.565
      -0.177
       0.177
       0.444
       0.604
       0.646
       0.577
       0.450
       0.371
       0.441
       0.670
       0.944
       1.115
       1.153
       1.207
       1.500
       2.133
       2.981
       3.764
       4.206
       4.164
       3.657
       2.822
       1.832
       0.826
      -0.117
      -0.973
      -1.748
      -2.457
      -3.080
      -3.527
      -3.636
      -3.256
      -2.366
      -1.132
       0.141
       1.140
       1.660
       1.640
       1.135
       0.282
      -0.707
      -1.559
      -1.987
      -1.779
      -0.904
       0.433
       1.831
       2.863
       3.265
       3.035
       2.374
       1.545
       0.762
       0.135
      -0.340
      -0.751
      -1.196
      -1.694
      -2.163
      -2.511
      -2.739
      -2.956
      -3.284
      -3.726
      -4.105
      -4.130
      -3.539
      -2.230
      -0.308
       1.965
       4.237
       6.123
       7.271
       7.448
       6.623
       4.990
       2.896
       0.741
      -1.115
      -2.392
      -2.918
      -2.645
      -1.677
      -0.259
       1.240
       2.394
       2.832
       2.386
       1.182
      -0.406
      -1.932
      -3.075
      -3.752
      -4.076
      -4.237
      -4.353
      -4.392
      -4.182
      -3.541
      -2.453
      -1.150
      -0.008
       0.684
       0.901
       0.871
       0.888
       1.098
       1.406
       1.567
       1.405
       1.003
       0.706
       0.886
       1.623
       2.555
       3.085
       2.801
       1.783
       0.521
      -0.472
      -0.994
      -1.204
      -1.397
      -1.765
      -2.304
      -2.862
      -3.243
      -3.274
      -2.850
      -1.965
      -0.743
       0.587
       1.790
       2.752
       3.491
       4.037
       4.309
       4.140
       3.435
       2.280
       0.912
      -0.397
      -1.409
      -1.928
      -1.830
      -1.151
      -0.138
       0.827
       1.410
       1.465
       1.032
       0.240
      -0.810
      -2.052
      -3.367
      -4.488
      -5.036
      -4.696
      -3.427
      -1.528
       0.512
       2.254
       3.474
       4.135
       4.257
       3.854
       2.975
       1.805
       0.641
      -0.255
      -0.833
      -1.272
      -1.798
      -2.443
      -2.964
      -3.040
      -2.571
      -1.814
      -1.203
      -1.002
      -1.079
      -0.990
      -0.307
       1.039
       2.679
       4.043
       4.736
       4.768
       4.439
       4.044
       3.648
       3.126
       2.371
       1.447
       0.542
      -0.207
      -0.808
      -1.350
      -1.860
      -2.268
      -2.483
      -2.484
      -2.335
      -2.140
      -2.004
      -1.995
      -2.133
      -2.386
      -2.671
      -2.891
      -2.954
      -2.800
      -2.415
      -1.841
      -1.166
      -0.479
       0.182
       0.844
       1.556
       2.292
       2.935
       3.350
       3.493
       3.420
       3.164
       2.634
       1.682
       0.309
      -1.215
      -2.453
      -3.071
      -3.041
      -2.621
      -2.135
      -1.745
      -1.406
      -0.990
      -0.463
       0.051
       0.375
       0.433
       0.325
       0.243
       0.329
       0.618
       1.073
       1.658
       2.351
       3.097
       3.729
       3.983
       3.640
       2.694
       1.395
       0.094
      -0.946
      -1.650
      -2.059
      -2.206
      -2.066
      -1.607
      -0.870
      -0.005
       0.783
       1.308
       1.474
       1.289
       0.851
       0.313
      -0.167
      -0.491
      -0.636
      -0.605
      -0.381
       0.051
       0.628
       1.185
       1.523
       1.505
       1.117
       0.449
      -0.367
      -1.222
      -2.035
      -2.747
      -3.297
      -3.626
      -3.670
      -3.369
      -2.715
      -1.818
      -0.910
      -0.246
       0.050
       0.051
      -0.043
      -0.044
       0.146
       0.545
       1.121
       1.796
       2.441
       2.881
       2.944
       2.555
       1.823
       1.028
       0.464
       0.236
       0.196
       0.090
      -0.212
      -0.640
      -1.027
      -1.256
      -1.306
      -1.192
      -0.926
      -0.527
      -0.042
       0.447
       0.859
       1.134
       1.240
       1.164
       0.911
       0.512
       0.028
      -0.474
      -0.951
      -1.380
      -1.710
      -1.828
      -1.606
      -1.021
      -0.225
       0.489
       0.833
       0.711
       0.292
      -0.089
      -0.151
       0.168
       0.736
       1.374
       1.950
       2.372
       2.529
       2.315
       1.707
       0.821
      -0.131
      -0.967
      -1.618
      -2.109
      -2.442
      -2.531
      -2.263
      -1.642
      -0.843
      -0.124
       0.314
       0.416
       0.251
      -0.038
      -0.314
      -0.499
      -0.589
      -0.611
      -0.566
      -0.417
      -0.130
       0.280
       0.736
       1.128
       1.368
       1.445
       1.447
       1.499
       1.683
       1.967
       2.211
       2.245
       1.993
       1.553
       1.151
       0.964
       0.952
       0.873
       0.487
      -0.212
      -0.973
      -1.481
      -1.612
      -1.510
      -1.447
      -1.584
      -1.864
      -2.099
      -2.148
      -2.020
      -1.822
      -1.643
      -1.507
      -1.394
      -1.272
      -1.117
      -0.920
      -0.697
      -0.496
      -0.384
      -0.405
      -0.545
      -0.724
      -0.812
      -0.677
      -0.248
       0.433
       1.200
       1.843
       2.216
       2.294
       2.125
       1.745
       1.152
       0.376
      -0.429
      -1.015
      -1.191
      -0.990
      -0.647
      -0.379
      -0.170
       0.217
       0.984
       2.031
       2.937
       3.247
       2.813
       1.893
       0.925
       0.174
      -0.420
      -1.083
      -1.891
      -2.618
      -2.888
      -2.500
      -1.616
      -0.663
      -0.038
       0.134
       0.028
      -0.049
       0.124
       0.561
       1.088
       1.449
       1.443
       1.025
       0.340
      -0.350
      -0.802
      -0.919
      -0.773
      -0.508
      -0.222
       0.076
       0.406
       0.732
       0.931
       0.874
       0.538
       0.073
      -0.272
      -0.322
      -0.115
       0.103
       0.060
      -0.322
      -0.834
      -1.135
      -1.021
      -0.579
      -0.093
       0.205
       0.313
       0.417
       0.692
       1.131
       1.547
       1.728
       1.597
       1.239
       0.785
       0.295
      -0.266
      -0.927
      -1.615
      -2.152
      -2.362
      -2.187
      -1.725
      -1.156
      -0.621
      -0.154
       0.280
       0.698
       1.064
       1.323
       1.461
       1.494
       1.410
       1.134
       0.584
      -0.203
      -1.025
