Origin Time       12/12/2010 01:40:04 UTC
Lat.              25.0 N	
Long.             93.3 E	
Depth (Km)         15.0
Magnitude         4.8
 Region           Manipur-Assam-Border                                             
 Above details taken from IMD 
    
Station Code      NAU
Station Lat.       26.349  N
Station Long.      92.690  E
Station Height(m)   72.0
Site Class        C   Vs30 between 200 m/sec to 375 m/sec *  
Record Time       12.12.2010 01:40:21.589 UTC
Sampling Rate     200. Hz
 Record Duration   81.330 Sec.
 Direction         N-S (N positive)
Max. Acceleration     -8.169 cm/sec**2
     
  * For reference see Site Classification link of website 
     
 Base Line Corrected and Low Pass Filtered (Cut Off at 35 Hz) Time History
 Acceleration data in cm/sec**2
    
[...]
      -0.162
      -0.095
      -0.054
      -0.031
      -0.014
       0.001
       0.007
       0.000
      -0.022
      -0.050
      -0.071
      -0.076
      -0.061
      -0.028
       0.017
       0.067
       0.110
       0.136
       0.141
       0.137
       0.138
       0.154
       0.178
       0.189
       0.161
       0.085
      -0.031
      -0.169
      -0.305
      -0.424
      -0.520
      -0.594
      -0.653
      -0.700
      -0.732
      -0.738
      -0.709
      -0.651
      -0.581
      -0.519
      -0.477
      -0.450
      -0.413
      -0.345
      -0.235
      -0.094
       0.056
       0.195
       0.316
       0.422
       0.524
       0.622
       0.707
       0.766
       0.788
       0.776
       0.741
       0.695
       0.653
       0.620
       0.596
       0.566
       0.512
       0.416
       0.275
       0.102
      -0.081
      -0.250
      -0.384
      -0.474
      -0.519
      -0.527
      -0.512
      -0.484
      -0.458
      -0.438
      -0.427
      -0.416
      -0.399
      -0.368
      -0.326
      -0.278
      -0.226
      -0.167
      -0.099
      -0.025
       0.047
       0.101
       0.128
       0.122
       0.092
       0.057
       0.040
       0.055
       0.102
       0.171
       0.251
       0.339
       0.433
       0.523
       0.586
       0.601
       0.560
       0.470
       0.350
       0.224
       0.122
       0.069
       0.077
       0.137
       0.224
       0.312
       0.381
       0.417
       0.415
       0.372
       0.291
       0.185
       0.068
      -0.045
      -0.145
      -0.227
      -0.291
      -0.334
      -0.353
      -0.346
      -0.322
      -0.300
      -0.291
      -0.291
      -0.284
      -0.257
      -0.214
      -0.171
      -0.142
      -0.127
      -0.112
      -0.080
      -0.022
       0.064
       0.172
       0.295
       0.424
       0.545
       0.640
       0.693
       0.696
       0.653
       0.576
       0.473
       0.346
       0.196
       0.026
      -0.152
      -0.323
      -0.473
      -0.589
      -0.662
      -0.688
      -0.671
      -0.619
      -0.548
      -0.474
      -0.405
      -0.342
      -0.278
      -0.206
      -0.122
      -0.027
       0.073
       0.172
       0.262
       0.337
       0.391
       0.419
       0.417
       0.381
       0.309
       0.198
       0.059
      -0.084
      -0.199
      -0.264
      -0.277
      -0.255
      -0.222
      -0.195
      -0.185
      -0.196
      -0.224
      -0.262
      -0.298
      -0.319
      -0.312
      -0.274
      -0.209
      -0.134
      -0.062
      -0.003
       0.044
       0.079
       0.099
       0.100
       0.075
       0.027
      -0.039
      -0.107
      -0.161
      -0.185
      -0.170
      -0.115
      -0.034
       0.048
       0.107
       0.131
       0.124
       0.103
       0.085
       0.077
       0.074
       0.067
       0.050
       0.023
      -0.006
      -0.023
      -0.023
      -0.008
       0.009
       0.011
      -0.010
      -0.050
      -0.099
      -0.143
      -0.171
      -0.179
      -0.170
      -0.154
      -0.138
      -0.127
      -0.124
      -0.134
      -0.161
      -0.204
      -0.254
      -0.294
      -0.307
      -0.284
      -0.228
      -0.148
      -0.054
       0.049
       0.156
       0.264
       0.363
       0.443
       0.495
       0.517
       0.517
       0.503
       0.484
       0.465
       0.442
       0.408
       0.358
       0.296
       0.230
       0.173
       0.127
       0.089
       0.051
       0.006
      -0.044
      -0.086
      -0.112
      -0.123
      -0.129
      -0.143
      -0.166
      -0.187
      -0.192
      -0.171
      -0.120
      -0.046
       0.041
       0.122
       0.184
       0.220
       0.239
       0.252
       0.269
       0.294
       0.327
       0.362
       0.384
       0.379
       0.337
       0.263
       0.174
       0.086
       0.008
      -0.064
      -0.141
      -0.228
      -0.318
      -0.394
      -0.435
      -0.430
      -0.381
      -0.300
      -0.207
      -0.114
      -0.028
       0.048
       0.114
       0.166
       0.201
       0.217
       0.214
       0.194
       0.162
       0.123
       0.080
       0.042
       0.013
       0.001
       0.007
       0.027
       0.052
       0.072
       0.079
       0.073
       0.057
       0.040
       0.027
       0.022
       0.021
       0.014
      -0.009
      -0.059
      -0.131
      -0.211
      -0.280
      -0.327
      -0.348
      -0.348
      -0.331
      -0.298
      -0.253
      -0.205
      -0.170
      -0.162
      -0.184
      -0.222
      -0.255
      -0.257
      -0.216
      -0.135
      -0.029
       0.082
       0.179
       0.247
       0.275
       0.266
       0.232
       0.195
       0.172
       0.168
       0.177
       0.185
       0.184
       0.169
       0.143
       0.108
       0.067
       0.016
      -0.046
      -0.112
      -0.169
      -0.204
      -0.207
      -0.182
      -0.133
      -0.066
       0.015
       0.105
       0.194
       0.260
       0.285
       0.256
       0.175
       0.062
      -0.056
      -0.151
      -0.211
      -0.238
      -0.246
      -0.248
      -0.250
      -0.251
      -0.247
      -0.237
      -0.222
      -0.206
      -0.190
      -0.169
      -0.134
      -0.074
       0.011
       0.115
       0.217
       0.298
       0.341
       0.337
       0.292
       0.217
       0.127
       0.034
      -0.053
      -0.129
      -0.191
      -0.237
      -0.266
      -0.281
      -0.282
      -0.275
      -0.267
      -0.271
      -0.296
      -0.340
      -0.386
      -0.413
      -0.400
      -0.345
      -0.257
      -0.155
      -0.053
       0.043
       0.135
       0.231
       0.333
       0.436
       0.525
       0.591
       0.633
       0.656
       0.664
       0.654
       0.621
       0.565
       0.489
       0.409
       0.339
       0.296
       0.284
       0.298
       0.323
       0.336
       0.322
       0.270
       0.178
       0.049
      -0.105
      -0.266
      -0.413
      -0.525
      -0.592
      -0.612
      -0.594
      -0.553
      -0.502
      -0.450
      -0.398
      -0.343
      -0.284
      -0.224
      -0.167
      -0.115
      -0.062
       0.000
       0.071
       0.147
       0.215
       0.265
       0.296
       0.311
       0.319
       0.327
       0.338
       0.351
       0.362
       0.372
       0.380
       0.385
       0.382
       0.365
       0.332
       0.281
       0.208
       0.109
      -0.013
      -0.147
      -0.270
      -0.367
      -0.429
      -0.460
      -0.475
      -0.490
      -0.516
      -0.553
      -0.592
      -0.618
      -0.621
      -0.605
      -0.577
      -0.544
      -0.504
      -0.449
      -0.376
      -0.282
      -0.169
      -0.035
       0.114
       0.267
       0.403
       0.500
       0.545
       0.538
       0.495
       0.440
       0.392
       0.361
       0.340
       0.318
       0.284
       0.237
       0.184
       0.133
       0.092
       0.055
       0.015
      -0.038
      -0.103
      -0.166
      -0.214
      -0.241
      -0.252
      -0.259
      -0.267
      -0.273
      -0.269
      -0.250
      -0.217
      -0.180
      -0.150
      -0.131
      -0.120
      -0.108
      -0.086
      -0.051
      -0.009
       0.031
       0.062
       0.087
       0.116
       0.163
       0.229
       0.301
       0.360
       0.392
       0.395
       0.384
       0.373
       0.365
       0.349
       0.310
       0.239
       0.147
       0.052
      -0.032
      -0.102
      -0.164
      -0.219
      -0.258
      -0.269
      -0.246
      -0.197
      -0.137
      -0.083
      -0.052
      -0.053
      -0.079
      -0.113
      -0.129
      -0.110
      -0.053
       0.028
       0.114
       0.188
       0.236
       0.257
       0.253
       0.225
       0.175
       0.106
       0.026
      -0.052
      -0.113
      -0.150
      -0.163
      -0.155
      -0.130
      -0.097
      -0.065
      -0.049
      -0.055
      -0.082
      -0.114
      -0.135
      -0.138
      -0.128
      -0.114
      -0.103
      -0.092
      -0.080
      -0.068
      -0.063
      -0.067
      -0.071
      -0.058
      -0.017
       0.051
       0.135
       0.223
       0.305
       0.370
       0.406
       0.403
       0.364
       0.305
       0.242
       0.186
       0.133
       0.076
       0.014
      -0.046
      -0.096
      -0.135
      -0.169
      -0.208
      -0.259
      -0.317
      -0.372
      -0.415
      -0.435
      -0.423
      -0.371
      -0.275
      -0.139
       0.020
       0.171
       0.289
       0.363
       0.400
       0.417
       0.430
       0.443
       0.451
       0.444
       0.415
       0.361
       0.280
       0.174
       0.053
      -0.059
      -0.138
      -0.168
      -0.158
      -0.131
      -0.114
      -0.123
      -0.156
      -0.201
      -0.247
      -0.292
      -0.337
      -0.390
      -0.454
      -0.529
      -0.602
      -0.655
      -0.673
      -0.655
      -0.612
      -0.559
      -0.503
      -0.437
      -0.353
      -0.246
      -0.121
       0.011
       0.139
       0.252
       0.344
       0.413
       0.462
       0.495
       0.519
       0.537
       0.552
       0.563
       0.563
       0.549
       0.523
       0.497
       0.488
       0.504
       0.535
       0.551
       0.522
       0.434
       0.291
       0.111
      -0.085
      -0.279
      -0.452
      -0.585
      -0.661
      -0.671
      -0.623
      -0.535
      -0.437
      -0.361
      -0.326
      -0.335
      -0.369
      -0.402
      -0.411
      -0.387
      -0.336
      -0.270
      -0.200
      -0.129
      -0.059
       0.003
       0.051
       0.077
       0.083
       0.078
       0.076
       0.094
       0.149
       0.243
       0.364
       0.479
       0.553
       0.563
       0.515
       0.442
       0.380
       0.354
       0.359
       0.370
       0.357
       0.307
       0.232
       0.157
       0.109
       0.099
       0.114
       0.133
       0.135
       0.110
       0.058
      -0.014
      -0.099
      -0.181
      -0.240
      -0.257
      -0.225
      -0.152
      -0.063
       0.015
       0.069
       0.097
       0.107
       0.109
       0.106
       0.097
       0.077
       0.043
      -0.003
      -0.051
      -0.092
      -0.120
      -0.140
      -0.165
      -0.207
      -0.263
      -0.319
      -0.359
      -0.371
      -0.355
      -0.319
      -0.277
      -0.236
      -0.200
      -0.170
      -0.143
      -0.125
      -0.123
      -0.141
      -0.174
      -0.205
      -0.218
      -0.199
      -0.150
      -0.079
      -0.003
       0.065
       0.109
       0.122
       0.106
       0.078
       0.056
       0.053
       0.062
       0.072
       0.071
       0.053
       0.015
      -0.041
      -0.111
      -0.179
      -0.226
      -0.234
      -0.198
      -0.122
      -0.018
       0.099
       0.220
       0.338
       0.446
       0.536
       0.594
       0.604
       0.556
       0.449
       0.297
       0.130
      -0.022
      -0.137
      -0.212
      -0.256
      -0.283
      -0.296
      -0.286
      -0.246
      -0.180
      -0.102
      -0.037
       0.001
       0.015
       0.013
       0.007
      -0.003
      -0.023
      -0.058
      -0.108
      -0.167
      -0.224
      -0.268
      -0.284
      -0.261
      -0.200
      -0.109
      -0.003
       0.107
       0.210
       0.301
       0.369
       0.403
       0.395
       0.347
       0.275
       0.203
       0.151
       0.134
       0.149
       0.182
       0.209
       0.207
       0.167
       0.093
       0.003
      -0.084
      -0.153
      -0.199
      -0.226
      -0.234
      -0.219
      -0.170
      -0.079
       0.054
       0.211
       0.371
       0.514
       0.624
       0.695
       0.722
       0.706
       0.655
       0.577
       0.480
       0.369
       0.240
       0.090
      -0.080
      -0.263
      -0.441
      -0.590
      -0.690
      -0.734
      -0.730
      -0.690
      -0.627
      -0.548
      -0.452
      -0.343
      -0.236
      -0.144
      -0.078
      -0.040
      -0.024
      -0.025
      -0.045
      -0.085
      -0.148
      -0.225
      -0.302
      -0.361
      -0.391
      -0.388
      -0.355
      -0.305
      -0.256
      -0.232
      -0.246
      -0.302
      -0.385
      -0.477
      -0.563
      -0.639
      -0.705
      -0.765
      -0.818
      -0.859
      -0.886
      -0.897
      -0.896
      -0.878
      -0.834
      -0.755
      -0.633
      -0.463
      -0.238
       0.057
       0.431
       0.884
       1.395
       1.932
       2.455
       2.926
       3.314
       3.602
       3.785
       3.869
       3.859
       3.756
       3.552
       3.239
       2.811
       2.271
       1.632
       0.920
       0.170
      -0.583
      -1.317
      -2.027
      -2.716
      -3.390
      -4.042
      -4.646
      -5.160
      -5.542
      -5.768
      -5.837
      -5.761
      -5.553
      -5.209
      -4.711
      -4.042
      -3.203
      -2.222
      -1.137
       0.013
       1.198
       2.388
       3.546
       4.625
       5.579
       6.371
       6.983
       7.416
       7.688
       7.813
       7.787
       7.578
       7.142
       6.458
       5.554
       4.504
       3.392
       2.271
       1.143
      -0.028
      -1.277
      -2.601
      -3.940
      -5.199
      -6.286
      -7.138
      -7.728
      -8.063
      -8.169
      -8.093
      -7.886
      -7.582
      -7.185
      -6.677
      -6.031
      -5.237
      -4.304
      -3.268
      -2.179
      -1.085
      -0.029
       0.964
       1.877
       2.703
       3.447
       4.124
       4.740
       5.287
       5.739
       6.076
       6.290
       6.382
       6.346
       6.170
       5.849
       5.396
       4.837
       4.197
       3.485
       2.707
       1.886
       1.068
       0.311
      -0.354
      -0.936
      -1.469
      -1.982
      -2.471
      -2.922
      -3.324
      -3.676
      -3.981
      -4.230
      -4.410
      -4.510
      -4.518
      -4.424
      -4.214
      -3.877
      -3.419
      -2.872
      -2.298
      -1.754
      -1.266
      -0.814
      -0.359
       0.123
       0.624
       1.108
       1.541
       1.906
       2.201
       2.430
       2.602
       2.731
       2.826
       2.897
       2.948
       2.978
       2.989
       2.978
       2.944
       2.876
       2.756
       2.552
       2.232
       1.771
       1.169
       0.451
      -0.321
      -1.074
      -1.736
      -2.266
      -2.660
      -2.944
      -3.152
      -3.300
      -3.387
      -3.404
      -3.343
      -3.207
      -2.991
      -2.679
      -2.247
      -1.679
      -0.982
      -0.197
       0.612
       1.365
       1.993
       2.446
       2.707
       2.787
       2.716
       2.529
       2.258
       1.913
       1.496
       1.002
       0.430
      -0.207
      -0.875
      -1.507
      -2.009
      -2.281
      -2.266
      -1.978
      -1.497
      -0.929
      -0.355
       0.183
       0.673
       1.100
       1.430
       1.616
       1.606
       1.359
       0.864
       0.161
      -0.641
      -1.375
      -1.860
      -1.953
      -1.594
      -0.809
       0.303
       1.578
       2.805
       3.771
       4.328
       4.418
       4.063
       3.327
       2.331
       1.241
       0.245
      -0.518
      -1.007
      -1.288
      -1.490
      -1.737
      -2.099
      -2.578
      -3.119
      -3.641
      -4.059
      -4.285
      -4.230
      -3.828
      -3.075
      -2.058
      -0.940
       0.088
       0.868
       1.316
       1.430
       1.284
       0.993
       0.687
       0.499
       0.547
       0.910
       1.584
       2.460
       3.348
       4.047
       4.409
       4.384
       4.008
       3.370
       2.582
       1.748
       0.960
       0.286
      -0.237
      -0.610
      -0.878
      -1.107
      -1.353
      -1.636
      -1.937
      -2.226
      -2.483
      -2.705
      -2.890
      -3.028
      -3.108
      -3.134
      -3.119
      -3.071
      -2.972
      -2.793
      -2.515
      -2.162
      -1.803
      -1.520
      -1.359
      -1.283
      -1.174
      -0.873
      -0.258
       0.691
       1.880
       3.145
       4.327
       5.329
       6.127
       6.733
       7.137
       7.271
       7.039
       6.374
       5.303
       3.968
       2.576
       1.320
       0.306
      -0.465
      -1.074
      -1.633
      -2.226
      -2.886
      -3.592
      -4.281
      -4.880
      -5.317
      -5.541
      -5.523
      -5.263
      -4.789
      -4.145
      -3.386
      -2.577
      -1.790
      -1.107
      -0.596
      -0.288
      -0.141
      -0.049
       0.122
       0.480
       1.053
       1.775
       2.508
       3.104
       3.468
       3.602
       3.586
       3.521
       3.465
       3.404
       3.286
       3.065
       2.729
       2.292
       1.760
       1.112
       0.312
      -0.660
      -1.777
      -2.952
      -4.051
      -4.934
      -5.486
      -5.645
      -5.398
      -4.776
      -3.845
      -2.706
      -1.489
      -0.332
       0.651
       1.393
       1.884
       2.165
       2.301
       2.350
       2.340
       2.270
       2.131
       1.926
       1.668
       1.375
       1.071
       0.790
       0.588
       0.517
       0.597
       0.804
       1.071
       1.311
       1.441
       1.394
       1.145
       0.725
       0.218
      -0.264
      -0.634
      -0.876
      -1.039
      -1.197
      -1.393
      -1.609
      -1.780
      -1.839
      -1.755
      -1.546
      -1.275
      -1.016
      -0.827
      -0.729
      -0.715
      -0.758
      -0.830
      -0.909
      -0.980
      -1.040
      -1.086
      -1.112
      -1.099
      -1.021
      -0.848
      -0.556
      -0.146
       0.352
       0.878
       1.357
       1.725
       1.952
       2.050
       2.061
       2.018
       1.931
       1.783
       1.552
       1.240
       0.889
       0.572
       0.365
       0.315
       0.407
       0.571
       0.711
       0.740
       0.620
       0.370
       0.062
      -0.208
      -0.360
      -0.364
      -0.259
      -0.136
      -0.098
      -0.211
      -0.475
      -0.831
      -1.184
      -1.441
      -1.541
      -1.465
      -1.236
      -0.912
      -0.562
      -0.247
       0.001
       0.181
       0.310
       0.403
       0.470
       0.514
       0.548
       0.590
       0.649
       0.709
       0.729
       0.672
       0.529
       0.329
       0.115
      -0.083
      -0.255
      -0.402
      -0.518
      -0.585
      -0.590
      -0.542
      -0.471
      -0.416
      -0.393
      -0.391
      -0.383
      -0.352
      -0.301
      -0.250
      -0.210
      -0.175
      -0.119
      -0.009
       0.177
       0.432
       0.714
       0.965
       1.127
       1.170
       1.106
       0.975
       0.822
       0.674
       0.535
       0.394
       0.241
       0.076
      -0.089
      -0.234
      -0.344
      -0.412
      -0.443
      -0.449
      -0.445
      -0.437
      -0.418
      -0.359
      -0.229
      -0.008
       0.289
       0.615
       0.908
       1.114
       1.194
       1.129
       0.928
       0.623
