Origin Time       01/04/2014 17:45:09
Lat.              26.4 N	
Long.             92.4 E	
Depth (Km)         33.0
Magnitude         4.4
 Region           Naogaon-Assam                                                    
 Above details taken from IMD 
   
Station Code      NAU
Station Lat.       26.349
Station Long.      92.690
Station Height(m)   78.0
Site Class        C   Vs30 between 200 m/sec to 375 m/sec *  
Record Time       01.04.2014 17:44:50.094
Sampling Rate     200. Hz
 Record Duration   86.515 Sec.
 Direction         Vert. (Up positive)
Max. Acceleration    -10.033 cm/sec**2
     
  * For reference see Site Classification link of website 
     
 Base Line Corrected and Low Pass Filtered (Cut Off at 35 Hz) Time History
 Acceleration data in cm/sec**2
    
[...]
      -1.434
      -1.811
      -1.962
      -1.501
      -0.444
       0.690
       1.365
       1.528
       1.560
       1.761
       1.992
       1.838
       1.067
      -0.155
      -1.474
      -2.604
      -3.369
      -3.605
      -3.188
      -2.167
      -0.806
       0.563
       1.682
       2.373
       2.495
       2.012
       1.142
       0.331
      -0.075
      -0.156
      -0.330
      -0.889
      -1.639
      -2.057
      -1.795
      -0.982
      -0.054
       0.670
       1.200
       1.673
       2.025
       1.993
       1.432
       0.561
      -0.189
      -0.542
      -0.597
      -0.699
      -1.095
      -1.696
      -2.130
      -2.048
      -1.405
      -0.460
       0.450
       1.125
       1.524
       1.700
       1.749
       1.741
       1.629
       1.264
       0.557
      -0.359
      -1.201
      -1.791
      -2.198
      -2.574
      -2.849
      -2.681
      -1.780
      -0.255
       1.389
       2.621
       3.212
       3.257
       2.957
       2.406
       1.542
       0.290
      -1.240
      -2.689
      -3.614
      -3.748
      -3.153
      -2.137
      -1.016
       0.095
       1.264
       2.478
       3.437
       3.735
       3.247
       2.262
       1.155
       0.060
      -1.067
      -2.141
      -2.848
      -2.920
      -2.417
      -1.677
      -0.985
      -0.336
       0.415
       1.223
       1.776
       1.794
       1.360
       0.886
       0.728
       0.842
       0.849
       0.446
      -0.272
      -0.890
      -1.046
      -0.741
      -0.312
      -0.118
      -0.224
      -0.377
      -0.318
      -0.070
       0.127
       0.141
       0.122
       0.296
       0.628
       0.764
       0.380
      -0.422
      -1.142
      -1.335
      -0.997
      -0.484
      -0.113
       0.083
       0.242
       0.416
       0.468
       0.217
      -0.361
      -1.061
      -1.606
      -1.827
      -1.708
      -1.298
      -0.634
       0.227
       1.151
       1.928
       2.362
       2.385
       2.119
       1.802
       1.605
       1.479
       1.200
       0.584
      -0.312
      -1.194
      -1.740
      -1.823
      -1.569
      -1.223
      -0.968
      -0.837
      -0.735
      -0.515
      -0.101
       0.417
       0.835
       1.000
       0.912
       0.665
       0.365
       0.120
       0.025
       0.054
       0.030
      -0.203
      -0.561
      -0.789
      -0.728
      -0.472
      -0.237
      -0.159
      -0.179
      -0.090
       0.277
       0.821
       1.179
       1.065
       0.575
       0.068
      -0.234
      -0.394
      -0.559
      -0.738
      -0.839
      -0.798
      -0.610
      -0.302
       0.058
       0.336
       0.389
       0.171
      -0.167
      -0.349
      -0.236
      -0.026
      -0.100
      -0.594
      -1.150
      -1.181
      -0.452
       0.621
       1.302
       1.233
       0.775
       0.572
       0.796
       0.991
       0.701
       0.087
      -0.250
       0.014
       0.542
       0.724
       0.367
      -0.116
      -0.210
       0.110
       0.380
       0.231
      -0.199
      -0.510
      -0.582
      -0.694
      -1.098
      -1.626
      -1.807
      -1.332
      -0.334
       0.745
       1.512
       1.855
       1.906
       1.806
       1.534
       0.982
       0.173
      -0.661
      -1.254
      -1.530
      -1.619
      -1.656
      -1.601
      -1.289
      -0.655
       0.091
       0.570
       0.540
       0.130
      -0.258
      -0.297
       0.024
       0.480
       0.868
       1.141
       1.320
       1.371
       1.216
       0.828
       0.269
      -0.350
      -0.927
      -1.359
      -1.547
      -1.459
      -1.168
      -0.775
      -0.284
       0.356
       1.087
       1.696
       1.976
       1.894
       1.579
       1.178
       0.751
       0.270
      -0.326
      -1.055
      -1.828
      -2.458
      -2.745
      -2.566
      -1.909
      -0.891
       0.226
       1.099
       1.514
       1.535
       1.390
       1.193
       0.864
       0.329
      -0.276
      -0.661
      -0.647
      -0.373
      -0.191
      -0.333
      -0.666
      -0.822
      -0.567
      -0.018
       0.483
       0.681
       0.608
       0.502
       0.537
       0.644
       0.618
       0.373
       0.032
      -0.234
      -0.391
      -0.536
      -0.747
      -0.969
      -1.015
      -0.718
      -0.120
       0.505
       0.869
       0.923
       0.854
       0.842
       0.883
       0.834
       0.596
       0.214
      -0.171
      -0.475
      -0.729
      -0.982
      -1.152
      -1.058
      -0.625
      -0.015
       0.497
       0.735
       0.710
       0.528
       0.285
       0.048
      -0.143
      -0.296
      -0.459
      -0.649
      -0.794
      -0.770
      -0.498
      -0.025
       0.470
       0.771
       0.783
       0.605
       0.427
       0.350
       0.288
       0.083
      -0.331
      -0.847
      -1.267
      -1.449
      -1.363
      -1.033
      -0.470
       0.285
       1.064
       1.577
       1.586
       1.121
       0.501
       0.126
       0.160
       0.406
       0.514
       0.320
      -0.019
      -0.244
      -0.288
      -0.304
      -0.424
      -0.586
      -0.609
      -0.388
       0.017
       0.417
       0.598
       0.450
       0.074
      -0.258
      -0.312
      -0.096
       0.153
       0.168
      -0.148
      -0.676
      -1.148
      -1.325
      -1.176
      -0.876
      -0.586
      -0.269
       0.212
       0.825
       1.295
       1.338
       0.943
       0.390
       0.009
      -0.068
       0.030
       0.059
      -0.123
      -0.423
      -0.610
      -0.544
      -0.290
       0.004
       0.296
       0.637
       0.984
       1.116
       0.813
       0.124
      -0.614
      -1.061
      -1.142
      -1.017
      -0.827
      -0.579
      -0.257
       0.069
       0.291
       0.379
       0.409
       0.502
       0.707
       0.900
       0.853
       0.479
       0.007
      -0.182
       0.072
       0.530
       0.749
       0.463
      -0.198
      -0.847
      -1.160
      -1.095
      -0.832
      -0.560
      -0.334
      -0.107
       0.177
       0.514
       0.808
       0.872
       0.577
       0.051
      -0.367
      -0.457
      -0.346
      -0.315
      -0.482
      -0.738
      -0.916
      -0.920
      -0.710
      -0.290
       0.247
       0.721
       0.979
       1.022
       0.988
       1.000
       1.017
       0.866
       0.458
      -0.038
      -0.274
      -0.055
       0.421
       0.717
       0.571
       0.112
      -0.318
      -0.486
      -0.420
      -0.347
      -0.523
      -1.021
      -1.631
      -1.987
      -1.868
      -1.371
      -0.773
      -0.239
       0.285
       0.897
       1.522
       1.925
       1.916
       1.504
       0.896
       0.370
       0.114
       0.067
      -0.062
      -0.524
      -1.252
      -1.870
      -2.018
      -1.669
      -1.111
      -0.628
      -0.230
       0.293
       1.055
       1.839
       2.211
       1.889
       1.035
       0.160
      -0.279
      -0.228
       0.003
       0.076
      -0.118
      -0.468
      -0.781
      -0.914
      -0.840
      -0.662
      -0.498
      -0.359
      -0.169
       0.077
       0.274
       0.358
       0.422
       0.598
       0.846
       0.939
       0.718
       0.344
       0.170
       0.329
       0.517
       0.303
      -0.364
      -1.053
      -1.288
      -1.039
      -0.687
      -0.543
      -0.504
      -0.271
       0.171
       0.469
       0.342
      -0.021
      -0.138
       0.213
       0.714
       0.843
       0.404
      -0.312
      -0.865
      -1.035
      -0.877
      -0.541
      -0.125
       0.345
       0.842
       1.245
       1.345
       1.021
       0.420
      -0.117
      -0.367
      -0.400
      -0.410
      -0.452
      -0.441
      -0.356
      -0.321
      -0.441
      -0.609
      -0.567
      -0.188
       0.335
       0.637
       0.518
       0.104
      -0.321
      -0.560
      -0.554
      -0.297
       0.194
       0.817
       1.363
       1.598
       1.410
       0.891
       0.278
      -0.249
      -0.675
      -1.046
      -1.296
      -1.297
      -1.068
      -0.802
      -0.631
      -0.471
      -0.159
       0.315
       0.762
       0.969
       0.854
       0.498
       0.117
      -0.048
       0.074
       0.250
       0.135
      -0.322
      -0.747
      -0.744
      -0.364
      -0.053
      -0.154
      -0.573
      -0.936
      -0.949
      -0.572
       0.048
       0.718
       1.303
       1.742
       1.955
       1.778
       1.090
       0.068
      -0.789
      -1.042
      -0.734
      -0.345
      -0.306
      -0.624
      -0.978
      -1.071
      -0.850
      -0.434
       0.070
       0.637
       1.186
       1.465
       1.200
       0.432
      -0.408
      -0.860
      -0.832
      -0.554
      -0.255
       0.010
       0.238
       0.323
       0.085
      -0.538
      -1.319
      -1.813
      -1.672
      -0.894
       0.209
       1.230
       1.862
       2.022
       1.885
       1.703
       1.525
       1.161
       0.469
      -0.420
      -1.219
      -1.725
      -1.924
      -1.920
      -1.799
      -1.504
      -0.881
       0.057
       0.965
       1.407
       1.287
       0.962
       0.868
       1.063
       1.170
       0.798
      -0.008
      -0.770
      -1.018
      -0.678
      -0.030
       0.578
       0.917
       0.903
       0.583
       0.097
      -0.412
      -0.854
      -1.155
      -1.222
      -1.009
      -0.597
      -0.194
      -0.001
      -0.067
      -0.222
      -0.236
      -0.043
       0.213
       0.375
       0.431
       0.445
       0.435
       0.396
       0.345
       0.234
      -0.055
      -0.513
      -0.866
      -0.820
      -0.432
      -0.109
      -0.193
      -0.605
      -0.953
      -0.942
      -0.655
      -0.353
      -0.033
       0.656
       1.868
       3.097
       3.555
       3.008
       2.005
       1.203
       0.672
      -0.051
      -1.332
      -2.930
      -4.079
      -4.094
      -2.953
      -1.300
       0.094
       0.862
       1.133
       1.213
       1.231
       1.067
       0.620
       0.095
      -0.101
       0.175
       0.546
       0.481
      -0.085
      -0.616
      -0.516
       0.233
       1.022
       1.187
       0.600
      -0.293
      -0.942
      -1.194
      -1.355
      -1.760
      -2.306
      -2.506
      -2.036
      -1.128
      -0.298
       0.247
       0.808
       1.792
       3.136
       4.127
       3.835
       1.924
      -0.861
      -3.119
      -3.882
      -3.336
      -2.460
      -1.953
      -1.559
      -0.477
       1.557
       3.709
       4.695
       3.979
       2.266
       0.800
       0.235
       0.190
      -0.134
      -1.003
      -1.932
      -2.363
      -2.342
      -2.358
      -2.648
      -2.853
      -2.388
      -1.026
       0.890
       2.729
       4.024
       4.760
       5.245
       5.690
       5.879
       5.253
       3.354
       0.310
      -3.067
      -5.658
      -6.665
      -6.023
      -4.352
      -2.531
      -1.166
      -0.304
       0.409
       1.305
       2.394
       3.333
       3.628
       2.934
       1.335
      -0.658
      -2.455
      -3.701
      -4.199
      -3.746
      -2.322
      -0.427
       1.072
       1.627
       1.427
       1.075
       0.966
       1.089
       1.288
       1.559
       1.988
       2.455
       2.514
       1.728
       0.172
      -1.527
      -2.764
      -3.455
      -3.831
      -3.860
      -3.193
      -1.725
       0.001
       1.167
       1.418
       1.167
       1.224
       2.122
       3.680
       5.067
       5.332
       4.034
       1.540
      -1.232
      -3.409
      -4.630
      -5.019
      -4.806
      -4.038
      -2.660
      -0.834
       0.945
       2.110
       2.415
       2.034
       1.292
       0.383
      -0.617
      -1.515
      -1.938
      -1.592
      -0.608
       0.449
       0.972
       0.764
       0.141
      -0.405
      -0.635
      -0.688
      -0.781
      -0.815
      -0.351
       0.934
       2.771
       4.328
       4.790
       3.968
       2.370
       0.670
      -0.844
      -2.260
      -3.549
      -4.262
      -3.835
      -2.195
      -0.012
       1.733
       2.413
       2.077
       1.205
       0.293
      -0.394
      -0.848
      -1.196
      -1.485
      -1.499
      -0.898
       0.417
       2.085
       3.463
       3.970
       3.341
       1.724
      -0.348
      -2.214
      -3.464
      -4.119
      -4.394
      -4.312
      -3.645
      -2.226
      -0.237
       1.816
       3.359
       4.017
       3.798
       3.095
       2.369
       1.758
       1.026
      -0.083
      -1.534
      -3.035
      -4.238
      -4.848
      -4.644
      -3.544
      -1.699
       0.498
       2.548
       4.054
       4.836
       4.873
       4.193
       2.933
       1.452
       0.251
      -0.316
      -0.287
      -0.083
      -0.242
      -1.045
      -2.283
      -3.392
      -3.853
      -3.479
      -2.365
      -0.726
       1.130
       2.774
       3.773
       3.899
       3.205
       1.925
       0.349
      -1.219
      -2.498
      -3.294
      -3.509
      -3.100
      -2.085
      -0.641
       0.810
       1.751
       1.952
       1.766
       1.929
       2.887
       4.273
       5.108
       4.614
       2.814
       0.359
      -2.181
      -4.725
      -7.314
      -9.448
     -10.033
      -8.234
      -4.421
      -0.174
       2.783
       3.679
       2.914
       1.444
       0.106
      -0.651
      -0.659
       0.129
       1.673
       3.729
       5.745
       6.967
       6.761
       4.982
       2.161
      -0.643
      -2.302
      -2.207
      -0.635
       1.425
       2.903
       3.229
       2.377
       0.523
      -2.138
      -5.139
      -7.486
      -7.989
      -6.095
      -2.451
       1.429
       4.119
       5.005
       4.285
       2.473
       0.020
      -2.675
      -5.092
      -6.622
      -6.890
      -5.999
      -4.389
      -2.429
      -0.258
       1.989
       4.011
       5.525
       6.481
       6.907
       6.650
       5.517
       3.710
       1.879
       0.652
       0.189
       0.238
       0.472
       0.646
       0.545
       0.009
      -0.902
      -1.870
      -2.596
      -3.103
      -3.602
      -4.030
      -3.902
      -2.816
      -1.052
       0.487
       0.965
       0.192
      -1.364
      -2.937
      -3.848
      -3.744
      -2.656
      -0.865
       1.279
       3.393
       5.046
       5.830
       5.508
       4.148
       2.197
       0.377
      -0.699
      -0.930
      -0.689
      -0.373
      -0.100
       0.137
       0.202
      -0.099
      -0.684
      -1.086
      -0.786
       0.267
       1.508
       2.172
       1.890
       0.858
      -0.506
      -1.915
      -3.177
      -3.944
      -3.725
      -2.310
      -0.192
       1.586
       2.167
       1.546
       0.492
      -0.193
      -0.351
      -0.485
      -1.181
      -2.484
      -3.772
      -4.208
      -3.358
      -1.444
       0.906
       3.109
       4.827
       5.857
       6.009
       5.228
       3.768
       2.115
       0.640
      -0.601
      -1.730
      -2.750
      -3.460
      -3.646
      -3.298
      -2.613
      -1.805
      -0.934
       0.063
       1.157
       2.076
       2.419
       1.948
       0.819
      -0.471
      -1.373
      -1.608
      -1.306
      -0.856
      -0.567
      -0.412
      -0.117
       0.498
       1.310
       2.043
       2.544
       2.851
       3.024
       3.016
       2.683
       1.900
       0.673
      -0.793
      -2.124
      -2.944
      -3.087
      -2.702
      -2.138
      -1.667
      -1.286
      -0.789
      -0.044
       0.836
       1.582
       1.998
       2.038
       1.710
       0.961
      -0.264
      -1.873
      -3.571
      -4.985
      -5.823
      -5.924
      -5.243
      -3.886
      -2.121
      -0.272
       1.428
       2.879
       4.007
       4.682
       4.743
       4.146
       3.068
       1.857
       0.815
       0.046
      -0.475
      -0.710
      -0.562
      -0.051
       0.616
       1.204
       1.584
       1.731
       1.675
       1.545
       1.567
       1.904
       2.445
       2.809
       2.630
       1.899
       0.994
       0.294
      -0.243
      -1.043
      -2.429
      -4.192
      -5.682
      -6.263
      -5.690
      -4.136
      -2.048
       0.002
       1.461
       2.025
       1.792
       1.126
       0.308
      -0.615
      -1.634
      -2.523
      -2.913
      -2.637
      -1.926
      -1.203
      -0.641
       0.024
       1.186
       2.845
       4.441
       5.256
       4.979
       3.858
       2.410
       1.038
      -0.128
      -1.133
      -1.985
      -2.514
      -2.446
      -1.668
      -0.414
       0.851
       1.744
       2.179
       2.321
       2.375
       2.424
       2.379
       2.052
       1.298
       0.145
      -1.202
      -2.520
      -3.701
      -4.718
      -5.459
      -5.627
      -4.867
      -3.088
      -0.726
       1.420
       2.753
       3.314
       3.610
       3.984
       4.225
       3.801
       2.434
       0.416
      -1.597
      -3.062
      -3.854
      -4.167
      -4.169
      -3.799
      -2.898
      -1.550
      -0.206
       0.610
       0.759
       0.629
       0.782
       1.419
       2.158
       2.371
       1.773
       0.700
      -0.226
      -0.682
      -0.819
      -0.856
      -0.673
       0.075
       1.454
       3.001
       4.057
       4.344
       4.176
       4.058
       4.123
       3.986
       3.156
       1.508
      -0.631
      -2.731
      -4.323
      -5.142
      -5.159
      -4.525
      -3.417
      -1.946
      -0.261
       1.306
       2.290
       2.359
       1.559
       0.304
      -0.895
      -1.758
      -2.305
      -2.632
      -2.705
      -2.433
      -1.884
      -1.287
      -0.843
      -0.600
      -0.516
      -0.558
      -0.710
      -0.886
      -0.890
      -0.537
       0.125
       0.812
       1.319
       1.785
       2.514
       3.529
       4.410
       4.606
       3.889
       2.550
       1.203
       0.350
       0.058
       0.026
      -0.052
      -0.218
      -0.329
      -0.340
      -0.452
      -0.961
      -1.942
      -3.096
      -3.960
      -4.278
      -4.122
      -3.683
      -3.009
      -2.030
      -0.775
       0.511
       1.498
       2.024
       2.184
       2.191
       2.155
       2.043
       1.818
       1.566
       1.454
       1.564
       1.771
       1.824
       1.559
       1.063
       0.590
       0.309
       0.151
      -0.084
      -0.518
      -1.111
      -1.760
      -2.397
      -2.999
      -3.509
      -3.787
      -3.650
      -2.996
      -1.918
      -0.703
       0.334
       1.072
       1.658
       2.335
       3.160
       3.915
       4.305
       4.221
       3.796
       3.240
       2.677
       2.129
       1.593
       1.080
       0.583
       0.098
      -0.311
      -0.536
      -0.591
      -0.712
      -1.171
      -1.973
      -2.778
      -3.179
      -3.035
      -2.558
      -2.087
      -1.807
      -1.673
      -1.611
      -1.684
      -1.960
