Origin Time       4/2/2011 13:53:39	 
Lat.              24.8 N	
Long.             94.6 E	
Depth (Km)         30.0
Magnitude         6.4
 Region           Myanmar-India-Border                                             
 Above details taken from IMD 
   
Station Code      NAU
Station Lat.       26.349
Station Long.      92.690
Station Height(m)   72.0
Site Class        C   Vs30 between 200 m/sec to 375 m/sec *  
Record Time       04.02.2011 13:53:55.784
Sampling Rate     200. Hz
 Record Duration  135.445 Sec.
 Direction         Vert. (Up positive)
Max. Acceleration     32.113 cm/sec**2
     
  * For reference see Site Classification link of website 
     
 Base Line Corrected and Low Pass Filtered (Cut Off at 35 Hz) Time History
 Acceleration data in cm/sec**2
    
[...]
       3.248
       2.349
       1.860
       2.102
       2.743
       3.073
       2.594
       1.383
      -0.067
      -1.342
      -2.454
      -3.697
      -5.155
      -6.340
      -6.364
      -4.547
      -0.994
       3.332
       7.082
       9.194
       9.305
       7.684
       4.880
       1.436
      -2.166
      -5.478
      -8.112
      -9.788
     -10.271
      -9.262
      -6.477
      -1.996
       3.447
       8.607
      12.320
      14.070
      14.082
      12.918
      10.973
       8.306
       4.881
       0.931
      -2.931
      -6.015
      -7.989
      -9.044
      -9.612
      -9.901
      -9.732
      -8.819
      -7.154
      -5.070
      -2.953
      -0.950
       1.026
       3.019
       4.793
       5.887
       5.935
       4.951
       3.321
       1.509
      -0.245
      -1.979
      -3.835
      -5.818
      -7.634
      -8.685
      -8.297
      -6.112
      -2.382
       2.073
       6.244
       9.342
      10.939
      10.836
       8.950
       5.476
       1.110
      -3.062
      -6.054
      -7.418
      -7.273
      -6.011
      -4.032
      -1.734
       0.369
       1.708
       2.003
       1.593
       1.284
       1.740
       2.943
       4.222
       4.798
       4.311
       2.921
       1.019
      -1.036
      -2.886
      -4.062
      -4.114
      -2.956
      -1.055
       0.781
       1.850
       1.905
       1.153
      -0.003
      -1.218
      -2.284
      -3.070
      -3.441
      -3.241
      -2.310
      -0.572
       1.848
       4.577
       7.105
       8.954
       9.766
       9.321
       7.561
       4.653
       1.031
      -2.672
      -5.829
      -8.030
      -9.150
      -9.259
      -8.493
      -6.978
      -4.825
      -2.170
       0.755
       3.540
       5.622
       6.465
       5.801
       3.800
       1.079
      -1.433
      -2.849
      -2.773
      -1.541
       0.012
       1.148
       1.669
       1.824
       1.795
       1.356
       0.139
      -1.766
      -3.654
      -4.786
      -5.072
      -5.033
      -5.058
      -4.814
      -3.510
      -0.809
       2.613
       5.530
       7.218
       7.924
       8.244
       8.177
       6.987
       4.026
      -0.420
      -5.174
      -8.993
     -11.351
     -12.492
     -12.813
     -12.238
     -10.217
      -6.362
      -1.103
       4.324
       8.584
      11.044
      11.983
      12.137
      12.010
      11.528
      10.221
       7.712
       4.145
       0.217
      -3.181
      -5.453
      -6.492
      -6.452
      -5.438
      -3.478
      -0.776
       2.101
       4.329
       5.180
       4.386
       2.283
      -0.428
      -3.131
      -5.573
      -7.732
      -9.497
     -10.564
     -10.602
      -9.474
      -7.300
      -4.375
      -1.044
       2.319
       5.296
       7.515
       8.900
       9.809
      10.798
      12.113
      13.368
      13.773
      12.768
      10.473
       7.494
       4.292
       0.850
      -2.899
      -6.427
      -8.707
      -9.118
      -8.099
      -6.753
      -5.830
      -5.234
      -4.510
      -3.690
      -3.484
      -4.633
      -7.107
      -9.985
     -12.082
     -12.685
     -11.798
      -9.810
      -7.054
      -3.692
       0.092
       3.943
       7.444
      10.272
      12.183
      12.941
      12.396
      10.625
       7.908
       4.628
       1.321
      -1.237
      -2.252
      -1.445
       0.621
       2.784
       3.958
       3.709
       2.331
       0.476
      -1.278
      -2.608
      -3.433
      -3.904
      -4.363
      -5.145
      -6.242
      -7.169
      -7.271
      -6.307
      -4.762
      -3.481
      -2.915
      -2.714
      -2.108
      -0.713
       1.008
       2.037
       1.630
       0.006
      -1.658
      -1.997
      -0.388
       2.750
       6.456
       9.924
      12.763
      14.762
      15.598
      14.861
      12.360
       8.384
       3.651
      -1.023
      -5.022
      -8.046
     -10.072
     -11.227
     -11.601
     -11.106
      -9.568
      -6.984
      -3.708
      -0.378
       2.308
       3.781
       3.720
       2.181
      -0.307
      -2.849
      -4.589
      -5.156
      -4.814
      -4.141
      -3.423
      -2.258
       0.222
       4.576
      10.315
      15.881
      19.430
      19.816
      17.050
      12.018
       5.860
      -0.427
      -6.055
     -10.395
     -12.979
     -13.558
     -12.131
      -8.942
      -4.524
       0.248
       4.279
       6.646
       7.008
       5.690
       3.368
       0.705
      -1.887
      -4.352
      -6.906
      -9.664
     -12.235
     -13.770
     -13.533
     -11.454
      -8.130
      -4.299
      -0.303
       3.944
       8.482
      12.840
      16.132
      17.630
      17.185
      15.110
      11.742
       7.271
       1.975
      -3.481
      -8.128
     -11.128
     -12.140
     -11.327
      -9.091
      -5.863
      -2.071
       1.817
       5.326
       8.043
       9.598
       9.561
       7.469
       3.106
      -3.073
      -9.736
     -15.015
     -17.271
     -15.849
     -11.378
      -5.392
       0.546
       5.672
      10.106
      14.134
      17.438
      19.077
      18.196
      14.683
       9.217
       2.826
      -3.545
      -9.160
     -13.432
     -15.938
     -16.602
     -15.729
     -13.692
     -10.577
      -6.334
      -1.340
       3.359
       6.534
       7.582
       6.861
       5.249
       3.366
       1.261
      -1.174
      -3.596
      -5.173
      -5.115
      -3.161
       0.328
       4.516
       8.318
      10.752
      11.288
       9.993
       7.424
       4.408
       1.739
      -0.197
      -1.600
      -2.989
      -4.654
      -6.315
      -7.309
      -7.146
      -5.939
      -4.339
      -3.010
      -2.131
      -1.369
      -0.336
       0.902
       1.794
       1.764
       0.701
      -1.027
      -2.938
      -4.690
      -5.971
      -6.300
      -5.104
      -2.086
       2.436
       7.525
      11.967
      14.678
      14.903
      12.297
       7.068
       0.128
      -7.018
     -12.743
     -15.859
     -15.992
     -13.615
      -9.777
      -5.660
      -2.165
       0.342
       2.066
       3.578
       5.366
       7.342
       8.765
       8.769
       7.126
       4.493
       1.878
      -0.190
      -2.006
      -4.201
      -6.873
      -9.191
      -9.922
      -8.370
      -4.866
      -0.439
       3.926
       7.723
      10.758
      12.718
      13.021
      11.198
       7.444
       2.733
      -1.724
      -5.241
      -7.937
     -10.260
     -12.236
     -13.232
     -12.483
      -9.860
      -6.096
      -2.281
       0.865
       3.279
       5.231
       6.808
       7.818
       8.122
       7.919
       7.554
       7.058
       6.014
       3.974
       1.042
      -1.978
      -4.015
      -4.381
      -3.127
      -0.892
       1.549
       3.669
       5.330
       6.693
       7.967
       9.095
       9.558
       8.521
       5.291
      -0.192
      -7.175
     -14.310
     -20.171
     -23.736
     -24.619
     -22.975
     -19.273
     -14.111
      -8.176
      -2.215
       3.064
       7.174
       9.890
      11.140
      10.889
       9.199
       6.404
       3.245
       0.786
       0.008
       1.205
       3.615
       5.783
       6.561
       5.947
       4.927
       4.489
       4.785
       5.242
       5.315
       5.014
       4.724
       4.664
       4.629
       4.234
       3.300
       1.906
       0.044
      -2.592
      -6.279
     -10.667
     -14.661
     -17.043
     -17.287
     -15.803
     -13.430
     -10.709
      -7.634
      -4.080
      -0.332
       2.907
       5.047
       6.086
       6.592
       7.292
       8.617
      10.470
      12.338
      13.692
      14.324
      14.332
      13.859
      12.951
      11.623
       9.891
       7.674
       4.770
       1.044
      -3.352
      -7.924
     -11.952
     -14.697
     -15.669
     -14.895
     -12.995
     -10.903
      -9.378
      -8.615
      -8.214
      -7.477
      -5.816
      -3.047
       0.549
       4.374
       7.790
      10.347
      11.818
      12.069
      11.005
       8.712
       5.630
       2.452
      -0.229
      -2.195
      -3.510
      -4.218
      -4.213
      -3.417
      -2.039
      -0.594
       0.368
       0.585
       0.211
      -0.356
      -0.752
      -0.800
      -0.500
      -0.044
       0.114
      -0.652
      -2.724
      -5.762
      -8.712
     -10.424
     -10.383
      -8.898
      -6.663
      -4.142
      -1.280
       2.273
       6.704
      11.690
      16.391
      19.722
      20.700
      18.741
      13.870
       6.806
      -1.149
      -8.418
     -13.557
     -15.613
     -14.304
     -10.033
      -3.815
       2.872
       8.409
      11.526
      11.746
       9.459
       5.564
       0.971
      -3.665
      -7.846
     -11.027
     -12.612
     -12.200
      -9.881
      -6.323
      -2.541
       0.548
       2.567
       3.755
       4.579
       5.177
       5.146
       3.873
       1.132
      -2.592
      -6.295
      -8.948
      -9.905
      -9.008
      -6.503
      -2.953
       0.900
       4.429
       7.417
      10.061
      12.635
      15.154
      17.294
      18.510
      18.168
      15.719
      10.988
       4.480
      -2.644
      -9.051
     -13.882
     -17.065
     -19.032
     -20.062
     -19.849
     -17.720
     -13.286
      -6.903
       0.392
       7.205
      12.075
      13.739
      11.566
       6.060
      -1.067
      -7.585
     -11.894
     -13.770
     -14.056
     -13.573
     -12.285
      -9.488
      -4.780
       1.222
       7.128
      11.686
      14.440
      15.675
      15.900
      15.450
      14.393
      12.660
      10.262
       7.488
       4.932
       3.231
       2.660
       2.898
       3.176
       2.724
       1.163
      -1.435
      -4.784
      -8.584
     -12.491
     -16.023
     -18.683
     -20.189
     -20.539
     -19.796
     -17.903
     -14.750
     -10.422
      -5.306
       0.068
       5.299
      10.175
      14.461
      17.690
      19.240
      18.684
      16.043
      11.733
       6.325
       0.434
      -5.219
      -9.817
     -12.662
     -13.400
     -12.065
      -8.974
      -4.633
       0.326
       5.179
       9.199
      11.860
      13.090
      13.257
      12.731
      11.458
       9.086
       5.571
       1.604
      -1.642
      -3.219
      -2.934
      -1.274
       1.063
       3.491
       5.463
       6.331
       5.541
       3.063
      -0.442
      -3.933
      -6.510
      -7.782
      -7.904
      -7.331
      -6.455
      -5.391
      -4.015
      -2.133
       0.344
       3.247
       6.067
       8.076
       8.626
       7.419
       4.542
       0.385
      -4.418
      -9.053
     -12.751
     -15.106
     -16.132
     -15.913
     -14.257
     -10.846
      -5.791
       0.051
       5.438
       9.451
      11.891
      13.069
      13.275
      12.481
      10.515
       7.465
       3.874
       0.551
      -1.817
      -2.948
      -2.976
      -2.221
      -0.919
       0.884
       3.165
       5.665
       7.826
       9.057
       9.093
       8.064
       6.199
       3.454
      -0.502
      -5.831
     -11.984
     -17.644
     -21.314
     -22.106
     -20.119
     -16.192
     -11.336
      -6.290
      -1.431
       3.023
       6.739
       9.234
      10.130
       9.446
       7.628
       5.319
       3.085
       1.313
       0.248
       0.044
       0.713
       2.033
       3.603
       5.062
       6.269
       7.259
       8.064
       8.625
       8.836
       8.644
       8.076
       7.164
       5.849
       3.990
       1.564
      -1.141
      -3.566
      -5.239
      -6.137
      -6.686
      -7.340
      -8.157
      -8.826
      -9.072
      -8.948
      -8.709
      -8.437
      -7.874
      -6.632
      -4.490
      -1.470
       2.287
       6.563
      10.921
      14.591
      16.650
      16.470
      14.124
      10.344
       6.006
       1.550
      -3.111
      -8.115
     -13.130
     -17.346
     -19.968
     -20.676
     -19.655
     -17.245
     -13.654
      -8.985
      -3.509
       2.166
       7.263
      11.252
      14.099
      16.054
      17.135
      16.912
      14.917
      11.317
       7.101
       3.525
       1.296
       0.194
      -0.566
      -1.568
      -2.720
      -3.478
      -3.506
      -3.069
      -2.823
      -3.302
      -4.591
      -6.391
      -8.299
     -10.046
     -11.518
     -12.613
     -13.111
     -12.751
     -11.480
      -9.610
      -7.637
      -5.799
      -3.831
      -1.237
       2.132
       5.738
       8.583
       9.906
       9.788
       9.152
       9.056
       9.828
      10.840
      11.120
      10.220
       8.553
       6.934
       5.837
       5.056
       4.020
       2.362
       0.207
      -1.982
      -3.766
      -4.953
      -5.613
      -5.955
      -6.165
      -6.272
      -6.087
      -5.287
      -3.626
      -1.200
       1.443
       3.475
       4.175
       3.236
       0.831
      -2.437
      -5.616
      -7.699
      -8.129
      -7.106
      -5.310
      -3.277
      -1.051
       1.632
       4.893
       8.393
      11.372
      12.974
      12.633
      10.268
       6.184
       0.890
      -4.993
     -10.740
     -15.632
     -19.171
     -21.189
     -21.675
     -20.481
     -17.254
     -11.755
      -4.261
       4.363
      12.994
      20.642
      26.622
      30.523
      32.113
      31.279
      28.022
      22.527
      15.273
       7.055
      -1.103
      -8.136
     -13.220
     -16.080
     -17.068
     -16.830
     -15.796
     -13.969
     -11.194
      -7.576
      -3.678
      -0.360
       1.606
       1.922
       0.843
      -1.088
      -3.424
      -5.933
      -8.391
     -10.302
     -10.900
      -9.549
      -6.223
      -1.653
       3.055
       7.012
       9.885
      11.757
      12.744
      12.781
      11.749
       9.758
       7.242
       4.733
       2.508
       0.515
      -1.316
      -2.725
      -3.157
      -2.196
       0.040
       2.949
       5.861
       8.423
      10.597
      12.339
      13.287
      12.764
      10.145
       5.312
      -1.166
      -8.285
     -15.064
     -20.788
     -24.894
     -26.778
     -25.893
     -22.117
     -16.036
      -8.864
      -2.018
       3.358
       6.668
       7.844
       7.166
       5.094
       2.197
      -0.878
      -3.464
      -4.984
      -5.065
      -3.641
      -1.012
       2.184
       5.161
       7.285
       8.321
       8.473
       8.169
       7.749
       7.263
       6.516
       5.357
       3.954
       2.783
       2.346
       2.873
       4.230
       6.059
       7.999
       9.820
      11.355
      12.324
      12.289
      10.867
       7.936
       3.627
      -1.851
      -8.207
     -14.787
     -20.415
     -23.784
     -24.203
     -22.037
     -18.420
     -14.492
     -10.822
      -7.411
      -4.141
      -1.126
       1.335
       3.019
       3.893
       3.983
       3.244
       1.653
      -0.561
      -2.793
      -4.238
      -4.298
      -2.895
      -0.463
       2.389
       5.240
       7.942
      10.439
      12.585
      14.187
      15.113
      15.259
      14.402
      12.220
       8.584
       3.925
      -0.738
      -4.258
      -6.002
      -6.161
      -5.471
      -4.623
      -3.850
      -2.965
      -1.734
      -0.231
       1.068
       1.509
       0.647
      -1.440
      -4.108
      -6.438
      -7.702
      -7.696
      -6.700
      -5.126
      -3.221
      -1.062
       1.272
       3.587
       5.617
       7.096
       7.765
       7.345
       5.634
       2.734
      -0.815
      -4.217
      -6.828
      -8.408
      -9.016
      -8.726
      -7.569
      -5.734
      -3.685
      -1.947
      -0.742
       0.143
       1.099
       2.310
       3.593
       4.570
       5.010
       5.038
       5.029
       5.309
       5.948
       6.771
       7.508
       7.968
       8.172
       8.304
       8.453
       8.353
       7.434
       5.203
       1.641
      -2.789
      -7.503
     -12.137
     -16.505
     -20.245
     -22.605
     -22.701
     -20.158
     -15.518
      -9.986
      -4.654
       0.047
       4.172
       7.633
       9.874
      10.233
       8.593
       5.634
       2.395
      -0.433
      -2.796
      -4.918
      -6.692
      -7.488
      -6.602
      -3.905
       0.002
       4.262
       8.318
      12.031
      15.376
      18.093
      19.621
      19.321
      16.844
      12.381
       6.652
       0.700
      -4.416
      -8.002
     -10.011
     -10.919
     -11.206
     -10.948
      -9.915
      -7.982
      -5.369
      -2.506
       0.260
       2.789
       4.980
       6.565
       7.149
       6.487
       4.679
       2.083
      -0.871
      -3.690
      -5.733
      -6.332
      -5.202
      -2.789
      -0.122
       1.879
       3.040
       3.853
       4.732
       5.430
       5.245
       3.748
       1.258
      -1.375
      -3.403
      -4.616
      -5.198
      -5.281
      -4.742
      -3.415
      -1.411
       0.835
       2.770
       4.014
       4.535
       4.605
       4.544
       4.447
       4.137
       3.366
       2.056
       0.374
      -1.388
      -2.997
      -4.336
      -5.342
      -5.925
      -5.971
      -5.398
      -4.199
      -2.459
      -0.428
       1.397
       2.346
       1.885
       0.017
      -2.594
      -4.974
      -6.417
      -6.836
      -6.589
      -6.008
      -5.125
      -3.847
      -2.309
      -0.935
      -0.101
       0.224
       0.441
       0.920
       1.687
       2.522
       3.327
       4.308
       5.750
       7.588
       9.245
       9.968
       9.444
       8.165
       7.153
       7.209
       8.362
       9.940
      11.104
      11.298
      10.343
       8.292
       5.314
       1.665
      -2.324
      -6.317
     -10.048
     -13.305
     -15.832
     -17.298
     -17.413
     -16.138
     -13.826
     -11.099
      -8.501
      -6.231
      -4.223
      -2.444
      -1.031
      -0.114
       0.405
       0.840
       1.475
       2.383
       3.493
       4.762
       6.231
       7.932
       9.772
      11.513
      12.826
      13.420
      13.157
      12.051
      10.143
       7.413
       3.846
      -0.413
      -5.006
      -9.427
     -13.117
     -15.504
     -16.085
     -14.628
     -11.396
      -7.128
      -2.745
       1.002
       3.696
       5.207
       5.609
       5.154
       4.220
       3.132
       1.975
       0.677
      -0.687
      -1.750
      -2.092
      -1.605
      -0.547
       0.757
       2.178
       3.701
       5.106
       5.890
       5.587
       4.205
       2.249
       0.314
      -1.325
      -2.691
      -3.777
      -4.379
      -4.288
      -3.571
      -2.543
      -1.513
      -0.629
       0.058
       0.529
       0.779
       0.783
       0.434
      -0.404
      -1.719
      -3.195
      -4.288
      -4.544
      -3.924
      -2.846
      -1.831
      -1.058
      -0.253
       0.954
       2.588
       4.295
       5.698
       6.683
       7.290
       7.408
       6.697
       4.817
       1.738
      -2.127
      -6.058
      -9.356
     -11.614
     -12.723
