Origin Time       2/3/2013 01:30:40	 
Lat.              24.8 N	
Long.             92.2 E	
Depth (Km)         10.0
Magnitude         5.2
 Region           India-Bangladesh-Border                                          
 Above details taken from IMD 
     
Station Code      NAU
Station Lat.       26.349  N
Station Long.      92.690  E
Station Height(m)   78.0
Site Class        C   Vs30 between 200 m/sec to 375 m/sec *  
Record Time       02.03.2013 01:30:18.794
Sampling Rate     200. Hz
 Record Duration  115.980 Sec.
 Direction         E-W (E positive)
Max. Acceleration     -7.172 cm/sec**2
     
  * For reference see Site Classification link of website 
     
 Base Line Corrected and Low Pass Filtered (Cut Off at 35 Hz) Time History
 Acceleration data in cm/sec**2
    
[...]
      -0.204
      -0.196
      -0.222
      -0.226
      -0.177
      -0.082
       0.025
       0.113
       0.164
       0.184
       0.197
       0.230
       0.294
       0.366
       0.412
       0.404
       0.339
       0.234
       0.109
      -0.020
      -0.138
      -0.225
      -0.265
      -0.254
      -0.213
      -0.162
      -0.111
      -0.046
       0.051
       0.178
       0.304
       0.389
       0.405
       0.357
       0.268
       0.157
       0.023
      -0.144
      -0.332
      -0.505
      -0.616
      -0.638
      -0.586
      -0.502
      -0.426
      -0.382
      -0.379
      -0.430
      -0.534
      -0.662
      -0.752
      -0.750
      -0.648
      -0.495
      -0.358
      -0.279
      -0.257
      -0.271
      -0.301
      -0.339
      -0.375
      -0.395
      -0.377
      -0.302
      -0.171
      -0.010
       0.128
       0.187
       0.130
      -0.034
      -0.248
      -0.432
      -0.526
      -0.519
      -0.440
      -0.336
      -0.246
      -0.188
      -0.170
      -0.192
      -0.245
      -0.313
      -0.370
      -0.381
      -0.315
      -0.165
       0.047
       0.270
       0.456
       0.590
       0.689
       0.787
       0.901
       1.012
       1.070
       1.026
       0.869
       0.631
       0.380
       0.168
       0.010
      -0.117
      -0.243
      -0.373
      -0.480
      -0.527
      -0.492
      -0.389
      -0.256
      -0.131
      -0.027
       0.066
       0.155
       0.224
       0.235
       0.164
       0.040
      -0.067
      -0.082
       0.015
       0.177
       0.320
       0.373
       0.324
       0.218
       0.126
       0.096
       0.127
       0.177
       0.212
       0.236
       0.285
       0.383
       0.514
       0.627
       0.676
       0.656
       0.600
       0.554
       0.545
       0.556
       0.551
       0.510
       0.451
       0.424
       0.465
       0.570
       0.692
       0.761
       0.724
       0.571
       0.338
       0.086
      -0.132
      -0.293
      -0.400
      -0.465
      -0.500
      -0.512
      -0.508
      -0.484
      -0.434
      -0.354
      -0.256
      -0.173
      -0.143
      -0.185
      -0.278
      -0.368
      -0.413
      -0.411
      -0.405
      -0.442
      -0.527
      -0.623
      -0.683
      -0.693
      -0.668
      -0.624
      -0.554
      -0.442
      -0.295
      -0.157
      -0.080
      -0.092
      -0.178
      -0.299
      -0.421
      -0.523
      -0.590
      -0.604
      -0.542
      -0.399
      -0.194
       0.037
       0.256
       0.436
       0.558
       0.607
       0.578
       0.490
       0.376
       0.262
       0.151
       0.029
      -0.103
      -0.221
      -0.292
      -0.306
      -0.297
      -0.320
      -0.419
      -0.598
      -0.826
      -1.063
      -1.270
      -1.416
      -1.482
      -1.466
      -1.386
      -1.287
      -1.212
      -1.178
      -1.155
      -1.084
      -0.921
      -0.675
      -0.413
      -0.206
      -0.075
       0.023
       0.158
       0.355
       0.559
       0.660
       0.574
       0.314
      -0.013
      -0.271
      -0.380
      -0.345
      -0.216
      -0.028
       0.209
       0.483
       0.749
       0.955
       1.082
       1.171
       1.293
       1.508
       1.822
       2.183
       2.523
       2.785
       2.954
       3.046
       3.090
       3.097
       3.047
       2.898
       2.607
       2.155
       1.561
       0.881
       0.199
      -0.401
      -0.858
      -1.155
      -1.306
      -1.337
      -1.254
      -1.053
      -0.738
      -0.354
       0.022
       0.313
       0.500
       0.640
       0.836
       1.166
       1.626
       2.124
       2.522
       2.701
       2.598
       2.218
       1.641
       1.014
       0.516
       0.288
       0.359
       0.626
       0.904
       1.026
       0.908
       0.563
       0.060
      -0.522
      -1.123
      -1.711
      -2.254
      -2.703
      -2.993
      -3.078
      -2.959
      -2.688
      -2.340
      -1.986
      -1.662
      -1.359
      -1.025
      -0.586
      -0.004
       0.685
       1.357
       1.836
       1.963
       1.664
       0.988
       0.101
      -0.765
      -1.396
      -1.673
      -1.609
      -1.321
      -0.958
      -0.633
      -0.400
      -0.263
      -0.211
      -0.227
      -0.302
      -0.424
      -0.584
      -0.762
      -0.919
      -0.998
      -0.947
      -0.757
      -0.487
      -0.234
      -0.083
      -0.067
      -0.169
      -0.346
      -0.534
      -0.655
      -0.635
      -0.441
      -0.099
       0.287
       0.544
       0.482
      -0.035
      -0.996
      -2.233
      -3.486
      -4.541
      -5.306
      -5.795
      -6.045
      -6.044
      -5.750
      -5.157
      -4.351
      -3.474
      -2.634
      -1.824
      -0.925
       0.200
       1.593
       3.135
       4.580
       5.642
       6.105
       5.902
       5.146
       4.105
       3.112
       2.442
       2.214
       2.369
       2.729
       3.093
       3.304
       3.284
       3.021
       2.556
       1.967
       1.357
       0.841
       0.526
       0.463
       0.616
       0.879
       1.140
       1.346
       1.526
       1.734
       1.987
       2.237
       2.405
       2.448
       2.396
       2.319
       2.252
       2.133
       1.808
       1.127
       0.054
      -1.290
      -2.681
      -3.888
      -4.753
      -5.218
      -5.286
      -4.980
      -4.311
      -3.295
      -1.975
      -0.461
       1.067
       2.385
       3.301
       3.718
       3.642
       3.144
       2.315
       1.254
       0.084
      -1.056
      -2.039
      -2.782
      -3.238
      -3.370
      -3.153
      -2.611
      -1.848
      -1.037
      -0.367
       0.012
       0.013
      -0.367
      -1.044
      -1.857
      -2.603
      -3.094
      -3.208
      -2.916
      -2.279
      -1.428
      -0.532
       0.240
       0.748
       0.898
       0.669
       0.139
      -0.507
      -1.023
      -1.223
      -1.088
      -0.776
      -0.516
      -0.437
      -0.479
      -0.433
      -0.082
       0.670
       1.747
       2.953
       4.052
       4.852
       5.244
       5.218
       4.849
       4.237
       3.437
       2.426
       1.142
      -0.431
      -2.207
      -3.987
      -5.514
      -6.527
      -6.841
      -6.395
      -5.287
      -3.751
      -2.083
      -0.539
       0.742
       1.748
       2.527
       3.104
       3.434
       3.431
       3.042
       2.309
       1.375
       0.427
      -0.372
      -0.926
      -1.208
      -1.233
      -1.040
      -0.677
      -0.220
       0.222
       0.522
       0.583
       0.391
       0.033
      -0.337
      -0.567
      -0.586
      -0.435
      -0.246
      -0.175
      -0.310
      -0.599
      -0.851
      -0.824
      -0.361
       0.500
       1.527
       2.401
       2.867
       2.829
       2.354
       1.596
       0.718
      -0.155
      -0.943
      -1.609
      -2.143
      -2.530
      -2.715
      -2.610
      -2.159
      -1.426
      -0.612
       0.018
       0.268
       0.104
      -0.342
      -0.847
      -1.199
      -1.270
      -1.045
      -0.582
       0.032
       0.711
       1.359
       1.840
       2.000
       1.749
       1.162
       0.487
       0.018
      -0.077
       0.133
       0.407
       0.498
       0.302
      -0.115
      -0.602
      -1.034
      -1.352
      -1.547
      -1.613
      -1.528
      -1.256
      -0.761
      -0.041
       0.852
       1.797
       2.639
       3.251
       3.587
       3.692
       3.642
       3.495
       3.264
       2.945
       2.538
       2.050
       1.480
       0.819
       0.091
      -0.618
      -1.173
      -1.448
      -1.394
      -1.053
      -0.534
       0.041
       0.588
       1.078
       1.521
       1.926
       2.257
       2.428
       2.354
       2.027
       1.541
       1.064
       0.744
       0.651
       0.739
       0.864
       0.828
       0.459
      -0.294
      -1.324
      -2.401
      -3.295
      -3.880
      -4.180
      -4.302
      -4.336
      -4.290
      -4.092
      -3.660
      -2.956
      -2.021
      -0.951
       0.136
       1.136
       1.970
       2.599
       3.040
       3.360
       3.628
       3.844
       3.902
       3.628
       2.880
       1.662
       0.180
      -1.213
      -2.154
      -2.437
      -2.102
      -1.386
      -0.582
       0.111
       0.624
       0.968
       1.153
       1.168
       1.018
       0.760
       0.491
       0.281
       0.129
      -0.017
      -0.191
      -0.361
      -0.446
      -0.385
      -0.212
      -0.050
      -0.048
      -0.278
      -0.676
      -1.064
      -1.242
      -1.116
      -0.774
      -0.449
      -0.393
      -0.741
      -1.446
      -2.318
      -3.131
      -3.723
      -4.040
      -4.108
      -3.978
      -3.670
      -3.164
      -2.448
      -1.580
      -0.718
      -0.064
       0.257
       0.288
       0.251
       0.433
       1.010
       1.917
       2.866
       3.499
       3.597
       3.203
       2.566
       1.962
       1.521
       1.188
       0.826
       0.360
      -0.159
      -0.605
      -0.886
      -0.993
      -0.960
      -0.820
      -0.606
      -0.402
      -0.347
      -0.543
      -0.948
      -1.361
      -1.546
      -1.389
      -0.959
      -0.429
       0.036
       0.345
       0.472
       0.437
       0.287
       0.099
      -0.050
      -0.111
      -0.089
      -0.032
      -0.024
      -0.166
      -0.561
      -1.251
      -2.151
      -3.019
      -3.541
      -3.491
      -2.872
      -1.917
      -0.931
      -0.102
       0.580
       1.234
       1.939
       2.630
       3.135
       3.276
       2.975
       2.294
       1.398
       0.489
      -0.261
      -0.751
      -0.949
      -0.881
      -0.632
      -0.330
      -0.110
      -0.044
      -0.087
      -0.089
       0.107
       0.561
       1.184
       1.796
       2.235
       2.446
       2.485
       2.450
       2.386
       2.250
       1.949
       1.427
       0.724
      -0.021
      -0.643
      -1.040
      -1.227
      -1.298
      -1.341
      -1.355
      -1.266
      -1.009
      -0.613
      -0.206
       0.073
       0.159
       0.108
       0.055
       0.118
       0.331
       0.618
       0.838
       0.857
       0.611
       0.134
      -0.454
      -0.988
      -1.330
      -1.422
      -1.299
      -1.040
      -0.727
      -0.431
      -0.204
      -0.071
      -0.006
       0.070
       0.246
       0.574
       1.040
       1.578
       2.090
       2.467
       2.610
       2.466
       2.045
       1.418
       0.688
      -0.023
      -0.592
      -0.910
      -0.925
      -0.670
      -0.258
       0.175
       0.543
       0.838
       1.089
       1.286
       1.357
       1.207
       0.814
       0.291
      -0.148
      -0.296
      -0.101
       0.271
       0.510
       0.359
      -0.203
      -0.931
      -1.489
      -1.678
      -1.544
      -1.292
      -1.088
      -0.941
      -0.735
      -0.376
       0.096
       0.513
       0.701
       0.605
       0.335
       0.077
      -0.044
      -0.049
      -0.077
      -0.275
      -0.696
      -1.258
      -1.801
      -2.171
      -2.289
      -2.175
      -1.910
      -1.568
      -1.182
      -0.747
      -0.278
       0.171
       0.533
       0.790
       0.997
       1.236
       1.534
       1.833
       2.012
       1.973
       1.701
       1.264
       0.758
       0.241
      -0.291
      -0.868
      -1.491
      -2.092
      -2.556
      -2.784
      -2.758
      -2.547
      -2.257
      -1.960
      -1.657
      -1.304
      -0.871
      -0.388
       0.063
       0.412
       0.654
       0.843
       1.022
       1.156
       1.120
       0.776
       0.075
      -0.889
      -1.908
      -2.758
      -3.296
      -3.500
      -3.428
      -3.145
      -2.692
      -2.109
      -1.477
      -0.905
      -0.480
      -0.219
      -0.071
       0.026
       0.094
       0.104
       0.014
      -0.180
      -0.429
      -0.676
      -0.904
      -1.145
      -1.415
      -1.645
      -1.694
      -1.437
      -0.865
      -0.091
       0.717
       1.427
       1.961
       2.269
       2.312
       2.103
       1.747
       1.426
       1.310
       1.445
       1.723
       1.949
       1.961
       1.726
       1.337
       0.933
       0.615
       0.412
       0.304
       0.262
       0.282
       0.381
       0.601
       0.994
       1.598
       2.402
       3.327
       4.233
       4.972
       5.461
       5.730
       5.888
       6.034
       6.172
       6.204
       6.010
       5.542
       4.855
       4.049
       3.175
       2.197
       1.030
      -0.370
      -1.929
      -3.459
      -4.740
      -5.624
      -6.088
      -6.198
      -6.040
      -5.666
      -5.104
      -4.381
      -3.527
      -2.562
      -1.502
      -0.381
       0.707
       1.629
       2.290
       2.707
       2.997
       3.281
       3.557
       3.685
       3.489
       2.894
       1.974
       0.888
      -0.233
      -1.323
      -2.322
      -3.118
      -3.564
      -3.582
      -3.247
      -2.747
      -2.240
      -1.734
      -1.107
      -0.234
       0.873
       2.049
       3.073
       3.791
       4.168
       4.240
       4.032
       3.523
       2.666
       1.454
      -0.050
      -1.699
      -3.303
      -4.686
      -5.748
      -6.482
      -6.943
      -7.172
      -7.155
      -6.828
      -6.140
      -5.121
      -3.900
      -2.661
      -1.559
      -0.663
       0.048
       0.628
       1.097
       1.416
       1.527
       1.406
       1.100
       0.705
       0.318
      -0.011
      -0.278
      -0.494
      -0.650
      -0.719
      -0.692
      -0.610
      -0.549
      -0.563
      -0.640
      -0.701
      -0.663
      -0.495
      -0.244
       0.015
       0.230
       0.405
       0.567
       0.711
       0.782
       0.724
       0.553
       0.388
       0.391
       0.656
       1.128
       1.641
       2.034
       2.251
       2.351
       2.427
       2.514
       2.580
       2.567
       2.462
       2.302
       2.140
       1.989
       1.813
       1.575
       1.280
       0.993
       0.786
       0.680
       0.617
       0.493
       0.232
      -0.156
      -0.577
      -0.902
      -1.054
      -1.056
      -1.016
      -1.040
      -1.161
      -1.323
      -1.437
      -1.457
      -1.414
      -1.389
      -1.439
      -1.534
      -1.568
      -1.433
      -1.101
      -0.629
      -0.099
       0.454
       1.045
       1.677
       2.287
       2.775
       3.086
       3.252
       3.355
       3.439
       3.449
       3.266
       2.780
       1.966
       0.911
      -0.227
      -1.285
      -2.146
      -2.757
      -3.117
      -3.270
      -3.297
      -3.289
      -3.301
      -3.317
      -3.257
      -3.034
      -2.601
      -1.967
      -1.190
      -0.352
       0.455
       1.150
       1.677
       2.007
       2.139
       2.100
       1.933
       1.692
       1.411
       1.080
       0.647
       0.061
      -0.661
      -1.405
      -2.020
      -2.409
      -2.594
      -2.682
      -2.753
      -2.791
      -2.686
      -2.321
      -1.654
      -0.753
       0.247
       1.204
       2.011
       2.608
       2.968
       3.086
       2.985
       2.724
       2.384
       2.041
       1.719
       1.384
       0.974
       0.458
      -0.122
      -0.659
      -1.036
      -1.185
      -1.117
      -0.898
      -0.619
      -0.349
      -0.127
       0.040
       0.176
       0.325
       0.527
       0.780
       1.019
       1.140
       1.070
       0.822
       0.491
       0.187
      -0.027
      -0.147
      -0.188
      -0.140
       0.032
       0.339
       0.717
       1.019
       1.082
       0.829
       0.337
      -0.194
      -0.556
      -0.652
      -0.547
      -0.423
      -0.465
      -0.766
      -1.273
      -1.828
      -2.261
      -2.481
      -2.512
      -2.451
      -2.392
      -2.383
      -2.416
      -2.452
      -2.433
      -2.308
      -2.054
      -1.694
      -1.279
      -0.861
      -0.471
      -0.121
       0.178
       0.420
       0.611
       0.772
       0.928
       1.097
       1.278
       1.446
       1.562
       1.596
       1.545
       1.442
       1.337
       1.266
       1.239
       1.245
       1.255
       1.223
       1.087
       0.802
       0.370
      -0.138
      -0.614
      -0.953
      -1.093
      -1.042
      -0.887
      -0.768
      -0.804
      -1.019
      -1.308
      -1.502
      -1.478
      -1.235
      -0.895
      -0.611
      -0.476
      -0.475
      -0.518
      -0.508
      -0.410
      -0.246
      -0.056
       0.154
       0.419
       0.769
       1.180
       1.553
       1.755
       1.705
       1.443
       1.126
       0.944
       1.010
       1.293
       1.653
       1.936
       2.064
       2.051
       1.957
       1.824
       1.655
       1.458
       1.287
       1.242
       1.404
       1.761
       2.188
       2.512
       2.620
       2.517
       2.300
       2.063
       1.814
       1.471
       0.944
       0.222
      -0.597
      -1.349
      -1.891
      -2.160
      -2.184
      -2.042
      -1.809
      -1.545
      -1.288
      -1.077
      -0.936
      -0.865
      -0.831
      -0.782
      -0.675
      -0.516
      -0.372
      -0.350
      -0.537
      -0.927
      -1.405
      -1.805
      -2.006
      -1.993
      -1.835
      -1.609
      -1.341
      -1.002
      -0.561
      -0.035
       0.492
       0.903
       1.093
       1.019
       0.712
       0.258
      -0.233
      -0.665
      -0.957
      -1.055
      -0.930
      -0.595
      -0.109
       0.430
       0.906
       1.220
       1.320
       1.223
       1.013
       0.802
       0.690
       0.730
       0.920
       1.213
       1.534
       1.788
       1.875
       1.719
       1.325
       0.806
       0.341
       0.076
       0.033
       0.100
       0.113
      -0.042
      -0.360
      -0.737
      -1.050
      -1.238
      -1.326
      -1.381
      -1.447
      -1.516
      -1.556
      -1.554
      -1.536
      -1.538
      -1.565
      -1.576
      -1.509
      -1.326
      -1.038
      -0.706
      -0.428
      -0.307
      -0.406
      -0.694
      -1.041
      -1.269
      -1.253
      -0.998
      -0.643
      -0.366
      -0.268
      -0.324
      -0.419
      -0.449
      -0.389
      -0.296
      -0.242
      -0.246
      -0.268
      -0.251
      -0.170
      -0.034
       0.152
       0.401
       0.726
       1.099
       1.439
       1.652
       1.691
       1.593
       1.456
       1.372
       1.377
       1.447
       1.525
       1.567
       1.555
       1.488
       1.374
       1.222
       1.043
       0.831
       0.556
       0.177
      -0.306
      -0.830
      -1.282
      -1.565
      -1.647
      -1.569
      -1.414
      -1.255
      -1.109
      -0.917
      -0.589
      -0.088
       0.514
       1.063
       1.413
       1.518
       1.439
       1.290
       1.156
       1.048
       0.912
       0.687
       0.356
      -0.026
      -0.353
      -0.517
      -0.452
      -0.156
       0.298
       0.771
