Origin Time       2/3/2013 01:30:40	 
Lat.              24.8 N	
Long.             92.2 E	
Depth (Km)         10.0
Magnitude         5.2
 Region           India-Bangladesh-Border                                          
 Above details taken from IMD 
   
Station Code      NAU
Station Lat.       26.349
Station Long.      92.690
Station Height(m)   78.0
Site Class        C   Vs30 between 200 m/sec to 375 m/sec *  
Record Time       02.03.2013 01:30:18.794
Sampling Rate     200. Hz
 Record Duration  115.980 Sec.
 Direction         Vert. (Up positive)
Max. Acceleration     -6.911 cm/sec**2
     
  * For reference see Site Classification link of website 
     
 Base Line Corrected and Low Pass Filtered (Cut Off at 35 Hz) Time History
 Acceleration data in cm/sec**2
    
[...]
       0.019
       0.019
       0.017
       0.014
       0.012
       0.012
       0.012
       0.007
      -0.001
      -0.009
      -0.012
      -0.008
      -0.002
       0.002
       0.002
      -0.001
      -0.002
       0.002
       0.007
       0.010
       0.008
       0.005
       0.005
       0.009
       0.013
       0.014
       0.010
       0.007
       0.008
       0.012
       0.015
       0.015
       0.009
       0.000
      -0.015
      -0.032
      -0.050
      -0.060
      -0.057
      -0.040
      -0.014
       0.009
       0.020
       0.015
       0.004
      -0.004
      -0.002
       0.009
       0.021
       0.027
       0.022
       0.009
      -0.006
      -0.014
      -0.011
       0.001
       0.014
       0.019
       0.014
       0.006
       0.005
       0.013
       0.022
       0.025
       0.019
       0.009
       0.002
       0.002
       0.005
       0.006
       0.005
       0.005
       0.014
       0.030
       0.048
       0.057
       0.050
       0.031
       0.009
      -0.005
      -0.007
       0.001
       0.012
       0.021
       0.025
       0.027
       0.031
       0.036
       0.038
       0.031
       0.017
      -0.001
      -0.019
      -0.031
      -0.037
      -0.035
      -0.026
      -0.010
       0.008
       0.021
       0.026
       0.024
       0.018
       0.014
       0.013
       0.011
       0.004
      -0.007
      -0.019
      -0.026
      -0.025
      -0.015
       0.000
       0.017
       0.030
       0.035
       0.034
       0.029
       0.023
       0.021
       0.024
       0.031
       0.040
       0.045
       0.042
       0.032
       0.018
       0.006
       0.002
       0.005
       0.013
       0.020
       0.022
       0.021
       0.019
       0.021
       0.028
       0.035
       0.035
       0.023
       0.003
      -0.019
      -0.034
      -0.037
      -0.029
      -0.017
      -0.009
      -0.011
      -0.020
      -0.029
      -0.030
      -0.020
      -0.002
       0.019
       0.039
       0.054
       0.061
       0.055
       0.037
       0.011
      -0.009
      -0.013
      -0.001
       0.019
       0.033
       0.036
       0.029
       0.019
       0.015
       0.017
       0.021
       0.020
       0.008
      -0.009
      -0.022
      -0.024
      -0.014
       0.001
       0.014
       0.020
       0.019
       0.013
       0.001
      -0.011
      -0.019
      -0.016
      -0.004
       0.009
       0.016
       0.015
       0.010
       0.006
       0.005
       0.005
       0.005
       0.005
       0.006
       0.009
       0.010
       0.010
       0.008
       0.007
       0.010
       0.017
       0.026
       0.034
       0.041
       0.045
       0.045
       0.041
       0.032
       0.021
       0.013
       0.008
       0.007
       0.008
       0.009
       0.010
       0.011
       0.013
       0.013
       0.011
       0.004
      -0.005
      -0.012
      -0.016
      -0.015
      -0.009
       0.002
       0.012
       0.016
       0.010
      -0.003
      -0.014
      -0.017
      -0.010
       0.001
       0.008
       0.008
       0.003
       0.003
       0.012
       0.031
       0.051
       0.059
       0.050
       0.029
       0.008
      -0.001
       0.005
       0.022
       0.037
       0.039
       0.023
      -0.003
      -0.028
      -0.041
      -0.040
      -0.032
      -0.023
      -0.018
      -0.015
      -0.013
      -0.010
      -0.007
      -0.005
      -0.006
      -0.009
      -0.012
      -0.013
      -0.009
      -0.001
       0.008
       0.015
       0.019
       0.020
       0.020
       0.021
       0.021
       0.018
       0.011
       0.004
       0.002
       0.007
       0.017
       0.028
       0.034
       0.035
       0.030
       0.023
       0.016
       0.013
       0.014
       0.017
       0.018
       0.016
       0.012
       0.010
       0.011
       0.013
       0.013
       0.011
       0.010
       0.010
       0.012
       0.015
       0.020
       0.021
       0.018
       0.007
      -0.008
      -0.023
      -0.035
      -0.041
      -0.039
      -0.034
      -0.028
      -0.022
      -0.014
      -0.002
       0.014
       0.030
       0.038
       0.034
       0.021
       0.002
      -0.015
      -0.029
      -0.037
      -0.040
      -0.036
      -0.026
      -0.012
       0.001
       0.010
       0.014
       0.015
       0.017
       0.022
       0.030
       0.039
       0.046
       0.051
       0.051
       0.047
       0.036
       0.021
       0.006
      -0.005
      -0.012
      -0.018
      -0.023
      -0.024
      -0.017
       0.001
       0.024
       0.042
       0.046
       0.035
       0.015
      -0.004
      -0.015
      -0.020
      -0.019
      -0.014
      -0.006
       0.006
       0.018
       0.024
       0.020
       0.009
      -0.002
      -0.003
       0.010
       0.033
       0.054
       0.063
       0.058
       0.043
       0.028
       0.017
       0.013
       0.014
       0.017
       0.018
       0.015
       0.008
       0.002
       0.002
       0.010
       0.023
       0.034
       0.037
       0.031
       0.016
      -0.001
      -0.013
      -0.018
      -0.014
      -0.005
       0.004
       0.008
       0.004
      -0.006
      -0.019
      -0.030
      -0.034
      -0.027
      -0.013
       0.003
       0.015
       0.021
       0.020
       0.013
       0.007
       0.005
       0.007
       0.008
       0.005
       0.001
       0.001
       0.009
       0.024
       0.037
       0.042
       0.037
       0.025
       0.013
       0.008
       0.010
       0.015
       0.018
       0.019
       0.017
       0.016
       0.020
       0.028
       0.035
       0.038
       0.032
       0.019
       0.005
      -0.006
      -0.012
      -0.011
      -0.006
       0.002
       0.007
       0.005
      -0.003
      -0.013
      -0.018
      -0.015
      -0.004
       0.009
       0.020
       0.027
       0.032
       0.032
       0.026
       0.017
       0.004
      -0.009
      -0.017
      -0.017
      -0.013
      -0.010
      -0.010
      -0.010
      -0.006
       0.007
       0.023
       0.032
       0.029
       0.016
       0.000
      -0.011
      -0.014
      -0.010
      -0.003
       0.006
       0.012
       0.017
       0.021
       0.028
       0.039
       0.051
       0.057
       0.053
       0.037
       0.015
      -0.005
      -0.018
      -0.020
      -0.011
       0.008
       0.031
       0.051
       0.061
       0.058
       0.047
       0.035
       0.029
       0.028
       0.026
       0.022
       0.015
       0.011
       0.014
       0.020
       0.025
       0.021
       0.007
      -0.012
      -0.028
      -0.035
      -0.031
      -0.020
      -0.008
       0.001
       0.008
       0.014
       0.020
       0.025
       0.027
       0.024
       0.014
       0.000
      -0.015
      -0.027
      -0.032
      -0.032
      -0.031
      -0.029
      -0.025
      -0.014
       0.005
       0.026
       0.041
       0.041
       0.030
       0.015
       0.007
       0.010
       0.019
       0.028
       0.031
       0.026
       0.015
       0.001
      -0.013
      -0.021
      -0.021
      -0.013
      -0.005
      -0.001
      -0.001
       0.002
       0.012
       0.026
       0.037
       0.039
       0.032
       0.020
       0.011
       0.006
       0.006
       0.010
       0.016
       0.020
       0.022
       0.022
       0.024
       0.029
       0.036
       0.041
       0.043
       0.040
       0.035
       0.030
       0.025
       0.019
       0.013
       0.009
       0.010
       0.017
       0.025
       0.026
       0.019
       0.008
       0.002
       0.005
       0.015
       0.026
       0.028
       0.019
       0.002
      -0.015
      -0.028
      -0.034
      -0.035
      -0.033
      -0.029
      -0.024
      -0.017
      -0.005
       0.012
       0.031
       0.044
       0.043
       0.029
       0.004
      -0.020
      -0.034
      -0.033
      -0.021
      -0.006
       0.006
       0.015
       0.019
       0.020
       0.017
       0.010
       0.003
      -0.001
       0.003
       0.015
       0.029
       0.038
       0.033
       0.017
       0.000
      -0.008
      -0.004
       0.005
       0.013
       0.015
       0.015
       0.019
       0.030
       0.047
       0.060
       0.060
       0.044
       0.016
      -0.012
      -0.031
      -0.033
      -0.024
      -0.012
      -0.004
      -0.002
      -0.001
       0.003
       0.012
       0.023
       0.032
       0.038
       0.036
       0.025
       0.009
      -0.008
      -0.018
      -0.017
      -0.004
       0.013
       0.028
       0.031
       0.022
       0.004
      -0.015
      -0.026
      -0.023
      -0.008
       0.013
       0.032
       0.043
       0.041
       0.031
       0.016
       0.003
      -0.003
       0.001
       0.010
       0.018
       0.017
       0.002
      -0.020
      -0.037
      -0.037
      -0.021
       0.001
       0.015
       0.014
       0.002
      -0.011
      -0.017
      -0.012
       0.001
       0.014
       0.022
       0.020
       0.009
      -0.002
      -0.006
      -0.002
       0.007
       0.015
       0.017
       0.014
       0.007
       0.001
      -0.001
       0.003
       0.013
       0.026
       0.036
       0.040
       0.037
       0.027
       0.013
       0.001
      -0.006
      -0.007
      -0.001
       0.008
       0.012
       0.008
      -0.002
      -0.010
      -0.009
       0.000
       0.012
       0.018
       0.014
       0.005
       0.002
       0.010
       0.027
       0.045
       0.052
       0.043
       0.019
      -0.009
      -0.031
      -0.039
      -0.034
      -0.019
      -0.003
       0.010
       0.015
       0.011
       0.003
      -0.003
      -0.001
       0.009
       0.025
       0.040
       0.047
       0.046
       0.040
       0.032
       0.025
       0.023
       0.023
       0.022
       0.021
       0.020
       0.020
       0.023
       0.026
       0.027
       0.027
       0.027
       0.027
       0.026
       0.021
       0.013
       0.006
       0.005
       0.007
       0.010
       0.010
       0.007
       0.001
      -0.003
      -0.004
       0.002
       0.012
       0.020
       0.021
       0.013
      -0.001
      -0.014
      -0.020
      -0.018
      -0.013
      -0.009
      -0.009
      -0.012
      -0.014
      -0.012
      -0.005
       0.002
       0.008
       0.012
       0.017
       0.021
       0.023
       0.022
       0.017
       0.012
       0.010
       0.010
       0.009
       0.003
      -0.005
      -0.009
      -0.005
       0.008
       0.024
       0.036
       0.039
       0.034
       0.020
       0.003
      -0.012
      -0.017
      -0.009
       0.009
       0.026
       0.034
       0.027
       0.008
      -0.014
      -0.026
      -0.025
      -0.013
       0.001
       0.006
       0.002
      -0.005
      -0.005
       0.007
       0.025
       0.041
       0.045
       0.035
       0.015
      -0.007
      -0.023
      -0.027
      -0.017
       0.001
       0.018
       0.029
       0.030
       0.023
       0.012
      -0.001
      -0.013
      -0.023
      -0.028
      -0.027
      -0.022
      -0.015
      -0.009
      -0.003
       0.005
       0.015
       0.024
       0.025
       0.017
       0.002
      -0.014
      -0.023
      -0.020
      -0.006
       0.015
       0.031
       0.032
       0.015
      -0.015
      -0.051
      -0.084
      -0.114
      -0.145
      -0.182
      -0.224
      -0.272
      -0.321
      -0.368
      -0.410
      -0.447
      -0.476
      -0.496
      -0.504
      -0.499
      -0.476
      -0.425
      -0.340
      -0.221
      -0.079
       0.070
       0.212
       0.338
       0.445
       0.533
       0.601
       0.644
       0.656
       0.636
       0.594
       0.544
       0.509
       0.507
       0.550
       0.635
       0.751
       0.881
       1.007
       1.108
       1.160
       1.140
       1.029
       0.814
       0.491
       0.064
      -0.448
      -1.012
      -1.584
      -2.114
      -2.561
      -2.897
      -3.108
      -3.190
      -3.140
      -2.956
      -2.637
      -2.184
      -1.614
      -0.967
      -0.304
       0.306
       0.822
       1.238
       1.580
       1.873
       2.128
       2.340
       2.505
       2.625
       2.714
       2.796
       2.897
       3.030
       3.179
       3.286
       3.264
       3.034
       2.567
       1.892
       1.083
       0.225
      -0.604
      -1.352
      -1.983
      -2.477
      -2.816
      -2.986
      -2.990
      -2.848
      -2.604
      -2.305
      -1.988
      -1.672
      -1.363
      -1.052
      -0.713
      -0.311
       0.177
       0.739
       1.311
       1.804
       2.122
       2.190
       1.960
       1.428
       0.635
      -0.328
      -1.335
      -2.242
      -2.902
      -3.179
      -2.983
      -2.304
      -1.240
       0.018
       1.241
       2.211
       2.759
       2.784
       2.280
       1.350
       0.201
      -0.922
      -1.816
      -2.359
      -2.484
      -2.149
      -1.350
      -0.178
       1.152
       2.355
       3.189
       3.544
       3.439
       2.959
       2.216
       1.366
       0.623
       0.214
       0.275
       0.758
       1.441
       2.017
       2.226
       1.920
       1.072
      -0.257
      -1.939
      -3.763
      -5.429
      -6.582
      -6.911
      -6.275
      -4.778
      -2.730
      -0.538
       1.418
       2.853
       3.611
       3.665
       3.113
       2.153
       1.028
      -0.018
      -0.790
      -1.169
      -1.121
      -0.686
       0.042
       0.911
       1.703
       2.174
       2.148
       1.626
       0.811
       0.026
      -0.428
      -0.402
       0.055
       0.735
       1.363
       1.695
       1.584
       0.997
      -0.010
      -1.297
      -2.641
      -3.769
      -4.423
      -4.435
      -3.753
      -2.433
      -0.650
       1.301
       3.025
       4.126
       4.343
       3.633
       2.171
       0.272
      -1.682
      -3.301
      -4.229
      -4.239
      -3.330
      -1.769
       0.015
       1.616
       2.788
       3.451
       3.586
       3.173
       2.223
       0.894
      -0.463
      -1.414
      -1.676
      -1.291
      -0.583
       0.059
       0.406
       0.453
       0.319
       0.097
      -0.193
      -0.539
      -0.854
      -0.992
      -0.841
      -0.387
       0.279
       1.014
       1.649
       1.992
       1.876
       1.257
       0.278
      -0.773
      -1.584
      -1.927
      -1.692
      -0.888
       0.343
       1.700
       2.780
       3.229
       2.903
       1.910
       0.509
      -1.022
      -2.446
      -3.552
      -4.147
      -4.123
      -3.530
      -2.576
      -1.528
      -0.596
       0.099
       0.486
       0.504
       0.169
      -0.351
      -0.742
      -0.706
      -0.156
       0.745
       1.702
       2.485
       3.010
       3.281
       3.262
       2.847
       1.964
       0.720
      -0.584
      -1.601
      -2.129
      -2.202
      -2.015
      -1.752
      -1.477
      -1.160
      -0.804
      -0.489
      -0.298
      -0.206
      -0.063
       0.302
       0.947
       1.769
       2.559
       3.111
       3.312
       3.165
       2.742
       2.129
       1.393
       0.589
      -0.217
      -0.938
      -1.477
      -1.755
      -1.754
      -1.540
      -1.249
      -1.019
      -0.949
      -1.087
      -1.418
      -1.861
      -2.277
      -2.550
      -2.642
      -2.604
      -2.501
      -2.334
      -2.029
      -1.510
      -0.780
       0.063
       0.880
       1.563
       2.073
       2.426
       2.665
       2.839
       2.985
       3.121
       3.221
       3.223
       3.040
       2.610
       1.942
       1.144
       0.386
      -0.188
      -0.524
      -0.665
      -0.702
      -0.737
      -0.869
      -1.167
      -1.641
      -2.226
      -2.814
      -3.322
      -3.706
      -3.912
      -3.834
      -3.359
      -2.458
      -1.237
       0.107
       1.364
       2.378
       3.073
       3.443
       3.530
       3.396
       3.081
       2.586
       1.919
       1.169
       0.522
       0.153
       0.088
       0.170
       0.181
       0.016
      -0.266
      -0.525
      -0.681
      -0.777
      -0.925
      -1.189
      -1.512
      -1.740
      -1.731
      -1.461
      -1.044
      -0.623
      -0.259
       0.085
       0.449
       0.788
       0.994
       1.015
       0.926
       0.862
       0.887
       0.929
       0.858
       0.623
       0.295
      -0.020
      -0.276
      -0.493
      -0.664
      -0.717
      -0.564
      -0.200
       0.280
       0.756
       1.165
       1.483
       1.655
       1.561
       1.095
       0.264
      -0.767
      -1.762
      -2.525
      -2.971
      -3.095
      -2.918
      -2.452
      -1.724
      -0.811
       0.135
       0.935
       1.463
       1.708
       1.749
       1.675
       1.537
       1.350
       1.110
       0.803
       0.417
      -0.031
      -0.458
      -0.738
      -0.766
      -0.542
      -0.179
       0.169
       0.407
       0.534
       0.604
       0.658
       0.683
       0.625
       0.415
       0.013
      -0.550
      -1.154
      -1.629
      -1.851
      -1.822
      -1.659
      -1.496
      -1.389
      -1.294
      -1.116
      -0.773
      -0.234
       0.483
       1.313
       2.153
       2.872
       3.348
       3.507
       3.345
       2.918
       2.319
       1.636
       0.925
       0.202
      -0.530
      -1.233
      -1.816
      -2.170
      -2.246
      -2.100
      -1.852
      -1.585
      -1.292
      -0.924
      -0.489
      -0.082
       0.166
       0.184
       0.001
      -0.280
      -0.548
      -0.729
      -0.795
      -0.753
      -0.625
      -0.437
      -0.215
       0.031
       0.310
       0.648
       1.048
       1.464
       1.814
       2.024
       2.079
       2.010
       1.852
       1.594
       1.199
       0.646
      -0.021
      -0.711
      -1.327
      -1.812
      -2.152
      -2.350
      -2.405
      -2.322
      -2.126
      -1.864
      -1.576
      -1.275
      -0.937
      -0.521
       0.001
       0.607
       1.225
       1.758
       2.130
       2.321
       2.370
       2.339
       2.267
       2.156
       1.985
       1.741
       1.437
       1.099
       0.746
       0.380
      -0.012
      -0.432
      -0.856
      -1.234
      -1.522
      -1.715
      -1.857
      -2.004
      -2.185
      -2.383
      -2.550
      -2.640
      -2.643
      -2.585
      -2.486
      -2.321
      -2.014
      -1.486
      -0.708
       0.270
       1.329
       2.341
       3.216
       3.925
       4.451
       4.745
       4.721
       4.313
       3.554
       2.589
       1.610
       0.741
      -0.021
      -0.763
      -1.530
      -2.252
      -2.762
      -2.912
      -2.684
      -2.205
      -1.662
      -1.194
      -0.836
      -0.567
      -0.374
      -0.283
      -0.327
      -0.491
      -0.694
      -0.826
      -0.802
      -0.594
      -0.226
       0.254
       0.794
       1.345
       1.855
       2.268
       2.524
       2.578
