Origin Time       07/10/2013 20:54:03
Lat.              26.3 N	
Long.             92.5 E	
Depth (Km)         10.0
Magnitude         3.7
 Region           Naogaon-Assam                                                    
 Above details taken from IMD 
   
Station Code      NAU
Station Lat.       26.349
Station Long.      92.690
Station Height(m)   78.0
Site Class        C   Vs30 between 200 m/sec to 375 m/sec *  
Record Time       07.10.2013 20:53:41.244
Sampling Rate     200. Hz
 Record Duration   92.905 Sec.
 Direction         Vert. (Up positive)
Max. Acceleration     -8.929 cm/sec**2
     
  * For reference see Site Classification link of website 
     
 Base Line Corrected and Low Pass Filtered (Cut Off at 35 Hz) Time History
 Acceleration data in cm/sec**2
    
[...]
      -4.197
      -3.436
      -2.347
      -1.203
      -0.143
       0.825
       1.719
       2.476
       2.948
       2.978
       2.526
       1.773
       1.061
       0.630
       0.388
       0.004
      -0.690
      -1.452
      -1.816
      -1.573
      -1.011
      -0.617
      -0.561
      -0.563
      -0.290
       0.231
       0.656
       0.713
       0.454
       0.163
       0.063
       0.137
       0.222
       0.215
       0.143
       0.065
       0.016
       0.042
       0.189
       0.410
       0.538
       0.436
       0.136
      -0.189
      -0.388
      -0.450
      -0.469
      -0.513
      -0.555
      -0.526
      -0.416
      -0.306
      -0.306
      -0.441
      -0.587
      -0.563
      -0.303
       0.056
       0.308
       0.377
       0.377
       0.489
       0.749
       0.980
       0.957
       0.660
       0.328
       0.226
       0.353
       0.418
       0.141
      -0.413
      -0.856
      -0.848
      -0.454
      -0.080
      -0.058
      -0.318
      -0.486
      -0.302
       0.073
       0.217
      -0.087
      -0.594
      -0.837
      -0.574
       0.025
       0.572
       0.814
       0.809
       0.809
       0.955
       1.120
       1.044
       0.602
      -0.085
      -0.755
      -1.183
      -1.304
      -1.209
      -1.033
      -0.836
      -0.587
      -0.237
       0.201
       0.636
       0.943
       1.041
       0.952
       0.771
       0.603
       0.491
       0.376
       0.153
      -0.192
      -0.514
      -0.666
      -0.703
      -0.821
      -1.082
      -1.288
      -1.163
      -0.656
      -0.032
       0.349
       0.332
       0.066
      -0.184
      -0.259
      -0.142
       0.120
       0.458
       0.776
       0.961
       0.935
       0.721
       0.430
       0.179
       0.014
      -0.071
      -0.046
       0.144
       0.460
       0.720
       0.732
       0.469
       0.081
      -0.270
      -0.522
      -0.686
      -0.760
      -0.731
      -0.630
      -0.541
      -0.529
      -0.572
      -0.589
      -0.527
      -0.386
      -0.175
       0.123
       0.515
       0.918
       1.132
       0.974
       0.476
      -0.076
      -0.376
      -0.400
      -0.410
      -0.609
      -0.859
      -0.810
      -0.298
       0.429
       0.944
       1.078
       1.052
       1.151
       1.350
       1.346
       0.937
       0.267
      -0.339
      -0.728
      -1.040
      -1.477
      -1.975
      -2.187
      -1.870
      -1.209
      -0.652
      -0.420
      -0.302
       0.049
       0.718
       1.446
       1.864
       1.785
       1.311
       0.722
       0.237
      -0.118
      -0.446
      -0.827
      -1.230
      -1.540
      -1.630
      -1.425
      -0.934
      -0.264
       0.410
       0.943
       1.323
       1.647
       1.932
       2.014
       1.679
       0.946
       0.118
      -0.466
      -0.731
      -0.872
      -1.054
      -1.187
      -1.019
      -0.441
       0.354
       1.024
       1.347
       1.342
       1.171
       0.964
       0.762
       0.545
       0.281
      -0.066
      -0.541
      -1.128
      -1.662
      -1.852
      -1.507
      -0.822
      -0.322
      -0.419
      -0.986
      -1.441
      -1.311
      -0.685
      -0.114
      -0.046
      -0.377
      -0.596
      -0.340
       0.258
       0.753
       0.864
       0.738
       0.788
       1.255
       1.918
       2.257
       1.943
       1.138
       0.309
      -0.220
      -0.489
      -0.728
      -1.032
      -1.258
      -1.211
      -0.882
      -0.439
      -0.026
       0.369
       0.786
       1.114
       1.131
       0.753
       0.201
      -0.150
      -0.120
       0.094
       0.126
      -0.183
      -0.644
      -0.939
      -0.939
      -0.773
      -0.620
      -0.512
      -0.344
      -0.046
       0.309
       0.553
       0.564
       0.354
       0.043
      -0.238
      -0.425
      -0.514
      -0.516
      -0.451
      -0.382
      -0.413
      -0.588
      -0.797
      -0.830
      -0.545
       0.003
       0.607
       1.065
       1.296
       1.340
       1.312
       1.309
       1.313
       1.186
       0.821
       0.296
      -0.173
      -0.448
      -0.594
      -0.775
      -1.043
      -1.244
      -1.159
      -0.742
      -0.204
       0.160
       0.240
       0.209
       0.325
       0.626
       0.845
       0.684
       0.132
      -0.495
      -0.830
      -0.749
      -0.428
      -0.150
      -0.080
      -0.178
      -0.276
      -0.229
      -0.015
       0.244
       0.361
       0.239
      -0.017
      -0.174
      -0.100
       0.096
       0.194
       0.139
       0.106
       0.258
       0.506
       0.600
       0.435
       0.156
      -0.062
      -0.253
      -0.587
      -1.110
      -1.619
      -1.803
      -1.503
      -0.824
      -0.038
       0.604
       1.009
       1.243
       1.433
       1.664
       1.910
       2.045
       1.917
       1.454
       0.731
      -0.111
      -0.958
      -1.725
      -2.276
      -2.469
      -2.295
      -1.922
      -1.530
      -1.140
      -0.650
      -0.017
       0.656
       1.209
       1.568
       1.757
       1.813
       1.724
       1.452
       0.980
       0.320
      -0.464
      -1.221
      -1.741
      -1.858
      -1.582
      -1.092
      -0.576
      -0.092
       0.419
       0.979
       1.479
       1.755
       1.732
       1.489
       1.181
       0.881
       0.516
      -0.021
      -0.693
      -1.294
      -1.616
      -1.622
      -1.447
      -1.276
      -1.227
      -1.289
      -1.340
      -1.242
      -0.953
      -0.553
      -0.162
       0.165
       0.469
       0.838
       1.309
       1.785
       2.055
       1.942
       1.472
       0.870
       0.390
       0.147
       0.105
       0.159
       0.211
       0.191
       0.062
      -0.144
      -0.335
      -0.423
      -0.415
      -0.404
      -0.445
      -0.468
      -0.351
      -0.095
       0.129
       0.142
      -0.045
      -0.238
      -0.262
      -0.148
      -0.109
      -0.326
      -0.764
      -1.192
      -1.353
      -1.155
      -0.723
      -0.300
      -0.052
       0.066
       0.245
       0.588
       0.973
       1.180
       1.119
       0.872
       0.537
       0.158
      -0.169
      -0.260
      -0.012
       0.413
       0.698
       0.684
       0.542
       0.568
       0.809
       0.953
       0.624
      -0.192
      -1.075
      -1.525
      -1.403
      -1.009
      -0.756
      -0.762
      -0.777
      -0.524
      -0.062
       0.254
       0.205
      -0.004
       0.040
       0.472
       0.976
       1.104
       0.729
       0.155
      -0.210
      -0.247
      -0.162
      -0.183
      -0.326
      -0.492
      -0.662
      -0.893
      -1.125
      -1.152
      -0.818
      -0.212
       0.411
       0.860
       1.124
       1.268
       1.281
       1.111
       0.804
       0.514
       0.331
       0.148
      -0.248
      -0.954
      -1.763
      -2.195
      -1.823
      -0.686
       0.597
       1.260
       1.063
       0.555
       0.561
       1.318
       2.171
       2.235
       1.297
      -0.017
      -0.930
      -1.243
      -1.330
      -1.530
      -1.673
      -1.320
      -0.415
       0.478
       0.689
       0.144
      -0.567
      -0.792
      -0.401
       0.198
       0.508
       0.344
      -0.115
      -0.536
      -0.657
      -0.398
       0.148
       0.775
       1.266
       1.465
       1.317
       0.873
       0.265
      -0.338
      -0.781
      -0.979
      -0.957
      -0.841
      -0.797
      -0.908
      -1.079
      -1.045
      -0.546
       0.417
       1.468
       2.068
       1.933
       1.295
       0.707
       0.539
       0.655
       0.614
       0.129
      -0.704
      -1.583
      -2.245
      -2.534
      -2.333
      -1.578
      -0.384
       0.874
       1.729
       1.970
       1.807
       1.637
       1.648
       1.693
       1.455
       0.694
      -0.621
      -2.245
      -3.683
      -4.374
      -4.012
      -2.788
      -1.269
       0.064
       1.154
       2.175
       3.085
       3.540
       3.317
       2.679
       2.153
       1.922
       1.553
       0.471
      -1.274
      -2.840
      -3.315
      -2.608
      -1.532
      -0.997
      -1.150
      -1.301
      -0.658
       0.828
       2.316
       2.808
       2.073
       0.821
      -0.046
      -0.276
      -0.327
      -0.694
      -1.322
      -1.729
      -1.615
      -1.207
      -0.952
      -0.965
      -0.898
      -0.368
       0.582
       1.475
       1.814
       1.506
       0.924
       0.567
       0.615
       0.814
       0.775
       0.372
      -0.163
      -0.504
      -0.567
      -0.548
      -0.646
      -0.801
      -0.804
      -0.629
      -0.504
      -0.573
      -0.647
      -0.372
       0.366
       1.292
       1.937
       1.983
       1.483
       0.799
       0.299
       0.069
      -0.109
      -0.507
      -1.155
      -1.765
      -1.971
      -1.643
      -0.988
      -0.365
      -0.044
      -0.087
      -0.311
      -0.374
       0.017
       0.856
       1.802
       2.411
       2.443
       1.987
       1.309
       0.581
      -0.241
      -1.237
      -2.291
      -3.091
      -3.416
      -3.344
      -3.098
      -2.709
      -1.926
      -0.536
       1.280
       2.975
       4.016
       4.223
       3.766
       2.950
       2.036
       1.197
       0.491
      -0.149
      -0.814
      -1.433
      -1.765
      -1.626
      -1.117
      -0.622
      -0.578
      -1.164
      -2.126
      -2.906
      -3.008
      -2.265
      -0.858
       0.839
       2.415
       3.517
       3.902
       3.519
       2.616
       1.692
       1.182
       1.049
       0.756
      -0.298
      -2.202
      -4.328
      -5.669
      -5.496
      -3.826
      -1.371
       0.977
       2.668
       3.652
       4.194
       4.571
       4.833
       4.744
       3.979
       2.480
       0.630
      -1.017
      -2.191
      -3.020
      -3.699
      -4.164
      -4.174
      -3.657
      -2.817
      -1.901
      -0.942
       0.140
       1.235
       1.948
       1.901
       1.142
       0.216
      -0.248
      -0.079
       0.316
       0.420
       0.185
       0.059
       0.390
       0.903
       0.917
       0.137
      -0.893
      -1.260
      -0.617
       0.477
       1.195
       1.322
       1.362
       1.829
       2.569
       2.882
       2.272
       0.977
      -0.270
      -0.925
      -1.033
      -1.020
      -1.225
      -1.640
      -2.045
      -2.278
      -2.346
      -2.315
      -2.192
      -1.958
      -1.678
      -1.489
      -1.431
      -1.311
      -0.805
       0.242
       1.649
       3.051
       4.188
       4.971
       5.308
       5.019
       3.983
       2.319
       0.387
      -1.396
      -2.741
      -3.592
      -4.075
      -4.346
      -4.443
      -4.274
      -3.740
      -2.869
      -1.829
      -0.808
       0.133
       1.059
       2.007
       2.830
       3.271
       3.235
       2.923
       2.617
       2.327
       1.755
       0.670
      -0.735
      -1.916
      -2.429
      -2.318
      -1.994
      -1.713
      -1.272
      -0.322
       1.083
       2.396
       3.045
       2.896
       2.260
       1.547
       0.941
       0.320
      -0.559
      -1.771
      -3.046
      -3.881
      -3.878
      -3.074
      -1.932
      -0.919
      -0.072
       0.931
       2.227
       3.427
       3.903
       3.422
       2.403
       1.508
       0.980
       0.478
      -0.414
      -1.609
      -2.543
      -2.743
      -2.266
      -1.578
      -1.069
      -0.734
      -0.278
       0.539
       1.669
       2.794
       3.478
       3.351
       2.296
       0.585
      -1.222
      -2.610
      -3.400
      -3.691
      -3.578
      -3.010
      -1.983
      -0.790
       0.086
       0.459
       0.731
       1.521
       2.927
       4.247
       4.542
       3.499
       1.702
       0.073
      -0.907
      -1.461
      -2.067
      -2.818
      -3.271
      -2.919
      -1.766
      -0.383
       0.549
       0.739
       0.405
      -0.027
      -0.337
      -0.668
      -1.264
      -2.063
      -2.597
      -2.336
      -1.165
       0.482
       1.967
       2.957
       3.593
       4.200
       4.905
       5.515
       5.687
       5.157
       3.907
       2.201
       0.441
      -1.080
      -2.292
      -3.253
      -3.965
      -4.293
      -4.077
      -3.324
      -2.293
      -1.396
      -1.013
      -1.338
      -2.267
      -3.363
      -3.991
      -3.655
      -2.340
      -0.583
       0.839
       1.396
       1.087
       0.332
      -0.338
      -0.545
      -0.155
       0.720
       1.794
       2.729
       3.272
       3.318
       2.902
       2.174
       1.391
       0.904
       1.044
       1.907
       3.197
       4.316
       4.700
       4.143
       2.863
       1.264
      -0.353
      -1.912
      -3.432
      -4.830
      -5.878
      -6.360
      -6.248
      -5.725
      -5.065
      -4.475
      -3.991
      -3.505
      -2.907
      -2.162
      -1.232
       0.024
       1.706
       3.620
       5.262
       6.155
       6.220
       5.807
       5.352
       5.015
       4.607
       3.849
       2.643
       1.147
      -0.328
      -1.434
      -1.878
      -1.509
      -0.441
       0.912
       1.955
       2.138
       1.154
      -0.951
      -3.758
      -6.536
      -8.456
      -8.929
      -7.889
      -5.836
      -3.552
      -1.649
      -0.269
       0.802
       1.720
       2.339
       2.411
       1.967
       1.410
       1.200
       1.501
       2.129
       2.776
       3.237
       3.469
       3.559
       3.642
       3.806
       4.028
       4.176
       4.083
       3.605
       2.678
       1.343
      -0.255
      -1.890
      -3.301
      -4.283
      -4.814
      -5.068
      -5.228
      -5.268
      -4.968
      -4.138
      -2.840
      -1.394
      -0.178
       0.614
       1.054
       1.301
       1.342
       0.920
      -0.196
      -1.823
      -3.264
      -3.735
      -2.968
      -1.372
       0.402
       2.002
       3.481
       4.965
       6.318
       7.145
       7.124
       6.307
       5.064
       3.757
       2.503
       1.205
      -0.229
      -1.680
      -2.834
      -3.430
      -3.511
      -3.389
      -3.340
      -3.369
      -3.286
      -2.987
      -2.622
      -2.447
      -2.514
      -2.561
      -2.268
      -1.633
      -1.004
      -0.699
      -0.632
      -0.368
       0.442
       1.717
       2.978
       3.682
       3.550
       2.691
       1.501
       0.456
      -0.123
      -0.223
      -0.116
      -0.153
      -0.496
      -0.985
      -1.246
      -0.947
      -0.005
       1.366
       2.779
       3.856
       4.355
       4.198
       3.440
       2.265
       0.926
      -0.386
      -1.624
      -2.832
      -4.014
      -5.063
      -5.804
      -6.063
      -5.739
      -4.843
      -3.511
      -1.944
      -0.346
       1.110
       2.271
       3.023
       3.347
       3.339
       3.160
       2.937
       2.720
       2.524
       2.404
       2.421
       2.555
       2.667
       2.570
       2.121
       1.244
      -0.062
      -1.654
      -3.182
      -4.160
      -4.223
      -3.380
      -2.058
      -0.820
      -0.001
       0.427
       0.659
       0.801
       0.796
       0.556
       0.127
      -0.311
      -0.606
      -0.778
      -0.970
      -1.272
      -1.602
      -1.760
      -1.565
      -1.007
      -0.286
       0.361
       0.928
       1.653
       2.662
       3.648
       4.032
       3.479
       2.240
       0.928
      -0.022
      -0.671
      -1.362
      -2.258
      -3.163
      -3.769
      -3.966
      -3.865
      -3.554
      -2.925
      -1.830
      -0.411
       0.815
       1.302
       0.952
       0.213
      -0.308
      -0.307
       0.092
       0.571
       0.926
       1.190
       1.510
       1.944
       2.401
       2.753
       2.991
       3.224
       3.536
       3.845
       3.910
       3.499
       2.577
       1.368
       0.220
      -0.597
      -1.012
      -1.136
      -1.190
      -1.368
      -1.716
      -2.153
      -2.601
      -3.080
      -3.620
      -4.178
      -4.665
      -5.012
      -5.162
      -4.974
      -4.188
      -2.594
      -0.329
       2.015
       3.744
       4.588
       4.819
       4.840
       4.775
       4.453
       3.693
       2.524
       1.157
      -0.222
      -1.548
      -2.705
      -3.395
      -3.356
      -2.697
      -1.870
      -1.263
      -0.901
      -0.535
       0.050
       0.830
       1.571
       2.040
       2.125
       1.775
       0.947
      -0.271
      -1.548
      -2.472
      -2.820
      -2.585
      -1.796
      -0.460
       1.230
       2.761
       3.530
       3.344
       2.674
       2.292
       2.586
       3.235
       3.569
       3.177
       2.167
       0.944
      -0.128
      -0.880
      -1.287
      -1.400
      -1.360
      -1.400
      -1.682
      -2.139
      -2.548
      -2.816
      -3.086
      -3.524
      -4.064
      -4.436
      -4.410
      -3.960
      -3.204
      -2.238
      -1.081
       0.228
       1.509
       2.493
       3.010
       3.119
       3.008
       2.840
       2.695
       2.624
       2.644
       2.657
       2.453
       1.900
       1.135
       0.492
       0.174
       0.029
      -0.284
      -0.903
      -1.576
      -1.884
      -1.615
      -0.929
      -0.177
       0.387
       0.731
       0.908
       0.874
       0.489
      -0.271
      -1.146
      -1.697
      -1.647
      -1.109
      -0.465
      -0.005
       0.293
       0.633
       1.088
       1.466
       1.495
       1.088
       0.424
      -0.194
      -0.530
      -0.506
      -0.190
       0.261
       0.654
       0.826
       0.751
       0.582
       0.539
       0.728
       1.049
       1.258
       1.098
       0.432
      -0.680
      -1.972
      -3.067
      -3.656
      -3.669
      -3.331
      -2.993
      -2.844
      -2.759
      -2.413
      -1.534
      -0.112
       1.525
       2.856
       3.469
       3.324
       2.740
       2.113
       1.625
       1.189
       0.645
      -0.010
      -0.599
      -0.948
      -1.058
      -1.057
      -0.982
      -0.663
       0.113
       1.268
       2.325
       2.752
       2.474
       1.971
       1.762
       1.843
       1.724
       1.016
      -0.121
      -1.177
      -1.872
      -2.390
      -2.970
      -3.440
      -3.347
      -2.540
      -1.427
      -0.556
      -0.056
       0.418
       1.202
       2.179
       2.841
       2.809
       2.226
       1.588
       1.222
       1.028
       0.702
       0.089
      -0.747
      -1.632
      -2.364
      -2.771
      -2.794
      -2.556
      -2.276
      -2.046
      -1.735
      -1.160
      -0.382
       0.242
       0.377
       0.070
      -0.247
      -0.170
       0.301
       0.798
       0.962
       0.738
       0.345
       0.030
      -0.113
      -0.108
       0.024
       0.287
       0.619
       0.895
       1.081
       1.323
       1.799
       2.473
       3.035
       3.108
       2.567
       1.652
       0.780
       0.206
