Origin Time       09/1/2013 01:41:52	
Lat.              25.4 N	
Long.             94.9 E	
Depth (Km)         89.0
Magnitude         5.9
 Region           Myanmar-India-Border-Region                                      
 Above details taken from IMD 
     
Station Code      NAU
Station Lat.       26.349  N
Station Long.      92.690  E
Station Height(m)   78.0
Site Class        C   Vs30 between 200 m/sec to 375 m/sec *  
Record Time       09.01.2013 01:39:33.524
Sampling Rate     200. Hz
 Record Duration  140.145 Sec.
 Direction         E-W (E positive)
Max. Acceleration    -23.497 cm/sec**2
     
  * For reference see Site Classification link of website 
     
 Base Line Corrected and Low Pass Filtered (Cut Off at 35 Hz) Time History
 Acceleration data in cm/sec**2
    
[...]
       0.866
       1.055
       1.210
       1.281
       1.162
       0.788
       0.233
      -0.303
      -0.618
      -0.646
      -0.487
      -0.311
      -0.228
      -0.214
      -0.150
       0.060
       0.398
       0.730
       0.900
       0.833
       0.576
       0.267
       0.045
      -0.029
      -0.004
       0.003
      -0.090
      -0.264
      -0.420
      -0.482
      -0.454
      -0.389
      -0.305
      -0.156
       0.121
       0.526
       0.969
       1.314
       1.471
       1.448
       1.324
       1.168
       0.973
       0.686
       0.270
      -0.235
      -0.712
      -1.018
      -1.067
      -0.893
      -0.631
      -0.433
      -0.371
      -0.414
      -0.472
      -0.472
      -0.398
      -0.295
      -0.241
      -0.292
      -0.430
      -0.544
      -0.489
      -0.199
       0.254
       0.701
       0.976
       0.998
       0.792
       0.462
       0.135
      -0.114
      -0.298
      -0.497
      -0.776
      -1.141
      -1.551
      -1.960
      -2.327
      -2.611
      -2.761
      -2.745
      -2.563
      -2.234
      -1.767
      -1.155
      -0.400
       0.440
       1.246
       1.889
       2.290
       2.442
       2.384
       2.158
       1.801
       1.366
       0.929
       0.547
       0.229
      -0.042
      -0.260
      -0.400
      -0.456
      -0.460
      -0.436
      -0.355
      -0.151
       0.195
       0.586
       0.833
       0.774
       0.406
      -0.079
      -0.407
      -0.405
      -0.110
       0.266
       0.491
       0.451
       0.189
      -0.152
      -0.421
      -0.534
      -0.491
      -0.351
      -0.193
      -0.090
      -0.104
      -0.255
      -0.504
      -0.744
      -0.858
      -0.783
      -0.542
      -0.235
       0.018
       0.133
       0.109
       0.021
      -0.031
       0.015
       0.158
       0.363
       0.576
       0.730
       0.747
       0.589
       0.304
      -0.006
      -0.277
      -0.536
      -0.833
      -1.138
      -1.295
      -1.129
      -0.587
       0.188
       0.926
       1.382
       1.470
       1.296
       1.064
       0.942
       0.983
       1.152
       1.407
       1.710
       1.992
       2.121
       1.964
       1.487
       0.793
       0.053
      -0.603
      -1.132
      -1.533
      -1.773
      -1.777
      -1.502
      -1.002
      -0.415
       0.118
       0.512
       0.724
       0.722
       0.494
       0.094
      -0.352
      -0.702
      -0.873
      -0.865
      -0.736
      -0.542
      -0.317
      -0.082
       0.132
       0.281
       0.343
       0.356
       0.406
       0.557
       0.775
       0.932
       0.888
       0.602
       0.177
      -0.204
      -0.392
      -0.371
      -0.261
      -0.225
      -0.343
      -0.563
      -0.747
      -0.773
      -0.601
      -0.285
       0.052
       0.286
       0.355
       0.287
       0.151
      -0.001
      -0.157
      -0.307
      -0.408
      -0.398
      -0.238
       0.057
       0.423
       0.792
       1.114
       1.354
       1.470
       1.412
       1.133
       0.635
       0.001
      -0.617
      -1.054
      -1.212
      -1.119
      -0.908
      -0.732
      -0.662
      -0.648
      -0.576
      -0.364
      -0.027
       0.313
       0.486
       0.370
      -0.024
      -0.557
      -1.054
      -1.419
      -1.652
      -1.787
      -1.813
      -1.680
      -1.362
      -0.917
      -0.465
      -0.096
       0.201
       0.500
       0.843
       1.178
       1.400
       1.438
       1.299
       1.056
       0.811
       0.665
       0.673
       0.801
       0.920
       0.884
       0.623
       0.168
      -0.379
      -0.891
      -1.250
      -1.382
      -1.290
      -1.038
      -0.694
      -0.299
       0.095
       0.401
       0.530
       0.474
       0.326
       0.215
       0.211
       0.295
       0.399
       0.464
       0.466
       0.414
       0.347
       0.320
       0.390
       0.581
       0.853
       1.098
       1.161
       0.901
       0.273
      -0.603
      -1.456
      -1.989
      -2.041
      -1.678
      -1.127
      -0.619
      -0.268
      -0.045
       0.144
       0.358
       0.588
       0.794
       0.952
       1.055
       1.086
       1.003
       0.765
       0.363
      -0.162
      -0.712
      -1.135
      -1.289
      -1.119
      -0.702
      -0.205
       0.216
       0.496
       0.638
       0.649
       0.501
       0.168
      -0.330
      -0.905
      -1.410
      -1.672
      -1.556
      -1.061
      -0.357
       0.299
       0.723
       0.921
       1.043
       1.226
       1.454
       1.555
       1.336
       0.745
      -0.067
      -0.813
      -1.215
      -1.122
      -0.580
       0.206
       0.974
       1.534
       1.840
       1.952
       1.935
       1.787
       1.449
       0.878
       0.108
      -0.746
      -1.518
      -2.038
      -2.180
      -1.911
      -1.316
      -0.581
       0.056
       0.395
       0.375
       0.124
      -0.100
      -0.060
       0.303
       0.821
       1.221
       1.313
       1.113
       0.795
       0.534
       0.388
       0.308
       0.214
       0.060
      -0.173
      -0.479
      -0.807
      -1.059
      -1.137
      -1.010
      -0.758
      -0.548
      -0.545
      -0.798
      -1.162
      -1.367
      -1.198
      -0.664
       0.012
       0.571
       0.897
       1.046
       1.128
       1.178
       1.140
       0.950
       0.616
       0.239
      -0.066
      -0.258
      -0.416
      -0.666
      -1.053
      -1.467
      -1.707
      -1.612
      -1.169
      -0.514
       0.135
       0.581
       0.741
       0.691
       0.619
       0.697
       0.942
       1.204
       1.299
       1.170
       0.924
       0.716
       0.600
       0.508
       0.346
       0.105
      -0.135
      -0.288
      -0.346
      -0.394
      -0.537
      -0.817
      -1.161
      -1.401
      -1.372
      -1.022
      -0.465
       0.084
       0.443
       0.557
       0.474
       0.267
      -0.020
      -0.341
      -0.619
      -0.751
      -0.668
      -0.395
      -0.035
       0.294
       0.524
       0.650
       0.681
       0.598
       0.374
       0.023
      -0.362
      -0.651
      -0.751
      -0.658
      -0.444
      -0.202
      -0.012
       0.058
      -0.023
      -0.206
      -0.350
      -0.305
      -0.052
       0.245
       0.360
       0.200
      -0.073
      -0.145
       0.204
       0.910
       1.649
       2.039
       1.863
       1.180
       0.281
      -0.486
      -0.899
      -0.930
      -0.685
      -0.312
       0.058
       0.312
       0.355
       0.130
      -0.344
      -0.924
      -1.361
      -1.433
      -1.117
      -0.639
      -0.312
      -0.314
      -0.588
      -0.936
      -1.178
      -1.260
      -1.226
      -1.127
      -0.952
      -0.631
      -0.129
       0.469
       0.967
       1.164
       0.995
       0.564
       0.056
      -0.389
      -0.727
      -0.970
      -1.100
      -1.045
      -0.728
      -0.155
       0.557
       1.227
       1.703
       1.922
       1.906
       1.704
       1.366
       0.964
       0.618
       0.436
       0.435
       0.516
       0.563
       0.544
       0.522
       0.563
       0.674
       0.817
       0.954
       1.055
       1.087
       1.030
       0.905
       0.753
       0.582
       0.354
       0.029
      -0.357
      -0.686
      -0.832
      -0.754
      -0.539
      -0.355
      -0.345
      -0.535
      -0.796
      -0.920
      -0.762
      -0.363
       0.076
       0.334
       0.312
       0.072
      -0.239
      -0.497
      -0.669
      -0.797
      -0.936
      -1.076
      -1.138
      -1.041
      -0.795
      -0.530
      -0.412
      -0.515
      -0.783
      -1.105
      -1.408
      -1.677
      -1.891
      -1.970
      -1.814
      -1.380
      -0.734
      -0.036
       0.533
       0.865
       0.973
       0.951
       0.890
       0.828
       0.780
       0.776
       0.841
       0.938
       0.969
       0.877
       0.736
       0.721
       0.947
       1.328
       1.620
       1.593
       1.200
       0.594
       0.001
      -0.435
      -0.702
      -0.845
      -0.852
      -0.632
      -0.130
       0.558
       1.193
       1.546
       1.549
       1.307
       0.996
       0.744
       0.590
       0.505
       0.429
       0.310
       0.126
      -0.113
      -0.374
      -0.622
      -0.829
      -0.956
      -0.951
      -0.752
      -0.316
       0.336
       1.101
       1.817
       2.341
       2.644
       2.808
       2.937
       3.033
       3.003
       2.771
       2.360
       1.851
       1.294
       0.692
       0.085
      -0.404
      -0.642
      -0.618
      -0.492
      -0.494
      -0.780
      -1.377
      -2.244
      -3.324
      -4.508
      -5.582
      -6.277
      -6.432
      -6.075
      -5.362
      -4.436
      -3.364
      -2.185
      -0.956
       0.239
       1.315
       2.189
       2.791
       3.090
       3.135
       3.027
       2.858
       2.653
       2.376
       1.987
       1.477
       0.887
       0.289
      -0.251
      -0.699
      -1.034
      -1.225
      -1.222
      -1.007
      -0.628
      -0.188
       0.215
       0.522
       0.720
       0.840
       0.939
       1.055
       1.153
       1.108
       0.794
       0.220
      -0.427
      -0.891
      -1.043
      -0.977
      -0.931
      -1.099
      -1.490
      -1.934
      -2.213
      -2.192
      -1.849
      -1.195
      -0.220
       1.070
       2.551
       3.953
       4.945
       5.292
       4.961
       4.118
       3.040
       1.989
       1.136
       0.564
       0.320
       0.430
       0.837
       1.343
       1.655
       1.550
       1.036
       0.370
      -0.099
      -0.161
       0.094
       0.307
       0.065
      -0.832
      -2.220
      -3.649
      -4.636
      -4.897
      -4.430
      -3.439
      -2.215
      -1.065
      -0.261
      -0.013
      -0.417
      -1.410
      -2.716
      -3.849
      -4.236
      -3.477
      -1.592
       0.955
       3.484
       5.427
       6.526
       6.813
       6.474
       5.765
       4.960
       4.292
       3.849
       3.524
       3.093
       2.361
       1.306
       0.128
      -0.859
      -1.442
      -1.709
      -2.042
      -2.838
      -4.163
      -5.622
      -6.591
      -6.619
      -5.660
      -4.006
      -2.051
      -0.134
       1.479
       2.606
       3.200
       3.366
       3.268
       2.987
       2.477
       1.644
       0.482
      -0.830
      -1.923
      -2.382
      -1.980
      -0.877
       0.431
       1.407
       1.788
       1.667
       1.294
       0.795
       0.087
      -0.968
      -2.336
      -3.755
      -4.902
      -5.597
      -5.855
      -5.807
      -5.580
      -5.276
      -4.989
      -4.812
      -4.817
      -5.021
      -5.353
      -5.607
      -5.444
      -4.517
      -2.701
      -0.228
       2.389
       4.630
       6.193
       7.060
       7.390
       7.366
       7.072
       6.438
       5.306
       3.588
       1.435
      -0.763
      -2.566
      -3.743
      -4.371
      -4.692
      -4.871
      -4.843
      -4.364
      -3.211
      -1.396
       0.783
       2.897
       4.625
       5.880
       6.756
       7.382
       7.854
       8.271
       8.770
       9.449
      10.233
      10.818
      10.799
       9.885
       8.036
       5.480
       2.644
       0.048
      -1.883
      -3.036
      -3.696
      -4.362
      -5.380
      -6.644
      -7.621
      -7.688
      -6.549
      -4.418
      -1.868
       0.512
       2.362
       3.572
       4.185
       4.309
       4.098
       3.692
       3.150
       2.418
       1.411
       0.121
      -1.341
      -2.782
      -3.972
      -4.691
      -4.800
      -4.357
      -3.647
      -3.067
      -2.907
      -3.193
      -3.687
      -4.034
      -3.970
      -3.480
      -2.796
      -2.181
      -1.700
      -1.206
      -0.614
      -0.149
      -0.239
      -1.114
      -2.515
      -3.841
      -4.603
      -4.763
      -4.649
      -4.587
      -4.567
      -4.238
      -3.217
      -1.463
       0.608
       2.378
       3.446
       3.841
       3.891
       3.909
       3.988
       4.042
       4.006
       3.979
       4.157
       4.605
       5.106
       5.255
       4.753
       3.617
       2.122
       0.534
      -1.098
      -2.871
      -4.765
      -6.445
      -7.364
      -7.055
      -5.384
      -2.606
       0.754
       4.111
       6.996
       9.139
      10.399
      10.636
       9.687
       7.513
       4.396
       0.990
      -1.921
      -3.782
      -4.501
      -4.414
      -4.070
      -4.037
      -4.731
      -6.245
      -8.215
      -9.885
     -10.475
      -9.630
      -7.607
      -5.043
      -2.542
      -0.376
       1.555
       3.557
       5.856
       8.309
      10.299
      10.966
       9.698
       6.552
       2.311
      -1.848
      -4.853
      -6.125
      -5.709
      -4.138
      -2.124
      -0.239
       1.263
       2.411
       3.310
       3.929
       4.025
       3.267
       1.502
      -1.028
      -3.715
      -5.868
      -7.019
      -7.039
      -6.014
      -4.074
      -1.368
       1.804
       4.884
       7.172
       8.180
       7.992
       7.300
       7.010
       7.647
       8.963
       9.969
       9.365
       6.165
       0.250
      -7.405
     -15.022
     -20.758
     -23.497
     -23.227
     -20.784
     -17.277
     -13.632
     -10.442
      -7.951
      -6.021
      -4.160
      -1.761
       1.491
       5.360
       9.198
      12.400
      14.782
      16.534
      17.795
      18.300
      17.464
      14.879
      10.774
       6.059
       1.936
      -0.692
      -1.662
      -1.617
      -1.644
      -2.701
      -5.166
      -8.706
     -12.431
     -15.176
     -15.878
     -13.999
      -9.810
      -4.342
       1.043
       5.172
       7.394
       7.683
       6.575
       5.000
       3.945
       4.034
       5.241
       6.988
       8.549
       9.470
       9.698
       9.370
       8.502
       6.869
       4.198
       0.532
      -3.562
      -7.146
      -9.388
      -9.983
      -9.221
      -7.631
      -5.546
      -2.973
       0.113
       3.357
       5.987
       7.244
       6.893
       5.314
       3.090
       0.565
      -2.214
      -5.155
      -7.835
      -9.586
      -9.892
      -8.705
      -6.430
      -3.652
      -0.832
       1.840
       4.389
       6.879
       9.211
      10.995
      11.558
      10.183
       6.536
       1.094
      -4.743
      -9.103
     -10.515
      -8.694
      -4.721
      -0.466
       2.394
       3.146
       2.155
       0.402
      -1.128
      -1.816
      -1.464
      -0.182
       1.765
       4.086
       6.499
       8.683
      10.216
      10.656
       9.749
       7.624
       4.786
       1.907
      -0.404
      -1.724
      -1.838
      -0.774
       1.127
       3.229
       4.766
       5.098
       3.901
       1.213
      -2.629
      -7.071
     -11.408
     -14.876
     -16.793
     -16.708
     -14.503
     -10.437
      -5.102
       0.690
       6.060
      10.172
      12.292
      11.883
       8.835
       3.710
      -2.259
      -7.585
     -11.173
     -12.765
     -12.888
     -12.381
     -11.872
     -11.560
     -11.337
     -11.027
     -10.486
      -9.568
      -8.100
      -5.942
      -3.107
       0.179
       3.514
       6.446
       8.627
       9.876
      10.142
       9.421
       7.812
       5.658
       3.559
       2.108
       1.511
       1.438
       1.283
       0.642
      -0.349
      -1.067
      -0.794
       0.847
       3.654
       6.923
       9.759
      11.434
      11.604
      10.314
       7.898
       4.853
       1.702
      -1.138
      -3.441
      -5.115
      -6.063
      -6.104
      -5.051
      -2.897
       0.070
       3.337
       6.355
       8.705
      10.160
      10.628
      10.058
       8.410
       5.762
       2.496
      -0.649
      -2.841
      -3.618
      -3.208
      -2.382
      -1.912
      -2.058
      -2.509
      -2.818
      -2.927
      -3.339
      -4.807
      -7.727
     -11.655
     -15.295
     -17.044
     -15.828
     -11.741
      -6.072
      -0.655
       3.132
       5.056
       5.929
       6.820
       8.237
       9.897
      11.146
      11.530
      11.021
       9.825
       8.071
       5.715
       2.721
      -0.682
      -3.931
      -6.365
      -7.604
      -7.791
      -7.428
      -6.928
      -6.271
      -5.128
      -3.319
      -1.125
       0.889
       2.353
       3.346
       4.091
       4.459
       3.900
       1.982
      -1.043
      -4.266
      -6.739
      -8.124
      -8.800
      -9.379
     -10.101
     -10.660
     -10.536
      -9.475
      -7.713
      -5.834
      -4.398
      -3.603
      -3.208
      -2.775
      -2.030
      -1.045
      -0.077
       0.751
       1.590
       2.689
       4.045
       5.231
       5.610
       4.776
       2.876
       0.589
      -1.199
      -1.779
      -0.861
       1.381
       4.425
       7.566
      10.047
      11.128
      10.230
       7.209
       2.661
      -2.071
      -5.371
      -6.142
      -4.380
      -1.148
       2.036
       3.966
       4.224
       3.195
       1.721
       0.627
       0.351
       0.869
       1.941
       3.463
       5.612
       8.620
      12.364
      16.150
      18.905
      19.676
      18.106
      14.620
      10.213
       5.974
       2.638
       0.370
      -1.181
      -2.613
      -4.418
      -6.739
      -9.328
     -11.706
     -13.407
     -14.173
     -13.973
     -12.861
     -10.818
      -7.795
      -3.943
       0.209
       3.863
       6.327
       7.402
       7.451
       7.072
       6.603
       5.849
       4.284
       1.553
      -2.111
      -5.930
      -9.034
     -10.967
     -11.861
     -12.218
     -12.517
     -12.874
     -12.971
     -12.291
     -10.537
      -7.945
      -5.244
      -3.255
      -2.425
      -2.597
      -3.138
      -3.307
      -2.660
      -1.256
       0.427
       1.833
       2.668
       2.965
       2.894
       2.561
       2.034
       1.506
       1.343
       1.852
       2.999
       4.376
       5.485
       6.046
       6.055
       5.618
       4.801
       3.670
       2.430
       1.447
       1.067
       1.368
       2.113
       2.951
       3.679
       4.305
       4.893
       5.391
       5.602
       5.353
       4.704
       3.978
       3.539
       3.438
       3.251
       2.314
       0.261
      -2.577
      -5.259
      -6.781
      -6.627
      -4.935
      -2.277
       0.637
       3.123
       4.623
       4.897
       4.206
       3.260
       2.816
       3.196
       4.038
       4.508
       3.831
       1.806
      -1.030
      -3.695
      -5.309
      -5.541
      -4.701
      -3.464
      -2.459
      -1.973
      -1.906
      -1.954
      -1.875
      -1.639
      -1.343
      -1.011
      -0.490
       0.466
       1.998
       3.974
       6.007
       7.658
       8.684
       9.110
       9.061
       8.532
       7.335
       5.293
       2.503
      -0.590
      -3.361
      -5.317
      -6.324
