Origin Time       23/02/2014 17:04:50 UTC
Lat.              27.2 N	
Long.             92.5 E	
Depth (Km)         10.0
Magnitude         4.8
 Region           Kameng-Arunachal-Pradesh                                         
 Above details taken from IMD 
    
Station Code      NAU
Station Lat.       26.349  N
Station Long.      92.690  E
Station Height(m)   78.0
Site Class        C   Vs30 between 200 m/sec to 375 m/sec *  
Record Time       23.02.2014 17:04:49.504 UTC
Sampling Rate     200. Hz
 Record Duration   84.775 Sec.
 Direction         N-S (N positive)
Max. Acceleration      7.680 cm/sec**2
     
  * For reference see Site Classification link of website 
     
 Base Line Corrected and Low Pass Filtered (Cut Off at 35 Hz) Time History
 Acceleration data in cm/sec**2
    
[...]
       0.130
       0.092
       0.040
      -0.021
      -0.077
      -0.110
      -0.105
      -0.062
       0.002
       0.057
       0.078
       0.056
       0.004
      -0.060
      -0.117
      -0.157
      -0.174
      -0.165
      -0.132
      -0.086
      -0.043
      -0.023
      -0.032
      -0.062
      -0.092
      -0.108
      -0.104
      -0.090
      -0.076
      -0.067
      -0.055
      -0.031
       0.010
       0.058
       0.097
       0.114
       0.108
       0.088
       0.059
       0.020
      -0.033
      -0.096
      -0.159
      -0.203
      -0.209
      -0.166
      -0.076
       0.046
       0.174
       0.283
       0.350
       0.363
       0.323
       0.249
       0.165
       0.086
       0.013
      -0.051
      -0.096
      -0.107
      -0.080
      -0.027
       0.028
       0.060
       0.054
       0.010
      -0.051
      -0.105
      -0.135
      -0.139
      -0.136
      -0.143
      -0.166
      -0.189
      -0.188
      -0.143
      -0.057
       0.044
       0.122
       0.144
       0.101
       0.017
      -0.064
      -0.101
      -0.077
      -0.007
       0.075
       0.134
       0.147
       0.115
       0.055
      -0.011
      -0.069
      -0.114
      -0.144
      -0.156
      -0.149
      -0.124
      -0.090
      -0.052
      -0.008
       0.048
       0.123
       0.217
       0.319
       0.406
       0.454
       0.444
       0.378
       0.275
       0.160
       0.049
      -0.049
      -0.124
      -0.167
      -0.169
      -0.130
      -0.058
       0.031
       0.116
       0.176
       0.196
       0.172
       0.113
       0.041
      -0.026
      -0.074
      -0.100
      -0.107
      -0.107
      -0.106
      -0.109
      -0.116
      -0.126
      -0.138
      -0.149
      -0.158
      -0.161
      -0.153
      -0.133
      -0.107
      -0.080
      -0.057
      -0.035
      -0.010
       0.014
       0.029
       0.025
       0.002
      -0.033
      -0.063
      -0.075
      -0.070
      -0.057
      -0.048
      -0.045
      -0.041
      -0.024
       0.009
       0.053
       0.099
       0.134
       0.154
       0.159
       0.155
       0.147
       0.147
       0.165
       0.201
       0.242
       0.263
       0.243
       0.182
       0.101
       0.032
      -0.008
      -0.021
      -0.023
      -0.030
      -0.042
      -0.047
      -0.036
      -0.010
       0.015
       0.025
       0.021
       0.011
       0.007
       0.010
       0.013
       0.008
      -0.007
      -0.029
      -0.056
      -0.091
      -0.140
      -0.205
      -0.282
      -0.358
      -0.421
      -0.458
      -0.457
      -0.416
      -0.344
      -0.261
      -0.187
      -0.129
      -0.074
      -0.002
       0.097
       0.213
       0.312
       0.359
       0.336
       0.257
       0.160
       0.078
       0.028
       0.006
      -0.002
      -0.002
       0.008
       0.033
       0.068
       0.096
       0.100
       0.071
       0.018
      -0.040
      -0.080
      -0.093
      -0.084
      -0.067
      -0.048
      -0.021
       0.018
       0.062
       0.095
       0.105
       0.090
       0.058
       0.015
      -0.032
      -0.072
      -0.100
      -0.111
      -0.111
      -0.104
      -0.096
      -0.087
      -0.077
      -0.066
      -0.056
      -0.049
      -0.050
      -0.057
      -0.062
      -0.056
      -0.037
      -0.016
      -0.006
      -0.005
       0.001
       0.025
       0.064
       0.094
       0.093
       0.057
       0.004
      -0.041
      -0.068
      -0.085
      -0.109
      -0.147
      -0.195
      -0.236
      -0.256
      -0.244
      -0.197
      -0.119
      -0.023
       0.070
       0.139
       0.172
       0.174
       0.168
       0.181
       0.226
       0.294
       0.356
       0.386
       0.370
       0.309
       0.219
       0.125
       0.046
      -0.012
      -0.055
      -0.091
      -0.120
      -0.127
      -0.095
      -0.024
       0.067
       0.148
       0.195
       0.203
       0.185
       0.151
       0.104
       0.035
      -0.056
      -0.151
      -0.220
      -0.236
      -0.193
      -0.103
       0.013
       0.136
       0.253
       0.352
       0.416
       0.431
       0.395
       0.318
       0.220
       0.116
       0.016
      -0.076
      -0.148
      -0.190
      -0.195
      -0.164
      -0.105
      -0.035
       0.027
       0.062
       0.063
       0.033
      -0.021
      -0.091
      -0.173
      -0.257
      -0.325
      -0.358
      -0.344
      -0.290
      -0.216
      -0.151
      -0.112
      -0.099
      -0.092
      -0.069
      -0.020
       0.044
       0.092
       0.100
       0.063
       0.008
      -0.025
      -0.010
       0.055
       0.140
       0.209
       0.242
       0.243
       0.230
       0.219
       0.210
       0.193
       0.159
       0.108
       0.043
      -0.034
      -0.117
      -0.195
      -0.254
      -0.286
      -0.292
      -0.284
      -0.271
      -0.258
      -0.242
      -0.212
      -0.158
      -0.076
       0.021
       0.107
       0.157
       0.153
       0.095
      -0.004
      -0.122
      -0.228
      -0.301
      -0.330
      -0.312
      -0.249
      -0.145
      -0.016
       0.109
       0.204
       0.260
       0.289
       0.313
       0.339
       0.349
       0.315
       0.221
       0.084
      -0.048
      -0.127
      -0.137
      -0.097
      -0.052
      -0.037
      -0.052
      -0.070
      -0.061
      -0.015
       0.043
       0.076
       0.056
      -0.010
      -0.087
      -0.130
      -0.110
      -0.033
       0.066
       0.140
       0.156
       0.115
       0.045
      -0.014
      -0.039
      -0.035
      -0.028
      -0.045
      -0.095
      -0.155
      -0.186
      -0.163
      -0.090
       0.002
       0.073
       0.101
       0.090
       0.061
       0.034
       0.013
      -0.009
      -0.043
      -0.092
      -0.144
      -0.184
      -0.190
      -0.146
      -0.050
       0.069
       0.163
       0.189
       0.132
       0.018
      -0.094
      -0.155
      -0.144
      -0.084
      -0.019
       0.011
      -0.007
      -0.050
      -0.082
      -0.076
      -0.026
       0.046
       0.106
       0.126
       0.098
       0.035
      -0.029
      -0.059
      -0.034
       0.039
       0.123
       0.177
       0.175
       0.130
       0.084
       0.084
       0.154
       0.278
       0.407
       0.490
       0.496
       0.430
       0.318
       0.198
       0.096
       0.019
      -0.040
      -0.098
      -0.162
      -0.222
      -0.253
      -0.236
      -0.174
      -0.096
      -0.035
      -0.015
      -0.041
      -0.105
      -0.196
      -0.299
      -0.387
      -0.426
      -0.390
      -0.277
      -0.116
       0.042
       0.152
       0.199
       0.201
       0.194
       0.203
       0.228
       0.249
       0.244
       0.207
       0.149
       0.095
       0.073
       0.099
       0.170
       0.260
       0.333
       0.358
       0.319
       0.219
       0.081
      -0.063
      -0.187
      -0.269
      -0.304
      -0.299
      -0.272
      -0.245
      -0.230
      -0.225
      -0.218
      -0.197
      -0.155
      -0.095
      -0.031
       0.018
       0.035
       0.016
      -0.032
      -0.091
      -0.140
      -0.158
      -0.137
      -0.084
      -0.021
       0.025
       0.038
       0.017
      -0.022
      -0.061
      -0.087
      -0.096
      -0.100
      -0.110
      -0.126
      -0.135
      -0.114
      -0.046
       0.062
       0.181
       0.269
       0.292
       0.245
       0.156
       0.066
       0.003
      -0.028
      -0.047
      -0.069
      -0.092
      -0.089
      -0.033
       0.080
       0.220
       0.336
       0.385
       0.356
       0.266
       0.150
       0.036
      -0.058
      -0.124
      -0.159
      -0.160
      -0.130
      -0.079
      -0.018
       0.038
       0.085
       0.118
       0.132
       0.116
       0.061
      -0.031
      -0.141
      -0.239
      -0.297
      -0.301
      -0.260
      -0.197
      -0.134
      -0.085
      -0.050
      -0.021
       0.013
       0.051
       0.088
       0.115
       0.125
       0.118
       0.095
       0.057
       0.014
      -0.027
      -0.058
      -0.085
      -0.114
      -0.145
      -0.165
      -0.163
      -0.133
      -0.086
      -0.038
      -0.002
       0.024
       0.049
       0.085
       0.131
       0.165
       0.158
       0.092
      -0.018
      -0.134
      -0.213
      -0.233
      -0.203
      -0.148
      -0.089
      -0.033
       0.022
       0.081
       0.142
       0.198
       0.240
       0.258
       0.246
       0.206
       0.144
       0.073
       0.003
      -0.054
      -0.088
      -0.096
      -0.071
      -0.012
       0.073
       0.163
       0.230
       0.250
       0.225
       0.176
       0.122
       0.069
       0.011
      -0.061
      -0.139
      -0.205
      -0.234
      -0.213
      -0.154
      -0.092
      -0.060
      -0.072
      -0.104
      -0.120
      -0.088
      -0.003
       0.112
       0.222
       0.297
       0.314
       0.272
       0.184
       0.078
      -0.014
      -0.061
      -0.054
      -0.012
       0.030
       0.041
       0.015
      -0.029
      -0.058
      -0.059
      -0.044
      -0.040
      -0.065
      -0.115
      -0.166
      -0.195
      -0.197
      -0.178
      -0.145
      -0.098
      -0.024
       0.077
       0.186
       0.263
       0.274
       0.217
       0.124
       0.038
      -0.023
      -0.072
      -0.136
      -0.222
      -0.317
      -0.391
      -0.415
      -0.366
      -0.239
      -0.049
       0.156
       0.321
       0.402
       0.395
       0.326
       0.234
       0.146
       0.069
      -0.004
      -0.075
      -0.128
      -0.141
      -0.102
      -0.022
       0.073
       0.158
       0.222
       0.265
       0.281
       0.257
       0.179
       0.044
      -0.126
      -0.289
      -0.390
      -0.382
      -0.258
      -0.055
       0.160
       0.322
       0.398
       0.392
       0.322
       0.199
       0.023
      -0.196
      -0.422
      -0.604
      -0.696
      -0.680
      -0.574
      -0.412
      -0.232
      -0.052
       0.122
       0.288
       0.425
       0.498
       0.477
       0.360
       0.172
      -0.038
      -0.225
      -0.348
      -0.377
      -0.301
      -0.129
       0.105
       0.358
       0.585
       0.758
       0.861
       0.885
       0.828
       0.693
       0.492
       0.249
      -0.009
      -0.250
      -0.443
      -0.559
      -0.584
      -0.518
      -0.369
      -0.153
       0.111
       0.389
       0.643
       0.828
       0.910
       0.879
       0.759
       0.603
       0.459
       0.347
       0.250
       0.140
       0.013
      -0.095
      -0.126
      -0.043
       0.136
       0.343
       0.489
       0.521
       0.443
       0.304
       0.166
       0.066
       0.009
      -0.028
      -0.074
      -0.146
      -0.241
      -0.342
      -0.436
      -0.516
      -0.576
      -0.621
      -0.665
      -0.730
      -0.836
      -0.992
      -1.186
      -1.395
      -1.589
      -1.740
      -1.826
      -1.835
      -1.765
      -1.616
      -1.397
      -1.124
      -0.829
      -0.547
      -0.321
      -0.193
      -0.194
      -0.335
      -0.592
      -0.907
      -1.201
      -1.398
      -1.438
      -1.291
      -0.965
      -0.509
      -0.008
       0.444
       0.776
       0.968
       1.047
       1.054
       1.019
       0.958
       0.890
       0.853
       0.889
       1.031
       1.286
       1.629
       2.014
       2.382
       2.668
       2.814
       2.766
       2.499
       2.023
       1.403
       0.745
       0.161
      -0.263
      -0.487
      -0.513
      -0.365
      -0.089
       0.253
       0.594
       0.884
       1.103
       1.254
       1.349
       1.383
       1.335
       1.176
       0.891
       0.490
       0.003
      -0.530
      -1.059
      -1.526
      -1.882
      -2.101
      -2.197
      -2.214
      -2.199
      -2.178
      -2.151
      -2.097
      -1.995
      -1.838
      -1.644
      -1.442
      -1.261
      -1.116
      -1.016
      -0.973
      -1.012
      -1.165
      -1.465
      -1.914
      -2.469
      -3.033
      -3.482
      -3.700
      -3.613
      -3.204
      -2.506
      -1.587
      -0.530
       0.579
       1.657
       2.634
       3.443
       4.033
       4.372
       4.461
       4.336
       4.071
       3.760
       3.493
       3.329
       3.287
       3.360
       3.534
       3.791
       4.100
       4.402
       4.620
       4.673
       4.485
       3.999
       3.182
       2.050
       0.693
      -0.724
      -1.994
      -2.933
      -3.446
      -3.555
      -3.364
      -2.992
      -2.514
      -1.964
      -1.360
      -0.745
      -0.192
       0.219
       0.414
       0.341
      -0.022
      -0.658
      -1.501
      -2.455
      -3.409
      -4.261
      -4.930
      -5.361
      -5.523
      -5.406
      -5.019
      -4.405
      -3.639
      -2.809
      -1.993
      -1.243
      -0.589
      -0.031
       0.457
       0.910
       1.340
       1.720
       1.991
       2.087
       1.970
       1.645
       1.167
       0.620
       0.093
      -0.344
      -0.644
      -0.787
      -0.762
      -0.566
      -0.184
       0.411
       1.241
       2.294
       3.499
       4.737
       5.871
       6.786
       7.406
       7.680
       7.585
       7.149
       6.475
       5.712
       4.979
       4.300
       3.596
       2.761
       1.736
       0.551
      -0.699
      -1.907
      -3.003
      -3.969
      -4.801
      -5.473
      -5.920
      -6.078
      -5.934
      -5.548
      -5.030
      -4.494
      -4.034
      -3.712
      -3.559
      -3.551
      -3.613
      -3.628
      -3.487
      -3.118
      -2.516
      -1.735
      -0.875
      -0.051
       0.642
       1.149
       1.457
       1.573
       1.504
       1.257
       0.858
       0.366
      -0.127
      -0.529
      -0.772
      -0.838
      -0.749
      -0.550
      -0.284
       0.014
       0.321
       0.624
       0.920
       1.209
       1.500
       1.793
       2.085
       2.370
       2.641
       2.891
       3.097
       3.219
       3.209
       3.039
       2.728
       2.354
       2.011
       1.771
       1.646
       1.607
       1.612
       1.643
       1.710
       1.835
       2.011
       2.171
       2.188
       1.919
       1.269
       0.253
      -1.003
      -2.302
      -3.445
      -4.290
      -4.777
      -4.922
      -4.788
      -4.452
      -3.977
      -3.404
      -2.772
      -2.133
      -1.568
      -1.174
      -1.043
      -1.225
      -1.703
      -2.371
      -3.055
      -3.572
      -3.791
      -3.667
      -3.232
      -2.567
      -1.765
      -0.911
      -0.063
       0.756
       1.544
       2.298
       2.990
       3.566
       3.970
       4.169
       4.163
       3.980
       3.661
       3.246
       2.765
       2.247
       1.731
       1.276
       0.948
       0.795
       0.825
       1.011
       1.298
       1.607
       1.839
       1.908
       1.771
       1.458
       1.039
       0.586
       0.136
      -0.299
      -0.711
      -1.066
      -1.303
      -1.354
      -1.179
      -0.812
      -0.356
       0.065
       0.373
       0.565
       0.669
       0.692
       0.592
       0.300
      -0.230
      -0.986
      -1.895
      -2.834
      -3.669
      -4.301
      -4.707
      -4.939
      -5.076
      -5.151
      -5.114
      -4.857
      -4.298
      -3.457
      -2.478
      -1.553
      -0.826
      -0.330
       0.001
       0.274
       0.577
       0.946
       1.372
       1.812
       2.206
       2.497
       2.650
       2.672
       2.607
       2.529
       2.513
       2.602
       2.796
       3.050
       3.302
       3.495
       3.598
       3.620
       3.595
       3.558
       3.502
       3.360
       3.023
       2.401
       1.488
       0.389
      -0.710
      -1.608
      -2.164
      -2.345
      -2.221
      -1.920
      -1.563
      -1.225
      -0.935
      -0.701
      -0.529
      -0.422
      -0.379
      -0.401
      -0.491
      -0.651
      -0.872
      -1.123
      -1.357
      -1.532
      -1.633
      -1.669
      -1.656
      -1.592
      -1.450
      -1.213
      -0.893
      -0.546
      -0.238
      -0.002
       0.176
       0.339
       0.509
       0.670
       0.787
       0.841
       0.859
       0.897
       1.003
       1.165
       1.301
       1.296
       1.077
       0.673
       0.219
      -0.114
      -0.204
      -0.045
       0.263
       0.574
       0.768
       0.810
       0.739
       0.631
       0.536
       0.459
       0.379
       0.283
       0.193
       0.138
       0.121
       0.100
       0.014
      -0.166
      -0.414
      -0.669
      -0.885
      -1.061
      -1.240
      -1.465
      -1.748
      -2.058
      -2.330
      -2.500
      -2.525
      -2.396
      -2.125
      -1.733
      -1.233
      -0.636
       0.040
       0.752
       1.424
       1.962
       2.283
       2.348
       2.167
       1.798
       1.314
       0.787
       0.268
      -0.209
      -0.621
      -0.956
      -1.203
      -1.351
      -1.383
      -1.280
      -1.041
      -0.691
      -0.286
       0.097
       0.390
       0.550
       0.567
       0.452
       0.220
      -0.106
      -0.480
      -0.825
      -1.061
      -1.143
      -1.084
      -0.946
      -0.795
      -0.664
      -0.540
      -0.388
      -0.181
       0.088
       0.406
       0.766
       1.169
       1.615
       2.070
       2.452
       2.653
       2.586
       2.225
       1.619
       0.887
       0.181
      -0.361
      -0.665
      -0.734
      -0.628
      -0.424
      -0.177
       0.077
       0.310
       0.478
       0.537
       0.461
       0.268
       0.018
      -0.213
      -0.362
      -0.408
      -0.374
      -0.307
      -0.257
      -0.262
      -0.335
      -0.463
      -0.608
      -0.720
      -0.763
      -0.720
      -0.602
      -0.433
      -0.237
      -0.040
       0.137
       0.273
       0.347
       0.338
       0.232
       0.036
      -0.201
      -0.383
      -0.397
      -0.171
       0.274
       0.828
       1.350
       1.727
       1.916
       1.931
       1.819
       1.630
       1.412
       1.200
       1.015
       0.862
       0.745
       0.673
       0.663
       0.713
       0.798
       0.867
       0.862
       0.733
       0.440
      -0.026
      -0.634
      -1.301
      -1.912
      -2.377
      -2.660
      -2.777
      -2.761
      -2.630
      -2.385
      -2.034
      -1.615
      -1.192
      -0.840
      -0.622
      -0.569
      -0.674
      -0.880
      -1.095
      -1.214
      -1.160
      -0.906
      -0.493
      -0.010
       0.435
       0.761
       0.937
       0.987
       0.972
       0.953
       0.962
       0.994
       1.019
       1.020
       1.008
       1.018
       1.083
       1.201
       1.335
       1.433
       1.466
       1.455
       1.449
       1.493
       1.585
       1.662
       1.635
       1.446
       1.103
       0.679
       0.260
      -0.100
      -0.408
      -0.687
