Origin Time       06/11/2013 04:16:16
Lat.              26.5 N	
Long.             93.5 E	
Depth (Km)         20.0
Magnitude         5.5
 Region           Karbi-Assam                                                      
 Above details taken from IMD 
     
Station Code      NAU
Station Lat.       26.349  N
Station Long.      92.690  E
Station Height(m)   72.0
Site Class        C   Vs30 between 200 m/sec to 375 m/sec *  
Record Time       06.11.2013 04:16:06.764
Sampling Rate     200. Hz
 Record Duration  120.205 Sec.
 Direction         E-W (E positive)
Max. Acceleration     19.171 cm/sec**2
     
  * For reference see Site Classification link of website 
     
 Base Line Corrected and Low Pass Filtered (Cut Off at 35 Hz) Time History
 Acceleration data in cm/sec**2
    
[...]
      -1.389
      -0.983
      -0.377
       0.317
       0.919
       1.253
       1.235
       0.916
       0.444
      -0.023
      -0.384
      -0.605
      -0.708
      -0.759
      -0.846
      -1.032
      -1.298
      -1.550
      -1.669
      -1.602
      -1.386
      -1.098
      -0.784
      -0.431
      -0.011
       0.472
       0.956
       1.349
       1.579
       1.634
       1.579
       1.528
       1.581
       1.754
       1.959
       2.062
       1.971
       1.669
       1.181
       0.534
      -0.225
      -0.991
      -1.610
      -1.937
      -1.905
      -1.528
      -0.873
      -0.053
       0.761
       1.355
       1.557
       1.324
       0.769
       0.084
      -0.580
      -1.169
      -1.691
      -2.136
      -2.430
      -2.461
      -2.161
      -1.571
      -0.855
      -0.233
       0.118
       0.155
      -0.015
      -0.226
      -0.368
      -0.449
      -0.527
      -0.616
      -0.671
      -0.641
      -0.545
      -0.464
      -0.476
      -0.587
      -0.707
      -0.709
      -0.514
      -0.160
       0.217
       0.471
       0.547
       0.506
       0.454
       0.436
       0.403
       0.277
       0.057
      -0.149
      -0.189
       0.030
       0.488
       1.082
       1.678
       2.149
       2.407
       2.414
       2.194
       1.813
       1.356
       0.913
       0.564
       0.355
       0.261
       0.192
       0.047
      -0.207
      -0.511
      -0.754
      -0.865
      -0.849
      -0.761
      -0.650
      -0.524
      -0.379
      -0.250
      -0.217
      -0.363
      -0.706
      -1.161
      -1.573
      -1.783
      -1.715
      -1.399
      -0.947
      -0.492
      -0.136
       0.091
       0.221
       0.312
       0.377
       0.349
       0.131
      -0.296
      -0.802
      -1.168
      -1.227
      -0.973
      -0.548
      -0.133
       0.144
       0.260
       0.289
       0.355
       0.547
       0.863
       1.235
       1.597
       1.926
       2.201
       2.352
       2.289
       1.987
       1.534
       1.065
       0.667
       0.347
       0.079
      -0.150
      -0.333
      -0.468
      -0.562
      -0.608
      -0.590
      -0.500
      -0.366
      -0.243
      -0.161
      -0.086
       0.047
       0.246
       0.409
       0.391
       0.148
      -0.183
      -0.343
      -0.141
       0.407
       1.073
       1.571
       1.723
       1.536
       1.165
       0.805
       0.599
       0.578
       0.646
       0.603
       0.255
      -0.454
      -1.344
      -2.074
      -2.350
      -2.136
      -1.669
      -1.253
      -1.008
      -0.795
      -0.389
       0.281
       1.037
       1.582
       1.716
       1.444
       0.921
       0.315
      -0.287
      -0.864
      -1.404
      -1.857
      -2.144
      -2.179
      -1.909
      -1.360
      -0.646
       0.065
       0.650
       1.088
       1.430
       1.720
       1.936
       2.010
       1.892
       1.582
       1.124
       0.584
       0.042
      -0.414
      -0.729
      -0.923
      -1.088
      -1.321
      -1.631
      -1.919
      -2.037
      -1.888
      -1.498
      -0.996
      -0.542
      -0.231
      -0.047
       0.097
       0.257
       0.393
       0.403
       0.231
      -0.043
      -0.239
      -0.208
       0.055
       0.391
       0.563
       0.392
      -0.115
      -0.756
      -1.236
      -1.356
      -1.134
      -0.788
      -0.582
      -0.661
      -0.977
      -1.350
      -1.580
      -1.543
      -1.193
      -0.529
       0.408
       1.507
       2.571
       3.367
       3.726
       3.624
       3.176
       2.558
       1.901
       1.245
       0.580
      -0.071
      -0.609
      -0.921
      -0.964
      -0.810
      -0.592
      -0.397
      -0.216
       0.031
       0.405
       0.891
       1.392
       1.761
       1.854
       1.577
       0.952
       0.136
      -0.639
      -1.196
      -1.510
      -1.686
      -1.842
      -2.006
      -2.101
      -2.018
      -1.707
      -1.217
      -0.678
      -0.228
       0.082
       0.314
       0.568
       0.856
       1.063
       1.033
       0.717
       0.226
      -0.245
      -0.556
      -0.708
      -0.824
      -1.048
      -1.429
      -1.864
      -2.159
      -2.170
      -1.908
      -1.505
      -1.076
      -0.639
      -0.154
       0.373
       0.846
       1.156
       1.261
       1.215
       1.129
       1.092
       1.119
       1.117
       0.933
       0.475
      -0.179
      -0.790
      -1.094
      -0.976
      -0.528
       0.032
       0.505
       0.803
       0.956
       1.051
       1.169
       1.343
       1.545
       1.706
       1.749
       1.634
       1.392
       1.114
       0.896
       0.785
       0.762
       0.759
       0.683
       0.443
       0.000
      -0.558
      -1.022
      -1.177
      -0.961
      -0.512
      -0.067
       0.196
       0.211
      -0.009
      -0.402
      -0.857
      -1.222
      -1.376
      -1.307
      -1.121
      -0.978
      -1.000
      -1.227
      -1.604
      -2.017
      -2.345
      -2.510
      -2.493
      -2.315
      -2.002
      -1.570
      -1.037
      -0.432
       0.182
       0.714
       1.062
       1.157
       0.990
       0.622
       0.168
      -0.227
      -0.437
      -0.421
      -0.253
      -0.066
       0.067
       0.179
       0.350
       0.594
       0.835
       0.977
       1.007
       1.016
       1.133
       1.412
       1.785
       2.101
       2.240
       2.201
       2.093
       2.022
       1.992
       1.906
       1.657
       1.222
       0.687
       0.186
      -0.196
      -0.463
      -0.681
      -0.891
      -1.071
      -1.165
      -1.158
      -1.108
      -1.088
      -1.119
      -1.155
      -1.119
      -0.957
      -0.667
      -0.312
      -0.016
       0.077
      -0.115
      -0.539
      -1.004
      -1.275
      -1.213
      -0.850
      -0.362
       0.027
       0.160
       0.023
      -0.259
      -0.504
      -0.594
      -0.521
      -0.350
      -0.115
       0.205
       0.626
       1.086
       1.456
       1.630
       1.592
       1.393
       1.089
       0.716
       0.324
      -0.002
      -0.159
      -0.089
       0.192
       0.586
       0.945
       1.145
       1.148
       1.029
       0.911
       0.852
       0.794
       0.619
       0.284
      -0.088
      -0.269
      -0.105
       0.328
       0.756
       0.920
       0.779
       0.532
       0.428
       0.548
       0.729
       0.679
       0.193
      -0.688
      -1.665
      -2.346
      -2.473
      -2.075
      -1.428
      -0.885
      -0.670
      -0.780
      -1.041
      -1.247
      -1.282
      -1.160
      -0.945
      -0.685
      -0.397
      -0.132
      -0.020
      -0.202
      -0.705
      -1.379
      -1.955
      -2.214
      -2.124
      -1.843
      -1.580
      -1.432
      -1.343
      -1.198
      -0.953
      -0.657
      -0.371
      -0.110
       0.129
       0.323
       0.439
       0.515
       0.658
       0.949
       1.338
       1.657
       1.746
       1.575
       1.259
       0.966
       0.802
       0.758
       0.745
       0.685
       0.607
       0.643
       0.927
       1.454
       2.046
       2.464
       2.573
       2.405
       2.080
       1.686
       1.271
       0.906
       0.719
       0.800
       1.087
       1.359
       1.382
       1.067
       0.497
      -0.163
      -0.792
      -1.353
      -1.854
      -2.295
      -2.640
      -2.820
      -2.770
      -2.455
      -1.903
      -1.212
      -0.528
       0.019
       0.396
       0.681
       0.987
       1.338
       1.612
       1.610
       1.210
       0.485
      -0.333
      -1.008
      -1.448
      -1.712
      -1.926
      -2.158
      -2.368
      -2.440
      -2.280
      -1.878
      -1.311
      -0.662
       0.039
       0.818
       1.676
       2.529
       3.203
       3.508
       3.346
       2.792
       2.089
       1.512
       1.207
       1.126
       1.120
       1.083
       1.002
       0.902
       0.773
       0.580
       0.348
       0.195
       0.261
       0.584
       1.035
       1.364
       1.325
       0.809
      -0.088
      -1.091
      -1.879
      -2.251
      -2.199
      -1.864
      -1.403
      -0.908
      -0.402
       0.117
       0.654
       1.211
       1.740
       2.086
       2.021
       1.381
       0.241
      -1.037
      -1.967
      -2.204
      -1.714
      -0.756
       0.290
       1.097
       1.487
       1.424
       0.969
       0.223
      -0.705
      -1.700
      -2.617
      -3.273
      -3.499
      -3.225
      -2.561
      -1.800
      -1.309
      -1.339
      -1.857
      -2.520
      -2.839
      -2.463
      -1.396
       0.013
       1.320
       2.267
       2.872
       3.269
       3.511
       3.534
       3.283
       2.811
       2.235
       1.632
       1.012
       0.401
      -0.082
      -0.260
      -0.005
       0.641
       1.446
       2.066
       2.221
       1.857
       1.196
       0.588
       0.293
       0.354
       0.664
       1.118
       1.681
       2.312
       2.874
       3.157
       3.003
       2.428
       1.622
       0.828
       0.215
      -0.176
      -0.382
      -0.441
      -0.339
      -0.038
       0.453
       1.016
       1.474
       1.712
       1.743
       1.644
       1.418
       0.953
       0.131
      -1.015
      -2.245
      -3.234
      -3.778
      -3.898
      -3.783
      -3.609
      -3.418
      -3.146
      -2.765
      -2.386
      -2.217
      -2.385
      -2.817
      -3.278
      -3.566
      -3.671
      -3.757
      -3.964
      -4.252
      -4.406
      -4.191
      -3.492
      -2.318
      -0.739
       1.143
       3.134
       4.915
       6.115
       6.470
       5.949
       4.756
       3.192
       1.492
      -0.257
      -2.061
      -3.864
      -5.434
      -6.385
      -6.337
      -5.123
      -2.902
      -0.119
       2.643
       4.831
       6.043
       6.099
       5.064
       3.238
       1.094
      -0.849
      -2.192
      -2.756
      -2.560
      -1.724
      -0.409
       1.179
       2.753
       3.984
       4.584
       4.409
       3.535
       2.255
       0.981
       0.060
      -0.414
      -0.668
      -1.088
      -1.911
      -3.028
      -4.081
      -4.777
      -5.116
      -5.348
      -5.717
      -6.239
      -6.681
      -6.728
      -6.174
      -5.040
      -3.586
      -2.246
      -1.471
      -1.514
      -2.303
      -3.494
      -4.666
      -5.494
      -5.772
      -5.349
      -4.066
      -1.808
       1.356
       5.021
       8.408
      10.555
      10.721
       8.779
       5.323
       1.402
      -1.939
      -4.037
      -4.730
      -4.260
      -3.093
      -1.747
      -0.651
      -0.070
      -0.077
      -0.591
      -1.402
      -2.212
      -2.700
      -2.633
      -1.940
      -0.719
       0.828
       2.458
       3.919
       4.939
       5.246
       4.669
       3.286
       1.508
      -0.036
      -0.779
      -0.491
       0.629
       2.086
       3.335
       4.000
       3.980
       3.434
       2.642
       1.853
       1.192
       0.673
       0.301
       0.136
       0.280
       0.770
       1.456
       1.949
       1.750
       0.538
      -1.554
      -3.909
      -5.711
      -6.374
      -5.852
      -4.651
      -3.555
      -3.234
      -3.913
      -5.302
      -6.786
      -7.741
      -7.776
      -6.776
      -4.818
      -2.129
       0.902
       3.799
       6.205
       8.070
       9.585
      10.898
      11.859
      12.038
      11.003
       8.611
       5.131
       1.146
      -2.667
      -5.726
      -7.632
      -8.154
      -7.230
      -5.046
      -2.132
       0.706
       2.672
       3.343
       2.815
       1.562
       0.147
      -1.002
      -1.637
      -1.639
      -0.976
       0.266
       1.877
       3.589
       5.162
       6.420
       7.244
       7.567
       7.382
       6.761
       5.835
       4.747
       3.575
       2.265
       0.659
      -1.378
      -3.805
      -6.340
      -8.544
      -9.971
     -10.287
      -9.314
      -7.060
      -3.761
       0.085
       3.803
       6.738
       8.529
       9.262
       9.369
       9.293
       9.162
       8.741
       7.695
       5.964
       3.927
       2.170
       1.039
       0.368
      -0.361
      -1.580
      -3.310
      -5.176
      -6.656
      -7.330
      -7.028
      -5.869
      -4.200
      -2.391
      -0.620
       1.156
       2.984
       4.677
       5.859
       6.305
       6.217
       6.110
       6.366
       6.886
       7.145
       6.618
       5.214
       3.407
       1.972
       1.516
       2.070
       3.002
       3.360
       2.461
       0.340
      -2.273
      -4.409
      -5.389
      -5.063
      -3.690
      -1.699
       0.479
       2.446
       3.854
       4.448
       4.117
       2.917
       1.062
      -1.110
      -3.231
      -5.032
      -6.432
      -7.515
      -8.416
      -9.189
      -9.781
     -10.082
     -10.001
      -9.484
      -8.495
      -6.983
      -4.885
      -2.158
       1.153
       4.806
       8.271
      10.754
      11.469
      10.075
       6.967
       3.128
      -0.405
      -3.083
      -4.978
      -6.475
      -7.815
      -8.889
      -9.375
      -9.011
      -7.745
      -5.682
      -2.950
       0.341
       4.040
       7.877
      11.488
      14.536
      16.849
      18.410
      19.171
      18.847
      16.967
      13.260
       8.055
       2.329
      -2.728
      -6.313
      -8.363
      -9.445
     -10.279
     -11.215
     -12.003
     -12.002
     -10.690
      -8.120
      -4.959
      -2.085
      -0.039
       1.256
       2.296
       3.516
       4.945
       6.232
       6.939
       6.782
       5.665
       3.605
       0.728
      -2.674
      -6.133
      -9.126
     -11.242
     -12.258
     -12.160
     -11.167
      -9.701
      -8.231
      -6.986
      -5.797
      -4.259
      -2.141
       0.297
       2.340
       3.237
       2.693
       1.126
      -0.533
      -1.412
      -1.284
      -0.743
      -0.795
      -2.154
      -4.746
      -7.761
     -10.162
     -11.226
     -10.739
      -8.831
      -5.745
      -1.808
       2.415
       6.099
       8.420
       8.941
       7.783
       5.469
       2.621
      -0.218
      -2.585
      -4.079
      -4.463
      -3.781
      -2.374
      -0.728
       0.700
       1.621
       1.962
       1.857
       1.565
       1.372
       1.493
       2.035
       2.981
       4.168
       5.270
       5.880
       5.701
       4.720
       3.222
       1.600
       0.144
      -1.039
      -1.948
      -2.596
      -2.986
      -3.125
      -2.997
      -2.523
      -1.594
      -0.166
       1.660
       3.620
       5.373
       6.615
       7.181
       7.078
       6.438
       5.429
       4.187
       2.794
       1.311
      -0.176
      -1.555
      -2.757
      -3.852
      -5.039
      -6.476
      -8.046
      -9.266
      -9.467
      -8.174
      -5.432
      -1.853
       1.683
       4.459
       6.234
       7.219
       7.740
       7.894
       7.478
       6.253
       4.286
       2.056
       0.225
      -0.746
      -0.841
      -0.400
       0.187
       0.708
       1.086
       1.185
       0.767
      -0.247
      -1.454
      -1.977
      -0.978
       1.648
       4.987
       7.600
       8.462
       7.622
       6.017
       4.639
       3.807
       3.125
       2.056
       0.493
      -1.173
      -2.447
      -3.132
      -3.402
      -3.588
      -3.967
      -4.738
      -6.086
      -8.180
     -10.995
     -14.123
     -16.789
     -18.158
     -17.765
     -15.773
     -12.894
     -10.016
      -7.794
      -6.446
      -5.826
      -5.610
      -5.452
      -5.053
      -4.220
      -2.975
      -1.608
      -0.542
      -0.009
       0.192
       0.617
       1.750
       3.571
       5.490
       6.743
       6.905
       6.112
       4.844
       3.514
       2.227
       0.881
      -0.551
      -1.833
      -2.565
      -2.469
      -1.663
      -0.639
       0.075
       0.330
       0.499
       1.176
       2.685
       4.774
       6.733
       7.835
       7.768
       6.800
       5.623
       5.012
       5.457
       6.903
       8.748
      10.134
      10.378
       9.266
       7.047
       4.202
       1.232
      -1.402
      -3.275
      -4.097
      -3.887
      -3.011
      -1.962
      -1.038
      -0.193
       0.806
       2.064
       3.355
       4.191
       4.102
       2.950
       1.090
      -0.721
      -1.671
      -1.309
       0.204
       2.218
       4.003
       5.123
       5.509
       5.251
       4.378
       2.846
       0.714
      -1.742
      -4.105
      -6.027
      -7.349
      -8.033
      -7.982
      -6.996
      -4.943
      -2.029
       1.120
       3.715
       5.248
       5.783
       5.817
       5.835
       5.963
       5.991
       5.684
       5.035
       4.223
       3.396
       2.530
       1.509
       0.303
      -0.939
      -1.987
      -2.687
      -3.023
      -3.028
      -2.660
      -1.812
      -0.482
       1.065
       2.326
       2.810
       2.327
       1.084
      -0.473
      -1.941
      -3.151
      -4.126
      -4.900
      -5.395
      -5.483
      -5.147
      -4.555
      -3.964
      -3.524
      -3.179
      -2.783
      -2.290
      -1.817
      -1.508
      -1.339
      -1.070
      -0.362
       1.040
       3.158
       5.704
       8.066
       9.442
       9.162
       7.073
       3.751
       0.328
      -2.033
      -2.714
      -1.913
      -0.490
       0.530
       0.498
      -0.552
      -2.012
      -3.141
      -3.528
      -3.276
      -2.813
      -2.509
      -2.372
      -2.044
      -1.091
       0.586
       2.551
       4.032
       4.453
       3.903
       3.126
       2.998
       3.890
       5.400
       6.645
       6.864
       5.834
       3.876
       1.529
      -0.780
      -2.878
      -4.763
      -6.429
      -7.743
      -8.444
      -8.263
      -7.112
      -5.228
      -3.146
      -1.438
      -0.365
       0.289
       1.045
       2.291
       3.925
       5.364
       5.945
       5.390
       3.967
       2.238
       0.648
      -0.675
      -1.821
      -2.839
      -3.605
      -3.929
      -3.754
      -3.267
      -2.786
      -2.544
      -2.520
      -2.426
      -1.889
      -0.724
       0.895
       2.503
       3.592
       3.856
       3.300
       2.188
       0.907
      -0.163
      -0.743
      -0.715
      -0.143
       0.769
       1.717
       2.358
       2.374
       1.583
       0.056
      -1.822
      -3.459
      -4.323
      -4.252
      -3.541
      -2.706
      -2.095
      -1.657
      -1.032
       0.136
       1.924
       4.023
       5.845
       6.753
       6.349
       4.714
       2.456
       0.480
      -0.456
      -0.139
       0.986
       2.084
       2.422
       1.776
       0.486
      -0.810
      -1.597
      -1.771
      -1.666
      -1.810
      -2.587
      -3.987
      -5.578
      -6.685
      -6.693
      -5.341
      -2.869
       0.081
       2.773
       4.720
       5.838
       6.349
       6.555
       6.643
       6.616
