Origin Time       16/4/2013 01:23:19	 UTC
Lat.              26.3 N	
Long.             92.0 E	
Depth (Km)         16.0
Magnitude         4.6
 Region           Assam-Darrang                                                    
 Above details taken from IMD 
    
Station Code      NAU
Station Lat.       26.349  N
Station Long.      92.690  E
Station Height(m)   78.0
Site Class        C   Vs30 between 200 m/sec to 375 m/sec *  
Record Time       16.04.2013 01:23:09.629 UTC
Sampling Rate     200. Hz
 Record Duration   90.335 Sec.
 Direction         N-S (N positive)
Max. Acceleration    -13.995 cm/sec**2
     
  * For reference see Site Classification link of website 
     
 Base Line Corrected and Low Pass Filtered (Cut Off at 35 Hz) Time History
 Acceleration data in cm/sec**2
    
[...]
       0.016
       0.009
      -0.018
      -0.070
      -0.102
      -0.059
       0.073
       0.243
       0.366
       0.361
       0.204
      -0.066
      -0.370
      -0.631
      -0.797
      -0.843
      -0.767
      -0.588
      -0.338
      -0.063
       0.192
       0.383
       0.471
       0.432
       0.271
       0.032
      -0.211
      -0.373
      -0.401
      -0.294
      -0.100
       0.114
       0.301
       0.440
       0.524
       0.544
       0.480
       0.324
       0.109
      -0.098
      -0.221
      -0.225
      -0.137
      -0.018
       0.083
       0.157
       0.229
       0.317
       0.409
       0.482
       0.519
       0.523
       0.498
       0.437
       0.319
       0.133
      -0.099
      -0.323
      -0.471
      -0.501
      -0.427
      -0.312
      -0.230
      -0.208
      -0.220
      -0.220
      -0.196
      -0.183
      -0.228
      -0.342
      -0.476
      -0.557
      -0.535
      -0.421
      -0.269
      -0.143
      -0.078
      -0.072
      -0.103
      -0.147
      -0.189
      -0.218
      -0.233
      -0.232
      -0.214
      -0.169
      -0.079
       0.072
       0.286
       0.533
       0.759
       0.901
       0.920
       0.820
       0.654
       0.494
       0.386
       0.319
       0.239
       0.104
      -0.080
      -0.258
      -0.367
      -0.373
      -0.282
      -0.134
       0.017
       0.129
       0.183
       0.197
       0.207
       0.237
       0.282
       0.298
       0.241
       0.096
      -0.106
      -0.300
      -0.424
      -0.450
      -0.395
      -0.314
      -0.269
      -0.292
      -0.364
      -0.438
      -0.478
      -0.481
      -0.470
      -0.474
      -0.506
      -0.552
      -0.581
      -0.565
      -0.507
      -0.446
      -0.420
      -0.423
      -0.400
      -0.281
      -0.051
       0.240
       0.506
       0.685
       0.763
       0.768
       0.744
       0.722
       0.718
       0.729
       0.748
       0.765
       0.769
       0.743
       0.664
       0.521
       0.336
       0.163
       0.064
       0.062
       0.132
       0.214
       0.256
       0.235
       0.155
       0.035
      -0.112
      -0.281
      -0.467
      -0.657
      -0.822
      -0.929
      -0.955
      -0.899
      -0.783
      -0.635
      -0.470
      -0.294
      -0.118
       0.033
       0.124
       0.133
       0.054
      -0.094
      -0.268
      -0.407
      -0.450
      -0.360
      -0.141
       0.169
       0.502
       0.788
       0.965
       0.999
       0.890
       0.673
       0.403
       0.142
      -0.057
      -0.164
      -0.174
      -0.106
       0.013
       0.151
       0.275
       0.355
       0.375
       0.342
       0.277
       0.203
       0.127
       0.045
      -0.047
      -0.150
      -0.263
      -0.379
      -0.473
      -0.509
      -0.469
      -0.378
      -0.297
      -0.277
      -0.320
      -0.385
      -0.420
      -0.390
      -0.287
      -0.127
       0.066
       0.271
       0.475
       0.653
       0.760
       0.748
       0.605
       0.367
       0.105
      -0.118
      -0.279
      -0.398
      -0.504
      -0.600
      -0.648
      -0.596
      -0.419
      -0.150
       0.131
       0.341
       0.439
       0.442
       0.409
       0.388
       0.379
       0.342
       0.243
       0.094
      -0.066
      -0.205
      -0.312
      -0.373
      -0.365
      -0.276
      -0.136
       0.008
       0.115
       0.181
       0.215
       0.218
       0.185
       0.118
       0.033
      -0.052
      -0.124
      -0.175
      -0.201
      -0.210
      -0.221
      -0.249
      -0.297
      -0.348
      -0.391
      -0.423
      -0.447
      -0.442
      -0.374
      -0.214
       0.025
       0.289
       0.505
       0.615
       0.604
       0.514
       0.420
       0.388
       0.426
       0.471
       0.455
       0.366
       0.265
       0.232
       0.294
       0.406
       0.484
       0.462
       0.324
       0.114
      -0.086
      -0.208
      -0.226
      -0.173
      -0.102
      -0.046
      -0.006
       0.039
       0.112
       0.224
       0.364
       0.500
       0.581
       0.561
       0.422
       0.182
      -0.118
      -0.428
      -0.699
      -0.899
      -1.016
      -1.064
      -1.076
      -1.075
      -1.061
      -1.018
      -0.936
      -0.828
      -0.726
      -0.644
      -0.556
      -0.408
      -0.158
       0.176
       0.504
       0.705
       0.710
       0.543
       0.303
       0.093
      -0.028
      -0.056
      -0.011
       0.093
       0.262
       0.500
       0.788
       1.076
       1.304
       1.431
       1.454
       1.385
       1.231
       0.993
       0.687
       0.361
       0.082
      -0.105
      -0.202
      -0.245
      -0.266
      -0.293
      -0.358
      -0.496
      -0.714
      -0.959
      -1.143
      -1.202
      -1.140
      -1.005
      -0.837
      -0.640
      -0.403
      -0.133
       0.127
       0.321
       0.401
       0.349
       0.180
      -0.073
      -0.361
      -0.628
      -0.808
      -0.847
      -0.724
      -0.475
      -0.181
       0.072
       0.237
       0.317
       0.346
       0.353
       0.344
       0.312
       0.258
       0.208
       0.203
       0.268
       0.389
       0.518
       0.597
       0.593
       0.513
       0.398
       0.321
       0.353
       0.524
       0.783
       1.012
       1.085
       0.951
       0.668
       0.352
       0.099
      -0.073
      -0.208
      -0.357
      -0.524
      -0.671
      -0.755
      -0.757
      -0.698
      -0.617
      -0.551
      -0.522
      -0.532
      -0.567
      -0.602
      -0.612
      -0.578
      -0.489
      -0.343
      -0.157
       0.038
       0.203
       0.312
       0.358
       0.359
       0.330
       0.274
       0.190
       0.084
      -0.028
      -0.131
      -0.222
      -0.294
      -0.330
      -0.292
      -0.151
       0.089
       0.382
       0.660
       0.873
       1.000
       1.039
       0.991
       0.846
       0.608
       0.297
      -0.038
      -0.337
      -0.551
      -0.660
      -0.677
      -0.638
      -0.572
      -0.492
      -0.392
      -0.273
      -0.149
      -0.039
       0.043
       0.094
       0.113
       0.101
       0.061
       0.000
      -0.076
      -0.147
      -0.174
      -0.118
       0.035
       0.241
       0.419
       0.493
       0.435
       0.278
       0.090
      -0.068
      -0.167
      -0.199
      -0.170
      -0.092
       0.014
       0.123
       0.208
       0.245
       0.223
       0.147
       0.045
      -0.052
      -0.121
      -0.166
      -0.203
      -0.243
      -0.285
      -0.315
      -0.330
      -0.341
      -0.373
      -0.435
      -0.506
      -0.536
      -0.473
      -0.304
      -0.066
       0.170
       0.347
       0.436
       0.442
       0.376
       0.254
       0.100
      -0.045
      -0.132
      -0.124
      -0.031
       0.103
       0.225
       0.306
       0.346
       0.352
       0.330
       0.279
       0.207
       0.134
       0.090
       0.088
       0.121
       0.166
       0.195
       0.193
       0.158
       0.092
       0.006
      -0.082
      -0.142
      -0.151
      -0.115
      -0.070
      -0.055
      -0.078
      -0.117
      -0.149
      -0.179
      -0.232
      -0.312
      -0.386
      -0.402
      -0.328
      -0.169
       0.057
       0.333
       0.631
       0.890
       1.030
       0.983
       0.738
       0.352
      -0.070
      -0.421
      -0.622
      -0.643
      -0.512
      -0.304
      -0.113
       0.000
       0.036
       0.047
       0.086
       0.161
       0.226
       0.221
       0.126
      -0.017
      -0.145
      -0.220
      -0.259
      -0.311
      -0.401
      -0.500
      -0.544
      -0.492
      -0.353
      -0.169
       0.018
       0.189
       0.318
       0.363
       0.284
       0.093
      -0.128
      -0.265
      -0.242
      -0.073
       0.158
       0.348
       0.429
       0.381
       0.230
       0.023
      -0.185
      -0.350
      -0.447
      -0.472
      -0.434
      -0.340
      -0.201
      -0.045
       0.086
       0.162
       0.179
       0.159
       0.125
       0.093
       0.065
       0.043
       0.030
       0.037
       0.075
       0.141
       0.208
       0.237
       0.209
       0.143
       0.085
       0.071
       0.111
       0.188
       0.270
       0.321
       0.315
       0.253
       0.163
       0.077
       0.007
      -0.058
      -0.134
      -0.223
      -0.310
      -0.376
      -0.404
      -0.398
      -0.365
      -0.311
      -0.238
      -0.155
      -0.079
      -0.043
      -0.070
      -0.166
      -0.302
      -0.418
      -0.455
      -0.392
      -0.262
      -0.126
      -0.025
       0.043
       0.103
       0.158
       0.185
       0.158
       0.077
      -0.022
      -0.086
      -0.065
       0.065
       0.298
       0.591
       0.875
       1.074
       1.135
       1.049
       0.851
       0.602
       0.364
       0.175
       0.045
      -0.033
      -0.068
      -0.071
      -0.059
      -0.056
      -0.077
      -0.122
      -0.177
      -0.226
      -0.258
      -0.264
      -0.242
      -0.202
      -0.168
      -0.169
      -0.211
      -0.280
      -0.347
      -0.391
      -0.396
      -0.351
      -0.254
      -0.122
       0.009
       0.096
       0.117
       0.084
       0.024
      -0.035
      -0.073
      -0.070
       0.001
       0.152
       0.357
       0.549
       0.657
       0.643
       0.515
       0.311
       0.069
      -0.176
      -0.389
      -0.541
      -0.612
      -0.609
      -0.559
      -0.499
      -0.459
      -0.446
      -0.456
      -0.480
      -0.517
      -0.568
      -0.611
      -0.606
      -0.525
      -0.378
      -0.201
      -0.032
       0.111
       0.222
       0.292
       0.316
       0.310
       0.308
       0.340
       0.404
       0.472
       0.513
       0.516
       0.485
       0.423
       0.338
       0.249
       0.177
       0.131
       0.098
       0.061
       0.017
      -0.022
      -0.042
      -0.041
      -0.030
      -0.023
      -0.021
      -0.020
      -0.007
       0.023
       0.061
       0.085
       0.063
      -0.021
      -0.155
      -0.308
      -0.439
      -0.520
      -0.530
      -0.463
      -0.328
      -0.155
       0.022
       0.170
       0.258
       0.264
       0.194
       0.079
      -0.029
      -0.091
      -0.091
      -0.045
       0.025
       0.107
       0.199
       0.297
       0.383
       0.439
       0.464
       0.463
       0.444
       0.408
       0.368
       0.341
       0.329
       0.301
       0.216
       0.060
      -0.136
      -0.311
      -0.422
      -0.451
      -0.402
      -0.283
      -0.101
       0.122
       0.340
       0.502
       0.575
       0.545
       0.406
       0.149
      -0.216
      -0.633
      -1.003
      -1.235
      -1.285
      -1.179
      -0.992
      -0.816
      -0.723
      -0.726
      -0.773
      -0.778
      -0.674
      -0.447
      -0.131
       0.218
       0.543
       0.797
       0.946
       0.979
       0.912
       0.772
       0.594
       0.413
       0.273
       0.212
       0.241
       0.329
       0.424
       0.476
       0.465
       0.393
       0.286
       0.178
       0.102
       0.080
       0.109
       0.173
       0.241
       0.283
       0.276
       0.223
       0.154
       0.107
       0.107
       0.156
       0.235
       0.311
       0.345
       0.308
       0.215
       0.125
       0.112
       0.210
       0.377
       0.513
       0.525
       0.389
       0.167
      -0.038
      -0.146
      -0.141
      -0.071
      -0.012
      -0.028
      -0.152
      -0.369
      -0.627
      -0.849
      -0.969
      -0.952
      -0.811
      -0.594
      -0.351
      -0.125
       0.050
       0.136
       0.102
      -0.052
      -0.282
      -0.522
      -0.712
      -0.820
      -0.837
      -0.774
      -0.658
      -0.521
      -0.379
      -0.232
      -0.074
       0.084
       0.211
       0.270
       0.235
       0.102
      -0.111
      -0.379
      -0.687
      -1.042
      -1.445
      -1.873
      -2.280
      -2.625
      -2.896
      -3.113
      -3.300
      -3.477
      -3.651
      -3.813
      -3.941
      -4.011
      -4.010
      -3.950
      -3.850
      -3.736
      -3.635
      -3.571
      -3.555
      -3.579
      -3.612
      -3.619
      -3.569
      -3.435
      -3.203
      -2.876
      -2.479
      -2.041
      -1.568
      -1.037
      -0.426
       0.261
       0.990
       1.719
       2.418
       3.066
       3.640
       4.121
       4.508
       4.807
       5.008
       5.075
       4.991
       4.796
       4.584
       4.450
       4.433
       4.521
       4.688
       4.922
       5.216
       5.547
       5.887
       6.222
       6.558
       6.883
       7.140
       7.237
       7.095
       6.709
       6.165
       5.623
       5.258
       5.197
       5.492
       6.108
       6.942
       7.844
       8.646
       9.203
       9.420
       9.278
       8.824
       8.160
       7.405
       6.662
       5.977
       5.327
       4.652
       3.888
       2.992
       1.935
       0.693
      -0.734
      -2.309
      -3.961
      -5.604
      -7.163
      -8.571
      -9.768
     -10.700
     -11.336
     -11.692
     -11.845
     -11.938
     -12.125
     -12.507
     -13.056
     -13.624
     -13.995
     -13.968
     -13.420
     -12.313
     -10.692
      -8.693
      -6.524
      -4.436
      -2.652
      -1.315
      -0.462
      -0.021
       0.170
       0.313
       0.599
       1.135
       1.916
       2.836
       3.745
       4.512
       5.077
       5.474
       5.813
       6.224
       6.766
       7.385
       7.938
       8.269
       8.263
       7.874
       7.115
       6.037
       4.697
       3.140
       1.413
      -0.400
      -2.156
      -3.665
      -4.762
      -5.374
      -5.553
      -5.455
      -5.260
      -5.108
      -5.047
      -5.047
      -5.047
      -5.015
      -4.984
      -5.024
      -5.178
      -5.417
      -5.639
      -5.715
      -5.543
      -5.085
      -4.361
      -3.441
      -2.428
      -1.445
      -0.614
      -0.030
       0.264
       0.285
       0.100
      -0.188
      -0.456
      -0.580
      -0.443
       0.023
       0.810
       1.811
       2.850
       3.749
       4.387
       4.733
       4.816
       4.697
       4.439
       4.096
       3.701
       3.260
       2.752
       2.166
       1.535
       0.971
       0.634
       0.671
       1.154
       2.042
       3.189
       4.381
       5.390
       6.027
       6.192
       5.870
       5.098
       3.929
       2.447
       0.801
      -0.791
      -2.097
      -2.947
      -3.288
      -3.176
      -2.741
      -2.127
      -1.449
      -0.781
      -0.180
       0.284
       0.533
       0.513
       0.241
      -0.191
      -0.669
      -1.123
      -1.547
      -1.970
      -2.396
      -2.790
      -3.095
      -3.252
      -3.216
      -2.983
      -2.611
      -2.212
      -1.888
      -1.667
      -1.493
      -1.272
      -0.927
      -0.424
       0.227
       0.970
       1.712
       2.351
       2.801
       2.998
       2.881
       2.401
       1.563
       0.479
      -0.629
      -1.481
      -1.820
      -1.490
      -0.494
       0.993
       2.656
       4.124
       5.075
       5.326
       4.863
       3.823
       2.447
       1.032
      -0.132
      -0.825
      -0.962
      -0.610
       0.051
       0.814
       1.541
       2.198
       2.810
       3.390
       3.882
       4.167
       4.105
       3.596
       2.631
       1.316
      -0.132
      -1.454
      -2.433
      -2.977
      -3.143
      -3.078
      -2.940
      -2.835
      -2.822
      -2.961
      -3.326
      -3.963
      -4.818
      -5.724
      -6.465
      -6.865
      -6.846
      -6.433
      -5.724
      -4.865
      -4.022
      -3.315
      -2.774
      -2.326
      -1.845
      -1.228
      -0.461
       0.359
       1.059
       1.472
       1.540
       1.352
       1.104
       0.991
       1.108
       1.426
       1.848
       2.280
       2.671
       3.005
       3.279
       3.507
       3.708
       3.909
       4.132
       4.377
       4.613
       4.780
       4.795
       4.599
       4.204
       3.713
       3.260
       2.929
       2.691
       2.410
       1.913
       1.083
      -0.053
      -1.321
      -2.491
      -3.397
      -3.994
      -4.319
      -4.423
      -4.341
      -4.109
      -3.794
      -3.467
      -3.172
      -2.900
      -2.614
      -2.281
      -1.902
      -1.524
      -1.224
      -1.064
      -1.041
      -1.074
      -1.064
      -0.959
      -0.771
      -0.541
      -0.289
      -0.005
       0.330
       0.712
       1.116
       1.513
       1.885
       2.226
       2.525
       2.748
       2.839
       2.739
       2.410
       1.849
       1.096
       0.236
      -0.609
      -1.292
      -1.697
      -1.795
      -1.664
      -1.464
      -1.344
      -1.361
      -1.432
      -1.395
      -1.114
      -0.575
       0.112
       0.769
       1.230
       1.398
       1.266
       0.911
       0.456
       0.012
      -0.363
      -0.663
      -0.888
      -1.000
      -0.938
      -0.660
      -0.179
       0.447
       1.155
       1.916
       2.744
       3.661
       4.650
       5.629
       6.468
       7.026
       7.181
       6.857
       6.066
       4.933
       3.661
       2.448
       1.398
       0.488
      -0.380
      -1.296
      -2.257
      -3.148
      -3.809
      -4.140
      -4.163
      -3.985
      -3.710
      -3.380
      -2.986
      -2.515
      -1.980
      -1.420
      -0.882
      -0.410
      -0.043
       0.178
       0.217
       0.054
      -0.296
      -0.767
      -1.278
      -1.771
      -2.233
      -2.677
      -3.107
      -3.504
      -3.827
      -4.023
      -4.026
      -3.775
      -3.226
      -2.384
      -1.331
      -0.230
       0.727
       1.383
       1.682
       1.650
       1.360
       0.901
       0.384
      -0.049
      -0.264
      -0.199
       0.085
       0.422
       0.615
       0.537
       0.183
      -0.344
      -0.895
      -1.338
      -1.589
      -1.618
      -1.434
      -1.066
      -0.546
       0.088
       0.776
       1.423
       1.912
       2.154
       2.134
       1.921
       1.631
       1.390
       1.292
       1.386
       1.661
       2.045
       2.421
       2.650
       2.616
       2.267
       1.639
       0.845
       0.025
      -0.717
      -1.333
      -1.813
      -2.133
      -2.235
      -2.055
      -1.585
      -0.921
      -0.240
       0.266
       0.471
       0.367
       0.048
      -0.354
      -0.745
      -1.107
      -1.470
      -1.839
      -2.132
      -2.184
      -1.836
      -1.037
       0.086
       1.261
       2.174
       2.610
       2.532
       2.062
       1.373
       0.589
      -0.227
      -1.022
      -1.688
      -2.077
      -2.072
      -1.673
      -1.008
      -0.281
       0.333
       0.769
       1.077
       1.350
       1.629
       1.857
       1.938
       1.835
       1.609
       1.383
       1.246
