Origin Time       02/10/2012 18:37:39
Lat.              26.9 N	
Long.             92.8 E	
Depth (Km)         35.0
Magnitude         5.1
 Region           Sonitpur-Assam                                                   
 Above details taken from IMD 
   
Station Code      NAU
Station Lat.       26.349
Station Long.      92.690
Station Height(m)   72.0
Site Class        C   Vs30 between 200 m/sec to 375 m/sec *  
Record Time       02.10.2012 18:36:21.539
Sampling Rate     200. Hz
 Record Duration   85.530 Sec.
 Direction         Vert. (Up positive)
Max. Acceleration    -14.672 cm/sec**2
     
  * For reference see Site Classification link of website 
     
 Base Line Corrected and Low Pass Filtered (Cut Off at 35 Hz) Time History
 Acceleration data in cm/sec**2
    
[...]
       0.003
       0.004
       0.003
       0.002
       0.002
       0.004
       0.005
       0.003
      -0.003
      -0.012
      -0.019
      -0.020
      -0.015
      -0.009
      -0.003
       0.002
       0.006
       0.010
       0.011
       0.007
      -0.001
      -0.010
      -0.014
      -0.011
      -0.003
       0.006
       0.014
       0.020
       0.026
       0.029
       0.025
       0.014
       0.002
      -0.005
      -0.002
       0.005
       0.010
       0.009
       0.002
      -0.003
      -0.003
       0.006
       0.019
       0.029
       0.033
       0.029
       0.021
       0.010
       0.002
      -0.002
      -0.001
       0.002
       0.006
       0.010
       0.011
       0.009
       0.002
      -0.006
      -0.010
      -0.007
       0.002
       0.012
       0.016
       0.013
       0.007
       0.004
       0.007
       0.014
       0.021
       0.026
       0.023
       0.014
       0.004
      -0.003
      -0.004
       0.000
       0.005
       0.007
       0.006
       0.006
       0.008
       0.013
       0.019
       0.019
       0.014
       0.005
      -0.002
      -0.005
      -0.003
       0.001
       0.003
       0.003
       0.000
      -0.002
      -0.005
      -0.008
      -0.010
      -0.008
      -0.004
       0.000
       0.001
       0.002
       0.005
       0.011
       0.015
       0.014
       0.007
      -0.002
      -0.009
      -0.011
      -0.010
      -0.009
      -0.009
      -0.010
      -0.010
      -0.007
      -0.004
      -0.003
      -0.003
      -0.004
      -0.003
       0.003
       0.009
       0.013
       0.013
       0.010
       0.007
       0.004
       0.001
       0.001
       0.005
       0.015
       0.024
       0.026
       0.019
       0.005
      -0.008
      -0.012
      -0.007
       0.004
       0.013
       0.016
       0.012
       0.007
       0.004
       0.004
       0.006
       0.006
       0.005
       0.005
       0.007
       0.014
       0.023
       0.031
       0.032
       0.022
       0.005
      -0.009
      -0.014
      -0.010
       0.001
       0.013
       0.022
       0.023
       0.016
       0.003
      -0.008
      -0.008
       0.004
       0.021
       0.032
       0.028
       0.010
      -0.013
      -0.030
      -0.036
      -0.031
      -0.018
      -0.002
       0.013
       0.022
       0.024
       0.018
       0.008
      -0.004
      -0.015
      -0.019
      -0.017
      -0.008
       0.006
       0.019
       0.025
       0.022
       0.014
       0.004
      -0.003
      -0.004
       0.000
       0.007
       0.014
       0.017
       0.015
       0.006
      -0.005
      -0.009
      -0.006
       0.003
       0.009
       0.009
       0.002
      -0.007
      -0.012
      -0.012
      -0.006
       0.004
       0.015
       0.027
       0.033
       0.033
       0.027
       0.017
       0.006
      -0.004
      -0.012
      -0.015
      -0.013
      -0.007
       0.001
       0.010
       0.019
       0.023
       0.021
       0.012
       0.001
      -0.007
      -0.010
      -0.009
      -0.008
      -0.006
      -0.003
       0.003
       0.012
       0.021
       0.028
       0.028
       0.023
       0.015
       0.010
       0.010
       0.013
       0.013
       0.010
       0.006
       0.006
       0.011
       0.016
       0.019
       0.016
       0.009
      -0.001
      -0.010
      -0.014
      -0.010
       0.001
       0.017
       0.032
       0.039
       0.036
       0.025
       0.011
       0.001
      -0.003
      -0.002
       0.000
       0.002
       0.004
       0.009
       0.016
       0.023
       0.027
       0.026
       0.021
       0.016
       0.010
       0.004
      -0.003
      -0.011
      -0.016
      -0.015
      -0.008
       0.000
       0.008
       0.014
       0.017
       0.017
       0.013
       0.007
       0.002
       0.002
       0.007
       0.014
       0.019
       0.022
       0.023
       0.021
       0.018
       0.014
       0.009
       0.005
       0.002
      -0.001
      -0.004
      -0.005
      -0.001
       0.008
       0.019
       0.026
       0.025
       0.015
       0.001
      -0.010
      -0.013
      -0.009
      -0.001
       0.006
       0.008
       0.009
       0.010
       0.013
       0.017
       0.019
       0.016
       0.010
       0.006
       0.006
       0.010
       0.015
       0.018
       0.018
       0.015
       0.011
       0.007
       0.004
       0.003
       0.002
       0.003
       0.003
       0.002
       0.000
       0.000
       0.003
       0.009
       0.014
       0.017
       0.014
       0.006
      -0.003
      -0.008
      -0.009
      -0.008
      -0.005
       0.001
       0.011
       0.019
       0.023
       0.020
       0.014
       0.007
       0.005
       0.006
       0.008
       0.008
       0.006
       0.003
       0.004
       0.008
       0.012
       0.014
       0.014
       0.012
       0.011
       0.011
       0.014
       0.016
       0.017
       0.018
       0.016
       0.012
       0.005
      -0.001
      -0.002
       0.002
       0.010
       0.017
       0.021
       0.020
       0.015
       0.007
       0.001
      -0.001
      -0.001
       0.002
       0.006
       0.007
       0.007
       0.007
       0.010
       0.014
       0.017
       0.015
       0.007
      -0.001
      -0.003
       0.002
       0.012
       0.020
       0.023
       0.020
       0.013
       0.007
       0.005
       0.006
       0.011
       0.015
       0.016
       0.015
       0.011
       0.005
      -0.001
      -0.004
      -0.004
       0.000
       0.004
       0.008
       0.009
       0.007
       0.005
       0.006
       0.010
       0.015
       0.017
       0.018
       0.020
       0.022
       0.023
       0.019
       0.010
       0.001
      -0.006
      -0.011
      -0.015
      -0.017
      -0.015
      -0.009
      -0.001
       0.003
       0.002
       0.000
       0.001
       0.007
       0.011
       0.010
       0.005
       0.000
       0.000
       0.003
       0.005
       0.003
      -0.003
      -0.008
      -0.008
      -0.003
       0.003
       0.006
       0.003
      -0.002
      -0.006
      -0.004
       0.001
       0.008
       0.011
       0.013
       0.014
       0.015
       0.013
       0.009
       0.003
       0.000
       0.001
       0.006
       0.012
       0.015
       0.014
       0.010
       0.006
       0.004
       0.005
       0.009
       0.012
       0.011
       0.008
       0.005
       0.003
       0.002
       0.001
       0.000
       0.000
       0.002
       0.003
       0.004
       0.003
       0.001
      -0.002
      -0.003
      -0.001
       0.003
       0.006
       0.008
       0.010
       0.012
       0.017
       0.022
       0.025
       0.022
       0.014
       0.006
       0.002
       0.004
       0.009
       0.012
       0.009
      -0.001
      -0.012
      -0.021
      -0.025
      -0.023
      -0.018
      -0.010
      -0.003
       0.003
       0.005
       0.004
       0.003
       0.003
       0.006
       0.009
       0.011
       0.014
       0.016
       0.018
       0.017
       0.011
       0.003
      -0.004
      -0.005
      -0.002
       0.002
       0.003
       0.000
      -0.006
      -0.009
      -0.008
      -0.006
      -0.005
      -0.007
      -0.011
      -0.014
      -0.014
      -0.012
      -0.009
      -0.006
      -0.002
       0.003
       0.009
       0.014
       0.016
       0.015
       0.014
       0.014
       0.015
       0.014
       0.011
       0.007
       0.004
       0.003
       0.002
      -0.001
      -0.006
      -0.010
      -0.010
      -0.005
       0.001
       0.002
      -0.001
      -0.006
      -0.012
      -0.016
      -0.016
      -0.012
      -0.005
      -0.002
      -0.003
      -0.008
      -0.013
      -0.014
      -0.010
      -0.002
       0.006
       0.010
       0.009
       0.006
       0.002
      -0.002
      -0.004
      -0.005
      -0.003
       0.002
       0.005
       0.004
      -0.002
      -0.008
      -0.010
      -0.007
      -0.004
      -0.007
      -0.012
      -0.014
      -0.011
      -0.002
       0.006
       0.011
       0.012
       0.009
       0.005
       0.002
       0.000
       0.000
       0.002
       0.005
       0.009
       0.012
       0.014
       0.016
       0.018
       0.017
       0.015
       0.012
       0.008
       0.003
      -0.003
      -0.007
      -0.009
      -0.009
      -0.011
      -0.014
      -0.016
      -0.017
      -0.016
      -0.013
      -0.009
      -0.005
      -0.001
       0.000
       0.000
      -0.001
      -0.001
       0.003
       0.008
       0.012
       0.014
       0.013
       0.011
       0.008
       0.005
      -0.001
      -0.007
      -0.014
      -0.017
      -0.015
      -0.010
      -0.006
      -0.006
      -0.010
      -0.016
      -0.019
      -0.019
      -0.016
      -0.012
      -0.009
      -0.004
       0.003
       0.014
       0.025
       0.033
       0.034
       0.026
       0.012
      -0.002
      -0.012
      -0.016
      -0.016
      -0.013
      -0.008
      -0.002
       0.002
       0.003
       0.004
       0.007
       0.010
       0.013
       0.015
       0.013
       0.005
      -0.012
      -0.032
      -0.047
      -0.052
      -0.045
      -0.032
      -0.016
      -0.002
       0.011
       0.024
       0.036
       0.045
       0.048
       0.044
       0.032
       0.013
      -0.012
      -0.038
      -0.057
      -0.064
      -0.057
      -0.040
      -0.019
       0.001
       0.017
       0.030
       0.038
       0.040
       0.034
       0.019
      -0.003
      -0.023
      -0.035
      -0.039
      -0.037
      -0.029
      -0.017
       0.000
       0.019
       0.036
       0.046
       0.048
       0.042
       0.029
       0.012
      -0.007
      -0.025
      -0.041
      -0.048
      -0.044
      -0.031
      -0.015
       0.000
       0.012
       0.020
       0.025
       0.024
       0.017
       0.006
      -0.008
      -0.021
      -0.026
      -0.023
      -0.013
       0.000
       0.013
       0.024
       0.030
       0.030
       0.026
       0.016
       0.001
      -0.019
      -0.040
      -0.057
      -0.068
      -0.068
      -0.057
      -0.034
      -0.005
       0.025
       0.050
       0.065
       0.069
       0.061
       0.044
       0.019
      -0.010
      -0.037
      -0.057
      -0.066
      -0.063
      -0.050
      -0.030
      -0.007
       0.014
       0.032
       0.043
       0.045
       0.037
       0.023
       0.006
      -0.009
      -0.021
      -0.028
      -0.030
      -0.028
      -0.024
      -0.016
      -0.005
       0.007
       0.017
       0.023
       0.025
       0.024
       0.023
       0.020
       0.018
       0.017
       0.016
       0.011
       0.000
      -0.016
      -0.030
      -0.035
      -0.030
      -0.017
      -0.004
       0.005
       0.010
       0.015
       0.019
       0.021
       0.017
       0.009
      -0.002
      -0.010
      -0.013
      -0.010
      -0.003
       0.004
       0.006
       0.000
      -0.011
      -0.023
      -0.032
      -0.036
      -0.036
      -0.031
      -0.023
      -0.011
       0.000
       0.011
       0.018
       0.021
       0.019
       0.012
       0.002
      -0.006
      -0.011
      -0.014
      -0.014
      -0.012
      -0.007
       0.001
       0.008
       0.010
       0.007
       0.001
      -0.003
      -0.007
      -0.010
      -0.012
      -0.010
      -0.006
      -0.004
      -0.003
      -0.003
       0.000
       0.004
       0.007
       0.008
       0.007
       0.003
      -0.004
      -0.012
      -0.020
      -0.026
      -0.027
      -0.023
      -0.016
      -0.007
       0.001
       0.006
       0.009
       0.011
       0.013
       0.015
       0.014
       0.010
       0.001
      -0.009
      -0.016
      -0.017
      -0.012
      -0.002
       0.009
       0.017
       0.017
       0.011
      -0.001
      -0.018
      -0.036
      -0.054
      -0.073
      -0.095
      -0.124
      -0.164
      -0.217
      -0.280
      -0.351
      -0.429
      -0.514
      -0.609
      -0.710
      -0.812
      -0.911
      -1.006
      -1.092
      -1.163
      -1.209
      -1.223
      -1.202
      -1.145
      -1.052
      -0.924
      -0.765
      -0.584
      -0.389
      -0.184
       0.025
       0.231
       0.425
       0.591
       0.719
       0.800
       0.825
       0.790
       0.696
       0.558
       0.399
       0.243
       0.107
       0.001
      -0.067
      -0.092
      -0.065
       0.022
       0.181
       0.425
       0.761
       1.192
       1.707
       2.281
       2.875
       3.436
       3.896
       4.195
       4.292
       4.173
       3.839
       3.291
       2.523
       1.544
       0.395
      -0.839
      -2.050
      -3.126
      -3.968
      -4.494
      -4.649
      -4.428
      -3.900
      -3.192
      -2.433
      -1.689
      -0.955
      -0.190
       0.608
       1.376
       2.010
       2.425
       2.579
       2.475
       2.120
       1.509
       0.637
      -0.464
      -1.697
      -2.901
      -3.893
      -4.513
      -4.656
      -4.260
      -3.290
      -1.743
       0.326
       2.776
       5.379
       7.836
       9.810
      10.970
      11.049
       9.900
       7.537
       4.151
       0.087
      -4.198
      -8.213
     -11.511
     -13.741
     -14.672
     -14.202
     -12.357
      -9.294
      -5.318
      -0.867
       3.534
       7.369
      10.229
      11.866
      12.190
      11.248
       9.195
       6.294
       2.894
      -0.591
      -3.750
      -6.230
      -7.794
      -8.346
      -7.928
      -6.717
      -4.979
      -3.008
      -1.041
       0.782
       2.382
       3.669
       4.515
       4.819
       4.576
       3.886
       2.862
       1.579
       0.119
      -1.333
      -2.487
      -3.082
      -3.056
      -2.593
      -1.993
      -1.459
      -0.996
      -0.495
       0.090
       0.647
       1.007
       1.110
       1.070
       1.058
       1.128
       1.164
       0.984
       0.499
      -0.203
      -0.914
      -1.454
      -1.800
      -2.087
      -2.459
      -2.901
      -3.206
      -3.106
      -2.469
      -1.388
      -0.100
       1.196
       2.448
       3.703
       4.934
       5.944
       6.447
       6.266
       5.441
       4.163
       2.605
       0.842
      -1.075
      -2.983
      -4.591
      -5.626
      -6.003
      -5.845
      -5.323
      -4.507
      -3.371
      -1.939
      -0.376
       1.071
       2.198
       2.901
       3.134
       2.866
       2.104
       0.979
      -0.235
      -1.227
      -1.810
      -1.994
      -1.907
      -1.642
      -1.195
      -0.529
       0.348
       1.344
       2.309
       3.075
       3.501
       3.530
       3.228
       2.769
       2.335
       2.016
       1.760
       1.454
       1.045
       0.576
       0.093
      -0.455
      -1.187
      -2.143
      -3.178
      -4.020
      -4.436
      -4.353
      -3.809
      -2.834
      -1.403
       0.458
       2.540
       4.465
       5.867
       6.540
       6.423
       5.476
       3.648
       1.011
      -2.091
      -5.089
      -7.404
      -8.681
      -8.817
      -7.851
      -5.868
      -3.043
       0.258
       3.514
       6.228
       8.101
       9.054
       9.086
       8.165
       6.280
       3.607
       0.594
      -2.174
      -4.259
      -5.577
      -6.346
      -6.819
      -7.053
      -6.881
      -6.105
      -4.706
      -2.900
      -0.993
       0.816
       2.515
       4.165
       5.701
       6.862
       7.341
       6.999
       5.935
       4.348
       2.384
       0.150
      -2.146
      -4.154
      -5.528
      -6.124
      -6.025
      -5.387
      -4.298
      -2.795
      -0.995
       0.827
       2.334
       3.296
       3.696
       3.672
       3.365
       2.804
       1.951
       0.837
      -0.339
      -1.291
      -1.827
      -1.959
      -1.838
      -1.569
      -1.099
      -0.300
       0.812
       1.943
       2.629
       2.548
       1.762
       0.662
      -0.339
      -1.071
      -1.623
      -2.144
      -2.651
      -3.023
      -3.125
      -2.904
      -2.369
      -1.531
      -0.417
       0.834
       1.947
       2.651
       2.880
       2.817
       2.710
       2.639
       2.460
       1.956
       1.038
      -0.186
      -1.504
      -2.711
      -3.656
      -4.209
      -4.232
      -3.616
      -2.360
      -0.645
       1.195
       2.793
       3.897
       4.412
       4.298
       3.475
       1.864
      -0.427
      -2.965
      -5.089
      -6.187
      -5.967
      -4.528
      -2.265
       0.313
       2.738
       4.707
       6.092
       6.849
       6.879
       6.027
       4.227
       1.679
      -1.179
      -3.859
      -6.003
      -7.368
      -7.694
      -6.708
      -4.341
      -0.971
       2.599
       5.493
       7.165
       7.532
       6.807
       5.258
       3.103
       0.531
      -2.218
      -4.818
      -6.876
      -8.036
      -8.117
      -7.179
      -5.474
      -3.323
      -1.023
       1.219
       3.299
       5.156
       6.645
       7.471
       7.304
       6.034
       3.923
       1.505
      -0.696
      -2.384
      -3.508
      -4.137
      -4.322
      -4.071
      -3.400
      -2.415
      -1.309
      -0.266
       0.621
       1.334
       1.842
       2.056
       1.871
       1.282
       0.448
      -0.345
      -0.828
      -0.916
      -0.756
      -0.582
      -0.483
      -0.307
       0.180
       1.020
       1.950
       2.557
       2.551
       1.941
       1.000
       0.085
      -0.568
      -0.936
      -1.142
      -1.278
      -1.322
      -1.210
      -0.967
      -0.712
      -0.522
      -0.344
      -0.062
       0.361
       0.821
       1.126
       1.124
       0.790
       0.246
      -0.300
      -0.679
      -0.859
      -0.936
      -1.021
      -1.136
      -1.192
      -1.061
      -0.668
      -0.035
       0.725
       1.443
       1.942
       2.096
       1.888
       1.443
       0.995
       0.753
       0.738
       0.740
       0.469
      -0.207
      -1.163
      -2.129
      -2.865
      -3.245
      -3.230
      -2.828
      -2.112
      -1.216
      -0.291
       0.579
       1.392
       2.180
       2.918
       3.486
       3.726
       3.576
       3.136
       2.594
       2.075
       1.564
       0.970
       0.218
      -0.694
      -1.696
      -2.639
      -3.323
      -3.580
      -3.368
      -2.774
      -1.926
      -0.919
       0.165
       1.183
       1.935
       2.272
       2.214
       1.940
       1.627
       1.307
       0.855
       0.108
      -0.984
      -2.294
      -3.533
      -4.358
      -4.498
      -3.876
      -2.639
      -1.081
       0.502
       1.929
       3.129
       4.050
       4.581
       4.562
       3.888
       2.614
       0.961
      -0.778
      -2.369
      -3.678
      -4.606
      -5.007
      -4.727
      -3.726
      -2.156
      -0.305
       1.531
       3.103
       4.185
       4.575
       4.205
       3.234
       1.993
       0.777
      -0.297
      -1.241
