Origin Time       18/9/2011 12:40:47	 UTC
Lat.              27.6 N	
Long.             88.2 E	
Depth (Km)         10.0
Magnitude         6.8
 Region           India(Sikkim)-Nepar-Border                                       
 Above details taken from IMD 
    
Station Code      NAU
Station Lat.       26.349  N
Station Long.      92.690  E
Station Height(m)   72.0
Site Class        C   Vs30 between 200 m/sec to 375 m/sec *  
Record Time       18.09.2011 12:42:18.024 UTC
Sampling Rate     200. Hz
 Record Duration  183.600 Sec.
 Direction         N-S (N positive)
Max. Acceleration    -14.771 cm/sec**2
     
  * For reference see Site Classification link of website 
     
 Base Line Corrected and Low Pass Filtered (Cut Off at 35 Hz) Time History
 Acceleration data in cm/sec**2
    
[...]
      -2.381
      -1.989
      -1.591
      -1.170
      -0.710
      -0.200
       0.357
       0.957
       1.592
       2.255
       2.933
       3.612
       4.283
       4.941
       5.584
       6.206
       6.792
       7.317
       7.754
       8.080
       8.285
       8.371
       8.351
       8.245
       8.076
       7.861
       7.614
       7.342
       7.045
       6.720
       6.363
       5.968
       5.527
       5.030
       4.476
       3.871
       3.239
       2.610
       2.011
       1.453
       0.937
       0.457
       0.010
      -0.404
      -0.793
      -1.175
      -1.566
      -1.977
      -2.399
      -2.812
      -3.198
      -3.547
      -3.854
      -4.117
      -4.331
      -4.494
      -4.609
      -4.686
      -4.738
      -4.766
      -4.763
      -4.716
      -4.612
      -4.449
      -4.240
      -4.002
      -3.759
      -3.526
      -3.315
      -3.132
      -2.982
      -2.862
      -2.761
      -2.656
      -2.517
      -2.317
      -2.048
      -1.712
      -1.326
      -0.910
      -0.491
      -0.099
       0.233
       0.482
       0.641
       0.725
       0.758
       0.771
       0.787
       0.817
       0.858
       0.894
       0.904
       0.877
       0.815
       0.728
       0.630
       0.526
       0.417
       0.298
       0.161
      -0.005
      -0.216
      -0.487
      -0.826
      -1.229
      -1.675
      -2.132
      -2.566
      -2.952
      -3.276
      -3.538
      -3.747
      -3.913
      -4.044
      -4.140
      -4.200
      -4.222
      -4.206
      -4.157
      -4.085
      -4.000
      -3.911
      -3.825
      -3.742
      -3.659
      -3.571
      -3.469
      -3.351
      -3.218
      -3.077
      -2.928
      -2.771
      -2.599
      -2.413
      -2.221
      -2.037
      -1.873
      -1.729
      -1.591
      -1.439
      -1.256
      -1.032
      -0.769
      -0.473
      -0.152
       0.179
       0.500
       0.785
       1.014
       1.183
       1.302
       1.388
       1.449
       1.483
       1.484
       1.446
       1.373
       1.274
       1.162
       1.042
       0.910
       0.756
       0.563
       0.319
       0.021
      -0.323
      -0.695
      -1.071
      -1.422
      -1.721
      -1.950
      -2.101
      -2.177
      -2.188
      -2.136
      -2.020
      -1.840
      -1.605
      -1.330
      -1.022
      -0.685
      -0.316
       0.076
       0.477
       0.866
       1.225
       1.543
       1.822
       2.069
       2.297
       2.518
       2.744
       2.984
       3.242
       3.519
       3.810
       4.110
       4.424
       4.761
       5.132
       5.535
       5.950
       6.348
       6.705
       7.009
       7.259
       7.455
       7.595
       7.673
       7.694
       7.672
       7.627
       7.573
       7.517
       7.452
       7.369
       7.255
       7.107
       6.931
       6.739
       6.549
       6.378
       6.239
       6.138
       6.073
       6.037
       6.017
       5.998
       5.967
       5.909
       5.815
       5.677
       5.491
       5.254
       4.970
       4.649
       4.307
       3.962
       3.625
       3.295
       2.970
       2.649
       2.333
       2.020
       1.703
       1.374
       1.035
       0.693
       0.359
       0.039
      -0.273
      -0.588
      -0.914
      -1.252
      -1.598
      -1.950
      -2.308
      -2.675
      -3.044
      -3.399
      -3.716
      -3.971
      -4.155
      -4.263
      -4.302
      -4.281
      -4.211
      -4.109
      -3.986
      -3.855
      -3.727
      -3.613
      -3.524
      -3.470
      -3.452
      -3.453
      -3.448
      -3.405
      -3.306
      -3.152
      -2.965
      -2.780
      -2.620
      -2.493
      -2.389
      -2.292
      -2.186
      -2.064
      -1.923
      -1.766
      -1.595
      -1.411
      -1.211
      -0.998
      -0.785
      -0.595
      -0.457
      -0.391
      -0.404
      -0.486
      -0.618
      -0.778
      -0.941
      -1.089
      -1.210
      -1.294
      -1.335
      -1.324
      -1.253
      -1.127
      -0.964
      -0.790
      -0.629
      -0.490
      -0.367
      -0.252
      -0.138
      -0.030
       0.062
       0.128
       0.165
       0.173
       0.151
       0.098
       0.008
      -0.122
      -0.292
      -0.493
      -0.713
      -0.933
      -1.133
      -1.294
      -1.406
      -1.467
      -1.477
      -1.437
      -1.346
      -1.207
      -1.034
      -0.850
      -0.679
      -0.541
      -0.443
      -0.382
      -0.354
      -0.359
      -0.395
      -0.450
      -0.507
      -0.540
      -0.531
      -0.469
      -0.363
      -0.226
      -0.076
       0.080
       0.240
       0.403
       0.561
       0.698
       0.803
       0.879
       0.948
       1.040
       1.178
       1.378
       1.639
       1.948
       2.288
       2.644
       3.005
       3.366
       3.712
       4.025
       4.285
       4.485
       4.638
       4.762
       4.872
       4.964
       5.023
       5.029
       4.975
       4.867
       4.722
       4.562
       4.397
       4.233
       4.064
       3.885
       3.692
       3.494
       3.311
       3.155
       3.024
       2.899
       2.756
       2.585
       2.391
       2.180
       1.953
       1.701
       1.425
       1.137
       0.862
       0.618
       0.409
       0.231
       0.079
      -0.039
      -0.116
      -0.144
      -0.130
      -0.088
      -0.039
      -0.001
       0.018
       0.020
       0.016
       0.013
       0.015
       0.022
       0.042
       0.088
       0.175
       0.317
       0.522
       0.793
       1.130
       1.529
       1.979
       2.460
       2.945
       3.409
       3.831
       4.199
       4.509
       4.766
       4.972
       5.131
       5.248
       5.326
       5.365
       5.365
       5.317
       5.210
       5.037
       4.801
       4.514
       4.195
       3.855
       3.503
       3.140
       2.778
       2.437
       2.141
       1.905
       1.727
       1.590
       1.470
       1.352
       1.228
       1.097
       0.952
       0.782
       0.571
       0.309
      -0.007
      -0.367
      -0.757
      -1.156
      -1.541
      -1.883
      -2.156
      -2.343
      -2.450
      -2.498
      -2.520
      -2.538
      -2.565
      -2.604
      -2.657
      -2.731
      -2.834
      -2.961
      -3.094
      -3.202
      -3.253
      -3.221
      -3.096
      -2.883
      -2.598
      -2.263
      -1.898
      -1.518
      -1.137
      -0.765
      -0.410
      -0.085
       0.198
       0.428
       0.601
       0.720
       0.791
       0.819
       0.803
       0.738
       0.622
       0.460
       0.271
       0.081
      -0.086
      -0.218
      -0.314
      -0.380
      -0.417
      -0.420
      -0.387
      -0.324
      -0.246
      -0.173
      -0.113
      -0.063
      -0.010
       0.066
       0.183
       0.348
       0.563
       0.817
       1.093
       1.362
       1.591
       1.758
       1.868
       1.951
       2.054
       2.212
       2.434
       2.705
       2.998
       3.292
       3.577
       3.850
       4.112
       4.365
       4.609
       4.838
       5.040
       5.196
       5.287
       5.297
       5.224
       5.079
       4.883
       4.660
       4.432
       4.206
       3.977
       3.724
       3.427
       3.074
       2.668
       2.219
       1.739
       1.243
       0.742
       0.252
      -0.217
      -0.655
      -1.062
      -1.433
      -1.762
      -2.038
      -2.256
      -2.417
      -2.537
      -2.638
      -2.749
      -2.897
      -3.104
      -3.367
      -3.667
      -3.975
      -4.267
      -4.536
      -4.779
      -4.997
      -5.182
      -5.318
      -5.388
      -5.374
      -5.269
      -5.069
      -4.781
      -4.416
      -3.986
      -3.512
      -3.012
      -2.504
      -1.998
      -1.509
      -1.050
      -0.635
      -0.268
       0.059
       0.363
       0.658
       0.956
       1.270
       1.605
       1.960
       2.320
       2.663
       2.965
       3.205
       3.369
       3.451
       3.460
       3.412
       3.335
       3.259
       3.219
       3.241
       3.341
       3.529
       3.808
       4.171
       4.602
       5.079
       5.575
       6.072
       6.560
       7.034
       7.491
       7.930
       8.349
       8.743
       9.109
       9.443
       9.742
      10.008
      10.242
      10.442
      10.602
      10.716
      10.774
      10.766
      10.682
      10.522
      10.299
      10.028
       9.723
       9.388
       9.021
       8.622
       8.198
       7.763
       7.332
       6.920
       6.540
       6.206
       5.925
       5.700
       5.526
       5.395
       5.296
       5.219
       5.153
       5.091
       5.026
       4.945
       4.829
       4.659
       4.421
       4.120
       3.778
       3.429
       3.106
       2.833
       2.616
       2.455
       2.341
       2.259
       2.197
       2.138
       2.074
       2.001
       1.930
       1.876
       1.854
       1.869
       1.910
       1.962
       2.003
       2.021
       2.008
       1.958
       1.867
       1.726
       1.530
       1.281
       0.987
       0.663
       0.329
       0.009
      -0.280
      -0.525
      -0.725
      -0.890
      -1.038
      -1.184
      -1.341
      -1.512
      -1.703
      -1.925
      -2.191
      -2.505
      -2.853
      -3.208
      -3.541
      -3.826
      -4.045
      -4.185
      -4.241
      -4.232
      -4.188
      -4.148
      -4.132
      -4.136
      -4.140
      -4.125
      -4.086
      -4.036
      -3.990
      -3.953
      -3.917
      -3.869
      -3.805
      -3.732
      -3.663
      -3.614
      -3.590
      -3.588
      -3.595
      -3.596
      -3.580
      -3.544
      -3.489
      -3.420
      -3.340
      -3.247
      -3.136
      -3.003
      -2.847
      -2.666
      -2.456
      -2.219
      -1.959
      -1.690
      -1.425
      -1.170
      -0.929
      -0.704
      -0.499
      -0.318
      -0.159
      -0.012
       0.141
       0.313
       0.512
       0.731
       0.960
       1.191
       1.419
       1.646
       1.868
       2.083
       2.286
       2.475
       2.653
       2.826
       3.008
       3.222
       3.490
       3.823
       4.215
       4.644
       5.088
       5.527
       5.947
       6.339
       6.694
       7.011
       7.292
       7.533
       7.735
       7.895
       8.018
       8.108
       8.168
       8.191
       8.161
       8.056
       7.859
       7.569
       7.204
       6.796
       6.372
       5.949
       5.536
       5.132
       4.737
       4.350
       3.969
       3.594
       3.227
       2.870
       2.520
       2.173
       1.829
       1.492
       1.164
       0.842
       0.515
       0.171
      -0.196
      -0.583
      -0.979
      -1.378
      -1.783
      -2.213
      -2.690
      -3.234
      -3.843
      -4.502
      -5.182
      -5.857
      -6.501
      -7.095
      -7.621
      -8.070
      -8.440
      -8.738
      -8.985
      -9.200
      -9.400
      -9.589
      -9.764
      -9.921
     -10.057
     -10.168
     -10.244
     -10.276
     -10.259
     -10.197
     -10.104
      -9.993
      -9.880
      -9.775
      -9.692
      -9.638
      -9.611
      -9.602
      -9.594
      -9.574
      -9.538
      -9.487
      -9.424
      -9.344
      -9.242
      -9.112
      -8.952
      -8.766
      -8.557
      -8.328
      -8.082
      -7.822
      -7.558
      -7.298
      -7.049
      -6.809
      -6.576
      -6.344
      -6.111
      -5.874
      -5.628
      -5.361
      -5.064
      -4.725
      -4.341
      -3.915
      -3.451
      -2.956
      -2.433
      -1.889
      -1.339
      -0.801
      -0.288
       0.197
       0.660
       1.113
       1.561
       2.001
       2.423
       2.819
       3.191
       3.545
       3.890
       4.238
       4.593
       4.951
       5.299
       5.611
       5.869
       6.061
       6.186
       6.257
       6.288
       6.300
       6.314
       6.352
       6.430
       6.552
       6.706
       6.872
       7.023
       7.138
       7.206
       7.228
       7.210
       7.162
       7.093
       7.005
       6.897
       6.774
       6.650
       6.544
       6.465
       6.401
       6.322
       6.190
       5.991
       5.732
       5.440
       5.144
       4.866
       4.609
       4.369
       4.140
       3.935
       3.781
       3.688
       3.628
       3.545
       3.407
       3.230
       3.065
       2.952
       2.900
       2.902
       2.949
       3.035
       3.154
       3.287
       3.401
       3.464
       3.457
       3.375
       3.225
       3.017
       2.758
       2.461
       2.145
       1.837
       1.559
       1.320
       1.121
       0.959
       0.830
       0.723
       0.621
       0.499
       0.332
       0.106
      -0.179
      -0.507
      -0.858
      -1.218
      -1.580
      -1.934
      -2.267
      -2.560
      -2.801
      -2.984
      -3.115
      -3.202
      -3.256
      -3.285
      -3.297
      -3.303
      -3.324
      -3.385
      -3.503
      -3.685
      -3.923
      -4.209
      -4.540
      -4.912
      -5.314
      -5.728
      -6.141
      -6.554
      -6.980
      -7.428
      -7.901
      -8.401
      -8.930
      -9.488
     -10.068
     -10.659
     -11.249
     -11.821
     -12.359
     -12.851
     -13.290
     -13.673
     -13.996
     -14.254
     -14.449
     -14.588
     -14.684
     -14.745
     -14.771
     -14.758
     -14.703
     -14.596
     -14.429
     -14.196
     -13.898
     -13.536
     -13.106
     -12.593
     -11.990
     -11.302
     -10.550
      -9.750
      -8.914
      -8.049
      -7.165
      -6.283
      -5.423
      -4.599
      -3.820
      -3.095
      -2.438
      -1.865
      -1.385
      -0.999
      -0.699
      -0.477
      -0.326
      -0.240
      -0.205
      -0.203
      -0.212
      -0.220
      -0.226
      -0.234
      -0.242
      -0.239
      -0.213
      -0.152
      -0.052
       0.087
       0.257
       0.447
       0.635
       0.795
       0.898
       0.925
       0.871
       0.746
       0.565
       0.349
       0.115
      -0.127
      -0.376
      -0.634
      -0.900
      -1.169
      -1.424
      -1.645
      -1.813
      -1.919
      -1.964
      -1.953
      -1.886
      -1.758
      -1.562
      -1.296
      -0.965
      -0.582
      -0.160
       0.285
       0.742
       1.196
       1.637
       2.060
       2.462
       2.847
       3.210
       3.546
       3.852
       4.130
       4.391
       4.643
       4.891
       5.129
       5.353
       5.557
       5.737
       5.890
       6.009
       6.083
       6.109
       6.083
       6.005
       5.873
       5.682
       5.429
       5.115
       4.751
       4.356
       3.954
       3.570
       3.225
       2.934
       2.704
       2.530
       2.399
       2.285
       2.169
       2.039
       1.893
       1.733
       1.551
       1.327
       1.052
       0.732
       0.399
       0.089
      -0.167
      -0.360
      -0.499
      -0.597
      -0.665
      -0.711
      -0.741
      -0.771
      -0.821
      -0.911
      -1.051
      -1.241
      -1.465
      -1.702
      -1.934
      -2.152
      -2.350
      -2.523
      -2.664
      -2.768
      -2.830
      -2.853
      -2.845
      -2.818
      -2.776
      -2.726
      -2.669
      -2.614
      -2.561
      -2.505
      -2.429
      -2.319
      -2.164
      -1.966
      -1.732
      -1.466
      -1.170
      -0.845
      -0.495
      -0.126
       0.252
       0.633
       1.012
       1.385
       1.742
       2.074
       2.365
       2.611
       2.811
       2.972
       3.102
       3.205
       3.283
       3.344
       3.402
       3.472
       3.556
       3.643
       3.714
       3.754
       3.769
       3.776
       3.789
       3.811
       3.827
       3.814
       3.754
       3.646
       3.506
       3.356
       3.216
       3.095
       2.989
       2.889
       2.790
       2.692
       2.600
       2.523
       2.465
       2.420
       2.380
       2.333
       2.271
       2.194
       2.100
       1.987
       1.847
       1.675
       1.475
       1.256
       1.030
       0.805
       0.580
       0.353
       0.125
      -0.101
      -0.313
      -0.501
      -0.655
      -0.774
      -0.867
      -0.954
      -1.046
      -1.144
      -1.234
      -1.291
      -1.296
      -1.245
      -1.145
      -1.013
      -0.867
      -0.724
      -0.599
      -0.503
      -0.445
      -0.427
      -0.440
      -0.478
      -0.531
      -0.595
      -0.666
      -0.737
      -0.802
      -0.856
      -0.902
      -0.943
      -0.986
      -1.030
      -1.074
      -1.117
      -1.158
      -1.202
      -1.259
      -1.344
      -1.471
      -1.649
      -1.872
      -2.130
      -2.407
      -2.693
      -2.980
      -3.259
      -3.516
      -3.733
      -3.898
      -4.009
      -4.081
      -4.135
      -4.186
      -4.236
      -4.279
      -4.307
      -4.324
      -4.343
      -4.374
      -4.417
      -4.458
      -4.476
      -4.454
      -4.384
      -4.273
      -4.134
      -3.977
      -3.805
      -3.620
      -3.423
      -3.224
      -3.040
      -2.888
      -2.778
      -2.711
      -2.674
      -2.649
      -2.614
      -2.559
      -2.483
      -2.391
      -2.295
      -2.200
      -2.111
      -2.030
      -1.956
      -1.889
      -1.826
      -1.771
      -1.729
      -1.709
      -1.718
      -1.756
      -1.818
      -1.902
      -2.009
      -2.136
      -2.276
      -2.410
      -2.520
      -2.599
      -2.653
      -2.697
      -2.738
      -2.777
      -2.809
      -2.830
      -2.840
      -2.839
      -2.824
      -2.792
      -2.745
      -2.685
      -2.619
      -2.551
      -2.482
      -2.406
      -2.313
      -2.192
      -2.032
      -1.830
      -1.588
      -1.312
      -1.010
      -0.700
      -0.404
      -0.146
       0.057
       0.205
       0.306
       0.362
       0.367
       0.312
       0.194
       0.025
      -0.176
      -0.398
      -0.638
      -0.899
      -1.188
      -1.510
      -1.872
      -2.272
      -2.694
      -3.109
      -3.492
      -3.829
      -4.113
      -4.344
      -4.517
      -4.625
      -4.658
      -4.604
      -4.460
      -4.232
      -3.937
      -3.596
      -3.224
      -2.825
      -2.395
      -1.925
      -1.414
      -0.874
      -0.326
       0.206
       0.713
       1.198
       1.671
       2.130
       2.563
       2.950
       3.282
       3.561
       3.799
       4.005
       4.184
       4.336
       4.462
       4.559
       4.628
       4.667
       4.685
       4.694
       4.715
       4.756
       4.815
       4.879
       4.932
       4.962
       4.963
       4.938
       4.887
       4.813
       4.718
       4.611
       4.507
       4.427
       4.391
       4.410
       4.482
       4.596
       4.738
       4.897
       5.062
       5.218
       5.354
       5.462
       5.539
       5.582
       5.588
       5.551
       5.467
       5.334
       5.158
       4.945
       4.705
       4.444
       4.163
       3.866
       3.561
       3.257
       2.960
       2.665
       2.365
       2.052
       1.726
       1.400
       1.095
       0.826
