Origin Time       4/2/2011 13:53:39	 
Lat.              24.8 N	
Long.             94.6 E	
Depth (Km)         30.0
Magnitude         6.4
 Region           Myanmar-India-Border                                             
 Above details taken from IMD 
     
Station Code      NAU
Station Lat.       26.349  N
Station Long.      92.690  E
Station Height(m)   72.0
Site Class        C   Vs30 between 200 m/sec to 375 m/sec *  
Record Time       04.02.2011 13:53:55.784
Sampling Rate     200. Hz
 Record Duration  135.445 Sec.
 Direction         E-W (E positive)
Max. Acceleration     21.615 cm/sec**2
     
  * For reference see Site Classification link of website 
     
 Base Line Corrected and Low Pass Filtered (Cut Off at 35 Hz) Time History
 Acceleration data in cm/sec**2
    
[...]
      -0.643
      -1.025
      -1.381
      -1.657
      -1.827
      -1.860
      -1.712
      -1.364
      -0.872
      -0.372
      -0.014
       0.116
       0.044
      -0.108
      -0.184
      -0.072
       0.237
       0.647
       1.011
       1.213
       1.218
       1.056
       0.784
       0.465
       0.168
      -0.027
      -0.053
       0.103
       0.395
       0.742
       1.063
       1.307
       1.448
       1.471
       1.355
       1.090
       0.698
       0.238
      -0.215
      -0.597
      -0.878
      -1.055
      -1.143
      -1.159
      -1.101
      -0.956
      -0.730
      -0.474
      -0.266
      -0.137
      -0.023
       0.207
       0.638
       1.222
       1.770
       2.060
       1.972
       1.569
       1.033
       0.528
       0.092
      -0.345
      -0.843
      -1.350
      -1.703
      -1.744
      -1.439
      -0.922
      -0.421
      -0.122
      -0.068
      -0.156
      -0.223
      -0.174
      -0.028
       0.138
       0.290
       0.471
       0.748
       1.137
       1.552
       1.840
       1.858
       1.570
       1.071
       0.534
       0.116
      -0.113
      -0.170
      -0.112
       0.030
       0.250
       0.541
       0.863
       1.147
       1.316
       1.310
       1.102
       0.719
       0.247
      -0.187
      -0.462
      -0.532
      -0.461
      -0.386
      -0.411
      -0.516
      -0.575
      -0.459
      -0.161
       0.172
       0.338
       0.221
      -0.122
      -0.512
      -0.786
      -0.889
      -0.872
      -0.823
      -0.791
      -0.764
      -0.683
      -0.494
      -0.193
       0.158
       0.445
       0.558
       0.450
       0.168
      -0.168
      -0.434
      -0.564
      -0.569
      -0.489
      -0.334
      -0.084
       0.264
       0.626
       0.841
       0.759
       0.369
      -0.155
      -0.551
      -0.635
      -0.407
      -0.025
       0.319
       0.519
       0.576
       0.539
       0.426
       0.206
      -0.153
      -0.614
      -1.056
      -1.328
      -1.336
      -1.094
      -0.712
      -0.317
       0.014
       0.248
       0.355
       0.287
       0.031
      -0.328
      -0.596
      -0.574
      -0.192
       0.411
       0.956
       1.190
       1.026
       0.565
       0.006
      -0.476
      -0.791
      -0.911
      -0.837
      -0.588
      -0.210
       0.232
       0.668
       1.044
       1.323
       1.473
       1.454
       1.223
       0.769
       0.159
      -0.447
      -0.852
      -0.927
      -0.701
      -0.356
      -0.107
      -0.062
      -0.171
      -0.293
      -0.312
      -0.202
      -0.021
       0.150
       0.275
       0.378
       0.509
       0.684
       0.855
       0.954
       0.931
       0.779
       0.515
       0.167
      -0.215
      -0.544
      -0.713
      -0.651
      -0.374
       0.004
       0.313
       0.412
       0.259
      -0.060
      -0.384
      -0.593
      -0.684
      -0.747
      -0.863
      -1.018
      -1.113
      -1.057
      -0.841
      -0.545
      -0.276
      -0.113
      -0.079
      -0.151
      -0.285
      -0.454
      -0.662
      -0.903
      -1.124
      -1.236
      -1.180
      -0.973
      -0.685
      -0.380
      -0.077
       0.240
       0.583
       0.938
       1.269
       1.535
       1.681
       1.639
       1.341
       0.759
      -0.036
      -0.852
      -1.435
      -1.605
      -1.368
      -0.902
      -0.428
      -0.080
       0.125
       0.242
       0.337
       0.454
       0.596
       0.704
       0.675
       0.432
       0.010
      -0.424
      -0.669
      -0.640
      -0.429
      -0.222
      -0.130
      -0.094
       0.041
       0.358
       0.761
       1.046
       1.057
       0.800
       0.421
       0.095
      -0.078
      -0.090
       0.023
       0.233
       0.525
       0.871
       1.217
       1.497
       1.649
       1.631
       1.443
       1.138
       0.800
       0.511
       0.314
       0.207
       0.144
       0.057
      -0.098
      -0.291
      -0.425
      -0.416
      -0.266
      -0.069
       0.057
       0.056
      -0.063
      -0.265
      -0.521
      -0.791
      -0.979
      -0.953
      -0.626
      -0.050
       0.579
       0.998
       1.018
       0.613
      -0.058
      -0.733
      -1.165
      -1.226
      -0.964
      -0.578
      -0.320
      -0.339
      -0.576
      -0.803
      -0.800
      -0.530
      -0.167
       0.050
      -0.007
      -0.282
      -0.606
      -0.810
      -0.798
      -0.568
      -0.203
       0.145
       0.316
       0.227
      -0.071
      -0.428
      -0.693
      -0.806
      -0.804
      -0.748
      -0.660
      -0.529
      -0.364
      -0.216
      -0.135
      -0.121
      -0.112
      -0.043
       0.102
       0.264
       0.374
       0.423
       0.497
       0.723
       1.155
       1.685
       2.073
       2.082
       1.643
       0.904
       0.157
      -0.334
      -0.460
      -0.286
       0.034
       0.378
       0.709
       1.038
       1.343
       1.535
       1.521
       1.296
       0.984
       0.760
       0.709
       0.743
       0.666
       0.341
      -0.197
      -0.782
      -1.250
      -1.522
      -1.582
      -1.404
      -0.957
      -0.303
       0.356
       0.759
       0.780
       0.555
       0.384
       0.493
       0.855
       1.229
       1.378
       1.249
       0.972
       0.697
       0.445
       0.127
      -0.327
      -0.856
      -1.280
      -1.435
      -1.295
      -1.006
      -0.792
      -0.815
      -1.073
      -1.406
      -1.602
      -1.514
      -1.125
      -0.521
       0.163
       0.783
       1.221
       1.407
       1.356
       1.152
       0.900
       0.660
       0.431
       0.177
      -0.118
      -0.415
      -0.647
      -0.766
      -0.780
      -0.735
      -0.684
      -0.663
      -0.679
      -0.702
      -0.685
      -0.591
      -0.421
      -0.223
      -0.068
      -0.011
      -0.061
      -0.200
      -0.409
      -0.662
      -0.911
      -1.097
      -1.167
      -1.066
      -0.736
      -0.144
       0.638
       1.415
       1.934
       2.020
       1.684
       1.108
       0.516
       0.025
      -0.398
      -0.835
      -1.297
      -1.681
      -1.851
      -1.757
      -1.483
      -1.179
      -0.945
      -0.787
      -0.659
      -0.516
      -0.329
      -0.050
       0.377
       0.949
       1.528
       1.867
       1.741
       1.114
       0.181
      -0.746
      -1.415
      -1.728
      -1.721
      -1.488
      -1.110
      -0.628
      -0.053
       0.595
       1.248
       1.760
       1.960
       1.750
       1.203
       0.538
       0.013
      -0.226
      -0.203
      -0.066
       0.023
       0.006
      -0.035
       0.055
       0.365
       0.827
       1.247
       1.441
       1.351
       1.066
       0.736
       0.460
       0.243
       0.041
      -0.160
      -0.327
      -0.428
      -0.496
      -0.604
      -0.788
      -0.993
      -1.117
      -1.092
      -0.951
      -0.795
      -0.722
      -0.762
      -0.874
      -0.969
      -0.956
      -0.781
      -0.453
      -0.047
       0.320
       0.538
       0.545
       0.366
       0.110
      -0.074
      -0.077
       0.104
       0.362
       0.557
       0.619
       0.624
       0.729
       1.004
       1.317
       1.408
       1.090
       0.411
      -0.364
      -0.918
      -1.069
      -0.863
      -0.520
      -0.301
      -0.388
      -0.812
      -1.445
      -2.053
      -2.413
      -2.419
      -2.111
      -1.639
      -1.175
      -0.847
      -0.686
      -0.640
      -0.631
      -0.635
      -0.687
      -0.857
      -1.176
      -1.580
      -1.891
      -1.891
      -1.471
      -0.724
       0.100
       0.743
       1.082
       1.159
       1.134
       1.177
       1.384
       1.723
       2.043
       2.183
       2.094
       1.903
       1.823
       1.971
       2.252
       2.401
       2.170
       1.510
       0.608
      -0.246
      -0.882
      -1.357
      -1.869
      -2.544
      -3.321
      -4.023
      -4.534
      -4.860
      -5.041
      -5.032
      -4.708
      -4.013
      -3.089
      -2.242
      -1.742
      -1.593
      -1.496
      -1.030
       0.046
       1.614
       3.285
       4.660
       5.534
       5.889
       5.761
       5.164
       4.159
       2.951
       1.850
       1.097
       0.737
       0.631
       0.588
       0.503
       0.390
       0.331
       0.388
       0.565
       0.824
       1.117
       1.380
       1.503
       1.339
       0.804
      -0.005
      -0.818
      -1.360
      -1.555
      -1.559
      -1.594
      -1.734
      -1.856
      -1.760
      -1.347
      -0.688
       0.025
       0.595
       0.918
       1.001
       0.922
       0.778
       0.648
       0.576
       0.556
       0.529
       0.418
       0.178
      -0.172
      -0.557
      -0.890
      -1.118
      -1.235
      -1.256
      -1.185
      -1.007
      -0.710
      -0.303
       0.156
       0.545
       0.697
       0.494
      -0.021
      -0.622
      -1.006
      -0.980
      -0.535
       0.193
       1.030
       1.803
       2.305
       2.309
       1.682
       0.538
      -0.730
      -1.615
      -1.734
      -1.006
       0.329
       1.824
       2.986
       3.438
       3.044
       1.958
       0.563
      -0.706
      -1.555
      -1.917
      -1.877
      -1.495
      -0.717
       0.534
       2.142
       3.679
       4.533
       4.240
       2.796
       0.706
      -1.279
      -2.578
      -3.063
      -2.999
      -2.705
      -2.212
      -1.236
       0.514
       2.941
       5.455
       7.250
       7.763
       6.960
       5.249
       3.191
       1.254
      -0.240
      -1.077
      -1.161
      -0.582
       0.383
       1.399
       2.247
       2.891
       3.378
       3.719
       3.897
       3.957
       4.036
       4.239
       4.504
       4.603
       4.296
       3.480
       2.204
       0.603
      -1.147
      -2.780
      -3.929
      -4.239
      -3.592
      -2.229
      -0.673
       0.520
       0.983
       0.627
      -0.432
      -1.981
      -3.758
      -5.426
      -6.576
      -6.849
      -6.120
      -4.623
      -2.883
      -1.455
      -0.639
      -0.365
      -0.308
      -0.123
       0.355
       1.046
       1.682
       1.942
       1.595
       0.558
      -1.116
      -3.282
      -5.684
      -7.933
      -9.585
     -10.328
     -10.143
      -9.272
      -8.037
      -6.662
      -5.249
      -3.882
      -2.700
      -1.855
      -1.396
      -1.216
      -1.114
      -0.898
      -0.414
       0.507
       2.040
       4.239
       6.852
       9.325
      11.041
      11.655
      11.243
      10.161
       8.752
       7.112
       5.101
       2.562
      -0.383
      -3.193
      -5.076
      -5.412
      -4.159
      -1.947
       0.224
       1.469
       1.394
       0.190
      -1.541
      -3.111
      -4.059
      -4.266
      -3.820
      -2.748
      -0.918
       1.771
       5.059
       8.225
      10.370
      10.878
       9.712
       7.378
       4.602
       2.008
      -0.020
      -1.301
      -1.785
      -1.575
      -0.930
      -0.170
       0.487
       1.018
       1.516
       2.016
       2.413
       2.584
       2.580
       2.688
       3.232
       4.248
       5.278
       5.510
       4.203
       1.139
      -3.213
      -7.904
     -11.953
     -14.742
     -16.136
     -16.307
     -15.449
     -13.625
     -10.846
      -7.281
      -3.384
       0.229
       3.098
       5.186
       6.824
       8.358
       9.753
      10.485
       9.854
       7.487
       3.677
      -0.697
      -4.639
      -7.546
      -9.432
     -10.709
     -11.749
     -12.555
     -12.821
     -12.290
     -11.063
      -9.563
      -8.174
      -6.875
      -5.219
      -2.705
       0.704
       4.354
       7.185
       8.383
       7.942
       6.714
       5.862
       6.073
       7.090
       7.908
       7.512
       5.607
       2.826
       0.301
      -1.004
      -0.730
       0.876
       3.231
       5.693
       7.711
       8.954
       9.462
       9.675
      10.155
      11.058
      11.788
      11.203
       8.377
       3.414
      -2.333
      -6.889
      -8.779
      -7.886
      -5.422
      -3.081
      -2.011
      -2.332
      -3.378
      -4.304
      -4.594
      -4.191
      -3.340
      -2.359
      -1.491
      -0.848
      -0.419
      -0.138
       0.017
      -0.065
      -0.595
      -1.705
      -3.242
      -4.726
      -5.590
      -5.548
      -4.761
      -3.689
      -2.735
      -1.995
      -1.296
      -0.477
       0.343
       0.779
       0.506
      -0.358
      -1.161
      -1.050
       0.476
       3.235
       6.491
       9.441
      11.604
      12.831
      13.018
      11.928
       9.342
       5.416
       0.810
      -3.565
      -6.949
      -8.898
      -9.158
      -7.571
      -4.258
       0.117
       4.405
       7.417
       8.440
       7.449
       4.967
       1.743
      -1.556
      -4.537
      -7.088
      -9.193
     -10.709
     -11.361
     -11.042
     -10.114
      -9.317
      -9.237
      -9.759
     -10.014
      -8.925
      -5.948
      -1.498
       3.217
       6.796
       8.302
       7.588
       5.184
       1.964
      -1.171
      -3.483
      -4.521
      -4.130
      -2.323
       0.873
       5.394
      10.866
      16.334
      20.362
      21.615
      19.612
      15.089
       9.649
       4.900
       1.705
       0.001
      -0.774
      -1.120
      -1.231
      -1.156
      -1.058
      -1.239
      -1.899
      -2.909
      -3.859
      -4.355
      -4.318
      -4.012
      -3.790
      -3.817
      -4.024
      -4.352
      -4.982
      -6.221
      -8.116
     -10.220
     -11.787
     -12.246
     -11.500
      -9.793
      -7.316
      -4.016
       0.121
       4.528
       7.841
       8.439
       5.511
      -0.128
      -6.204
     -10.161
     -10.574
      -7.854
      -3.825
      -0.532
       0.897
       0.626
      -0.402
      -1.322
      -1.826
      -1.981
      -1.781
      -1.000
       0.459
       2.147
       3.124
       2.578
       0.480
      -2.324
      -4.707
      -5.981
      -6.154
      -5.575
      -4.411
      -2.475
       0.442
       4.077
       7.518
       9.574
       9.456
       7.257
       3.883
       0.522
      -1.939
      -3.210
      -3.536
      -3.444
      -3.481
      -3.931
      -4.564
      -4.589
      -3.072
       0.352
       4.993
       9.300
      11.699
      11.488
       9.172
       6.094
       3.706
       2.970
       4.043
       6.224
       8.156
       8.366
       6.033
       1.554
      -3.533
      -7.327
      -8.569
      -7.225
      -4.343
      -1.405
       0.400
       0.644
      -0.296
      -1.563
      -2.340
      -2.250
      -1.442
      -0.386
       0.452
       0.871
       1.042
       1.411
       2.428
       4.204
       6.319
       7.955
       8.309
       6.988
       4.168
       0.502
      -3.095
      -5.680
      -6.540
      -5.393
      -2.442
       1.734
       6.346
      10.535
      13.469
      14.447
      13.076
       9.444
       4.159
      -1.845
      -7.619
     -12.434
     -15.839
     -17.589
     -17.628
     -16.139
     -13.600
     -10.681
      -7.995
      -5.841
      -4.140
      -2.623
      -1.107
       0.342
       1.501
       2.228
       2.664
       3.189
       4.141
       5.481
       6.657
       6.813
       5.227
       1.734
      -3.075
      -8.015
     -11.754
     -13.324
     -12.405
      -9.292
      -4.699
       0.414
       4.963
       7.955
       8.856
       7.910
       6.081
       4.558
       4.134
       4.895
       6.395
       8.061
       9.513
      10.655
      11.570
      12.338
      12.883
      12.941
      12.172
      10.310
       7.301
       3.410
      -0.682
      -3.937
      -5.298
      -4.219
      -1.041
       3.102
       6.809
       9.012
       9.285
       7.808
       5.177
       2.224
      -0.220
      -1.637
      -2.057
      -2.016
      -2.231
      -3.168
      -4.760
      -6.428
      -7.473
      -7.610
      -7.241
      -7.149
      -7.776
      -8.714
      -8.914
      -7.511
      -4.595
      -1.256
       1.126
       1.779
       0.919
      -0.586
      -1.895
      -2.624
      -2.759
      -2.306
      -1.116
       0.920
       3.560
       6.156
       7.960
       8.549
       8.010
       6.790
       5.365
       4.001
       2.703
       1.305
      -0.359
      -2.242
      -3.964
      -4.940
      -4.750
      -3.479
      -1.758
      -0.457
      -0.253
      -1.321
      -3.317
      -5.578
      -7.399
      -8.258
      -7.938
      -6.566
      -4.578
      -2.623
      -1.415
      -1.531
      -3.173
      -5.990
      -9.144
     -11.637
     -12.746
     -12.308
     -10.706
      -8.600
      -6.540
      -4.686
      -2.785
      -0.437
       2.542
       5.942
       9.332
      12.393
      15.034
      17.149
      18.323
      17.896
      15.423
      11.151
       6.084
       1.554
      -1.399
      -2.458
      -2.074
      -1.135
      -0.458
      -0.339
      -0.423
       0.008
       1.458
       3.736
       5.958
       7.076
       6.590
       4.906
       3.077
       2.093
       2.240
       2.923
       3.038
       1.604
      -1.681
      -6.242
     -10.824
     -13.975
     -14.621
     -12.510
      -8.351
      -3.551
       0.384
       2.505
       2.758
       1.786
       0.404
      -0.881
      -1.998
      -3.134
      -4.450
      -5.890
      -7.160
      -7.839
      -7.565
      -6.225
      -4.053
      -1.567
       0.631
       2.065
       2.490
       1.907
       0.515
      -1.342
      -3.270
      -4.941
      -6.187
      -6.983
      -7.343
      -7.199
      -6.415
      -4.919
      -2.863
      -0.643
       1.279
       2.633
       3.502
       4.232
       5.123
       6.116
       6.712
       6.232
       4.281
       1.181
      -1.971
      -3.758
      -3.276
      -0.778
       2.360
       4.469
       4.670
       3.433
       2.135
       1.982
       3.147
       4.779
       5.757
       5.504
       4.247
       2.676
       1.389
       0.567
       0.018
      -0.546
      -1.230
      -1.839
      -2.008
      -1.458
      -0.183
       1.565
       3.464
       5.306
       7.068
       8.811
      10.517
      11.990
      12.876
      12.780
      11.421
       8.802
       5.343
       1.865
      -0.667
      -1.578
      -0.846
       0.868
       2.594
       3.554
       3.433
       2.310
       0.437
      -1.887
      -4.323
      -6.469
      -7.941
      -8.541
      -8.432
      -8.164
      -8.404
      -9.484
     -11.098
     -12.428
     -12.596
     -11.128
      -8.131
      -4.175
      -0.032
       3.597
       6.306
       8.071
       9.102
       9.556
       9.324
       8.098
       5.667
       2.182
      -1.807
      -5.566
      -8.460
     -10.103
     -10.369
      -9.369
      -7.454
      -5.141
      -2.913
      -1.018
       0.550
       1.880
       2.975
       3.771
       4.313
       4.824
       5.534
       6.357
       6.745
