Origin Time       01/04/2014 17:45:09
Lat.              26.4 N	
Long.             92.4 E	
Depth (Km)         33.0
Magnitude         4.4
 Region           Naogaon-Assam                                                    
 Above details taken from IMD 
     
Station Code      NAU
Station Lat.       26.349  N
Station Long.      92.690  E
Station Height(m)   78.0
Site Class        C   Vs30 between 200 m/sec to 375 m/sec *  
Record Time       01.04.2014 17:44:50.094
Sampling Rate     200. Hz
 Record Duration   86.515 Sec.
 Direction         E-W (E positive)
Max. Acceleration     17.660 cm/sec**2
     
  * For reference see Site Classification link of website 
     
 Base Line Corrected and Low Pass Filtered (Cut Off at 35 Hz) Time History
 Acceleration data in cm/sec**2
    
[...]
      -0.061
      -0.320
      -0.557
      -0.668
      -0.617
      -0.445
      -0.225
      -0.021
       0.118
       0.153
       0.077
      -0.067
      -0.172
      -0.123
       0.115
       0.450
       0.704
       0.734
       0.531
       0.230
       0.007
      -0.044
       0.056
       0.224
       0.394
       0.539
       0.623
       0.580
       0.347
      -0.040
      -0.427
      -0.615
      -0.514
      -0.229
       0.003
      -0.008
      -0.255
      -0.546
      -0.666
      -0.532
      -0.219
       0.133
       0.424
       0.608
       0.648
       0.512
       0.226
      -0.101
      -0.315
      -0.333
      -0.206
      -0.067
      -0.018
      -0.063
      -0.140
      -0.201
      -0.243
      -0.272
      -0.268
      -0.183
      -0.001
       0.206
       0.291
       0.123
      -0.291
      -0.777
      -1.093
      -1.082
      -0.773
      -0.346
       0.005
       0.195
       0.271
       0.323
       0.388
       0.434
       0.427
       0.400
       0.426
       0.539
       0.683
       0.751
       0.679
       0.494
       0.294
       0.177
       0.201
       0.370
       0.634
       0.898
       1.043
       0.978
       0.686
       0.241
      -0.231
      -0.608
      -0.820
      -0.839
      -0.667
      -0.355
      -0.022
       0.164
       0.074
      -0.277
      -0.715
      -1.007
      -0.994
      -0.679
      -0.217
       0.166
       0.279
       0.061
      -0.390
      -0.854
      -1.103
      -1.042
      -0.766
      -0.481
      -0.363
      -0.457
      -0.665
      -0.816
      -0.765
      -0.475
      -0.041
       0.355
       0.557
       0.536
       0.409
       0.335
       0.385
       0.495
       0.550
       0.497
       0.387
       0.319
       0.343
       0.426
       0.498
       0.538
       0.592
       0.716
       0.892
       1.015
       0.971
       0.728
       0.370
       0.029
      -0.214
      -0.367
      -0.476
      -0.559
      -0.581
      -0.509
      -0.368
      -0.234
      -0.162
      -0.143
      -0.128
      -0.095
      -0.067
      -0.073
      -0.100
      -0.106
      -0.060
       0.017
       0.071
       0.063
      -0.007
      -0.094
      -0.146
      -0.137
      -0.079
      -0.008
       0.051
       0.087
       0.102
       0.085
       0.008
      -0.157
      -0.401
      -0.672
      -0.886
      -0.965
      -0.883
      -0.685
      -0.455
      -0.266
      -0.138
      -0.049
       0.043
       0.176
       0.348
       0.516
       0.617
       0.632
       0.603
       0.598
       0.646
       0.711
       0.719
       0.614
       0.400
       0.157
       0.009
       0.037
       0.213
       0.396
       0.422
       0.225
      -0.118
      -0.427
      -0.544
      -0.443
      -0.234
      -0.081
      -0.090
      -0.254
      -0.474
      -0.628
      -0.645
      -0.532
      -0.349
      -0.158
      -0.004
       0.082
       0.070
      -0.048
      -0.224
      -0.345
      -0.304
      -0.081
       0.221
       0.457
       0.541
       0.485
       0.348
       0.188
       0.048
      -0.032
      -0.032
       0.012
       0.017
      -0.097
      -0.319
      -0.526
      -0.557
      -0.351
      -0.001
       0.313
       0.467
       0.466
       0.414
       0.413
       0.495
       0.607
       0.663
       0.608
       0.445
       0.216
      -0.036
      -0.277
      -0.472
      -0.596
      -0.647
      -0.646
      -0.599
      -0.490
      -0.304
      -0.070
       0.132
       0.212
       0.132
      -0.067
      -0.278
      -0.392
      -0.349
      -0.171
       0.057
       0.234
       0.288
       0.197
      -0.008
      -0.242
      -0.377
      -0.304
      -0.022
       0.337
       0.582
       0.609
       0.466
       0.286
       0.171
       0.124
       0.092
       0.038
      -0.040
      -0.127
      -0.217
      -0.293
      -0.311
      -0.223
      -0.040
       0.137
       0.179
       0.036
      -0.218
      -0.429
      -0.465
      -0.301
      -0.025
       0.223
       0.338
       0.294
       0.143
      -0.031
      -0.152
      -0.179
      -0.107
       0.043
       0.233
       0.406
       0.504
       0.481
       0.337
       0.117
      -0.107
      -0.272
      -0.354
      -0.372
      -0.376
      -0.399
      -0.435
      -0.440
      -0.387
      -0.290
      -0.180
      -0.056
       0.118
       0.355
       0.589
       0.692
       0.575
       0.262
      -0.105
      -0.357
      -0.414
      -0.310
      -0.147
      -0.004
       0.079
       0.088
       0.014
      -0.121
      -0.230
      -0.201
       0.007
       0.292
       0.468
       0.412
       0.170
      -0.094
      -0.233
      -0.218
      -0.118
      -0.016
       0.063
       0.136
       0.216
       0.274
       0.261
       0.166
       0.041
      -0.030
      -0.016
       0.041
       0.060
       0.004
      -0.096
      -0.177
      -0.211
      -0.217
      -0.220
      -0.209
      -0.143
      -0.011
       0.140
       0.231
       0.216
       0.108
      -0.038
      -0.164
      -0.238
      -0.242
      -0.179
      -0.071
       0.046
       0.132
       0.159
       0.126
       0.069
       0.054
       0.140
       0.324
       0.522
       0.602
       0.469
       0.142
      -0.260
      -0.587
      -0.730
      -0.669
      -0.463
      -0.219
      -0.033
       0.058
       0.077
       0.072
       0.070
       0.072
       0.075
       0.089
       0.128
       0.185
       0.218
       0.167
       0.002
      -0.240
      -0.465
      -0.573
      -0.522
      -0.336
      -0.086
       0.156
       0.331
       0.408
       0.381
       0.285
       0.179
       0.118
       0.106
       0.098
       0.048
      -0.048
      -0.156
      -0.238
      -0.278
      -0.282
      -0.259
      -0.219
      -0.158
      -0.071
       0.028
       0.096
       0.092
       0.013
      -0.086
      -0.134
      -0.102
      -0.021
       0.056
       0.103
       0.124
       0.130
       0.116
       0.070
       0.007
      -0.030
       0.006
       0.118
       0.260
       0.372
       0.426
       0.433
       0.409
       0.333
       0.164
      -0.087
      -0.333
      -0.473
      -0.473
      -0.386
      -0.303
      -0.282
      -0.316
      -0.349
      -0.313
      -0.168
       0.056
       0.273
       0.401
       0.404
       0.297
       0.123
      -0.057
      -0.187
      -0.237
      -0.209
      -0.128
      -0.033
       0.024
       0.010
      -0.068
      -0.165
      -0.229
      -0.214
      -0.091
       0.137
       0.423
       0.674
       0.803
       0.783
       0.648
       0.448
       0.228
       0.025
      -0.122
      -0.178
      -0.150
      -0.094
      -0.096
      -0.200
      -0.371
      -0.513
      -0.536
      -0.420
      -0.220
      -0.031
       0.070
       0.063
      -0.023
      -0.140
      -0.254
      -0.339
      -0.363
      -0.297
      -0.141
       0.051
       0.189
       0.202
       0.083
      -0.097
      -0.233
      -0.251
      -0.137
       0.052
       0.229
       0.329
       0.347
       0.332
       0.318
       0.277
       0.156
      -0.030
      -0.175
      -0.160
       0.027
       0.259
       0.369
       0.282
       0.075
      -0.103
      -0.160
      -0.124
      -0.099
      -0.154
      -0.264
      -0.348
      -0.341
      -0.241
      -0.090
       0.067
       0.203
       0.300
       0.330
       0.268
       0.132
      -0.010
      -0.076
      -0.040
       0.062
       0.164
       0.213
       0.201
       0.151
       0.098
       0.068
       0.075
       0.128
       0.217
       0.288
       0.264
       0.101
      -0.147
      -0.349
      -0.385
      -0.244
      -0.039
       0.081
       0.039
      -0.122
      -0.292
      -0.390
      -0.415
      -0.407
      -0.375
      -0.294
      -0.150
      -0.002
       0.055
      -0.026
      -0.183
      -0.278
      -0.207
       0.019
       0.276
       0.429
       0.429
       0.349
       0.309
       0.356
       0.409
       0.338
       0.102
      -0.196
      -0.395
      -0.399
      -0.225
       0.038
       0.293
       0.461
       0.497
       0.408
       0.239
       0.041
      -0.153
      -0.302
      -0.359
      -0.303
      -0.179
      -0.072
      -0.054
      -0.120
      -0.189
      -0.170
      -0.039
       0.125
       0.201
       0.137
       0.005
      -0.072
      -0.020
       0.129
       0.282
       0.357
       0.328
       0.217
       0.078
      -0.022
      -0.044
      -0.004
       0.034
       0.013
      -0.087
      -0.241
      -0.390
      -0.450
      -0.361
      -0.128
       0.163
       0.381
       0.426
       0.270
      -0.042
      -0.395
      -0.637
      -0.640
      -0.384
       0.016
       0.378
       0.565
       0.560
       0.441
       0.302
       0.195
       0.132
       0.111
       0.121
       0.133
       0.101
      -0.007
      -0.163
      -0.288
      -0.303
      -0.192
      -0.009
       0.147
       0.199
       0.129
      -0.009
      -0.124
      -0.146
      -0.071
       0.034
       0.095
       0.093
       0.068
       0.065
       0.078
       0.064
      -0.016
      -0.156
      -0.305
      -0.393
      -0.378
      -0.281
      -0.168
      -0.102
      -0.099
      -0.124
      -0.129
      -0.095
      -0.041
      -0.001
       0.014
       0.029
       0.094
       0.245
       0.460
       0.635
       0.630
       0.383
      -0.001
      -0.302
      -0.353
      -0.170
       0.075
       0.209
       0.173
       0.035
      -0.085
      -0.111
      -0.052
       0.014
       0.012
      -0.058
      -0.117
      -0.081
       0.049
       0.183
       0.222
       0.151
       0.042
      -0.009
       0.026
       0.099
       0.144
       0.152
       0.168
       0.228
       0.303
       0.312
       0.182
      -0.083
      -0.395
      -0.626
      -0.700
      -0.634
      -0.505
      -0.370
      -0.229
      -0.062
       0.109
       0.235
       0.302
       0.347
       0.387
       0.368
       0.217
      -0.059
      -0.338
      -0.475
      -0.423
      -0.272
      -0.157
      -0.130
      -0.128
      -0.067
       0.048
       0.124
       0.071
      -0.093
      -0.233
      -0.206
       0.002
       0.257
       0.404
       0.400
       0.324
       0.260
       0.211
       0.120
      -0.034
      -0.173
      -0.170
       0.023
       0.293
       0.433
       0.338
       0.107
      -0.059
      -0.065
      -0.008
      -0.055
      -0.250
      -0.447
      -0.449
      -0.185
       0.235
       0.610
       0.788
       0.736
       0.508
       0.170
      -0.225
      -0.605
      -0.863
      -0.907
      -0.722
      -0.393
      -0.079
       0.085
       0.064
      -0.068
      -0.208
      -0.297
      -0.331
      -0.307
      -0.190
       0.053
       0.379
       0.663
       0.792
       0.776
       0.741
       0.797
       0.913
       0.942
       0.757
       0.371
      -0.063
      -0.374
      -0.490
      -0.462
      -0.378
      -0.277
      -0.147
       0.016
       0.160
       0.204
       0.101
      -0.102
      -0.288
      -0.379
      -0.425
      -0.551
      -0.790
      -0.992
      -0.939
      -0.559
      -0.007
       0.481
       0.771
       0.873
       0.830
       0.627
       0.236
      -0.268
      -0.669
      -0.721
      -0.349
       0.244
       0.682
       0.684
       0.263
      -0.309
      -0.723
      -0.843
      -0.728
      -0.519
      -0.294
      -0.039
       0.258
       0.518
       0.591
       0.412
       0.093
      -0.160
      -0.225
      -0.152
      -0.066
      -0.018
       0.065
       0.288
       0.644
       0.977
       1.088
       0.912
       0.592
       0.357
       0.319
       0.375
       0.321
       0.062
      -0.313
      -0.634
      -0.796
      -0.796
      -0.657
      -0.382
      -0.005
       0.337
       0.448
       0.231
      -0.186
      -0.512
      -0.527
      -0.267
       0.012
       0.071
      -0.086
      -0.231
      -0.123
       0.246
       0.622
       0.695
       0.357
      -0.205
      -0.668
      -0.830
      -0.738
      -0.591
      -0.533
      -0.542
      -0.494
      -0.298
       0.016
       0.340
       0.587
       0.752
       0.857
       0.872
       0.722
       0.371
      -0.094
      -0.480
      -0.596
      -0.362
       0.137
       0.686
       1.026
       0.981
       0.566
      -0.028
      -0.566
      -0.905
      -1.016
      -0.929
      -0.701
      -0.415
      -0.153
       0.051
       0.220
       0.378
       0.491
       0.484
       0.322
       0.078
      -0.105
      -0.133
      -0.046
       0.000
      -0.139
      -0.450
      -0.732
      -0.746
      -0.401
       0.172
       0.711
       0.999
       1.008
       0.915
       0.979
       1.339
       1.886
       2.324
       2.398
       2.103
       1.701
       1.507
       1.626
       1.889
       2.023
       1.915
       1.699
       1.624
       1.792
       2.040
       2.057
       1.649
       0.873
      -0.082
      -1.140
      -2.446
      -4.216
      -6.427
      -8.648
     -10.209
     -10.597
      -9.787
      -8.235
      -6.589
      -5.386
      -4.910
      -5.182
      -5.954
      -6.684
      -6.566
      -4.750
      -0.758
       5.062
      11.358
      16.145
      17.660
      15.265
       9.856
       3.519
      -1.443
      -3.568
      -2.799
      -0.250
       2.581
       4.553
       5.158
       4.351
       2.333
      -0.498
      -3.484
      -5.769
      -6.585
      -5.595
      -3.061
       0.263
       3.392
       5.415
       5.804
       4.628
       2.523
       0.402
      -0.910
      -0.915
       0.410
       2.530
       4.441
       5.100
       4.051
       1.753
      -0.739
      -2.499
      -3.267
      -3.387
      -3.317
      -3.208
      -2.895
      -2.196
      -1.172
      -0.091
       0.802
       1.459
       1.926
       2.109
       1.669
       0.226
      -2.280
      -5.366
      -8.120
      -9.589
      -9.225
      -7.177
      -4.227
      -1.367
       0.725
       1.920
       2.403
       2.291
       1.565
       0.356
      -0.826
      -1.277
      -0.585
       1.060
       2.966
       4.304
       4.458
       3.278
       1.188
      -0.899
      -1.961
      -1.386
       0.687
       3.402
       5.566
       6.208
       5.041
       2.595
      -0.088
      -1.964
      -2.382
      -1.210
       1.185
       4.000
       6.174
       6.819
       5.673
       3.211
       0.272
      -2.437
      -4.517
      -5.719
      -5.792
      -4.617
      -2.445
       0.071
       2.159
       3.275
       3.276
       2.386
       1.068
      -0.142
      -0.813
      -0.798
      -0.342
       0.002
      -0.291
      -1.281
      -2.396
      -2.795
      -2.042
      -0.518
       0.782
       0.922
      -0.349
      -2.429
      -4.219
      -4.756
      -3.779
      -1.886
      -0.153
       0.577
       0.235
      -0.516
      -0.869
      -0.492
       0.302
       0.938
       1.094
       0.910
       0.749
       0.806
       0.967
       1.009
       0.891
       0.796
       0.891
       1.066
       0.953
       0.239
      -1.007
      -2.273
      -2.868
      -2.341
      -0.747
       1.366
       3.244
       4.277
       4.221
       3.202
       1.577
      -0.220
      -1.776
      -2.777
      -3.071
      -2.712
      -1.947
      -1.134
      -0.601
      -0.498
      -0.685
      -0.769
      -0.343
       0.683
       1.966
       2.976
       3.408
       3.358
       3.086
       2.648
       1.832
       0.476
      -1.171
      -2.494
      -2.964
      -2.605
      -2.018
      -1.890
      -2.410
      -3.108
      -3.266
      -2.529
      -1.167
       0.210
       1.164
       1.708
       2.142
       2.674
       3.183
       3.307
       2.745
       1.504
      -0.068
      -1.466
      -2.312
      -2.541
      -2.376
      -2.091
      -1.781
      -1.352
      -0.714
       0.032
       0.636
       0.916
       0.925
       0.891
       1.012
       1.297
       1.610
       1.840
       2.038
       2.369
       2.921
       3.532
       3.801
       3.307
       1.905
      -0.132
      -2.202
      -3.673
      -4.165
      -3.666
      -2.449
      -0.917
       0.504
       1.451
       1.730
       1.435
       0.916
       0.546
       0.465
       0.536
       0.551
       0.433
       0.215
      -0.128
      -0.739
      -1.708
      -2.840
      -3.672
      -3.814
      -3.304
      -2.626
      -2.319
      -2.529
      -2.900
      -2.895
      -2.236
      -1.080
       0.174
       1.232
       2.066
       2.780
       3.381
       3.696
       3.506
       2.764
       1.710
       0.796
       0.470
       0.936
       2.014
       3.189
       3.858
       3.635
       2.527
       0.875
      -0.850
      -2.234
      -3.015
      -3.104
      -2.601
      -1.796
      -1.092
      -0.789
      -0.872
      -1.023
      -0.900
      -0.462
      -0.006
       0.122
      -0.128
      -0.453
      -0.477
      -0.083
       0.523
       1.022
       1.245
       1.224
       1.041
       0.676
       0.046
      -0.809
      -1.634
      -2.123
      -2.187
      -2.021
      -1.874
      -1.765
      -1.455
      -0.722
       0.339
       1.300
       1.678
       1.276
       0.340
      -0.568
      -0.893
      -0.422
       0.601
       1.651
       2.283
       2.382
       2.125
       1.730
       1.268
       0.707
       0.101
      -0.335
      -0.351
       0.113
       0.847
       1.499
       1.797
       1.660
       1.151
       0.381
      -0.509
      -1.311
      -1.770
      -1.716
      -1.219
      -0.597
      -0.254
      -0.425
      -1.012
      -1.650
      -1.941
      -1.706
      -1.055
      -0.265
       0.421
       0.898
       1.172
       1.284
       1.269
       1.149
       0.952
       0.731
       0.577
       0.571
       0.691
       0.751
       0.484
      -0.237
      -1.221
      -2.023
      -2.254
      -1.878
      -1.228
      -0.725
      -0.559
      -0.606
      -0.596
      -0.377
      -0.018
       0.286
       0.410
       0.368
       0.214
      -0.076
      -0.558
      -1.148
      -1.540
      -1.389
      -0.645
       0.312
       0.939
       0.986
       0.706
       0.609
       1.008
       1.763
       2.409
       2.503
       1.912
       0.840
      -0.329
      -1.238
      -1.675
      -1.603
      -1.152
      -0.591
      -0.233
      -0.270
      -0.637
      -1.025
      -1.081
      -0.628
       0.241
       1.252
       2.126
       2.707
       2.973
       2.963
       2.704
       2.207
       1.511
       0.724
      -0.004
      -0.537
      -0.814
      -0.867
      -0.795
      -0.716
      -0.707
      -0.780
      -0.881
      -0.932
      -0.874
      -0.714
      -0.523
      -0.400
      -0.417
      -0.596
      -0.892
      -1.193
      -1.325
      -1.139
      -0.631
       0.001
       0.453
       0.515
       0.195
      -0.303
      -0.737
      -0.953
      -0.904
      -0.599
      -0.070
