Origin Time       21/08/2013 08:41:51 UTC
Lat.              26.7 N	
Long.             92.4 E	
Depth (Km)         22.0
Magnitude         3.9
 Region           Sonitpur-Assam                                                   
 Above details taken from IMD 
    
Station Code      NAU
Station Lat.       26.349  N
Station Long.      92.690  E
Station Height(m)   78.0
Site Class        C   Vs30 between 200 m/sec to 375 m/sec *  
Record Time       21.08.2013 08:41:38.254 UTC
Sampling Rate     200. Hz
 Record Duration   82.135 Sec.
 Direction         N-S (N positive)
Max. Acceleration     10.348 cm/sec**2
     
  * For reference see Site Classification link of website 
     
 Base Line Corrected and Low Pass Filtered (Cut Off at 35 Hz) Time History
 Acceleration data in cm/sec**2
    
[...]
      -0.051
       0.005
       0.018
      -0.006
      -0.043
      -0.071
      -0.081
      -0.079
      -0.072
      -0.059
      -0.034
       0.014
       0.084
       0.162
       0.227
       0.257
       0.245
       0.191
       0.113
       0.032
      -0.030
      -0.060
      -0.061
      -0.052
      -0.050
      -0.067
      -0.098
      -0.131
      -0.158
      -0.176
      -0.186
      -0.179
      -0.150
      -0.105
      -0.059
      -0.030
      -0.024
      -0.035
      -0.041
      -0.018
       0.047
       0.134
       0.203
       0.219
       0.176
       0.100
       0.030
      -0.008
      -0.021
      -0.041
      -0.099
      -0.187
      -0.256
      -0.257
      -0.179
      -0.059
       0.051
       0.120
       0.146
       0.145
       0.133
       0.113
       0.076
       0.016
      -0.059
      -0.122
      -0.138
      -0.093
       0.004
       0.112
       0.189
       0.208
       0.176
       0.125
       0.083
       0.059
       0.043
       0.027
       0.018
       0.026
       0.058
       0.106
       0.156
       0.194
       0.216
       0.218
       0.187
       0.109
      -0.020
      -0.174
      -0.308
      -0.383
      -0.386
      -0.335
      -0.264
      -0.201
      -0.160
      -0.131
      -0.099
      -0.052
       0.002
       0.040
       0.042
       0.009
      -0.043
      -0.090
      -0.125
      -0.151
      -0.169
      -0.171
      -0.147
      -0.097
      -0.038
       0.001
       0.007
      -0.007
      -0.012
       0.025
       0.102
       0.182
       0.216
       0.179
       0.094
       0.009
      -0.036
      -0.033
       0.005
       0.052
       0.088
       0.102
       0.092
       0.063
       0.028
       0.002
      -0.006
       0.001
       0.009
       0.011
       0.011
       0.028
       0.074
       0.136
       0.182
       0.177
       0.106
      -0.019
      -0.152
      -0.235
      -0.231
      -0.145
      -0.018
       0.103
       0.190
       0.235
       0.248
       0.241
       0.216
       0.162
       0.070
      -0.053
      -0.175
      -0.258
      -0.283
      -0.262
      -0.226
      -0.197
      -0.173
      -0.140
      -0.094
      -0.049
      -0.033
      -0.060
      -0.111
      -0.145
      -0.115
      -0.007
       0.149
       0.284
       0.331
       0.263
       0.113
      -0.047
      -0.150
      -0.170
      -0.120
      -0.043
       0.024
       0.066
       0.094
       0.132
       0.197
       0.281
       0.344
       0.337
       0.236
       0.064
      -0.116
      -0.232
      -0.239
      -0.150
      -0.031
       0.036
       0.004
      -0.110
      -0.234
      -0.292
      -0.256
      -0.161
      -0.066
      -0.016
      -0.011
      -0.023
      -0.025
      -0.004
       0.040
       0.098
       0.160
       0.201
       0.197
       0.136
       0.031
      -0.083
      -0.168
      -0.199
      -0.175
      -0.115
      -0.040
       0.033
       0.094
       0.139
       0.162
       0.164
       0.151
       0.139
       0.139
       0.147
       0.142
       0.107
       0.041
      -0.038
      -0.107
      -0.151
      -0.173
      -0.186
      -0.207
      -0.234
      -0.256
      -0.255
      -0.228
      -0.179
      -0.110
      -0.024
       0.070
       0.152
       0.198
       0.194
       0.157
       0.122
       0.115
       0.134
       0.144
       0.114
       0.040
      -0.047
      -0.105
      -0.101
      -0.029
       0.091
       0.214
       0.291
       0.290
       0.213
       0.094
      -0.027
      -0.120
      -0.172
      -0.183
      -0.166
      -0.130
      -0.079
      -0.010
       0.071
       0.139
       0.152
       0.083
      -0.062
      -0.239
      -0.396
      -0.495
      -0.526
      -0.491
      -0.403
      -0.277
      -0.138
      -0.014
       0.078
       0.136
       0.166
       0.166
       0.133
       0.074
       0.010
      -0.032
      -0.039
      -0.015
       0.021
       0.052
       0.069
       0.072
       0.064
       0.049
       0.028
       0.007
      -0.007
      -0.010
       0.008
       0.056
       0.140
       0.243
       0.324
       0.338
       0.268
       0.145
       0.027
      -0.038
      -0.037
       0.009
       0.071
       0.131
       0.176
       0.198
       0.188
       0.150
       0.095
       0.041
       0.001
      -0.017
      -0.021
      -0.016
      -0.009
       0.005
       0.032
       0.070
       0.097
       0.094
       0.059
       0.011
      -0.034
      -0.078
      -0.141
      -0.224
      -0.299
      -0.321
      -0.267
      -0.160
      -0.054
       0.008
       0.022
       0.019
       0.028
       0.055
       0.081
       0.082
       0.045
      -0.020
      -0.090
      -0.143
      -0.173
      -0.193
      -0.220
      -0.253
      -0.275
      -0.263
      -0.219
      -0.164
      -0.129
      -0.124
      -0.133
      -0.126
      -0.079
       0.002
       0.089
       0.154
       0.190
       0.216
       0.253
       0.316
       0.392
       0.446
       0.437
       0.350
       0.203
       0.045
      -0.077
      -0.136
      -0.141
      -0.122
      -0.104
      -0.094
      -0.082
      -0.057
      -0.017
       0.029
       0.076
       0.134
       0.213
       0.307
       0.385
       0.404
       0.333
       0.180
      -0.004
      -0.152
      -0.229
      -0.245
      -0.241
      -0.244
      -0.255
      -0.259
      -0.248
      -0.231
      -0.219
      -0.212
      -0.198
      -0.163
      -0.098
      -0.011
       0.080
       0.152
       0.184
       0.164
       0.099
       0.009
      -0.079
      -0.144
      -0.174
      -0.166
      -0.123
      -0.055
       0.014
       0.051
       0.031
      -0.047
      -0.148
      -0.209
      -0.184
      -0.071
       0.078
       0.188
       0.212
       0.160
       0.084
       0.053
       0.105
       0.226
       0.360
       0.438
       0.413
       0.290
       0.124
      -0.017
      -0.084
      -0.076
      -0.024
       0.032
       0.060
       0.043
      -0.018
      -0.107
      -0.198
      -0.267
      -0.302
      -0.303
      -0.275
      -0.231
      -0.184
      -0.143
      -0.103
      -0.052
       0.018
       0.094
       0.153
       0.176
       0.165
       0.138
       0.119
       0.119
       0.132
       0.137
       0.119
       0.083
       0.047
       0.024
       0.007
      -0.022
      -0.073
      -0.139
      -0.202
      -0.241
      -0.242
      -0.198
      -0.114
      -0.016
       0.056
       0.058
      -0.028
      -0.178
      -0.323
      -0.385
      -0.314
      -0.121
       0.123
       0.330
       0.431
       0.407
       0.283
       0.106
      -0.069
      -0.192
      -0.231
      -0.179
      -0.072
       0.037
       0.104
       0.123
       0.123
       0.139
       0.186
       0.249
       0.294
       0.292
       0.241
       0.163
       0.088
       0.043
       0.037
       0.057
       0.081
       0.078
       0.032
      -0.054
      -0.152
      -0.218
      -0.222
      -0.169
      -0.104
      -0.079
      -0.123
      -0.216
      -0.303
      -0.326
      -0.255
      -0.111
       0.044
       0.137
       0.137
       0.066
      -0.019
      -0.074
      -0.083
      -0.051
       0.004
       0.061
       0.099
       0.109
       0.100
       0.101
       0.130
       0.181
       0.224
       0.227
       0.184
       0.118
       0.055
       0.009
      -0.025
      -0.060
      -0.108
      -0.180
      -0.272
      -0.366
      -0.433
      -0.443
      -0.387
      -0.280
      -0.153
      -0.042
       0.034
       0.078
       0.101
       0.110
       0.099
       0.062
       0.006
      -0.045
      -0.065
      -0.037
       0.040
       0.148
       0.261
       0.347
       0.383
       0.362
       0.293
       0.195
       0.091
      -0.009
      -0.103
      -0.189
      -0.250
      -0.262
      -0.210
      -0.106
       0.014
       0.102
       0.126
       0.077
      -0.018
      -0.111
      -0.145
      -0.082
       0.075
       0.272
       0.430
       0.486
       0.426
       0.289
       0.142
       0.043
       0.020
       0.064
       0.132
       0.169
       0.138
       0.054
      -0.032
      -0.078
      -0.079
      -0.064
      -0.062
      -0.076
      -0.092
      -0.105
      -0.122
      -0.161
      -0.228
      -0.314
      -0.393
      -0.439
      -0.436
      -0.384
      -0.297
      -0.198
      -0.115
      -0.070
      -0.058
      -0.055
      -0.033
       0.011
       0.057
       0.070
       0.035
      -0.038
      -0.108
      -0.127
      -0.065
       0.057
       0.174
       0.206
       0.107
      -0.109
      -0.359
      -0.531
      -0.542
      -0.380
      -0.111
       0.159
       0.346
       0.430
       0.445
       0.444
       0.450
       0.451
       0.413
       0.318
       0.179
       0.040
      -0.038
      -0.010
       0.124
       0.304
       0.441
       0.469
       0.378
       0.213
       0.037
      -0.095
      -0.158
      -0.155
      -0.116
      -0.071
      -0.042
      -0.028
      -0.019
      -0.014
      -0.022
      -0.058
      -0.126
      -0.214
      -0.294
      -0.340
      -0.349
      -0.333
      -0.314
      -0.300
      -0.279
      -0.234
      -0.162
      -0.095
      -0.068
      -0.088
      -0.119
      -0.110
      -0.042
       0.058
       0.136
       0.156
       0.119
       0.059
       0.007
      -0.027
      -0.049
      -0.060
      -0.054
      -0.021
       0.037
       0.104
       0.162
       0.199
       0.199
       0.161
       0.099
       0.044
       0.028
       0.057
       0.108
       0.146
       0.160
       0.172
       0.220
       0.314
       0.421
       0.473
       0.416
       0.250
       0.034
      -0.144
      -0.217
      -0.179
      -0.095
      -0.064
      -0.153
      -0.337
      -0.514
      -0.567
      -0.449
      -0.207
       0.057
       0.257
       0.365
       0.406
       0.408
       0.383
       0.313
       0.178
      -0.013
      -0.216
      -0.369
      -0.430
      -0.398
      -0.304
      -0.188
      -0.070
       0.043
       0.140
       0.193
       0.161
       0.021
      -0.211
      -0.469
      -0.660
      -0.712
      -0.613
      -0.425
      -0.240
      -0.122
      -0.078
      -0.070
      -0.060
      -0.035
       0.002
       0.047
       0.108
       0.188
       0.278
       0.358
       0.412
       0.436
       0.437
       0.412
       0.339
       0.202
       0.015
      -0.166
      -0.262
      -0.220
      -0.045
       0.189
       0.379
       0.446
       0.372
       0.202
       0.021
      -0.095
      -0.112
      -0.046
       0.050
       0.124
       0.158
       0.181
       0.246
       0.376
       0.518
       0.569
       0.460
       0.228
       0.005
      -0.079
       0.010
       0.191
       0.336
       0.350
       0.224
       0.025
      -0.139
      -0.180
      -0.085
       0.076
       0.189
       0.176
       0.044
      -0.134
      -0.283
      -0.370
      -0.418
      -0.466
      -0.535
      -0.615
      -0.684
      -0.726
      -0.734
      -0.697
      -0.597
      -0.427
      -0.221
      -0.045
       0.041
       0.020
      -0.062
      -0.123
      -0.092
       0.039
       0.200
       0.285
       0.227
       0.041
      -0.180
      -0.322
      -0.310
      -0.148
       0.090
       0.300
       0.403
       0.387
       0.299
       0.199
       0.112
       0.029
      -0.058
      -0.128
      -0.149
      -0.115
      -0.058
      -0.020
      -0.021
      -0.039
      -0.036
       0.013
       0.105
       0.239
       0.431
       0.703
       1.054
       1.433
       1.759
       1.967
       2.032
       1.962
       1.784
       1.554
       1.362
       1.310
       1.452
       1.757
       2.135
       2.488
       2.755
       2.908
       2.943
       2.855
       2.636
       2.273
       1.760
       1.125
       0.448
      -0.147
      -0.536
      -0.648
      -0.505
      -0.222
       0.044
       0.165
       0.082
      -0.192
      -0.605
      -1.088
      -1.586
      -2.081
      -2.590
      -3.142
      -3.747
      -4.388
      -5.024
      -5.598
      -6.050
      -6.331
      -6.417
      -6.312
      -6.040
      -5.646
      -5.200
      -4.784
      -4.464
      -4.253
      -4.117
      -3.987
      -3.801
      -3.530
      -3.182
      -2.768
      -2.262
      -1.591
      -0.678
       0.489
       1.802
       3.040
       3.948
       4.358
       4.290
       3.947
       3.608
       3.478
       3.588
       3.820
       4.024
       4.128
       4.163
       4.209
       4.326
       4.515
       4.745
       4.992
       5.246
       5.487
       5.653
       5.642
       5.365
       4.819
       4.116
       3.441
       2.951
       2.675
       2.502
       2.257
       1.813
       1.157
       0.372
      -0.443
      -1.245
      -2.071
      -3.004
      -4.102
      -5.335
      -6.577
      -7.659
      -8.445
      -8.902
      -9.096
      -9.145
      -9.146
      -9.116
      -8.988
      -8.654
      -8.045
      -7.177
      -6.153
      -5.101
      -4.093
      -3.117
      -2.099
      -0.990
       0.150
       1.133
       1.744
       1.892
       1.729
       1.619
       1.985
       3.087
       4.872
       6.971
       8.854
      10.054
      10.348
       9.792
       8.620
       7.096
       5.419
       3.743
       2.240
       1.128
       0.619
       0.817
       1.637
       2.793
       3.897
       4.616
       4.814
       4.587
       4.177
       3.818
       3.615
       3.502
       3.323
       2.933
       2.287
       1.465
       0.632
      -0.065
      -0.578
      -0.976
      -1.362
      -1.780
      -2.160
      -2.356
      -2.239
      -1.813
      -1.257
      -0.860
      -0.885
      -1.443
      -2.440
      -3.633
      -4.749
      -5.599
      -6.130
      -6.398
      -6.501
      -6.510
      -6.429
      -6.201
      -5.757
      -5.099
      -4.325
      -3.586
      -2.973
      -2.429
      -1.774
      -0.831
       0.433
       1.840
       3.065
       3.809
       3.966
       3.668
       3.186
       2.748
       2.413
       2.068
       1.545
       0.784
      -0.067
      -0.685
      -0.736
      -0.065
       1.210
       2.736
       4.073
       4.845
       4.847
       4.099
       2.831
       1.403
       0.183
      -0.579
      -0.834
      -0.718
      -0.472
      -0.319
      -0.357
      -0.531
      -0.688
      -0.685
      -0.483
      -0.171
       0.089
       0.154
      -0.024
      -0.390
      -0.821
      -1.187
      -1.396
      -1.442
      -1.406
      -1.421
      -1.591
      -1.903
      -2.205
      -2.264
      -1.902
      -1.115
      -0.120
       0.738
       1.155
       1.017
       0.442
      -0.309
      -0.982
      -1.444
      -1.689
      -1.759
      -1.671
      -1.410
      -0.972
      -0.408
       0.175
       0.652
       0.931
       1.005
       0.948
       0.868
       0.833
       0.846
       0.864
       0.867
       0.887
       0.998
       1.258
       1.670
       2.163
       2.634
       3.002
       3.249
       3.409
       3.530
       3.621
       3.630
       3.468
       3.070
       2.446
       1.679
       0.900
       0.234
      -0.242
      -0.535
      -0.732
      -0.967
      -1.339
      -1.849
      -2.377
      -2.732
      -2.755
      -2.415
      -1.835
      -1.234
      -0.816
      -0.669
      -0.750
      -0.923
      -1.039
      -1.002
      -0.804
      -0.536
      -0.348
      -0.380
      -0.667
      -1.106
      -1.507
      -1.711
      -1.681
      -1.507
      -1.323
      -1.208
      -1.143
      -1.035
      -0.794
      -0.402
       0.068
       0.482
       0.715
       0.707
       0.489
       0.147
      -0.227
      -0.572
      -0.851
      -1.042
      -1.125
      -1.095
      -0.959
      -0.736
      -0.449
      -0.121
       0.226
       0.561
       0.844
       1.037
       1.136
       1.196
       1.311
       1.553
       1.897
       2.211
       2.321
       2.123
       1.653
       1.057
       0.480
      -0.023
      -0.481
      -0.937
      -1.359
      -1.627
      -1.599
      -1.218
      -0.588
       0.044
       0.406
       0.350
      -0.051
      -0.544
      -0.854
      -0.849
      -0.609
      -0.347
      -0.239
      -0.296
      -0.384
      -0.352
      -0.172
       0.050
       0.173
       0.143
       0.032
      -0.020
       0.076
       0.305
       0.580
       0.819
       0.995
       1.120
       1.195
       1.178
       1.010
       0.698
       0.340
       0.078
      -0.004
       0.072
       0.189
       0.207
       0.053
      -0.225
      -0.498
      -0.655
      -0.678
      -0.640
      -0.648
      -0.752
      -0.904
      -1.004
      -0.988
      -0.872
      -0.719
      -0.581
      -0.467
      -0.355
      -0.230
      -0.110
      -0.028
      -0.009
      -0.055
      -0.158
      -0.309
      -0.494
      -0.678
      -0.783
      -0.712
      -0.412
       0.067
       0.579
       0.959
       1.097
       0.973
       0.641
       0.214
      -0.171
      -0.379
      -0.336
      -0.075
       0.277
       0.566
       0.702
       0.703
       0.671
       0.725
       0.930
       1.257
       1.596
       1.807
       1.804
       1.604
       1.325
       1.122
       1.088
       1.180
       1.234
       1.076
       0.649
       0.072
      -0.428
      -0.653
      -0.553
      -0.250
       0.052
       0.184
       0.095
      -0.147
      -0.419
      -0.622
      -0.715
      -0.713
      -0.663
      -0.616
      -0.617
      -0.692
      -0.830
      -0.988
      -1.103
      -1.112
      -0.980
      -0.713
      -0.357
       0.018
       0.345
       0.577
       0.689
       0.677
       0.574
       0.451
       0.394
       0.467
       0.672
       0.940
       1.151
       1.182
       0.967
       0.525
      -0.049
      -0.633
      -1.113
      -1.422
      -1.543
      -1.500
      -1.337
      -1.106
      -0.860
      -0.638
      -0.471
      -0.380
      -0.389
      -0.518
      -0.756
      -1.046
      -1.297
      -1.411
      -1.318
      -1.001
      -0.522
      -0.004
       0.415
       0.647
       0.701
       0.669
       0.655
       0.702
       0.767
       0.752
       0.581
       0.260
      -0.119
      -0.433
      -0.593
      -0.569
      -0.387
      -0.110
       0.181
       0.403
       0.496
       0.455
       0.342
       0.263
       0.317
       0.540
       0.866
       1.155
       1.259
       1.111
       0.765
       0.374
       0.096
       0.010
       0.078
       0.184
       0.215
       0.128
      -0.036
      -0.193
      -0.263
      -0.221
      -0.102
       0.009
       0.026
      -0.099
      -0.341
      -0.619
      -0.824
      -0.873
      -0.760
      -0.572
      -0.453
      -0.528
      -0.814
      -1.186
      -1.425
      -1.349
      -0.928
      -0.323
       0.210
       0.461
       0.393
       0.136
      -0.109
      -0.194
      -0.100
       0.086
       0.256
