Origin Time       18/9/2011 12:40:47	
Lat.              27.6 N	
Long.             88.2 E	
Depth (Km)         10.0
Magnitude         6.8
 Region           India(Sikkim)-Nepar-Border                                       
 Above details taken from IMD 
   
Station Code      NAU
Station Lat.       26.349
Station Long.      92.690
Station Height(m)   72.0
Site Class        C   Vs30 between 200 m/sec to 375 m/sec *  
Record Time       18.09.2011 12:42:18.024
Sampling Rate     200. Hz
 Record Duration  183.600 Sec.
 Direction         Vert. (Up positive)
Max. Acceleration     -8.687 cm/sec**2
     
  * For reference see Site Classification link of website 
     
 Base Line Corrected and Low Pass Filtered (Cut Off at 35 Hz) Time History
 Acceleration data in cm/sec**2
    
[...]
      -0.839
      -0.797
      -0.663
      -0.447
      -0.186
       0.068
       0.273
       0.403
       0.457
       0.443
       0.368
       0.231
       0.037
      -0.193
      -0.409
      -0.557
      -0.602
      -0.555
      -0.466
      -0.386
      -0.344
      -0.340
      -0.359
      -0.384
      -0.392
      -0.354
      -0.254
      -0.109
       0.033
       0.122
       0.140
       0.106
       0.051
      -0.011
      -0.083
      -0.172
      -0.253
      -0.284
      -0.232
      -0.097
       0.089
       0.292
       0.502
       0.719
       0.934
       1.116
       1.228
       1.253
       1.210
       1.125
       1.009
       0.847
       0.630
       0.377
       0.140
      -0.035
      -0.132
      -0.171
      -0.182
      -0.175
      -0.137
      -0.053
       0.074
       0.225
       0.379
       0.522
       0.627
       0.658
       0.576
       0.369
       0.055
      -0.313
      -0.667
      -0.930
      -1.037
      -0.948
      -0.669
      -0.252
       0.224
       0.674
       1.026
       1.225
       1.233
       1.035
       0.646
       0.110
      -0.521
      -1.202
      -1.902
      -2.590
      -3.209
      -3.684
      -3.961
      -4.030
      -3.927
      -3.706
      -3.419
      -3.100
      -2.766
      -2.433
      -2.121
      -1.859
      -1.670
      -1.563
      -1.534
      -1.569
      -1.656
      -1.789
      -1.955
      -2.125
      -2.254
      -2.295
      -2.215
      -2.003
      -1.659
      -1.191
      -0.619
       0.012
       0.631
       1.157
       1.546
       1.818
       2.025
       2.203
       2.331
       2.347
       2.199
       1.888
       1.477
       1.063
       0.733
       0.541
       0.499
       0.588
       0.778
       1.037
       1.326
       1.590
       1.756
       1.752
       1.533
       1.101
       0.515
      -0.129
      -0.733
      -1.236
      -1.618
      -1.878
      -1.992
      -1.904
      -1.555
      -0.943
      -0.151
       0.675
       1.400
       1.955
       2.338
       2.569
       2.660
       2.612
       2.438
       2.181
       1.895
       1.634
       1.429
       1.297
       1.250
       1.301
       1.458
       1.708
       2.009
       2.294
       2.483
       2.515
       2.371
       2.081
       1.715
       1.355
       1.062
       0.869
       0.784
       0.816
       0.983
       1.293
       1.717
       2.176
       2.570
       2.813
       2.861
       2.716
       2.407
       1.963
       1.410
       0.777
       0.110
      -0.532
      -1.087
      -1.502
      -1.731
      -1.736
      -1.508
      -1.082
      -0.540
       0.022
       0.521
       0.902
       1.135
       1.198
       1.083
       0.802
       0.416
       0.014
      -0.312
      -0.509
      -0.569
      -0.519
      -0.394
      -0.215
       0.004
       0.235
       0.422
       0.493
       0.399
       0.137
      -0.252
      -0.697
      -1.130
      -1.499
      -1.775
      -1.953
      -2.045
      -2.071
      -2.056
      -2.019
      -1.954
      -1.826
      -1.589
      -1.225
      -0.773
      -0.308
       0.104
       0.435
       0.696
       0.902
       1.058
       1.167
       1.241
       1.297
       1.355
       1.425
       1.514
       1.618
       1.726
       1.830
       1.929
       2.031
       2.145
       2.265
       2.365
       2.406
       2.365
       2.253
       2.113
       1.994
       1.916
       1.865
       1.805
       1.711
       1.591
       1.482
       1.417
       1.397
       1.379
       1.305
       1.139
       0.885
       0.594
       0.321
       0.094
      -0.098
      -0.280
      -0.472
      -0.671
      -0.873
      -1.074
      -1.279
      -1.478
      -1.636
      -1.702
      -1.651
      -1.498
      -1.291
      -1.075
      -0.873
      -0.688
      -0.519
      -0.373
      -0.265
      -0.195
      -0.139
      -0.056
       0.078
       0.251
       0.429
       0.589
       0.744
       0.932
       1.185
       1.498
       1.832
       2.134
       2.371
       2.526
       2.592
       2.556
       2.408
       2.157
       1.832
       1.473
       1.104
       0.725
       0.332
      -0.060
      -0.406
      -0.665
      -0.836
      -0.968
      -1.110
      -1.264
      -1.371
      -1.359
      -1.195
      -0.910
      -0.571
      -0.248
       0.007
       0.156
       0.181
       0.093
      -0.068
      -0.241
      -0.371
      -0.425
      -0.390
      -0.245
       0.031
       0.442
       0.961
       1.531
       2.086
       2.554
       2.861
       2.941
       2.757
       2.330
       1.730
       1.050
       0.366
      -0.285
      -0.880
      -1.389
      -1.763
      -1.955
      -1.938
      -1.712
      -1.305
      -0.772
      -0.197
       0.326
       0.705
       0.878
       0.832
       0.591
       0.200
      -0.298
      -0.860
      -1.427
      -1.922
      -2.269
      -2.413
      -2.333
      -2.051
      -1.630
      -1.156
      -0.728
      -0.426
      -0.296
      -0.328
      -0.469
      -0.653
      -0.838
      -1.018
      -1.211
      -1.420
      -1.608
      -1.704
      -1.654
      -1.452
      -1.151
      -0.818
      -0.502
      -0.210
       0.075
       0.370
       0.668
       0.945
       1.172
       1.328
       1.400
       1.380
       1.259
       1.041
       0.736
       0.365
      -0.053
      -0.489
      -0.910
      -1.275
      -1.551
      -1.726
      -1.801
      -1.774
      -1.632
      -1.369
      -1.020
      -0.664
      -0.375
      -0.183
      -0.068
       0.000
       0.028
       0.013
      -0.031
      -0.064
      -0.037
       0.084
       0.299
       0.581
       0.900
       1.229
       1.544
       1.802
       1.957
       1.978
       1.871
       1.683
       1.474
       1.290
       1.131
       0.962
       0.739
       0.445
       0.103
      -0.238
      -0.521
      -0.699
      -0.741
      -0.630
      -0.367
       0.024
       0.480
       0.918
       1.253
       1.427
       1.402
       1.155
       0.684
       0.019
      -0.774
      -1.604
      -2.379
      -3.014
      -3.440
      -3.622
      -3.565
      -3.296
      -2.838
      -2.204
      -1.417
      -0.550
       0.266
       0.883
       1.208
       1.237
       1.033
       0.678
       0.251
      -0.172
      -0.521
      -0.742
      -0.813
      -0.737
      -0.531
      -0.216
       0.177
       0.606
       1.018
       1.358
       1.580
       1.657
       1.582
       1.372
       1.069
       0.727
       0.399
       0.119
      -0.101
      -0.264
      -0.376
      -0.449
      -0.489
      -0.507
      -0.520
      -0.546
      -0.589
      -0.628
      -0.626
      -0.554
      -0.411
      -0.225
      -0.035
       0.125
       0.243
       0.324
       0.372
       0.377
       0.316
       0.175
      -0.051
      -0.351
      -0.686
      -0.994
      -1.212
      -1.311
      -1.308
      -1.244
      -1.148
      -1.027
      -0.879
      -0.716
      -0.571
      -0.489
      -0.507
      -0.625
      -0.813
      -1.025
      -1.222
      -1.379
      -1.483
      -1.516
      -1.442
      -1.219
      -0.835
      -0.337
       0.181
       0.630
       0.979
       1.245
       1.457
       1.617
       1.703
       1.703
       1.640
       1.548
       1.442
       1.301
       1.099
       0.837
       0.563
       0.348
       0.243
       0.265
       0.389
       0.576
       0.787
       1.001
       1.213
       1.409
       1.551
       1.594
       1.528
       1.395
       1.272
       1.232
       1.303
       1.467
       1.676
       1.883
       2.043
       2.109
       2.040
       1.820
       1.478
       1.061
       0.619
       0.189
      -0.199
      -0.515
      -0.735
      -0.843
      -0.836
      -0.723
      -0.530
      -0.293
      -0.053
       0.144
       0.260
       0.278
       0.209
       0.080
      -0.083
      -0.261
      -0.443
      -0.616
      -0.764
      -0.863
      -0.883
      -0.799
      -0.606
      -0.326
       0.002
       0.331
       0.620
       0.839
       0.963
       0.977
       0.874
       0.652
       0.317
      -0.127
      -0.672
      -1.285
      -1.895
      -2.409
      -2.750
      -2.893
      -2.857
      -2.682
      -2.411
      -2.087
      -1.761
      -1.483
      -1.272
      -1.106
      -0.940
      -0.752
      -0.566
      -0.431
      -0.391
      -0.460
      -0.634
      -0.903
      -1.254
      -1.660
      -2.082
      -2.479
      -2.819
      -3.080
      -3.238
      -3.247
      -3.053
      -2.619
      -1.963
      -1.158
      -0.306
       0.508
       1.223
       1.797
       2.197
       2.402
       2.424
       2.308
       2.118
       1.915
       1.732
       1.571
       1.415
       1.258
       1.118
       1.035
       1.041
       1.149
       1.340
       1.567
       1.767
       1.879
       1.863
       1.717
       1.472
       1.184
       0.901
       0.654
       0.446
       0.271
       0.124
       0.001
      -0.089
      -0.122
      -0.059
       0.141
       0.496
       0.980
       1.524
       2.029
       2.410
       2.620
       2.650
       2.511
       2.219
       1.797
       1.293
       0.777
       0.324
      -0.028
      -0.278
      -0.451
      -0.563
      -0.610
      -0.582
      -0.489
      -0.370
      -0.271
      -0.206
      -0.158
      -0.098
      -0.026
       0.037
       0.063
       0.043
       0.001
      -0.009
       0.063
       0.238
       0.498
       0.804
       1.113
       1.382
       1.564
       1.613
       1.503
       1.255
       0.931
       0.601
       0.317
       0.110
       0.004
       0.026
       0.210
       0.574
       1.103
       1.743
       2.407
       2.995
       3.422
       3.635
       3.621
       3.407
       3.037
       2.554
       1.989
       1.374
       0.755
       0.193
      -0.251
      -0.550
      -0.725
      -0.841
      -0.976
      -1.177
      -1.435
      -1.705
      -1.932
      -2.087
      -2.159
      -2.152
      -2.074
      -1.944
      -1.798
      -1.671
      -1.572
      -1.456
      -1.249
      -0.905
      -0.453
       0.013
       0.397
       0.650
       0.788
       0.855
       0.870
       0.796
       0.567
       0.142
      -0.456
      -1.132
      -1.752
      -2.188
      -2.356
      -2.240
      -1.888
      -1.391
      -0.844
      -0.312
       0.180
       0.612
       0.951
       1.154
       1.190
       1.060
       0.793
       0.434
       0.035
      -0.359
      -0.705
      -0.967
      -1.132
      -1.221
      -1.284
      -1.365
      -1.479
      -1.620
      -1.786
      -1.993
      -2.256
      -2.546
      -2.789
      -2.905
      -2.862
      -2.687
      -2.433
      -2.134
      -1.785
      -1.375
      -0.916
      -0.455
      -0.056
       0.234
       0.404
       0.472
       0.457
       0.365
       0.193
      -0.033
      -0.247
      -0.380
      -0.419
      -0.418
      -0.449
      -0.535
      -0.634
      -0.672
      -0.602
      -0.425
      -0.182
       0.084
       0.343
       0.577
       0.752
       0.822
       0.748
       0.525
       0.184
      -0.232
      -0.682
      -1.126
      -1.514
      -1.781
      -1.861
      -1.720
      -1.364
      -0.842
      -0.222
       0.425
       1.035
       1.556
       1.954
       2.224
       2.382
       2.449
       2.437
       2.341
       2.148
       1.846
       1.435
       0.936
       0.377
      -0.216
      -0.825
      -1.436
      -2.031
      -2.589
      -3.085
      -3.493
      -3.774
      -3.883
      -3.796
      -3.534
      -3.159
      -2.744
      -2.334
      -1.933
      -1.530
      -1.133
      -0.773
      -0.472
      -0.225
      -0.005
       0.204
       0.382
       0.496
       0.536
       0.523
       0.488
       0.438
       0.357
       0.225
       0.033
      -0.217
      -0.529
      -0.900
      -1.314
      -1.732
      -2.106
      -2.395
      -2.575
      -2.635
      -2.575
      -2.405
      -2.140
      -1.806
      -1.443
      -1.105
      -0.849
      -0.718
      -0.727
      -0.863
      -1.098
      -1.395
      -1.717
      -2.016
      -2.236
      -2.329
      -2.279
      -2.109
      -1.870
      -1.601
      -1.310
      -0.971
      -0.565
      -0.094
       0.403
       0.875
       1.272
       1.562
       1.731
       1.785
       1.739
       1.624
       1.486
       1.380
       1.364
       1.468
       1.684
       1.969
       2.267
       2.527
       2.711
       2.788
       2.739
       2.565
       2.281
       1.901
       1.436
       0.905
       0.354
      -0.140
      -0.496
      -0.666
      -0.647
      -0.463
      -0.162
       0.188
       0.511
       0.748
       0.874
       0.901
       0.843
       0.697
       0.442
       0.073
      -0.384
      -0.877
      -1.348
      -1.739
      -1.987
      -2.028
      -1.810
      -1.310
      -0.550
       0.410
       1.491
       2.620
       3.736
       4.778
       5.681
       6.376
       6.809
       6.964
       6.854
       6.509
       5.949
       5.187
       4.255
       3.221
       2.179
       1.222
       0.409
      -0.238
      -0.731
      -1.091
      -1.345
      -1.530
      -1.701
      -1.924
      -2.266
      -2.770
      -3.437
      -4.222
      -5.058
      -5.895
      -6.712
      -7.485
      -8.146
      -8.584
      -8.687
      -8.400
      -7.742
      -6.780
      -5.594
      -4.253
      -2.828
      -1.414
      -0.125
       0.931
       1.691
       2.137
       2.286
       2.183
       1.892
       1.494
       1.074
       0.703
       0.430
       0.287
       0.297
       0.488
       0.866
       1.388
       1.959
       2.456
       2.778
       2.881
       2.775
       2.497
       2.080
       1.565
       1.013
       0.496
       0.084
      -0.174
      -0.247
      -0.120
       0.196
       0.642
       1.131
       1.568
       1.887
       2.059
       2.089
       1.997
       1.804
       1.536
       1.230
       0.932
       0.686
       0.520
       0.446
       0.463
       0.559
       0.722
       0.948
       1.227
       1.519
       1.750
       1.847
       1.774
       1.541
       1.182
       0.737
       0.239
      -0.274
      -0.762
      -1.180
      -1.493
      -1.678
      -1.737
      -1.696
      -1.598
      -1.502
      -1.466
      -1.524
      -1.678
      -1.902
      -2.149
      -2.368
      -2.506
      -2.518
      -2.366
      -2.028
      -1.485
      -0.738
       0.186
       1.218
       2.252
       3.169
       3.878
       4.335
       4.544
       4.528
       4.303
       3.884
       3.307
       2.637
       1.952
       1.308
       0.725
       0.204
      -0.249
      -0.617
      -0.871
      -0.987
      -0.965
      -0.848
      -0.702
      -0.590
      -0.552
      -0.606
      -0.762
      -1.029
      -1.404
      -1.866
      -2.365
      -2.830
      -3.191
      -3.400
      -3.444
      -3.322
      -3.032
      -2.573
      -1.967
      -1.272
      -0.567
       0.065
       0.569
       0.927
       1.145
       1.231
       1.179
       0.998
       0.741
       0.504
       0.384
       0.427
       0.616
       0.900
       1.228
       1.566
       1.886
       2.157
       2.345
       2.422
       2.382
       2.236
       2.003
       1.685
       1.267
       0.727
       0.059
      -0.719
      -1.567
      -2.413
      -3.170
      -3.759
      -4.148
      -4.358
      -4.434
      -4.413
      -4.319
      -4.171
      -3.994
      -3.816
      -3.652
      -3.490
      -3.292
      -3.019
      -2.644
      -2.174
      -1.635
      -1.059
      -0.453
       0.198
       0.903
       1.638
       2.347
       2.966
       3.466
       3.851
       4.141
       4.343
       4.447
       4.442
       4.330
       4.117
       3.805
       3.393
       2.892
       2.334
       1.761
       1.197
       0.638
       0.076
      -0.474
      -0.973
      -1.377
      -1.673
      -1.882
      -2.038
      -2.148
      -2.175
      -2.061
      -1.759
      -1.280
      -0.700
      -0.139
       0.292
       0.544
       0.636
       0.631
       0.582
       0.513
       0.428
       0.339
       0.286
       0.335
       0.551
       0.969
       1.573
       2.306
       3.086
       3.828
       4.447
       4.865
       5.032
       4.939
       4.627
       4.163
       3.613
       3.024
       2.443
       1.920
       1.513
       1.259
       1.154
       1.164
       1.243
       1.359
       1.486
       1.591
       1.630
       1.564
       1.381
       1.104
       0.779
       0.447
       0.140
      -0.118
      -0.306
      -0.410
      -0.435
      -0.415
      -0.397
      -0.420
      -0.507
      -0.663
      -0.879
      -1.140
      -1.426
      -1.717
      -1.992
      -2.226
      -2.394
      -2.467
      -2.408
      -2.181
      -1.768
      -1.191
      -0.520
       0.142
       0.706
       1.131
       1.422
       1.603
       1.678
       1.632
       1.456
       1.173
       0.830
       0.478
       0.149
      -0.151
      -0.430
      -0.696
      -0.947
      -1.186
      -1.434
      -1.726
      -2.099
      -2.575
      -3.145
      -3.763
      -4.345
      -4.797
      -5.060
      -5.134
      -5.058
      -4.875
      -4.603
      -4.253
      -3.848
      -3.427
      -3.019
      -2.618
      -2.190
      -1.695
      -1.109
      -0.446
       0.240
       0.876
       1.397
       1.774
       2.016
       2.160
       2.258
       2.361
       2.487
       2.624
       2.751
       2.853
       2.920
       2.928
       2.847
       2.660
       2.389
       2.092
       1.829
       1.621
       1.450
       1.301
       1.191
       1.166
       1.252
       1.421
       1.594
       1.693
       1.690
       1.604
       1.467
       1.289
       1.065
       0.796
       0.495
       0.180
      -0.137
      -0.442
      -0.716
      -0.939
      -1.105
      -1.237
      -1.389
      -1.607
      -1.903
      -2.236
      -2.534
      -2.720
      -2.750
      -2.628
      -2.401
      -2.111
      -1.778
      -1.396
      -0.971
      -0.529
      -0.113
       0.240
       0.507
       0.671
       0.708
       0.611
       0.405
       0.156
      -0.062
      -0.196
      -0.235
      -0.202
      -0.139
      -0.089
      -0.083
      -0.132
      -0.244
      -0.427
      -0.697
      -1.060
      -1.503
      -1.980
      -2.421
      -2.761
      -2.968
      -3.049
      -3.036
      -2.957
      -2.826
      -2.653
      -2.448
      -2.233
      -2.032
      -1.866
      -1.751
      -1.697
      -1.703
      -1.759
      -1.855
      -1.983
      -2.133
      -2.286
      -2.410
      -2.476
      -2.460
      -2.335
      -2.071
      -1.641
      -1.050
      -0.342
       0.404
       1.102
       1.703
       2.213
       2.660
       3.053
       3.369
       3.576
       3.670
       3.679
       3.659
       3.673
       3.765
       3.941
       4.164
       4.372
       4.505
       4.520
       4.391
       4.103
       3.659
       3.090
       2.450
       1.794
       1.156
       0.570
