Origin Time       16/4/2013 01:23:19	
Lat.              26.3 N	
Long.             92.0 E	
Depth (Km)         16.0
Magnitude         4.6
 Region           Assam-Darrang                                                    
 Above details taken from IMD 
     
Station Code      NAU
Station Lat.       26.349  N
Station Long.      92.690  E
Station Height(m)   78.0
Site Class        C   Vs30 between 200 m/sec to 375 m/sec *  
Record Time       16.04.2013 01:23:09.629
Sampling Rate     200. Hz
 Record Duration   90.335 Sec.
 Direction         E-W (E positive)
Max. Acceleration     -9.168 cm/sec**2
     
  * For reference see Site Classification link of website 
     
 Base Line Corrected and Low Pass Filtered (Cut Off at 35 Hz) Time History
 Acceleration data in cm/sec**2
    
[...]
      -0.204
      -0.159
      -0.053
       0.093
       0.265
       0.443
       0.591
       0.649
       0.566
       0.336
       0.019
      -0.282
      -0.484
      -0.569
      -0.587
      -0.602
      -0.627
      -0.611
      -0.484
      -0.229
       0.088
       0.357
       0.496
       0.500
       0.427
       0.346
       0.285
       0.233
       0.177
       0.124
       0.101
       0.114
       0.132
       0.111
       0.026
      -0.114
      -0.277
      -0.429
      -0.534
      -0.550
      -0.437
      -0.197
       0.114
       0.404
       0.596
       0.671
       0.652
       0.577
       0.456
       0.280
       0.047
      -0.205
      -0.405
      -0.488
      -0.443
      -0.323
      -0.198
      -0.096
       0.015
       0.181
       0.399
       0.596
       0.684
       0.641
       0.535
       0.454
       0.417
       0.342
       0.134
      -0.203
      -0.541
      -0.729
      -0.706
      -0.547
      -0.391
      -0.321
      -0.310
      -0.260
      -0.118
       0.057
       0.133
       0.023
      -0.215
      -0.402
      -0.371
      -0.100
       0.266
       0.531
       0.588
       0.474
       0.316
       0.207
       0.150
       0.084
      -0.027
      -0.153
      -0.232
      -0.237
      -0.215
      -0.237
      -0.335
      -0.475
      -0.588
      -0.627
      -0.586
      -0.482
      -0.336
      -0.157
       0.047
       0.256
       0.438
       0.564
       0.625
       0.640
       0.643
       0.659
       0.695
       0.738
       0.755
       0.707
       0.568
       0.351
       0.113
      -0.063
      -0.126
      -0.083
      -0.004
       0.034
       0.000
      -0.065
      -0.089
      -0.037
       0.057
       0.116
       0.091
      -0.007
      -0.132
      -0.250
      -0.361
      -0.475
      -0.580
      -0.643
      -0.640
      -0.578
      -0.494
      -0.420
      -0.373
      -0.356
      -0.363
      -0.381
      -0.384
      -0.347
      -0.263
      -0.153
      -0.066
      -0.043
      -0.097
      -0.198
      -0.294
      -0.336
      -0.306
      -0.218
      -0.106
      -0.001
       0.081
       0.133
       0.160
       0.167
       0.153
       0.109
       0.023
      -0.093
      -0.180
      -0.162
      -0.001
       0.246
       0.439
       0.453
       0.273
       0.018
      -0.145
      -0.120
       0.063
       0.288
       0.450
       0.518
       0.532
       0.543
       0.565
       0.562
       0.497
       0.365
       0.207
       0.078
       0.000
      -0.054
      -0.130
      -0.246
      -0.372
      -0.450
      -0.439
      -0.345
      -0.209
      -0.080
       0.006
       0.023
      -0.040
      -0.163
      -0.286
      -0.336
      -0.277
      -0.147
      -0.030
       0.007
      -0.049
      -0.152
      -0.239
      -0.265
      -0.226
      -0.158
      -0.119
      -0.151
      -0.239
      -0.312
      -0.291
      -0.148
       0.071
       0.281
       0.427
       0.510
       0.573
       0.646
       0.709
       0.702
       0.586
       0.384
       0.174
       0.031
      -0.012
       0.029
       0.123
       0.245
       0.370
       0.463
       0.480
       0.398
       0.242
       0.080
      -0.028
      -0.074
      -0.111
      -0.190
      -0.306
      -0.398
      -0.396
      -0.286
      -0.125
      -0.007
      -0.002
      -0.113
      -0.280
      -0.428
      -0.529
      -0.605
      -0.689
      -0.772
      -0.794
      -0.680
      -0.399
       0.002
       0.418
       0.733
       0.878
       0.856
       0.716
       0.512
       0.275
       0.027
      -0.210
      -0.420
      -0.608
      -0.789
      -0.960
      -1.073
      -1.059
      -0.873
      -0.532
      -0.109
       0.309
       0.652
       0.877
       0.963
       0.903
       0.717
       0.457
       0.205
       0.037
      -0.015
       0.019
       0.074
       0.080
       0.002
      -0.149
      -0.310
      -0.401
      -0.375
      -0.244
      -0.075
       0.067
       0.155
       0.211
       0.277
       0.375
       0.488
       0.570
       0.572
       0.494
       0.386
       0.320
       0.328
       0.372
       0.377
       0.291
       0.145
       0.034
       0.057
       0.236
       0.490
       0.668
       0.644
       0.397
       0.031
      -0.299
      -0.488
      -0.547
      -0.570
      -0.641
      -0.762
      -0.858
      -0.852
      -0.733
      -0.554
      -0.388
      -0.271
      -0.193
      -0.130
      -0.072
      -0.032
      -0.026
      -0.053
      -0.092
      -0.120
      -0.131
      -0.139
      -0.162
      -0.196
      -0.206
      -0.155
      -0.034
       0.119
       0.243
       0.297
       0.283
       0.240
       0.207
       0.192
       0.171
       0.119
       0.039
      -0.040
      -0.084
      -0.072
      -0.006
       0.089
       0.162
       0.158
       0.067
      -0.041
      -0.045
       0.128
       0.414
       0.633
       0.621
       0.365
       0.029
      -0.173
      -0.134
       0.080
       0.306
       0.421
       0.407
       0.318
       0.204
       0.068
      -0.101
      -0.281
      -0.414
      -0.455
      -0.424
      -0.401
      -0.459
      -0.601
      -0.747
      -0.801
      -0.725
      -0.575
      -0.436
      -0.358
      -0.326
      -0.298
      -0.248
      -0.179
      -0.094
       0.023
       0.190
       0.383
       0.530
       0.558
       0.457
       0.310
       0.237
       0.307
       0.494
       0.701
       0.830
       0.833
       0.715
       0.516
       0.296
       0.116
       0.016
      -0.012
      -0.016
      -0.046
      -0.111
      -0.162
      -0.140
      -0.030
       0.110
       0.181
       0.114
      -0.082
      -0.324
      -0.510
      -0.585
      -0.571
      -0.538
      -0.543
      -0.589
      -0.635
      -0.639
      -0.598
      -0.544
      -0.505
      -0.465
      -0.372
      -0.185
       0.087
       0.376
       0.599
       0.698
       0.659
       0.499
       0.262
       0.006
      -0.204
      -0.327
      -0.369
      -0.362
      -0.339
      -0.292
      -0.193
      -0.020
       0.201
       0.407
       0.538
       0.580
       0.572
       0.565
       0.584
       0.610
       0.605
       0.541
       0.412
       0.228
       0.006
      -0.232
      -0.455
      -0.615
      -0.666
      -0.590
      -0.425
      -0.246
      -0.124
      -0.079
      -0.073
      -0.039
       0.074
       0.268
       0.489
       0.640
       0.635
       0.454
       0.176
      -0.068
      -0.186
      -0.190
      -0.184
      -0.271
      -0.448
      -0.592
      -0.548
      -0.253
       0.192
       0.575
       0.715
       0.578
       0.296
       0.053
      -0.037
       0.003
       0.057
       0.025
      -0.104
      -0.256
      -0.348
      -0.359
      -0.341
      -0.367
      -0.467
      -0.589
      -0.627
      -0.486
      -0.145
       0.314
       0.744
       0.996
       0.990
       0.751
       0.396
       0.066
      -0.154
      -0.271
      -0.345
      -0.399
      -0.369
      -0.159
       0.246
       0.719
       1.043
       1.053
       0.747
       0.283
      -0.133
      -0.383
      -0.488
      -0.557
      -0.674
      -0.824
      -0.914
      -0.865
      -0.696
      -0.508
      -0.391
      -0.341
      -0.269
      -0.102
       0.137
       0.344
       0.417
       0.347
       0.210
       0.088
       0.004
      -0.085
      -0.220
      -0.383
      -0.504
      -0.516
      -0.404
      -0.199
       0.045
       0.282
       0.469
       0.564
       0.536
       0.379
       0.131
      -0.131
      -0.321
      -0.376
      -0.294
      -0.133
       0.021
       0.097
       0.070
      -0.023
      -0.104
      -0.100
       0.009
       0.185
       0.372
       0.555
       0.758
       0.982
       1.164
       1.205
       1.054
       0.754
       0.415
       0.139
      -0.024
      -0.070
      -0.016
       0.111
       0.270
       0.405
       0.461
       0.412
       0.282
       0.122
      -0.018
      -0.119
      -0.189
      -0.252
      -0.344
      -0.489
      -0.679
      -0.858
      -0.945
      -0.888
      -0.713
      -0.512
      -0.378
      -0.333
      -0.312
      -0.214
       0.004
       0.275
       0.453
       0.421
       0.181
      -0.154
      -0.439
      -0.602
      -0.673
      -0.726
      -0.793
      -0.828
      -0.746
      -0.512
      -0.174
       0.158
       0.376
       0.428
       0.324
       0.138
      -0.018
      -0.039
       0.096
       0.306
       0.452
       0.440
       0.285
       0.093
      -0.014
       0.023
       0.183
       0.394
       0.587
       0.726
       0.801
       0.802
       0.700
       0.481
       0.175
      -0.154
      -0.443
      -0.667
      -0.822
      -0.907
      -0.908
      -0.826
      -0.682
      -0.514
      -0.347
      -0.177
       0.010
       0.197
       0.329
       0.343
       0.217
      -0.013
      -0.279
      -0.514
      -0.668
      -0.711
      -0.631
      -0.452
      -0.230
      -0.023
       0.140
       0.264
       0.355
       0.401
       0.381
       0.304
       0.218
       0.188
       0.237
       0.334
       0.412
       0.422
       0.369
       0.309
       0.306
       0.382
       0.499
       0.579
       0.555
       0.409
       0.193
      -0.010
      -0.134
      -0.182
      -0.212
      -0.286
      -0.403
      -0.493
      -0.474
      -0.312
      -0.046
       0.242
       0.467
       0.581
       0.586
       0.530
       0.468
       0.420
       0.352
       0.213
      -0.008
      -0.256
      -0.444
      -0.526
      -0.527
      -0.523
      -0.570
      -0.652
      -0.688
      -0.608
      -0.413
      -0.186
      -0.021
       0.042
       0.029
      -0.022
      -0.109
      -0.254
      -0.438
      -0.583
      -0.591
      -0.435
      -0.184
       0.048
       0.189
       0.260
       0.329
       0.437
       0.562
       0.652
       0.677
       0.646
       0.573
       0.457
       0.299
       0.124
      -0.018
      -0.090
      -0.095
      -0.076
      -0.064
      -0.051
      -0.006
       0.091
       0.212
       0.297
       0.297
       0.209
       0.085
      -0.006
      -0.026
       0.004
       0.031
       0.034
       0.049
       0.140
       0.338
       0.598
       0.819
       0.901
       0.813
       0.611
       0.414
       0.324
       0.356
       0.412
       0.353
       0.102
      -0.297
      -0.703
      -0.975
      -1.055
      -0.988
      -0.873
      -0.782
      -0.717
      -0.621
      -0.446
      -0.208
       0.019
       0.160
       0.193
       0.151
       0.085
       0.010
      -0.094
      -0.246
      -0.420
      -0.551
      -0.591
      -0.551
      -0.488
      -0.448
      -0.417
      -0.346
      -0.187
       0.067
       0.383
       0.698
       0.936
       1.019
       0.902
       0.591
       0.156
      -0.298
      -0.674
      -0.919
      -1.026
      -1.012
      -0.887
      -0.651
      -0.308
       0.096
       0.466
       0.695
       0.725
       0.585
       0.383
       0.239
       0.213
       0.279
       0.350
       0.341
       0.207
      -0.044
      -0.364
      -0.681
      -0.916
      -1.015
      -0.970
      -0.824
      -0.630
      -0.421
      -0.197
       0.041
       0.265
       0.424
       0.470
       0.402
       0.274
       0.166
       0.139
       0.190
       0.261
       0.281
       0.217
       0.099
       0.001
       0.004
       0.141
       0.371
       0.606
       0.768
       0.847
       0.896
       0.971
       1.072
       1.135
       1.072
       0.840
       0.470
       0.057
      -0.286
      -0.480
      -0.513
      -0.429
      -0.303
      -0.202
      -0.165
      -0.198
      -0.287
      -0.415
      -0.566
      -0.721
      -0.837
      -0.847
      -0.696
      -0.395
      -0.040
       0.240
       0.371
       0.375
       0.327
       0.273
       0.182
       0.001
      -0.276
      -0.580
      -0.816
      -0.929
      -0.930
      -0.869
      -0.783
      -0.670
      -0.507
      -0.295
      -0.075
       0.090
       0.163
       0.157
       0.121
       0.099
       0.106
       0.122
       0.108
       0.016
      -0.181
      -0.466
      -0.778
      -1.047
      -1.236
      -1.344
      -1.392
      -1.401
      -1.393
      -1.390
      -1.404
      -1.425
      -1.418
      -1.354
      -1.229
      -1.073
      -0.920
      -0.789
      -0.675
      -0.577
      -0.506
      -0.485
      -0.515
      -0.549
      -0.489
      -0.242
       0.219
       0.814
       1.388
       1.798
       2.009
       2.107
       2.223
       2.429
       2.690
       2.914
       3.044
       3.115
       3.212
       3.389
       3.615
       3.803
       3.888
       3.883
       3.857
       3.884
       3.993
       4.153
       4.295
       4.356
       4.303
       4.152
       3.957
       3.783
       3.668
       3.587
       3.461
       3.191
       2.736
       2.137
       1.504
       0.944
       0.495
       0.117
      -0.268
      -0.699
      -1.143
      -1.531
      -1.830
      -2.088
      -2.403
      -2.856
      -3.457
      -4.136
      -4.784
      -5.315
      -5.702
      -5.983
      -6.223
      -6.475
      -6.768
      -7.120
      -7.545
      -8.044
      -8.562
      -8.985
      -9.168
      -9.017
      -8.556
      -7.930
      -7.328
      -6.880
      -6.586
      -6.338
      -6.009
      -5.543
      -4.965
      -4.330
      -3.653
      -2.902
      -2.040
      -1.067
      -0.009
       1.102
       2.246
       3.396
       4.503
       5.494
       6.296
       6.857
       7.158
       7.223
       7.118
       6.926
       6.723
       6.556
       6.439
       6.356
       6.250
       6.044
       5.695
       5.257
       4.890
       4.788
       5.071
       5.723
       6.602
       7.509
       8.265
       8.751
       8.900
       8.659
       7.976
       6.837
       5.318
       3.611
       1.948
       0.496
      -0.710
      -1.733
      -2.644
      -3.448
      -4.087
      -4.494
      -4.653
      -4.617
      -4.481
      -4.333
      -4.227
      -4.199
      -4.291
      -4.538
      -4.941
      -5.420
      -5.836
      -6.044
      -5.973
      -5.678
      -5.302
      -4.988
      -4.770
      -4.547
      -4.181
      -3.643
      -3.080
      -2.740
      -2.819
      -3.327
      -4.074
      -4.738
      -4.993
      -4.624
      -3.613
      -2.131
      -0.456
       1.165
       2.598
       3.802
       4.748
       5.397
       5.732
       5.819
       5.797
       5.806
       5.885
       5.927
       5.717
       5.061
       3.930
       2.537
       1.261
       0.461
       0.296
       0.650
       1.226
       1.716
       1.952
       1.942
       1.811
       1.682
       1.603
       1.543
       1.446
       1.285
       1.070
       0.808
       0.469
      -0.011
      -0.688
      -1.566
      -2.588
      -3.657
      -4.673
      -5.541
      -6.162
      -6.419
      -6.209
      -5.509
      -4.416
      -3.131
      -1.888
      -0.888
      -0.270
      -0.123
      -0.488
      -1.316
      -2.434
      -3.553
      -4.362
      -4.645
      -4.350
      -3.572
      -2.482
      -1.260
      -0.055
       1.026
       1.896
       2.482
       2.737
       2.680
       2.418
       2.117
       1.922
       1.904
       2.062
       2.367
       2.778
       3.235
       3.652
       3.930
       4.012
       3.917
       3.730
       3.557
       3.486
       3.555
       3.747
       3.981
       4.131
       4.070
       3.740
       3.198
       2.578
       1.994
       1.462
       0.908
       0.263
      -0.443
      -1.076
      -1.500
      -1.669
      -1.640
      -1.484
      -1.226
      -0.864
      -0.427
      -0.007
       0.296
       0.455
       0.533
       0.602
       0.671
       0.667
       0.505
       0.159
      -0.332
      -0.910
      -1.547
      -2.237
      -2.950
      -3.622
      -4.186
      -4.621
      -4.949
      -5.188
      -5.292
      -5.151
      -4.654
      -3.775
      -2.624
      -1.417
      -0.373
       0.388
       0.876
       1.175
       1.364
       1.473
       1.506
       1.481
       1.441
       1.418
       1.413
       1.411
       1.423
       1.494
       1.653
       1.849
       1.958
       1.877
       1.615
       1.306
       1.113
       1.134
       1.355
       1.667
       1.914
       1.942
       1.664
       1.097
       0.345
      -0.462
      -1.225
      -1.887
      -2.403
      -2.725
      -2.798
      -2.574
      -2.047
      -1.290
      -0.470
       0.215
       0.636
       0.794
       0.789
       0.720
       0.616
       0.436
       0.129
      -0.311
      -0.823
      -1.320
      -1.731
      -2.021
      -2.188
      -2.241
      -2.207
      -2.152
      -2.147
      -2.204
      -2.226
      -2.052
      -1.588
      -0.915
      -0.252
       0.208
       0.454
       0.657
       1.018
       1.576
       2.146
       2.448
       2.325
       1.884
       1.419
       1.202
       1.307
       1.597
       1.854
       1.933
       1.824
       1.615
       1.393
       1.167
       0.866
       0.424
      -0.126
      -0.626
      -0.876
      -0.751
      -0.278
       0.376
       0.999
       1.450
       1.725
       1.918
       2.097
       2.220
       2.167
       1.861
       1.354
       0.793
       0.320
       0.000
      -0.187
      -0.313
      -0.490
      -0.838
      -1.416
      -2.151
      -2.838
      -3.233
      -3.201
      -2.800
      -2.257
      -1.827
      -1.639
      -1.651
      -1.711
      -1.687
      -1.556
      -1.402
      -1.333
      -1.381
      -1.458
      -1.403
      -1.108
      -0.613
      -0.114
       0.150
       0.044
      -0.377
      -0.898
      -1.270
      -1.335
      -1.062
      -0.502
       0.268
       1.145
       1.989
       2.645
       3.014
       3.099
       2.978
       2.729
       2.399
       2.021
       1.671
       1.457
       1.446
       1.582
       1.675
       1.496
       0.925
       0.044
      -0.907
      -1.678
      -2.131
      -2.261
      -2.136
      -1.824
      -1.382
      -0.883
      -0.408
      -0.019
       0.269
       0.469
       0.577
       0.558
       0.406
       0.193
       0.069
       0.155
       0.454
       0.853
       1.217
       1.463
       1.561
       1.484
       1.203
       0.728
       0.147
      -0.417
      -0.887
      -1.264
      -1.582
      -1.838
      -1.974
      -1.929
      -1.708
      -1.400
      -1.132
      -0.977
      -0.897
      -0.764
      -0.467
       0.008
       0.565
       1.072
       1.441
       1.646
       1.695
       1.586
       1.289
       0.762
       0.001
      -0.905
      -1.764
      -2.339
      -2.469
      -2.158
      -1.572
      -0.926
      -0.347
       0.184
       0.762
       1.435
       2.127
       2.668
       2.891
       2.743
       2.318
       1.822
       1.462
       1.353
       1.487
       1.763
       2.070
       2.341
       2.555
       2.689
