Origin Time       14/7/2012 19:55:18	
Lat.              25.5 N	
Long.             94.2 E	
Depth (Km)         35.0
Magnitude         5.5
 Region           Kohima-Nagaland                                                  
 Above details taken from IMD 
     
Station Code      NAU
Station Lat.       26.349  N
Station Long.      92.690  E
Station Height(m)   78.0
Site Class        C   Vs30 between 200 m/sec to 375 m/sec *  
Record Time       14.07.2012 19:55:52.674
Sampling Rate     200. Hz
 Record Duration   84.595 Sec.
 Direction         E-W (E positive)
Max. Acceleration      4.580 cm/sec**2
     
  * For reference see Site Classification link of website 
     
 Base Line Corrected and Low Pass Filtered (Cut Off at 35 Hz) Time History
 Acceleration data in cm/sec**2
    
[...]
       0.870
       0.957
       0.866
       0.617
       0.255
      -0.192
      -0.731
      -1.374
      -2.096
      -2.808
      -3.380
      -3.715
      -3.800
      -3.709
      -3.537
      -3.323
      -3.041
      -2.633
      -2.072
      -1.381
      -0.613
       0.176
       0.933
       1.597
       2.093
       2.365
       2.418
       2.323
       2.183
       2.076
       2.023
       2.016
       2.045
       2.106
       2.186
       2.247
       2.244
       2.149
       1.972
       1.739
       1.475
       1.189
       0.889
       0.593
       0.331
       0.132
       0.009
      -0.052
      -0.091
      -0.155
      -0.288
      -0.517
      -0.854
      -1.287
      -1.793
      -2.333
      -2.860
      -3.316
      -3.637
      -3.773
      -3.698
      -3.417
      -2.955
      -2.357
      -1.688
      -1.034
      -0.480
      -0.077
       0.175
       0.313
       0.374
       0.366
       0.277
       0.093
      -0.176
      -0.483
      -0.754
      -0.899
      -0.839
      -0.527
       0.022
       0.717
       1.405
       1.921
       2.158
       2.102
       1.828
       1.451
       1.057
       0.687
       0.338
       0.002
      -0.309
      -0.558
      -0.700
      -0.710
      -0.603
      -0.431
      -0.260
      -0.148
      -0.128
      -0.218
      -0.414
      -0.691
      -0.990
      -1.231
      -1.327
      -1.217
      -0.895
      -0.415
       0.113
       0.570
       0.876
       1.016
       1.029
       0.971
       0.883
       0.787
       0.698
       0.637
       0.631
       0.699
       0.843
       1.038
       1.228
       1.347
       1.355
       1.269
       1.143
       1.030
       0.941
       0.847
       0.711
       0.519
       0.285
       0.033
      -0.221
      -0.470
      -0.710
      -0.930
      -1.111
      -1.233
      -1.265
      -1.170
      -0.904
      -0.452
       0.148
       0.799
       1.376
       1.776
       1.958
       1.951
       1.828
       1.667
       1.520
       1.411
       1.356
       1.360
       1.417
       1.499
       1.553
       1.526
       1.384
       1.122
       0.761
       0.347
      -0.058
      -0.384
      -0.570
      -0.589
      -0.460
      -0.241
      -0.008
       0.183
       0.312
       0.394
       0.453
       0.503
       0.541
       0.559
       0.561
       0.562
       0.565
       0.543
       0.447
       0.239
      -0.077
      -0.442
      -0.777
      -1.017
      -1.144
      -1.186
      -1.193
      -1.211
      -1.260
      -1.328
      -1.375
      -1.354
      -1.242
      -1.051
      -0.825
      -0.614
      -0.458
      -0.363
      -0.299
      -0.223
      -0.094
       0.100
       0.338
       0.579
       0.777
       0.900
       0.936
       0.893
       0.797
       0.676
       0.553
       0.436
       0.320
       0.201
       0.078
      -0.049
      -0.186
      -0.350
      -0.559
      -0.813
      -1.086
      -1.341
      -1.550
      -1.712
      -1.848
      -1.976
      -2.094
      -2.172
      -2.168
      -2.050
      -1.806
      -1.448
      -1.003
      -0.505
       0.008
       0.488
       0.869
       1.077
       1.065
       0.846
       0.493
       0.103
      -0.256
      -0.566
      -0.836
      -1.063
      -1.220
      -1.276
      -1.236
      -1.150
      -1.078
      -1.039
      -0.989
      -0.853
      -0.575
      -0.157
       0.345
       0.860
       1.344
       1.790
       2.208
       2.590
       2.887
       3.026
       2.949
       2.662
       2.247
       1.822
       1.480
       1.235
       1.024
       0.753
       0.350
      -0.197
      -0.838
      -1.485
      -2.040
      -2.427
      -2.602
      -2.559
      -2.328
      -1.975
      -1.588
      -1.252
      -1.023
      -0.906
      -0.850
      -0.764
      -0.545
      -0.136
       0.447
       1.107
       1.705
       2.113
       2.268
       2.186
       1.940
       1.621
       1.296
       1.005
       0.757
       0.541
       0.319
       0.034
      -0.366
      -0.893
      -1.487
      -2.040
      -2.437
      -2.611
      -2.563
      -2.342
      -2.011
      -1.628
      -1.248
      -0.919
      -0.690
      -0.588
      -0.613
      -0.730
      -0.887
      -1.031
      -1.129
      -1.169
      -1.143
      -1.041
      -0.858
      -0.615
      -0.348
      -0.094
       0.138
       0.371
       0.639
       0.951
       1.289
       1.610
       1.857
       1.977
       1.934
       1.736
       1.450
       1.193
       1.077
       1.156
       1.397
       1.710
       2.000
       2.204
       2.304
       2.294
       2.158
       1.868
       1.420
       0.866
       0.319
      -0.098
      -0.312
      -0.331
      -0.229
      -0.085
       0.047
       0.151
       0.227
       0.266
       0.252
       0.171
       0.038
      -0.106
      -0.215
      -0.275
      -0.323
      -0.424
      -0.621
      -0.904
      -1.208
      -1.454
      -1.589
      -1.610
      -1.540
      -1.405
      -1.216
      -0.975
      -0.685
      -0.369
      -0.073
       0.147
       0.245
       0.217
       0.112
       0.012
      -0.024
       0.005
       0.051
       0.054
      -0.015
      -0.148
      -0.316
      -0.483
      -0.612
      -0.658
      -0.586
      -0.379
      -0.051
       0.372
       0.863
       1.403
       1.958
       2.470
       2.851
       3.021
       2.944
       2.649
       2.219
       1.737
       1.251
       0.773
       0.306
      -0.123
      -0.468
      -0.694
      -0.800
      -0.809
      -0.753
      -0.645
      -0.490
      -0.298
      -0.106
       0.017
       0.002
      -0.184
      -0.517
      -0.931
      -1.350
      -1.712
      -1.982
      -2.147
      -2.202
      -2.155
      -2.027
      -1.848
      -1.647
      -1.438
      -1.222
      -1.002
      -0.792
      -0.609
      -0.452
      -0.295
      -0.100
       0.155
       0.464
       0.803
       1.141
       1.443
       1.653
       1.703
       1.536
       1.149
       0.607
       0.013
      -0.532
      -0.973
      -1.296
      -1.501
      -1.571
      -1.474
      -1.193
      -0.769
      -0.295
       0.113
       0.369
       0.450
       0.397
       0.281
       0.173
       0.106
       0.067
       0.011
      -0.108
      -0.307
      -0.566
      -0.837
      -1.063
      -1.187
      -1.162
      -0.963
      -0.610
      -0.185
       0.199
       0.453
       0.561
       0.588
       0.633
       0.772
       1.034
       1.406
       1.865
       2.381
       2.909
       3.382
       3.717
       3.856
       3.785
       3.531
       3.128
       2.601
       1.980
       1.311
       0.653
       0.050
      -0.490
      -0.977
      -1.403
      -1.725
      -1.898
      -1.924
      -1.874
      -1.854
      -1.935
      -2.109
      -2.308
      -2.461
      -2.548
      -2.596
      -2.640
      -2.686
      -2.706
      -2.668
      -2.555
      -2.374
      -2.132
      -1.830
      -1.462
      -1.021
      -0.513
       0.039
       0.598
       1.122
       1.576
       1.938
       2.204
       2.387
       2.503
       2.564
       2.566
       2.490
       2.319
       2.056
       1.729
       1.394
       1.101
       0.879
       0.709
       0.533
       0.283
      -0.082
      -0.543
      -1.026
      -1.428
      -1.662
      -1.691
      -1.536
      -1.262
      -0.942
      -0.633
      -0.373
      -0.178
      -0.054
       0.018
       0.063
       0.102
       0.132
       0.132
       0.083
       0.001
      -0.069
      -0.087
      -0.051
       0.007
       0.053
       0.082
       0.120
       0.196
       0.319
       0.474
       0.645
       0.823
       0.999
       1.142
       1.200
       1.118
       0.870
       0.485
       0.041
      -0.352
      -0.582
      -0.576
      -0.326
       0.114
       0.650
       1.187
       1.652
       2.013
       2.274
       2.465
       2.628
       2.797
       2.990
       3.200
       3.399
       3.532
       3.523
       3.309
       2.870
       2.255
       1.563
       0.903
       0.349
      -0.088
      -0.454
      -0.814
      -1.219
      -1.673
      -2.136
      -2.542
      -2.829
      -2.956
      -2.919
      -2.750
      -2.503
      -2.232
      -1.968
      -1.722
      -1.499
      -1.318
      -1.211
      -1.202
      -1.280
      -1.398
      -1.499
      -1.545
      -1.528
      -1.473
      -1.429
      -1.463
      -1.630
      -1.948
      -2.383
      -2.861
      -3.306
      -3.656
      -3.870
      -3.915
      -3.761
      -3.394
      -2.839
      -2.158
      -1.444
      -0.786
      -0.244
       0.176
       0.515
       0.845
       1.229
       1.684
       2.182
       2.669
       3.106
       3.481
       3.805
       4.077
       4.281
       4.395
       4.416
       4.361
       4.238
       4.024
       3.672
       3.149
       2.466
       1.680
       0.872
       0.118
      -0.523
      -1.012
      -1.335
      -1.506
      -1.581
      -1.634
      -1.737
      -1.920
      -2.158
      -2.398
      -2.588
      -2.705
      -2.748
      -2.722
      -2.617
      -2.415
      -2.114
      -1.741
      -1.346
      -0.980
      -0.672
      -0.434
      -0.271
      -0.196
      -0.236
      -0.411
      -0.713
      -1.099
      -1.502
      -1.847
      -2.066
      -2.119
      -2.007
      -1.774
      -1.500
      -1.274
      -1.151
      -1.131
      -1.156
      -1.142
      -1.026
      -0.788
      -0.453
      -0.071
       0.314
       0.669
       0.976
       1.218
       1.390
       1.499
       1.563
       1.597
       1.599
       1.553
       1.456
       1.337
       1.252
       1.263
       1.403
       1.652
       1.944
       2.186
       2.304
       2.261
       2.068
       1.762
       1.394
       1.016
       0.680
       0.430
       0.288
       0.244
       0.263
       0.300
       0.311
       0.268
       0.160
      -0.005
      -0.208
      -0.422
      -0.617
      -0.765
      -0.852
      -0.888
      -0.911
      -0.955
      -1.031
      -1.116
      -1.163
      -1.134
      -1.022
      -0.861
      -0.698
      -0.566
      -0.464
      -0.374
      -0.270
      -0.139
       0.022
       0.209
       0.409
       0.615
       0.825
       1.047
       1.280
       1.514
       1.727
       1.902
       2.040
       2.152
       2.249
       2.331
       2.387
       2.412
       2.424
       2.457
       2.540
       2.666
       2.802
       2.905
       2.956
       2.969
       2.971
       2.978
       2.972
       2.909
       2.744
       2.454
       2.053
       1.578
       1.062
       0.518
      -0.051
      -0.640
      -1.223
      -1.769
      -2.244
      -2.629
      -2.919
      -3.110
      -3.192
      -3.138
      -2.916
      -2.520
      -2.001
      -1.466
      -1.045
      -0.826
      -0.806
      -0.889
      -0.935
      -0.839
      -0.585
      -0.248
       0.064
       0.262
       0.311
       0.219
       0.008
      -0.301
      -0.687
      -1.128
      -1.600
      -2.071
      -2.494
      -2.801
      -2.917
      -2.804
      -2.481
      -2.024
      -1.521
      -1.036
      -0.590
      -0.170
       0.239
       0.629
       0.966
       1.199
       1.286
       1.206
       0.969
       0.624
       0.245
      -0.092
      -0.336
      -0.480
      -0.549
      -0.582
      -0.612
      -0.659
      -0.729
      -0.825
      -0.945
      -1.088
      -1.236
      -1.352
      -1.391
      -1.325
      -1.159
      -0.931
      -0.687
      -0.450
      -0.210
       0.063
       0.394
       0.775
       1.162
       1.497
       1.731
       1.846
       1.857
       1.796
       1.699
       1.597
       1.516
       1.476
       1.484
       1.524
       1.566
       1.570
       1.506
       1.361
       1.145
       0.888
       0.632
       0.413
       0.242
       0.106
      -0.018
      -0.144
      -0.264
      -0.360
      -0.420
      -0.443
      -0.429
      -0.378
      -0.294
      -0.192
      -0.102
      -0.044
      -0.018
      -0.001
       0.035
       0.111
       0.227
       0.370
       0.519
       0.657
       0.770
       0.844
       0.862
       0.803
       0.642
       0.346
      -0.103
      -0.683
      -1.311
      -1.874
      -2.283
      -2.533
      -2.697
      -2.851
      -2.999
      -3.060
      -2.935
      -2.592
      -2.097
      -1.560
      -1.073
      -0.674
      -0.368
      -0.156
      -0.040
       0.003
       0.024
       0.078
       0.175
       0.267
       0.281
       0.184
       0.012
      -0.154
      -0.245
      -0.246
      -0.186
      -0.104
      -0.011
       0.117
       0.301
       0.525
       0.729
       0.849
       0.863
       0.806
       0.733
       0.678
       0.621
       0.509
       0.297
      -0.021
      -0.403
      -0.789
      -1.120
      -1.362
      -1.500
      -1.531
      -1.459
      -1.294
      -1.056
      -0.775
      -0.489
      -0.240
      -0.057
       0.052
       0.107
       0.121
       0.084
      -0.031
      -0.238
      -0.497
      -0.719
      -0.813
      -0.729
      -0.486
      -0.161
       0.141
       0.338
       0.408
       0.403
       0.425
       0.574
       0.891
       1.345
       1.853
       2.325
       2.717
       3.032
       3.305
       3.566
       3.823
       4.064
       4.272
       4.433
       4.537
       4.580
       4.557
       4.454
       4.250
       3.918
       3.444
       2.847
       2.175
       1.497
       0.883
       0.389
       0.043
      -0.158
      -0.242
      -0.247
      -0.208
      -0.149
      -0.082
      -0.010
       0.058
       0.094
       0.048
      -0.129
      -0.452
      -0.886
      -1.362
      -1.801
      -2.147
      -2.361
      -2.422
      -2.330
      -2.115
      -1.841
      -1.587
      -1.413
      -1.345
      -1.367
      -1.448
      -1.551
      -1.647
      -1.717
      -1.760
      -1.798
      -1.866
      -1.996
      -2.184
      -2.379
      -2.500
      -2.480
      -2.306
      -2.025
      -1.720
      -1.460
      -1.274
      -1.147
      -1.040
      -0.906
      -0.706
      -0.417
      -0.042
       0.389
       0.817
       1.159
       1.331
       1.280
       1.007
       0.571
       0.063
      -0.419
      -0.805
      -1.054
      -1.154
      -1.118
      -0.991
      -0.838
      -0.722
      -0.668
      -0.647
      -0.610
      -0.525
      -0.415
      -0.337
      -0.333
      -0.390
      -0.447
      -0.440
      -0.347
      -0.194
      -0.031
       0.109
       0.229
       0.356
       0.517
       0.721
       0.955
       1.186
       1.376
       1.503
       1.554
       1.527
       1.415
       1.213
       0.928
       0.594
       0.262
      -0.007
      -0.162
      -0.186
      -0.111
      -0.001
       0.077
       0.096
       0.073
       0.060
       0.101
       0.215
       0.391
       0.602
       0.820
       1.019
       1.174
       1.262
       1.269
       1.204
       1.105
       1.020
       0.990
       1.013
       1.051
       1.043
       0.941
       0.738
       0.466
       0.173
      -0.113
      -0.393
      -0.690
      -1.026
      -1.397
      -1.763
      -2.061
      -2.240
      -2.286
      -2.228
      -2.116
      -1.992
      -1.881
      -1.800
      -1.780
      -1.855
      -2.037
      -2.283
      -2.499
      -2.579
      -2.450
      -2.102
      -1.584
      -0.978
      -0.370
       0.166
       0.581
       0.850
       0.980
       1.002
       0.956
       0.874
       0.772
       0.658
       0.554
       0.492
       0.505
       0.607
       0.779
       0.983
       1.178
       1.334
       1.429
       1.446
       1.371
       1.208
       0.994
       0.809
       0.735
       0.815
       1.018
       1.258
       1.452
       1.567
       1.621
       1.639
       1.614
       1.504
       1.266
       0.902
       0.461
       0.009
      -0.414
      -0.806
      -1.177
      -1.508
      -1.746
      -1.834
      -1.753
      -1.547
      -1.300
      -1.092
      -0.966
      -0.914
      -0.902
      -0.881
      -0.807
      -0.639
      -0.345
       0.080
       0.603
       1.152
       1.633
       1.968
       2.116
       2.079
       1.889
       1.583
       1.204
       0.795
       0.406
       0.087
      -0.130
      -0.244
      -0.289
      -0.312
      -0.349
      -0.411
      -0.481
      -0.532
      -0.546
      -0.518
      -0.458
      -0.376
      -0.277
      -0.159
      -0.022
       0.126
       0.268
       0.389
       0.472
       0.509
       0.501
       0.458
       0.401
       0.351
       0.318
       0.299
       0.275
       0.230
       0.158
       0.070
       0.001
      -0.002
       0.098
       0.300
       0.550
       0.759
       0.838
       0.742
       0.482
       0.110
      -0.307
      -0.715
      -1.079
      -1.375
      -1.579
      -1.670
      -1.627
      -1.457
      -1.197
      -0.918
      -0.699
      -0.589
      -0.584
      -0.638
      -0.690
      -0.696
      -0.642
      -0.538
      -0.396
      -0.217
       0.003
       0.255
       0.512
       0.731
       0.875
       0.925
       0.882
       0.759
       0.587
       0.402
       0.238
       0.109
       0.014
      -0.058
      -0.112
      -0.149
      -0.171
      -0.176
      -0.163
      -0.117
      -0.020
       0.135
       0.335
       0.542
       0.708
       0.795
       0.792
       0.707
       0.554
       0.335
       0.049
      -0.289
      -0.630
      -0.909
      -1.075
      -1.120
      -1.088
      -1.041
      -1.022
      -1.027
      -1.027
      -1.001
      -0.969
      -0.984
      -1.078
      -1.237
      -1.401
      -1.517
      -1.571
      -1.592
      -1.623
      -1.679
      -1.727
      -1.709
      -1.573
      -1.311
      -0.964
      -0.592
      -0.250
       0.040
       0.280
       0.478
       0.630
       0.710
       0.690
       0.569
       0.391
       0.231
       0.168
       0.241
       0.441
       0.711
       0.985
       1.210
       1.374
       1.488
       1.568
       1.616
       1.622
       1.578
       1.485
       1.358
       1.217
       1.079
       0.953
       0.832
       0.695
       0.516
       0.273
      -0.027
      -0.344
      -0.623
      -0.817
      -0.908
      -0.908
      -0.852
      -0.775
      -0.712
      -0.683
      -0.691
      -0.717
      -0.735
      -0.718
      -0.659
      -0.568
      -0.466
      -0.376
      -0.328
      -0.350
      -0.461
      -0.657
      -0.895
      -1.112
      -1.238
      -1.220
      -1.026
      -0.659
      -0.167
       0.370
       0.861
       1.238
       1.486
       1.653
       1.833
       2.105
       2.488
       2.931
       3.342
       3.651
       3.847
       3.973
       4.082
       4.195
       4.279
       4.276
       4.140
       3.856
       3.448
       2.960
       2.442
       1.945
       1.511
       1.172
       0.936
       0.787
       0.696
       0.636
       0.604
       0.607
       0.646
       0.691
       0.686
       0.584
       0.386
       0.145
      -0.056
      -0.159
      -0.159
