Origin Time       22/12/2012 16:41:44
Lat.              22.5 N	
Long.             94.8 E	
Depth (Km)        115.0
Magnitude         5.7
 Region           Myanmar                                                          
 Above details taken from IMD 
   
Station Code      NAU
Station Lat.       26.349
Station Long.      92.690
Station Height(m)   78.0
Site Class        C   Vs30 between 200 m/sec to 375 m/sec *  
Record Time       22.12.2012 16:40:53.209
Sampling Rate     200. Hz
 Record Duration   74.660 Sec.
 Direction         Vert. (Up positive)
Max. Acceleration      7.473 cm/sec**2
     
  * For reference see Site Classification link of website 
     
 Base Line Corrected and Low Pass Filtered (Cut Off at 35 Hz) Time History
 Acceleration data in cm/sec**2
    
[...]
       0.300
       0.032
      -0.198
      -0.352
      -0.427
      -0.449
      -0.447
      -0.428
      -0.387
      -0.323
      -0.253
      -0.187
      -0.098
       0.062
       0.307
       0.576
       0.761
       0.784
       0.649
       0.429
       0.210
       0.043
      -0.070
      -0.155
      -0.230
      -0.291
      -0.309
      -0.254
      -0.128
       0.025
       0.141
       0.160
       0.060
      -0.133
      -0.356
      -0.544
      -0.662
      -0.700
      -0.661
      -0.547
      -0.368
      -0.155
       0.053
       0.223
       0.341
       0.396
       0.380
       0.285
       0.123
      -0.071
      -0.242
      -0.330
      -0.299
      -0.153
       0.070
       0.319
       0.552
       0.740
       0.865
       0.914
       0.871
       0.728
       0.485
       0.166
      -0.187
      -0.527
      -0.815
      -1.026
      -1.137
      -1.125
      -0.969
      -0.666
      -0.244
       0.224
       0.650
       0.965
       1.147
       1.214
       1.183
       1.049
       0.790
       0.398
      -0.090
      -0.586
      -0.990
      -1.222
      -1.247
      -1.077
      -0.755
      -0.347
       0.082
       0.478
       0.803
       1.023
       1.088
       0.958
       0.638
       0.191
      -0.289
      -0.722
      -1.061
      -1.272
      -1.314
      -1.166
      -0.861
      -0.480
      -0.107
       0.213
       0.476
       0.676
       0.788
       0.784
       0.669
       0.486
       0.289
       0.105
      -0.066
      -0.221
      -0.334
      -0.370
      -0.313
      -0.178
       0.006
       0.220
       0.448
       0.661
       0.810
       0.839
       0.713
       0.440
       0.071
      -0.320
      -0.662
      -0.904
      -1.016
      -0.993
      -0.842
      -0.583
      -0.245
       0.132
       0.492
       0.772
       0.926
       0.930
       0.777
       0.477
       0.063
      -0.396
      -0.817
      -1.132
      -1.304
      -1.320
      -1.185
      -0.913
      -0.543
      -0.132
       0.261
       0.587
       0.812
       0.904
       0.834
       0.594
       0.223
      -0.189
      -0.539
      -0.752
      -0.816
      -0.755
      -0.600
      -0.371
      -0.096
       0.177
       0.396
       0.534
       0.611
       0.664
       0.719
       0.775
       0.809
       0.793
       0.710
       0.563
       0.379
       0.206
       0.084
       0.030
       0.022
       0.019
      -0.013
      -0.086
      -0.188
      -0.306
      -0.422
      -0.518
      -0.575
      -0.583
      -0.556
      -0.523
      -0.501
      -0.484
      -0.447
      -0.369
      -0.245
      -0.089
       0.063
       0.170
       0.200
       0.158
       0.087
       0.036
       0.027
       0.042
       0.048
       0.029
      -0.011
      -0.053
      -0.082
      -0.089
      -0.069
      -0.025
       0.031
       0.081
       0.113
       0.138
       0.183
       0.269
       0.382
       0.466
       0.457
       0.341
       0.172
       0.042
       0.017
       0.098
       0.227
       0.338
       0.397
       0.409
       0.393
       0.354
       0.282
       0.173
       0.043
      -0.077
      -0.168
      -0.233
      -0.291
      -0.355
      -0.421
      -0.470
      -0.485
      -0.472
      -0.468
      -0.526
      -0.662
      -0.841
      -0.986
      -1.033
      -0.971
      -0.840
      -0.686
      -0.519
      -0.315
      -0.050
       0.253
       0.534
       0.732
       0.820
       0.803
       0.701
       0.531
       0.324
       0.130
       0.007
      -0.008
       0.073
       0.198
       0.316
       0.409
       0.491
       0.572
       0.626
       0.606
       0.488
       0.290
       0.062
      -0.145
      -0.294
      -0.360
      -0.330
      -0.220
      -0.072
       0.064
       0.156
       0.194
       0.182
       0.122
       0.012
      -0.141
      -0.310
      -0.460
      -0.567
      -0.630
      -0.656
      -0.647
      -0.591
      -0.476
      -0.295
      -0.066
       0.177
       0.399
       0.579
       0.711
       0.782
       0.755
       0.600
       0.333
       0.030
      -0.218
      -0.369
      -0.439
      -0.464
      -0.451
      -0.379
      -0.246
      -0.086
       0.050
       0.137
       0.184
       0.206
       0.195
       0.128
      -0.002
      -0.169
      -0.319
      -0.402
      -0.391
      -0.291
      -0.132
       0.037
       0.160
       0.185
       0.099
      -0.059
      -0.210
      -0.281
      -0.248
      -0.147
      -0.041
       0.026
       0.061
       0.120
       0.254
       0.463
       0.691
       0.872
       0.980
       1.027
       1.029
       0.988
       0.892
       0.742
       0.552
       0.332
       0.089
      -0.165
      -0.405
      -0.601
      -0.721
      -0.736
      -0.633
      -0.423
      -0.143
       0.154
       0.422
       0.630
       0.751
       0.755
       0.614
       0.334
      -0.042
      -0.437
      -0.767
      -0.967
      -1.004
      -0.878
      -0.619
      -0.283
       0.066
       0.371
       0.599
       0.743
       0.801
       0.756
       0.581
       0.267
      -0.148
      -0.582
      -0.949
      -1.204
      -1.356
      -1.425
      -1.406
      -1.265
      -0.981
      -0.594
      -0.183
       0.181
       0.477
       0.710
       0.871
       0.929
       0.865
       0.697
       0.470
       0.232
       0.024
      -0.117
      -0.176
      -0.164
      -0.104
       0.003
       0.174
       0.412
       0.664
       0.844
       0.900
       0.852
       0.781
       0.753
       0.776
       0.802
       0.783
       0.703
       0.592
       0.490
       0.418
       0.358
       0.260
       0.067
      -0.241
      -0.634
      -1.040
      -1.378
      -1.591
      -1.657
      -1.589
      -1.422
      -1.199
      -0.955
      -0.728
      -0.557
      -0.476
      -0.497
      -0.592
      -0.703
      -0.774
      -0.768
      -0.672
      -0.479
      -0.193
       0.157
       0.504
       0.766
       0.889
       0.882
       0.801
       0.710
       0.661
       0.684
       0.784
       0.929
       1.062
       1.137
       1.142
       1.096
       1.016
       0.911
       0.787
       0.661
       0.542
       0.423
       0.279
       0.099
      -0.091
      -0.226
      -0.247
      -0.141
       0.032
       0.182
       0.236
       0.172
       0.018
      -0.180
      -0.370
      -0.523
      -0.629
      -0.696
      -0.731
      -0.726
      -0.665
      -0.546
      -0.394
      -0.248
      -0.145
      -0.097
      -0.095
      -0.130
      -0.206
      -0.333
      -0.513
      -0.714
      -0.887
      -0.994
      -1.015
      -0.946
      -0.775
      -0.499
      -0.131
       0.283
       0.682
       1.009
       1.212
       1.254
       1.101
       0.738
       0.186
      -0.488
      -1.167
      -1.713
      -2.012
      -2.009
      -1.726
      -1.232
      -0.610
       0.074
       0.757
       1.370
       1.820
       2.018
       1.911
       1.499
       0.833
       0.009
      -0.847
      -1.589
      -2.099
      -2.319
      -2.260
      -1.966
      -1.474
      -0.802
       0.013
       0.891
       1.704
       2.322
       2.649
       2.646
       2.319
       1.714
       0.905
      -0.006
      -0.900
      -1.656
      -2.173
      -2.386
      -2.276
      -1.868
      -1.216
      -0.386
       0.542
       1.462
       2.237
       2.718
       2.792
       2.419
       1.638
       0.553
      -0.698
      -1.974
      -3.146
      -4.081
      -4.633
      -4.680
      -4.183
      -3.217
      -1.936
      -0.495
       0.985
       2.403
       3.647
       4.585
       5.094
       5.103
       4.623
       3.749
       2.621
       1.386
       0.183
      -0.857
      -1.615
      -2.008
      -2.026
      -1.736
      -1.253
      -0.685
      -0.116
       0.385
       0.739
       0.862
       0.685
       0.204
      -0.504
      -1.314
      -2.108
      -2.806
      -3.345
      -3.644
      -3.612
      -3.202
      -2.455
      -1.481
      -0.410
       0.655
       1.644
       2.512
       3.227
       3.762
       4.096
       4.212
       4.103
       3.766
       3.209
       2.462
       1.607
       0.761
       0.047
      -0.448
      -0.674
      -0.614
      -0.285
       0.246
       0.848
       1.348
       1.586
       1.478
       1.040
       0.365
      -0.430
      -1.241
      -1.996
      -2.648
      -3.162
      -3.511
      -3.672
      -3.612
      -3.312
      -2.780
      -2.080
      -1.319
      -0.625
      -0.112
       0.155
       0.179
       0.036
      -0.156
      -0.284
      -0.273
      -0.093
       0.259
       0.764
       1.372
       2.011
       2.614
       3.139
       3.563
       3.852
       3.949
       3.799
       3.394
       2.783
       2.059
       1.323
       0.651
       0.088
      -0.344
      -0.647
      -0.848
      -0.998
      -1.163
      -1.397
      -1.718
      -2.101
      -2.488
      -2.815
      -3.041
      -3.164
      -3.203
      -3.172
      -3.058
      -2.841
      -2.528
      -2.150
      -1.733
      -1.270
      -0.746
      -0.182
       0.362
       0.837
       1.262
       1.714
       2.261
       2.890
       3.527
       4.087
       4.517
       4.778
       4.833
       4.658
       4.274
       3.762
       3.227
       2.740
       2.287
       1.764
       1.060
       0.146
      -0.880
      -1.863
      -2.693
      -3.359
      -3.900
      -4.331
      -4.616
      -4.715
      -4.628
      -4.404
      -4.110
      -3.784
      -3.415
      -2.951
      -2.340
      -1.563
      -0.638
       0.396
       1.482
       2.532
       3.427
       4.056
       4.356
       4.331
       4.024
       3.487
       2.779
       1.958
       1.068
       0.126
      -0.870
      -1.893
      -2.858
      -3.614
      -4.002
      -3.916
      -3.350
      -2.391
      -1.191
       0.059
       1.150
       1.906
       2.237
       2.190
       1.920
       1.594
       1.298
       1.031
       0.757
       0.481
       0.249
       0.118
       0.119
       0.245
       0.442
       0.612
       0.640
       0.452
       0.043
      -0.531
      -1.198
      -1.896
      -2.550
      -3.057
      -3.293
      -3.149
      -2.566
      -1.573
      -0.287
       1.107
       2.430
       3.572
       4.499
       5.188
       5.563
       5.498
       4.898
       3.778
       2.273
       0.573
      -1.145
      -2.738
      -4.078
      -5.048
      -5.565
      -5.611
      -5.221
      -4.456
      -3.402
      -2.197
      -1.034
      -0.094
       0.544
       0.929
       1.163
       1.308
       1.357
       1.272
       1.043
       0.719
       0.389
       0.143
       0.035
       0.087
       0.301
       0.682
       1.236
       1.924
       2.624
       3.129
       3.245
       2.918
       2.274
       1.511
       0.748
      -0.009
      -0.775
      -1.496
      -2.059
      -2.380
      -2.447
      -2.292
      -1.961
      -1.513
      -1.048
      -0.688
      -0.551
      -0.714
      -1.179
      -1.838
      -2.503
      -2.981
      -3.168
      -3.055
      -2.665
      -2.002
      -1.084
       0.013
       1.163
       2.257
       3.244
       4.095
       4.743
       5.059
       4.893
       4.151
       2.853
       1.138
      -0.768
      -2.615
      -4.170
      -5.224
      -5.600
      -5.192
      -4.028
      -2.306
      -0.348
       1.509
       3.025
       4.101
       4.730
       4.923
       4.655
       3.898
       2.687
       1.149
      -0.529
      -2.155
      -3.573
      -4.655
      -5.302
      -5.454
      -5.098
      -4.246
      -2.938
      -1.288
       0.473
       2.027
       3.091
       3.522
       3.355
       2.755
       1.933
       1.063
       0.251
      -0.421
      -0.833
      -0.847
      -0.420
       0.314
       1.122
       1.832
       2.395
       2.794
       2.928
       2.638
       1.844
       0.637
      -0.776
      -2.201
      -3.529
      -4.692
      -5.582
      -6.018
      -5.813
      -4.888
      -3.342
      -1.435
       0.517
       2.250
       3.614
       4.565
       5.113
       5.280
       5.084
       4.554
       3.752
       2.780
       1.764
       0.833
       0.081
      -0.461
      -0.833
      -1.115
      -1.378
      -1.648
      -1.911
      -2.136
      -2.299
      -2.384
      -2.387
      -2.329
      -2.249
      -2.182
      -2.123
      -2.047
      -1.939
      -1.801
      -1.626
      -1.382
      -1.032
      -0.567
      -0.004
       0.649
       1.413
       2.295
       3.214
       3.985
       4.406
       4.386
       3.987
       3.353
       2.614
       1.855
       1.149
       0.564
       0.139
      -0.148
      -0.360
      -0.544
      -0.687
      -0.716
      -0.553
      -0.187
       0.301
       0.776
       1.120
       1.265
       1.193
       0.927
       0.516
       0.006
      -0.582
      -1.254
      -1.990
      -2.707
      -3.285
      -3.638
      -3.767
      -3.722
      -3.541
      -3.209
      -2.692
      -1.992
      -1.182
      -0.390
       0.249
       0.649
       0.808
       0.792
       0.687
       0.550
       0.411
       0.286
       0.194
       0.150
       0.173
       0.315
       0.657
       1.252
       2.069
       3.007
       3.972
       4.928
       5.866
       6.714
       7.311
       7.473
       7.095
       6.193
       4.858
       3.205
       1.360
      -0.520
      -2.252
      -3.677
      -4.722
      -5.404
      -5.784
      -5.900
      -5.756
      -5.358
      -4.759
      -4.072
      -3.413
      -2.862
      -2.437
      -2.126
      -1.912
      -1.783
      -1.725
      -1.705
      -1.670
      -1.556
      -1.308
      -0.885
      -0.248
       0.646
       1.788
       3.057
       4.214
       5.010
       5.314
       5.146
       4.582
       3.664
       2.412
       0.898
      -0.711
      -2.191
      -3.333
      -3.984
      -4.080
      -3.644
      -2.767
      -1.557
      -0.139
       1.313
       2.552
       3.312
       3.434
       2.937
       1.971
       0.714
      -0.686
      -2.070
      -3.220
      -3.898
      -3.963
      -3.467
      -2.626
      -1.686
      -0.793
       0.013
       0.698
       1.154
       1.230
       0.859
       0.110
      -0.862
      -1.925
      -2.991
      -3.960
      -4.667
      -4.919
      -4.591
      -3.706
      -2.435
      -1.001
       0.440
       1.855
       3.280
       4.684
       5.881
       6.583
       6.573
       5.841
       4.573
       3.022
       1.406
      -0.105
      -1.369
      -2.273
      -2.734
      -2.688
      -2.098
      -1.013
       0.361
       1.717
       2.790
       3.479
       3.821
       3.855
       3.559
       2.903
       1.948
       0.864
      -0.142
      -0.910
      -1.368
      -1.531
      -1.466
      -1.255
      -0.966
      -0.654
      -0.377
      -0.197
      -0.153
      -0.228
      -0.371
      -0.558
      -0.851
      -1.356
      -2.116
      -3.016
      -3.811
      -4.263
      -4.266
      -3.849
      -3.083
      -2.008
      -0.647
       0.935
       2.591
       4.127
       5.356
       6.157
       6.484
       6.333
       5.712
       4.653
       3.277
       1.805
       0.494
      -0.481
      -1.093
      -1.427
      -1.573
      -1.574
      -1.446
      -1.238
      -1.052
      -0.998
      -1.115
      -1.357
      -1.642
      -1.918
      -2.189
      -2.471
      -2.737
      -2.919
      -2.945
      -2.779
      -2.412
      -1.847
      -1.100
      -0.225
       0.688
       1.533
       2.211
       2.652
       2.806
       2.648
       2.192
       1.501
       0.693
      -0.084
      -0.697
      -1.073
      -1.229
      -1.253
      -1.248
      -1.256
      -1.225
      -1.047
      -0.650
      -0.072
       0.545
       1.054
       1.390
       1.570
       1.608
       1.437
       0.952
       0.127
      -0.907
      -1.915
      -2.688
      -3.140
      -3.301
      -3.260
      -3.095
      -2.833
      -2.447
      -1.901
      -1.200
      -0.413
       0.374
       1.100
       1.733
       2.239
       2.570
       2.688
       2.584
       2.280
       1.828
       1.320
       0.873
       0.582
       0.469
       0.491
       0.592
       0.744
       0.941
       1.166
       1.372
       1.468
       1.346
       0.919
       0.190
      -0.726
      -1.637
      -2.343
      -2.699
      -2.645
      -2.227
      -1.576
      -0.851
      -0.155
       0.503
       1.158
       1.797
       2.336
       2.672
       2.765
       2.655
       2.434
       2.191
       1.961
       1.710
       1.376
       0.948
       0.500
       0.141
      -0.072
      -0.160
      -0.199
      -0.295
      -0.565
      -1.091
      -1.842
      -2.657
      -3.342
      -3.786
      -3.977
      -3.910
      -3.521
      -2.754
      -1.679
      -0.511
       0.535
       1.396
       2.149
       2.862
       3.462
       3.765
       3.592
       2.886
       1.769
       0.526
      -0.501
      -1.088
      -1.234
      -1.070
      -0.696
      -0.103
       0.716
       1.639
       2.427
       2.871
       2.906
       2.584
       1.991
       1.198
       0.257
      -0.770
      -1.787
      -2.650
      -3.192
      -3.310
      -3.027
      -2.466
      -1.757
      -0.987
      -0.231
       0.423
       0.895
       1.146
       1.170
       0.968
       0.548
      -0.057
      -0.790
      -1.580
      -2.350
      -3.006
      -3.427
      -3.476
      -3.049
      -2.148
      -0.918
       0.417
       1.652
       2.649
       3.313
       3.565
       3.385
       2.857
       2.155
       1.466
       0.895
       0.437
       0.016
      -0.423
      -0.853
      -1.183
      -1.351
      -1.408
      -1.491
      -1.725
      -2.126
      -2.590
      -2.981
      -3.222
      -3.312
      -3.260
      -3.024
      -2.535
      -1.781
      -0.851
       0.116
       1.020
       1.839
       2.592
       3.271
       3.817
       4.162
       4.276
       4.183
       3.927
       3.526
       2.979
       2.307
       1.589
       0.934
       0.440
       0.160
       0.102
       0.219
       0.393
       0.446
       0.227
      -0.301
      -1.039
      -1.831
      -2.566
      -3.211
      -3.778
      -4.264
      -4.632
      -4.820
      -4.769
      -4.445
      -3.855
      -3.042
      -2.051
      -0.924
       0.259
       1.331
       2.081
       2.374
       2.246
       1.878
       1.468
       1.129
       0.860
       0.601
       0.306
      -0.006
      -0.272
      -0.446
      -0.538
      -0.575
      -0.544
      -0.394
      -0.100
       0.287
       0.665
       0.961
       1.160
       1.289
       1.378
       1.448
       1.524
       1.631
       1.779
       1.939
       2.041
       2.001
       1.776
       1.395
       0.944
       0.506
       0.105
      -0.273
      -0.622
      -0.899
      -1.070
      -1.154
      -1.185
      -1.169
      -1.083
      -0.934
      -0.776
      -0.653
      -0.539
      -0.347
       0.003
       0.533
       1.194
       1.878
