Origin Time       12/12/2010 01:40:04
Lat.              25.0 N	
Long.             93.3 E	
Depth (Km)         15.0
Magnitude         4.8
 Region           Manipur-Assam-Border                                             
 Above details taken from IMD 
   
Station Code      NAU
Station Lat.       26.349
Station Long.      92.690
Station Height(m)   72.0
Site Class        C   Vs30 between 200 m/sec to 375 m/sec *  
Record Time       12.12.2010 01:40:21.589
Sampling Rate     200. Hz
 Record Duration   81.330 Sec.
 Direction         Vert. (Up positive)
Max. Acceleration      6.945 cm/sec**2
     
  * For reference see Site Classification link of website 
     
 Base Line Corrected and Low Pass Filtered (Cut Off at 35 Hz) Time History
 Acceleration data in cm/sec**2
    
[...]
      -0.218
      -0.070
       0.090
       0.233
       0.341
       0.413
       0.448
       0.444
       0.397
       0.308
       0.186
       0.035
      -0.139
      -0.323
      -0.494
      -0.627
      -0.705
      -0.718
      -0.655
      -0.503
      -0.266
       0.023
       0.306
       0.521
       0.634
       0.649
       0.590
       0.488
       0.362
       0.225
       0.088
      -0.030
      -0.096
      -0.074
       0.049
       0.248
       0.460
       0.623
       0.702
       0.701
       0.639
       0.529
       0.359
       0.117
      -0.189
      -0.512
      -0.790
      -0.977
      -1.064
      -1.075
      -1.042
      -0.985
      -0.907
      -0.810
      -0.698
      -0.573
      -0.438
      -0.293
      -0.146
      -0.010
       0.108
       0.214
       0.318
       0.416
       0.485
       0.499
       0.466
       0.428
       0.436
       0.509
       0.614
       0.691
       0.693
       0.618
       0.497
       0.366
       0.244
       0.126
       0.006
      -0.110
      -0.202
      -0.253
      -0.267
      -0.267
      -0.265
      -0.253
      -0.208
      -0.114
       0.022
       0.168
       0.284
       0.343
       0.338
       0.273
       0.154
      -0.012
      -0.203
      -0.382
      -0.504
      -0.550
      -0.525
      -0.448
      -0.335
      -0.198
      -0.056
       0.064
       0.139
       0.170
       0.178
       0.187
       0.200
       0.199
       0.162
       0.082
      -0.029
      -0.153
      -0.275
      -0.382
      -0.450
      -0.455
      -0.387
      -0.258
      -0.095
       0.081
       0.268
       0.471
       0.679
       0.862
       0.982
       1.013
       0.944
       0.782
       0.552
       0.284
       0.005
      -0.268
      -0.528
      -0.769
      -0.973
      -1.109
      -1.146
      -1.070
      -0.899
      -0.672
      -0.436
      -0.231
      -0.084
      -0.002
       0.027
       0.027
       0.017
       0.008
       0.005
       0.019
       0.062
       0.133
       0.222
       0.314
       0.396
       0.458
       0.498
       0.518
       0.521
       0.505
       0.461
       0.385
       0.288
       0.192
       0.116
       0.061
       0.014
      -0.042
      -0.112
      -0.187
      -0.254
      -0.307
      -0.342
      -0.363
      -0.375
      -0.384
      -0.397
      -0.409
      -0.408
      -0.375
      -0.287
      -0.135
       0.065
       0.274
       0.445
       0.541
       0.556
       0.512
       0.447
       0.390
       0.347
       0.298
       0.226
       0.128
       0.024
      -0.069
      -0.154
      -0.250
      -0.370
      -0.495
      -0.582
      -0.592
      -0.526
      -0.417
      -0.311
      -0.232
      -0.184
      -0.151
      -0.120
      -0.082
      -0.036
       0.014
       0.066
       0.116
       0.149
       0.153
       0.128
       0.095
       0.085
       0.115
       0.184
       0.278
       0.372
       0.444
       0.473
       0.447
       0.367
       0.255
       0.137
       0.020
      -0.102
      -0.224
      -0.316
      -0.349
      -0.327
      -0.291
      -0.270
      -0.256
      -0.212
      -0.118
       0.007
       0.123
       0.201
       0.240
       0.243
       0.205
       0.124
       0.017
      -0.077
      -0.133
      -0.151
      -0.142
      -0.111
      -0.057
       0.009
       0.056
       0.056
       0.002
      -0.086
      -0.176
      -0.246
      -0.285
      -0.283
      -0.232
      -0.134
      -0.009
       0.112
       0.199
       0.239
       0.242
       0.228
       0.216
       0.203
       0.177
       0.124
       0.049
      -0.019
      -0.056
      -0.057
      -0.033
       0.003
       0.044
       0.075
       0.074
       0.028
      -0.038
      -0.081
      -0.076
      -0.046
      -0.044
      -0.104
      -0.212
      -0.329
      -0.428
      -0.516
      -0.605
      -0.680
      -0.702
      -0.639
      -0.497
      -0.316
      -0.142
      -0.002
       0.101
       0.176
       0.234
       0.293
       0.370
       0.475
       0.596
       0.701
       0.764
       0.785
       0.782
       0.769
       0.741
       0.674
       0.547
       0.364
       0.153
      -0.048
      -0.214
      -0.338
      -0.428
      -0.486
      -0.514
      -0.513
      -0.491
      -0.459
      -0.430
      -0.415
      -0.420
      -0.443
      -0.473
      -0.500
      -0.509
      -0.489
      -0.433
      -0.340
      -0.207
      -0.029
       0.191
       0.426
       0.630
       0.759
       0.798
       0.763
       0.687
       0.603
       0.528
       0.466
       0.416
       0.374
       0.331
       0.267
       0.160
       0.002
      -0.188
      -0.374
      -0.530
      -0.657
      -0.759
      -0.822
      -0.816
      -0.717
      -0.531
      -0.296
      -0.063
       0.132
       0.271
       0.353
       0.387
       0.388
       0.376
       0.370
       0.377
       0.382
       0.371
       0.344
       0.315
       0.295
       0.276
       0.236
       0.154
       0.023
      -0.149
      -0.336
      -0.508
      -0.627
      -0.665
      -0.618
      -0.515
      -0.402
      -0.321
      -0.288
      -0.297
      -0.318
      -0.315
      -0.264
      -0.167
      -0.050
       0.061
       0.159
       0.266
       0.399
       0.546
       0.661
       0.702
       0.654
       0.530
       0.349
       0.133
      -0.087
      -0.266
      -0.363
      -0.375
      -0.338
      -0.300
      -0.283
      -0.279
      -0.267
      -0.240
      -0.202
      -0.161
      -0.124
      -0.094
      -0.082
      -0.097
      -0.135
      -0.166
      -0.150
      -0.060
       0.095
       0.278
       0.447
       0.572
       0.640
       0.650
       0.614
       0.549
       0.464
       0.352
       0.189
      -0.035
      -0.300
      -0.557
      -0.758
      -0.880
      -0.926
      -0.895
      -0.770
      -0.541
      -0.235
       0.079
       0.329
       0.479
       0.533
       0.518
       0.453
       0.347
       0.206
       0.045
      -0.113
      -0.237
      -0.289
      -0.242
      -0.097
       0.106
       0.303
       0.445
       0.516
       0.529
       0.501
       0.434
       0.322
       0.170
      -0.006
      -0.181
      -0.334
      -0.450
      -0.519
      -0.533
      -0.491
      -0.413
      -0.330
      -0.278
      -0.271
      -0.302
      -0.346
      -0.378
      -0.383
      -0.361
      -0.310
      -0.220
      -0.076
       0.123
       0.346
       0.545
       0.680
       0.743
       0.756
       0.742
       0.701
       0.622
       0.496
       0.333
       0.164
       0.018
      -0.088
      -0.158
      -0.199
      -0.212
      -0.190
      -0.130
      -0.052
       0.008
       0.012
      -0.055
      -0.174
      -0.308
      -0.427
      -0.524
      -0.605
      -0.669
      -0.699
      -0.679
      -0.605
      -0.487
      -0.345
      -0.196
      -0.051
       0.088
       0.225
       0.372
       0.532
       0.692
       0.816
       0.865
       0.814
       0.664
       0.440
       0.182
      -0.070
      -0.279
      -0.415
      -0.461
      -0.413
      -0.295
      -0.144
       0.003
       0.128
       0.222
       0.274
       0.263
       0.174
       0.025
      -0.142
      -0.282
      -0.380
      -0.448
      -0.499
      -0.522
      -0.485
      -0.361
      -0.166
       0.044
       0.207
       0.288
       0.290
       0.232
       0.131
      -0.001
      -0.147
      -0.279
      -0.362
      -0.369
      -0.297
      -0.172
      -0.049
       0.012
      -0.007
      -0.066
      -0.088
      -0.014
       0.150
       0.337
       0.473
       0.523
       0.510
       0.484
       0.471
       0.463
       0.425
       0.335
       0.200
       0.043
      -0.105
      -0.214
      -0.263
      -0.242
      -0.170
      -0.080
      -0.007
       0.031
       0.038
       0.027
       0.009
      -0.014
      -0.040
      -0.066
      -0.097
      -0.139
      -0.191
      -0.236
      -0.248
      -0.213
      -0.139
      -0.056
       0.001
       0.014
      -0.010
      -0.051
      -0.096
      -0.143
      -0.195
      -0.257
      -0.329
      -0.405
      -0.471
      -0.495
      -0.447
      -0.323
      -0.142
       0.067
       0.292
       0.524
       0.738
       0.896
       0.954
       0.897
       0.739
       0.515
       0.257
      -0.005
      -0.244
      -0.429
      -0.528
      -0.518
      -0.398
      -0.195
       0.030
       0.209
       0.298
       0.300
       0.261
       0.223
       0.189
       0.133
       0.039
      -0.070
      -0.143
      -0.148
      -0.102
      -0.059
      -0.063
      -0.117
      -0.195
      -0.277
      -0.361
      -0.445
      -0.509
      -0.517
      -0.440
      -0.283
      -0.079
       0.120
       0.265
       0.324
       0.283
       0.162
       0.009
      -0.114
      -0.159
      -0.122
      -0.037
       0.057
       0.155
       0.277
       0.435
       0.603
       0.720
       0.737
       0.642
       0.475
       0.286
       0.108
      -0.053
      -0.192
      -0.295
      -0.345
      -0.339
      -0.285
      -0.197
      -0.098
      -0.029
      -0.032
      -0.132
      -0.305
      -0.490
      -0.622
      -0.662
      -0.610
      -0.488
      -0.333
      -0.173
      -0.026
       0.105
       0.223
       0.326
       0.405
       0.451
       0.457
       0.426
       0.365
       0.274
       0.150
      -0.012
      -0.208
      -0.425
      -0.644
      -0.847
      -1.022
      -1.157
      -1.233
      -1.219
      -1.079
      -0.795
      -0.387
       0.083
       0.541
       0.926
       1.207
       1.380
       1.459
       1.467
       1.421
       1.331
       1.201
       1.048
       0.899
       0.775
       0.666
       0.529
       0.334
       0.096
      -0.123
      -0.266
      -0.331
      -0.373
      -0.462
      -0.631
      -0.860
      -1.104
      -1.337
      -1.567
      -1.801
      -2.005
      -2.103
      -2.023
      -1.755
      -1.356
      -0.907
      -0.458
      -0.011
       0.441
       0.887
       1.290
       1.616
       1.850
       1.994
       2.051
       2.019
       1.899
       1.708
       1.464
       1.172
       0.831
       0.462
       0.119
      -0.136
      -0.272
      -0.316
      -0.328
      -0.358
      -0.421
      -0.504
      -0.585
      -0.650
      -0.695
      -0.720
      -0.739
      -0.772
      -0.842
      -0.965
      -1.130
      -1.295
      -1.388
      -1.339
      -1.110
      -0.729
      -0.276
       0.158
       0.514
       0.774
       0.947
       1.046
       1.084
       1.070
       1.006
       0.887
       0.721
       0.535
       0.363
       0.211
       0.041
      -0.194
      -0.484
      -0.741
      -0.850
      -0.754
      -0.495
      -0.173
       0.121
       0.345
       0.499
       0.601
       0.664
       0.685
       0.638
       0.497
       0.263
      -0.017
      -0.274
      -0.465
      -0.594
      -0.690
      -0.752
      -0.741
      -0.604
      -0.339
      -0.005
       0.304
       0.523
       0.648
       0.721
       0.783
       0.850
       0.900
       0.902
       0.835
       0.692
       0.479
       0.208
      -0.096
      -0.389
      -0.612
      -0.715
      -0.686
      -0.560
      -0.391
      -0.223
      -0.077
       0.029
       0.070
       0.032
      -0.077
      -0.230
      -0.416
      -0.647
      -0.931
      -1.228
      -1.447
      -1.493
      -1.335
      -1.014
      -0.598
      -0.119
       0.422
       1.011
       1.587
       2.052
       2.322
       2.366
       2.196
       1.837
       1.311
       0.648
      -0.081
      -0.773
      -1.327
      -1.683
      -1.840
      -1.836
      -1.707
      -1.464
      -1.113
      -0.675
      -0.202
       0.242
       0.611
       0.874
       1.010
       0.990
       0.789
       0.432
       0.013
      -0.334
      -0.511
      -0.510
      -0.393
      -0.233
      -0.066
       0.100
       0.256
       0.375
       0.411
       0.319
       0.087
      -0.246
      -0.582
      -0.805
      -0.845
      -0.721
      -0.525
      -0.368
      -0.311
      -0.346
      -0.409
      -0.435
      -0.395
      -0.308
      -0.213
      -0.142
      -0.109
      -0.110
      -0.128
      -0.132
      -0.076
       0.077
       0.326
       0.623
       0.908
       1.168
       1.450
       1.813
       2.267
       2.746
       3.140
       3.348
       3.307
       2.986
       2.378
       1.504
       0.435
      -0.727
      -1.886
      -2.971
      -3.913
      -4.625
      -5.022
      -5.070
      -4.799
      -4.273
      -3.556
      -2.712
      -1.835
      -1.035
      -0.405
       0.010
       0.226
       0.307
       0.356
       0.489
       0.794
       1.289
       1.917
       2.569
       3.142
       3.576
       3.861
       4.025
       4.100
       4.107
       4.054
       3.947
       3.798
       3.601
       3.302
       2.802
       2.019
       0.965
      -0.248
      -1.466
      -2.584
      -3.581
      -4.474
      -5.255
      -5.869
      -6.256
      -6.406
      -6.346
      -6.091
      -5.633
      -4.977
      -4.187
      -3.368
      -2.606
      -1.923
      -1.277
      -0.622
       0.072
       0.817
       1.631
       2.534
       3.515
       4.513
       5.431
       6.169
       6.672
       6.931
       6.945
       6.698
       6.170
       5.396
       4.476
       3.527
       2.612
       1.702
       0.719
      -0.380
      -1.537
      -2.609
      -3.457
      -4.032
      -4.379
      -4.571
      -4.652
      -4.622
      -4.480
      -4.249
      -3.970
      -3.678
      -3.388
      -3.097
      -2.786
      -2.424
      -1.981
      -1.450
      -0.861
      -0.265
       0.296
       0.820
       1.331
       1.847
       2.350
       2.795
       3.150
       3.424
       3.646
       3.811
       3.854
       3.695
       3.306
       2.746
       2.120
       1.516
       0.971
       0.468
      -0.033
      -0.553
      -1.065
      -1.507
      -1.813
      -1.959
      -1.970
      -1.909
      -1.835
      -1.759
      -1.644
      -1.441
      -1.143
      -0.805
      -0.517
      -0.339
      -0.263
      -0.221
      -0.141
      -0.008
       0.126
       0.184
       0.128
      -0.011
      -0.171
      -0.304
      -0.401
      -0.476
      -0.530
      -0.543
      -0.494
      -0.388
      -0.261
      -0.158
      -0.098
      -0.064
      -0.028
       0.023
       0.079
       0.127
       0.164
       0.204
       0.295
       0.499
       0.841
       1.251
       1.578
       1.687
       1.553
       1.281
       1.001
       0.773
       0.567
       0.359
       0.183
       0.103
       0.138
       0.248
       0.361
       0.408
       0.346
       0.172
      -0.069
      -0.304
      -0.475
      -0.580
      -0.674
      -0.788
      -0.888
      -0.911
      -0.850
      -0.767
      -0.736
      -0.785
      -0.892
      -1.007
      -1.080
      -1.096
      -1.067
      -1.007
      -0.904
      -0.734
      -0.470
      -0.107
       0.322
       0.753
       1.100
       1.276
       1.213
       0.890
       0.357
      -0.271
      -0.849
      -1.250
      -1.395
      -1.274
      -0.931
      -0.446
       0.097
       0.628
       1.098
       1.489
       1.804
       2.056
       2.249
       2.373
       2.424
       2.410
       2.344
       2.225
       2.026
       1.719
       1.289
       0.753
       0.149
      -0.456
      -0.968
      -1.290
      -1.371
      -1.240
      -1.009
      -0.831
      -0.836
      -1.099
      -1.628
      -2.376
      -3.243
      -4.081
      -4.721
      -5.012
      -4.868
      -4.295
      -3.392
      -2.317
      -1.240
      -0.283
       0.503
       1.127
       1.635
       2.083
       2.522
       2.970
       3.391
       3.702
       3.829
       3.767
       3.591
       3.396
       3.230
       3.096
       2.997
       2.962
       2.994
       3.008
       2.842
       2.361
       1.546
       0.512
      -0.578
      -1.597
      -2.484
      -3.222
      -3.806
      -4.236
      -4.514
      -4.646
      -4.637
      -4.491
      -4.197
      -3.728
      -3.065
      -2.226
      -1.282
      -0.348
       0.445
       0.993
       1.251
       1.235
       1.011
       0.667
       0.299
       0.005
      -0.126
      -0.032
       0.298
       0.818
       1.442
       2.069
       2.600
       2.957
       3.089
       2.971
       2.617
       2.086
       1.471
       0.856
       0.289
      -0.214
      -0.634
      -0.933
      -1.073
      -1.058
      -0.930
      -0.748
      -0.545
      -0.327
      -0.097
       0.121
       0.293
       0.397
       0.425
       0.377
       0.242
       0.016
      -0.280
      -0.580
      -0.805
      -0.911
      -0.917
      -0.872
      -0.808
      -0.730
      -0.632
      -0.535
      -0.478
      -0.483
      -0.534
      -0.591
      -0.619
      -0.598
      -0.519
      -0.378
      -0.201
      -0.051
       0.002
      -0.069
      -0.214
      -0.322
      -0.297
      -0.115
       0.171
       0.474
       0.735
       0.946
       1.127
       1.297
       1.450
       1.569
       1.641
       1.658
       1.606
       1.467
       1.221
       0.867
       0.437
      -0.003
      -0.377
      -0.622
      -0.717
      -0.686
      -0.594
      -0.526
      -0.554
      -0.712
      -0.976
      -1.283
      -1.547
      -1.697
      -1.687
      -1.510
      -1.190
      -0.772
      -0.311
       0.121
       0.442
       0.588
       0.551
       0.393
       0.224
       0.143
       0.186
       0.325
       0.500
       0.661
       0.774
       0.813
       0.764
       0.640
       0.487
       0.362
       0.294
       0.271
       0.254
       0.220
       0.180
       0.164
       0.192
       0.254
       0.320
       0.358
       0.341
       0.248
       0.070
      -0.188
      -0.503
      -0.837
      -1.143
      -1.372
      -1.488
      -1.475
      -1.353
      -1.161
      -0.947
      -0.741
      -0.547
      -0.352
      -0.153
       0.032
       0.177
       0.290
       0.425
       0.644
       0.959
       1.306
       1.583
       1.704
       1.646
       1.469
       1.287
       1.213
       1.295
       1.489
       1.681
       1.733
       1.548
       1.107
       0.470
      -0.263
      -0.995
      -1.653
      -2.194
      -2.596
      -2.865
      -3.023
      -3.087
      -3.058
      -2.919
      -2.655
      -2.270
      -1.783
      -1.221
      -0.618
      -0.018
       0.529
       0.980
       1.305
       1.491
       1.548
       1.505
       1.414
       1.338
       1.336
       1.455
       1.710
       2.071
       2.458
       2.770
       2.928
       2.908
       2.726
       2.405
       1.965
       1.421
       0.797
       0.123
      -0.573
      -1.277
      -1.976
      -2.649
      -3.251
      -3.725
      -4.016
      -4.094
      -3.962
      -3.647
      -3.173
      -2.558
      -1.836
      -1.078
      -0.378
       0.191
       0.616
       0.935
       1.200
       1.433
       1.616
