Origin Time       07/10/2013 20:54:03
Lat.              26.3 N	
Long.             92.5 E	
Depth (Km)         10.0
Magnitude         3.7
 Region           Naogaon-Assam                                                    
 Above details taken from IMD 
     
Station Code      NAU
Station Lat.       26.349  N
Station Long.      92.690  E
Station Height(m)   78.0
Site Class        C   Vs30 between 200 m/sec to 375 m/sec *  
Record Time       07.10.2013 20:53:41.244
Sampling Rate     200. Hz
 Record Duration   92.905 Sec.
 Direction         E-W (E positive)
Max. Acceleration      7.589 cm/sec**2
     
  * For reference see Site Classification link of website 
     
 Base Line Corrected and Low Pass Filtered (Cut Off at 35 Hz) Time History
 Acceleration data in cm/sec**2
    
[...]
       0.106
      -0.015
      -0.192
      -0.376
      -0.527
      -0.619
      -0.636
      -0.571
      -0.420
      -0.191
       0.085
       0.350
       0.524
       0.546
       0.413
       0.209
       0.064
       0.079
       0.263
       0.539
       0.798
       0.968
       1.045
       1.071
       1.095
       1.132
       1.160
       1.139
       1.048
       0.893
       0.691
       0.452
       0.186
      -0.084
      -0.324
      -0.516
      -0.682
      -0.870
      -1.102
      -1.345
      -1.522
      -1.559
      -1.432
      -1.170
      -0.829
      -0.472
      -0.166
       0.029
       0.087
       0.033
      -0.069
      -0.175
      -0.278
      -0.405
      -0.573
      -0.761
      -0.915
      -0.974
      -0.905
      -0.718
      -0.459
      -0.190
       0.033
       0.174
       0.235
       0.257
       0.300
       0.395
       0.528
       0.666
       0.798
       0.931
       1.054
       1.117
       1.073
       0.932
       0.774
       0.684
       0.693
       0.754
       0.789
       0.746
       0.620
       0.423
       0.167
      -0.137
      -0.443
      -0.677
      -0.776
      -0.734
      -0.605
      -0.461
      -0.350
      -0.284
      -0.259
      -0.271
      -0.302
      -0.306
      -0.233
      -0.071
       0.134
       0.296
       0.356
       0.317
       0.235
       0.174
       0.172
       0.219
       0.273
       0.276
       0.195
       0.037
      -0.146
      -0.292
      -0.378
      -0.446
      -0.569
      -0.775
      -0.997
      -1.106
      -1.011
      -0.736
      -0.417
      -0.202
      -0.150
      -0.189
      -0.180
      -0.024
       0.263
       0.562
       0.745
       0.782
       0.744
       0.736
       0.800
       0.881
       0.885
       0.745
       0.473
       0.142
      -0.165
      -0.397
      -0.532
      -0.561
      -0.484
      -0.340
      -0.209
      -0.175
      -0.250
      -0.342
      -0.310
      -0.083
       0.270
       0.572
       0.665
       0.523
       0.254
       0.010
      -0.126
      -0.166
      -0.174
      -0.183
      -0.177
      -0.132
      -0.056
       0.011
       0.052
       0.089
       0.159
       0.272
       0.390
       0.453
       0.415
       0.271
       0.058
      -0.178
      -0.404
      -0.597
      -0.722
      -0.734
      -0.597
      -0.342
      -0.079
       0.054
      -0.009
      -0.201
      -0.355
      -0.333
      -0.128
       0.130
       0.292
       0.316
       0.278
       0.273
       0.306
       0.304
       0.214
       0.084
       0.032
       0.129
       0.328
       0.496
       0.515
       0.367
       0.124
      -0.109
      -0.263
      -0.324
      -0.323
      -0.319
      -0.374
      -0.512
      -0.677
      -0.760
      -0.677
      -0.437
      -0.141
       0.107
       0.288
       0.459
       0.668
       0.879
       0.986
       0.903
       0.653
       0.354
       0.129
       0.023
       0.011
       0.054
       0.138
       0.238
       0.288
       0.212
       0.007
      -0.237
      -0.399
      -0.448
      -0.459
      -0.521
      -0.639
      -0.734
      -0.748
      -0.710
      -0.702
      -0.766
      -0.859
      -0.885
      -0.777
      -0.531
      -0.191
       0.188
       0.563
       0.888
       1.105
       1.173
       1.097
       0.937
       0.762
       0.604
       0.459
       0.320
       0.193
       0.080
      -0.044
      -0.194
      -0.341
      -0.421
      -0.393
      -0.283
      -0.165
      -0.109
      -0.138
      -0.235
      -0.352
      -0.417
      -0.358
      -0.143
       0.173
       0.473
       0.632
       0.592
       0.394
       0.148
      -0.033
      -0.084
      -0.011
       0.128
       0.257
       0.316
       0.269
       0.108
      -0.138
      -0.409
      -0.638
      -0.780
      -0.819
      -0.750
      -0.583
      -0.355
      -0.133
       0.018
       0.082
       0.100
       0.127
       0.196
       0.287
       0.352
       0.351
       0.285
       0.192
       0.106
       0.029
      -0.050
      -0.107
      -0.087
       0.042
       0.239
       0.405
       0.450
       0.356
       0.181
       0.010
      -0.103
      -0.162
      -0.195
      -0.203
      -0.148
      -0.008
       0.175
       0.303
       0.287
       0.117
      -0.117
      -0.279
      -0.280
      -0.148
      -0.004
       0.043
      -0.019
      -0.115
      -0.167
      -0.159
      -0.128
      -0.104
      -0.084
      -0.048
       0.004
       0.057
       0.087
       0.091
       0.086
       0.098
       0.132
       0.159
       0.146
       0.083
      -0.013
      -0.124
      -0.243
      -0.367
      -0.474
      -0.518
      -0.461
      -0.304
      -0.094
       0.102
       0.231
       0.277
       0.262
       0.232
       0.246
       0.339
       0.486
       0.590
       0.545
       0.327
       0.032
      -0.193
      -0.258
      -0.190
      -0.081
      -0.005
       0.038
       0.081
       0.126
       0.129
       0.040
      -0.135
      -0.328
      -0.457
      -0.484
      -0.426
      -0.331
      -0.238
      -0.169
      -0.126
      -0.090
      -0.031
       0.070
       0.198
       0.308
       0.351
       0.292
       0.126
      -0.118
      -0.379
      -0.582
      -0.659
      -0.584
      -0.390
      -0.169
      -0.023
       0.002
      -0.049
      -0.073
       0.013
       0.216
       0.476
       0.712
       0.860
       0.887
       0.780
       0.558
       0.263
      -0.039
      -0.269
      -0.360
      -0.282
      -0.085
       0.121
       0.224
       0.180
       0.021
      -0.173
      -0.325
      -0.376
      -0.304
      -0.137
       0.057
       0.198
       0.238
       0.190
       0.116
       0.080
       0.090
       0.097
       0.051
      -0.045
      -0.120
      -0.093
       0.049
       0.214
       0.269
       0.154
      -0.062
      -0.246
      -0.321
      -0.323
      -0.336
      -0.392
      -0.435
      -0.395
      -0.264
      -0.106
       0.015
       0.087
       0.120
       0.105
       0.018
      -0.133
      -0.292
      -0.389
      -0.387
      -0.300
      -0.170
      -0.036
       0.088
       0.213
       0.346
       0.465
       0.517
       0.454
       0.294
       0.141
       0.101
       0.186
       0.292
       0.290
       0.141
      -0.071
      -0.223
      -0.245
      -0.168
      -0.097
      -0.130
      -0.275
      -0.427
      -0.445
      -0.281
      -0.030
       0.150
       0.183
       0.124
       0.082
       0.098
       0.129
       0.124
       0.090
       0.081
       0.137
       0.240
       0.324
       0.324
       0.224
       0.082
      -0.011
      -0.006
       0.048
       0.035
      -0.111
      -0.343
      -0.534
      -0.584
      -0.500
      -0.392
      -0.377
      -0.463
      -0.528
      -0.419
      -0.094
       0.321
       0.629
       0.697
       0.539
       0.290
       0.109
       0.082
       0.187
       0.341
       0.471
       0.547
       0.547
       0.430
       0.171
      -0.173
      -0.467
      -0.593
      -0.542
      -0.402
      -0.272
      -0.185
      -0.124
      -0.073
      -0.053
      -0.092
      -0.185
      -0.278
      -0.308
      -0.244
      -0.105
       0.051
       0.157
       0.167
       0.088
      -0.014
      -0.051
       0.018
       0.150
       0.265
       0.304
       0.259
       0.147
      -0.010
      -0.164
      -0.240
      -0.168
       0.044
       0.290
       0.433
       0.392
       0.193
      -0.062
      -0.262
      -0.350
      -0.342
      -0.299
      -0.276
      -0.286
      -0.292
      -0.249
      -0.149
      -0.021
       0.100
       0.183
       0.190
       0.095
      -0.078
      -0.221
      -0.216
      -0.039
       0.191
       0.300
       0.200
      -0.045
      -0.278
      -0.359
      -0.251
      -0.021
       0.214
       0.360
       0.404
       0.406
       0.444
       0.549
       0.693
       0.815
       0.856
       0.758
       0.477
       0.022
      -0.498
      -0.896
      -1.011
      -0.816
      -0.429
      -0.033
       0.233
       0.329
       0.308
       0.241
       0.164
       0.071
      -0.032
      -0.100
      -0.098
      -0.065
      -0.107
      -0.291
      -0.558
      -0.760
      -0.781
      -0.627
      -0.413
      -0.258
      -0.197
      -0.179
      -0.144
      -0.083
      -0.035
      -0.024
      -0.042
      -0.068
      -0.103
      -0.144
      -0.166
      -0.129
      -0.012
       0.173
       0.399
       0.636
       0.824
       0.874
       0.744
       0.515
       0.353
       0.360
       0.474
       0.523
       0.377
       0.060
      -0.279
      -0.497
      -0.545
      -0.448
      -0.246
       0.030
       0.327
       0.544
       0.578
       0.405
       0.116
      -0.154
      -0.330
      -0.433
      -0.514
      -0.575
      -0.567
      -0.460
      -0.302
      -0.188
      -0.161
      -0.176
      -0.148
      -0.039
       0.113
       0.240
       0.297
       0.281
       0.223
       0.162
       0.131
       0.127
       0.108
       0.028
      -0.112
      -0.254
      -0.333
      -0.329
      -0.288
      -0.285
      -0.363
      -0.497
      -0.617
      -0.646
      -0.539
      -0.309
      -0.037
       0.176
       0.286
       0.348
       0.468
       0.681
       0.891
       0.944
       0.770
       0.453
       0.158
      -0.013
      -0.080
      -0.130
      -0.218
      -0.330
      -0.427
      -0.487
      -0.502
      -0.453
      -0.324
      -0.156
      -0.059
      -0.143
      -0.395
      -0.635
      -0.626
      -0.275
       0.255
       0.668
       0.772
       0.618
       0.420
       0.340
       0.378
       0.412
       0.336
       0.151
      -0.041
      -0.125
      -0.062
       0.080
       0.189
       0.200
       0.141
       0.069
      -0.006
      -0.123
      -0.291
      -0.432
      -0.428
      -0.228
       0.097
       0.381
       0.454
       0.240
      -0.177
      -0.603
      -0.870
      -0.947
      -0.912
      -0.818
      -0.636
      -0.329
       0.059
       0.412
       0.647
       0.775
       0.857
       0.918
       0.910
       0.767
       0.490
       0.180
      -0.028
      -0.057
       0.059
       0.205
       0.261
       0.165
      -0.060
      -0.326
      -0.519
      -0.556
      -0.420
      -0.161
       0.118
       0.305
       0.329
       0.196
      -0.022
      -0.225
      -0.354
      -0.419
      -0.480
      -0.567
      -0.629
      -0.573
      -0.365
      -0.085
       0.134
       0.214
       0.185
       0.138
       0.139
       0.183
       0.219
       0.205
       0.138
       0.062
       0.031
       0.055
       0.074
       0.007
      -0.152
      -0.287
      -0.244
       0.019
       0.378
       0.634
       0.668
       0.505
       0.271
       0.096
       0.044
       0.079
       0.103
       0.032
      -0.128
      -0.273
      -0.280
      -0.115
       0.125
       0.289
       0.306
       0.256
       0.302
       0.553
       0.944
       1.254
       1.252
       0.861
       0.208
      -0.479
      -1.034
      -1.432
      -1.742
      -2.008
      -2.164
      -2.082
      -1.696
      -1.112
      -0.577
      -0.311
      -0.339
      -0.479
      -0.500
      -0.323
      -0.069
       0.051
      -0.093
      -0.472
      -0.943
      -1.338
      -1.506
      -1.331
      -0.791
      -0.032
       0.657
       1.007
       0.945
       0.617
       0.236
      -0.080
      -0.358
      -0.682
      -1.082
      -1.491
      -1.780
      -1.856
      -1.730
      -1.480
      -1.136
      -0.609
       0.228
       1.368
       2.603
       3.676
       4.481
       5.095
       5.552
       5.603
       4.802
       2.952
       0.538
      -1.342
      -1.643
      -0.177
       2.142
       3.830
       3.755
       1.782
      -1.213
      -3.859
      -4.993
      -4.209
      -2.004
       0.566
       2.488
       3.273
       2.994
       1.986
       0.566
      -1.000
      -2.363
      -3.049
      -2.649
      -1.138
       0.910
       2.432
       2.431
       0.709
      -1.782
      -3.454
      -3.230
      -1.423
       0.451
       0.828
      -0.718
      -3.220
      -5.105
      -5.327
      -3.985
      -2.067
      -0.632
      -0.111
      -0.175
      -0.167
       0.330
       1.248
       2.216
       2.892
       3.101
       2.774
       1.897
       0.640
      -0.527
      -0.980
      -0.365
       1.049
       2.467
       3.101
       2.720
       1.770
       0.984
       0.879
       1.521
       2.647
       3.860
       4.696
       4.673
       3.511
       1.458
      -0.616
      -1.616
      -0.934
       1.050
       3.129
       4.030
       3.222
       1.154
      -1.166
      -2.867
      -3.641
      -3.707
      -3.506
      -3.446
      -3.777
      -4.532
      -5.483
      -6.228
      -6.432
      -6.058
      -5.376
      -4.674
      -3.967
      -2.985
      -1.493
       0.360
       2.013
       2.842
       2.616
       1.690
       0.772
       0.436
       0.726
       1.169
       1.151
       0.361
      -1.025
      -2.492
      -3.508
      -3.800
      -3.444
      -2.760
      -2.116
      -1.755
      -1.719
      -1.858
      -1.894
      -1.513
      -0.482
       1.214
       3.313
       5.350
       6.862
       7.589
       7.540
       6.886
       5.800
       4.436
       3.038
       2.003
       1.710
       2.212
       3.080
       3.605
       3.278
       2.164
       0.834
      -0.079
      -0.328
      -0.129
       0.132
       0.233
       0.200
       0.147
       0.118
       0.090
       0.049
      -0.014
      -0.179
      -0.618
      -1.460
      -2.638
      -3.836
      -4.642
      -4.763
      -4.175
      -3.142
      -2.132
      -1.626
      -1.875
      -2.727
      -3.660
      -4.070
      -3.641
      -2.553
      -1.369
      -0.664
      -0.640
      -1.009
      -1.220
      -0.874
       0.012
       1.062
       1.842
       2.130
       1.950
       1.431
       0.689
      -0.169
      -0.967
      -1.466
      -1.481
      -0.990
      -0.127
       0.929
       2.014
       2.956
       3.564
       3.736
       3.575
       3.326
       3.159
       3.002
       2.622
       1.894
       0.952
       0.086
      -0.495
      -0.792
      -0.935
      -1.004
      -0.944
      -0.619
       0.041
       0.912
       1.659
       1.896
       1.447
       0.526
      -0.382
      -0.860
      -0.835
      -0.560
      -0.367
      -0.431
      -0.735
      -1.192
      -1.772
      -2.502
      -3.345
      -4.099
      -4.429
      -4.072
      -3.084
      -1.868
      -0.923
      -0.476
      -0.348
      -0.162
       0.314
       1.012
       1.683
       2.145
       2.397
       2.549
       2.693
       2.824
       2.845
       2.590
       1.893
       0.744
      -0.588
      -1.623
      -1.960
      -1.574
      -0.835
      -0.216
       0.050
       0.078
       0.157
       0.471
       0.949
       1.337
       1.402
       1.115
       0.650
       0.258
       0.101
       0.208
       0.532
       1.000
       1.500
       1.859
       1.922
       1.668
       1.213
       0.698
       0.173
      -0.391
      -0.985
      -1.471
      -1.645
      -1.412
      -0.912
      -0.490
      -0.500
      -1.074
      -2.004
      -2.851
      -3.199
      -2.907
      -2.161
      -1.302
      -0.583
      -0.039
       0.455
       0.986
       1.463
       1.657
       1.409
       0.818
       0.217
      -0.069
       0.019
       0.222
       0.174
      -0.301
      -1.053
      -1.696
      -1.868
      -1.460
      -0.693
       0.036
       0.414
       0.407
       0.262
       0.323
       0.808
       1.665
       2.586
       3.143
       3.016
       2.188
       0.976
      -0.152
      -0.868
      -1.134
      -1.141
      -1.107
      -1.108
      -1.067
      -0.865
      -0.463
       0.064
       0.583
       1.008
       1.336
       1.591
       1.722
       1.597
       1.119
       0.338
      -0.575
      -1.433
      -2.092
      -2.427
      -2.321
      -1.740
      -0.839
       0.048
       0.587
       0.671
       0.480
       0.325
       0.402
       0.657
       0.848
       0.731
       0.231
      -0.497
      -1.163
      -1.509
      -1.458
      -1.133
      -0.748
      -0.444
      -0.199
       0.116
       0.588
       1.138
       1.526
       1.486
       0.913
      -0.041
      -1.024
      -1.673
      -1.799
      -1.454
      -0.870
      -0.324
       0.014
       0.158
       0.272
       0.540
       1.016
       1.558
       1.889
       1.781
       1.233
       0.505
      -0.040
      -0.189
       0.000
       0.292
       0.496
       0.586
       0.644
       0.706
       0.704
       0.568
       0.358
       0.269
       0.463
       0.884
       1.235
       1.181
       0.594
      -0.373
      -1.423
      -2.311
      -2.923
      -3.197
      -3.042
      -2.376
      -1.261
       0.012
       1.025
       1.468
       1.312
       0.803
       0.283
      -0.007
      -0.018
       0.148
       0.333
       0.410
       0.332
       0.137
      -0.113
      -0.393
      -0.735
      -1.146
      -1.532
      -1.722
      -1.580
      -1.103
      -0.403
       0.348
       0.969
       1.299
       1.250
       0.883
       0.408
       0.082
       0.067
       0.349
       0.776
       1.168
       1.412
       1.495
       1.467
       1.362
       1.132
       0.672
      -0.050
      -0.890
      -1.551
      -1.764
      -1.496
      -0.998
      -0.639
      -0.631
      -0.872
      -1.019
      -0.775
      -0.147
       0.535
       0.897
       0.850
       0.672
       0.745
       1.194
       1.783
       2.128
       1.985
       1.372
       0.478
      -0.484
      -1.332
      -1.917
      -2.140
      -1.999
      -1.625
      -1.224
      -0.957
      -0.829
      -0.729
      -0.577
      -0.421
      -0.376
      -0.464
      -0.555
      -0.485
      -0.220
       0.105
       0.307
       0.283
       0.065
      -0.199
      -0.300
      -0.057
       0.552
       1.324
       1.948
       2.253
       2.329
       2.382
       2.469
       2.416
       1.995
       1.183
       0.240
      -0.469
      -0.730
      -0.606
      -0.357
      -0.264
      -0.481
      -0.978
      -1.570
      -2.015
      -2.127
      -1.871
      -1.366
      -0.808
      -0.348
      -0.035
       0.161
       0.258
       0.211
      -0.043
      -0.471
      -0.901
      -1.127
      -1.073
      -0.849
      -0.656
      -0.622
      -0.729
      -0.860
      -0.906
      -0.821
      -0.607
      -0.291
       0.097
       0.532
       0.983
       1.411
       1.768
       2.017
       2.149
       2.167
       2.056
       1.798
       1.426
       1.041
       0.757
       0.618
       0.587
       0.615
       0.700
       0.858
       1.034
       1.084
       0.857
       0.330
      -0.352
      -0.973
      -1.394
      -1.612
      -1.689
      -1.659
      -1.511
      -1.246
      -0.900
      -0.513
      -0.078
