Origin Time       01/04/2014 17:45:09 UTC
Lat.              26.4 N	
Long.             92.4 E	
Depth (Km)         33.0
Magnitude         4.4
 Region           Naogaon-Assam                                                    
 Above details taken from IMD 
    
Station Code      NAU
Station Lat.       26.349  N
Station Long.      92.690  E
Station Height(m)   78.0
Site Class        C   Vs30 between 200 m/sec to 375 m/sec *  
Record Time       01.04.2014 17:44:50.094 UTC
Sampling Rate     200. Hz
 Record Duration   86.515 Sec.
 Direction         N-S (N positive)
Max. Acceleration     -8.486 cm/sec**2
     
  * For reference see Site Classification link of website 
     
 Base Line Corrected and Low Pass Filtered (Cut Off at 35 Hz) Time History
 Acceleration data in cm/sec**2
    
[...]
       0.111
       0.230
       0.399
       0.516
       0.482
       0.289
       0.046
      -0.091
      -0.033
       0.186
       0.439
       0.593
       0.577
       0.400
       0.133
      -0.130
      -0.312
      -0.373
      -0.319
      -0.189
      -0.034
       0.112
       0.230
       0.301
       0.295
       0.188
      -0.013
      -0.244
      -0.410
      -0.433
      -0.311
      -0.135
      -0.033
      -0.073
      -0.211
      -0.338
      -0.384
      -0.359
      -0.301
      -0.219
      -0.091
       0.076
       0.228
       0.296
       0.244
       0.083
      -0.137
      -0.343
      -0.455
      -0.421
      -0.258
      -0.044
       0.126
       0.201
       0.188
       0.127
       0.061
       0.001
      -0.066
      -0.158
      -0.266
      -0.346
      -0.343
      -0.221
       0.006
       0.278
       0.512
       0.653
       0.700
       0.685
       0.636
       0.580
       0.543
       0.524
       0.470
       0.313
       0.056
      -0.202
      -0.335
      -0.287
      -0.109
       0.096
       0.253
       0.342
       0.366
       0.312
       0.169
      -0.041
      -0.254
      -0.395
      -0.423
      -0.360
      -0.269
      -0.218
      -0.240
      -0.322
      -0.408
      -0.440
      -0.401
      -0.316
      -0.219
      -0.128
      -0.063
      -0.044
      -0.078
      -0.130
      -0.139
      -0.064
       0.069
       0.184
       0.219
       0.170
       0.074
      -0.031
      -0.113
      -0.130
      -0.037
       0.158
       0.379
       0.513
       0.485
       0.314
       0.093
      -0.080
      -0.167
      -0.197
      -0.224
      -0.284
      -0.374
      -0.467
      -0.520
      -0.498
      -0.394
      -0.250
      -0.134
      -0.105
      -0.172
      -0.279
      -0.331
      -0.241
       0.002
       0.315
       0.551
       0.597
       0.435
       0.150
      -0.126
      -0.271
      -0.213
       0.041
       0.393
       0.689
       0.806
       0.732
       0.555
       0.379
       0.264
       0.213
       0.197
       0.165
       0.079
      -0.062
      -0.206
      -0.287
      -0.271
      -0.172
      -0.049
       0.016
      -0.034
      -0.184
      -0.341
      -0.395
      -0.286
      -0.032
       0.271
       0.480
       0.480
       0.275
       0.008
      -0.146
      -0.110
       0.058
       0.238
       0.346
       0.370
       0.337
       0.270
       0.159
      -0.018
      -0.248
      -0.471
      -0.608
      -0.607
      -0.478
      -0.276
      -0.054
       0.149
       0.302
       0.370
       0.345
       0.258
       0.153
       0.041
      -0.079
      -0.174
      -0.191
      -0.126
      -0.057
      -0.081
      -0.209
      -0.336
      -0.326
      -0.145
       0.099
       0.265
       0.307
       0.295
       0.297
       0.302
       0.247
       0.122
      -0.004
      -0.047
       0.009
       0.087
       0.078
      -0.072
      -0.305
      -0.494
      -0.548
      -0.485
      -0.405
      -0.379
      -0.399
      -0.410
      -0.384
      -0.327
      -0.239
      -0.100
       0.085
       0.242
       0.264
       0.118
      -0.109
      -0.270
      -0.285
      -0.209
      -0.155
      -0.164
      -0.168
      -0.074
       0.121
       0.325
       0.437
       0.436
       0.372
       0.301
       0.250
       0.227
       0.252
       0.338
       0.460
       0.558
       0.585
       0.533
       0.432
       0.325
       0.233
       0.144
       0.029
      -0.124
      -0.287
      -0.419
      -0.498
      -0.521
      -0.483
      -0.366
      -0.170
       0.065
       0.273
       0.389
       0.379
       0.251
       0.050
      -0.156
      -0.316
      -0.410
      -0.444
      -0.430
      -0.377
      -0.289
      -0.170
      -0.018
       0.166
       0.360
       0.516
       0.573
       0.486
       0.275
       0.029
      -0.147
      -0.193
      -0.132
      -0.039
       0.016
       0.034
       0.074
       0.191
       0.362
       0.499
       0.502
       0.330
       0.027
      -0.297
      -0.532
      -0.624
      -0.587
      -0.471
      -0.326
      -0.184
      -0.060
       0.048
       0.146
       0.224
       0.268
       0.271
       0.237
       0.171
       0.090
       0.024
       0.004
       0.024
       0.046
       0.028
      -0.037
      -0.123
      -0.192
      -0.221
      -0.201
      -0.137
      -0.045
       0.053
       0.126
       0.141
       0.068
      -0.088
      -0.272
      -0.394
      -0.380
      -0.228
      -0.020
       0.131
       0.146
       0.023
      -0.176
      -0.361
      -0.458
      -0.427
      -0.274
      -0.052
       0.164
       0.303
       0.334
       0.277
       0.179
       0.083
       0.012
      -0.028
      -0.045
      -0.061
      -0.099
      -0.154
      -0.188
      -0.175
      -0.142
      -0.133
      -0.144
      -0.107
       0.041
       0.278
       0.503
       0.608
       0.550
       0.366
       0.140
      -0.034
      -0.105
      -0.079
      -0.005
       0.072
       0.142
       0.208
       0.267
       0.299
       0.275
       0.170
      -0.005
      -0.173
      -0.219
      -0.080
       0.198
       0.473
       0.603
       0.526
       0.271
      -0.064
      -0.362
      -0.528
      -0.526
      -0.390
      -0.193
      -0.014
       0.082
       0.059
      -0.059
      -0.202
      -0.296
      -0.316
      -0.289
      -0.245
      -0.182
      -0.081
       0.046
       0.150
       0.188
       0.160
       0.094
       0.008
      -0.085
      -0.168
      -0.220
      -0.221
      -0.165
      -0.065
       0.043
       0.118
       0.153
       0.183
       0.239
       0.303
       0.313
       0.223
       0.065
      -0.065
      -0.094
      -0.035
       0.029
       0.038
       0.000
      -0.045
      -0.076
      -0.099
      -0.110
      -0.088
      -0.021
       0.072
       0.163
       0.219
       0.201
       0.089
      -0.087
      -0.258
      -0.369
      -0.417
      -0.422
      -0.386
      -0.291
      -0.139
       0.028
       0.147
       0.176
       0.119
       0.005
      -0.124
      -0.229
      -0.260
      -0.174
       0.031
       0.279
       0.445
       0.448
       0.313
       0.133
      -0.017
      -0.113
      -0.154
      -0.150
      -0.120
      -0.086
      -0.050
       0.003
       0.073
       0.138
       0.181
       0.206
       0.216
       0.183
       0.071
      -0.092
      -0.208
      -0.197
      -0.072
       0.061
       0.097
       0.002
      -0.165
      -0.297
      -0.313
      -0.218
      -0.084
       0.012
       0.043
       0.046
       0.073
       0.148
       0.252
       0.340
       0.377
       0.359
       0.303
       0.222
       0.117
      -0.015
      -0.148
      -0.230
      -0.234
      -0.186
      -0.142
      -0.133
      -0.160
      -0.204
      -0.242
      -0.242
      -0.183
      -0.061
       0.117
       0.345
       0.606
       0.833
       0.921
       0.783
       0.442
       0.041
      -0.248
      -0.349
      -0.326
      -0.299
      -0.333
      -0.404
      -0.448
      -0.422
      -0.315
      -0.146
       0.039
       0.157
       0.130
      -0.035
      -0.206
      -0.229
      -0.058
       0.189
       0.335
       0.289
       0.107
      -0.082
      -0.176
      -0.156
      -0.072
       0.001
       0.008
      -0.037
      -0.075
      -0.065
      -0.037
      -0.042
      -0.079
      -0.097
      -0.066
      -0.017
       0.008
       0.022
       0.071
       0.172
       0.274
       0.301
       0.224
       0.061
      -0.149
      -0.375
      -0.573
      -0.676
      -0.622
      -0.408
      -0.106
       0.170
       0.326
       0.327
       0.213
       0.068
      -0.030
      -0.049
      -0.015
       0.015
      -0.013
      -0.107
      -0.215
      -0.245
      -0.143
       0.063
       0.287
       0.446
       0.498
       0.436
       0.285
       0.098
      -0.062
      -0.170
      -0.243
      -0.284
      -0.259
      -0.130
       0.077
       0.278
       0.404
       0.434
       0.367
       0.199
      -0.028
      -0.207
      -0.237
      -0.120
       0.042
       0.131
       0.089
      -0.069
      -0.266
      -0.399
      -0.390
      -0.247
      -0.040
       0.167
       0.354
       0.499
       0.536
       0.398
       0.125
      -0.125
      -0.183
      -0.010
       0.257
       0.414
       0.356
       0.157
      -0.007
      -0.009
       0.156
       0.397
       0.588
       0.608
       0.387
      -0.028
      -0.474
      -0.758
      -0.773
      -0.552
      -0.235
       0.016
       0.109
       0.040
      -0.125
      -0.286
      -0.361
      -0.333
      -0.251
      -0.177
      -0.139
      -0.154
      -0.243
      -0.386
      -0.489
      -0.457
      -0.286
      -0.061
       0.126
       0.225
       0.221
       0.117
      -0.062
      -0.237
      -0.295
      -0.138
       0.231
       0.681
       1.005
       1.042
       0.779
       0.378
       0.071
      -0.003
       0.102
       0.211
       0.198
       0.064
      -0.102
      -0.231
      -0.315
      -0.376
      -0.430
      -0.466
      -0.454
      -0.372
      -0.212
       0.013
       0.261
       0.465
       0.559
       0.508
       0.303
      -0.036
      -0.433
      -0.744
      -0.819
      -0.609
      -0.191
       0.289
       0.681
       0.851
       0.719
       0.331
      -0.138
      -0.487
      -0.629
      -0.611
      -0.521
      -0.387
      -0.176
       0.109
       0.367
       0.477
       0.425
       0.320
       0.262
       0.243
       0.209
       0.143
       0.067
      -0.024
      -0.163
      -0.352
      -0.537
      -0.637
      -0.614
      -0.492
      -0.338
      -0.205
      -0.093
       0.034
       0.227
       0.498
       0.778
       0.934
       0.883
       0.660
       0.367
       0.066
      -0.235
      -0.503
      -0.624
      -0.497
      -0.150
       0.249
       0.515
       0.566
       0.435
       0.204
      -0.060
      -0.314
      -0.526
      -0.634
      -0.554
      -0.239
       0.246
       0.733
       1.049
       1.109
       0.925
       0.561
       0.092
      -0.415
      -0.883
      -1.212
      -1.314
      -1.174
      -0.870
      -0.519
      -0.213
       0.012
       0.160
       0.234
       0.225
       0.143
       0.051
       0.036
       0.133
       0.268
       0.301
       0.147
      -0.126
      -0.324
      -0.299
      -0.093
       0.111
       0.170
       0.097
       0.004
      -0.026
       0.016
       0.102
       0.214
       0.348
       0.499
       0.645
       0.744
       0.749
       0.632
       0.417
       0.185
       0.017
      -0.061
      -0.088
      -0.113
      -0.136
      -0.115
      -0.020
       0.119
       0.206
       0.162
      -0.007
      -0.220
      -0.402
      -0.514
      -0.525
      -0.423
      -0.265
      -0.175
      -0.220
      -0.335
      -0.394
      -0.346
      -0.235
      -0.118
      -0.020
       0.047
       0.047
      -0.046
      -0.200
      -0.315
      -0.283
      -0.062
       0.275
       0.582
       0.731
       0.677
       0.450
       0.124
      -0.190
      -0.359
      -0.304
      -0.055
       0.264
       0.516
       0.623
       0.564
       0.370
       0.114
      -0.117
      -0.279
      -0.400
      -0.526
      -0.645
      -0.701
      -0.661
      -0.554
      -0.408
      -0.210
       0.057
       0.333
       0.495
       0.452
       0.223
      -0.090
      -0.377
      -0.566
      -0.601
      -0.438
      -0.078
       0.380
       0.749
       0.850
       0.647
       0.279
      -0.053
      -0.235
      -0.296
      -0.338
      -0.433
      -0.569
      -0.666
      -0.641
      -0.474
      -0.225
       0.016
       0.212
       0.396
       0.611
       0.831
       0.973
       0.970
       0.834
       0.626
       0.386
       0.106
      -0.222
      -0.528
      -0.678
      -0.566
      -0.196
       0.323
       0.837
       1.186
       1.240
       0.964
       0.456
      -0.090
      -0.499
      -0.689
      -0.686
      -0.583
      -0.496
      -0.490
      -0.546
      -0.577
      -0.507
      -0.331
      -0.118
       0.043
       0.084
      -0.016
      -0.215
      -0.417
      -0.529
      -0.516
      -0.408
      -0.259
      -0.115
      -0.015
       0.036
       0.077
       0.182
       0.411
       0.788
       1.297
       1.896
       2.519
       3.081
       3.510
       3.791
       3.979
       4.128
       4.231
       4.216
       4.018
       3.634
       3.090
       2.388
       1.496
       0.410
      -0.774
      -1.826
      -2.473
      -2.565
      -2.194
      -1.651
      -1.270
      -1.263
      -1.664
      -2.359
      -3.141
      -3.764
      -4.021
      -3.826
      -3.303
      -2.802
      -2.793
      -3.602
      -5.142
      -6.855
      -8.005
      -8.137
      -7.352
      -6.159
      -5.018
      -3.970
      -2.671
      -0.804
       1.505
       3.639
       4.850
       4.760
       3.583
       1.960
       0.562
      -0.199
      -0.197
       0.515
       1.798
       3.432
       5.126
       6.564
       7.470
       7.644
       6.981
       5.489
       3.362
       1.054
      -0.782
      -1.591
      -1.325
      -0.628
      -0.516
      -1.724
      -4.143
      -6.816
      -8.486
      -8.311
      -6.275
      -3.117
       0.072
       2.313
       3.081
       2.431
       0.913
      -0.678
      -1.630
      -1.563
      -0.526
       1.118
       2.919
       4.549
       5.843
       6.666
       6.757
       5.773
       3.546
       0.376
      -2.956
      -5.518
      -6.681
      -6.353
      -4.897
      -2.913
      -1.080
      -0.052
      -0.248
      -1.607
      -3.514
      -5.035
      -5.347
      -4.118
      -1.664
       1.193
       3.508
       4.671
       4.637
       3.792
       2.638
       1.579
       0.908
       0.821
       1.321
       2.123
       2.775
       2.998
       2.941
       3.043
       3.589
       4.399
       4.945
       4.779
       3.871
       2.604
       1.482
       0.814
       0.590
       0.593
       0.624
       0.645
       0.745
       0.966
       1.160
       0.999
       0.206
      -1.153
      -2.625
      -3.674
      -4.068
      -3.985
      -3.777
      -3.672
      -3.673
      -3.678
      -3.644
      -3.631
      -3.715
      -3.849
      -3.828
      -3.394
      -2.443
      -1.141
       0.150
       1.103
       1.610
       1.790
       1.824
       1.802
       1.693
       1.430
       1.025
       0.629
       0.488
       0.812
       1.628
       2.722
       3.702
       4.181
       3.960
       3.112
       1.918
       0.694
      -0.335
      -1.061
      -1.457
      -1.562
      -1.508
      -1.478
      -1.607
      -1.890
      -2.210
      -2.448
      -2.552
      -2.510
      -2.309
      -1.940
      -1.415
      -0.770
      -0.021
       0.833
       1.743
       2.560
       3.071
       3.127
       2.728
       2.006
       1.129
       0.216
      -0.661
      -1.422
      -1.933
      -2.039
      -1.662
      -0.916
      -0.128
       0.318
       0.231
      -0.247
      -0.770
      -1.063
      -1.100
      -1.019
      -0.918
      -0.727
      -0.284
       0.462
       1.308
       1.849
       1.736
       0.944
      -0.171
      -1.077
      -1.406
      -1.156
      -0.636
      -0.213
      -0.066
      -0.117
      -0.148
      -0.001
       0.317
       0.643
       0.783
       0.638
       0.271
      -0.117
      -0.307
      -0.190
       0.173
       0.597
       0.909
       1.078
       1.236
       1.551
       2.054
       2.532
       2.616
       1.998
       0.633
      -1.201
      -2.999
      -4.207
      -4.445
      -3.693
      -2.297
      -0.774
       0.460
       1.234
       1.576
       1.594
       1.394
       1.084
       0.782
       0.587
       0.529
       0.554
       0.572
       0.501
       0.285
      -0.122
      -0.756
      -1.599
      -2.554
      -3.438
      -4.003
      -3.983
      -3.182
      -1.596
       0.498
       2.589
       4.137
       4.813
       4.612
       3.802
       2.772
       1.867
       1.269
       0.965
       0.809
       0.638
       0.383
       0.099
      -0.106
      -0.179
      -0.184
      -0.272
      -0.570
      -1.076
      -1.597
      -1.801
      -1.384
      -0.301
       1.116
       2.305
       2.782
       2.404
       1.399
       0.189
      -0.841
      -1.498
      -1.806
      -1.928
      -2.021
      -2.140
      -2.237
      -2.255
      -2.196
      -2.109
      -2.013
      -1.856
      -1.564
      -1.138
      -0.711
      -0.479
      -0.551
      -0.847
      -1.139
      -1.196
      -0.929
      -0.452
      -0.014
       0.170
       0.084
      -0.082
      -0.103
       0.078
       0.323
       0.468
       0.528
       0.694
       1.139
       1.819
       2.472
       2.804
       2.694
       2.283
       1.849
       1.600
       1.525
       1.448
       1.220
       0.881
       0.621
       0.593
       0.730
       0.778
       0.521
      -0.030
      -0.657
      -1.142
      -1.419
      -1.541
      -1.533
      -1.341
      -0.940
      -0.451
      -0.097
      -0.029
      -0.207
      -0.475
      -0.715
      -0.926
      -1.169
      -1.464
      -1.756
      -1.935
      -1.902
      -1.623
      -1.150
      -0.579
       0.018
       0.603
       1.139
       1.549
       1.751
       1.741
       1.631
       1.603
       1.788
       2.174
       2.623
       2.955
       3.001
       2.619
       1.729
       0.405
      -1.068
      -2.268
      -2.840
      -2.694
      -2.047
      -1.267
      -0.645
      -0.284
      -0.131
      -0.069
       0.013
       0.173
       0.389
       0.583
       0.669
       0.628
       0.541
       0.563
       0.820
       1.291
       1.785
       2.053
       1.958
       1.555
       1.009
       0.428
      -0.233
      -1.088
      -2.147
      -3.213
      -3.961
      -4.127
      -3.650
      -2.673
      -1.469
      -0.350
       0.380
       0.506
       0.013
      -0.834
      -1.569
      -1.765
      -1.269
      -0.267
       0.861
       1.754
       2.205
       2.170
       1.692
       0.858
      -0.177
      -1.163
      -1.802
      -1.872
      -1.341
      -0.382
       0.701
       1.576
       1.975
       1.780
       1.082
       0.165
      -0.604
      -0.936
      -0.732
      -0.095
       0.731
       1.470
       1.902
       1.923
       1.538
       0.831
      -0.053
      -0.911
      -1.502
      -1.630
      -1.232
      -0.431
       0.513
       1.303
       1.696
       1.578
       0.998
       0.170
      -0.598
      -1.055
      -1.124
      -0.901
      -0.539
      -0.109
       0.414
       1.032
       1.588
       1.812
       1.521
       0.780
      -0.134
      -0.906
      -1.337
      -1.395
      -1.197
      -0.936
      -0.782
      -0.804
      -0.958
      -1.135
      -1.222
      -1.134
      -0.821
      -0.302
       0.301
       0.763
       0.860
       0.498
