Origin Time       21/08/2013 08:41:51
Lat.              26.7 N	
Long.             92.4 E	
Depth (Km)         22.0
Magnitude         3.9
 Region           Sonitpur-Assam                                                   
 Above details taken from IMD 
     
Station Code      NAU
Station Lat.       26.349  N
Station Long.      92.690  E
Station Height(m)   78.0
Site Class        C   Vs30 between 200 m/sec to 375 m/sec *  
Record Time       21.08.2013 08:41:38.254
Sampling Rate     200. Hz
 Record Duration   82.135 Sec.
 Direction         E-W (E positive)
Max. Acceleration     -3.794 cm/sec**2
     
  * For reference see Site Classification link of website 
     
 Base Line Corrected and Low Pass Filtered (Cut Off at 35 Hz) Time History
 Acceleration data in cm/sec**2
    
[...]
      -0.212
      -0.287
      -0.337
      -0.351
      -0.330
      -0.280
      -0.212
      -0.133
      -0.049
       0.037
       0.112
       0.155
       0.148
       0.085
      -0.014
      -0.098
      -0.114
      -0.034
       0.117
       0.274
       0.370
       0.379
       0.322
       0.244
       0.178
       0.126
       0.073
       0.014
      -0.041
      -0.066
      -0.037
       0.051
       0.176
       0.282
       0.314
       0.245
       0.096
      -0.077
      -0.213
      -0.272
      -0.253
      -0.191
      -0.140
      -0.135
      -0.172
      -0.214
      -0.225
      -0.198
      -0.152
      -0.107
      -0.076
      -0.054
      -0.029
       0.014
       0.083
       0.165
       0.220
       0.208
       0.120
       0.001
      -0.079
      -0.073
       0.004
       0.089
       0.124
       0.090
       0.015
      -0.058
      -0.096
      -0.096
      -0.077
      -0.063
      -0.064
      -0.074
      -0.076
      -0.056
      -0.012
       0.047
       0.100
       0.132
       0.140
       0.128
       0.101
       0.060
       0.010
      -0.039
      -0.075
      -0.094
      -0.106
      -0.123
      -0.147
      -0.166
      -0.152
      -0.089
       0.014
       0.124
       0.211
       0.268
       0.308
       0.344
       0.363
       0.339
       0.258
       0.132
      -0.002
      -0.110
      -0.180
      -0.220
      -0.243
      -0.247
      -0.224
      -0.173
      -0.116
      -0.088
      -0.111
      -0.175
      -0.236
      -0.255
      -0.227
      -0.184
      -0.166
      -0.177
      -0.184
      -0.136
      -0.009
       0.167
       0.323
       0.389
       0.346
       0.233
       0.127
       0.092
       0.140
       0.232
       0.309
       0.331
       0.299
       0.239
       0.179
       0.127
       0.070
      -0.002
      -0.086
      -0.166
      -0.233
      -0.296
      -0.361
      -0.414
      -0.424
      -0.367
      -0.253
      -0.133
      -0.065
      -0.072
      -0.121
      -0.153
      -0.124
      -0.041
       0.059
       0.139
       0.191
       0.230
       0.280
       0.343
       0.403
       0.429
       0.403
       0.329
       0.225
       0.110
      -0.008
      -0.122
      -0.221
      -0.291
      -0.321
      -0.310
      -0.266
      -0.207
      -0.152
      -0.115
      -0.099
      -0.099
      -0.106
      -0.112
      -0.117
      -0.132
      -0.163
      -0.201
      -0.218
      -0.191
      -0.124
      -0.050
       0.009
       0.061
       0.137
       0.253
       0.386
       0.481
       0.482
       0.380
       0.224
       0.092
       0.033
       0.029
       0.018
      -0.049
      -0.159
      -0.252
      -0.274
      -0.225
      -0.151
      -0.103
      -0.101
      -0.123
      -0.138
      -0.131
      -0.106
      -0.070
      -0.021
       0.040
       0.102
       0.143
       0.152
       0.140
       0.135
       0.154
       0.190
       0.220
       0.224
       0.200
       0.160
       0.116
       0.067
       0.000
      -0.098
      -0.223
      -0.343
      -0.422
      -0.439
      -0.401
      -0.332
      -0.254
      -0.178
      -0.106
      -0.037
       0.025
       0.073
       0.097
       0.090
       0.054
       0.005
      -0.032
      -0.033
       0.010
       0.086
       0.170
       0.236
       0.272
       0.279
       0.265
       0.236
       0.194
       0.148
       0.110
       0.087
       0.073
       0.049
      -0.007
      -0.101
      -0.207
      -0.280
      -0.289
      -0.237
      -0.163
      -0.110
      -0.087
      -0.071
      -0.039
       0.003
       0.022
      -0.014
      -0.101
      -0.194
      -0.237
      -0.198
      -0.090
       0.052
       0.194
       0.317
       0.401
       0.431
       0.403
       0.329
       0.234
       0.140
       0.051
      -0.033
      -0.116
      -0.185
      -0.219
      -0.204
      -0.152
      -0.093
      -0.066
      -0.085
      -0.128
      -0.147
      -0.104
      -0.011
       0.069
       0.067
      -0.035
      -0.187
      -0.305
      -0.336
      -0.281
      -0.177
      -0.065
       0.029
       0.088
       0.102
       0.074
       0.030
       0.006
       0.021
       0.056
       0.064
       0.014
      -0.077
      -0.141
      -0.107
       0.041
       0.244
       0.400
       0.437
       0.351
       0.202
       0.062
      -0.036
      -0.098
      -0.148
      -0.193
      -0.226
      -0.242
      -0.245
      -0.239
      -0.214
      -0.157
      -0.070
       0.016
       0.053
       0.017
      -0.069
      -0.138
      -0.134
      -0.043
       0.093
       0.203
       0.235
       0.188
       0.107
       0.045
       0.027
       0.031
       0.025
       0.000
      -0.020
      -0.004
       0.055
       0.128
       0.174
       0.166
       0.115
       0.059
       0.029
       0.024
       0.010
      -0.047
      -0.154
      -0.272
      -0.338
      -0.309
      -0.191
      -0.046
       0.053
       0.069
       0.024
      -0.033
      -0.062
      -0.057
      -0.035
      -0.021
      -0.028
      -0.055
      -0.087
      -0.089
      -0.027
       0.116
       0.317
       0.508
       0.604
       0.551
       0.362
       0.117
      -0.089
      -0.192
      -0.183
      -0.098
      -0.004
       0.038
      -0.004
      -0.111
      -0.224
      -0.284
      -0.261
      -0.178
      -0.088
      -0.032
      -0.011
       0.008
       0.066
       0.168
       0.283
       0.360
       0.371
       0.316
       0.220
       0.108
      -0.005
      -0.109
      -0.200
      -0.278
      -0.340
      -0.382
      -0.397
      -0.378
      -0.328
      -0.260
      -0.197
      -0.157
      -0.136
      -0.110
      -0.056
       0.030
       0.119
       0.173
       0.175
       0.140
       0.102
       0.083
       0.072
       0.042
      -0.013
      -0.063
      -0.058
       0.019
       0.136
       0.227
       0.252
       0.216
       0.164
       0.130
       0.120
       0.116
       0.103
       0.085
       0.077
       0.092
       0.132
       0.184
       0.226
       0.222
       0.137
      -0.038
      -0.271
      -0.488
      -0.595
      -0.537
      -0.341
      -0.109
       0.035
       0.028
      -0.094
      -0.224
      -0.261
      -0.176
      -0.008
       0.167
       0.293
       0.342
       0.314
       0.229
       0.122
       0.033
      -0.015
      -0.033
      -0.050
      -0.094
      -0.161
      -0.223
      -0.246
      -0.223
      -0.179
      -0.157
      -0.185
      -0.244
      -0.271
      -0.202
      -0.029
       0.188
       0.360
       0.425
       0.387
       0.290
       0.181
       0.076
      -0.024
      -0.114
      -0.182
      -0.208
      -0.189
      -0.129
      -0.043
       0.055
       0.144
       0.198
       0.204
       0.171
       0.128
       0.099
       0.082
       0.054
       0.000
      -0.056
      -0.063
       0.013
       0.148
       0.270
       0.315
       0.273
       0.188
       0.111
       0.053
      -0.010
      -0.097
      -0.197
      -0.276
      -0.309
      -0.299
      -0.266
      -0.228
      -0.189
      -0.144
      -0.092
      -0.043
      -0.016
      -0.035
      -0.108
      -0.214
      -0.310
      -0.352
      -0.328
      -0.258
      -0.173
      -0.094
      -0.028
       0.014
       0.016
      -0.027
      -0.096
      -0.152
      -0.150
      -0.075
       0.050
       0.185
       0.295
       0.371
       0.414
       0.423
       0.396
       0.337
       0.264
       0.196
       0.143
       0.108
       0.085
       0.076
       0.086
       0.113
       0.143
       0.163
       0.169
       0.165
       0.155
       0.122
       0.054
      -0.036
      -0.107
      -0.128
      -0.116
      -0.119
      -0.173
      -0.260
      -0.323
      -0.316
      -0.250
      -0.186
      -0.183
      -0.237
      -0.291
      -0.275
      -0.172
      -0.020
       0.115
       0.192
       0.211
       0.201
       0.186
       0.174
       0.155
       0.127
       0.101
       0.091
       0.090
       0.077
       0.031
      -0.048
      -0.135
      -0.199
      -0.229
      -0.239
      -0.259
      -0.299
      -0.338
      -0.336
      -0.264
      -0.127
       0.042
       0.198
       0.318
       0.402
       0.461
       0.495
       0.482
       0.395
       0.240
       0.069
      -0.051
      -0.084
      -0.054
      -0.017
      -0.020
      -0.070
      -0.133
      -0.160
      -0.122
      -0.037
       0.037
       0.041
      -0.042
      -0.172
      -0.276
      -0.296
      -0.226
      -0.114
      -0.033
      -0.023
      -0.056
      -0.070
      -0.019
       0.081
       0.164
       0.166
       0.074
      -0.064
      -0.173
      -0.204
      -0.163
      -0.097
      -0.053
      -0.045
      -0.056
      -0.059
      -0.043
      -0.022
      -0.019
      -0.046
      -0.095
      -0.135
      -0.134
      -0.073
       0.035
       0.154
       0.237
       0.252
       0.195
       0.092
      -0.014
      -0.080
      -0.079
      -0.012
       0.094
       0.195
       0.253
       0.258
       0.236
       0.224
       0.241
       0.277
       0.301
       0.285
       0.225
       0.137
       0.042
      -0.043
      -0.113
      -0.167
      -0.208
      -0.239
      -0.253
      -0.231
      -0.172
      -0.107
      -0.094
      -0.177
      -0.342
      -0.513
      -0.601
      -0.549
      -0.369
      -0.135
       0.052
       0.121
       0.066
      -0.040
      -0.095
      -0.030
       0.139
       0.321
       0.412
       0.362
       0.205
       0.025
      -0.104
      -0.158
      -0.163
      -0.156
      -0.153
      -0.139
      -0.087
       0.001
       0.085
       0.109
       0.046
      -0.068
      -0.154
      -0.146
      -0.038
       0.109
       0.206
       0.201
       0.128
       0.090
       0.179
       0.398
       0.647
       0.797
       0.773
       0.595
       0.343
       0.095
      -0.105
      -0.245
      -0.323
      -0.345
      -0.324
      -0.279
      -0.225
      -0.165
      -0.091
      -0.005
       0.076
       0.127
       0.136
       0.109
       0.065
       0.027
       0.017
       0.049
       0.114
       0.176
       0.190
       0.131
       0.020
      -0.086
      -0.133
      -0.121
      -0.094
      -0.103
      -0.155
      -0.213
      -0.234
      -0.215
      -0.200
      -0.232
      -0.305
      -0.353
      -0.305
      -0.138
       0.094
       0.292
       0.370
       0.298
       0.112
      -0.104
      -0.252
      -0.261
      -0.128
       0.079
       0.249
       0.298
       0.215
       0.077
      -0.010
       0.015
       0.125
       0.229
       0.253
       0.189
       0.081
      -0.021
      -0.096
      -0.148
      -0.186
      -0.205
      -0.193
      -0.144
      -0.065
       0.013
       0.040
      -0.020
      -0.162
      -0.327
      -0.436
      -0.445
      -0.367
      -0.261
      -0.175
      -0.117
      -0.066
      -0.007
       0.046
       0.069
       0.053
       0.020
       0.012
       0.062
       0.177
       0.334
       0.490
       0.597
       0.616
       0.525
       0.333
       0.092
      -0.111
      -0.200
      -0.161
      -0.053
       0.037
       0.054
       0.004
      -0.057
      -0.067
      -0.004
       0.102
       0.184
       0.184
       0.082
      -0.080
      -0.220
      -0.260
      -0.171
      -0.005
       0.137
       0.169
       0.081
      -0.062
      -0.167
      -0.176
      -0.084
       0.066
       0.206
       0.266
       0.194
      -0.015
      -0.308
      -0.575
      -0.698
      -0.617
      -0.374
      -0.087
       0.132
       0.244
       0.293
       0.340
       0.397
       0.414
       0.332
       0.151
      -0.061
      -0.217
      -0.271
      -0.239
      -0.176
      -0.129
      -0.118
      -0.147
      -0.207
      -0.274
      -0.300
      -0.232
      -0.055
       0.176
       0.359
       0.423
       0.377
       0.296
       0.245
       0.234
       0.220
       0.168
       0.085
       0.002
      -0.053
      -0.080
      -0.099
      -0.134
      -0.194
      -0.277
      -0.364
      -0.420
      -0.406
      -0.306
      -0.151
      -0.013
       0.051
       0.044
       0.026
       0.060
       0.157
       0.280
       0.381
       0.440
       0.470
       0.484
       0.472
       0.410
       0.277
       0.080
      -0.153
      -0.383
      -0.559
      -0.624
      -0.536
      -0.312
      -0.029
       0.219
       0.376
       0.440
       0.425
       0.325
       0.130
      -0.136
      -0.404
      -0.601
      -0.694
      -0.698
      -0.634
      -0.503
      -0.290
      -0.017
       0.241
       0.388
       0.386
       0.282
       0.172
       0.122
       0.135
       0.176
       0.203
       0.188
       0.122
       0.029
      -0.026
       0.029
       0.222
       0.491
       0.709
       0.763
       0.643
       0.452
       0.331
       0.347
       0.459
       0.565
       0.584
       0.495
       0.322
       0.110
      -0.080
      -0.171
      -0.107
       0.102
       0.367
       0.542
       0.493
       0.158
      -0.421
      -1.116
      -1.753
      -2.175
      -2.291
      -2.116
      -1.769
      -1.418
      -1.198
      -1.177
      -1.359
      -1.727
      -2.249
      -2.858
      -3.431
      -3.794
      -3.780
      -3.294
      -2.363
      -1.131
       0.175
       1.308
       2.064
       2.348
       2.211
       1.829
       1.401
       1.063
       0.849
       0.734
       0.693
       0.737
       0.892
       1.154
       1.461
       1.714
       1.844
       1.850
       1.796
       1.748
       1.714
       1.638
       1.446
       1.115
       0.724
       0.429
       0.375
       0.601
       1.013
       1.441
       1.735
       1.839
       1.790
       1.670
       1.520
       1.306
       0.959
       0.473
      -0.037
      -0.373
      -0.387
      -0.096
       0.305
       0.554
       0.472
       0.049
      -0.587
      -1.266
      -1.871
      -2.368
      -2.773
      -3.111
      -3.383
      -3.546
      -3.515
      -3.192
      -2.532
      -1.607
      -0.617
       0.187
       0.613
       0.634
       0.403
       0.166
       0.118
       0.298
       0.593
       0.853
       1.006
       1.115
       1.312
       1.687
       2.194
       2.662
       2.892
       2.796
       2.462
       2.124
       2.029
       2.296
       2.828
       3.347
       3.539
       3.216
       2.414
       1.352
       0.303
      -0.548
      -1.157
      -1.580
      -1.868
      -2.015
      -1.969
      -1.713
      -1.328
      -0.972
      -0.808
      -0.910
      -1.224
      -1.624
      -1.996
      -2.304
      -2.566
      -2.775
      -2.850
      -2.674
      -2.198
      -1.533
      -0.913
      -0.542
      -0.464
      -0.559
      -0.621
      -0.470
      -0.024
       0.673
       1.472
       2.167
       2.550
       2.467
       1.868
       0.858
      -0.307
      -1.282
      -1.794
      -1.783
      -1.433
      -1.030
      -0.771
      -0.658
      -0.562
      -0.381
      -0.139
       0.046
       0.084
       0.014
      -0.004
       0.207
       0.715
       1.424
       2.119
       2.572
       2.636
       2.275
       1.534
       0.505
      -0.668
      -1.767
      -2.529
      -2.746
      -2.396
      -1.685
      -0.946
      -0.438
      -0.213
      -0.153
      -0.137
      -0.179
      -0.410
      -0.935
      -1.700
      -2.477
      -2.993
      -3.090
      -2.804
      -2.325
      -1.863
      -1.530
      -1.299
      -1.054
      -0.666
      -0.055
       0.779
       1.728
       2.584
       3.100
       3.116
       2.682
       2.077
       1.663
       1.658
       1.964
       2.223
       2.067
       1.405
       0.517
      -0.133
      -0.210
       0.296
       1.112
       1.897
       2.419
       2.598
       2.460
       2.093
       1.636
       1.274
       1.171
       1.370
       1.743
       2.050
       2.085
       1.802
       1.333
       0.877
       0.550
       0.313
       0.024
      -0.432
      -1.034
      -1.631
      -2.034
      -2.151
      -2.058
      -1.968
      -2.104
      -2.540
      -3.125
      -3.545
      -3.515
      -2.976
      -2.153
      -1.418
      -1.051
      -1.068
      -1.245
      -1.307
      -1.122
      -0.776
      -0.471
      -0.347
      -0.373
      -0.375
      -0.183
       0.252
       0.831
       1.381
       1.745
       1.843
       1.674
       1.297
       0.822
       0.399
       0.179
       0.240
       0.514
       0.794
       0.835
       0.498
      -0.153
      -0.884
      -1.397
      -1.457
      -0.984
      -0.074
       1.024
       2.006
       2.645
       2.896
       2.901
       2.862
       2.879
       2.874
       2.663
       2.124
       1.312
       0.431
      -0.295
      -0.744
      -0.934
      -0.980
      -1.021
      -1.161
      -1.424
      -1.766
      -2.113
      -2.409
      -2.636
      -2.795
      -2.874
      -2.828
      -2.604
      -2.193
      -1.666
      -1.154
      -0.776
      -0.584
      -0.562
      -0.654
      -0.788
      -0.879
      -0.841
      -0.631
      -0.284
       0.100
       0.424
       0.661
       0.865
       1.113
       1.446
       1.828
       2.150
       2.270
       2.092
       1.624
       1.002
       0.436
       0.118
       0.123
       0.357
       0.606
       0.670
       0.507
       0.271
       0.199
       0.414
       0.812
       1.134
       1.166
       0.900
       0.507
       0.178
      -0.017
      -0.128
      -0.209
      -0.221
      -0.070
       0.267
       0.635
       0.734
       0.317
      -0.579
      -1.599
      -2.292
      -2.432
      -2.146
      -1.760
      -1.536
      -1.517
      -1.552
      -1.448
      -1.125
      -0.659
      -0.211
       0.088
       0.210
       0.229
       0.242
       0.283
       0.296
       0.203
       0.016
      -0.138
      -0.100
       0.191
       0.633
       1.037
       1.260
       1.296
       1.250
       1.220
       1.221
       1.200
       1.114
       0.999
       0.947
       0.998
       1.072
       1.013
       0.715
       0.214
      -0.321
      -0.679
      -0.712
      -0.414
       0.082
       0.570
       0.877
       0.950
       0.863
       0.729
       0.592
       0.386
       0.029
      -0.452
      -0.876
      -1.006
      -0.734
      -0.188
       0.319
       0.485
       0.210
      -0.355
      -0.927
      -1.280
      -1.358
      -1.249
      -1.069
      -0.871
      -0.632
      -0.316
       0.069
       0.446
       0.687
       0.655
       0.290
      -0.339
      -1.022
      -1.501
      -1.604
      -1.343
      -0.898
      -0.490
      -0.257
      -0.192
      -0.196
      -0.171
      -0.087
       0.019
       0.106
       0.183
       0.298
       0.487
       0.727
       0.938
       1.056
       1.085
       1.103
       1.184
       1.314
       1.380
       1.249
       0.873
       0.346
      -0.150
      -0.472
      -0.616
      -0.692
      -0.783
