Origin Time       21/9/2009 8:53:04	  UTC
Lat.              27.3 N	
Long.             91.5 E	
Depth (Km)          8.0
Magnitude         6.2
 Region           BHUTAN                                                           
 Above details taken from IMD 
    
Station Code      NAU
Station Lat.       26.349  N
Station Long.      92.683  E
Station Height(m)   72.0
Site Class        C   Vs30 between 200 m/sec to 375 m/sec *  
Record Time       21.09.2009 08:53:37.999 UTC
Sampling Rate     200. Hz
 Record Duration  106.535 Sec.
 Direction         N-S (N positive)
Max. Acceleration     17.826 cm/sec**2
     
  * For reference see Site Classification link of website 
     
 Base Line Corrected and Low Pass Filtered (Cut Off at 35 Hz) Time History
 Acceleration data in cm/sec**2
    
[...]
       1.006
       1.011
       0.971
       0.906
       0.843
       0.807
       0.808
       0.838
       0.881
       0.913
       0.919
       0.896
       0.844
       0.764
       0.652
       0.503
       0.313
       0.086
      -0.166
      -0.424
      -0.666
      -0.869
      -1.016
      -1.101
      -1.126
      -1.110
      -1.080
      -1.063
      -1.077
      -1.120
      -1.178
      -1.230
      -1.260
      -1.258
      -1.218
      -1.140
      -1.024
      -0.876
      -0.708
      -0.533
      -0.375
      -0.258
      -0.210
      -0.245
      -0.357
      -0.519
      -0.689
      -0.823
      -0.890
      -0.882
      -0.813
      -0.706
      -0.581
      -0.445
      -0.297
      -0.142
       0.009
       0.140
       0.243
       0.319
       0.376
       0.419
       0.452
       0.474
       0.485
       0.482
       0.465
       0.432
       0.389
       0.346
       0.315
       0.305
       0.319
       0.352
       0.397
       0.449
       0.504
       0.555
       0.589
       0.591
       0.549
       0.460
       0.330
       0.175
       0.016
      -0.123
      -0.218
      -0.256
      -0.232
      -0.159
      -0.056
       0.053
       0.151
       0.232
       0.297
       0.349
       0.378
       0.366
       0.292
       0.146
      -0.059
      -0.285
      -0.483
      -0.603
      -0.615
      -0.519
      -0.346
      -0.149
       0.025
       0.150
       0.226
       0.279
       0.334
       0.409
       0.499
       0.582
       0.628
       0.622
       0.562
       0.467
       0.356
       0.243
       0.132
       0.026
      -0.068
      -0.137
      -0.165
      -0.147
      -0.082
       0.019
       0.145
       0.283
       0.413
       0.518
       0.588
       0.614
       0.595
       0.535
       0.443
       0.341
       0.249
       0.182
       0.140
       0.113
       0.086
       0.048
      -0.005
      -0.069
      -0.131
      -0.177
      -0.198
      -0.196
      -0.177
      -0.150
      -0.115
      -0.066
       0.010
       0.114
       0.232
       0.337
       0.400
       0.408
       0.360
       0.270
       0.158
       0.045
      -0.044
      -0.089
      -0.080
      -0.027
       0.041
       0.095
       0.111
       0.083
       0.018
      -0.073
      -0.172
      -0.263
      -0.324
      -0.336
      -0.289
      -0.194
      -0.076
       0.031
       0.104
       0.145
       0.169
       0.201
       0.251
       0.320
       0.392
       0.448
       0.467
       0.439
       0.359
       0.232
       0.068
      -0.126
      -0.341
      -0.565
      -0.778
      -0.957
      -1.084
      -1.146
      -1.143
      -1.082
      -0.980
      -0.858
      -0.741
      -0.643
      -0.569
      -0.510
      -0.450
      -0.377
      -0.285
      -0.174
      -0.055
       0.062
       0.167
       0.258
       0.339
       0.420
       0.507
       0.600
       0.690
       0.768
       0.824
       0.855
       0.863
       0.849
       0.816
       0.771
       0.721
       0.673
       0.632
       0.598
       0.562
       0.510
       0.419
       0.271
       0.069
      -0.161
      -0.379
      -0.552
      -0.663
      -0.722
      -0.751
      -0.774
      -0.807
      -0.858
      -0.924
      -1.000
      -1.078
      -1.150
      -1.202
      -1.220
      -1.190
      -1.098
      -0.940
      -0.721
      -0.457
      -0.176
       0.095
       0.329
       0.517
       0.670
       0.814
       0.976
       1.169
       1.381
       1.580
       1.731
       1.808
       1.806
       1.742
       1.645
       1.534
       1.420
       1.299
       1.166
       1.025
       0.888
       0.769
       0.677
       0.617
       0.584
       0.570
       0.557
       0.526
       0.466
       0.379
       0.278
       0.172
       0.059
      -0.071
      -0.230
      -0.424
      -0.645
      -0.871
      -1.072
      -1.218
      -1.293
      -1.302
      -1.268
      -1.219
      -1.174
      -1.132
      -1.069
      -0.955
      -0.777
      -0.544
      -0.286
      -0.038
       0.171
       0.330
       0.438
       0.507
       0.546
       0.565
       0.570
       0.571
       0.577
       0.596
       0.633
       0.686
       0.750
       0.821
       0.890
       0.949
       0.985
       0.986
       0.940
       0.838
       0.671
       0.437
       0.140
      -0.208
      -0.577
      -0.928
      -1.215
      -1.405
      -1.480
      -1.448
      -1.334
      -1.170
      -0.987
      -0.810
      -0.654
      -0.533
      -0.459
      -0.443
      -0.480
      -0.556
      -0.643
      -0.711
      -0.735
      -0.701
      -0.613
      -0.489
      -0.359
      -0.248
      -0.169
      -0.122
      -0.105
      -0.125
      -0.198
      -0.340
      -0.561
      -0.853
      -1.188
      -1.518
      -1.793
      -1.981
      -2.071
      -2.081
      -2.045
      -1.997
      -1.962
      -1.951
      -1.960
      -1.981
      -2.011
      -2.052
      -2.107
      -2.170
      -2.221
      -2.233
      -2.185
      -2.079
      -1.943
      -1.820
      -1.744
      -1.724
      -1.736
      -1.739
      -1.697
      -1.594
      -1.438
      -1.251
      -1.057
      -0.877
      -0.723
      -0.601
      -0.510
      -0.437
      -0.364
      -0.264
      -0.113
       0.104
       0.383
       0.698
       1.004
       1.247
       1.388
       1.413
       1.338
       1.198
       1.027
       0.849
       0.684
       0.550
       0.468
       0.454
       0.510
       0.619
       0.756
       0.889
       0.991
       1.040
       1.027
       0.953
       0.829
       0.672
       0.499
       0.329
       0.178
       0.059
      -0.027
      -0.088
      -0.134
      -0.170
      -0.194
      -0.204
      -0.200
      -0.193
      -0.191
      -0.197
      -0.208
      -0.215
      -0.213
      -0.212
      -0.231
      -0.297
      -0.431
      -0.642
      -0.920
      -1.244
      -1.582
      -1.903
      -2.181
      -2.404
      -2.571
      -2.692
      -2.780
      -2.857
      -2.945
      -3.063
      -3.224
      -3.432
      -3.683
      -3.969
      -4.272
      -4.568
      -4.834
      -5.049
      -5.201
      -5.287
      -5.317
      -5.315
      -5.316
      -5.349
      -5.418
      -5.499
      -5.554
      -5.548
      -5.467
      -5.316
      -5.108
      -4.856
      -4.563
      -4.221
      -3.814
      -3.331
      -2.769
      -2.136
      -1.447
      -0.720
       0.031
       0.793
       1.562
       2.337
       3.130
       3.955
       4.827
       5.748
       6.708
       7.678
       8.613
       9.473
      10.217
      10.818
      11.255
      11.525
      11.638
      11.610
      11.462
      11.211
      10.881
      10.501
      10.107
       9.731
       9.392
       9.095
       8.838
       8.620
       8.441
       8.295
       8.168
       8.041
       7.900
       7.737
       7.554
       7.347
       7.103
       6.793
       6.387
       5.876
       5.284
       4.650
       4.020
       3.426
       2.885
       2.395
       1.931
       1.458
       0.940
       0.368
      -0.238
      -0.832
      -1.367
      -1.804
      -2.125
      -2.331
      -2.441
      -2.492
      -2.526
      -2.589
      -2.719
      -2.948
      -3.299
      -3.790
      -4.423
      -5.171
      -5.974
      -6.749
      -7.399
      -7.842
      -8.014
      -7.882
      -7.437
      -6.702
      -5.720
      -4.566
      -3.333
      -2.127
      -1.047
      -0.168
       0.469
       0.863
       1.054
       1.114
       1.132
       1.200
       1.399
       1.788
       2.391
       3.197
       4.156
       5.188
       6.191
       7.055
       7.674
       7.964
       7.880
       7.432
       6.679
       5.710
       4.617
       3.488
       2.410
       1.471
       0.745
       0.271
       0.040
      -0.001
       0.066
       0.152
       0.165
       0.029
      -0.294
      -0.797
      -1.438
      -2.169
      -2.960
      -3.786
      -4.600
      -5.323
      -5.870
      -6.173
      -6.190
      -5.910
      -5.352
      -4.567
      -3.635
      -2.659
      -1.741
      -0.963
      -0.379
      -0.019
       0.107
      -0.002
      -0.341
      -0.898
      -1.656
      -2.579
      -3.612
      -4.674
      -5.667
      -6.499
      -7.112
      -7.492
      -7.659
      -7.646
      -7.485
      -7.211
      -6.868
      -6.505
      -6.172
      -5.911
      -5.744
      -5.671
      -5.661
      -5.670
      -5.651
      -5.566
      -5.386
      -5.096
      -4.688
      -4.167
      -3.540
      -2.820
      -2.019
      -1.155
      -0.256
       0.638
       1.484
       2.239
       2.876
       3.380
       3.748
       3.987
       4.106
       4.127
       4.080
       3.997
       3.906
       3.819
       3.734
       3.643
       3.542
       3.429
       3.293
       3.107
       2.824
       2.399
       1.799
       1.022
       0.096
      -0.934
      -2.015
      -3.093
      -4.129
      -5.093
      -5.973
      -6.762
      -7.457
      -8.058
      -8.571
      -9.001
      -9.344
      -9.586
      -9.716
      -9.737
      -9.665
      -9.522
      -9.328
      -9.098
      -8.834
      -8.536
      -8.194
      -7.800
      -7.342
      -6.807
      -6.182
      -5.450
      -4.593
      -3.598
      -2.463
      -1.209
       0.119
       1.460
       2.739
       3.874
       4.786
       5.418
       5.747
       5.785
       5.568
       5.149
       4.585
       3.936
       3.266
       2.641
       2.117
       1.732
       1.495
       1.392
       1.397
       1.483
       1.621
       1.787
       1.962
       2.133
       2.285
       2.406
       2.480
       2.491
       2.434
       2.311
       2.137
       1.926
       1.685
       1.414
       1.116
       0.800
       0.499
       0.261
       0.147
       0.213
       0.502
       1.040
       1.837
       2.877
       4.114
       5.475
       6.868
       8.194
       9.361
      10.292
      10.936
      11.279
      11.342
      11.175
      10.842
      10.407
       9.927
       9.441
       8.975
       8.546
       8.175
       7.891
       7.731
       7.724
       7.885
       8.210
       8.671
       9.221
       9.803
      10.362
      10.856
      11.253
      11.536
      11.696
      11.725
      11.610
      11.331
      10.871
      10.236
       9.455
       8.572
       7.634
       6.666
       5.675
       4.649
       3.576
       2.459
       1.330
       0.248
      -0.713
      -1.487
      -2.029
      -2.314
      -2.330
      -2.076
      -1.561
      -0.809
       0.138
       1.209
       2.314
       3.346
       4.208
       4.823
       5.155
       5.207
       5.019
       4.654
       4.186
       3.695
       3.253
       2.909
       2.676
       2.521
       2.380
       2.176
       1.846
       1.352
       0.670
      -0.206
      -1.263
      -2.467
      -3.763
      -5.085
      -6.359
      -7.496
      -8.409
      -9.033
      -9.337
      -9.320
      -9.002
      -8.412
      -7.585
      -6.574
      -5.459
      -4.337
      -3.287
      -2.353
      -1.552
      -0.899
      -0.417
      -0.130
      -0.062
      -0.231
      -0.640
      -1.274
      -2.091
      -3.015
      -3.940
      -4.746
      -5.317
      -5.567
      -5.461
      -5.011
      -4.274
      -3.329
      -2.277
      -1.233
      -0.322
       0.336
       0.650
       0.574
       0.114
      -0.676
      -1.711
      -2.892
      -4.113
      -5.275
      -6.294
      -7.109
      -7.687
      -8.019
      -8.112
      -7.985
      -7.665
      -7.170
      -6.501
      -5.647
      -4.601
      -3.376
      -2.008
      -0.547
       0.956
       2.445
       3.861
       5.141
       6.221
       7.048
       7.582
       7.795
       7.676
       7.230
       6.488
       5.499
       4.330
       3.053
       1.731
       0.413
      -0.857
      -2.036
      -3.065
      -3.882
      -4.425
      -4.658
      -4.576
      -4.214
      -3.640
      -2.941
      -2.220
      -1.587
      -1.152
      -1.016
      -1.248
      -1.872
      -2.847
      -4.062
      -5.360
      -6.570
      -7.558
      -8.248
      -8.628
      -8.731
      -8.616
      -8.351
      -8.003
      -7.620
      -7.231
      -6.839
      -6.435
      -6.004
      -5.525
      -4.972
      -4.308
      -3.500
      -2.532
      -1.418
      -0.208
       1.022
       2.185
       3.204
       4.032
       4.647
       5.058
       5.289
       5.372
       5.327
       5.162
       4.884
       4.516
       4.099
       3.685
       3.307
       2.969
       2.649
       2.301
       1.872
       1.313
       0.600
      -0.259
      -1.227
      -2.259
      -3.313
      -4.354
      -5.349
      -6.274
      -7.119
      -7.879
      -8.551
      -9.121
      -9.572
      -9.882
     -10.043
     -10.066
      -9.977
      -9.814
      -9.605
      -9.360
      -9.072
      -8.733
      -8.345
      -7.927
      -7.496
      -7.069
      -6.654
      -6.258
      -5.872
      -5.475
      -5.034
      -4.512
      -3.872
      -3.076
      -2.086
      -0.883
       0.525
       2.097
       3.777
       5.503
       7.211
       8.835
      10.307
      11.576
      12.616
      13.429
      14.042
      14.495
      14.837
      15.111
      15.357
      15.611
      15.904
      16.254
      16.657
      17.073
      17.445
      17.712
      17.826
      17.750
      17.447
      16.882
      16.042
      14.958
      13.714
      12.434
      11.247
      10.252
       9.493
       8.948
       8.539
       8.149
       7.663
       7.000
       6.136
       5.112
       4.008
       2.921
       1.921
       1.042
       0.277
      -0.394
      -1.000
      -1.567
      -2.131
      -2.743
      -3.460
      -4.330
      -5.376
      -6.593
      -7.937
      -9.332
     -10.678
     -11.882
     -12.882
     -13.660
     -14.226
     -14.597
     -14.783
     -14.782
     -14.588
     -14.189
     -13.575
     -12.752
     -11.750
     -10.622
      -9.439
      -8.268
      -7.171
      -6.191
      -5.351
      -4.665
      -4.144
      -3.797
      -3.620
      -3.576
      -3.598
      -3.614
      -3.580
      -3.495
      -3.391
      -3.298
      -3.222
      -3.138
      -3.003
      -2.772
      -2.404
      -1.863
      -1.127
      -0.195
       0.904
       2.121
       3.407
       4.717
       6.009
       7.227
       8.303
       9.165
       9.767
      10.096
      10.171
      10.025
       9.696
       9.215
       8.610
       7.897
       7.087
       6.192
       5.226
       4.210
       3.170
       2.144
       1.183
       0.340
      -0.352
      -0.891
      -1.313
      -1.665
      -1.981
      -2.277
      -2.553
      -2.805
      -3.029
      -3.220
      -3.365
      -3.452
      -3.479
      -3.467
      -3.464
      -3.529
      -3.709
      -4.012
      -4.383
      -4.722
      -4.916
      -4.867
      -4.514
      -3.836
      -2.844
      -1.588
      -0.148
       1.365
       2.827
       4.116
       5.130
       5.803
       6.113
       6.080
       5.763
       5.240
       4.590
       3.872
       3.117
       2.339
       1.552
       0.776
       0.046
      -0.611
      -1.180
      -1.663
      -2.066
      -2.392
      -2.630
      -2.769
      -2.800
      -2.721
      -2.539
      -2.266
      -1.912
      -1.483
      -0.989
      -0.460
       0.051
       0.475
       0.769
       0.933
       1.017
       1.109
       1.304
       1.683
       2.285
       3.096
       4.056
       5.078
       6.080
       6.993
       7.763
       8.340
       8.686
       8.774
       8.597
       8.168
       7.517
       6.695
       5.760
       4.767
       3.754
       2.736
       1.709
       0.666
      -0.397
      -1.473
      -2.556
      -3.653
      -4.786
      -5.985
      -7.266
      -8.608
      -9.946
     -11.180
     -12.201
     -12.916
     -13.272
     -13.264
     -12.928
     -12.333
     -11.563
     -10.695
      -9.791
      -8.892
      -8.023
      -7.195
      -6.404
      -5.615
      -4.766
      -3.775
      -2.571
      -1.130
       0.507
       2.232
       3.901
       5.372
       6.530
       7.299
       7.643
       7.574
       7.159
       6.513
       5.764
       5.014
       4.328
       3.749
       3.313
       3.041
       2.932
       2.967
       3.116
       3.330
       3.538
       3.646
       3.566
       3.245
       2.670
       1.868
       0.893
      -0.194
      -1.331
      -2.468
      -3.568
      -4.616
      -5.607
      -6.534
      -7.387
      -8.146
      -8.785
      -9.275
      -9.588
      -9.700
      -9.607
      -9.330
      -8.919
      -8.441
      -7.969
      -7.563
      -7.261
      -7.069
      -6.973
      -6.938
      -6.924
      -6.888
      -6.781
      -6.551
      -6.137
      -5.493
      -4.599
      -3.467
      -2.143
      -0.695
       0.798
       2.260
       3.624
       4.837
       5.846
       6.605
       7.081
       7.264
       7.178
       6.882
       6.472
       6.049
       5.693
       5.424
       5.198
       4.923
       4.510
       3.903
       3.101
       2.145
       1.098
       0.037
      -0.964
      -1.845
      -2.574
      -3.140
      -3.553
      -3.832
      -4.010
      -4.127
      -4.225
      -4.324
      -4.413
      -4.446
      -4.362
      -4.117
      -3.704
      -3.161
      -2.562
      -2.009
      -1.624
      -1.528
      -1.804
      -2.463
      -3.429
      -4.553
      -5.643
      -6.503
      -6.963
      -6.901
      -6.257
      -5.044
      -3.353
      -1.348
       0.760
       2.744
       4.403
       5.595
       6.257
       6.407
       6.128
       5.545
       4.794
       3.991
       3.214
       2.499
       1.862
       1.317
       0.887
       0.599
       0.466
       0.476
       0.586
       0.722
       0.798
       0.749
       0.550
       0.216
      -0.214
      -0.701
      -1.218
      -1.739
      -2.227
      -2.635
      -2.927
      -3.105
      -3.197
      -3.238
      -3.250
      -3.261
      -3.310
      -3.449
      -3.715
      -4.104
      -4.566
      -5.014
      -5.355
      -5.513
      -5.430
      -5.070
      -4.422
      -3.505
      -2.365
      -1.065
       0.335
       1.784
       3.236
       4.649
       5.987
       7.227
       8.349
       9.315
      10.059
      10.506
      10.606
      10.356
       9.813
       9.079
       8.277
       7.536
       6.968
       6.638
       6.551
       6.642
       6.815
       6.966
       7.020
       6.931
       6.680
       6.267
       5.703
       5.014
       4.252
       3.494
       2.836
       2.367
       2.153
       2.209
       2.489
       2.892
       3.286
       3.546
       3.584
       3.370
       2.915
       2.264
       1.479
       0.641
      -0.154
      -0.809
      -1.251
      -1.453
      -1.450
      -1.314
      -1.114
      -0.874
      -0.574
      -0.176
       0.338
       0.945
       1.582
       2.163
       2.612
       2.880
       2.959
       2.872
       2.664
       2.393
       2.130
       1.946
       1.898
       2.014
       2.284
       2.665
