Origin Time       12/12/2010 01:40:04
Lat.              25.0 N	
Long.             93.3 E	
Depth (Km)         15.0
Magnitude         4.8
 Region           Manipur-Assam-Border                                             
 Above details taken from IMD 
     
Station Code      NAU
Station Lat.       26.349  N
Station Long.      92.690  E
Station Height(m)   72.0
Site Class        C   Vs30 between 200 m/sec to 375 m/sec *  
Record Time       12.12.2010 01:40:21.589
Sampling Rate     200. Hz
 Record Duration   81.330 Sec.
 Direction         E-W (E positive)
Max. Acceleration     -5.154 cm/sec**2
     
  * For reference see Site Classification link of website 
     
 Base Line Corrected and Low Pass Filtered (Cut Off at 35 Hz) Time History
 Acceleration data in cm/sec**2
    
[...]
       0.080
       0.074
       0.056
       0.016
      -0.037
      -0.083
      -0.102
      -0.089
      -0.048
       0.008
       0.071
       0.128
       0.170
       0.187
       0.172
       0.126
       0.051
      -0.051
      -0.176
      -0.312
      -0.438
      -0.532
      -0.572
      -0.557
      -0.500
      -0.424
      -0.353
      -0.295
      -0.236
      -0.160
      -0.057
       0.062
       0.168
       0.235
       0.260
       0.266
       0.283
       0.326
       0.387
       0.445
       0.483
       0.500
       0.505
       0.505
       0.498
       0.476
       0.432
       0.366
       0.281
       0.188
       0.102
       0.038
       0.007
       0.007
       0.017
       0.021
       0.011
      -0.002
      -0.008
      -0.011
      -0.031
      -0.087
      -0.180
      -0.289
      -0.385
      -0.454
      -0.499
      -0.537
      -0.577
      -0.613
      -0.629
      -0.610
      -0.559
      -0.493
      -0.423
      -0.350
      -0.265
      -0.169
      -0.071
       0.012
       0.076
       0.126
       0.166
       0.189
       0.185
       0.156
       0.123
       0.106
       0.113
       0.132
       0.146
       0.147
       0.141
       0.142
       0.153
       0.169
       0.178
       0.175
       0.168
       0.168
       0.182
       0.207
       0.232
       0.245
       0.242
       0.226
       0.205
       0.183
       0.159
       0.128
       0.090
       0.052
       0.021
       0.004
      -0.006
      -0.016
      -0.032
      -0.048
      -0.052
      -0.034
       0.005
       0.050
       0.080
       0.079
       0.041
      -0.022
      -0.086
      -0.131
      -0.149
      -0.150
      -0.150
      -0.158
      -0.175
      -0.199
      -0.233
      -0.282
      -0.351
      -0.431
      -0.501
      -0.540
      -0.537
      -0.497
      -0.433
      -0.362
      -0.290
      -0.219
      -0.142
      -0.055
       0.045
       0.153
       0.258
       0.342
       0.393
       0.410
       0.400
       0.376
       0.354
       0.345
       0.349
       0.357
       0.353
       0.322
       0.266
       0.201
       0.147
       0.118
       0.110
       0.110
       0.109
       0.109
       0.112
       0.119
       0.122
       0.118
       0.106
       0.090
       0.070
       0.039
      -0.011
      -0.081
      -0.159
      -0.227
      -0.277
      -0.306
      -0.324
      -0.333
      -0.334
      -0.318
      -0.285
      -0.237
      -0.188
      -0.150
      -0.130
      -0.120
      -0.105
      -0.067
      -0.006
       0.062
       0.114
       0.135
       0.123
       0.084
       0.029
      -0.032
      -0.091
      -0.140
      -0.173
      -0.186
      -0.176
      -0.139
      -0.071
       0.029
       0.148
       0.266
       0.365
       0.434
       0.469
       0.471
       0.445
       0.400
       0.348
       0.301
       0.261
       0.225
       0.193
       0.168
       0.158
       0.161
       0.167
       0.158
       0.122
       0.060
      -0.020
      -0.104
      -0.185
      -0.263
      -0.337
      -0.405
      -0.460
      -0.489
      -0.479
      -0.429
      -0.355
      -0.280
      -0.226
      -0.197
      -0.184
      -0.172
      -0.151
      -0.120
      -0.082
      -0.039
       0.005
       0.048
       0.090
       0.131
       0.173
       0.212
       0.241
       0.249
       0.230
       0.184
       0.120
       0.050
      -0.013
      -0.059
      -0.088
      -0.103
      -0.110
      -0.113
      -0.109
      -0.099
      -0.086
      -0.077
      -0.072
      -0.062
      -0.026
       0.054
       0.177
       0.325
       0.464
       0.560
       0.594
       0.565
       0.487
       0.384
       0.278
       0.183
       0.105
       0.040
      -0.017
      -0.069
      -0.121
      -0.178
      -0.242
      -0.310
      -0.373
      -0.420
      -0.448
      -0.461
      -0.467
      -0.472
      -0.474
      -0.470
      -0.453
      -0.422
      -0.379
      -0.330
      -0.281
      -0.229
      -0.168
      -0.093
      -0.005
       0.084
       0.161
       0.216
       0.252
       0.273
       0.278
       0.262
       0.219
       0.153
       0.078
       0.009
      -0.045
      -0.090
      -0.130
      -0.164
      -0.184
      -0.190
      -0.190
      -0.197
      -0.219
      -0.246
      -0.257
      -0.238
      -0.190
      -0.131
      -0.079
      -0.034
       0.022
       0.107
       0.225
       0.355
       0.464
       0.532
       0.552
       0.537
       0.501
       0.457
       0.408
       0.353
       0.290
       0.221
       0.147
       0.070
      -0.003
      -0.066
      -0.110
      -0.131
      -0.127
      -0.102
      -0.063
      -0.019
       0.018
       0.040
       0.045
       0.041
       0.035
       0.022
      -0.004
      -0.047
      -0.096
      -0.133
      -0.140
      -0.112
      -0.056
       0.009
       0.069
       0.113
       0.144
       0.166
       0.183
       0.190
       0.185
       0.163
       0.126
       0.077
       0.019
      -0.045
      -0.111
      -0.172
      -0.221
      -0.256
      -0.271
      -0.264
      -0.228
      -0.163
      -0.076
       0.014
       0.092
       0.152
       0.202
       0.253
       0.307
       0.355
       0.382
       0.370
       0.306
       0.189
       0.033
      -0.137
      -0.295
      -0.423
      -0.513
      -0.572
      -0.605
      -0.616
      -0.604
      -0.569
      -0.510
      -0.433
      -0.346
      -0.261
      -0.191
      -0.143
      -0.108
      -0.072
      -0.013
       0.075
       0.179
       0.268
       0.313
       0.301
       0.246
       0.174
       0.110
       0.066
       0.039
       0.018
      -0.001
      -0.015
      -0.018
      -0.009
       0.008
       0.023
       0.026
       0.018
       0.001
      -0.017
      -0.030
      -0.029
      -0.006
       0.040
       0.097
       0.146
       0.165
       0.143
       0.084
       0.007
      -0.071
      -0.137
      -0.186
      -0.223
      -0.249
      -0.261
      -0.250
      -0.205
      -0.124
      -0.024
       0.071
       0.144
       0.189
       0.215
       0.230
       0.234
       0.223
       0.188
       0.127
       0.046
      -0.044
      -0.125
      -0.182
      -0.205
      -0.193
      -0.152
      -0.096
      -0.036
       0.015
       0.053
       0.079
       0.102
       0.132
       0.169
       0.200
       0.209
       0.183
       0.124
       0.044
      -0.035
      -0.093
      -0.113
      -0.083
      -0.006
       0.102
       0.212
       0.297
       0.344
       0.354
       0.341
       0.318
       0.294
       0.268
       0.234
       0.184
       0.117
       0.039
      -0.048
      -0.140
      -0.230
      -0.309
      -0.363
      -0.385
      -0.380
      -0.366
      -0.358
      -0.358
      -0.349
      -0.311
      -0.235
      -0.134
      -0.035
       0.038
       0.080
       0.097
       0.101
       0.101
       0.104
       0.118
       0.148
       0.198
       0.260
       0.320
       0.357
       0.356
       0.314
       0.239
       0.146
       0.048
      -0.041
      -0.117
      -0.174
      -0.215
      -0.239
      -0.243
      -0.221
      -0.173
      -0.112
      -0.059
      -0.029
      -0.020
      -0.017
       0.001
       0.041
       0.091
       0.134
       0.155
       0.152
       0.140
       0.135
       0.150
       0.182
       0.221
       0.255
       0.279
       0.291
       0.294
       0.294
       0.292
       0.286
       0.269
       0.227
       0.142
       0.001
      -0.194
      -0.421
      -0.648
      -0.841
      -0.978
      -1.053
      -1.069
      -1.039
      -0.976
      -0.889
      -0.785
      -0.667
      -0.543
      -0.420
      -0.305
      -0.197
      -0.090
       0.020
       0.131
       0.238
       0.331
       0.403
       0.451
       0.474
       0.467
       0.427
       0.351
       0.254
       0.161
       0.100
       0.084
       0.106
       0.144
       0.175
       0.185
       0.177
       0.162
       0.154
       0.153
       0.145
       0.110
       0.037
      -0.061
      -0.154
      -0.207
      -0.204
      -0.151
      -0.073
       0.004
       0.062
       0.093
       0.096
       0.077
       0.047
       0.025
       0.033
       0.074
       0.131
       0.171
       0.169
       0.124
       0.062
       0.015
      -0.001
      -0.001
      -0.014
      -0.062
      -0.136
      -0.205
      -0.233
      -0.204
      -0.134
      -0.050
       0.024
       0.079
       0.122
       0.165
       0.214
       0.262
       0.301
       0.322
       0.319
       0.294
       0.249
       0.193
       0.132
       0.073
       0.015
      -0.041
      -0.094
      -0.144
      -0.189
      -0.232
      -0.279
      -0.329
      -0.371
      -0.381
      -0.335
      -0.228
      -0.080
       0.071
       0.196
       0.287
       0.356
       0.415
       0.466
       0.500
       0.503
       0.473
       0.416
       0.337
       0.237
       0.119
      -0.006
      -0.122
      -0.214
      -0.285
      -0.343
      -0.399
      -0.450
      -0.481
      -0.476
      -0.431
      -0.356
      -0.269
      -0.187
      -0.120
      -0.075
      -0.056
      -0.065
      -0.088
      -0.100
      -0.077
      -0.012
       0.080
       0.168
       0.231
       0.261
       0.265
       0.256
       0.245
       0.229
       0.204
       0.162
       0.105
       0.043
      -0.013
      -0.055
      -0.084
      -0.113
      -0.152
      -0.204
      -0.264
      -0.324
      -0.376
      -0.412
      -0.419
      -0.388
      -0.318
      -0.223
      -0.127
      -0.048
       0.002
       0.023
       0.029
       0.034
       0.050
       0.076
       0.099
       0.107
       0.104
       0.101
       0.115
       0.149
       0.198
       0.248
       0.289
       0.313
       0.315
       0.293
       0.253
       0.203
       0.152
       0.102
       0.050
      -0.008
      -0.064
      -0.105
      -0.117
      -0.097
      -0.058
      -0.019
       0.006
       0.010
      -0.007
      -0.043
      -0.093
      -0.146
      -0.185
      -0.198
      -0.187
      -0.166
      -0.152
      -0.153
      -0.163
      -0.173
      -0.174
      -0.169
      -0.164
      -0.162
      -0.159
      -0.148
      -0.129
      -0.110
      -0.103
      -0.109
      -0.119
      -0.122
      -0.119
      -0.122
      -0.146
      -0.192
      -0.241
      -0.264
      -0.240
      -0.167
      -0.060
       0.060
       0.169
       0.250
       0.296
       0.309
       0.298
       0.274
       0.251
       0.242
       0.259
       0.304
       0.369
       0.440
       0.497
       0.518
       0.486
       0.400
       0.270
       0.123
      -0.016
      -0.127
      -0.201
      -0.235
      -0.233
      -0.200
      -0.146
      -0.085
      -0.038
      -0.022
      -0.044
      -0.090
      -0.137
      -0.160
      -0.145
      -0.090
       0.001
       0.117
       0.244
       0.357
       0.430
       0.446
       0.400
       0.308
       0.195
       0.097
       0.041
       0.038
       0.080
       0.143
       0.195
       0.217
       0.199
       0.141
       0.047
      -0.080
      -0.230
      -0.387
      -0.528
      -0.631
      -0.686
      -0.694
      -0.668
      -0.622
      -0.565
      -0.494
      -0.404
      -0.291
      -0.156
      -0.010
       0.134
       0.263
       0.362
       0.424
       0.450
       0.445
       0.413
       0.358
       0.279
       0.177
       0.060
      -0.060
      -0.174
      -0.282
      -0.388
      -0.496
      -0.603
      -0.697
      -0.765
      -0.806
      -0.832
      -0.866
      -0.928
      -1.019
      -1.118
      -1.198
      -1.239
      -1.236
      -1.202
      -1.148
      -1.077
      -0.980
      -0.849
      -0.678
      -0.469
      -0.221
       0.068
       0.398
       0.758
       1.126
       1.472
       1.765
       1.982
       2.115
       2.169
       2.158
       2.093
       1.973
       1.788
       1.529
       1.195
       0.802
       0.371
      -0.075
      -0.521
      -0.951
      -1.340
      -1.660
      -1.884
      -2.000
      -2.019
      -1.957
      -1.823
      -1.612
      -1.316
      -0.932
      -0.479
       0.005
       0.478
       0.901
       1.260
       1.558
       1.802
       1.986
       2.087
       2.086
       1.981
       1.792
       1.549
       1.291
       1.049
       0.850
       0.708
       0.626
       0.599
       0.625
       0.699
       0.823
       1.001
       1.242
       1.548
       1.897
       2.229
       2.458
       2.503
       2.327
       1.948
       1.420
       0.809
       0.173
      -0.437
      -0.972
      -1.393
      -1.683
      -1.870
      -2.016
      -2.186
      -2.415
      -2.689
      -2.965
      -3.195
      -3.335
      -3.348
      -3.212
      -2.923
      -2.515
      -2.049
      -1.601
      -1.226
      -0.943
      -0.736
      -0.580
      -0.462
      -0.378
      -0.324
      -0.283
      -0.212
      -0.065
       0.187
       0.540
       0.960
       1.392
       1.788
       2.119
       2.377
       2.575
       2.728
       2.848
       2.932
       2.958
       2.889
       2.693
       2.354
       1.880
       1.291
       0.606
      -0.168
      -1.027
      -1.947
      -2.879
      -3.749
      -4.474
      -4.968
      -5.154
      -4.988
      -4.487
      -3.735
      -2.859
      -1.978
      -1.160
      -0.421
       0.251
       0.854
       1.359
       1.722
       1.914
       1.938
       1.836
       1.668
       1.484
       1.313
       1.156
       1.000
       0.848
       0.731
       0.703
       0.803
       1.030
       1.342
       1.686
       2.035
       2.383
       2.730
       3.046
       3.279
       3.372
       3.284
       3.003
       2.537
       1.909
       1.156
       0.326
      -0.529
      -1.351
      -2.091
      -2.709
      -3.183
      -3.511
      -3.714
      -3.820
      -3.852
      -3.815
      -3.705
      -3.533
      -3.336
      -3.169
      -3.074
      -3.047
      -3.039
      -2.982
      -2.822
      -2.534
      -2.110
      -1.540
      -0.815
       0.053
       1.010
       1.962
       2.805
       3.474
       3.958
       4.282
       4.474
       4.528
       4.414
       4.102
       3.596
       2.949
       2.250
       1.601
       1.074
       0.711
       0.535
       0.577
       0.866
       1.390
       2.034
       2.591
       2.868
       2.814
       2.540
       2.193
       1.812
       1.319
       0.623
      -0.283
      -1.313
      -2.344
      -3.260
      -3.963
      -4.368
      -4.430
      -4.168
      -3.673
      -3.074
      -2.493
      -2.021
      -1.689
      -1.474
      -1.326
      -1.207
      -1.120
      -1.113
      -1.242
      -1.533
      -1.943
      -2.366
      -2.671
      -2.737
      -2.489
      -1.915
      -1.064
      -0.041
       1.013
       1.947
       2.646
       3.049
       3.148
       2.975
       2.594
       2.097
       1.585
       1.152
       0.865
       0.774
       0.896
       1.209
       1.635
       2.054
       2.339
       2.401
       2.223
       1.859
       1.424
       1.043
       0.800
       0.697
       0.654
       0.537
       0.232
      -0.301
      -1.011
      -1.773
      -2.439
      -2.871
      -2.975
      -2.703
      -2.063
      -1.113
       0.037
       1.230
       2.273
       2.976
       3.212
       2.966
       2.342
       1.515
       0.652
      -0.157
      -0.908
      -1.648
      -2.413
      -3.184
      -3.865
      -4.325
      -4.448
      -4.195
      -3.609
      -2.793
      -1.860
      -0.900
       0.009
       0.784
       1.329
       1.562
       1.463
       1.103
       0.626
       0.198
      -0.062
      -0.125
      -0.055
       0.027
       0.014
      -0.127
      -0.339
      -0.509
      -0.528
      -0.341
       0.029
       0.500
       0.967
       1.348
       1.605
       1.752
       1.827
       1.870
       1.896
       1.885
       1.784
       1.542
       1.159
       0.708
       0.319
       0.102
       0.080
       0.177
       0.273
       0.289
       0.237
       0.193
       0.232
       0.379
       0.591
       0.782
       0.864
       0.784
       0.554
       0.246
      -0.050
      -0.271
      -0.409
      -0.489
      -0.541
      -0.575
      -0.590
      -0.582
      -0.562
      -0.551
      -0.569
      -0.629
      -0.733
      -0.871
      -1.021
      -1.148
      -1.220
      -1.217
      -1.144
      -1.019
      -0.856
      -0.655
      -0.422
      -0.198
      -0.060
      -0.073
      -0.240
      -0.475
      -0.644
      -0.638
      -0.436
      -0.105
       0.239
       0.492
       0.599
       0.552
       0.380
       0.137
      -0.116
      -0.326
      -0.473
      -0.566
      -0.631
      -0.678
      -0.692
      -0.635
      -0.472
      -0.184
       0.215
       0.664
       1.069
       1.330
       1.405
       1.345
       1.270
       1.296
       1.451
       1.658
       1.788
       1.748
       1.540
       1.243
       0.952
       0.709
       0.504
       0.300
       0.079
      -0.142
      -0.322
      -0.416
      -0.401
      -0.282
      -0.101
       0.080
       0.196
       0.199
       0.066
      -0.196
      -0.548
      -0.924
      -1.253
      -1.489
      -1.626
      -1.698
      -1.743
      -1.767
      -1.744
      -1.637
      -1.433
      -1.160
      -0.873
      -0.621
      -0.429
      -0.285
      -0.162
      -0.034
       0.111
       0.269
       0.430
       0.577
       0.691
       0.742
       0.703
       0.563
       0.343
       0.106
      -0.065
      -0.081
       0.114
       0.508
       1.014
       1.497
       1.833
       1.970
       1.939
       1.810
       1.634
       1.413
       1.122
       0.761
       0.371
       0.013
      -0.280
      -0.537
      -0.823
      -1.190
      -1.627
      -2.058
      -2.380
      -2.526
      -2.491
      -2.331
      -2.122
      -1.925
      -1.759
      -1.600
      -1.398
      -1.105
      -0.702
      -0.206
       0.346
       0.908
       1.447
       1.932
       2.340
       2.650
       2.855
       2.967
       3.002
       2.980
       2.912
       2.805
       2.655
       2.443
       2.134
       1.696
       1.124
       0.461
      -0.213
      -0.815
      -1.298
      -1.665
      -1.950
      -2.192
      -2.409
      -2.600
      -2.747
      -2.835
      -2.853
      -2.802
      -2.692
      -2.526
      -2.296
      -1.988
      -1.602
      -1.176
      -0.770
      -0.425
      -0.133
       0.161
       0.519
       0.962
       1.459
       1.944
       2.343
       2.597
       2.669
       2.550
       2.263
       1.854
       1.382
       0.911
       0.494
       0.165
      -0.073
      -0.255
      -0.433
      -0.654
      -0.926
      -1.221
      -1.484
      -1.669
      -1.753
      -1.743
      -1.670
      -1.564
      -1.447
      -1.309
      -1.122
      -0.852
      -0.496
      -0.088
       0.307
       0.628
       0.839
       0.952
       1.004
       1.039
