Origin Time       14/03/2010 6:53:21	
Lat.              31.7 N	
Long.             76.1 E	
Depth (Km)         29.0
Magnitude         4.6
 Region           HIMACHAL-PUNJAB-(HOSHIARPUR)-BORDER                              
 Above details taken from IMD 
   
Station Code      NAW
Station Lat.       31.123
Station Long.      76.124
Station Height(m)  258.0
Site Class        C   Vs30 between 200 m/sec to 375 m/sec *  
Record Time       14.03.2010 06:53:26.039
Sampling Rate     200. Hz
 Record Duration   67.135 Sec.
 Direction         Vert. (Up positive)
Max. Acceleration     -5.554 cm/sec**2
     
  * For reference see Site Classification link of website 
     
 Base Line Corrected and Low Pass Filtered (Cut Off at 35 Hz) Time History
 Acceleration data in cm/sec**2
    
[...]
       0.491
       0.602
       0.696
       0.783
       0.863
       0.920
       0.905
       0.756
       0.440
      -0.003
      -0.456
      -0.782
      -0.875
      -0.701
      -0.339
       0.027
       0.168
      -0.052
      -0.558
      -1.081
      -1.314
      -1.111
      -0.577
       0.017
       0.396
       0.426
       0.153
      -0.241
      -0.524
      -0.512
      -0.153
       0.447
       1.074
       1.516
       1.659
       1.505
       1.138
       0.676
       0.231
      -0.105
      -0.265
      -0.216
       0.003
       0.251
       0.341
       0.160
      -0.230
      -0.626
      -0.830
      -0.787
      -0.592
      -0.385
      -0.245
      -0.194
      -0.253
      -0.454
      -0.771
      -1.080
      -1.214
      -1.092
      -0.768
      -0.368
       0.017
       0.359
       0.647
       0.841
       0.902
       0.842
       0.722
       0.586
       0.435
       0.258
       0.082
      -0.053
      -0.152
      -0.264
      -0.426
      -0.603
      -0.714
      -0.709
      -0.616
      -0.509
      -0.445
      -0.427
      -0.423
      -0.398
      -0.340
      -0.248
      -0.108
       0.121
       0.486
       0.986
       1.517
       1.885
       1.899
       1.501
       0.817
       0.093
      -0.448
      -0.710
      -0.730
      -0.600
      -0.401
      -0.188
      -0.006
       0.095
       0.070
      -0.101
      -0.389
      -0.721
      -0.991
      -1.099
      -0.994
      -0.703
      -0.326
       0.015
       0.246
       0.371
       0.446
       0.506
       0.534
       0.484
       0.342
       0.146
      -0.034
      -0.147
      -0.182
      -0.172
      -0.167
      -0.203
      -0.285
      -0.383
      -0.453
      -0.453
      -0.346
      -0.122
       0.167
       0.412
       0.491
       0.374
       0.157
      -0.004
      -0.009
       0.115
       0.269
       0.370
       0.411
       0.425
       0.424
       0.378
       0.255
       0.064
      -0.141
      -0.307
      -0.413
      -0.463
      -0.458
      -0.404
      -0.332
      -0.319
      -0.444
      -0.717
      -1.028
      -1.193
      -1.075
      -0.694
      -0.219
       0.150
       0.326
       0.365
       0.384
       0.458
       0.587
       0.744
       0.913
       1.066
       1.122
       0.967
       0.558
       0.002
      -0.488
      -0.738
      -0.740
      -0.644
      -0.619
      -0.712
      -0.821
      -0.792
      -0.561
      -0.202
       0.137
       0.350
       0.421
       0.380
       0.247
       0.031
      -0.208
      -0.339
      -0.240
       0.113
       0.599
       1.029
       1.239
       1.158
       0.811
       0.300
      -0.229
      -0.632
      -0.828
      -0.837
      -0.755
      -0.697
      -0.734
      -0.856
      -0.975
      -0.985
      -0.832
      -0.547
      -0.213
       0.104
       0.372
       0.571
       0.666
       0.636
       0.518
       0.398
       0.353
       0.408
       0.544
       0.721
       0.879
       0.923
       0.770
       0.407
      -0.076
      -0.533
      -0.843
      -0.961
      -0.923
      -0.811
      -0.710
      -0.666
      -0.659
      -0.629
      -0.527
      -0.354
      -0.143
       0.069
       0.268
       0.438
       0.556
       0.600
       0.570
       0.488
       0.382
       0.265
       0.134
      -0.017
      -0.177
      -0.312
      -0.393
      -0.418
      -0.416
      -0.409
      -0.400
      -0.388
      -0.395
      -0.449
      -0.521
      -0.507
      -0.300
       0.106
       0.584
       0.967
       1.163
       1.177
       1.049
       0.807
       0.489
       0.181
      -0.017
      -0.082
      -0.112
      -0.245
      -0.524
      -0.838
      -0.982
      -0.811
      -0.353
       0.195
       0.602
       0.751
       0.686
       0.526
       0.337
       0.109
      -0.179
      -0.500
      -0.798
      -1.032
      -1.188
      -1.243
      -1.160
      -0.951
      -0.711
      -0.570
      -0.574
      -0.632
      -0.562
      -0.237
       0.303
       0.861
       1.225
       1.323
       1.262
       1.192
       1.151
       1.034
       0.737
       0.301
      -0.101
      -0.316
      -0.334
      -0.268
      -0.228
      -0.242
      -0.273
      -0.306
      -0.379
      -0.544
      -0.777
      -0.958
      -0.937
      -0.649
      -0.174
       0.301
       0.605
       0.668
       0.519
       0.240
      -0.076
      -0.324
      -0.398
      -0.234
       0.140
       0.612
       1.025
       1.230
       1.115
       0.655
      -0.032
      -0.703
      -1.116
      -1.174
      -0.968
      -0.681
      -0.465
      -0.386
      -0.427
      -0.530
      -0.627
      -0.663
      -0.607
      -0.429
      -0.107
       0.340
       0.811
       1.160
       1.293
       1.218
       1.008
       0.735
       0.462
       0.267
       0.226
       0.331
       0.462
       0.458
       0.238
      -0.158
      -0.626
      -1.061
      -1.370
      -1.479
      -1.361
      -1.080
      -0.771
      -0.557
      -0.469
      -0.436
      -0.353
      -0.176
       0.038
       0.166
       0.133
      -0.005
      -0.074
       0.091
       0.513
       1.036
       1.412
       1.451
       1.122
       0.551
      -0.046
      -0.460
      -0.588
      -0.469
      -0.242
      -0.037
       0.102
       0.190
       0.233
       0.208
       0.113
      -0.006
      -0.087
      -0.111
      -0.112
      -0.143
      -0.238
      -0.403
      -0.618
      -0.821
      -0.922
      -0.857
      -0.646
      -0.400
      -0.246
      -0.231
      -0.283
      -0.278
      -0.136
       0.118
       0.396
       0.610
       0.723
       0.748
       0.720
       0.662
       0.567
       0.412
       0.195
      -0.023
      -0.145
      -0.121
      -0.009
       0.061
      -0.009
      -0.216
      -0.475
      -0.699
      -0.847
      -0.906
      -0.854
      -0.668
      -0.370
      -0.050
       0.177
       0.249
       0.203
       0.153
       0.213
       0.424
       0.731
       1.025
       1.212
       1.252
       1.139
       0.861
       0.401
      -0.193
      -0.756
      -1.071
      -1.037
      -0.773
      -0.553
      -0.596
      -0.909
      -1.306
      -1.556
      -1.527
      -1.223
      -0.752
      -0.273
       0.071
       0.226
       0.255
       0.286
       0.400
       0.577
       0.723
       0.759
       0.653
       0.421
       0.111
      -0.179
      -0.315
      -0.199
       0.140
       0.528
       0.742
       0.657
       0.326
      -0.064
      -0.315
      -0.326
      -0.115
       0.230
       0.602
       0.879
       0.937
       0.705
       0.237
      -0.290
      -0.683
      -0.854
      -0.854
      -0.789
      -0.704
      -0.572
      -0.368
      -0.145
      -0.016
      -0.050
      -0.198
      -0.315
      -0.260
       0.006
       0.389
       0.738
       0.951
       1.021
       0.983
       0.842
       0.570
       0.176
      -0.245
      -0.553
      -0.664
      -0.610
      -0.506
      -0.467
      -0.553
      -0.773
      -1.093
      -1.436
      -1.691
      -1.748
      -1.547
      -1.101
      -0.487
       0.185
       0.801
       1.264
       1.515
       1.536
       1.345
       0.996
       0.599
       0.315
       0.306
       0.620
       1.102
       1.442
       1.340
       0.685
      -0.373
      -1.483
      -2.243
      -2.374
      -1.858
      -0.952
      -0.047
       0.542
       0.725
       0.606
       0.361
       0.136
       0.031
       0.112
       0.388
       0.774
       1.094
       1.137
       0.760
      -0.019
      -0.999
      -1.856
      -2.287
      -2.152
      -1.524
      -0.634
       0.257
       0.939
       1.289
       1.274
       0.965
       0.524
       0.135
      -0.076
      -0.085
       0.053
       0.252
       0.423
       0.497
       0.457
       0.352
       0.268
       0.248
       0.268
       0.268
       0.227
       0.162
       0.094
       0.002
      -0.163
      -0.422
      -0.734
      -0.995
      -1.090
      -0.940
      -0.557
      -0.052
       0.405
       0.669
       0.681
       0.468
       0.105
      -0.316
      -0.680
      -0.861
      -0.790
      -0.544
      -0.338
      -0.386
      -0.738
      -1.227
      -1.591
      -1.652
      -1.397
      -0.930
      -0.374
       0.183
       0.669
       1.013
       1.155
       1.104
       0.971
       0.933
       1.121
       1.523
       1.975
       2.268
       2.256
       1.895
       1.215
       0.304
      -0.689
      -1.561
      -2.111
      -2.209
      -1.849
      -1.164
      -0.391
       0.196
       0.389
       0.140
      -0.430
      -1.085
      -1.564
      -1.667
      -1.324
      -0.646
       0.115
       0.684
       0.903
       0.797
       0.525
       0.310
       0.370
       0.837
       1.660
       2.558
       3.144
       3.150
       2.570
       1.608
       0.526
      -0.447
      -1.136
      -1.450
      -1.438
      -1.294
      -1.232
      -1.343
      -1.564
      -1.794
      -1.991
      -2.163
      -2.268
      -2.168
      -1.702
      -0.829
       0.274
       1.273
       1.853
       1.888
       1.469
       0.789
       0.017
      -0.723
      -1.292
      -1.517
      -1.286
      -0.673
       0.037
       0.490
       0.485
       0.123
      -0.242
      -0.222
       0.344
       1.278
       2.178
       2.648
       2.504
       1.811
       0.798
      -0.266
      -1.151
      -1.681
      -1.746
      -1.356
      -0.699
      -0.088
       0.204
       0.119
      -0.155
      -0.346
      -0.297
      -0.047
       0.249
       0.479
       0.636
       0.760
       0.843
       0.825
       0.649
       0.319
      -0.105
      -0.553
      -0.955
      -1.233
      -1.297
      -1.089
      -0.665
      -0.214
       0.035
      -0.039
      -0.361
      -0.710
      -0.864
      -0.720
      -0.326
       0.166
       0.567
       0.700
       0.443
      -0.189
      -0.976
      -1.542
      -1.546
      -0.893
       0.205
       1.362
       2.226
       2.621
       2.567
       2.206
       1.704
       1.191
       0.746
       0.409
       0.176
      -0.023
      -0.291
      -0.687
      -1.166
      -1.602
      -1.864
      -1.883
      -1.663
      -1.265
      -0.804
      -0.406
      -0.135
       0.058
       0.276
       0.569
       0.879
       1.103
       1.190
       1.175
       1.114
       1.025
       0.902
       0.768
       0.684
       0.681
       0.693
       0.567
       0.167
      -0.497
      -1.251
      -1.864
      -2.195
      -2.250
      -2.106
      -1.804
      -1.342
      -0.739
      -0.092
       0.462
       0.818
       0.951
       0.925
       0.876
       0.955
       1.227
       1.606
       1.878
       1.836
       1.409
       0.696
      -0.102
      -0.792
      -1.270
      -1.537
      -1.652
      -1.664
      -1.582
      -1.399
      -1.129
      -0.824
      -0.540
      -0.306
      -0.105
       0.104
       0.363
       0.680
       1.027
       1.330
       1.497
       1.450
       1.171
       0.722
       0.219
      -0.210
      -0.473
      -0.533
      -0.409
      -0.165
       0.101
       0.310
       0.432
       0.474
       0.448
       0.346
       0.180
       0.017
      -0.033
       0.105
       0.379
       0.615
       0.621
       0.318
      -0.220
      -0.824
      -1.321
      -1.579
      -1.504
      -1.057
      -0.315
       0.483
       0.987
       0.907
       0.186
      -0.934
      -2.014
      -2.646
      -2.642
      -2.082
      -1.181
      -0.123
       0.991
       2.051
       2.852
       3.172
       2.940
       2.323
       1.610
       1.021
       0.624
       0.392
       0.289
       0.266
       0.219
      -0.007
      -0.521
      -1.282
      -2.090
      -2.678
      -2.838
      -2.527
      -1.884
      -1.166
      -0.604
      -0.281
      -0.111
       0.072
       0.394
       0.893
       1.520
       2.167
       2.692
       2.965
       2.921
       2.559
       1.899
       0.969
      -0.152
      -1.259
      -2.051
      -2.275
      -1.905
      -1.177
      -0.433
       0.092
       0.364
       0.463
       0.452
       0.325
       0.068
      -0.293
      -0.691
      -1.054
      -1.321
      -1.445
      -1.420
      -1.325
      -1.300
      -1.433
      -1.652
      -1.744
      -1.503
      -0.879
      -0.015
       0.823
       1.379
       1.528
       1.345
       1.075
       0.978
       1.157
       1.513
       1.856
       2.058
       2.113
       2.071
       1.970
       1.848
       1.758
       1.717
       1.639
       1.391
       0.950
       0.475
       0.188
       0.164
       0.252
       0.185
      -0.215
      -0.911
      -1.675
      -2.214
      -2.332
      -2.029
      -1.489
      -0.960
      -0.598
      -0.414
      -0.329
      -0.260
      -0.144
       0.063
       0.352
       0.600
       0.598
       0.191
      -0.563
      -1.403
      -2.038
      -2.334
      -2.341
      -2.189
      -1.973
      -1.731
      -1.477
      -1.211
      -0.921
      -0.577
      -0.150
       0.380
       1.020
       1.761
       2.555
       3.327
       3.998
       4.513
       4.842
       4.960
       4.845
       4.482
       3.858
       2.946
       1.731
       0.270
      -1.275
      -2.682
      -3.792
      -4.574
      -5.096
      -5.422
      -5.554
      -5.453
      -5.088
      -4.456
      -3.569
      -2.440
      -1.089
       0.419
       1.944
       3.279
       4.231
       4.733
       4.872
       4.780
       4.489
       3.927
       3.054
       1.996
       0.970
       0.086
      -0.773
      -1.825
      -3.129
      -4.432
      -5.291
      -5.365
      -4.639
      -3.382
      -1.932
      -0.505
       0.808
       1.926
       2.695
       2.977
       2.808
       2.430
       2.105
       1.892
       1.604
       1.023
       0.140
      -0.805
      -1.526
      -1.905
      -2.000
      -1.900
      -1.623
      -1.171
      -0.602
      -0.004
       0.597
       1.251
       1.994
       2.750
       3.325
       3.510
       3.203
       2.464
       1.489
       0.509
      -0.324
      -0.962
      -1.397
      -1.605
      -1.598
      -1.516
      -1.592
      -1.951
      -2.442
      -2.701
      -2.424
      -1.608
      -0.559
       0.331
       0.819
       0.894
       0.707
       0.443
       0.236
       0.172
       0.334
       0.792
       1.523
       2.332
       2.897
       2.928
       2.338
       1.303
       0.184
      -0.640
      -0.955
      -0.810
      -0.453
      -0.164
      -0.113
      -0.349
      -0.854
      -1.564
      -2.343
      -2.996
      -3.342
      -3.295
      -2.867
      -2.130
      -1.195
      -0.230
       0.558
       1.027
       1.198
       1.239
       1.331
       1.556
       1.890
       2.257
       2.561
       2.661
       2.399
       1.719
       0.775
      -0.103
      -0.606
      -0.643
      -0.385
      -0.103
       0.036
       0.056
       0.078
       0.175
       0.316
       0.433
       0.498
       0.526
       0.509
       0.385
       0.081
      -0.389
      -0.901
      -1.311
      -1.596
      -1.870
      -2.265
      -2.768
      -3.183
      -3.236
      -2.744
      -1.742
      -0.493
       0.634
       1.381
       1.753
       1.985
       2.328
       2.830
       3.320
       3.575
       3.499
       3.124
       2.523
       1.765
       0.941
       0.159
      -0.527
      -1.130
      -1.649
      -1.968
      -1.914
      -1.437
      -0.731
      -0.142
       0.064
      -0.147
      -0.602
      -1.060
      -1.319
      -1.265
      -0.874
      -0.214
       0.568
       1.287
       1.781
       1.978
       1.900
       1.627
       1.232
       0.758
       0.226
      -0.349
      -0.976
      -1.693
      -2.508
      -3.317
      -3.866
      -3.843
      -3.063
      -1.621
       0.118
       1.686
       2.720
       3.089
       2.882
       2.329
       1.712
       1.296
       1.258
       1.572
       1.964
       2.034
       1.515
       0.469
      -0.768
      -1.833
      -2.556
      -2.991
      -3.282
      -3.511
      -3.634
      -3.495
      -2.933
      -1.927
      -0.675
       0.480
       1.258
       1.597
       1.642
       1.611
       1.668
       1.869
       2.169
       2.451
       2.578
       2.447
       2.025
       1.370
       0.610
      -0.070
      -0.478
      -0.482
      -0.094
       0.490
       0.957
       1.039
       0.660
      -0.033
      -0.773
      -1.339
      -1.649
      -1.734
      -1.631
      -1.331
      -0.826
      -0.184
       0.435
       0.846
       0.936
       0.716
       0.318
      -0.079
      -0.338
      -0.426
      -0.408
      -0.375
      -0.381
      -0.429
      -0.502
      -0.592
      -0.701
      -0.812
      -0.862
      -0.762
      -0.437
       0.111
       0.774
       1.344
       1.601
       1.445
       0.980
       0.476
       0.198
       0.225
       0.438
       0.665
       0.826
       0.914
       0.903
       0.719
       0.334
      -0.136
      -0.472
      -0.506
      -0.269
       0.034
       0.198
       0.193
       0.149
       0.181
       0.249
       0.215
       0.011
      -0.272
      -0.464
      -0.488
      -0.431
      -0.475
      -0.751
      -1.246
      -1.800
      -2.207
      -2.317
      -2.119
      -1.714
      -1.227
      -0.704
      -0.098
       0.631
       1.395
       1.973
       2.151
       1.896
       1.414
       1.012
       0.893
       1.039
       1.256
       1.329
       1.151
       0.754
       0.246
      -0.241
      -0.575
      -0.656
      -0.472
      -0.133
       0.170
       0.255
       0.035
      -0.440
      -0.986
      -1.345
      -1.305
      -0.828
      -0.086
       0.648
       1.151
       1.333
       1.206
       0.842
       0.353
      -0.123
      -0.457
      -0.574
      -0.485
      -0.272
      -0.046
       0.097
       0.118
       0.056
       0.013
       0.070
       0.200
       0.269
       0.161
      -0.104
      -0.362
      -0.445
      -0.325
      -0.138
      -0.051
      -0.115
      -0.235
      -0.266
      -0.134
       0.128
       0.430
       0.679
       0.785
       0.681
       0.362
      -0.064
      -0.418
      -0.552
      -0.421
      -0.058
       0.450
       0.938
       1.176
       0.977
       0.361
      -0.446
      -1.161
      -1.625
      -1.824
      -1.805
      -1.621
      -1.338
      -1.059
      -0.889
      -0.847
      -0.835
      -0.694
      -0.317
       0.274
       0.941
       1.514
       1.881
       2.037
       2.035
       1.910
       1.658
       1.292
       0.906
       0.657
       0.668
       0.952
       1.396
       1.801
       1.955
       1.708
       1.041
       0.063
      -1.045
      -2.079
      -2.845
      -3.180
      -3.015
      -2.446
      -1.722
      -1.113
      -0.773
      -0.694
      -0.766
      -0.843
      -0.774
      -0.456
       0.104
       0.771
       1.356
       1.714
       1.809
       1.678
       1.391
       1.032
       0.722
       0.602
       0.754
