Origin Time       14/03/2010 6:53:21	 UTC
Lat.              31.7 N	
Long.             76.1 E	
Depth (Km)         29.0
Magnitude         4.6
 Region           HIMACHAL-PUNJAB-(HOSHIARPUR)-BORDER                              
 Above details taken from IMD 
    
Station Code      NAW
Station Lat.       31.123  N
Station Long.      76.124  E
Station Height(m)  258.0
Site Class        C   Vs30 between 200 m/sec to 375 m/sec *  
Record Time       14.03.2010 06:53:26.039 UTC
Sampling Rate     200. Hz
 Record Duration   67.135 Sec.
 Direction         N-S (N positive)
Max. Acceleration      7.636 cm/sec**2
     
  * For reference see Site Classification link of website 
     
 Base Line Corrected and Low Pass Filtered (Cut Off at 35 Hz) Time History
 Acceleration data in cm/sec**2
    
[...]
      -0.077
      -0.058
      -0.057
      -0.074
      -0.093
      -0.096
      -0.075
      -0.034
       0.017
       0.065
       0.099
       0.119
       0.132
       0.149
       0.179
       0.213
       0.230
       0.198
       0.097
      -0.074
      -0.282
      -0.477
      -0.603
      -0.624
      -0.541
      -0.392
      -0.233
      -0.117
      -0.065
      -0.061
      -0.069
      -0.057
      -0.010
       0.062
       0.133
       0.172
       0.154
       0.079
      -0.026
      -0.113
      -0.140
      -0.097
      -0.009
       0.076
       0.112
       0.075
      -0.023
      -0.143
      -0.230
      -0.248
      -0.197
      -0.116
      -0.057
      -0.063
      -0.140
      -0.258
      -0.358
      -0.380
      -0.297
      -0.130
       0.064
       0.219
       0.305
       0.330
       0.328
       0.327
       0.334
       0.329
       0.283
       0.175
       0.016
      -0.155
      -0.290
      -0.358
      -0.351
      -0.281
      -0.170
      -0.049
       0.044
       0.079
       0.049
      -0.022
      -0.100
      -0.155
      -0.178
      -0.167
      -0.127
      -0.072
      -0.029
      -0.033
      -0.095
      -0.191
      -0.273
      -0.298
      -0.256
      -0.173
      -0.090
      -0.039
      -0.028
      -0.038
      -0.041
      -0.015
       0.039
       0.107
       0.165
       0.197
       0.193
       0.145
       0.052
      -0.070
      -0.187
      -0.260
      -0.273
      -0.245
      -0.211
      -0.198
      -0.208
      -0.225
      -0.229
      -0.203
      -0.146
      -0.077
      -0.026
      -0.029
      -0.094
      -0.197
      -0.292
      -0.339
      -0.325
      -0.261
      -0.173
      -0.086
      -0.012
       0.044
       0.083
       0.107
       0.119
       0.118
       0.105
       0.080
       0.048
       0.012
      -0.026
      -0.062
      -0.086
      -0.088
      -0.065
      -0.030
      -0.007
      -0.013
      -0.043
      -0.075
      -0.085
      -0.073
      -0.061
      -0.079
      -0.144
      -0.250
      -0.370
      -0.474
      -0.534
      -0.529
      -0.453
      -0.317
      -0.156
      -0.017
       0.059
       0.054
      -0.010
      -0.083
      -0.109
      -0.060
       0.045
       0.162
       0.242
       0.262
       0.228
       0.161
       0.086
       0.018
      -0.037
      -0.078
      -0.108
      -0.131
      -0.150
      -0.159
      -0.154
      -0.132
      -0.093
      -0.045
       0.008
       0.062
       0.110
       0.136
       0.114
       0.038
      -0.073
      -0.183
      -0.256
      -0.282
      -0.269
      -0.232
      -0.175
      -0.099
      -0.007
       0.079
       0.131
       0.128
       0.075
      -0.002
      -0.074
      -0.129
      -0.177
      -0.226
      -0.271
      -0.283
      -0.233
      -0.115
       0.038
       0.170
       0.234
       0.216
       0.136
       0.025
      -0.088
      -0.177
      -0.222
      -0.215
      -0.169
      -0.115
      -0.083
      -0.087
      -0.120
      -0.161
      -0.184
      -0.171
      -0.126
      -0.076
      -0.053
      -0.077
      -0.135
      -0.192
      -0.213
      -0.178
      -0.097
      -0.003
       0.061
       0.073
       0.048
       0.024
       0.026
       0.047
       0.052
       0.016
      -0.058
      -0.149
      -0.226
      -0.265
      -0.250
      -0.182
      -0.088
      -0.006
       0.033
       0.020
      -0.027
      -0.083
      -0.122
      -0.133
      -0.124
      -0.120
      -0.144
      -0.197
      -0.259
      -0.306
      -0.323
      -0.313
      -0.289
      -0.266
      -0.253
      -0.243
      -0.219
      -0.161
      -0.069
       0.039
       0.136
       0.200
       0.219
       0.199
       0.156
       0.118
       0.107
       0.124
       0.149
       0.154
       0.126
       0.072
       0.020
       0.003
       0.040
       0.121
       0.207
       0.253
       0.236
       0.157
       0.038
      -0.097
      -0.221
      -0.309
      -0.340
      -0.319
      -0.284
      -0.285
      -0.348
      -0.458
      -0.567
      -0.622
      -0.593
      -0.485
      -0.331
      -0.169
      -0.026
       0.090
       0.180
       0.244
       0.274
       0.273
       0.250
       0.216
       0.170
       0.105
       0.029
      -0.038
      -0.075
      -0.091
      -0.123
      -0.204
      -0.336
      -0.473
      -0.547
      -0.509
      -0.368
      -0.181
      -0.015
       0.096
       0.160
       0.194
       0.197
       0.149
       0.050
      -0.069
      -0.165
      -0.208
      -0.191
      -0.127
      -0.037
       0.047
       0.093
       0.085
       0.039
      -0.009
      -0.030
      -0.027
      -0.030
      -0.065
      -0.129
      -0.182
      -0.181
      -0.114
      -0.013
       0.075
       0.125
       0.145
       0.159
       0.174
       0.177
       0.148
       0.070
      -0.057
      -0.209
      -0.338
      -0.401
      -0.396
      -0.357
      -0.326
      -0.315
      -0.308
      -0.290
      -0.262
      -0.236
      -0.218
      -0.210
      -0.207
      -0.193
      -0.148
      -0.058
       0.063
       0.186
       0.287
       0.356
       0.390
       0.378
       0.311
       0.196
       0.058
      -0.068
      -0.158
      -0.201
      -0.201
      -0.182
      -0.183
      -0.231
      -0.314
      -0.382
      -0.381
      -0.295
      -0.158
      -0.021
       0.076
       0.123
       0.135
       0.130
       0.110
       0.053
      -0.061
      -0.219
      -0.368
      -0.444
      -0.422
      -0.329
      -0.227
      -0.161
      -0.134
      -0.109
      -0.043
       0.080
       0.227
       0.338
       0.369
       0.318
       0.233
       0.169
       0.149
       0.155
       0.147
       0.097
       0.002
      -0.116
      -0.225
      -0.304
      -0.352
      -0.386
      -0.424
      -0.466
      -0.490
      -0.475
      -0.415
      -0.328
      -0.233
      -0.141
      -0.056
       0.019
       0.071
       0.087
       0.060
      -0.001
      -0.072
      -0.121
      -0.121
      -0.068
       0.019
       0.111
       0.180
       0.219
       0.240
       0.250
       0.248
       0.230
       0.195
       0.158
       0.130
       0.108
       0.077
       0.018
      -0.077
      -0.201
      -0.327
      -0.423
      -0.463
      -0.443
      -0.386
      -0.332
      -0.309
      -0.319
      -0.341
      -0.346
      -0.320
      -0.263
      -0.188
      -0.115
      -0.062
      -0.039
      -0.048
      -0.086
      -0.145
      -0.216
      -0.285
      -0.332
      -0.328
      -0.263
      -0.152
      -0.036
       0.042
       0.060
       0.031
      -0.011
      -0.022
       0.027
       0.130
       0.247
       0.320
       0.310
       0.218
       0.076
      -0.076
      -0.204
      -0.284
      -0.302
      -0.259
      -0.174
      -0.081
      -0.010
       0.029
       0.047
       0.068
       0.111
       0.178
       0.248
       0.279
       0.240
       0.128
      -0.020
      -0.145
      -0.194
      -0.154
      -0.056
       0.039
       0.071
       0.019
      -0.094
      -0.220
      -0.314
      -0.356
      -0.349
      -0.305
      -0.238
      -0.158
      -0.084
      -0.044
      -0.061
      -0.133
      -0.220
      -0.263
      -0.228
      -0.126
      -0.004
       0.091
       0.142
       0.158
       0.152
       0.125
       0.066
      -0.028
      -0.152
      -0.284
      -0.396
      -0.455
      -0.443
      -0.363
      -0.244
      -0.130
      -0.054
      -0.025
      -0.030
      -0.042
      -0.039
      -0.011
       0.032
       0.078
       0.121
       0.162
       0.195
       0.203
       0.163
       0.065
      -0.076
      -0.217
      -0.312
      -0.336
      -0.299
      -0.224
      -0.135
      -0.045
       0.034
       0.084
       0.089
       0.049
      -0.008
      -0.038
      -0.002
       0.095
       0.204
       0.257
       0.214
       0.097
      -0.035
      -0.131
      -0.180
      -0.213
      -0.269
      -0.372
      -0.511
      -0.652
      -0.746
      -0.757
      -0.674
      -0.519
      -0.328
      -0.142
      -0.002
       0.066
       0.070
       0.051
       0.056
       0.103
       0.165
       0.194
       0.166
       0.093
       0.000
      -0.097
      -0.188
      -0.255
      -0.264
      -0.195
      -0.066
       0.070
       0.152
       0.154
       0.105
       0.064
       0.079
       0.147
       0.232
       0.294
       0.320
       0.314
       0.275
       0.191
       0.056
      -0.108
      -0.255
      -0.349
      -0.377
      -0.358
      -0.325
      -0.309
      -0.330
      -0.384
      -0.453
      -0.518
      -0.559
      -0.563
      -0.515
      -0.413
      -0.273
      -0.131
      -0.020
       0.045
       0.070
       0.067
       0.050
       0.028
       0.010
       0.000
       0.009
       0.047
       0.116
       0.194
       0.250
       0.264
       0.235
       0.174
       0.086
      -0.021
      -0.127
      -0.195
      -0.194
      -0.132
      -0.058
      -0.020
      -0.021
      -0.025
      -0.001
       0.038
       0.045
      -0.016
      -0.139
      -0.283
      -0.406
      -0.487
      -0.516
      -0.488
      -0.401
      -0.263
      -0.090
       0.092
       0.260
       0.381
       0.426
       0.377
       0.246
       0.081
      -0.054
      -0.103
      -0.046
       0.094
       0.256
       0.368
       0.379
       0.278
       0.101
      -0.094
      -0.248
      -0.328
      -0.344
      -0.330
      -0.324
      -0.349
      -0.397
      -0.452
      -0.494
      -0.508
      -0.476
      -0.389
      -0.258
      -0.121
      -0.015
       0.038
       0.049
       0.044
       0.047
       0.070
       0.101
       0.105
       0.056
      -0.040
      -0.154
      -0.253
      -0.327
      -0.371
      -0.387
      -0.373
      -0.330
      -0.257
      -0.159
      -0.046
       0.070
       0.187
       0.306
       0.419
       0.496
       0.501
       0.429
       0.324
       0.245
       0.220
       0.225
       0.206
       0.128
      -0.008
      -0.170
      -0.321
      -0.430
      -0.480
      -0.459
      -0.369
      -0.233
      -0.099
      -0.017
      -0.005
      -0.035
      -0.061
      -0.061
      -0.054
      -0.077
      -0.145
      -0.238
      -0.320
      -0.366
      -0.376
      -0.361
      -0.327
      -0.272
      -0.194
      -0.098
      -0.001
       0.076
       0.125
       0.158
       0.188
       0.202
       0.168
       0.060
      -0.107
      -0.277
      -0.384
      -0.383
      -0.272
      -0.083
       0.124
       0.289
       0.373
       0.383
       0.354
       0.326
       0.325
       0.356
       0.409
       0.467
       0.512
       0.530
       0.508
       0.437
       0.319
       0.190
       0.105
       0.109
       0.192
       0.286
       0.315
       0.250
       0.124
      -0.001
      -0.071
      -0.069
      -0.018
       0.035
       0.049
       0.009
      -0.075
      -0.185
      -0.303
      -0.407
      -0.463
      -0.437
      -0.321
      -0.152
       0.011
       0.104
       0.093
      -0.008
      -0.136
      -0.206
      -0.161
      -0.001
       0.221
       0.436
       0.586
       0.637
       0.585
       0.457
       0.299
       0.162
       0.067
       0.009
      -0.036
      -0.090
      -0.163
      -0.247
      -0.317
      -0.340
      -0.294
      -0.181
      -0.037
       0.088
       0.149
       0.136
       0.079
       0.029
       0.026
       0.076
       0.157
       0.243
       0.326
       0.413
       0.504
       0.576
       0.589
       0.521
       0.389
       0.247
       0.155
       0.136
       0.159
       0.169
       0.123
       0.016
      -0.117
      -0.227
      -0.268
      -0.216
      -0.081
       0.101
       0.282
       0.424
       0.504
       0.516
       0.460
       0.348
       0.205
       0.061
      -0.057
      -0.133
      -0.161
      -0.144
      -0.092
      -0.024
       0.044
       0.105
       0.158
       0.198
       0.206
       0.164
       0.083
       0.000
      -0.046
      -0.042
      -0.003
       0.057
       0.154
       0.338
       0.663
       1.143
       1.724
       2.294
       2.725
       2.946
       2.965
       2.853
       2.685
       2.494
       2.275
       2.014
       1.706
       1.353
       0.963
       0.554
       0.153
      -0.212
      -0.530
      -0.815
      -1.093
      -1.387
      -1.706
      -2.036
      -2.343
      -2.570
      -2.645
      -2.503
      -2.112
      -1.488
      -0.688
       0.220
       1.182
       2.164
       3.137
       4.055
       4.841
       5.406
       5.678
       5.627
       5.266
       4.631
       3.750
       2.651
       1.397
       0.103
      -1.081
      -2.031
      -2.705
      -3.140
      -3.416
      -3.610
      -3.784
      -3.987
      -4.252
      -4.587
      -4.978
      -5.404
      -5.835
      -6.237
      -6.578
      -6.851
      -7.082
      -7.293
      -7.459
      -7.495
      -7.307
      -6.850
      -6.157
      -5.316
      -4.428
      -3.562
      -2.738
      -1.939
      -1.147
      -0.376
       0.312
       0.856
       1.237
       1.504
       1.731
       1.977
       2.266
       2.601
       2.991
       3.457
       4.020
       4.690
       5.444
       6.217
       6.901
       7.394
       7.636
       7.631
       7.411
       6.991
       6.346
       5.434
       4.247
       2.846
       1.358
      -0.058
      -1.267
      -2.196
      -2.829
      -3.167
      -3.188
      -2.854
      -2.155
      -1.162
      -0.041
       0.990
       1.729
       2.043
       1.891
       1.327
       0.480
      -0.476
      -1.372
      -2.088
      -2.578
      -2.860
      -2.985
      -2.998
      -2.908
      -2.678
      -2.257
      -1.630
      -0.857
      -0.066
       0.601
       1.046
       1.252
       1.288
       1.282
       1.358
       1.580
       1.928
       2.315
       2.640
       2.822
       2.820
       2.647
       2.363
       2.057
       1.813
       1.676
       1.632
       1.625
       1.584
       1.461
       1.244
       0.960
       0.656
       0.378
       0.169
       0.056
       0.044
       0.096
       0.136
       0.094
      -0.049
      -0.243
      -0.407
      -0.499
      -0.550
      -0.640
      -0.833
      -1.140
      -1.516
      -1.888
      -2.187
      -2.376
      -2.463
      -2.497
      -2.540
      -2.632
      -2.773
      -2.919
      -2.994
      -2.912
      -2.606
      -2.074
      -1.399
      -0.734
      -0.233
       0.008
      -0.016
      -0.229
      -0.502
      -0.699
      -0.719
      -0.527
      -0.154
       0.335
       0.878
       1.429
       1.950
       2.402
       2.748
       2.956
       3.016
       2.951
       2.811
       2.645
       2.474
       2.299
       2.116
       1.937
       1.770
       1.601
       1.394
       1.121
       0.796
       0.483
       0.264
       0.185
       0.205
       0.210
       0.069
      -0.284
      -0.820
      -1.438
      -2.016
      -2.444
      -2.633
      -2.533
      -2.157
      -1.586
      -0.952
      -0.382
       0.037
       0.271
       0.342
       0.306
       0.218
       0.093
      -0.101
      -0.406
      -0.817
      -1.261
      -1.621
      -1.805
      -1.780
      -1.570
      -1.223
      -0.775
      -0.245
       0.342
       0.926
       1.406
       1.674
       1.667
       1.401
       0.976
       0.534
       0.209
       0.076
       0.130
       0.302
       0.502
       0.664
       0.780
       0.886
       1.023
       1.200
       1.372
       1.473
       1.450
       1.288
       1.015
       0.692
       0.380
       0.118
      -0.085
      -0.242
      -0.363
      -0.451
      -0.511
      -0.561
      -0.626
      -0.722
      -0.843
      -0.968
      -1.074
      -1.127
      -1.102
      -0.994
      -0.843
      -0.714
      -0.657
      -0.661
      -0.666
      -0.604
      -0.434
      -0.164
       0.164
       0.490
       0.758
       0.943
       1.054
       1.135
       1.235
       1.386
       1.585
       1.779
       1.879
       1.787
       1.446
       0.867
       0.141
      -0.583
      -1.142
      -1.403
      -1.315
      -0.929
      -0.389
       0.111
       0.404
       0.409
       0.158
      -0.229
      -0.607
      -0.867
      -0.975
      -0.958
      -0.865
      -0.736
      -0.591
      -0.427
      -0.238
      -0.034
       0.144
       0.235
       0.192
       0.019
      -0.209
      -0.379
      -0.381
      -0.161
       0.246
       0.723
       1.116
       1.306
       1.255
       1.001
       0.628
       0.237
      -0.067
      -0.214
      -0.195
      -0.066
       0.078
       0.153
       0.119
      -0.003
      -0.136
      -0.169
      -0.024
       0.298
       0.693
       1.005
       1.110
       0.975
       0.662
       0.273
      -0.099
      -0.401
      -0.606
      -0.688
      -0.626
      -0.420
      -0.114
       0.211
       0.468
       0.594
       0.566
       0.405
       0.157
      -0.123
      -0.391
      -0.624
      -0.818
      -0.982
      -1.132
      -1.284
      -1.440
      -1.576
      -1.635
      -1.552
      -1.285
      -0.834
      -0.246
       0.399
       1.004
       1.482
       1.784
       1.899
       1.846
       1.650
       1.335
       0.945
       0.556
       0.271
       0.157
       0.201
       0.310
       0.370
       0.320
       0.180
       0.030
      -0.049
      -0.013
       0.133
       0.351
       0.582
       0.769
       0.862
       0.849
       0.760
       0.656
       0.588
       0.571
       0.582
       0.587
       0.559
       0.481
       0.337
       0.105
      -0.236
      -0.687
      -1.215
      -1.741
      -2.165
      -2.396
      -2.401
      -2.217
      -1.937
      -1.653
      -1.419
      -1.232
      -1.059
      -0.864
      -0.637
      -0.397
      -0.180
       0.000
       0.165
       0.361
       0.618
       0.907
       1.133
       1.177
       0.961
       0.500
      -0.089
      -0.634
      -0.986
      -1.062
      -0.856
      -0.426
       0.138
       0.736
       1.291
       1.761
       2.130
       2.381
       2.490
       2.454
       2.313
       2.142
       2.014
       1.958
       1.933
       1.845
       1.595
       1.139
       0.530
      -0.108
      -0.646
      -1.015
      -1.220
      -1.300
      -1.281
      -1.179
      -1.028
      -0.894
      -0.860
      -0.980
      -1.233
      -1.523
      -1.723
      -1.735
      -1.537
      -1.196
      -0.831
      -0.559
      -0.440
      -0.448
      -0.496
      -0.500
      -0.432
      -0.334
      -0.268
      -0.251
      -0.247
      -0.192
      -0.044
       0.199
       0.493
       0.759
       0.918
       0.933
       0.837
       0.722
       0.677
       0.734
       0.857
       0.964
       0.971
       0.834
       0.565
       0.224
      -0.120
      -0.413
      -0.626
      -0.740
      -0.739
      -0.631
      -0.457
      -0.287
      -0.181
      -0.149
      -0.143
      -0.091
       0.060
