Origin Time       1/5/2013 06:57:12	 
Lat.              33.1 N	
Long.             75.8 E	
Depth (Km)         15.0
Magnitude         5.8
 Region           JK-HP-Border                                                     
 Above details taken from IMD 
     
Station Code      NAW
Station Lat.       31.123  N
Station Long.      76.124  E
Station Height(m)  258.0
Site Class        C   Vs30 between 200 m/sec to 375 m/sec *  
Record Time       01.05.2013 06:57:49.209
Sampling Rate     200. Hz
 Record Duration   87.220 Sec.
 Direction         E-W (E positive)
Max. Acceleration    -14.673 cm/sec**2
     
  * For reference see Site Classification link of website 
     
 Base Line Corrected and Low Pass Filtered (Cut Off at 35 Hz) Time History
 Acceleration data in cm/sec**2
    
[...]
      -1.047
      -1.061
      -0.976
      -0.804
      -0.570
      -0.309
      -0.056
       0.166
       0.342
       0.478
       0.584
       0.674
       0.759
       0.847
       0.945
       1.055
       1.167
       1.260
       1.311
       1.308
       1.255
       1.176
       1.106
       1.076
       1.100
       1.171
       1.267
       1.362
       1.434
       1.466
       1.447
       1.369
       1.236
       1.058
       0.852
       0.637
       0.430
       0.242
       0.079
      -0.063
      -0.197
      -0.341
      -0.504
      -0.688
      -0.884
      -1.082
      -1.270
      -1.434
      -1.560
      -1.634
      -1.648
      -1.604
      -1.517
      -1.409
      -1.304
      -1.210
      -1.117
      -1.002
      -0.845
      -0.641
      -0.400
      -0.135
       0.133
       0.388
       0.613
       0.797
       0.938
       1.043
       1.126
       1.197
       1.260
       1.309
       1.328
       1.303
       1.226
       1.105
       0.959
       0.817
       0.695
       0.591
       0.479
       0.322
       0.088
      -0.237
      -0.645
      -1.102
      -1.564
      -1.982
      -2.321
      -2.571
      -2.740
      -2.850
      -2.920
      -2.970
      -3.013
      -3.061
      -3.119
      -3.186
      -3.253
      -3.316
      -3.366
      -3.395
      -3.387
      -3.325
      -3.202
      -3.020
      -2.794
      -2.531
      -2.235
      -1.905
      -1.550
      -1.185
      -0.828
      -0.493
      -0.191
       0.070
       0.288
       0.474
       0.650
       0.846
       1.090
       1.403
       1.791
       2.247
       2.745
       3.250
       3.731
       4.168
       4.559
       4.908
       5.209
       5.443
       5.581
       5.599
       5.492
       5.270
       4.960
       4.596
       4.209
       3.815
       3.423
       3.033
       2.650
       2.282
       1.934
       1.608
       1.298
       1.001
       0.713
       0.443
       0.206
       0.027
      -0.070
      -0.064
       0.051
       0.267
       0.563
       0.916
       1.308
       1.727
       2.159
       2.583
       2.979
       3.331
       3.630
       3.863
       4.012
       4.048
       3.945
       3.684
       3.263
       2.691
       1.991
       1.194
       0.340
      -0.522
      -1.350
      -2.119
      -2.820
      -3.449
      -3.999
      -4.458
      -4.810
      -5.046
      -5.163
      -5.163
      -5.046
      -4.820
      -4.490
      -4.069
      -3.570
      -3.003
      -2.373
      -1.675
      -0.909
      -0.080
       0.788
       1.664
       2.513
       3.297
       3.980
       4.522
       4.891
       5.074
       5.081
       4.937
       4.674
       4.317
       3.883
       3.380
       2.817
       2.203
       1.549
       0.868
       0.173
      -0.522
      -1.204
      -1.857
      -2.467
      -3.024
      -3.518
      -3.941
      -4.285
      -4.541
      -4.705
      -4.772
      -4.731
      -4.569
      -4.268
      -3.815
      -3.209
      -2.474
      -1.655
      -0.812
      -0.003
       0.724
       1.337
       1.821
       2.175
       2.405
       2.517
       2.504
       2.357
       2.067
       1.644
       1.109
       0.492
      -0.181
      -0.889
      -1.612
      -2.331
      -3.034
      -3.713
      -4.362
      -4.964
      -5.485
      -5.881
      -6.118
      -6.188
      -6.099
      -5.863
      -5.483
      -4.960
      -4.305
      -3.539
      -2.683
      -1.765
      -0.817
       0.116
       0.989
       1.773
       2.460
       3.059
       3.577
       4.005
       4.333
       4.556
       4.690
       4.758
       4.765
       4.698
       4.535
       4.264
       3.879
       3.388
       2.801
       2.140
       1.435
       0.722
       0.027
      -0.637
      -1.267
      -1.861
      -2.412
      -2.911
      -3.352
      -3.734
      -4.064
      -4.352
      -4.598
      -4.785
      -4.884
      -4.870
      -4.731
      -4.476
      -4.126
      -3.705
      -3.234
      -2.728
      -2.191
      -1.623
      -1.028
      -0.423
       0.174
       0.750
       1.300
       1.817
       2.287
       2.686
       2.994
       3.197
       3.286
       3.261
       3.128
       2.893
       2.564
       2.160
       1.724
       1.317
       0.991
       0.774
       0.663
       0.647
       0.721
       0.883
       1.118
       1.393
       1.651
       1.841
       1.935
       1.931
       1.848
       1.716
       1.568
       1.435
       1.332
       1.259
       1.205
       1.158
       1.108
       1.048
       0.969
       0.858
       0.695
       0.465
       0.167
      -0.181
      -0.550
      -0.902
      -1.204
      -1.430
      -1.560
      -1.590
      -1.529
      -1.402
      -1.246
      -1.100
      -0.985
      -0.899
      -0.827
      -0.764
      -0.724
      -0.741
      -0.854
      -1.088
      -1.444
      -1.900
      -2.414
      -2.943
      -3.443
      -3.869
      -4.170
      -4.303
      -4.243
      -3.999
      -3.610
      -3.131
      -2.619
      -2.118
      -1.659
      -1.257
      -0.912
      -0.613
      -0.329
      -0.024
       0.331
       0.755
       1.251
       1.818
       2.448
       3.134
       3.862
       4.618
       5.381
       6.121
       6.790
       7.332
       7.693
       7.836
       7.745
       7.425
       6.898
       6.193
       5.343
       4.380
       3.334
       2.234
       1.104
      -0.040
      -1.187
      -2.325
      -3.435
      -4.487
      -5.437
      -6.235
      -6.835
      -7.203
      -7.327
      -7.214
      -6.883
      -6.358
      -5.659
      -4.799
      -3.781
      -2.606
      -1.287
       0.146
       1.633
       3.098
       4.457
       5.643
       6.608
       7.327
       7.798
       8.031
       8.041
       7.841
       7.442
       6.858
       6.114
       5.244
       4.287
       3.283
       2.257
       1.216
       0.149
      -0.949
      -2.071
      -3.190
      -4.267
      -5.256
      -6.109
      -6.790
      -7.277
      -7.568
      -7.667
      -7.573
      -7.278
      -6.769
      -6.038
      -5.093
      -3.967
      -2.712
      -1.393
      -0.075
       1.179
       2.314
       3.284
       4.060
       4.623
       4.961
       5.073
       4.971
       4.679
       4.227
       3.647
       2.970
       2.229
       1.463
       0.706
      -0.019
      -0.703
      -1.345
      -1.946
      -2.500
      -2.985
      -3.363
      -3.587
      -3.627
      -3.486
      -3.200
      -2.817
      -2.374
      -1.881
      -1.332
      -0.718
      -0.043
       0.667
       1.371
       2.032
       2.615
       3.102
       3.491
       3.788
       3.995
       4.097
       4.075
       3.916
       3.625
       3.228
       2.764
       2.280
       1.817
       1.405
       1.060
       0.788
       0.586
       0.438
       0.317
       0.200
       0.076
      -0.052
      -0.166
      -0.251
      -0.308
      -0.344
      -0.368
      -0.375
      -0.353
      -0.295
      -0.208
      -0.111
      -0.026
       0.034
       0.065
       0.068
       0.046
      -0.004
      -0.089
      -0.222
      -0.412
      -0.661
      -0.965
      -1.316
      -1.707
      -2.128
      -2.555
      -2.955
      -3.298
      -3.569
      -3.768
      -3.906
      -3.981
      -3.986
      -3.911
      -3.752
      -3.504
      -3.170
      -2.762
      -2.307
      -1.851
      -1.448
      -1.150
      -0.983
      -0.949
      -1.026
      -1.177
      -1.355
      -1.514
      -1.613
      -1.626
      -1.540
      -1.353
      -1.067
      -0.693
      -0.250
       0.243
       0.772
       1.327
       1.898
       2.473
       3.039
       3.592
       4.123
       4.616
       5.037
       5.351
       5.530
       5.562
       5.453
       5.212
       4.848
       4.369
       3.796
       3.156
       2.476
       1.762
       1.004
       0.193
      -0.664
      -1.532
      -2.372
      -3.153
      -3.863
      -4.510
      -5.095
      -5.613
      -6.038
      -6.343
      -6.512
      -6.548
      -6.466
      -6.279
      -5.980
      -5.545
      -4.959
      -4.225
      -3.365
      -2.413
      -1.405
      -0.376
       0.638
       1.614
       2.548
       3.451
       4.336
       5.198
       6.018
       6.768
       7.426
       7.973
       8.389
       8.641
       8.686
       8.488
       8.025
       7.303
       6.342
       5.178
       3.854
       2.421
       0.936
      -0.538
      -1.941
      -3.225
      -4.361
      -5.340
      -6.166
      -6.849
      -7.397
      -7.804
      -8.053
      -8.124
      -8.003
      -7.690
      -7.193
      -6.524
      -5.703
      -4.751
      -3.698
      -2.579
      -1.427
      -0.274
       0.860
       1.961
       3.017
       4.006
       4.893
       5.638
       6.202
       6.556
       6.678
       6.559
       6.207
       5.656
       4.964
       4.197
       3.405
       2.613
       1.820
       1.019
       0.212
      -0.586
      -1.353
      -2.071
      -2.723
      -3.287
      -3.722
      -3.989
      -4.063
      -3.958
      -3.724
      -3.427
      -3.123
      -2.837
      -2.564
      -2.278
      -1.942
      -1.515
      -0.966
      -0.286
       0.504
       1.353
       2.193
       2.944
       3.530
       3.891
       3.993
       3.831
       3.426
       2.812
       2.037
       1.158
       0.239
      -0.661
      -1.498
      -2.244
      -2.880
      -3.390
      -3.761
      -3.995
      -4.119
      -4.179
      -4.219
      -4.257
      -4.284
      -4.262
      -4.143
      -3.882
      -3.453
      -2.860
      -2.131
      -1.304
      -0.421
       0.473
       1.331
       2.111
       2.778
       3.310
       3.693
       3.922
       3.997
       3.932
       3.746
       3.465
       3.115
       2.713
       2.268
       1.791
       1.300
       0.822
       0.385
       0.014
      -0.278
      -0.495
      -0.661
      -0.809
      -0.966
      -1.140
      -1.314
      -1.449
      -1.501
      -1.433
      -1.218
      -0.847
      -0.325
       0.326
       1.063
       1.834
       2.590
       3.288
       3.893
       4.372
       4.694
       4.838
       4.792
       4.561
       4.164
       3.640
       3.035
       2.398
       1.770
       1.173
       0.614
       0.083
      -0.435
      -0.956
      -1.485
      -2.018
      -2.548
      -3.066
      -3.554
      -3.987
      -4.333
      -4.565
      -4.672
      -4.657
      -4.527
      -4.289
      -3.951
      -3.527
      -3.046
      -2.540
      -2.033
      -1.529
      -1.023
      -0.504
       0.029
       0.565
       1.083
       1.553
       1.945
       2.238
       2.428
       2.531
       2.580
       2.606
       2.627
       2.636
       2.617
       2.560
       2.473
       2.378
       2.294
       2.219
       2.127
       1.978
       1.728
       1.340
       0.798
       0.116
      -0.670
      -1.498
      -2.304
      -3.028
      -3.631
      -4.093
      -4.409
      -4.574
      -4.584
      -4.440
      -4.158
      -3.778
      -3.347
      -2.914
      -2.504
      -2.121
      -1.753
      -1.382
      -0.994
      -0.583
      -0.147
       0.305
       0.754
       1.169
       1.524
       1.803
       2.011
       2.172
       2.315
       2.461
       2.613
       2.756
       2.851
       2.856
       2.737
       2.481
       2.106
       1.652
       1.156
       0.654
       0.171
      -0.265
      -0.621
      -0.866
      -0.982
      -0.968
      -0.832
      -0.583
      -0.231
       0.212
       0.723
       1.264
       1.794
       2.274
       2.683
       3.021
       3.299
       3.539
       3.764
       3.991
       4.225
       4.454
       4.646
       4.761
       4.755
       4.593
       4.247
       3.706
       2.977
       2.094
       1.102
       0.056
      -1.005
      -2.053
      -3.076
      -4.065
      -5.009
      -5.881
      -6.644
      -7.258
      -7.693
      -7.930
      -7.967
      -7.814
      -7.490
      -7.016
      -6.415
      -5.715
      -4.951
      -4.165
      -3.395
      -2.669
      -2.007
      -1.426
      -0.945
      -0.578
      -0.328
      -0.169
      -0.054
       0.073
       0.257
       0.519
       0.856
       1.245
       1.652
       2.038
       2.367
       2.607
       2.741
       2.766
       2.694
       2.553
       2.376
       2.191
       2.014
       1.838
       1.650
       1.442
       1.217
       0.990
       0.774
       0.567
       0.349
       0.090
      -0.238
      -0.646
      -1.126
      -1.652
      -2.187
      -2.692
      -3.124
      -3.448
      -3.637
      -3.691
      -3.635
      -3.502
      -3.316
      -3.081
      -2.783
      -2.406
      -1.948
      -1.420
      -0.847
      -0.249
       0.362
       0.979
       1.604
       2.236
       2.881
       3.554
       4.276
       5.067
       5.933
       6.850
       7.772
       8.643
       9.416
      10.065
      10.588
      11.001
      11.333
      11.615
      11.866
      12.084
      12.241
      12.295
      12.202
      11.935
      11.487
      10.873
      10.123
       9.259
       8.290
       7.203
       5.978
       4.604
       3.085
       1.439
      -0.309
      -2.126
      -3.961
      -5.752
      -7.435
      -8.958
     -10.294
     -11.431
     -12.370
     -13.120
     -13.698
     -14.127
     -14.426
     -14.607
     -14.673
     -14.625
     -14.453
     -14.145
     -13.690
     -13.094
     -12.378
     -11.565
     -10.663
      -9.650
      -8.482
      -7.118
      -5.546
      -3.797
      -1.941
      -0.067
       1.745
       3.440
       4.994
       6.397
       7.642
       8.721
       9.622
      10.339
      10.868
      11.213
      11.374
      11.352
      11.146
      10.753
      10.163
       9.361
       8.335
       7.088
       5.642
       4.049
       2.378
       0.704
      -0.910
      -2.427
      -3.827
      -5.094
      -6.200
      -7.105
      -7.771
      -8.185
      -8.363
      -8.348
      -8.186
      -7.915
      -7.566
      -7.162
      -6.718
      -6.239
      -5.724
      -5.176
      -4.606
      -4.026
      -3.445
      -2.864
      -2.290
      -1.735
      -1.222
      -0.761
      -0.352
       0.015
       0.351
       0.652
       0.902
       1.071
       1.125
       1.050
       0.857
       0.588
       0.296
       0.024
      -0.212
      -0.413
      -0.591
      -0.758
      -0.937
      -1.160
      -1.439
      -1.743
      -1.998
      -2.135
      -2.135
      -2.025
      -1.849
      -1.645
      -1.451
      -1.311
      -1.256
      -1.287
      -1.370
      -1.456
      -1.516
      -1.551
      -1.571
      -1.576
      -1.543
      -1.435
      -1.232
      -0.934
      -0.564
      -0.156
       0.254
       0.642
       1.009
       1.383
       1.802
       2.283
       2.814
       3.372
       3.947
       4.545
       5.174
       5.819
       6.447
       7.026
       7.542
       7.994
       8.377
       8.669
       8.834
       8.834
       8.644
       8.257
       7.686
       6.959
       6.121
       5.209
       4.244
       3.221
       2.129
       0.976
      -0.192
      -1.313
      -2.337
      -3.237
      -4.001
      -4.615
      -5.079
      -5.413
      -5.657
      -5.849
      -5.997
      -6.078
      -6.044
      -5.845
      -5.452
      -4.868
      -4.128
      -3.278
      -2.350
      -1.364
      -0.325
       0.751
       1.832
       2.869
       3.816
       4.646
       5.353
       5.932
       6.370
       6.651
       6.765
       6.711
       6.486
       6.092
       5.535
       4.837
       4.034
       3.160
       2.244
       1.304
       0.352
      -0.611
      -1.585
      -2.556
      -3.480
      -4.290
      -4.922
      -5.354
      -5.619
      -5.780
      -5.896
      -5.988
      -6.042
      -6.029
      -5.922
      -5.712
      -5.395
      -4.967
      -4.421
      -3.754
      -2.981
      -2.139
      -1.275
      -0.426
       0.389
       1.175
       1.937
       2.666
       3.336
       3.922
       4.412
       4.806
       5.107
       5.315
       5.417
       5.394
       5.232
       4.926
       4.481
       3.910
       3.225
       2.443
       1.591
       0.712
      -0.135
      -0.894
      -1.527
      -2.024
      -2.393
      -2.644
      -2.780
      -2.794
      -2.685
      -2.460
      -2.136
      -1.730
      -1.268
      -0.793
      -0.355
       0.008
       0.295
       0.540
       0.789
       1.074
       1.388
       1.700
       1.966
       2.137
       2.169
       2.030
       1.714
       1.247
       0.670
       0.018
      -0.682
      -1.398
      -2.097
      -2.740
      -3.297
      -3.744
      -4.069
      -4.269
      -4.342
      -4.289
      -4.112
      -3.820
      -3.432
      -2.972
      -2.470
      -1.964
      -1.491
      -1.081
      -0.743
      -0.478
      -0.285
      -0.156
      -0.071
       0.013
       0.143
       0.354
       0.652
       1.022
       1.428
       1.827
       2.185
       2.491
       2.763
       3.029
       3.311
       3.601
       3.871
       4.093
       4.258
       4.369
       4.422
       4.405
       4.307
       4.138
       3.933
       3.725
       3.521
       3.300
       3.032
       2.709
       2.353
       1.994
       1.645
       1.282
       0.877
       0.423
      -0.053
      -0.506
      -0.910
      -1.278
      -1.654
      -2.085
      -2.597
      -3.181
      -3.799
      -4.408
      -4.977
      -5.484
      -5.906
      -6.220
      -6.408
      -6.459
      -6.373
      -6.154
      -5.804
      -5.322
      -4.705
      -3.956
      -3.102
      -2.198
      -1.318
      -0.529
       0.125
       0.632
       0.996
       1.229
       1.343
       1.358
       1.305
       1.222
       1.140
       1.072
       0.999
       0.889
       0.715
       0.473
       0.177
      -0.150
      -0.494
      -0.846
      -1.200
      -1.538
      -1.840
      -2.081
      -2.231
      -2.259
      -2.139
      -1.859
      -1.425
      -0.861
      -0.198
       0.531
       1.285
       2.020
       2.700
       3.313
       3.878
       4.419
       4.936
       5.388
       5.713
       5.857
       5.799
       5.549
       5.135
       4.593
       3.960
       3.273
       2.561
       1.845
       1.134
       0.428
      -0.278
      -0.985
      -1.694
      -2.401
      -3.089
      -3.736
      -4.314
      -4.803
      -5.188
      -5.455
      -5.583
      -5.543
      -5.312
      -4.883
      -4.266
      -3.489
      -2.585
      -1.592
      -0.545
       0.516
       1.550
       2.517
       3.378
       4.103
       4.670
       5.072
       5.310
       5.383
       5.283
       5.006
       4.557
       3.965
       3.282
       2.578
       1.920
       1.353
       0.892
       0.519
       0.201
      -0.091
      -0.375
      -0.656
      -0.931
      -1.192
      -1.430
      -1.640
      -1.828
      -2.013
      -2.225
      -2.486
      -2.797
      -3.132
      -3.442
      -3.671
      -3.768
      -3.704
      -3.472
      -3.093
      -2.608
      -2.063
      -1.503
      -0.965
