Origin Time       14/03/2010 6:53:21	
Lat.              31.7 N	
Long.             76.1 E	
Depth (Km)         29.0
Magnitude         4.6
 Region           HIMACHAL-PUNJAB-(HOSHIARPUR)-BORDER                              
 Above details taken from IMD 
     
Station Code      NAW
Station Lat.       31.123  N
Station Long.      76.124  E
Station Height(m)  258.0
Site Class        C   Vs30 between 200 m/sec to 375 m/sec *  
Record Time       14.03.2010 06:53:26.039
Sampling Rate     200. Hz
 Record Duration   67.135 Sec.
 Direction         E-W (E positive)
Max. Acceleration     -8.430 cm/sec**2
     
  * For reference see Site Classification link of website 
     
 Base Line Corrected and Low Pass Filtered (Cut Off at 35 Hz) Time History
 Acceleration data in cm/sec**2
    
[...]
       0.150
       0.174
       0.184
       0.179
       0.157
       0.109
       0.032
      -0.069
      -0.168
      -0.224
      -0.202
      -0.093
       0.076
       0.257
       0.401
       0.472
       0.454
       0.355
       0.214
       0.081
       0.001
      -0.007
       0.049
       0.140
       0.234
       0.305
       0.346
       0.367
       0.381
       0.397
       0.406
       0.384
       0.311
       0.185
       0.035
      -0.094
      -0.167
      -0.172
      -0.130
      -0.066
       0.002
       0.069
       0.140
       0.209
       0.255
       0.256
       0.198
       0.087
      -0.049
      -0.176
      -0.260
      -0.280
      -0.231
      -0.121
       0.024
       0.167
       0.276
       0.336
       0.355
       0.349
       0.331
       0.296
       0.241
       0.168
       0.101
       0.071
       0.098
       0.179
       0.282
       0.359
       0.370
       0.303
       0.172
       0.018
      -0.108
      -0.162
      -0.125
      -0.012
       0.129
       0.239
       0.273
       0.216
       0.090
      -0.052
      -0.147
      -0.144
      -0.033
       0.144
       0.313
       0.406
       0.400
       0.320
       0.217
       0.137
       0.095
       0.086
       0.098
       0.117
       0.127
       0.118
       0.091
       0.069
       0.077
       0.128
       0.201
       0.261
       0.285
       0.272
       0.244
       0.219
       0.202
       0.188
       0.172
       0.156
       0.141
       0.123
       0.102
       0.083
       0.076
       0.082
       0.090
       0.087
       0.062
       0.021
      -0.019
      -0.037
      -0.021
       0.016
       0.047
       0.049
       0.022
      -0.011
      -0.026
      -0.009
       0.038
       0.101
       0.166
       0.223
       0.272
       0.307
       0.320
       0.294
       0.225
       0.127
       0.033
      -0.024
      -0.033
      -0.006
       0.039
       0.091
       0.146
       0.203
       0.245
       0.248
       0.195
       0.098
      -0.011
      -0.094
      -0.131
      -0.129
      -0.105
      -0.074
      -0.032
       0.038
       0.149
       0.297
       0.455
       0.583
       0.647
       0.633
       0.553
       0.434
       0.305
       0.190
       0.106
       0.068
       0.075
       0.112
       0.149
       0.157
       0.120
       0.039
      -0.076
      -0.204
      -0.318
      -0.381
      -0.372
      -0.289
      -0.160
      -0.018
       0.115
       0.235
       0.345
       0.437
       0.498
       0.511
       0.476
       0.411
       0.343
       0.298
       0.288
       0.314
       0.370
       0.438
       0.492
       0.504
       0.459
       0.364
       0.240
       0.110
      -0.013
      -0.125
      -0.221
      -0.295
      -0.333
      -0.329
      -0.280
      -0.201
      -0.119
      -0.069
      -0.077
      -0.141
      -0.228
      -0.287
      -0.278
      -0.194
      -0.062
       0.075
       0.189
       0.274
       0.341
       0.394
       0.435
       0.463
       0.489
       0.524
       0.573
       0.622
       0.642
       0.616
       0.548
       0.463
       0.388
       0.339
       0.312
       0.295
       0.275
       0.237
       0.163
       0.043
      -0.107
      -0.245
      -0.322
      -0.311
      -0.225
      -0.110
      -0.023
      -0.001
      -0.049
      -0.141
      -0.230
      -0.272
      -0.240
      -0.136
       0.010
       0.151
       0.243
       0.263
       0.226
       0.175
       0.155
       0.193
       0.284
       0.389
       0.463
       0.477
       0.436
       0.365
       0.294
       0.238
       0.200
       0.177
       0.169
       0.170
       0.172
       0.166
       0.152
       0.137
       0.122
       0.096
       0.042
      -0.047
      -0.157
      -0.258
      -0.319
      -0.318
      -0.249
      -0.123
       0.035
       0.203
       0.357
       0.479
       0.558
       0.587
       0.563
       0.491
       0.381
       0.258
       0.155
       0.101
       0.109
       0.170
       0.260
       0.346
       0.397
       0.394
       0.333
       0.233
       0.120
       0.013
      -0.081
      -0.160
      -0.220
      -0.253
      -0.250
      -0.215
      -0.156
      -0.082
      -0.004
       0.065
       0.108
       0.107
       0.063
      -0.003
      -0.056
      -0.059
       0.001
       0.105
       0.209
       0.272
       0.276
       0.233
       0.175
       0.133
       0.131
       0.178
       0.258
       0.334
       0.360
       0.320
       0.245
       0.199
       0.230
       0.331
       0.441
       0.499
       0.478
       0.403
       0.314
       0.235
       0.171
       0.118
       0.084
       0.081
       0.109
       0.143
       0.148
       0.106
       0.031
      -0.037
      -0.063
      -0.040
       0.005
       0.039
       0.044
       0.025
      -0.004
      -0.029
      -0.038
      -0.014
       0.049
       0.136
       0.212
       0.241
       0.221
       0.190
       0.191
       0.242
       0.317
       0.378
       0.408
       0.418
       0.425
       0.428
       0.407
       0.346
       0.246
       0.125
       0.006
      -0.093
      -0.166
      -0.213
      -0.242
      -0.258
      -0.262
      -0.248
      -0.211
      -0.154
      -0.090
      -0.034
       0.011
       0.052
       0.101
       0.152
       0.190
       0.203
       0.200
       0.200
       0.217
       0.244
       0.259
       0.249
       0.220
       0.197
       0.198
       0.228
       0.270
       0.305
       0.314
       0.288
       0.230
       0.163
       0.125
       0.147
       0.230
       0.339
       0.426
       0.452
       0.408
       0.323
       0.242
       0.200
       0.209
       0.249
       0.285
       0.284
       0.226
       0.118
      -0.006
      -0.102
      -0.138
      -0.115
      -0.058
       0.000
       0.046
       0.082
       0.105
       0.102
       0.057
      -0.027
      -0.124
      -0.195
      -0.214
      -0.184
      -0.136
      -0.110
      -0.130
      -0.188
      -0.252
      -0.280
      -0.239
      -0.122
       0.054
       0.254
       0.433
       0.553
       0.602
       0.599
       0.576
       0.565
       0.578
       0.609
       0.637
       0.628
       0.557
       0.427
       0.272
       0.143
       0.077
       0.071
       0.090
       0.091
       0.051
      -0.026
      -0.116
      -0.184
      -0.202
      -0.160
      -0.074
       0.014
       0.059
       0.037
      -0.036
      -0.122
      -0.179
      -0.190
      -0.152
      -0.073
       0.037
       0.160
       0.264
       0.319
       0.309
       0.249
       0.176
       0.130
       0.129
       0.165
       0.216
       0.262
       0.302
       0.340
       0.381
       0.410
       0.402
       0.340
       0.242
       0.152
       0.114
       0.140
       0.206
       0.272
       0.309
       0.307
       0.261
       0.165
       0.019
      -0.159
      -0.327
      -0.431
      -0.432
      -0.321
      -0.120
       0.132
       0.384
       0.591
       0.714
       0.734
       0.654
       0.496
       0.296
       0.088
      -0.091
      -0.208
      -0.240
      -0.192
      -0.095
       0.005
       0.081
       0.137
       0.193
       0.268
       0.358
       0.439
       0.477
       0.453
       0.373
       0.269
       0.182
       0.144
       0.166
       0.232
       0.305
       0.340
       0.314
       0.237
       0.143
       0.068
       0.030
       0.029
       0.047
       0.063
       0.049
      -0.017
      -0.128
      -0.248
      -0.320
      -0.308
      -0.222
      -0.113
      -0.036
      -0.015
      -0.039
      -0.065
      -0.052
       0.029
       0.174
       0.356
       0.527
       0.644
       0.674
       0.610
       0.472
       0.302
       0.145
       0.035
      -0.019
      -0.031
      -0.019
       0.008
       0.044
       0.079
       0.093
       0.073
       0.028
      -0.002
       0.020
       0.104
       0.236
       0.385
       0.511
       0.570
       0.533
       0.403
       0.221
       0.040
      -0.090
      -0.132
      -0.065
       0.097
       0.286
       0.411
       0.405
       0.275
       0.101
      -0.015
      -0.015
       0.090
       0.230
       0.326
       0.330
       0.246
       0.100
      -0.076
      -0.255
      -0.397
      -0.454
      -0.389
      -0.215
       0.002
       0.177
       0.260
       0.258
       0.216
       0.177
       0.159
       0.154
       0.154
       0.160
       0.188
       0.247
       0.324
       0.395
       0.438
       0.458
       0.475
       0.511
       0.562
       0.601
       0.607
       0.579
       0.525
       0.443
       0.316
       0.138
      -0.066
      -0.244
      -0.353
      -0.384
      -0.357
      -0.290
      -0.197
      -0.095
      -0.019
      -0.004
      -0.053
      -0.119
      -0.133
      -0.051
       0.103
       0.254
       0.323
       0.278
       0.152
       0.016
      -0.067
      -0.065
       0.016
       0.150
       0.296
       0.408
       0.452
       0.430
       0.371
       0.309
       0.263
       0.225
       0.191
       0.162
       0.140
       0.114
       0.062
      -0.023
      -0.124
      -0.199
      -0.210
      -0.149
      -0.044
       0.049
       0.082
       0.041
      -0.035
      -0.082
      -0.054
       0.050
       0.200
       0.375
       0.570
       0.773
       0.943
       1.023
       0.980
       0.830
       0.630
       0.431
       0.260
       0.124
       0.020
      -0.056
      -0.108
      -0.147
      -0.182
      -0.209
      -0.217
      -0.203
      -0.178
      -0.160
      -0.149
      -0.127
      -0.081
      -0.027
       0.005
      -0.004
      -0.043
      -0.094
      -0.145
      -0.178
      -0.165
      -0.079
       0.080
       0.278
       0.473
       0.633
       0.742
       0.785
       0.749
       0.649
       0.528
       0.431
       0.381
       0.363
       0.336
       0.252
       0.091
      -0.113
      -0.292
      -0.394
      -0.403
      -0.330
      -0.195
      -0.026
       0.136
       0.245
       0.276
       0.234
       0.163
       0.121
       0.148
       0.236
       0.336
       0.401
       0.412
       0.379
       0.327
       0.282
       0.266
       0.287
       0.333
       0.381
       0.413
       0.426
       0.425
       0.401
       0.344
       0.255
       0.156
       0.068
      -0.011
      -0.111
      -0.257
      -0.438
      -0.607
      -0.712
      -0.729
      -0.676
      -0.591
      -0.499
      -0.395
      -0.262
      -0.095
       0.090
       0.263
       0.405
       0.501
       0.537
       0.501
       0.394
       0.239
       0.081
      -0.037
      -0.090
      -0.077
      -0.014
       0.071
       0.147
       0.189
       0.195
       0.195
       0.225
       0.298
       0.379
       0.405
       0.327
       0.148
      -0.071
      -0.249
      -0.324
      -0.279
      -0.153
      -0.022
       0.037
      -0.012
      -0.144
      -0.292
      -0.392
      -0.406
      -0.328
      -0.173
       0.020
       0.194
       0.289
       0.271
       0.144
      -0.050
      -0.262
      -0.455
      -0.612
      -0.723
      -0.778
      -0.770
      -0.697
      -0.572
      -0.422
      -0.274
      -0.142
      -0.026
       0.083
       0.190
       0.279
       0.325
       0.313
       0.249
       0.153
       0.047
      -0.053
      -0.130
      -0.162
      -0.141
      -0.081
      -0.019
       0.011
      -0.010
      -0.085
      -0.209
      -0.369
      -0.534
      -0.652
      -0.675
      -0.580
      -0.385
      -0.141
       0.079
       0.204
       0.196
       0.061
      -0.141
      -0.322
      -0.406
      -0.373
      -0.260
      -0.143
      -0.083
      -0.101
      -0.172
      -0.247
      -0.277
      -0.232
      -0.113
       0.048
       0.197
       0.276
       0.247
       0.105
      -0.114
      -0.351
      -0.543
      -0.643
      -0.631
      -0.524
      -0.369
      -0.230
      -0.153
      -0.150
      -0.198
      -0.259
      -0.301
      -0.312
      -0.295
      -0.257
      -0.211
      -0.173
      -0.159
      -0.175
      -0.213
      -0.265
      -0.330
      -0.420
      -0.543
      -0.686
      -0.813
      -0.892
      -0.910
      -0.877
      -0.809
      -0.708
      -0.571
      -0.415
      -0.277
      -0.202
      -0.205
      -0.261
      -0.319
      -0.342
      -0.321
      -0.268
      -0.192
      -0.085
       0.061
       0.221
       0.341
       0.363
       0.255
       0.030
      -0.276
      -0.628
      -0.990
      -1.315
      -1.544
      -1.619
      -1.508
      -1.227
      -0.838
      -0.435
      -0.118
       0.037
      -0.002
      -0.218
      -0.565
      -0.991
      -1.460
      -1.938
      -2.376
      -2.705
      -2.851
      -2.768
      -2.463
      -1.999
      -1.454
      -0.891
      -0.336
       0.211
       0.762
       1.331
       1.935
       2.586
       3.280
       3.978
       4.614
       5.119
       5.462
       5.667
       5.798
       5.924
       6.076
       6.243
       6.381
       6.439
       6.374
       6.157
       5.775
       5.237
       4.553
       3.724
       2.732
       1.550
       0.177
      -1.349
      -2.952
      -4.528
      -5.961
      -7.137
      -7.966
      -8.397
      -8.430
      -8.107
      -7.518
      -6.791
      -6.066
      -5.463
      -5.055
      -4.864
      -4.880
      -5.064
      -5.340
      -5.595
      -5.696
      -5.527
      -5.020
      -4.172
      -3.042
      -1.735
      -0.371
       0.952
       2.180
       3.300
       4.320
       5.235
       6.020
       6.641
       7.081
       7.350
       7.479
       7.483
       7.342
       6.997
       6.394
       5.518
       4.424
       3.216
       2.001
       0.853
      -0.196
      -1.139
      -1.969
      -2.672
      -3.235
      -3.651
      -3.939
      -4.144
      -4.321
      -4.510
      -4.702
      -4.833
      -4.806
      -4.534
      -3.971
      -3.129
      -2.071
      -0.890
       0.312
       1.426
       2.334
       2.919
       3.097
       2.861
       2.290
       1.526
       0.728
       0.019
      -0.528
      -0.890
      -1.073
      -1.101
      -1.002
      -0.810
      -0.554
      -0.260
       0.055
       0.374
       0.672
       0.905
       1.016
       0.944
       0.644
       0.108
      -0.615
      -1.407
      -2.097
      -2.510
      -2.533
      -2.154
      -1.456
      -0.568
       0.392
       1.339
       2.217
       2.978
       3.574
       3.974
       4.175
       4.192
       4.032
       3.684
       3.123
       2.342
       1.382
       0.337
      -0.663
      -1.478
      -1.990
      -2.128
      -1.895
      -1.378
      -0.743
      -0.189
       0.114
       0.079
      -0.284
      -0.892
      -1.628
      -2.372
      -3.021
      -3.509
      -3.815
      -3.947
      -3.904
      -3.655
      -3.150
      -2.365
      -1.340
      -0.196
       0.908
       1.833
       2.497
       2.883
       2.997
       2.837
       2.397
       1.696
       0.802
      -0.181
      -1.141
      -1.983
      -2.625
      -2.988
      -3.007
      -2.672
      -2.062
      -1.337
      -0.700
      -0.320
      -0.268
      -0.497
      -0.879
      -1.258
      -1.503
      -1.537
      -1.341
      -0.955
      -0.455
       0.089
       0.632
       1.165
       1.690
       2.207
       2.696
       3.120
       3.431
       3.578
       3.536
       3.319
       2.993
       2.654
       2.390
       2.235
       2.137
       1.970
       1.599
       0.952
       0.060
      -0.950
      -1.906
      -2.657
      -3.126
      -3.330
      -3.365
      -3.358
      -3.411
      -3.554
      -3.732
      -3.831
      -3.721
      -3.315
      -2.601
      -1.648
      -0.576
       0.486
       1.436
       2.224
       2.844
       3.321
       3.674
       3.894
       3.947
       3.804
       3.464
       2.962
       2.350
       1.665
       0.922
       0.130
      -0.679
      -1.441
      -2.079
      -2.532
      -2.784
      -2.862
      -2.825
      -2.740
      -2.655
      -2.577
      -2.475
      -2.300
      -2.015
      -1.607
      -1.082
      -0.460
       0.224
       0.914
       1.553
       2.108
       2.566
       2.922
       3.154
       3.224
       3.107
       2.810
       2.373
       1.864
       1.356
       0.911
       0.566
       0.322
       0.150
       0.001
      -0.177
      -0.430
      -0.790
      -1.258
      -1.795
      -2.319
      -2.722
      -2.909
      -2.835
      -2.527
      -2.066
      -1.555
      -1.082
      -0.702
      -0.440
      -0.295
      -0.243
      -0.243
      -0.251
      -0.230
      -0.154
       0.003
       0.249
       0.556
       0.858
       1.072
       1.135
       1.036
       0.813
       0.526
       0.228
      -0.043
      -0.261
      -0.401
      -0.447
      -0.409
      -0.328
      -0.262
      -0.255
      -0.326
      -0.464
      -0.644
      -0.839
      -1.034
      -1.239
      -1.476
      -1.745
      -1.991
      -2.102
      -1.969
      -1.551
      -0.909
      -0.179
       0.494
       1.008
       1.331
       1.500
       1.599
       1.718
       1.906
       2.141
       2.339
       2.402
       2.278
       1.983
       1.589
       1.178
       0.810
       0.502
       0.238
      -0.022
      -0.313
      -0.643
      -0.976
      -1.235
      -1.349
      -1.288
      -1.081
      -0.792
      -0.484
      -0.194
       0.058
       0.264
       0.410
       0.485
       0.483
       0.406
       0.272
       0.112
      -0.031
      -0.123
      -0.162
      -0.178
      -0.223
      -0.352
      -0.601
      -0.992
      -1.524
      -2.160
      -2.830
      -3.436
      -3.882
      -4.089
      -4.012
      -3.638
      -2.987
      -2.115
      -1.119
      -0.121
       0.750
       1.395
       1.781
       1.957
       2.037
       2.160
       2.426
       2.858
       3.400
       3.942
       4.371
       4.608
       4.618
       4.429
       4.117
       3.786
       3.518
       3.330
       3.157
       2.891
       2.428
       1.723
       0.799
      -0.263
      -1.354
      -2.374
      -3.263
      -4.011
      -4.636
      -5.154
      -5.559
      -5.836
      -5.986
      -6.031
      -5.996
      -5.886
      -5.670
      -5.299
      -4.725
      -3.932
      -2.938
      -1.800
      -0.602
       0.554
       1.587
       2.451
       3.138
       3.655
       4.009
       4.213
       4.293
       4.280
       4.187
       4.008
       3.734
       3.381
       3.000
       2.648
       2.357
       2.117
       1.885
       1.606
       1.227
       0.701
      -0.003
      -0.881
      -1.883
      -2.915
      -3.864
      -4.623
      -5.114
      -5.291
      -5.139
      -4.670
      -3.923
      -2.956
      -1.844
      -0.676
       0.442
       1.403
       2.121
       2.564
       2.760
       2.786
       2.742
       2.723
       2.793
       2.959
       3.168
       3.328
       3.347
       3.166
       2.773
