Origin Time       1/5/2013 06:57:12	  UTC
Lat.              33.1 N	
Long.             75.8 E	
Depth (Km)         15.0
Magnitude         5.8
 Region           JK-HP-Border                                                     
 Above details taken from IMD 
    
Station Code      NAW
Station Lat.       31.123  N
Station Long.      76.124  E
Station Height(m)  258.0
Site Class        C   Vs30 between 200 m/sec to 375 m/sec *  
Record Time       01.05.2013 06:57:49.209 UTC
Sampling Rate     200. Hz
 Record Duration   87.220 Sec.
 Direction         N-S (N positive)
Max. Acceleration     17.484 cm/sec**2
     
  * For reference see Site Classification link of website 
     
 Base Line Corrected and Low Pass Filtered (Cut Off at 35 Hz) Time History
 Acceleration data in cm/sec**2
    
[...]
       0.584
       0.498
       0.414
       0.363
       0.365
       0.421
       0.520
       0.657
       0.828
       1.027
       1.238
       1.440
       1.610
       1.727
       1.778
       1.755
       1.655
       1.477
       1.231
       0.932
       0.600
       0.249
      -0.114
      -0.487
      -0.861
      -1.225
      -1.562
      -1.856
      -2.092
      -2.259
      -2.360
      -2.410
      -2.434
      -2.463
      -2.516
      -2.600
      -2.707
      -2.830
      -2.956
      -3.070
      -3.147
      -3.161
      -3.095
      -2.951
      -2.747
      -2.500
      -2.216
      -1.892
      -1.521
      -1.111
      -0.681
      -0.254
       0.153
       0.536
       0.903
       1.273
       1.656
       2.056
       2.455
       2.829
       3.150
       3.403
       3.583
       3.698
       3.759
       3.779
       3.771
       3.736
       3.666
       3.536
       3.322
       3.005
       2.584
       2.069
       1.467
       0.780
       0.009
      -0.842
      -1.752
      -2.695
      -3.639
      -4.549
      -5.387
      -6.115
      -6.704
      -7.141
      -7.424
      -7.557
      -7.551
      -7.419
      -7.177
      -6.842
      -6.422
      -5.913
      -5.305
      -4.595
      -3.793
      -2.924
      -2.019
      -1.099
      -0.176
       0.745
       1.654
       2.538
       3.376
       4.151
       4.847
       5.449
       5.937
       6.289
       6.478
       6.484
       6.296
       5.919
       5.375
       4.702
       3.940
       3.127
       2.291
       1.446
       0.602
      -0.235
      -1.061
      -1.866
      -2.634
      -3.345
      -3.980
      -4.525
      -4.986
      -5.385
      -5.748
      -6.079
      -6.351
      -6.524
      -6.571
      -6.493
      -6.303
      -6.006
      -5.590
      -5.029
      -4.306
      -3.428
      -2.428
      -1.353
      -0.254
       0.818
       1.816
       2.704
       3.459
       4.087
       4.610
       5.056
       5.443
       5.755
       5.953
       5.989
       5.827
       5.462
       4.907
       4.176
       3.271
       2.197
       0.981
      -0.311
      -1.577
      -2.708
      -3.614
      -4.253
      -4.633
      -4.795
      -4.780
      -4.613
      -4.302
      -3.848
      -3.252
      -2.533
      -1.745
      -0.970
      -0.282
       0.304
       0.830
       1.358
       1.917
       2.494
       3.058
       3.585
       4.059
       4.468
       4.805
       5.078
       5.317
       5.562
       5.817
       6.027
       6.110
       6.031
       5.843
       5.646
       5.496
       5.351
       5.110
       4.692
       4.081
       3.320
       2.478
       1.618
       0.781
      -0.013
      -0.768
      -1.493
      -2.183
      -2.805
      -3.312
      -3.667
      -3.859
      -3.909
      -3.856
      -3.744
      -3.608
      -3.454
      -3.265
      -3.009
      -2.663
      -2.222
      -1.701
      -1.135
      -0.570
      -0.043
       0.433
       0.875
       1.313
       1.765
       2.226
       2.679
       3.105
       3.500
       3.872
       4.232
       4.578
       4.879
       5.082
       5.136
       5.029
       4.800
       4.521
       4.257
       4.038
       3.855
       3.675
       3.464
       3.194
       2.847
       2.413
       1.883
       1.251
       0.516
      -0.314
      -1.224
      -2.194
      -3.203
      -4.217
      -5.184
      -6.045
      -6.747
      -7.262
      -7.586
      -7.721
      -7.666
      -7.412
      -6.955
      -6.310
      -5.516
      -4.633
      -3.726
      -2.856
      -2.074
      -1.411
      -0.886
      -0.508
      -0.274
      -0.171
      -0.171
      -0.233
      -0.318
      -0.397
      -0.454
      -0.482
      -0.472
      -0.404
      -0.256
      -0.014
       0.318
       0.724
       1.172
       1.626
       2.042
       2.376
       2.596
       2.691
       2.671
       2.569
       2.431
       2.306
       2.235
       2.236
       2.295
       2.372
       2.424
       2.424
       2.369
       2.269
       2.128
       1.937
       1.667
       1.288
       0.781
       0.154
      -0.564
      -1.333
      -2.116
      -2.879
      -3.595
      -4.240
      -4.793
      -5.240
      -5.569
      -5.773
      -5.848
      -5.800
      -5.638
      -5.371
      -4.999
      -4.514
      -3.900
      -3.138
      -2.216
      -1.142
       0.054
       1.315
       2.575
       3.767
       4.838
       5.757
       6.516
       7.126
       7.607
       7.973
       8.223
       8.345
       8.316
       8.120
       7.753
       7.234
       6.598
       5.878
       5.104
       4.289
       3.441
       2.568
       1.679
       0.787
      -0.101
      -0.982
      -1.857
      -2.725
      -3.583
      -4.423
      -5.236
      -6.007
      -6.719
      -7.348
      -7.863
      -8.238
      -8.457
      -8.508
      -8.382
      -8.067
      -7.548
      -6.814
      -5.867
      -4.726
      -3.425
      -2.014
      -0.558
       0.868
       2.198
       3.387
       4.423
       5.323
       6.112
       6.801
       7.391
       7.878
       8.244
       8.455
       8.479
       8.313
       7.990
       7.550
       7.007
       6.336
       5.498
       4.478
       3.293
       1.988
       0.614
      -0.787
      -2.188
      -3.580
      -4.959
      -6.316
      -7.621
      -8.823
      -9.862
     -10.681
     -11.238
     -11.513
     -11.522
     -11.327
     -11.011
     -10.642
     -10.239
      -9.769
      -9.185
      -8.458
      -7.601
      -6.660
      -5.682
      -4.686
      -3.657
      -2.567
      -1.400
      -0.168
       1.097
       2.349
       3.541
       4.636
       5.601
       6.408
       7.039
       7.491
       7.782
       7.936
       7.971
       7.892
       7.700
       7.408
       7.037
       6.604
       6.106
       5.513
       4.799
       3.961
       3.028
       2.043
       1.041
       0.034
      -0.980
      -2.001
      -3.015
      -3.991
      -4.881
      -5.629
      -6.173
      -6.453
      -6.431
      -6.102
      -5.506
      -4.711
      -3.794
      -2.819
      -1.832
      -0.862
       0.072
       0.957
       1.784
       2.551
       3.268
       3.953
       4.632
       5.327
       6.051
       6.809
       7.586
       8.344
       9.025
       9.559
       9.882
       9.944
       9.728
       9.249
       8.554
       7.699
       6.729
       5.668
       4.522
       3.295
       2.001
       0.659
      -0.706
      -2.073
      -3.417
      -4.710
      -5.922
      -7.032
      -8.029
      -8.902
      -9.629
     -10.180
     -10.526
     -10.643
     -10.515
     -10.140
      -9.526
      -8.695
      -7.677
      -6.508
      -5.231
      -3.892
      -2.549
      -1.263
      -0.100
       0.893
       1.695
       2.318
       2.801
       3.191
       3.538
       3.881
       4.248
       4.650
       5.076
       5.502
       5.896
       6.230
       6.489
       6.660
       6.727
       6.657
       6.416
       5.984
       5.372
       4.631
       3.832
       3.045
       2.314
       1.661
       1.098
       0.640
       0.306
       0.107
       0.039
       0.083
       0.196
       0.327
       0.416
       0.413
       0.287
       0.027
      -0.361
      -0.868
      -1.475
      -2.159
      -2.891
      -3.639
      -4.368
      -5.037
      -5.599
      -6.007
      -6.229
      -6.259
      -6.119
      -5.838
      -5.437
      -4.921
      -4.294
      -3.576
      -2.801
      -2.017
      -1.271
      -0.608
      -0.061
       0.359
       0.667
       0.900
       1.098
       1.296
       1.507
       1.738
       1.988
       2.257
       2.539
       2.832
       3.145
       3.500
       3.910
       4.363
       4.812
       5.192
       5.445
       5.541
       5.479
       5.270
       4.914
       4.398
       3.701
       2.820
       1.792
       0.683
      -0.440
      -1.524
      -2.535
      -3.450
      -4.243
      -4.889
      -5.371
      -5.692
      -5.871
      -5.934
      -5.900
      -5.775
      -5.556
      -5.230
      -4.796
      -4.270
      -3.688
      -3.092
      -2.509
      -1.943
      -1.384
      -0.815
      -0.224
       0.398
       1.054
       1.746
       2.461
       3.163
       3.808
       4.357
       4.792
       5.124
       5.378
       5.575
       5.711
       5.757
       5.674
       5.427
       5.006
       4.414
       3.666
       2.773
       1.748
       0.614
      -0.593
      -1.818
      -3.003
      -4.089
      -5.029
      -5.788
      -6.345
      -6.687
      -6.813
      -6.743
      -6.517
      -6.183
      -5.779
      -5.325
      -4.821
      -4.257
      -3.627
      -2.925
      -2.143
      -1.278
      -0.348
       0.602
       1.509
       2.308
       2.948
       3.406
       3.678
       3.778
       3.726
       3.542
       3.246
       2.853
       2.375
       1.847
       1.327
       0.883
       0.561
       0.363
       0.261
       0.224
       0.243
       0.325
       0.471
       0.661
       0.861
       1.035
       1.151
       1.173
       1.064
       0.797
       0.375
      -0.164
      -0.752
      -1.323
      -1.817
      -2.192
      -2.419
      -2.478
      -2.361
      -2.079
      -1.661
      -1.157
      -0.620
      -0.105
       0.344
       0.696
       0.943
       1.097
       1.191
       1.255
       1.302
       1.331
       1.338
       1.332
       1.330
       1.348
       1.390
       1.443
       1.487
       1.500
       1.465
       1.371
       1.214
       1.002
       0.755
       0.504
       0.276
       0.092
      -0.033
      -0.089
      -0.074
       0.009
       0.144
       0.303
       0.450
       0.549
       0.579
       0.542
       0.453
       0.332
       0.185
       0.008
      -0.212
      -0.482
      -0.805
      -1.174
      -1.567
      -1.950
      -2.276
      -2.499
      -2.590
      -2.546
      -2.390
      -2.155
      -1.864
      -1.532
      -1.168
      -0.785
      -0.392
       0.011
       0.437
       0.895
       1.380
       1.861
       2.293
       2.624
       2.810
       2.819
       2.643
       2.290
       1.785
       1.160
       0.450
      -0.307
      -1.067
      -1.777
      -2.381
      -2.826
      -3.077
      -3.121
      -2.971
      -2.667
      -2.265
      -1.835
      -1.443
      -1.135
      -0.927
      -0.804
      -0.730
      -0.668
      -0.603
      -0.544
      -0.513
      -0.528
      -0.581
      -0.636
      -0.644
      -0.566
      -0.396
      -0.156
       0.123
       0.422
       0.739
       1.073
       1.416
       1.749
       2.058
       2.333
       2.565
       2.742
       2.851
       2.882
       2.840
       2.744
       2.612
       2.454
       2.266
       2.040
       1.772
       1.465
       1.132
       0.796
       0.489
       0.244
       0.091
       0.039
       0.079
       0.184
       0.323
       0.461
       0.574
       0.641
       0.649
       0.593
       0.473
       0.297
       0.079
      -0.162
      -0.397
      -0.595
      -0.731
      -0.798
      -0.809
      -0.791
      -0.769
      -0.759
      -0.764
      -0.783
      -0.815
      -0.851
      -0.879
      -0.888
      -0.887
      -0.905
      -0.971
      -1.093
      -1.253
      -1.419
      -1.550
      -1.619
      -1.616
      -1.565
      -1.511
      -1.507
      -1.598
      -1.805
      -2.124
      -2.522
      -2.946
      -3.332
      -3.620
      -3.764
      -3.741
      -3.551
      -3.210
      -2.748
      -2.202
      -1.617
      -1.035
      -0.498
      -0.041
       0.309
       0.542
       0.677
       0.740
       0.756
       0.736
       0.687
       0.626
       0.581
       0.575
       0.616
       0.685
       0.750
       0.780
       0.753
       0.668
       0.537
       0.380
       0.207
       0.024
      -0.164
      -0.334
      -0.453
      -0.491
      -0.433
      -0.286
      -0.063
       0.229
       0.579
       0.965
       1.343
       1.658
       1.868
       1.961
       1.952
       1.872
       1.758
       1.644
       1.554
       1.511
       1.528
       1.615
       1.758
       1.925
       2.068
       2.154
       2.186
       2.195
       2.216
       2.264
       2.327
       2.380
       2.400
       2.360
       2.216
       1.898
       1.332
       0.474
      -0.662
      -2.000
      -3.427
      -4.829
      -6.109
      -7.204
      -8.087
      -8.764
      -9.257
      -9.591
      -9.785
      -9.857
      -9.817
      -9.670
      -9.403
      -8.988
      -8.397
      -7.612
      -6.638
      -5.506
      -4.258
      -2.932
      -1.549
      -0.105
       1.419
       3.033
       4.719
       6.423
       8.071
       9.587
      10.907
      11.983
      12.782
      13.289
      13.520
      13.521
      13.353
      13.056
      12.631
      12.046
      11.263
      10.268
       9.072
       7.690
       6.128
       4.381
       2.442
       0.312
      -1.979
      -4.344
      -6.639
      -8.713
     -10.472
     -11.905
     -13.062
     -13.995
     -14.725
     -15.239
     -15.504
     -15.470
     -15.056
     -14.162
     -12.724
     -10.772
      -8.432
      -5.867
      -3.206
      -0.524
       2.129
       4.693
       7.088
       9.234
      11.069
      12.563
      13.715
      14.565
      15.202
      15.764
      16.364
      16.984
      17.440
      17.484
      16.990
      16.052
      14.923
      13.858
      12.955
      12.108
      11.088
       9.689
       7.854
       5.684
       3.364
       1.080
      -1.034
      -2.903
      -4.512
      -5.903
      -7.146
      -8.305
      -9.416
     -10.500
     -11.556
     -12.533
     -13.331
     -13.868
     -14.157
     -14.299
     -14.385
     -14.390
     -14.174
     -13.592
     -12.601
     -11.285
      -9.792
      -8.245
      -6.694
      -5.139
      -3.561
      -1.956
      -0.333
       1.293
       2.887
       4.390
       5.734
       6.870
       7.781
       8.487
       9.029
       9.472
       9.877
      10.274
      10.628
      10.853
      10.872
      10.682
      10.364
      10.029
       9.733
       9.448
       9.101
       8.633
       8.029
       7.269
       6.309
       5.094
       3.613
       1.924
       0.121
      -1.719
      -3.562
      -5.400
      -7.203
      -8.905
     -10.427
     -11.712
     -12.747
     -13.548
     -14.146
     -14.556
     -14.766
     -14.743
     -14.453
     -13.888
     -13.080
     -12.089
     -10.976
      -9.772
      -8.477
      -7.075
      -5.555
      -3.918
      -2.179
      -0.373
       1.445
       3.197
       4.798
       6.184
       7.322
       8.208
       8.853
       9.267
       9.464
       9.457
       9.274
       8.951
       8.537
       8.075
       7.590
       7.086
       6.551
       5.967
       5.312
       4.576
       3.770
       2.928
       2.098
       1.330
       0.648
       0.046
      -0.506
      -1.038
      -1.567
      -2.092
      -2.598
      -3.066
      -3.484
      -3.850
      -4.169
      -4.455
      -4.721
      -4.978
      -5.234
      -5.489
      -5.741
      -5.976
      -6.171
      -6.294
      -6.306
      -6.174
      -5.883
      -5.439
      -4.875
      -4.239
      -3.590
      -2.985
      -2.459
      -2.008
      -1.596
      -1.170
      -0.688
      -0.136
       0.468
       1.090
       1.698
       2.277
       2.822
       3.334
       3.803
       4.217
       4.573
       4.881
       5.164
       5.436
       5.684
       5.871
       5.958
       5.931
       5.802
       5.584
       5.283
       4.890
       4.405
       3.844
       3.234
       2.596
       1.931
       1.229
       0.486
      -0.290
      -1.082
      -1.868
      -2.635
      -3.373
      -4.081
      -4.752
      -5.367
      -5.896
      -6.299
      -6.542
      -6.612
      -6.512
      -6.248
      -5.818
      -5.223
      -4.475
      -3.607
      -2.662
      -1.684
      -0.710
       0.227
       1.085
       1.803
       2.322
       2.605
       2.656
       2.522
       2.271
       1.974
       1.692
       1.463
       1.297
       1.187
       1.118
       1.071
       1.023
       0.936
       0.774
       0.513
       0.153
      -0.286
      -0.782
      -1.314
      -1.852
      -2.344
      -2.717
      -2.907
      -2.889
      -2.687
      -2.363
      -1.973
      -1.548
      -1.096
      -0.620
      -0.133
       0.342
       0.777
       1.152
       1.459
       1.697
       1.864
       1.962
       2.002
       2.003
       1.988
       1.969
       1.950
       1.925
       1.882
       1.796
       1.639
       1.401
       1.100
       0.783
       0.496
       0.258
       0.064
      -0.095
      -0.208
      -0.244
      -0.185
      -0.044
       0.138
       0.326
       0.521
       0.756
       1.059
       1.414
       1.760
       2.011
       2.113
       2.059
       1.881
       1.610
       1.271
       0.894
       0.521
       0.199
      -0.033
      -0.164
      -0.199
      -0.152
      -0.027
       0.177
       0.451
       0.771
       1.107
       1.428
       1.703
       1.904
       2.011
       2.017
       1.926
       1.739
       1.451
       1.056
       0.566
       0.022
      -0.517
      -1.006
      -1.427
      -1.788
      -2.092
      -2.334
      -2.495
      -2.567
      -2.555
      -2.474
      -2.340
      -2.160
      -1.933
      -1.646
      -1.281
      -0.821
      -0.267
       0.352
       0.989
       1.596
       2.151
       2.658
       3.126
       3.546
       3.884
       4.089
       4.127
       3.985
       3.673
       3.215
       2.632
       1.945
       1.187
       0.404
      -0.355
      -1.049
      -1.668
      -2.232
      -2.773
      -3.320
      -3.888
      -4.466
      -5.030
      -5.548
      -5.987
      -6.325
      -6.553
      -6.667
      -6.665
      -6.538
      -6.282
      -5.904
      -5.417
      -4.824
      -4.102
      -3.215
      -2.143
      -0.911
       0.412
       1.741
       3.000
       4.144
       5.161
       6.059
       6.857
       7.571
       8.213
       8.787
       9.289
       9.698
       9.981
      10.091
       9.985
       9.636
       9.053
       8.263
       7.296
       6.163
       4.865
       3.414
       1.856
       0.262
      -1.309
      -2.821
      -4.259
      -5.601
      -6.799
      -7.789
      -8.514
      -8.958
      -9.156
      -9.165
      -9.040
      -8.801
      -8.437
      -7.926
      -7.266
      -6.482
      -5.621
      -4.728
      -3.829
      -2.936
      -2.062
      -1.230
      -0.457
       0.261
       0.950
       1.643
       2.353
       3.066
       3.729
       4.276
       4.644
       4.798
       4.738
       4.492
       4.110
       3.658
       3.215
       2.840
       2.544
       2.299
       2.061
       1.802
       1.523
       1.248
       1.011
       0.842
       0.755
       0.737
       0.751
       0.743
       0.653
       0.441
       0.097
      -0.348
      -0.839
      -1.324
      -1.771
      -2.148
      -2.409
      -2.496
      -2.373
      -2.055
      -1.591
      -1.033
      -0.419
