Origin Time       1/5/2013 06:57:12	 
Lat.              33.1 N	
Long.             75.8 E	
Depth (Km)         15.0
Magnitude         5.8
 Region           JK-HP-Border                                                     
 Above details taken from IMD 
   
Station Code      NAW
Station Lat.       31.123
Station Long.      76.124
Station Height(m)  258.0
Site Class        C   Vs30 between 200 m/sec to 375 m/sec *  
Record Time       01.05.2013 06:57:49.209
Sampling Rate     200. Hz
 Record Duration   87.220 Sec.
 Direction         Vert. (Up positive)
Max. Acceleration     -6.811 cm/sec**2
     
  * For reference see Site Classification link of website 
     
 Base Line Corrected and Low Pass Filtered (Cut Off at 35 Hz) Time History
 Acceleration data in cm/sec**2
    
[...]
       0.583
       0.711
       0.801
       0.868
       0.920
       0.979
       1.061
       1.153
       1.196
       1.130
       0.940
       0.687
       0.459
       0.327
       0.312
       0.398
       0.556
       0.750
       0.932
       1.046
       1.049
       0.920
       0.677
       0.365
       0.043
      -0.235
      -0.428
      -0.519
      -0.532
      -0.535
      -0.616
      -0.842
      -1.217
      -1.677
      -2.118
      -2.445
      -2.611
      -2.634
      -2.561
      -2.427
      -2.236
      -1.983
      -1.689
      -1.386
      -1.087
      -0.765
      -0.386
       0.044
       0.470
       0.821
       1.060
       1.186
       1.196
       1.068
       0.790
       0.400
       0.009
      -0.254
      -0.303
      -0.139
       0.159
       0.486
       0.759
       0.946
       1.055
       1.114
       1.154
       1.193
       1.238
       1.285
       1.320
       1.325
       1.276
       1.144
       0.913
       0.597
       0.251
      -0.064
      -0.320
      -0.547
      -0.797
      -1.091
      -1.404
      -1.689
      -1.920
      -2.092
      -2.197
      -2.201
      -2.056
      -1.735
      -1.254
      -0.659
       0.000
       0.687
       1.374
       2.018
       2.570
       2.985
       3.260
       3.425
       3.517
       3.556
       3.541
       3.472
       3.348
       3.153
       2.857
       2.436
       1.900
       1.294
       0.670
       0.058
      -0.539
      -1.122
      -1.679
      -2.178
      -2.593
      -2.908
      -3.121
      -3.226
      -3.203
      -3.032
      -2.711
      -2.282
      -1.815
      -1.382
      -1.018
      -0.707
      -0.412
      -0.101
       0.227
       0.553
       0.857
       1.118
       1.314
       1.426
       1.462
       1.459
       1.448
       1.421
       1.352
       1.228
       1.073
       0.930
       0.843
       0.828
       0.847
       0.819
       0.656
       0.315
      -0.175
      -0.719
      -1.179
      -1.434
      -1.436
      -1.246
      -1.008
      -0.863
      -0.872
      -1.006
      -1.190
      -1.342
      -1.393
      -1.300
      -1.068
      -0.768
      -0.500
      -0.328
      -0.241
      -0.176
      -0.074
       0.082
       0.284
       0.531
       0.839
       1.207
       1.599
       1.955
       2.235
       2.419
       2.484
       2.386
       2.098
       1.667
       1.215
       0.871
       0.681
       0.578
       0.428
       0.124
      -0.368
      -1.005
      -1.690
      -2.289
      -2.674
      -2.777
      -2.624
      -2.317
      -1.964
      -1.616
      -1.251
      -0.824
      -0.339
       0.125
       0.460
       0.595
       0.545
       0.406
       0.312
       0.360
       0.557
       0.817
       1.021
       1.085
       1.001
       0.824
       0.633
       0.486
       0.405
       0.386
       0.413
       0.456
       0.483
       0.467
       0.401
       0.288
       0.133
      -0.070
      -0.341
      -0.691
      -1.101
      -1.501
      -1.811
      -1.981
      -2.018
      -1.963
      -1.847
      -1.677
      -1.448
      -1.164
      -0.841
      -0.498
      -0.154
       0.148
       0.328
       0.313
       0.099
      -0.201
      -0.391
      -0.315
       0.044
       0.558
       1.044
       1.387
       1.574
       1.659
       1.681
       1.628
       1.465
       1.191
       0.847
       0.483
       0.110
      -0.296
      -0.755
      -1.239
      -1.679
      -2.004
      -2.181
      -2.219
      -2.132
      -1.913
      -1.560
      -1.102
      -0.596
      -0.092
       0.407
       0.923
       1.462
       1.982
       2.411
       2.687
       2.776
       2.671
       2.383
       1.952
       1.459
       0.995
       0.606
       0.263
      -0.111
      -0.567
      -1.082
      -1.581
      -2.001
      -2.325
      -2.544
      -2.611
      -2.453
      -2.043
      -1.452
      -0.823
      -0.287
       0.093
       0.325
       0.455
       0.536
       0.609
       0.692
       0.784
       0.860
       0.879
       0.798
       0.609
       0.358
       0.119
      -0.049
      -0.141
      -0.202
      -0.278
      -0.377
      -0.464
      -0.491
      -0.436
      -0.308
      -0.134
       0.074
       0.311
       0.560
       0.777
       0.919
       0.970
       0.937
       0.821
       0.606
       0.276
      -0.153
      -0.618
      -1.021
      -1.259
      -1.274
      -1.085
      -0.762
      -0.385
      -0.017
       0.280
       0.443
       0.442
       0.313
       0.150
       0.062
       0.106
       0.260
       0.438
       0.548
       0.551
       0.463
       0.314
       0.106
      -0.180
      -0.540
      -0.914
      -1.213
      -1.363
      -1.348
      -1.216
      -1.044
      -0.890
      -0.753
      -0.573
      -0.276
       0.187
       0.806
       1.502
       2.147
       2.611
       2.809
       2.739
       2.467
       2.095
       1.717
       1.389
       1.117
       0.889
       0.706
       0.569
       0.443
       0.234
      -0.147
      -0.702
      -1.325
      -1.850
      -2.139
      -2.159
      -1.995
      -1.771
      -1.542
      -1.260
      -0.854
      -0.328
       0.236
       0.750
       1.187
       1.572
       1.932
       2.248
       2.466
       2.553
       2.524
       2.427
       2.298
       2.120
       1.851
       1.458
       0.957
       0.412
      -0.097
      -0.518
      -0.862
      -1.182
      -1.507
      -1.800
      -1.985
      -2.032
      -1.989
      -1.931
      -1.876
      -1.753
      -1.466
      -1.004
      -0.487
      -0.081
       0.145
       0.282
       0.483
       0.828
       1.265
       1.675
       1.973
       2.147
       2.229
       2.241
       2.160
       1.942
       1.578
       1.123
       0.655
       0.216
      -0.217
      -0.682
      -1.164
      -1.580
      -1.842
      -1.932
      -1.907
      -1.836
      -1.732
      -1.555
      -1.266
      -0.868
      -0.408
       0.037
       0.394
       0.624
       0.743
       0.791
       0.789
       0.736
       0.646
       0.589
       0.657
       0.881
       1.184
       1.416
       1.467
       1.335
       1.096
       0.815
       0.486
       0.052
      -0.520
      -1.178
      -1.800
      -2.262
      -2.502
      -2.525
      -2.362
      -2.053
      -1.657
      -1.250
      -0.901
      -0.651
      -0.504
      -0.438
      -0.424
      -0.432
      -0.442
      -0.442
      -0.437
      -0.455
      -0.526
      -0.661
      -0.827
      -0.945
      -0.934
      -0.761
      -0.457
      -0.093
       0.261
       0.558
       0.790
       0.987
       1.188
       1.405
       1.613
       1.773
       1.861
       1.860
       1.745
       1.480
       1.042
       0.454
      -0.202
      -0.816
      -1.308
      -1.655
      -1.857
      -1.898
      -1.753
      -1.433
      -1.011
      -0.591
      -0.235
       0.069
       0.374
       0.692
       0.956
       1.061
       0.958
       0.713
       0.462
       0.320
       0.290
       0.277
       0.171
      -0.065
      -0.363
      -0.592
      -0.646
      -0.498
      -0.201
       0.160
       0.512
       0.804
       1.015
       1.145
       1.209
       1.231
       1.222
       1.186
       1.127
       1.055
       0.964
       0.813
       0.536
       0.088
      -0.517
      -1.213
      -1.908
      -2.516
      -2.955
      -3.148
      -3.051
      -2.702
      -2.221
      -1.754
      -1.377
      -1.048
      -0.647
      -0.087
       0.609
       1.317
       1.898
       2.265
       2.404
       2.340
       2.108
       1.744
       1.293
       0.811
       0.351
      -0.059
      -0.406
      -0.687
      -0.898
      -1.065
      -1.229
      -1.409
      -1.568
      -1.623
      -1.498
      -1.167
      -0.681
      -0.141
       0.362
       0.776
       1.083
       1.259
       1.269
       1.089
       0.736
       0.281
      -0.176
      -0.566
      -0.874
      -1.127
      -1.367
      -1.652
      -2.033
      -2.514
      -3.020
      -3.423
      -3.596
      -3.476
      -3.096
      -2.561
      -1.988
      -1.444
      -0.948
      -0.491
      -0.048
       0.432
       1.000
       1.669
       2.399
       3.115
       3.743
       4.230
       4.546
       4.675
       4.610
       4.366
       3.992
       3.558
       3.125
       2.735
       2.424
       2.214
       2.075
       1.916
       1.629
       1.157
       0.533
      -0.127
      -0.686
      -1.068
      -1.291
      -1.431
      -1.544
      -1.619
      -1.602
      -1.463
      -1.243
      -1.026
      -0.862
      -0.718
      -0.517
      -0.216
       0.145
       0.452
       0.576
       0.436
       0.030
      -0.572
      -1.264
      -1.935
      -2.506
      -2.945
      -3.282
      -3.570
      -3.848
      -4.128
      -4.386
      -4.568
      -4.608
      -4.455
      -4.080
      -3.479
      -2.680
      -1.749
      -0.755
       0.272
       1.325
       2.358
       3.262
       3.925
       4.325
       4.546
       4.715
       4.913
       5.126
       5.279
       5.291
       5.128
       4.782
       4.240
       3.487
       2.541
       1.483
       0.417
      -0.578
      -1.472
      -2.246
      -2.855
      -3.241
      -3.366
      -3.240
      -2.912
      -2.449
      -1.912
      -1.353
      -0.834
      -0.430
      -0.204
      -0.160
      -0.224
      -0.292
      -0.308
      -0.295
      -0.303
      -0.338
      -0.344
      -0.258
      -0.078
       0.147
       0.369
       0.595
       0.853
       1.145
       1.416
       1.603
       1.704
       1.784
       1.922
       2.126
       2.320
       2.404
       2.349
       2.222
       2.119
       2.069
       1.998
       1.803
       1.456
       1.037
       0.662
       0.376
       0.142
      -0.102
      -0.372
      -0.649
      -0.919
      -1.191
      -1.470
      -1.720
      -1.883
      -1.925
      -1.874
      -1.809
      -1.797
      -1.839
      -1.878
      -1.848
      -1.724
      -1.525
      -1.275
      -0.983
      -0.649
      -0.293
       0.035
       0.272
       0.386
       0.396
       0.353
       0.314
       0.309
       0.348
       0.424
       0.511
       0.565
       0.544
       0.428
       0.237
       0.018
      -0.174
      -0.309
      -0.398
      -0.498
      -0.680
      -0.981
      -1.365
      -1.742
      -2.023
      -2.171
      -2.201
      -2.130
      -1.940
      -1.603
      -1.125
      -0.580
      -0.065
       0.359
       0.705
       1.024
       1.339
       1.608
       1.763
       1.790
       1.759
       1.763
       1.830
       1.897
       1.880
       1.752
       1.556
       1.347
       1.136
       0.891
       0.585
       0.241
      -0.077
      -0.311
      -0.459
      -0.566
      -0.682
      -0.818
      -0.958
      -1.082
      -1.180
      -1.246
      -1.264
      -1.221
      -1.112
      -0.950
      -0.765
      -0.595
      -0.470
      -0.400
      -0.375
      -0.383
      -0.422
      -0.520
      -0.728
      -1.091
      -1.600
      -2.176
      -2.690
      -3.025
      -3.134
      -3.051
      -2.837
      -2.522
      -2.093
      -1.524
      -0.819
      -0.021
       0.823
       1.680
       2.525
       3.304
       3.925
       4.298
       4.366
       4.122
       3.596
       2.845
       1.960
       1.055
       0.249
      -0.376
      -0.804
      -1.094
      -1.353
      -1.672
      -2.045
      -2.366
      -2.493
      -2.342
      -1.947
      -1.430
      -0.929
      -0.521
      -0.196
       0.116
       0.483
       0.916
       1.346
       1.659
       1.768
       1.678
       1.487
       1.306
       1.168
       1.008
       0.723
       0.281
      -0.245
      -0.711
      -0.993
      -1.054
      -0.956
      -0.813
      -0.708
      -0.644
      -0.567
      -0.445
      -0.325
      -0.294
      -0.388
      -0.529
      -0.569
      -0.411
      -0.104
       0.196
       0.350
       0.351
       0.319
       0.390
       0.603
       0.885
       1.126
       1.254
       1.265
       1.203
       1.138
       1.143
       1.272
       1.548
       1.962
       2.466
       2.962
       3.310
       3.386
       3.161
       2.736
       2.272
       1.863
       1.464
       0.944
       0.226
      -0.608
      -1.358
      -1.844
      -2.030
      -2.038
      -2.049
      -2.182
      -2.429
      -2.685
      -2.818
      -2.742
      -2.456
      -2.033
      -1.584
      -1.200
      -0.917
      -0.715
      -0.557
      -0.422
      -0.318
      -0.261
      -0.250
      -0.253
      -0.231
      -0.180
      -0.163
      -0.286
      -0.622
      -1.147
      -1.715
      -2.123
      -2.224
      -2.018
      -1.650
      -1.288
      -1.014
      -0.802
      -0.596
      -0.386
      -0.203
      -0.067
       0.058
       0.249
       0.559
       0.972
       1.401
       1.734
       1.893
       1.871
       1.727
       1.545
       1.368
       1.160
       0.858
       0.474
       0.149
       0.072
       0.304
       0.695
       0.995
       1.055
       0.939
       0.854
       1.005
       1.477
       2.213
       3.068
       3.852
       4.386
       4.561
       4.385
       3.966
       3.436
       2.870
       2.257
       1.533
       0.642
      -0.415
      -1.573
      -2.750
      -3.888
      -4.948
      -5.866
      -6.531
      -6.811
      -6.649
      -6.146
      -5.557
      -5.128
      -4.892
      -4.618
      -3.991
      -2.894
      -1.532
      -0.288
       0.552
       0.978
       1.224
       1.588
       2.253
       3.206
       4.252
       5.117
       5.563
       5.507
       5.071
       4.510
       4.043
       3.704
       3.364
       2.900
       2.345
       1.852
       1.545
       1.416
       1.348
       1.243
       1.109
       1.022
       1.018
       1.002
       0.804
       0.308
      -0.470
      -1.395
      -2.302
      -3.055
      -3.583
      -3.891
      -4.044
      -4.133
      -4.238
      -4.411
      -4.656
      -4.901
      -4.988
      -4.759
      -4.196
      -3.484
      -2.902
      -2.577
      -2.331
      -1.783
      -0.673
       0.872
       2.417
       3.579
       4.327
       4.904
       5.486
       5.967
       6.110
       5.838
       5.313
       4.749
       4.197
       3.540
       2.660
       1.590
       0.514
      -0.359
      -0.921
      -1.189
      -1.250
      -1.205
      -1.146
      -1.131
      -1.167
      -1.224
      -1.305
      -1.494
      -1.905
      -2.553
      -3.260
      -3.720
      -3.696
      -3.167
      -2.298
      -1.287
      -0.251
       0.754
       1.649
       2.313
       2.665
       2.734
       2.641
       2.497
       2.322
       2.055
       1.623
       1.010
       0.266
      -0.513
      -1.233
      -1.829
      -2.272
      -2.559
      -2.710
      -2.755
      -2.717
      -2.586
      -2.348
      -2.023
      -1.664
      -1.324
      -1.021
      -0.726
      -0.365
       0.130
       0.733
       1.317
       1.721
       1.856
       1.747
       1.503
       1.249
       1.061
       0.935
       0.807
       0.591
       0.233
      -0.248
      -0.749
      -1.139
      -1.335
      -1.351
      -1.258
      -1.107
      -0.895
      -0.599
      -0.249
       0.070
       0.292
       0.426
       0.521
       0.588
       0.578
       0.451
       0.236
       0.015
      -0.134
      -0.182
      -0.135
      -0.009
       0.167
       0.342
       0.460
       0.507
       0.545
       0.672
       0.930
       1.242
       1.466
       1.528
       1.487
       1.454
       1.458
       1.408
       1.204
       0.856
       0.491
       0.226
       0.061
      -0.112
      -0.420
      -0.908
      -1.512
      -2.114
      -2.612
      -2.982
      -3.262
      -3.490
      -3.644
      -3.639
      -3.378
      -2.817
      -2.006
      -1.067
      -0.134
       0.710
       1.443
       2.089
       2.688
       3.271
       3.843
       4.347
       4.684
       4.751
       4.496
       3.946
       3.198
       2.369
       1.544
       0.740
      -0.064
      -0.869
      -1.633
      -2.321
      -2.941
      -3.499
      -3.927
      -4.090
      -3.872
      -3.268
      -2.382
      -1.357
      -0.295
       0.751
       1.728
       2.560
       3.179
       3.566
       3.742
       3.737
       3.549
       3.170
       2.639
       2.073
       1.611
       1.310
       1.102
       0.867
       0.555
       0.234
       0.023
      -0.018
       0.059
       0.133
       0.113
      -0.001
      -0.141
      -0.234
      -0.230
      -0.115
       0.074
       0.212
       0.133
      -0.264
      -0.921
      -1.648
      -2.260
      -2.698
      -3.029
      -3.339
      -3.617
      -3.753
      -3.645
      -3.321
      -2.911
      -2.511
      -2.071
      -1.461
      -0.637
       0.253
       0.965
       1.363
       1.537
       1.706
       1.979
       2.219
       2.181
       1.782
       1.199
       0.702
       0.407
       0.209
      -0.067
      -0.475
      -0.880
      -1.074
      -0.967
      -0.644
      -0.254
       0.115
       0.450
       0.725
       0.885
       0.908
       0.872
       0.906
       1.070
       1.277
       1.364
       1.232
       0.937
       0.624
       0.398
       0.273
       0.219
       0.237
       0.355
       0.584
       0.880
       1.161
       1.344
       1.374
       1.228
       0.898
       0.405
      -0.191
      -0.795
      -1.332
      -1.787
      -2.184
      -2.526
      -2.764
      -2.846
      -2.795
      -2.723
      -2.742
      -2.856
      -2.945
      -2.863
      -2.568
      -2.165
      -1.813
      -1.583
      -1.392
      -1.067
      -0.489
       0.322
       1.245
       2.146
       2.949
       3.623
       4.151
       4.515
       4.707
       4.735
       4.600
       4.283
       3.766
       3.078
       2.308
       1.561
       0.887
       0.264
      -0.342
      -0.914
      -1.372
      -1.634
      -1.691
      -1.608
      -1.482
      -1.374
      -1.293
      -1.209
      -1.093
      -0.940
      -0.782
      -0.669
      -0.638
      -0.692
      -0.813
      -0.993
      -1.243
      -1.595
      -2.058
      -2.587
      -3.068
      -3.370
      -3.414
      -3.208
      -2.820
      -2.316
      -1.735
      -1.103
      -0.456
       0.148
       0.657
       1.041
       1.315
       1.538
       1.767
       2.006
       2.199
       2.275
       2.211
       2.056
       1.907
       1.847
       1.903
       2.044
       2.232
       2.459
       2.737
       3.032
       3.212
       3.084
       2.513
       1.528
       0.332
      -0.792
      -1.618
      -2.073
      -2.255
      -2.353
      -2.521
      -2.786
      -3.063
      -3.230
      -3.205
      -2.975
      -2.586
      -2.109
      -1.625
      -1.197
      -0.861
      -0.611
      -0.396
      -0.137
       0.233
       0.725
       1.293
       1.867
       2.384
       2.810
       3.146
       3.412
       3.619
       3.732
       3.678
       3.396
       2.902
       2.307
       1.769
       1.393
       1.167
