Origin Time       29/08/2013 10:13:21
Lat.              31.4 N	
Long.             76.1 E	
Depth (Km)         10.0
Magnitude         4.7
 Region           HIMACHAL-PUNJAB-(HOSHIARPUR)-BORDER                              
 Above details taken from IMD 
     
Station Code      NKD
Station Lat.       31.125  N
Station Long.      75.487  E
Station Height(m)    0.0
Site Class        C   Vs30 between 200 m/sec to 375 m/sec *  
Record Time       29.08.2013 10:13:15.939
Sampling Rate     200. Hz
 Record Duration  102.430 Sec.
 Direction         E-W (E positive)
Max. Acceleration     -7.513 cm/sec**2
     
  * For reference see Site Classification link of website 
     
 Base Line Corrected and Low Pass Filtered (Cut Off at 35 Hz) Time History
 Acceleration data in cm/sec**2
    
[...]
      -0.202
      -0.006
       0.161
       0.273
       0.294
       0.208
       0.039
      -0.144
      -0.269
      -0.303
      -0.263
      -0.195
      -0.140
      -0.117
      -0.124
      -0.152
      -0.194
      -0.233
      -0.236
      -0.162
       0.018
       0.281
       0.551
       0.734
       0.762
       0.628
       0.379
       0.088
      -0.178
      -0.380
      -0.498
      -0.525
      -0.459
      -0.320
      -0.146
       0.025
       0.173
       0.303
       0.425
       0.531
       0.592
       0.571
       0.449
       0.231
      -0.049
      -0.343
      -0.592
      -0.728
      -0.702
      -0.517
      -0.247
      -0.018
       0.068
      -0.007
      -0.156
      -0.249
      -0.196
      -0.009
       0.216
       0.368
       0.399
       0.344
       0.276
       0.240
       0.225
       0.190
       0.106
      -0.023
      -0.162
      -0.272
      -0.325
      -0.317
      -0.254
      -0.155
      -0.051
       0.030
       0.076
       0.105
       0.152
       0.231
       0.319
       0.365
       0.329
       0.202
       0.018
      -0.173
      -0.330
      -0.440
      -0.507
      -0.540
      -0.541
      -0.510
      -0.445
      -0.342
      -0.196
      -0.004
       0.217
       0.427
       0.574
       0.612
       0.532
       0.372
       0.199
       0.075
       0.025
       0.031
       0.051
       0.039
      -0.026
      -0.140
      -0.269
      -0.375
      -0.428
      -0.420
      -0.371
      -0.314
      -0.271
      -0.237
      -0.180
      -0.065
       0.112
       0.314
       0.478
       0.549
       0.506
       0.369
       0.180
      -0.012
      -0.167
      -0.258
      -0.265
      -0.183
      -0.032
       0.145
       0.293
       0.379
       0.416
       0.447
       0.510
       0.597
       0.658
       0.625
       0.466
       0.210
      -0.064
      -0.280
      -0.412
      -0.490
      -0.569
      -0.680
      -0.806
      -0.892
      -0.888
      -0.774
      -0.568
      -0.315
      -0.063
       0.135
       0.235
       0.226
       0.138
       0.033
      -0.041
      -0.076
      -0.114
      -0.204
      -0.361
      -0.539
      -0.642
      -0.582
      -0.326
       0.085
       0.552
       0.962
       1.230
       1.322
       1.265
       1.118
       0.950
       0.813
       0.721
       0.646
       0.525
       0.304
      -0.025
      -0.399
      -0.714
      -0.882
      -0.878
      -0.750
      -0.588
      -0.467
      -0.405
      -0.357
      -0.256
      -0.068
       0.175
       0.386
       0.462
       0.339
       0.032
      -0.367
      -0.724
      -0.933
      -0.960
      -0.841
      -0.646
      -0.426
      -0.198
       0.040
       0.283
       0.505
       0.673
       0.768
       0.787
       0.736
       0.617
       0.435
       0.207
      -0.027
      -0.215
      -0.311
      -0.300
      -0.206
      -0.083
       0.017
       0.068
       0.076
       0.072
       0.087
       0.137
       0.204
       0.247
       0.223
       0.120
      -0.037
      -0.196
      -0.306
      -0.345
      -0.326
      -0.289
      -0.273
      -0.287
      -0.297
      -0.254
      -0.129
       0.058
       0.242
       0.348
       0.339
       0.233
       0.093
      -0.010
      -0.034
       0.024
       0.131
       0.230
       0.271
       0.231
       0.130
       0.014
      -0.070
      -0.104
      -0.099
      -0.084
      -0.081
      -0.097
      -0.120
      -0.132
      -0.122
      -0.091
      -0.039
       0.035
       0.123
       0.197
       0.216
       0.150
       0.006
      -0.166
      -0.292
      -0.322
      -0.253
      -0.134
      -0.024
       0.043
       0.074
       0.098
       0.132
       0.166
       0.174
       0.141
       0.081
       0.027
       0.008
       0.028
       0.072
       0.118
       0.146
       0.142
       0.100
       0.026
      -0.061
      -0.143
      -0.206
      -0.244
      -0.254
      -0.236
      -0.196
      -0.137
      -0.063
       0.023
       0.114
       0.201
       0.275
       0.329
       0.359
       0.363
       0.338
       0.272
       0.152
      -0.019
      -0.210
      -0.374
      -0.470
      -0.489
      -0.454
      -0.397
      -0.337
      -0.270
      -0.187
      -0.088
       0.009
       0.083
       0.134
       0.173
       0.210
       0.230
       0.198
       0.088
      -0.092
      -0.291
      -0.438
      -0.481
      -0.421
      -0.306
      -0.191
      -0.093
       0.008
       0.140
       0.295
       0.432
       0.506
       0.502
       0.437
       0.336
       0.219
       0.112
       0.060
       0.112
       0.278
       0.491
       0.631
       0.597
       0.378
       0.058
      -0.236
      -0.426
      -0.515
      -0.557
      -0.592
      -0.602
      -0.539
      -0.379
      -0.162
       0.027
       0.125
       0.129
       0.091
       0.070
       0.077
       0.081
       0.048
      -0.015
      -0.055
      -0.023
       0.090
       0.232
       0.327
       0.313
       0.171
      -0.066
      -0.328
      -0.529
      -0.601
      -0.519
      -0.316
      -0.072
       0.122
       0.207
       0.188
       0.134
       0.120
       0.181
       0.280
       0.339
       0.298
       0.146
      -0.060
      -0.241
      -0.330
      -0.305
      -0.189
      -0.030
       0.119
       0.209
       0.207
       0.114
      -0.023
      -0.130
      -0.147
      -0.068
       0.037
       0.062
      -0.061
      -0.302
      -0.535
      -0.613
      -0.464
      -0.142
       0.214
       0.473
       0.593
       0.639
       0.711
       0.871
       1.090
       1.281
       1.352
       1.251
       0.978
       0.575
       0.120
      -0.298
      -0.600
      -0.748
      -0.758
      -0.698
      -0.654
      -0.683
      -0.790
      -0.936
      -1.064
      -1.127
      -1.103
      -1.008
      -0.884
      -0.774
      -0.690
      -0.598
      -0.443
      -0.190
       0.151
       0.517
       0.815
       0.956
       0.903
       0.680
       0.376
       0.102
      -0.058
      -0.091
      -0.054
      -0.036
      -0.086
      -0.180
      -0.238
      -0.189
      -0.023
       0.209
       0.425
       0.563
       0.589
       0.505
       0.338
       0.138
      -0.029
      -0.101
      -0.058
       0.062
       0.176
       0.206
       0.131
      -0.007
      -0.135
      -0.193
      -0.159
      -0.047
       0.113
       0.287
       0.433
       0.501
       0.453
       0.286
       0.050
      -0.174
      -0.320
      -0.364
      -0.334
      -0.285
      -0.260
      -0.263
      -0.272
      -0.257
      -0.208
      -0.131
      -0.035
       0.074
       0.186
       0.279
       0.330
       0.336
       0.326
       0.336
       0.368
       0.372
       0.271
       0.028
      -0.313
      -0.631
      -0.803
      -0.771
      -0.576
      -0.327
      -0.138
      -0.071
      -0.117
      -0.211
      -0.273
      -0.245
      -0.114
       0.081
       0.265
       0.356
       0.313
       0.165
      -0.007
      -0.119
      -0.144
      -0.120
      -0.113
      -0.166
      -0.266
      -0.352
      -0.356
      -0.247
      -0.055
       0.150
       0.294
       0.341
       0.306
       0.239
       0.201
       0.222
       0.288
       0.350
       0.353
       0.277
       0.149
       0.033
      -0.010
       0.044
       0.168
       0.303
       0.387
       0.371
       0.228
      -0.029
      -0.338
      -0.600
      -0.728
      -0.690
      -0.530
      -0.341
      -0.208
      -0.155
      -0.137
      -0.085
       0.035
       0.187
       0.296
       0.310
       0.243
       0.169
       0.164
       0.255
       0.400
       0.525
       0.570
       0.518
       0.383
       0.185
      -0.060
      -0.330
      -0.584
      -0.774
      -0.876
      -0.902
      -0.886
      -0.842
      -0.742
      -0.542
      -0.225
       0.165
       0.536
       0.792
       0.881
       0.813
       0.644
       0.446
       0.278
       0.172
       0.139
       0.176
       0.265
       0.368
       0.431
       0.413
       0.301
       0.121
      -0.084
      -0.268
      -0.395
      -0.440
      -0.394
      -0.271
      -0.105
       0.064
       0.197
       0.268
       0.266
       0.191
       0.056
      -0.108
      -0.264
      -0.374
      -0.414
      -0.380
      -0.285
      -0.157
      -0.037
       0.048
       0.095
       0.127
       0.167
       0.209
       0.218
       0.162
       0.037
      -0.118
      -0.250
      -0.313
      -0.302
      -0.249
      -0.211
      -0.229
      -0.304
      -0.393
      -0.436
      -0.391
      -0.255
      -0.063
       0.143
       0.327
       0.464
       0.539
       0.551
       0.519
       0.471
       0.419
       0.348
       0.231
       0.048
      -0.183
      -0.414
      -0.579
      -0.623
      -0.525
      -0.307
      -0.023
       0.259
       0.486
       0.625
       0.668
       0.623
       0.496
       0.294
       0.033
      -0.246
      -0.476
      -0.593
      -0.561
      -0.390
      -0.135
       0.124
       0.321
       0.417
       0.424
       0.379
       0.334
       0.321
       0.341
       0.361
       0.329
       0.201
      -0.036
      -0.354
      -0.690
      -0.965
      -1.110
      -1.085
      -0.896
      -0.597
      -0.274
      -0.010
       0.150
       0.219
       0.248
       0.288
       0.358
       0.451
       0.550
       0.631
       0.656
       0.577
       0.364
       0.040
      -0.309
      -0.566
      -0.643
      -0.530
      -0.303
      -0.077
       0.060
       0.093
       0.075
       0.082
       0.156
       0.280
       0.397
       0.444
       0.393
       0.257
       0.079
      -0.086
      -0.195
      -0.237
      -0.230
      -0.214
      -0.217
      -0.244
      -0.276
      -0.302
      -0.332
      -0.397
      -0.515
      -0.664
      -0.788
      -0.830
      -0.771
      -0.639
      -0.488
      -0.372
      -0.319
      -0.330
      -0.386
      -0.464
      -0.545
      -0.617
      -0.662
      -0.643
      -0.508
      -0.227
       0.178
       0.627
       1.015
       1.265
       1.363
       1.356
       1.306
       1.246
       1.160
       1.012
       0.785
       0.507
       0.242
       0.047
      -0.051
      -0.062
      -0.019
       0.043
       0.098
       0.126
       0.117
       0.082
       0.055
       0.086
       0.210
       0.425
       0.694
       0.952
       1.136
       1.214
       1.189
       1.088
       0.930
       0.701
       0.366
      -0.093
      -0.641
      -1.184
      -1.602
      -1.806
      -1.775
      -1.555
      -1.221
      -0.846
      -0.496
      -0.226
      -0.064
       0.012
       0.062
       0.151
       0.294
       0.431
       0.472
       0.361
       0.126
      -0.138
      -0.324
      -0.381
      -0.330
      -0.237
      -0.172
      -0.173
      -0.247
      -0.373
      -0.530
      -0.698
      -0.854
      -0.967
      -1.003
      -0.940
      -0.774
      -0.509
      -0.140
       0.333
       0.877
       1.401
       1.764
       1.838
       1.580
       1.074
       0.499
       0.038
      -0.208
      -0.238
      -0.116
       0.085
       0.307
       0.502
       0.625
       0.649
       0.590
       0.505
       0.453
       0.451
       0.468
       0.470
       0.464
       0.492
       0.576
       0.659
       0.621
       0.350
      -0.161
      -0.786
      -1.317
      -1.588
      -1.565
      -1.361
      -1.153
      -1.082
      -1.183
      -1.387
      -1.574
      -1.632
      -1.505
      -1.197
      -0.756
      -0.250
       0.248
       0.674
       0.985
       1.172
       1.256
       1.266
       1.222
       1.133
       1.006
       0.844
       0.652
       0.426
       0.169
      -0.097
      -0.317
      -0.437
      -0.448
      -0.410
      -0.429
      -0.585
      -0.869
      -1.177
      -1.375
      -1.374
      -1.181
      -0.886
      -0.602
      -0.412
      -0.340
      -0.360
      -0.413
      -0.416
      -0.301
      -0.054
       0.258
       0.514
       0.623
       0.588
       0.518
       0.558
       0.797
       1.205
       1.645
       1.938
       1.952
       1.656
       1.125
       0.489
      -0.122
      -0.641
      -1.084
      -1.540
      -2.090
      -2.723
      -3.292
      -3.567
      -3.368
      -2.692
      -1.746
      -0.853
      -0.282
      -0.124
      -0.287
      -0.593
      -0.890
      -1.103
      -1.207
      -1.184
      -1.008
      -0.658
      -0.140
       0.511
       1.251
       2.042
       2.848
       3.615
       4.267
       4.737
       5.015
       5.168
       5.310
       5.524
       5.802
       6.047
       6.133
       5.996
       5.659
       5.203
       4.711
       4.223
       3.734
       3.208
       2.595
       1.854
       0.963
      -0.070
      -1.198
      -2.339
      -3.398
      -4.310
      -5.067
      -5.684
      -6.143
      -6.372
      -6.285
      -5.854
      -5.145
      -4.274
      -3.344
      -2.395
      -1.430
      -0.482
       0.351
       0.927
       1.137
       0.980
       0.567
       0.051
      -0.442
      -0.838
      -1.077
      -1.087
      -0.805
      -0.259
       0.389
       0.876
       0.941
       0.425
      -0.677
      -2.236
      -4.012
      -5.695
      -6.952
      -7.513
      -7.265
      -6.293
      -4.817
      -3.061
      -1.165
       0.784
       2.650
       4.178
       5.066
       5.117
       4.357
       3.026
       1.423
      -0.236
      -1.841
      -3.282
      -4.344
      -4.737
      -4.261
      -2.966
      -1.175
       0.691
       2.316
       3.574
       4.459
       4.976
       5.112
       4.877
       4.331
       3.583
       2.756
       1.968
       1.317
       0.864
       0.622
       0.549
       0.574
       0.636
       0.716
       0.838
       1.039
       1.331
       1.685
       2.036
       2.297
       2.375
       2.183
       1.656
       0.774
      -0.400
      -1.707
      -2.922
      -3.828
      -4.304
      -4.359
      -4.106
      -3.688
      -3.204
      -2.659
      -1.971
      -1.031
       0.183
       1.529
       2.726
       3.493
       3.678
       3.302
       2.495
       1.412
       0.188
      -1.040
      -2.095
      -2.774
      -2.927
      -2.532
      -1.731
      -0.757
       0.166
       0.920
       1.493
       1.915
       2.175
       2.214
       1.997
       1.583
       1.112
       0.715
       0.439
       0.255
       0.126
       0.060
       0.105
       0.288
       0.566
       0.823
       0.928
       0.800
       0.448
      -0.050
      -0.582
      -1.041
      -1.340
      -1.420
      -1.267
      -0.933
      -0.525
      -0.169
       0.051
       0.112
       0.049
      -0.080
      -0.201
      -0.233
      -0.120
       0.115
       0.338
       0.346
      -0.021
      -0.767
      -1.714
      -2.582
      -3.122
      -3.217
      -2.900
      -2.292
      -1.520
      -0.662
       0.247
       1.183
       2.107
       2.959
       3.670
       4.162
       4.361
       4.212
       3.717
       2.948
       2.028
       1.090
       0.224
      -0.544
      -1.241
      -1.902
      -2.524
      -3.048
      -3.392
      -3.500
      -3.384
      -3.113
      -2.764
      -2.389
      -2.001
      -1.600
      -1.178
      -0.726
      -0.248
       0.225
       0.630
       0.890
       0.969
       0.896
       0.752
       0.611
       0.471
       0.248
      -0.178
      -0.876
      -1.815
      -2.850
      -3.768
      -4.348
      -4.438
      -4.009
      -3.169
      -2.120
      -1.064
      -0.127
       0.675
       1.401
       2.119
       2.836
       3.485
       3.960
       4.188
       4.175
       3.991
       3.715
       3.390
       3.030
       2.663
       2.350
       2.170
       2.171
       2.335
       2.581
       2.826
       3.021
       3.165
       3.253
       3.229
       2.996
       2.492
       1.764
       0.970
       0.281
      -0.228
      -0.603
      -0.932
      -1.236
      -1.448
      -1.496
      -1.408
      -1.336
      -1.451
      -1.817
      -2.322
      -2.754
      -2.927
      -2.784
      -2.391
      -1.863
      -1.295
      -0.753
      -0.305
      -0.040
      -0.040
      -0.325
      -0.826
      -1.413
      -1.955
      -2.366
      -2.605
      -2.654
      -2.502
      -2.150
      -1.648
      -1.089
      -0.581
      -0.193
       0.068
       0.240
       0.348
       0.372
       0.263
      -0.003
      -0.368
      -0.701
      -0.849
      -0.705
      -0.238
       0.514
       1.464
       2.477
       3.390
       4.031
       4.268
       4.051
       3.421
       2.504
       1.467
       0.480
      -0.304
      -0.779
      -0.907
      -0.752
      -0.475
      -0.284
      -0.340
      -0.686
      -1.237
      -1.831
      -2.316
      -2.606
      -2.686
      -2.587
      -2.349
      -1.997
      -1.536
      -0.968
      -0.328
       0.295
       0.771
       0.975
       0.851
       0.451
      -0.066
      -0.504
      -0.710
      -0.648
      -0.394
      -0.070
       0.234
       0.489
       0.705
       0.891
       1.050
       1.188
       1.315
       1.419
       1.449
       1.331
       1.015
       0.510
      -0.099
      -0.682
      -1.100
      -1.261
      -1.148
      -0.824
      -0.405
      -0.001
       0.325
       0.580
       0.807
       1.040
       1.267
       1.422
       1.410
       1.167
       0.698
       0.091
      -0.516
      -0.990
      -1.252
      -1.294
      -1.174
      -0.982
      -0.797
      -0.642
      -0.483
      -0.253
       0.081
       0.488
       0.873
       1.136
       1.238
       1.230
       1.213
       1.268
       1.398
       1.533
       1.577
       1.460
       1.176
       0.774
       0.332
      -0.081
      -0.423
      -0.679
      -0.867
      -1.031
      -1.239
      -1.547
      -1.966
      -2.439
      -2.856
      -3.086
      -3.032
      -2.669
      -2.062
      -1.340
      -0.648
      -0.089
       0.310
       0.589
       0.806
       0.986
       1.100
       1.102
       0.979
       0.775
       0.569
       0.420
       0.311
       0.150
      -0.182
      -0.745
      -1.471
      -2.166
      -2.599
      -2.603
      -2.139
      -1.302
      -0.263
       0.799
       1.740
       2.472
       2.947
       3.155
       3.128
       2.936
       2.673
       2.413
       2.174
       1.908
       1.542
       1.027
       0.388
      -0.282
      -0.861
      -1.274
      -1.532
      -1.714
      -1.911
      -2.153
      -2.386
      -2.503
      -2.411
      -2.092
      -1.611
      -1.064
      -0.518
       0.039
       0.677
       1.467
       2.404
       3.381
       4.228
       4.789
       4.985
       4.820
       4.341
       3.592
       2.595
       1.379
       0.011
      -1.386
      -2.662
      -3.689
      -4.390
      -4.728
      -4.685
      -4.256
      -3.474
      -2.432
      -1.285
      -0.221
       0.612
       1.154
       1.438
       1.540
       1.503
       1.315
