Origin Time       29/08/2013 10:13:21 UTC
Lat.              31.4 N	
Long.             76.1 E	
Depth (Km)         10.0
Magnitude         4.7
 Region           HIMACHAL-PUNJAB-(HOSHIARPUR)-BORDER                              
 Above details taken from IMD 
    
Station Code      NKD
Station Lat.       31.125  N
Station Long.      75.487  E
Station Height(m)    0.0
Site Class        C   Vs30 between 200 m/sec to 375 m/sec *  
Record Time       29.08.2013 10:13:15.939 UTC
Sampling Rate     200. Hz
 Record Duration  102.430 Sec.
 Direction         N-S (N positive)
Max. Acceleration     10.614 cm/sec**2
     
  * For reference see Site Classification link of website 
     
 Base Line Corrected and Low Pass Filtered (Cut Off at 35 Hz) Time History
 Acceleration data in cm/sec**2
    
[...]
       0.232
       0.328
       0.362
       0.350
       0.314
       0.278
       0.258
       0.261
       0.290
       0.338
       0.380
       0.380
       0.304
       0.146
      -0.070
      -0.297
      -0.483
      -0.586
      -0.594
      -0.528
      -0.427
      -0.329
      -0.254
      -0.203
      -0.167
      -0.142
      -0.125
      -0.118
      -0.120
      -0.119
      -0.101
      -0.047
       0.054
       0.203
       0.380
       0.549
       0.668
       0.710
       0.668
       0.559
       0.403
       0.219
       0.019
      -0.177
      -0.347
      -0.467
      -0.531
      -0.545
      -0.517
      -0.449
      -0.338
      -0.192
      -0.037
       0.086
       0.144
       0.133
       0.090
       0.072
       0.122
       0.236
       0.366
       0.448
       0.440
       0.333
       0.150
      -0.068
      -0.280
      -0.458
      -0.590
      -0.669
      -0.678
      -0.591
      -0.395
      -0.115
       0.185
       0.434
       0.579
       0.608
       0.543
       0.410
       0.233
       0.027
      -0.184
      -0.355
      -0.432
      -0.373
      -0.181
       0.090
       0.352
       0.522
       0.561
       0.484
       0.328
       0.131
      -0.082
      -0.285
      -0.440
      -0.514
      -0.497
      -0.416
      -0.317
      -0.235
      -0.177
      -0.132
      -0.088
      -0.048
      -0.018
       0.002
       0.029
       0.081
       0.161
       0.246
       0.298
       0.286
       0.210
       0.091
      -0.036
      -0.138
      -0.185
      -0.156
      -0.051
       0.092
       0.214
       0.259
       0.212
       0.103
      -0.010
      -0.073
      -0.065
      -0.012
       0.039
       0.047
       0.008
      -0.054
      -0.103
      -0.114
      -0.083
      -0.025
       0.034
       0.066
       0.061
       0.033
       0.012
       0.025
       0.078
       0.153
       0.209
       0.207
       0.123
      -0.032
      -0.219
      -0.386
      -0.495
      -0.538
      -0.528
      -0.483
      -0.407
      -0.298
      -0.152
       0.026
       0.222
       0.412
       0.566
       0.661
       0.687
       0.651
       0.569
       0.459
       0.338
       0.219
       0.107
      -0.007
      -0.133
      -0.280
      -0.439
      -0.587
      -0.688
      -0.709
      -0.631
      -0.462
      -0.241
      -0.010
       0.198
       0.360
       0.455
       0.463
       0.369
       0.180
      -0.068
      -0.308
      -0.464
      -0.488
      -0.384
      -0.204
      -0.010
       0.156
       0.275
       0.344
       0.367
       0.354
       0.314
       0.264
       0.222
       0.203
       0.206
       0.208
       0.173
       0.069
      -0.103
      -0.304
      -0.476
      -0.564
      -0.547
      -0.439
      -0.270
      -0.066
       0.163
       0.403
       0.624
       0.783
       0.840
       0.784
       0.634
       0.423
       0.182
      -0.059
      -0.270
      -0.424
      -0.506
      -0.526
      -0.510
      -0.474
      -0.421
      -0.344
      -0.246
      -0.155
      -0.108
      -0.129
      -0.204
      -0.286
      -0.323
      -0.292
      -0.202
      -0.073
       0.079
       0.248
       0.425
       0.590
       0.715
       0.773
       0.746
       0.633
       0.451
       0.225
      -0.010
      -0.208
      -0.321
      -0.318
      -0.204
      -0.022
       0.167
       0.306
       0.353
       0.283
       0.096
      -0.176
      -0.471
      -0.712
      -0.829
      -0.786
      -0.595
      -0.314
      -0.023
       0.210
       0.351
       0.399
       0.371
       0.287
       0.164
       0.023
      -0.110
      -0.208
      -0.248
      -0.216
      -0.114
       0.034
       0.185
       0.294
       0.335
       0.305
       0.217
       0.089
      -0.052
      -0.168
      -0.228
      -0.219
      -0.153
      -0.058
       0.031
       0.083
       0.079
       0.024
      -0.053
      -0.119
      -0.155
      -0.163
      -0.147
      -0.103
      -0.020
       0.107
       0.263
       0.408
       0.491
       0.473
       0.356
       0.181
       0.006
      -0.125
      -0.202
      -0.237
      -0.246
      -0.229
      -0.180
      -0.098
       0.001
       0.088
       0.133
       0.118
       0.040
      -0.080
      -0.203
      -0.288
      -0.312
      -0.274
      -0.186
      -0.059
       0.089
       0.234
       0.346
       0.399
       0.378
       0.281
       0.123
      -0.057
      -0.206
      -0.273
      -0.235
      -0.107
       0.067
       0.233
       0.353
       0.403
       0.376
       0.271
       0.104
      -0.100
      -0.301
      -0.455
      -0.523
      -0.483
      -0.350
      -0.164
       0.021
       0.171
       0.274
       0.330
       0.336
       0.288
       0.191
       0.066
      -0.054
      -0.136
      -0.163
      -0.140
      -0.091
      -0.050
      -0.030
      -0.017
       0.012
       0.062
       0.110
       0.123
       0.077
      -0.024
      -0.152
      -0.262
      -0.309
      -0.263
      -0.136
       0.023
       0.160
       0.249
       0.302
       0.344
       0.387
       0.425
       0.432
       0.385
       0.274
       0.119
      -0.042
      -0.175
      -0.271
      -0.346
      -0.417
      -0.485
      -0.541
      -0.573
      -0.570
      -0.522
      -0.420
      -0.261
      -0.052
       0.186
       0.425
       0.617
       0.715
       0.685
       0.537
       0.320
       0.096
      -0.081
      -0.179
      -0.192
      -0.133
      -0.043
       0.028
       0.042
      -0.012
      -0.117
      -0.234
      -0.321
      -0.349
      -0.309
      -0.205
      -0.048
       0.144
       0.340
       0.492
       0.565
       0.557
       0.493
       0.396
       0.262
       0.070
      -0.179
      -0.440
      -0.633
      -0.691
      -0.598
      -0.400
      -0.180
      -0.011
       0.077
       0.094
       0.065
       0.016
      -0.033
      -0.065
      -0.072
      -0.060
      -0.051
      -0.065
      -0.107
      -0.159
      -0.184
      -0.140
      -0.010
       0.180
       0.373
       0.522
       0.612
       0.661
       0.683
       0.667
       0.585
       0.424
       0.201
      -0.038
      -0.247
      -0.399
      -0.491
      -0.538
      -0.555
      -0.547
      -0.503
      -0.417
      -0.306
      -0.203
      -0.132
      -0.083
      -0.023
       0.066
       0.174
       0.261
       0.290
       0.248
       0.148
       0.019
      -0.108
      -0.204
      -0.249
      -0.236
      -0.182
      -0.127
      -0.112
      -0.151
      -0.221
      -0.274
      -0.269
      -0.204
      -0.107
      -0.008
       0.082
       0.178
       0.301
       0.453
       0.612
       0.731
       0.768
       0.705
       0.563
       0.394
       0.248
       0.150
       0.100
       0.090
       0.112
       0.150
       0.169
       0.127
       0.009
      -0.167
      -0.356
      -0.517
      -0.631
      -0.697
      -0.722
      -0.714
      -0.670
      -0.579
      -0.445
      -0.298
      -0.190
      -0.160
      -0.200
      -0.252
      -0.246
      -0.144
       0.036
       0.245
       0.435
       0.586
       0.698
       0.765
       0.770
       0.693
       0.535
       0.328
       0.117
      -0.059
      -0.183
      -0.255
      -0.280
      -0.268
      -0.237
      -0.206
      -0.175
      -0.123
      -0.017
       0.158
       0.376
       0.560
       0.616
       0.477
       0.142
      -0.316
      -0.775
      -1.111
      -1.239
      -1.131
      -0.817
      -0.377
       0.085
       0.478
       0.752
       0.902
       0.948
       0.911
       0.801
       0.625
       0.405
       0.183
       0.006
      -0.092
      -0.113
      -0.101
      -0.115
      -0.196
      -0.338
      -0.489
      -0.587
      -0.596
      -0.512
      -0.360
      -0.169
       0.025
       0.191
       0.298
       0.326
       0.273
       0.162
       0.033
      -0.075
      -0.143
      -0.171
      -0.166
      -0.121
      -0.024
       0.119
       0.269
       0.374
       0.392
       0.317
       0.180
       0.033
      -0.075
      -0.129
      -0.150
      -0.171
      -0.204
      -0.231
      -0.220
      -0.161
      -0.075
      -0.003
       0.011
      -0.057
      -0.202
      -0.381
      -0.528
      -0.584
      -0.524
      -0.349
      -0.074
       0.273
       0.644
       0.966
       1.166
       1.201
       1.065
       0.796
       0.447
       0.070
      -0.298
      -0.629
      -0.891
      -1.035
      -1.027
      -0.873
      -0.635
      -0.398
      -0.214
      -0.085
       0.021
       0.132
       0.244
       0.334
       0.372
       0.349
       0.290
       0.254
       0.295
       0.422
       0.587
       0.711
       0.721
       0.582
       0.304
      -0.066
      -0.460
      -0.801
      -1.015
      -1.054
      -0.908
      -0.606
      -0.207
       0.211
       0.566
       0.773
       0.782
       0.597
       0.283
      -0.065
      -0.362
      -0.554
      -0.614
      -0.535
      -0.336
      -0.058
       0.232
       0.466
       0.590
       0.581
       0.448
       0.221
      -0.059
      -0.347
      -0.594
      -0.747
      -0.754
      -0.594
      -0.290
       0.091
       0.454
       0.716
       0.826
       0.780
       0.612
       0.368
       0.091
      -0.186
      -0.424
      -0.578
      -0.606
      -0.496
      -0.281
      -0.029
       0.200
       0.375
       0.490
       0.543
       0.516
       0.396
       0.195
      -0.038
      -0.239
      -0.364
      -0.399
      -0.363
      -0.285
      -0.189
      -0.088
       0.004
       0.066
       0.080
       0.043
      -0.016
      -0.058
      -0.067
      -0.061
      -0.088
      -0.182
      -0.327
      -0.452
      -0.464
      -0.309
      -0.014
       0.324
       0.592
       0.719
       0.704
       0.594
       0.445
       0.293
       0.147
       0.006
      -0.129
      -0.251
      -0.359
      -0.453
      -0.527
      -0.568
      -0.555
      -0.477
      -0.332
      -0.138
       0.074
       0.275
       0.457
       0.620
       0.756
       0.825
       0.780
       0.600
       0.320
       0.022
      -0.199
      -0.279
      -0.205
      -0.031
       0.155
       0.266
       0.254
       0.118
      -0.107
      -0.366
      -0.605
      -0.783
      -0.884
      -0.914
      -0.883
      -0.795
      -0.653
      -0.464
      -0.245
      -0.012
       0.227
       0.466
       0.693
       0.885
       1.013
       1.050
       0.976
       0.792
       0.523
       0.226
      -0.030
      -0.186
      -0.218
      -0.144
      -0.016
       0.108
       0.191
       0.221
       0.203
       0.143
       0.043
      -0.092
      -0.253
      -0.429
      -0.600
      -0.735
      -0.786
      -0.717
      -0.531
      -0.271
      -0.005
       0.208
       0.330
       0.342
       0.246
       0.064
      -0.156
      -0.338
      -0.413
      -0.344
      -0.149
       0.112
       0.370
       0.573
       0.689
       0.698
       0.592
       0.380
       0.092
      -0.221
      -0.500
      -0.689
      -0.739
      -0.621
      -0.337
       0.070
       0.528
       0.945
       1.225
       1.288
       1.096
       0.686
       0.169
      -0.316
      -0.667
      -0.853
      -0.907
      -0.884
      -0.838
      -0.800
      -0.768
      -0.724
      -0.651
      -0.564
      -0.499
      -0.484
      -0.513
      -0.537
      -0.496
      -0.350
      -0.107
       0.184
       0.465
       0.692
       0.848
       0.937
       0.982
       1.012
       1.056
       1.132
       1.233
       1.313
       1.293
       1.095
       0.696
       0.159
      -0.389
      -0.826
      -1.100
      -1.241
      -1.318
      -1.380
      -1.427
      -1.417
      -1.294
      -1.014
      -0.570
       0.004
       0.628
       1.204
       1.638
       1.856
       1.820
       1.534
       1.053
       0.468
      -0.119
      -0.625
      -0.988
      -1.171
      -1.158
      -0.964
      -0.640
      -0.263
       0.079
       0.316
       0.406
       0.343
       0.156
      -0.102
      -0.358
      -0.524
      -0.517
      -0.304
       0.066
       0.471
       0.767
       0.845
       0.670
       0.281
      -0.222
      -0.712
      -1.069
      -1.209
      -1.120
      -0.861
      -0.537
      -0.254
      -0.069
       0.032
       0.121
       0.278
       0.526
       0.817
       1.056
       1.164
       1.117
       0.947
       0.708
       0.439
       0.156
      -0.134
      -0.421
      -0.706
      -1.008
      -1.357
      -1.755
      -2.155
      -2.464
      -2.588
      -2.475
      -2.148
      -1.697
      -1.231
      -0.836
      -0.549
      -0.369
      -0.276
      -0.239
      -0.216
      -0.153
      -0.009
       0.236
       0.580
       1.005
       1.483
       1.965
       2.383
       2.664
       2.747
       2.592
       2.186
       1.537
       0.681
      -0.314
      -1.362
      -2.374
      -3.277
      -4.021
      -4.577
      -4.932
      -5.082
      -5.021
      -4.743
      -4.257
      -3.601
      -2.851
      -2.097
      -1.413
      -0.840
      -0.389
      -0.045
       0.227
       0.488
       0.820
       1.286
       1.908
       2.659
       3.505
       4.433
       5.457
       6.580
       7.767
       8.917
       9.880
      10.490
      10.614
      10.174
       9.159
       7.617
       5.672
       3.521
       1.420
      -0.375
      -1.674
      -2.404
      -2.610
      -2.427
      -2.042
      -1.643
      -1.401
      -1.441
      -1.813
      -2.474
      -3.299
      -4.128
      -4.817
      -5.257
      -5.371
      -5.114
      -4.491
      -3.571
      -2.474
      -1.339
      -0.279
       0.640
       1.389
       1.950
       2.281
       2.333
       2.088
       1.581
       0.878
       0.037
      -0.893
      -1.848
      -2.726
      -3.403
      -3.769
      -3.761
      -3.390
      -2.711
      -1.769
      -0.550
       0.986
       2.813
       4.758
       6.528
       7.811
       8.386
       8.153
       7.106
       5.282
       2.778
      -0.206
      -3.328
      -6.156
      -8.287
      -9.454
      -9.572
      -8.686
      -6.903
      -4.372
      -1.334
       1.847
       4.739
       6.980
       8.368
       8.849
       8.422
       7.075
       4.829
       1.837
      -1.533
      -4.733
      -7.218
      -8.649
      -8.982
      -8.371
      -6.997
      -4.987
      -2.490
       0.207
       2.666
       4.455
       5.322
       5.239
       4.308
       2.655
       0.430
      -2.117
      -4.606
      -6.607
      -7.810
      -8.134
      -7.705
      -6.716
      -5.278
      -3.403
      -1.120
       1.385
       3.755
       5.596
       6.650
       6.869
       6.348
       5.226
       3.673
       1.966
       0.513
      -0.273
      -0.194
       0.599
       1.663
       2.509
       2.845
       2.668
       2.151
       1.463
       0.665
      -0.274
      -1.376
      -2.553
      -3.604
      -4.304
      -4.501
      -4.145
      -3.245
      -1.834
       0.002
       2.047
       3.934
       5.235
       5.627
       5.015
       3.517
       1.382
      -1.095
      -3.598
      -5.792
      -7.344
      -7.982
      -7.579
      -6.214
      -4.133
      -1.648
       0.957
       3.447
       5.600
       7.170
       7.906
       7.622
       6.286
       4.061
       1.286
      -1.595
      -4.120
      -5.891
      -6.627
      -6.211
      -4.707
      -2.365
       0.405
       3.100
       5.250
       6.556
       6.946
       6.543
       5.551
       4.174
       2.585
       0.935
      -0.648
      -2.066
      -3.261
      -4.217
      -4.932
      -5.390
      -5.533
      -5.280
      -4.598
      -3.557
      -2.316
      -1.063
       0.054
       0.949
       1.592
       2.001
       2.224
       2.304
       2.259
       2.083
       1.779
       1.381
       0.948
       0.538
       0.202
      -0.010
      -0.051
       0.096
       0.371
       0.627
       0.688
       0.449
      -0.040
      -0.577
      -0.916
      -0.886
      -0.465
       0.232
       1.030
       1.758
       2.278
       2.488
       2.319
       1.764
       0.892
      -0.152
      -1.207
      -2.150
      -2.919
      -3.492
      -3.835
      -3.888
      -3.575
      -2.861
      -1.789
      -0.484
       0.880
       2.130
       3.102
       3.640
       3.597
       2.903
       1.631
       0.016
      -1.602
      -2.897
      -3.655
      -3.810
      -3.417
      -2.589
      -1.450
      -0.123
       1.258
       2.531
       3.528
       4.108
       4.193
       3.763
       2.856
       1.555
       0.011
      -1.551
      -2.871
      -3.720
      -3.967
      -3.587
      -2.635
      -1.225
       0.457
       2.142
       3.520
       4.348
       4.531
       4.136
       3.330
       2.309
       1.263
       0.356
      -0.288
      -0.612
      -0.649
      -0.507
      -0.328
      -0.222
      -0.219
      -0.260
      -0.246
      -0.126
       0.036
       0.086
      -0.124
      -0.631
      -1.338
      -2.075
      -2.672
      -3.005
      -2.994
      -2.616
      -1.925
      -1.074
      -0.281
       0.261
       0.480
       0.450
       0.333
       0.266
       0.295
       0.378
       0.447
       0.467
       0.453
       0.444
       0.456
       0.481
       0.498
       0.512
       0.552
       0.657
       0.839
       1.052
       1.204
       1.198
       0.980
       0.576
       0.068
      -0.459
      -0.955
      -1.402
      -1.785
      -2.073
      -2.226
      -2.198
      -1.972
      -1.578
      -1.108
      -0.673
      -0.346
      -0.120
       0.072
       0.294
       0.566
       0.867
       1.162
       1.431
       1.670
       1.872
       2.012
       2.042
       1.917
       1.621
       1.176
       0.629
       0.025
      -0.591
      -1.171
      -1.659
      -1.999
      -2.154
      -2.110
      -1.870
      -1.449
      -0.884
      -0.246
       0.369
       0.866
       1.181
       1.295
       1.238
       1.077
       0.891
       0.739
       0.648
       0.616
       0.624
       0.643
       0.635
       0.563
       0.414
       0.206
      -0.032
      -0.286
      -0.564
      -0.872
      -1.195
      -1.494
      -1.714
      -1.802
      -1.721
      -1.465
      -1.062
      -0.550
       0.030
       0.629
       1.180
       1.597
       1.808
       1.781
       1.533
       1.114
       0.592
       0.043
      -0.459
      -0.847
      -1.072
      -1.109
      -0.960
      -0.665
      -0.304
       0.023
       0.246
       0.370
       0.478
       0.680
       1.032
       1.484
       1.892
       2.075
       1.892
       1.302
       0.386
      -0.682
      -1.687
      -2.422
      -2.739
      -2.575
      -1.975
      -1.093
      -0.146
       0.652
       1.153
       1.308
       1.155
       0.781
       0.292
      -0.201
      -0.576
      -0.728
      -0.600
      -0.224
       0.285
       0.790
       1.198
       1.490
       1.684
       1.784
       1.765
       1.589
       1.238
