Origin Time       29/08/2013 10:13:21
Lat.              31.4 N	
Long.             76.1 E	
Depth (Km)         10.0
Magnitude         4.7
 Region           HIMACHAL-PUNJAB-(HOSHIARPUR)-BORDER                              
 Above details taken from IMD 
   
Station Code      NKD
Station Lat.       31.125
Station Long.      75.487
Station Height(m)    0.0
Site Class        C   Vs30 between 200 m/sec to 375 m/sec *  
Record Time       29.08.2013 10:13:15.939
Sampling Rate     200. Hz
 Record Duration  102.430 Sec.
 Direction         Vert. (Up positive)
Max. Acceleration    -11.634 cm/sec**2
     
  * For reference see Site Classification link of website 
     
 Base Line Corrected and Low Pass Filtered (Cut Off at 35 Hz) Time History
 Acceleration data in cm/sec**2
    
[...]
      -0.223
       0.487
       1.057
       1.560
       2.045
       2.378
       2.291
       1.628
       0.556
      -0.476
      -1.032
      -0.979
      -0.547
      -0.116
       0.064
      -0.012
      -0.190
      -0.310
      -0.292
      -0.116
       0.226
       0.711
       1.217
       1.513
       1.362
       0.708
      -0.242
      -1.109
      -1.569
      -1.548
      -1.247
      -0.981
      -0.936
      -1.051
      -1.080
      -0.789
      -0.125
       0.733
       1.473
       1.805
       1.602
       0.952
       0.101
      -0.653
      -1.083
      -1.103
      -0.785
      -0.313
       0.111
       0.363
       0.432
       0.395
       0.355
       0.392
       0.515
       0.632
       0.594
       0.317
      -0.106
      -0.432
      -0.444
      -0.140
       0.258
       0.459
       0.315
      -0.086
      -0.492
      -0.654
      -0.489
      -0.122
       0.203
       0.288
       0.108
      -0.191
      -0.406
      -0.421
      -0.265
      -0.066
       0.051
       0.031
      -0.108
      -0.301
      -0.465
      -0.491
      -0.271
       0.232
       0.889
       1.400
       1.435
       0.873
      -0.065
      -0.915
      -1.280
      -1.083
      -0.577
      -0.115
       0.100
       0.084
      -0.026
      -0.134
      -0.239
      -0.354
      -0.393
      -0.163
       0.467
       1.369
       2.127
       2.266
       1.582
       0.315
      -0.978
      -1.750
      -1.796
      -1.344
      -0.851
      -0.642
      -0.663
      -0.560
      -0.021
       0.918
       1.870
       2.380
       2.239
       1.560
       0.625
      -0.331
      -1.195
      -1.896
      -2.325
      -2.384
      -2.097
      -1.633
      -1.163
      -0.709
      -0.147
       0.631
       1.547
       2.330
       2.669
       2.401
       1.602
       0.560
      -0.353
      -0.833
      -0.782
      -0.374
       0.023
       0.061
      -0.358
      -0.990
      -1.390
      -1.213
      -0.456
       0.537
       1.312
       1.586
       1.362
       0.816
       0.129
      -0.559
      -1.081
      -1.224
      -0.882
      -0.241
       0.256
       0.214
      -0.390
      -1.161
      -1.558
      -1.274
      -0.426
       0.552
       1.230
       1.440
       1.308
       1.072
       0.872
       0.703
       0.501
       0.233
      -0.083
      -0.401
      -0.656
      -0.760
      -0.638
      -0.291
       0.183
       0.629
       0.909
       0.938
       0.693
       0.228
      -0.310
      -0.710
      -0.801
      -0.566
      -0.158
       0.192
       0.330
       0.256
       0.079
      -0.088
      -0.199
      -0.264
      -0.310
      -0.341
      -0.351
      -0.347
      -0.327
      -0.235
       0.030
       0.507
       1.059
       1.394
       1.263
       0.648
      -0.228
      -1.071
      -1.683
      -1.993
      -1.984
      -1.659
      -1.071
      -0.359
       0.289
       0.727
       0.935
       1.001
       1.035
       1.063
       1.000
       0.740
       0.276
      -0.244
      -0.614
      -0.707
      -0.547
      -0.260
       0.031
       0.249
       0.341
       0.260
       0.003
      -0.340
      -0.604
      -0.647
      -0.434
      -0.046
       0.397
       0.788
       1.051
       1.127
       0.986
       0.636
       0.132
      -0.432
      -0.926
      -1.207
      -1.165
      -0.773
      -0.134
       0.549
       1.045
       1.192
       0.974
       0.516
       0.001
      -0.439
      -0.748
      -0.895
      -0.819
      -0.467
       0.099
       0.652
       0.914
       0.777
       0.403
       0.100
       0.058
       0.228
       0.433
       0.558
       0.600
       0.573
       0.418
       0.067
      -0.440
      -0.923
      -1.178
      -1.130
      -0.898
      -0.712
      -0.743
      -0.968
      -1.151
      -1.005
      -0.418
       0.434
       1.195
       1.577
       1.521
       1.164
       0.659
       0.061
      -0.622
      -1.308
      -1.772
      -1.763
      -1.192
      -0.254
       0.661
       1.201
       1.287
       1.120
       0.968
       0.920
       0.857
       0.635
       0.251
      -0.188
      -0.615
      -1.052
      -1.488
      -1.755
      -1.586
      -0.846
       0.293
       1.389
       1.986
       1.897
       1.298
       0.578
       0.062
      -0.171
      -0.229
      -0.226
      -0.172
      -0.042
       0.116
       0.157
      -0.023
      -0.363
      -0.634
      -0.604
      -0.248
       0.176
       0.286
      -0.117
      -0.821
      -1.305
      -1.116
      -0.244
       0.841
       1.525
       1.486
       0.869
       0.116
      -0.371
      -0.439
      -0.180
       0.213
       0.570
       0.768
       0.710
       0.333
      -0.323
      -1.060
      -1.583
      -1.668
      -1.323
      -0.792
      -0.373
      -0.195
      -0.148
       0.001
       0.375
       0.858
       1.155
       1.031
       0.523
      -0.067
      -0.407
      -0.383
      -0.117
       0.213
       0.556
       0.969
       1.454
       1.849
       1.899
       1.469
       0.700
      -0.047
      -0.442
      -0.446
      -0.345
      -0.500
      -1.013
      -1.612
      -1.871
      -1.563
      -0.839
      -0.098
       0.307
       0.273
      -0.076
      -0.524
      -0.896
      -1.088
      -1.048
      -0.768
      -0.300
       0.235
       0.676
       0.891
       0.860
       0.706
       0.638
       0.780
       1.046
       1.152
       0.809
      -0.044
      -1.129
      -1.955
      -2.109
      -1.533
      -0.556
       0.331
       0.796
       0.813
       0.550
       0.166
      -0.250
      -0.602
      -0.744
      -0.584
      -0.210
       0.161
       0.391
       0.563
       0.872
       1.380
       1.898
       2.125
       1.910
       1.367
       0.749
       0.228
      -0.201
      -0.625
      -1.052
      -1.347
      -1.333
      -0.956
      -0.373
       0.135
       0.351
       0.241
      -0.077
      -0.445
      -0.722
      -0.762
      -0.428
       0.283
       1.124
       1.646
       1.441
       0.440
      -0.973
      -2.145
      -2.528
      -1.998
      -0.909
       0.163
       0.776
       0.850
       0.621
       0.416
       0.424
       0.611
       0.796
       0.801
       0.577
       0.228
      -0.077
      -0.221
      -0.209
      -0.142
      -0.139
      -0.274
      -0.545
      -0.851
      -0.997
      -0.781
      -0.134
       0.748
       1.452
       1.559
       0.919
      -0.231
      -1.384
      -2.020
      -1.867
      -1.020
       0.112
       1.017
       1.351
       1.108
       0.593
       0.199
       0.139
       0.331
       0.488
       0.356
      -0.090
      -0.625
      -0.930
      -0.817
      -0.327
       0.332
       0.925
       1.285
       1.328
       1.050
       0.526
      -0.092
      -0.631
      -0.980
      -1.143
      -1.226
      -1.341
      -1.493
      -1.514
      -1.161
      -0.315
       0.837
       1.842
       2.244
       1.884
       0.993
       0.007
      -0.715
      -1.058
      -1.105
      -0.995
      -0.809
      -0.564
      -0.268
       0.036
       0.294
       0.507
       0.736
       1.019
       1.272
       1.327
       1.105
       0.742
       0.482
       0.422
       0.378
       0.052
      -0.660
      -1.499
      -2.007
      -1.852
      -1.084
      -0.105
       0.608
       0.821
       0.646
       0.365
       0.171
       0.071
       0.022
       0.075
       0.328
       0.750
       1.096
       1.069
       0.568
      -0.202
      -0.863
      -1.109
      -0.883
      -0.388
       0.071
       0.316
       0.412
       0.553
       0.788
       0.868
       0.405
      -0.731
      -2.161
      -3.174
      -3.226
      -2.330
      -1.002
       0.164
       0.889
       1.272
       1.547
       1.806
       1.918
       1.684
       1.054
       0.227
      -0.465
      -0.784
      -0.744
      -0.563
      -0.447
      -0.403
      -0.259
       0.135
       0.717
       1.232
       1.427
       1.251
       0.872
       0.534
       0.377
       0.364
       0.341
       0.175
      -0.140
      -0.493
      -0.755
      -0.895
      -0.977
      -1.053
      -1.047
      -0.787
      -0.164
       0.721
       1.552
       1.955
       1.723
       0.957
       0.029
      -0.642
      -0.866
      -0.800
      -0.790
      -1.057
      -1.489
      -1.717
      -1.418
      -0.583
       0.472
       1.323
       1.688
       1.516
       0.924
       0.086
      -0.807
      -1.540
      -1.908
      -1.799
      -1.291
      -0.655
      -0.229
      -0.224
      -0.574
      -0.955
      -0.973
      -0.406
       0.655
       1.853
       2.760
       3.099
       2.862
       2.260
       1.538
       0.831
       0.157
      -0.449
      -0.856
      -0.902
      -0.573
      -0.078
       0.265
       0.270
       0.018
      -0.239
      -0.312
      -0.227
      -0.168
      -0.282
      -0.556
      -0.853
      -1.055
      -1.169
      -1.292
      -1.476
      -1.621
      -1.517
      -1.016
      -0.192
       0.667
       1.248
       1.431
       1.348
       1.229
       1.199
       1.175
       0.952
       0.411
      -0.307
      -0.817
      -0.743
      -0.030
       0.961
       1.691
       1.832
       1.467
       0.966
       0.646
       0.556
       0.505
       0.290
      -0.132
      -0.647
      -1.130
      -1.553
      -1.963
      -2.361
      -2.651
      -2.727
      -2.611
      -2.478
      -2.533
      -2.838
      -3.229
      -3.412
      -3.164
      -2.510
      -1.749
      -1.290
      -1.414
      -2.091
      -2.998
      -3.708
      -3.912
      -3.495
      -2.469
      -0.869
       1.231
       3.613
       5.860
       7.476
       8.132
       7.850
       6.982
       5.978
       5.113
       4.382
       3.622
       2.752
       1.914
       1.407
       1.474
       2.111
       3.019
       3.732
       3.816
       3.063
       1.569
      -0.335
      -2.228
      -3.741
      -4.656
      -4.941
      -4.737
      -4.274
      -3.740
      -3.165
      -2.409
      -1.290
       0.229
       1.902
       3.260
       3.863
       3.594
       2.773
       1.952
       1.523
       1.450
       1.357
       0.865
      -0.133
      -1.462
      -2.842
      -4.010
      -4.701
      -4.634
      -3.646
      -1.916
      -0.024
       1.311
       1.641
       1.037
       0.004
      -0.880
      -1.304
      -1.341
      -1.297
      -1.419
      -1.695
      -1.856
      -1.596
      -0.833
       0.184
       1.022
       1.355
       1.162
       0.687
       0.215
      -0.122
      -0.358
      -0.570
      -0.771
      -0.930
      -1.052
      -1.186
      -1.320
      -1.302
      -0.903
      -0.029
       1.105
       2.051
       2.431
       2.250
       1.900
       1.829
       2.141
       2.487
       2.351
       1.467
       0.029
      -1.414
      -2.254
      -2.115
      -1.007
       0.674
       2.305
       3.289
       3.315
       2.491
       1.277
       0.237
      -0.268
      -0.267
      -0.133
      -0.311
      -1.017
      -2.108
      -3.197
      -3.911
      -4.094
      -3.833
      -3.328
      -2.743
      -2.142
      -1.542
      -0.984
      -0.551
      -0.300
      -0.188
      -0.086
       0.110
       0.363
       0.498
       0.353
      -0.058
      -0.518
      -0.736
      -0.493
       0.318
       1.708
       3.552
       5.497
       6.945
       7.249
       6.068
       3.637
       0.723
      -1.745
      -3.123
      -3.304
      -2.641
      -1.659
      -0.775
      -0.152
       0.281
       0.696
       1.223
       1.828
       2.292
       2.306
       1.654
       0.414
      -1.005
      -2.061
      -2.436
      -2.261
      -1.980
      -1.963
      -2.198
      -2.352
      -2.098
      -1.368
      -0.358
       0.648
       1.398
       1.681
       1.323
       0.302
      -1.095
      -2.252
      -2.477
      -1.423
       0.612
       2.759
       4.037
       3.905
       2.548
       0.705
      -0.817
      -1.589
      -1.670
      -1.355
      -0.882
      -0.348
       0.161
       0.453
       0.319
      -0.248
      -0.974
      -1.467
      -1.532
      -1.326
      -1.230
      -1.524
      -2.127
      -2.648
      -2.720
      -2.333
      -1.840
      -1.609
      -1.647
      -1.600
      -1.124
      -0.275
       0.482
       0.666
       0.175
      -0.665
      -1.392
      -1.723
      -1.632
      -1.195
      -0.455
       0.559
       1.715
       2.757
       3.435
       3.694
       3.725
       3.804
       4.039
       4.280
       4.299
       4.068
       3.818
       3.783
       3.885
       3.722
       2.912
       1.483
      -0.101
      -1.318
      -2.006
      -2.440
      -2.991
      -3.691
      -4.108
      -3.656
      -2.098
       0.171
       2.316
       3.599
       3.791
       3.140
       1.992
       0.516
      -1.204
      -2.910
      -4.116
      -4.411
      -3.778
      -2.599
      -1.338
      -0.223
       0.807
       1.884
       2.965
       3.751
       3.847
       3.010
       1.306
      -0.954
      -3.404
      -5.749
      -7.706
      -8.888
      -8.833
      -7.255
      -4.287
      -0.489
       3.399
       6.741
       9.133
      10.380
      10.410
       9.230
       6.941
       3.777
       0.127
      -3.536
      -6.789
      -9.348
     -11.031
     -11.634
     -10.909
      -8.719
      -5.251
      -1.056
       3.148
       6.752
       9.388
      10.864
      11.049
       9.857
       7.325
       3.720
      -0.435
      -4.408
      -7.421
      -8.870
      -8.533
      -6.632
      -3.741
      -0.590
       2.168
       4.137
       5.234
       5.578
       5.296
       4.412
       2.893
       0.831
      -1.444
      -3.435
      -4.723
      -5.184
      -4.974
      -4.293
      -3.153
      -1.429
       0.842
       3.234
       5.040
       5.678
       5.056
       3.593
       1.920
       0.538
      -0.355
      -0.832
      -1.126
      -1.504
      -2.163
      -3.108
      -4.082
      -4.653
      -4.439
      -3.321
      -1.499
       0.648
       2.714
       4.323
       5.127
       4.886
       3.652
       1.873
       0.226
      -0.791
      -1.152
      -1.197
      -1.227
      -1.221
      -0.940
      -0.269
       0.561
       1.119
       1.133
       0.709
       0.219
      -0.025
      -0.004
       0.043
      -0.139
      -0.602
      -1.164
      -1.578
      -1.733
      -1.673
      -1.458
      -1.062
      -0.440
       0.300
       0.858
       0.952
       0.577
       0.074
      -0.088
       0.372
       1.347
       2.392
       2.983
       2.797
       1.867
       0.521
      -0.801
      -1.732
      -2.084
      -1.879
      -1.341
      -0.806
      -0.569
      -0.739
      -1.202
      -1.688
      -1.868
      -1.455
      -0.320
       1.358
       3.062
       4.121
       4.081
       2.980
       1.320
      -0.250
      -1.309
      -1.844
      -2.158
      -2.580
      -3.173
      -3.659
      -3.660
      -3.047
      -2.103
      -1.317
      -0.979
      -0.922
      -0.664
       0.173
       1.527
       2.925
       3.830
       4.012
       3.632
       3.012
       2.360
       1.707
       1.063
       0.564
       0.400
       0.581
       0.816
       0.683
      -0.017
      -1.030
      -1.792
      -1.847
      -1.198
      -0.301
       0.298
       0.375
       0.136
      -0.040
       0.013
       0.089
      -0.156
      -0.778
      -1.350
      -1.251
      -0.246
       1.175
       2.059
       1.693
       0.154
      -1.780
      -3.236
      -3.826
      -3.690
      -3.084
      -2.055
      -0.534
       1.293
       2.837
       3.418
       2.790
       1.380
       0.008
      -0.653
      -0.461
       0.231
       0.914
       1.297
       1.421
       1.477
       1.520
       1.376
       0.849
      -0.020
      -0.940
      -1.622
      -2.023
      -2.310
      -2.601
      -2.789
      -2.637
      -2.021
      -1.064
      -0.036
       0.829
       1.457
       1.900
       2.229
       2.411
       2.277
       1.611
       0.369
      -1.166
      -2.424
      -2.843
      -2.209
      -0.791
       0.832
       2.119
       2.827
       3.036
       2.963
       2.749
       2.361
       1.683
       0.693
      -0.446
      -1.467
      -2.183
      -2.582
      -2.762
      -2.824
      -2.804
      -2.686
      -2.401
      -1.845
      -0.950
       0.199
       1.319
       2.067
       2.236
       1.867
       1.190
       0.499
       0.062
       0.046
       0.418
       0.903
       1.103
       0.764
      -0.020
      -0.840
      -1.240
      -1.003
      -0.274
       0.549
       1.064
       1.107
       0.828
       0.543
       0.453
       0.487
       0.375
      -0.114
      -0.968
      -1.904
      -2.512
      -2.476
      -1.770
      -0.697
       0.278
       0.813
       0.876
       0.687
       0.479
       0.330
       0.186
       0.021
      -0.065
       0.099
       0.595
       1.277
       1.796
       1.785
       1.107
      -0.017
      -1.129
      -1.814
      -1.943
      -1.664
      -1.218
      -0.740
      -0.229
       0.373
       1.101
       1.934
       2.772
       3.407
       3.566
       3.038
       1.846
       0.286
      -1.194
      -2.239
      -2.766
      -2.970
      -3.103
      -3.213
      -3.064
      -2.343
      -1.000
       0.613
       1.935
       2.560
       2.450
       1.863
       1.113
       0.378
      -0.342
      -1.131
      -2.006
      -2.802
      -3.180
      -2.815
      -1.649
       0.001
       1.586
       2.627
       2.955
       2.742
       2.327
       1.979
       1.743
       1.449
       0.850
      -0.162
      -1.436
      -2.620
      -3.369
      -3.514
      -3.055
      -2.051
      -0.552
       1.318
       3.241
       4.723
       5.296
       4.785
       3.425
       1.741
       0.244
      -0.825
      -1.521
      -2.016
      -2.392
      -2.581
      -2.464
      -1.985
      -1.202
      -0.257
       0.670
       1.410
       1.848
       1.942
       1.692
       1.123
       0.302
      -0.624
      -1.467
      -2.091
      -2.476
      -2.675
      -2.718
      -2.599
      -2.352
      -2.103
      -2.013
      -2.154
      -2.458
      -2.752
      -2.832
      -2.519
      -1.750
      -0.689
       0.281
       0.758
       0.613
       0.091
      -0.402
      -0.621
      -0.599
      -0.489
      -0.330
       0.005
       0.681
       1.750
       3.092
       4.455
       5.542
       6.117
       6.081
       5.484
       4.480
       3.263
       2.024
       0.904
      -0.059
      -0.933
      -1.810
      -2.654
      -3.244
      -3.302
      -2.707
      -1.594
      -0.251
       1.060
       2.200
       3.111
       3.737
       4.020
       3.938
       3.533
       2.886
       2.089
       1.227
       0.357
      -0.512
      -1.402
      -2.308
      -3.151
      -3.798
      -4.138
      -4.121
      -3.750
      -3.045
      -2.055
      -0.896
       0.230
       1.075
       1.411
       1.110
       0.201
      -1.083
      -2.347
