Origin Time       07/09/2011 17:58:18
Lat.              28.6 N	
Long.             77.0 E	
Depth (Km)          8.0
Magnitude         4.2
 Region           DELHI-HARYANA(SONIPAT)                                           
 Above details taken from IMD 
   
Station Code      NOI
Station Lat.       28.507
Station Long.      77.479
Station Height(m)  201.0
Site Class        C   Vs30 between 200 m/sec to 375 m/sec *  
Record Time       07.09.2011 17:58:14.809
Sampling Rate     200. Hz
 Record Duration   65.540 Sec.
 Direction         Vert. (Up positive)
Max. Acceleration      7.419 cm/sec**2
     
  * For reference see Site Classification link of website 
     
 Base Line Corrected and Low Pass Filtered (Cut Off at 35 Hz) Time History
 Acceleration data in cm/sec**2
    
[...]
       0.018
       0.010
       0.002
      -0.003
      -0.003
      -0.002
      -0.002
      -0.003
       0.000
       0.004
       0.010
       0.017
       0.025
       0.028
       0.019
      -0.002
      -0.020
      -0.025
      -0.018
      -0.011
      -0.011
      -0.021
      -0.033
      -0.036
      -0.027
      -0.014
      -0.006
      -0.006
      -0.001
       0.015
       0.037
       0.050
       0.049
       0.037
       0.022
       0.009
       0.002
       0.001
       0.004
       0.004
       0.002
       0.001
       0.001
      -0.001
      -0.007
      -0.009
      -0.008
      -0.009
      -0.013
      -0.017
      -0.015
      -0.010
      -0.005
      -0.003
      -0.001
      -0.001
      -0.003
      -0.006
      -0.007
      -0.005
      -0.004
      -0.004
      -0.005
      -0.007
      -0.009
      -0.010
      -0.005
       0.005
       0.012
       0.012
       0.006
       0.004
       0.010
       0.018
       0.022
       0.018
       0.010
       0.004
       0.004
       0.009
       0.013
       0.012
       0.006
      -0.002
      -0.009
      -0.013
      -0.014
      -0.015
      -0.013
      -0.007
       0.007
       0.023
       0.031
       0.023
       0.004
      -0.010
      -0.009
       0.000
       0.003
      -0.007
      -0.024
      -0.035
      -0.035
      -0.025
      -0.016
      -0.013
      -0.015
      -0.012
       0.003
       0.021
       0.030
       0.025
       0.011
       0.003
       0.006
       0.015
       0.020
       0.012
      -0.003
      -0.015
      -0.015
      -0.006
       0.004
       0.012
       0.019
       0.028
       0.035
       0.039
       0.039
       0.034
       0.025
       0.018
       0.015
       0.015
       0.011
       0.001
      -0.012
      -0.023
      -0.029
      -0.030
      -0.029
      -0.026
      -0.021
      -0.012
       0.001
       0.018
       0.031
       0.034
       0.025
       0.014
       0.008
       0.006
       0.003
      -0.005
      -0.012
      -0.012
      -0.006
       0.001
       0.002
      -0.001
       0.002
       0.017
       0.036
       0.044
       0.034
       0.014
      -0.001
      -0.003
       0.005
       0.008
       0.001
      -0.012
      -0.023
      -0.024
      -0.019
      -0.012
      -0.006
       0.000
       0.011
       0.022
       0.025
       0.017
       0.001
      -0.015
      -0.028
      -0.037
      -0.044
      -0.047
      -0.046
      -0.042
      -0.034
      -0.019
       0.001
       0.023
       0.033
       0.029
       0.019
       0.023
       0.050
       0.088
       0.114
       0.121
       0.123
       0.142
       0.189
       0.266
       0.370
       0.504
       0.666
       0.842
       0.991
       1.064
       1.029
       0.880
       0.628
       0.276
      -0.189
      -0.762
      -1.395
      -2.002
      -2.494
      -2.813
      -2.926
      -2.801
      -2.388
      -1.644
      -0.591
       0.651
       1.883
       2.872
       3.390
       3.251
       2.379
       0.896
      -0.866
      -2.471
      -3.539
      -3.848
      -3.336
      -2.063
      -0.209
       1.904
       3.849
       5.216
       5.758
       5.443
       4.361
       2.602
       0.268
      -2.363
      -4.747
      -6.233
      -6.408
      -5.310
      -3.334
      -0.992
       1.259
       3.040
       4.067
       4.208
       3.493
       2.082
       0.260
      -1.541
      -2.801
      -3.113
      -2.393
      -0.948
       0.657
       1.883
       2.455
       2.431
       2.044
       1.469
       0.720
      -0.235
      -1.302
      -2.244
      -2.817
      -2.885
      -2.419
      -1.466
      -0.191
       1.071
       1.916
       2.101
       1.699
       1.015
       0.353
      -0.179
      -0.642
      -1.059
      -1.266
      -1.053
      -0.441
       0.247
       0.638
       0.617
       0.369
       0.144
       0.039
       0.000
      -0.017
       0.048
       0.284
       0.658
       0.994
       1.130
       1.058
       0.876
       0.627
       0.251
      -0.274
      -0.806
      -1.136
      -1.174
      -0.985
      -0.645
      -0.158
       0.460
       1.083
       1.524
       1.680
       1.573
       1.254
       0.702
      -0.158
      -1.345
      -2.704
      -3.857
      -4.335
      -3.884
      -2.658
      -1.090
       0.440
       1.819
       3.108
       4.274
       5.031
       4.942
       3.725
       1.545
      -0.966
      -3.013
      -4.093
      -4.225
      -3.765
      -3.013
      -2.016
      -0.730
       0.716
       1.974
       2.710
       2.850
       2.593
       2.185
       1.686
       0.953
      -0.114
      -1.315
      -2.195
      -2.400
      -1.978
      -1.288
      -0.613
       0.046
       0.770
       1.402
       1.575
       1.066
       0.069
      -0.918
      -1.470
      -1.463
      -1.029
      -0.388
       0.273
       0.833
       1.237
       1.473
       1.539
       1.411
       1.058
       0.509
      -0.130
      -0.735
      -1.243
      -1.637
      -1.842
      -1.696
      -1.085
      -0.115
       0.878
       1.536
       1.705
       1.465
       0.981
       0.353
      -0.410
      -1.285
      -2.118
      -2.626
      -2.534
      -1.759
      -0.526
       0.730
       1.643
       2.129
       2.352
       2.477
       2.487
       2.218
       1.560
       0.602
      -0.397
      -1.179
      -1.631
      -1.809
      -1.837
      -1.789
      -1.641
      -1.324
      -0.824
      -0.238
       0.259
       0.555
       0.697
       0.818
       0.951
       0.984
       0.822
       0.565
       0.442
       0.547
       0.683
       0.540
       0.038
      -0.532
      -0.750
      -0.477
      -0.001
       0.228
       0.003
      -0.497
      -0.910
      -0.999
      -0.780
      -0.414
      -0.056
       0.230
       0.474
       0.706
       0.857
       0.798
       0.503
       0.123
      -0.149
      -0.272
      -0.367
      -0.520
      -0.633
      -0.505
      -0.073
       0.445
       0.672
       0.359
      -0.388
      -1.144
      -1.445
      -1.119
      -0.403
       0.291
       0.726
       0.964
       1.164
       1.322
       1.280
       0.947
       0.444
      -0.014
      -0.361
      -0.728
      -1.186
      -1.525
      -1.407
      -0.759
       0.060
       0.561
       0.561
       0.306
       0.180
       0.321
       0.510
       0.441
       0.075
      -0.282
      -0.252
       0.257
       0.930
       1.279
       1.057
       0.459
      -0.091
      -0.367
      -0.512
      -0.784
      -1.192
      -1.440
      -1.272
      -0.780
      -0.297
      -0.007
       0.237
       0.650
       1.157
       1.389
       1.066
       0.334
      -0.330
      -0.555
      -0.401
      -0.262
      -0.455
      -0.905
      -1.229
      -1.099
      -0.511
       0.237
       0.818
       1.110
       1.195
       1.168
       0.983
       0.523
      -0.178
      -0.824
      -1.066
      -0.827
      -0.357
       0.064
       0.378
       0.679
       0.961
       1.024
       0.648
      -0.153
      -1.073
      -1.705
      -1.786
      -1.315
      -0.496
       0.363
       0.978
       1.242
       1.276
       1.288
       1.344
       1.286
       0.926
       0.295
      -0.354
      -0.802
      -1.077
      -1.353
      -1.683
      -1.887
      -1.710
      -1.044
      -0.016
       1.090
       1.934
       2.226
       1.826
       0.830
      -0.420
      -1.476
      -1.999
      -1.902
      -1.335
      -0.551
       0.208
       0.761
       1.035
       1.112
       1.181
       1.337
       1.459
       1.296
       0.703
      -0.193
      -1.038
      -1.505
      -1.547
      -1.389
      -1.229
      -0.985
      -0.413
       0.536
       1.527
       2.068
       1.898
       1.176
       0.311
      -0.327
      -0.609
      -0.652
      -0.658
      -0.700
      -0.658
      -0.388
       0.045
       0.383
       0.449
       0.352
       0.330
       0.455
       0.552
       0.382
      -0.144
      -0.880
      -1.520
      -1.785
      -1.604
      -1.137
      -0.605
      -0.102
       0.409
       0.934
       1.377
       1.626
       1.641
       1.420
       0.960
       0.283
      -0.495
      -1.166
      -1.514
      -1.446
      -1.030
      -0.453
       0.070
       0.373
       0.414
       0.292
       0.167
       0.142
       0.195
       0.236
       0.242
       0.308
       0.546
       0.915
       1.191
       1.102
       0.555
      -0.265
      -0.998
      -1.338
      -1.224
      -0.871
      -0.587
      -0.527
      -0.620
      -0.706
      -0.698
      -0.598
      -0.398
      -0.032
       0.536
       1.179
       1.636
       1.720
       1.484
       1.185
       1.066
       1.159
       1.272
       1.117
       0.513
      -0.471
      -1.549
      -2.418
      -2.945
      -3.140
      -3.012
      -2.522
      -1.693
      -0.693
       0.284
       1.164
       1.949
       2.535
       2.734
       2.506
       2.087
       1.790
       1.687
       1.542
       1.048
       0.116
      -1.022
      -1.958
      -2.377
      -2.263
      -1.867
      -1.486
      -1.284
      -1.242
      -1.210
      -1.048
      -0.747
      -0.370
       0.102
       0.754
       1.558
       2.279
       2.634
       2.552
       2.202
       1.762
       1.206
       0.410
      -0.568
      -1.396
      -1.714
      -1.477
      -1.039
      -0.850
      -1.024
      -1.229
      -1.061
      -0.507
       0.049
       0.304
       0.367
       0.547
       0.901
       1.130
       0.944
       0.413
      -0.082
      -0.215
       0.036
       0.427
       0.658
       0.552
       0.125
      -0.425
      -0.852
      -1.039
      -1.075
      -1.106
      -1.135
      -0.995
      -0.525
       0.216
       0.940
       1.351
       1.362
       1.090
       0.698
       0.304
       0.013
      -0.087
      -0.034
      -0.010
      -0.171
      -0.435
      -0.516
      -0.186
       0.485
       1.148
       1.434
       1.178
       0.464
      -0.451
      -1.233
      -1.613
      -1.548
      -1.223
      -0.878
      -0.610
      -0.367
      -0.110
       0.106
       0.207
       0.200
       0.166
       0.152
       0.105
      -0.038
      -0.208
      -0.226
       0.013
       0.419
       0.809
       1.112
       1.403
       1.694
       1.787
       1.445
       0.677
      -0.232
      -1.006
      -1.579
      -2.002
      -2.243
      -2.190
      -1.806
      -1.164
      -0.349
       0.576
       1.477
       2.109
       2.261
       1.925
       1.273
       0.502
      -0.274
      -0.970
      -1.457
      -1.632
      -1.540
      -1.358
      -1.206
      -0.999
      -0.533
       0.233
       1.015
       1.379
       1.159
       0.650
       0.385
       0.651
       1.205
       1.490
       1.162
       0.425
      -0.174
      -0.296
      -0.136
      -0.158
      -0.552
      -1.061
      -1.312
      -1.229
      -1.029
      -0.848
      -0.532
       0.094
       0.851
       1.280
       1.090
       0.430
      -0.292
      -0.796
      -1.085
      -1.265
      -1.308
      -1.021
      -0.241
       0.901
       1.925
       2.295
       1.849
       0.936
       0.087
      -0.413
      -0.627
      -0.727
      -0.758
      -0.638
      -0.302
       0.203
       0.727
       1.102
       1.249
       1.196
       0.995
       0.635
       0.083
      -0.604
      -1.263
      -1.748
      -2.043
      -2.227
      -2.379
      -2.498
      -2.452
      -1.983
      -0.887
       0.716
       2.312
       3.324
       3.567
       3.313
       2.894
       2.335
       1.464
       0.300
      -0.801
      -1.449
      -1.587
      -1.491
      -1.412
      -1.317
      -1.004
      -0.376
       0.432
       1.148
       1.549
       1.559
       1.201
       0.527
      -0.347
      -1.202
      -1.754
      -1.782
      -1.254
      -0.383
       0.449
       0.899
       0.868
       0.553
       0.243
       0.014
      -0.326
      -0.914
      -1.540
      -1.782
      -1.442
      -0.751
      -0.082
       0.432
       0.915
       1.424
       1.798
       1.860
       1.652
       1.356
       1.041
       0.605
      -0.014
      -0.682
      -1.145
      -1.229
      -0.978
      -0.640
      -0.519
      -0.755
      -1.226
      -1.621
      -1.639
      -1.182
      -0.426
       0.307
       0.782
       1.001
       1.136
       1.315
       1.482
       1.460
       1.143
       0.595
      -0.006
      -0.465
      -0.608
      -0.330
       0.262
       0.823
       0.979
       0.625
      -0.003
      -0.528
      -0.704
      -0.545
      -0.309
      -0.352
      -0.878
      -1.711
      -2.327
      -2.226
      -1.340
      -0.079
       0.997
       1.532
       1.463
       0.918
       0.134
      -0.572
      -0.893
      -0.716
      -0.204
       0.315
       0.591
       0.605
       0.494
       0.354
       0.165
      -0.106
      -0.384
      -0.468
      -0.151
       0.571
       1.427
       2.067
       2.339
       2.367
       2.344
       2.292
       2.057
       1.553
       0.946
       0.494
       0.226
      -0.152
      -0.924
      -1.989
      -2.902
      -3.300
      -3.249
      -3.156
      -3.373
      -3.882
      -4.331
      -4.317
      -3.700
      -2.674
      -1.523
      -0.297
       1.197
       3.085
       5.131
       6.759
       7.419
       6.984
       5.811
       4.383
       2.871
       1.074
      -1.163
      -3.512
      -5.221
      -5.656
      -4.811
      -3.268
      -1.682
      -0.325
       0.873
       1.948
       2.689
       2.812
       2.227
       1.115
      -0.208
      -1.476
      -2.568
      -3.457
      -4.081
      -4.263
      -3.770
      -2.507
      -0.715
       1.088
       2.463
       3.391
       4.200
       5.079
       5.712
       5.486
       4.108
       1.950
      -0.201
      -1.733
      -2.610
      -3.233
      -3.932
      -4.578
      -4.696
      -3.957
      -2.598
      -1.290
      -0.510
      -0.091
       0.499
       1.448
       2.292
       2.392
       1.684
       0.827
       0.586
       1.080
       1.698
       1.783
       1.373
       1.165
       1.714
       2.723
       3.180
       2.263
       0.104
      -2.326
      -4.027
      -4.638
      -4.421
      -3.801
      -2.988
      -1.963
      -0.758
       0.326
       0.881
       0.808
       0.482
       0.401
       0.702
       1.100
       1.306
       1.391
       1.691
       2.413
       3.360
       3.998
       3.802
       2.650
       0.923
      -0.773
      -2.038
      -2.909
      -3.694
      -4.537
      -5.158
      -5.055
      -3.971
      -2.142
      -0.171
       1.322
       2.059
       2.247
       2.356
       2.671
       3.035
       3.019
       2.353
       1.237
       0.177
      -0.493
      -0.870
      -1.244
      -1.699
      -2.025
      -1.988
      -1.603
      -1.051
      -0.426
       0.322
       1.204
       2.054
       2.548
       2.352
       1.345
      -0.187
      -1.585
      -2.188
      -1.825
      -0.968
      -0.286
      -0.046
       0.011
       0.258
       0.770
       1.299
       1.565
       1.530
       1.414
       1.442
       1.553
       1.413
       0.797
      -0.107
      -0.865
      -1.250
      -1.447
      -1.813
      -2.464
      -3.099
      -3.271
      -2.831
      -2.095
      -1.546
      -1.399
      -1.404
      -1.041
       0.053
       1.775
       3.619
       5.018
       5.639
       5.426
       4.450
       2.845
       0.882
      -0.999
      -2.332
      -2.875
      -2.784
      -2.537
      -2.530
      -2.706
      -2.608
      -1.869
      -0.629
       0.546
       1.197
       1.380
       1.525
       1.895
       2.279
       2.251
       1.650
       0.695
      -0.295
      -1.151
      -1.799
      -2.083
      -1.792
      -0.910
       0.224
       1.112
       1.488
       1.463
       1.281
       1.007
       0.518
      -0.268
      -1.211
      -2.005
      -2.378
      -2.255
      -1.799
      -1.316
      -1.041
      -0.941
      -0.750
      -0.232
       0.533
       1.130
       1.162
       0.674
       0.192
       0.264
       0.940
       1.747
       2.209
       2.304
       2.368
       2.596
       2.771
       2.458
       1.408
      -0.184
      -1.741
      -2.668
      -2.767
      -2.352
      -1.919
      -1.715
      -1.604
      -1.311
      -0.734
      -0.033
       0.539
       0.859
       1.000
       1.101
       1.213
       1.251
       1.091
       0.669
      -0.007
      -0.832
      -1.587
      -2.005
      -1.967
      -1.652
      -1.456
      -1.632
      -1.959
      -1.850
      -0.867
       0.868
       2.725
       4.001
       4.311
       3.702
       2.540
       1.279
       0.246
      -0.472
      -0.971
      -1.383
      -1.787
      -2.157
      -2.336
      -2.084
      -1.250
       0.019
       1.271
       1.982
       1.902
       1.239
       0.518
       0.163
       0.134
      -0.022
      -0.646
      -1.466
      -1.777
      -1.209
      -0.195
       0.423
       0.198
      -0.554
      -1.129
      -1.100
      -0.598
      -0.030
       0.364
       0.653
       1.024
       1.504
       1.885
       1.950
       1.739
       1.504
       1.369
       1.097
       0.293
      -1.087
      -2.493
      -3.137
      -2.675
      -1.552
      -0.643
      -0.481
      -0.789
      -0.789
       0.011
       1.325
       2.353
       2.521
       1.947
       1.207
       0.714
       0.380
      -0.154
      -1.051
      -2.065
      -2.719
      -2.706
      -2.129
      -1.386
      -0.792
      -0.340
       0.204
       0.967
       1.737
       2.091
       1.868
       1.456
       1.450
       1.966
       2.425
       2.144
       1.063
      -0.219
      -1.112
      -1.577
      -1.915
      -2.186
      -2.059
      -1.292
      -0.202
       0.526
       0.511
       0.079
      -0.089
       0.314
       0.914
       1.107
       0.706
       0.084
      -0.307
      -0.459
      -0.765
      -1.472
      -2.281
      -2.548
      -1.883
      -0.537
       0.774
       1.418
       1.297
       0.831
       0.539
       0.611
       0.860
       1.035
       1.094
       1.152
       1.209
       1.105
       0.760
       0.329
       0.051
      -0.011
      -0.051
      -0.329
      -0.870
      -1.405
      -1.647
      -1.577
      -1.425
      -1.413
      -1.483
      -1.302
      -0.577
       0.578
       1.637
       2.088
       1.900
       1.557
       1.585
       2.039
       2.476
       2.384
       1.610
       0.432
      -0.701
      -1.498
      -1.962
      -2.286
      -2.616
      -2.880
      -2.842
      -2.357
      -1.564
      -0.784
      -0.263
      -0.028
       0.066
       0.197
       0.433
       0.641
       0.612
       0.315
      -0.015
      -0.070
       0.298
       1.028
       1.928
       2.736
       3.166
       3.041
       2.390
       1.405
       0.324
      -0.608
      -1.177
      -1.349
      -1.360
      -1.522
      -1.906
      -2.304
      -2.496
      -2.400
      -1.983
      -1.211
      -0.219
