Origin Time       05/3/2012 07:41:05	
Lat.              28.7 N	
Long.             76.6 E	
Depth (Km)         14.0
Magnitude         4.9
 Region           Haryana-Delhi-Border-Region                                      
 Above details taken from IMD 
   
Station Code      NOI
Station Lat.       28.507
Station Long.      77.479
Station Height(m)  201.0
Site Class        C   Vs30 between 200 m/sec to 375 m/sec *  
Record Time       05.03.2012 07:38:35.124
Sampling Rate     200. Hz
 Record Duration   65.005 Sec.
 Direction         Vert. (Up positive)
Max. Acceleration     -5.338 cm/sec**2
     
  * For reference see Site Classification link of website 
     
 Base Line Corrected and Low Pass Filtered (Cut Off at 35 Hz) Time History
 Acceleration data in cm/sec**2
    
[...]
       0.930
       1.177
       1.332
       1.580
       1.928
       2.196
       2.171
       1.765
       1.034
       0.082
      -1.019
      -2.188
      -3.249
      -3.945
      -4.081
      -3.632
      -2.731
      -1.539
      -0.179
       1.223
       2.463
       3.284
       3.514
       3.195
       2.569
       1.917
       1.400
       0.995
       0.580
       0.051
      -0.602
      -1.317
      -2.037
      -2.745
      -3.405
      -3.895
      -4.031
      -3.684
      -2.884
      -1.786
      -0.547
       0.755
       2.061
       3.215
       3.945
       4.007
       3.372
       2.273
       1.052
      -0.054
      -1.011
      -1.890
      -2.702
      -3.340
      -3.657
      -3.592
      -3.191
      -2.549
      -1.743
      -0.847
       0.027
       0.730
       1.171
       1.400
       1.558
       1.724
       1.818
       1.683
       1.254
       0.648
       0.079
      -0.299
      -0.480
      -0.544
      -0.548
      -0.442
      -0.117
       0.473
       1.213
       1.871
       2.251
       2.343
       2.310
       2.332
       2.470
       2.627
       2.624
       2.304
       1.609
       0.615
      -0.495
      -1.493
      -2.196
      -2.539
      -2.597
      -2.528
      -2.470
      -2.465
      -2.453
      -2.334
      -2.034
      -1.519
      -0.774
       0.211
       1.392
       2.591
       3.498
       3.805
       3.396
       2.440
       1.282
       0.233
      -0.562
      -1.081
      -1.339
      -1.357
      -1.188
      -0.925
      -0.660
      -0.431
      -0.222
      -0.003
       0.221
       0.389
       0.446
       0.413
       0.386
       0.425
       0.477
       0.416
       0.188
      -0.118
      -0.315
      -0.247
       0.108
       0.638
       1.175
       1.589
       1.836
       1.913
       1.793
       1.400
       0.670
      -0.360
      -1.518
      -2.548
      -3.189
      -3.277
      -2.827
      -2.053
      -1.269
      -0.714
      -0.426
      -0.270
      -0.080
       0.210
       0.541
       0.783
       0.803
       0.524
      -0.001
      -0.554
      -0.833
      -0.638
      -0.032
       0.691
       1.219
       1.435
       1.434
       1.358
       1.248
       1.054
       0.739
       0.355
       0.024
      -0.113
       0.038
       0.443
       0.884
       1.036
       0.697
      -0.004
      -0.654
      -0.865
      -0.585
      -0.102
       0.226
       0.260
       0.133
       0.060
       0.151
       0.375
       0.644
       0.863
       0.911
       0.643
      -0.013
      -0.936
      -1.841
      -2.477
      -2.793
      -2.896
      -2.872
      -2.676
      -2.222
      -1.536
      -0.758
      -0.021
       0.618
       1.133
       1.462
       1.563
       1.512
       1.498
       1.673
       2.001
       2.280
       2.284
       1.914
       1.255
       0.536
       0.031
      -0.094
       0.088
       0.264
       0.058
      -0.704
      -1.860
      -3.021
      -3.816
      -4.076
      -3.818
      -3.124
      -2.069
      -0.760
       0.617
       1.830
       2.706
       3.208
       3.403
       3.339
       2.977
       2.228
       1.088
      -0.269
      -1.560
      -2.586
      -3.349
      -3.944
      -4.337
      -4.282
      -3.525
      -2.095
      -0.376
       1.118
       2.043
       2.337
       2.122
       1.562
       0.825
       0.114
      -0.362
      -0.488
      -0.290
       0.131
       0.695
       1.362
       2.055
       2.620
       2.894
       2.832
       2.547
       2.213
       1.912
       1.568
       1.035
       0.239
      -0.744
      -1.723
      -2.504
      -2.977
      -3.132
      -2.990
      -2.556
      -1.873
      -1.107
      -0.534
      -0.366
      -0.555
      -0.795
      -0.778
      -0.448
      -0.019
       0.264
       0.357
       0.420
       0.611
       0.932
       1.256
       1.489
       1.648
       1.791
       1.907
       1.913
       1.772
       1.586
       1.526
       1.652
       1.807
       1.719
       1.234
       0.468
      -0.274
      -0.738
      -0.902
      -0.962
      -1.147
      -1.533
      -2.001
      -2.366
      -2.549
      -2.630
      -2.728
      -2.847
      -2.840
      -2.553
      -1.974
      -1.233
      -0.473
       0.271
       1.047
       1.858
       2.578
       2.999
       2.968
       2.509
       1.815
       1.122
       0.581
       0.246
       0.157
       0.371
       0.892
       1.559
       2.074
       2.163
       1.746
       0.958
       0.008
      -0.953
      -1.854
      -2.615
      -3.103
      -3.207
      -2.967
      -2.580
      -2.260
      -2.061
      -1.824
      -1.334
      -0.535
       0.389
       1.147
       1.558
       1.664
       1.661
       1.711
       1.803
       1.789
       1.550
       1.138
       0.761
       0.602
       0.655
       0.725
       0.597
       0.196
      -0.371
      -0.915
      -1.279
      -1.390
      -1.260
      -0.975
      -0.666
      -0.449
      -0.347
      -0.256
      -0.028
       0.368
       0.774
       0.943
       0.746
       0.287
      -0.184
      -0.465
      -0.499
      -0.336
      -0.038
       0.348
       0.744
       0.999
       0.940
       0.500
      -0.202
      -0.907
      -1.353
      -1.391
      -1.000
      -0.266
       0.611
       1.338
       1.638
       1.419
       0.853
       0.271
      -0.029
       0.086
       0.573
       1.273
       1.967
       2.437
       2.529
       2.184
       1.426
       0.352
      -0.864
      -1.971
      -2.725
      -3.023
      -2.965
      -2.786
      -2.692
      -2.726
      -2.769
      -2.640
      -2.221
      -1.504
      -0.558
       0.513
       1.560
       2.375
       2.743
       2.583
       2.041
       1.433
       1.055
       1.021
       1.252
       1.594
       1.932
       2.189
       2.266
       2.025
       1.367
       0.362
      -0.703
      -1.457
      -1.677
      -1.446
      -1.070
      -0.834
      -0.828
      -0.985
      -1.240
      -1.593
      -1.987
      -2.224
      -2.071
      -1.511
      -0.813
      -0.334
      -0.211
      -0.273
      -0.226
       0.087
       0.617
       1.221
       1.797
       2.270
       2.515
       2.363
       1.736
       0.776
      -0.202
      -0.926
      -1.335
      -1.566
      -1.781
      -2.018
      -2.169
      -2.059
      -1.560
      -0.658
       0.534
       1.804
       2.906
       3.619
       3.800
       3.411
       2.528
       1.316
       0.001
      -1.160
      -1.930
      -2.175
      -1.956
      -1.530
      -1.227
      -1.252
      -1.572
      -1.960
      -2.163
      -2.066
      -1.744
      -1.361
      -1.017
      -0.683
      -0.265
       0.266
       0.808
       1.175
       1.233
       1.002
       0.646
       0.357
       0.235
       0.255
       0.321
       0.359
       0.338
       0.258
       0.127
      -0.015
      -0.081
       0.022
       0.319
       0.728
       1.110
       1.348
       1.386
       1.235
       0.954
       0.629
       0.340
       0.146
       0.082
       0.149
       0.262
       0.251
      -0.033
      -0.555
      -1.070
      -1.291
      -1.106
      -0.637
      -0.087
       0.440
       0.977
       1.536
       1.978
       2.054
       1.626
       0.821
      -0.049
      -0.748
      -1.298
      -1.892
      -2.629
      -3.354
      -3.759
      -3.631
      -2.996
      -2.050
      -1.003
       0.013
       0.933
       1.706
       2.309
       2.757
       3.077
       3.234
       3.118
       2.632
       1.813
       0.877
       0.103
      -0.346
      -0.507
      -0.554
      -0.648
      -0.836
      -1.046
      -1.179
      -1.193
      -1.132
      -1.073
      -1.068
      -1.139
      -1.295
      -1.522
      -1.741
      -1.812
      -1.595
      -1.039
      -0.216
       0.689
       1.455
       1.907
       1.984
       1.754
       1.348
       0.903
       0.542
       0.376
       0.457
       0.730
       1.041
       1.237
       1.263
       1.149
       0.919
       0.557
       0.054
      -0.516
      -1.033
      -1.416
      -1.674
      -1.842
      -1.902
      -1.786
      -1.482
      -1.092
      -0.777
      -0.619
      -0.543
      -0.401
      -0.114
       0.266
       0.635
       0.944
       1.209
       1.435
       1.553
       1.461
       1.104
       0.540
      -0.078
      -0.556
      -0.750
      -0.611
      -0.200
       0.350
       0.898
       1.352
       1.673
       1.839
       1.790
       1.448
       0.803
      -0.016
      -0.791
      -1.355
      -1.690
      -1.888
      -2.031
      -2.112
      -2.054
      -1.785
      -1.276
      -0.554
       0.307
       1.192
       1.969
       2.541
       2.875
       2.975
       2.813
       2.296
       1.342
       0.004
      -1.457
      -2.663
      -3.330
      -3.433
      -3.176
      -2.783
      -2.312
      -1.660
      -0.754
       0.292
       1.212
       1.774
       1.908
       1.691
       1.236
       0.646
       0.025
      -0.508
      -0.857
      -1.003
      -1.011
      -0.962
      -0.891
      -0.765
      -0.553
      -0.304
      -0.177
      -0.334
      -0.760
      -1.179
      -1.206
      -0.655
       0.270
       1.100
       1.456
       1.328
       1.021
       0.860
       0.944
       1.170
       1.414
       1.632
       1.797
       1.811
       1.571
       1.089
       0.527
       0.083
      -0.153
      -0.217
      -0.206
      -0.209
      -0.281
      -0.447
      -0.703
      -1.026
      -1.390
      -1.741
      -1.958
      -1.874
      -1.404
      -0.647
       0.137
       0.714
       1.024
       1.167
       1.265
       1.361
       1.424
       1.396
       1.213
       0.810
       0.161
      -0.665
      -1.484
      -2.048
      -2.177
      -1.865
      -1.278
      -0.626
      -0.019
       0.563
       1.192
       1.847
       2.371
       2.574
       2.374
       1.855
       1.191
       0.549
       0.035
      -0.307
      -0.490
      -0.577
      -0.665
      -0.806
      -0.950
      -0.971
      -0.781
      -0.439
      -0.136
      -0.038
      -0.127
      -0.204
      -0.048
       0.370
       0.841
       1.096
       1.027
       0.755
       0.477
       0.300
       0.196
       0.101
       0.010
      -0.019
       0.081
       0.312
       0.599
       0.823
       0.880
       0.731
       0.411
      -0.014
      -0.490
      -0.974
      -1.412
      -1.726
      -1.867
      -1.869
      -1.828
      -1.806
      -1.741
      -1.486
      -0.940
      -0.155
       0.687
       1.372
       1.748
       1.784
       1.560
       1.201
       0.790
       0.353
      -0.083
      -0.442
      -0.658
      -0.758
      -0.853
      -1.014
      -1.185
      -1.230
      -1.070
      -0.758
      -0.403
      -0.058
       0.320
       0.772
       1.230
       1.523
       1.502
       1.155
       0.622
       0.105
      -0.230
      -0.284
      -0.026
       0.466
       0.979
       1.204
       0.909
       0.117
      -0.865
      -1.613
      -1.847
      -1.603
      -1.153
      -0.744
      -0.406
       0.003
       0.545
       1.017
       1.070
       0.532
      -0.383
      -1.216
      -1.609
      -1.516
      -1.107
      -0.540
       0.130
       0.833
       1.386
       1.561
       1.298
       0.808
       0.456
       0.479
       0.797
       1.071
       0.978
       0.450
      -0.290
      -0.940
      -1.346
      -1.565
      -1.692
      -1.669
      -1.290
      -0.429
       0.750
       1.837
       2.431
       2.372
       1.773
       0.871
      -0.106
      -0.983
      -1.611
      -1.878
      -1.755
      -1.355
      -0.922
      -0.676
      -0.620
      -0.487
       0.044
       1.032
       2.153
       2.933
       3.101
       2.747
       2.163
       1.559
       0.926
       0.133
      -0.871
      -1.942
      -2.817
      -3.286
      -3.302
      -2.965
      -2.427
      -1.809
      -1.187
      -0.582
       0.055
       0.817
       1.729
       2.640
       3.253
       3.292
       2.695
       1.666
       0.566
      -0.265
      -0.662
      -0.662
      -0.441
      -0.213
      -0.126
      -0.205
      -0.368
      -0.476
      -0.407
      -0.105
       0.382
       0.892
       1.220
       1.227
       0.930
       0.472
      -0.001
      -0.452
      -0.915
      -1.383
      -1.732
      -1.802
      -1.526
      -0.996
      -0.404
       0.059
       0.269
       0.215
       0.005
      -0.190
      -0.251
      -0.191
      -0.121
      -0.130
      -0.195
      -0.204
      -0.029
       0.403
       1.050
       1.728
       2.179
       2.241
       1.981
       1.673
       1.587
       1.757
       1.944
       1.819
       1.211
       0.247
      -0.741
      -1.449
      -1.781
      -1.862
      -1.892
      -1.996
      -2.183
      -2.406
      -2.583
      -2.588
      -2.265
      -1.541
      -0.523
       0.511
       1.269
       1.595
       1.514
       1.150
       0.631
       0.057
      -0.481
      -0.875
      -1.019
      -0.867
      -0.497
      -0.104
       0.100
       0.008
      -0.327
      -0.733
      -1.002
      -0.971
      -0.564
       0.172
       1.069
       1.886
       2.412
       2.568
       2.424
       2.108
       1.699
       1.184
       0.496
      -0.423
      -1.575
      -2.871
      -4.110
      -5.016
      -5.338
      -4.983
      -4.078
      -2.891
      -1.661
      -0.492
       0.630
       1.716
       2.712
       3.516
       4.032
       4.184
       3.927
       3.303
       2.481
       1.695
       1.080
       0.577
       0.009
      -0.712
      -1.456
      -1.949
      -1.991
      -1.608
      -1.012
      -0.431
       0.030
       0.368
       0.565
       0.552
       0.281
      -0.171
      -0.619
      -0.889
      -0.933
      -0.815
      -0.610
      -0.330
       0.023
       0.365
       0.530
       0.404
       0.071
      -0.203
      -0.169
       0.206
       0.722
       1.096
       1.159
       0.942
       0.644
       0.524
       0.749
       1.271
       1.826
       2.099
       1.932
       1.367
       0.556
      -0.330
      -1.097
      -1.533
      -1.548
      -1.311
      -1.174
      -1.354
      -1.687
      -1.734
      -1.169
      -0.081
       1.095
       1.911
       2.208
       2.119
       1.868
       1.572
       1.218
       0.766
       0.237
      -0.298
      -0.771
      -1.143
      -1.379
      -1.433
      -1.268
      -0.896
      -0.376
       0.203
       0.743
       1.141
       1.285
       1.106
       0.653
       0.114
      -0.248
      -0.236
       0.156
       0.729
       1.192
       1.327
       1.088
       0.604
       0.080
      -0.324
      -0.581
      -0.790
      -1.086
      -1.522
      -2.023
      -2.428
      -2.588
      -2.448
      -2.079
      -1.624
      -1.215
      -0.889
      -0.580
      -0.198
       0.282
       0.761
       1.086
       1.175
       1.088
       0.959
       0.847
       0.677
       0.348
      -0.099
      -0.453
      -0.504
      -0.240
       0.136
       0.381
       0.404
       0.292
       0.174
       0.081
      -0.039
      -0.201
      -0.297
      -0.163
       0.252
       0.792
       1.179
       1.223
       0.974
       0.673
       0.521
       0.505
       0.438
       0.165
      -0.295
      -0.797
      -1.225
      -1.559
      -1.802
      -1.906
      -1.817
      -1.558
      -1.239
      -0.959
      -0.708
      -0.386
       0.073
       0.592
       0.975
       1.052
       0.828
       0.485
       0.251
       0.243
       0.402
       0.550
       0.520
       0.292
       0.016
      -0.095
       0.048
       0.337
       0.572
       0.623
       0.523
       0.397
       0.338
       0.327
       0.270
       0.097
      -0.176
      -0.449
      -0.608
      -0.568
      -0.293
       0.196
       0.795
       1.311
       1.566
       1.536
       1.373
       1.243
       1.160
       0.986
       0.602
       0.067
      -0.415
      -0.664
      -0.659
      -0.522
      -0.402
      -0.367
      -0.382
      -0.396
      -0.430
      -0.580
      -0.895
      -1.264
      -1.444
      -1.260
      -0.767
      -0.211
       0.173
       0.310
       0.274
       0.187
       0.146
       0.221
       0.460
       0.848
       1.290
       1.661
       1.905
       2.062
       2.194
       2.268
       2.147
       1.717
       1.036
       0.336
      -0.143
      -0.335
      -0.360
      -0.410
      -0.615
      -0.987
      -1.434
      -1.828
      -2.092
      -2.260
      -2.431
      -2.641
      -2.789
      -2.691
      -2.231
      -1.454
      -0.531
       0.333
       0.979
       1.329
       1.407
       1.349
       1.331
       1.454
       1.662
       1.784
       1.671
       1.283
       0.679
      -0.067
      -0.886
      -1.669
      -2.230
      -2.371
      -2.026
      -1.335
      -0.566
       0.051
       0.451
       0.725
       0.997
       1.307
       1.557
       1.572
       1.201
       0.416
      -0.655
      -1.766
      -2.652
      -3.122
      -3.117
      -2.718
      -2.091
      -1.377
      -0.630
       0.148
       0.896
       1.456
       1.662
       1.491
       1.100
       0.690
       0.345
       0.021
      -0.324
      -0.621
      -0.716
      -0.522
      -0.129
       0.233
       0.323
       0.047
      -0.474
      -0.969
      -1.176
      -0.977
      -0.434
       0.291
       1.056
       1.781
       2.383
       2.717
       2.631
       2.124
       1.403
       0.742
       0.255
      -0.168
      -0.674
      -1.196
      -1.450
      -1.200
      -0.540
       0.123
       0.386
       0.177
      -0.223
      -0.465
      -0.443
      -0.332
      -0.332
      -0.412
      -0.334
       0.052
       0.593
       0.943
       0.901
       0.622
       0.457
       0.619
       1.010
       1.381
       1.590
       1.682
       1.724
       1.661
       1.365
       0.807
       0.116
      -0.515
      -0.967
      -1.245
      -1.410
      -1.499
      -1.498
      -1.384
      -1.176
      -0.927
      -0.671
      -0.378
       0.015
       0.539
       1.122
       1.598
       1.765
       1.509
       0.884
       0.099
      -0.616
      -1.171
      -1.632
      -2.081
      -2.464
      -2.614
      -2.394
      -1.819
      -1.035
      -0.225
       0.471
       0.980
       1.300
       1.490
       1.623
       1.708
       1.668
       1.417
       0.950
       0.381
      -0.148
      -0.575
      -0.923
      -1.209
      -1.372
      -1.317
      -1.032
      -0.627
      -0.252
      -0.007
       0.061
      -0.083
      -0.451
      -0.978
      -1.491
      -1.770
      -1.680
      -1.225
      -0.508
       0.358
       1.282
       2.179
       2.936
       3.433
       3.583
       3.352
       2.736
       1.761
       0.529
      -0.735
      -1.733
      -2.250
      -2.295
      -2.083
      -1.866
      -1.756
      -1.682
      -1.494
      -1.082
      -0.422
       0.461
       1.508
       2.597
       3.501
       3.921
       3.607
       2.523
       0.918
      -0.785
