Origin Time       18/10/2007 5:54:41  UTC
Lat.              28.3 N 
Long.             77.6 E 
Depth (Km)          5.6
Magnitude         3.6
 Region           GAUTAMBUDHNAGAR-UTTARPRADESH                                     
 Above details taken from IMD 
    
Station Code      NOI
Station Lat.       28.507  N
Station Long.      77.479  E
Station Height(m)  201.0
Site Class        C   Vs30 between 200 m/sec to 375 m/sec *  
Record Time       18.10.2007 05:54:34.524 UTC
Sampling Rate     200. Hz
 Record Duration   30.085 Sec.
 Direction         N-S (N positive)
Max. Acceleration     -6.286 cm/sec**2
     
  * For reference see Site Classification link of website 
     
 Base Line Corrected and Low Pass Filtered (Cut Off at 35 Hz) Time History
 Acceleration data in cm/sec**2
    
[...]
      -0.026
      -0.022
      -0.026
      -0.032
      -0.034
      -0.031
      -0.026
      -0.016
      -0.001
       0.012
       0.015
       0.006
      -0.009
      -0.021
      -0.021
      -0.008
       0.012
       0.026
       0.024
       0.012
       0.000
      -0.007
      -0.013
      -0.020
      -0.021
      -0.010
       0.010
       0.029
       0.035
       0.025
       0.001
      -0.021
      -0.028
      -0.012
       0.018
       0.043
       0.048
       0.033
       0.006
      -0.020
      -0.034
      -0.028
      -0.007
       0.014
       0.021
       0.005
      -0.027
      -0.057
      -0.066
      -0.049
      -0.017
       0.011
       0.019
       0.005
      -0.022
      -0.050
      -0.066
      -0.062
      -0.037
      -0.004
       0.023
       0.034
       0.031
       0.018
       0.001
      -0.011
      -0.012
      -0.002
       0.012
       0.022
       0.021
       0.010
      -0.004
      -0.013
      -0.010
       0.001
       0.011
       0.013
       0.005
      -0.010
      -0.026
      -0.039
      -0.039
      -0.022
       0.006
       0.030
       0.035
       0.021
      -0.002
      -0.019
      -0.023
      -0.012
       0.005
       0.014
       0.005
      -0.018
      -0.044
      -0.059
      -0.053
      -0.027
       0.006
       0.032
       0.039
       0.028
       0.010
      -0.008
      -0.021
      -0.029
      -0.030
      -0.022
      -0.009
       0.003
       0.006
      -0.004
      -0.021
      -0.034
      -0.035
      -0.022
      -0.004
       0.009
       0.010
       0.000
      -0.018
      -0.036
      -0.044
      -0.035
      -0.011
       0.020
       0.042
       0.049
       0.039
       0.016
      -0.007
      -0.019
      -0.014
       0.001
       0.010
       0.005
      -0.012
      -0.030
      -0.038
      -0.034
      -0.016
       0.008
       0.030
       0.040
       0.034
       0.014
      -0.010
      -0.029
      -0.036
      -0.033
      -0.023
      -0.014
      -0.012
      -0.017
      -0.027
      -0.037
      -0.041
      -0.035
      -0.017
       0.004
       0.016
       0.010
      -0.011
      -0.036
      -0.050
      -0.044
      -0.020
       0.010
       0.027
       0.023
       0.001
      -0.026
      -0.043
      -0.038
      -0.013
       0.022
       0.048
       0.053
       0.038
       0.014
      -0.009
      -0.022
      -0.022
      -0.007
       0.015
       0.031
       0.028
       0.011
      -0.010
      -0.025
      -0.029
      -0.023
      -0.006
       0.010
       0.014
       0.000
      -0.024
      -0.042
      -0.045
      -0.033
      -0.015
      -0.003
      -0.005
      -0.020
      -0.039
      -0.053
      -0.055
      -0.042
      -0.020
       0.002
       0.012
       0.007
      -0.008
      -0.021
      -0.029
      -0.031
      -0.027
      -0.016
       0.001
       0.015
       0.018
       0.010
      -0.004
      -0.016
      -0.014
       0.007
       0.038
       0.058
       0.048
       0.013
      -0.027
      -0.049
      -0.042
      -0.011
       0.026
       0.046
       0.035
       0.002
      -0.028
      -0.036
      -0.019
       0.008
       0.030
       0.032
       0.008
      -0.034
      -0.073
      -0.089
      -0.076
      -0.040
       0.002
       0.038
       0.057
       0.054
       0.035
       0.009
      -0.019
      -0.051
      -0.085
      -0.110
      -0.115
      -0.094
      -0.052
      -0.003
       0.043
       0.084
       0.121
       0.153
       0.167
       0.144
       0.076
      -0.024
      -0.129
      -0.210
      -0.248
      -0.231
      -0.162
      -0.065
       0.024
       0.079
       0.103
       0.113
       0.122
       0.129
       0.121
       0.084
       0.012
      -0.086
      -0.174
      -0.201
      -0.145
      -0.029
       0.087
       0.149
       0.133
       0.057
      -0.039
      -0.105
      -0.104
      -0.033
       0.060
       0.106
       0.070
      -0.022
      -0.114
      -0.163
      -0.159
      -0.111
      -0.030
       0.060
       0.123
       0.139
       0.121
       0.104
       0.104
       0.107
       0.091
       0.055
       0.007
      -0.052
      -0.123
      -0.188
      -0.215
      -0.189
      -0.129
      -0.061
       0.009
       0.082
       0.135
       0.128
       0.051
      -0.052
      -0.117
      -0.108
      -0.035
       0.066
       0.158
       0.200
       0.165
       0.065
      -0.045
      -0.106
      -0.105
      -0.075
      -0.051
      -0.035
      -0.010
       0.027
       0.059
       0.074
       0.077
       0.066
       0.035
      -0.017
      -0.072
      -0.098
      -0.080
      -0.020
       0.069
       0.169
       0.246
       0.254
       0.167
       0.013
      -0.132
      -0.213
      -0.239
      -0.256
      -0.288
      -0.303
      -0.254
      -0.125
       0.057
       0.236
       0.354
       0.368
       0.276
       0.128
      -0.008
      -0.107
      -0.201
      -0.328
      -0.463
      -0.531
      -0.480
      -0.328
      -0.139
       0.033
       0.166
       0.254
       0.295
       0.301
       0.293
       0.287
       0.282
       0.259
       0.204
       0.119
       0.016
      -0.082
      -0.154
      -0.181
      -0.163
      -0.114
      -0.057
      -0.003
       0.050
       0.108
       0.171
       0.211
       0.191
       0.089
      -0.074
      -0.236
      -0.332
      -0.343
      -0.303
      -0.264
      -0.246
      -0.228
      -0.177
      -0.083
       0.039
       0.163
       0.254
       0.278
       0.232
       0.158
       0.117
       0.138
       0.193
       0.235
       0.234
       0.168
       0.017
      -0.216
      -0.457
      -0.580
      -0.498
      -0.243
       0.060
       0.287
       0.387
       0.369
       0.262
       0.107
      -0.046
      -0.163
      -0.246
      -0.313
      -0.345
      -0.281
      -0.085
       0.189
       0.417
       0.499
       0.426
       0.259
       0.064
      -0.109
      -0.210
      -0.205
      -0.120
      -0.049
      -0.086
      -0.233
      -0.398
      -0.466
      -0.377
      -0.148
       0.141
       0.369
       0.427
       0.295
       0.080
      -0.049
       0.005
       0.192
       0.371
       0.420
       0.308
       0.092
      -0.131
      -0.267
      -0.275
      -0.189
      -0.093
      -0.061
      -0.098
      -0.152
      -0.163
      -0.116
      -0.044
      -0.007
      -0.040
      -0.133
      -0.231
      -0.278
      -0.250
      -0.172
      -0.092
      -0.057
      -0.075
      -0.100
      -0.052
       0.129
       0.418
       0.697
       0.822
       0.714
       0.412
       0.043
      -0.245
      -0.358
      -0.292
      -0.134
      -0.008
       0.004
      -0.082
      -0.177
      -0.185
      -0.077
       0.104
       0.273
       0.353
       0.304
       0.132
      -0.104
      -0.316
      -0.440
      -0.471
      -0.459
      -0.448
      -0.424
      -0.334
      -0.144
       0.111
       0.338
       0.441
       0.386
       0.231
       0.091
       0.061
       0.150
       0.275
       0.319
       0.221
       0.007
      -0.223
      -0.358
      -0.345
      -0.213
      -0.046
       0.084
       0.153
       0.174
       0.171
       0.166
       0.165
       0.156
       0.100
      -0.031
      -0.209
      -0.353
      -0.376
      -0.260
      -0.067
       0.100
       0.171
       0.131
       0.021
      -0.096
      -0.158
      -0.147
      -0.089
      -0.036
      -0.016
      -0.015
      -0.003
       0.035
       0.092
       0.153
       0.208
       0.242
       0.239
       0.187
       0.097
       0.003
      -0.059
      -0.077
      -0.070
      -0.072
      -0.106
      -0.165
      -0.224
      -0.257
      -0.256
      -0.231
      -0.198
      -0.159
      -0.095
       0.024
       0.207
       0.407
       0.526
       0.480
       0.255
      -0.081
      -0.402
      -0.583
      -0.542
      -0.287
       0.060
       0.318
       0.368
       0.226
       0.021
      -0.118
      -0.140
      -0.069
       0.039
       0.131
       0.170
       0.157
       0.133
       0.137
       0.153
       0.123
       0.008
      -0.159
      -0.299
      -0.357
      -0.335
      -0.267
      -0.175
      -0.063
       0.061
       0.178
       0.267
       0.328
       0.367
       0.367
       0.288
       0.108
      -0.133
      -0.342
      -0.436
      -0.390
      -0.240
      -0.056
       0.079
       0.092
      -0.026
      -0.189
      -0.261
      -0.162
       0.060
       0.277
       0.374
       0.310
       0.113
      -0.138
      -0.341
      -0.402
      -0.297
      -0.095
       0.087
       0.171
       0.164
       0.129
       0.122
       0.163
       0.245
       0.353
       0.448
       0.460
       0.325
       0.050
      -0.265
      -0.483
      -0.516
      -0.373
      -0.141
       0.070
       0.183
       0.185
       0.121
       0.043
      -0.032
      -0.122
      -0.227
      -0.311
      -0.324
      -0.256
      -0.147
      -0.055
      -0.009
       0.012
       0.056
       0.164
       0.328
       0.486
       0.550
       0.466
       0.247
      -0.032
      -0.272
      -0.404
      -0.423
      -0.391
      -0.387
      -0.433
      -0.473
      -0.426
      -0.258
      -0.004
       0.265
       0.470
       0.550
       0.487
       0.328
       0.166
       0.083
       0.089
       0.133
       0.149
       0.111
       0.035
      -0.046
      -0.095
      -0.082
      -0.005
       0.104
       0.194
       0.219
       0.163
       0.033
      -0.140
      -0.298
      -0.360
      -0.279
      -0.091
       0.096
       0.192
       0.201
       0.201
       0.248
       0.317
       0.343
       0.284
       0.147
      -0.036
      -0.220
      -0.345
      -0.358
      -0.245
      -0.052
       0.154
       0.304
       0.347
       0.253
       0.052
      -0.161
      -0.281
      -0.278
      -0.220
      -0.203
      -0.266
      -0.371
      -0.460
      -0.489
      -0.431
      -0.272
      -0.036
       0.205
       0.358
       0.371
       0.264
       0.100
      -0.048
      -0.129
      -0.115
       0.003
       0.197
       0.391
       0.492
       0.448
       0.284
       0.077
      -0.098
      -0.197
      -0.193
      -0.082
       0.106
       0.296
       0.406
       0.406
       0.335
       0.251
       0.166
       0.053
      -0.106
      -0.284
      -0.419
      -0.453
      -0.359
      -0.163
       0.035
       0.107
      -0.010
      -0.250
      -0.459
      -0.515
      -0.415
      -0.240
      -0.074
       0.035
       0.052
      -0.044
      -0.224
      -0.403
      -0.495
      -0.462
      -0.315
      -0.088
       0.172
       0.402
       0.546
       0.603
       0.620
       0.626
       0.587
       0.450
       0.222
      -0.008
      -0.151
      -0.180
      -0.119
       0.009
       0.181
       0.340
       0.413
       0.378
       0.293
       0.234
       0.193
       0.089
      -0.140
      -0.449
      -0.725
      -0.882
      -0.904
      -0.805
      -0.610
      -0.376
      -0.201
      -0.148
      -0.178
      -0.187
      -0.117
      -0.003
       0.096
       0.185
       0.326
       0.556
       0.827
       1.040
       1.107
       0.981
       0.676
       0.268
      -0.131
      -0.422
      -0.575
      -0.615
      -0.580
      -0.467
      -0.254
       0.048
       0.361
       0.567
       0.569
       0.337
      -0.094
      -0.639
      -1.175
      -1.560
      -1.678
      -1.490
      -1.052
      -0.474
       0.134
       0.685
       1.110
       1.350
       1.395
       1.303
       1.155
       0.965
       0.681
       0.269
      -0.187
      -0.521
      -0.615
      -0.497
      -0.298
      -0.132
      -0.035
       0.002
      -0.009
      -0.039
      -0.035
       0.020
       0.061
      -0.008
      -0.189
      -0.365
      -0.409
      -0.304
      -0.136
       0.002
       0.072
       0.070
      -0.005
      -0.117
      -0.183
      -0.143
      -0.034
       0.037
       0.010
      -0.069
      -0.102
      -0.053
       0.034
       0.104
       0.146
       0.180
       0.200
       0.176
       0.096
      -0.023
      -0.166
      -0.335
      -0.493
      -0.535
      -0.363
       0.008
       0.441
       0.765
       0.877
       0.766
       0.489
       0.152
      -0.109
      -0.179
      -0.051
       0.144
       0.216
       0.059
      -0.257
      -0.522
      -0.515
      -0.156
       0.418
       0.903
       1.001
       0.611
      -0.107
      -0.826
      -1.235
      -1.192
      -0.786
      -0.267
       0.110
       0.239
       0.201
       0.164
       0.222
       0.327
       0.349
       0.187
      -0.135
      -0.474
      -0.654
      -0.580
      -0.291
       0.092
       0.454
       0.727
       0.876
       0.877
       0.717
       0.426
       0.069
      -0.272
      -0.526
      -0.635
      -0.566
      -0.335
      -0.015
       0.271
       0.402
       0.307
       0.007
      -0.363
      -0.611
      -0.592
      -0.324
       0.017
       0.215
       0.170
      -0.041
      -0.242
      -0.272
      -0.064
       0.330
       0.743
       0.963
       0.844
       0.425
      -0.092
      -0.472
      -0.590
      -0.472
      -0.258
      -0.154
      -0.396
      -1.173
      -2.495
      -4.108
      -5.538
      -6.286
      -6.042
      -4.786
      -2.771
      -0.434
       1.741
       3.371
       4.314
       4.688
       4.753
       4.755
       4.830
       4.979
       5.105
       5.070
       4.765
       4.146
       3.218
       2.002
       0.560
      -0.937
      -2.196
      -2.937
      -3.092
      -2.864
      -2.579
      -2.471
      -2.592
      -2.839
      -3.027
      -2.943
      -2.435
      -1.489
      -0.237
       1.112
       2.338
       3.221
       3.570
       3.328
       2.657
       1.873
       1.228
       0.747
       0.285
      -0.284
      -0.930
      -1.518
      -1.937
      -2.173
      -2.292
      -2.382
      -2.484
      -2.535
      -2.366
      -1.795
      -0.783
       0.469
       1.579
       2.184
       2.137
       1.559
       0.732
      -0.068
      -0.687
      -1.107
      -1.387
      -1.564
      -1.599
      -1.390
      -0.844
       0.052
       1.201
       2.405
       3.385
       3.855
       3.607
       2.625
       1.126
      -0.491
      -1.795
      -2.491
      -2.499
      -1.958
      -1.152
      -0.423
      -0.038
      -0.060
      -0.290
      -0.377
      -0.045
       0.725
       1.682
       2.462
       2.773
       2.514
       1.785
       0.821
      -0.121
      -0.847
      -1.265
      -1.384
      -1.323
      -1.283
      -1.436
      -1.777
      -2.072
      -2.014
      -1.472
      -0.613
       0.207
       0.671
       0.632
       0.130
      -0.638
      -1.369
      -1.758
      -1.664
      -1.196
      -0.611
      -0.133
       0.161
       0.307
       0.379
       0.469
       0.688
       1.101
       1.623
       2.017
       2.054
       1.690
       1.097
       0.530
       0.200
       0.228
       0.623
       1.219
       1.675
       1.645
       1.038
       0.105
      -0.744
      -1.231
      -1.333
      -1.197
      -1.003
      -0.896
      -0.977
      -1.247
      -1.559
      -1.663
      -1.367
      -0.684
       0.164
       0.884
       1.285
       1.367
       1.300
       1.330
       1.617
       2.078
       2.377
       2.131
       1.213
      -0.105
      -1.302
      -1.921
      -1.803
      -1.130
      -0.310
       0.210
       0.135
      -0.531
      -1.489
      -2.330
      -2.767
      -2.722
      -2.253
      -1.483
      -0.598
       0.186
       0.748
       1.141
       1.509
       1.901
       2.203
       2.258
       2.033
       1.635
       1.185
       0.711
       0.178
      -0.414
      -0.995
      -1.478
      -1.788
      -1.876
      -1.733
      -1.430
      -1.101
      -0.833
      -0.583
      -0.231
       0.260
       0.761
       1.078
       1.121
       0.971
       0.786
       0.694
       0.757
       0.989
       1.347
       1.718
       1.955
       1.942
       1.638
       1.075
       0.342
      -0.418
      -1.043
      -1.424
      -1.562
      -1.540
      -1.431
      -1.269
      -1.071
      -0.873
      -0.701
      -0.548
      -0.388
      -0.229
      -0.103
      -0.019
       0.064
       0.193
       0.361
       0.503
       0.542
       0.470
       0.351
       0.268
       0.234
       0.174
      -0.019
      -0.402
      -0.932
      -1.472
      -1.817
      -1.776
      -1.267
      -0.402
       0.545
       1.271
       1.597
       1.521
       1.165
       0.680
       0.209
      -0.116
      -0.204
      -0.068
       0.154
       0.269
       0.160
      -0.126
      -0.393
      -0.410
      -0.058
       0.566
       1.189
       1.515
       1.400
       0.903
       0.229
      -0.404
      -0.857
      -1.109
      -1.212
      -1.217
      -1.128
      -0.917
      -0.596
      -0.258
      -0.022
       0.076
       0.137
       0.334
       0.753
       1.296
       1.726
       1.825
       1.522
       0.922
       0.244
      -0.274
      -0.450
      -0.218
       0.318
       0.885
       1.135
       0.827
       0.004
      -0.990
      -1.697
      -1.828
      -1.436
      -0.850
      -0.442
      -0.404
      -0.684
      -1.075
      -1.356
      -1.433
      -1.400
      -1.456
      -1.715
      -2.062
      -2.204
      -1.906
      -1.158
      -0.144
       0.902
       1.794
       2.414
       2.723
       2.787
       2.726
       2.589
       2.294
       1.739
       0.976
       0.250
      -0.156
      -0.112
       0.280
       0.746
       0.965
       0.709
      -0.014
      -0.919
      -1.595
      -1.766
      -1.458
      -0.930
      -0.464
      -0.185
      -0.058
       0.001
       0.029
       0.000
      -0.125
      -0.352
      -0.614
      -0.762
      -0.637
      -0.193
       0.419
       0.932
       1.169
       1.171
       1.115
       1.115
       1.109
       0.935
       0.487
      -0.200
      -0.984
      -1.677
      -2.103
      -2.153
      -1.830
      -1.274
      -0.727
      -0.425
      -0.458
      -0.675
      -0.739
      -0.326
       0.631
       1.834
       2.767
       3.005
       2.483
       1.524
       0.618
       0.137
       0.145
       0.407
       0.564
       0.372
      -0.147
      -0.735
      -1.083
      -1.058
      -0.779
      -0.504
      -0.427
      -0.558
      -0.774
      -0.960
      -1.075
      -1.112
      -1.028
      -0.762
      -0.328
       0.148
       0.504
       0.691
       0.805
       0.980
       1.234
       1.424
       1.358
       0.948
       0.290
      -0.384
      -0.849
      -1.026
      -1.014
      -1.006
      -1.151
      -1.455
      -1.791
      -1.980
      -1.877
      -1.431
      -0.694
       0.196
       1.067
       1.757
       2.131
       2.105
       1.694
       1.055
       0.440
       0.068
       0.002
       0.139
       0.312
       0.412
       0.428
       0.425
       0.465
       0.563
