Origin Time       18/10/2007 5:54:41 
Lat.              28.3 N 
Long.             77.6 E 
Depth (Km)          5.6
Magnitude         3.6
 Region           GAUTAMBUDHNAGAR-UTTARPRADESH                                     
 Above details taken from IMD 
   
Station Code      NOI
Station Lat.       28.507
Station Long.      77.479
Station Height(m)  201.0
Site Class        C   Vs30 between 200 m/sec to 375 m/sec *  
Record Time       18.10.2007 05:54:34.524
Sampling Rate     200. Hz
 Record Duration   30.085 Sec.
 Direction         Vert. (Up positive)
Max. Acceleration    -10.134 cm/sec**2
     
  * For reference see Site Classification link of website 
     
 Base Line Corrected and Low Pass Filtered (Cut Off at 35 Hz) Time History
 Acceleration data in cm/sec**2
    
[...]
      -0.005
      -0.032
      -0.044
      -0.031
       0.002
       0.031
       0.035
       0.012
      -0.011
      -0.013
       0.003
       0.016
       0.013
       0.002
      -0.003
      -0.003
      -0.006
      -0.020
      -0.036
      -0.036
      -0.012
       0.024
       0.048
       0.048
       0.029
       0.009
       0.002
       0.010
       0.022
       0.028
       0.020
       0.005
      -0.004
       0.004
       0.025
       0.039
       0.034
       0.014
      -0.011
      -0.032
      -0.047
      -0.051
      -0.034
       0.005
       0.052
       0.075
       0.056
       0.001
      -0.046
      -0.050
      -0.016
       0.014
       0.003
      -0.032
      -0.052
      -0.034
      -0.002
       0.010
      -0.009
      -0.036
      -0.030
       0.024
       0.089
       0.107
       0.055
      -0.030
      -0.086
      -0.085
      -0.049
      -0.007
       0.028
       0.055
       0.070
       0.056
       0.010
      -0.050
      -0.088
      -0.079
      -0.030
       0.021
       0.042
       0.031
       0.015
       0.015
       0.025
       0.030
       0.028
       0.026
       0.025
       0.018
       0.008
      -0.003
      -0.012
      -0.019
      -0.018
      -0.001
       0.026
       0.047
       0.048
       0.024
      -0.011
      -0.033
      -0.022
       0.022
       0.070
       0.083
       0.044
      -0.027
      -0.085
      -0.095
      -0.050
       0.021
       0.073
       0.070
       0.019
      -0.038
      -0.061
      -0.050
      -0.031
      -0.024
      -0.019
       0.002
       0.037
       0.066
       0.068
       0.040
       0.004
      -0.018
      -0.014
       0.006
       0.021
       0.022
       0.013
       0.005
      -0.008
      -0.029
      -0.050
      -0.047
      -0.012
       0.034
       0.058
       0.044
       0.003
      -0.041
      -0.070
      -0.078
      -0.067
      -0.038
       0.011
       0.067
       0.092
       0.053
      -0.037
      -0.107
      -0.093
      -0.002
       0.087
       0.104
       0.048
      -0.024
      -0.055
      -0.038
       0.000
       0.027
       0.029
       0.018
       0.011
       0.015
       0.021
       0.019
       0.008
      -0.002
       0.000
       0.007
       0.007
      -0.009
      -0.027
      -0.024
       0.010
       0.047
       0.052
       0.021
      -0.010
      -0.011
       0.010
       0.020
       0.007
      -0.002
       0.021
       0.066
       0.087
       0.054
      -0.016
      -0.074
      -0.081
      -0.041
       0.010
       0.037
       0.035
       0.021
       0.010
       0.000
      -0.015
      -0.030
      -0.031
      -0.011
       0.018
       0.034
       0.022
      -0.016
      -0.052
      -0.052
      -0.013
       0.029
       0.032
      -0.013
      -0.060
      -0.061
      -0.010
       0.054
       0.084
       0.068
       0.027
      -0.007
      -0.025
      -0.035
      -0.046
      -0.052
      -0.044
      -0.019
       0.007
       0.021
       0.018
       0.007
      -0.004
      -0.012
      -0.016
      -0.003
       0.030
       0.069
       0.083
       0.051
      -0.012
      -0.064
      -0.071
      -0.037
       0.006
       0.032
       0.039
       0.036
       0.027
       0.009
      -0.016
      -0.030
      -0.021
       0.004
       0.024
       0.023
       0.002
      -0.027
      -0.048
      -0.052
      -0.036
      -0.005
       0.030
       0.051
       0.042
       0.005
      -0.041
      -0.069
      -0.062
      -0.022
       0.031
       0.071
       0.074
       0.033
      -0.031
      -0.076
      -0.074
      -0.028
       0.027
       0.058
       0.058
       0.040
       0.020
       0.005
      -0.008
      -0.017
      -0.014
       0.010
       0.047
       0.067
       0.048
       0.001
      -0.037
      -0.042
      -0.023
      -0.008
      -0.012
      -0.021
      -0.020
      -0.013
      -0.016
      -0.036
      -0.057
      -0.048
      -0.001
       0.056
       0.075
       0.036
      -0.030
      -0.069
      -0.058
      -0.014
       0.027
       0.042
       0.035
       0.025
       0.024
       0.025
       0.010
      -0.025
      -0.057
      -0.053
      -0.007
       0.040
       0.045
       0.001
      -0.049
      -0.063
      -0.039
      -0.005
       0.010
       0.008
       0.010
       0.027
       0.044
       0.041
       0.013
      -0.016
      -0.016
       0.013
       0.040
       0.038
       0.007
      -0.030
      -0.046
      -0.029
       0.010
       0.049
       0.056
       0.017
      -0.047
      -0.091
      -0.074
       0.000
       0.081
       0.104
       0.044
      -0.054
      -0.111
      -0.080
       0.020
       0.126
       0.195
       0.230
       0.261
       0.307
       0.360
       0.391
       0.358
       0.227
       0.001
      -0.279
      -0.569
      -0.835
      -1.035
      -1.083
      -0.889
      -0.444
       0.137
       0.674
       1.035
       1.178
       1.120
       0.880
       0.463
      -0.110
      -0.764
      -1.352
      -1.702
      -1.685
      -1.278
      -0.571
       0.286
       1.150
       1.903
       2.430
       2.598
       2.288
       1.480
       0.298
      -1.044
      -2.351
      -3.453
      -4.139
      -4.141
      -3.287
      -1.678
       0.302
       2.169
       3.570
       4.366
       4.564
       4.208
       3.340
       2.028
       0.404
      -1.313
      -2.839
      -3.900
      -4.338
      -4.147
      -3.411
      -2.216
      -0.678
       0.974
       2.405
       3.324
       3.614
       3.302
       2.465
       1.225
      -0.173
      -1.394
      -2.204
      -2.594
      -2.676
      -2.463
      -1.849
      -0.808
       0.466
       1.651
       2.492
       2.852
       2.648
       1.848
       0.595
      -0.761
      -1.834
      -2.397
      -2.417
      -1.964
      -1.173
      -0.269
       0.510
       1.078
       1.533
       1.973
       2.279
       2.186
       1.564
       0.596
      -0.376
      -1.117
      -1.590
      -1.828
      -1.827
      -1.571
      -1.096
      -0.475
       0.222
       0.888
       1.342
       1.429
       1.172
       0.756
       0.336
      -0.091
      -0.566
      -0.983
      -1.127
      -0.901
      -0.456
      -0.038
       0.228
       0.367
       0.424
       0.420
       0.414
       0.488
       0.609
       0.594
       0.304
      -0.152
      -0.493
      -0.566
      -0.505
      -0.544
      -0.714
      -0.790
      -0.544
      -0.006
       0.563
       0.899
       0.887
       0.550
       0.033
      -0.411
      -0.544
      -0.355
      -0.092
       0.009
       0.004
       0.137
       0.454
       0.658
       0.429
      -0.179
      -0.758
      -0.943
      -0.703
      -0.239
       0.285
       0.817
       1.285
       1.505
       1.285
       0.629
      -0.210
      -0.897
      -1.238
      -1.254
      -1.082
      -0.844
      -0.600
      -0.359
      -0.075
       0.313
       0.774
       1.113
       1.083
       0.633
       0.021
      -0.397
      -0.497
      -0.471
      -0.540
      -0.645
      -0.496
       0.032
       0.642
       0.867
       0.545
      -0.013
      -0.369
      -0.372
      -0.204
      -0.096
      -0.120
      -0.215
      -0.275
      -0.156
       0.256
       0.856
       1.276
       1.182
       0.647
       0.086
      -0.193
      -0.280
      -0.439
      -0.719
      -0.935
      -0.972
      -0.934
      -0.925
      -0.816
      -0.380
       0.363
       1.072
       1.400
       1.291
       0.921
       0.459
      -0.006
      -0.327
      -0.326
      -0.042
       0.181
       0.028
      -0.395
      -0.632
      -0.386
       0.150
       0.526
       0.488
       0.131
      -0.307
      -0.635
      -0.720
      -0.512
      -0.173
      -0.032
      -0.254
      -0.563
      -0.466
       0.197
       1.014
       1.418
       1.270
       0.922
       0.728
       0.636
       0.332
      -0.312
      -1.063
      -1.589
      -1.797
      -1.830
      -1.773
      -1.491
      -0.794
       0.280
       1.417
       2.246
       2.576
       2.434
       1.949
       1.265
       0.507
      -0.259
      -1.038
      -1.816
      -2.416
      -2.537
      -2.037
      -1.151
      -0.322
       0.247
       0.784
       1.617
       2.674
       3.405
       3.228
       2.024
       0.215
      -1.584
      -2.915
      -3.550
      -3.416
      -2.573
      -1.272
       0.082
       1.100
       1.551
       1.407
       0.857
       0.304
       0.165
       0.535
       1.040
       1.140
       0.637
      -0.122
      -0.580
      -0.489
      -0.099
       0.132
      -0.025
      -0.402
      -0.660
      -0.632
      -0.454
      -0.352
      -0.361
      -0.281
       0.073
       0.608
       0.959
       0.777
       0.058
      -0.769
      -1.117
      -0.694
       0.257
       1.142
       1.478
       1.213
       0.641
       0.052
      -0.484
      -0.975
      -1.258
      -1.058
      -0.352
       0.445
       0.796
       0.536
      -0.001
      -0.350
      -0.326
      -0.066
       0.205
       0.354
       0.325
       0.095
      -0.281
      -0.621
      -0.719
      -0.503
      -0.084
       0.368
       0.741
       0.963
       0.914
       0.483
      -0.252
      -0.948
      -1.206
      -0.886
      -0.236
       0.295
       0.355
      -0.091
      -0.722
      -1.023
      -0.615
       0.421
       1.528
       2.062
       1.787
       1.021
       0.291
      -0.139
      -0.390
      -0.685
      -1.053
      -1.326
      -1.359
      -1.161
      -0.806
      -0.347
       0.171
       0.669
       1.093
       1.444
       1.686
       1.642
       1.124
       0.188
      -0.822
      -1.555
      -1.884
      -1.820
      -1.315
      -0.354
       0.786
       1.551
       1.555
       0.935
       0.173
      -0.405
      -0.811
      -1.118
      -1.164
      -0.711
       0.156
       0.950
       1.217
       0.991
       0.704
       0.635
       0.585
       0.184
      -0.581
      -1.272
      -1.447
      -1.067
      -0.452
       0.083
       0.451
       0.749
       1.096
       1.497
       1.751
       1.507
       0.552
      -0.864
      -2.089
      -2.583
      -2.384
      -1.973
      -1.670
      -1.285
      -0.466
       0.725
       1.745
       2.104
       1.847
       1.408
       1.083
       0.807
       0.427
       0.018
      -0.192
      -0.134
      -0.006
      -0.021
      -0.148
      -0.164
       0.058
       0.358
       0.415
       0.059
      -0.538
      -0.996
      -1.051
      -0.774
      -0.493
      -0.490
      -0.748
      -0.960
      -0.835
      -0.389
       0.086
       0.348
       0.426
       0.484
       0.551
       0.487
       0.227
      -0.020
       0.088
       0.646
       1.317
       1.612
       1.367
       0.859
       0.427
       0.060
      -0.536
      -1.463
      -2.344
      -2.605
      -2.005
      -0.832
       0.394
       1.319
       1.864
       2.105
       2.142
       2.001
       1.592
       0.792
      -0.350
      -1.519
      -2.315
      -2.545
      -2.299
      -1.757
      -1.013
      -0.140
       0.658
       1.093
       1.055
       0.746
       0.486
       0.388
       0.276
      -0.089
      -0.721
      -1.364
      -1.677
      -1.440
      -0.652
       0.466
       1.534
       2.201
       2.364
       2.174
       1.796
       1.257
       0.547
      -0.195
      -0.749
      -1.021
      -1.096
      -1.068
      -0.935
      -0.710
      -0.500
      -0.377
      -0.251
      -0.026
       0.161
       0.025
      -0.466
      -0.913
      -0.836
      -0.197
       0.542
       0.896
       0.815
       0.619
       0.528
       0.422
       0.089
      -0.403
      -0.740
      -0.736
      -0.531
      -0.364
      -0.245
       0.039
       0.629
       1.362
       1.870
       1.864
       1.302
       0.362
      -0.658
      -1.425
      -1.702
      -1.500
      -1.085
      -0.730
      -0.466
      -0.119
       0.410
       1.002
       1.472
       1.750
       1.819
       1.570
       0.853
      -0.304
      -1.599
      -2.647
      -3.219
      -3.239
      -2.648
      -1.436
       0.160
       1.658
       2.634
       2.979
       2.828
       2.312
       1.512
       0.585
      -0.228
      -0.824
      -1.345
      -1.942
      -2.470
      -2.556
      -1.984
      -0.887
       0.434
       1.722
       2.718
       3.112
       2.734
       1.781
       0.685
      -0.287
      -1.190
      -2.120
      -2.879
      -3.097
      -2.666
      -1.889
      -1.100
      -0.269
       0.816
       2.038
       2.892
       3.008
       2.563
       2.032
       1.662
       1.335
       0.897
       0.358
      -0.271
      -1.136
      -2.336
      -3.608
      -4.422
      -4.433
      -3.697
      -2.397
      -0.573
       1.686
       3.870
       5.199
       5.274
       4.469
       3.478
       2.517
       1.147
      -1.063
      -3.827
      -6.205
      -7.287
      -6.737
      -4.772
      -1.846
       1.524
       4.710
       7.021
       7.927
       7.290
       5.348
       2.514
      -0.754
      -3.939
      -6.484
      -7.991
      -8.344
      -7.557
      -5.565
      -2.363
       1.626
       5.526
       8.466
      10.029
      10.116
       8.539
       5.063
       0.043
      -5.184
      -8.895
     -10.134
      -9.188
      -6.990
      -4.246
      -1.262
       1.662
       4.062
       5.624
       6.393
       6.452
       5.557
       3.392
       0.245
      -2.827
      -4.695
      -4.972
      -4.026
      -2.357
      -0.243
       2.019
       3.912
       4.971
       5.091
       4.365
       2.721
       0.020
      -3.382
      -6.427
      -7.978
      -7.631
      -5.789
      -3.035
       0.260
       3.704
       6.570
       8.039
       7.759
       6.033
       3.440
       0.401
      -2.790
      -5.650
      -7.487
      -7.791
      -6.551
      -4.112
      -0.886
       2.604
       5.540
       7.055
       6.834
       5.345
       3.330
       1.152
      -1.251
      -3.851
      -6.144
      -7.345
      -6.928
      -4.941
      -1.887
       1.609
       4.954
       7.488
       8.477
       7.455
       4.648
       0.934
      -2.680
      -5.521
      -7.233
      -7.550
      -6.355
      -3.952
      -1.089
       1.423
       3.130
       3.979
       4.065
       3.428
       2.126
       0.434
      -1.160
      -2.197
      -2.492
      -2.157
      -1.422
      -0.453
       0.694
       1.977
       3.237
       4.137
       4.284
       3.482
       1.927
       0.177
      -1.108
      -1.542
      -1.277
      -0.917
      -1.041
      -1.695
      -2.343
      -2.428
      -1.963
      -1.489
      -1.395
      -1.427
      -0.995
       0.112
       1.445
       2.342
       2.517
       2.163
       1.588
       0.916
       0.148
      -0.649
      -1.332
      -1.823
      -2.119
      -2.161
      -1.816
      -1.051
      -0.060
       0.876
       1.590
       2.021
       2.062
       1.594
       0.676
      -0.391
      -1.248
      -1.681
      -1.634
      -1.101
      -0.123
       1.092
       2.147
       2.658
       2.535
       1.996
       1.286
       0.451
      -0.575
      -1.760
      -2.904
      -3.716
      -3.908
      -3.319
      -2.072
      -0.583
       0.705
       1.610
       2.177
       2.424
       2.290
       1.909
       1.743
       2.139
       2.759
       2.708
       1.409
      -0.743
      -2.717
      -3.757
      -3.813
      -3.203
      -2.129
      -0.684
       0.856
       2.023
       2.469
       2.141
       1.171
      -0.245
      -1.755
      -2.826
      -3.056
      -2.558
      -1.849
      -1.240
      -0.432
       1.074
       3.205
       5.145
       6.026
       5.674
       4.555
       3.073
       1.104
      -1.626
      -4.803
      -7.324
      -8.024
      -6.626
      -3.969
      -1.317
       0.558
       1.680
       2.476
       3.192
       3.670
       3.590
       2.873
       1.837
       0.960
       0.513
       0.398
       0.325
       0.116
      -0.150
      -0.287
      -0.242
      -0.162
      -0.236
      -0.518
      -0.883
      -1.148
      -1.253
      -1.313
      -1.494
      -1.795
      -1.992
      -1.833
      -1.305
      -0.653
      -0.094
       0.415
       1.016
       1.598
       1.804
       1.499
       1.075
       1.079
       1.585
       2.114
       2.188
       1.761
       1.022
      -0.008
      -1.416
      -2.954
      -3.975
      -3.970
      -3.068
      -1.831
      -0.649
       0.471
       1.554
       2.387
       2.758
       2.787
       2.738
       2.503
       1.583
      -0.243
      -2.386
      -3.832
      -4.075
      -3.445
      -2.505
      -1.404
      -0.033
       1.411
       2.434
       2.828
       2.916
       2.993
       2.790
       1.818
       0.196
      -1.242
      -1.815
      -1.745
      -1.794
      -2.275
      -2.696
      -2.367
      -1.125
       0.608
       2.219
       3.166
       3.051
       1.849
       0.160
      -1.030
      -1.111
      -0.374
       0.358
       0.636
       0.731
       1.019
       1.258
       0.802
      -0.542
      -2.183
      -3.360
      -3.796
      -3.618
      -2.925
      -1.714
      -0.132
       1.486
       2.873
       3.959
       4.649
       4.657
       3.782
       2.268
       0.662
      -0.740
      -2.021
      -3.131
      -3.541
      -2.768
      -1.190
       0.034
       0.053
      -0.808
      -1.424
      -1.018
       0.216
       1.504
       2.217
       2.144
       1.356
       0.136
      -0.979
      -1.397
      -0.966
      -0.193
       0.220
       0.075
      -0.198
      -0.083
       0.522
       1.366
       2.193
       2.801
       2.884
       2.096
       0.425
      -1.639
      -3.406
      -4.411
      -4.509
      -3.699
      -2.060
       0.143
       2.387
       4.007
       4.453
       3.577
       1.790
      -0.102
      -1.397
      -1.962
      -2.217
      -2.630
      -3.197
      -3.369
      -2.517
      -0.526
       1.993
       4.070
       4.977
       4.554
       3.092
       1.079
      -0.962
      -2.551
      -3.354
      -3.277
      -2.435
      -1.049
       0.592
       2.086
       2.955
       2.888
       1.984
       0.700
      -0.505
      -1.449
      -2.147
      -2.564
      -2.595
      -2.271
      -1.815
      -1.402
      -0.949
      -0.264
       0.637
       1.453
       1.886
       1.931
       1.793
       1.602
       1.302
       0.838
       0.334
      -0.020
      -0.225
      -0.487
      -0.937
      -1.464
      -1.845
      -1.982
      -1.928
      -1.732
      -1.319
      -0.533
       0.724
       2.328
       3.840
       4.649
       4.319
       2.914
       0.994
      -0.762
      -2.005
      -2.812
      -3.369
      -3.580
      -3.096
      -1.784
      -0.134
       1.001
       1.181
       0.825
       0.768
       1.357
       2.086
       2.174
       1.418
       0.364
      -0.339
      -0.594
      -0.771
      -1.100
      -1.341
      -1.124
      -0.429
       0.407
