Origin Time       05/3/2012 07:41:05	 UTC
Lat.              28.7 N	
Long.             76.6 E	
Depth (Km)         14.0
Magnitude         4.9
 Region           Haryana-Delhi-Border-Region                                      
 Above details taken from IMD 
    
Station Code      NOI
Station Lat.       28.507  N
Station Long.      77.479  E
Station Height(m)  201.0
Site Class        C   Vs30 between 200 m/sec to 375 m/sec *  
Record Time       05.03.2012 07:38:35.124 UTC
Sampling Rate     200. Hz
 Record Duration   65.005 Sec.
 Direction         N-S (N positive)
Max. Acceleration     -7.844 cm/sec**2
     
  * For reference see Site Classification link of website 
     
 Base Line Corrected and Low Pass Filtered (Cut Off at 35 Hz) Time History
 Acceleration data in cm/sec**2
    
[...]
       0.807
       0.829
       0.838
       0.838
       0.816
       0.759
       0.660
       0.525
       0.363
       0.173
      -0.045
      -0.281
      -0.516
      -0.724
      -0.884
      -0.982
      -1.010
      -0.970
      -0.873
      -0.733
      -0.568
      -0.391
      -0.211
      -0.030
       0.154
       0.331
       0.472
       0.543
       0.526
       0.435
       0.317
       0.223
       0.179
       0.180
       0.198
       0.206
       0.184
       0.130
       0.052
      -0.031
      -0.089
      -0.087
      -0.005
       0.146
       0.337
       0.537
       0.719
       0.864
       0.955
       0.976
       0.915
       0.778
       0.585
       0.368
       0.149
      -0.076
      -0.330
      -0.627
      -0.951
      -1.251
      -1.467
      -1.553
      -1.497
      -1.326
      -1.095
      -0.868
      -0.678
      -0.523
      -0.371
      -0.197
       0.003
       0.197
       0.348
       0.431
       0.450
       0.437
       0.427
       0.442
       0.482
       0.544
       0.632
       0.746
       0.871
       0.965
       0.973
       0.859
       0.631
       0.345
       0.076
      -0.116
      -0.214
      -0.227
      -0.182
      -0.104
      -0.022
       0.034
       0.045
       0.015
      -0.032
      -0.073
      -0.103
      -0.139
      -0.200
      -0.289
      -0.386
      -0.471
      -0.542
      -0.613
      -0.693
      -0.772
      -0.826
      -0.843
      -0.834
      -0.826
      -0.835
      -0.858
      -0.877
      -0.866
      -0.804
      -0.675
      -0.475
      -0.208
       0.101
       0.411
       0.675
       0.863
       0.975
       1.040
       1.089
       1.140
       1.195
       1.241
       1.254
       1.200
       1.043
       0.758
       0.361
      -0.084
      -0.481
      -0.732
      -0.790
      -0.680
      -0.484
      -0.288
      -0.145
      -0.061
      -0.006
       0.050
       0.128
       0.224
       0.314
       0.368
       0.362
       0.296
       0.191
       0.085
       0.013
      -0.007
       0.024
       0.092
       0.186
       0.287
       0.363
       0.377
       0.308
       0.171
       0.012
      -0.123
      -0.216
      -0.272
      -0.310
      -0.345
      -0.380
      -0.414
      -0.441
      -0.458
      -0.453
      -0.410
      -0.330
      -0.242
      -0.186
      -0.185
      -0.222
      -0.255
      -0.255
      -0.227
      -0.201
      -0.211
      -0.268
      -0.351
      -0.416
      -0.423
      -0.358
      -0.233
      -0.081
       0.069
       0.202
       0.319
       0.436
       0.563
       0.691
       0.791
       0.835
       0.814
       0.741
       0.628
       0.477
       0.293
       0.098
      -0.068
      -0.168
      -0.191
      -0.158
      -0.102
      -0.048
       0.002
       0.057
       0.123
       0.192
       0.250
       0.284
       0.289
       0.268
       0.220
       0.140
       0.035
      -0.080
      -0.185
      -0.267
      -0.330
      -0.383
      -0.425
      -0.438
      -0.403
      -0.319
      -0.215
      -0.134
      -0.109
      -0.145
      -0.223
      -0.312
      -0.376
      -0.382
      -0.305
      -0.138
       0.092
       0.332
       0.514
       0.592
       0.568
       0.489
       0.412
       0.364
       0.325
       0.254
       0.117
      -0.079
      -0.296
      -0.482
      -0.601
      -0.644
      -0.629
      -0.582
      -0.526
      -0.474
      -0.423
      -0.365
      -0.289
      -0.194
      -0.090
       0.009
       0.093
       0.166
       0.239
       0.328
       0.429
       0.522
       0.577
       0.579
       0.543
       0.506
       0.497
       0.517
       0.541
       0.539
       0.496
       0.417
       0.318
       0.221
       0.138
       0.071
       0.015
      -0.042
      -0.107
      -0.184
      -0.279
      -0.388
      -0.505
      -0.611
      -0.686
      -0.703
      -0.642
      -0.493
      -0.271
      -0.015
       0.231
       0.430
       0.564
       0.631
       0.637
       0.586
       0.471
       0.285
       0.030
      -0.266
      -0.556
      -0.787
      -0.914
      -0.916
      -0.810
      -0.642
      -0.466
      -0.314
      -0.179
      -0.029
       0.165
       0.402
       0.656
       0.883
       1.046
       1.119
       1.088
       0.955
       0.734
       0.455
       0.159
      -0.123
      -0.376
      -0.605
      -0.810
      -0.973
      -1.061
      -1.045
      -0.927
      -0.742
      -0.536
      -0.351
      -0.200
      -0.081
       0.007
       0.064
       0.086
       0.082
       0.073
       0.076
       0.095
       0.116
       0.123
       0.112
       0.088
       0.073
       0.088
       0.148
       0.248
       0.362
       0.452
       0.484
       0.443
       0.340
       0.210
       0.091
       0.013
      -0.018
      -0.016
      -0.014
      -0.051
      -0.149
      -0.300
      -0.457
      -0.559
      -0.557
      -0.442
      -0.247
      -0.035
       0.122
       0.173
       0.104
      -0.064
      -0.292
      -0.538
      -0.766
      -0.949
      -1.072
      -1.129
      -1.122
      -1.049
      -0.906
      -0.691
      -0.409
      -0.072
       0.305
       0.698
       1.074
       1.391
       1.612
       1.714
       1.697
       1.589
       1.433
       1.260
       1.088
       0.917
       0.753
       0.611
       0.511
       0.470
       0.490
       0.555
       0.634
       0.686
       0.677
       0.591
       0.436
       0.225
      -0.031
      -0.318
      -0.612
      -0.874
      -1.054
      -1.118
      -1.063
      -0.917
      -0.724
      -0.522
      -0.336
      -0.188
      -0.101
      -0.099
      -0.179
      -0.306
      -0.416
      -0.452
      -0.400
      -0.288
      -0.168
      -0.086
      -0.056
      -0.069
      -0.104
      -0.135
      -0.129
      -0.058
       0.084
       0.261
       0.414
       0.487
       0.459
       0.345
       0.184
       0.020
      -0.114
      -0.200
      -0.232
      -0.214
      -0.158
      -0.096
      -0.066
      -0.099
      -0.181
      -0.255
      -0.250
      -0.123
       0.109
       0.371
       0.567
       0.627
       0.535
       0.337
       0.107
      -0.092
      -0.219
      -0.265
      -0.242
      -0.181
      -0.123
      -0.107
      -0.149
      -0.232
      -0.320
      -0.374
      -0.375
      -0.333
      -0.274
      -0.227
      -0.203
      -0.206
      -0.239
      -0.303
      -0.386
      -0.454
      -0.463
      -0.383
      -0.218
      -0.007
       0.195
       0.344
       0.420
       0.434
       0.412
       0.383
       0.357
       0.326
       0.275
       0.187
       0.060
      -0.093
      -0.242
      -0.350
      -0.383
      -0.339
      -0.250
      -0.169
      -0.137
      -0.166
      -0.227
      -0.272
      -0.248
      -0.129
       0.074
       0.315
       0.533
       0.687
       0.766
       0.780
       0.739
       0.654
       0.536
       0.403
       0.277
       0.175
       0.102
       0.060
       0.047
       0.051
       0.053
       0.032
      -0.025
      -0.102
      -0.158
      -0.142
      -0.034
       0.141
       0.323
       0.453
       0.510
       0.505
       0.463
       0.396
       0.301
       0.167
       0.000
      -0.176
      -0.327
      -0.434
      -0.500
      -0.543
      -0.573
      -0.586
      -0.572
      -0.520
      -0.434
      -0.329
      -0.229
      -0.162
      -0.143
      -0.172
      -0.230
      -0.295
      -0.354
      -0.402
      -0.435
      -0.444
      -0.412
      -0.323
      -0.172
       0.020
       0.218
       0.382
       0.491
       0.543
       0.554
       0.548
       0.543
       0.543
       0.536
       0.499
       0.420
       0.304
       0.172
       0.048
      -0.050
      -0.113
      -0.139
      -0.135
      -0.124
      -0.135
      -0.190
      -0.288
      -0.404
      -0.495
      -0.524
      -0.478
      -0.374
      -0.240
      -0.109
      -0.003
       0.061
       0.082
       0.063
       0.013
      -0.052
      -0.116
      -0.158
      -0.170
      -0.157
      -0.143
      -0.156
      -0.207
      -0.282
      -0.336
      -0.313
      -0.180
       0.047
       0.307
       0.524
       0.642
       0.643
       0.555
       0.436
       0.339
       0.290
       0.268
       0.235
       0.163
       0.054
      -0.053
      -0.111
      -0.089
       0.006
       0.127
       0.208
       0.193
       0.061
      -0.166
      -0.436
      -0.686
      -0.850
      -0.880
      -0.755
      -0.494
      -0.153
       0.194
       0.478
       0.668
       0.775
       0.831
       0.851
       0.825
       0.732
       0.559
       0.313
       0.012
      -0.310
      -0.611
      -0.841
      -0.951
      -0.908
      -0.706
      -0.377
       0.009
       0.358
       0.594
       0.692
       0.678
       0.608
       0.531
       0.465
       0.389
       0.262
       0.052
      -0.233
      -0.544
      -0.812
      -0.979
      -1.017
      -0.930
      -0.748
      -0.510
      -0.256
      -0.022
       0.170
       0.310
       0.404
       0.468
       0.510
       0.530
       0.526
       0.501
       0.464
       0.409
       0.325
       0.198
       0.038
      -0.131
      -0.284
      -0.409
      -0.514
      -0.614
      -0.715
      -0.812
      -0.894
      -0.949
      -0.969
      -0.942
      -0.851
      -0.687
      -0.458
      -0.192
       0.078
       0.333
       0.567
       0.785
       0.981
       1.140
       1.239
       1.265
       1.221
       1.121
       0.977
       0.807
       0.640
       0.517
       0.465
       0.478
       0.510
       0.502
       0.416
       0.257
       0.059
      -0.131
      -0.282
      -0.387
      -0.459
      -0.513
      -0.553
      -0.581
      -0.601
      -0.628
      -0.677
      -0.757
      -0.866
      -0.989
      -1.094
      -1.137
      -1.083
      -0.922
      -0.682
      -0.420
      -0.193
      -0.037
       0.047
       0.085
       0.105
       0.128
       0.172
       0.265
       0.419
       0.603
       0.736
       0.729
       0.554
       0.272
      -0.006
      -0.189
      -0.252
      -0.236
      -0.192
      -0.148
      -0.103
      -0.057
      -0.030
      -0.051
      -0.122
      -0.216
      -0.294
      -0.344
      -0.380
      -0.425
      -0.478
      -0.510
      -0.479
      -0.368
      -0.195
      -0.008
       0.145
       0.239
       0.284
       0.305
       0.329
       0.372
       0.434
       0.501
       0.554
       0.585
       0.597
       0.599
       0.591
       0.555
       0.469
       0.326
       0.147
      -0.022
      -0.134
      -0.165
      -0.114
      -0.002
       0.133
       0.244
       0.280
       0.207
       0.024
      -0.220
      -0.450
      -0.598
      -0.634
      -0.582
      -0.491
      -0.403
      -0.329
      -0.252
      -0.147
      -0.012
       0.133
       0.257
       0.337
       0.359
       0.314
       0.201
       0.026
      -0.192
      -0.422
      -0.627
      -0.765
      -0.806
      -0.754
      -0.643
      -0.519
      -0.415
      -0.338
      -0.274
      -0.209
      -0.137
      -0.060
       0.018
       0.101
       0.195
       0.294
       0.378
       0.418
       0.396
       0.314
       0.202
       0.105
       0.072
       0.131
       0.274
       0.448
       0.577
       0.605
       0.517
       0.347
       0.155
      -0.002
      -0.089
      -0.106
      -0.069
       0.000
       0.087
       0.176
       0.239
       0.244
       0.170
       0.025
      -0.154
      -0.320
      -0.433
      -0.483
      -0.486
      -0.465
      -0.430
      -0.373
      -0.285
      -0.165
      -0.030
       0.092
       0.184
       0.242
       0.282
       0.321
       0.368
       0.414
       0.448
       0.468
       0.473
       0.459
       0.420
       0.361
       0.300
       0.260
       0.255
       0.294
       0.380
       0.510
       0.673
       0.835
       0.957
       1.000
       0.940
       0.778
       0.542
       0.269
      -0.008
      -0.276
      -0.539
      -0.798
      -1.044
      -1.246
      -1.366
      -1.373
      -1.257
      -1.037
      -0.750
      -0.435
      -0.121
       0.183
       0.471
       0.734
       0.942
       1.045
       0.991
       0.758
       0.372
      -0.097
      -0.555
      -0.910
      -1.097
      -1.101
      -0.965
      -0.776
      -0.623
      -0.546
      -0.520
      -0.477
      -0.353
      -0.134
       0.138
       0.397
       0.582
       0.655
       0.593
       0.387
       0.050
      -0.368
      -0.788
      -1.133
      -1.355
      -1.449
      -1.436
      -1.344
      -1.201
      -1.040
      -0.914
      -0.881
      -0.975
      -1.173
      -1.401
      -1.581
      -1.678
      -1.717
      -1.756
      -1.849
      -2.013
      -2.226
      -2.435
      -2.587
      -2.643
      -2.580
      -2.391
      -2.080
      -1.674
      -1.209
      -0.712
      -0.180
       0.411
       1.085
       1.842
       2.655
       3.482
       4.288
       5.042
       5.721
       6.295
       6.730
       7.009
       7.153
       7.206
       7.204
       7.127
       6.904
       6.454
       5.747
       4.828
       3.791
       2.733
       1.701
       0.683
      -0.373
      -1.521
      -2.785
      -4.131
      -5.458
      -6.615
      -7.445
      -7.844
      -7.802
      -7.399
      -6.756
      -5.987
      -5.172
      -4.354
      -3.558
      -2.806
      -2.124
      -1.547
      -1.109
      -0.833
      -0.718
      -0.729
      -0.797
      -0.828
      -0.735
      -0.461
       0.003
       0.622
       1.332
       2.064
       2.760
       3.381
       3.907
       4.323
       4.622
       4.798
       4.841
       4.733
       4.463
       4.040
       3.495
       2.867
       2.181
       1.441
       0.649
      -0.174
      -0.970
      -1.648
      -2.119
      -2.344
      -2.355
      -2.231
      -2.043
      -1.815
      -1.541
      -1.214
      -0.846
      -0.462
      -0.090
       0.235
       0.460
       0.511
       0.314
      -0.163
      -0.890
      -1.765
      -2.657
      -3.457
      -4.105
      -4.578
      -4.846
      -4.850
      -4.542
      -3.931
      -3.105
      -2.186
      -1.269
      -0.382
       0.488
       1.349
       2.176
       2.923
       3.556
       4.058
       4.414
       4.596
       4.570
       4.325
       3.890
       3.337
       2.749
       2.192
       1.698
       1.279
       0.947
       0.718
       0.602
       0.584
       0.622
       0.667
       0.684
       0.661
       0.612
       0.559
       0.520
       0.497
       0.463
       0.374
       0.180
      -0.144
      -0.585
      -1.089
      -1.566
      -1.915
      -2.062
      -1.984
      -1.714
      -1.318
      -0.874
      -0.436
      -0.031
       0.346
       0.699
       1.019
       1.274
       1.433
       1.472
       1.375
       1.128
       0.736
       0.224
      -0.351
      -0.924
      -1.430
      -1.820
      -2.062
      -2.144
      -2.069
      -1.857
      -1.541
      -1.168
      -0.787
      -0.442
      -0.168
       0.012
       0.082
       0.044
      -0.077
      -0.248
      -0.440
      -0.662
      -0.948
      -1.323
      -1.770
      -2.217
      -2.560
      -2.710
      -2.623
      -2.316
      -1.848
      -1.307
      -0.788
      -0.378
      -0.126
      -0.019
       0.024
       0.115
       0.348
       0.750
       1.284
       1.881
       2.489
       3.086
       3.674
       4.241
       4.743
       5.107
       5.244
       5.083
       4.595
       3.810
       2.806
       1.672
       0.473
      -0.760
      -2.005
      -3.206
      -4.267
      -5.069
      -5.515
      -5.573
      -5.287
      -4.767
      -4.132
      -3.480
      -2.864
      -2.309
      -1.831
      -1.447
      -1.173
      -1.007
      -0.924
      -0.869
      -0.784
      -0.631
      -0.403
      -0.110
       0.234
       0.624
       1.054
       1.511
       1.967
       2.390
       2.746
       3.007
       3.155
       3.190
       3.129
       3.005
       2.856
       2.707
       2.557
       2.398
       2.241
       2.119
       2.057
       2.032
       1.965
       1.760
       1.356
       0.758
       0.025
      -0.762
      -1.523
      -2.196
      -2.738
      -3.143
      -3.436
      -3.656
      -3.807
      -3.823
      -3.590
      -3.013
      -2.089
      -0.917
       0.349
       1.571
       2.643
       3.486
       4.023
       4.204
       4.042
       3.619
       3.060
       2.466
       1.883
       1.294
       0.665
      -0.012
      -0.708
      -1.368
      -1.938
      -2.365
      -2.596
      -2.578
      -2.295
      -1.780
      -1.122
      -0.431
       0.199
       0.703
       1.050
       1.235
       1.282
       1.240
       1.157
       1.056
       0.914
       0.683
       0.322
      -0.175
      -0.792
      -1.502
      -2.274
      -3.061
      -3.781
      -4.321
      -4.574
      -4.471
      -4.022
      -3.307
      -2.459
      -1.621
      -0.913
      -0.403
      -0.091
       0.081
       0.190
       0.281
       0.356
       0.404
       0.444
       0.529
       0.711
       0.997
       1.351
       1.732
       2.125
       2.547
       3.003
       3.445
       3.771
       3.871
       3.695
       3.281
       2.726
       2.120
       1.508
       0.898
       0.297
      -0.255
      -0.682
      -0.900
      -0.862
      -0.598
      -0.218
       0.123
       0.282
       0.190
      -0.124
      -0.545
      -0.927
      -1.159
      -1.211
      -1.125
      -0.978
      -0.846
      -0.796
      -0.885
      -1.148
      -1.572
      -2.084
      -2.569
      -2.910
      -3.045
      -2.982
      -2.777
      -2.492
      -2.153
      -1.752
      -1.272
      -0.704
      -0.066
       0.612
       1.301
       1.979
       2.629
       3.219
       3.690
       3.973
       4.014
       3.785
       3.294
       2.586
       1.745
       0.888
       0.132
      -0.434
      -0.776
      -0.912
      -0.900
      -0.801
      -0.651
      -0.449
      -0.166
       0.235
       0.777
       1.432
       2.107
       2.650
       2.897
       2.753
       2.232
       1.455
       0.586
      -0.231
      -0.911
      -1.437
      -1.837
      -2.152
      -2.411
      -2.629
      -2.816
      -2.973
      -3.079
      -3.091
      -2.969
      -2.701
      -2.316
      -1.853
      -1.330
      -0.746
      -0.102
       0.565
       1.177
       1.646
       1.912
       1.964
       1.829
       1.548
       1.157
       0.688
       0.178
      -0.319
      -0.737
      -1.023
      -1.163
      -1.192
      -1.181
      -1.188
      -1.235
      -1.298
      -1.314
      -1.199
      -0.876
      -0.313
       0.446
       1.292
       2.086
       2.715
       3.137
       3.391
       3.574
       3.775
       4.021
       4.250
       4.347
       4.200
       3.749
       3.006
       2.044
       0.974
      -0.086
      -1.041
      -1.823
      -2.401
      -2.776
      -2.986
      -3.083
      -3.111
      -3.081
