Origin Time       07/09/2011 17:58:18
Lat.              28.6 N	
Long.             77.0 E	
Depth (Km)          8.0
Magnitude         4.2
 Region           DELHI-HARYANA(SONIPAT)                                           
 Above details taken from IMD 
     
Station Code      NOI
Station Lat.       28.507  N
Station Long.      77.479  E
Station Height(m)  201.0
Site Class        C   Vs30 between 200 m/sec to 375 m/sec *  
Record Time       07.09.2011 17:58:14.809
Sampling Rate     200. Hz
 Record Duration   65.540 Sec.
 Direction         E-W (E positive)
Max. Acceleration     -8.753 cm/sec**2
     
  * For reference see Site Classification link of website 
     
 Base Line Corrected and Low Pass Filtered (Cut Off at 35 Hz) Time History
 Acceleration data in cm/sec**2
    
[...]
       0.009
       0.008
      -0.002
      -0.015
      -0.022
      -0.020
      -0.009
       0.003
       0.011
       0.011
       0.006
       0.001
      -0.001
      -0.003
      -0.008
      -0.016
      -0.020
      -0.018
      -0.011
      -0.004
      -0.002
      -0.006
      -0.014
      -0.021
      -0.023
      -0.022
      -0.019
      -0.014
      -0.009
      -0.002
       0.005
       0.010
       0.016
       0.020
       0.020
       0.016
       0.012
       0.010
       0.008
       0.004
      -0.004
      -0.011
      -0.013
      -0.011
      -0.007
      -0.007
      -0.011
      -0.018
      -0.021
      -0.017
      -0.009
      -0.006
      -0.011
      -0.018
      -0.022
      -0.018
      -0.011
      -0.003
       0.002
       0.002
       0.000
      -0.002
      -0.002
      -0.001
      -0.001
      -0.003
      -0.006
      -0.015
      -0.028
      -0.045
      -0.059
      -0.067
      -0.069
      -0.066
      -0.059
      -0.050
      -0.038
      -0.021
       0.002
       0.029
       0.058
       0.087
       0.114
       0.139
       0.157
       0.161
       0.150
       0.129
       0.101
       0.072
       0.048
       0.038
       0.046
       0.061
       0.061
       0.030
      -0.032
      -0.111
      -0.192
      -0.256
      -0.281
      -0.241
      -0.126
       0.043
       0.212
       0.313
       0.306
       0.197
       0.028
      -0.150
      -0.304
      -0.408
      -0.439
      -0.386
      -0.260
      -0.086
       0.118
       0.344
       0.575
       0.762
       0.840
       0.764
       0.535
       0.190
      -0.213
      -0.596
      -0.866
      -0.949
      -0.823
      -0.529
      -0.152
       0.205
       0.453
       0.539
       0.471
       0.308
       0.122
      -0.040
      -0.166
      -0.256
      -0.307
      -0.309
      -0.258
      -0.162
      -0.044
       0.063
       0.129
       0.151
       0.160
       0.186
       0.218
       0.208
       0.113
      -0.052
      -0.205
      -0.247
      -0.145
       0.038
       0.189
       0.224
       0.134
      -0.024
      -0.178
      -0.270
      -0.279
      -0.214
      -0.109
      -0.010
       0.042
       0.037
      -0.001
      -0.030
      -0.034
      -0.030
      -0.048
      -0.107
      -0.223
      -0.409
      -0.650
      -0.888
      -1.044
      -1.076
      -1.000
      -0.855
      -0.660
      -0.415
      -0.130
       0.163
       0.434
       0.668
       0.864
       1.035
       1.202
       1.369
       1.497
       1.528
       1.444
       1.290
       1.137
       1.014
       0.893
       0.727
       0.501
       0.249
       0.026
      -0.131
      -0.217
      -0.243
      -0.222
      -0.158
      -0.072
      -0.015
      -0.063
      -0.279
      -0.671
      -1.169
      -1.639
      -1.929
      -1.936
      -1.658
      -1.190
      -0.671
      -0.216
       0.115
       0.314
       0.419
       0.510
       0.663
       0.875
       1.028
       0.976
       0.676
       0.237
      -0.165
      -0.422
      -0.535
      -0.552
      -0.498
      -0.366
      -0.159
       0.079
       0.278
       0.378
       0.363
       0.272
       0.173
       0.106
       0.058
      -0.033
      -0.210
      -0.442
      -0.636
      -0.703
      -0.619
      -0.422
      -0.172
       0.078
       0.280
       0.378
       0.338
       0.171
      -0.065
      -0.290
      -0.420
      -0.391
      -0.192
       0.110
       0.401
       0.592
       0.671
       0.688
       0.682
       0.642
       0.533
       0.360
       0.183
       0.066
       0.026
       0.033
       0.056
       0.096
       0.162
       0.245
       0.304
       0.293
       0.189
      -0.001
      -0.233
      -0.446
      -0.583
      -0.638
      -0.660
      -0.699
      -0.752
      -0.762
      -0.680
      -0.511
      -0.302
      -0.083
       0.153
       0.428
       0.721
       0.956
       1.039
       0.917
       0.604
       0.162
      -0.319
      -0.745
      -1.023
      -1.097
      -0.968
      -0.694
      -0.352
      -0.016
       0.263
       0.462
       0.585
       0.647
       0.655
       0.602
       0.489
       0.344
       0.205
       0.102
       0.045
       0.031
       0.046
       0.054
       0.004
      -0.140
      -0.358
      -0.572
      -0.687
      -0.632
      -0.398
      -0.050
       0.303
       0.557
       0.663
       0.630
       0.492
       0.283
       0.043
      -0.172
      -0.296
      -0.300
      -0.222
      -0.147
      -0.139
      -0.194
      -0.252
      -0.263
      -0.246
      -0.266
      -0.373
      -0.529
      -0.612
      -0.491
      -0.127
       0.378
       0.827
       1.045
       0.977
       0.690
       0.308
      -0.053
      -0.305
      -0.396
      -0.324
      -0.153
       0.013
       0.111
       0.158
       0.215
       0.304
       0.379
       0.374
       0.274
       0.121
      -0.031
      -0.156
      -0.259
      -0.337
      -0.361
      -0.313
      -0.207
      -0.085
       0.024
       0.123
       0.227
       0.329
       0.401
       0.413
       0.345
       0.193
      -0.032
      -0.299
      -0.558
      -0.770
      -0.906
      -0.929
      -0.798
      -0.507
      -0.119
       0.250
       0.502
       0.596
       0.542
       0.376
       0.151
      -0.060
      -0.168
      -0.110
       0.099
       0.363
       0.562
       0.615
       0.500
       0.251
      -0.056
      -0.325
      -0.477
      -0.501
      -0.446
      -0.373
      -0.309
      -0.241
      -0.148
      -0.020
       0.139
       0.317
       0.486
       0.596
       0.610
       0.523
       0.361
       0.164
      -0.030
      -0.169
      -0.202
      -0.112
       0.044
       0.159
       0.148
       0.016
      -0.153
      -0.274
      -0.338
      -0.384
      -0.440
      -0.482
      -0.467
      -0.376
      -0.239
      -0.120
      -0.064
      -0.061
      -0.048
       0.033
       0.187
       0.357
       0.472
       0.496
       0.446
       0.375
       0.322
       0.294
       0.267
       0.221
       0.165
       0.124
       0.111
       0.111
       0.106
       0.083
       0.026
      -0.090
      -0.265
      -0.436
      -0.501
      -0.404
      -0.177
       0.083
       0.270
       0.312
       0.193
      -0.038
      -0.286
      -0.468
      -0.550
      -0.534
      -0.427
      -0.247
      -0.032
       0.173
       0.331
       0.420
       0.436
       0.381
       0.274
       0.150
       0.046
      -0.016
      -0.040
      -0.054
      -0.092
      -0.183
      -0.339
      -0.531
      -0.686
      -0.703
      -0.521
      -0.157
       0.281
       0.643
       0.794
       0.674
       0.346
      -0.005
      -0.171
      -0.055
       0.265
       0.592
       0.747
       0.663
       0.394
       0.054
      -0.233
      -0.383
      -0.377
      -0.261
      -0.124
      -0.041
      -0.048
      -0.138
      -0.272
      -0.392
      -0.433
      -0.358
      -0.181
       0.050
       0.284
       0.475
       0.575
       0.538
       0.364
       0.121
      -0.089
      -0.198
      -0.196
      -0.121
      -0.036
      -0.018
      -0.117
      -0.303
      -0.470
      -0.513
      -0.398
      -0.168
       0.097
       0.318
       0.424
       0.384
       0.238
       0.084
       0.022
       0.093
       0.262
       0.436
       0.513
       0.413
       0.105
      -0.360
      -0.843
      -1.158
      -1.188
      -0.956
      -0.595
      -0.247
       0.001
       0.111
       0.091
      -0.016
      -0.129
      -0.169
      -0.090
       0.105
       0.368
       0.625
       0.808
       0.889
       0.877
       0.785
       0.615
       0.387
       0.159
      -0.013
      -0.115
      -0.178
      -0.222
      -0.231
      -0.185
      -0.103
      -0.037
      -0.037
      -0.105
      -0.189
      -0.200
      -0.068
       0.194
       0.465
       0.571
       0.411
       0.031
      -0.399
      -0.716
      -0.856
      -0.854
      -0.760
      -0.583
      -0.312
       0.025
       0.356
       0.608
       0.751
       0.792
       0.750
       0.650
       0.522
       0.385
       0.233
       0.047
      -0.167
      -0.369
      -0.513
      -0.574
      -0.550
      -0.448
      -0.296
      -0.163
      -0.139
      -0.259
      -0.466
      -0.645
      -0.713
      -0.659
      -0.519
      -0.329
      -0.121
       0.071
       0.227
       0.366
       0.531
       0.745
       0.966
       1.110
       1.126
       1.045
       0.938
       0.826
       0.655
       0.359
      -0.052
      -0.494
      -0.868
      -1.120
      -1.228
      -1.177
      -0.975
      -0.671
      -0.350
      -0.077
       0.140
       0.332
       0.545
       0.796
       1.057
       1.259
       1.318
       1.198
       0.929
       0.595
       0.270
      -0.008
      -0.231
      -0.381
      -0.431
      -0.384
      -0.297
      -0.262
      -0.356
      -0.600
      -0.938
      -1.247
      -1.377
      -1.232
      -0.845
      -0.375
       0.001
       0.196
       0.239
       0.211
       0.170
       0.126
       0.085
       0.074
       0.124
       0.227
       0.320
       0.321
       0.180
      -0.086
      -0.392
      -0.613
      -0.645
      -0.473
      -0.190
       0.061
       0.176
       0.155
       0.096
       0.143
       0.379
       0.746
       1.067
       1.187
       1.087
       0.859
       0.590
       0.305
       0.008
      -0.265
      -0.463
      -0.573
      -0.624
      -0.650
      -0.665
      -0.662
      -0.639
      -0.610
      -0.591
      -0.568
      -0.479
      -0.256
       0.112
       0.542
       0.886
       1.011
       0.864
       0.502
       0.075
      -0.241
      -0.321
      -0.151
       0.183
       0.548
       0.819
       0.909
       0.789
       0.507
       0.187
      -0.025
      -0.054
       0.067
       0.238
       0.364
       0.386
       0.263
      -0.030
      -0.467
      -0.948
      -1.337
      -1.537
      -1.536
      -1.377
      -1.109
      -0.751
      -0.329
       0.097
       0.443
       0.652
       0.724
       0.707
       0.662
       0.624
       0.587
       0.506
       0.342
       0.115
      -0.066
      -0.080
       0.116
       0.442
       0.767
       1.002
       1.114
       1.092
       0.928
       0.629
       0.235
      -0.194
      -0.611
      -0.982
      -1.275
      -1.453
      -1.499
      -1.422
      -1.241
      -0.979
      -0.669
      -0.351
      -0.049
       0.231
       0.479
       0.646
       0.654
       0.453
       0.085
      -0.319
      -0.611
      -0.715
      -0.657
      -0.529
      -0.415
      -0.344
      -0.284
      -0.162
       0.102
       0.533
       1.054
       1.501
       1.724
       1.698
       1.534
       1.376
       1.281
       1.192
       1.006
       0.668
       0.215
      -0.257
      -0.639
      -0.869
      -0.947
      -0.912
      -0.791
      -0.591
      -0.340
      -0.117
       0.000
       0.001
      -0.039
      -0.034
       0.032
       0.104
       0.132
       0.117
       0.097
       0.087
       0.060
      -0.020
      -0.154
      -0.291
      -0.361
      -0.328
      -0.229
      -0.151
      -0.172
      -0.295
      -0.459
      -0.602
      -0.691
      -0.725
      -0.698
      -0.590
      -0.392
      -0.126
       0.160
       0.413
       0.591
       0.672
       0.664
       0.598
       0.509
       0.405
       0.265
       0.076
      -0.147
      -0.371
      -0.555
      -0.643
      -0.582
      -0.362
      -0.047
       0.256
       0.461
       0.551
       0.570
       0.580
       0.604
       0.604
       0.519
       0.325
       0.057
      -0.226
      -0.486
      -0.706
      -0.860
      -0.894
      -0.763
      -0.485
      -0.151
       0.129
       0.289
       0.325
       0.277
       0.216
       0.228
       0.367
       0.612
       0.856
       0.963
       0.857
       0.568
       0.213
      -0.083
      -0.246
      -0.287
      -0.285
      -0.324
      -0.421
      -0.519
      -0.550
      -0.508
      -0.438
      -0.365
      -0.256
      -0.073
       0.173
       0.421
       0.617
       0.734
       0.762
       0.697
       0.574
       0.463
       0.416
       0.416
       0.392
       0.293
       0.131
      -0.049
      -0.214
      -0.365
      -0.502
      -0.588
      -0.567
      -0.427
      -0.235
      -0.108
      -0.122
      -0.283
      -0.542
      -0.842
      -1.130
      -1.349
      -1.464
      -1.491
      -1.502
      -1.565
      -1.691
      -1.834
      -1.925
      -1.904
      -1.750
      -1.475
      -1.090
      -0.567
       0.142
       1.046
       2.081
       3.129
       4.071
       4.823
       5.347
       5.655
       5.790
       5.788
       5.641
       5.291
       4.645
       3.601
       2.105
       0.219
      -1.840
      -3.760
      -5.271
      -6.274
      -6.857
      -7.179
      -7.340
      -7.331
      -7.073
      -6.491
      -5.544
      -4.210
      -2.502
      -0.529
       1.460
       3.109
       4.071
       4.175
       3.565
       2.712
       2.240
       2.614
       3.887
       5.667
       7.327
       8.287
       8.226
       7.166
       5.429
       3.471
       1.646
       0.053
      -1.432
      -2.971
      -4.605
      -6.224
      -7.618
      -8.539
      -8.753
      -8.120
      -6.669
      -4.629
      -2.367
      -0.284
       1.330
       2.387
       2.971
       3.206
       3.141
       2.778
       2.168
       1.484
       0.972
       0.815
       1.016
       1.396
       1.696
       1.701
       1.310
       0.546
      -0.486
      -1.643
      -2.773
      -3.739
      -4.450
      -4.889
      -5.088
      -5.052
      -4.692
      -3.832
      -2.340
      -0.267
       2.099
       4.318
       6.000
       6.950
       7.189
       6.845
       6.064
       4.985
       3.789
       2.690
       1.855
       1.294
       0.834
       0.218
      -0.725
      -1.968
      -3.277
      -4.299
      -4.719
      -4.394
      -3.417
      -2.063
      -0.676
       0.453
       1.148
       1.336
       1.012
       0.226
      -0.870
      -1.988
      -2.760
      -2.900
      -2.370
      -1.408
      -0.390
       0.386
       0.850
       1.128
       1.378
       1.636
       1.810
       1.779
       1.523
       1.159
       0.865
       0.769
       0.876
       1.087
       1.266
       1.328
       1.268
       1.136
       0.970
       0.740
       0.379
      -0.136
      -0.707
      -1.172
      -1.436
      -1.563
      -1.751
      -2.196
      -2.952
      -3.865
      -4.612
      -4.854
      -4.411
      -3.352
      -1.931
      -0.441
       0.907
       2.025
       2.906
       3.591
       4.140
       4.597
       4.967
       5.204
       5.235
       4.996
       4.453
       3.617
       2.574
       1.489
       0.561
      -0.077
      -0.442
      -0.707
      -1.119
      -1.867
      -2.974
      -4.245
      -5.343
      -5.954
      -5.957
      -5.486
      -4.824
      -4.191
      -3.595
      -2.870
      -1.870
      -0.640
       0.591
       1.570
       2.183
       2.490
       2.637
       2.737
       2.821
       2.883
       2.931
       2.978
       2.986
       2.846
       2.475
       1.920
       1.365
       1.012
       0.953
       1.137
       1.424
       1.655
       1.686
       1.388
       0.684
      -0.396
      -1.656
      -2.771
      -3.410
      -3.427
      -2.964
      -2.371
      -1.977
      -1.880
      -1.947
      -1.986
      -1.907
      -1.711
      -1.386
      -0.880
      -0.207
       0.439
       0.737
       0.460
      -0.321
      -1.235
      -1.821
      -1.784
      -1.102
       0.034
       1.342
       2.517
       3.292
       3.518
       3.248
       2.735
       2.280
       2.044
       1.954
       1.814
       1.496
       1.039
       0.571
       0.148
      -0.309
      -0.915
      -1.641
      -2.221
      -2.324
      -1.849
      -1.081
      -0.500
      -0.410
      -0.729
      -1.128
      -1.341
      -1.338
      -1.239
      -1.122
      -0.942
      -0.608
      -0.100
       0.501
       1.075
       1.545
       1.893
       2.115
       2.179
       2.020
       1.590
       0.931
       0.195
      -0.403
      -0.698
      -0.666
      -0.423
      -0.140
       0.067
       0.176
       0.234
       0.307
       0.436
       0.599
       0.682
       0.516
       0.006
      -0.744
      -1.441
      -1.807
      -1.780
      -1.536
      -1.329
      -1.303
      -1.429
      -1.581
      -1.638
      -1.535
      -1.246
      -0.765
      -0.108
       0.652
       1.364
       1.831
       1.900
       1.561
       0.981
       0.427
       0.138
       0.206
       0.538
       0.901
       1.033
       0.784
       0.211
      -0.444
      -0.872
      -0.869
      -0.440
       0.205
       0.756
       0.963
       0.764
       0.309
      -0.135
      -0.337
      -0.222
       0.103
       0.419
       0.507
       0.280
      -0.172
      -0.640
      -0.940
      -1.000
      -0.867
      -0.650
      -0.455
      -0.330
      -0.259
      -0.196
      -0.108
       0.025
       0.231
       0.504
       0.738
       0.754
       0.456
      -0.023
      -0.381
      -0.364
       0.041
       0.604
       0.997
       0.993
       0.588
      -0.020
      -0.574
      -0.905
      -0.960
      -0.743
      -0.256
       0.438
       1.150
       1.601
       1.594
       1.164
       0.585
       0.190
       0.160
       0.418
       0.735
       0.913
       0.896
       0.735
       0.461
       0.038
      -0.584
      -1.357
      -2.115
      -2.667
      -2.925
      -2.932
      -2.762
      -2.439
      -1.945
      -1.293
      -0.563
       0.135
       0.729
       1.208
       1.602
       1.934
       2.187
       2.312
       2.277
       2.126
       1.952
       1.839
       1.803
       1.802
       1.757
       1.566
       1.115
       0.322
      -0.788
      -2.042
      -3.160
      -3.853
      -3.923
      -3.341
      -2.267
      -1.010
       0.084
       0.749
       0.918
       0.744
       0.538
       0.587
       0.983
       1.566
       2.038
       2.156
       1.855
       1.227
       0.435
      -0.347
      -0.949
      -1.246
      -1.215
      -0.962
      -0.667
      -0.489
      -0.477
      -0.552
      -0.578
      -0.482
      -0.304
      -0.138
      -0.029
       0.070
       0.224
       0.440
       0.652
       0.782
       0.806
       0.754
       0.659
       0.492
       0.168
      -0.378
      -1.100
      -1.816
      -2.302
      -2.428
      -2.243
      -1.916
      -1.597
      -1.328
      -1.066
      -0.745
      -0.316
       0.263
       0.986
       1.759
       2.398
       2.721
       2.653
       2.250
       1.661
       1.078
       0.673
       0.523
       0.552
       0.565
       0.375
      -0.078
      -0.699
      -1.295
      -1.663
      -1.677
      -1.341
      -0.800
      -0.254
       0.163
       0.429
       0.587
       0.666
       0.677
       0.643
       0.578
