Origin Time       07/09/2011 17:58:18 UTC
Lat.              28.6 N	
Long.             77.0 E	
Depth (Km)          8.0
Magnitude         4.2
 Region           DELHI-HARYANA(SONIPAT)                                           
 Above details taken from IMD 
    
Station Code      NOI
Station Lat.       28.507  N
Station Long.      77.479  E
Station Height(m)  201.0
Site Class        C   Vs30 between 200 m/sec to 375 m/sec *  
Record Time       07.09.2011 17:58:14.809 UTC
Sampling Rate     200. Hz
 Record Duration   65.540 Sec.
 Direction         N-S (N positive)
Max. Acceleration     10.885 cm/sec**2
     
  * For reference see Site Classification link of website 
     
 Base Line Corrected and Low Pass Filtered (Cut Off at 35 Hz) Time History
 Acceleration data in cm/sec**2
    
[...]
      -0.012
      -0.004
       0.006
       0.013
       0.016
       0.014
       0.007
       0.000
      -0.003
       0.003
       0.014
       0.024
       0.027
       0.026
       0.024
       0.023
       0.022
       0.020
       0.017
       0.013
       0.010
       0.008
       0.006
       0.002
      -0.005
      -0.012
      -0.017
      -0.020
      -0.020
      -0.020
      -0.020
      -0.022
      -0.025
      -0.025
      -0.020
      -0.013
      -0.009
      -0.011
      -0.015
      -0.014
      -0.007
       0.006
       0.021
       0.033
       0.039
       0.038
       0.031
       0.023
       0.017
       0.017
       0.022
       0.028
       0.027
       0.017
       0.001
      -0.011
      -0.013
      -0.008
      -0.001
       0.003
       0.002
      -0.002
      -0.003
       0.000
       0.006
       0.008
       0.003
      -0.002
      -0.004
      -0.001
       0.004
       0.007
       0.006
       0.001
      -0.007
      -0.014
      -0.017
      -0.017
      -0.016
      -0.016
      -0.014
      -0.009
      -0.007
      -0.011
      -0.018
      -0.022
      -0.017
      -0.005
       0.008
       0.016
       0.017
       0.015
       0.014
       0.016
       0.017
       0.017
       0.016
       0.015
       0.015
       0.013
       0.009
       0.006
       0.003
       0.000
      -0.004
      -0.009
      -0.012
      -0.015
      -0.015
      -0.012
      -0.004
       0.006
       0.016
       0.026
       0.036
       0.046
       0.054
       0.061
       0.065
       0.067
       0.064
       0.054
       0.039
       0.021
       0.004
      -0.011
      -0.025
      -0.041
      -0.058
      -0.070
      -0.069
      -0.051
      -0.018
       0.021
       0.055
       0.078
       0.082
       0.063
       0.022
      -0.034
      -0.089
      -0.133
      -0.155
      -0.147
      -0.103
      -0.022
       0.079
       0.175
       0.235
       0.241
       0.198
       0.129
       0.058
       0.000
      -0.045
      -0.080
      -0.103
      -0.111
      -0.109
      -0.100
      -0.079
      -0.041
       0.012
       0.063
       0.087
       0.069
       0.013
      -0.062
      -0.125
      -0.143
      -0.093
       0.016
       0.147
       0.250
       0.289
       0.253
       0.158
       0.038
      -0.063
      -0.116
      -0.111
      -0.060
       0.004
       0.045
       0.040
      -0.008
      -0.070
      -0.107
      -0.101
      -0.066
      -0.030
      -0.018
      -0.041
      -0.091
      -0.154
      -0.203
      -0.207
      -0.146
      -0.022
       0.125
       0.240
       0.280
       0.242
       0.160
       0.080
       0.027
       0.003
      -0.003
       0.000
       0.007
       0.018
       0.032
       0.043
       0.050
       0.063
       0.096
       0.151
       0.211
       0.250
       0.239
       0.161
       0.023
      -0.128
      -0.224
      -0.221
      -0.137
      -0.037
       0.025
       0.034
       0.010
      -0.025
      -0.060
      -0.094
      -0.128
      -0.164
      -0.198
      -0.223
      -0.230
      -0.215
      -0.187
      -0.149
      -0.112
      -0.087
      -0.093
      -0.136
      -0.202
      -0.254
      -0.246
      -0.141
       0.061
       0.317
       0.557
       0.725
       0.807
       0.813
       0.751
       0.615
       0.397
       0.119
      -0.159
      -0.367
      -0.457
      -0.435
      -0.343
      -0.230
      -0.122
      -0.026
       0.050
       0.087
       0.071
       0.017
      -0.047
      -0.106
      -0.178
      -0.282
      -0.408
      -0.514
      -0.559
      -0.526
      -0.414
      -0.229
       0.020
       0.306
       0.573
       0.756
       0.811
       0.732
       0.552
       0.326
       0.107
      -0.069
      -0.193
      -0.277
      -0.327
      -0.326
      -0.253
      -0.114
       0.041
       0.146
       0.166
       0.116
       0.041
      -0.018
      -0.050
      -0.072
      -0.099
      -0.117
      -0.091
       0.000
       0.134
       0.245
       0.264
       0.167
      -0.007
      -0.181
      -0.283
      -0.273
      -0.155
       0.036
       0.249
       0.429
       0.531
       0.531
       0.437
       0.288
       0.132
       0.004
      -0.101
      -0.212
      -0.342
      -0.466
      -0.529
      -0.491
      -0.361
      -0.204
      -0.106
      -0.115
      -0.215
      -0.345
      -0.435
      -0.440
      -0.355
      -0.196
       0.015
       0.256
       0.494
       0.673
       0.744
       0.697
       0.571
       0.423
       0.292
       0.186
       0.091
      -0.007
      -0.115
      -0.218
      -0.290
      -0.316
      -0.295
      -0.239
      -0.158
      -0.063
       0.028
       0.093
       0.115
       0.083
       0.005
      -0.098
      -0.196
      -0.263
      -0.284
      -0.252
      -0.159
      -0.009
       0.171
       0.333
       0.437
       0.472
       0.443
       0.351
       0.186
      -0.042
      -0.278
      -0.443
      -0.477
      -0.378
      -0.193
       0.018
       0.207
       0.349
       0.428
       0.427
       0.338
       0.176
      -0.024
      -0.221
      -0.374
      -0.454
      -0.449
      -0.364
      -0.220
      -0.053
       0.092
       0.179
       0.193
       0.149
       0.079
       0.010
      -0.046
      -0.093
      -0.131
      -0.146
      -0.130
      -0.105
      -0.114
      -0.179
      -0.270
      -0.319
      -0.269
      -0.113
       0.098
       0.285
       0.393
       0.414
       0.383
       0.337
       0.297
       0.266
       0.235
       0.196
       0.141
       0.067
      -0.012
      -0.074
      -0.104
      -0.104
      -0.091
      -0.083
      -0.088
      -0.102
      -0.104
      -0.073
      -0.012
       0.051
       0.084
       0.076
       0.032
      -0.039
      -0.136
      -0.251
      -0.362
      -0.424
      -0.386
      -0.219
       0.059
       0.381
       0.661
       0.830
       0.852
       0.740
       0.536
       0.292
       0.046
      -0.177
      -0.352
      -0.452
      -0.460
      -0.388
      -0.278
      -0.174
      -0.098
      -0.042
       0.010
       0.046
       0.031
      -0.055
      -0.190
      -0.310
      -0.352
      -0.300
      -0.193
      -0.086
      -0.010
       0.050
       0.119
       0.198
       0.258
       0.274
       0.252
       0.225
       0.209
       0.188
       0.127
       0.023
      -0.087
      -0.165
      -0.205
      -0.244
      -0.321
      -0.429
      -0.510
      -0.504
      -0.403
      -0.246
      -0.082
       0.052
       0.134
       0.141
       0.072
      -0.038
      -0.128
      -0.142
      -0.069
       0.043
       0.120
       0.103
       0.000
      -0.115
      -0.151
      -0.063
       0.128
       0.352
       0.535
       0.628
       0.625
       0.560
       0.489
       0.446
       0.420
       0.368
       0.261
       0.108
      -0.062
      -0.212
      -0.304
      -0.310
      -0.229
      -0.098
       0.016
       0.050
      -0.025
      -0.184
      -0.355
      -0.465
      -0.476
      -0.388
      -0.234
      -0.052
       0.120
       0.249
       0.304
       0.261
       0.132
      -0.032
      -0.154
      -0.188
      -0.142
      -0.073
      -0.038
      -0.064
      -0.129
      -0.179
      -0.160
      -0.052
       0.108
       0.246
       0.297
       0.241
       0.112
      -0.025
      -0.113
      -0.124
      -0.065
       0.033
       0.139
       0.224
       0.268
       0.257
       0.190
       0.080
      -0.046
      -0.154
      -0.223
      -0.254
      -0.253
      -0.231
      -0.198
      -0.174
      -0.171
      -0.175
      -0.156
      -0.096
      -0.010
       0.070
       0.122
       0.139
       0.124
       0.086
       0.045
       0.015
      -0.012
      -0.053
      -0.112
      -0.163
      -0.167
      -0.110
      -0.006
       0.116
       0.224
       0.296
       0.325
       0.322
       0.299
       0.257
       0.194
       0.118
       0.060
       0.056
       0.111
       0.179
       0.190
       0.099
      -0.087
      -0.331
      -0.587
      -0.802
      -0.919
      -0.896
      -0.736
      -0.474
      -0.160
       0.158
       0.437
       0.649
       0.782
       0.835
       0.813
       0.730
       0.617
       0.502
       0.391
       0.262
       0.101
      -0.076
      -0.234
      -0.352
      -0.431
      -0.474
      -0.476
      -0.435
      -0.371
      -0.309
      -0.259
      -0.206
      -0.139
      -0.068
      -0.016
       0.011
       0.023
       0.031
       0.022
      -0.020
      -0.083
      -0.122
      -0.088
       0.014
       0.124
       0.165
       0.102
      -0.043
      -0.212
      -0.348
      -0.425
      -0.443
      -0.416
      -0.351
      -0.236
      -0.059
       0.169
       0.409
       0.606
       0.719
       0.734
       0.669
       0.557
       0.436
       0.335
       0.265
       0.225
       0.212
       0.215
       0.213
       0.171
       0.062
      -0.105
      -0.284
      -0.417
      -0.460
      -0.396
      -0.248
      -0.064
       0.103
       0.220
       0.274
       0.269
       0.210
       0.100
      -0.058
      -0.250
      -0.433
      -0.542
      -0.525
      -0.395
      -0.234
      -0.144
      -0.173
      -0.282
      -0.381
      -0.387
      -0.275
      -0.093
       0.078
       0.171
       0.170
       0.117
       0.077
       0.095
       0.170
       0.257
       0.306
       0.303
       0.270
       0.233
       0.197
       0.155
       0.119
       0.130
       0.215
       0.341
       0.420
       0.363
       0.157
      -0.126
      -0.376
      -0.517
      -0.537
      -0.465
      -0.341
      -0.206
      -0.109
      -0.087
      -0.138
      -0.211
      -0.245
      -0.210
      -0.123
      -0.027
       0.037
       0.044
      -0.010
      -0.110
      -0.212
      -0.262
      -0.226
      -0.101
       0.087
       0.292
       0.460
       0.556
       0.589
       0.604
       0.623
       0.622
       0.557
       0.421
       0.249
       0.084
      -0.054
      -0.166
      -0.261
      -0.353
      -0.445
      -0.517
      -0.538
      -0.489
      -0.379
      -0.238
      -0.094
       0.041
       0.164
       0.269
       0.338
       0.361
       0.342
       0.305
       0.265
       0.205
       0.092
      -0.095
      -0.332
      -0.566
      -0.734
      -0.792
      -0.718
      -0.510
      -0.191
       0.187
       0.545
       0.803
       0.919
       0.900
       0.785
       0.620
       0.443
       0.276
       0.129
       0.003
      -0.107
      -0.202
      -0.272
      -0.298
      -0.269
      -0.202
      -0.138
      -0.110
      -0.125
      -0.173
      -0.256
      -0.388
      -0.566
      -0.746
      -0.852
      -0.818
      -0.643
      -0.388
      -0.151
      -0.005
       0.033
      -0.001
      -0.040
      -0.014
       0.122
       0.366
       0.656
       0.894
       0.996
       0.940
       0.766
       0.545
       0.339
       0.186
       0.102
       0.087
       0.130
       0.208
       0.290
       0.341
       0.330
       0.258
       0.157
       0.073
       0.025
      -0.007
      -0.066
      -0.182
      -0.356
      -0.559
      -0.758
      -0.923
      -1.037
      -1.088
      -1.063
      -0.947
      -0.740
      -0.467
      -0.177
       0.080
       0.270
       0.375
       0.391
       0.326
       0.208
       0.088
       0.016
       0.016
       0.074
       0.147
       0.200
       0.236
       0.288
       0.384
       0.504
       0.596
       0.621
       0.579
       0.497
       0.403
       0.317
       0.246
       0.190
       0.133
       0.051
      -0.075
      -0.247
      -0.446
      -0.641
      -0.793
      -0.864
      -0.825
      -0.667
      -0.402
      -0.072
       0.258
       0.514
       0.651
       0.684
       0.677
       0.688
       0.722
       0.734
       0.667
       0.494
       0.229
      -0.084
      -0.386
      -0.621
      -0.744
      -0.745
      -0.646
      -0.493
      -0.339
      -0.229
      -0.198
      -0.246
      -0.332
      -0.395
      -0.405
      -0.395
      -0.419
      -0.494
      -0.572
      -0.565
      -0.405
      -0.095
       0.287
       0.639
       0.896
       1.037
       1.069
       0.994
       0.821
       0.580
       0.326
       0.107
      -0.068
      -0.222
      -0.356
      -0.430
      -0.399
      -0.267
      -0.093
       0.058
       0.144
       0.153
       0.091
      -0.013
      -0.113
      -0.160
      -0.144
      -0.097
      -0.066
      -0.074
      -0.106
      -0.124
      -0.093
       0.000
       0.134
       0.265
       0.354
       0.393
       0.407
       0.423
       0.442
       0.435
       0.356
       0.172
      -0.104
      -0.400
      -0.607
      -0.645
      -0.521
      -0.334
      -0.209
      -0.217
      -0.325
      -0.427
      -0.421
      -0.276
      -0.042
       0.193
       0.363
       0.428
       0.364
       0.163
      -0.139
      -0.461
      -0.725
      -0.903
      -1.026
      -1.134
      -1.237
      -1.320
      -1.371
      -1.405
      -1.450
      -1.517
      -1.581
      -1.603
      -1.574
      -1.524
      -1.491
      -1.477
      -1.439
      -1.309
      -0.993
      -0.379
       0.652
       2.163
       4.108
       6.298
       8.411
      10.056
      10.885
      10.696
       9.485
       7.414
       4.750
       1.796
      -1.167
      -3.906
      -6.246
      -8.049
      -9.184
      -9.523
      -8.987
      -7.606
      -5.547
      -3.092
      -0.588
       1.610
       3.206
       4.028
       4.070
       3.479
       2.496
       1.359
       0.236
      -0.791
      -1.702
      -2.479
      -3.060
      -3.325
      -3.150
      -2.498
      -1.482
      -0.322
       0.756
       1.593
       2.113
       2.304
       2.215
       1.934
       1.567
       1.203
       0.924
       0.806
       0.909
       1.239
       1.737
       2.285
       2.742
       2.989
       2.961
       2.659
       2.096
       1.258
       0.124
      -1.255
      -2.717
      -4.032
      -5.009
      -5.567
      -5.729
      -5.549
      -5.039
      -4.173
      -2.948
      -1.439
       0.201
       1.784
       3.136
       4.115
       4.623
       4.609
       4.083
       3.140
       1.943
       0.682
      -0.472
      -1.383
      -1.958
      -2.178
      -2.106
      -1.878
      -1.626
      -1.401
      -1.131
      -0.692
      -0.032
       0.746
       1.415
       1.742
       1.593
       0.986
       0.090
      -0.802
      -1.369
      -1.387
      -0.836
       0.085
       1.051
       1.762
       2.052
       1.928
       1.528
       1.046
       0.641
       0.373
       0.195
       0.001
      -0.314
      -0.808
      -1.464
      -2.191
      -2.839
      -3.234
      -3.233
      -2.802
      -2.052
      -1.185
      -0.363
       0.398
       1.208
       2.160
       3.195
       4.093
       4.599
       4.580
       4.085
       3.266
       2.271
       1.185
       0.060
      -1.027
      -1.964
      -2.637
      -2.988
      -3.036
      -2.845
      -2.465
      -1.924
      -1.276
      -0.647
      -0.209
      -0.092
      -0.318
      -0.782
      -1.286
      -1.613
      -1.623
      -1.310
      -0.802
      -0.282
       0.130
       0.465
       0.884
       1.563
       2.531
       3.613
       4.496
       4.877
       4.601
       3.719
       2.434
       0.983
      -0.446
      -1.730
      -2.765
      -3.459
      -3.750
      -3.640
      -3.203
      -2.569
      -1.895
      -1.318
      -0.902
      -0.604
      -0.303
       0.095
       0.553
       0.903
       0.983
       0.789
       0.510
       0.410
       0.647
       1.177
       1.785
       2.220
       2.329
       2.108
       1.639
       1.000
       0.238
      -0.589
      -1.353
      -1.885
      -2.053
      -1.832
      -1.330
      -0.750
      -0.297
      -0.104
      -0.183
      -0.419
      -0.605
      -0.534
      -0.112
       0.564
       1.233
       1.600
       1.497
       0.974
       0.272
      -0.319
      -0.607
      -0.570
      -0.304
       0.068
       0.434
       0.689
       0.728
       0.497
       0.064
      -0.373
      -0.587
      -0.477
      -0.156
       0.129
       0.162
      -0.101
      -0.524
      -0.899
      -1.066
      -0.980
      -0.708
      -0.387
      -0.164
      -0.135
      -0.295
      -0.536
      -0.715
      -0.742
      -0.610
      -0.367
      -0.070
       0.245
       0.550
       0.795
       0.890
       0.764
       0.447
       0.095
      -0.096
      -0.026
       0.261
       0.643
       1.030
       1.406
       1.761
       2.019
       2.033
       1.680
       0.971
       0.075
      -0.776
      -1.417
      -1.819
      -2.058
      -2.236
      -2.393
      -2.476
      -2.373
      -1.986
      -1.313
      -0.466
       0.382
       1.076
       1.538
       1.767
       1.801
       1.698
       1.515
       1.303
       1.103
       0.965
       0.947
       1.064
       1.234
       1.279
       1.016
       0.391
      -0.451
      -1.231
      -1.704
      -1.823
      -1.756
      -1.735
      -1.883
      -2.147
      -2.395
      -2.529
      -2.537
      -2.424
      -2.140
      -1.582
      -0.693
       0.444
       1.590
       2.440
       2.773
       2.554
       1.979
       1.382
       1.077
       1.198
       1.632
       2.087
       2.259
       2.001
       1.414
       0.783
       0.385
       0.307
       0.396
       0.394
       0.133
      -0.360
      -0.909
      -1.320
      -1.498
      -1.461
      -1.295
      -1.082
      -0.858
      -0.633
      -0.406
      -0.167
       0.097
       0.374
       0.614
       0.760
       0.795
       0.745
       0.635
       0.461
       0.225
      -0.031
      -0.236
      -0.353
      -0.454
      -0.697
      -1.193
      -1.860
      -2.408
      -2.542
      -2.199
      -1.605
      -1.074
      -0.762
      -0.583
      -0.339
       0.092
       0.694
       1.370
       2.028
       2.601
       3.005
       3.132
       2.897
       2.317
       1.538
       0.766
       0.151
      -0.285
      -0.630
      -0.986
      -1.377
      -1.731
      -1.939
      -1.933
      -1.714
      -1.328
      -0.836
      -0.312
       0.158
       0.501
       0.688
       0.743
       0.727
       0.696
       0.679
       0.681
       0.705
       0.754
       0.814
       0.819
       0.677
       0.334
      -0.176
      -0.732
      -1.198
      -1.480
      -1.555
      -1.434
      -1.136
      -0.678
      -0.099
       0.524
       1.078
       1.464
       1.668
       1.777
       1.905
       2.077
       2.185
       2.044
       1.528
       0.673
      -0.316
      -1.160
      -1.655
      -1.786
      -1.740
      -1.782
      -2.083
      -2.604
      -3.108
      -3.299
      -2.992
      -2.220
      -1.229
      -0.342
       0.219
       0.441
       0.499
       0.630
       0.973
       1.463
       1.853
       1.874
       1.429
       0.689
      -0.010
      -0.376
      -0.331
