Origin Time       18/10/2007 5:54:41 
Lat.              28.3 N 
Long.             77.6 E 
Depth (Km)          5.6
Magnitude         3.6
 Region           GAUTAMBUDHNAGAR-UTTARPRADESH                                     
 Above details taken from IMD 
     
Station Code      NOI
Station Lat.       28.507  N
Station Long.      77.479  E
Station Height(m)  201.0
Site Class        C   Vs30 between 200 m/sec to 375 m/sec *  
Record Time       18.10.2007 05:54:34.524
Sampling Rate     200. Hz
 Record Duration   30.085 Sec.
 Direction         E-W (E positive)
Max. Acceleration     -5.698 cm/sec**2
     
  * For reference see Site Classification link of website 
     
 Base Line Corrected and Low Pass Filtered (Cut Off at 35 Hz) Time History
 Acceleration data in cm/sec**2
    
[...]
       0.011
       0.004
      -0.003
      -0.008
      -0.016
      -0.028
      -0.034
      -0.024
       0.001
       0.026
       0.032
       0.018
      -0.005
      -0.020
      -0.020
      -0.006
       0.010
       0.017
       0.009
      -0.012
      -0.036
      -0.051
      -0.049
      -0.030
      -0.003
       0.018
       0.030
       0.036
       0.038
       0.036
       0.026
       0.015
       0.007
       0.003
      -0.003
      -0.013
      -0.024
      -0.029
      -0.022
      -0.008
       0.005
       0.009
       0.003
      -0.007
      -0.015
      -0.020
      -0.024
      -0.025
      -0.020
      -0.009
       0.005
       0.010
       0.001
      -0.017
      -0.036
      -0.044
      -0.036
      -0.013
       0.014
       0.031
       0.029
       0.010
      -0.012
      -0.024
      -0.021
      -0.006
       0.011
       0.026
       0.032
       0.030
       0.018
       0.003
      -0.006
      -0.002
       0.013
       0.030
       0.038
       0.034
       0.019
       0.001
      -0.013
      -0.018
      -0.013
       0.001
       0.016
       0.024
       0.018
       0.001
      -0.015
      -0.021
      -0.013
       0.004
       0.018
       0.020
       0.007
      -0.015
      -0.034
      -0.039
      -0.029
      -0.009
       0.011
       0.022
       0.018
       0.002
      -0.019
      -0.036
      -0.044
      -0.037
      -0.016
       0.009
       0.023
       0.015
      -0.010
      -0.034
      -0.043
      -0.032
      -0.012
       0.007
       0.014
       0.008
      -0.007
      -0.024
      -0.033
      -0.028
      -0.011
       0.009
       0.024
       0.028
       0.022
       0.012
       0.003
      -0.005
      -0.011
      -0.013
      -0.005
       0.007
       0.011
      -0.001
      -0.025
      -0.046
      -0.052
      -0.039
      -0.015
       0.011
       0.028
       0.030
       0.015
      -0.005
      -0.021
      -0.025
      -0.018
      -0.006
       0.002
       0.002
      -0.004
      -0.009
      -0.011
      -0.009
      -0.004
       0.004
       0.008
       0.002
      -0.016
      -0.035
      -0.039
      -0.026
      -0.007
       0.007
       0.011
       0.010
       0.010
       0.008
       0.002
      -0.008
      -0.015
      -0.014
      -0.008
      -0.006
      -0.013
      -0.026
      -0.036
      -0.039
      -0.037
      -0.030
      -0.015
       0.007
       0.030
       0.039
       0.032
       0.018
       0.008
       0.007
       0.012
       0.016
       0.014
       0.008
       0.002
      -0.002
      -0.005
      -0.010
      -0.012
      -0.006
       0.007
       0.016
       0.010
      -0.011
      -0.034
      -0.046
      -0.045
      -0.037
      -0.030
      -0.028
      -0.034
      -0.039
      -0.029
       0.002
       0.044
       0.080
       0.092
       0.076
       0.041
      -0.001
      -0.036
      -0.057
      -0.061
      -0.048
      -0.018
       0.022
       0.061
       0.087
       0.097
       0.089
       0.060
       0.015
      -0.037
      -0.086
      -0.125
      -0.155
      -0.170
      -0.159
      -0.111
      -0.030
       0.067
       0.155
       0.216
       0.245
       0.238
       0.195
       0.115
       0.011
      -0.098
      -0.188
      -0.246
      -0.273
      -0.271
      -0.243
      -0.182
      -0.087
       0.030
       0.139
       0.215
       0.243
       0.226
       0.172
       0.091
       0.001
      -0.076
      -0.126
      -0.149
      -0.155
      -0.145
      -0.109
      -0.046
       0.035
       0.115
       0.180
       0.219
       0.216
       0.154
       0.031
      -0.127
      -0.276
      -0.370
      -0.386
      -0.318
      -0.182
      -0.004
       0.179
       0.327
       0.414
       0.425
       0.358
       0.221
       0.035
      -0.168
      -0.342
      -0.449
      -0.476
      -0.429
      -0.324
      -0.174
       0.007
       0.195
       0.355
       0.454
       0.470
       0.400
       0.256
       0.061
      -0.154
      -0.352
      -0.498
      -0.560
      -0.529
      -0.427
      -0.290
      -0.146
       0.000
       0.150
       0.293
       0.400
       0.440
       0.390
       0.249
       0.045
      -0.168
      -0.330
      -0.396
      -0.356
      -0.231
      -0.050
       0.159
       0.376
       0.570
       0.691
       0.688
       0.550
       0.314
       0.040
      -0.226
      -0.458
      -0.627
      -0.695
      -0.628
      -0.423
      -0.115
       0.228
       0.525
       0.706
       0.742
       0.651
       0.478
       0.268
       0.049
      -0.154
      -0.314
      -0.399
      -0.390
      -0.295
      -0.156
      -0.028
       0.053
       0.075
       0.037
      -0.060
      -0.207
      -0.373
      -0.510
      -0.578
      -0.555
      -0.438
      -0.234
       0.024
       0.285
       0.493
       0.609
       0.621
       0.540
       0.392
       0.212
       0.044
      -0.074
      -0.127
      -0.139
      -0.155
      -0.202
      -0.263
      -0.302
      -0.305
      -0.282
      -0.242
      -0.169
      -0.047
       0.102
       0.226
       0.279
       0.253
       0.176
       0.093
       0.048
       0.064
       0.119
       0.154
       0.114
      -0.002
      -0.140
      -0.227
      -0.227
      -0.162
      -0.092
      -0.061
      -0.074
      -0.102
      -0.112
      -0.103
      -0.092
      -0.098
      -0.114
      -0.106
      -0.039
       0.085
       0.219
       0.304
       0.315
       0.274
       0.215
       0.150
       0.069
      -0.025
      -0.104
      -0.139
      -0.127
      -0.100
      -0.094
      -0.128
      -0.184
      -0.207
      -0.142
       0.024
       0.234
       0.391
       0.418
       0.313
       0.140
      -0.024
      -0.139
      -0.212
      -0.261
      -0.283
      -0.258
      -0.180
      -0.083
      -0.019
      -0.006
      -0.023
      -0.040
      -0.049
      -0.051
      -0.030
       0.046
       0.183
       0.339
       0.445
       0.452
       0.356
       0.193
       0.021
      -0.102
      -0.147
      -0.126
      -0.086
      -0.068
      -0.076
      -0.080
      -0.054
      -0.015
      -0.019
      -0.110
      -0.274
      -0.440
      -0.529
      -0.491
      -0.317
      -0.040
       0.284
       0.579
       0.773
       0.825
       0.725
       0.499
       0.200
      -0.105
      -0.356
      -0.527
      -0.623
      -0.672
      -0.696
      -0.693
      -0.635
      -0.491
      -0.267
      -0.013
       0.205
       0.344
       0.394
       0.361
       0.262
       0.126
       0.007
      -0.046
      -0.015
       0.074
       0.168
       0.227
       0.246
       0.249
       0.261
       0.280
       0.271
       0.208
       0.097
      -0.016
      -0.085
      -0.103
      -0.096
      -0.096
      -0.109
      -0.121
      -0.118
      -0.089
      -0.033
       0.041
       0.108
       0.134
       0.092
      -0.013
      -0.156
      -0.305
      -0.430
      -0.504
      -0.502
      -0.406
      -0.225
       0.004
       0.224
       0.384
       0.453
       0.422
       0.300
       0.131
      -0.018
      -0.086
      -0.062
       0.006
       0.050
       0.025
      -0.063
      -0.166
      -0.228
      -0.216
      -0.133
      -0.013
       0.100
       0.171
       0.190
       0.167
       0.115
       0.039
      -0.050
      -0.123
      -0.136
      -0.073
       0.030
       0.106
       0.118
       0.086
       0.057
       0.065
       0.104
       0.136
       0.126
       0.065
      -0.017
      -0.077
      -0.103
      -0.117
      -0.144
      -0.175
      -0.171
      -0.106
       0.007
       0.125
       0.198
       0.196
       0.119
       0.008
      -0.079
      -0.099
      -0.048
       0.042
       0.121
       0.144
       0.099
       0.007
      -0.088
      -0.153
      -0.170
      -0.129
      -0.039
       0.058
       0.095
       0.035
      -0.093
      -0.207
      -0.241
      -0.190
      -0.095
       0.001
       0.079
       0.140
       0.185
       0.212
       0.213
       0.183
       0.126
       0.060
       0.004
      -0.033
      -0.060
      -0.081
      -0.081
      -0.032
       0.074
       0.199
       0.275
       0.245
       0.110
      -0.079
      -0.262
      -0.410
      -0.516
      -0.569
      -0.542
      -0.418
      -0.224
      -0.024
       0.127
       0.218
       0.265
       0.286
       0.274
       0.216
       0.116
       0.004
      -0.077
      -0.104
      -0.090
      -0.069
      -0.064
      -0.070
      -0.069
      -0.049
      -0.013
       0.023
       0.042
       0.041
       0.028
       0.020
       0.022
       0.032
       0.057
       0.111
       0.192
       0.280
       0.351
       0.399
       0.433
       0.442
       0.391
       0.248
       0.021
      -0.229
      -0.421
      -0.483
      -0.398
      -0.210
      -0.008
       0.121
       0.122
      -0.015
      -0.257
      -0.529
      -0.726
      -0.751
      -0.566
      -0.210
       0.207
       0.553
       0.723
       0.693
       0.520
       0.305
       0.137
       0.060
       0.056
       0.065
       0.029
      -0.072
      -0.211
      -0.336
      -0.399
      -0.369
      -0.243
      -0.060
       0.106
       0.177
       0.132
       0.007
      -0.137
      -0.253
      -0.329
      -0.369
      -0.383
      -0.370
      -0.313
      -0.192
      -0.017
       0.154
       0.255
       0.260
       0.209
       0.160
       0.142
       0.138
       0.125
       0.113
       0.150
       0.275
       0.466
       0.647
       0.737
       0.709
       0.598
       0.455
       0.313
       0.175
       0.038
      -0.097
      -0.231
      -0.370
      -0.510
      -0.631
      -0.702
      -0.700
      -0.631
      -0.521
      -0.402
      -0.300
      -0.217
      -0.135
      -0.027
       0.112
       0.250
       0.326
       0.301
       0.185
       0.036
      -0.079
      -0.115
      -0.069
       0.038
       0.172
       0.307
       0.421
       0.494
       0.502
       0.430
       0.295
       0.138
      -0.006
      -0.138
      -0.273
      -0.404
      -0.489
      -0.482
      -0.373
      -0.194
       0.003
       0.176
       0.291
       0.327
       0.287
       0.200
       0.115
       0.077
       0.100
       0.151
       0.164
       0.080
      -0.112
      -0.361
      -0.589
      -0.727
      -0.748
      -0.668
      -0.526
      -0.362
      -0.204
      -0.068
       0.047
       0.159
       0.296
       0.465
       0.637
       0.763
       0.814
       0.792
       0.720
       0.621
       0.522
       0.457
       0.438
       0.428
       0.345
       0.137
      -0.169
      -0.475
      -0.684
      -0.764
      -0.746
      -0.688
      -0.643
      -0.645
      -0.711
      -0.826
      -0.938
      -0.972
      -0.859
      -0.578
      -0.170
       0.283
       0.700
       1.014
       1.178
       1.171
       1.011
       0.757
       0.470
       0.186
      -0.066
      -0.229
      -0.235
      -0.072
       0.179
       0.388
       0.470
       0.431
       0.338
       0.253
       0.195
       0.142
       0.058
      -0.074
      -0.237
      -0.388
      -0.494
      -0.545
      -0.553
      -0.524
      -0.453
      -0.340
      -0.224
      -0.172
      -0.228
      -0.358
      -0.453
      -0.417
      -0.235
       0.027
       0.272
       0.419
       0.412
       0.240
      -0.037
      -0.303
      -0.448
      -0.428
      -0.268
      -0.025
       0.247
       0.488
       0.630
       0.612
       0.428
       0.140
      -0.140
      -0.317
      -0.351
      -0.248
      -0.024
       0.313
       0.733
       1.153
       1.447
       1.504
       1.269
       0.765
       0.083
      -0.645
      -1.285
      -1.737
      -1.947
      -1.882
      -1.537
      -0.950
      -0.207
       0.567
       1.234
       1.659
       1.752
       1.491
       0.932
       0.177
      -0.643
      -1.376
      -1.868
      -2.004
      -1.740
      -1.115
      -0.259
       0.620
       1.293
       1.601
       1.511
       1.102
       0.510
      -0.109
      -0.598
      -0.837
      -0.799
      -0.554
      -0.205
       0.178
       0.580
       0.974
       1.274
       1.354
       1.127
       0.625
      -0.010
      -0.607
      -1.052
      -1.316
      -1.407
      -1.329
      -1.061
      -0.605
      -0.015
       0.589
       1.060
       1.273
       1.176
       0.819
       0.337
      -0.118
      -0.455
      -0.674
      -0.828
      -0.964
      -1.086
      -1.174
      -1.189
      -1.070
      -0.745
      -0.181
       0.553
       1.287
       1.819
       2.006
       1.817
       1.333
       0.698
       0.067
      -0.437
      -0.742
      -0.832
      -0.737
      -0.514
      -0.241
      -0.015
       0.064
      -0.091
      -0.518
      -1.184
      -1.980
      -2.727
      -3.219
      -3.282
      -2.839
      -1.944
      -0.767
       0.463
       1.520
       2.249
       2.587
       2.575
       2.326
       1.967
       1.584
       1.213
       0.878
       0.635
       0.567
       0.723
       1.071
       1.477
       1.742
       1.688
       1.267
       0.643
       0.140
       0.064
       0.522
       1.370
       2.296
       2.956
       3.089
       2.569
       1.418
      -0.205
      -2.050
      -3.803
      -5.121
      -5.698
      -5.384
      -4.289
      -2.780
      -1.335
      -0.324
       0.139
       0.186
       0.063
      -0.028
       0.001
       0.147
       0.396
       0.768
       1.308
       2.033
       2.864
       3.606
       4.005
       3.857
       3.119
       1.934
       0.566
      -0.721
      -1.760
      -2.497
      -2.949
      -3.143
      -3.102
      -2.838
      -2.355
      -1.661
      -0.797
       0.122
       0.920
       1.424
       1.550
       1.331
       0.885
       0.350
      -0.161
      -0.584
      -0.901
      -1.145
      -1.382
      -1.673
      -2.022
      -2.352
      -2.538
      -2.472
      -2.136
      -1.613
      -1.041
      -0.529
      -0.109
       0.269
       0.697
       1.257
       1.958
       2.694
       3.261
       3.444
       3.111
       2.273
       1.075
      -0.230
      -1.339
      -1.986
      -2.029
      -1.507
      -0.638
       0.264
       0.900
       1.113
       0.969
       0.720
       0.662
       0.968
       1.609
       2.400
       3.093
       3.479
       3.436
       2.944
       2.069
       0.935
      -0.299
      -1.456
      -2.347
      -2.805
      -2.739
      -2.208
      -1.435
      -0.736
      -0.363
      -0.399
      -0.747
      -1.224
      -1.628
      -1.780
      -1.557
      -0.960
      -0.143
       0.647
       1.193
       1.397
       1.274
       0.905
       0.388
      -0.168
      -0.661
      -1.012
      -1.194
      -1.234
      -1.190
      -1.130
      -1.116
      -1.198
      -1.392
      -1.638
      -1.811
      -1.777
      -1.466
      -0.883
      -0.075
       0.874
       1.818
       2.568
       2.974
       3.016
       2.793
       2.441
       2.046
       1.633
       1.215
       0.841
       0.589
       0.512
       0.565
       0.594
       0.429
       0.021
      -0.500
      -0.897
      -0.998
      -0.811
      -0.535
      -0.443
      -0.722
      -1.350
      -2.078
      -2.547
      -2.492
      -1.891
      -0.967
      -0.036
       0.677
       1.142
       1.482
       1.820
       2.163
       2.372
       2.249
       1.672
       0.689
      -0.447
      -1.357
      -1.716
      -1.439
      -0.724
       0.070
       0.629
       0.789
       0.540
      -0.039
      -0.818
      -1.637
      -2.323
      -2.728
      -2.754
      -2.387
      -1.690
      -0.785
       0.193
       1.129
       1.926
       2.517
       2.863
       2.930
       2.673
       2.069
       1.186
       0.227
      -0.555
      -0.990
      -1.078
      -0.946
      -0.741
      -0.543
      -0.360
      -0.182
      -0.034
       0.027
      -0.040
      -0.211
      -0.398
      -0.514
      -0.535
      -0.503
      -0.472
      -0.444
      -0.355
      -0.134
       0.222
       0.613
       0.871
       0.846
       0.493
      -0.089
      -0.696
      -1.115
      -1.214
      -0.961
      -0.397
       0.382
       1.210
       1.840
       2.030
       1.683
       0.927
       0.046
      -0.680
      -1.098
      -1.186
      -0.985
      -0.555
       0.004
       0.525
       0.807
       0.726
       0.330
      -0.174
      -0.534
      -0.588
      -0.331
       0.092
       0.455
       0.563
       0.355
      -0.030
      -0.318
      -0.256
       0.220
       0.937
       1.555
       1.748
       1.382
       0.596
      -0.281
      -0.929
      -1.211
      -1.203
      -1.090
      -1.026
      -1.058
      -1.133
      -1.149
      -1.033
      -0.770
      -0.415
      -0.055
       0.231
       0.408
       0.491
       0.505
       0.453
       0.323
       0.128
      -0.074
      -0.209
      -0.231
      -0.117
       0.155
       0.579
       1.059
       1.394
       1.370
       0.880
       0.007
      -1.002
      -1.824
      -2.174
      -1.916
      -1.125
      -0.049
       0.987
       1.694
       1.907
       1.623
       0.987
       0.240
      -0.380
      -0.699
      -0.649
      -0.268
       0.309
       0.881
       1.246
       1.264
       0.903
       0.253
      -0.495
      -1.119
      -1.472
      -1.544
      -1.434
      -1.253
      -1.058
      -0.851
      -0.639
      -0.470
      -0.412
      -0.497
      -0.667
      -0.777
      -0.669
      -0.278
       0.325
       0.969
       1.489
       1.788
       1.849
       1.700
       1.391
       0.991
       0.577
       0.226
      -0.017
      -0.158
      -0.242
      -0.301
      -0.317
      -0.232
      -0.020
       0.262
       0.489
       0.559
       0.457
       0.256
       0.058
      -0.071
      -0.132
      -0.181
      -0.278
      -0.442
      -0.637
      -0.793
      -0.853
      -0.793
      -0.627
      -0.382
      -0.077
       0.270
       0.613
       0.860
       0.906
       0.698
       0.278
      -0.245
      -0.772
      -1.250
      -1.640
      -1.870
      -1.837
      -1.481
      -0.853
      -0.109
       0.576
       1.074
       1.322
       1.287
       0.957
       0.363
      -0.382
      -1.085
      -1.518
      -1.498
      -0.969
      -0.034
       1.076
       2.086
       2.759
       2.970
       2.727
       2.140
       1.348
       0.468
      -0.396
      -1.115
      -1.544
      -1.596
      -1.311
      -0.845
      -0.388
      -0.083
       0.004
      -0.131
      -0.439
      -0.817
      -1.118
      -1.212
      -1.059
      -0.727
      -0.352
      -0.054
       0.103
       0.117
       0.041
      -0.016
       0.077
       0.410
       0.958
       1.568
       2.027
       2.168
       1.966
       1.540
       1.062
       0.642
       0.284
      -0.058
      -0.385
      -0.641
      -0.776
      -0.833
      -0.932
      -1.167
      -1.500
      -1.763
      -1.776
      -1.465
      -0.893
      -0.209
       0.437
