Origin Time       05/3/2012 07:41:05	
Lat.              28.7 N	
Long.             76.6 E	
Depth (Km)         14.0
Magnitude         4.9
 Region           Haryana-Delhi-Border-Region                                      
 Above details taken from IMD 
     
Station Code      NOI
Station Lat.       28.507  N
Station Long.      77.479  E
Station Height(m)  201.0
Site Class        C   Vs30 between 200 m/sec to 375 m/sec *  
Record Time       05.03.2012 07:38:35.124
Sampling Rate     200. Hz
 Record Duration   65.005 Sec.
 Direction         E-W (E positive)
Max. Acceleration     -8.259 cm/sec**2
     
  * For reference see Site Classification link of website 
     
 Base Line Corrected and Low Pass Filtered (Cut Off at 35 Hz) Time History
 Acceleration data in cm/sec**2
    
[...]
       0.234
       0.068
      -0.117
      -0.302
      -0.448
      -0.520
      -0.516
      -0.464
      -0.402
      -0.357
      -0.333
      -0.312
      -0.262
      -0.164
      -0.014
       0.160
       0.305
       0.361
       0.294
       0.122
      -0.084
      -0.237
      -0.280
      -0.209
      -0.069
       0.081
       0.192
       0.242
       0.231
       0.166
       0.053
      -0.092
      -0.240
      -0.352
      -0.398
      -0.373
      -0.304
      -0.233
      -0.190
      -0.175
      -0.165
      -0.137
      -0.087
      -0.032
       0.003
       0.010
       0.003
       0.009
       0.051
       0.137
       0.260
       0.400
       0.529
       0.621
       0.655
       0.628
       0.548
       0.438
       0.331
       0.260
       0.241
       0.269
       0.323
       0.382
       0.422
       0.423
       0.368
       0.249
       0.073
      -0.144
      -0.382
      -0.614
      -0.800
      -0.895
      -0.866
      -0.715
      -0.483
      -0.244
      -0.072
      -0.008
      -0.044
      -0.132
      -0.209
      -0.221
      -0.139
       0.031
       0.246
       0.443
       0.561
       0.565
       0.466
       0.303
       0.131
      -0.004
      -0.070
      -0.053
       0.045
       0.192
       0.344
       0.454
       0.500
       0.483
       0.422
       0.336
       0.237
       0.134
       0.041
      -0.022
      -0.044
      -0.031
      -0.008
       0.009
       0.020
       0.033
       0.045
       0.028
      -0.047
      -0.190
      -0.379
      -0.571
      -0.731
      -0.851
      -0.941
      -1.008
      -1.035
      -0.991
      -0.864
      -0.674
      -0.464
      -0.275
      -0.128
      -0.026
       0.045
       0.107
       0.178
       0.263
       0.344
       0.396
       0.405
       0.387
       0.372
       0.379
       0.400
       0.401
       0.353
       0.251
       0.115
      -0.023
      -0.138
      -0.213
      -0.241
      -0.210
      -0.109
       0.069
       0.311
       0.580
       0.830
       1.021
       1.118
       1.096
       0.943
       0.679
       0.358
       0.051
      -0.189
      -0.353
      -0.467
      -0.561
      -0.656
      -0.752
      -0.842
      -0.909
      -0.927
      -0.859
      -0.676
      -0.383
      -0.025
       0.314
       0.552
       0.653
       0.635
       0.554
       0.458
       0.373
       0.302
       0.244
       0.212
       0.219
       0.263
       0.320
       0.342
       0.286
       0.133
      -0.105
      -0.393
      -0.689
      -0.949
      -1.141
      -1.244
      -1.251
      -1.174
      -1.049
      -0.924
      -0.841
      -0.803
      -0.770
      -0.680
      -0.493
      -0.219
       0.082
       0.327
       0.456
       0.459
       0.369
       0.242
       0.121
       0.026
      -0.057
      -0.158
      -0.293
      -0.448
      -0.567
      -0.585
      -0.463
      -0.219
       0.074
       0.315
       0.426
       0.389
       0.252
       0.085
      -0.052
      -0.130
      -0.140
      -0.085
       0.017
       0.124
       0.171
       0.113
      -0.041
      -0.213
      -0.297
      -0.218
       0.029
       0.383
       0.753
       1.053
       1.237
       1.299
       1.257
       1.141
       0.982
       0.817
       0.677
       0.567
       0.461
       0.316
       0.100
      -0.180
      -0.472
      -0.701
      -0.806
      -0.772
      -0.630
      -0.436
      -0.248
      -0.116
      -0.076
      -0.134
      -0.256
      -0.379
      -0.445
      -0.436
      -0.384
      -0.355
      -0.400
      -0.522
      -0.666
      -0.750
      -0.702
      -0.494
      -0.148
       0.277
       0.710
       1.079
       1.334
       1.454
       1.461
       1.406
       1.338
       1.281
       1.226
       1.144
       1.010
       0.814
       0.574
       0.321
       0.091
      -0.095
      -0.232
      -0.340
      -0.451
      -0.597
      -0.793
      -1.025
      -1.258
      -1.448
      -1.564
      -1.592
      -1.542
      -1.435
      -1.294
      -1.141
      -0.988
      -0.829
      -0.649
      -0.430
      -0.163
       0.145
       0.479
       0.817
       1.123
       1.352
       1.465
       1.449
       1.322
       1.118
       0.864
       0.574
       0.261
      -0.046
      -0.301
      -0.449
      -0.470
      -0.387
      -0.266
      -0.180
      -0.175
      -0.261
      -0.418
      -0.607
      -0.778
      -0.882
      -0.889
      -0.803
      -0.661
      -0.519
      -0.419
      -0.370
      -0.353
      -0.335
      -0.290
      -0.206
      -0.097
       0.008
       0.062
       0.028
      -0.100
      -0.295
      -0.494
      -0.631
      -0.662
      -0.588
      -0.452
      -0.313
      -0.209
      -0.143
      -0.086
      -0.003
       0.125
       0.294
       0.491
       0.706
       0.933
       1.146
       1.299
       1.333
       1.219
       0.974
       0.659
       0.354
       0.130
       0.026
       0.047
       0.160
       0.314
       0.449
       0.520
       0.507
       0.416
       0.275
       0.127
       0.018
      -0.018
       0.019
       0.091
       0.145
       0.139
       0.066
      -0.041
      -0.123
      -0.118
      -0.002
       0.190
       0.370
       0.447
       0.367
       0.138
      -0.182
      -0.506
      -0.741
      -0.815
      -0.702
      -0.433
      -0.085
       0.259
       0.541
       0.752
       0.920
       1.083
       1.258
       1.426
       1.536
       1.522
       1.338
       0.983
       0.511
       0.016
      -0.404
      -0.685
      -0.824
      -0.871
      -0.893
      -0.933
      -0.986
      -1.009
      -0.956
      -0.813
      -0.611
      -0.402
      -0.235
      -0.134
      -0.101
      -0.126
      -0.186
      -0.249
      -0.277
      -0.248
      -0.157
      -0.026
       0.103
       0.182
       0.175
       0.082
      -0.063
      -0.204
      -0.291
      -0.293
      -0.215
      -0.092
       0.033
       0.132
       0.203
       0.266
       0.343
       0.449
       0.577
       0.709
       0.824
       0.905
       0.938
       0.909
       0.809
       0.642
       0.429
       0.201
      -0.015
      -0.204
      -0.361
      -0.484
      -0.565
      -0.592
      -0.568
      -0.523
      -0.508
      -0.569
      -0.716
      -0.925
      -1.146
      -1.325
      -1.429
      -1.451
      -1.409
      -1.331
      -1.232
      -1.109
      -0.952
      -0.752
      -0.516
      -0.259
       0.007
       0.276
       0.558
       0.859
       1.177
       1.488
       1.750
       1.913
       1.945
       1.842
       1.630
       1.354
       1.054
       0.739
       0.394
       0.004
      -0.410
      -0.790
      -1.073
      -1.229
      -1.283
      -1.289
      -1.290
      -1.285
      -1.240
      -1.115
      -0.895
      -0.595
      -0.248
       0.122
       0.499
       0.867
       1.201
       1.474
       1.665
       1.768
       1.785
       1.727
       1.604
       1.419
       1.175
       0.874
       0.533
       0.188
      -0.113
      -0.335
      -0.471
      -0.553
      -0.631
      -0.745
      -0.905
      -1.079
      -1.200
      -1.194
      -1.027
      -0.731
      -0.390
      -0.090
       0.125
       0.258
       0.328
       0.340
       0.291
       0.202
       0.132
       0.150
       0.275
       0.449
       0.572
       0.563
       0.415
       0.195
       0.002
      -0.089
      -0.063
       0.044
       0.165
       0.238
       0.216
       0.081
      -0.147
      -0.408
      -0.624
      -0.742
      -0.762
      -0.735
      -0.730
      -0.793
      -0.930
      -1.095
      -1.212
      -1.198
      -1.002
      -0.630
      -0.155
       0.310
       0.647
       0.786
       0.735
       0.577
       0.430
       0.383
       0.456
       0.600
       0.734
       0.799
       0.779
       0.704
       0.616
       0.549
       0.518
       0.514
       0.523
       0.540
       0.576
       0.650
       0.762
       0.884
       0.977
       1.006
       0.961
       0.851
       0.702
       0.539
       0.386
       0.252
       0.133
       0.009
      -0.147
      -0.357
      -0.616
      -0.883
      -1.097
      -1.192
      -1.138
      -0.957
      -0.728
      -0.556
      -0.521
      -0.630
      -0.800
      -0.888
      -0.770
      -0.407
       0.134
       0.714
       1.197
       1.504
       1.636
       1.651
       1.617
       1.573
       1.521
       1.440
       1.313
       1.137
       0.928
       0.714
       0.524
       0.376
       0.263
       0.160
       0.043
      -0.098
      -0.243
      -0.362
      -0.432
      -0.444
      -0.407
      -0.341
      -0.278
      -0.257
      -0.316
      -0.470
      -0.697
      -0.946
      -1.158
      -1.297
      -1.363
      -1.380
      -1.368
      -1.322
      -1.216
      -1.028
      -0.766
      -0.475
      -0.216
      -0.031
       0.085
       0.172
       0.272
       0.399
       0.533
       0.638
       0.687
       0.669
       0.589
       0.454
       0.271
       0.055
      -0.155
      -0.312
      -0.380
      -0.362
      -0.296
      -0.237
      -0.226
      -0.278
      -0.377
      -0.492
      -0.593
      -0.663
      -0.702
      -0.713
      -0.705
      -0.689
      -0.674
      -0.655
      -0.607
      -0.496
      -0.302
      -0.032
       0.285
       0.616
       0.940
       1.252
       1.548
       1.818
       2.037
       2.174
       2.201
       2.106
       1.900
       1.615
       1.295
       0.987
       0.723
       0.514
       0.335
       0.133
      -0.152
      -0.542
      -0.999
      -1.428
      -1.725
      -1.829
      -1.746
      -1.538
      -1.285
      -1.057
      -0.895
      -0.817
      -0.811
      -0.834
      -0.811
      -0.674
      -0.407
      -0.070
       0.239
       0.436
       0.494
       0.427
       0.260
       0.009
      -0.318
      -0.690
      -1.050
      -1.331
      -1.489
      -1.532
      -1.502
      -1.449
      -1.394
      -1.327
      -1.228
      -1.086
      -0.908
      -0.711
      -0.515
      -0.355
      -0.265
      -0.267
      -0.357
      -0.501
      -0.656
      -0.782
      -0.861
      -0.906
      -0.951
      -1.022
      -1.111
      -1.174
      -1.164
      -1.059
      -0.861
      -0.588
      -0.247
       0.164
       0.636
       1.137
       1.611
       2.020
       2.376
       2.740
       3.173
       3.680
       4.202
       4.645
       4.929
       5.021
       4.921
       4.643
       4.186
       3.551
       2.755
       1.858
       0.951
       0.126
      -0.560
      -1.102
      -1.549
      -1.972
      -2.417
      -2.871
      -3.270
      -3.529
      -3.599
      -3.485
      -3.238
      -2.921
      -2.570
      -2.190
      -1.763
      -1.273
      -0.714
      -0.100
       0.537
       1.152
       1.683
       2.069
       2.250
       2.187
       1.867
       1.320
       0.625
      -0.103
      -0.740
      -1.189
      -1.399
      -1.355
      -1.061
      -0.527
       0.234
       1.188
       2.255
       3.311
       4.215
       4.853
       5.156
       5.105
       4.711
       4.022
       3.122
       2.105
       1.046
      -0.011
      -1.034
      -1.982
      -2.824
      -3.556
      -4.207
      -4.819
      -5.403
      -5.929
      -6.334
      -6.562
      -6.597
      -6.474
      -6.240
      -5.907
      -5.431
      -4.758
      -3.871
      -2.817
      -1.688
      -0.567
       0.488
       1.438
       2.234
       2.819
       3.156
       3.238
       3.089
       2.736
       2.212
       1.574
       0.926
       0.408
       0.160
       0.279
       0.784
       1.606
       2.602
       3.600
       4.447
       5.042
       5.339
       5.342
       5.078
       4.592
       3.925
       3.115
       2.200
       1.223
       0.240
      -0.692
      -1.516
      -2.184
      -2.654
      -2.905
      -2.944
      -2.813
      -2.580
      -2.324
      -2.119
      -2.011
      -2.018
      -2.123
      -2.281
      -2.422
      -2.462
      -2.330
      -1.991
      -1.451
      -0.752
       0.033
       0.794
       1.396
       1.722
       1.731
       1.481
       1.107
       0.771
       0.602
       0.654
       0.882
       1.166
       1.362
       1.388
       1.253
       1.040
       0.856
       0.781
       0.838
       0.994
       1.163
       1.240
       1.136
       0.823
       0.335
      -0.258
      -0.877
      -1.451
      -1.919
      -2.228
      -2.338
      -2.220
      -1.861
      -1.277
      -0.537
       0.246
       0.948
       1.475
       1.780
       1.858
       1.724
       1.397
       0.895
       0.244
      -0.513
      -1.302
      -2.034
      -2.614
      -2.968
      -3.056
      -2.879
      -2.470
      -1.881
      -1.168
      -0.400
       0.326
       0.886
       1.160
       1.086
       0.703
       0.150
      -0.398
      -0.807
      -1.023
      -1.054
      -0.919
      -0.611
      -0.111
       0.571
       1.362
       2.134
       2.758
       3.157
       3.320
       3.284
       3.107
       2.850
       2.577
       2.349
       2.214
       2.190
       2.266
       2.408
       2.578
       2.747
       2.900
       3.023
       3.085
       3.032
       2.786
       2.265
       1.401
       0.175
      -1.372
      -3.124
      -4.901
      -6.482
      -7.652
      -8.259
      -8.254
      -7.697
      -6.711
      -5.425
      -3.950
      -2.385
      -0.838
       0.578
       1.784
       2.742
       3.445
       3.892
       4.077
       4.017
       3.772
       3.438
       3.098
       2.772
       2.400
       1.891
       1.198
       0.365
      -0.487
      -1.235
      -1.803
      -2.173
      -2.356
      -2.376
      -2.259
      -2.038
      -1.735
      -1.357
      -0.898
      -0.360
       0.240
       0.855
       1.432
       1.922
       2.301
       2.563
       2.717
       2.755
       2.649
       2.364
       1.891
       1.276
       0.604
      -0.030
      -0.558
      -0.941
      -1.169
      -1.259
      -1.250
      -1.202
      -1.182
      -1.243
      -1.400
      -1.621
      -1.832
      -1.951
      -1.921
      -1.728
      -1.404
      -1.008
      -0.606
      -0.252
       0.029
       0.239
       0.394
       0.524
       0.657
       0.807
       0.963
       1.089
       1.146
       1.123
       1.055
       1.013
       1.067
       1.235
       1.476
       1.720
       1.911
       2.023
       2.046
       1.974
       1.801
       1.535
       1.207
       0.865
       0.546
       0.261
      -0.016
      -0.314
      -0.643
      -0.983
      -1.304
      -1.603
      -1.904
      -2.246
      -2.647
      -3.093
      -3.550
      -3.966
      -4.284
      -4.438
      -4.367
      -4.052
      -3.535
      -2.923
      -2.351
      -1.928
      -1.694
      -1.606
      -1.569
      -1.482
      -1.271
      -0.897
      -0.354
       0.329
       1.071
       1.756
       2.271
       2.547
       2.584
       2.438
       2.196
       1.945
       1.739
       1.582
       1.436
       1.249
       0.994
       0.681
       0.353
       0.075
      -0.080
      -0.042
       0.241
       0.774
       1.501
       2.290
       2.961
       3.346
       3.357
       3.011
       2.402
       1.653
       0.882
       0.188
      -0.369
      -0.794
      -1.149
      -1.519
      -1.948
      -2.403
      -2.787
      -2.990
      -2.950
      -2.684
      -2.265
      -1.776
      -1.267
      -0.748
      -0.206
       0.377
       1.015
       1.720
       2.493
       3.312
       4.131
       4.867
       5.420
       5.706
       5.698
       5.443
       5.030
       4.541
       4.009
       3.421
       2.753
       2.007
       1.220
       0.447
      -0.263
      -0.873
      -1.350
      -1.681
      -1.881
      -2.012
      -2.183
      -2.516
      -3.095
      -3.897
      -4.771
      -5.484
      -5.833
      -5.738
      -5.265
      -4.575
      -3.846
      -3.213
      -2.745
      -2.445
      -2.264
      -2.120
      -1.925
      -1.615
      -1.195
      -0.738
      -0.360
      -0.160
      -0.176
      -0.372
      -0.647
      -0.866
      -0.899
      -0.671
      -0.197
       0.409
       0.989
       1.420
       1.674
       1.815
       1.943
       2.119
       2.341
       2.552
       2.676
       2.645
       2.414
       1.983
       1.406
       0.799
       0.286
      -0.075
      -0.344
      -0.660
      -1.127
      -1.715
      -2.264
      -2.582
      -2.572
      -2.291
      -1.908
      -1.614
      -1.526
      -1.646
      -1.891
      -2.131
      -2.239
      -2.114
      -1.689
      -0.956
       0.019
       1.109
       2.173
       3.123
       3.955
       4.716
       5.430
       6.056
       6.511
       6.726
       6.688
       6.437
       6.014
       5.445
       4.747
       3.954
       3.113
       2.268
       1.432
       0.584
      -0.317
      -1.302
      -2.373
      -3.492
      -4.599
      -5.636
      -6.555
      -7.313
      -7.858
      -8.121
      -8.024
      -7.497
      -6.506
      -5.090
      -3.382
      -1.587
       0.078
       1.454
       2.459
       3.081
       3.355
       3.344
       3.142
       2.851
       2.547
       2.255
       1.950
       1.595
       1.179
       0.720
       0.250
      -0.199
      -0.586
      -0.858
      -0.969
      -0.895
      -0.652
      -0.286
       0.138
       0.526
       0.761
       0.745
       0.465
       0.032
      -0.351
      -0.505
      -0.392
      -0.137
       0.062
       0.078
      -0.081
      -0.306
      -0.486
      -0.588
      -0.650
      -0.718
      -0.785
      -0.781
      -0.640
      -0.351
       0.037
       0.460
       0.888
       1.314
       1.710
       1.999
       2.085
       1.909
       1.505
       0.999
       0.550
       0.269
       0.150
       0.079
      -0.089
      -0.440
      -0.944
      -1.480
      -1.904
      -2.115
      -2.089
      -1.875
      -1.577
      -1.323
      -1.218
      -1.305
      -1.546
      -1.849
      -2.099
      -2.190
      -2.047
      -1.652
      -1.059
      -0.387
       0.229
       0.700
       1.026
       1.291
       1.602
       2.018
       2.511
       2.984
       3.331
       3.479
       3.417
       3.177
       2.813
       2.373
       1.888
       1.378
       0.861
       0.367
      -0.082
      -0.478
      -0.831
      -1.152
      -1.440
      -1.690
      -1.907
      -2.110
      -2.317
      -2.525
      -2.708
      -2.835
      -2.886
      -2.850
      -2.709
      -2.431
      -1.998
      -1.447
      -0.883
      -0.432
      -0.171
      -0.069
      -0.006
       0.167
       0.549
       1.133
       1.796
       2.355
       2.657
       2.643
       2.381
       2.023
       1.737
       1.641
       1.770
       2.094
       2.540
       2.994
       3.308
       3.334
       2.990
       2.312
       1.445
       0.578
      -0.143
      -0.668
      -1.046
      -1.380
      -1.763
      -2.225
      -2.728
      -3.177
      -3.456
      -3.455
      -3.110
      -2.443
      -1.571
