Origin Time       09/1/2013 01:41:52	 UTC
Lat.              25.4 N	
Long.             94.9 E	
Depth (Km)         89.0
Magnitude         5.9
 Region           Myanmar-India-Border-Region                                      
 Above details taken from IMD 
    
Station Code      LKH
Station Lat.       27.239  N
Station Long.      94.107  E
Station Height(m)   95.0
Site Class        C   Vs30 between 200 m/sec to 375 m/sec *  
Record Time       09.01.2013 01:42:36.709 UTC
Sampling Rate     200. Hz
 Record Duration   68.345 Sec.
 Direction         N-S (N positive)
Max. Acceleration      8.890 cm/sec**2
     
  * For reference see Site Classification link of website 
     
 Base Line Corrected and Low Pass Filtered (Cut Off at 35 Hz) Time History
 Acceleration data in cm/sec**2
    
[...]
       0.073
       0.042
      -0.040
      -0.147
      -0.256
      -0.345
      -0.386
      -0.353
      -0.229
      -0.032
       0.181
       0.335
       0.385
       0.339
       0.242
       0.127
      -0.010
      -0.188
      -0.408
      -0.632
      -0.815
      -0.921
      -0.936
      -0.866
      -0.733
      -0.580
      -0.446
      -0.355
      -0.312
      -0.318
      -0.370
      -0.451
      -0.522
      -0.538
      -0.471
      -0.329
      -0.149
       0.020
       0.142
       0.203
       0.221
       0.236
       0.285
       0.376
       0.489
       0.601
       0.707
       0.809
       0.896
       0.941
       0.914
       0.807
       0.645
       0.481
       0.378
       0.361
       0.393
       0.396
       0.320
       0.188
       0.071
       0.027
       0.059
       0.129
       0.200
       0.255
       0.289
       0.300
       0.294
       0.282
       0.263
       0.211
       0.099
      -0.067
      -0.241
      -0.360
      -0.386
      -0.320
      -0.197
      -0.073
      -0.007
      -0.031
      -0.140
      -0.291
      -0.433
      -0.531
      -0.576
      -0.574
      -0.544
      -0.501
      -0.460
      -0.429
      -0.423
      -0.462
      -0.564
      -0.715
      -0.862
      -0.938
      -0.907
      -0.791
      -0.653
      -0.553
      -0.509
      -0.493
      -0.452
      -0.355
      -0.217
      -0.096
      -0.039
      -0.041
      -0.046
      -0.003
       0.093
       0.206
       0.302
       0.365
       0.390
       0.379
       0.345
       0.322
       0.345
       0.438
       0.599
       0.800
       0.998
       1.147
       1.219
       1.209
       1.138
       1.029
       0.902
       0.777
       0.675
       0.619
       0.611
       0.625
       0.619
       0.552
       0.404
       0.178
      -0.110
      -0.425
      -0.722
      -0.953
      -1.088
      -1.117
      -1.049
      -0.906
      -0.724
      -0.542
      -0.401
      -0.327
      -0.322
      -0.361
      -0.395
      -0.385
      -0.322
      -0.230
      -0.142
      -0.086
      -0.071
      -0.093
      -0.135
      -0.182
      -0.215
      -0.213
      -0.149
      -0.007
       0.195
       0.409
       0.571
       0.634
       0.586
       0.460
       0.318
       0.231
       0.230
       0.298
       0.384
       0.453
       0.510
       0.574
       0.646
       0.691
       0.665
       0.554
       0.386
       0.206
       0.043
      -0.097
      -0.216
      -0.311
      -0.373
      -0.400
      -0.401
      -0.389
      -0.367
      -0.320
      -0.219
      -0.047
       0.176
       0.386
       0.507
       0.501
       0.399
       0.275
       0.189
       0.145
       0.093
      -0.021
      -0.207
      -0.408
      -0.538
      -0.531
      -0.400
      -0.224
      -0.096
      -0.060
      -0.092
      -0.145
      -0.192
      -0.223
      -0.234
      -0.219
      -0.176
      -0.112
      -0.034
       0.049
       0.108
       0.099
       0.004
      -0.140
      -0.257
      -0.291
      -0.253
      -0.201
      -0.177
      -0.183
      -0.200
      -0.222
      -0.253
      -0.285
      -0.291
      -0.249
      -0.164
      -0.062
       0.037
       0.139
       0.259
       0.401
       0.535
       0.606
       0.567
       0.416
       0.212
       0.033
      -0.074
      -0.117
      -0.132
      -0.140
      -0.136
      -0.112
      -0.077
      -0.053
      -0.047
      -0.046
      -0.038
      -0.028
      -0.034
      -0.063
      -0.104
      -0.140
      -0.174
      -0.219
      -0.283
      -0.353
      -0.410
      -0.445
      -0.466
      -0.469
      -0.435
      -0.339
      -0.183
      -0.016
       0.102
       0.146
       0.147
       0.155
       0.186
       0.205
       0.163
       0.056
      -0.068
      -0.132
      -0.089
       0.055
       0.252
       0.447
       0.612
       0.749
       0.877
       1.012
       1.143
       1.229
       1.208
       1.026
       0.667
       0.164
      -0.408
      -0.949
      -1.361
      -1.586
      -1.626
      -1.557
      -1.489
      -1.536
      -1.759
      -2.140
      -2.574
      -2.913
      -3.037
      -2.915
      -2.601
      -2.187
      -1.745
      -1.329
      -0.990
      -0.764
      -0.634
      -0.522
      -0.331
      -0.019
       0.392
       0.850
       1.318
       1.775
       2.202
       2.601
       2.989
       3.371
       3.696
       3.864
       3.808
       3.551
       3.189
       2.802
       2.400
       1.958
       1.479
       1.018
       0.635
       0.337
       0.071
      -0.221
      -0.554
      -0.900
      -1.222
      -1.490
      -1.672
      -1.724
      -1.607
      -1.322
      -0.917
      -0.466
      -0.043
       0.296
       0.510
       0.575
       0.495
       0.311
       0.072
      -0.195
      -0.487
      -0.793
      -1.064
      -1.222
      -1.194
      -0.959
      -0.553
      -0.073
       0.345
       0.582
       0.601
       0.473
       0.319
       0.237
       0.261
       0.382
       0.575
       0.811
       1.045
       1.213
       1.249
       1.114
       0.816
       0.405
      -0.045
      -0.450
      -0.733
      -0.835
      -0.720
      -0.386
       0.134
       0.774
       1.457
       2.107
       2.660
       3.066
       3.288
       3.314
       3.174
       2.938
       2.690
       2.468
       2.246
       1.961
       1.575
       1.121
       0.687
       0.360
       0.184
       0.145
       0.184
       0.200
       0.072
      -0.319
      -1.036
      -2.047
      -3.225
      -4.390
      -5.365
      -6.017
      -6.266
      -6.103
      -5.599
      -4.904
      -4.209
      -3.668
      -3.348
      -3.217
      -3.186
      -3.150
      -3.025
      -2.765
      -2.371
      -1.883
      -1.354
      -0.818
      -0.289
       0.208
       0.623
       0.895
       1.004
       0.986
       0.910
       0.811
       0.686
       0.544
       0.463
       0.568
       0.938
       1.545
       2.259
       2.917
       3.396
       3.647
       3.702
       3.627
       3.460
       3.175
       2.716
       2.069
       1.298
       0.527
      -0.122
      -0.571
      -0.800
      -0.856
      -0.833
      -0.833
      -0.913
      -1.065
      -1.239
      -1.383
      -1.472
      -1.497
      -1.461
      -1.378
      -1.274
      -1.166
      -1.046
      -0.902
      -0.747
      -0.622
      -0.568
      -0.575
      -0.584
      -0.538
      -0.427
      -0.304
      -0.243
      -0.289
      -0.440
      -0.663
      -0.920
      -1.160
      -1.310
      -1.291
      -1.056
      -0.604
       0.032
       0.808
       1.657
       2.477
       3.148
       3.574
       3.709
       3.540
       3.084
       2.399
       1.611
       0.901
       0.448
       0.363
       0.654
       1.214
       1.859
       2.377
       2.604
       2.498
       2.148
       1.708
       1.300
       0.964
       0.685
       0.437
       0.206
      -0.009
      -0.202
      -0.355
      -0.446
      -0.462
      -0.423
      -0.368
      -0.331
      -0.326
      -0.353
      -0.432
      -0.622
      -0.989
      -1.568
      -2.318
      -3.132
      -3.857
      -4.330
      -4.429
      -4.124
      -3.501
      -2.711
      -1.889
      -1.087
      -0.297
       0.472
       1.151
       1.649
       1.916
       1.990
       1.984
       2.028
       2.222
       2.616
       3.194
       3.872
       4.509
       4.934
       5.003
       4.647
       3.907
       2.917
       1.864
       0.908
       0.139
      -0.425
      -0.791
      -0.957
      -0.907
      -0.650
      -0.265
       0.099
       0.273
       0.144
      -0.283
      -0.894
      -1.551
      -2.178
      -2.787
      -3.427
      -4.110
      -4.781
      -5.339
      -5.692
      -5.811
      -5.728
      -5.500
      -5.162
      -4.717
      -4.167
      -3.549
      -2.932
      -2.380
      -1.896
      -1.418
      -0.862
      -0.189
       0.563
       1.287
       1.860
       2.209
       2.337
       2.305
       2.193
       2.063
       1.962
       1.925
       1.963
       2.057
       2.175
       2.288
       2.379
       2.447
       2.494
       2.524
       2.527
       2.468
       2.295
       1.958
       1.437
       0.751
      -0.039
      -0.854
      -1.610
      -2.238
      -2.669
      -2.822
      -2.608
      -1.963
      -0.890
       0.526
       2.128
       3.719
       5.090
       6.053
       6.473
       6.301
       5.605
       4.548
       3.354
       2.238
       1.349
       0.744
       0.392
       0.222
       0.179
       0.246
       0.413
       0.634
       0.810
       0.834
       0.667
       0.360
       0.018
      -0.290
      -0.577
      -0.920
      -1.390
      -2.014
      -2.776
      -3.640
      -4.547
      -5.417
      -6.165
      -6.740
      -7.139
      -7.371
      -7.423
      -7.265
      -6.879
      -6.285
      -5.528
      -4.643
      -3.655
      -2.584
      -1.452
      -0.277
       0.929
       2.139
       3.281
       4.240
       4.911
       5.251
       5.290
       5.109
       4.809
       4.511
       4.342
       4.398
       4.691
       5.126
       5.530
       5.698
       5.460
       4.733
       3.558
       2.092
       0.546
      -0.878
      -2.025
      -2.798
      -3.167
      -3.194
      -3.046
      -2.946
      -3.072
      -3.479
      -4.095
      -4.775
      -5.362
      -5.720
      -5.735
      -5.334
      -4.516
      -3.357
      -1.993
      -0.573
       0.759
       1.875
       2.666
       3.075
       3.131
       2.953
       2.696
       2.486
       2.379
       2.360
       2.388
       2.432
       2.486
       2.567
       2.693
       2.869
       3.085
       3.315
       3.525
       3.671
       3.700
       3.560
       3.223
       2.706
       2.072
       1.385
       0.658
      -0.155
      -1.109
      -2.214
      -3.425
      -4.659
      -5.792
      -6.662
      -7.105
      -7.025
      -6.453
      -5.516
      -4.365
      -3.122
      -1.894
      -0.810
      -0.012
       0.387
       0.356
      -0.049
      -0.706
      -1.463
      -2.180
      -2.763
      -3.186
      -3.453
      -3.554
      -3.431
      -3.014
      -2.273
      -1.256
      -0.074
       1.146
       2.309
       3.362
       4.276
       5.008
       5.477
       5.588
       5.297
       4.654
       3.790
       2.849
       1.933
       1.091
       0.322
      -0.394
      -1.078
      -1.725
      -2.288
      -2.683
      -2.817
      -2.635
      -2.142
      -1.394
      -0.478
       0.480
       1.321
       1.876
       2.031
       1.776
       1.191
       0.404
      -0.427
      -1.108
      -1.426
      -1.234
      -0.548
       0.433
       1.404
       2.091
       2.345
       2.177
       1.718
       1.152
       0.654
       0.353
       0.309
       0.507
       0.861
       1.218
       1.391
       1.224
       0.667
      -0.200
      -1.185
      -2.047
      -2.560
      -2.585
      -2.116
      -1.286
      -0.310
       0.608
       1.342
       1.862
       2.188
       2.343
       2.340
       2.201
       1.985
       1.772
       1.623
       1.546
       1.496
       1.412
       1.251
       0.992
       0.640
       0.232
      -0.145
      -0.366
      -0.316
       0.049
       0.664
       1.374
       2.003
       2.425
       2.603
       2.572
       2.407
       2.182
       1.948
       1.708
       1.419
       1.008
       0.414
      -0.382
      -1.340
      -2.386
      -3.436
      -4.431
      -5.335
      -6.142
      -6.864
      -7.517
      -8.083
      -8.482
      -8.591
      -8.313
      -7.652
      -6.712
      -5.639
      -4.545
      -3.477
      -2.446
      -1.469
      -0.585
       0.168
       0.777
       1.252
       1.630
       1.973
       2.364
       2.857
       3.430
       3.970
       4.329
       4.399
       4.169
       3.718
       3.177
       2.687
       2.376
       2.349
       2.669
       3.323
       4.206
       5.155
       6.018
       6.698
       7.124
       7.223
       6.930
       6.264
       5.376
       4.504
       3.856
       3.525
       3.490
       3.670
       3.963
       4.272
       4.518
       4.663
       4.703
       4.639
       4.455
       4.122
       3.619
       2.954
       2.165
       1.323
       0.516
      -0.169
      -0.682
      -1.021
      -1.225
      -1.354
      -1.466
      -1.592
      -1.711
      -1.751
      -1.638
      -1.354
      -0.956
      -0.537
      -0.170
       0.105
       0.239
       0.149
      -0.244
      -0.964
      -1.953
      -3.103
      -4.293
      -5.404
      -6.329
      -6.995
      -7.384
      -7.536
      -7.523
      -7.432
      -7.342
      -7.293
      -7.254
      -7.144
      -6.887
      -6.477
      -5.982
      -5.512
      -5.177
      -5.059
      -5.202
      -5.587
      -6.136
      -6.733
      -7.263
      -7.636
      -7.794
      -7.708
      -7.401
      -6.963
      -6.525
      -6.196
      -6.015
      -5.949
      -5.933
      -5.886
      -5.709
      -5.281
      -4.511
      -3.391
      -2.021
      -0.562
       0.831
       2.058
       3.081
       3.914
       4.598
       5.166
       5.611
       5.889
       5.956
       5.809
       5.502
       5.143
       4.888
       4.911
       5.324
       6.099
       7.055
       7.954
       8.600
       8.890
       8.804
       8.397
       7.791
       7.160
       6.665
       6.397
       6.352
       6.439
       6.507
       6.391
       5.977
       5.250
       4.308
       3.301
       2.378
       1.647
       1.178
       1.017
       1.180
       1.636
       2.282
       2.945
       3.425
       3.571
       3.331
       2.754
       1.938
       0.981
      -0.060
      -1.152
      -2.268
      -3.354
      -4.322
      -5.062
      -5.470
      -5.488
      -5.119
      -4.417
      -3.468
      -2.383
      -1.288
      -0.301
       0.497
       1.073
       1.426
       1.568
       1.521
       1.315
       0.988
       0.579
       0.119
      -0.364
      -0.836
      -1.254
      -1.588
      -1.838
      -2.027
      -2.161
      -2.206
      -2.107
      -1.837
      -1.423
      -0.937
      -0.449
      -0.005
       0.362
       0.608
       0.682
       0.539
       0.175
      -0.375
      -1.037
      -1.713
      -2.291
      -2.672
      -2.803
      -2.698
      -2.430
      -2.075
      -1.665
      -1.188
      -0.655
      -0.160
       0.139
       0.121
      -0.210
      -0.722
      -1.246
      -1.661
      -1.926
      -2.042
      -2.028
      -1.914
      -1.738
      -1.533
      -1.303
      -1.029
      -0.682
      -0.251
       0.250
       0.788
       1.327
       1.836
       2.279
       2.607
       2.759
       2.695
       2.420
       1.995
       1.514
       1.073
       0.743
       0.558
       0.518
       0.591
       0.715
       0.814
       0.815
       0.670
       0.357
      -0.123
      -0.718
      -1.301
      -1.693
      -1.740
      -1.387
      -0.692
       0.206
       1.121
       1.843
       2.193
       2.096
       1.632
       1.012
       0.466
       0.136
       0.033
       0.064
       0.124
       0.166
       0.217
       0.331
       0.524
       0.747
       0.921
       0.990
       0.962
       0.900
       0.890
       0.982
       1.142
       1.248
       1.149
       0.762
       0.126
      -0.615
      -1.289
      -1.777
      -2.053
      -2.174
      -2.223
      -2.238
      -2.189
      -2.024
      -1.735
      -1.374
      -1.018
      -0.722
      -0.499
      -0.326
      -0.166
       0.012
       0.195
       0.313
       0.260
      -0.043
      -0.575
      -1.208
      -1.746
      -2.016
      -1.927
      -1.499
      -0.832
      -0.062
       0.690
       1.349
       1.892
       2.318
       2.608
       2.715
       2.599
       2.273
       1.824
       1.365
       0.987
       0.730
       0.570
       0.433
       0.224
      -0.114
      -0.550
      -0.977
      -1.280
      -1.401
      -1.364
      -1.222
      -1.019
      -0.771
      -0.494
      -0.216
       0.022
       0.187
       0.263
       0.243
       0.133
      -0.049
      -0.256
      -0.420
      -0.483
      -0.429
      -0.299
      -0.172
      -0.131
      -0.215
      -0.403
      -0.612
      -0.730
      -0.671
      -0.409
       0.027
       0.580
       1.175
       1.718
       2.097
       2.237
       2.148
       1.941
       1.755
       1.676
       1.686
       1.697
       1.616
       1.404
       1.083
       0.710
       0.341
       0.012
      -0.260
      -0.463
      -0.570
      -0.551
      -0.412
      -0.226
      -0.113
      -0.178
      -0.456
      -0.892
      -1.374
      -1.776
      -2.002
      -2.013
      -1.834
      -1.545
      -1.245
      -1.019
      -0.903
      -0.887
      -0.934
      -1.010
      -1.095
      -1.179
      -1.256
      -1.312
      -1.316
      -1.216
      -0.972
      -0.591
      -0.136
       0.312
       0.695
       0.979
       1.138
       1.141
       0.955
       0.551
      -0.086
      -0.941
      -1.941
      -2.942
      -3.764
      -4.245
      -4.305
      -3.969
      -3.358
      -2.651
      -2.019
      -1.564
      -1.279
      -1.075
      -0.852
      -0.569
      -0.258
       0.013
       0.200
       0.317
       0.427
       0.600
       0.874
       1.228
       1.594
       1.904
       2.127
       2.289
       2.433
       2.569
       2.655
       2.621
       2.436
       2.139
       1.823
       1.567
       1.402
       1.315
       1.272
       1.243
       1.214
       1.192
       1.197
       1.237
       1.309
       1.411
       1.550
       1.715
       1.838
       1.807
       1.540
       1.054
       0.477
      -0.016
      -0.281
      -0.258
       0.031
       0.503
       1.042
       1.544
       1.942
       2.207
       2.326
       2.288
       2.086
       1.732
       1.264
       0.734
       0.196
      -0.294
      -0.668
      -0.877
      -0.919
      -0.858
      -0.799
      -0.831
      -0.971
      -1.151
      -1.265
      -1.247
      -1.117
      -0.956
      -0.858
      -0.879
      -1.024
      -1.254
      -1.521
      -1.795
      -2.084
      -2.415
      -2.812
      -3.263
      -3.721
      -4.115
      -4.365
      -4.391
      -4.123
      -3.547
      -2.738
      -1.850
      -1.052
      -0.442
      -0.031
       0.225
       0.365
       0.417
       0.415
       0.401
       0.392
       0.365
       0.298
       0.210
       0.167
       0.219
       0.351
       0.477
       0.498
       0.367
       0.134
      -0.063
      -0.066
       0.221
       0.765
       1.406
       1.939
       2.214
       2.210
       2.018
       1.772
       1.559
       1.394
       1.253
       1.126
       1.034
       0.998
       1.001
       0.991
       0.933
       0.839
       0.766
       0.768
       0.855
       0.995
       1.134
       1.231
       1.285
       1.334
       1.414
       1.512
       1.570
       1.532
       1.389
       1.181
       0.952
       0.719
       0.494
       0.322
       0.281
