Origin Time       09/1/2013 01:41:52	
Lat.              25.4 N	
Long.             94.9 E	
Depth (Km)         89.0
Magnitude         5.9
 Region           Myanmar-India-Border-Region                                      
 Above details taken from IMD 
   
Station Code      LKH
Station Lat.       27.239
Station Long.      94.107
Station Height(m)   95.0
Site Class        C   Vs30 between 200 m/sec to 375 m/sec *  
Record Time       09.01.2013 01:42:36.709
Sampling Rate     200. Hz
 Record Duration   68.345 Sec.
 Direction         Vert. (Up positive)
Max. Acceleration     -9.267 cm/sec**2
     
  * For reference see Site Classification link of website 
     
 Base Line Corrected and Low Pass Filtered (Cut Off at 35 Hz) Time History
 Acceleration data in cm/sec**2
    
[...]
       0.814
       0.479
       0.078
      -0.320
      -0.694
      -1.051
      -1.357
      -1.506
      -1.385
      -1.005
      -0.529
      -0.143
       0.105
       0.316
       0.601
       0.949
       1.220
       1.258
       1.013
       0.570
       0.062
      -0.433
      -0.930
      -1.436
      -1.848
      -1.970
      -1.664
      -0.993
      -0.218
       0.357
       0.562
       0.424
       0.102
      -0.238
      -0.516
      -0.722
      -0.864
      -0.911
      -0.796
      -0.464
       0.087
       0.763
       1.391
       1.787
       1.849
       1.615
       1.210
       0.761
       0.340
      -0.026
      -0.316
      -0.475
      -0.442
      -0.223
       0.045
       0.146
      -0.034
      -0.383
      -0.662
      -0.738
      -0.682
      -0.637
      -0.627
      -0.548
      -0.330
      -0.069
       0.046
      -0.064
      -0.251
      -0.256
       0.051
       0.567
       1.056
       1.341
       1.383
       1.244
       1.033
       0.852
       0.727
       0.558
       0.202
      -0.336
      -0.843
      -1.075
      -0.987
      -0.757
      -0.568
      -0.453
      -0.331
      -0.141
       0.116
       0.403
       0.661
       0.805
       0.765
       0.547
       0.227
      -0.103
      -0.360
      -0.451
      -0.290
       0.134
       0.706
       1.200
       1.385
       1.189
       0.777
       0.438
       0.314
       0.241
      -0.113
      -0.918
      -1.954
      -2.733
      -2.849
      -2.255
      -1.233
      -0.142
       0.820
       1.641
       2.337
       2.798
       2.801
       2.198
       1.112
      -0.064
      -0.911
      -1.250
      -1.226
      -1.125
      -1.125
      -1.170
      -1.030
      -0.496
       0.416
       1.416
       2.078
       2.115
       1.544
       0.623
      -0.353
      -1.206
      -1.866
      -2.304
      -2.517
      -2.541
      -2.410
      -2.087
      -1.485
      -0.597
       0.382
       1.134
       1.426
       1.268
       0.881
       0.527
       0.371
       0.403
       0.455
       0.312
      -0.097
      -0.589
      -0.838
      -0.649
      -0.139
       0.362
       0.582
       0.511
       0.370
       0.388
       0.590
       0.791
       0.779
       0.510
       0.124
      -0.202
      -0.401
      -0.538
      -0.678
      -0.748
      -0.557
      -0.024
       0.638
       1.028
       0.880
       0.303
      -0.317
      -0.636
      -0.601
      -0.418
      -0.316
      -0.346
      -0.372
      -0.246
       0.032
       0.321
       0.487
       0.556
       0.697
       1.036
       1.481
       1.734
       1.511
       0.776
      -0.199
      -1.018
      -1.429
      -1.462
      -1.305
      -1.075
      -0.751
      -0.316
       0.113
       0.364
       0.397
       0.341
       0.317
       0.272
       0.020
      -0.531
      -1.203
      -1.637
      -1.598
      -1.195
      -0.773
      -0.583
      -0.553
      -0.400
       0.059
       0.697
       1.165
       1.194
       0.829
       0.376
       0.125
       0.114
       0.147
       0.019
      -0.271
      -0.502
      -0.425
       0.006
       0.575
       0.984
       1.093
       0.973
       0.757
       0.461
      -0.021
      -0.732
      -1.474
      -1.875
      -1.674
      -0.980
      -0.202
       0.288
       0.450
       0.541
       0.802
       1.193
       1.452
       1.387
       1.066
       0.718
       0.514
       0.465
       0.469
       0.393
       0.150
      -0.219
      -0.529
      -0.573
      -0.297
       0.148
       0.541
       0.760
       0.825
       0.790
       0.639
       0.309
      -0.199
      -0.782
      -1.301
      -1.645
      -1.736
      -1.538
      -1.101
      -0.578
      -0.135
       0.145
       0.264
       0.258
       0.181
       0.118
       0.143
       0.252
       0.359
       0.369
       0.284
       0.238
       0.384
       0.733
       1.073
       1.099
       0.662
      -0.081
      -0.760
      -1.062
      -0.978
      -0.772
      -0.702
      -0.762
      -0.706
      -0.329
       0.300
       0.882
       1.162
       1.136
       1.023
       1.021
       1.088
       0.992
       0.595
       0.058
      -0.292
      -0.314
      -0.213
      -0.328
      -0.763
      -1.241
      -1.313
      -0.742
       0.290
       1.309
       1.900
       1.975
       1.744
       1.468
       1.207
       0.796
       0.050
      -0.973
      -1.902
      -2.284
      -1.938
      -1.112
      -0.283
       0.224
       0.425
       0.516
       0.596
       0.575
       0.317
      -0.164
      -0.686
      -1.031
      -1.094
      -0.916
      -0.595
      -0.208
       0.202
       0.586
       0.887
       1.072
       1.139
       1.073
       0.804
       0.269
      -0.467
      -1.162
      -1.536
      -1.476
      -1.097
      -0.603
      -0.129
       0.283
       0.620
       0.865
       1.024
       1.119
       1.144
       1.059
       0.831
       0.483
       0.116
      -0.131
      -0.164
      -0.032
       0.060
      -0.086
      -0.477
      -0.892
      -1.086
      -1.026
      -0.894
      -0.862
      -0.912
      -0.888
      -0.698
      -0.406
      -0.155
      -0.032
      -0.014
       0.005
       0.130
       0.364
       0.558
       0.509
       0.146
      -0.353
      -0.671
      -0.601
      -0.219
       0.186
       0.359
       0.265
       0.058
      -0.086
      -0.095
      -0.006
       0.111
       0.223
       0.344
       0.482
       0.585
       0.550
       0.312
      -0.059
      -0.367
      -0.439
      -0.288
      -0.093
       0.005
       0.056
       0.215
       0.543
       0.963
       1.353
       1.598
       1.559
       1.129
       0.391
      -0.331
      -0.675
      -0.540
      -0.142
       0.199
       0.312
       0.203
      -0.095
      -0.589
      -1.215
      -1.744
      -1.917
      -1.713
      -1.384
      -1.201
      -1.185
      -1.126
      -0.850
      -0.397
       0.049
       0.349
       0.499
       0.580
       0.666
       0.754
       0.757
       0.570
       0.199
      -0.153
      -0.220
       0.061
       0.433
       0.548
       0.306
      -0.056
      -0.220
      -0.077
       0.247
       0.591
       0.930
       1.325
       1.737
       1.939
       1.665
       0.847
      -0.285
      -1.368
      -2.162
      -2.631
      -2.801
      -2.623
      -2.003
      -0.956
       0.341
       1.629
       2.670
       3.277
       3.322
       2.777
       1.755
       0.498
      -0.697
      -1.591
      -2.083
      -2.185
      -1.916
      -1.259
      -0.238
       0.958
       1.972
       2.446
       2.216
       1.400
       0.304
      -0.755
      -1.574
      -2.078
      -2.243
      -2.013
      -1.289
      -0.045
       1.516
       2.917
       3.620
       3.335
       2.173
       0.544
      -1.065
      -2.257
      -2.814
      -2.736
      -2.211
      -1.508
      -0.847
      -0.345
      -0.059
      -0.055
      -0.399
      -1.082
      -1.952
      -2.712
      -2.997
      -2.524
      -1.282
       0.375
       1.906
       2.946
       3.526
       3.923
       4.278
       4.400
       3.938
       2.751
       1.103
      -0.462
      -1.488
      -1.899
      -1.999
      -2.160
      -2.471
      -2.667
      -2.400
      -1.598
      -0.581
       0.166
       0.337
      -0.007
      -0.534
      -0.888
      -0.906
      -0.657
      -0.320
       0.004
       0.362
       0.826
       1.320
       1.598
       1.428
       0.798
      -0.035
      -0.683
      -0.810
      -0.276
       0.798
       2.065
       3.085
       3.498
       3.148
       2.111
       0.636
      -0.952
      -2.346
      -3.318
      -3.726
      -3.520
      -2.742
      -1.536
      -0.139
       1.166
       2.133
       2.618
       2.587
       2.086
       1.220
       0.159
      -0.862
      -1.589
      -1.838
      -1.600
      -1.044
      -0.413
       0.117
       0.500
       0.774
       0.982
       1.090
       0.959
       0.418
      -0.555
      -1.709
      -2.632
      -3.029
      -2.877
      -2.299
      -1.368
      -0.113
       1.274
       2.364
       2.707
       2.175
       1.077
      -0.051
      -0.755
      -0.871
      -0.558
      -0.205
      -0.202
      -0.674
      -1.364
      -1.825
      -1.752
      -1.201
      -0.477
       0.156
       0.681
       1.252
       1.957
       2.676
       3.154
       3.182
       2.701
       1.792
       0.606
      -0.710
      -2.012
      -3.096
      -3.672
      -3.519
      -2.730
      -1.721
      -0.905
      -0.363
       0.133
       0.805
       1.621
       2.329
       2.692
       2.696
       2.545
       2.472
       2.508
       2.433
       1.931
       0.867
      -0.516
      -1.668
      -2.117
      -1.876
      -1.429
      -1.264
      -1.436
      -1.612
      -1.488
      -1.094
      -0.728
      -0.653
      -0.866
      -1.137
      -1.220
      -1.033
      -0.663
      -0.258
       0.059
       0.226
       0.242
       0.152
       0.003
      -0.179
      -0.382
      -0.616
      -0.902
      -1.202
      -1.328
      -1.017
      -0.150
       1.089
       2.292
       3.070
       3.241
       2.866
       2.160
       1.335
       0.473
      -0.457
      -1.432
      -2.244
      -2.570
      -2.217
      -1.303
      -0.192
       0.760
       1.403
       1.790
       2.024
       2.115
       1.990
       1.617
       1.101
       0.629
       0.321
       0.145
      -0.041
      -0.359
      -0.848
      -1.479
      -2.212
      -3.004
      -3.766
      -4.305
      -4.352
      -3.684
      -2.269
      -0.327
       1.751
       3.557
       4.808
       5.373
       5.236
       4.445
       3.114
       1.434
      -0.313
      -1.791
      -2.695
      -2.894
      -2.494
      -1.773
      -0.996
      -0.258
       0.515
       1.390
       2.233
       2.727
       2.633
       2.036
       1.297
       0.755
       0.490
       0.326
       0.010
      -0.573
      -1.284
      -1.812
      -1.916
      -1.646
      -1.298
      -1.152
      -1.233
      -1.335
      -1.262
      -1.031
      -0.841
      -0.852
      -0.990
      -1.006
      -0.732
      -0.276
       0.054
       0.051
      -0.142
      -0.098
       0.542
       1.706
       2.853
       3.319
       2.785
       1.473
      -0.074
      -1.417
      -2.454
      -3.294
      -3.943
      -4.174
      -3.715
      -2.505
      -0.771
       1.114
       2.805
       4.055
       4.721
       4.738
       4.131
       3.025
       1.664
       0.351
      -0.687
      -1.424
      -1.967
      -2.342
      -2.399
      -2.000
      -1.287
      -0.662
      -0.460
      -0.692
      -1.116
      -1.492
      -1.678
      -1.553
      -0.978
       0.087
       1.459
       2.805
       3.848
       4.487
       4.685
       4.326
       3.299
       1.735
       0.087
      -1.118
      -1.599
      -1.437
      -0.956
      -0.518
      -0.323
      -0.274
      -0.075
       0.431
       1.008
       1.167
       0.631
      -0.357
      -1.210
      -1.481
      -1.187
      -0.653
      -0.131
       0.372
       0.889
       1.242
       1.089
       0.251
      -1.057
      -2.324
      -3.097
      -3.255
      -3.008
      -2.625
      -2.152
      -1.357
       0.013
       1.891
       3.800
       5.097
       5.342
       4.498
       2.854
       0.809
      -1.261
      -3.025
      -4.190
      -4.606
      -4.378
      -3.808
      -3.156
      -2.447
      -1.541
      -0.382
       0.866
       1.950
       2.743
       3.293
       3.667
       3.833
       3.700
       3.281
       2.726
       2.163
       1.520
       0.566
      -0.808
      -2.341
      -3.508
      -3.937
      -3.715
      -3.241
      -2.767
      -2.127
      -0.939
       0.930
       3.086
       4.768
       5.277
       4.356
       2.257
      -0.439
      -3.085
      -5.137
      -6.230
      -6.171
      -4.935
      -2.713
       0.015
       2.522
       4.126
       4.542
       3.978
       2.920
       1.847
       1.068
       0.626
       0.282
      -0.296
      -1.144
      -1.843
      -1.854
      -1.051
       0.141
       1.139
       1.677
       1.853
       1.767
       1.276
       0.194
      -1.284
      -2.516
      -2.855
      -2.144
      -0.780
       0.608
       1.507
       1.661
       1.074
      -0.045
      -1.368
      -2.549
      -3.309
      -3.472
      -2.979
      -1.902
      -0.509
       0.701
       1.196
       0.777
      -0.226
      -1.250
      -1.989
      -2.526
      -2.988
      -3.210
      -2.870
      -1.946
      -0.880
      -0.173
       0.190
       0.796
       2.190
       4.206
       5.991
       6.692
       6.116
       4.751
       3.272
       2.083
       1.220
       0.587
       0.237
       0.402
       1.200
       2.315
       3.047
       2.785
       1.449
      -0.487
      -2.370
      -3.751
      -4.490
      -4.619
      -4.196
      -3.312
      -2.195
      -1.217
      -0.718
      -0.756
      -1.027
      -1.066
      -0.590
       0.284
       1.148
       1.613
       1.580
       1.245
       0.878
       0.603
       0.370
       0.133
       0.014
       0.257
       0.982
       1.996
       2.910
       3.440
       3.578
       3.460
       3.088
       2.228
       0.600
      -1.808
      -4.584
      -7.060
      -8.679
      -9.267
      -8.999
      -8.164
      -6.963
      -5.455
      -3.597
      -1.336
       1.254
       3.834
       5.832
       6.712
       6.318
       4.997
       3.356
       1.850
       0.538
      -0.779
      -2.157
      -3.268
      -3.574
      -2.757
      -0.968
       1.320
       3.590
       5.405
       6.409
       6.450
       5.719
       4.640
       3.513
       2.318
       0.920
      -0.576
      -1.809
      -2.475
      -2.595
      -2.435
      -2.236
      -2.102
      -2.059
      -2.118
      -2.214
      -2.187
      -1.912
      -1.440
      -0.974
      -0.711
      -0.736
      -1.008
      -1.369
      -1.549
      -1.260
      -0.375
       0.953
       2.373
       3.523
       4.141
       4.060
       3.186
       1.590
      -0.384
      -2.151
      -3.115
      -2.953
      -1.745
       0.107
       2.102
       3.844
       5.118
       5.859
       6.065
       5.708
       4.684
       2.890
       0.446
      -2.137
      -4.120
      -4.975
      -4.679
      -3.558
      -1.941
      -0.062
       1.735
       2.901
       2.970
       1.935
       0.281
      -1.357
      -2.536
      -3.060
      -2.868
      -1.995
      -0.616
       0.960
       2.381
       3.330
       3.543
       2.857
       1.370
      -0.443
      -1.904
      -2.567
      -2.543
      -2.363
      -2.466
      -2.799
      -2.909
      -2.400
      -1.335
      -0.233
       0.316
       0.095
      -0.599
      -1.217
      -1.363
      -1.037
      -0.556
      -0.275
      -0.319
      -0.503
      -0.513
      -0.216
       0.189
       0.364
       0.183
      -0.123
      -0.165
       0.249
       0.938
       1.498
       1.655
       1.479
       1.248
       1.118
       0.954
       0.460
      -0.536
      -1.897
      -3.169
      -3.770
      -3.313
      -1.877
       0.048
       1.916
       3.422
       4.505
       5.145
       5.250
       4.708
       3.535
       1.978
       0.466
      -0.621
      -1.196
      -1.485
      -1.801
      -2.277
      -2.779
      -3.043
      -2.906
      -2.452
      -1.947
      -1.620
      -1.482
      -1.324
      -0.877
      -0.042
       0.949
       1.613
       1.607
       1.083
       0.624
       0.757
       1.504
       2.374
       2.734
       2.240
       1.047
      -0.318
      -1.346
      -1.883
      -2.114
      -2.222
      -2.083
      -1.340
       0.188
       2.182
       3.950
       4.927
       5.069
       4.768
       4.381
       3.851
       2.800
       0.989
      -1.277
      -3.219
      -4.154
      -4.044
      -3.473
      -3.069
      -2.977
      -2.873
      -2.400
      -1.550
      -0.678
      -0.203
      -0.267
      -0.635
      -0.954
      -1.098
      -1.263
      -1.712
      -2.452
      -3.160
      -3.393
      -2.888
      -1.719
      -0.219
       1.244
       2.430
       3.219
       3.534
       3.314
       2.561
       1.388
       0.023
      -1.231
      -2.072
      -2.283
      -1.773
      -0.597
       1.041
       2.802
       4.283
       5.136
       5.167
       4.419
       3.168
       1.795
       0.542
      -0.620
      -1.843
      -3.093
      -4.017
      -4.176
      -3.440
      -2.145
      -0.869
      -0.052
       0.217
       0.138
       0.010
       0.062
       0.345
       0.677
       0.720
       0.236
      -0.638
      -1.394
      -1.509
      -0.842
       0.288
       1.385
       2.125
       2.495
       2.658
       2.741
       2.756
       2.658
       2.404
       1.959
       1.365
       0.854
       0.766
       1.229
       1.965
       2.501
       2.572
       2.243
       1.697
       0.994
       0.084
      -1.050
      -2.298
      -3.448
      -4.278
      -4.664
      -4.626
      -4.288
      -3.783
      -3.189
      -2.536
      -1.872
      -1.309
      -1.013
      -1.059
      -1.269
      -1.244
      -0.674
       0.339
       1.296
       1.672
       1.306
       0.469
      -0.393
      -0.963
      -1.176
      -1.130
      -0.923
      -0.557
       0.026
       0.835
       1.780
       2.702
       3.454
       3.916
       3.984
       3.607
       2.870
       2.005
       1.304
       0.957
       0.938
       0.966
       0.621
      -0.352
      -1.742
      -2.916
      -3.297
      -2.868
      -2.178
      -1.816
      -1.895
      -2.045
      -1.869
      -1.356
      -0.861
      -0.745
      -1.033
      -1.368
      -1.262
      -0.468
       0.796
       1.948
       2.435
       2.136
       1.404
       0.735
       0.388
       0.314
       0.367
       0.483
       0.657
       0.856
       1.041
       1.253
       1.593
       2.072
       2.473
       2.413
       1.632
       0.260
      -1.202
      -2.231
      -2.629
      -2.572
      -2.367
      -2.201
      -2.063
      -1.833
      -1.413
      -0.815
      -0.149
       0.434
       0.768
       0.695
       0.163
      -0.650
      -1.332
      -1.436
      -0.790
       0.330
       1.382
       1.976
       2.147
       2.163
       2.091
       1.670
       0.620
      -0.996
      -2.758
      -4.110
      -4.576
      -3.919
      -2.296
      -0.258
       1.520
       2.641
       3.156
       3.379
       3.517
       3.472
       2.978
       1.961
       0.728
      -0.194
      -0.432
       0.029
       0.888
       1.689
       2.000
       1.600
       0.609
      -0.593
      -1.605
      -2.196
      -2.331
      -2.088
      -1.597
      -1.010
      -0.515
      -0.335
      -0.623
      -1.306
      -2.060
      -2.526
      -2.538
      -2.146
      -1.459
      -0.569
       0.410
       1.288
       1.824
       1.842
       1.365
       0.675
       0.161
       0.007
       0.026
      -0.186
      -0.866
      -1.817
      -2.511
