Origin Time       09/1/2013 01:41:52	
Lat.              25.4 N	
Long.             94.9 E	
Depth (Km)         89.0
Magnitude         5.9
 Region           Myanmar-India-Border-Region                                      
 Above details taken from IMD 
     
Station Code      LKH
Station Lat.       27.239  N
Station Long.      94.107  E
Station Height(m)   95.0
Site Class        C   Vs30 between 200 m/sec to 375 m/sec *  
Record Time       09.01.2013 01:42:36.709
Sampling Rate     200. Hz
 Record Duration   68.345 Sec.
 Direction         E-W (E positive)
Max. Acceleration      9.114 cm/sec**2
     
  * For reference see Site Classification link of website 
     
 Base Line Corrected and Low Pass Filtered (Cut Off at 35 Hz) Time History
 Acceleration data in cm/sec**2
    
[...]
      -0.060
      -0.046
      -0.146
      -0.277
      -0.316
      -0.204
      -0.005
       0.148
       0.159
       0.037
      -0.122
      -0.231
      -0.282
      -0.331
      -0.407
      -0.466
      -0.428
      -0.283
      -0.128
      -0.094
      -0.221
      -0.402
      -0.457
      -0.283
       0.041
       0.305
       0.347
       0.190
       0.012
      -0.027
       0.070
       0.163
       0.124
      -0.037
      -0.194
      -0.231
      -0.142
      -0.020
       0.043
       0.038
       0.023
       0.045
       0.084
       0.083
       0.028
      -0.020
       0.028
       0.202
       0.435
       0.615
       0.670
       0.609
       0.493
       0.373
       0.257
       0.138
       0.024
      -0.057
      -0.093
      -0.092
      -0.080
      -0.071
      -0.063
      -0.050
      -0.027
       0.002
       0.035
       0.072
       0.109
       0.145
       0.177
       0.195
       0.183
       0.138
       0.080
       0.060
       0.125
       0.279
       0.453
       0.536
       0.447
       0.205
      -0.088
      -0.321
      -0.453
      -0.519
      -0.576
      -0.658
      -0.758
      -0.853
      -0.921
      -0.952
      -0.945
      -0.892
      -0.775
      -0.586
      -0.352
      -0.153
      -0.081
      -0.160
      -0.303
      -0.364
      -0.238
       0.063
       0.419
       0.692
       0.830
       0.899
       1.008
       1.185
       1.318
       1.251
       0.940
       0.518
       0.194
       0.073
       0.090
       0.085
      -0.043
      -0.267
      -0.491
      -0.643
      -0.713
      -0.723
      -0.685
      -0.591
      -0.443
      -0.273
      -0.133
      -0.079
      -0.138
      -0.290
      -0.453
      -0.512
      -0.387
      -0.104
       0.213
       0.414
       0.419
       0.269
       0.095
       0.024
       0.088
       0.208
       0.274
       0.240
       0.151
       0.086
       0.093
       0.181
       0.343
       0.559
       0.759
       0.815
       0.626
       0.228
      -0.184
      -0.389
      -0.309
      -0.050
       0.201
       0.323
       0.322
       0.263
       0.180
       0.049
      -0.146
      -0.349
      -0.450
      -0.394
      -0.258
      -0.204
      -0.338
      -0.602
      -0.820
      -0.849
      -0.702
      -0.518
      -0.430
      -0.454
      -0.506
      -0.501
      -0.432
      -0.360
      -0.332
      -0.321
      -0.238
      -0.012
       0.329
       0.657
       0.833
       0.805
       0.646
       0.492
       0.446
       0.528
       0.669
       0.765
       0.737
       0.588
       0.405
       0.288
       0.277
       0.334
       0.397
       0.427
       0.415
       0.357
       0.260
       0.153
       0.074
       0.053
       0.082
       0.119
       0.115
       0.045
      -0.064
      -0.152
      -0.164
      -0.101
      -0.030
      -0.047
      -0.204
      -0.468
      -0.740
      -0.902
      -0.888
      -0.721
      -0.491
      -0.294
      -0.172
      -0.115
      -0.103
      -0.126
      -0.177
      -0.222
      -0.211
      -0.107
       0.071
       0.243
       0.310
       0.206
      -0.054
      -0.383
      -0.671
      -0.837
      -0.856
      -0.743
      -0.537
      -0.315
      -0.175
      -0.180
      -0.287
      -0.359
      -0.263
       0.013
       0.344
       0.561
       0.567
       0.402
       0.203
       0.098
       0.114
       0.181
       0.214
       0.212
       0.255
       0.413
       0.653
       0.841
       0.844
       0.639
       0.334
       0.092
       0.016
       0.072
       0.127
       0.061
      -0.127
      -0.316
      -0.368
      -0.253
      -0.077
       0.012
      -0.058
      -0.232
      -0.379
      -0.387
      -0.235
       0.004
       0.222
       0.342
       0.357
       0.301
       0.214
       0.131
       0.092
       0.146
       0.314
       0.564
       0.814
       0.980
       1.006
       0.869
       0.582
       0.209
      -0.130
      -0.314
      -0.300
      -0.162
      -0.051
      -0.071
      -0.208
      -0.350
      -0.401
      -0.375
      -0.376
      -0.492
      -0.710
      -0.919
      -1.001
      -0.913
      -0.719
      -0.520
      -0.375
      -0.252
      -0.081
       0.151
       0.372
       0.480
       0.449
       0.358
       0.327
       0.411
       0.553
       0.615
       0.486
       0.173
      -0.173
      -0.337
      -0.192
       0.189
       0.563
       0.677
       0.437
      -0.043
      -0.523
      -0.785
      -0.734
      -0.430
      -0.034
       0.281
       0.411
       0.358
       0.204
       0.051
      -0.036
      -0.048
      -0.029
      -0.059
      -0.208
      -0.479
      -0.786
      -1.006
      -1.062
      -0.963
      -0.769
      -0.531
      -0.283
      -0.061
       0.090
       0.135
       0.078
      -0.025
      -0.092
      -0.071
       0.027
       0.135
       0.193
       0.198
       0.214
       0.307
       0.460
       0.567
       0.521
       0.333
       0.129
       0.026
       0.023
       0.022
      -0.060
      -0.185
      -0.217
      -0.048
       0.267
       0.520
       0.505
       0.205
      -0.183
      -0.405
      -0.345
      -0.102
       0.129
       0.234
       0.246
       0.264
       0.307
       0.296
       0.156
      -0.083
      -0.286
      -0.318
      -0.151
       0.112
       0.306
       0.321
       0.178
      -0.012
      -0.143
      -0.184
      -0.159
      -0.092
       0.002
       0.090
       0.115
       0.044
      -0.085
      -0.176
      -0.145
       0.011
       0.217
       0.374
       0.418
       0.346
       0.206
       0.052
      -0.080
      -0.186
      -0.272
      -0.324
      -0.304
      -0.182
       0.021
       0.224
       0.337
       0.314
       0.182
       0.014
      -0.118
      -0.192
      -0.229
      -0.255
      -0.259
      -0.206
      -0.081
       0.076
       0.199
       0.253
       0.266
       0.293
       0.362
       0.450
       0.513
       0.540
       0.558
       0.605
       0.677
       0.712
       0.638
       0.433
       0.150
      -0.110
      -0.268
      -0.294
      -0.226
      -0.136
      -0.102
      -0.153
      -0.265
      -0.388
      -0.487
      -0.554
      -0.583
      -0.550
      -0.427
      -0.230
      -0.041
       0.032
      -0.050
      -0.205
      -0.287
      -0.214
      -0.045
       0.065
       0.007
      -0.185
      -0.354
      -0.360
      -0.201
      -0.006
       0.083
       0.021
      -0.132
      -0.302
      -0.469
      -0.649
      -0.819
      -0.890
      -0.780
      -0.509
      -0.214
      -0.042
      -0.032
      -0.092
      -0.097
      -0.004
       0.120
       0.168
       0.087
      -0.086
      -0.261
      -0.376
      -0.434
      -0.462
      -0.448
      -0.332
      -0.080
       0.242
       0.502
       0.612
       0.601
       0.565
       0.555
       0.537
       0.444
       0.256
       0.029
      -0.145
      -0.198
      -0.120
       0.045
       0.223
       0.340
       0.358
       0.292
       0.200
       0.143
       0.148
       0.195
       0.237
       0.236
       0.203
       0.200
       0.275
       0.393
       0.453
       0.387
       0.255
       0.205
       0.317
       0.486
       0.496
       0.226
      -0.201
      -0.502
      -0.491
      -0.252
      -0.061
      -0.132
      -0.425
      -0.702
      -0.743
      -0.526
      -0.216
       0.019
       0.144
       0.248
       0.404
       0.584
       0.691
       0.675
       0.568
       0.433
       0.294
       0.133
      -0.072
      -0.297
      -0.477
      -0.535
      -0.432
      -0.199
       0.054
       0.178
       0.067
      -0.277
      -0.714
      -1.033
      -1.066
      -0.806
      -0.414
      -0.129
      -0.124
      -0.419
      -0.894
      -1.387
      -1.774
      -2.009
      -2.099
      -2.076
      -1.984
      -1.871
      -1.774
      -1.698
      -1.623
      -1.537
      -1.463
      -1.439
      -1.476
      -1.532
      -1.535
      -1.436
      -1.240
      -1.012
      -0.842
      -0.784
      -0.805
      -0.773
      -0.526
      -0.003
       0.676
       1.256
       1.529
       1.482
       1.298
       1.217
       1.397
       1.851
       2.449
       2.972
       3.213
       3.087
       2.687
       2.203
       1.797
       1.525
       1.360
       1.265
       1.234
       1.250
       1.240
       1.102
       0.800
       0.426
       0.158
       0.127
       0.313
       0.555
       0.665
       0.564
       0.320
       0.078
      -0.059
      -0.057
       0.092
       0.400
       0.837
       1.277
       1.502
       1.332
       0.756
      -0.028
      -0.745
      -1.239
      -1.558
      -1.844
      -2.151
      -2.383
      -2.423
      -2.315
      -2.267
      -2.470
      -2.864
      -3.138
      -2.972
      -2.319
      -1.461
      -0.780
      -0.472
      -0.444
      -0.434
      -0.233
       0.170
       0.648
       1.103
       1.575
       2.163
       2.846
       3.430
       3.681
       3.539
       3.189
       2.930
       2.960
       3.268
       3.712
       4.176
       4.638
       5.110
       5.545
       5.818
       5.816
       5.534
       5.092
       4.663
       4.365
       4.195
       4.031
       3.709
       3.115
       2.238
       1.173
       0.058
      -0.977
      -1.848
      -2.526
      -3.043
      -3.470
      -3.868
      -4.223
      -4.440
      -4.412
      -4.129
      -3.733
      -3.455
      -3.467
      -3.759
      -4.127
      -4.315
      -4.205
      -3.902
      -3.648
      -3.615
      -3.780
      -3.968
      -4.020
      -3.920
      -3.772
      -3.678
      -3.637
      -3.557
      -3.361
      -3.075
      -2.825
      -2.741
      -2.845
      -3.027
      -3.118
      -3.009
      -2.720
      -2.328
      -1.863
      -1.263
      -0.456
       0.541
       1.606
       2.586
       3.366
       3.893
       4.168
       4.228
       4.135
       3.942
       3.681
       3.373
       3.057
       2.768
       2.507
       2.237
       1.919
       1.552
       1.153
       0.729
       0.284
      -0.131
      -0.427
      -0.539
      -0.501
      -0.423
      -0.409
      -0.489
      -0.616
      -0.707
      -0.698
      -0.582
      -0.430
      -0.357
      -0.443
      -0.657
      -0.843
      -0.798
      -0.390
       0.354
       1.238
       1.972
       2.304
       2.135
       1.549
       0.747
      -0.049
      -0.676
      -1.071
      -1.272
      -1.360
      -1.392
      -1.376
      -1.286
      -1.084
      -0.698
      -0.027
       0.988
       2.259
       3.524
       4.463
       4.882
       4.801
       4.402
       3.886
       3.353
       2.765
       2.022
       1.070
      -0.019
      -1.062
      -1.867
      -2.337
      -2.492
      -2.408
      -2.129
      -1.663
      -1.047
      -0.414
       0.039
       0.149
      -0.116
      -0.655
      -1.311
      -1.965
      -2.572
      -3.141
      -3.674
      -4.148
      -4.546
      -4.878
      -5.157
      -5.353
      -5.380
      -5.134
      -4.577
      -3.796
      -3.008
      -2.452
      -2.242
      -2.266
      -2.242
      -1.884
      -1.060
       0.145
       1.483
       2.696
       3.645
       4.343
       4.872
       5.274
       5.505
       5.489
       5.188
       4.657
       4.016
       3.373
       2.776
       2.236
       1.787
       1.503
       1.442
       1.584
       1.838
       2.108
       2.356
       2.594
       2.830
       3.016
       3.054
       2.870
       2.467
       1.920
       1.332
       0.795
       0.378
       0.106
      -0.052
      -0.190
      -0.432
      -0.865
      -1.465
      -2.094
      -2.590
      -2.883
      -3.023
      -3.087
      -3.084
      -2.954
      -2.649
      -2.223
      -1.824
      -1.589
      -1.538
      -1.568
      -1.573
      -1.562
      -1.640
      -1.870
      -2.170
      -2.375
      -2.409
      -2.397
      -2.576
      -3.075
      -3.764
      -4.301
      -4.344
      -3.750
      -2.629
      -1.240
       0.169
       1.455
       2.547
       3.382
       3.905
       4.127
       4.156
       4.129
       4.118
       4.106
       4.043
       3.922
       3.823
       3.856
       4.043
       4.252
       4.260
       3.923
       3.300
       2.628
       2.170
       2.053
       2.231
       2.576
       2.990
       3.439
       3.892
       4.248
       4.357
       4.104
       3.496
       2.656
       1.730
       0.795
      -0.147
      -1.077
      -1.888
      -2.427
      -2.635
      -2.644
      -2.722
      -3.107
      -3.840
      -4.729
      -5.477
      -5.886
      -5.983
      -5.953
      -5.957
      -5.987
      -5.908
      -5.632
      -5.244
      -4.955
      -4.934
      -5.174
      -5.495
      -5.667
      -5.550
      -5.143
      -4.543
      -3.858
      -3.171
      -2.558
      -2.133
      -2.033
      -2.334
      -2.950
      -3.629
      -4.049
      -3.975
      -3.351
      -2.294
      -1.014
       0.283
       1.428
       2.299
       2.839
       3.073
       3.073
       2.880
       2.489
       1.919
       1.285
       0.762
       0.462
       0.350
       0.301
       0.224
       0.155
       0.241
       0.621
       1.333
       2.290
       3.370
       4.502
       5.677
       6.873
       7.976
       8.788
       9.114
       8.876
       8.168
       7.198
       6.179
       5.234
       4.399
       3.679
       3.098
       2.714
       2.572
       2.653
       2.864
       3.087
       3.243
       3.305
       3.257
       3.067
       2.710
       2.250
       1.865
       1.785
       2.141
       2.860
       3.693
       4.353
       4.678
       4.672
       4.422
       3.964
       3.239
       2.202
       0.966
      -0.208
      -1.100
      -1.718
      -2.266
      -2.925
      -3.669
      -4.299
      -4.637
      -4.682
      -4.580
      -4.463
      -4.349
      -4.181
      -3.955
      -3.798
      -3.904
      -4.377
      -5.104
      -5.787
      -6.126
      -6.023
      -5.631
      -5.209
      -4.936
      -4.857
      -4.957
      -5.263
      -5.833
      -6.671
      -7.655
      -8.547
      -9.073
      -9.038
      -8.400
      -7.288
      -5.937
      -4.582
      -3.366
      -2.317
      -1.415
      -0.659
      -0.105
       0.193
       0.243
       0.151
       0.089
       0.222
       0.639
       1.295
       1.999
       2.473
       2.474
       1.946
       1.076
       0.209
      -0.316
      -0.297
       0.305
       1.385
       2.736
       4.111
       5.302
       6.172
       6.658
       6.766
       6.583
       6.254
       5.900
       5.561
       5.201
       4.771
       4.254
       3.680
       3.118
       2.654
       2.376
       2.342
       2.538
       2.856
       3.127
       3.204
       3.048
       2.749
       2.484
       2.432
       2.677
       3.155
       3.685
       4.095
       4.320
       4.400
       4.378
       4.201
       3.724
       2.822
       1.551
       0.210
      -0.778
      -1.130
      -0.882
      -0.355
       0.065
       0.144
      -0.142
      -0.697
      -1.438
      -2.333
      -3.336
      -4.314
      -5.072
      -5.452
      -5.415
      -5.019
      -4.356
      -3.527
      -2.672
      -1.992
      -1.694
      -1.855
      -2.311
      -2.701
      -2.661
      -2.048
      -1.032
       0.008
       0.675
       0.729
       0.147
      -0.898
      -2.117
      -3.209
      -3.956
      -4.275
      -4.188
      -3.772
      -3.142
      -2.487
      -2.052
      -2.038
      -2.463
      -3.121
      -3.691
      -3.927
      -3.790
      -3.418
      -2.994
      -2.639
      -2.404
      -2.315
      -2.370
      -2.492
      -2.523
      -2.289
      -1.706
      -0.843
       0.115
       0.975
       1.644
       2.148
       2.565
       2.965
       3.394
       3.881
       4.415
       4.931
       5.329
       5.532
       5.516
       5.342
       5.159
       5.169
       5.527
       6.226
       7.064
       7.736
       8.012
       7.866
       7.492
       7.165
       7.062
       7.129
       7.104
       6.684
       5.738
       4.407
       2.995
       1.757
       0.757
      -0.096
      -0.923
      -1.807
      -2.803
      -3.922
      -5.057
      -5.922
      -6.148
      -5.501
      -4.084
      -2.343
      -0.853
      -0.039
      -0.009
      -0.582
      -1.466
      -2.437
      -3.421
      -4.434
      -5.464
      -6.415
      -7.130
      -7.458
      -7.308
      -6.672
      -5.662
      -4.509
      -3.505
      -2.865
      -2.608
      -2.543
      -2.402
      -1.992
      -1.311
      -0.545
       0.010
       0.102
      -0.320
      -1.058
      -1.785
      -2.261
      -2.463
      -2.515
      -2.516
      -2.443
      -2.219
      -1.837
      -1.414
      -1.112
      -0.994
      -0.974
      -0.897
      -0.691
      -0.437
      -0.309
      -0.445
      -0.840
      -1.338
      -1.712
      -1.774
      -1.412
      -0.563
       0.807
       2.643
       4.716
       6.639
       7.998
       8.527
       8.187
       7.119
       5.549
       3.714
       1.834
       0.102
      -1.316
      -2.261
      -2.573
      -2.142
      -0.993
       0.686
       2.607
       4.470
       5.989
       6.900
       7.020
       6.341
       5.063
       3.507
       1.996
       0.772
      -0.046
      -0.489
      -0.711
      -0.918
      -1.266
      -1.788
      -2.384
      -2.860
      -3.024
      -2.788
      -2.232
      -1.554
      -0.957
      -0.555
      -0.370
      -0.384
      -0.568
      -0.853
      -1.123
      -1.266
      -1.255
      -1.177
      -1.174
      -1.351
      -1.700
      -2.099
      -2.377
      -2.395
      -2.102
      -1.534
      -0.763
       0.150
       1.166
       2.250
       3.334
       4.282
       4.910
       5.053
       4.668
       3.914
       3.098
       2.504
       2.220
       2.103
       1.901
       1.440
       0.730
      -0.080
      -0.850
      -1.568
      -2.318
      -3.142
      -3.959
      -4.589
      -4.862
      -4.693
      -4.108
      -3.210
      -2.142
      -1.054
      -0.077
       0.675
       1.134
       1.296
       1.233
       1.070
       0.925
       0.856
       0.834
       0.762
       0.522
       0.028
      -0.717
      -1.591
      -2.380
      -2.897
      -3.061
      -2.899
      -2.462
      -1.792
      -0.935
       0.015
       0.923
       1.638
       2.032
       2.046
       1.715
       1.165
       0.563
       0.043
      -0.327
      -0.550
      -0.676
      -0.782
      -0.931
      -1.136
      -1.349
      -1.509
      -1.586
      -1.596
      -1.547
      -1.382
      -1.004
      -0.374
       0.398
       1.057
       1.333
       1.103
       0.456
      -0.361
      -1.076
      -1.491
      -1.526
      -1.197
      -0.592
       0.126
       0.723
       0.939
       0.615
      -0.161
      -1.037
      -1.576
      -1.538
      -1.022
      -0.349
       0.187
       0.495
       0.690
       0.963
       1.422
       2.010
       2.546
       2.862
