Origin Time       29/10/2009 17:00:35
Lat.              27.3°N	
Long.             91.4°E	
Depth (Km)          5.0
Magnitude         5.2
 Region           BHUTAN                                                           
 Above details taken from IMD 
   
Station Code      NON
Station Lat.       25.522
Station Long.      91.264
Station Height(m) 1367.0
Site Class        A   Vs30 between 700 m/sec to 1400 m/sec * 
Record Time       29.10.2009 17:01:17.124
Sampling Rate     200. Hz
 Record Duration   67.080 Sec.
 Direction         Vert. (Up positive)
Max. Acceleration      4.571 cm/sec**2
     
  * For reference see Site Classification link of website 
     
 Base Line Corrected and Low Pass Filtered (Cut Off at 35 Hz) Time History
 Acceleration data in cm/sec**2
    
[...]
       0.082
       0.031
      -0.025
      -0.078
      -0.113
      -0.120
      -0.092
      -0.035
       0.036
       0.101
       0.142
       0.155
       0.142
       0.108
       0.057
      -0.010
      -0.088
      -0.164
      -0.227
      -0.272
      -0.303
      -0.326
      -0.340
      -0.339
      -0.317
      -0.275
      -0.215
      -0.144
      -0.065
       0.018
       0.102
       0.184
       0.262
       0.335
       0.397
       0.437
       0.448
       0.428
       0.387
       0.341
       0.295
       0.244
       0.174
       0.071
      -0.071
      -0.245
      -0.430
      -0.595
      -0.712
      -0.762
      -0.744
      -0.675
      -0.573
      -0.454
      -0.325
      -0.195
      -0.071
       0.037
       0.124
       0.185
       0.222
       0.235
       0.231
       0.216
       0.199
       0.186
       0.184
       0.199
       0.234
       0.286
       0.346
       0.404
       0.451
       0.477
       0.476
       0.451
       0.409
       0.358
       0.296
       0.218
       0.121
       0.016
      -0.079
      -0.145
      -0.175
      -0.174
      -0.147
      -0.101
      -0.045
       0.006
       0.035
       0.033
       0.004
      -0.041
      -0.093
      -0.146
      -0.194
      -0.227
      -0.240
      -0.240
      -0.245
      -0.269
      -0.306
      -0.331
      -0.322
      -0.276
      -0.203
      -0.121
      -0.038
       0.038
       0.100
       0.142
       0.166
       0.175
       0.175
       0.168
       0.153
       0.133
       0.112
       0.082
       0.029
      -0.056
      -0.167
      -0.268
      -0.320
      -0.302
      -0.226
      -0.125
      -0.032
       0.041
       0.097
       0.141
       0.173
       0.184
       0.161
       0.095
      -0.011
      -0.132
      -0.234
      -0.284
      -0.270
      -0.205
      -0.113
      -0.017
       0.070
       0.141
       0.193
       0.228
       0.251
       0.259
       0.247
       0.212
       0.156
       0.090
       0.025
      -0.036
      -0.089
      -0.125
      -0.125
      -0.073
       0.029
       0.160
       0.291
       0.393
       0.456
       0.475
       0.455
       0.405
       0.333
       0.242
       0.132
       0.000
      -0.145
      -0.282
      -0.386
      -0.452
      -0.491
      -0.523
      -0.552
      -0.570
      -0.560
      -0.515
      -0.439
      -0.342
      -0.231
      -0.116
      -0.009
       0.080
       0.150
       0.206
       0.252
       0.291
       0.314
       0.311
       0.272
       0.193
       0.087
      -0.019
      -0.090
      -0.106
      -0.071
      -0.006
       0.064
       0.130
       0.192
       0.253
       0.309
       0.345
       0.349
       0.317
       0.257
       0.183
       0.109
       0.042
      -0.021
      -0.089
      -0.167
      -0.248
      -0.317
      -0.362
      -0.381
      -0.378
      -0.356
      -0.309
      -0.231
      -0.122
       0.005
       0.127
       0.225
       0.289
       0.318
       0.321
       0.305
       0.274
       0.225
       0.161
       0.087
       0.012
      -0.054
      -0.108
      -0.148
      -0.176
      -0.197
      -0.217
      -0.238
      -0.255
      -0.249
      -0.207
      -0.125
      -0.015
       0.101
       0.208
       0.294
       0.355
       0.386
       0.387
       0.358
       0.301
       0.214
       0.094
      -0.057
      -0.219
      -0.361
      -0.456
      -0.493
      -0.479
      -0.429
      -0.358
      -0.274
      -0.186
      -0.095
       0.003
       0.117
       0.248
       0.381
       0.488
       0.545
       0.545
       0.503
       0.439
       0.370
       0.306
       0.254
       0.213
       0.174
       0.118
       0.032
      -0.082
      -0.203
      -0.304
      -0.365
      -0.381
      -0.358
      -0.305
      -0.230
      -0.140
      -0.043
       0.049
       0.125
       0.171
       0.178
       0.153
       0.115
       0.085
       0.067
       0.048
       0.013
      -0.045
      -0.116
      -0.188
      -0.251
      -0.298
      -0.318
      -0.306
      -0.262
      -0.199
      -0.130
      -0.063
       0.005
       0.071
       0.128
       0.161
       0.166
       0.146
       0.111
       0.066
       0.017
      -0.030
      -0.067
      -0.091
      -0.106
      -0.117
      -0.127
      -0.133
      -0.126
      -0.099
      -0.051
       0.016
       0.095
       0.174
       0.239
       0.279
       0.286
       0.254
       0.183
       0.081
      -0.027
      -0.111
      -0.153
      -0.157
      -0.149
      -0.151
      -0.165
      -0.175
      -0.165
      -0.129
      -0.075
      -0.011
       0.058
       0.132
       0.205
       0.275
       0.337
       0.387
       0.418
       0.422
       0.395
       0.340
       0.264
       0.172
       0.066
      -0.043
      -0.141
      -0.212
      -0.247
      -0.251
      -0.233
      -0.207
      -0.181
      -0.160
      -0.144
      -0.129
      -0.109
      -0.087
      -0.069
      -0.065
      -0.074
      -0.090
      -0.101
      -0.105
      -0.107
      -0.113
      -0.121
      -0.121
      -0.102
      -0.059
       0.007
       0.085
       0.164
       0.228
       0.269
       0.291
       0.304
       0.315
       0.322
       0.317
       0.294
       0.250
       0.186
       0.111
       0.038
      -0.015
      -0.038
      -0.040
      -0.046
      -0.078
      -0.135
      -0.187
      -0.199
      -0.155
      -0.077
       0.000
       0.045
       0.049
       0.018
      -0.037
      -0.110
      -0.188
      -0.261
      -0.310
      -0.321
      -0.286
      -0.213
      -0.122
      -0.043
       0.007
       0.030
       0.050
       0.088
       0.146
       0.206
       0.245
       0.250
       0.228
       0.192
       0.158
       0.142
       0.147
       0.166
       0.179
       0.165
       0.120
       0.057
      -0.002
      -0.045
      -0.076
      -0.106
      -0.142
      -0.184
      -0.232
      -0.286
      -0.345
      -0.403
      -0.451
      -0.481
      -0.488
      -0.469
      -0.420
      -0.343
      -0.247
      -0.150
      -0.061
       0.021
       0.108
       0.213
       0.334
       0.459
       0.572
       0.658
       0.710
       0.723
       0.693
       0.617
       0.499
       0.347
       0.179
       0.017
      -0.119
      -0.216
      -0.268
      -0.276
      -0.247
      -0.193
      -0.124
      -0.048
       0.027
       0.094
       0.139
       0.154
       0.136
       0.090
       0.032
      -0.030
      -0.091
      -0.156
      -0.227
      -0.295
      -0.341
      -0.346
      -0.305
      -0.229
      -0.135
      -0.036
       0.072
       0.195
       0.336
       0.476
       0.585
       0.633
       0.610
       0.532
       0.434
       0.346
       0.279
       0.219
       0.144
       0.038
      -0.099
      -0.245
      -0.375
      -0.462
      -0.497
      -0.486
      -0.447
      -0.402
      -0.359
      -0.315
      -0.256
      -0.172
      -0.066
       0.045
       0.136
       0.190
       0.204
       0.187
       0.157
       0.125
       0.093
       0.052
      -0.009
      -0.090
      -0.179
      -0.255
      -0.302
      -0.317
      -0.301
      -0.252
      -0.166
      -0.043
       0.103
       0.251
       0.374
       0.454
       0.487
       0.482
       0.455
       0.418
       0.371
       0.306
       0.217
       0.108
      -0.003
      -0.096
      -0.161
      -0.204
      -0.233
      -0.253
      -0.261
      -0.254
      -0.234
      -0.210
      -0.187
      -0.171
      -0.161
      -0.152
      -0.143
      -0.131
      -0.122
      -0.117
      -0.117
      -0.114
      -0.092
      -0.042
       0.030
       0.101
       0.141
       0.140
       0.106
       0.063
       0.032
       0.026
       0.047
       0.091
       0.154
       0.231
       0.316
       0.401
       0.478
       0.533
       0.553
       0.536
       0.493
       0.444
       0.397
       0.347
       0.275
       0.166
       0.020
      -0.147
      -0.309
      -0.444
      -0.542
      -0.614
      -0.679
      -0.749
      -0.815
      -0.851
      -0.836
      -0.773
      -0.689
      -0.612
      -0.552
      -0.497
      -0.426
      -0.331
      -0.214
      -0.087
       0.045
       0.178
       0.311
       0.444
       0.569
       0.679
       0.764
       0.820
       0.855
       0.880
       0.904
       0.923
       0.926
       0.903
       0.863
       0.828
       0.815
       0.816
       0.805
       0.750
       0.641
       0.486
       0.302
       0.106
      -0.090
      -0.278
      -0.456
      -0.626
      -0.789
      -0.941
      -1.062
      -1.132
      -1.140
      -1.095
      -1.016
      -0.923
      -0.825
      -0.721
      -0.605
      -0.472
      -0.322
      -0.159
       0.011
       0.177
       0.328
       0.452
       0.540
       0.590
       0.607
       0.600
       0.579
       0.548
       0.502
       0.435
       0.345
       0.240
       0.130
       0.022
      -0.081
      -0.170
      -0.238
      -0.282
      -0.306
      -0.319
      -0.325
      -0.324
      -0.314
      -0.297
      -0.277
      -0.251
      -0.211
      -0.151
      -0.080
      -0.017
       0.015
       0.001
      -0.059
      -0.159
      -0.290
      -0.444
      -0.605
      -0.753
      -0.874
      -0.961
      -1.023
      -1.067
      -1.095
      -1.094
      -1.046
      -0.936
      -0.760
      -0.525
      -0.256
       0.015
       0.258
       0.459
       0.626
       0.772
       0.906
       1.028
       1.126
       1.189
       1.215
       1.207
       1.176
       1.127
       1.061
       0.982
       0.900
       0.827
       0.772
       0.734
       0.705
       0.673
       0.636
       0.592
       0.543
       0.491
       0.441
       0.396
       0.353
       0.305
       0.246
       0.183
       0.127
       0.083
       0.033
      -0.049
      -0.181
      -0.348
      -0.514
      -0.646
      -0.730
      -0.774
      -0.794
      -0.799
      -0.793
      -0.775
      -0.740
      -0.677
      -0.570
      -0.413
      -0.212
       0.018
       0.258
       0.487
       0.679
       0.800
       0.817
       0.718
       0.521
       0.268
       0.007
      -0.234
      -0.453
      -0.664
      -0.885
      -1.123
      -1.372
      -1.614
      -1.821
      -1.970
      -2.048
      -2.048
      -1.965
      -1.794
      -1.548
      -1.252
      -0.934
      -0.611
      -0.290
       0.015
       0.275
       0.459
       0.553
       0.575
       0.563
       0.557
       0.574
       0.612
       0.664
       0.731
       0.815
       0.917
       1.028
       1.137
       1.241
       1.338
       1.428
       1.491
       1.500
       1.434
       1.285
       1.067
       0.796
       0.481
       0.128
      -0.252
      -0.637
      -1.008
      -1.358
      -1.680
      -1.958
      -2.170
      -2.306
      -2.380
      -2.407
      -2.377
      -2.247
      -1.980
      -1.581
      -1.095
      -0.566
      -0.017
       0.550
       1.112
       1.633
       2.080
       2.449
       2.755
       3.006
       3.185
       3.270
       3.252
       3.137
       2.927
       2.610
       2.182
       1.676
       1.155
       0.674
       0.239
      -0.177
      -0.591
      -0.979
      -1.290
      -1.496
      -1.600
      -1.622
      -1.585
      -1.527
      -1.509
      -1.577
      -1.716
      -1.843
      -1.875
      -1.801
      -1.686
      -1.600
      -1.551
      -1.489
      -1.361
      -1.143
      -0.838
      -0.447
       0.027
       0.560
       1.094
       1.565
       1.933
       2.195
       2.354
       2.404
       2.319
       2.079
       1.690
       1.184
       0.608
       0.012
      -0.572
      -1.126
      -1.625
      -2.026
      -2.280
      -2.372
      -2.339
      -2.230
      -2.059
      -1.800
      -1.432
      -0.979
      -0.499
      -0.029
       0.426
       0.870
       1.278
       1.605
       1.824
       1.946
       2.001
       2.003
       1.950
       1.853
       1.756
       1.723
       1.777
       1.886
       1.985
       2.019
       1.971
       1.830
       1.585
       1.228
       0.793
       0.354
      -0.020
      -0.314
      -0.577
      -0.863
      -1.183
      -1.500
      -1.769
      -1.966
      -2.083
      -2.115
      -2.052
      -1.895
      -1.649
      -1.312
      -0.873
      -0.341
       0.236
       0.780
       1.232
       1.590
       1.884
       2.127
       2.291
       2.345
       2.305
       2.231
       2.157
       2.044
       1.792
       1.336
       0.700
      -0.017
      -0.712
      -1.331
      -1.869
      -2.335
      -2.736
      -3.075
      -3.349
      -3.533
      -3.568
      -3.404
      -3.056
      -2.610
      -2.168
      -1.771
      -1.402
      -1.037
      -0.688
      -0.388
      -0.148
       0.059
       0.252
       0.418
       0.528
       0.590
       0.656
       0.784
       0.976
       1.174
       1.309
       1.356
       1.334
       1.268
       1.163
       1.004
       0.773
       0.452
       0.028
      -0.495
      -1.090
      -1.713
      -2.321
      -2.876
      -3.341
      -3.674
      -3.831
      -3.792
      -3.559
      -3.160
      -2.630
      -2.008
      -1.332
      -0.637
       0.057
       0.758
       1.485
       2.238
       2.976
       3.634
       4.149
       4.471
       4.571
       4.452
       4.155
       3.762
       3.353
       2.961
       2.567
       2.138
       1.675
       1.222
       0.819
       0.451
       0.061
      -0.416
      -0.999
      -1.653
      -2.315
      -2.910
      -3.368
      -3.640
      -3.721
      -3.647
      -3.467
      -3.202
      -2.830
      -2.310
      -1.638
      -0.859
      -0.047
       0.734
       1.447
       2.078
       2.619
       3.061
       3.390
       3.578
       3.598
       3.444
       3.161
       2.838
       2.570
       2.401
       2.307
       2.224
       2.102
       1.925
       1.699
       1.432
       1.141
       0.844
       0.536
       0.164
      -0.343
      -1.013
      -1.777
      -2.512
      -3.117
      -3.554
      -3.837
      -3.968
      -3.933
      -3.726
      -3.369
      -2.902
      -2.349
      -1.716
      -1.026
      -0.328
       0.325
       0.919
       1.484
       2.041
       2.559
       2.969
       3.220
       3.319
       3.307
       3.197
       2.963
       2.583
       2.095
       1.595
       1.176
       0.879
       0.691
       0.574
       0.502
       0.450
       0.394
       0.312
       0.202
       0.078
      -0.045
      -0.170
      -0.303
      -0.435
      -0.545
      -0.619
      -0.666
      -0.700
      -0.715
      -0.682
      -0.564
      -0.355
      -0.082
       0.210
       0.488
       0.733
       0.940
       1.111
       1.247
       1.342
       1.372
       1.293
       1.061
       0.676
       0.189
      -0.313
      -0.757
      -1.107
      -1.360
      -1.532
      -1.654
      -1.773
      -1.937
      -2.174
      -2.478
      -2.824
      -3.188
      -3.557
      -3.899
      -4.148
      -4.238
      -4.145
      -3.907
      -3.584
      -3.204
      -2.756
      -2.235
      -1.672
      -1.114
      -0.584
      -0.078
       0.388
       0.753
       0.956
       0.998
       0.956
       0.911
       0.875
       0.790
       0.604
       0.331
       0.046
      -0.178
      -0.317
      -0.389
      -0.420
      -0.431
      -0.438
      -0.449
      -0.448
      -0.399
      -0.288
      -0.148
      -0.045
      -0.004
       0.028
       0.160
       0.461
       0.907
       1.393
       1.805
       2.086
       2.243
       2.328
       2.404
       2.518
       2.684
       2.874
       3.041
       3.146
       3.178
       3.143
       3.042
       2.850
       2.539
       2.107
       1.590
       1.045
       0.514
       0.013
      -0.458
      -0.901
      -1.325
      -1.741
      -2.153
      -2.546
      -2.876
      -3.089
      -3.146
      -3.038
      -2.786
      -2.419
      -1.961
      -1.421
      -0.808
      -0.142
       0.544
       1.210
       1.814
       2.323
       2.710
       2.962
       3.082
       3.095
       3.035
       2.919
       2.745
       2.493
       2.153
       1.734
       1.269
       0.796
       0.351
      -0.052
      -0.417
      -0.755
      -1.062
      -1.310
      -1.465
      -1.522
      -1.517
      -1.513
      -1.561
      -1.671
      -1.811
      -1.928
      -1.976
      -1.924
      -1.759
      -1.486
      -1.137
      -0.755
      -0.373
      -0.003
       0.362
       0.714
       1.025
       1.262
       1.424
       1.550
       1.688
       1.846
       1.977
       2.001
       1.849
       1.494
       0.963
       0.323
      -0.331
      -0.908
      -1.352
      -1.661
      -1.872
      -2.026
      -2.137
      -2.189
      -2.170
      -2.089
      -1.978
      -1.872
      -1.790
      -1.729
      -1.674
      -1.600
      -1.483
      -1.306
      -1.062
      -0.756
      -0.410
      -0.048
       0.303
       0.626
       0.918
       1.180
       1.406
       1.573
       1.658
       1.644
       1.541
       1.374
       1.169
       0.946
       0.724
       0.520
       0.360
       0.261
       0.229
       0.249
       0.292
       0.330
       0.347
       0.344
       0.327
       0.297
       0.239
       0.129
      -0.055
      -0.312
      -0.614
      -0.913
      -1.161
      -1.331
      -1.418
      -1.428
      -1.359
      -1.201
      -0.949
      -0.620
      -0.258
       0.077
       0.325
       0.447
       0.439
       0.328
       0.163
      -0.005
      -0.135
      -0.201
      -0.198
      -0.147
      -0.084
      -0.051
      -0.067
      -0.125
      -0.193
      -0.239
      -0.242
      -0.193
      -0.081
       0.098
       0.324
       0.541
       0.681
       0.702
       0.616
       0.473
       0.314
       0.151
      -0.035
      -0.262
      -0.525
      -0.799
      -1.044
      -1.223
      -1.310
      -1.302
      -1.210
      -1.054
      -0.845
      -0.583
      -0.267
       0.089
       0.455
       0.789
       1.056
       1.229
       1.301
       1.279
       1.187
       1.069
       0.982
       0.976
       1.075
       1.267
       1.505
       1.732
       1.901
       1.982
       1.967
       1.859
       1.674
       1.436
       1.168
       0.884
       0.588
       0.280
      -0.026
      -0.307
      -0.537
      -0.700
      -0.792
      -0.818
      -0.785
      -0.707
      -0.604
      -0.505
      -0.438
      -0.426
      -0.475
      -0.573
      -0.693
      -0.800
      -0.867
      -0.885
      -0.865
      -0.826
      -0.782
      -0.727
      -0.642
      -0.511
      -0.338
      -0.155
      -0.005
       0.081
       0.104
       0.100
       0.116
       0.179
       0.279
       0.375
       0.421
       0.391
       0.293
       0.158
       0.029
      -0.059
      -0.083
      -0.036
       0.074
       0.227
       0.395
       0.547
       0.664
       0.735
       0.761
       0.740
       0.669
       0.534
       0.327
       0.050
      -0.276
      -0.603
