Origin Time       29/10/2009 19:56:58
Lat.              26.6°N	
Long.             90.0°E	
Depth (Km)         10.0
Magnitude         4.2
 Region           KOKRAJHAR-ASSAM                                                  
 Above details taken from IMD 
   
Station Code      NON
Station Lat.       25.522
Station Long.      91.264
Station Height(m) 1367.0
Site Class        A   Vs30 between 700 m/sec to 1400 m/sec * 
Record Time       29.10.2009 19:57:34.434
Sampling Rate     200. Hz
 Record Duration   65.985 Sec.
 Direction         Vert. (Up positive)
Max. Acceleration     -2.857 cm/sec**2
     
  * For reference see Site Classification link of website 
     
 Base Line Corrected and Low Pass Filtered (Cut Off at 35 Hz) Time History
 Acceleration data in cm/sec**2
    
[...]
       0.018
      -0.014
      -0.080
      -0.175
      -0.257
      -0.270
      -0.187
      -0.037
       0.102
       0.152
       0.091
      -0.023
      -0.089
      -0.033
       0.131
       0.309
       0.387
       0.310
       0.120
      -0.078
      -0.188
      -0.182
      -0.109
      -0.056
      -0.082
      -0.174
      -0.265
      -0.278
      -0.187
      -0.037
       0.096
       0.152
       0.128
       0.073
       0.040
       0.051
       0.090
       0.122
       0.121
       0.081
       0.014
      -0.059
      -0.118
      -0.145
      -0.132
      -0.087
      -0.028
       0.027
       0.067
       0.085
       0.077
       0.043
      -0.006
      -0.050
      -0.075
      -0.083
      -0.089
      -0.099
      -0.104
      -0.087
      -0.046
       0.000
       0.024
       0.022
       0.014
       0.028
       0.086
       0.183
       0.290
       0.356
       0.333
       0.208
       0.021
      -0.150
      -0.247
      -0.268
      -0.261
      -0.273
      -0.308
      -0.326
      -0.282
      -0.171
      -0.034
       0.075
       0.124
       0.117
       0.082
       0.057
       0.067
       0.113
       0.171
       0.209
       0.211
       0.193
       0.187
       0.206
       0.226
       0.200
       0.104
      -0.033
      -0.147
      -0.179
      -0.124
      -0.031
       0.029
       0.010
      -0.086
      -0.202
      -0.269
      -0.240
      -0.125
       0.022
       0.135
       0.179
       0.161
       0.114
       0.065
       0.013
      -0.057
      -0.148
      -0.238
      -0.286
      -0.264
      -0.175
      -0.058
       0.033
       0.061
       0.029
      -0.023
      -0.042
      -0.007
       0.060
       0.115
       0.132
       0.127
       0.133
       0.167
       0.209
       0.229
       0.209
       0.159
       0.101
       0.048
       0.000
      -0.055
      -0.125
      -0.206
      -0.273
      -0.286
      -0.216
      -0.073
       0.085
       0.189
       0.196
       0.119
       0.018
      -0.044
      -0.029
       0.052
       0.145
       0.180
       0.113
      -0.046
      -0.231
      -0.356
      -0.369
      -0.284
      -0.171
      -0.101
      -0.103
      -0.151
      -0.186
      -0.153
      -0.031
       0.153
       0.342
       0.473
       0.504
       0.438
       0.315
       0.185
       0.087
       0.029
      -0.001
      -0.026
      -0.062
      -0.120
      -0.197
      -0.270
      -0.302
      -0.258
      -0.129
       0.056
       0.240
       0.362
       0.390
       0.332
       0.230
       0.128
       0.050
      -0.011
      -0.087
      -0.203
      -0.356
      -0.505
      -0.590
      -0.563
      -0.424
      -0.221
      -0.026
       0.101
       0.141
       0.123
       0.103
       0.126
       0.197
       0.276
       0.310
       0.275
       0.197
       0.129
       0.105
       0.118
       0.134
       0.123
       0.081
       0.025
      -0.023
      -0.049
      -0.048
      -0.029
      -0.007
       0.001
      -0.007
      -0.021
      -0.031
      -0.044
      -0.077
      -0.131
      -0.181
      -0.186
      -0.122
      -0.014
       0.081
       0.114
       0.072
      -0.018
      -0.111
      -0.164
      -0.150
      -0.070
       0.043
       0.145
       0.199
       0.197
       0.157
       0.097
       0.028
      -0.038
      -0.086
      -0.096
      -0.061
       0.009
       0.091
       0.170
       0.237
       0.287
       0.318
       0.330
       0.316
       0.261
       0.145
      -0.033
      -0.226
      -0.359
      -0.374
      -0.287
      -0.175
      -0.126
      -0.178
      -0.293
      -0.394
      -0.405
      -0.295
      -0.093
       0.126
       0.281
       0.327
       0.282
       0.205
       0.144
       0.099
       0.038
      -0.055
      -0.155
      -0.211
      -0.187
      -0.083
       0.066
       0.209
       0.295
       0.295
       0.217
       0.111
       0.036
       0.015
       0.018
      -0.007
      -0.084
      -0.183
      -0.247
      -0.240
      -0.167
      -0.061
       0.048
       0.141
       0.207
       0.238
       0.226
       0.168
       0.069
      -0.054
      -0.170
      -0.236
      -0.220
      -0.134
      -0.033
       0.006
      -0.050
      -0.161
      -0.239
      -0.214
      -0.084
       0.087
       0.210
       0.238
       0.182
       0.107
       0.076
       0.115
       0.193
       0.243
       0.208
       0.083
      -0.077
      -0.186
      -0.189
      -0.086
       0.063
       0.184
       0.226
       0.182
       0.087
      -0.013
      -0.080
      -0.102
      -0.085
      -0.047
      -0.010
       0.010
       0.010
      -0.009
      -0.048
      -0.112
      -0.197
      -0.285
      -0.347
      -0.362
      -0.330
      -0.263
      -0.180
      -0.083
       0.028
       0.152
       0.275
       0.376
       0.431
       0.431
       0.378
       0.289
       0.191
       0.110
       0.060
       0.038
       0.023
      -0.001
      -0.037
      -0.073
      -0.099
      -0.118
      -0.143
      -0.184
      -0.232
      -0.269
      -0.271
      -0.216
      -0.099
       0.064
       0.228
       0.338
       0.357
       0.289
       0.179
       0.081
       0.030
       0.022
       0.028
       0.017
      -0.028
      -0.102
      -0.182
      -0.240
      -0.254
      -0.223
      -0.166
      -0.111
      -0.082
      -0.082
      -0.097
      -0.105
      -0.090
      -0.048
       0.014
       0.076
       0.115
       0.109
       0.063
       0.009
      -0.011
       0.025
       0.100
       0.166
       0.185
       0.155
       0.106
       0.075
       0.080
       0.113
       0.155
       0.186
       0.192
       0.165
       0.102
       0.015
      -0.079
      -0.163
      -0.223
      -0.248
      -0.234
      -0.183
      -0.106
      -0.018
       0.068
       0.132
       0.156
       0.124
       0.040
      -0.066
      -0.153
      -0.199
      -0.217
      -0.239
      -0.282
      -0.333
      -0.356
      -0.318
      -0.212
      -0.056
       0.112
       0.248
       0.325
       0.345
       0.336
       0.328
       0.334
       0.344
       0.343
       0.329
       0.306
       0.275
       0.228
       0.156
       0.059
      -0.054
      -0.173
      -0.288
      -0.382
      -0.432
      -0.433
      -0.395
      -0.341
      -0.277
      -0.191
      -0.076
       0.053
       0.157
       0.210
       0.214
       0.200
       0.193
       0.195
       0.183
       0.135
       0.042
      -0.089
      -0.240
      -0.379
      -0.463
      -0.450
      -0.319
      -0.083
       0.214
       0.498
       0.688
       0.726
       0.606
       0.380
       0.133
      -0.064
      -0.184
      -0.248
      -0.291
      -0.329
      -0.351
      -0.333
      -0.269
      -0.185
      -0.115
      -0.079
      -0.059
      -0.014
       0.090
       0.253
       0.434
       0.572
       0.617
       0.547
       0.374
       0.137
      -0.114
      -0.338
      -0.512
      -0.622
      -0.661
      -0.628
      -0.537
      -0.417
      -0.292
      -0.168
      -0.029
       0.142
       0.338
       0.522
       0.647
       0.676
       0.606
       0.465
       0.305
       0.179
       0.110
       0.074
       0.009
      -0.130
      -0.333
      -0.530
      -0.633
      -0.596
      -0.435
      -0.210
       0.010
       0.178
       0.278
       0.320
       0.332
       0.341
       0.356
       0.352
       0.292
       0.153
      -0.037
      -0.218
      -0.330
      -0.351
      -0.309
      -0.260
      -0.253
      -0.309
      -0.406
      -0.482
      -0.470
      -0.333
      -0.096
       0.162
       0.352
       0.427
       0.402
       0.332
       0.265
       0.214
       0.166
       0.100
       0.008
      -0.097
      -0.188
      -0.239
      -0.234
      -0.174
      -0.075
       0.039
       0.142
       0.211
       0.229
       0.190
       0.106
       0.007
      -0.078
      -0.128
      -0.149
      -0.154
      -0.158
      -0.168
      -0.184
      -0.196
      -0.184
      -0.120
       0.004
       0.156
       0.269
       0.275
       0.158
      -0.030
      -0.187
      -0.228
      -0.130
       0.057
       0.240
       0.331
       0.292
       0.153
       0.011
      -0.027
       0.086
       0.295
       0.475
       0.511
       0.372
       0.129
      -0.102
      -0.229
      -0.226
      -0.128
       0.001
       0.102
       0.140
       0.115
       0.054
      -0.016
      -0.079
      -0.136
      -0.187
      -0.224
      -0.239
      -0.237
      -0.243
      -0.276
      -0.330
      -0.370
      -0.354
      -0.272
      -0.157
      -0.057
      -0.004
       0.005
       0.010
       0.061
       0.189
       0.379
       0.563
       0.654
       0.597
       0.416
       0.204
       0.071
       0.071
       0.176
       0.301
       0.359
       0.300
       0.126
      -0.122
      -0.378
      -0.581
      -0.689
      -0.704
      -0.657
      -0.585
      -0.501
      -0.391
      -0.242
      -0.057
       0.139
       0.319
       0.462
       0.551
       0.566
       0.497
       0.363
       0.224
       0.145
       0.155
       0.215
       0.248
       0.193
       0.044
      -0.155
      -0.347
      -0.490
      -0.566
      -0.577
      -0.531
      -0.445
      -0.329
      -0.185
      -0.011
       0.184
       0.369
       0.516
       0.621
       0.703
       0.784
       0.856
       0.888
       0.847
       0.717
       0.501
       0.217
      -0.100
      -0.404
      -0.650
      -0.815
      -0.907
      -0.942
      -0.924
      -0.848
      -0.723
      -0.582
      -0.468
      -0.410
      -0.403
      -0.419
      -0.420
      -0.380
      -0.288
      -0.174
      -0.099
      -0.120
      -0.240
      -0.386
      -0.454
      -0.389
      -0.221
      -0.039
       0.084
       0.145
       0.215
       0.381
       0.687
       1.105
       1.546
       1.893
       2.054
       2.006
       1.801
       1.525
       1.240
       0.945
       0.591
       0.132
      -0.426
      -1.022
      -1.562
      -1.973
      -2.221
      -2.321
      -2.312
      -2.222
      -2.057
      -1.800
      -1.446
      -1.020
      -0.573
      -0.143
       0.274
       0.708
       1.168
       1.612
       1.956
       2.126
       2.107
       1.944
       1.706
       1.453
       1.209
       0.969
       0.719
       0.453
       0.185
      -0.054
      -0.226
      -0.309
      -0.311
      -0.273
      -0.243
      -0.254
      -0.316
      -0.415
      -0.533
      -0.659
      -0.791
      -0.929
      -1.062
      -1.177
      -1.265
      -1.324
      -1.361
      -1.378
      -1.367
      -1.311
      -1.202
      -1.046
      -0.855
      -0.629
      -0.353
      -0.005
       0.426
       0.926
       1.457
       1.958
       2.366
       2.635
       2.752
       2.726
       2.564
       2.261
       1.817
       1.273
       0.715
       0.223
      -0.176
      -0.517
      -0.855
      -1.204
      -1.519
      -1.729
      -1.797
      -1.759
      -1.703
      -1.704
      -1.768
      -1.830
      -1.801
      -1.620
      -1.278
      -0.821
      -0.330
       0.115
       0.472
       0.760
       1.043
       1.373
       1.734
       2.031
       2.148
       2.030
       1.719
       1.319
       0.922
       0.564
       0.232
      -0.105
      -0.447
      -0.752
      -0.943
      -0.950
      -0.773
      -0.498
      -0.258
      -0.153
      -0.180
      -0.249
      -0.261
      -0.182
      -0.060
       0.022
       0.013
      -0.064
      -0.134
      -0.123
      -0.017
       0.116
       0.175
       0.106
      -0.063
      -0.243
      -0.349
      -0.353
      -0.289
      -0.214
      -0.165
      -0.133
      -0.075
       0.050
       0.253
       0.503
       0.751
       0.956
       1.111
       1.226
       1.302
       1.312
       1.202
       0.927
       0.486
      -0.061
      -0.603
      -1.039
      -1.330
      -1.515
      -1.657
      -1.767
      -1.783
      -1.625
      -1.271
      -0.779
      -0.241
       0.271
       0.706
       1.009
       1.125
       1.034
       0.783
       0.450
       0.082
      -0.327
      -0.779
      -1.215
      -1.508
      -1.540
      -1.274
      -0.776
      -0.166
       0.436
       0.945
       1.326
       1.575
       1.705
       1.720
       1.608
       1.345
       0.921
       0.372
      -0.226
      -0.773
      -1.176
      -1.371
      -1.328
      -1.064
      -0.648
      -0.191
       0.201
       0.476
       0.658
       0.801
       0.931
       1.014
       0.978
       0.786
       0.467
       0.114
      -0.177
      -0.345
      -0.388
      -0.355
      -0.316
      -0.343
      -0.479
      -0.721
      -1.015
      -1.266
      -1.386
      -1.330
      -1.109
      -0.758
      -0.309
       0.217
       0.786
       1.325
       1.750
       1.999
       2.054
       1.921
       1.616
       1.164
       0.617
       0.035
      -0.550
      -1.138
      -1.727
      -2.246
      -2.562
      -2.549
      -2.167
      -1.491
      -0.670
       0.142
       0.827
       1.327
       1.651
       1.863
       2.032
       2.179
       2.253
       2.168
       1.879
       1.418
       0.864
       0.287
      -0.278
      -0.818
      -1.329
      -1.809
      -2.251
      -2.621
      -2.847
      -2.857
      -2.639
      -2.263
      -1.823
      -1.365
      -0.870
      -0.330
       0.204
       0.643
       0.952
       1.180
       1.404
       1.629
       1.784
       1.787
       1.630
       1.376
       1.095
       0.829
       0.603
       0.452
       0.410
       0.484
       0.637
       0.823
       1.011
       1.176
       1.271
       1.227
       0.983
       0.535
      -0.052
      -0.687
      -1.283
      -1.775
      -2.124
      -2.318
      -2.377
      -2.337
      -2.208
      -1.955
      -1.518
      -0.889
      -0.156
       0.515
       0.980
       1.192
       1.222
       1.186
       1.157
       1.130
       1.053
       0.875
       0.584
       0.216
      -0.151
      -0.415
      -0.488
      -0.343
      -0.033
       0.324
       0.609
       0.759
       0.783
       0.728
       0.629
       0.481
       0.260
      -0.042
      -0.390
      -0.708
      -0.919
      -0.983
      -0.912
      -0.764
      -0.599
      -0.462
      -0.369
      -0.312
      -0.272
      -0.222
      -0.140
      -0.022
       0.112
       0.230
       0.318
       0.384
       0.449
       0.501
       0.484
       0.323
      -0.015
      -0.481
      -0.946
      -1.253
      -1.274
      -0.957
      -0.354
       0.376
       1.016
       1.381
       1.418
       1.226
       0.984
       0.823
       0.747
       0.655
       0.438
       0.087
      -0.288
      -0.520
      -0.498
      -0.233
       0.137
       0.419
       0.472
       0.284
      -0.033
      -0.326
      -0.506
      -0.594
      -0.674
      -0.807
      -0.976
      -1.098
      -1.085
      -0.903
      -0.596
      -0.255
       0.022
       0.186
       0.258
       0.311
       0.403
       0.516
       0.560
       0.448
       0.181
      -0.135
      -0.357
      -0.395
      -0.260
      -0.044
       0.145
       0.243
       0.261
       0.266
       0.336
       0.502
       0.720
       0.889
       0.914
       0.766
       0.497
       0.210
       0.005
      -0.065
      -0.013
       0.094
       0.171
       0.167
       0.091
      -0.001
      -0.060
      -0.082
      -0.107
      -0.181
      -0.315
      -0.478
      -0.621
      -0.715
      -0.764
      -0.799
      -0.846
      -0.912
      -0.981
      -1.011
      -0.954
      -0.774
      -0.475
      -0.094
       0.314
       0.704
       1.041
       1.300
       1.450
       1.460
       1.312
       1.023
       0.658
       0.309
       0.059
      -0.063
      -0.092
      -0.102
      -0.152
      -0.252
      -0.363
      -0.438
      -0.465
      -0.477
      -0.516
      -0.597
      -0.686
      -0.725
      -0.665
      -0.494
      -0.246
       0.013
       0.217
       0.329
       0.357
       0.348
       0.344
       0.355
       0.359
       0.333
       0.280
       0.227
       0.205
       0.218
       0.242
       0.237
       0.173
       0.045
      -0.124
      -0.296
      -0.435
      -0.524
      -0.561
      -0.540
      -0.448
      -0.273
      -0.021
       0.273
       0.550
       0.755
       0.858
       0.866
       0.803
       0.693
       0.548
       0.376
       0.195
       0.030
      -0.105
      -0.226
      -0.382
      -0.623
      -0.956
      -1.318
      -1.597
      -1.678
      -1.496
      -1.070
      -0.519
      -0.017
       0.276
       0.305
       0.155
       0.002
       0.015
       0.258
       0.674
       1.128
       1.472
       1.608
       1.513
       1.246
       0.920
       0.643
       0.457
       0.322
       0.169
      -0.038
      -0.264
      -0.430
      -0.474
      -0.397
      -0.260
      -0.144
      -0.109
      -0.163
      -0.282
      -0.435
      -0.605
      -0.783
      -0.942
      -1.027
      -0.992
      -0.831
      -0.593
      -0.345
      -0.129
       0.054
       0.226
       0.400
       0.576
       0.735
       0.847
       0.868
       0.769
       0.566
       0.335
       0.162
       0.074
       0.024
      -0.065
      -0.213
      -0.362
      -0.411
      -0.286
       0.016
       0.425
       0.824
       1.083
       1.101
       0.854
       0.420
      -0.053
      -0.417
      -0.599
      -0.613
      -0.532
      -0.439
      -0.394
      -0.425
      -0.528
      -0.671
      -0.803
      -0.872
      -0.856
      -0.771
      -0.652
      -0.517
      -0.354
      -0.129
       0.167
       0.499
       0.794
       0.986
       1.041
       0.968
       0.798
       0.565
       0.303
       0.040
      -0.203
      -0.414
      -0.573
      -0.637
      -0.545
      -0.259
       0.190
       0.700
       1.148
       1.432
       1.501
       1.340
       0.971
       0.464
      -0.070
      -0.516
      -0.824
      -1.021
      -1.165
      -1.276
      -1.323
      -1.262
      -1.085
      -0.822
      -0.506
      -0.155
       0.205
       0.527
       0.753
       0.852
       0.830
       0.713
       0.519
       0.253
      -0.063
      -0.367
      -0.580
      -0.650
      -0.578
      -0.412
      -0.212
      -0.035
       0.092
       0.176
       0.252
       0.356
       0.495
       0.629
       0.704
       0.695
       0.634
       0.586
       0.599
       0.653
       0.648
       0.458
       0.016
      -0.604
      -1.194
      -1.508
      -1.413
      -0.973
      -0.412
       0.024
       0.194
       0.121
      -0.055
      -0.169
      -0.125
       0.055
       0.256
       0.356
       0.316
       0.195
       0.090
       0.055
       0.067
       0.069
       0.035
      -0.005
       0.000
       0.070
       0.179
       0.288
       0.366
       0.397
       0.368
       0.275
       0.128
      -0.056
      -0.281
      -0.553
      -0.842
      -1.044
      -1.022
      -0.702
      -0.153
