Origin Time       29/10/2009 17:00:35
Lat.              27.3°N	
Long.             91.4°E	
Depth (Km)          5.0
Magnitude         5.2
 Region           BHUTAN                                                           
 Above details taken from IMD 
     
Station Code      NON
Station Lat.       25.522  N
Station Long.      91.264  E
Station Height(m) 1367.0
Site Class        A   Vs30 between 700 m/sec to 1400 m/sec * 
Record Time       29.10.2009 17:01:17.124
Sampling Rate     200. Hz
 Record Duration   67.080 Sec.
 Direction         E-W (E positive)
Max. Acceleration    -10.027 cm/sec**2
     
  * For reference see Site Classification link of website 
     
 Base Line Corrected and Low Pass Filtered (Cut Off at 35 Hz) Time History
 Acceleration data in cm/sec**2
    
[...]
      -0.651
      -0.553
      -0.444
      -0.320
      -0.181
      -0.034
       0.111
       0.244
       0.360
       0.467
       0.574
       0.685
       0.796
       0.894
       0.967
       1.009
       1.022
       1.010
       0.974
       0.911
       0.819
       0.700
       0.560
       0.408
       0.246
       0.071
      -0.117
      -0.318
      -0.519
      -0.706
      -0.869
      -1.000
      -1.096
      -1.151
      -1.165
      -1.144
      -1.098
      -1.038
      -0.966
      -0.878
      -0.767
      -0.632
      -0.477
      -0.305
      -0.123
       0.066
       0.258
       0.450
       0.632
       0.793
       0.916
       0.987
       1.000
       0.957
       0.870
       0.757
       0.641
       0.546
       0.484
       0.457
       0.451
       0.450
       0.443
       0.426
       0.399
       0.356
       0.288
       0.186
       0.045
      -0.126
      -0.310
      -0.486
      -0.637
      -0.747
      -0.804
      -0.805
      -0.757
      -0.676
      -0.583
      -0.492
      -0.408
      -0.330
      -0.258
      -0.196
      -0.149
      -0.120
      -0.102
      -0.084
      -0.053
      -0.002
       0.071
       0.161
       0.258
       0.347
       0.416
       0.459
       0.481
       0.492
       0.502
       0.513
       0.520
       0.515
       0.498
       0.474
       0.448
       0.418
       0.376
       0.314
       0.227
       0.117
      -0.013
      -0.156
      -0.297
      -0.420
      -0.512
      -0.570
      -0.607
      -0.638
      -0.678
      -0.731
      -0.796
      -0.865
      -0.928
      -0.964
      -0.956
      -0.892
      -0.773
      -0.612
      -0.421
      -0.213
       0.007
       0.233
       0.457
       0.671
       0.865
       1.029
       1.155
       1.237
       1.274
       1.267
       1.218
       1.131
       1.013
       0.872
       0.719
       0.563
       0.410
       0.261
       0.118
      -0.019
      -0.149
      -0.274
      -0.398
      -0.523
      -0.649
      -0.777
      -0.902
      -1.013
      -1.096
      -1.134
      -1.122
      -1.068
      -0.985
      -0.886
      -0.775
      -0.655
      -0.526
      -0.390
      -0.244
      -0.085
       0.093
       0.288
       0.489
       0.678
       0.836
       0.956
       1.040
       1.098
       1.134
       1.143
       1.107
       1.016
       0.873
       0.699
       0.521
       0.358
       0.215
       0.091
      -0.017
      -0.107
      -0.180
      -0.244
      -0.305
      -0.369
      -0.427
      -0.464
      -0.463
      -0.420
      -0.340
      -0.247
      -0.168
      -0.128
      -0.138
      -0.191
      -0.270
      -0.354
      -0.423
      -0.465
      -0.474
      -0.454
      -0.411
      -0.350
      -0.270
      -0.168
      -0.048
       0.077
       0.188
       0.272
       0.330
       0.375
       0.423
       0.480
       0.543
       0.602
       0.648
       0.669
       0.658
       0.615
       0.545
       0.454
       0.346
       0.221
       0.078
      -0.075
      -0.226
      -0.364
      -0.477
      -0.557
      -0.599
      -0.605
      -0.581
      -0.540
      -0.498
      -0.463
      -0.439
      -0.420
      -0.398
      -0.368
      -0.333
      -0.298
      -0.264
      -0.226
      -0.172
      -0.091
       0.019
       0.147
       0.276
       0.391
       0.485
       0.557
       0.611
       0.648
       0.665
       0.663
       0.639
       0.594
       0.527
       0.437
       0.324
       0.194
       0.057
      -0.066
      -0.161
      -0.221
      -0.254
      -0.276
      -0.295
      -0.307
      -0.301
      -0.268
      -0.215
      -0.156
      -0.101
      -0.057
      -0.024
      -0.006
      -0.005
      -0.025
      -0.063
      -0.113
      -0.165
      -0.214
      -0.254
      -0.283
      -0.302
      -0.316
      -0.330
      -0.344
      -0.348
      -0.332
      -0.285
      -0.202
      -0.086
       0.053
       0.199
       0.330
       0.433
       0.505
       0.551
       0.585
       0.617
       0.655
       0.699
       0.736
       0.750
       0.725
       0.655
       0.544
       0.403
       0.243
       0.070
      -0.113
      -0.299
      -0.484
      -0.664
      -0.834
      -0.989
      -1.114
      -1.193
      -1.209
      -1.158
      -1.045
      -0.888
      -0.714
      -0.547
      -0.403
      -0.282
      -0.170
      -0.045
       0.107
       0.288
       0.487
       0.689
       0.880
       1.048
       1.182
       1.274
       1.318
       1.311
       1.251
       1.147
       1.014
       0.870
       0.724
       0.574
       0.410
       0.227
       0.028
      -0.178
      -0.379
      -0.573
      -0.757
      -0.927
      -1.071
      -1.171
      -1.216
      -1.201
      -1.130
      -1.014
      -0.866
      -0.701
      -0.532
      -0.368
      -0.214
      -0.075
       0.041
       0.133
       0.204
       0.263
       0.319
       0.374
       0.430
       0.487
       0.549
       0.620
       0.697
       0.770
       0.819
       0.829
       0.794
       0.717
       0.615
       0.507
       0.406
       0.316
       0.234
       0.155
       0.071
      -0.024
      -0.143
      -0.298
      -0.488
      -0.698
      -0.894
      -1.047
      -1.138
      -1.167
      -1.140
      -1.067
      -0.958
      -0.822
      -0.675
      -0.531
      -0.401
      -0.286
      -0.184
      -0.082
       0.034
       0.175
       0.343
       0.528
       0.718
       0.896
       1.049
       1.165
       1.238
       1.263
       1.242
       1.181
       1.094
       0.991
       0.876
       0.750
       0.602
       0.425
       0.221
       0.008
      -0.189
      -0.353
      -0.482
      -0.594
      -0.708
      -0.833
      -0.964
      -1.084
      -1.176
      -1.227
      -1.239
      -1.217
      -1.168
      -1.089
      -0.976
      -0.823
      -0.636
      -0.425
      -0.201
       0.024
       0.244
       0.454
       0.648
       0.825
       0.985
       1.131
       1.261
       1.365
       1.426
       1.429
       1.363
       1.224
       1.019
       0.770
       0.504
       0.249
       0.023
      -0.167
      -0.325
      -0.457
      -0.563
      -0.642
      -0.694
      -0.727
      -0.747
      -0.762
      -0.772
      -0.774
      -0.766
      -0.746
      -0.713
      -0.666
      -0.606
      -0.530
      -0.438
      -0.326
      -0.194
      -0.051
       0.087
       0.202
       0.291
       0.363
       0.430
       0.500
       0.563
       0.602
       0.602
       0.561
       0.493
       0.422
       0.363
       0.323
       0.294
       0.270
       0.247
       0.227
       0.214
       0.211
       0.207
       0.189
       0.145
       0.074
      -0.016
      -0.115
      -0.212
      -0.306
      -0.393
      -0.471
      -0.530
      -0.561
      -0.560
      -0.532
      -0.493
      -0.459
      -0.439
      -0.439
      -0.454
      -0.474
      -0.485
      -0.476
      -0.438
      -0.370
      -0.276
      -0.158
      -0.021
       0.134
       0.301
       0.470
       0.630
       0.772
       0.888
       0.977
       1.035
       1.060
       1.051
       1.008
       0.936
       0.842
       0.732
       0.605
       0.454
       0.272
       0.055
      -0.186
      -0.431
      -0.658
      -0.849
      -0.990
      -1.074
      -1.102
      -1.082
      -1.030
      -0.962
      -0.887
      -0.807
      -0.715
      -0.598
      -0.454
      -0.288
      -0.117
       0.041
       0.177
       0.289
       0.386
       0.477
       0.564
       0.645
       0.712
       0.756
       0.777
       0.775
       0.759
       0.737
       0.716
       0.697
       0.677
       0.648
       0.599
       0.525
       0.423
       0.298
       0.154
      -0.004
      -0.169
      -0.331
      -0.481
      -0.613
      -0.724
      -0.812
      -0.874
      -0.909
      -0.913
      -0.881
      -0.815
      -0.724
      -0.625
      -0.533
      -0.457
      -0.401
      -0.360
      -0.324
      -0.287
      -0.240
      -0.183
      -0.113
      -0.026
       0.085
       0.221
       0.377
       0.536
       0.675
       0.780
       0.843
       0.871
       0.877
       0.875
       0.870
       0.861
       0.838
       0.795
       0.729
       0.641
       0.527
       0.384
       0.209
       0.014
      -0.186
      -0.374
      -0.541
      -0.687
      -0.817
      -0.935
      -1.032
      -1.098
      -1.124
      -1.112
      -1.070
      -1.009
      -0.933
      -0.844
      -0.739
      -0.619
      -0.483
      -0.334
      -0.167
       0.022
       0.239
       0.480
       0.723
       0.944
       1.120
       1.245
       1.322
       1.358
       1.358
       1.320
       1.245
       1.137
       1.004
       0.863
       0.732
       0.621
       0.527
       0.435
       0.331
       0.207
       0.067
      -0.081
      -0.233
      -0.395
      -0.571
      -0.757
      -0.933
      -1.075
      -1.168
      -1.214
      -1.232
      -1.244
      -1.259
      -1.272
      -1.272
      -1.247
      -1.198
      -1.127
      -1.034
      -0.917
      -0.766
      -0.578
      -0.358
      -0.112
       0.150
       0.418
       0.678
       0.917
       1.122
       1.288
       1.411
       1.495
       1.555
       1.614
       1.694
       1.797
       1.902
       1.974
       1.976
       1.894
       1.732
       1.507
       1.235
       0.929
       0.591
       0.220
      -0.186
      -0.623
      -1.081
      -1.536
      -1.961
      -2.335
      -2.648
      -2.898
      -3.083
      -3.197
      -3.237
      -3.207
      -3.114
      -2.960
      -2.738
      -2.434
      -2.045
      -1.576
      -1.038
      -0.438
       0.216
       0.908
       1.611
       2.293
       2.922
       3.478
       3.954
       4.349
       4.663
       4.888
       5.005
       4.989
       4.822
       4.496
       4.022
       3.425
       2.732
       1.963
       1.127
       0.233
      -0.699
      -1.632
      -2.520
      -3.329
      -4.045
      -4.677
      -5.247
      -5.764
      -6.210
      -6.544
      -6.726
      -6.732
      -6.560
      -6.223
      -5.733
      -5.099
      -4.326
      -3.425
      -2.414
      -1.327
      -0.209
       0.893
       1.941
       2.915
       3.804
       4.600
       5.296
       5.884
       6.361
       6.716
       6.922
       6.940
       6.734
       6.302
       5.678
       4.920
       4.084
       3.201
       2.282
       1.331
       0.368
      -0.579
      -1.483
      -2.340
      -3.158
      -3.935
      -4.641
      -5.225
      -5.651
      -5.909
      -6.014
      -5.976
      -5.791
      -5.444
      -4.939
      -4.297
      -3.549
      -2.710
      -1.776
      -0.744
       0.358
       1.476
       2.541
       3.496
       4.306
       4.948
       5.399
       5.627
       5.607
       5.333
       4.831
       4.157
       3.377
       2.547
       1.702
       0.865
       0.063
      -0.675
      -1.330
      -1.915
      -2.475
      -3.054
      -3.652
      -4.220
      -4.683
      -4.990
      -5.127
      -5.101
      -4.914
      -4.564
      -4.067
      -3.462
      -2.802
      -2.126
      -1.445
      -0.745
      -0.007
       0.775
       1.586
       2.385
       3.128
       3.788
       4.354
       4.825
       5.186
       5.416
       5.500
       5.442
       5.262
       4.981
       4.616
       4.180
       3.688
       3.147
       2.550
       1.888
       1.160
       0.381
      -0.421
      -1.214
      -1.962
      -2.615
      -3.132
      -3.502
      -3.746
      -3.886
      -3.919
      -3.817
      -3.564
      -3.182
      -2.723
      -2.234
      -1.737
      -1.220
      -0.663
      -0.069
       0.525
       1.058
       1.464
       1.703
       1.772
       1.697
       1.512
       1.244
       0.910
       0.535
       0.155
      -0.179
      -0.424
      -0.569
      -0.638
      -0.667
      -0.683
      -0.693
      -0.693
      -0.676
      -0.633
      -0.549
      -0.399
      -0.168
       0.140
       0.491
       0.849
       1.190
       1.514
       1.827
       2.128
       2.406
       2.652
       2.867
       3.055
       3.211
       3.319
       3.354
       3.295
       3.133
       2.867
       2.503
       2.042
       1.476
       0.800
       0.012
      -0.875
      -1.829
      -2.808
      -3.761
      -4.642
      -5.406
      -6.012
      -6.423
      -6.605
      -6.540
      -6.234
      -5.708
      -4.992
      -4.124
      -3.153
      -2.136
      -1.119
      -0.123
       0.854
       1.812
       2.742
       3.622
       4.431
       5.150
       5.751
       6.196
       6.444
       6.462
       6.235
       5.758
       5.044
       4.125
       3.058
       1.908
       0.731
      -0.438
      -1.574
      -2.650
      -3.633
      -4.488
      -5.194
      -5.742
      -6.122
      -6.322
      -6.330
      -6.146
      -5.790
      -5.296
      -4.702
      -4.041
      -3.327
      -2.553
      -1.703
      -0.768
       0.249
       1.336
       2.476
       3.644
       4.802
       5.896
       6.866
       7.661
       8.249
       8.604
       8.695
       8.493
       7.989
       7.208
       6.199
       5.002
       3.643
       2.146
       0.556
      -1.060
      -2.633
      -4.119
      -5.503
      -6.775
      -7.912
      -8.862
      -9.558
      -9.952
     -10.027
      -9.799
      -9.294
      -8.547
      -7.593
      -6.484
      -5.283
      -4.051
      -2.838
      -1.662
      -0.517
       0.605
       1.708
       2.790
       3.849
       4.882
       5.877
       6.797
       7.594
       8.221
       8.648
       8.856
       8.824
       8.524
       7.933
       7.060
       5.955
       4.688
       3.331
       1.944
       0.585
      -0.685
      -1.811
      -2.759
      -3.517
      -4.089
      -4.481
      -4.711
      -4.813
      -4.841
      -4.839
      -4.820
      -4.771
      -4.669
      -4.498
      -4.245
      -3.895
      -3.427
      -2.828
      -2.105
      -1.290
      -0.424
       0.453
       1.305
       2.086
       2.742
       3.224
       3.506
       3.595
       3.520
       3.316
       3.011
       2.618
       2.135
       1.564
       0.918
       0.233
      -0.450
      -1.088
      -1.654
      -2.126
      -2.486
      -2.709
      -2.770
      -2.649
      -2.348
      -1.885
      -1.284
      -0.570
       0.229
       1.069
       1.881
       2.589
       3.134
       3.491
       3.668
       3.693
       3.605
       3.443
       3.240
       3.023
       2.807
       2.599
       2.393
       2.173
       1.913
       1.589
       1.192
       0.727
       0.211
      -0.340
      -0.914
      -1.490
      -2.034
      -2.506
      -2.887
      -3.189
      -3.448
      -3.697
      -3.933
      -4.123
      -4.224
      -4.199
      -4.031
      -3.725
      -3.306
      -2.809
      -2.269
      -1.714
      -1.164
      -0.640
      -0.160
       0.266
       0.634
       0.939
       1.160
       1.268
       1.241
       1.081
       0.813
       0.462
       0.045
      -0.432
      -0.942
      -1.436
      -1.851
      -2.134
      -2.262
      -2.231
      -2.059
      -1.772
      -1.394
      -0.939
      -0.412
       0.179
       0.807
       1.436
       2.034
       2.588
       3.101
       3.572
       3.991
       4.334
       4.585
       4.736
       4.796
       4.773
       4.676
       4.510
       4.281
       3.992
       3.654
       3.273
       2.852
       2.381
       1.842
       1.219
       0.518
      -0.228
      -0.964
      -1.634
      -2.206
      -2.680
      -3.076
      -3.413
      -3.696
      -3.916
      -4.068
      -4.155
      -4.186
      -4.169
      -4.097
      -3.948
      -3.693
      -3.309
      -2.791
      -2.151
      -1.414
      -0.608
       0.237
       1.090
       1.918
       2.676
       3.321
       3.812
       4.117
       4.211
       4.083
       3.742
       3.224
       2.586
       1.900
       1.230
       0.610
       0.035
      -0.525
      -1.102
      -1.709
      -2.338
      -2.964
      -3.552
      -4.054
      -4.422
      -4.610
      -4.590
      -4.356
      -3.923
      -3.322
      -2.595
      -1.789
      -0.954
      -0.134
       0.641
       1.354
       2.000
       2.583
       3.107
       3.569
       3.957
       4.250
       4.428
       4.472
       4.372
       4.133
       3.778
       3.338
       2.847
       2.325
       1.775
       1.190
       0.566
      -0.087
      -0.743
      -1.364
      -1.916
      -2.386
      -2.779
      -3.115
      -3.414
      -3.686
      -3.934
      -4.149
      -4.313
      -4.405
      -4.409
      -4.320
      -4.149
      -3.919
      -3.651
      -3.359
      -3.045
      -2.703
      -2.326
      -1.911
      -1.466
      -0.996
      -0.505
       0.006
       0.527
       1.037
       1.514
       1.952
       2.370
       2.797
       3.258
       3.749
       4.246
       4.715
       5.120
       5.435
       5.630
       5.679
       5.565
       5.295
       4.901
       4.427
       3.907
       3.349
       2.748
       2.101
       1.424
       0.737
       0.056
      -0.619
      -1.297
      -1.986
      -2.676
      -3.346
      -3.962
      -4.493
      -4.909
      -5.186
      -5.299
      -5.234
      -4.990
      -4.588
      -4.059
      -3.435
      -2.736
      -1.973
      -1.159
      -0.317
       0.517
       1.300
       1.996
       2.577
       3.031
       3.359
       3.570
       3.686
       3.728
       3.719
       3.671
       3.585
       3.442
       3.215
       2.879
       2.433
       1.900
       1.312
       0.696
       0.070
      -0.548
      -1.136
      -1.670
      -2.130
      -2.509
      -2.809
      -3.032
      -3.169
      -3.204
      -3.129
      -2.957
      -2.717
      -2.447
      -2.178
      -1.917
      -1.656
      -1.378
      -1.070
      -0.727
      -0.345
       0.078
       0.539
       1.019
       1.476
       1.852
       2.090
       2.163
       2.082
       1.898
       1.673
       1.460
       1.299
       1.212
       1.213
       1.296
       1.440
       1.601
       1.724
       1.754
       1.649
       1.397
       1.013
       0.540
       0.029
      -0.467
      -0.890
      -1.190
      -1.329
      -1.309
      -1.172
      -0.995
      -0.864
      -0.838
      -0.934
      -1.122
      -1.348
      -1.555
      -1.701
      -1.766
      -1.745
      -1.635
      -1.437
      -1.162
      -0.834
      -0.483
      -0.135
       0.203
       0.539
       0.888
       1.247
       1.593
       1.889
       2.093
       2.172
       2.112
       1.918
       1.615
       1.234
       0.813
       0.382
      -0.031
      -0.411
      -0.751
      -1.058
      -1.340
      -1.603
      -1.844
      -2.059
      -2.245
      -2.407
      -2.543
      -2.648
      -2.711
      -2.723
      -2.679
      -2.577
      -2.418
      -2.202
      -1.934
      -1.618
      -1.260
      -0.863
      -0.427
       0.045
       0.547
       1.065
       1.575
       2.052
       2.466
       2.803
       3.071
       3.293
