Origin Time       3/9/2009 19:51:08	 
Lat.              24.3 N	
Long.             94.6 E	
Depth (Km)        100.0
Magnitude         5.9
 Region           MYANMAR-India-Manipuir-Border                                    
 Above details taken from IMD 
   
Station Code      NON
Station Lat.       25.522
Station Long.      91.264
Station Height(m) 1367.0
Site Class        A   Vs30 between 700 m/sec to 1400 m/sec * 
Record Time       03.09.2009 19:52:18.034
Sampling Rate     200. Hz
 Record Duration   73.475 Sec.
 Direction         Vert. (Up positive)
Max. Acceleration     -7.440 cm/sec**2
     
  * For reference see Site Classification link of website 
     
 Base Line Corrected and Low Pass Filtered (Cut Off at 35 Hz) Time History
 Acceleration data in cm/sec**2
    
[...]
       0.748
       0.483
       0.198
      -0.115
      -0.470
      -0.893
      -1.367
      -1.751
      -1.832
      -1.488
      -0.834
      -0.189
       0.153
       0.144
       0.009
       0.058
       0.428
       0.990
       1.452
       1.565
       1.280
       0.750
       0.210
      -0.156
      -0.289
      -0.257
      -0.212
      -0.308
      -0.594
      -0.952
      -1.159
      -1.066
      -0.734
      -0.384
      -0.199
      -0.175
      -0.169
      -0.071
       0.099
       0.243
       0.293
       0.245
       0.133
       0.020
      -0.001
       0.141
       0.412
       0.656
       0.702
       0.518
       0.255
       0.120
       0.198
       0.379
       0.475
       0.379
       0.138
      -0.132
      -0.346
      -0.480
      -0.522
      -0.460
      -0.326
      -0.206
      -0.181
      -0.239
      -0.268
      -0.166
       0.072
       0.343
       0.521
       0.541
       0.423
       0.239
       0.061
      -0.075
      -0.175
      -0.268
      -0.372
      -0.456
      -0.451
      -0.312
      -0.087
       0.100
       0.146
       0.061
      -0.034
      -0.010
       0.160
       0.400
       0.598
       0.684
       0.633
       0.460
       0.238
       0.085
       0.071
       0.128
       0.075
      -0.196
      -0.588
      -0.861
      -0.847
      -0.581
      -0.249
      -0.011
       0.101
       0.144
       0.175
       0.216
       0.287
       0.390
       0.466
       0.403
       0.146
      -0.205
      -0.467
      -0.534
      -0.462
      -0.391
      -0.398
      -0.440
      -0.410
      -0.220
       0.126
       0.509
       0.753
       0.747
       0.557
       0.389
       0.398
       0.533
       0.576
       0.379
       0.033
      -0.198
      -0.139
       0.104
       0.226
       0.004
      -0.505
      -1.034
      -1.335
      -1.338
      -1.135
      -0.845
      -0.525
      -0.154
       0.322
       0.912
       1.523
       1.971
       2.087
       1.839
       1.366
       0.858
       0.391
      -0.104
      -0.696
      -1.277
      -1.597
      -1.513
      -1.174
      -0.920
      -0.968
      -1.202
      -1.296
      -1.019
      -0.413
       0.286
       0.854
       1.184
       1.251
       1.071
       0.722
       0.373
       0.214
       0.298
       0.478
       0.522
       0.330
       0.001
      -0.298
      -0.504
      -0.667
      -0.825
      -0.923
      -0.906
      -0.827
      -0.805
      -0.853
      -0.816
      -0.526
       0.002
       0.572
       0.988
       1.199
       1.249
       1.156
       0.874
       0.397
      -0.148
      -0.557
      -0.683
      -0.533
      -0.237
       0.047
       0.211
       0.205
       0.020
      -0.318
      -0.717
      -1.013
      -1.027
      -0.694
      -0.145
       0.360
       0.607
       0.570
       0.403
       0.304
       0.380
       0.613
       0.892
       1.049
       0.912
       0.416
      -0.273
      -0.796
      -0.852
      -0.469
      -0.007
       0.138
      -0.149
      -0.655
      -1.056
      -1.138
      -0.857
      -0.289
       0.399
       0.965
       1.168
       0.930
       0.447
       0.080
       0.069
       0.330
       0.542
       0.441
       0.035
      -0.445
      -0.755
      -0.802
      -0.656
      -0.459
      -0.329
      -0.301
      -0.312
      -0.231
       0.045
       0.485
       0.913
       1.126
       1.043
       0.743
       0.383
       0.070
      -0.174
      -0.373
      -0.540
      -0.647
      -0.656
      -0.549
      -0.359
      -0.165
      -0.045
      -0.017
      -0.026
       0.024
       0.180
       0.401
       0.582
       0.630
       0.505
       0.216
      -0.174
      -0.550
      -0.758
      -0.682
      -0.334
       0.114
       0.410
       0.391
       0.100
      -0.248
      -0.412
      -0.275
       0.101
       0.518
       0.730
       0.574
       0.104
      -0.398
      -0.593
      -0.332
       0.209
       0.647
       0.662
       0.213
      -0.452
      -0.980
      -1.136
      -0.922
      -0.519
      -0.145
       0.063
       0.091
       0.016
      -0.041
       0.053
       0.378
       0.863
       1.276
       1.360
       1.031
       0.448
      -0.111
      -0.436
      -0.488
      -0.362
      -0.195
      -0.100
      -0.142
      -0.303
      -0.460
      -0.439
      -0.182
       0.139
       0.216
      -0.112
      -0.662
      -1.029
      -0.911
      -0.361
       0.280
       0.674
       0.722
       0.580
       0.482
       0.553
       0.750
       0.913
       0.873
       0.559
       0.061
      -0.396
      -0.622
      -0.633
      -0.641
      -0.828
      -1.126
      -1.271
      -1.069
      -0.607
      -0.191
      -0.082
      -0.289
      -0.577
      -0.658
      -0.387
       0.174
       0.807
       1.260
       1.379
       1.177
       0.817
       0.481
       0.248
       0.067
      -0.171
      -0.523
      -0.957
      -1.366
      -1.606
      -1.537
      -1.098
      -0.371
       0.439
       1.120
       1.557
       1.744
       1.729
       1.589
       1.434
       1.364
       1.364
       1.257
       0.824
       0.009
      -0.991
      -1.845
      -2.313
      -2.348
      -2.043
      -1.527
      -0.941
      -0.444
      -0.141
       0.022
       0.245
       0.670
       1.201
       1.543
       1.467
       1.028
       0.524
       0.250
       0.315
       0.631
       1.015
       1.249
       1.120
       0.538
      -0.329
      -1.065
      -1.274
      -0.900
      -0.294
       0.082
       0.038
      -0.224
      -0.352
      -0.190
       0.096
       0.203
      -0.016
      -0.425
      -0.724
      -0.691
      -0.320
       0.207
       0.637
       0.765
       0.511
      -0.026
      -0.599
      -0.946
      -0.965
      -0.772
      -0.572
      -0.462
      -0.378
      -0.226
      -0.031
       0.089
       0.064
      -0.052
      -0.139
      -0.110
       0.082
       0.459
       0.979
       1.471
       1.676
       1.433
       0.839
       0.196
      -0.230
      -0.430
      -0.611
      -0.951
      -1.365
      -1.538
      -1.187
      -0.346
       0.571
       1.025
       0.739
      -0.070
      -0.830
      -1.017
      -0.529
       0.268
       0.838
       0.876
       0.488
       0.035
      -0.211
      -0.271
      -0.392
      -0.759
      -1.263
      -1.527
      -1.187
      -0.200
       1.068
       2.073
       2.454
       2.261
       1.835
       1.487
       1.272
       1.036
       0.621
      -0.011
      -0.784
      -1.528
      -1.984
      -1.883
      -1.187
      -0.272
       0.227
      -0.103
      -1.077
      -2.025
      -2.319
      -1.799
      -0.748
       0.428
       1.415
       1.991
       2.023
       1.589
       1.064
       0.897
       1.214
       1.651
       1.647
       0.939
      -0.216
      -1.273
      -1.819
      -1.780
      -1.325
      -0.683
      -0.052
       0.417
       0.659
       0.725
       0.719
       0.688
       0.629
       0.606
       0.791
       1.273
       1.833
       1.997
       1.409
       0.190
      -1.112
      -1.944
      -2.125
      -1.865
      -1.506
      -1.303
      -1.362
      -1.636
      -1.903
      -1.835
      -1.226
      -0.205
       0.815
       1.451
       1.639
       1.623
       1.678
       1.870
       2.049
       2.012
       1.652
       0.984
       0.134
      -0.697
      -1.293
      -1.539
      -1.482
      -1.264
      -0.989
      -0.655
      -0.226
       0.220
       0.474
       0.338
      -0.166
      -0.764
      -1.112
      -1.051
      -0.693
      -0.278
       0.029
       0.197
       0.229
       0.091
      -0.216
      -0.551
      -0.671
      -0.441
      -0.004
       0.303
       0.240
      -0.108
      -0.408
      -0.408
      -0.145
       0.150
       0.323
       0.430
       0.638
       1.037
       1.543
       1.938
       1.962
       1.430
       0.366
      -0.883
      -1.761
      -1.847
      -1.192
      -0.292
       0.299
       0.363
       0.062
      -0.292
      -0.479
      -0.446
      -0.265
      -0.067
       0.046
       0.092
       0.206
       0.456
       0.662
       0.497
      -0.169
      -1.053
      -1.660
      -1.713
      -1.349
      -0.891
      -0.515
      -0.176
       0.188
       0.480
       0.528
       0.314
       0.051
       0.023
       0.380
       1.074
       1.926
       2.701
       3.164
       3.153
       2.662
       1.846
       0.890
      -0.137
      -1.282
      -2.554
      -3.777
      -4.622
      -4.801
      -4.245
      -3.126
      -1.729
      -0.322
       0.902
       1.833
       2.427
       2.698
       2.692
       2.495
       2.253
       2.160
       2.315
       2.563
       2.503
       1.773
       0.394
      -1.168
      -2.351
      -2.927
      -3.101
      -3.205
      -3.336
      -3.308
      -2.879
      -1.978
      -0.704
       0.773
       2.250
       3.445
       4.040
       3.882
       3.150
       2.252
       1.517
       0.974
       0.456
      -0.126
      -0.664
      -1.022
      -1.264
      -1.633
      -2.239
      -2.787
      -2.721
      -1.698
       0.033
       1.741
       2.716
       2.721
       2.062
       1.289
       0.808
       0.656
       0.511
      -0.075
      -1.336
      -3.034
      -4.505
      -5.039
      -4.369
      -2.844
      -1.147
       0.209
       1.135
       1.822
       2.438
       3.006
       3.488
       3.868
       4.097
       4.030
       3.473
       2.317
       0.606
      -1.492
      -3.695
      -5.573
      -6.585
      -6.318
      -4.798
      -2.559
      -0.325
       1.438
       2.709
       3.698
       4.502
       4.981
       4.923
       4.229
       2.949
       1.241
      -0.579
      -2.002
      -2.560
      -2.268
      -1.788
      -1.983
      -3.171
      -4.802
      -5.894
      -5.795
      -4.593
      -2.903
      -1.390
      -0.441
      -0.088
      -0.051
       0.118
       0.745
       1.729
       2.569
       2.815
       2.509
       2.137
       2.139
       2.515
       2.904
       2.967
       2.627
       1.994
       1.224
       0.524
       0.150
       0.227
       0.521
       0.535
      -0.040
      -0.981
      -1.717
      -1.872
      -1.584
      -1.286
      -1.253
      -1.388
      -1.376
      -0.951
      -0.059
       1.085
       2.023
       2.232
       1.492
       0.155
      -1.004
      -1.344
      -0.830
       0.000
       0.540
       0.587
       0.359
       0.181
       0.200
       0.373
       0.577
       0.661
       0.450
      -0.167
      -1.086
      -1.957
      -2.384
      -2.181
      -1.448
      -0.439
       0.591
       1.423
       1.878
       1.895
       1.615
       1.301
       1.096
       0.859
       0.321
      -0.585
      -1.591
      -2.315
      -2.607
      -2.637
      -2.649
      -2.676
      -2.549
      -2.145
      -1.555
      -0.932
      -0.230
       0.831
       2.470
       4.514
       6.370
       7.334
       6.985
       5.392
       3.068
       0.716
      -1.114
      -2.280
      -3.028
      -3.657
      -4.166
      -4.203
      -3.386
      -1.672
       0.533
       2.561
       3.790
       3.868
       2.842
       1.166
      -0.456
      -1.399
      -1.473
      -1.019
      -0.620
      -0.622
      -0.908
      -1.111
      -1.031
      -0.798
      -0.660
      -0.706
      -0.841
      -0.940
      -0.919
      -0.688
      -0.144
       0.690
       1.551
       2.034
       1.858
       1.031
      -0.208
      -1.570
      -2.806
      -3.693
      -4.049
      -3.849
      -3.265
      -2.499
      -1.559
      -0.250
       1.540
       3.551
       5.204
       5.976
       5.747
       4.851
       3.816
       3.039
       2.601
       2.291
       1.792
       0.910
      -0.315
      -1.671
      -2.951
      -4.079
      -5.059
      -5.822
      -6.158
      -5.810
      -4.682
      -2.983
      -1.167
       0.325
       1.369
       2.229
       3.301
       4.672
       5.892
       6.225
       5.226
       3.160
       0.842
      -0.966
      -2.044
      -2.644
      -3.030
      -3.158
      -2.841
      -2.116
      -1.340
      -0.898
      -0.833
      -0.813
      -0.468
       0.246
       1.018
       1.482
       1.502
       1.198
       0.791
       0.507
       0.526
       0.860
       1.260
       1.329
       0.887
       0.226
      -0.067
       0.359
       1.241
       1.876
       1.687
       0.704
      -0.443
      -0.945
      -0.295
       1.429
       3.549
       5.063
       5.150
       3.657
       1.200
      -1.264
      -3.033
      -3.946
      -4.215
      -4.135
      -3.941
      -3.789
      -3.662
      -3.282
      -2.261
      -0.513
       1.454
       2.767
       2.841
       1.893
       0.812
       0.472
       1.034
       1.810
       1.797
       0.475
      -1.754
      -3.819
      -4.724
      -4.210
      -2.809
      -1.326
      -0.215
       0.624
       1.493
       2.407
       2.974
       2.730
       1.520
      -0.422
      -2.637
      -4.602
      -5.830
      -6.047
      -5.379
      -4.322
      -3.394
      -2.760
      -2.202
      -1.461
      -0.523
       0.467
       1.502
       2.759
       4.304
       5.833
       6.831
       6.967
       6.252
       4.841
       2.804
       0.207
      -2.653
      -5.212
      -6.900
      -7.440
      -6.889
      -5.465
      -3.420
      -1.038
       1.347
       3.438
       5.075
       6.193
       6.702
       6.442
       5.312
       3.416
       1.070
      -1.317
      -3.389
      -4.930
      -5.881
      -6.282
      -6.140
      -5.333
      -3.699
      -1.307
       1.350
       3.525
       4.678
       4.822
       4.421
       3.938
       3.466
       2.757
       1.583
       0.037
      -1.492
      -2.624
      -3.242
      -3.503
      -3.634
      -3.702
      -3.538
      -2.880
      -1.624
       0.009
       1.567
       2.659
       3.189
       3.352
       3.399
       3.417
       3.321
       3.008
       2.482
       1.862
       1.320
       1.034
       1.108
       1.456
       1.762
       1.641
       0.948
      -0.048
      -0.827
      -1.010
      -0.636
      -0.087
       0.238
       0.213
       0.016
      -0.060
       0.162
       0.599
       0.971
       1.009
       0.654
       0.112
      -0.308
      -0.421
      -0.273
      -0.059
       0.049
       0.043
       0.059
       0.230
       0.515
       0.665
       0.375
      -0.485
      -1.717
      -2.851
      -3.406
      -3.163
      -2.240
      -0.976
       0.258
       1.195
       1.765
       2.097
       2.382
       2.651
       2.702
       2.320
       1.600
       0.983
       0.922
       1.443
       2.046
       2.062
       1.169
      -0.352
      -1.810
      -2.573
      -2.449
      -1.727
      -0.908
      -0.361
      -0.169
      -0.201
      -0.320
      -0.502
      -0.806
      -1.235
      -1.678
      -1.990
      -2.116
      -2.103
      -1.999
      -1.779
      -1.370
      -0.709
       0.243
       1.442
       2.658
       3.447
       3.374
       2.370
       0.895
      -0.346
      -0.924
      -0.992
      -1.076
      -1.540
      -2.225
      -2.590
      -2.211
      -1.138
       0.137
       1.017
       1.142
       0.567
      -0.266
      -0.777
      -0.621
       0.028
       0.581
       0.515
      -0.159
      -0.889
      -1.071
      -0.567
       0.193
       0.568
       0.168
      -0.913
      -2.179
      -3.026
      -3.076
      -2.387
      -1.412
      -0.694
      -0.486
      -0.570
      -0.455
       0.189
       1.240
       2.216
       2.650
       2.400
       1.673
       0.811
       0.092
      -0.321
      -0.357
      -0.061
       0.375
       0.698
       0.804
       0.854
       1.119
       1.640
       2.089
       1.991
       1.156
      -0.123
      -1.269
      -1.834
      -1.752
      -1.278
      -0.762
      -0.446
      -0.380
      -0.439
      -0.451
      -0.339
      -0.179
      -0.112
      -0.193
      -0.369
      -0.565
      -0.725
      -0.732
      -0.361
       0.535
       1.731
       2.630
       2.677
       1.809
       0.467
      -0.799
      -1.675
      -2.046
      -1.800
      -0.824
       0.747
       2.390
       3.439
       3.538
       2.818
       1.658
       0.374
      -0.810
      -1.618
      -1.770
      -1.269
      -0.509
       0.050
       0.309
       0.541
       0.942
       1.285
       1.102
       0.196
      -1.065
      -1.981
      -2.027
      -1.195
       0.081
       1.260
       2.005
       2.293
       2.341
       2.413
       2.603
       2.711
       2.312
       1.075
      -0.869
      -2.835
      -3.915
      -3.572
      -2.059
      -0.295
       0.766
       0.806
       0.316
       0.121
       0.671
       1.705
       2.521
       2.572
       1.826
       0.685
      -0.366
      -1.041
      -1.323
      -1.416
      -1.611
      -2.069
      -2.600
      -2.697
      -1.922
      -0.367
       1.287
       2.261
       2.254
       1.585
       0.796
       0.213
      -0.165
      -0.484
      -0.889
      -1.519
      -2.470
      -3.605
      -4.439
      -4.388
      -3.252
      -1.440
       0.328
       1.527
       2.060
       2.089
       1.820
       1.489
       1.401
       1.756
       2.371
       2.678
       2.179
       0.929
      -0.485
      -1.453
      -1.804
      -1.750
      -1.496
      -1.039
      -0.346
       0.422
       0.961
       1.101
       0.949
       0.715
       0.459
       0.067
      -0.561
      -1.365
      -2.169
      -2.765
      -2.904
      -2.327
      -1.020
       0.532
       1.501
       1.313
       0.158
      -1.141
      -1.781
      -1.552
      -0.878
      -0.368
      -0.304
      -0.455
      -0.318
       0.420
       1.569
       2.527
       2.724
       2.070
       1.018
       0.163
      -0.222
      -0.303
      -0.397
      -0.623
      -0.826
      -0.752
      -0.258
       0.596
       1.569
       2.348
       2.678
       2.505
       2.003
       1.450
       0.988
       0.513
      -0.189
      -1.187
      -2.279
      -3.122
      -3.472
      -3.317
      -2.827
      -2.212
      -1.618
      -1.106
      -0.675
      -0.302
       0.015
       0.217
       0.230
       0.094
       0.030
       0.308
       0.995
       1.817
       2.318
       2.198
       1.567
       0.888
       0.609
       0.782
       1.035
       0.938
       0.419
      -0.154
      -0.293
       0.175
       0.929
       1.407
       1.239
       0.485
      -0.498
      -1.336
      -1.781
      -1.717
      -1.202
      -0.540
      -0.192
      -0.469
      -1.247
      -2.053
      -2.479
      -2.495
      -2.344
      -2.170
      -1.861
      -1.258
      -0.435
       0.369
       1.067
       1.845
       2.875
       3.961
       4.634
       4.634
       4.209
       3.781
       3.369
       2.477
       0.690
      -1.681
      -3.653
      -4.333
      -3.629
      -2.242
      -1.024
      -0.351
      -0.034
       0.312
       0.857
       1.422
       1.622
       1.157
       0.052
