Origin Time       29/10/2009 19:56:58 UTC
Lat.              26.6°N	
Long.             90.0°E	
Depth (Km)         10.0
Magnitude         4.2
 Region           KOKRAJHAR-ASSAM                                                  
 Above details taken from IMD 
    
Station Code      NON
Station Lat.       25.522  N
Station Long.      91.264  E
Station Height(m) 1367.0
Site Class        A   Vs30 between 700 m/sec to 1400 m/sec * 
Record Time       29.10.2009 19:57:34.434 UTC
Sampling Rate     200. Hz
 Record Duration   65.985 Sec.
 Direction         N-S (N positive)
Max. Acceleration    -10.443 cm/sec**2
     
  * For reference see Site Classification link of website 
     
 Base Line Corrected and Low Pass Filtered (Cut Off at 35 Hz) Time History
 Acceleration data in cm/sec**2
    
[...]
       0.170
       0.256
       0.275
       0.239
       0.188
       0.160
       0.166
       0.183
       0.174
       0.116
       0.020
      -0.078
      -0.143
      -0.163
      -0.154
      -0.132
      -0.099
      -0.045
       0.030
       0.107
       0.151
       0.133
       0.053
      -0.051
      -0.125
      -0.131
      -0.074
      -0.002
       0.028
      -0.011
      -0.095
      -0.166
      -0.179
      -0.128
      -0.054
      -0.002
       0.011
      -0.002
      -0.011
       0.007
       0.047
       0.091
       0.115
       0.107
       0.070
       0.020
      -0.028
      -0.059
      -0.064
      -0.044
      -0.009
       0.021
       0.029
       0.011
      -0.017
      -0.026
       0.002
       0.061
       0.128
       0.170
       0.170
       0.132
       0.077
       0.032
       0.014
       0.016
       0.013
      -0.018
      -0.077
      -0.140
      -0.179
      -0.176
      -0.137
      -0.079
      -0.021
       0.024
       0.054
       0.074
       0.087
       0.087
       0.066
       0.013
      -0.063
      -0.146
      -0.216
      -0.263
      -0.285
      -0.277
      -0.224
      -0.117
       0.032
       0.177
       0.258
       0.241
       0.138
       0.004
      -0.103
      -0.148
      -0.125
      -0.052
       0.048
       0.144
       0.204
       0.209
       0.163
       0.091
       0.024
      -0.015
      -0.018
       0.008
       0.054
       0.109
       0.158
       0.185
       0.175
       0.123
       0.039
      -0.055
      -0.134
      -0.181
      -0.194
      -0.188
      -0.175
      -0.160
      -0.138
      -0.111
      -0.088
      -0.071
      -0.055
      -0.025
       0.021
       0.072
       0.110
       0.124
       0.119
       0.105
       0.083
       0.046
      -0.010
      -0.067
      -0.091
      -0.061
       0.012
       0.086
       0.125
       0.123
       0.104
       0.098
       0.108
       0.110
       0.072
      -0.012
      -0.115
      -0.185
      -0.183
      -0.106
       0.007
       0.099
       0.129
       0.093
       0.015
      -0.073
      -0.153
      -0.224
      -0.287
      -0.337
      -0.355
      -0.320
      -0.222
      -0.078
       0.074
       0.191
       0.243
       0.227
       0.168
       0.096
       0.036
      -0.004
      -0.027
      -0.029
      -0.005
       0.046
       0.116
       0.187
       0.246
       0.287
       0.314
       0.320
       0.295
       0.226
       0.113
      -0.022
      -0.147
      -0.234
      -0.272
      -0.268
      -0.235
      -0.180
      -0.106
      -0.025
       0.039
       0.056
       0.007
      -0.101
      -0.239
      -0.367
      -0.455
      -0.486
      -0.455
      -0.370
      -0.244
      -0.094
       0.063
       0.200
       0.290
       0.316
       0.288
       0.241
       0.216
       0.223
       0.242
       0.242
       0.215
       0.193
       0.213
       0.290
       0.391
       0.455
       0.432
       0.315
       0.141
      -0.033
      -0.171
      -0.269
      -0.348
      -0.417
      -0.462
      -0.458
      -0.397
      -0.302
      -0.214
      -0.163
      -0.157
      -0.178
      -0.204
      -0.217
      -0.218
      -0.211
      -0.196
      -0.167
      -0.118
      -0.055
       0.010
       0.064
       0.110
       0.168
       0.254
       0.365
       0.463
       0.506
       0.472
       0.384
       0.293
       0.244
       0.244
       0.263
       0.257
       0.194
       0.080
      -0.050
      -0.156
      -0.220
      -0.252
      -0.273
      -0.291
      -0.294
      -0.270
      -0.223
      -0.185
      -0.185
      -0.231
      -0.295
      -0.332
      -0.311
      -0.233
      -0.135
      -0.062
      -0.038
      -0.051
      -0.068
      -0.061
      -0.018
       0.050
       0.132
       0.226
       0.332
       0.436
       0.507
       0.514
       0.449
       0.341
       0.239
       0.175
       0.143
       0.111
       0.052
      -0.032
      -0.112
      -0.154
      -0.143
      -0.101
      -0.066
      -0.073
      -0.127
      -0.206
      -0.284
      -0.340
      -0.368
      -0.358
      -0.303
      -0.202
      -0.080
       0.023
       0.070
       0.049
      -0.021
      -0.094
      -0.125
      -0.083
       0.032
       0.185
       0.324
       0.405
       0.408
       0.347
       0.250
       0.146
       0.056
      -0.011
      -0.053
      -0.078
      -0.096
      -0.102
      -0.087
      -0.043
       0.021
       0.075
       0.090
       0.055
      -0.012
      -0.075
      -0.107
      -0.105
      -0.079
      -0.052
      -0.039
      -0.051
      -0.084
      -0.121
      -0.139
      -0.124
      -0.073
      -0.004
       0.061
       0.100
       0.103
       0.070
       0.017
      -0.034
      -0.064
      -0.067
      -0.049
      -0.024
       0.003
       0.025
       0.038
       0.038
       0.022
      -0.001
      -0.015
      -0.004
       0.032
       0.080
       0.120
       0.141
       0.141
       0.119
       0.075
       0.003
      -0.090
      -0.186
      -0.256
      -0.278
      -0.244
      -0.164
      -0.061
       0.038
       0.108
       0.137
       0.133
       0.114
       0.100
       0.096
       0.096
       0.091
       0.083
       0.090
       0.121
       0.168
       0.200
       0.181
       0.091
      -0.062
      -0.243
      -0.412
      -0.527
      -0.562
      -0.509
      -0.384
      -0.228
      -0.087
       0.000
       0.025
       0.005
      -0.025
      -0.036
      -0.015
       0.034
       0.100
       0.178
       0.268
       0.361
       0.441
       0.479
       0.452
       0.357
       0.220
       0.086
      -0.005
      -0.046
      -0.064
      -0.093
      -0.145
      -0.198
      -0.218
      -0.192
      -0.132
      -0.066
      -0.016
       0.010
       0.011
      -0.011
      -0.057
      -0.124
      -0.198
      -0.253
      -0.262
      -0.216
      -0.134
      -0.054
      -0.014
      -0.021
      -0.058
      -0.089
      -0.088
      -0.050
       0.007
       0.059
       0.095
       0.121
       0.155
       0.210
       0.278
       0.338
       0.370
       0.371
       0.354
       0.331
       0.295
       0.222
       0.094
      -0.075
      -0.233
      -0.316
      -0.296
      -0.203
      -0.104
      -0.054
      -0.065
      -0.105
      -0.145
      -0.186
      -0.253
      -0.361
      -0.487
      -0.578
      -0.581
      -0.482
      -0.301
      -0.075
       0.155
       0.358
       0.506
       0.578
       0.562
       0.467
       0.329
       0.193
       0.090
       0.027
      -0.009
      -0.033
      -0.048
      -0.055
      -0.052
      -0.043
      -0.028
       0.001
       0.054
       0.120
       0.166
       0.151
       0.062
      -0.076
      -0.213
      -0.303
      -0.322
      -0.277
      -0.202
      -0.132
      -0.083
      -0.042
       0.016
       0.097
       0.175
       0.207
       0.163
       0.048
      -0.099
      -0.233
      -0.313
      -0.321
      -0.259
      -0.148
      -0.017
       0.111
       0.226
       0.323
       0.394
       0.424
       0.400
       0.324
       0.225
       0.137
       0.086
       0.079
       0.102
       0.134
       0.148
       0.120
       0.037
      -0.096
      -0.250
      -0.389
      -0.482
      -0.512
      -0.473
      -0.374
      -0.242
      -0.122
      -0.052
      -0.047
      -0.087
      -0.126
      -0.120
      -0.054
       0.050
       0.143
       0.187
       0.180
       0.155
       0.146
       0.161
       0.170
       0.141
       0.066
      -0.027
      -0.096
      -0.110
      -0.074
      -0.017
       0.021
       0.023
       0.001
      -0.010
       0.016
       0.076
       0.137
       0.158
       0.123
       0.055
      -0.002
      -0.007
       0.051
       0.147
       0.231
       0.258
       0.212
       0.114
       0.003
      -0.090
      -0.155
      -0.201
      -0.239
      -0.272
      -0.300
      -0.323
      -0.346
      -0.366
      -0.371
      -0.346
      -0.289
      -0.221
      -0.177
      -0.177
      -0.210
      -0.235
      -0.208
      -0.111
       0.037
       0.199
       0.349
       0.488
       0.632
       0.778
       0.890
       0.914
       0.820
       0.627
       0.393
       0.179
       0.013
      -0.110
      -0.207
      -0.285
      -0.330
      -0.329
      -0.290
      -0.245
      -0.226
      -0.241
      -0.267
      -0.265
      -0.217
      -0.140
      -0.080
      -0.076
      -0.138
      -0.236
      -0.331
      -0.395
      -0.429
      -0.442
      -0.440
      -0.411
      -0.341
      -0.224
      -0.074
       0.084
       0.224
       0.335
       0.411
       0.458
       0.479
       0.483
       0.484
       0.497
       0.527
       0.568
       0.605
       0.621
       0.602
       0.534
       0.418
       0.268
       0.109
      -0.038
      -0.170
      -0.294
      -0.416
      -0.526
      -0.597
      -0.603
      -0.541
      -0.433
      -0.312
      -0.210
      -0.147
      -0.132
      -0.159
      -0.212
      -0.273
      -0.323
      -0.348
      -0.337
      -0.292
      -0.223
      -0.147
      -0.075
      -0.007
       0.058
       0.108
       0.117
       0.060
      -0.061
      -0.206
      -0.318
      -0.351
      -0.296
      -0.180
      -0.045
       0.071
       0.150
       0.192
       0.211
       0.234
       0.284
       0.378
       0.503
       0.627
       0.715
       0.748
       0.737
       0.703
       0.661
       0.608
       0.531
       0.418
       0.273
       0.116
      -0.026
      -0.132
      -0.198
      -0.242
      -0.291
      -0.367
      -0.467
      -0.570
      -0.647
      -0.686
      -0.691
      -0.672
      -0.632
      -0.565
      -0.469
      -0.357
      -0.253
      -0.182
      -0.150
      -0.143
      -0.142
      -0.132
      -0.112
      -0.076
      -0.013
       0.090
       0.232
       0.398
       0.564
       0.713
       0.823
       0.871
       0.837
       0.720
       0.550
       0.376
       0.248
       0.186
       0.172
       0.163
       0.113
       0.002
      -0.153
      -0.310
      -0.427
      -0.487
      -0.504
      -0.515
      -0.560
      -0.664
      -0.818
      -0.978
      -1.084
      -1.091
      -0.997
      -0.840
      -0.674
      -0.537
      -0.432
      -0.339
      -0.227
      -0.074
       0.120
       0.335
       0.543
       0.725
       0.882
       1.029
       1.176
       1.314
       1.413
       1.438
       1.377
       1.240
       1.055
       0.849
       0.638
       0.429
       0.234
       0.075
      -0.021
      -0.042
      -0.007
       0.038
       0.045
      -0.010
      -0.117
      -0.246
      -0.368
      -0.468
      -0.551
      -0.635
      -0.739
      -0.876
      -1.038
      -1.196
      -1.311
      -1.350
      -1.306
      -1.196
      -1.042
      -0.856
      -0.636
      -0.378
      -0.101
       0.149
       0.320
       0.390
       0.374
       0.318
       0.273
       0.272
       0.332
       0.459
       0.640
       0.845
       1.030
       1.161
       1.226
       1.237
       1.214
       1.169
       1.100
       0.993
       0.838
       0.629
       0.376
       0.096
      -0.184
      -0.445
      -0.672
      -0.866
      -1.031
      -1.176
      -1.308
      -1.442
      -1.590
      -1.752
      -1.903
      -2.001
      -1.999
      -1.870
      -1.621
      -1.278
      -0.878
      -0.443
       0.016
       0.486
       0.944
       1.346
       1.651
       1.838
       1.911
       1.893
       1.814
       1.709
       1.614
       1.554
       1.526
       1.493
       1.408
       1.243
       1.006
       0.729
       0.437
       0.130
      -0.212
      -0.607
      -1.036
      -1.430
      -1.698
      -1.767
      -1.630
      -1.345
      -1.013
      -0.735
      -0.570
      -0.512
      -0.506
      -0.490
      -0.443
      -0.395
      -0.398
      -0.492
      -0.667
      -0.874
      -1.040
      -1.100
      -1.016
      -0.789
      -0.450
      -0.053
       0.359
       0.774
       1.211
       1.692
       2.214
       2.730
       3.169
       3.466
       3.582
       3.510
       3.259
       2.834
       2.237
       1.479
       0.594
      -0.361
      -1.320
      -2.229
      -3.051
      -3.768
      -4.370
      -4.859
      -5.238
      -5.499
      -5.599
      -5.472
      -5.060
      -4.352
      -3.396
      -2.279
      -1.080
       0.153
       1.396
       2.627
       3.791
       4.806
       5.588
       6.091
       6.327
       6.346
       6.199
       5.914
       5.499
       4.954
       4.297
       3.571
       2.832
       2.125
       1.464
       0.824
       0.158
      -0.571
      -1.360
      -2.186
      -3.032
      -3.910
      -4.842
      -5.809
      -6.732
      -7.491
      -7.975
      -8.116
      -7.903
      -7.372
      -6.588
      -5.629
      -4.563
      -3.442
      -2.291
      -1.125
       0.052
       1.225
       2.366
       3.426
       4.346
       5.096
       5.691
       6.188
       6.642
       7.065
       7.418
       7.638
       7.676
       7.521
       7.186
       6.685
       6.008
       5.125
       4.016
       2.700
       1.251
      -0.216
      -1.589
      -2.806
      -3.879
      -4.885
      -5.923
      -7.047
      -8.221
      -9.307
     -10.106
     -10.443
     -10.245
      -9.564
      -8.531
      -7.278
      -5.882
      -4.366
      -2.734
      -1.021
       0.698
       2.340
       3.839
       5.156
       6.248
       7.059
       7.530
       7.646
       7.468
       7.125
       6.769
       6.506
       6.351
       6.226
       6.000
       5.554
       4.828
       3.837
       2.650
       1.368
       0.097
      -1.054
      -2.000
      -2.696
      -3.155
      -3.438
      -3.632
      -3.824
      -4.074
      -4.404
      -4.787
      -5.171
      -5.498
      -5.737
      -5.872
      -5.892
      -5.767
      -5.458
      -4.949
      -4.270
      -3.490
      -2.682
      -1.885
      -1.085
      -0.228
       0.744
       1.850
       3.055
       4.274
       5.418
       6.430
       7.287
       7.974
       8.438
       8.590
       8.346
       7.688
       6.678
       5.434
       4.084
       2.728
       1.432
       0.229
      -0.870
      -1.879
      -2.825
      -3.726
      -4.572
      -5.327
      -5.954
      -6.445
      -6.824
      -7.110
      -7.269
      -7.201
      -6.783
      -5.958
      -4.790
      -3.452
      -2.137
      -0.964
       0.058
       0.988
       1.880
       2.726
       3.456
       3.980
       4.245
       4.266
       4.127
       3.932
       3.763
       3.653
       3.591
       3.554
       3.528
       3.499
       3.438
       3.287
       2.982
       2.488
       1.822
       1.051
       0.257
      -0.493
      -1.172
      -1.785
      -2.344
      -2.842
      -3.243
      -3.513
      -3.638
      -3.649
      -3.598
      -3.545
      -3.519
      -3.505
      -3.446
      -3.264
      -2.900
      -2.346
      -1.647
      -0.870
      -0.071
       0.711
       1.427
       2.002
       2.352
       2.425
       2.249
       1.937
       1.649
       1.545
       1.721
       2.176
       2.806
       3.440
       3.901
       4.071
       3.921
       3.498
       2.884
       2.145
       1.329
       0.483
      -0.329
      -1.039
      -1.598
      -2.008
      -2.311
      -2.571
      -2.836
      -3.121
      -3.402
      -3.638
      -3.790
      -3.834
      -3.765
      -3.588
      -3.326
      -3.015
      -2.694
      -2.380
      -2.049
      -1.640
      -1.100
      -0.423
       0.337
       1.095
       1.777
       2.350
       2.813
       3.180
       3.471
       3.710
       3.919
       4.106
       4.240
       4.258
       4.091
       3.698
       3.091
       2.332
       1.508
       0.716
       0.044
      -0.451
      -0.756
      -0.918
      -1.023
      -1.156
      -1.354
      -1.599
      -1.842
      -2.056
      -2.267
      -2.533
      -2.877
      -3.253
      -3.560
      -3.717
      -3.706
      -3.573
      -3.360
      -3.059
      -2.606
      -1.943
      -1.079
      -0.099
       0.878
       1.769
       2.557
       3.264
       3.897
       4.415
       4.749
       4.855
       4.745
       4.479
       4.116
       3.679
       3.146
       2.483
       1.687
       0.805
      -0.069
      -0.841
      -1.459
      -1.930
      -2.302
      -2.611
      -2.859
      -3.022
      -3.093
      -3.105
      -3.113
      -3.147
      -3.169
      -3.086
      -2.812
      -2.325
      -1.682
      -0.988
      -0.343
       0.187
       0.576
       0.819
       0.928
       0.935
       0.908
       0.936
       1.090
       1.376
       1.728
       2.038
       2.220
       2.251
       2.167
       2.026
       1.864
       1.681
       1.447
       1.141
       0.769
       0.371
       0.003
      -0.289
      -0.481
      -0.569
      -0.562
      -0.481
      -0.362
      -0.258
      -0.234
      -0.342
      -0.592
      -0.938
      -1.293
      -1.578
      -1.759
      -1.865
      -1.946
      -2.037
      -2.122
      -2.131
      -1.964
      -1.526
      -0.777
       0.232
       1.365
       2.440
       3.278
       3.748
       3.773
       3.348
       2.546
       1.522
       0.482
      -0.389
      -0.995
      -1.349
      -1.535
      -1.638
      -1.692
      -1.666
      -1.500
      -1.162
      -0.685
      -0.166
       0.278
       0.569
       0.702
       0.733
       0.737
       0.768
       0.833
       0.895
       0.891
       0.769
       0.533
       0.250
       0.015
      -0.110
      -0.137
      -0.131
      -0.163
      -0.271
      -0.450
      -0.674
      -0.911
      -1.134
      -1.324
      -1.468
      -1.544
      -1.510
      -1.311
      -0.922
      -0.385
       0.185
       0.655
       0.936
       1.020
       0.953
       0.796
       0.595
       0.388
       0.224
       0.159
       0.232
       0.417
       0.622
       0.727
       0.650
       0.405
       0.109
      -0.081
      -0.058
       0.165
       0.478
       0.751
       0.924
       1.036
       1.171
       1.377
       1.613
       1.765
       1.716
       1.416
       0.899
       0.262
      -0.402
      -1.047
      -1.670
      -2.273
      -2.816
      -3.208
      -3.340
      -3.155
      -2.685
      -2.053
      -1.413
      -0.883
      -0.501
      -0.243
      -0.068
       0.042
       0.093
       0.116
       0.182
       0.375
       0.730
       1.193
       1.641
       1.956
       2.099
       2.120
       2.114
       2.148
       2.213
       2.238
       2.131
       1.845
       1.401
       0.875
       0.353
      -0.104
      -0.464
      -0.713
      -0.855
      -0.920
      -0.972
      -1.078
      -1.272
      -1.527
      -1.773
      -1.946
      -2.025
      -2.022
      -1.956
      -1.827
      -1.631
      -1.378
      -1.111
      -0.887
      -0.745
      -0.689
      -0.694
      -0.716
      -0.712
      -0.635
      -0.430
      -0.046
       0.540
       1.302
       2.156
