Origin Time       11/8/2009 21:43:39 
Lat.              24.4 N 
Long.             94.8 E 
Depth (Km)         22.0
Magnitude         5.6
 Region           MYANMAR-INDIA(MANIPUR)BORDER                                     
 Above details taken from IMD 
   
Station Code      NON
Station Lat.       25.522
Station Long.      91.264
Station Height(m) 1367.0
Site Class        A   Vs30 between 700 m/sec to 1400 m/sec * 
Record Time       11.08.2009 21:44:57.184
Sampling Rate     200. Hz
 Record Duration   79.040 Sec.
 Direction         Vert. (Up positive)
Max. Acceleration     15.003 cm/sec**2
     
  * For reference see Site Classification link of website 
     
 Base Line Corrected and Low Pass Filtered (Cut Off at 35 Hz) Time History
 Acceleration data in cm/sec**2
    
[...]
       0.348
       0.648
       0.834
       1.069
       1.397
       1.668
       1.620
       1.078
       0.128
      -0.840
      -1.317
      -1.005
      -0.071
       0.901
       1.292
       0.870
      -0.062
      -0.909
      -1.196
      -0.845
      -0.152
       0.444
       0.634
       0.387
      -0.073
      -0.420
      -0.428
      -0.096
       0.369
       0.682
       0.631
       0.182
      -0.494
      -1.086
      -1.292
      -0.992
      -0.337
       0.324
       0.640
       0.450
      -0.134
      -0.785
      -1.127
      -0.911
      -0.144
       0.898
       1.797
       2.205
       2.041
       1.529
       1.030
       0.799
       0.820
       0.848
       0.585
      -0.140
      -1.258
      -2.439
      -3.195
      -3.146
      -2.295
      -1.105
      -0.203
       0.068
      -0.117
      -0.253
       0.071
       0.884
       1.844
       2.461
       2.370
       1.543
       0.352
      -0.613
      -0.904
      -0.520
       0.114
       0.468
       0.265
      -0.385
      -1.118
      -1.555
      -1.510
      -1.064
      -0.483
      -0.033
       0.198
       0.308
       0.433
       0.595
       0.710
       0.720
       0.674
       0.709
       0.952
       1.416
       1.919
       2.097
       1.610
       0.437
      -1.010
      -2.136
      -2.614
      -2.615
      -2.596
      -2.851
      -3.251
      -3.361
      -2.777
      -1.396
       0.510
       2.403
       3.707
       4.102
       3.712
       3.018
       2.530
       2.444
       2.543
       2.387
       1.622
       0.232
      -1.426
      -2.804
      -3.495
      -3.483
      -3.112
      -2.791
      -2.681
      -2.621
      -2.337
      -1.703
      -0.826
       0.071
       0.830
       1.430
       1.952
       2.500
       3.119
       3.731
       4.122
       4.054
       3.428
       2.370
       1.154
       0.028
      -0.901
      -1.673
      -2.379
      -3.025
      -3.464
      -3.468
      -2.924
      -1.995
      -1.054
      -0.415
      -0.100
       0.125
       0.506
       1.074
       1.666
       2.093
       2.257
       2.122
       1.666
       0.935
       0.127
      -0.487
      -0.784
      -0.922
      -1.197
      -1.734
      -2.327
      -2.593
      -2.287
      -1.502
      -0.597
       0.063
       0.347
       0.445
       0.734
       1.497
       2.658
       3.767
       4.278
       3.945
       3.007
       2.000
       1.344
       1.051
       0.753
       0.017
      -1.333
      -3.079
      -4.729
      -5.791
      -6.017
      -5.482
      -4.464
      -3.262
      -2.059
      -0.895
       0.285
       1.549
       2.887
       4.160
       5.114
       5.485
       5.122
       4.074
       2.570
       0.937
      -0.531
      -1.666
      -2.456
      -2.984
      -3.317
      -3.419
      -3.163
      -2.449
      -1.327
      -0.008
       1.256
       2.295
       3.056
       3.528
       3.684
       3.483
       2.925
       2.102
       1.197
       0.398
      -0.210
      -0.734
      -1.424
      -2.481
      -3.817
      -5.006
      -5.522
      -5.122
      -4.034
      -2.777
      -1.779
      -1.094
      -0.450
       0.486
       1.825
       3.354
       4.653
       5.355
       5.387
       4.997
       4.520
       4.079
       3.492
       2.482
       0.979
      -0.780
      -2.398
      -3.542
      -4.082
      -4.121
      -3.912
      -3.689
      -3.478
      -3.058
      -2.165
      -0.772
       0.795
       2.035
       2.570
       2.357
       1.713
       1.147
       1.077
       1.549
       2.162
       2.314
       1.652
       0.349
      -1.028
      -1.947
      -2.251
      -2.167
      -2.052
      -2.113
      -2.283
      -2.279
      -1.801
      -0.760
       0.617
       1.873
       2.562
       2.491
       1.831
       1.023
       0.547
       0.655
       1.241
       1.911
       2.219
       1.903
       0.995
      -0.226
      -1.393
      -2.212
      -2.577
      -2.595
      -2.489
      -2.411
      -2.306
      -1.974
      -1.297
      -0.408
       0.389
       0.855
       0.968
       0.847
       0.594
       0.227
      -0.236
      -0.672
      -0.848
      -0.522
       0.388
       1.672
       2.835
       3.319
       2.877
       1.796
       0.732
       0.219
       0.276
       0.467
       0.344
      -0.173
      -0.791
      -1.116
      -0.904
      -0.143
       0.973
       2.070
       2.708
       2.598
       1.811
       0.777
       0.034
      -0.140
       0.053
       0.039
      -0.739
      -2.375
      -4.361
      -5.883
      -6.368
      -5.837
      -4.806
      -3.822
      -3.071
      -2.316
      -1.162
       0.621
       2.905
       5.218
       6.911
       7.447
       6.671
       4.905
       2.771
       0.849
      -0.608
      -1.705
      -2.670
      -3.545
      -4.055
      -3.780
      -2.531
      -0.608
       1.319
       2.636
       3.140
       3.040
       2.694
       2.328
       1.940
       1.358
       0.412
      -0.878
      -2.231
      -3.260
      -3.742
      -3.776
      -3.639
      -3.508
      -3.311
      -2.828
      -1.899
      -0.533
       1.104
       2.775
       4.243
       5.342
       6.002
       6.210
       5.940
       5.145
       3.842
       2.180
       0.383
      -1.383
      -3.036
      -4.459
      -5.416
      -5.668
      -5.195
      -4.272
      -3.262
      -2.346
      -1.460
      -0.488
       0.532
       1.411
       1.988
       2.277
       2.437
       2.633
       2.914
       3.155
       3.081
       2.418
       1.107
      -0.560
      -2.039
      -2.865
      -2.933
      -2.489
      -1.852
      -1.146
      -0.295
       0.758
       1.882
       2.794
       3.230
       3.091
       2.479
       1.635
       0.814
       0.139
      -0.476
      -1.261
      -2.388
      -3.788
      -5.091
      -5.790
      -5.539
      -4.409
      -2.870
      -1.471
      -0.460
       0.318
       1.200
       2.389
       3.814
       5.196
       6.198
       6.567
       6.223
       5.306
       4.093
       2.836
       1.634
       0.482
      -0.594
      -1.483
      -2.084
      -2.403
      -2.535
      -2.598
      -2.737
      -3.118
      -3.805
      -4.591
      -5.041
      -4.801
      -3.877
      -2.587
      -1.266
      -0.062
       0.997
       1.847
       2.393
       2.624
       2.639
       2.528
       2.285
       1.884
       1.394
       0.932
       0.543
       0.182
      -0.138
      -0.282
      -0.137
       0.173
       0.319
       0.069
      -0.429
      -0.686
      -0.238
       0.973
       2.500
       3.634
       3.773
       2.696
       0.647
      -1.801
      -3.997
      -5.496
      -6.210
      -6.371
      -6.306
      -6.154
      -5.710
      -4.540
      -2.314
       0.872
       4.454
       7.639
       9.755
      10.498
       9.994
       8.661
       6.947
       5.096
       3.121
       0.968
      -1.323
      -3.621
      -5.804
      -7.723
      -9.062
      -9.325
      -8.119
      -5.558
      -2.362
       0.542
       2.607
       3.914
       4.890
       5.831
       6.653
       6.997
       6.491
       4.969
       2.582
      -0.224
      -2.900
      -5.064
      -6.661
      -7.830
      -8.610
      -8.783
      -8.041
      -6.323
      -3.974
      -1.558
       0.498
       2.107
       3.460
       4.763
       5.989
       6.809
       6.788
       5.715
       3.823
       1.695
      -0.066
      -1.161
      -1.661
      -1.866
      -2.050
      -2.282
      -2.397
      -2.128
      -1.327
      -0.108
       1.194
       2.244
       2.933
       3.418
       3.942
       4.564
       5.046
       4.988
       4.101
       2.413
       0.272
      -1.839
      -3.550
      -4.777
      -5.708
      -6.612
      -7.590
      -8.437
      -8.722
      -8.060
      -6.391
      -4.063
      -1.615
       0.555
       2.386
       4.063
       5.753
       7.389
       8.643
       9.097
       8.483
       6.855
       4.583
       2.179
       0.072
      -1.574
      -2.901
      -4.189
      -5.533
      -6.590
      -6.666
      -5.237
      -2.523
       0.418
       2.318
       2.591
       1.710
       0.758
       0.592
       1.354
       2.566
       3.526
       3.656
       2.741
       1.084
      -0.560
      -1.388
      -1.097
      -0.156
       0.491
       0.082
      -1.449
      -3.501
      -5.256
      -6.149
      -6.030
      -5.030
      -3.362
      -1.227
       1.141
       3.395
       5.091
       5.878
       5.734
       5.010
       4.169
       3.457
       2.805
       2.000
       0.872
      -0.653
      -2.580
      -4.778
      -6.868
      -8.282
      -8.543
      -7.569
      -5.697
      -3.365
      -0.798
       2.000
       4.947
       7.670
       9.590
      10.220
       9.390
       7.306
       4.475
       1.531
      -1.013
      -2.972
      -4.451
      -5.558
      -6.137
      -5.835
      -4.468
      -2.328
      -0.086
       1.655
       2.736
       3.403
       3.938
       4.315
       4.175
       3.090
       0.927
      -1.956
      -4.812
      -6.869
      -7.733
      -7.551
      -6.817
      -5.953
      -4.974
      -3.508
      -1.153
       2.094
       5.696
       8.824
      10.771
      11.219
      10.260
       8.267
       5.745
       3.149
       0.727
      -1.503
      -3.583
      -5.397
      -6.646
      -7.084
      -6.736
      -5.845
      -4.579
      -2.868
      -0.584
       2.092
       4.543
       5.982
       5.915
       4.454
       2.311
       0.451
      -0.405
      -0.167
       0.617
       1.180
       1.069
       0.383
      -0.448
      -1.063
      -1.427
      -1.806
      -2.574
      -3.950
      -5.745
      -7.305
      -7.791
      -6.720
      -4.333
      -1.456
       1.023
       2.643
       3.461
       3.843
       4.183
       4.690
       5.271
       5.545
       5.067
       3.685
       1.747
      -0.122
      -1.519
      -2.567
      -3.696
      -5.099
      -6.419
      -6.930
      -6.073
      -3.884
      -1.056
       1.464
       3.078
       3.908
       4.606
       5.688
       6.958
       7.574
       6.726
       4.363
       1.348
      -1.101
      -2.220
      -2.156
      -1.707
      -1.594
      -1.850
      -1.852
      -0.983
       0.666
       2.215
       2.642
       1.593
      -0.365
      -2.197
      -3.066
      -2.688
      -1.320
       0.404
       1.747
       2.278
       2.191
       2.141
       2.592
       3.259
       3.247
       1.807
      -0.998
      -4.255
      -6.735
      -7.536
      -6.497
      -4.287
      -2.124
      -1.157
      -1.769
      -3.346
      -4.757
      -5.144
      -4.327
      -2.588
      -0.259
       2.404
       5.104
       7.468
       9.179
      10.085
      10.134
       9.273
       7.474
       4.830
       1.549
      -2.093
      -5.724
      -8.780
     -10.625
     -10.959
     -10.128
      -8.912
      -7.874
      -6.904
      -5.383
      -2.784
       0.851
       4.848
       8.182
       9.938
       9.788
       8.208
       6.213
       4.735
       4.117
       4.078
       4.039
       3.505
       2.317
       0.768
      -0.511
      -0.964
      -0.602
      -0.083
      -0.200
      -1.199
      -2.602
      -3.675
      -4.020
      -3.700
      -2.980
      -2.119
      -1.427
      -1.269
      -1.811
      -2.736
      -3.324
      -2.908
      -1.308
       1.086
       3.575
       5.500
       6.491
       6.544
       5.954
       5.121
       4.318
       3.541
       2.509
       0.843
      -1.653
      -4.742
      -7.729
      -9.769
     -10.345
      -9.573
      -8.045
      -6.350
      -4.665
      -2.734
      -0.214
       2.914
       6.122
       8.488
       9.176
       7.962
       5.398
       2.448
      -0.126
      -2.109
      -3.640
      -4.766
      -5.244
      -4.770
      -3.351
      -1.445
       0.281
       1.349
       1.737
       1.854
       2.238
       3.159
       4.414
       5.488
       5.958
       5.834
       5.498
       5.289
       5.051
       4.086
       1.662
      -2.266
      -6.769
     -10.415
     -12.132
     -11.752
      -9.846
      -7.166
      -4.264
      -1.488
       0.875
       2.605
       3.644
       4.120
       4.247
       4.212
       4.119
       3.985
       3.744
       3.267
       2.419
       1.112
      -0.695
      -2.992
      -5.621
      -8.146
      -9.854
     -10.026
      -8.354
      -5.200
      -1.459
       1.916
       4.423
       6.179
       7.641
       9.088
      10.258
      10.476
       9.183
       6.460
       3.121
       0.299
      -1.227
      -1.502
      -1.338
      -1.737
      -3.177
      -5.296
      -7.201
      -8.108
      -7.799
      -6.571
      -4.839
      -2.816
      -0.505
       2.045
       4.556
       6.556
       7.593
       7.436
       6.169
       4.188
       2.045
       0.179
      -1.307
      -2.574
      -3.720
      -4.546
      -4.691
      -4.001
      -2.727
      -1.365
      -0.354
       0.119
       0.137
      -0.032
      -0.127
      -0.083
      -0.026
      -0.010
       0.256
       1.266
       3.167
       5.266
       6.201
       4.820
       1.117
      -3.599
      -7.495
      -9.310
      -8.937
      -7.211
      -5.252
      -3.840
      -3.031
      -2.140
      -0.157
       3.484
       8.270
      12.678
      15.003
      14.378
      11.215
       6.828
       2.643
      -0.412
      -2.113
      -2.852
      -3.337
      -4.165
      -5.437
      -6.698
      -7.273
      -6.741
      -5.202
      -3.184
      -1.341
      -0.125
       0.427
       0.737
       1.466
       3.023
       5.117
       6.784
       7.007
       5.462
       2.734
      -0.162
      -2.469
      -3.993
      -4.907
      -5.423
      -5.627
      -5.496
      -4.966
      -3.974
      -2.493
      -0.554
       1.708
       3.962
       5.647
       6.153
       5.236
       3.335
       1.445
       0.533
       0.904
       2.031
       2.930
       2.821
       1.604
      -0.130
      -1.556
      -2.236
      -2.457
      -2.978
      -4.364
      -6.436
      -8.314
      -8.992
      -7.928
      -5.246
      -1.539
       2.444
       6.070
       8.982
      11.083
      12.298
      12.316
      10.606
       6.844
       1.404
      -4.532
      -9.454
     -12.269
     -12.785
     -11.619
      -9.662
      -7.501
      -5.184
      -2.448
       0.810
       4.183
       6.827
       7.978
       7.531
       6.166
       4.874
       4.270
       4.232
       4.108
       3.242
       1.412
      -1.064
      -3.552
      -5.433
      -6.352
      -6.280
      -5.394
      -3.886
      -1.856
       0.610
       3.257
       5.601
       7.111
       7.468
       6.664
       4.881
       2.352
      -0.611
      -3.542
      -5.876
      -7.153
      -7.178
      -6.039
      -4.045
      -1.688
       0.420
       1.740
       2.047
       1.548
       0.725
       0.037
      -0.308
      -0.366
      -0.295
      -0.161
       0.143
       0.783
       1.782
       2.919
       3.848
       4.321
       4.277
       3.743
       2.698
       1.126
      -0.803
      -2.653
      -3.897
      -4.196
      -3.558
      -2.324
      -1.059
      -0.379
      -0.679
      -1.838
      -3.193
      -3.915
      -3.583
      -2.454
      -1.199
      -0.334
       0.150
       0.674
       1.650
       3.106
       4.646
       5.697
       5.839
       5.009
       3.515
       1.911
       0.795
       0.534
       1.010
       1.572
       1.307
      -0.399
      -3.380
      -6.636
      -8.869
      -9.271
      -7.981
      -5.850
      -3.761
      -2.064
      -0.531
       1.294
       3.715
       6.672
       9.676
      11.908
      12.543
      11.212
       8.291
       4.716
       1.420
      -1.187
      -3.298
      -5.345
      -7.545
      -9.687
     -11.238
     -11.619
     -10.509
      -8.038
      -4.777
      -1.508
       1.124
       2.831
       3.704
       4.108
       4.525
       5.295
       6.353
       7.159
       7.006
       5.508
       2.906
      -0.044
      -2.465
      -3.756
      -3.834
      -3.157
      -2.476
      -2.356
      -2.755
      -3.042
      -2.506
      -0.962
       1.087
       2.840
       3.764
       3.851
       3.455
       2.967
       2.589
       2.288
       1.848
       1.024
      -0.261
      -1.836
      -3.395
      -4.638
      -5.283
      -5.045
      -3.806
      -1.879
       0.021
       1.227
       1.563
       1.307
       0.770
       0.061
      -0.711
      -1.176
      -0.842
       0.457
       2.321
       4.007
       4.858
       4.542
       3.056
       0.677
      -2.046
      -4.426
      -5.933
      -6.422
      -6.054
      -5.039
      -3.473
      -1.387
       1.127
       3.822
       6.261
       7.884
       8.237
       7.252
       5.332
       3.130
       1.193
      -0.208
      -1.037
      -1.434
      -1.729
      -2.367
      -3.615
      -5.268
      -6.725
      -7.400
      -7.081
      -5.918
      -4.197
      -2.199
      -0.181
       1.646
       3.177
       4.409
       5.364
       6.028
       6.354
       6.247
       5.535
       4.027
       1.684
      -1.213
      -4.069
      -6.175
      -7.012
      -6.469
      -4.872
      -2.817
      -0.890
       0.567
       1.558
       2.350
       3.224
       4.216
       5.051
       5.320
       4.738
       3.337
       1.524
      -0.069
      -0.925
      -1.015
      -0.855
      -1.137
      -2.167
      -3.602
      -4.675
      -4.722
      -3.620
      -1.862
      -0.234
       0.676
       0.813
       0.624
       0.656
       1.094
       1.607
       1.652
       1.006
       0.013
      -0.683
      -0.676
      -0.115
       0.482
       0.712
       0.618
       0.553
       0.744
       0.994
       0.861
       0.119
      -0.985
      -1.902
      -2.189
      -1.765
      -0.876
       0.116
       0.925
       1.440
       1.735
       2.004
       2.435
       3.021
       3.444
       3.182
       1.879
      -0.295
      -2.648
      -4.358
      -4.899
      -4.174
      -2.431
      -0.227
       1.586
       2.134
       1.119
      -0.776
      -2.200
      -2.054
      -0.290
       2.064
       3.610
       3.455
       1.726
      -0.509
      -1.857
      -1.446
       0.519
       2.913
       4.500
       4.719
       3.858
       2.572
       1.317
       0.179
      -0.931
      -2.075
      -3.236
      -4.336
      -5.221
      -5.702
      -5.730
      -5.526
      -5.427
      -5.510
      -5.404
      -4.531
      -2.586
       0.174
       3.057
       5.318
       6.514
       6.641
       6.028
       5.082
       4.025
       2.788
       1.137
      -1.036
      -3.432
      -5.365
      -6.102
      -5.338
      -3.410
      -1.119
       0.717
       1.669
       1.880
       1.913
       2.354
       3.395
       4.688
       5.577
       5.519
       4.387
       2.482
       0.357
      -1.402
      -2.386
      -2.529
      -2.123
      -1.620
      -1.297
      -1.077
      -0.684
      -0.003
       0.737
       1.134
       0.944
