Origin Time       21/9/2009 8:53:04	  UTC
Lat.              27.3 N	
Long.             91.5 E	
Depth (Km)          8.0
Magnitude         6.2
 Region           BHUTAN                                                           
 Above details taken from IMD 
    
Station Code      NON
Station Lat.       25.522  N
Station Long.      91.264  E
Station Height(m) 1367.0
Site Class        A   Vs30 between 700 m/sec to 1400 m/sec * 
Record Time       21.09.2009 08:53:26.414 UTC
Sampling Rate     200. Hz
 Record Duration  106.335 Sec.
 Direction         N-S (N positive)
Max. Acceleration     19.439 cm/sec**2
     
  * For reference see Site Classification link of website 
     
 Base Line Corrected and Low Pass Filtered (Cut Off at 35 Hz) Time History
 Acceleration data in cm/sec**2
    
[...]
       1.134
       0.846
       0.498
       0.112
      -0.273
      -0.607
      -0.837
      -0.914
      -0.806
      -0.514
      -0.081
       0.409
       0.843
       1.106
       1.120
       0.873
       0.427
      -0.107
      -0.627
      -1.077
      -1.455
      -1.785
      -2.076
      -2.304
      -2.429
      -2.430
      -2.327
      -2.166
      -1.994
      -1.824
      -1.626
      -1.349
      -0.956
      -0.455
       0.104
       0.657
       1.155
       1.582
       1.943
       2.239
       2.464
       2.611
       2.675
       2.650
       2.525
       2.282
       1.921
       1.488
       1.075
       0.786
       0.674
       0.711
       0.792
       0.792
       0.631
       0.304
      -0.140
      -0.627
      -1.099
      -1.527
      -1.901
      -2.207
      -2.405
      -2.427
      -2.216
      -1.786
      -1.240
      -0.737
      -0.409
      -0.286
      -0.299
      -0.340
      -0.329
      -0.243
      -0.089
       0.119
       0.368
       0.638
       0.902
       1.135
       1.316
       1.435
       1.484
       1.468
       1.405
       1.314
       1.209
       1.088
       0.947
       0.793
       0.652
       0.566
       0.568
       0.666
       0.826
       0.985
       1.063
       0.995
       0.749
       0.342
      -0.160
      -0.672
      -1.139
      -1.559
      -1.972
      -2.405
      -2.835
      -3.182
      -3.357
      -3.317
      -3.083
      -2.728
      -2.329
      -1.927
      -1.519
      -1.078
      -0.591
      -0.057
       0.513
       1.116
       1.738
       2.338
       2.853
       3.223
       3.422
       3.452
       3.321
       3.018
       2.534
       1.881
       1.125
       0.373
      -0.253
      -0.659
      -0.803
      -0.711
      -0.467
      -0.188
       0.020
       0.091
       0.020
      -0.154
      -0.379
      -0.618
      -0.866
      -1.130
      -1.408
      -1.667
      -1.847
      -1.880
      -1.727
      -1.394
      -0.937
      -0.437
       0.033
       0.429
       0.742
       0.990
       1.195
       1.361
       1.465
       1.456
       1.280
       0.917
       0.409
      -0.141
      -0.591
      -0.817
      -0.767
      -0.486
      -0.101
       0.242
       0.443
       0.490
       0.439
       0.363
       0.308
       0.263
       0.182
       0.028
      -0.195
      -0.439
      -0.644
      -0.787
      -0.899
      -1.043
      -1.262
      -1.534
      -1.779
      -1.900
      -1.848
      -1.654
      -1.411
      -1.207
      -1.065
      -0.936
      -0.738
      -0.430
      -0.037
       0.369
       0.725
       1.006
       1.229
       1.417
       1.574
       1.679
       1.715
       1.686
       1.626
       1.568
       1.519
       1.460
       1.362
       1.229
       1.093
       0.992
       0.933
       0.889
       0.824
       0.720
       0.580
       0.420
       0.244
       0.048
      -0.185
      -0.474
      -0.845
      -1.309
      -1.845
      -2.392
      -2.857
      -3.148
      -3.214
      -3.053
      -2.700
      -2.204
      -1.610
      -0.973
      -0.369
       0.123
       0.460
       0.666
       0.814
       0.973
       1.152
       1.309
       1.394
       1.405
       1.395
       1.429
       1.531
       1.668
       1.778
       1.813
       1.767
       1.666
       1.543
       1.420
       1.308
       1.201
       1.076
       0.901
       0.647
       0.307
      -0.099
      -0.528
      -0.934
      -1.292
      -1.600
      -1.877
      -2.141
      -2.383
      -2.560
      -2.609
      -2.485
      -2.188
      -1.760
      -1.261
      -0.741
      -0.238
       0.204
       0.521
       0.658
       0.597
       0.385
       0.111
      -0.130
      -0.273
      -0.295
      -0.197
       0.016
       0.333
       0.720
       1.106
       1.394
       1.501
       1.403
       1.149
       0.839
       0.575
       0.426
       0.404
       0.480
       0.605
       0.728
       0.815
       0.849
       0.821
       0.719
       0.527
       0.250
      -0.082
      -0.424
      -0.737
      -1.012
      -1.260
      -1.498
      -1.724
      -1.907
      -2.001
      -1.970
      -1.813
      -1.572
      -1.304
      -1.057
      -0.841
      -0.630
      -0.377
      -0.043
       0.370
       0.809
       1.189
       1.436
       1.516
       1.449
       1.290
       1.111
       0.973
       0.911
       0.913
       0.922
       0.871
       0.728
       0.523
       0.316
       0.145
      -0.012
      -0.216
      -0.521
      -0.932
      -1.411
      -1.900
      -2.353
      -2.744
      -3.055
      -3.266
      -3.336
      -3.226
      -2.922
      -2.455
      -1.892
      -1.306
      -0.751
      -0.265
       0.133
       0.435
       0.657
       0.836
       1.005
       1.167
       1.302
       1.400
       1.501
       1.688
       2.031
       2.519
       3.045
       3.450
       3.605
       3.467
       3.082
       2.552
       1.978
       1.433
       0.969
       0.620
       0.405
       0.298
       0.222
       0.075
      -0.217
      -0.668
      -1.247
      -1.913
      -2.628
      -3.330
      -3.924
      -4.304
      -4.412
      -4.271
      -3.953
      -3.519
      -2.977
      -2.306
      -1.508
      -0.637
       0.214
       0.958
       1.538
       1.929
       2.125
       2.134
       1.988
       1.753
       1.511
       1.338
       1.276
       1.322
       1.437
       1.566
       1.657
       1.666
       1.558
       1.325
       0.997
       0.644
       0.353
       0.182
       0.129
       0.141
       0.149
       0.103
      -0.024
      -0.246
      -0.572
      -0.994
      -1.475
      -1.960
      -2.401
      -2.778
      -3.091
      -3.319
      -3.399
      -3.256
      -2.861
      -2.270
      -1.607
      -0.981
      -0.423
       0.112
       0.680
       1.281
       1.842
       2.277
       2.546
       2.680
       2.735
       2.741
       2.696
       2.602
       2.482
       2.372
       2.270
       2.128
       1.898
       1.594
       1.302
       1.126
       1.108
       1.191
       1.259
       1.204
       0.977
       0.597
       0.109
      -0.438
      -1.013
      -1.588
      -2.136
      -2.639
      -3.094
      -3.523
      -3.947
      -4.351
      -4.666
      -4.779
      -4.592
      -4.078
      -3.311
      -2.438
      -1.618
      -0.962
      -0.498
      -0.186
       0.045
       0.263
       0.514
       0.817
       1.171
       1.564
       1.977
       2.391
       2.785
       3.132
       3.397
       3.553
       3.607
       3.615
       3.648
       3.740
       3.838
       3.819
       3.558
       3.005
       2.217
       1.324
       0.473
      -0.226
      -0.709
      -0.969
      -1.055
      -1.062
      -1.101
      -1.238
      -1.470
      -1.736
      -1.969
      -2.135
      -2.239
      -2.291
      -2.286
      -2.205
      -2.040
      -1.800
      -1.505
      -1.164
      -0.771
      -0.312
       0.217
       0.808
       1.434
       2.054
       2.617
       3.065
       3.352
       3.465
       3.431
       3.294
       3.089
       2.810
       2.426
       1.904
       1.255
       0.545
      -0.126
      -0.673
      -1.058
      -1.295
      -1.417
      -1.453
      -1.422
      -1.340
      -1.226
      -1.090
      -0.929
      -0.726
      -0.467
      -0.151
       0.200
       0.536
       0.782
       0.872
       0.781
       0.540
       0.213
      -0.142
      -0.497
      -0.839
      -1.141
      -1.362
      -1.468
      -1.461
      -1.372
      -1.235
      -1.068
      -0.882
      -0.697
      -0.543
      -0.432
      -0.331
      -0.167
       0.119
       0.528
       0.992
       1.431
       1.800
       2.109
       2.388
       2.641
       2.839
       2.947
       2.960
       2.903
       2.802
       2.659
       2.450
       2.141
       1.697
       1.077
       0.254
      -0.752
      -1.844
      -2.860
      -3.642
      -4.101
      -4.236
      -4.114
      -3.818
      -3.427
      -3.012
      -2.625
      -2.286
      -1.963
      -1.597
      -1.137
      -0.586
      -0.004
       0.525
       0.942
       1.229
       1.396
       1.445
       1.344
       1.055
       0.570
      -0.055
      -0.707
      -1.252
      -1.571
      -1.594
      -1.325
      -0.836
      -0.257
       0.266
       0.618
       0.747
       0.665
       0.431
       0.127
      -0.168
      -0.390
      -0.488
      -0.419
      -0.145
       0.353
       1.052
       1.874
       2.689
       3.355
       3.761
       3.857
       3.661
       3.235
       2.665
       2.030
       1.397
       0.832
       0.400
       0.157
       0.138
       0.330
       0.666
       1.029
       1.273
       1.263
       0.931
       0.312
      -0.483
      -1.320
      -2.100
      -2.775
      -3.312
      -3.673
      -3.820
      -3.762
      -3.572
      -3.372
      -3.280
      -3.348
      -3.553
      -3.808
      -4.010
      -4.080
      -3.978
      -3.699
      -3.256
      -2.680
      -2.019
      -1.328
      -0.646
       0.016
       0.667
       1.300
       1.870
       2.306
       2.557
       2.628
       2.580
       2.498
       2.446
       2.451
       2.508
       2.601
       2.711
       2.813
       2.866
       2.820
       2.632
       2.292
       1.849
       1.399
       1.056
       0.899
       0.941
       1.133
       1.397
       1.676
       1.949
       2.218
       2.464
       2.631
       2.638
       2.420
       1.972
       1.360
       0.700
       0.113
      -0.319
      -0.564
      -0.622
      -0.488
      -0.156
       0.356
       0.966
       1.526
       1.874
       1.902
       1.607
       1.090
       0.494
      -0.061
      -0.511
      -0.846
      -1.082
      -1.239
      -1.345
      -1.431
      -1.538
      -1.696
      -1.916
      -2.170
      -2.387
      -2.464
      -2.300
      -1.847
      -1.143
      -0.304
       0.536
       1.271
       1.839
       2.187
       2.244
       1.943
       1.269
       0.289
      -0.872
      -2.095
      -3.305
      -4.459
      -5.496
      -6.309
      -6.777
      -6.837
      -6.545
      -6.068
      -5.615
      -5.344
      -5.310
      -5.480
      -5.769
      -6.072
      -6.247
      -6.099
      -5.416
      -4.045
      -1.989
       0.564
       3.276
       5.762
       7.703
       8.929
       9.433
       9.339
       8.823
       8.056
       7.187
       6.332
       5.571
       4.926
       4.353
       3.771
       3.106
       2.333
       1.479
       0.596
      -0.267
      -1.085
      -1.867
      -2.648
      -3.484
      -4.419
      -5.457
      -6.529
      -7.525
      -8.348
      -8.987
      -9.517
     -10.048
     -10.640
     -11.261
     -11.804
     -12.146
     -12.195
     -11.920
     -11.347
     -10.526
      -9.503
      -8.285
      -6.848
      -5.168
      -3.267
      -1.230
       0.825
       2.795
       4.636
       6.358
       7.998
       9.582
      11.105
      12.508
      13.651
      14.317
      14.274
      13.392
      11.756
       9.668
       7.532
       5.685
       4.268
       3.216
       2.354
       1.520
       0.663
      -0.156
      -0.813
      -1.212
      -1.344
      -1.280
      -1.115
      -0.906
      -0.659
      -0.344
       0.068
       0.569
       1.098
       1.558
       1.863
       1.986
       1.973
       1.922
       1.937
       2.105
       2.473
       3.051
       3.823
       4.755
       5.799
       6.886
       7.927
       8.823
       9.507
       9.961
      10.216
      10.324
      10.325
      10.223
       9.981
       9.544
       8.880
       8.023
       7.074
       6.159
       5.367
       4.702
       4.080
       3.366
       2.439
       1.240
      -0.204
      -1.800
      -3.442
      -5.059
      -6.645
      -8.221
      -9.776
     -11.223
     -12.416
     -13.216
     -13.555
     -13.478
     -13.124
     -12.670
     -12.248
     -11.896
     -11.558
     -11.139
     -10.562
      -9.813
      -8.935
      -8.014
      -7.156
      -6.461
      -5.989
      -5.725
      -5.564
      -5.344
      -4.897
      -4.104
      -2.919
      -1.383
       0.387
       2.218
       3.919
       5.333
       6.360
       6.970
       7.174
       7.014
       6.557
       5.898
       5.142
       4.377
       3.630
       2.856
       1.965
       0.898
      -0.322
      -1.598
      -2.830
      -3.991
      -5.140
      -6.355
      -7.647
      -8.905
      -9.930
     -10.521
     -10.577
     -10.143
      -9.375
      -8.444
      -7.444
      -6.356
      -5.090
      -3.571
      -1.812
       0.092
       2.027
       3.925
       5.792
       7.669
       9.585
      11.509
      13.356
      15.001
      16.305
      17.128
      17.336
      16.796
      15.393
      13.085
       9.979
       6.357
       2.611
      -0.875
      -3.827
      -6.107
      -7.688
      -8.607
      -8.949
      -8.830
      -8.386
      -7.756
      -7.078
      -6.481
      -6.083
      -5.981
      -6.218
      -6.770
      -7.539
      -8.378
      -9.142
      -9.734
     -10.113
     -10.250
     -10.094
      -9.575
      -8.648
      -7.343
      -5.785
      -4.161
      -2.645
      -1.311
      -0.092
       1.192
       2.727
       4.609
       6.805
       9.186
      11.594
      13.886
      15.941
      17.643
      18.862
      19.439
      19.201
      18.029
      15.957
      13.241
      10.317
       7.650
       5.552
       4.082
       3.086
       2.314
       1.551
       0.664
      -0.377
      -1.499
      -2.528
      -3.244
      -3.483
      -3.237
      -2.672
      -2.032
      -1.530
      -1.279
      -1.298
      -1.541
      -1.913
      -2.284
      -2.519
      -2.508
      -2.194
      -1.574
      -0.698
       0.327
       1.362
       2.285
       3.048
       3.696
       4.311
       4.928
       5.484
       5.853
       5.941
       5.761
       5.419
       5.034
       4.651
       4.208
       3.577
       2.659
       1.461
       0.109
      -1.217
      -2.387
      -3.394
      -4.330
      -5.310
      -6.367
      -7.409
      -8.270
      -8.807
      -8.976
      -8.845
      -8.544
      -8.185
      -7.816
      -7.421
      -6.952
      -6.361
      -5.610
      -4.674
      -3.535
      -2.195
      -0.695
       0.868
       2.354
       3.634
       4.664
       5.512
       6.302
       7.116
       7.923
       8.571
       8.861
       8.644
       7.880
       6.630
       5.018
       3.184
       1.271
      -0.588
      -2.272
      -3.678
      -4.733
      -5.416
      -5.783
      -5.974
      -6.157
      -6.444
      -6.829
      -7.212
      -7.462
      -7.497
      -7.305
      -6.945
      -6.523
      -6.160
      -5.948
      -5.904
      -5.960
      -6.001
      -5.931
      -5.730
      -5.427
      -5.045
      -4.544
      -3.843
      -2.893
      -1.749
      -0.573
       0.432
       1.121
       1.465
       1.555
       1.548
       1.612
       1.870
       2.367
       3.061
       3.834
       4.540
       5.066
       5.385
       5.570
       5.739
       5.972
       6.242
       6.425
       6.379
       6.042
       5.467
       4.773
       4.065
       3.384
       2.726
       2.089
       1.514
       1.071
       0.822
       0.776
       0.874
       1.004
       1.048
       0.948
       0.724
       0.454
       0.207
       0.001
      -0.196
      -0.416
      -0.635
      -0.771
      -0.738
      -0.532
      -0.262
      -0.094
      -0.122
      -0.282
      -0.368
      -0.146
       0.518
       1.593
       2.905
       4.233
       5.393
       6.282
       6.857
       7.096
       6.979
       6.517
       5.775
       4.865
       3.885
       2.883
       1.868
       0.868
      -0.023
      -0.689
      -1.075
      -1.252
      -1.393
      -1.679
      -2.200
      -2.912
      -3.675
      -4.349
      -4.881
      -5.343
      -5.889
      -6.667
      -7.717
      -8.909
      -9.954
     -10.513
     -10.340
      -9.399
      -7.862
      -6.002
      -4.064
      -2.192
      -0.443
       1.155
       2.560
       3.719
       4.606
       5.260
       5.776
       6.264
       6.788
       7.337
       7.825
       8.140
       8.188
       7.931
       7.377
       6.570
       5.579
       4.500
       3.452
       2.560
       1.917
       1.539
       1.336
       1.134
       0.765
       0.180
      -0.501
      -1.051
      -1.300
      -1.262
      -1.157
      -1.289
      -1.879
      -2.956
      -4.358
      -5.825
      -7.089
      -7.940
      -8.252
      -7.999
      -7.253
      -6.155
      -4.851
      -3.442
      -1.991
      -0.569
       0.694
       1.644
       2.192
       2.389
       2.401
       2.395
       2.419
       2.386
       2.170
       1.746
       1.223
       0.769
       0.496
       0.396
       0.388
       0.403
       0.462
       0.653
       1.049
       1.612
       2.169
       2.489
       2.406
       1.913
       1.145
       0.279
      -0.584
      -1.453
      -2.385
      -3.395
      -4.410
      -5.315
      -6.031
      -6.557
      -6.953
      -7.276
      -7.535
      -7.669
      -7.577
      -7.150
      -6.312
      -5.053
      -3.435
      -1.589
       0.302
       2.050
       3.509
       4.618
       5.410
       5.963
       6.336
       6.538
       6.551
       6.392
       6.152
       5.984
       6.036
       6.367
       6.903
       7.454
       7.777
       7.663
       7.002
       5.816
       4.251
       2.539
       0.925
      -0.416
      -1.447
      -2.273
      -3.076
      -3.991
      -5.014
      -5.993
      -6.713
      -7.012
      -6.855
      -6.322
      -5.548
      -4.660
      -3.766
      -2.961
      -2.328
      -1.922
      -1.746
      -1.751
      -1.865
      -2.013
      -2.127
      -2.134
      -1.953
      -1.517
      -0.800
       0.165
       1.306
       2.539
       3.800
       5.032
       6.164
       7.103
       7.763
       8.096
       8.114
       7.868
       7.431
       6.887
       6.327
       5.840
       5.475
       5.220
       4.995
       4.687
       4.193
       3.456
       2.475
       1.304
       0.038
      -1.205
      -2.316
      -3.222
      -3.918
      -4.461
      -4.946
      -5.464
      -6.079
      -6.811
      -7.640
      -8.498
      -9.259
      -9.767
      -9.886
      -9.559
      -8.837
      -7.845
      -6.726
      -5.600
      -4.536
      -3.531
      -2.514
      -1.380
      -0.038
       1.539
       3.304
       5.157
       6.966
       8.571
       9.802
      10.502
      10.590
      10.108
       9.209
       8.102
       6.970
       5.929
       5.029
       4.279
       3.677
       3.216
       2.865
       2.544
       2.121
       1.458
       0.473
      -0.811
      -2.279
      -3.778
      -5.166
      -6.335
      -7.204
      -7.727
      -7.918
      -7.877
      -7.770
      -7.746
      -7.846
      -7.965
      -7.899
      -7.456
      -6.552
      -5.242
      -3.682
      -2.052
      -0.488
       0.945
       2.242
       3.409
       4.411
       5.169
       5.587
