Origin Time       29/10/2009 19:56:58
Lat.              26.6°N	
Long.             90.0°E	
Depth (Km)         10.0
Magnitude         4.2
 Region           KOKRAJHAR-ASSAM                                                  
 Above details taken from IMD 
     
Station Code      NON
Station Lat.       25.522  N
Station Long.      91.264  E
Station Height(m) 1367.0
Site Class        A   Vs30 between 700 m/sec to 1400 m/sec * 
Record Time       29.10.2009 19:57:34.434
Sampling Rate     200. Hz
 Record Duration   65.985 Sec.
 Direction         E-W (E positive)
Max. Acceleration     -5.831 cm/sec**2
     
  * For reference see Site Classification link of website 
     
 Base Line Corrected and Low Pass Filtered (Cut Off at 35 Hz) Time History
 Acceleration data in cm/sec**2
    
[...]
       0.213
       0.017
      -0.085
      -0.085
      -0.023
       0.041
       0.069
       0.059
       0.033
       0.015
       0.010
      -0.002
      -0.045
      -0.123
      -0.216
      -0.293
      -0.337
      -0.348
      -0.337
      -0.324
      -0.323
      -0.339
      -0.364
      -0.378
      -0.359
      -0.300
      -0.215
      -0.126
      -0.049
       0.019
       0.090
       0.173
       0.265
       0.358
       0.448
       0.534
       0.619
       0.695
       0.741
       0.731
       0.644
       0.480
       0.268
       0.056
      -0.106
      -0.192
      -0.209
      -0.185
      -0.155
      -0.146
      -0.163
      -0.198
      -0.245
      -0.305
      -0.378
      -0.456
      -0.520
      -0.542
      -0.511
      -0.435
      -0.341
      -0.258
      -0.205
      -0.182
      -0.168
      -0.141
      -0.083
       0.004
       0.110
       0.216
       0.310
       0.387
       0.448
       0.495
       0.522
       0.515
       0.462
       0.368
       0.257
       0.163
       0.116
       0.124
       0.166
       0.206
       0.206
       0.154
       0.069
      -0.011
      -0.060
      -0.084
      -0.116
      -0.189
      -0.307
      -0.442
      -0.554
      -0.615
      -0.620
      -0.576
      -0.484
      -0.341
      -0.154
       0.049
       0.220
       0.313
       0.310
       0.230
       0.113
       0.005
      -0.060
      -0.067
      -0.015
       0.082
       0.205
       0.327
       0.422
       0.461
       0.433
       0.346
       0.231
       0.118
       0.026
      -0.044
      -0.099
      -0.141
      -0.164
      -0.160
      -0.127
      -0.076
      -0.027
       0.000
       0.000
      -0.018
      -0.041
      -0.067
      -0.105
      -0.163
      -0.235
      -0.302
      -0.340
      -0.338
      -0.307
      -0.265
      -0.226
      -0.187
      -0.132
      -0.045
       0.076
       0.212
       0.330
       0.402
       0.417
       0.390
       0.348
       0.313
       0.285
       0.248
       0.189
       0.105
       0.013
      -0.063
      -0.104
      -0.106
      -0.085
      -0.067
      -0.068
      -0.087
      -0.109
      -0.119
      -0.118
      -0.115
      -0.119
      -0.129
      -0.137
      -0.143
      -0.158
      -0.193
      -0.241
      -0.270
      -0.245
      -0.158
      -0.036
       0.076
       0.147
       0.176
       0.187
       0.204
       0.229
       0.244
       0.220
       0.150
       0.056
      -0.024
      -0.057
      -0.038
       0.012
       0.058
       0.080
       0.074
       0.062
       0.068
       0.102
       0.151
       0.189
       0.193
       0.156
       0.087
      -0.005
      -0.111
      -0.218
      -0.309
      -0.362
      -0.364
      -0.322
      -0.252
      -0.174
      -0.099
      -0.031
       0.032
       0.088
       0.123
       0.122
       0.076
      -0.004
      -0.089
      -0.147
      -0.159
      -0.127
      -0.064
       0.013
       0.088
       0.150
       0.190
       0.204
       0.192
       0.159
       0.116
       0.081
       0.072
       0.097
       0.143
       0.183
       0.189
       0.156
       0.104
       0.058
       0.024
      -0.010
      -0.064
      -0.138
      -0.214
      -0.266
      -0.285
      -0.280
      -0.269
      -0.263
      -0.259
      -0.244
      -0.213
      -0.171
      -0.134
      -0.111
      -0.095
      -0.069
      -0.021
       0.041
       0.096
       0.118
       0.101
       0.063
       0.044
       0.076
       0.165
       0.279
       0.372
       0.409
       0.386
       0.325
       0.252
       0.180
       0.113
       0.057
       0.026
       0.034
       0.079
       0.137
       0.173
       0.161
       0.087
      -0.036
      -0.182
      -0.318
      -0.407
      -0.430
      -0.384
      -0.293
      -0.185
      -0.086
      -0.009
       0.040
       0.054
       0.029
      -0.035
      -0.121
      -0.212
      -0.288
      -0.344
      -0.374
      -0.369
      -0.309
      -0.190
      -0.028
       0.135
       0.261
       0.338
       0.374
       0.378
       0.348
       0.285
       0.206
       0.141
       0.116
       0.131
       0.168
       0.208
       0.245
       0.286
       0.333
       0.364
       0.350
       0.271
       0.136
      -0.018
      -0.144
      -0.216
      -0.238
      -0.234
      -0.229
      -0.229
      -0.221
      -0.195
      -0.160
      -0.145
      -0.183
      -0.284
      -0.420
      -0.537
      -0.580
      -0.524
      -0.388
      -0.221
      -0.070
       0.040
       0.111
       0.160
       0.199
       0.231
       0.255
       0.272
       0.287
       0.304
       0.320
       0.328
       0.329
       0.332
       0.346
       0.369
       0.387
       0.382
       0.345
       0.280
       0.200
       0.113
       0.019
      -0.092
      -0.220
      -0.357
      -0.480
      -0.566
      -0.600
      -0.582
      -0.523
      -0.438
      -0.340
      -0.242
      -0.152
      -0.082
      -0.041
      -0.036
      -0.060
      -0.094
      -0.111
      -0.095
      -0.045
       0.025
       0.099
       0.171
       0.237
       0.299
       0.354
       0.394
       0.415
       0.416
       0.406
       0.398
       0.402
       0.412
       0.404
       0.351
       0.240
       0.085
      -0.074
      -0.199
      -0.276
      -0.312
      -0.326
      -0.326
      -0.313
      -0.283
      -0.245
      -0.220
      -0.234
      -0.295
      -0.387
      -0.471
      -0.510
      -0.490
      -0.425
      -0.340
      -0.252
      -0.158
      -0.050
       0.069
       0.181
       0.266
       0.320
       0.352
       0.382
       0.420
       0.468
       0.511
       0.522
       0.475
       0.368
       0.233
       0.124
       0.082
       0.111
       0.179
       0.240
       0.259
       0.227
       0.155
       0.059
      -0.051
      -0.169
      -0.284
      -0.380
      -0.433
      -0.425
      -0.366
      -0.286
      -0.229
      -0.225
      -0.273
      -0.344
      -0.402
      -0.424
      -0.403
      -0.349
      -0.270
      -0.171
      -0.048
       0.093
       0.240
       0.366
       0.447
       0.471
       0.449
       0.403
       0.349
       0.288
       0.212
       0.121
       0.033
      -0.026
      -0.043
      -0.024
       0.004
       0.018
       0.008
      -0.018
      -0.046
      -0.058
      -0.046
      -0.012
       0.028
       0.048
       0.029
      -0.026
      -0.093
      -0.144
      -0.159
      -0.143
      -0.118
      -0.106
      -0.115
      -0.136
      -0.151
      -0.148
      -0.121
      -0.075
      -0.015
       0.055
       0.125
       0.182
       0.212
       0.204
       0.155
       0.073
      -0.019
      -0.080
      -0.073
       0.013
       0.144
       0.254
       0.286
       0.229
       0.121
       0.018
      -0.046
      -0.067
      -0.065
      -0.060
      -0.062
      -0.076
      -0.108
      -0.160
      -0.218
      -0.255
      -0.238
      -0.154
      -0.024
       0.108
       0.197
       0.219
       0.175
       0.082
      -0.031
      -0.138
      -0.220
      -0.265
      -0.279
      -0.275
      -0.267
      -0.256
      -0.231
      -0.177
      -0.094
       0.001
       0.078
       0.115
       0.108
       0.075
       0.045
       0.046
       0.093
       0.185
       0.297
       0.396
       0.451
       0.457
       0.425
       0.375
       0.313
       0.232
       0.124
      -0.008
      -0.145
      -0.262
      -0.340
      -0.368
      -0.350
      -0.289
      -0.187
      -0.054
       0.090
       0.207
       0.256
       0.212
       0.086
      -0.081
      -0.235
      -0.337
      -0.376
      -0.364
      -0.328
      -0.293
      -0.275
      -0.270
      -0.271
      -0.270
      -0.267
      -0.258
      -0.231
      -0.168
      -0.064
       0.064
       0.185
       0.271
       0.317
       0.345
       0.387
       0.459
       0.548
       0.621
       0.648
       0.617
       0.534
       0.418
       0.287
       0.164
       0.073
       0.030
       0.031
       0.044
       0.019
      -0.074
      -0.231
      -0.409
      -0.565
      -0.667
      -0.711
      -0.700
      -0.646
      -0.562
      -0.465
      -0.369
      -0.273
      -0.168
      -0.050
       0.069
       0.161
       0.198
       0.174
       0.108
       0.040
       0.006
       0.026
       0.092
       0.178
       0.255
       0.304
       0.324
       0.323
       0.316
       0.316
       0.328
       0.350
       0.367
       0.361
       0.328
       0.275
       0.214
       0.151
       0.075
      -0.028
      -0.162
      -0.312
      -0.445
      -0.532
      -0.558
      -0.527
      -0.457
      -0.373
      -0.300
      -0.257
      -0.243
      -0.243
      -0.238
      -0.212
      -0.159
      -0.082
       0.016
       0.133
       0.262
       0.382
       0.457
       0.452
       0.355
       0.195
       0.029
      -0.086
      -0.133
      -0.134
      -0.125
      -0.124
      -0.124
      -0.106
      -0.059
       0.004
       0.065
       0.109
       0.134
       0.146
       0.150
       0.144
       0.125
       0.097
       0.078
       0.081
       0.104
       0.119
       0.092
       0.010
      -0.099
      -0.183
      -0.200
      -0.146
      -0.055
       0.021
       0.044
       0.006
      -0.074
      -0.164
      -0.240
      -0.292
      -0.325
      -0.340
      -0.333
      -0.298
      -0.235
      -0.162
      -0.101
      -0.068
      -0.062
      -0.066
      -0.052
       0.002
       0.106
       0.248
       0.406
       0.545
       0.640
       0.668
       0.623
       0.509
       0.350
       0.184
       0.052
      -0.030
      -0.074
      -0.114
      -0.170
      -0.234
      -0.272
      -0.257
      -0.191
      -0.110
      -0.056
      -0.051
      -0.085
      -0.134
      -0.179
      -0.221
      -0.268
      -0.312
      -0.331
      -0.300
      -0.212
      -0.091
       0.022
       0.090
       0.108
       0.102
       0.111
       0.158
       0.238
       0.320
       0.373
       0.379
       0.342
       0.282
       0.221
       0.176
       0.155
       0.153
       0.160
       0.162
       0.152
       0.127
       0.086
       0.026
      -0.049
      -0.130
      -0.205
      -0.265
      -0.305
      -0.325
      -0.330
      -0.322
      -0.305
      -0.280
      -0.248
      -0.210
      -0.171
      -0.133
      -0.101
      -0.077
      -0.065
      -0.064
      -0.066
      -0.053
      -0.007
       0.084
       0.214
       0.360
       0.490
       0.572
       0.589
       0.540
       0.446
       0.331
       0.215
       0.106
       0.007
      -0.079
      -0.155
      -0.229
      -0.311
      -0.400
      -0.483
      -0.542
      -0.566
      -0.560
      -0.538
      -0.515
      -0.500
      -0.487
      -0.461
      -0.404
      -0.299
      -0.141
       0.057
       0.267
       0.453
       0.588
       0.668
       0.702
       0.712
       0.716
       0.722
       0.729
       0.728
       0.704
       0.647
       0.561
       0.464
       0.379
       0.313
       0.247
       0.145
      -0.021
      -0.245
      -0.488
      -0.695
      -0.828
      -0.878
      -0.860
      -0.798
      -0.716
      -0.635
      -0.572
      -0.537
      -0.521
      -0.498
      -0.441
      -0.343
      -0.219
      -0.094
       0.013
       0.106
       0.209
       0.338
       0.486
       0.618
       0.696
       0.706
       0.666
       0.609
       0.562
       0.521
       0.462
       0.366
       0.233
       0.078
      -0.076
      -0.216
      -0.328
      -0.405
      -0.438
      -0.423
      -0.365
      -0.285
      -0.221
      -0.217
      -0.294
      -0.428
      -0.565
      -0.649
      -0.667
      -0.643
      -0.609
      -0.578
      -0.534
      -0.455
      -0.338
      -0.200
      -0.067
       0.038
       0.093
       0.090
       0.044
      -0.008
      -0.024
       0.018
       0.110
       0.226
       0.348
       0.463
       0.568
       0.653
       0.705
       0.714
       0.687
       0.659
       0.684
       0.811
       1.050
       1.354
       1.639
       1.829
       1.882
       1.792
       1.579
       1.267
       0.887
       0.473
       0.052
      -0.358
      -0.750
      -1.110
      -1.418
      -1.650
      -1.787
      -1.819
      -1.750
      -1.594
      -1.381
      -1.156
      -0.982
      -0.913
      -0.966
      -1.105
      -1.258
      -1.354
      -1.353
      -1.259
      -1.096
      -0.887
      -0.641
      -0.355
      -0.030
       0.323
       0.681
       1.020
       1.331
       1.619
       1.895
       2.165
       2.417
       2.633
       2.793
       2.879
       2.866
       2.718
       2.398
       1.887
       1.196
       0.372
      -0.519
      -1.410
      -2.247
      -2.990
      -3.611
      -4.088
      -4.401
      -4.538
      -4.495
      -4.283
      -3.918
      -3.413
      -2.771
      -2.000
      -1.125
      -0.192
       0.739
       1.614
       2.389
       3.031
       3.527
       3.879
       4.108
       4.246
       4.324
       4.359
       4.356
       4.304
       4.173
       3.914
       3.480
       2.853
       2.058
       1.160
       0.236
      -0.645
      -1.451
      -2.187
      -2.879
      -3.550
      -4.191
      -4.776
      -5.268
      -5.632
      -5.831
      -5.823
      -5.591
      -5.158
      -4.578
      -3.906
      -3.162
      -2.336
      -1.408
      -0.377
       0.721
       1.817
       2.827
       3.675
       4.313
       4.739
       4.988
       5.108
       5.143
       5.116
       5.025
       4.847
       4.550
       4.113
       3.538
       2.848
       2.066
       1.212
       0.305
      -0.616
      -1.503
      -2.313
      -3.027
      -3.639
      -4.129
      -4.459
      -4.585
      -4.482
      -4.152
      -3.632
      -2.986
      -2.296
      -1.641
      -1.073
      -0.612
      -0.256
       0.010
       0.208
       0.366
       0.512
       0.656
       0.795
       0.927
       1.062
       1.217
       1.391
       1.549
       1.634
       1.598
       1.438
       1.199
       0.958
       0.776
       0.673
       0.619
       0.574
       0.513
       0.444
       0.384
       0.332
       0.270
       0.184
       0.087
       0.014
      -0.007
       0.028
       0.099
       0.174
       0.219
       0.198
       0.089
      -0.100
      -0.327
      -0.540
      -0.703
      -0.808
      -0.866
      -0.897
      -0.927
      -0.983
      -1.084
      -1.213
      -1.317
      -1.332
      -1.228
      -1.032
      -0.812
      -0.635
      -0.528
      -0.463
      -0.378
      -0.210
       0.071
       0.462
       0.934
       1.445
       1.948
       2.377
       2.653
       2.703
       2.492
       2.042
       1.427
       0.732
       0.024
      -0.657
      -1.281
      -1.807
      -2.176
      -2.318
      -2.186
      -1.785
      -1.192
      -0.534
       0.057
       0.500
       0.775
       0.913
       0.944
       0.878
       0.711
       0.454
       0.159
      -0.087
      -0.198
      -0.140
       0.042
       0.237
       0.323
       0.230
      -0.023
      -0.349
      -0.647
      -0.855
      -0.962
      -0.986
      -0.951
      -0.881
      -0.800
      -0.731
      -0.678
      -0.631
      -0.568
      -0.468
      -0.320
      -0.110
       0.174
       0.539
       0.971
       1.434
       1.869
       2.207
       2.382
       2.354
       2.128
       1.771
       1.385
       1.069
       0.878
       0.814
       0.832
       0.859
       0.813
       0.633
       0.307
      -0.132
      -0.636
      -1.190
      -1.822
      -2.562
      -3.392
      -4.212
      -4.873
      -5.232
      -5.207
      -4.792
      -4.043
      -3.055
      -1.934
      -0.777
       0.342
       1.369
       2.257
       2.967
       3.481
       3.816
       4.012
       4.100
       4.090
       3.976
       3.756
       3.441
       3.055
       2.617
       2.132
       1.597
       1.009
       0.379
      -0.265
      -0.892
      -1.477
      -2.011
      -2.492
      -2.913
      -3.253
      -3.475
      -3.531
      -3.382
      -3.014
      -2.450
      -1.757
      -1.027
      -0.349
       0.218
       0.653
       0.957
       1.139
       1.196
       1.120
       0.914
       0.606
       0.256
      -0.062
      -0.281
      -0.370
      -0.342
      -0.234
      -0.087
       0.076
       0.246
       0.421
       0.592
       0.751
       0.900
       1.053
       1.229
       1.441
       1.676
       1.897
       2.057
       2.111
       2.032
       1.807
       1.447
       0.990
       0.494
       0.024
      -0.368
      -0.665
      -0.884
      -1.068
      -1.266
      -1.512
      -1.808
      -2.120
      -2.390
      -2.550
      -2.549
      -2.375
      -2.059
      -1.669
      -1.290
      -0.993
      -0.827
      -0.800
      -0.877
      -0.984
      -1.023
      -0.904
      -0.587
      -0.105
       0.457
       0.992
       1.423
       1.715
       1.874
       1.927
       1.907
       1.843
       1.760
       1.673
       1.587
       1.503
       1.426
       1.363
       1.323
       1.303
       1.286
       1.248
       1.160
       1.009
       0.795
       0.533
       0.232
      -0.123
      -0.577
      -1.170
      -1.889
      -2.649
      -3.331
      -3.831
      -4.101
      -4.143
      -3.969
      -3.582
      -2.976
      -2.161
      -1.197
      -0.192
       0.720
       1.433
       1.912
       2.202
       2.389
       2.539
       2.667
       2.749
       2.757
       2.698
       2.607
       2.521
       2.448
       2.365
       2.230
       2.005
       1.670
       1.231
       0.708
       0.133
      -0.458
      -1.025
      -1.526
      -1.929
      -2.224
      -2.426
      -2.568
      -2.679
      -2.755
      -2.765
      -2.669
      -2.447
      -2.126
      -1.772
      -1.453
      -1.198
      -0.962
      -0.655
      -0.200
       0.403
       1.060
       1.625
       1.976
       2.070
       1.942
       1.676
       1.358
       1.057
       0.812
       0.634
       0.509
       0.421
       0.370
       0.384
       0.499
       0.718
       0.988
       1.209
       1.282
       1.154
       0.839
       0.391
      -0.118
      -0.622
      -1.055
      -1.356
      -1.494
      -1.476
      -1.347
      -1.156
      -0.931
      -0.681
      -0.417
      -0.179
      -0.029
      -0.027
      -0.190
      -0.476
      -0.801
      -1.072
      -1.213
      -1.190
      -1.006
      -0.701
      -0.335
       0.036
       0.382
       0.708
       1.035
       1.360
       1.648
       1.848
       1.935
       1.923
       1.851
       1.747
       1.615
       1.433
       1.181
       0.850
       0.454
       0.017
      -0.432
      -0.866
      -1.259
      -1.579
      -1.799
      -1.917
      -1.969
      -2.005
      -2.062
      -2.129
      -2.161
      -2.106
      -1.936
      -1.653
      -1.279
      -0.842
      -0.369
       0.121
       0.614
       1.097
       1.549
       1.931
       2.200
