Origin Time       11/8/2009 21:43:39 
Lat.              24.4 N 
Long.             94.8 E 
Depth (Km)         22.0
Magnitude         5.6
 Region           MYANMAR-INDIA(MANIPUR)BORDER                                     
 Above details taken from IMD 
     
Station Code      NON
Station Lat.       25.522  N
Station Long.      91.264  E
Station Height(m) 1367.0
Site Class        A   Vs30 between 700 m/sec to 1400 m/sec * 
Record Time       11.08.2009 21:44:57.184
Sampling Rate     200. Hz
 Record Duration   79.040 Sec.
 Direction         E-W (E positive)
Max. Acceleration     14.647 cm/sec**2
     
  * For reference see Site Classification link of website 
     
 Base Line Corrected and Low Pass Filtered (Cut Off at 35 Hz) Time History
 Acceleration data in cm/sec**2
    
[...]
      -1.720
      -2.029
      -2.009
      -1.694
      -1.220
      -0.770
      -0.504
      -0.501
      -0.736
      -1.098
      -1.440
      -1.631
      -1.581
      -1.238
      -0.601
       0.256
       1.167
       1.915
       2.346
       2.442
       2.296
       2.005
       1.590
       1.016
       0.314
      -0.347
      -0.722
      -0.666
      -0.282
       0.131
       0.284
       0.101
      -0.267
      -0.598
      -0.770
      -0.791
      -0.715
      -0.556
      -0.293
       0.052
       0.367
       0.513
       0.443
       0.265
       0.156
       0.207
       0.343
       0.389
       0.220
      -0.142
      -0.567
      -0.897
      -1.028
      -0.931
      -0.652
      -0.300
       0.004
       0.200
       0.318
       0.428
       0.549
       0.615
       0.539
       0.312
       0.031
      -0.151
      -0.127
       0.095
       0.394
       0.613
       0.665
       0.576
       0.434
       0.284
       0.095
      -0.173
      -0.499
      -0.783
      -0.910
      -0.803
      -0.443
       0.098
       0.637
       0.928
       0.804
       0.301
      -0.352
      -0.897
      -1.205
      -1.315
      -1.325
      -1.280
      -1.128
      -0.785
      -0.220
       0.485
       1.154
       1.591
       1.675
       1.415
       0.924
       0.361
      -0.124
      -0.412
      -0.439
      -0.240
       0.057
       0.298
       0.411
       0.425
       0.406
       0.369
       0.285
       0.140
      -0.025
      -0.139
      -0.160
      -0.103
      -0.009
       0.086
       0.185
       0.310
       0.478
       0.655
       0.765
       0.727
       0.497
       0.078
      -0.490
      -1.117
      -1.652
      -1.921
      -1.814
      -1.370
      -0.773
      -0.254
       0.037
       0.091
      -0.001
      -0.126
      -0.213
      -0.245
      -0.244
      -0.235
      -0.217
      -0.152
       0.006
       0.260
       0.549
       0.778
       0.870
       0.821
       0.699
       0.591
       0.541
       0.528
       0.514
       0.495
       0.511
       0.597
       0.734
       0.842
       0.826
       0.636
       0.305
      -0.065
      -0.356
      -0.510
      -0.548
      -0.536
      -0.524
      -0.510
      -0.471
      -0.395
      -0.318
      -0.311
      -0.449
      -0.749
      -1.133
      -1.450
      -1.555
      -1.396
      -1.021
      -0.515
       0.053
       0.645
       1.214
       1.684
       1.942
       1.896
       1.533
       0.967
       0.389
      -0.035
      -0.266
      -0.371
      -0.410
      -0.367
      -0.206
       0.036
       0.236
       0.284
       0.183
       0.023
      -0.117
      -0.243
      -0.416
      -0.665
      -0.918
      -1.026
      -0.856
      -0.400
       0.189
       0.678
       0.904
       0.853
       0.636
       0.380
       0.158
       0.014
      -0.021
       0.057
       0.188
       0.275
       0.260
       0.169
       0.072
       0.004
      -0.073
      -0.239
      -0.532
      -0.902
      -1.220
      -1.351
      -1.217
      -0.840
      -0.318
       0.222
       0.670
       0.952
       1.028
       0.905
       0.644
       0.333
       0.047
      -0.177
      -0.314
      -0.335
      -0.227
      -0.037
       0.136
       0.224
       0.249
       0.307
       0.463
       0.682
       0.852
       0.869
       0.713
       0.454
       0.208
       0.077
       0.100
       0.227
       0.331
       0.286
       0.046
      -0.327
      -0.714
      -1.021
      -1.214
      -1.303
      -1.310
      -1.258
      -1.172
      -1.075
      -0.974
      -0.860
      -0.732
      -0.599
      -0.470
      -0.331
      -0.149
       0.086
       0.344
       0.577
       0.775
       0.983
       1.235
       1.494
       1.659
       1.651
       1.485
       1.246
       1.006
       0.770
       0.490
       0.123
      -0.323
      -0.780
      -1.133
      -1.276
      -1.172
      -0.887
      -0.557
      -0.314
      -0.229
      -0.296
      -0.460
      -0.631
      -0.706
      -0.600
      -0.280
       0.215
       0.784
       1.291
       1.616
       1.706
       1.587
       1.326
       0.977
       0.551
       0.052
      -0.472
      -0.911
      -1.157
      -1.188
      -1.099
      -1.048
      -1.140
      -1.347
      -1.511
      -1.442
      -1.061
      -0.488
       0.002
       0.154
      -0.102
      -0.590
      -0.993
      -1.043
      -0.668
      -0.015
       0.670
       1.215
       1.621
       1.994
       2.387
       2.693
       2.703
       2.285
       1.528
       0.705
       0.115
      -0.090
       0.035
       0.287
       0.439
       0.356
       0.060
      -0.305
      -0.593
      -0.757
      -0.875
      -1.057
      -1.328
      -1.587
      -1.677
      -1.517
      -1.178
      -0.846
      -0.709
      -0.834
      -1.121
      -1.350
      -1.303
      -0.895
      -0.225
       0.493
       1.072
       1.450
       1.695
       1.935
       2.266
       2.690
       3.094
       3.301
       3.180
       2.721
       2.021
       1.188
       0.279
      -0.675
      -1.602
      -2.389
      -2.951
      -3.293
      -3.484
      -3.569
      -3.535
      -3.357
      -3.052
      -2.656
      -2.159
      -1.500
      -0.674
       0.190
       0.887
       1.305
       1.528
       1.757
       2.110
       2.509
       2.742
       2.650
       2.254
       1.722
       1.225
       0.847
       0.586
       0.424
       0.345
       0.315
       0.259
       0.106
      -0.123
      -0.285
      -0.203
       0.170
       0.669
       1.012
       1.002
       0.670
       0.223
      -0.144
      -0.386
      -0.596
      -0.873
      -1.201
      -1.459
      -1.549
      -1.529
      -1.605
      -1.951
      -2.535
      -3.098
      -3.317
      -2.993
      -2.134
      -0.912
       0.425
       1.631
       2.536
       3.108
       3.461
       3.760
       4.069
       4.276
       4.175
       3.644
       2.754
       1.711
       0.709
      -0.178
      -0.965
      -1.664
      -2.230
      -2.615
      -2.849
      -3.056
      -3.344
      -3.693
      -3.927
      -3.823
      -3.261
      -2.314
      -1.223
      -0.265
       0.395
       0.754
       0.913
       0.966
       0.943
       0.836
       0.648
       0.392
       0.085
      -0.249
      -0.537
      -0.660
      -0.528
      -0.149
       0.377
       0.940
       1.491
       2.030
       2.548
       3.003
       3.359
       3.620
       3.822
       3.957
       3.920
       3.546
       2.733
       1.563
       0.292
      -0.808
      -1.635
      -2.281
      -2.885
      -3.459
      -3.877
      -4.022
      -3.919
      -3.713
      -3.495
      -3.179
      -2.563
      -1.546
      -0.304
       0.772
       1.328
       1.300
       0.945
       0.613
       0.482
       0.459
       0.340
       0.031
      -0.367
      -0.626
      -0.534
      -0.009
       0.855
       1.799
       2.494
       2.687
       2.337
       1.652
       0.978
       0.615
       0.646
       0.901
       1.088
       1.011
       0.719
       0.460
       0.458
       0.703
       0.932
       0.834
       0.302
      -0.490
      -1.237
      -1.723
      -1.937
      -2.010
      -2.083
      -2.216
      -2.381
      -2.495
      -2.480
      -2.343
      -2.207
      -2.228
      -2.421
      -2.559
      -2.282
      -1.346
       0.190
       1.998
       3.690
       5.023
       5.936
       6.431
       6.446
       5.841
       4.547
       2.703
       0.681
      -1.053
      -2.131
      -2.402
      -1.948
      -1.042
      -0.072
       0.575
       0.656
       0.168
      -0.671
      -1.561
      -2.289
      -2.814
      -3.213
      -3.550
      -3.793
      -3.843
      -3.638
      -3.225
      -2.748
      -2.342
      -2.045
      -1.779
      -1.410
      -0.837
      -0.047
       0.891
       1.874
       2.811
       3.656
       4.403
       5.019
       5.387
       5.327
       4.738
       3.751
       2.701
       1.911
       1.477
       1.249
       1.020
       0.688
       0.264
      -0.228
      -0.805
      -1.465
      -2.096
      -2.486
      -2.476
      -2.128
      -1.730
      -1.596
      -1.810
      -2.165
      -2.344
      -2.202
      -1.874
      -1.621
      -1.578
      -1.653
      -1.629
      -1.339
      -0.757
       0.027
       0.876
       1.635
       2.152
       2.307
       2.068
       1.525
       0.845
       0.180
      -0.423
      -1.032
      -1.732
      -2.515
      -3.237
      -3.710
      -3.832
      -3.643
      -3.261
      -2.763
      -2.123
      -1.257
      -0.160
       1.008
       1.991
       2.638
       3.081
       3.672
       4.683
       6.019
       7.196
       7.650
       7.116
       5.788
       4.173
       2.754
       1.745
       1.067
       0.535
       0.060
      -0.319
      -0.569
      -0.814
      -1.320
      -2.300
      -3.687
      -5.097
      -6.025
      -6.173
      -5.616
      -4.688
      -3.681
      -2.658
      -1.522
      -0.268
       0.900
       1.686
       1.938
       1.764
       1.448
       1.275
       1.409
       1.857
       2.493
       3.100
       3.454
       3.444
       3.122
       2.648
       2.144
       1.600
       0.892
      -0.104
      -1.389
      -2.776
      -3.946
      -4.602
      -4.648
      -4.227
      -3.625
      -3.103
      -2.803
      -2.758
      -2.918
      -3.148
      -3.225
      -2.939
      -2.260
      -1.409
      -0.717
      -0.340
      -0.093
       0.422
       1.486
       3.025
       4.682
       6.096
       7.117
       7.800
       8.245
       8.469
       8.410
       7.989
       7.126
       5.723
       3.707
       1.176
      -1.490
      -3.706
      -4.989
      -5.256
      -4.867
      -4.367
      -4.118
      -4.137
      -4.223
      -4.218
      -4.156
      -4.198
      -4.429
      -4.736
      -4.882
      -4.724
      -4.361
      -4.047
      -3.924
      -3.850
      -3.503
      -2.678
      -1.474
      -0.191
       0.933
       1.897
       2.856
       3.924
       5.037
       5.980
       6.531
       6.583
       6.186
       5.498
       4.687
       3.849
       2.982
       2.045
       1.053
       0.124
      -0.571
      -0.921
      -0.932
      -0.697
      -0.314
       0.143
       0.582
       0.850
       0.770
       0.217
      -0.823
      -2.265
      -3.956
      -5.705
      -7.274
      -8.379
      -8.734
      -8.171
      -6.763
      -4.836
      -2.844
      -1.150
       0.137
       1.180
       2.261
       3.561
       5.009
       6.347
       7.332
       7.909
       8.211
       8.401
       8.513
       8.422
       7.951
       7.002
       5.627
       4.007
       2.367
       0.858
      -0.512
      -1.857
      -3.281
      -4.722
      -5.936
      -6.643
      -6.757
      -6.485
      -6.207
      -6.244
      -6.690
      -7.420
      -8.196
      -8.806
      -9.135
      -9.151
      -8.818
      -8.036
      -6.666
      -4.662
      -2.165
       0.516
       3.053
       5.242
       7.036
       8.456
       9.511
      10.210
      10.638
      10.951
      11.258
      11.528
      11.647
      11.563
      11.321
      10.929
      10.214
       8.890
       6.807
       4.131
       1.271
      -1.385
      -3.674
      -5.664
      -7.506
      -9.284
     -10.940
     -12.271
     -12.997
     -12.853
     -11.729
      -9.777
      -7.416
      -5.171
      -3.405
      -2.143
      -1.141
      -0.153
       0.857
       1.703
       2.156
       2.130
       1.724
       1.128
       0.505
      -0.058
      -0.520
      -0.863
      -1.133
      -1.489
      -2.165
      -3.317
      -4.819
      -6.187
      -6.738
      -5.946
      -3.775
      -0.741
       2.361
       4.863
       6.472
       7.246
       7.386
       7.064
       6.370
       5.402
       4.362
       3.577
       3.375
       3.898
       4.997
       6.284
       7.316
       7.826
       7.864
       7.758
       7.838
       8.109
       8.130
       7.248
       5.058
       1.721
      -2.084
      -5.563
      -8.241
     -10.108
     -11.425
     -12.369
     -12.826
     -12.498
     -11.206
      -9.136
      -6.851
      -5.043
      -4.202
      -4.392
      -5.244
      -6.140
      -6.519
      -6.149
      -5.186
      -3.989
      -2.819
      -1.680
      -0.384
       1.244
       3.228
       5.443
       7.694
       9.775
      11.481
      12.639
      13.133
      12.911
      11.967
      10.336
       8.126
       5.529
       2.762
      -0.001
      -2.658
      -5.121
      -7.239
      -8.783
      -9.524
      -9.391
      -8.595
      -7.567
      -6.703
      -6.078
      -5.397
      -4.248
      -2.464
      -0.247
       2.006
       3.992
       5.635
       7.003
       8.141
       8.968
       9.284
       8.841
       7.466
       5.184
       2.322
      -0.513
      -2.615
      -3.492
      -3.138
      -2.039
      -0.862
      -0.024
       0.509
       1.048
       1.788
       2.536
       2.801
       2.159
       0.609
      -1.375
      -3.119
      -4.158
      -4.472
      -4.430
      -4.519
      -5.038
      -5.931
      -6.861
      -7.473
      -7.664
      -7.635
      -7.676
      -7.860
      -7.892
      -7.228
      -5.397
      -2.333
       1.518
       5.410
       8.704
      11.167
      12.933
      14.143
      14.647
      14.063
      12.182
       9.336
       6.322
       3.931
       2.467
       1.660
       0.965
      -0.070
      -1.620
      -3.588
      -5.684
      -7.530
      -8.823
      -9.454
      -9.478
      -8.941
      -7.759
      -5.782
      -3.021
       0.174
       3.166
       5.290
       6.161
       5.826
       4.724
       3.469
       2.572
       2.237
       2.325
       2.474
       2.263
       1.380
      -0.232
      -2.264
      -4.089
      -5.024
      -4.711
      -3.371
      -1.714
      -0.540
      -0.264
      -0.693
      -1.214
      -1.259
      -0.717
       0.038
       0.513
       0.513
       0.227
      -0.076
      -0.420
      -1.150
      -2.591
      -4.675
      -6.879
      -8.473
      -8.861
      -7.809
      -5.510
      -2.469
       0.741
       3.717
       6.286
       8.393
       9.977
      10.974
      11.388
      11.252
      10.533
       9.142
       7.133
       4.881
       2.979
       1.833
       1.331
       0.916
       0.045
      -1.369
      -2.930
      -4.132
      -4.766
      -5.017
      -5.214
      -5.478
      -5.583
      -5.130
      -3.866
      -1.863
       0.537
       2.897
       4.817
       5.981
       6.192
       5.425
       3.834
       1.678
      -0.786
      -3.320
      -5.649
      -7.446
      -8.444
      -8.566
      -7.925
      -6.714
      -5.167
      -3.626
      -2.585
      -2.565
      -3.808
      -6.042
      -8.509
     -10.294
     -10.744
      -9.715
      -7.506
      -4.567
      -1.218
       2.388
       6.089
       9.507
      12.079
      13.321
      13.129
      11.870
      10.186
       8.639
       7.450
       6.498
       5.571
       4.657
       3.995
       3.844
       4.204
       4.744
       4.985
       4.568
       3.444
       1.909
       0.483
      -0.381
      -0.605
      -0.581
      -0.939
      -2.139
      -4.196
      -6.710
      -9.100
     -10.842
     -11.613
     -11.341
     -10.230
      -8.695
      -7.204
      -6.067
      -5.299
      -4.673
      -3.908
      -2.863
      -1.565
      -0.100
       1.532
       3.440
       5.694
       8.110
      10.184
      11.255
      10.863
       9.036
       6.329
       3.571
       1.494
       0.440
       0.316
       0.778
       1.457
       2.063
       2.346
       2.080
       1.134
      -0.426
      -2.342
      -4.267
      -5.867
      -6.892
      -7.228
      -6.933
      -6.202
      -5.235
      -4.085
      -2.612
      -0.638
       1.803
       4.297
       6.167
       6.797
       5.961
       3.951
       1.459
      -0.700
      -1.865
      -1.704
      -0.214
       2.346
       5.500
       8.547
      10.666
      11.188
       9.932
       7.315
       4.114
       1.042
      -1.524
      -3.507
      -4.922
      -5.743
      -6.001
      -5.939
      -5.997
      -6.546
      -7.603
      -8.841
      -9.863
     -10.456
     -10.567
     -10.109
      -8.920
      -6.929
      -4.377
      -1.824
       0.124
       1.201
       1.698
       2.293
       3.555
       5.457
       7.290
       8.121
       7.486
       5.795
       4.104
       3.416
       4.068
       5.614
       7.232
       8.268
       8.543
       8.261
       7.690
       6.902
       5.746
       4.008
       1.620
      -1.224
      -4.065
      -6.297
      -7.365
      -7.010
      -5.455
      -3.407
      -1.802
      -1.345
      -2.118
      -3.526
      -4.690
      -5.032
      -4.633
      -4.091
      -4.007
      -4.481
      -5.022
      -4.946
      -3.930
      -2.282
      -0.684
       0.353
       0.845
       1.201
       1.749
       2.364
       2.537
       1.827
       0.361
      -1.051
      -1.371
      -0.063
       2.476
       5.150
       6.868
       7.108
       5.955
       3.768
       0.936
      -2.059
      -4.521
      -5.714
      -5.290
      -3.584
      -1.440
       0.292
       1.174
       1.225
       0.695
      -0.188
      -1.283
      -2.472
      -3.574
      -4.345
      -4.530
      -3.951
      -2.594
      -0.675
       1.379
       3.064
       4.016
       4.170
       3.748
       3.068
       2.329
       1.521
       0.546
      -0.543
      -1.403
      -1.554
      -0.739
       0.793
       2.386
       3.438
       3.850
       4.048
       4.543
       5.404
       6.131
       6.073
       5.003
       3.341
       1.858
       1.127
       1.160
       1.434
       1.257
       0.220
      -1.530
      -3.406
      -4.816
      -5.594
      -6.073
      -6.721
      -7.667
      -8.534
      -8.729
      -7.948
      -6.468
      -4.968
      -4.034
      -3.737
      -3.616
      -3.049
      -1.697
       0.319
       2.589
       4.711
       6.443
       7.658
       8.235
       8.062
       7.166
       5.827
       4.520
       3.695
       3.533
       3.859
       4.284
       4.466
       4.275
       3.746
       2.946
       1.919
       0.763
      -0.322
      -1.146
      -1.714
      -2.274
      -3.114
      -4.285
      -5.496
      -6.316
      -6.490
      -6.104
      -5.490
      -4.967
      -4.667
      -4.541
      -4.515
      -4.596
      -4.826
      -5.170
      -5.471
      -5.516
      -5.154
      -4.328
      -3.061
      -1.418
       0.496
       2.539
       4.561
       6.420
       7.974
       9.043
       9.426
       9.007
       7.901
       6.519
       5.420
       5.020
       5.326
       5.900
       6.075
       5.312
       3.496
       0.996
      -1.528
      -3.478
      -4.604
      -5.045
      -5.124
      -5.052
      -4.780
      -4.105
      -2.916
      -1.383
       0.071
       0.974
       1.015
       0.138
      -1.465
      -3.393
      -5.097
      -6.032
      -5.913
      -4.904
      -3.568
      -2.535
