Origin Time       3/9/2009 19:51:08	 
Lat.              24.3 N	
Long.             94.6 E	
Depth (Km)        100.0
Magnitude         5.9
 Region           MYANMAR-India-Manipuir-Border                                    
 Above details taken from IMD 
     
Station Code      NON
Station Lat.       25.522  N
Station Long.      91.264  E
Station Height(m) 1367.0
Site Class        A   Vs30 between 700 m/sec to 1400 m/sec * 
Record Time       03.09.2009 19:52:18.034
Sampling Rate     200. Hz
 Record Duration   73.475 Sec.
 Direction         E-W (E positive)
Max. Acceleration      8.887 cm/sec**2
     
  * For reference see Site Classification link of website 
     
 Base Line Corrected and Low Pass Filtered (Cut Off at 35 Hz) Time History
 Acceleration data in cm/sec**2
    
[...]
      -0.061
       0.017
       0.177
       0.368
       0.527
       0.644
       0.739
       0.802
       0.771
       0.594
       0.290
      -0.047
      -0.293
      -0.364
      -0.252
      -0.026
       0.198
       0.326
       0.328
       0.240
       0.111
      -0.042
      -0.216
      -0.381
      -0.475
      -0.442
      -0.282
      -0.055
       0.139
       0.211
       0.129
      -0.053
      -0.230
      -0.333
      -0.372
      -0.405
      -0.453
      -0.466
      -0.386
      -0.221
      -0.052
       0.056
       0.113
       0.173
       0.259
       0.334
       0.353
       0.330
       0.330
       0.400
       0.502
       0.540
       0.453
       0.259
       0.025
      -0.189
      -0.363
      -0.483
      -0.505
      -0.375
      -0.090
       0.245
       0.452
       0.408
       0.170
      -0.051
      -0.062
       0.139
       0.359
       0.384
       0.174
      -0.112
      -0.281
      -0.298
      -0.301
      -0.434
      -0.671
      -0.823
      -0.722
      -0.395
      -0.064
       0.043
      -0.116
      -0.361
      -0.461
      -0.349
      -0.167
      -0.115
      -0.256
      -0.453
      -0.505
      -0.317
       0.041
       0.424
       0.725
       0.914
       0.996
       0.974
       0.859
       0.698
       0.578
       0.575
       0.688
       0.813
       0.794
       0.542
       0.123
      -0.274
      -0.481
      -0.487
      -0.432
      -0.453
      -0.556
      -0.625
      -0.561
      -0.393
      -0.255
      -0.259
      -0.406
      -0.615
      -0.815
      -0.995
      -1.147
      -1.209
      -1.074
      -0.694
      -0.150
       0.393
       0.809
       1.083
       1.261
       1.336
       1.235
       0.923
       0.498
       0.153
       0.030
       0.119
       0.293
       0.420
       0.459
       0.461
       0.490
       0.548
       0.555
       0.416
       0.113
      -0.277
      -0.648
      -0.931
      -1.091
      -1.087
      -0.881
      -0.505
      -0.090
       0.196
       0.269
       0.174
       0.024
      -0.104
      -0.185
      -0.219
      -0.197
      -0.126
      -0.037
       0.028
       0.051
       0.048
       0.047
       0.083
       0.178
       0.324
       0.470
       0.538
       0.476
       0.299
       0.072
      -0.139
      -0.299
      -0.399
      -0.415
      -0.308
      -0.053
       0.308
       0.650
       0.822
       0.745
       0.473
       0.152
      -0.095
      -0.257
      -0.406
      -0.596
      -0.778
      -0.826
      -0.654
      -0.301
       0.070
       0.294
       0.324
       0.253
       0.215
       0.245
       0.257
       0.138
      -0.124
      -0.420
      -0.621
      -0.679
      -0.639
      -0.569
      -0.483
      -0.347
      -0.147
       0.064
       0.209
       0.261
       0.276
       0.338
       0.471
       0.626
       0.717
       0.699
       0.596
       0.480
       0.414
       0.412
       0.425
       0.389
       0.274
       0.122
       0.011
      -0.020
      -0.016
      -0.080
      -0.275
      -0.553
      -0.783
      -0.852
      -0.750
      -0.557
      -0.363
      -0.212
      -0.109
      -0.062
      -0.086
      -0.176
      -0.302
      -0.425
      -0.506
      -0.517
      -0.435
      -0.269
      -0.050
       0.197
       0.469
       0.753
       0.991
       1.113
       1.098
       0.991
       0.833
       0.601
       0.237
      -0.256
      -0.757
      -1.093
      -1.159
      -0.991
      -0.718
      -0.454
      -0.217
       0.025
       0.256
       0.358
       0.200
      -0.223
      -0.717
      -0.999
      -0.891
      -0.449
       0.083
       0.448
       0.539
       0.442
       0.335
       0.329
       0.387
       0.368
       0.172
      -0.162
      -0.472
      -0.609
      -0.534
      -0.320
      -0.055
       0.211
       0.445
       0.594
       0.612
       0.515
       0.385
       0.301
       0.256
       0.175
       0.003
      -0.210
      -0.330
      -0.260
      -0.041
       0.173
       0.257
       0.229
       0.210
       0.261
       0.301
       0.203
      -0.038
      -0.264
      -0.295
      -0.092
       0.223
       0.475
       0.561
       0.488
       0.343
       0.223
       0.165
       0.122
       0.013
      -0.196
      -0.446
      -0.625
      -0.644
      -0.491
      -0.223
       0.062
       0.260
       0.310
       0.223
       0.081
      -0.032
      -0.088
      -0.134
      -0.230
      -0.391
      -0.555
      -0.626
      -0.533
      -0.294
      -0.011
       0.184
       0.228
       0.177
       0.158
       0.261
       0.460
       0.629
       0.648
       0.491
       0.226
      -0.055
      -0.289
      -0.430
      -0.422
      -0.234
       0.077
       0.356
       0.443
       0.297
       0.030
      -0.170
      -0.185
      -0.050
       0.086
       0.089
      -0.057
      -0.251
      -0.358
      -0.302
      -0.116
       0.077
       0.134
      -0.020
      -0.353
      -0.743
      -1.049
      -1.156
      -1.013
      -0.636
      -0.125
       0.368
       0.697
       0.786
       0.658
       0.416
       0.194
       0.101
       0.170
       0.341
       0.477
       0.445
       0.206
      -0.156
      -0.493
      -0.700
      -0.759
      -0.698
      -0.538
      -0.286
       0.026
       0.317
       0.479
       0.438
       0.208
      -0.110
      -0.385
      -0.517
      -0.473
      -0.290
      -0.049
       0.162
       0.288
       0.348
       0.423
       0.580
       0.785
       0.881
       0.703
       0.240
      -0.302
      -0.633
      -0.598
      -0.305
      -0.043
      -0.049
      -0.317
      -0.610
      -0.648
      -0.338
       0.157
       0.548
       0.629
       0.393
      -0.008
      -0.381
      -0.603
      -0.662
      -0.620
      -0.530
      -0.374
      -0.085
       0.347
       0.808
       1.116
       1.159
       0.982
       0.735
       0.536
       0.403
       0.297
       0.215
       0.209
       0.317
       0.501
       0.658
       0.697
       0.608
       0.447
       0.271
       0.084
      -0.152
      -0.472
      -0.867
      -1.266
      -1.543
      -1.569
      -1.286
      -0.784
      -0.277
       0.009
      -0.018
      -0.251
      -0.460
      -0.447
      -0.184
       0.181
       0.444
       0.490
       0.370
       0.255
       0.303
       0.535
       0.821
       0.988
       0.961
       0.799
       0.604
       0.414
       0.188
      -0.108
      -0.430
      -0.681
      -0.780
      -0.714
      -0.540
      -0.337
      -0.169
      -0.064
      -0.032
      -0.083
      -0.221
      -0.433
      -0.670
      -0.847
      -0.887
      -0.779
      -0.609
      -0.511
      -0.565
      -0.711
      -0.772
      -0.595
      -0.178
       0.328
       0.723
       0.893
       0.876
       0.818
       0.861
       1.034
       1.212
       1.204
       0.916
       0.456
       0.068
      -0.058
       0.063
       0.247
       0.309
       0.190
      -0.045
      -0.300
      -0.508
      -0.619
      -0.590
      -0.425
      -0.217
      -0.125
      -0.252
      -0.559
      -0.875
      -1.028
      -0.958
      -0.731
      -0.471
      -0.263
      -0.125
      -0.024
       0.096
       0.284
       0.559
       0.890
       1.196
       1.371
       1.328
       1.063
       0.695
       0.439
       0.471
       0.788
       1.181
       1.372
       1.205
       0.731
       0.132
      -0.428
      -0.894
      -1.308
      -1.710
      -2.039
      -2.147
      -1.929
      -1.467
      -0.996
      -0.713
      -0.589
      -0.408
       0.010
       0.629
       1.222
       1.571
       1.616
       1.456
       1.245
       1.100
       1.062
       1.101
       1.150
       1.134
       1.012
       0.794
       0.541
       0.349
       0.315
       0.487
       0.816
       1.136
       1.218
       0.872
       0.061
      -1.053
      -2.154
      -2.877
      -2.961
      -2.374
      -1.359
      -0.340
       0.274
       0.290
      -0.210
      -0.962
      -1.692
      -2.249
      -2.598
      -2.728
      -2.573
      -2.042
      -1.117
       0.066
       1.252
       2.201
       2.813
       3.157
       3.365
       3.498
       3.479
       3.187
       2.598
       1.848
       1.140
       0.611
       0.283
       0.114
       0.033
      -0.073
      -0.371
      -0.980
      -1.841
      -2.696
      -3.255
      -3.400
      -3.251
      -3.039
      -2.926
      -2.922
      -2.930
      -2.832
      -2.529
      -1.955
      -1.111
      -0.119
       0.781
       1.345
       1.473
       1.272
       0.976
       0.797
       0.827
       1.050
       1.414
       1.873
       2.378
       2.848
       3.168
       3.214
       2.924
       2.351
       1.669
       1.064
       0.579
       0.056
      -0.709
      -1.701
      -2.586
      -2.925
      -2.534
      -1.682
      -0.916
      -0.687
      -1.072
      -1.797
      -2.465
      -2.815
      -2.839
      -2.703
      -2.544
      -2.314
      -1.825
      -0.964
       0.141
       1.167
       1.843
       2.145
       2.282
       2.488
       2.841
       3.229
       3.467
       3.442
       3.173
       2.752
       2.264
       1.733
       1.161
       0.592
       0.128
      -0.144
      -0.249
      -0.330
      -0.559
      -1.024
      -1.678
      -2.369
      -2.896
      -3.060
      -2.727
      -1.904
      -0.778
       0.311
       1.017
       1.163
       0.845
       0.371
       0.072
       0.108
       0.398
       0.698
       0.766
       0.519
       0.116
      -0.119
       0.113
       0.865
       1.882
       2.740
       3.097
       2.873
       2.265
       1.609
       1.189
       1.079
       1.119
       1.041
       0.678
       0.089
      -0.525
      -1.003
      -1.331
      -1.571
      -1.760
      -1.915
      -2.110
      -2.478
      -3.090
      -3.843
      -4.492
      -4.789
      -4.601
      -3.928
      -2.878
      -1.639
      -0.439
       0.530
       1.183
       1.556
       1.745
       1.841
       1.906
       1.986
       2.117
       2.315
       2.555
       2.790
       2.990
       3.145
       3.230
       3.170
       2.891
       2.396
       1.802
       1.248
       0.754
       0.188
      -0.622
      -1.703
      -2.870
      -3.843
      -4.432
      -4.638
      -4.610
      -4.518
      -4.435
      -4.321
      -4.083
      -3.665
      -3.089
      -2.416
      -1.679
      -0.883
      -0.072
       0.589
       0.863
       0.621
       0.022
      -0.487
      -0.408
       0.486
       2.000
       3.653
       4.992
       5.822
       6.205
       6.272
       6.061
       5.491
       4.484
       3.116
       1.655
       0.460
      -0.222
      -0.385
      -0.255
      -0.143
      -0.249
      -0.567
      -0.935
      -1.201
      -1.366
      -1.577
      -1.966
      -2.503
      -3.016
      -3.361
      -3.569
      -3.804
      -4.180
      -4.603
      -4.820
      -4.605
      -3.927
      -2.959
      -1.952
      -1.093
      -0.439
       0.080
       0.610
       1.289
       2.158
       3.097
       3.859
       4.190
       3.980
       3.338
       2.542
       1.901
       1.601
       1.626
       1.808
       1.956
       1.963
       1.829
       1.593
       1.299
       1.013
       0.858
       0.977
       1.403
       1.948
       2.241
       1.974
       1.191
       0.351
       0.042
       0.537
       1.566
       2.498
       2.779
       2.269
       1.226
       0.057
      -0.933
      -1.638
      -2.123
      -2.531
      -2.977
      -3.471
      -3.913
      -4.152
      -4.066
      -3.610
      -2.861
      -2.036
      -1.410
      -1.152
      -1.191
      -1.285
      -1.257
      -1.159
      -1.166
      -1.288
      -1.224
      -0.564
       0.834
       2.663
       4.354
       5.434
       5.735
       5.373
       4.623
       3.787
       3.065
       2.451
       1.766
       0.854
      -0.222
      -1.209
      -1.881
      -2.197
      -2.257
      -2.162
      -1.987
      -1.842
      -1.879
      -2.166
      -2.601
      -2.999
      -3.287
      -3.555
      -3.893
      -4.193
      -4.173
      -3.623
      -2.624
      -1.523
      -0.703
      -0.343
      -0.340
      -0.434
      -0.398
      -0.157
       0.227
       0.669
       1.174
       1.864
       2.851
       4.060
       5.167
       5.735
       5.493
       4.528
       3.229
       2.011
       1.043
       0.191
      -0.784
      -1.979
      -3.222
      -4.172
      -4.540
      -4.261
      -3.532
      -2.711
      -2.153
      -2.058
      -2.389
      -2.885
      -3.171
      -2.914
      -1.970
      -0.435
       1.400
       3.178
       4.592
       5.458
       5.730
       5.466
       4.804
       3.956
       3.190
       2.725
       2.579
       2.522
       2.230
       1.573
       0.760
       0.194
       0.125
       0.414
       0.635
       0.418
      -0.247
      -1.018
      -1.466
      -1.403
      -0.982
      -0.563
      -0.452
      -0.732
      -1.250
      -1.728
      -1.920
      -1.758
      -1.398
      -1.116
      -1.129
      -1.473
      -2.045
      -2.708
      -3.336
      -3.768
      -3.805
      -3.333
      -2.475
      -1.590
      -1.036
      -0.849
      -0.627
       0.232
       2.067
       4.615
       7.095
       8.659
       8.887
       7.960
       6.438
       4.852
       3.446
       2.212
       1.071
      -0.014
      -1.070
      -2.155
      -3.267
      -4.212
      -4.629
      -4.245
      -3.133
      -1.735
      -0.588
       0.029
       0.232
       0.379
       0.736
       1.254
       1.590
       1.375
       0.530
      -0.605
      -1.426
      -1.435
      -0.551
       0.840
       2.141
       2.891
       2.965
       2.520
       1.774
       0.829
      -0.323
      -1.672
      -3.053
      -4.143
      -4.603
      -4.286
      -3.369
      -2.288
      -1.496
      -1.176
      -1.142
      -1.046
      -0.736
      -0.466
      -0.722
      -1.785
      -3.415
      -4.931
      -5.633
      -5.198
      -3.776
      -1.812
       0.215
       1.972
       3.316
       4.221
       4.675
       4.631
       4.063
       3.051
       1.802
       0.578
      -0.405
      -1.007
      -1.137
      -0.784
      -0.119
       0.481
       0.645
       0.341
      -0.036
      -0.012
       0.461
       0.846
       0.423
      -1.090
      -3.225
      -5.023
      -5.652
      -4.948
      -3.463
      -2.015
      -1.093
      -0.598
      -0.088
       0.741
       1.757
       2.499
       2.534
       1.767
       0.513
      -0.659
      -1.217
      -0.906
       0.149
       1.536
       2.775
       3.548
       3.791
       3.606
       3.069
       2.126
       0.724
      -0.981
      -2.610
      -3.800
      -4.446
      -4.640
      -4.440
      -3.798
      -2.759
      -1.641
      -0.923
      -0.905
      -1.468
      -2.143
      -2.397
      -1.903
      -0.660
       1.039
       2.723
       3.955
       4.548
       4.655
       4.626
       4.745
       5.051
       5.390
       5.603
       5.675
       5.708
       5.768
       5.752
       5.412
       4.528
       3.121
       1.551
       0.398
       0.131
       0.776
       1.816
       2.495
       2.298
       1.256
      -0.144
      -1.339
      -2.036
      -2.299
      -2.376
      -2.426
      -2.367
      -1.976
      -1.182
      -0.284
       0.164
      -0.269
      -1.533
      -3.091
      -4.272
      -4.694
      -4.429
      -3.839
      -3.247
      -2.724
      -2.156
      -1.459
      -0.725
      -0.142
       0.218
       0.518
       1.038
       1.902
       2.899
       3.601
       3.695
       3.221
       2.487
       1.749
       0.998
       0.052
      -1.160
      -2.435
      -3.404
      -3.774
      -3.483
      -2.661
      -1.502
      -0.188
       1.084
       2.073
       2.554
       2.472
       2.043
       1.668
       1.683
       2.104
       2.599
       2.752
       2.410
       1.798
       1.249
       0.806
       0.117
      -1.211
      -3.135
      -5.040
      -6.134
      -6.026
      -5.013
      -3.859
      -3.252
      -3.381
      -3.922
      -4.404
      -4.579
      -4.510
      -4.328
      -3.974
      -3.189
      -1.773
       0.138
       2.066
       3.466
       4.062
       3.945
       3.401
       2.697
       2.034
       1.608
       1.631
       2.216
       3.262
       4.450
       5.376
       5.755
       5.520
       4.754
       3.527
       1.815
      -0.377
      -2.816
      -4.983
      -6.301
      -6.498
      -5.786
      -4.701
      -3.736
      -3.082
      -2.641
      -2.244
      -1.824
      -1.447
      -1.226
      -1.234
      -1.426
      -1.607
      -1.489
      -0.863
       0.208
       1.370
       2.202
       2.519
       2.501
       2.525
       2.862
       3.477
       4.090
       4.379
       4.174
       3.520
       2.637
       1.816
       1.264
       0.981
       0.762
       0.378
      -0.202
      -0.751
      -0.934
      -0.550
       0.309
       1.281
       1.901
       1.825
       1.033
      -0.141
      -1.194
      -1.770
      -1.872
      -1.791
      -1.832
      -2.064
      -2.317
      -2.353
      -2.036
      -1.394
      -0.578
       0.205
       0.757
       0.940
       0.707
       0.146
      -0.494
      -0.872
      -0.747
      -0.170
       0.515
       0.908
       0.851
       0.525
       0.254
       0.224
       0.381
       0.561
       0.690
       0.844
       1.143
       1.604
       2.082
       2.349
       2.249
       1.832
       1.340
       1.061
       1.138
       1.485
       1.847
       1.961
       1.671
       0.946
      -0.160
      -1.530
      -2.984
      -4.273
      -5.121
      -5.279
      -4.637
      -3.347
      -1.855
      -0.722
      -0.289
      -0.487
      -0.977
      -1.510
      -2.097
      -2.836
      -3.610
      -4.028
      -3.683
      -2.442
      -0.517
       1.687
       3.735
       5.228
       5.872
       5.613
       4.740
       3.751
       2.999
       2.428
       1.688
       0.554
      -0.791
      -1.883
      -2.359
      -2.224
      -1.784
      -1.376
      -1.154
      -1.042
      -0.859
      -0.482
       0.061
       0.623
       1.040
       1.209
       1.097
       0.731
       0.202
      -0.304
      -0.573
      -0.501
      -0.201
       0.058
       0.055
      -0.202
      -0.474
      -0.475
      -0.089
       0.532
       1.048
       1.131
       0.674
      -0.110
      -0.801
      -1.023
      -0.658
       0.140
       1.099
       1.980
       2.587
       2.722
       2.252
       1.294
       0.285
      -0.243
      -0.055
       0.592
       1.187
       1.412
       1.351
       1.291
       1.338
       1.274
       0.774
      -0.253
      -1.534
      -2.612
      -3.166
      -3.213
      -3.051
      -3.004
      -3.168
      -3.343
      -3.232
      -2.745
      -2.121
      -1.726
      -1.716
      -1.881
      -1.832
      -1.337
      -0.500
       0.357
       0.948
       1.172
       1.069
       0.735
