Origin Time       21/9/2009 8:53:04	 
Lat.              27.3 N	
Long.             91.5 E	
Depth (Km)          8.0
Magnitude         6.2
 Region           BHUTAN                                                           
 Above details taken from IMD 
     
Station Code      NON
Station Lat.       25.522  N
Station Long.      91.264  E
Station Height(m) 1367.0
Site Class        A   Vs30 between 700 m/sec to 1400 m/sec * 
Record Time       21.09.2009 08:53:26.414
Sampling Rate     200. Hz
 Record Duration  106.335 Sec.
 Direction         E-W (E positive)
Max. Acceleration     28.127 cm/sec**2
     
  * For reference see Site Classification link of website 
     
 Base Line Corrected and Low Pass Filtered (Cut Off at 35 Hz) Time History
 Acceleration data in cm/sec**2
    
[...]
       0.807
       0.301
      -0.178
      -0.622
      -1.042
      -1.433
      -1.757
      -1.957
      -1.997
      -1.883
      -1.657
      -1.374
      -1.078
      -0.809
      -0.599
      -0.477
      -0.448
      -0.485
      -0.535
      -0.545
      -0.489
      -0.380
      -0.261
      -0.182
      -0.170
      -0.214
      -0.267
      -0.273
      -0.200
      -0.055
       0.124
       0.300
       0.473
       0.674
       0.935
       1.254
       1.577
       1.828
       1.948
       1.927
       1.803
       1.639
       1.480
       1.327
       1.141
       0.877
       0.521
       0.117
      -0.264
      -0.564
      -0.777
      -0.940
      -1.101
      -1.284
      -1.488
      -1.703
      -1.932
      -2.186
      -2.462
      -2.716
      -2.856
      -2.785
      -2.454
      -1.893
      -1.200
      -0.481
       0.201
       0.832
       1.411
       1.913
       2.278
       2.435
       2.349
       2.046
       1.616
       1.182
       0.850
       0.671
       0.639
       0.698
       0.779
       0.819
       0.781
       0.664
       0.487
       0.278
       0.053
      -0.185
      -0.433
      -0.671
      -0.855
      -0.933
      -0.873
      -0.688
      -0.442
      -0.223
      -0.114
      -0.153
      -0.315
      -0.533
      -0.735
      -0.887
      -0.995
      -1.079
      -1.138
      -1.136
      -1.029
      -0.802
      -0.492
      -0.184
       0.042
       0.152
       0.166
       0.140
       0.126
       0.152
       0.214
       0.300
       0.399
       0.506
       0.613
       0.703
       0.750
       0.731
       0.643
       0.505
       0.351
       0.202
       0.055
      -0.126
      -0.384
      -0.744
      -1.178
      -1.599
      -1.887
      -1.951
      -1.775
      -1.411
      -0.950
      -0.472
      -0.038
       0.307
       0.525
       0.597
       0.543
       0.431
       0.341
       0.329
       0.393
       0.492
       0.577
       0.626
       0.643
       0.650
       0.661
       0.674
       0.677
       0.662
       0.628
       0.574
       0.492
       0.373
       0.218
       0.060
      -0.053
      -0.084
      -0.041
       0.032
       0.089
       0.117
       0.145
       0.209
       0.311
       0.421
       0.502
       0.546
       0.582
       0.642
       0.733
       0.829
       0.901
       0.937
       0.947
       0.936
       0.892
       0.778
       0.563
       0.252
      -0.098
      -0.401
      -0.585
      -0.637
      -0.604
      -0.560
      -0.567
      -0.643
      -0.771
      -0.919
      -1.061
      -1.188
      -1.310
      -1.444
      -1.585
      -1.696
      -1.716
      -1.592
      -1.312
      -0.904
      -0.415
       0.123
       0.685
       1.229
       1.668
       1.908
       1.895
       1.659
       1.292
       0.891
       0.510
       0.159
      -0.159
      -0.420
      -0.595
      -0.677
      -0.711
      -0.766
      -0.888
      -1.058
      -1.204
      -1.246
      -1.144
      -0.902
      -0.547
      -0.108
       0.381
       0.867
       1.290
       1.599
       1.778
       1.842
       1.816
       1.715
       1.548
       1.328
       1.089
       0.872
       0.703
       0.570
       0.431
       0.254
       0.041
      -0.161
      -0.308
      -0.389
      -0.443
      -0.525
      -0.674
      -0.891
      -1.147
      -1.403
      -1.626
      -1.787
      -1.857
      -1.807
      -1.621
      -1.311
      -0.919
      -0.503
      -0.112
       0.231
       0.524
       0.779
       1.006
       1.209
       1.388
       1.535
       1.634
       1.664
       1.602
       1.443
       1.201
       0.915
       0.634
       0.400
       0.234
       0.126
       0.050
      -0.023
      -0.104
      -0.181
      -0.227
      -0.228
      -0.198
      -0.175
      -0.193
      -0.256
      -0.337
      -0.400
      -0.427
      -0.434
      -0.453
      -0.508
      -0.584
      -0.637
      -0.620
      -0.518
      -0.362
      -0.212
      -0.111
      -0.058
      -0.014
       0.043
       0.088
       0.051
      -0.125
      -0.434
      -0.785
      -1.062
      -1.185
      -1.157
      -1.036
      -0.874
      -0.675
      -0.411
      -0.073
       0.297
       0.623
       0.842
       0.940
       0.953
       0.939
       0.951
       1.031
       1.199
       1.438
       1.685
       1.843
       1.836
       1.657
       1.368
       1.043
       0.710
       0.334
      -0.126
      -0.662
      -1.202
      -1.658
      -1.977
      -2.163
      -2.250
      -2.258
      -2.170
      -1.954
      -1.603
      -1.164
      -0.734
      -0.410
      -0.244
      -0.217
      -0.261
      -0.292
      -0.246
      -0.082
       0.208
       0.592
       0.993
       1.322
       1.517
       1.575
       1.543
       1.479
       1.409
       1.332
       1.238
       1.137
       1.051
       0.994
       0.960
       0.926
       0.869
       0.779
       0.651
       0.473
       0.226
      -0.105
      -0.495
      -0.880
      -1.179
      -1.341
      -1.362
      -1.274
      -1.107
      -0.878
      -0.602
      -0.317
      -0.082
       0.050
       0.077
       0.061
       0.091
       0.220
       0.428
       0.631
       0.744
       0.733
       0.627
       0.485
       0.361
       0.278
       0.226
       0.174
       0.088
      -0.048
      -0.223
      -0.417
      -0.606
      -0.772
      -0.889
      -0.926
      -0.863
      -0.714
      -0.536
      -0.406
      -0.379
      -0.461
      -0.606
      -0.741
      -0.802
      -0.758
      -0.621
      -0.427
      -0.200
       0.060
       0.365
       0.707
       1.047
       1.332
       1.518
       1.584
       1.530
       1.372
       1.134
       0.853
       0.564
       0.296
       0.072
      -0.087
      -0.161
      -0.142
      -0.049
       0.078
       0.190
       0.247
       0.216
       0.081
      -0.154
      -0.458
      -0.787
      -1.101
      -1.376
      -1.595
      -1.738
      -1.772
      -1.682
      -1.486
      -1.247
      -1.051
      -0.964
      -0.992
      -1.073
      -1.106
      -1.006
      -0.756
      -0.407
      -0.037
       0.304
       0.608
       0.883
       1.120
       1.289
       1.375
       1.396
       1.399
       1.418
       1.454
       1.482
       1.482
       1.447
       1.377
       1.267
       1.105
       0.892
       0.648
       0.403
       0.178
      -0.042
      -0.301
      -0.653
      -1.118
      -1.658
      -2.182
      -2.591
      -2.828
      -2.901
      -2.852
      -2.722
      -2.522
      -2.239
      -1.868
      -1.426
      -0.947
      -0.458
       0.038
       0.552
       1.092
       1.648
       2.197
       2.710
       3.157
       3.514
       3.768
       3.921
       3.994
       4.016
       4.003
       3.946
       3.820
       3.603
       3.297
       2.936
       2.566
       2.215
       1.876
       1.519
       1.111
       0.645
       0.133
      -0.406
      -0.959
      -1.509
      -2.022
      -2.452
      -2.769
      -2.982
      -3.142
      -3.316
      -3.550
      -3.845
      -4.158
      -4.422
      -4.575
      -4.584
      -4.446
      -4.181
      -3.804
      -3.325
      -2.750
      -2.095
      -1.392
      -0.678
       0.018
       0.680
       1.294
       1.832
       2.261
       2.557
       2.725
       2.801
       2.837
       2.875
       2.935
       3.015
       3.107
       3.206
       3.313
       3.419
       3.491
       3.479
       3.329
       3.011
       2.531
       1.935
       1.277
       0.597
      -0.107
      -0.862
      -1.687
      -2.555
      -3.391
      -4.105
      -4.634
      -4.966
      -5.118
      -5.104
      -4.927
      -4.583
      -4.092
      -3.505
      -2.890
      -2.298
      -1.746
      -1.222
      -0.700
      -0.157
       0.417
       1.009
       1.580
       2.059
       2.378
       2.500
       2.447
       2.295
       2.138
       2.049
       2.058
       2.154
       2.290
       2.397
       2.401
       2.261
       2.001
       1.706
       1.479
       1.371
       1.354
       1.349
       1.282
       1.122
       0.875
       0.560
       0.185
      -0.246
      -0.717
      -1.195
      -1.634
      -1.988
      -2.221
      -2.315
      -2.274
      -2.125
      -1.905
      -1.652
      -1.392
      -1.151
      -0.964
      -0.869
      -0.884
      -0.973
      -1.048
      -1.007
      -0.794
      -0.415
       0.074
       0.615
       1.161
       1.669
       2.086
       2.366
       2.487
       2.470
       2.358
       2.206
       2.066
       1.973
       1.943
       1.974
       2.049
       2.154
       2.276
       2.395
       2.470
       2.439
       2.245
       1.866
       1.340
       0.760
       0.241
      -0.137
      -0.371
      -0.524
      -0.682
      -0.895
      -1.169
      -1.468
      -1.738
      -1.918
      -1.947
      -1.798
      -1.493
      -1.106
      -0.731
      -0.433
      -0.230
      -0.112
      -0.072
      -0.128
      -0.300
      -0.579
      -0.911
      -1.208
      -1.375
      -1.335
      -1.045
      -0.520
       0.158
       0.856
       1.429
       1.778
       1.892
       1.837
       1.726
       1.662
       1.692
       1.797
       1.912
       1.978
       1.973
       1.909
       1.805
       1.659
       1.446
       1.144
       0.759
       0.337
      -0.066
      -0.414
      -0.716
      -1.014
      -1.359
      -1.781
      -2.288
      -2.862
      -3.464
      -4.041
      -4.542
      -4.930
      -5.182
      -5.285
      -5.241
      -5.063
      -4.771
      -4.379
      -3.886
      -3.309
      -2.699
      -2.147
      -1.735
      -1.487
      -1.357
      -1.258
      -1.117
      -0.898
      -0.595
      -0.211
       0.242
       0.748
       1.280
       1.796
       2.235
       2.527
       2.614
       2.484
       2.200
       1.883
       1.666
       1.639
       1.808
       2.103
       2.402
       2.590
       2.595
       2.390
       1.978
       1.353
       0.495
      -0.607
      -1.922
      -3.361
      -4.800
      -6.124
      -7.264
      -8.195
      -8.918
      -9.436
      -9.753
      -9.900
      -9.926
      -9.882
      -9.778
      -9.571
      -9.196
      -8.615
      -7.839
      -6.904
      -5.834
      -4.615
      -3.210
      -1.597
       0.211
       2.167
       4.205
       6.246
       8.203
       9.972
      11.438
      12.491
      13.052
      13.098
      12.670
      11.862
      10.797
       9.579
       8.273
       6.906
       5.501
       4.111
       2.818
       1.702
       0.800
       0.093
      -0.477
      -0.978
      -1.460
      -1.946
      -2.430
      -2.890
      -3.288
      -3.584
      -3.741
      -3.735
      -3.571
      -3.273
      -2.874
      -2.404
      -1.882
      -1.309
      -0.658
       0.127
       1.100
       2.281
       3.629
       5.042
       6.382
       7.523
       8.381
       8.939
       9.240
       9.364
       9.403
       9.430
       9.472
       9.507
       9.483
       9.348
       9.072
       8.655
       8.121
       7.496
       6.780
       5.930
       4.873
       3.552
       1.967
       0.193
      -1.661
      -3.491
      -5.200
      -6.683
      -7.830
      -8.567
      -8.903
      -8.925
      -8.756
      -8.486
      -8.143
      -7.707
      -7.152
      -6.485
      -5.769
      -5.106
      -4.609
      -4.349
      -4.342
      -4.549
      -4.904
      -5.323
      -5.694
      -5.885
      -5.769
      -5.269
      -4.389
      -3.204
      -1.825
      -0.362
       1.101
       2.502
       3.790
       4.913
       5.821
       6.481
       6.900
       7.133
       7.265
       7.375
       7.495
       7.593
       7.588
       7.378
       6.873
       6.021
       4.827
       3.354
       1.700
      -0.050
      -1.881
      -3.858
      -6.067
      -8.520
     -11.077
     -13.471
     -15.432
     -16.825
     -17.697
     -18.179
     -18.337
     -18.081
     -17.233
     -15.686
     -13.541
     -11.102
      -8.720
      -6.611
      -4.764
      -3.019
      -1.227
       0.630
       2.443
       4.092
       5.552
       6.918
       8.326
       9.864
      11.533
      13.261
      14.935
      16.428
      17.639
      18.506
      19.000
      19.102
      18.778
      17.973
      16.639
      14.769
      12.412
       9.649
       6.573
       3.271
      -0.166
      -3.626
      -6.980
     -10.096
     -12.873
     -15.271
     -17.311
     -19.040
     -20.467
     -21.514
     -22.008
     -21.744
     -20.591
     -18.594
     -16.002
     -13.176
     -10.436
      -7.929
      -5.635
      -3.467
      -1.364
       0.692
       2.728
       4.801
       6.977
       9.262
      11.569
      13.735
      15.587
      17.016
      17.998
      18.556
      18.706
      18.430
      17.720
      16.618
      15.218
      13.615
      11.853
       9.934
       7.854
       5.633
       3.308
       0.899
      -1.589
      -4.147
      -6.735
      -9.283
     -11.716
     -13.959
     -15.937
     -17.565
     -18.757
     -19.445
     -19.607
     -19.278
     -18.541
     -17.486
     -16.171
     -14.602
     -12.737
     -10.530
      -7.980
      -5.128
      -2.026
       1.321
       4.943
       8.839
      12.901
      16.887
      20.486
      23.437
      25.611
      27.032
      27.824
      28.127
      28.012
      27.435
      26.275
      24.432
      21.933
      18.964
      15.794
      12.673
       9.739
       7.009
       4.414
       1.868
      -0.677
      -3.204
      -5.644
      -7.926
     -10.025
     -11.970
     -13.800
     -15.528
     -17.124
     -18.543
     -19.751
     -20.732
     -21.469
     -21.915
     -21.971
     -21.502
     -20.403
     -18.679
     -16.458
     -13.923
     -11.187
      -8.257
      -5.093
      -1.710
       1.763
       5.109
       8.074
      10.435
      12.043
      12.849
      12.910
      12.372
      11.436
      10.325
       9.253
       8.363
       7.687
       7.148
       6.606
       5.918
       4.980
       3.736
       2.179
       0.350
      -1.673
      -3.769
      -5.777
      -7.502
      -8.757
      -9.412
      -9.428
      -8.836
      -7.700
      -6.104
      -4.179
      -2.134
      -0.242
       1.235
       2.125
       2.385
       2.094
       1.419
       0.577
      -0.195
      -0.697
      -0.801
      -0.479
       0.202
       1.100
       2.024
       2.766
       3.148
       3.072
       2.539
       1.631
       0.481
      -0.738
      -1.814
      -2.514
      -2.656
      -2.175
      -1.159
       0.196
       1.663
       3.045
       4.216
       5.115
       5.729
       6.045
       6.020
       5.585
       4.698
       3.389
       1.755
      -0.087
      -2.038
      -4.009
      -5.884
      -7.503
      -8.685
      -9.284
      -9.235
      -8.595
      -7.534
      -6.293
      -5.104
      -4.127
      -3.436
      -3.047
      -2.940
      -3.053
      -3.257
      -3.355
      -3.147
      -2.530
      -1.555
      -0.390
       0.793
       1.925
       3.051
       4.266
       5.624
       7.077
       8.469
       9.599
      10.305
      10.544
      10.404
      10.033
       9.541
       8.933
       8.121
       7.002
       5.524
       3.724
       1.722
      -0.315
      -2.213
      -3.834
      -5.094
      -5.957
      -6.440
      -6.607
      -6.558
      -6.392
      -6.155
      -5.821
      -5.336
      -4.675
      -3.883
      -3.038
      -2.185
      -1.292
      -0.278
       0.929
       2.345
       3.904
       5.482
       6.947
       8.219
       9.302
      10.238
      11.029
      11.580
      11.727
      11.329
      10.355
       8.896
       7.102
       5.085
       2.865
       0.385
      -2.406
      -5.448
      -8.535
     -11.370
     -13.695
     -15.394
     -16.519
     -17.214
     -17.604
     -17.705
     -17.419
     -16.620
     -15.266
     -13.473
     -11.479
      -9.533
      -7.786
      -6.261
      -4.900
      -3.642
      -2.457
      -1.336
      -0.270
       0.757
       1.746
       2.687
       3.577
       4.438
       5.313
       6.238
       7.215
       8.199
       9.118
       9.901
      10.495
      10.869
      10.985
      10.782
      10.200
       9.210
       7.834
       6.133
       4.172
       2.013
      -0.257
      -2.486
      -4.456
      -5.933
      -6.744
      -6.835
      -6.269
      -5.193
      -3.797
      -2.288
      -0.851
       0.395
       1.437
       2.366
       3.308
       4.332
       5.394
       6.359
       7.096
       7.555
       7.771
       7.796
       7.618
       7.155
       6.310
       5.070
       3.543
       1.911
       0.346
      -1.063
      -2.300
      -3.373
      -4.275
      -4.987
      -5.507
      -5.864
      -6.089
      -6.172
      -6.059
      -5.683
      -5.024
      -4.138
      -3.162
      -2.265
      -1.600
      -1.252
      -1.211
      -1.368
      -1.544
      -1.551
      -1.262
      -0.655
       0.196
       1.177
       2.196
       3.188
       4.072
       4.733
       5.039
       4.912
       4.377
       3.567
       2.671
       1.866
       1.264
       0.905
       0.778
       0.854
       1.100
       1.456
       1.826
       2.093
       2.172
       2.051
       1.771
       1.385
       0.934
       0.444
      -0.067
      -0.591
      -1.130
      -1.690
      -2.249
      -2.742
      -3.065
      -3.111
      -2.817
      -2.219
      -1.460
      -0.749
      -0.261
      -0.051
      -0.049
      -0.143
      -0.257
      -0.376
      -0.495
      -0.595
      -0.664
      -0.737
      -0.899
      -1.211
      -1.636
      -2.017
      -2.149
      -1.899
      -1.287
      -0.484
       0.263
       0.731
       0.783
       0.384
      -0.428
      -1.567
      -2.908
      -4.276
      -5.469
      -6.313
      -6.718
      -6.701
      -6.362
      -5.841
      -5.285
      -4.814
      -4.495
      -4.329
      -4.265
      -4.223
      -4.110
      -3.832
      -3.285
      -2.378
      -1.077
       0.553
       2.342
       4.041
       5.402
       6.256
       6.569
       6.422
       5.960
       5.327
       4.630
       3.940
       3.305
       2.754
       2.306
       1.967
       1.728
       1.552
       1.359
       1.032
       0.467
      -0.339
      -1.254
      -2.048
      -2.499
      -2.504
      -2.115
      -1.501
      -0.850
      -0.276
       0.230
       0.762
       1.429
       2.273
       3.266
       4.330
       5.375
       6.304
       7.000
       7.332
       7.190
       6.525
       5.377
       3.886
       2.256
       0.703
      -0.616
      -1.642
      -2.397
      -2.937
      -3.298
      -3.489
      -3.533
      -3.495
      -3.489
      -3.641
      -4.052
      -4.759
      -5.724
      -6.836
      -7.944
      -8.902
      -9.611
     -10.044
     -10.239
     -10.255
     -10.103
      -9.707
      -8.925
      -7.637
      -5.836
      -3.671
      -1.398
       0.718
       2.496
       3.874
       4.873
       5.534
       5.886
       5.943
       5.738
       5.338
       4.844
