Origin Time       3/9/2009 19:51:08	  UTC
Lat.              24.3 N	
Long.             94.6 E	
Depth (Km)        100.0
Magnitude         5.9
 Region           MYANMAR-India-Manipuir-Border                                    
 Above details taken from IMD 
    
Station Code      NON
Station Lat.       25.522  N
Station Long.      91.264  E
Station Height(m) 1367.0
Site Class        A   Vs30 between 700 m/sec to 1400 m/sec * 
Record Time       03.09.2009 19:52:18.034 UTC
Sampling Rate     200. Hz
 Record Duration   73.475 Sec.
 Direction         N-S (N positive)
Max. Acceleration     10.045 cm/sec**2
     
  * For reference see Site Classification link of website 
     
 Base Line Corrected and Low Pass Filtered (Cut Off at 35 Hz) Time History
 Acceleration data in cm/sec**2
    
[...]
      -0.178
      -0.295
      -0.361
      -0.444
      -0.549
      -0.599
      -0.521
      -0.331
      -0.120
       0.033
       0.112
       0.147
       0.156
       0.132
       0.080
       0.037
       0.055
       0.145
       0.256
       0.304
       0.230
       0.044
      -0.177
      -0.332
      -0.355
      -0.257
      -0.122
      -0.043
      -0.053
      -0.096
      -0.070
       0.094
       0.367
       0.618
       0.691
       0.533
       0.238
      -0.016
      -0.125
      -0.150
      -0.242
      -0.468
      -0.713
      -0.781
      -0.583
      -0.241
       0.017
       0.054
      -0.079
      -0.218
      -0.232
      -0.115
       0.060
       0.214
       0.316
       0.354
       0.313
       0.200
       0.077
       0.040
       0.142
       0.350
       0.587
       0.791
       0.932
       0.970
       0.842
       0.509
       0.025
      -0.446
      -0.726
      -0.734
      -0.553
      -0.360
      -0.295
      -0.374
      -0.508
      -0.608
      -0.649
      -0.648
      -0.579
      -0.352
       0.086
       0.628
       1.004
       0.965
       0.499
      -0.116
      -0.512
      -0.500
      -0.181
       0.174
       0.371
       0.419
       0.470
       0.635
       0.868
       1.003
       0.881
       0.448
      -0.210
      -0.889
      -1.324
      -1.305
      -0.803
      -0.011
       0.741
       1.148
       1.087
       0.647
       0.042
      -0.532
      -0.971
      -1.243
      -1.327
      -1.207
      -0.925
      -0.609
      -0.398
      -0.314
      -0.215
       0.071
       0.555
       1.029
       1.224
       1.029
       0.568
       0.092
      -0.201
      -0.271
      -0.204
      -0.103
      -0.007
       0.108
       0.269
       0.465
       0.664
       0.844
       0.991
       1.071
       1.013
       0.755
       0.300
      -0.252
      -0.755
      -1.098
      -1.253
      -1.261
      -1.190
      -1.098
      -1.026
      -0.982
      -0.946
      -0.884
      -0.769
      -0.592
      -0.361
      -0.096
       0.176
       0.448
       0.739
       1.054
       1.351
       1.555
       1.617
       1.561
       1.443
       1.295
       1.106
       0.854
       0.554
       0.267
       0.051
      -0.086
      -0.197
      -0.342
      -0.532
      -0.710
      -0.779
      -0.671
      -0.402
      -0.078
       0.151
       0.173
      -0.022
      -0.342
      -0.644
      -0.801
      -0.757
      -0.560
      -0.341
      -0.242
      -0.300
      -0.407
      -0.387
      -0.164
       0.151
       0.352
       0.337
       0.216
       0.231
       0.536
       1.061
       1.573
       1.863
       1.861
       1.608
       1.153
       0.540
      -0.125
      -0.623
      -0.727
      -0.389
       0.170
       0.580
       0.582
       0.197
      -0.325
      -0.714
      -0.878
      -0.929
      -1.054
      -1.349
      -1.747
      -2.079
      -2.192
      -2.021
      -1.603
      -1.062
      -0.566
      -0.258
      -0.165
      -0.155
      -0.030
       0.317
       0.808
       1.254
       1.496
       1.498
       1.309
       0.976
       0.510
      -0.058
      -0.589
      -0.849
      -0.651
      -0.026
       0.737
       1.282
       1.445
       1.359
       1.276
       1.267
       1.112
       0.535
      -0.446
      -1.415
      -1.852
      -1.554
      -0.804
      -0.135
       0.078
      -0.148
      -0.508
      -0.697
      -0.632
      -0.446
      -0.322
      -0.323
      -0.349
      -0.228
       0.130
       0.638
       1.037
       1.020
       0.409
      -0.696
      -1.894
      -2.639
      -2.529
      -1.556
      -0.143
       1.073
       1.593
       1.313
       0.517
      -0.353
      -0.985
      -1.306
      -1.388
      -1.281
      -0.937
      -0.309
       0.513
       1.262
       1.607
       1.375
       0.699
      -0.022
      -0.389
      -0.283
       0.082
       0.392
       0.528
       0.605
       0.734
       0.828
       0.686
       0.286
      -0.096
      -0.117
       0.270
       0.729
       0.830
       0.444
      -0.139
      -0.457
      -0.261
       0.292
       0.770
       0.777
       0.228
      -0.619
      -1.356
      -1.703
      -1.669
      -1.486
      -1.388
      -1.420
      -1.427
      -1.209
      -0.707
      -0.046
       0.579
       1.054
       1.394
       1.658
       1.847
       1.897
       1.762
       1.494
       1.251
       1.215
       1.461
       1.869
       2.136
       1.954
       1.233
       0.212
      -0.668
      -1.041
      -0.846
      -0.329
       0.139
       0.300
       0.108
      -0.326
      -0.876
      -1.511
      -2.272
      -3.137
      -3.911
      -4.268
      -3.969
      -3.083
      -2.023
      -1.305
      -1.182
      -1.427
      -1.478
      -0.864
       0.412
       1.869
       2.917
       3.293
       3.187
       2.984
       2.901
       2.863
       2.704
       2.433
       2.242
       2.254
       2.309
       2.065
       1.328
       0.265
      -0.736
      -1.404
      -1.760
      -2.002
      -2.251
      -2.441
      -2.444
      -2.253
      -2.017
      -1.918
      -2.010
      -2.191
      -2.286
      -2.163
      -1.807
      -1.334
      -0.935
      -0.748
      -0.751
      -0.767
      -0.578
      -0.075
       0.680
       1.490
       2.141
       2.521
       2.688
       2.799
       2.941
       2.999
       2.738
       2.072
       1.245
       0.700
       0.713
       1.183
       1.768
       2.174
       2.274
       2.009
       1.307
       0.171
      -1.198
      -2.447
      -3.302
      -3.737
      -3.903
      -3.922
      -3.787
      -3.470
      -3.065
      -2.782
      -2.775
      -2.971
      -3.099
      -2.903
      -2.358
      -1.657
      -0.985
      -0.269
       0.807
       2.517
       4.767
       7.046
       8.682
       9.196
       8.508
       6.896
       4.847
       2.901
       1.523
       0.941
       1.035
       1.388
       1.529
       1.226
       0.604
      -0.033
      -0.510
      -0.964
      -1.708
      -2.886
      -4.260
      -5.341
      -5.749
      -5.464
      -4.740
      -3.844
      -2.916
      -2.081
      -1.552
      -1.530
      -1.938
      -2.328
      -2.158
      -1.229
       0.113
       1.230
       1.685
       1.562
       1.355
       1.531
       2.151
       2.864
       3.283
       3.351
       3.361
       3.623
       4.104
       4.374
       3.936
       2.661
       0.990
      -0.314
      -0.697
      -0.250
       0.346
       0.360
      -0.396
      -1.417
      -1.978
      -1.812
      -1.387
      -1.542
      -2.773
      -4.785
      -6.655
      -7.447
      -6.787
      -5.021
      -2.899
      -1.091
       0.140
       0.908
       1.434
       1.772
       1.769
       1.294
       0.515
      -0.073
       0.033
       0.966
       2.400
       3.818
       4.863
       5.446
       5.611
       5.371
       4.686
       3.546
       2.049
       0.414
      -1.051
      -2.026
      -2.309
      -1.982
      -1.447
      -1.244
      -1.674
      -2.521
      -3.151
      -2.980
      -1.931
      -0.504
       0.582
       0.841
       0.231
      -0.939
      -2.214
      -3.212
      -3.765
      -3.944
      -3.909
      -3.698
      -3.183
      -2.236
      -0.937
       0.440
       1.637
       2.570
       3.269
       3.722
       3.851
       3.659
       3.331
       3.127
       3.153
       3.262
       3.175
       2.688
       1.790
       0.637
      -0.550
      -1.581
      -2.332
      -2.760
      -2.897
      -2.860
      -2.825
      -2.953
      -3.316
      -3.840
      -4.321
      -4.501
      -4.185
      -3.331
      -2.069
      -0.650
       0.631
       1.534
       1.985
       2.175
       2.511
       3.348
       4.623
       5.731
       5.891
       4.775
       2.873
       1.206
       0.560
       0.904
       1.502
       1.587
       0.983
       0.132
      -0.398
      -0.401
      -0.078
       0.285
       0.603
       0.982
       1.502
       2.082
       2.505
       2.518
       1.910
       0.600
      -1.261
      -3.262
      -4.888
      -5.788
      -5.962
      -5.706
      -5.372
      -5.107
      -4.783
      -4.121
      -2.934
      -1.306
       0.400
       1.722
       2.343
       2.252
       1.717
       1.085
       0.603
       0.398
       0.584
       1.281
       2.449
       3.713
       4.440
       4.126
       2.796
       1.103
      -0.026
       0.051
       1.281
       2.949
       4.141
       4.304
       3.498
       2.202
       0.889
      -0.246
      -1.264
      -2.291
      -3.396
      -4.575
      -5.765
      -6.801
      -7.361
      -7.029
      -5.511
      -2.897
       0.251
       3.088
       4.870
       5.259
       4.370
       2.618
       0.508
      -1.506
      -3.098
      -4.074
      -4.327
      -3.784
      -2.447
      -0.499
       1.644
       3.455
       4.545
       4.859
       4.678
       4.397
       4.253
       4.182
       3.924
       3.274
       2.283
       1.225
       0.365
      -0.261
      -0.822
      -1.444
      -1.994
      -2.152
      -1.730
      -0.950
      -0.363
      -0.458
      -1.280
      -2.397
      -3.242
      -3.542
      -3.496
      -3.556
      -3.981
      -4.528
      -4.594
      -3.735
      -2.112
      -0.378
       0.915
       1.803
       2.776
       4.185
       5.821
       7.099
       7.624
       7.496
       7.096
       6.619
       5.928
       4.834
       3.440
       2.126
       1.179
       0.518
      -0.222
      -1.341
      -2.830
      -4.416
      -5.756
      -6.563
      -6.617
      -5.793
      -4.220
      -2.418
      -1.156
      -0.992
      -1.872
      -3.171
      -4.154
      -4.409
      -3.937
      -2.964
      -1.779
      -0.701
      -0.085
      -0.178
      -0.885
      -1.670
      -1.806
      -0.888
       0.804
       2.456
       3.358
       3.503
       3.582
       4.314
       5.707
       6.943
       7.069
       5.901
       4.276
       3.402
       3.889
       5.329
       6.693
       7.088
       6.222
       4.340
       1.888
      -0.747
      -3.283
      -5.494
      -7.203
      -8.326
      -8.875
      -8.872
      -8.258
      -6.936
      -4.946
      -2.641
      -0.622
       0.588
       0.921
       0.847
       1.037
       1.846
       2.986
       3.663
       3.121
       1.192
      -1.538
      -4.084
      -5.626
      -5.859
      -4.963
      -3.346
      -1.400
       0.600
       2.447
       3.864
       4.478
       4.004
       2.544
       0.653
      -0.984
      -2.023
      -2.614
      -3.059
      -3.352
      -3.116
      -2.007
      -0.140
       1.925
       3.588
       4.572
       4.949
       4.892
       4.468
       3.633
       2.391
       0.911
      -0.559
      -1.880
      -3.111
      -4.334
      -5.386
      -5.792
      -5.072
      -3.201
      -0.814
       1.083
       1.721
       1.039
      -0.314
      -1.438
      -1.723
      -1.122
      -0.026
       1.073
       1.882
       2.374
       2.635
       2.635
       2.145
       0.866
      -1.295
      -3.996
      -6.449
      -7.688
      -7.040
      -4.556
      -1.097
       2.055
       3.886
       4.196
       3.647
       3.241
       3.577
       4.430
       5.000
       4.636
       3.414
       2.054
       1.247
       1.033
       0.829
       0.090
      -1.062
      -1.883
      -1.699
      -0.569
       0.736
       1.375
       1.047
       0.049
      -1.132
      -2.248
      -3.332
      -4.431
      -5.347
      -5.706
      -5.292
      -4.246
      -2.897
      -1.406
       0.328
       2.364
       4.383
       5.756
       6.003
       5.194
       3.889
       2.698
       1.905
       1.465
       1.270
       1.358
       1.850
       2.717
       3.644
       4.149
       3.890
       2.919
       1.644
       0.531
      -0.211
      -0.707
      -1.208
      -1.803
      -2.296
      -2.346
      -1.753
      -0.684
       0.323
       0.632
      -0.100
      -1.649
      -3.314
      -4.370
      -4.587
      -4.369
      -4.394
      -5.022
      -5.969
      -6.503
      -5.997
      -4.417
      -2.381
      -0.725
       0.107
       0.356
       0.679
       1.563
       2.945
       4.338
       5.280
       5.692
       5.867
       6.161
       6.688
       7.261
       7.568
       7.396
       6.713
       5.603
       4.184
       2.604
       1.059
      -0.251
      -1.239
      -1.998
      -2.729
      -3.580
      -4.501
      -5.250
      -5.529
      -5.169
      -4.238
      -3.021
      -1.889
      -1.141
      -0.877
      -0.983
      -1.220
      -1.401
      -1.504
      -1.664
      -2.016
      -2.534
      -2.987
      -3.053
      -2.527
      -1.474
      -0.238
       0.717
       1.080
       0.903
       0.556
       0.429
       0.611
       0.841
       0.762
       0.256
      -0.411
      -0.715
      -0.173
       1.340
       3.438
       5.348
       6.294
       5.929
       4.547
       2.880
       1.616
       0.954
       0.555
      -0.087
      -1.173
      -2.471
      -3.595
      -4.378
      -4.932
      -5.404
      -5.738
      -5.751
      -5.396
      -4.883
      -4.514
      -4.402
      -4.398
      -4.293
      -4.047
      -3.778
      -3.501
      -2.916
      -1.517
       0.989
       4.285
       7.470
       9.555
      10.045
       9.131
       7.391
       5.351
       3.358
       1.773
       1.062
       1.521
       2.850
       4.139
       4.440
       3.485
       1.903
       0.693
       0.418
       0.807
       1.074
       0.614
      -0.521
      -1.745
      -2.501
      -2.734
      -2.861
      -3.294
      -4.026
      -4.677
      -4.918
      -4.815
      -4.747
      -5.011
      -5.495
      -5.723
      -5.236
      -3.979
      -2.362
      -0.961
      -0.092
       0.406
       1.015
       2.121
       3.660
       5.115
       5.881
       5.735
       4.989
       4.206
       3.725
       3.477
       3.229
       2.962
       2.935
       3.380
       4.156
       4.744
       4.606
       3.595
       2.029
       0.405
      -0.975
      -2.118
      -3.176
      -4.218
      -5.180
      -5.947
      -6.444
      -6.620
      -6.412
      -5.753
      -4.652
      -3.274
      -1.912
      -0.848
      -0.175
       0.266
       0.740
       1.372
       2.003
       2.322
       2.196
       1.855
       1.721
       2.004
       2.488
       2.759
       2.624
       2.304
       2.205
       2.542
       3.209
       3.937
       4.517
       4.854
       4.893
       4.604
       4.066
       3.468
       2.955
       2.451
       1.708
       0.582
      -0.742
      -1.833
      -2.358
      -2.356
      -2.190
      -2.242
      -2.636
      -3.228
      -3.822
      -4.392
      -5.081
      -5.981
      -6.924
      -7.498
      -7.349
      -6.501
      -5.377
      -4.447
      -3.803
      -3.084
      -1.829
       0.068
       2.230
       4.075
       5.203
       5.560
       5.334
       4.823
       4.369
       4.255
       4.508
       4.774
       4.527
       3.525
       2.099
       0.945
       0.557
       0.822
       1.144
       0.981
       0.306
      -0.387
      -0.546
      -0.103
       0.372
       0.106
      -1.216
      -3.127
      -4.749
      -5.518
      -5.603
      -5.628
      -6.001
      -6.519
      -6.621
      -5.950
      -4.661
      -3.185
      -1.817
      -0.554
       0.671
       1.700
       2.177
       1.900
       1.150
       0.631
       0.979
       2.259
       3.870
       4.974
       5.073
       4.297
       3.207
       2.344
       1.929
       1.867
       1.963
       2.100
       2.258
       2.401
       2.392
       2.049
       1.316
       0.381
      -0.436
      -0.956
      -1.330
      -1.886
      -2.727
      -3.460
      -3.421
      -2.252
      -0.298
       1.552
       2.476
       2.250
       1.306
       0.333
      -0.239
      -0.465
      -0.726
      -1.361
      -2.411
      -3.606
      -4.522
      -4.776
      -4.205
      -2.955
      -1.392
       0.140
       1.518
       2.811
       4.016
       4.863
       4.953
       4.134
       2.746
       1.426
       0.659
       0.481
       0.608
       0.765
       0.857
       0.864
       0.688
       0.194
      -0.616
      -1.524
      -2.255
      -2.695
      -2.921
      -3.019
      -2.874
      -2.180
      -0.727
       1.263
       3.079
       3.905
       3.403
       1.988
       0.490
      -0.527
      -1.118
      -1.668
      -2.309
      -2.700
      -2.388
      -1.333
      -0.035
       0.863
       1.066
       0.786
       0.482
       0.485
       0.791
       1.101
       1.017
       0.322
      -0.825
      -1.924
      -2.456
      -2.265
      -1.646
      -1.050
      -0.666
      -0.291
       0.389
       1.394
       2.335
       2.720
       2.401
       1.726
       1.247
       1.232
       1.446
       1.397
       0.836
       0.024
      -0.500
      -0.434
       0.017
       0.370
       0.332
       0.003
      -0.335
      -0.562
      -0.779
      -1.078
      -1.364
      -1.470
      -1.397
      -1.336
      -1.449
      -1.664
      -1.740
      -1.505
      -0.985
      -0.349
       0.237
       0.687
       0.982
       1.176
       1.386
       1.710
       2.089
       2.267
       1.969
       1.156
       0.127
      -0.648
      -0.832
      -0.435
       0.185
       0.537
       0.292
      -0.466
      -1.230
      -1.367
      -0.567
       0.892
       2.326
       3.116
       3.044
       2.238
       0.937
      -0.603
      -2.032
      -2.918
      -2.990
      -2.390
      -1.641
      -1.273
      -1.452
      -1.899
      -2.143
      -1.847
      -0.998
       0.113
       1.085
       1.652
       1.839
       1.903
       2.096
       2.404
       2.514
       2.060
       0.982
      -0.308
      -1.137
      -1.052
      -0.194
       0.775
       1.196
       0.938
       0.488
       0.475
       1.029
       1.561
       1.212
      -0.372
      -2.633
      -4.468
      -5.087
      -4.593
      -3.796
      -3.467
      -3.712
      -3.971
      -3.534
      -2.115
      -0.036
       2.014
       3.394
       3.816
       3.385
       2.477
       1.536
       0.866
       0.504
       0.247
      -0.149
      -0.756
      -1.392
      -1.723
      -1.469
      -0.620
       0.481
       1.288
       1.402
       0.870
       0.157
      -0.219
      -0.072
       0.345
       0.580
       0.336
      -0.303
      -0.914
      -1.029
      -0.475
       0.480
       1.330
       1.721
       1.723
       1.724
       2.082
       2.866
       3.879
       4.815
       5.315
       4.947
       3.370
       0.689
      -2.327
      -4.543
      -5.135
      -4.120
      -2.291
      -0.656
       0.160
       0.132
      -0.376
      -0.952
      -1.321
      -1.361
      -1.069
      -0.586
      -0.175
      -0.062
      -0.251
      -0.505
      -0.597
      -0.567
      -0.697
      -1.187
      -1.884
      -2.365
      -2.301
      -1.733
      -0.983
      -0.337
       0.175
       0.716
       1.405
