Origin Time       29/10/2009 17:00:35 UTC
Lat.              27.3°N	
Long.             91.4°E	
Depth (Km)          5.0
Magnitude         5.2
 Region           BHUTAN                                                           
 Above details taken from IMD 
    
Station Code      NON
Station Lat.       25.522  N
Station Long.      91.264  E
Station Height(m) 1367.0
Site Class        A   Vs30 between 700 m/sec to 1400 m/sec * 
Record Time       29.10.2009 17:01:17.124 UTC
Sampling Rate     200. Hz
 Record Duration   67.080 Sec.
 Direction         N-S (N positive)
Max. Acceleration      7.607 cm/sec**2
     
  * For reference see Site Classification link of website 
     
 Base Line Corrected and Low Pass Filtered (Cut Off at 35 Hz) Time History
 Acceleration data in cm/sec**2
    
[...]
      -0.066
      -0.125
      -0.215
      -0.333
      -0.468
      -0.596
      -0.689
      -0.728
      -0.704
      -0.630
      -0.529
      -0.424
      -0.329
      -0.247
      -0.177
      -0.118
      -0.070
      -0.024
       0.031
       0.105
       0.195
       0.289
       0.368
       0.420
       0.442
       0.444
       0.444
       0.453
       0.475
       0.501
       0.516
       0.510
       0.480
       0.429
       0.366
       0.300
       0.237
       0.182
       0.137
       0.102
       0.078
       0.058
       0.034
      -0.004
      -0.057
      -0.122
      -0.190
      -0.262
      -0.337
      -0.414
      -0.482
      -0.530
      -0.551
      -0.544
      -0.515
      -0.469
      -0.409
      -0.338
      -0.260
      -0.180
      -0.098
      -0.019
       0.053
       0.112
       0.157
       0.188
       0.207
       0.218
       0.224
       0.229
       0.233
       0.235
       0.235
       0.236
       0.238
       0.243
       0.249
       0.250
       0.242
       0.218
       0.178
       0.124
       0.060
      -0.008
      -0.073
      -0.131
      -0.177
      -0.210
      -0.230
      -0.241
      -0.249
      -0.260
      -0.272
      -0.278
      -0.266
      -0.238
      -0.203
      -0.178
      -0.176
      -0.197
      -0.230
      -0.258
      -0.268
      -0.250
      -0.204
      -0.132
      -0.036
       0.076
       0.192
       0.297
       0.376
       0.426
       0.453
       0.467
       0.473
       0.460
       0.412
       0.324
       0.207
       0.089
      -0.004
      -0.061
      -0.083
      -0.079
      -0.057
      -0.019
       0.030
       0.079
       0.113
       0.121
       0.099
       0.054
      -0.005
      -0.070
      -0.136
      -0.200
      -0.257
      -0.304
      -0.338
      -0.361
      -0.371
      -0.363
      -0.326
      -0.256
      -0.154
      -0.035
       0.083
       0.187
       0.274
       0.348
       0.415
       0.475
       0.519
       0.536
       0.523
       0.487
       0.441
       0.396
       0.355
       0.322
       0.294
       0.272
       0.251
       0.226
       0.191
       0.146
       0.088
       0.012
      -0.080
      -0.183
      -0.289
      -0.383
      -0.457
      -0.502
      -0.517
      -0.508
      -0.490
      -0.478
      -0.482
      -0.498
      -0.510
      -0.498
      -0.458
      -0.395
      -0.323
      -0.249
      -0.171
      -0.083
       0.014
       0.112
       0.196
       0.254
       0.279
       0.273
       0.242
       0.197
       0.151
       0.117
       0.101
       0.107
       0.131
       0.168
       0.208
       0.243
       0.263
       0.266
       0.259
       0.248
       0.238
       0.226
       0.205
       0.165
       0.107
       0.042
      -0.017
      -0.065
      -0.112
      -0.172
      -0.252
      -0.347
      -0.438
      -0.505
      -0.529
      -0.508
      -0.449
      -0.367
      -0.275
      -0.180
      -0.082
       0.024
       0.137
       0.248
       0.339
       0.399
       0.425
       0.429
       0.429
       0.439
       0.457
       0.468
       0.455
       0.413
       0.350
       0.280
       0.214
       0.154
       0.101
       0.051
       0.002
      -0.049
      -0.100
      -0.150
      -0.196
      -0.238
      -0.280
      -0.323
      -0.365
      -0.401
      -0.425
      -0.435
      -0.435
      -0.432
      -0.426
      -0.413
      -0.385
      -0.340
      -0.279
      -0.208
      -0.131
      -0.049
       0.032
       0.114
       0.197
       0.287
       0.387
       0.490
       0.582
       0.651
       0.692
       0.707
       0.702
       0.674
       0.613
       0.511
       0.369
       0.203
       0.035
      -0.121
      -0.262
      -0.386
      -0.494
      -0.581
      -0.640
      -0.670
      -0.675
      -0.658
      -0.619
      -0.556
      -0.468
      -0.362
      -0.249
      -0.147
      -0.064
      -0.003
       0.046
       0.092
       0.142
       0.193
       0.236
       0.257
       0.252
       0.223
       0.176
       0.124
       0.073
       0.032
       0.004
      -0.013
      -0.024
      -0.032
      -0.037
      -0.037
      -0.029
      -0.013
       0.003
       0.011
       0.007
      -0.008
      -0.025
      -0.033
      -0.027
      -0.012
       0.000
      -0.005
      -0.028
      -0.059
      -0.078
      -0.068
      -0.022
       0.056
       0.146
       0.223
       0.270
       0.284
       0.283
       0.288
       0.315
       0.358
       0.395
       0.407
       0.385
       0.334
       0.264
       0.186
       0.107
       0.028
      -0.049
      -0.128
      -0.212
      -0.302
      -0.388
      -0.451
      -0.474
      -0.445
      -0.372
      -0.276
      -0.178
      -0.090
      -0.015
       0.052
       0.114
       0.169
       0.205
       0.215
       0.191
       0.138
       0.062
      -0.030
      -0.132
      -0.239
      -0.341
      -0.425
      -0.477
      -0.486
      -0.451
      -0.377
      -0.282
      -0.182
      -0.091
      -0.017
       0.034
       0.065
       0.080
       0.092
       0.112
       0.149
       0.193
       0.225
       0.223
       0.185
       0.132
       0.093
       0.083
       0.093
       0.103
       0.098
       0.078
       0.050
       0.019
      -0.020
      -0.067
      -0.113
      -0.143
      -0.143
      -0.116
      -0.076
      -0.035
       0.004
       0.047
       0.101
       0.163
       0.220
       0.253
       0.255
       0.230
       0.190
       0.141
       0.083
       0.014
      -0.062
      -0.137
      -0.200
      -0.248
      -0.282
      -0.303
      -0.301
      -0.267
      -0.189
      -0.074
       0.061
       0.193
       0.302
       0.383
       0.439
       0.478
       0.507
       0.521
       0.515
       0.483
       0.424
       0.346
       0.256
       0.162
       0.066
      -0.034
      -0.139
      -0.246
      -0.353
      -0.455
      -0.552
      -0.646
      -0.735
      -0.809
      -0.851
      -0.850
      -0.805
      -0.731
      -0.645
      -0.560
      -0.471
      -0.364
      -0.219
      -0.029
       0.195
       0.422
       0.615
       0.748
       0.818
       0.842
       0.844
       0.841
       0.838
       0.829
       0.810
       0.777
       0.732
       0.669
       0.579
       0.452
       0.285
       0.087
      -0.122
      -0.319
      -0.483
      -0.604
      -0.682
      -0.731
      -0.771
      -0.812
      -0.852
      -0.874
      -0.868
      -0.833
      -0.776
      -0.709
      -0.638
      -0.570
      -0.508
      -0.451
      -0.394
      -0.322
      -0.222
      -0.090
       0.069
       0.236
       0.392
       0.526
       0.637
       0.738
       0.835
       0.925
       0.996
       1.028
       1.004
       0.918
       0.769
       0.575
       0.358
       0.145
      -0.047
      -0.215
      -0.365
      -0.502
      -0.620
      -0.708
      -0.758
      -0.767
      -0.741
      -0.687
      -0.610
      -0.517
      -0.414
      -0.309
      -0.206
      -0.106
      -0.005
       0.097
       0.190
       0.264
       0.315
       0.351
       0.389
       0.435
       0.483
       0.518
       0.530
       0.518
       0.489
       0.453
       0.414
       0.375
       0.335
       0.294
       0.250
       0.202
       0.152
       0.101
       0.054
       0.012
      -0.024
      -0.059
      -0.094
      -0.131
      -0.165
      -0.194
      -0.217
      -0.237
      -0.258
      -0.284
      -0.317
      -0.358
      -0.407
      -0.465
      -0.529
      -0.590
      -0.632
      -0.643
      -0.613
      -0.539
      -0.424
      -0.278
      -0.120
       0.028
       0.149
       0.236
       0.299
       0.351
       0.402
       0.448
       0.478
       0.483
       0.463
       0.431
       0.396
       0.364
       0.326
       0.270
       0.187
       0.079
      -0.039
      -0.147
      -0.227
      -0.272
      -0.287
      -0.278
      -0.247
      -0.197
      -0.133
      -0.068
      -0.015
       0.014
       0.016
      -0.001
      -0.023
      -0.033
      -0.023
       0.004
       0.038
       0.064
       0.075
       0.070
       0.053
       0.028
       0.001
      -0.027
      -0.055
      -0.083
      -0.109
      -0.133
      -0.159
      -0.189
      -0.221
      -0.245
      -0.245
      -0.214
      -0.154
      -0.077
       0.004
       0.081
       0.155
       0.224
       0.281
       0.321
       0.343
       0.356
       0.369
       0.383
       0.393
       0.393
       0.380
       0.352
       0.308
       0.244
       0.165
       0.080
       0.000
      -0.068
      -0.124
      -0.176
      -0.233
      -0.302
      -0.385
      -0.472
      -0.546
      -0.587
      -0.579
      -0.522
      -0.428
      -0.321
      -0.223
      -0.151
      -0.110
      -0.092
      -0.089
      -0.092
      -0.095
      -0.095
      -0.087
      -0.065
      -0.025
       0.029
       0.088
       0.142
       0.184
       0.220
       0.255
       0.289
       0.312
       0.306
       0.255
       0.160
       0.041
      -0.071
      -0.148
      -0.184
      -0.191
      -0.188
      -0.186
      -0.178
      -0.150
      -0.094
      -0.018
       0.061
       0.129
       0.181
       0.222
       0.260
       0.295
       0.325
       0.342
       0.342
       0.326
       0.305
       0.285
       0.268
       0.251
       0.225
       0.191
       0.158
       0.136
       0.130
       0.136
       0.148
       0.158
       0.162
       0.160
       0.150
       0.132
       0.106
       0.074
       0.039
       0.003
      -0.032
      -0.061
      -0.079
      -0.081
      -0.067
      -0.047
      -0.033
      -0.042
      -0.086
      -0.165
      -0.270
      -0.384
      -0.497
      -0.604
      -0.705
      -0.792
      -0.847
      -0.853
      -0.799
      -0.697
      -0.572
      -0.449
      -0.345
      -0.267
      -0.208
      -0.161
      -0.113
      -0.055
       0.022
       0.121
       0.238
       0.361
       0.480
       0.591
       0.699
       0.808
       0.919
       1.029
       1.126
       1.197
       1.230
       1.220
       1.171
       1.089
       0.984
       0.859
       0.716
       0.555
       0.377
       0.184
      -0.026
      -0.253
      -0.493
      -0.739
      -0.978
      -1.196
      -1.373
      -1.493
      -1.544
      -1.529
      -1.462
      -1.360
      -1.233
      -1.085
      -0.913
      -0.720
      -0.511
      -0.302
      -0.104
       0.074
       0.230
       0.359
       0.454
       0.515
       0.550
       0.577
       0.618
       0.679
       0.754
       0.825
       0.880
       0.918
       0.950
       0.988
       1.037
       1.088
       1.128
       1.144
       1.131
       1.086
       1.010
       0.906
       0.770
       0.601
       0.397
       0.165
      -0.077
      -0.306
      -0.505
      -0.677
      -0.841
      -1.013
      -1.191
      -1.353
      -1.468
      -1.515
      -1.491
      -1.408
      -1.277
      -1.105
      -0.899
      -0.669
      -0.436
      -0.224
      -0.054
       0.075
       0.185
       0.312
       0.474
       0.668
       0.867
       1.039
       1.157
       1.207
       1.186
       1.094
       0.928
       0.691
       0.398
       0.080
      -0.229
      -0.503
      -0.738
      -0.943
      -1.132
      -1.306
      -1.451
      -1.546
      -1.569
      -1.507
      -1.364
      -1.149
      -0.880
      -0.574
      -0.246
       0.090
       0.411
       0.693
       0.916
       1.067
       1.152
       1.188
       1.196
       1.192
       1.183
       1.173
       1.158
       1.133
       1.088
       1.006
       0.875
       0.695
       0.481
       0.252
       0.021
      -0.209
      -0.444
      -0.685
      -0.920
      -1.129
      -1.286
      -1.373
      -1.387
      -1.337
      -1.235
      -1.091
      -0.908
      -0.691
      -0.450
      -0.206
       0.018
       0.199
       0.327
       0.404
       0.447
       0.474
       0.498
       0.524
       0.547
       0.561
       0.549
       0.490
       0.361
       0.154
      -0.115
      -0.406
      -0.679
      -0.911
      -1.104
      -1.272
      -1.415
      -1.509
      -1.524
      -1.440
      -1.263
      -1.019
      -0.740
      -0.445
      -0.137
       0.193
       0.554
       0.940
       1.334
       1.712
       2.057
       2.357
       2.594
       2.739
       2.767
       2.664
       2.438
       2.112
       1.714
       1.265
       0.781
       0.283
      -0.196
      -0.626
      -0.998
      -1.340
      -1.694
      -2.080
      -2.478
      -2.847
      -3.156
      -3.399
      -3.579
      -3.681
      -3.683
      -3.565
      -3.322
      -2.955
      -2.462
      -1.840
      -1.090
      -0.229
       0.706
       1.662
       2.580
       3.403
       4.092
       4.627
       5.008
       5.245
       5.347
       5.320
       5.160
       4.859
       4.415
       3.834
       3.131
       2.322
       1.413
       0.413
      -0.658
      -1.752
      -2.814
      -3.801
      -4.695
      -5.479
      -6.119
      -6.572
      -6.797
      -6.768
      -6.481
      -5.959
      -5.258
      -4.457
      -3.623
      -2.790
      -1.948
      -1.064
      -0.096
       0.982
       2.161
       3.390
       4.579
       5.627
       6.464
       7.065
       7.441
       7.607
       7.553
       7.260
       6.724
       5.989
       5.129
       4.220
       3.298
       2.358
       1.380
       0.366
      -0.648
      -1.616
      -2.509
      -3.332
      -4.099
      -4.812
      -5.450
      -5.987
      -6.412
      -6.731
      -6.942
      -7.023
      -6.929
      -6.620
      -6.079
      -5.328
      -4.412
      -3.376
      -2.248
      -1.042
       0.224
       1.504
       2.728
       3.829
       4.771
       5.557
       6.196
       6.680
       6.975
       7.045
       6.866
       6.432
       5.752
       4.852
       3.781
       2.610
       1.412
       0.241
      -0.876
      -1.930
      -2.914
      -3.820
      -4.642
      -5.382
      -6.045
      -6.622
      -7.085
      -7.392
      -7.509
      -7.418
      -7.119
      -6.622
      -5.936
      -5.066
      -4.023
      -2.828
      -1.531
      -0.199
       1.100
       2.313
       3.415
       4.400
       5.268
       6.012
       6.618
       7.071
       7.355
       7.454
       7.359
       7.065
       6.585
       5.945
       5.179
       4.319
       3.396
       2.437
       1.472
       0.535
      -0.336
      -1.106
      -1.759
      -2.297
      -2.741
      -3.098
      -3.356
      -3.491
      -3.490
      -3.366
      -3.151
      -2.860
      -2.483
      -1.996
      -1.391
      -0.700
       0.014
       0.689
       1.291
       1.813
       2.258
       2.618
       2.882
       3.038
       3.087
       3.044
       2.928
       2.750
       2.504
       2.183
       1.795
       1.367
       0.943
       0.560
       0.237
      -0.025
      -0.253
      -0.487
      -0.767
      -1.108
      -1.488
      -1.857
      -2.159
      -2.355
      -2.436
      -2.424
      -2.352
      -2.247
      -2.119
      -1.969
      -1.791
      -1.584
      -1.344
      -1.056
      -0.695
      -0.243
       0.284
       0.817
       1.260
       1.528
       1.584
       1.435
       1.117
       0.679
       0.173
      -0.345
      -0.829
      -1.251
      -1.607
      -1.918
      -2.218
      -2.522
      -2.807
      -3.019
      -3.102
      -3.030
      -2.812
      -2.471
      -2.025
      -1.486
      -0.874
      -0.224
       0.419
       1.019
       1.558
       2.022
       2.392
       2.643
       2.761
       2.751
       2.635
       2.440
       2.187
       1.887
       1.546
       1.161
       0.730
       0.257
      -0.238
      -0.721
      -1.161
      -1.545
      -1.882
      -2.190
      -2.481
      -2.760
      -3.033
      -3.307
      -3.583
      -3.830
      -3.979
      -3.948
      -3.677
      -3.156
      -2.436
      -1.599
      -0.727
       0.126
       0.936
       1.698
       2.415
       3.088
       3.708
       4.258
       4.715
       5.061
       5.291
       5.404
       5.396
       5.255
       4.962
       4.511
       3.908
       3.177
       2.351
       1.471
       0.583
      -0.273
      -1.080
      -1.846
      -2.586
      -3.296
      -3.943
      -4.484
      -4.891
      -5.160
      -5.310
      -5.359
      -5.322
      -5.201
      -4.994
      -4.685
      -4.253
      -3.674
      -2.935
      -2.039
      -1.017
       0.080
       1.187
       2.246
       3.223
       4.102
       4.878
       5.534
       6.041
       6.368
       6.495
       6.416
       6.145
       5.719
       5.203
       4.673
       4.191
       3.767
       3.361
       2.912
       2.372
       1.729
       0.997
       0.200
      -0.638
      -1.482
      -2.283
      -2.979
      -3.511
      -3.838
      -3.947
      -3.850
      -3.590
      -3.237
      -2.865
      -2.529
      -2.242
      -1.980
      -1.700
      -1.366
      -0.969
      -0.528
      -0.089
       0.295
       0.580
       0.752
       0.821
       0.816
       0.758
       0.653
       0.503
       0.315
       0.109
      -0.083
      -0.229
      -0.304
      -0.302
      -0.233
      -0.130
      -0.044
      -0.036
      -0.155
      -0.416
      -0.787
      -1.210
      -1.624
      -1.986
      -2.269
      -2.453
      -2.515
      -2.439
      -2.228
      -1.906
      -1.505
      -1.060
      -0.594
      -0.123
       0.343
       0.796
       1.226
       1.622
       1.962
       2.228
       2.402
       2.475
       2.446
       2.329
       2.148
       1.937
       1.718
       1.505
       1.297
       1.092
       0.881
       0.653
       0.392
       0.085
      -0.262
      -0.618
      -0.937
      -1.174
      -1.305
      -1.338
      -1.301
      -1.229
      -1.148
      -1.065
      -0.977
      -0.875
      -0.746
      -0.577
      -0.363
      -0.110
       0.164
       0.428
       0.650
       0.798
       0.856
       0.827
       0.732
       0.599
       0.458
       0.338
       0.262
       0.244
       0.280
       0.343
       0.389
       0.379
       0.300
       0.166
       0.012
      -0.133
      -0.262
      -0.386
      -0.529
      -0.706
      -0.918
      -1.142
      -1.342
      -1.483
      -1.539
      -1.500
      -1.370
      -1.165
      -0.908
      -0.629
      -0.361
      -0.130
       0.055
       0.211
       0.367
       0.545
       0.758
       1.004
       1.279
       1.568
       1.842
       2.049
       2.142
       2.099
       1.947
       1.743
       1.544
       1.371
       1.206
       1.024
       0.814
       0.595
       0.399
       0.243
       0.119
      -0.005
      -0.162
      -0.364
      -0.594
      -0.814
      -0.986
      -1.095
      -1.152
      -1.195
      -1.254
      -1.343
      -1.446
      -1.544
      -1.626
      -1.700
      -1.782
      -1.882
      -1.986
      -2.061
      -2.065
      -1.960
      -1.723
      -1.347
      -0.855
      -0.289
       0.295
       0.840
