Origin Time       11/8/2009 21:43:39  UTC
Lat.              24.4 N 
Long.             94.8 E 
Depth (Km)         22.0
Magnitude         5.6
 Region           MYANMAR-INDIA(MANIPUR)BORDER                                     
 Above details taken from IMD 
    
Station Code      NON
Station Lat.       25.522  N
Station Long.      91.264  E
Station Height(m) 1367.0
Site Class        A   Vs30 between 700 m/sec to 1400 m/sec * 
Record Time       11.08.2009 21:44:57.184 UTC
Sampling Rate     200. Hz
 Record Duration   79.040 Sec.
 Direction         N-S (N positive)
Max. Acceleration     15.975 cm/sec**2
     
  * For reference see Site Classification link of website 
     
 Base Line Corrected and Low Pass Filtered (Cut Off at 35 Hz) Time History
 Acceleration data in cm/sec**2
    
[...]
       0.986
       1.272
       1.432
       1.264
       0.680
      -0.176
      -1.000
      -1.510
      -1.604
      -1.347
      -0.859
      -0.214
       0.555
       1.348
       1.928
       1.984
       1.346
       0.178
      -1.041
      -1.791
      -1.851
      -1.433
      -0.996
      -0.904
      -1.189
      -1.588
      -1.773
      -1.578
      -1.066
      -0.449
       0.059
       0.349
       0.460
       0.538
       0.728
       1.056
       1.396
       1.568
       1.487
       1.235
       0.986
       0.855
       0.826
       0.804
       0.700
       0.476
       0.134
      -0.270
      -0.615
      -0.757
      -0.641
      -0.382
      -0.206
      -0.289
      -0.604
      -0.935
      -1.029
      -0.757
      -0.184
       0.496
       1.079
       1.436
       1.540
       1.453
       1.296
       1.197
       1.214
       1.267
       1.176
       0.789
       0.109
      -0.687
      -1.362
      -1.752
      -1.837
      -1.701
      -1.470
      -1.248
      -1.095
      -1.008
      -0.937
      -0.828
      -0.653
      -0.407
      -0.081
       0.323
       0.737
       0.997
       0.907
       0.374
      -0.471
      -1.305
      -1.790
      -1.784
      -1.425
      -1.003
      -0.720
      -0.538
      -0.256
       0.258
       0.907
       1.440
       1.690
       1.730
       1.785
       1.999
       2.305
       2.523
       2.523
       2.293
       1.864
       1.251
       0.507
      -0.179
      -0.527
      -0.355
       0.231
       0.855
       1.103
       0.775
      -0.035
      -1.058
      -2.004
      -2.667
      -2.950
      -2.881
      -2.575
      -2.153
      -1.671
      -1.132
      -0.574
      -0.112
       0.127
       0.107
      -0.065
      -0.202
      -0.156
       0.107
       0.513
       0.953
       1.352
       1.675
       1.907
       2.016
       1.967
       1.767
       1.502
       1.297
       1.209
       1.150
       0.932
       0.423
      -0.330
      -1.123
      -1.749
      -2.137
      -2.358
      -2.506
      -2.588
      -2.519
      -2.224
      -1.754
      -1.281
      -0.964
      -0.808
      -0.666
      -0.401
      -0.041
       0.240
       0.315
       0.272
       0.378
       0.829
       1.543
       2.172
       2.358
       2.003
       1.337
       0.731
       0.426
       0.403
       0.468
       0.471
       0.428
       0.479
       0.717
       1.077
       1.384
       1.488
       1.363
       1.086
       0.739
       0.333
      -0.165
      -0.756
      -1.351
      -1.809
      -2.036
      -2.041
      -1.924
      -1.787
      -1.673
      -1.572
      -1.475
      -1.412
      -1.407
      -1.406
      -1.292
      -0.984
      -0.520
      -0.024
       0.433
       0.891
       1.428
       2.019
       2.514
       2.762
       2.738
       2.542
       2.276
       1.958
       1.558
       1.085
       0.607
       0.189
      -0.177
      -0.548
      -0.944
      -1.305
      -1.535
      -1.579
      -1.445
      -1.165
      -0.766
      -0.307
       0.085
       0.241
       0.056
      -0.420
      -0.989
      -1.418
      -1.596
      -1.611
      -1.681
      -1.963
      -2.382
      -2.640
      -2.398
      -1.514
      -0.131
       1.425
       2.844
       3.954
       4.697
       5.034
       4.915
       4.342
       3.428
       2.363
       1.328
       0.437
      -0.232
      -0.600
      -0.605
      -0.289
       0.144
       0.371
       0.115
      -0.671
      -1.728
      -2.619
      -2.999
      -2.851
      -2.493
      -2.312
      -2.458
      -2.771
      -2.980
      -2.956
      -2.769
      -2.539
      -2.309
      -2.046
      -1.728
      -1.383
      -1.041
      -0.682
      -0.231
       0.376
       1.128
       1.899
       2.491
       2.732
       2.590
       2.222
       1.910
       1.912
       2.321
       3.033
       3.815
       4.444
       4.802
       4.899
       4.820
       4.651
       4.411
       4.031
       3.413
       2.508
       1.366
       0.094
      -1.212
      -2.484
      -3.641
      -4.573
      -5.202
      -5.570
      -5.814
      -6.021
      -6.102
      -5.843
      -5.121
      -4.049
      -2.912
      -1.925
      -1.080
      -0.221
       0.728
       1.598
       2.072
       1.945
       1.341
       0.668
       0.312
       0.347
       0.511
       0.486
       0.205
      -0.101
      -0.141
       0.160
       0.604
       0.883
       0.789
       0.327
      -0.317
      -0.859
      -1.036
      -0.731
      -0.070
       0.587
       0.826
       0.446
      -0.367
      -1.129
      -1.371
      -0.949
      -0.099
       0.803
       1.530
       2.102
       2.639
       3.146
       3.451
       3.330
       2.680
       1.628
       0.501
      -0.313
      -0.566
      -0.282
       0.271
       0.777
       1.071
       1.200
       1.327
       1.587
       2.000
       2.479
       2.887
       3.099
       3.023
       2.600
       1.797
       0.632
      -0.792
      -2.283
      -3.626
      -4.662
      -5.335
      -5.672
      -5.748
      -5.652
      -5.457
      -5.179
      -4.768
      -4.135
      -3.202
      -1.931
      -0.364
       1.333
       2.882
       3.994
       4.520
       4.516
       4.142
       3.520
       2.678
       1.669
       0.684
       0.009
      -0.202
      -0.116
      -0.148
      -0.638
      -1.535
      -2.402
      -2.741
      -2.374
      -1.547
      -0.696
      -0.093
       0.297
       0.653
       1.037
       1.316
       1.324
       1.069
       0.763
       0.625
       0.670
       0.681
       0.398
      -0.237
      -0.953
      -1.280
      -0.844
       0.333
       1.761
       2.721
       2.732
       1.914
       0.951
       0.609
       1.147
       2.118
       2.749
       2.577
       1.770
       0.886
       0.307
      -0.099
      -0.814
      -2.177
      -4.002
      -5.655
      -6.487
      -6.274
      -5.325
      -4.205
      -3.335
      -2.771
      -2.297
      -1.663
      -0.755
       0.405
       1.732
       3.090
       4.262
       4.995
       5.166
       4.963
       4.848
       5.267
       6.265
       7.343
       7.698
       6.727
       4.429
       1.441
      -1.333
      -3.230
      -4.160
      -4.545
      -4.934
      -5.577
      -6.260
      -6.519
      -6.029
      -4.869
      -3.469
      -2.344
      -1.841
      -2.044
      -2.800
      -3.767
      -4.484
      -4.553
      -3.865
      -2.678
      -1.424
      -0.361
       0.614
       1.818
       3.440
       5.324
       7.088
       8.436
       9.329
       9.850
       9.915
       9.175
       7.285
       4.332
       1.008
      -1.693
      -3.108
      -3.378
      -3.352
      -3.937
      -5.385
      -7.100
      -8.114
      -7.807
      -6.300
      -4.274
      -2.476
      -1.332
      -0.874
      -0.882
      -1.033
      -0.985
      -0.482
       0.482
       1.578
       2.294
       2.304
       1.763
       1.240
       1.308
       2.119
       3.320
       4.350
       4.851
       4.872
       4.741
       4.751
       4.942
       5.118
       5.033
       4.573
       3.763
       2.667
       1.317
      -0.228
      -1.791
      -3.102
      -3.972
      -4.457
      -4.834
      -5.360
      -6.041
      -6.626
      -6.828
      -6.542
      -5.848
      -4.834
      -3.471
      -1.700
       0.347
       2.261
       3.547
       3.904
       3.382
       2.283
       0.975
      -0.214
      -1.019
      -1.251
      -0.897
      -0.207
       0.347
       0.335
      -0.330
      -1.280
      -1.922
      -1.823
      -0.940
       0.456
       2.031
       3.540
       4.780
       5.494
       5.407
       4.413
       2.745
       0.934
      -0.447
      -1.084
      -1.074
      -0.827
      -0.777
      -1.110
      -1.665
      -2.080
      -2.057
      -1.556
      -0.813
      -0.195
       0.024
      -0.182
      -0.592
      -0.920
      -1.042
      -1.059
      -1.134
      -1.258
      -1.218
      -0.812
      -0.099
       0.582
       0.865
       0.630
       0.110
      -0.261
      -0.100
       0.679
       1.750
       2.466
       2.168
       0.619
      -1.703
      -3.750
      -4.485
      -3.524
      -1.368
       1.000
       2.801
       3.896
       4.671
       5.533
       6.488
       7.104
       6.850
       5.481
       3.160
       0.291
      -2.673
      -5.261
      -6.933
      -7.202
      -5.979
      -3.843
      -1.854
      -0.923
      -1.194
      -2.001
      -2.470
      -2.275
      -1.910
      -2.251
      -3.789
      -6.152
      -8.256
      -8.941
      -7.664
      -4.801
      -1.369
       1.622
       3.712
       5.058
       6.050
       6.906
       7.544
       7.752
       7.400
       6.491
       5.130
       3.533
       2.067
       1.167
       1.066
       1.585
       2.228
       2.589
       2.664
       2.757
       3.079
       3.459
       3.469
       2.836
       1.705
       0.482
      -0.579
      -1.632
      -3.060
      -5.022
      -7.177
      -8.876
      -9.663
      -9.628
      -9.267
      -8.992
      -8.731
      -7.997
      -6.379
      -4.009
      -1.558
       0.265
       1.282
       1.952
       2.923
       4.441
       6.155
       7.450
       7.947
       7.711
       7.059
       6.259
       5.403
       4.545
       3.850
       3.544
       3.657
       3.857
       3.629
       2.725
       1.457
       0.500
       0.300
       0.630
       0.712
      -0.150
      -2.004
      -4.220
      -5.957
      -6.696
      -6.466
      -5.703
      -4.923
      -4.425
      -4.140
      -3.719
      -2.798
      -1.305
       0.406
       1.736
       2.223
       1.846
       1.032
       0.376
       0.331
       1.048
       2.399
       4.078
       5.697
       6.876
       7.334
       6.954
       5.780
       3.942
       1.571
      -1.196
      -4.132
      -6.849
      -8.901
     -10.044
     -10.413
     -10.398
     -10.254
      -9.827
      -8.698
      -6.687
      -4.225
      -2.192
      -1.243
      -1.180
      -0.975
       0.464
       3.338
       6.666
       8.975
       9.420
       8.364
       6.919
       5.890
       5.147
       4.008
       2.215
       0.500
       0.128
       1.860
       5.278
       9.036
      11.692
      12.412
      11.115
       8.213
       4.316
       0.125
      -3.592
      -6.121
      -7.065
      -6.571
      -5.260
      -3.877
      -2.897
      -2.416
      -2.368
      -2.791
      -3.839
      -5.463
      -7.123
      -7.909
      -7.125
      -4.897
      -2.243
      -0.471
      -0.309
      -1.456
      -2.872
      -3.569
      -3.237
      -2.280
      -1.311
      -0.644
      -0.174
       0.327
       0.896
       1.328
       1.411
       1.159
       0.816
       0.661
       0.834
       1.316
       2.018
       2.851
       3.716
       4.480
       4.975
       5.035
       4.577
       3.681
       2.593
       1.632
       1.074
       1.078
       1.648
       2.552
       3.281
       3.221
       2.025
      -0.066
      -2.314
      -3.963
      -4.760
      -5.075
      -5.545
      -6.515
      -7.694
      -8.269
      -7.417
      -4.871
      -1.161
       2.697
       5.800
       7.762
       8.626
       8.508
       7.405
       5.319
       2.507
      -0.455
      -2.862
      -4.173
      -4.213
      -3.201
      -1.584
       0.161
       1.658
       2.631
       2.875
       2.319
       1.135
      -0.245
      -1.315
      -1.726
      -1.378
      -0.312
       1.369
       3.416
       5.282
       6.191
       5.496
       3.095
      -0.433
      -4.076
      -6.856
      -8.234
      -8.238
      -7.301
      -5.944
      -4.517
      -3.142
      -1.866
      -0.810
      -0.177
      -0.103
      -0.504
      -1.051
      -1.267
      -0.705
       0.848
       3.187
       5.677
       7.470
       7.889
       6.766
       4.533
       2.013
      -0.008
      -1.178
      -1.650
      -1.761
      -1.610
      -0.975
       0.316
       1.938
       3.083
       2.996
       1.549
      -0.692
      -2.905
      -4.498
      -5.206
      -4.892
      -3.444
      -1.007
       1.710
       3.524
       3.407
       1.190
      -2.255
      -5.540
      -7.567
      -7.995
      -7.124
      -5.427
      -3.186
      -0.493
       2.474
       5.239
       7.114
       7.569
       6.618
       4.891
       3.299
       2.494
       2.506
       2.805
       2.697
       1.755
       0.056
      -1.874
      -3.350
      -3.910
      -3.564
      -2.735
      -1.941
      -1.476
      -1.344
      -1.432
      -1.680
      -2.091
      -2.602
      -2.993
      -2.937
      -2.198
      -0.826
       0.766
       1.923
       2.024
       0.804
      -1.420
      -3.797
      -5.284
      -5.090
      -2.951
       0.823
       5.438
       9.770
      12.698
      13.571
      12.510
      10.245
       7.593
       5.017
       2.613
       0.420
      -1.343
      -2.361
      -2.516
      -2.043
      -1.371
      -0.814
      -0.455
      -0.330
      -0.631
      -1.602
      -3.221
      -5.054
      -6.537
      -7.436
      -8.007
      -8.720
      -9.812
     -11.078
     -11.986
     -11.970
     -10.700
      -8.217
      -4.897
      -1.304
       1.985
       4.526
       6.133
       6.949
       7.428
       8.192
       9.734
      12.072
      14.541
      15.975
      15.307
      12.290
       7.771
       3.245
      -0.026
      -1.657
      -2.100
      -2.104
      -2.162
      -2.309
      -2.287
      -1.883
      -1.233
      -0.880
      -1.503
      -3.453
      -6.407
      -9.425
     -11.431
     -11.811
     -10.733
      -8.971
      -7.345
      -6.194
      -5.257
      -3.983
      -1.956
       0.891
       4.298
       7.761
      10.553
      11.811
      10.853
       7.668
       3.234
      -0.709
      -2.479
      -1.408
       1.760
       5.380
       7.999
       9.167
       9.353
       9.120
       8.405
       6.599
       3.347
      -0.707
      -4.023
      -5.105
      -3.579
      -0.529
       2.179
       3.095
       1.997
      -0.275
      -2.706
      -4.904
      -7.138
      -9.701
     -12.258
     -13.810
     -13.366
     -10.786
      -7.059
      -3.726
      -1.883
      -1.556
      -1.889
      -1.874
      -1.023
       0.429
       1.816
       2.523
       2.349
       1.589
       0.842
       0.710
       1.499
       3.056
       4.793
       5.941
       5.956
       4.844
       3.178
       1.737
       1.040
       1.085
       1.464
       1.714
       1.586
       1.068
       0.240
      -0.788
      -1.775
      -2.278
      -1.859
      -0.472
       1.368
       2.885
       3.585
       3.547
       3.203
       2.808
       2.139
       0.712
      -1.673
      -4.569
      -7.066
      -8.352
      -8.163
      -6.762
      -4.562
      -1.835
       1.225
       4.246
       6.600
       7.685
       7.328
       5.931
       4.191
       2.635
       1.364
       0.195
      -0.997
      -2.084
      -2.791
      -2.929
      -2.522
      -1.729
      -0.697
       0.490
       1.731
       2.779
       3.270
       2.959
       1.983
       0.889
       0.293
       0.389
       0.730
       0.529
      -0.701
      -2.718
      -4.716
      -5.937
      -6.217
      -6.019
      -6.003
      -6.520
      -7.396
      -8.075
      -7.930
      -6.570
      -4.030
      -0.802
       2.327
       4.595
       5.650
       5.755
       5.650
       6.053
       7.133
       8.364
       8.898
       8.183
       6.327
       3.988
       1.924
       0.598
       0.080
       0.182
       0.604
       0.975
       0.859
      -0.076
      -1.797
      -3.795
      -5.318
      -5.800
      -5.154
      -3.724
      -2.039
      -0.589
       0.302
       0.546
       0.318
      -0.045
      -0.251
      -0.258
      -0.260
      -0.493
      -1.023
      -1.738
      -2.505
      -3.291
      -4.100
      -4.831
      -5.222
      -4.956
      -3.818
      -1.798
       0.872
       3.720
       6.110
       7.433
       7.411
       6.327
       4.975
       4.271
       4.709
       6.030
       7.374
       7.825
       6.947
       4.966
       2.501
       0.118
      -1.950
      -3.737
      -5.252
      -6.266
      -6.395
      -5.402
      -3.441
      -1.083
       0.863
       1.640
       0.866
      -1.232
      -3.839
      -5.876
      -6.505
      -5.515
      -3.385
      -1.006
       0.795
       1.631
       1.628
       1.192
       0.709
       0.394
       0.322
       0.511
       0.932
       1.470
       1.935
       2.158
       2.070
       1.694
       1.072
       0.257
      -0.657
      -1.548
      -2.321
      -2.935
      -3.351
      -3.522
      -3.490
      -3.441
      -3.561
      -3.740
      -3.455
      -2.096
       0.470
       3.613
       6.258
       7.566
       7.428
       6.411
       5.275
       4.444
       3.803
       2.928
       1.545
      -0.184
      -1.759
      -2.713
      -2.869
      -2.313
      -1.243
       0.078
       1.273
       1.886
       1.597
       0.451
      -1.103
      -2.445
      -3.142
      -3.170
      -2.830
      -2.455
      -2.209
      -2.128
      -2.271
      -2.730
      -3.450
      -4.106
      -4.220
      -3.450
      -1.826
       0.253
       2.234
       3.673
       4.389
       4.435
       3.978
       3.202
       2.296
       1.490
       1.057
       1.268
       2.278
       3.978
       5.907
       7.313
       7.447
       5.985
       3.294
       0.293
      -2.061
      -3.323
      -3.770
      -4.131
      -5.038
      -6.582
      -8.243
      -9.211
      -8.869
      -7.141
      -4.556
      -1.977
      -0.164
       0.587
       0.520
       0.189
       0.092
       0.446
       1.165
       1.970
       2.554
       2.713
       2.414
       1.776
       1.008
       0.343
      -0.041
      -0.118
      -0.065
      -0.117
      -0.313
      -0.398
      -0.058
       0.728
       1.597
       2.084
       1.991
       1.504
       1.012
       0.797
       0.867
       1.007
       1.017
       0.940
       1.035
       1.473
       2.030
       2.163
       1.481
       0.184
      -0.990
      -1.275
      -0.397
       1.291
       3.083
       4.332
       4.747
       4.450
       3.800
       3.138
       2.594
       2.053
       1.256
      -0.010
      -1.725
      -3.568
      -5.059
      -5.839
      -5.911
      -5.632
      -5.426
      -5.459
      -5.553
      -5.423
      -4.987
      -4.426
      -3.967
      -3.615
      -3.125
      -2.227
      -0.886
       0.646
       1.997
       2.912
       3.387
       3.602
       3.754
       3.937
       4.147
       4.364
       4.585
       4.772
       4.812
       4.560
       3.952
       3.076
       2.112
       1.179
       0.238
      -0.832
      -1.996
      -2.887
      -2.949
      -1.885
      -0.056
       1.585
       2.057
       1.009
      -1.071
      -3.231
      -4.706
      -5.304
      -5.287
      -5.005
      -4.643
      -4.234
      -3.750
      -3.112
      -2.154
      -0.697
       1.252
       3.353
       5.036
