Origin Time       21/9/2009 8:53:04	 
Lat.              27.3 N	
Long.             91.5 E	
Depth (Km)          8.0
Magnitude         6.2
 Region           BHUTAN                                                           
 Above details taken from IMD 
   
Station Code      NON
Station Lat.       25.522
Station Long.      91.264
Station Height(m) 1367.0
Site Class        A   Vs30 between 700 m/sec to 1400 m/sec * 
Record Time       21.09.2009 08:53:26.414
Sampling Rate     200. Hz
 Record Duration  106.335 Sec.
 Direction         Vert. (Up positive)
Max. Acceleration    -15.674 cm/sec**2
     
  * For reference see Site Classification link of website 
     
 Base Line Corrected and Low Pass Filtered (Cut Off at 35 Hz) Time History
 Acceleration data in cm/sec**2
    
[...]
      -0.431
      -0.469
      -0.381
      -0.077
       0.417
       0.947
       1.314
       1.405
       1.250
       0.980
       0.720
       0.525
       0.386
       0.258
       0.089
      -0.162
      -0.499
      -0.858
      -1.122
      -1.187
      -1.021
      -0.686
      -0.285
       0.103
       0.444
       0.739
       0.983
       1.162
       1.263
       1.285
       1.240
       1.141
       0.990
       0.781
       0.497
       0.136
      -0.266
      -0.618
      -0.805
      -0.762
      -0.526
      -0.231
      -0.025
       0.008
      -0.109
      -0.286
      -0.431
      -0.495
      -0.484
      -0.427
      -0.342
      -0.213
       0.003
       0.331
       0.732
       1.082
       1.214
       1.023
       0.547
      -0.037
      -0.518
      -0.772
      -0.828
      -0.814
      -0.849
      -0.968
      -1.111
      -1.191
      -1.146
      -0.972
      -0.695
      -0.339
       0.090
       0.591
       1.139
       1.659
       2.031
       2.130
       1.873
       1.271
       0.440
      -0.424
      -1.107
      -1.476
      -1.532
      -1.401
      -1.249
      -1.177
      -1.176
      -1.168
      -1.076
      -0.879
      -0.604
      -0.293
       0.024
       0.344
       0.682
       1.045
       1.393
       1.627
       1.631
       1.364
       0.914
       0.468
       0.185
       0.091
       0.066
      -0.042
      -0.300
      -0.644
      -0.950
      -1.127
      -1.167
      -1.118
      -1.038
      -0.952
      -0.849
      -0.696
      -0.460
      -0.148
       0.170
       0.376
       0.363
       0.119
      -0.247
      -0.553
      -0.645
      -0.480
      -0.135
       0.247
       0.529
       0.635
       0.561
       0.361
       0.121
      -0.065
      -0.121
      -0.013
       0.239
       0.566
       0.873
       1.077
       1.136
       1.055
       0.865
       0.594
       0.268
      -0.076
      -0.375
      -0.555
      -0.583
      -0.491
      -0.375
      -0.329
      -0.383
      -0.478
      -0.520
      -0.450
      -0.293
      -0.133
      -0.036
      -0.016
      -0.035
      -0.053
      -0.048
      -0.017
       0.043
       0.132
       0.237
       0.342
       0.456
       0.615
       0.835
       1.071
       1.220
       1.190
       0.976
       0.668
       0.387
       0.198
       0.085
      -0.016
      -0.152
      -0.318
      -0.467
      -0.548
      -0.544
      -0.475
      -0.382
      -0.291
      -0.195
      -0.053
       0.176
       0.489
       0.816
       1.047
       1.102
       0.988
       0.796
       0.642
       0.585
       0.594
       0.573
       0.432
       0.148
      -0.215
      -0.538
      -0.716
      -0.718
      -0.613
      -0.517
      -0.515
      -0.601
      -0.691
      -0.679
      -0.511
      -0.217
       0.111
       0.364
       0.479
       0.476
       0.439
       0.466
       0.596
       0.782
       0.923
       0.913
       0.699
       0.296
      -0.210
      -0.692
      -1.027
      -1.153
      -1.099
      -0.948
      -0.776
      -0.601
      -0.396
      -0.144
       0.124
       0.332
       0.414
       0.366
       0.251
       0.149
       0.092
       0.038
      -0.097
      -0.344
      -0.624
      -0.769
      -0.639
      -0.245
       0.235
       0.557
       0.569
       0.292
      -0.117
      -0.478
      -0.691
      -0.757
      -0.750
      -0.758
      -0.844
      -1.018
      -1.232
      -1.398
      -1.426
      -1.277
      -0.989
      -0.662
      -0.388
      -0.185
       0.030
       0.369
       0.870
       1.435
       1.887
       2.097
       2.076
       1.951
       1.855
       1.833
       1.841
       1.807
       1.688
       1.484
       1.220
       0.931
       0.642
       0.362
       0.076
      -0.240
      -0.582
      -0.902
      -1.127
      -1.199
      -1.113
      -0.908
      -0.654
      -0.426
      -0.287
      -0.263
      -0.321
      -0.377
      -0.345
      -0.194
       0.028
       0.233
       0.341
       0.315
       0.159
      -0.093
      -0.386
      -0.664
      -0.890
      -1.059
      -1.189
      -1.284
      -1.320
      -1.273
      -1.142
      -0.948
      -0.683
      -0.295
       0.274
       1.002
       1.748
       2.312
       2.567
       2.540
       2.379
       2.224
       2.097
       1.903
       1.515
       0.890
       0.106
      -0.678
      -1.303
      -1.671
      -1.766
      -1.634
      -1.336
      -0.919
      -0.401
       0.213
       0.903
       1.610
       2.225
       2.628
       2.730
       2.528
       2.116
       1.643
       1.252
       1.008
       0.883
       0.787
       0.633
       0.403
       0.162
       0.011
       0.007
       0.114
       0.224
       0.248
       0.190
       0.153
       0.256
       0.538
       0.926
       1.286
       1.505
       1.552
       1.471
       1.329
       1.163
       0.960
       0.680
       0.303
      -0.126
      -0.504
      -0.718
      -0.717
      -0.558
      -0.379
      -0.323
      -0.444
      -0.674
      -0.856
      -0.843
      -0.597
      -0.212
       0.144
       0.329
       0.306
       0.143
      -0.040
      -0.135
      -0.092
       0.076
       0.318
       0.561
       0.742
       0.822
       0.788
       0.642
       0.392
       0.072
      -0.248
      -0.468
      -0.514
      -0.402
      -0.250
      -0.212
      -0.366
      -0.652
      -0.906
      -0.978
      -0.838
      -0.601
      -0.448
      -0.503
      -0.763
      -1.107
      -1.390
      -1.538
      -1.586
      -1.632
      -1.757
      -1.952
      -2.120
      -2.136
      -1.932
      -1.556
      -1.146
      -0.853
      -0.735
      -0.732
      -0.706
      -0.535
      -0.178
       0.332
       0.932
       1.560
       2.160
       2.669
       3.020
       3.177
       3.157
       3.011
       2.782
       2.476
       2.072
       1.576
       1.028
       0.476
      -0.066
      -0.610
      -1.158
      -1.671
      -2.085
      -2.348
      -2.428
      -2.301
      -1.945
      -1.374
      -0.659
       0.089
       0.784
       1.416
       2.019
       2.609
       3.149
       3.568
       3.810
       3.854
       3.707
       3.386
       2.921
       2.361
       1.763
       1.179
       0.636
       0.138
      -0.329
      -0.789
      -1.255
      -1.715
      -2.118
      -2.403
      -2.535
      -2.525
      -2.408
      -2.211
      -1.935
      -1.576
      -1.141
      -0.658
      -0.183
       0.196
       0.366
       0.236
      -0.196
      -0.801
      -1.368
      -1.707
      -1.744
      -1.540
      -1.239
      -0.982
      -0.856
      -0.874
      -0.995
      -1.149
      -1.281
      -1.370
      -1.432
      -1.476
      -1.478
      -1.396
      -1.219
      -0.988
      -0.761
      -0.550
      -0.314
      -0.013
       0.325
       0.608
       0.763
       0.811
       0.855
       0.998
       1.271
       1.627
       1.982
       2.254
       2.370
       2.287
       2.012
       1.618
       1.201
       0.832
       0.538
       0.318
       0.178
       0.117
       0.116
       0.139
       0.177
       0.269
       0.476
       0.814
       1.226
       1.605
       1.855
       1.945
       1.909
       1.812
       1.703
       1.575
       1.371
       1.020
       0.502
      -0.129
      -0.774
      -1.355
      -1.848
      -2.266
      -2.612
      -2.849
      -2.926
      -2.827
      -2.598
      -2.347
      -2.197
      -2.232
      -2.468
      -2.857
      -3.324
      -3.806
      -4.272
      -4.722
      -5.157
      -5.543
      -5.799
      -5.826
      -5.574
      -5.085
      -4.502
      -4.001
      -3.719
      -3.684
      -3.816
      -3.959
      -3.951
      -3.687
      -3.159
      -2.438
      -1.628
      -0.795
       0.056
       0.959
       1.937
       2.979
       4.049
       5.119
       6.164
       7.134
       7.930
       8.424
       8.520
       8.195
       7.483
       6.431
       5.071
       3.463
       1.734
       0.059
      -1.416
      -2.648
      -3.675
      -4.535
      -5.197
      -5.580
      -5.626
      -5.351
      -4.829
      -4.142
      -3.344
      -2.461
      -1.510
      -0.510
       0.523
       1.557
       2.525
       3.325
       3.864
       4.104
       4.080
       3.850
       3.447
       2.872
       2.135
       1.301
       0.487
      -0.176
      -0.594
      -0.740
      -0.651
      -0.426
      -0.191
      -0.057
      -0.050
      -0.094
      -0.068
       0.100
       0.377
       0.656
       0.844
       0.923
       0.928
       0.882
       0.765
       0.529
       0.138
      -0.419
      -1.129
      -1.931
      -2.693
      -3.250
      -3.479
      -3.376
      -3.021
      -2.504
      -1.853
      -1.067
      -0.199
       0.616
       1.224
       1.561
       1.689
       1.733
       1.760
       1.727
       1.504
       0.984
       0.170
      -0.799
      -1.720
      -2.430
      -2.886
      -3.161
      -3.368
      -3.563
      -3.719
      -3.755
      -3.594
      -3.212
      -2.642
      -1.981
      -1.376
      -0.993
      -0.959
      -1.303
      -1.949
      -2.747
      -3.541
      -4.212
      -4.689
      -4.952
      -5.029
      -4.973
      -4.822
      -4.562
      -4.131
      -3.479
      -2.650
      -1.799
      -1.148
      -0.896
      -1.173
      -2.013
      -3.360
      -5.056
      -6.877
      -8.618
     -10.192
     -11.645
     -13.046
     -14.320
     -15.191
     -15.286
     -14.330
     -12.297
      -9.428
      -6.129
      -2.815
       0.222
       2.875
       5.189
       7.252
       9.058
      10.450
      11.192
      11.126
      10.299
       8.961
       7.451
       6.081
       5.074
       4.552
       4.539
       4.962
       5.659
       6.410
       7.010
       7.327
       7.328
       7.045
       6.502
       5.677
       4.521
       3.032
       1.301
      -0.500
      -2.187
      -3.612
      -4.684
      -5.343
      -5.537
      -5.215
      -4.352
      -2.968
      -1.144
       0.993
       3.293
       5.615
       7.831
       9.827
      11.491
      12.720
      13.439
      13.625
      13.349
      12.764
      12.023
      11.195
      10.240
       9.103
       7.832
       6.589
       5.562
       4.840
       4.395
       4.156
       4.086
       4.167
       4.330
       4.437
       4.362
       4.063
       3.577
       2.930
       2.092
       1.032
      -0.221
      -1.585
      -2.998
      -4.450
      -5.914
      -7.273
      -8.327
      -8.893
      -8.898
      -8.393
      -7.500
      -6.355
      -5.084
      -3.770
      -2.447
      -1.113
       0.201
       1.395
       2.328
       2.914
       3.173
       3.202
       3.097
       2.911
       2.672
       2.401
       2.089
       1.665
       1.029
       0.148
      -0.888
      -1.920
      -2.839
      -3.636
      -4.328
      -4.851
      -5.042
      -4.755
      -3.975
      -2.834
      -1.520
      -0.201
       0.985
       1.893
       2.383
       2.374
       1.893
       1.076
       0.105
      -0.876
      -1.826
      -2.801
      -3.866
      -5.006
      -6.110
      -7.015
      -7.573
      -7.697
      -7.363
      -6.583
      -5.385
      -3.802
      -1.880
       0.302
       2.598
       4.794
       6.667
       8.081
       9.018
       9.525
       9.635
       9.347
       8.670
       7.646
       6.331
       4.769
       3.021
       1.211
      -0.464
      -1.790
      -2.644
      -3.065
      -3.204
      -3.221
      -3.203
      -3.176
      -3.169
      -3.265
      -3.556
      -4.062
      -4.682
      -5.232
      -5.539
      -5.503
      -5.098
      -4.357
      -3.367
      -2.258
      -1.176
      -0.224
       0.572
       1.237
       1.815
       2.346
       2.869
       3.411
       3.961
       4.466
       4.861
       5.125
       5.292
       5.398
       5.417
       5.256
       4.826
       4.099
       3.096
       1.834
       0.337
      -1.294
      -2.841
      -4.036
      -4.699
      -4.786
      -4.324
      -3.331
      -1.839
       0.009
       1.946
       3.690
       5.071
       6.056
       6.646
       6.804
       6.482
       5.709
       4.614
       3.374
       2.138
       1.011
       0.048
      -0.757
      -1.496
      -2.308
      -3.269
      -4.277
      -5.058
      -5.294
      -4.797
      -3.603
      -1.969
      -0.284
       1.046
       1.745
       1.785
       1.406
       0.998
       0.901
       1.246
       1.921
       2.674
       3.289
       3.698
       3.998
       4.351
       4.859
       5.474
       6.003
       6.209
       5.954
       5.272
       4.349
       3.417
       2.647
       2.082
       1.642
       1.173
       0.531
      -0.338
      -1.360
      -2.373
      -3.216
      -3.785
      -4.035
      -3.955
      -3.560
      -2.913
      -2.129
      -1.324
      -0.558
       0.186
       0.958
       1.776
       2.589
       3.271
       3.657
       3.610
       3.072
       2.093
       0.815
      -0.565
      -1.843
      -2.846
      -3.479
      -3.739
      -3.693
      -3.432
      -3.023
      -2.491
      -1.837
      -1.072
      -0.235
       0.611
       1.381
       1.962
       2.208
       1.971
       1.159
      -0.225
      -2.093
      -4.304
      -6.699
      -9.116
     -11.389
     -13.346
     -14.815
     -15.637
     -15.674
     -14.837
     -13.122
     -10.635
      -7.594
      -4.274
      -0.940
       2.198
       4.989
       7.319
       9.072
      10.132
      10.405
       9.867
       8.598
       6.774
       4.622
       2.362
       0.180
      -1.773
      -3.362
      -4.461
      -4.982
      -4.910
      -4.318
      -3.337
      -2.097
      -0.690
       0.801
       2.262
       3.520
       4.381
       4.714
       4.510
       3.884
       3.023
       2.113
       1.298
       0.672
       0.272
       0.098
       0.129
       0.336
       0.687
       1.143
       1.664
       2.237
       2.861
       3.517
       4.115
       4.489
       4.470
       3.967
       3.024
       1.779
       0.385
      -1.059
      -2.517
      -3.961
      -5.304
      -6.364
      -6.900
      -6.719
      -5.796
      -4.319
      -2.623
      -1.037
       0.233
       1.117
       1.634
       1.826
       1.750
       1.460
       0.987
       0.303
      -0.645
      -1.852
      -3.177
      -4.356
      -5.097
      -5.192
      -4.592
      -3.394
      -1.793
      -0.007
       1.789
       3.497
       5.075
       6.477
       7.578
       8.170
       8.039
       7.077
       5.352
       3.084
       0.566
      -1.922
      -4.149
      -5.940
      -7.174
      -7.800
      -7.832
      -7.316
      -6.298
      -4.814
      -2.915
      -0.671
       1.836
       4.493
       7.098
       9.323
      10.799
      11.276
      10.751
       9.430
       7.569
       5.344
       2.851
       0.191
      -2.467
      -4.899
      -6.873
      -8.179
      -8.660
      -8.290
      -7.222
      -5.741
      -4.106
      -2.402
      -0.541
       1.565
       3.826
       5.956
       7.613
       8.574
       8.795
       8.367
       7.438
       6.169
       4.716
       3.217
       1.787
       0.518
      -0.527
      -1.328
      -1.942
      -2.495
      -3.125
      -3.902
      -4.782
      -5.647
      -6.387
      -6.960
      -7.390
      -7.707
      -7.893
      -7.882
      -7.589
      -6.952
      -5.969
      -4.709
      -3.307
      -1.924
      -0.680
       0.403
       1.393
       2.359
       3.232
       3.771
       3.678
       2.801
       1.257
      -0.622
      -2.452
      -3.951
      -4.987
      -5.541
      -5.629
      -5.256
      -4.385
      -2.968
      -1.021
       1.286
       3.607
       5.510
       6.661
       6.967
       6.612
       5.938
       5.265
       4.737
       4.272
       3.643
       2.642
       1.251
      -0.297
      -1.601
      -2.296
      -2.233
      -1.532
      -0.462
       0.737
       1.973
       3.268
       4.625
       5.926
       6.944
       7.463
       7.387
       6.769
       5.744
       4.449
       2.970
       1.362
      -0.303
      -1.898
      -3.253
      -4.212
      -4.704
      -4.777
      -4.567
      -4.220
      -3.815
      -3.344
      -2.747
      -2.002
      -1.176
      -0.428
       0.066
       0.204
       0.035
      -0.251
      -0.408
      -0.267
       0.159
       0.680
       1.053
       1.151
       1.072
       1.089
       1.469
       2.287
       3.348
       4.286
       4.769
       4.684
       4.183
       3.581
       3.158
       2.997
       2.952
       2.757
       2.216
       1.345
       0.366
      -0.433
      -0.885
      -1.026
      -1.047
      -1.147
      -1.401
      -1.730
      -1.974
      -2.015
      -1.860
      -1.632
      -1.496
      -1.579
      -1.912
      -2.417
      -2.932
      -3.292
      -3.405
      -3.283
      -2.990
      -2.571
      -2.022
      -1.339
      -0.585
       0.108
       0.605
       0.852
       0.876
       0.736
       0.480
       0.145
      -0.234
      -0.640
      -1.085
      -1.570
      -2.018
      -2.264
      -2.170
      -1.742
      -1.155
      -0.639
      -0.329
      -0.206
      -0.134
       0.072
       0.580
       1.482
       2.706
       3.976
       4.920
       5.280
       5.080
       4.578
       4.039
       3.546
       2.997
       2.257
       1.296
       0.201
      -0.876
      -1.773
      -2.360
      -2.594
      -2.566
      -2.472
      -2.470
      -2.557
      -2.561
      -2.279
      -1.622
      -0.654
       0.484
       1.659
       2.757
       3.650
       4.202
       4.310
       3.958
       3.216
       2.213
       1.106
       0.047
      -0.864
      -1.616
      -2.260
      -2.830
      -3.274
      -3.465
      -3.272
      -2.647
      -1.656
      -0.467
       0.673
       1.484
       1.743
       1.376
       0.497
      -0.669
      -1.926
      -3.196
      -4.481
      -5.758
      -6.897
      -7.689
      -7.943
      -7.589
      -6.733
      -5.641
      -4.644
      -4.010
      -3.813
      -3.900
      -3.974
      -3.736
      -3.006
      -1.768
      -0.139
       1.679
       3.442
       4.910
       5.915
       6.403
       6.434
       6.121
       5.570
       4.862
       4.066
       3.254
       2.499
       1.850
       1.308
       0.820
       0.283
      -0.420
      -1.345
      -2.424
      -3.452
      -4.160
      -4.333
      -3.897
      -2.937
      -1.663
      -0.343
       0.774
       1.546
       1.964
       2.123
       2.124
       2.008
       1.749
       1.315
       0.709
      -0.029
      -0.855
      -1.720
      -2.544
      -3.193
      -3.527
      -3.471
      -3.058
      -2.377
      -1.499
      -0.447
       0.760
       2.032
       3.202
       4.077
       4.528
       4.536
       4.179
       3.578
       2.851
       2.091
       1.373
       0.747
       0.233
      -0.182
      -0.516
      -0.760
      -0.876
      -0.833
      -0.667
      -0.498
      -0.467
      -0.643
      -0.980
      -1.351
      -1.634
      -1.765
