Origin Time       07/09/2011 17:58:18
Lat.              28.6 N	
Long.             77.0 E	
Depth (Km)          8.0
Magnitude         4.2
 Region           DELHI-HARYANA(SONIPAT)-Haryana                                   
 Above details taken from IMD 
   
Station Code       NSIT
Station Lat.       28.608
Station Long.      77.041
Station Height(m)  159.0
Site Class        C   Vs30 between 200 m/sec to 375 m/sec *  
Record Time        9/7/2011  ) 17:58:07.0
Sampling Rate     200. Hz
 Record Duration   75.000 Sec.
 Direction         Vert. (Up positive)
Max. Acceleration -18.238 cm/sec**2
     
  * For reference see Site Classification link of website 
     
 Base Line Corrected and Low Pass Filtered (Cut Off at 35 Hz) Time History
 Acceleration data in cm/sec**2
    
[...]
   -0.004
   -0.004
   -0.003
    0.001
    0.003
    0.003
    0.000
   -0.002
   -0.003
   -0.001
    0.000
    0.001
    0.001
    0.000
   -0.001
   -0.003
   -0.004
   -0.004
   -0.002
    0.000
    0.002
    0.000
   -0.004
   -0.005
   -0.004
    0.000
    0.004
    0.005
    0.004
    0.001
    0.000
    0.002
    0.006
    0.007
    0.002
   -0.004
   -0.008
   -0.008
   -0.004
    0.000
    0.001
   -0.001
   -0.005
   -0.008
   -0.010
   -0.010
   -0.007
   -0.002
    0.005
    0.010
    0.012
    0.009
    0.003
   -0.003
   -0.004
    0.001
    0.007
    0.008
    0.003
   -0.002
   -0.004
   -0.003
   -0.001
    0.002
    0.006
    0.007
    0.007
    0.005
    0.001
   -0.002
   -0.003
    0.000
    0.005
    0.010
    0.012
    0.011
    0.004
   -0.004
   -0.010
   -0.009
   -0.004
    0.001
    0.004
    0.005
    0.005
    0.006
    0.008
    0.010
    0.008
    0.002
   -0.004
   -0.006
   -0.004
   -0.002
   -0.001
   -0.001
   -0.001
    0.000
    0.002
    0.003
    0.001
   -0.002
   -0.005
   -0.005
   -0.002
   -0.001
   -0.002
   -0.002
   -0.001
    0.002
    0.003
    0.002
   -0.002
   -0.009
   -0.014
   -0.013
   -0.007
    0.000
    0.005
    0.006
    0.003
   -0.001
   -0.005
   -0.007
   -0.007
   -0.005
   -0.002
    0.001
    0.001
   -0.001
   -0.003
   -0.004
   -0.003
    0.000
    0.004
    0.008
    0.010
    0.008
    0.003
    0.000
   -0.001
    0.001
    0.002
    0.001
   -0.002
   -0.004
    0.000
    0.008
    0.017
    0.019
    0.016
    0.011
    0.008
    0.006
    0.006
    0.006
    0.006
    0.007
    0.007
    0.006
    0.005
    0.003
    0.001
    0.000
   -0.003
   -0.007
   -0.011
   -0.012
   -0.010
   -0.006
   -0.002
    0.000
   -0.001
   -0.003
   -0.004
   -0.002
    0.001
    0.002
    0.001
   -0.002
   -0.004
   -0.006
   -0.006
   -0.004
   -0.005
   -0.008
   -0.009
   -0.005
    0.002
    0.007
    0.005
   -0.002
   -0.008
   -0.009
   -0.005
    0.001
    0.002
    0.000
   -0.004
   -0.004
   -0.002
    0.000
    0.001
    0.000
   -0.001
   -0.002
    0.001
    0.004
    0.004
    0.001
   -0.003
   -0.004
   -0.002
    0.002
    0.005
    0.006
    0.005
    0.004
    0.004
    0.005
    0.004
    0.001
    0.000
    0.003
    0.007
    0.009
    0.007
    0.002
    0.000
    0.001
    0.005
    0.008
    0.004
   -0.003
   -0.009
   -0.008
   -0.003
    0.003
    0.007
    0.009
    0.008
    0.005
    0.002
   -0.002
   -0.006
   -0.008
   -0.007
   -0.002
    0.001
    0.000
   -0.003
   -0.005
   -0.004
   -0.001
    0.001
    0.002
    0.001
   -0.001
   -0.001
    0.001
    0.002
    0.001
   -0.002
   -0.003
   -0.002
   -0.001
    0.000
   -0.001
   -0.003
   -0.002
    0.002
    0.005
    0.005
    0.002
    0.000
    0.000
    0.001
    0.001
   -0.001
   -0.004
   -0.007
   -0.008
   -0.007
   -0.004
   -0.002
   -0.002
   -0.001
    0.002
    0.005
    0.005
    0.004
    0.001
   -0.001
   -0.002
   -0.001
    0.001
    0.000
    0.000
    0.002
    0.006
    0.008
    0.008
    0.005
    0.003
    0.001
   -0.001
   -0.004
   -0.006
   -0.007
   -0.007
   -0.005
   -0.003
   -0.001
   -0.001
    0.002
    0.006
    0.011
    0.011
    0.006
   -0.002
   -0.008
   -0.011
   -0.009
   -0.005
    0.000
    0.004
    0.008
    0.011
    0.011
    0.006
    0.000
   -0.004
   -0.004
   -0.002
    0.001
    0.003
    0.003
    0.002
    0.002
    0.003
    0.003
    0.000
   -0.003
   -0.004
   -0.004
   -0.003
   -0.002
    0.000
    0.002
    0.003
    0.004
    0.005
    0.005
    0.002
    0.000
   -0.002
   -0.002
   -0.001
    0.001
    0.003
    0.005
    0.005
    0.005
    0.005
    0.003
    0.000
   -0.004
   -0.004
   -0.002
    0.002
    0.006
    0.008
    0.007
    0.004
    0.001
    0.001
    0.003
    0.004
    0.002
   -0.001
   -0.004
   -0.007
   -0.008
   -0.006
   -0.004
   -0.005
   -0.006
   -0.005
   -0.003
    0.002
    0.005
    0.006
    0.003
   -0.001
   -0.002
    0.001
    0.004
    0.005
    0.004
    0.003
    0.002
    0.002
    0.003
    0.003
    0.001
   -0.001
    0.000
    0.002
    0.005
    0.003
   -0.001
   -0.004
   -0.005
   -0.004
    0.000
    0.003
    0.004
    0.002
   -0.001
   -0.004
   -0.004
   -0.003
    0.001
    0.006
    0.009
    0.008
    0.006
    0.006
    0.005
    0.004
    0.002
   -0.001
   -0.006
   -0.010
   -0.011
   -0.007
   -0.002
    0.003
    0.006
    0.007
    0.007
    0.005
    0.001
   -0.002
   -0.004
   -0.003
   -0.001
    0.003
    0.004
    0.004
    0.004
    0.003
    0.001
   -0.003
   -0.005
   -0.005
   -0.003
   -0.001
    0.001
    0.002
    0.002
    0.002
    0.003
    0.004
    0.004
    0.001
   -0.003
   -0.006
   -0.007
   -0.007
   -0.004
   -0.001
    0.001
    0.002
    0.003
    0.003
    0.004
    0.004
    0.004
    0.002
    0.001
    0.000
    0.001
    0.003
    0.003
    0.003
    0.003
    0.001
   -0.001
   -0.003
   -0.001
    0.003
    0.008
    0.009
    0.006
    0.001
   -0.004
   -0.007
   -0.005
   -0.001
    0.002
    0.001
   -0.003
   -0.006
   -0.006
   -0.004
   -0.001
    0.000
   -0.001
   -0.003
   -0.003
   -0.002
   -0.003
   -0.004
   -0.003
    0.000
    0.005
    0.007
    0.004
   -0.002
   -0.007
   -0.007
    0.001
    0.011
    0.014
    0.009
    0.001
   -0.003
   -0.001
    0.004
    0.008
    0.009
    0.007
    0.002
    0.000
   -0.001
    0.001
    0.002
    0.002
    0.001
   -0.001
   -0.004
   -0.005
   -0.004
   -0.004
   -0.002
    0.001
    0.005
    0.005
    0.002
   -0.001
   -0.003
   -0.002
    0.001
    0.003
    0.000
   -0.006
   -0.012
   -0.013
   -0.008
   -0.001
    0.004
    0.006
    0.004
    0.000
   -0.003
   -0.003
    0.000
    0.003
    0.003
   -0.001
   -0.005
   -0.006
   -0.004
   -0.001
    0.003
    0.005
    0.007
    0.010
    0.013
    0.012
    0.007
    0.001
   -0.003
   -0.003
    0.002
    0.007
    0.008
    0.003
   -0.004
   -0.007
   -0.004
    0.002
    0.006
    0.007
    0.005
    0.001
   -0.003
   -0.004
   -0.003
   -0.002
   -0.003
   -0.006
   -0.008
   -0.007
   -0.003
    0.001
    0.004
    0.002
   -0.002
   -0.003
   -0.002
    0.002
    0.007
    0.010
    0.010
    0.005
   -0.001
   -0.005
   -0.007
   -0.006
   -0.004
   -0.001
    0.001
    0.001
   -0.003
   -0.007
   -0.008
   -0.005
    0.001
    0.008
    0.010
    0.005
   -0.003
   -0.008
   -0.007
    0.000
    0.007
    0.010
    0.009
    0.005
    0.001
   -0.001
   -0.003
   -0.004
   -0.005
   -0.003
    0.001
    0.003
    0.004
    0.004
    0.001
   -0.001
    0.000
    0.003
    0.006
    0.005
    0.001
   -0.004
   -0.007
   -0.006
   -0.002
    0.003
    0.005
    0.004
   -0.001
   -0.003
   -0.002
    0.001
    0.002
    0.002
    0.002
    0.002
    0.003
    0.005
    0.006
    0.004
    0.001
   -0.001
   -0.001
    0.000
    0.002
    0.003
    0.003
    0.004
    0.006
    0.008
    0.007
    0.004
   -0.001
   -0.004
   -0.003
   -0.001
    0.000
   -0.001
   -0.003
   -0.004
   -0.004
   -0.002
    0.000
    0.001
    0.001
    0.002
    0.003
    0.001
   -0.002
   -0.005
   -0.006
   -0.006
   -0.003
    0.000
    0.001
    0.001
    0.001
    0.003
    0.006
    0.006
    0.003
   -0.002
   -0.004
   -0.004
   -0.003
   -0.001
   -0.002
   -0.003
   -0.002
    0.001
    0.005
    0.007
    0.006
    0.005
    0.005
    0.004
    0.004
    0.005
    0.006
    0.009
    0.011
    0.012
    0.009
    0.003
   -0.002
   -0.002
   -0.001
   -0.001
   -0.003
   -0.006
   -0.006
   -0.005
   -0.001
    0.004
    0.008
    0.009
    0.008
    0.005
    0.002
   -0.001
   -0.002
    0.002
    0.006
    0.008
    0.005
   -0.001
   -0.008
   -0.012
   -0.009
   -0.002
    0.005
    0.007
    0.006
    0.003
   -0.002
   -0.006
   -0.008
   -0.006
   -0.001
    0.001
    0.000
   -0.004
   -0.009
   -0.010
   -0.009
   -0.005
   -0.002
   -0.001
   -0.001
   -0.001
    0.001
    0.003
    0.004
    0.004
    0.004
    0.003
    0.002
    0.003
    0.005
    0.007
    0.008
    0.009
    0.007
    0.004
    0.002
    0.002
    0.003
    0.006
    0.008
    0.008
    0.004
   -0.002
   -0.007
   -0.006
   -0.002
    0.003
    0.005
    0.005
    0.003
    0.000
   -0.002
   -0.006
   -0.013
   -0.019
   -0.012
    0.012
    0.040
    0.044
    0.012
   -0.043
   -0.081
   -0.070
   -0.019
    0.023
    0.015
   -0.041
   -0.097
   -0.111
   -0.093
   -0.111
   -0.264
   -0.624
   -1.167
   -1.731
   -2.083
   -2.092
   -1.858
   -1.625
   -1.486
   -1.185
   -0.274
    1.465
    3.748
    5.958
    7.495
    7.924
    6.872
    4.151
    0.227
   -3.543
   -5.642
   -5.685
   -4.800
   -4.325
   -4.144
   -2.796
    0.425
    3.860
    4.689
    1.990
   -1.840
   -3.257
   -1.118
    2.340
    4.107
    3.466
    1.919
    0.472
   -1.826
   -5.884
   -9.787
   -9.526
   -3.311
    5.446
   10.574
    8.861
    2.998
   -1.281
   -0.652
    3.236
    6.036
    4.969
    0.930
   -3.058
   -4.965
   -5.281
   -5.731
   -6.864
   -7.266
   -5.287
   -1.306
    2.137
    2.781
    1.166
    0.430
    3.239
    8.828
   13.264
   12.821
    7.229
   -0.264
   -5.734
   -7.406
   -6.206
   -4.345
   -3.569
   -4.293
   -5.760
   -6.709
   -6.024
   -3.158
    1.519
    6.454
    9.268
    8.218
    3.832
   -1.067
   -3.422
   -2.347
    0.307
    1.643
    0.097
   -3.423
   -6.284
   -6.116
   -2.624
    2.152
    5.364
    5.424
    2.978
    0.162
   -1.064
   -0.127
    2.012
    3.585
    3.132
    0.556
   -2.615
   -4.275
   -3.424
   -0.938
    1.334
    2.096
    1.292
   -0.365
   -2.176
   -3.696
   -4.388
   -3.479
   -0.638
    3.074
    5.457
    5.044
    2.748
    1.092
    1.614
    3.346
    4.002
    2.264
   -1.284
   -4.972
   -7.220
   -7.212
   -5.203
   -2.443
   -0.443
    0.097
   -0.247
   -0.236
    0.888
    2.820
    4.632
    5.601
    5.556
    4.631
    3.027
    1.104
   -0.600
   -1.706
   -2.279
   -2.645
   -2.967
   -3.106
   -2.884
   -2.337
   -1.607
   -0.712
    0.360
    1.295
    1.412
    0.300
   -1.380
   -2.065
   -0.727
    1.833
    3.521
    2.974
    0.838
   -1.143
   -2.000
   -2.023
   -1.558
   -0.172
    2.403
    4.962
    5.367
    2.775
   -1.070
   -3.283
   -2.552
   -0.222
    1.273
    0.819
   -0.580
   -1.319
   -1.133
   -1.191
   -2.356
   -3.875
   -4.171
   -2.695
   -0.488
    1.150
    2.007
    2.624
    2.985
    2.264
    0.145
   -2.055
   -2.221
    0.335
    3.762
    5.212
    3.651
    0.833
   -0.702
   -0.317
    0.360
   -0.386
   -2.300
   -3.533
   -2.880
   -1.177
   -0.305
   -1.021
   -2.095
   -1.735
    0.249
    2.006
    1.548
   -1.031
   -3.404
   -3.087
    0.350
    4.892
    7.615
    6.836
    3.233
   -0.923
   -3.633
   -4.312
   -3.399
   -1.462
    0.932
    2.834
    3.156
    1.664
   -0.613
   -2.318
   -2.878
   -2.529
   -1.654
   -0.599
    0.030
   -0.473
   -2.033
   -3.344
   -2.841
   -0.268
    2.885
    4.708
    4.574
    3.454
    2.671
    2.556
    2.312
    1.087
   -0.902
   -2.436
   -2.624
   -1.997
   -1.938
   -2.944
   -3.810
   -2.911
   -0.157
    2.741
    3.968
    3.279
    1.870
    0.810
   -0.091
   -1.712
   -4.068
   -5.739
   -5.151
   -2.273
    1.268
    3.766
    4.808
    5.074
    5.153
    4.834
    3.431
    0.713
   -2.410
   -4.242
   -3.666
   -1.314
    0.806
    0.956
   -1.037
   -3.844
   -5.620
   -5.140
   -2.582
    0.492
    2.280
    2.259
    1.558
    1.625
    2.657
    3.566
    3.326
    2.010
    0.440
   -0.740
   -1.413
   -1.655
   -1.420
   -0.654
    0.400
    1.179
    1.198
    0.491
   -0.454
   -1.178
   -1.609
   -1.925
   -2.195
   -2.219
   -1.631
   -0.159
    1.978
    3.764
    3.799
    1.482
   -2.078
   -4.568
   -4.109
   -0.695
    3.708
    6.427
    5.891
    2.711
   -0.839
   -2.664
   -2.488
   -1.881
   -2.597
   -4.679
   -6.168
   -4.880
   -0.597
    4.524
    7.757
    8.000
    6.164
    3.680
    1.159
   -1.410
   -3.782
   -5.428
   -6.222
   -6.499
   -6.206
   -4.544
   -1.031
    3.295
    6.282
    6.470
    4.357
    1.942
    1.137
    2.380
    4.333
    4.892
    2.893
   -0.813
   -4.002
   -4.997
   -4.111
   -3.196
   -3.680
   -5.065
   -5.420
   -3.409
    0.234
    3.345
    4.392
    3.791
    3.122
    3.230
    3.380
    2.353
    0.128
   -1.812
   -1.924
   -0.240
    1.508
    1.449
   -0.696
   -3.341
   -4.424
   -3.212
   -0.894
    0.634
    0.546
   -0.359
   -0.750
   -0.181
    0.721
    1.229
    1.282
    1.196
    1.035
    0.619
    0.021
   -0.243
    0.372
    1.895
    3.679
    4.694
    4.188
    2.308
    0.102
   -1.292
   -1.643
   -1.823
   -2.859
   -4.667
   -5.768
   -4.636
   -1.514
    1.372
    1.770
   -0.423
   -3.083
   -3.854
   -2.052
    1.166
    4.046
    5.480
    5.259
    3.560
    0.598
   -2.999
   -5.679
   -5.502
   -1.892
    3.136
    6.131
    5.153
    1.547
   -1.471
   -1.949
   -0.746
   -0.120
   -1.238
   -3.300
   -4.766
   -4.906
   -3.942
   -2.020
    1.254
    5.820
    9.944
   10.764
    6.776
   -0.085
   -5.306
   -5.312
   -0.671
    4.020
    3.896
   -1.763
   -8.507
  -10.472
   -5.754
    1.806
    6.261
    4.942
    0.243
   -3.473
   -4.145
   -3.103
   -2.639
   -3.370
   -4.151
   -3.929
   -3.006
   -2.429
   -2.525
   -2.372
   -0.771
    2.360
    5.583
    6.992
    5.819
    3.200
    1.326
    1.597
    3.475
    5.057
    4.825
    3.158
    2.315
    4.457
    9.141
   12.931
   12.242
    6.829
   -0.065
   -5.269
   -8.709
  -12.307
  -16.382
  -18.238
  -14.742
   -6.079
    3.306
    7.783
    5.351
   -0.035
   -1.468
    4.420
   13.483
   17.249
   10.950
   -1.446
  -10.460
   -9.593
   -0.897
    7.374
    8.107
    0.663
   -9.611
  -15.971
  -14.883
   -7.746
    0.707
    5.895
    6.342
    4.057
    2.054
    1.347
    0.496
   -1.812
   -4.263
   -3.792
    0.782
    6.598
    9.063
    6.468
    1.731
   -0.860
   -0.230
    0.698
   -1.369
   -6.365
  -10.932
  -11.594
   -7.435
   -0.244
    6.837
   10.671
    9.319
    3.183
   -4.830
  -10.897
  -12.649
  -10.323
   -5.933
   -1.506
    2.058
    4.882
    7.249
    9.021
    9.913
    9.962
    9.217
    7.041
    2.563
   -3.518
   -8.005
   -7.293
   -1.076
    6.436
    9.694
    6.523
   -0.286
   -5.927
   -7.814
   -6.907
   -5.465
   -4.383
   -3.021
   -0.911
    1.285
    2.628
    2.996
    2.798
    1.960
   -0.133
   -3.536
   -6.899
   -8.059
   -5.677
   -0.433
    5.195
    8.382
    7.693
    4.087
    0.440
   -0.488
    1.579
    3.919
    3.207
   -1.093
   -5.830
   -6.995
   -3.571
    1.532
    4.301
    3.198
    0.070
   -2.015
   -1.504
    0.799
    2.973
    3.715
    2.941
    1.145
   -1.281
   -3.782
   -5.165
   -4.164
   -0.812
    3.011
    4.839
    3.576
    0.223
   -3.082
   -4.506
   -3.370
   -0.342
    2.822
    4.069
    2.221
   -2.145
   -6.760
   -8.855
   -7.043
   -2.568
    1.578
    3.284
    3.078
    3.072
    4.437
    6.300
    6.920
    5.283
    1.535
   -3.276
   -7.329
   -8.508
   -5.793
   -0.479
    4.440
    6.544
    5.685
    3.432
    1.154
   -0.958
   -3.054
   -4.485
   -4.149
   -2.000
    0.377
    1.258
    0.651
    0.169
    0.985
    2.387
    2.665
    1.104
   -1.262
   -2.706
   -2.272
   -0.211
    2.602
    5.239
    6.704
    5.826
    1.819
   -4.537
  -10.401
  -12.286
   -8.762
   -2.015
    3.560
    4.773
    1.984
   -1.657
   -3.066
   -1.501
    1.395
    3.346
    3.273
    1.853
    0.606
    0.426
    0.877
    0.924
    0.249
   -0.436
   -0.411
    0.002
   -0.290
   -1.861
   -3.889
   -4.611
   -2.735
    1.335
    5.565
    7.749
    7.185
    5.010
    2.863
    1.279
   -0.453
   -2.885
   -5.231
   -5.929
   -4.318
   -1.477
    0.705
    1.213
    0.631
    0.231
    0.491
    0.669
   -0.136
   -1.627
   -2.326
   -1.143
    1.220
    2.805
    2.480
    1.092
    0.201
    0.032
   -0.645
   -2.567
   -4.510
   -4.222
   -0.779
    4.167
    7.507
    7.105
    3.431
   -0.935
   -3.411
   -3.194
   -1.286
    0.728
    1.673
    0.992
   -1.157
   -3.603
   -4.567
   -3.099
   -0.228
    1.750
    1.517
    0.188
    0.101
    2.035
    4.047
    3.533
    0.259
   -3.179
   -4.036
   -2.135
    0.311
    1.132
    0.053
   -1.519
   -1.937
   -0.607
    1.616
    3.060
    2.606
    0.827
   -0.340
    0.626
    3.316
    5.615
    5.410
    2.239
   -2.440
   -6.377
   -8.005
   -7.179
   -4.816
   -2.014
    0.392
    1.750
    1.640
    0.293
   -1.239
   -1.744
   -0.869
    0.582
    1.414
    1.043
   -0.144
   -1.110
   -0.764
    1.278
    4.045
    5.421
    3.630
   -0.947
   -5.522
   -6.959
   -4.434
   -0.110
    2.848
    2.947
    1.249
   -0.039
    0.384
    2.054
    3.443
    3.258
    1.307
   -1.456
   -3.481
   -3.475
   -1.254
    2.004
    4.477
    4.906
    3.351
    0.981
   -0.831
   -1.415
   -1.131
   -0.911
   -1.364
   -2.234
   -2.698
   -2.191
   -0.881
    0.618
    1.812
    2.479
    2.411
    1.271
   -1.003
   -3.587
   -4.887
   -3.854
   -1.332
    0.337
   -0.427
   -2.600
   -3.440
   -1.446
    1.927
    3.818
    3.045
    1.233
    0.812
    2.250
    3.651
    3.083
    0.893
   -0.674
   -0.088
    1.686
    2.355
    0.993
   -0.949
   -1.414
   -0.044
    1.681
    2.334
    1.971
    1.499
    1.200
    0.520
   -0.834
   -2.220
   -2.731
   -2.240
   -1.537
   -1.536
   -2.421
   -3.501
   -3.864
   -3.248
   -2.269
   -1.693
   -1.544
   -1.140
   -0.007
    1.477
    2.415
    2.218
    1.109
   -0.005
   -0.119
    1.122
    2.968
    3.911
    2.867
    0.319
   -1.748
   -1.418
    1.317
    4.280
    4.914
    2.524
   -1.156
   -3.559
   -3.455
   -1.778
   -0.486
   -0.637
   -1.500
   -1.566
   -0.312
    1.243
    1.739
    0.934
   -0.233
   -0.845
   -0.901
   -0.962
   -1.230
   -1.340
   -0.990
   -0.487
   -0.393
   -0.708
   -0.720
    0.152
    1.475
    2.022
    1.005
   -1.009
   -2.550
   -2.577
   -1.222
    0.746
    2.790
    4.664
    5.813
    5.251
    2.402
   -1.875
   -5.338
   -5.765
   -2.690
    2.011
    5.331
    5.275
    2.184
   -1.770
   -4.252
   -4.177
   -2.046
    0.635
    2.253
    1.915
   -0.070
   -2.279
   -2.973
   -1.327
    1.717
    3.877
    3.299
    0.295
   -2.716
   -3.308
   -1.322
    0.985
    1.136
   -1.202
   -4.014
   -4.938
   -3.367
   -0.706
    1.149
    1.500
    1.236
    1.656
    2.897
    3.639
    2.536
   -0.064
   -2.126
   -1.918
    0.129
    1.816
    1.424
   -0.653
   -2.542
   -2.818
   -1.611
   -0.076
    0.821
    0.898
    0.555
    0.283
    0.340
    0.632
    0.837
    0.734
    0.472
    0.467
    0.973
    1.757
    2.234
    1.959
    1.061
    0.134
   -0.312
   -0.300
   -0.281
   -0.676
   -1.530
   -2.533
   -3.237
   -3.257
   -2.442
   -1.040
    0.309
    0.953
    0.710
   -0.029
   -0.628
   -0.559
    0.471
    2.380
    4.482
    5.650
    5.122
    3.235
    1.144
   -0.263
   -1.044
   -1.783
   -2.720
   -3.488
   -3.590
   -2.922
   -1.846
   -0.874
   -0.336
   -0.273
   -0.510
   -0.754
   -0.718
   -0.295
    0.323
    0.765
    0.779
    0.427
   -0.047
   -0.497
   -0.853
   -0.899
   -0.353
    0.703
    1.691
    2.037
    1.754
    1.369
    1.304
    1.443
    1.324
    0.679
   -0.233
   -0.839
   -0.791
   -0.260
    0.272
    0.456
    0.304
    0.042
   -0.146
