Origin Time       05/3/2012 07:41:05	
Lat.              28.7 N	
Long.             76.6 E	
Depth (Km)         14.0
Magnitude         4.9
 Region           Haryana-Delhi-Border-Region                                      
 Above details taken from IMD 
    
Station Code       NSIT
Station Lat.       28.608  N
Station Long.      77.041  E
Station Height(m)  159.0
Site Class        C   Vs30 between 200 m/sec to 375 m/sec *  
Record Time        3/5/2012   7:40:59.000
Sampling Rate     200. Hz
 Record Duration   93.000 Sec.
 Direction         N-S (N positive)
Max. Acceleration  -8.918 cm/sec**2
     
  * For reference see Site Classification link of website 
     
 Base Line Corrected and Low Pass Filtered (Cut Off at 35 Hz) Time History
 Acceleration data in cm/sec**2
    
[...]
    0.139
    0.104
    0.037
   -0.038
   -0.097
   -0.136
   -0.178
   -0.238
   -0.298
   -0.305
   -0.219
   -0.052
    0.126
    0.229
    0.225
    0.157
    0.091
    0.060
    0.038
   -0.018
   -0.117
   -0.219
   -0.268
   -0.244
   -0.170
   -0.089
   -0.030
   -0.001
    0.012
    0.011
   -0.010
   -0.063
   -0.139
   -0.202
   -0.213
   -0.177
   -0.157
   -0.224
   -0.368
   -0.480
   -0.438
   -0.224
    0.050
    0.233
    0.264
    0.201
    0.152
    0.159
    0.180
    0.151
    0.059
   -0.051
   -0.130
   -0.167
   -0.180
   -0.190
   -0.215
   -0.271
   -0.344
   -0.362
   -0.231
    0.067
    0.422
    0.665
    0.716
    0.642
    0.571
    0.526
    0.389
    0.040
   -0.460
   -0.868
   -0.948
   -0.686
   -0.307
   -0.060
   -0.004
   -0.005
    0.080
    0.249
    0.377
    0.374
    0.272
    0.161
    0.080
   -0.006
   -0.115
   -0.175
   -0.090
    0.133
    0.359
    0.457
    0.440
    0.440
    0.530
    0.605
    0.475
    0.088
   -0.368
   -0.604
   -0.478
   -0.116
    0.224
    0.390
    0.464
    0.636
    0.959
    1.243
    1.212
    0.788
    0.200
   -0.214
   -0.293
   -0.158
   -0.063
   -0.158
   -0.400
   -0.620
   -0.663
   -0.494
   -0.221
   -0.020
    0.000
   -0.099
   -0.118
    0.119
    0.581
    1.005
    1.087
    0.743
    0.187
   -0.255
   -0.446
   -0.515
   -0.673
   -0.954
   -1.169
   -1.087
   -0.665
   -0.086
    0.377
    0.568
    0.536
    0.457
    0.472
    0.583
    0.687
    0.696
    0.617
    0.521
    0.482
    0.529
    0.646
    0.759
    0.745
    0.497
    0.033
   -0.469
   -0.757
   -0.689
   -0.357
   -0.031
    0.059
   -0.060
   -0.117
    0.131
    0.605
    0.922
    0.741
    0.122
   -0.487
   -0.655
   -0.366
   -0.028
   -0.067
   -0.512
   -0.978
   -1.073
   -0.812
   -0.578
   -0.663
   -0.909
   -0.854
   -0.240
    0.676
    1.340
    1.398
    0.976
    0.498
    0.269
    0.236
    0.122
   -0.251
   -0.788
   -1.213
   -1.317
   -1.125
   -0.852
   -0.715
   -0.753
   -0.811
   -0.692
   -0.352
    0.065
    0.365
    0.464
    0.428
    0.393
    0.463
    0.619
    0.706
    0.546
    0.122
   -0.352
   -0.617
   -0.618
   -0.547
   -0.619
   -0.835
   -0.982
   -0.848
   -0.415
    0.124
    0.519
    0.643
    0.553
    0.398
    0.260
    0.103
   -0.126
   -0.363
   -0.442
   -0.250
    0.152
    0.552
    0.741
    0.647
    0.363
    0.034
   -0.256
   -0.486
   -0.608
   -0.533
   -0.251
    0.095
    0.328
    0.421
    0.498
    0.640
    0.763
    0.725
    0.525
    0.315
    0.227
    0.234
    0.195
    0.020
   -0.245
   -0.469
   -0.558
   -0.514
   -0.394
   -0.236
   -0.018
    0.275
    0.589
    0.802
    0.830
    0.704
    0.562
    0.526
    0.585
    0.582
    0.359
   -0.056
   -0.425
   -0.500
   -0.293
   -0.100
   -0.203
   -0.527
   -0.647
   -0.209
    0.635
    1.266
    1.134
    0.286
   -0.659
   -1.076
   -0.869
   -0.463
   -0.317
   -0.491
   -0.681
   -0.586
   -0.199
    0.234
    0.442
    0.321
   -0.012
   -0.267
   -0.137
    0.461
    1.214
    1.548
    1.080
   -0.005
   -1.057
   -1.499
   -1.301
   -0.924
   -0.831
   -1.048
   -1.169
   -0.779
    0.136
    1.140
    1.683
    1.548
    1.001
    0.532
    0.402
    0.435
    0.264
   -0.231
   -0.750
   -0.865
   -0.453
    0.163
    0.487
    0.248
   -0.390
   -0.963
   -1.050
   -0.590
    0.062
    0.413
    0.238
   -0.234
   -0.529
   -0.352
    0.149
    0.496
    0.273
   -0.526
   -1.446
   -1.880
   -1.518
   -0.601
    0.264
    0.603
    0.469
    0.346
    0.630
    1.206
    1.561
    1.319
    0.624
   -0.032
   -0.304
   -0.262
   -0.195
   -0.250
   -0.323
   -0.247
   -0.037
    0.082
   -0.105
   -0.539
   -0.863
   -0.756
   -0.283
    0.137
    0.184
   -0.004
    0.009
    0.440
    1.017
    1.226
    0.807
   -0.031
   -0.823
   -1.231
   -1.228
   -0.992
   -0.698
   -0.430
   -0.233
   -0.142
   -0.131
   -0.088
    0.091
    0.378
    0.589
    0.535
    0.182
   -0.300
   -0.661
   -0.769
   -0.723
   -0.740
   -0.890
   -0.964
   -0.680
   -0.025
    0.676
    1.070
    1.127
    1.130
    1.323
    1.617
    1.675
    1.264
    0.526
   -0.139
   -0.461
   -0.574
   -0.846
   -1.403
   -1.868
   -1.663
   -0.612
    0.792
    1.770
    1.898
    1.396
    0.839
    0.633
    0.746
    0.853
    0.684
    0.256
   -0.185
   -0.401
   -0.348
   -0.146
    0.077
    0.288
    0.505
    0.699
    0.783
    0.683
    0.396
   -0.013
   -0.449
   -0.833
   -1.103
   -1.210
   -1.118
   -0.834
   -0.430
    0.001
    0.406
    0.786
    1.119
    1.301
    1.199
    0.807
    0.334
    0.100
    0.246
    0.516
    0.435
   -0.198
   -1.007
   -1.329
   -0.891
   -0.122
    0.264
   -0.020
   -0.585
   -0.807
   -0.460
    0.088
    0.272
   -0.125
   -0.784
   -1.179
   -1.074
   -0.689
   -0.411
   -0.404
   -0.505
   -0.439
   -0.076
    0.448
    0.803
    0.685
    0.087
   -0.614
   -0.907
   -0.574
    0.101
    0.562
    0.451
   -0.092
   -0.553
   -0.501
    0.025
    0.565
    0.707
    0.509
    0.425
    0.809
    1.505
    1.928
    1.589
    0.564
   -0.492
   -0.853
   -0.373
    0.344
    0.482
   -0.186
   -1.049
   -1.253
   -0.552
    0.435
    0.823
    0.313
   -0.521
   -0.807
   -0.259
    0.512
    0.644
   -0.038
   -0.826
   -0.920
   -0.310
    0.266
    0.175
   -0.442
   -0.876
   -0.622
    0.141
    0.760
    0.736
    0.155
   -0.417
   -0.456
    0.054
    0.645
    0.821
    0.482
   -0.075
   -0.488
   -0.626
   -0.599
   -0.581
   -0.630
   -0.641
   -0.442
    0.013
    0.538
    0.811
    0.626
    0.057
   -0.606
   -1.089
   -1.312
   -1.369
   -1.377
   -1.319
   -1.058
   -0.498
    0.268
    0.980
    1.402
    1.478
    1.351
    1.245
    1.290
    1.399
    1.294
    0.753
   -0.124
   -0.914
   -1.212
   -0.991
   -0.599
   -0.398
   -0.420
   -0.395
   -0.083
    0.452
    0.895
    1.012
    0.884
    0.807
    0.941
    1.104
    0.955
    0.360
   -0.454
   -1.121
   -1.453
   -1.512
   -1.405
   -1.086
   -0.439
    0.455
    1.210
    1.381
    0.869
    0.049
   -0.548
   -0.676
   -0.497
   -0.324
   -0.287
   -0.262
   -0.078
    0.252
    0.507
    0.466
    0.124
   -0.282
   -0.489
   -0.426
   -0.247
   -0.138
   -0.122
   -0.037
    0.268
    0.727
    1.052
    1.004
    0.653
    0.350
    0.396
    0.755
    1.078
    1.014
    0.488
   -0.243
   -0.774
   -0.828
   -0.463
   -0.045
    0.056
   -0.193
   -0.462
   -0.411
   -0.052
    0.265
    0.225
   -0.143
   -0.504
   -0.547
   -0.268
    0.021
   -0.019
   -0.409
   -0.803
   -0.806
   -0.387
    0.080
    0.207
   -0.014
   -0.251
   -0.229
   -0.017
    0.103
   -0.024
   -0.253
   -0.285
    0.013
    0.433
    0.549
    0.091
   -0.773
   -1.490
   -1.522
   -0.782
    0.251
    0.860
    0.662
   -0.032
   -0.428
    0.046
    1.148
    1.967
    1.769
    0.733
   -0.191
   -0.229
    0.438
    0.908
    0.557
   -0.269
   -0.657
   -0.170
    0.666
    0.992
    0.616
    0.204
    0.447
    1.212
    1.670
    1.220
    0.149
   -0.680
   -0.729
   -0.297
   -0.143
   -0.670
   -1.508
   -1.899
   -1.425
   -0.360
    0.623
    1.029
    0.859
    0.495
    0.310
    0.337
    0.265
   -0.221
   -1.041
   -1.721
   -1.836
   -1.456
   -1.069
   -1.057
   -1.305
   -1.345
   -0.858
    0.022
    0.828
    1.161
    1.011
    0.746
    0.759
    1.046
    1.163
    0.692
   -0.236
   -0.979
   -0.983
   -0.326
    0.389
    0.612
    0.279
   -0.271
   -0.662
   -0.760
   -0.672
   -0.583
   -0.554
   -0.433
    0.021
    0.833
    1.622
    1.837
    1.291
    0.420
   -0.087
    0.032
    0.362
    0.282
   -0.341
   -0.990
   -1.039
   -0.417
    0.293
    0.422
   -0.106
   -0.679
   -0.603
    0.195
    1.085
    1.360
    0.890
    0.140
   -0.338
   -0.367
   -0.188
   -0.186
   -0.580
   -1.239
   -1.774
   -1.849
   -1.449
   -0.801
   -0.067
    0.793
    1.806
    2.715
    3.058
    2.577
    1.536
    0.565
    0.142
    0.208
    0.299
    0.052
   -0.465
   -0.912
   -1.058
   -0.944
   -0.717
   -0.459
   -0.199
   -0.007
    0.033
   -0.057
   -0.117
    0.012
    0.333
    0.654
    0.729
    0.454
   -0.040
   -0.513
   -0.843
   -1.099
   -1.371
   -1.607
   -1.674
   -1.562
   -1.415
   -1.322
   -1.146
   -0.672
    0.083
    0.810
    1.235
    1.403
    1.534
    1.652
    1.525
    1.036
    0.441
    0.095
   -0.014
   -0.289
   -1.032
   -2.022
   -2.601
   -2.191
   -0.806
    0.844
    1.817
    1.700
    0.988
    0.602
    0.932
    1.426
    1.213
    0.125
   -1.013
   -1.153
   -0.078
    1.338
    1.913
    1.221
   -0.076
   -0.888
   -0.670
    0.203
    0.876
    0.750
   -0.114
   -1.080
   -1.378
   -0.668
    0.608
    1.482
    1.263
    0.187
   -0.809
   -0.992
   -0.477
    0.010
   -0.055
   -0.512
   -0.763
   -0.453
    0.163
    0.504
    0.269
   -0.270
   -0.582
   -0.418
    0.012
    0.358
    0.513
    0.588
    0.591
    0.300
   -0.420
   -1.248
   -1.575
   -1.144
   -0.423
   -0.148
   -0.483
   -0.767
   -0.248
    1.012
    2.098
    2.153
    1.273
    0.434
    0.511
    1.383
    2.035
    1.542
   -0.003
   -1.508
   -1.819
   -0.752
    0.662
    0.983
   -0.382
   -2.560
   -3.917
   -3.503
   -1.838
   -0.275
    0.312
    0.136
   -0.007
    0.418
    1.325
    2.171
    2.309
    1.396
   -0.270
   -1.822
   -2.422
   -1.919
   -0.928
   -0.275
   -0.313
   -0.680
   -0.628
    0.284
    1.682
    2.603
    2.380
    1.346
    0.544
    0.665
    1.338
    1.528
    0.625
   -0.921
   -1.988
   -1.816
   -0.689
    0.332
    0.360
   -0.541
   -1.448
   -1.416
   -0.276
    1.262
    2.227
    2.147
    1.372
    0.705
    0.656
    0.964
    0.862
   -0.108
   -1.554
   -2.551
   -2.511
   -1.709
   -0.925
   -0.647
   -0.694
   -0.596
   -0.187
    0.244
    0.330
    0.059
   -0.203
   -0.066
    0.493
    1.088
    1.278
    1.011
    0.666
    0.609
    0.739
    0.600
   -0.025
   -0.755
   -0.958
   -0.428
    0.379
    0.791
    0.542
   -0.035
   -0.351
   -0.090
    0.507
    0.839
    0.504
   -0.311
   -0.992
   -1.090
   -0.720
   -0.406
   -0.607
   -1.380
   -2.350
   -2.883
   -2.424
   -0.940
    0.882
    2.035
    2.017
    1.271
    0.716
    0.800
    1.085
    0.814
   -0.173
   -1.193
   -1.424
   -0.780
    0.003
    0.154
   -0.323
   -0.735
   -0.535
    0.077
    0.440
    0.221
   -0.233
   -0.323
    0.136
    0.729
    0.847
    0.225
   -0.865
   -1.830
   -2.146
   -1.684
   -0.765
    0.094
    0.599
    0.890
    1.304
    1.918
    2.382
    2.240
    1.435
    0.419
   -0.224
   -0.279
   -0.028
    0.072
   -0.177
   -0.564
   -0.683
   -0.300
    0.439
    1.126
    1.419
    1.287
    0.963
    0.670
    0.428
    0.142
   -0.204
   -0.509
   -0.683
   -0.724
   -0.658
   -0.499
   -0.324
   -0.300
   -0.523
   -0.844
   -0.968
   -0.744
   -0.298
    0.134
    0.438
    0.621
    0.678
    0.576
    0.360
    0.168
    0.065
   -0.082
   -0.459
   -1.025
   -1.477
   -1.565
   -1.370
   -1.166
   -1.041
   -0.786
   -0.240
    0.366
    0.587
    0.289
   -0.115
   -0.084
    0.433
    0.897
    0.752
    0.067
   -0.479
   -0.317
    0.377
    0.871
    0.714
    0.235
    0.113
    0.532
    0.889
    0.415
   -0.956
   -2.391
   -2.858
   -2.028
   -0.527
    0.675
    1.131
    1.194
    1.528
    2.374
    3.298
    3.598
    2.942
    1.668
    0.533
    0.128
    0.402
    0.685
    0.253
   -0.995
   -2.359
   -2.892
   -2.213
   -0.843
    0.251
    0.500
    0.221
    0.327
    1.465
    3.287
    4.592
    4.323
    2.592
    0.650
   -0.265
   -0.098
    0.067
   -0.736
   -2.218
   -3.078
   -2.404
   -0.704
    0.578
    0.544
   -0.312
   -0.730
   -0.034
    1.200
    1.719
    0.747
   -1.308
   -3.140
   -3.555
   -2.410
   -0.676
    0.385
    0.205
   -0.746
   -1.417
   -0.962
    0.644
    2.502
    3.360
    2.579
    0.698
   -1.027
   -1.774
   -1.851
   -2.207
   -3.300
   -4.513
   -4.770
   -3.692
   -2.098
   -1.273
   -1.740
   -2.806
   -3.331
   -2.855
   -1.917
   -1.371
   -1.544
   -1.999
   -1.993
   -1.121
    0.336
    1.672
    2.429
    2.839
    3.510
    4.654
    5.750
    6.057
    5.373
    4.202
    3.233
    2.792
    2.747
    2.749
    2.474
    1.779
    0.800
   -0.100
   -0.620
   -0.816
   -0.996
   -1.240
   -1.158
   -0.349
    0.872
    1.453
    0.556
   -1.510
   -3.457
   -4.166
   -3.572
   -2.452
   -1.548
   -1.014
   -0.560
    0.102
    1.006
    1.983
    2.800
    3.276
    3.357
    3.178
    3.006
    3.012
    3.023
    2.574
    1.334
   -0.435
   -1.926
   -2.411
   -1.905
   -1.173
   -1.038
   -1.692
   -2.668
   -3.421
   -3.834
   -4.151
   -4.490
   -4.544
   -3.772
   -1.898
    0.729
    3.196
    4.469
    3.994
    2.127
    0.035
   -1.024
   -0.625
    0.434
    0.740
   -0.552
   -2.940
   -4.880
   -4.965
   -3.022
   -0.280
    1.571
    1.687
    0.673
   -0.113
    0.082
    0.752
    0.887
    0.322
    0.105
    1.386
    3.996
    6.338
    6.812
    5.322
    3.323
    2.366
    2.626
    2.819
    1.571
   -1.122
   -3.764
   -4.759
   -3.948
   -2.710
   -2.519
   -3.482
   -4.382
   -4.036
   -2.378
   -0.255
    1.548
    2.829
    3.754
    4.469
    5.006
    5.291
    5.124
    4.323
    3.068
    1.959
    1.458
    1.298
    0.708
   -0.634
   -2.021
   -2.309
   -1.115
    0.685
    1.760
    1.586
    0.874
    0.727
    1.459
    2.282
    2.114
    0.642
   -1.407
   -2.965
   -3.572
   -3.720
   -4.341
   -5.904
   -7.863
   -8.918
   -7.966
   -5.016
   -1.326
    1.434
    2.359
    1.841
    1.015
    0.717
    0.923
    1.076
    0.758
    0.000
   -0.901
   -1.675
   -2.167
   -2.309
   -2.126
   -1.760
   -1.376
   -1.000
   -0.463
    0.410
    1.504
    2.326
    2.338
    1.499
    0.440
   -0.011
    0.399
    1.081
    1.147
    0.266
   -1.023
   -1.811
   -1.656
   -0.959
   -0.570
   -0.955
   -1.671
   -1.660
   -0.189
    2.336
    4.480
    4.822
    3.097
    0.439
   -1.487
   -1.708
   -0.479
    1.150
    2.193
    2.243
    1.455
    0.284
   -0.721
   -1.097
   -0.666
    0.319
    1.270
    1.635
    1.327
    0.831
    0.766
    1.219
    1.531
    0.910
   -0.702
   -2.454
   -3.350
   -3.087
   -2.116
   -1.066
   -0.287
    0.122
    0.152
   -0.092
   -0.347
   -0.309
    0.179
    1.079
    2.214
    3.278
    3.873
    3.704
    2.806
    1.550
    0.397
   -0.340
   -0.569
   -0.372
    0.024
    0.343
    0.453
    0.536
    0.929
    1.702
    2.385
    2.228
    0.838
   -1.373
   -3.412
   -4.431
   -4.320
   -3.641
   -2.962
   -2.290
   -1.179
    0.615
    2.635
    3.930
    3.794
    2.400
    0.774
    0.068
    0.645
    1.771
    2.264
    1.584
    0.267
   -0.733
   -1.023
   -0.945
   -0.877
   -0.670
    0.007
    0.909
    1.107
   -0.219
   -2.894
   -5.693
   -7.149
   -6.541
   -4.298
   -1.599
    0.458
    1.519
    1.990
    2.492
    3.219
    3.722
    3.298
    1.680
   -0.538
   -2.222
   -2.625
   -2.133
   -1.959
   -2.927
   -4.493
   -5.072
   -3.478
   -0.117
    3.205
    4.735
    4.184
    2.838
    2.248
    2.758
    3.326
    2.799
    1.219
   -0.255
   -0.690
   -0.426
   -0.660
   -2.020
   -3.714
   -4.201
   -2.793
   -0.509
    0.782
    0.210
   -1.153
   -1.318
    0.615
    3.506
    5.253
    4.711
    2.552
    0.353
   -0.961
   -1.714
   -2.667
   -3.871
   -4.499
   -3.833
   -2.222
   -0.921
   -0.930
   -1.996
   -2.759
   -1.985
    0.179
    2.108
    2.059
   -0.107
   -2.576
   -3.157
   -1.325
    1.308
    2.578
    1.740
   -0.069
   -1.101
   -0.548
    1.032
    2.513
    3.188
    3.062
    2.470
    1.678
    0.849
    0.213
    0.046
    0.407
    0.922
    0.898
   -0.205
   -2.248
   -4.231
   -4.817
   -3.328
   -0.398
    2.421
    3.863
    3.871
    3.442
    3.584
    4.353
    4.777
    3.769
    1.217
   -1.776
   -3.774
   -4.173
   -3.484
   -2.590
   -1.860
   -0.984
    0.471
    2.436
    4.213
    4.956
    4.372
    3.034
    1.968
    1.814
    2.305
    2.459
    1.364
   -1.007
   -3.547
   -4.654
   -3.433
   -0.509
    2.407
    3.866
    3.674
    2.633
    1.544
    0.630
   -0.235
   -1.058
   -1.610
   -1.665
   -1.306
   -1.020
   -1.406
   -2.623
   -4.091
   -4.910
   -4.667
   -3.773
   -2.963
   -2.505
   -1.970
   -0.739
    1.277
    3.385
    4.550
    4.169
    2.529
    0.564
   -0.846
   -1.449
   -1.593
   -1.739
   -1.957
   -1.850
   -0.998
    0.440
    1.617
    1.654
    0.463
   -1.134
   -2.133
   -2.096
   -1.250
   -0.095
    0.940
    1.628
    1.960
    2.029
    1.781
    0.943
   -0.616
   -2.423
   -3.510
   -3.134
   -1.400
    0.792
    2.345
    2.562
    1.437
   -0.418
   -2.143
   -3.087
   -3.033
   -2.056
   -0.334
    1.802
    3.711
    4.624
    4.161
    2.654
    0.871
   -0.555
   -1.405
   -1.704
   -1.493
   -0.853
   -0.081
    0.295
   -0.168
   -1.384
   -2.619
   -2.983
   -2.220
   -1.004
   -0.340
   -0.601
   -1.228
   -1.403
   -0.922
   -0.321
   -0.181
   -0.416
   -0.329
    0.655
    2.309
    3.692
    3.967
    3.156
    2.016
    1.151
    0.382
   -0.856
   -2.598
   -4.044
   -4.276
   -3.141
   -1.328
    0.348
    1.604
    2.642
    3.612
    4.325
    4.514
    4.173
    3.437
    2.187
    0.153
   -2.398
   -4.307
   -4.300
   -2.259
    0.454
    2.133
    2.197
    1.531
    1.416
    2.205
    2.987
    2.536
    0.593
   -1.771
   -3.099
   -2.881
   -1.961
   -1.646
   -2.477
   -3.845
   -4.695
   -4.505
   -3.593
   -2.576
   -1.677
   -0.646
    0.721
    2.139
    3.021
    3.054
    2.572
    2.344
    2.969
    4.304
    5.381
    5.060
    3.055
    0.438
   -1.079
   -0.646
    0.880
    1.718
    0.866
   -0.987
   -2.245
   -2.020
   -0.924
   -0.349
   -1.040
   -2.384
   -2.996
   -1.939
    0.475
    2.882
    3.779
    2.532
   -0.126
   -2.524
   -3.220
   -2.023
    0.015
    1.606
    2.197
    2.051
    1.585
    0.843
   -0.379
   -2.001
   -3.378
   -3.644
   -2.504
   -0.749
    0.164
   -0.662
   -2.617
   -3.940
   -3.221
   -0.640
    2.197
    3.639
    3.308
    2.230
    1.746
    2.212
    2.740
    2.214
    0.511
   -1.364
   -2.257
   -1.823
   -0.543
    0.847
    1.732
    1.647
    0.430
   -1.426
   -2.841
   -2.999
   -2.267
   -2.051
   -3.483
   -6.158
   -8.256
   -8.000
   -5.129
   -1.071
    2.250
    3.864
    4.214
    4.372
    4.912
    5.528
    5.629
    5.104
    4.372
    3.751
    2.959
    1.374
   -1.177
   -3.898
   -5.387
   -4.687
   -2.153
    0.750
    2.605
    3.119
    3.074
    3.293
    3.759
    3.753
    2.715
    0.863
   -0.984
   -2.071
   -2.259
   -2.011
   -1.917
   -2.185
   -2.575
   -2.751
   -2.604
   -2.187
   -1.464
   -0.309
    1.154
    2.371
    2.703
    2.025
    0.912
    0.213
    0.435
    1.484
    2.887
    4.159
    4.971
    5.043
    4.039
    1.774
   -1.361
   -4.246
   -5.590
   -4.915
   -3.083
   -1.696
   -1.821
   -3.181
   -4.537
   -4.832
   -4.027
   -2.984
   -2.573
   -2.811
   -2.826
   -1.786
    0.080
    1.490
    1.328
   -0.100
   -1.155
   -0.358
    2.185
    4.885
    6.144
    5.688
    4.514
    3.724
    3.558
    3.462
    2.852
    1.662
    0.241
   -1.086
   -2.274
   -3.446
   -4.627
   -5.598
   -5.960
   -5.371
   -3.813
   -1.759
   -0.018
    0.772
    0.621
    0.189
