Origin Time       05/3/2012 07:41:05	
Lat.              28.7 N	
Long.             76.6 E	
Depth (Km)         14.0
Magnitude         4.9
 Region           Haryana-Delhi-Border-Region                                      
 Above details taken from IMD 
     
Station Code       NSIT
Station Lat.       28.608  N
Station Long.      77.041  E
Station Height(m)  159.0
Site Class        C   Vs30 between 200 m/sec to 375 m/sec *  
Record Time        3/5/2012   7:40:59.000
Sampling Rate     200. Hz
 Record Duration   93.000 Sec.
 Direction         E-W (E positive)
Max. Acceleration   9.374 cm/sec**2
     
  * For reference see Site Classification link of website 
     
 Base Line Corrected and Low Pass Filtered (Cut Off at 35 Hz) Time History
 Acceleration data in cm/sec**2
    
[...]
   -1.237
   -1.063
   -0.886
   -0.711
   -0.463
   -0.127
    0.183
    0.296
    0.155
   -0.107
   -0.257
   -0.162
    0.106
    0.350
    0.431
    0.373
    0.283
    0.189
    0.008
   -0.326
   -0.724
   -0.979
   -0.946
   -0.682
   -0.396
   -0.261
   -0.280
   -0.313
   -0.211
    0.063
    0.413
    0.672
    0.701
    0.457
    0.017
   -0.452
   -0.761
   -0.784
   -0.523
   -0.102
    0.312
    0.589
    0.673
    0.568
    0.309
   -0.037
   -0.367
   -0.575
   -0.611
   -0.538
   -0.505
   -0.641
   -0.936
   -1.239
   -1.368
   -1.242
   -0.907
   -0.465
    0.003
    0.439
    0.788
    1.012
    1.117
    1.152
    1.149
    1.083
    0.910
    0.647
    0.389
    0.232
    0.178
    0.139
    0.027
   -0.154
   -0.315
   -0.375
   -0.341
   -0.283
   -0.258
   -0.246
   -0.177
   -0.014
    0.194
    0.345
    0.384
    0.373
    0.445
    0.675
    0.978
    1.162
    1.087
    0.787
    0.418
    0.093
   -0.211
   -0.571
   -0.949
   -1.152
   -0.991
   -0.501
    0.040
    0.328
    0.298
    0.164
    0.201
    0.488
    0.846
    1.026
    0.938
    0.697
    0.482
    0.360
    0.253
    0.050
   -0.271
   -0.615
   -0.852
   -0.920
   -0.858
   -0.759
   -0.691
   -0.656
   -0.600
   -0.463
   -0.212
    0.135
    0.489
    0.708
    0.665
    0.365
   -0.015
   -0.239
   -0.206
   -0.042
    0.027
   -0.093
   -0.268
   -0.291
   -0.097
    0.179
    0.357
    0.384
    0.355
    0.378
    0.458
    0.505
    0.441
    0.271
    0.062
   -0.124
   -0.280
   -0.443
   -0.644
   -0.867
   -1.047
   -1.104
   -0.981
   -0.684
   -0.296
    0.047
    0.224
    0.214
    0.116
    0.066
    0.109
    0.149
    0.039
   -0.250
   -0.580
   -0.759
   -0.720
   -0.568
   -0.462
   -0.472
   -0.551
   -0.613
   -0.611
   -0.538
   -0.374
   -0.072
    0.384
    0.906
    1.302
    1.413
    1.268
    1.084
    1.072
    1.214
    1.262
    0.978
    0.395
   -0.195
   -0.515
   -0.566
   -0.617
   -0.916
   -1.432
   -1.863
   -1.898
   -1.481
   -0.837
   -0.250
    0.150
    0.414
    0.633
    0.799
    0.835
    0.713
    0.518
    0.366
    0.266
    0.104
   -0.221
   -0.653
   -1.010
   -1.153
   -1.107
   -0.993
   -0.863
   -0.650
   -0.303
    0.067
    0.224
    0.028
   -0.382
   -0.653
   -0.512
   -0.013
    0.517
    0.778
    0.753
    0.647
    0.631
    0.670
    0.642
    0.543
    0.531
    0.730
    1.047
    1.223
    1.092
    0.758
    0.501
    0.489
    0.604
    0.543
    0.127
   -0.503
   -0.992
   -1.078
   -0.797
   -0.411
   -0.141
    0.004
    0.152
    0.372
    0.592
    0.708
    0.744
    0.843
    1.093
    1.396
    1.522
    1.317
    0.835
    0.289
   -0.134
   -0.412
   -0.642
   -0.888
   -1.078
   -1.079
   -0.848
   -0.488
   -0.137
    0.172
    0.500
    0.859
    1.115
    1.101
    0.815
    0.471
    0.323
    0.423
    0.573
    0.518
    0.203
   -0.187
   -0.426
   -0.498
   -0.620
   -1.003
   -1.609
   -2.138
   -2.283
   -1.971
   -1.387
   -0.770
   -0.219
    0.316
    0.879
    1.380
    1.640
    1.555
    1.206
    0.791
    0.446
    0.137
   -0.251
   -0.757
   -1.257
   -1.538
   -1.457
   -1.034
   -0.439
    0.111
    0.445
    0.509
    0.377
    0.226
    0.232
    0.443
    0.725
    0.856
    0.714
    0.374
    0.036
   -0.154
   -0.197
   -0.190
   -0.201
   -0.216
   -0.178
   -0.085
   -0.016
   -0.048
   -0.151
   -0.197
   -0.126
   -0.047
   -0.129
   -0.377
   -0.552
   -0.383
    0.149
    0.743
    1.027
    0.860
    0.435
    0.072
   -0.069
   -0.116
   -0.311
   -0.714
   -1.090
   -1.124
   -0.751
   -0.239
    0.056
    0.019
   -0.151
   -0.187
   -0.024
    0.162
    0.175
    0.013
   -0.154
   -0.175
   -0.082
   -0.026
   -0.097
   -0.235
   -0.306
   -0.246
   -0.124
   -0.067
   -0.163
   -0.397
   -0.670
   -0.867
   -0.917
   -0.818
   -0.631
   -0.442
   -0.317
   -0.260
   -0.182
    0.046
    0.476
    0.999
    1.383
    1.441
    1.168
    0.742
    0.389
    0.221
    0.190
    0.159
    0.032
   -0.164
   -0.316
   -0.337
   -0.233
   -0.079
    0.064
    0.198
    0.351
    0.518
    0.641
    0.653
    0.534
    0.324
    0.098
   -0.060
   -0.065
    0.133
    0.483
    0.812
    0.904
    0.668
    0.231
   -0.146
   -0.288
   -0.244
   -0.221
   -0.364
   -0.598
   -0.698
   -0.516
   -0.137
    0.199
    0.311
    0.243
    0.208
    0.384
    0.757
    1.145
    1.355
    1.320
    1.092
    0.749
    0.334
   -0.095
   -0.418
   -0.495
   -0.302
    0.002
    0.167
    0.042
   -0.321
   -0.703
   -0.872
   -0.718
   -0.322
    0.076
    0.221
    0.007
   -0.441
   -0.848
   -0.969
   -0.742
   -0.278
    0.245
    0.707
    1.079
    1.357
    1.486
    1.374
    1.002
    0.507
    0.109
   -0.078
   -0.142
   -0.278
   -0.593
   -1.014
   -1.378
   -1.575
   -1.613
   -1.547
   -1.387
   -1.078
   -0.568
    0.097
    0.769
    1.293
    1.624
    1.838
    2.004
    2.052
    1.799
    1.136
    0.194
   -0.682
   -1.151
   -1.121
   -0.814
   -0.598
   -0.698
   -1.004
   -1.154
   -0.844
   -0.122
    0.619
    0.989
    0.959
    0.842
    0.925
    1.137
    1.135
    0.705
    0.027
   -0.479
   -0.571
   -0.405
   -0.330
   -0.506
   -0.745
   -0.743
   -0.446
   -0.138
   -0.159
   -0.544
   -0.983
   -1.130
   -0.942
   -0.689
   -0.629
   -0.707
   -0.617
   -0.178
    0.381
    0.588
    0.214
   -0.422
   -0.712
   -0.356
    0.326
    0.711
    0.486
   -0.075
   -0.434
   -0.318
    0.072
    0.316
    0.185
   -0.192
   -0.483
   -0.472
   -0.246
   -0.098
   -0.233
   -0.546
   -0.718
   -0.551
   -0.181
    0.050
   -0.038
   -0.267
   -0.288
    0.061
    0.591
    0.946
    0.946
    0.751
    0.700
    0.985
    1.459
    1.751
    1.576
    0.977
    0.278
   -0.178
   -0.276
   -0.157
   -0.047
   -0.096
   -0.323
   -0.667
   -1.021
   -1.232
   -1.117
   -0.539
    0.448
    1.521
    2.215
    2.207
    1.560
    0.672
   -0.025
   -0.338
   -0.364
   -0.308
   -0.299
   -0.337
   -0.355
   -0.303
   -0.195
   -0.093
   -0.028
    0.045
    0.221
    0.528
    0.862
    1.072
    1.137
    1.232
    1.549
    2.048
    2.395
    2.229
    1.500
    0.543
   -0.196
   -0.512
   -0.542
   -0.577
   -0.805
   -1.203
   -1.609
   -1.847
   -1.809
   -1.472
   -0.885
   -0.191
    0.367
    0.527
    0.207
   -0.366
   -0.779
   -0.762
   -0.417
   -0.114
   -0.141
   -0.459
   -0.785
   -0.879
   -0.729
   -0.479
   -0.242
   -0.039
    0.137
    0.260
    0.273
    0.153
   -0.054
   -0.235
   -0.251
   -0.017
    0.419
    0.876
    1.117
    0.976
    0.455
   -0.244
   -0.802
   -0.975
   -0.776
   -0.475
   -0.346
   -0.396
   -0.356
    0.017
    0.637
    1.119
    1.148
    0.805
    0.502
    0.563
    0.880
    1.018
    0.668
   -0.050
   -0.717
   -1.023
   -1.000
   -0.916
   -0.983
   -1.174
   -1.267
   -1.035
   -0.437
    0.328
    0.939
    1.173
    1.051
    0.812
    0.710
    0.825
    1.009
    1.014
    0.687
    0.074
   -0.619
   -1.163
   -1.418
   -1.369
   -1.098
   -0.742
   -0.456
   -0.350
   -0.398
   -0.405
   -0.128
    0.508
    1.280
    1.819
    1.914
    1.690
    1.428
    1.218
    0.832
    0.003
   -1.149
   -2.062
   -2.180
   -1.501
   -0.626
   -0.216
   -0.394
   -0.683
   -0.520
    0.169
    0.902
    1.128
    0.788
    0.364
    0.365
    0.760
    0.993
    0.556
   -0.470
   -1.503
   -2.033
   -2.022
   -1.762
   -1.460
   -1.087
   -0.557
    0.059
    0.584
    0.937
    1.222
    1.593
    2.054
    2.410
    2.407
    1.960
    1.239
    0.523
   -0.058
   -0.609
   -1.267
   -1.936
   -2.281
   -2.042
   -1.304
   -0.447
    0.188
    0.538
    0.757
    0.972
    1.159
    1.237
    1.213
    1.174
    1.140
    0.988
    0.571
   -0.080
   -0.706
   -1.003
   -0.872
   -0.509
   -0.224
   -0.176
   -0.251
   -0.208
    0.065
    0.441
    0.673
    0.635
    0.406
    0.146
   -0.100
   -0.415
   -0.849
   -1.268
   -1.415
   -1.127
   -0.514
    0.078
    0.301
    0.072
   -0.354
   -0.582
   -0.388
    0.108
    0.581
    0.813
    0.856
    0.909
    1.046
    1.129
    0.988
    0.638
    0.279
    0.074
   -0.041
   -0.289
   -0.793
   -1.384
   -1.696
   -1.477
   -0.825
   -0.100
    0.427
    0.813
    1.313
    2.007
    2.614
    2.726
    2.206
    1.325
    0.508
   -0.028
   -0.383
   -0.791
   -1.379
   -2.069
   -2.655
   -2.942
   -2.839
   -2.387
   -1.732
   -1.067
   -0.536
   -0.160
    0.167
    0.550
    0.950
    1.178
    1.078
    0.711
    0.334
    0.199
    0.356
    0.675
    1.001
    1.258
    1.406
    1.371
    1.059
    0.465
   -0.251
   -0.818
   -1.020
   -0.847
   -0.496
   -0.215
   -0.110
   -0.104
   -0.084
   -0.066
   -0.156
   -0.367
   -0.530
   -0.466
   -0.229
   -0.113
   -0.379
   -0.971
   -1.547
   -1.755
   -1.474
   -0.831
   -0.066
    0.604
    1.049
    1.237
    1.174
    0.856
    0.302
   -0.347
   -0.802
   -0.806
   -0.371
    0.188
    0.497
    0.406
    0.037
   -0.392
   -0.731
   -0.921
   -0.926
   -0.718
   -0.338
    0.074
    0.321
    0.255
   -0.125
   -0.635
   -0.993
   -1.004
   -0.724
   -0.432
   -0.408
   -0.683
   -1.019
   -1.127
   -0.911
   -0.497
   -0.070
    0.296
    0.612
    0.845
    0.871
    0.619
    0.243
    0.079
    0.360
    0.968
    1.474
    1.492
    1.007
    0.399
    0.107
    0.273
    0.667
    0.946
    0.947
    0.766
    0.592
    0.526
    0.572
    0.746
    1.112
    1.643
    2.101
    2.158
    1.730
    1.137
    0.840
    0.952
    1.047
    0.546
   -0.691
   -2.167
   -3.158
   -3.321
   -2.925
   -2.501
   -2.293
   -2.037
   -1.278
    0.139
    1.869
    3.320
    4.077
    4.115
    3.703
    3.171
    2.730
    2.406
    2.062
    1.501
    0.662
   -0.250
   -0.883
   -1.072
   -1.049
   -1.247
   -1.867
   -2.659
   -3.131
   -2.935
   -2.064
   -0.768
    0.619
    1.793
    2.525
    2.710
    2.435
    1.981
    1.721
    1.883
    2.353
    2.690
    2.446
    1.528
    0.300
   -0.725
   -1.281
   -1.475
   -1.560
   -1.680
   -1.868
   -2.187
   -2.720
   -3.359
   -3.695
   -3.268
   -2.002
   -0.370
    0.939
    1.532
    1.530
    1.337
    1.260
    1.353
    1.546
    1.825
    2.208
    2.584
    2.636
    2.021
    0.651
   -1.182
   -3.004
   -4.499
   -5.655
   -6.573
   -7.194
   -7.293
   -6.783
   -5.940
   -5.218
   -4.809
   -4.430
   -3.603
   -2.126
   -0.273
    1.443
    2.637
    3.245
    3.442
    3.461
    3.453
    3.484
    3.624
    4.019
    4.792
    5.799
    6.491
    6.167
    4.504
    1.905
   -0.720
   -2.559
   -3.359
   -3.395
   -3.117
   -2.832
   -2.622
   -2.389
   -1.958
   -1.196
   -0.153
    0.912
    1.642
    1.796
    1.407
    0.778
    0.310
    0.276
    0.699
    1.407
    2.174
    2.809
    3.147
    3.034
    2.374
    1.237
   -0.065
   -1.018
   -1.091
   -0.019
    1.996
    4.336
    6.287
    7.356
    7.384
    6.427
    4.642
    2.325
   -0.041
   -1.916
   -2.991
   -3.350
   -3.355
   -3.360
   -3.500
   -3.639
   -3.461
   -2.664
   -1.254
    0.252
    1.019
    0.486
   -1.094
   -2.747
   -3.519
   -3.236
   -2.534
   -2.183
   -2.396
   -2.779
   -2.823
   -2.347
   -1.483
   -0.348
    1.117
    2.938
    4.768
    5.888
    5.708
    4.353
    2.689
    1.662
    1.515
    1.689
    1.479
    0.757
    0.023
   -0.177
    0.233
    0.874
    1.329
    1.440
    1.242
    0.693
   -0.431
   -2.322
   -4.783
   -7.098
   -8.357
   -8.054
   -6.437
   -4.279
   -2.258
   -0.532
    1.138
    2.924
    4.605
    5.668
    5.697
    4.671
    2.975
    1.171
   -0.259
   -1.060
   -1.216
   -0.886
   -0.296
    0.347
    0.907
    1.297
    1.459
    1.367
    1.068
    0.681
    0.333
    0.070
   -0.137
   -0.307
   -0.368
   -0.213
    0.158
    0.570
    0.744
    0.447
   -0.416
   -1.785
   -3.405
   -4.815
   -5.475
   -5.065
   -3.745
   -2.107
   -0.802
   -0.124
    0.144
    0.544
    1.534
    3.104
    4.674
    5.412
    4.803
    3.043
    0.911
   -0.774
   -1.658
   -1.931
   -1.972
   -1.952
   -1.743
   -1.176
   -0.321
    0.535
    1.163
    1.594
    1.996
    2.382
    2.527
    2.207
    1.485
    0.667
   -0.035
   -0.733
   -1.697
   -2.981
   -4.260
   -5.077
   -5.229
   -4.884
   -4.337
   -3.678
   -2.766
   -1.544
   -0.307
    0.469
    0.653
    0.759
    1.551
    3.242
    5.108
    6.028
    5.482
    4.024
    2.740
    2.273
    2.343
    2.141
    1.124
   -0.526
   -2.074
   -2.773
   -2.308
   -0.898
    0.940
    2.700
    4.023
    4.628
    4.264
    2.853
    0.706
   -1.529
   -3.220
   -4.112
   -4.339
   -4.137
   -3.573
   -2.586
   -1.234
    0.155
    1.141
    1.495
    1.348
    1.006
    0.666
    0.350
    0.097
    0.113
    0.622
    1.558
    2.471
    2.830
    2.465
    1.726
    1.177
    1.101
    1.321
    1.481
    1.455
    1.424
    1.537
    1.576
    1.094
   -0.034
   -1.240
   -1.597
   -0.635
    1.147
    2.633
    2.968
    2.104
    0.573
   -1.120
   -2.770
   -4.251
   -5.256
   -5.437
   -4.790
   -3.783
   -2.999
   -2.620
   -2.284
   -1.442
    0.098
    1.938
    3.359
    3.887
    3.649
    3.220
    3.053
    3.058
    2.708
    1.555
   -0.357
   -2.500
   -4.187
   -4.895
   -4.446
   -3.072
   -1.354
    0.036
    0.691
    0.655
    0.274
   -0.131
   -0.413
   -0.501
   -0.257
    0.438
    1.453
    2.343
    2.630
    2.188
    1.335
    0.507
   -0.154
   -0.841
   -1.700
   -2.500
   -2.785
   -2.406
   -1.806
   -1.622
   -1.930
   -1.948
   -0.645
    2.261
    5.855
    8.594
    9.374
    8.150
    5.716
    2.978
    0.463
   -1.626
   -3.067
   -3.521
   -2.880
   -1.690
   -1.061
   -1.892
   -3.978
   -5.915
   -6.102
   -4.095
   -1.059
    1.155
    1.498
    0.423
   -0.703
   -0.781
    0.318
    1.937
    3.291
    3.940
    3.829
    3.078
    1.840
    0.295
   -1.301
   -2.658
   -3.565
   -3.976
   -3.909
   -3.267
   -1.840
    0.397
    2.931
    4.751
    4.936
    3.385
    1.064
   -0.552
   -0.474
    1.121
    3.054
    3.994
    3.316
    1.367
   -0.901
   -2.535
   -3.057
   -2.601
   -1.744
   -1.110
   -0.980
   -1.172
   -1.275
   -1.024
   -0.483
    0.075
    0.379
    0.254
   -0.375
   -1.447
   -2.692
   -3.656
   -3.885
   -3.206
   -1.901
   -0.579
    0.201
    0.269
   -0.114
   -0.471
   -0.359
    0.449
    1.848
    3.389
    4.508
    4.902
    4.724
    4.359
    4.022
    3.622
    3.011
    2.246
    1.507
    0.836
    0.086
   -0.819
   -1.651
   -2.027
   -1.810
   -1.323
   -1.109
   -1.474
   -2.252
   -2.970
   -3.223
   -2.930
   -2.344
   -1.831
   -1.605
   -1.609
   -1.627
   -1.490
   -1.130
   -0.487
    0.533
    1.918
    3.403
    4.559
    5.068
    4.913
    4.331
    3.625
    3.022
    2.584
    2.188
    1.576
    0.524
   -0.964
   -2.547
   -3.618
   -3.581
   -2.220
    0.080
    2.493
    4.243
    5.033
    5.023
    4.460
    3.416
    1.911
    0.165
   -1.394
   -2.421
   -2.888
   -3.003
   -2.930
   -2.640
   -2.031
   -1.147
   -0.304
    0.021
   -0.529
   -1.901
   -3.572
   -4.828
   -5.200
   -4.700
   -3.675
   -2.461
   -1.169
    0.248
    1.789
    3.254
    4.301
    4.619
    4.100
    2.916
    1.494
    0.377
   -0.019
    0.338
    1.043
    1.525
    1.470
    1.003
    0.462
    0.035
   -0.314
   -0.593
   -0.569
    0.052
    1.204
    2.310
    2.679
    2.087
    0.966
   -0.004
   -0.444
   -0.454
   -0.357
   -0.396
   -0.676
   -1.246
   -2.110
   -3.096
   -3.802
   -3.783
   -2.899
   -1.498
   -0.216
    0.460
    0.487
    0.153
   -0.270
   -0.719
   -1.161
   -1.323
   -0.757
    0.692
    2.477
    3.569
    3.228
    1.661
   -0.099
   -0.991
   -0.654
    0.493
    1.733
    2.523
    2.585
    1.808
    0.280
   -1.551
   -2.919
   -3.142
   -2.122
   -0.503
    0.690
    0.708
   -0.463
   -2.146
   -3.504
   -4.107
   -4.092
   -3.810
   -3.366
   -2.551
   -1.216
    0.362
    1.597
    2.083
    1.947
    1.732
    1.986
    2.903
    4.236
    5.414
    5.828
    5.182
    3.734
    2.181
    1.179
    0.889
    0.919
    0.675
   -0.212
   -1.695
   -3.365
   -4.626
   -4.920
   -3.989
   -2.074
    0.099
    1.617
    1.836
    0.716
   -1.163
   -2.899
   -3.667
   -3.042
   -1.164
    1.302
    3.445
    4.554
    4.446
    3.434
    1.976
    0.401
   -1.025
   -1.903
   -1.812
   -0.751
    0.621
    1.371
    1.037
   -0.025
   -1.038
   -1.499
   -1.469
   -1.288
   -1.138
   -0.931
   -0.531
    0.041
    0.663
    1.327
    2.183
    3.299
    4.391
    4.896
    4.449
    3.308
    2.247
    1.901
    2.147
    2.154
    1.170
   -0.681
   -2.429
   -3.154
   -2.888
   -2.566
   -3.079
   -4.392
   -5.627
   -5.917
   -5.098
   -3.609
   -1.936
   -0.329
    1.019
    1.756
    1.539
    0.442
   -0.912
   -1.696
   -1.433
   -0.284
    1.141
    2.276
    2.987
    3.515
    4.046
    4.395
    4.161
    3.192
    1.847
    0.765
    0.365
    0.545
    0.839
    0.831
    0.419
   -0.247
   -0.999
   -1.765
   -2.482
   -2.998
   -3.157
   -2.997
   -2.767
   -2.671
   -2.611
   -2.277
   -1.533
   -0.667
   -0.164
   -0.215
   -0.462
   -0.283
    0.633
    1.949
    2.898
    2.881
    1.956
    0.845
    0.424
    1.061
    2.323
    3.313
    3.353
    2.410
    0.947
   -0.501
   -1.572
   -2.001
   -1.583
   -0.338
    1.287
    2.543
    2.834
    2.116
    0.911
   -0.078
   -0.439
   -0.276
   -0.062
   -0.214
   -0.730
   -1.173
   -1.078
   -0.417
    0.356
    0.723
    0.550
    0.124
   -0.181
   -0.217
   -0.070
    0.126
    0.303
    0.401
    0.335
    0.080
   -0.215
   -0.309
   -0.103
    0.207
    0.309
    0.145
    0.076
    0.590
    1.779
    3.124
    3.853
    3.550
    2.427
    1.039
   -0.198
   -1.189
   -1.974
   -2.479
   -2.516
   -2.036
   -1.308
   -0.784
   -0.735
   -1.045
   -1.348
   -1.362
   -1.065
   -0.663
   -0.430
   -0.557
   -1.032
   -1.607
   -1.908
   -1.619
   -0.641
    0.836
    2.334
    3.205
    2.961
    1.679
    0.106
   -0.798
   -0.586
    0.372
    1.310
    1.758
    1.781
    1.645
    1.441
    1.137
    0.855
    0.877
    1.311
    1.824
    1.832
    1.011
   -0.392
   -1.757
   -2.594
   -2.884
   -2.978
   -3.238
   -3.775
   -4.454
   -5.048
   -5.366
   -5.290
   -4.734
   -3.616
   -1.968
   -0.103
    1.385
    1.970
    1.637
    0.981
    0.775
    1.375
    2.493
    3.508
    3.985
    3.933
    3.650
    3.349
    2.959
    2.253
    1.147
   -0.148
   -1.241
   -1.844
   -1.923
   -1.592
   -0.886
    0.281
    1.886
    3.549
    4.638
    4.723
    3.932
    2.837
    1.942
    1.296
    0.563
   -0.578
   -2.090
   -3.562
   -4.483
   -4.561
   -3.852
   -2.638
   -1.226
    0.123
    1.162
    1.680
    1.628
    1.208
    0.776
    0.611
    0.713
    0.839
    0.739
    0.416
    0.164
    0.357
    1.124
    2.192
    3.085
    3.495
    3.454
    3.100
    2.337
    0.870
   -1.308
   -3.527
   -4.736
   -4.324
   -2.684
   -0.944
   -0.096
   -0.331
   -1.122
   -1.831
   -2.217
   -2.429
   -2.628
   -2.673
   -2.178
   -0.878
    1.019
    2.840
    3.866
    3.827
    3.009
    1.923
    0.917
    0.115
   -0.401
   -0.535
   -0.340
   -0.093
   -0.077
   -0.276
   -0.350
    0.041
    0.896
    1.841
    2.411
    2.386
    1.894
    1.243
    0.669
    0.266
    0.105
    0.315
    0.935
    1.692
    2.057
    1.666
