Origin Time       18/01/2011 20:23:27
Lat.              28.9 N	
Long.             64.0 E	
Depth (Km)          5.0
Magnitude         7.4
 Region           Southwestern-Pakistan                                            
 Above details taken from IMD 
     
Station Code       NSIT
Station Lat.       28.608  N
Station Long.      77.041  E
Station Height(m)  159.0
Site Class        C   Vs30 between 200 m/sec to 375 m/sec *  
Record Time        1/18/2011 ) 20:27:53.0
Sampling Rate     200. Hz
 Record Duration   91.000 Sec.
 Direction         E-W (E positive)
Max. Acceleration   6.196 cm/sec**2
     
  * For reference see Site Classification link of website 
     
 Base Line Corrected and Low Pass Filtered (Cut Off at 35 Hz) Time History
 Acceleration data in cm/sec**2
    
[...]
    0.185
    0.243
    0.262
    0.242
    0.200
    0.157
    0.131
    0.131
    0.157
    0.202
    0.252
    0.295
    0.325
    0.339
    0.335
    0.316
    0.284
    0.249
    0.217
    0.195
    0.185
    0.189
    0.209
    0.252
    0.325
    0.423
    0.536
    0.649
    0.755
    0.844
    0.909
    0.944
    0.954
    0.949
    0.945
    0.949
    0.953
    0.937
    0.883
    0.790
    0.669
    0.536
    0.402
    0.265
    0.123
   -0.027
   -0.185
   -0.346
   -0.494
   -0.613
   -0.690
   -0.726
   -0.732
   -0.716
   -0.680
   -0.615
   -0.510
   -0.365
   -0.196
   -0.029
    0.110
    0.201
    0.238
    0.227
    0.184
    0.126
    0.059
   -0.024
   -0.133
   -0.273
   -0.442
   -0.626
   -0.803
   -0.950
   -1.044
   -1.074
   -1.040
   -0.958
   -0.845
   -0.716
   -0.573
   -0.421
   -0.272
   -0.141
   -0.040
    0.037
    0.100
    0.158
    0.207
    0.240
    0.257
    0.265
    0.274
    0.285
    0.291
    0.287
    0.281
    0.285
    0.300
    0.324
    0.350
    0.372
    0.383
    0.369
    0.317
    0.221
    0.086
   -0.074
   -0.242
   -0.394
   -0.504
   -0.554
   -0.539
   -0.477
   -0.402
   -0.346
   -0.322
   -0.323
   -0.333
   -0.340
   -0.345
   -0.358
   -0.391
   -0.442
   -0.503
   -0.558
   -0.603
   -0.647
   -0.703
   -0.778
   -0.871
   -0.979
   -1.094
   -1.204
   -1.301
   -1.374
   -1.415
   -1.421
   -1.396
   -1.348
   -1.281
   -1.200
   -1.107
   -1.011
   -0.919
   -0.839
   -0.775
   -0.723
   -0.680
   -0.640
   -0.604
   -0.565
   -0.513
   -0.438
   -0.338
   -0.225
   -0.111
   -0.005
    0.084
    0.144
    0.165
    0.147
    0.109
    0.079
    0.082
    0.120
    0.170
    0.202
    0.197
    0.152
    0.067
   -0.057
   -0.211
   -0.370
   -0.499
   -0.576
   -0.601
   -0.595
   -0.580
   -0.566
   -0.550
   -0.531
   -0.515
   -0.518
   -0.554
   -0.626
   -0.733
   -0.865
   -1.005
   -1.135
   -1.241
   -1.313
   -1.339
   -1.307
   -1.207
   -1.050
   -0.862
   -0.683
   -0.544
   -0.459
   -0.414
   -0.377
   -0.311
   -0.198
   -0.039
    0.143
    0.315
    0.446
    0.526
    0.559
    0.558
    0.534
    0.494
    0.446
    0.402
    0.371
    0.362
    0.375
    0.409
    0.456
    0.512
    0.565
    0.603
    0.613
    0.588
    0.536
    0.472
    0.413
    0.368
    0.338
    0.316
    0.287
    0.248
    0.203
    0.162
    0.128
    0.095
    0.057
    0.016
   -0.007
    0.015
    0.101
    0.243
    0.416
    0.592
    0.761
    0.928
    1.098
    1.266
    1.422
    1.559
    1.675
    1.774
    1.860
    1.929
    1.969
    1.975
    1.951
    1.909
    1.858
    1.806
    1.752
    1.692
    1.627
    1.564
    1.514
    1.483
    1.460
    1.429
    1.376
    1.294
    1.185
    1.052
    0.897
    0.726
    0.548
    0.382
    0.253
    0.178
    0.161
    0.192
    0.256
    0.334
    0.406
    0.468
    0.527
    0.596
    0.677
    0.757
    0.813
    0.831
    0.812
    0.770
    0.732
    0.719
    0.735
    0.776
    0.831
    0.890
    0.950
    1.014
    1.084
    1.153
    1.202
    1.213
    1.178
    1.104
    1.004
    0.890
    0.771
    0.654
    0.546
    0.463
    0.418
    0.420
    0.460
    0.526
    0.596
    0.652
    0.674
    0.648
    0.570
    0.449
    0.300
    0.145
    0.000
   -0.132
   -0.258
   -0.389
   -0.538
   -0.707
   -0.890
   -1.066
   -1.210
   -1.305
   -1.346
   -1.343
   -1.307
   -1.249
   -1.180
   -1.105
   -1.026
   -0.939
   -0.844
   -0.746
   -0.649
   -0.561
   -0.482
   -0.407
   -0.326
   -0.236
   -0.142
   -0.050
    0.042
    0.135
    0.224
    0.289
    0.313
    0.292
    0.235
    0.158
    0.063
   -0.063
   -0.235
   -0.450
   -0.688
   -0.924
   -1.141
   -1.327
   -1.467
   -1.546
   -1.562
   -1.530
   -1.476
   -1.431
   -1.413
   -1.428
   -1.461
   -1.492
   -1.506
   -1.498
   -1.477
   -1.456
   -1.447
   -1.455
   -1.476
   -1.506
   -1.538
   -1.558
   -1.546
   -1.480
   -1.360
   -1.212
   -1.079
   -1.001
   -0.996
   -1.057
   -1.151
   -1.242
   -1.299
   -1.303
   -1.245
   -1.140
   -1.017
   -0.917
   -0.872
   -0.888
   -0.951
   -1.031
   -1.094
   -1.118
   -1.102
   -1.058
   -1.002
   -0.942
   -0.881
   -0.821
   -0.769
   -0.727
   -0.692
   -0.658
   -0.624
   -0.605
   -0.618
   -0.671
   -0.744
   -0.804
   -0.828
   -0.818
   -0.792
   -0.763
   -0.729
   -0.679
   -0.608
   -0.519
   -0.426
   -0.336
   -0.252
   -0.179
   -0.124
   -0.092
   -0.078
   -0.071
   -0.063
   -0.051
   -0.036
   -0.021
   -0.010
   -0.015
   -0.048
   -0.119
   -0.228
   -0.367
   -0.510
   -0.627
   -0.686
   -0.668
   -0.569
   -0.399
   -0.181
    0.057
    0.290
    0.502
    0.686
    0.837
    0.960
    1.060
    1.134
    1.171
    1.149
    1.057
    0.898
    0.701
    0.501
    0.323
    0.175
    0.055
   -0.042
   -0.112
   -0.152
   -0.163
   -0.145
   -0.099
   -0.019
    0.105
    0.276
    0.482
    0.692
    0.868
    0.982
    1.025
    0.998
    0.909
    0.767
    0.581
    0.364
    0.133
   -0.090
   -0.287
   -0.451
   -0.581
   -0.668
   -0.689
   -0.619
   -0.449
   -0.197
    0.098
    0.398
    0.679
    0.936
    1.174
    1.391
    1.575
    1.711
    1.796
    1.839
    1.855
    1.864
    1.881
    1.913
    1.950
    1.972
    1.956
    1.885
    1.757
    1.576
    1.348
    1.078
    0.767
    0.420
    0.053
   -0.316
   -0.661
   -0.955
   -1.178
   -1.317
   -1.375
   -1.366
   -1.310
   -1.223
   -1.120
   -1.011
   -0.902
   -0.800
   -0.710
   -0.637
   -0.582
   -0.538
   -0.489
   -0.415
   -0.294
   -0.121
    0.088
    0.302
    0.487
    0.621
    0.695
    0.714
    0.690
    0.643
    0.589
    0.546
    0.527
    0.539
    0.582
    0.643
    0.698
    0.718
    0.679
    0.579
    0.437
    0.276
    0.117
   -0.031
   -0.159
   -0.266
   -0.360
   -0.459
   -0.579
   -0.721
   -0.872
   -1.009
   -1.116
   -1.188
   -1.228
   -1.239
   -1.220
   -1.172
   -1.101
   -1.021
   -0.943
   -0.874
   -0.815
   -0.762
   -0.706
   -0.640
   -0.557
   -0.460
   -0.355
   -0.253
   -0.168
   -0.113
   -0.101
   -0.144
   -0.246
   -0.396
   -0.562
   -0.707
   -0.800
   -0.831
   -0.801
   -0.723
   -0.622
   -0.530
   -0.482
   -0.502
   -0.596
   -0.746
   -0.920
   -1.088
   -1.229
   -1.331
   -1.383
   -1.375
   -1.302
   -1.167
   -0.973
   -0.724
   -0.429
   -0.105
    0.226
    0.547
    0.852
    1.142
    1.416
    1.665
    1.869
    2.011
    2.083
    2.093
    2.054
    1.983
    1.908
    1.855
    1.847
    1.896
    2.005
    2.170
    2.382
    2.626
    2.882
    3.122
    3.311
    3.420
    3.430
    3.337
    3.156
    2.912
    2.639
    2.366
    2.106
    1.861
    1.633
    1.427
    1.252
    1.114
    1.012
    0.940
    0.889
    0.853
    0.841
    0.866
    0.944
    1.075
    1.247
    1.441
    1.633
    1.806
    1.945
    2.035
    2.061
    2.015
    1.906
    1.752
    1.565
    1.338
    1.062
    0.750
    0.439
    0.182
    0.011
   -0.065
   -0.067
   -0.023
    0.047
    0.128
    0.201
    0.246
    0.258
    0.252
    0.259
    0.301
    0.380
    0.475
    0.559
    0.613
    0.629
    0.618
    0.598
    0.589
    0.600
    0.624
    0.644
    0.644
    0.624
    0.594
    0.561
    0.525
    0.482
    0.419
    0.327
    0.193
    0.012
   -0.211
   -0.464
   -0.729
   -0.985
   -1.214
   -1.406
   -1.558
   -1.669
   -1.740
   -1.783
   -1.818
   -1.860
   -1.910
   -1.957
   -1.989
   -1.996
   -1.972
   -1.915
   -1.831
   -1.733
   -1.644
   -1.589
   -1.594
   -1.663
   -1.784
   -1.931
   -2.080
   -2.213
   -2.327
   -2.432
   -2.533
   -2.633
   -2.722
   -2.795
   -2.853
   -2.896
   -2.923
   -2.926
   -2.896
   -2.824
   -2.702
   -2.523
   -2.281
   -1.975
   -1.612
   -1.213
   -0.811
   -0.442
   -0.136
    0.092
    0.241
    0.324
    0.358
    0.357
    0.328
    0.272
    0.185
    0.063
   -0.102
   -0.307
   -0.544
   -0.795
   -1.038
   -1.250
   -1.407
   -1.495
   -1.510
   -1.461
   -1.359
   -1.227
   -1.089
   -0.970
   -0.888
   -0.847
   -0.845
   -0.879
   -0.951
   -1.061
   -1.193
   -1.315
   -1.393
   -1.405
   -1.358
   -1.272
   -1.167
   -1.060
   -0.961
   -0.879
   -0.820
   -0.780
   -0.749
   -0.714
   -0.664
   -0.588
   -0.480
   -0.336
   -0.170
   -0.009
    0.110
    0.167
    0.164
    0.127
    0.074
    0.014
   -0.052
   -0.115
   -0.147
   -0.115
    0.004
    0.214
    0.499
    0.830
    1.180
    1.513
    1.800
    2.012
    2.138
    2.170
    2.105
    1.936
    1.658
    1.272
    0.786
    0.222
   -0.376
   -0.953
   -1.460
   -1.871
   -2.189
   -2.437
   -2.637
   -2.794
   -2.897
   -2.935
   -2.901
   -2.795
   -2.611
   -2.337
   -1.964
   -1.492
   -0.933
   -0.311
    0.332
    0.954
    1.519
    2.004
    2.403
    2.721
    2.967
    3.148
    3.264
    3.315
    3.296
    3.206
    3.050
    2.838
    2.585
    2.306
    2.017
    1.732
    1.469
    1.241
    1.049
    0.888
    0.754
    0.657
    0.615
    0.635
    0.712
    0.828
    0.965
    1.121
    1.299
    1.495
    1.679
    1.809
    1.850
    1.796
    1.664
    1.492
    1.314
    1.157
    1.028
    0.926
    0.853
    0.816
    0.816
    0.845
    0.882
    0.901
    0.879
    0.818
    0.734
    0.650
    0.578
    0.521
    0.493
    0.517
    0.609
    0.758
    0.926
    1.066
    1.155
    1.198
    1.208
    1.190
    1.126
    0.996
    0.805
    0.582
    0.366
    0.181
    0.028
   -0.107
   -0.244
   -0.396
   -0.566
   -0.754
   -0.956
   -1.176
   -1.414
   -1.667
   -1.926
   -2.175
   -2.391
   -2.553
   -2.639
   -2.625
   -2.492
   -2.234
   -1.865
   -1.421
   -0.936
   -0.436
    0.064
    0.547
    0.993
    1.387
    1.715
    1.969
    2.138
    2.213
    2.188
    2.074
    1.894
    1.679
    1.459
    1.263
    1.122
    1.060
    1.073
    1.133
    1.193
    1.215
    1.185
    1.115
    1.032
    0.966
    0.948
    1.001
    1.135
    1.332
    1.541
    1.691
    1.726
    1.627
    1.409
    1.099
    0.732
    0.350
    0.000
   -0.277
   -0.462
   -0.573
   -0.650
   -0.732
   -0.830
   -0.924
   -0.979
   -0.964
   -0.863
   -0.678
   -0.427
   -0.130
    0.196
    0.542
    0.902
    1.267
    1.625
    1.969
    2.293
    2.591
    2.852
    3.055
    3.176
    3.189
    3.088
    2.885
    2.612
    2.311
    2.030
    1.815
    1.694
    1.667
    1.700
    1.750
    1.774
    1.751
    1.679
    1.572
    1.449
    1.323
    1.198
    1.071
    0.934
    0.778
    0.605
    0.425
    0.260
    0.128
    0.042
    0.000
   -0.019
   -0.054
   -0.145
   -0.316
   -0.563
   -0.849
   -1.116
   -1.308
   -1.382
   -1.317
   -1.118
   -0.817
   -0.473
   -0.152
    0.090
    0.236
    0.294
    0.285
    0.232
    0.151
    0.061
   -0.017
   -0.066
   -0.080
   -0.073
   -0.060
   -0.052
   -0.046
   -0.037
   -0.037
   -0.069
   -0.148
   -0.263
   -0.377
   -0.448
   -0.455
   -0.417
   -0.382
   -0.406
   -0.522
   -0.732
   -1.012
   -1.326
   -1.634
   -1.904
   -2.110
   -2.240
   -2.292
   -2.277
   -2.219
   -2.148
   -2.087
   -2.060
   -2.085
   -2.176
   -2.337
   -2.559
   -2.824
   -3.107
   -3.384
   -3.637
   -3.855
   -4.025
   -4.133
   -4.168
   -4.134
   -4.054
   -3.965
   -3.900
   -3.873
   -3.863
   -3.827
   -3.720
   -3.520
   -3.244
   -2.932
   -2.631
   -2.383
   -2.199
   -2.066
   -1.950
   -1.821
   -1.660
   -1.470
   -1.271
   -1.096
   -0.979
   -0.945
   -1.004
   -1.141
   -1.326
   -1.513
   -1.657
   -1.729
   -1.721
   -1.643
   -1.519
   -1.376
   -1.245
   -1.154
   -1.131
   -1.198
   -1.365
   -1.629
   -1.974
   -2.379
   -2.821
   -3.265
   -3.669
   -3.995
   -4.209
   -4.294
   -4.256
   -4.122
   -3.936
   -3.742
   -3.566
   -3.418
   -3.291
   -3.168
   -3.023
   -2.830
   -2.566
   -2.231
   -1.863
   -1.538
   -1.340
   -1.318
   -1.469
   -1.752
   -2.112
   -2.502
   -2.884
   -3.218
   -3.462
   -3.568
   -3.509
   -3.287
   -2.930
   -2.488
   -2.016
   -1.573
   -1.200
   -0.913
   -0.691
   -0.494
   -0.285
   -0.042
    0.227
    0.487
    0.692
    0.799
    0.794
    0.688
    0.519
    0.330
    0.157
    0.016
   -0.092
   -0.172
   -0.225
   -0.253
   -0.264
   -0.270
   -0.290
   -0.338
   -0.411
   -0.488
   -0.524
   -0.471
   -0.294
    0.012
    0.420
    0.880
    1.331
    1.716
    1.983
    2.105
    2.091
    2.002
    1.934
    1.978
    2.180
    2.522
    2.940
    3.358
    3.719
    3.995
    4.182
    4.280
    4.295
    4.240
    4.135
    4.002
    3.851
    3.677
    3.463
    3.192
    2.861
    2.485
    2.090
    1.701
    1.335
    1.010
    0.746
    0.570
    0.498
    0.529
    0.632
    0.760
    0.865
    0.914
    0.896
    0.817
    0.698
    0.581
    0.523
    0.572
    0.750
    1.043
    1.420
    1.839
    2.258
    2.637
    2.941
    3.155
    3.290
    3.373
    3.433
    3.485
    3.530
    3.560
    3.571
    3.556
    3.515
    3.455
    3.394
    3.352
    3.336
    3.338
    3.343
    3.341
    3.340
    3.351
    3.377
    3.407
    3.420
    3.401
    3.348
    3.261
    3.134
    2.958
    2.730
    2.454
    2.150
    1.847
    1.571
    1.346
    1.177
    1.060
    0.982
    0.917
    0.840
    0.733
    0.600
    0.467
    0.372
    0.359
    0.452
    0.650
    0.920
    1.212
    1.472
    1.654
    1.727
    1.680
    1.528
    1.308
    1.069
    0.873
    0.776
    0.819
    1.006
    1.300
    1.633
    1.932
    2.145
    2.259
    2.306
    2.340
    2.418
    2.588
    2.881
    3.311
    3.866
    4.500
    5.138
    5.688
    6.062
    6.196
    6.062
    5.668
    5.056
    4.286
    3.423
    2.528
    1.646
    0.821
    0.089
   -0.528
   -1.030
   -1.419
   -1.682
   -1.779
   -1.661
   -1.308
   -0.744
   -0.026
    0.770
    1.573
    2.311
    2.906
    3.282
    3.392
    3.240
    2.881
    2.402
    1.903
    1.475
    1.191
    1.081
    1.130
    1.277
    1.443
    1.552
    1.551
    1.418
    1.154
    0.791
    0.381
   -0.008
   -0.311
   -0.487
   -0.525
   -0.441
   -0.268
   -0.045
    0.186
    0.397
    0.575
    0.714
    0.807
    0.840
    0.795
    0.662
    0.456
    0.215
   -0.013
   -0.186
   -0.274
   -0.253
   -0.111
    0.146
    0.487
    0.865
    1.234
    1.562
    1.839
    2.061
    2.224
    2.315
    2.315
    2.222
    2.051
    1.842
    1.640
    1.482
    1.378
    1.310
    1.242
    1.143
    0.995
    0.796
    0.549
    0.261
   -0.053
   -0.376
   -0.689
   -0.978
   -1.244
   -1.501
   -1.769
   -2.065
   -2.399
   -2.769
   -3.160
   -3.536
   -3.855
   -4.090
   -4.243
   -4.340
   -4.417
   -4.503
   -4.600
   -4.686
   -4.724
   -4.677
   -4.524
   -4.258
   -3.892
   -3.451
   -2.967
   -2.475
   -2.015
   -1.631
   -1.365
   -1.242
   -1.269
   -1.433
   -1.713
   -2.074
   -2.474
   -2.866
   -3.220
   -3.528
   -3.795
   -4.029
   -4.212
   -4.299
   -4.237
   -3.999
   -3.597
   -3.091
   -2.573
   -2.135
   -1.846
   -1.720
   -1.716
   -1.760
   -1.780
   -1.726
   -1.587
   -1.384
   -1.171
   -1.019
   -0.992
   -1.125
   -1.397
   -1.741
   -2.073
   -2.340
   -2.542
   -2.720
   -2.926
   -3.188
   -3.502
   -3.830
   -4.125
   -4.348
   -4.488
   -4.557
   -4.574
   -4.560
   -4.523
   -4.469
   -4.406
   -4.342
   -4.279
   -4.210
   -4.122
   -4.019
   -3.922
   -3.859
   -3.840
   -3.852
   -3.860
   -3.837
   -3.776
   -3.697
   -3.633
   -3.613
   -3.654
   -3.761
   -3.925
   -4.117
   -4.288
   -4.381
   -4.349
   -4.181
   -3.907
   -3.601
   -3.362
   -3.277
   -3.385
   -3.655
   -4.000
   -4.302
   -4.451
   -4.383
   -4.093
   -3.637
   -3.115
   -2.647
   -2.338
   -2.249
   -2.377
   -2.673
   -3.062
   -3.472
   -3.840
   -4.114
   -4.256
   -4.233
   -4.032
   -3.660
   -3.154
   -2.570
   -1.965
   -1.387
   -0.862
   -0.393
    0.027
    0.400
    0.715
    0.949
    1.089
    1.132
    1.099
    1.021
    0.934
    0.864
    0.825
    0.824
    0.864
    0.939
    1.029
    1.108
    1.163
    1.207
    1.271
    1.387
    1.567
    1.800
    2.060
    2.335
    2.627
    2.944
    3.265
    3.542
    3.720
    3.770
    3.700
    3.546
    3.339
    3.090
    2.792
    2.442
    2.052
    1.640
    1.218
    0.781
    0.328
   -0.121
   -0.519
   -0.801
   -0.906
   -0.800
   -0.493
   -0.029
    0.522
    1.078
    1.561
    1.911
    2.099
    2.137
    2.075
    1.983
    1.927
    1.945
    2.035
    2.165
    2.289
    2.359
    2.338
    2.206
    1.967
    1.650
    1.296
    0.950
    0.645
    0.390
    0.173
   -0.033
   -0.253
   -0.504
   -0.789
   -1.092
   -1.382
   -1.628
   -1.807
   -1.914
   -1.949
   -1.915
   -1.810
   -1.634
   -1.385
   -1.068
   -0.689
   -0.257
    0.218
    0.715
    1.200
    1.640
    2.015
    2.324
    2.578
    2.794
    2.992
    3.197
    3.429
    3.695
    3.976
    4.236
    4.435
    4.553
    4.598
    4.592
    4.556
    4.500
    4.431
    4.365
    4.317
    4.300
    4.308
    4.314
    4.281
    4.175
    3.984
    3.719
    3.401
    3.050
    2.670
    2.247
    1.757
    1.180
    0.512
   -0.224
   -0.981
   -1.694
   -2.291
   -2.707
   -2.915
   -2.933
   -2.821
   -2.658
   -2.512
   -2.423
   -2.399
   -2.433
   -2.508
   -2.608
   -2.710
   -2.794
   -2.851
   -2.887
   -2.908
   -2.911
   -2.880
   -2.786
   -2.603
   -2.310
   -1.906
   -1.410
   -0.861
   -0.312
    0.180
    0.565
    0.824
    0.976
    1.072
    1.183
    1.377
    1.697
    2.153
    2.726
    3.380
    4.060
    4.699
    5.225
    5.591
    5.799
    5.893
    5.932
    5.959
    5.989
    6.008
    6.000
    5.956
    5.874
    5.764
    5.643
    5.544
    5.508
    5.560
    5.690
    5.848
    5.960
    5.951
    5.774
    5.421
    4.926
    4.359
    3.801
    3.320
    2.951
    2.685
    2.486
    2.316
    2.152
    1.989
    1.828
    1.678
    1.547
    1.446
    1.380
    1.345
    1.330
    1.310
    1.262
    1.172
    1.046
    0.901
    0.753
    0.609
    0.472
    0.350
    0.258
    0.215
    0.229
    0.301
    0.423
    0.598
    0.837
    1.145
    1.507
    1.882
    2.217
    2.467
    2.612
    2.654
    2.612
    2.504
    2.351
    2.171
    1.991
    1.840
    1.732
    1.668
    1.629
    1.598
    1.561
    1.519
    1.481
    1.450
    1.420
    1.378
    1.313
    1.230
    1.137
    1.049
    0.977
    0.931
    0.917
    0.940
    0.996
    1.069
    1.136
    1.176
    1.180
    1.146
    1.077
    0.976
    0.843
    0.674
    0.454
    0.175
   -0.161
   -0.534
   -0.913
   -1.275
   -1.612
   -1.924
   -2.216
   -2.486
   -2.734
   -2.972
   -3.213
   -3.455
   -3.668
   -3.813
   -3.870
   -3.853
   -3.796
   -3.721
   -3.629
   -3.505
   -3.342
   -3.152
   -2.957
   -2.773
   -2.603
   -2.445
   -2.303
   -2.190
   -2.122
   -2.120
   -2.205
   -2.391
   -2.671
   -3.016
   -3.381
   -3.719
   -3.982
   -4.117
   -4.063
   -3.773
   -3.239
   -2.516
   -1.714
   -0.956
   -0.341
    0.078
    0.286
    0.293
    0.124
   -0.181
   -0.565
   -0.960
   -1.298
   -1.535
   -1.671
   -1.751
   -1.840
   -1.988
   -2.203
   -2.459
   -2.716
   -2.954
   -3.171
   -3.373
   -3.552
   -3.693
   -3.805
   -3.925
   -4.107
   -4.387
   -4.754
   -5.141
   -5.463
   -5.651
   -5.684
   -5.582
   -5.373
   -5.072
   -4.680
   -4.196
   -3.634
   -3.021
   -2.390
   -1.771
   -1.192
   -0.681
   -0.271
    0.018
    0.198
    0.320
