Origin Time       18/01/2011 20:23:27
Lat.              28.9 N	
Long.             64.0 E	
Depth (Km)          5.0
Magnitude         7.4
 Region           Southwestern-Pakistan                                            
 Above details taken from IMD 
   
Station Code       NSIT
Station Lat.       28.608
Station Long.      77.041
Station Height(m)  159.0
Site Class        C   Vs30 between 200 m/sec to 375 m/sec *  
Record Time        1/18/2011 ) 20:27:53.0
Sampling Rate     200. Hz
 Record Duration   91.000 Sec.
 Direction         Vert. (Up positive)
Max. Acceleration   3.698 cm/sec**2
     
  * For reference see Site Classification link of website 
     
 Base Line Corrected and Low Pass Filtered (Cut Off at 35 Hz) Time History
 Acceleration data in cm/sec**2
    
[...]
    0.678
    0.866
    1.072
    1.257
    1.386
    1.438
    1.410
    1.317
    1.185
    1.042
    0.920
    0.849
    0.841
    0.874
    0.906
    0.903
    0.854
    0.768
    0.675
    0.614
    0.609
    0.648
    0.697
    0.721
    0.712
    0.684
    0.669
    0.694
    0.752
    0.804
    0.811
    0.765
    0.692
    0.620
    0.564
    0.516
    0.463
    0.393
    0.306
    0.219
    0.142
    0.067
   -0.016
   -0.098
   -0.146
   -0.131
   -0.048
    0.081
    0.221
    0.340
    0.419
    0.461
    0.462
    0.408
    0.290
    0.127
   -0.040
   -0.171
   -0.249
   -0.281
   -0.278
   -0.255
   -0.213
   -0.148
   -0.059
    0.037
    0.112
    0.146
    0.129
    0.048
   -0.107
   -0.331
   -0.594
   -0.844
   -1.020
   -1.066
   -0.961
   -0.728
   -0.418
   -0.078
    0.258
    0.566
    0.824
    1.020
    1.153
    1.229
    1.252
    1.218
    1.113
    0.919
    0.631
    0.271
   -0.115
   -0.477
   -0.773
   -0.961
   -1.013
   -0.937
   -0.779
   -0.599
   -0.448
   -0.347
   -0.285
   -0.241
   -0.200
   -0.174
   -0.190
   -0.258
   -0.368
   -0.504
   -0.655
   -0.811
   -0.960
   -1.082
   -1.159
   -1.186
   -1.182
   -1.187
   -1.238
   -1.330
   -1.424
   -1.471
   -1.458
   -1.410
   -1.380
   -1.412
   -1.514
   -1.648
   -1.756
   -1.791
   -1.741
   -1.611
   -1.418
   -1.192
   -0.972
   -0.788
   -0.645
   -0.532
   -0.433
   -0.348
   -0.297
   -0.311
   -0.403
   -0.549
   -0.706
   -0.855
   -1.012
   -1.206
   -1.438
   -1.674
   -1.861
   -1.961
   -1.966
   -1.913
   -1.856
   -1.831
   -1.838
   -1.853
   -1.844
   -1.789
   -1.670
   -1.489
   -1.269
   -1.041
   -0.839
   -0.693
   -0.617
   -0.599
   -0.600
   -0.582
   -0.527
   -0.439
   -0.326
   -0.201
   -0.079
    0.023
    0.090
    0.114
    0.101
    0.073
    0.053
    0.036
   -0.005
   -0.094
   -0.226
   -0.373
   -0.503
   -0.594
   -0.638
   -0.635
   -0.598
   -0.531
   -0.429
   -0.284
   -0.089
    0.156
    0.440
    0.729
    0.966
    1.103
    1.111
    0.982
    0.726
    0.376
   -0.006
   -0.346
   -0.582
   -0.680
   -0.640
   -0.493
   -0.288
   -0.058
    0.185
    0.438
    0.691
    0.920
    1.095
    1.188
    1.176
    1.061
    0.865
    0.613
    0.329
    0.037
   -0.223
   -0.410
   -0.495
   -0.476
   -0.381
   -0.256
   -0.147
   -0.079
   -0.047
   -0.036
   -0.034
   -0.032
   -0.016
    0.023
    0.087
    0.174
    0.285
    0.413
    0.546
    0.667
    0.775
    0.874
    0.967
    1.052
    1.123
    1.171
    1.189
    1.188
    1.195
    1.235
    1.312
    1.410
    1.506
    1.577
    1.597
    1.545
    1.410
    1.194
    0.917
    0.613
    0.323
    0.078
   -0.113
   -0.254
   -0.344
   -0.370
   -0.311
   -0.155
    0.093
    0.392
    0.673
    0.866
    0.944
    0.927
    0.853
    0.746
    0.614
    0.455
    0.273
    0.093
   -0.051
   -0.133
   -0.153
   -0.133
   -0.093
   -0.051
   -0.028
   -0.052
   -0.140
   -0.292
   -0.492
   -0.710
   -0.914
   -1.080
   -1.213
   -1.330
   -1.451
   -1.580
   -1.712
   -1.828
   -1.901
   -1.901
   -1.815
   -1.653
   -1.435
   -1.199
   -0.991
   -0.843
   -0.754
   -0.697
   -0.642
   -0.574
   -0.490
   -0.392
   -0.283
   -0.154
    0.020
    0.256
    0.545
    0.846
    1.105
    1.269
    1.300
    1.190
    0.965
    0.679
    0.384
    0.122
   -0.077
   -0.195
   -0.235
   -0.222
   -0.181
   -0.133
   -0.087
   -0.041
    0.024
    0.132
    0.290
    0.483
    0.682
    0.846
    0.932
    0.910
    0.789
    0.599
    0.375
    0.142
   -0.073
   -0.233
   -0.302
   -0.261
   -0.122
    0.074
    0.276
    0.449
    0.595
    0.728
    0.848
    0.938
    0.985
    0.996
    0.985
    0.963
    0.935
    0.912
    0.914
    0.966
    1.085
    1.262
    1.448
    1.581
    1.623
    1.584
    1.502
    1.426
    1.392
    1.404
    1.421
    1.383
    1.240
    0.984
    0.643
    0.268
   -0.079
   -0.341
   -0.486
   -0.518
   -0.471
   -0.396
   -0.339
   -0.314
   -0.295
   -0.235
   -0.108
    0.070
    0.259
    0.429
    0.563
    0.663
    0.738
    0.794
    0.833
    0.855
    0.869
    0.892
    0.935
    1.000
    1.085
    1.183
    1.274
    1.335
    1.353
    1.338
    1.313
    1.292
    1.274
    1.248
    1.198
    1.117
    1.015
    0.910
    0.799
    0.656
    0.456
    0.202
   -0.075
   -0.333
   -0.543
   -0.689
   -0.772
   -0.784
   -0.700
   -0.493
   -0.175
    0.190
    0.523
    0.777
    0.945
    1.044
    1.080
    1.038
    0.893
    0.634
    0.293
   -0.071
   -0.402
   -0.676
   -0.889
   -1.033
   -1.093
   -1.065
   -0.954
   -0.783
   -0.582
   -0.382
   -0.188
    0.012
    0.235
    0.465
    0.662
    0.770
    0.745
    0.583
    0.331
    0.072
   -0.121
   -0.222
   -0.249
   -0.247
   -0.264
   -0.342
   -0.492
   -0.689
   -0.890
   -1.060
   -1.182
   -1.259
   -1.301
   -1.318
   -1.302
   -1.222
   -1.045
   -0.757
   -0.376
    0.045
    0.421
    0.660
    0.710
    0.586
    0.354
    0.087
   -0.175
   -0.418
   -0.644
   -0.844
   -0.981
   -1.006
   -0.894
   -0.669
   -0.391
   -0.131
    0.057
    0.140
    0.120
    0.025
   -0.113
   -0.271
   -0.428
   -0.564
   -0.664
   -0.734
   -0.794
   -0.862
   -0.948
   -1.050
   -1.161
   -1.268
   -1.373
   -1.483
   -1.602
   -1.717
   -1.814
   -1.890
   -1.950
   -1.998
   -2.038
   -2.070
   -2.086
   -2.059
   -1.955
   -1.754
   -1.461
   -1.105
   -0.733
   -0.397
   -0.133
    0.050
    0.161
    0.205
    0.179
    0.080
   -0.084
   -0.293
   -0.505
   -0.651
   -0.666
   -0.512
   -0.193
    0.253
    0.764
    1.262
    1.678
    1.969
    2.126
    2.159
    2.091
    1.944
    1.736
    1.483
    1.227
    1.038
    0.985
    1.089
    1.311
    1.573
    1.799
    1.941
    1.977
    1.916
    1.782
    1.609
    1.439
    1.314
    1.251
    1.236
    1.235
    1.233
    1.246
    1.306
    1.438
    1.642
    1.883
    2.096
    2.219
    2.226
    2.140
    2.011
    1.884
    1.778
    1.680
    1.556
    1.382
    1.173
    0.967
    0.796
    0.676
    0.608
    0.590
    0.605
    0.630
    0.654
    0.685
    0.745
    0.847
    0.987
    1.138
    1.260
    1.337
    1.388
    1.463
    1.598
    1.798
    2.044
    2.305
    2.546
    2.730
    2.833
    2.849
    2.783
    2.651
    2.486
    2.326
    2.194
    2.091
    2.010
    1.935
    1.851
    1.744
    1.615
    1.485
    1.379
    1.319
    1.315
    1.352
    1.383
    1.358
    1.263
    1.129
    1.010
    0.939
    0.909
    0.885
    0.828
    0.734
    0.622
    0.516
    0.402
    0.242
    0.012
   -0.268
   -0.545
   -0.756
   -0.855
   -0.838
   -0.742
   -0.625
   -0.525
   -0.443
   -0.358
   -0.246
   -0.092
    0.105
    0.319
    0.504
    0.607
    0.584
    0.420
    0.139
   -0.183
   -0.453
   -0.604
   -0.619
   -0.520
   -0.335
   -0.095
    0.168
    0.410
    0.581
    0.629
    0.531
    0.312
    0.043
   -0.196
   -0.354
   -0.426
   -0.437
   -0.428
   -0.424
   -0.418
   -0.394
   -0.357
   -0.344
   -0.395
   -0.522
   -0.694
   -0.865
   -0.987
   -1.035
   -1.009
   -0.933
   -0.834
   -0.737
   -0.672
   -0.667
   -0.722
   -0.793
   -0.808
   -0.708
   -0.481
   -0.174
    0.124
    0.327
    0.399
    0.370
    0.299
    0.226
    0.148
    0.040
   -0.113
   -0.295
   -0.464
   -0.590
   -0.691
   -0.825
   -1.039
   -1.323
   -1.620
   -1.865
   -2.014
   -2.046
   -1.955
   -1.759
   -1.495
   -1.227
   -1.028
   -0.946
   -0.966
   -1.020
   -1.041
   -1.012
   -0.971
   -0.965
   -1.016
   -1.104
   -1.175
   -1.175
   -1.082
   -0.920
   -0.740
   -0.583
   -0.468
   -0.395
   -0.349
   -0.312
   -0.279
   -0.250
   -0.212
   -0.138
   -0.015
    0.132
    0.245
    0.270
    0.175
   -0.044
   -0.377
   -0.803
   -1.299
   -1.829
   -2.335
   -2.740
   -2.981
   -3.032
   -2.903
   -2.623
   -2.237
   -1.817
   -1.452
   -1.228
   -1.204
   -1.383
   -1.713
   -2.099
   -2.449
   -2.700
   -2.823
   -2.794
   -2.601
   -2.248
   -1.767
   -1.218
   -0.676
   -0.206
    0.155
    0.405
    0.550
    0.587
    0.520
    0.392
    0.274
    0.230
    0.280
    0.400
    0.540
    0.655
    0.726
    0.750
    0.718
    0.602
    0.379
    0.053
   -0.353
   -0.817
   -1.324
   -1.851
   -2.357
   -2.796
   -3.131
   -3.347
   -3.453
   -3.471
   -3.416
   -3.283
   -3.062
   -2.767
   -2.441
   -2.143
   -1.921
   -1.801
   -1.777
   -1.818
   -1.892
   -1.980
   -2.072
   -2.150
   -2.185
   -2.152
   -2.031
   -1.810
   -1.492
   -1.106
   -0.706
   -0.343
   -0.054
    0.146
    0.261
    0.310
    0.312
    0.274
    0.198
    0.084
   -0.071
   -0.273
   -0.516
   -0.764
   -0.951
   -1.018
   -0.949
   -0.788
   -0.622
   -0.551
   -0.644
   -0.908
   -1.300
   -1.756
   -2.212
   -2.611
   -2.916
   -3.118
   -3.227
   -3.245
   -3.155
   -2.929
   -2.541
   -1.992
   -1.328
   -0.644
   -0.054
    0.358
    0.564
    0.593
    0.505
    0.364
    0.211
    0.047
   -0.146
   -0.375
   -0.618
   -0.844
   -1.028
   -1.154
   -1.210
   -1.188
   -1.095
   -0.954
   -0.815
   -0.743
   -0.794
   -0.971
   -1.218
   -1.452
   -1.600
   -1.624
   -1.529
   -1.353
   -1.149
   -0.955
   -0.793
   -0.670
   -0.584
   -0.503
   -0.381
   -0.194
    0.032
    0.228
    0.329
    0.313
    0.208
    0.073
   -0.049
   -0.157
   -0.264
   -0.351
   -0.355
   -0.217
    0.065
    0.432
    0.796
    1.082
    1.265
    1.371
    1.452
    1.546
    1.652
    1.743
    1.786
    1.764
    1.682
    1.579
    1.503
    1.484
    1.520
    1.592
    1.684
    1.784
    1.885
    1.982
    2.058
    2.081
    2.009
    1.805
    1.460
    1.001
    0.492
    0.033
   -0.254
   -0.273
    0.010
    0.553
    1.242
    1.931
    2.496
    2.890
    3.145
    3.323
    3.452
    3.515
    3.486
    3.373
    3.228
    3.113
    3.046
    2.976
    2.822
    2.550
    2.213
    1.916
    1.748
    1.736
    1.854
    2.060
    2.321
    2.611
    2.893
    3.098
    3.154
    3.032
    2.760
    2.401
    2.007
    1.613
    1.249
    0.961
    0.798
    0.788
    0.909
    1.085
    1.215
    1.240
    1.172
    1.066
    0.966
    0.885
    0.813
    0.741
    0.673
    0.625
    0.613
    0.634
    0.670
    0.702
    0.723
    0.720
    0.666
    0.536
    0.332
    0.097
   -0.098
   -0.176
   -0.083
    0.192
    0.617
    1.137
    1.693
    2.233
    2.699
    3.037
    3.206
    3.185
    2.986
    2.654
    2.257
    1.852
    1.467
    1.117
    0.829
    0.648
    0.615
    0.739
    0.987
    1.288
    1.557
    1.732
    1.792
    1.754
    1.647
    1.508
    1.366
    1.231
    1.092
    0.935
    0.770
    0.627
    0.536
    0.505
    0.515
    0.523
    0.477
    0.338
    0.098
   -0.223
   -0.586
   -0.941
   -1.240
   -1.458
   -1.607
   -1.708
   -1.764
   -1.745
   -1.622
   -1.393
   -1.101
   -0.823
   -0.650
   -0.642
   -0.792
   -1.042
   -1.313
   -1.544
   -1.704
   -1.792
   -1.829
   -1.843
   -1.843
   -1.827
   -1.783
   -1.698
   -1.569
   -1.418
   -1.314
   -1.339
   -1.556
   -1.964
   -2.496
   -3.033
   -3.437
   -3.597
   -3.470
   -3.076
   -2.475
   -1.743
   -0.953
   -0.166
    0.579
    1.250
    1.805
    2.203
    2.418
    2.444
    2.289
    1.974
    1.545
    1.062
    0.586
    0.163
   -0.177
   -0.423
   -0.579
   -0.648
   -0.626
   -0.508
   -0.316
   -0.110
    0.027
    0.017
   -0.187
   -0.572
   -1.059
   -1.525
   -1.864
   -2.020
   -2.003
   -1.864
   -1.679
   -1.513
   -1.410
   -1.387
   -1.438
   -1.535
   -1.630
   -1.683
   -1.693
   -1.689
   -1.687
   -1.670
   -1.609
   -1.491
   -1.339
   -1.189
   -1.067
   -0.969
   -0.861
   -0.714
   -0.532
   -0.345
   -0.178
   -0.033
    0.098
    0.204
    0.260
    0.235
    0.115
   -0.080
   -0.294
   -0.460
   -0.542
   -0.550
   -0.524
   -0.494
   -0.465
   -0.418
   -0.328
   -0.190
   -0.034
    0.098
    0.186
    0.246
    0.308
    0.391
    0.495
    0.613
    0.727
    0.817
    0.861
    0.848
    0.777
    0.658
    0.515
    0.366
    0.206
    0.016
   -0.203
   -0.416
   -0.579
   -0.671
   -0.707
   -0.718
   -0.726
   -0.722
   -0.668
   -0.534
   -0.344
   -0.180
   -0.139
   -0.268
   -0.541
   -0.874
   -1.176
   -1.390
   -1.506
   -1.541
   -1.500
   -1.373
   -1.162
   -0.898
   -0.624
   -0.373
   -0.162
    0.004
    0.125
    0.195
    0.200
    0.125
   -0.024
   -0.205
   -0.363
   -0.462
   -0.498
   -0.504
   -0.527
   -0.602
   -0.718
   -0.822
   -0.861
   -0.819
   -0.717
   -0.596
   -0.509
   -0.509
   -0.630
   -0.874
   -1.206
   -1.565
   -1.871
   -2.057
   -2.096
   -2.021
   -1.904
   -1.820
   -1.812
   -1.877
   -1.963
   -1.996
   -1.924
   -1.747
   -1.501
   -1.228
   -0.962
   -0.728
   -0.558
   -0.480
   -0.496
   -0.564
   -0.599
   -0.526
   -0.332
   -0.080
    0.142
    0.289
    0.382
    0.468
    0.573
    0.671
    0.700
    0.615
    0.442
    0.277
    0.221
    0.314
    0.510
    0.727
    0.895
    1.001
    1.081
    1.182
    1.314
    1.431
    1.469
    1.395
    1.218
    0.968
    0.679
    0.386
    0.128
   -0.054
   -0.137
   -0.141
   -0.129
   -0.177
   -0.321
   -0.518
   -0.676
   -0.718
   -0.625
   -0.440
   -0.236
   -0.072
    0.043
    0.160
    0.354
    0.676
    1.127
    1.664
    2.219
    2.717
    3.108
    3.366
    3.483
    3.450
    3.262
    2.936
    2.502
    1.983
    1.386
    0.720
    0.018
   -0.653
   -1.195
   -1.515
   -1.558
   -1.339
   -0.914
   -0.336
    0.354
    1.116
    1.891
    2.600
    3.161
    3.524
    3.688
    3.698
    3.608
    3.440
    3.197
    2.886
    2.542
    2.205
    1.908
    1.654
    1.428
    1.208
    1.000
    0.853
    0.831
    0.972
    1.276
    1.710
    2.218
    2.720
    3.125
    3.347
    3.336
    3.088
    2.654
    2.129
    1.616
    1.177
    0.812
    0.484
    0.146
   -0.227
   -0.626
   -1.007
   -1.313
   -1.504
   -1.565
   -1.502
   -1.333
   -1.095
   -0.842
   -0.615
   -0.434
   -0.284
   -0.127
    0.072
    0.318
    0.578
    0.805
    0.983
    1.131
    1.274
    1.411
    1.506
    1.500
    1.340
    1.020
    0.597
    0.176
   -0.142
   -0.284
   -0.215
    0.052
    0.450
    0.860
    1.154
    1.242
    1.111
    0.827
    0.498
    0.208
   -0.040
   -0.299
   -0.613
   -0.973
   -1.322
   -1.593
   -1.750
   -1.783
   -1.702
   -1.513
   -1.221
   -0.849
   -0.455
   -0.120
    0.097
    0.193
    0.211
    0.212
    0.239
    0.286
    0.309
    0.259
    0.132
   -0.015
   -0.106
   -0.097
    0.003
    0.132
    0.208
    0.169
   -0.004
   -0.278
   -0.588
   -0.869
   -1.072
   -1.187
   -1.254
   -1.344
   -1.505
   -1.727
   -1.950
   -2.099
   -2.116
   -1.975
   -1.684
   -1.277
   -0.800
   -0.305
    0.153
    0.521
    0.764
    0.873
    0.849
    0.691
    0.404
    0.003
   -0.488
   -1.030
   -1.563
   -2.009
   -2.299
   -2.396
   -2.303
   -2.059
   -1.744
   -1.458
   -1.290
   -1.273
   -1.373
   -1.516
   -1.626
   -1.682
   -1.731
   -1.849
   -2.060
   -2.303
   -2.462
   -2.453
   -2.267
   -1.974
   -1.680
   -1.467
   -1.356
   -1.303
   -1.227
   -1.055
   -0.746
   -0.313
    0.176
    0.619
    0.937
    1.110
    1.179
    1.211
    1.263
    1.352
    1.445
    1.477
    1.398
    1.203
    0.936
    0.673
    0.495
    0.461
    0.587
    0.832
    1.132
    1.431
    1.694
    1.903
    2.052
    2.139
    2.154
    2.076
    1.891
    1.602
    1.226
    0.781
    0.293
   -0.189
   -0.587
   -0.823
   -0.843
   -0.646
   -0.288
    0.155
    0.625
    1.101
    1.563
    1.959
    2.206
    2.231
    2.004
    1.553
    0.960
    0.341
   -0.196
   -0.578
   -0.773
   -0.784
   -0.637
   -0.378
   -0.060
    0.276
    0.591
    0.847
    1.011
    1.051
    0.941
    0.661
    0.215
   -0.343
   -0.916
   -1.410
   -1.762
   -1.971
   -2.080
   -2.154
   -2.236
   -2.325
   -2.398
   -2.442
   -2.469
   -2.501
   -2.554
   -2.615
   -2.639
   -2.560
   -2.336
   -1.981
   -1.551
   -1.107
   -0.691
   -0.336
   -0.073
    0.072
    0.090
    0.005
   -0.114
   -0.182
   -0.149
   -0.031
    0.095
    0.156
    0.119
    0.008
   -0.116
   -0.178
   -0.116
    0.092
    0.437
    0.889
    1.397
    1.880
    2.239
    2.388
    2.291
    1.973
    1.506
    0.972
    0.436
   -0.065
   -0.490
   -0.776
   -0.857
   -0.711
   -0.383
    0.049
    0.518
    0.988
    1.441
    1.844
    2.138
    2.248
    2.134
    1.834
    1.447
    1.093
    0.851
    0.737
    0.699
    0.643
    0.495
    0.246
   -0.048
   -0.316
   -0.518
   -0.657
   -0.752
   -0.821
   -0.866
   -0.886
   -0.903
   -0.952
   -1.049
   -1.145
   -1.138
   -0.940
   -0.533
    0.015
    0.577
    1.019
    1.243
    1.209
    0.933
    0.469
   -0.092
   -0.614
   -0.941
   -0.966
   -0.690
   -0.229
    0.249
    0.601
    0.776
    0.811
    0.773
    0.688
    0.545
    0.360
    0.224
    0.272
    0.598
    1.180
    1.887
    2.547
    3.042
    3.346
    3.490
    3.496
    3.356
    3.079
    2.728
    2.403
    2.187
    2.099
    2.089
    2.089
    2.063
    2.025
    2.001
    1.972
    1.858
    1.589
    1.170
    0.699
    0.311
    0.088
    0.005
   -0.055
   -0.213
   -0.505
   -0.860
   -1.153
   -1.277
   -1.187
   -0.901
   -0.482
   -0.019
    0.402
    0.710
    0.871
    0.900
    0.873
    0.882
    0.978
    1.127
    1.239
    1.231
    1.076
    0.814
    0.517
    0.235
   -0.027
   -0.292
   -0.554
   -0.756
   -0.826
   -0.731
   -0.507
   -0.240
   -0.017
    0.114
    0.169
    0.199
    0.257
    0.375
    0.580
    0.888
    1.289
    1.723
    2.088
    2.283
    2.246
    1.989
    1.590
    1.167
    0.825
    0.611
    0.517
    0.505
    0.535
    0.579
    0.620
    0.650
    0.649
    0.587
    0.441
    0.214
   -0.077
   -0.410
   -0.767
   -1.127
   -1.472
   -1.791
   -2.078
   -2.317
   -2.496
   -2.610
   -2.674
   -2.712
   -2.759
   -2.840
   -2.954
   -3.072
   -3.161
   -3.206
   -3.196
   -3.101
   -2.881
   -2.519
   -2.050
   -1.565
   -1.175
   -0.971
   -0.978
   -1.155
   -1.426
   -1.714
   -1.953
   -2.096
   -2.126
   -2.072
   -1.995
   -1.952
   -1.964
   -2.009
   -2.027
   -1.959
   -1.781
   -1.528
   -1.270
   -1.063
   -0.938
   -0.904
   -0.967
   -1.120
   -1.337
   -1.562
   -1.727
   -1.783
   -1.743
   -1.673
   -1.636
   -1.638
   -1.626
   -1.542
   -1.376
   -1.170
   -0.992
   -0.891
   -0.879
   -0.934
   -1.025
   -1.127
   -1.209
   -1.225
   -1.124
   -0.879
   -0.503
   -0.041
    0.433
    0.827
    1.054
    1.070
    0.891
    0.588
    0.254
   -0.032
   -0.240
   -0.391
   -0.526
   -0.654
   -0.753
   -0.786
   -0.735
   -0.604
   -0.417
   -0.201
    0.023
    0.234
    0.405
    0.507
    0.536
    0.533
    0.561
    0.654
    0.780
    0.864
    0.839
    0.687
    0.449
    0.207
    0.028
   -0.066
   -0.086
   -0.056
    0.012
    0.112
    0.261
    0.518
    0.955
    1.586
    2.313
    2.941
    3.259
    3.152
    2.655
    1.933
    1.171
    0.488
   -0.085
   -0.556
   -0.914
   -1.118
   -1.117
   -0.886
   -0.451
    0.094
    0.606
    0.941
    1.010
    0.814
    0.447
    0.052
   -0.252
   -0.431
   -0.527
   -0.591
   -0.628
   -0.593
   -0.432
   -0.133
    0.256
    0.641
    0.941
    1.128
    1.228
    1.276
    1.284
    1.234
    1.105
    0.887
    0.588
    0.239
   -0.114
   -0.421
