Origin Time       07/09/2011 17:58:18
Lat.              28.6 N	
Long.             77.0 E	
Depth (Km)          8.0
Magnitude         4.2
 Region           DELHI-HARYANA(SONIPAT)-Haryana                                   
 Above details taken from IMD 
     
Station Code       NSIT
Station Lat.       28.608  N
Station Long.      77.041  E
Station Height(m)  159.0
Site Class        C   Vs30 between 200 m/sec to 375 m/sec *  
Record Time        9/7/2011  ) 17:58:07.0
Sampling Rate     200. Hz
 Record Duration   75.000 Sec.
 Direction         E-W (E positive)
Max. Acceleration -31.703 cm/sec**2
     
  * For reference see Site Classification link of website 
     
 Base Line Corrected and Low Pass Filtered (Cut Off at 35 Hz) Time History
 Acceleration data in cm/sec**2
    
[...]
    1.082
    1.082
    1.083
    1.086
    1.088
    1.091
    1.092
    1.092
    1.090
    1.087
    1.084
    1.084
    1.086
    1.088
    1.088
    1.087
    1.085
    1.084
    1.085
    1.086
    1.087
    1.088
    1.089
    1.092
    1.094
    1.095
    1.094
    1.093
    1.091
    1.090
    1.088
    1.087
    1.085
    1.085
    1.087
    1.090
    1.095
    1.100
    1.104
    1.105
    1.102
    1.099
    1.097
    1.097
    1.098
    1.098
    1.096
    1.095
    1.096
    1.098
    1.100
    1.100
    1.098
    1.096
    1.095
    1.096
    1.100
    1.104
    1.107
    1.107
    1.105
    1.102
    1.098
    1.096
    1.095
    1.096
    1.096
    1.097
    1.096
    1.096
    1.097
    1.098
    1.100
    1.102
    1.103
    1.101
    1.099
    1.097
    1.097
    1.100
    1.103
    1.106
    1.107
    1.107
    1.105
    1.102
    1.098
    1.097
    1.098
    1.102
    1.107
    1.111
    1.111
    1.108
    1.105
    1.104
    1.105
    1.106
    1.106
    1.105
    1.105
    1.107
    1.110
    1.113
    1.114
    1.113
    1.111
    1.110
    1.109
    1.108
    1.107
    1.106
    1.106
    1.107
    1.109
    1.109
    1.108
    1.105
    1.102
    1.100
    1.100
    1.103
    1.108
    1.113
    1.118
    1.123
    1.126
    1.125
    1.120
    1.112
    1.106
    1.105
    1.107
    1.112
    1.116
    1.119
    1.119
    1.117
    1.114
    1.111
    1.109
    1.110
    1.112
    1.116
    1.120
    1.123
    1.123
    1.121
    1.118
    1.118
    1.119
    1.121
    1.123
    1.122
    1.119
    1.114
    1.112
    1.112
    1.114
    1.116
    1.116
    1.117
    1.119
    1.124
    1.127
    1.126
    1.121
    1.117
    1.115
    1.117
    1.120
    1.122
    1.121
    1.119
    1.117
    1.117
    1.119
    1.121
    1.124
    1.127
    1.129
    1.131
    1.130
    1.127
    1.121
    1.116
    1.113
    1.115
    1.120
    1.124
    1.126
    1.127
    1.127
    1.127
    1.127
    1.126
    1.125
    1.124
    1.124
    1.126
    1.129
    1.133
    1.136
    1.137
    1.136
    1.135
    1.134
    1.134
    1.136
    1.138
    1.138
    1.138
    1.137
    1.136
    1.135
    1.133
    1.131
    1.129
    1.129
    1.130
    1.131
    1.132
    1.131
    1.130
    1.129
    1.130
    1.133
    1.138
    1.141
    1.140
    1.136
    1.129
    1.123
    1.120
    1.123
    1.129
    1.136
    1.140
    1.140
    1.138
    1.135
    1.131
    1.126
    1.122
    1.123
    1.130
    1.141
    1.151
    1.155
    1.152
    1.145
    1.138
    1.135
    1.134
    1.135
    1.136
    1.138
    1.140
    1.141
    1.140
    1.137
    1.134
    1.135
    1.139
    1.145
    1.148
    1.146
    1.141
    1.136
    1.133
    1.136
    1.141
    1.147
    1.151
    1.152
    1.151
    1.147
    1.143
    1.139
    1.138
    1.141
    1.148
    1.156
    1.161
    1.160
    1.154
    1.146
    1.140
    1.138
    1.141
    1.147
    1.153
    1.156
    1.157
    1.154
    1.149
    1.144
    1.140
    1.138
    1.140
    1.146
    1.154
    1.159
    1.160
    1.155
    1.148
    1.143
    1.144
    1.147
    1.152
    1.155
    1.155
    1.153
    1.149
    1.145
    1.144
    1.147
    1.152
    1.157
    1.159
    1.157
    1.154
    1.151
    1.146
    1.143
    1.144
    1.149
    1.155
    1.160
    1.159
    1.156
    1.154
    1.155
    1.158
    1.161
    1.164
    1.164
    1.162
    1.159
    1.158
    1.158
    1.158
    1.157
    1.155
    1.154
    1.156
    1.159
    1.161
    1.161
    1.160
    1.160
    1.161
    1.163
    1.164
    1.164
    1.161
    1.159
    1.157
    1.158
    1.158
    1.157
    1.156
    1.157
    1.159
    1.162
    1.163
    1.163
    1.162
    1.163
    1.165
    1.166
    1.166
    1.166
    1.164
    1.163
    1.161
    1.162
    1.165
    1.168
    1.169
    1.168
    1.165
    1.163
    1.163
    1.165
    1.168
    1.170
    1.173
    1.173
    1.172
    1.168
    1.163
    1.160
    1.162
    1.168
    1.176
    1.180
    1.180
    1.176
    1.171
    1.168
    1.168
    1.171
    1.174
    1.175
    1.173
    1.170
    1.167
    1.165
    1.165
    1.167
    1.169
    1.172
    1.174
    1.178
    1.181
    1.181
    1.179
    1.174
    1.169
    1.166
    1.165
    1.168
    1.171
    1.174
    1.175
    1.173
    1.172
    1.172
    1.174
    1.177
    1.179
    1.179
    1.179
    1.179
    1.179
    1.178
    1.178
    1.179
    1.181
    1.185
    1.187
    1.188
    1.186
    1.183
    1.181
    1.182
    1.186
    1.188
    1.189
    1.186
    1.182
    1.179
    1.180
    1.184
    1.188
    1.189
    1.187
    1.182
    1.178
    1.177
    1.179
    1.183
    1.188
    1.191
    1.192
    1.190
    1.187
    1.184
    1.182
    1.183
    1.184
    1.186
    1.188
    1.189
    1.188
    1.186
    1.183
    1.183
    1.185
    1.188
    1.190
    1.189
    1.187
    1.187
    1.188
    1.190
    1.191
    1.189
    1.187
    1.187
    1.190
    1.192
    1.192
    1.190
    1.188
    1.189
    1.191
    1.193
    1.196
    1.199
    1.200
    1.199
    1.195
    1.191
    1.189
    1.189
    1.191
    1.192
    1.192
    1.193
    1.195
    1.196
    1.196
    1.193
    1.189
    1.186
    1.187
    1.189
    1.193
    1.195
    1.197
    1.201
    1.207
    1.213
    1.213
    1.206
    1.197
    1.189
    1.187
    1.192
    1.199
    1.203
    1.203
    1.200
    1.196
    1.194
    1.195
    1.197
    1.200
    1.203
    1.206
    1.208
    1.207
    1.205
    1.203
    1.203
    1.204
    1.204
    1.203
    1.203
    1.203
    1.205
    1.206
    1.207
    1.208
    1.207
    1.204
    1.199
    1.197
    1.200
    1.206
    1.210
    1.210
    1.205
    1.201
    1.200
    1.203
    1.207
    1.210
    1.211
    1.209
    1.206
    1.202
    1.198
    1.197
    1.199
    1.206
    1.213
    1.216
    1.213
    1.206
    1.200
    1.199
    1.204
    1.213
    1.221
    1.223
    1.220
    1.211
    1.203
    1.199
    1.201
    1.207
    1.214
    1.218
    1.217
    1.214
    1.210
    1.207
    1.205
    1.203
    1.203
    1.205
    1.211
    1.218
    1.224
    1.224
    1.219
    1.213
    1.209
    1.209
    1.211
    1.213
    1.215
    1.217
    1.219
    1.220
    1.219
    1.217
    1.216
    1.217
    1.222
    1.226
    1.226
    1.222
    1.215
    1.208
    1.205
    1.207
    1.212
    1.219
    1.225
    1.229
    1.230
    1.228
    1.224
    1.222
    1.222
    1.222
    1.222
    1.220
    1.218
    1.215
    1.214
    1.214
    1.216
    1.221
    1.227
    1.233
    1.235
    1.233
    1.228
    1.222
    1.219
    1.219
    1.220
    1.223
    1.227
    1.234
    1.240
    1.242
    1.239
    1.231
    1.223
    1.219
    1.221
    1.227
    1.234
    1.237
    1.237
    1.233
    1.229
    1.227
    1.227
    1.226
    1.225
    1.224
    1.224
    1.226
    1.226
    1.224
    1.225
    1.228
    1.234
    1.239
    1.240
    1.236
    1.231
    1.228
    1.228
    1.231
    1.234
    1.234
    1.232
    1.229
    1.226
    1.226
    1.229
    1.233
    1.235
    1.234
    1.230
    1.226
    1.227
    1.232
    1.238
    1.242
    1.241
    1.238
    1.236
    1.236
    1.239
    1.242
    1.243
    1.244
    1.244
    1.243
    1.240
    1.237
    1.234
    1.235
    1.239
    1.243
    1.246
    1.247
    1.246
    1.243
    1.242
    1.241
    1.242
    1.242
    1.241
    1.238
    1.236
    1.235
    1.237
    1.240
    1.244
    1.245
    1.243
    1.241
    1.241
    1.242
    1.242
    1.240
    1.237
    1.235
    1.236
    1.242
    1.250
    1.254
    1.253
    1.248
    1.245
    1.244
    1.242
    1.238
    1.232
    1.232
    1.244
    1.266
    1.280
    1.270
    1.234
    1.186
    1.147
    1.135
    1.155
    1.192
    1.215
    1.200
    1.162
    1.154
    1.228
    1.372
    1.500
    1.528
    1.455
    1.360
    1.294
    1.228
    1.117
    1.012
    1.033
    1.204
    1.366
    1.355
    1.249
    1.331
    1.702
    1.996
    1.697
    0.805
    0.066
    0.301
    1.457
    2.510
    2.469
    1.439
    0.478
    0.367
    0.749
    0.704
    0.053
   -0.262
    0.685
    2.505
    3.685
    3.238
    1.877
    1.226
    1.848
    2.482
    1.548
   -0.736
   -2.227
   -1.088
    2.030
    4.382
    3.821
    0.974
   -1.392
   -1.148
    1.153
    3.062
    2.946
    1.595
    0.999
    1.825
    2.639
    1.765
   -0.487
   -1.911
   -0.775
    2.163
    4.254
    3.591
    0.919
   -1.168
   -0.836
    1.299
    3.047
    2.952
    1.569
    0.506
    0.511
    0.791
    0.200
   -1.177
   -1.936
   -0.901
    1.406
    3.073
    2.747
    1.142
    0.391
    1.814
    4.524
    6.287
    5.633
    3.052
    0.376
   -0.803
   -0.253
    1.000
    1.724
    1.507
    0.886
    0.583
    0.751
    0.984
    0.928
    0.664
    0.507
    0.638
    1.026
    1.573
    2.102
    2.265
    1.692
    0.450
   -0.761
   -1.104
   -0.349
    0.954
    2.058
    2.659
    2.935
    3.117
    3.149
    2.792
    2.067
    1.463
    1.532
    2.206
    2.730
    2.418
    1.299
   -0.069
   -1.195
   -1.870
   -1.991
   -1.472
   -0.336
    1.158
    2.520
    3.192
    2.938
    2.157
    1.638
    1.810
    2.270
    2.209
    1.311
    0.110
   -0.531
   -0.178
    0.904
    2.063
    2.769
    2.886
    2.543
    1.900
    1.119
    0.445
    0.101
    0.091
    0.267
    0.563
    1.031
    1.627
    2.072
    1.987
    1.238
    0.219
   -0.244
    0.454
    1.991
    3.199
    3.113
    1.937
    0.836
    0.709
    1.312
    1.669
    1.233
    0.483
    0.347
    1.154
    2.276
    2.816
    2.582
    2.210
    2.272
    2.459
    1.917
    0.402
   -1.211
   -1.797
   -1.219
   -0.364
    0.055
    0.353
    1.277
    2.762
    3.737
    3.313
    1.888
    0.794
    0.875
    1.677
    2.134
    1.878
    1.616
    2.109
    2.985
    2.980
    1.482
   -0.491
   -1.225
   -0.171
    1.437
    1.935
    1.049
    0.127
    0.541
    2.091
    3.255
    2.971
    1.815
    1.216
    1.722
    2.393
    1.973
    0.398
   -1.063
   -1.159
    0.062
    1.371
    1.679
    1.098
    0.613
    0.796
    1.157
    0.966
    0.448
    0.652
    2.065
    3.770
    4.218
    2.713
    0.090
   -1.939
   -2.108
   -0.486
    1.742
    3.349
    3.935
    3.812
    3.272
    2.258
    0.783
   -0.610
   -1.094
   -0.299
    1.322
    2.872
    3.615
    3.254
    1.950
    0.349
   -0.533
    0.060
    1.765
    3.037
    2.423
    0.120
   -1.965
   -1.984
    0.048
    2.314
    2.995
    1.912
    0.491
    0.240
    1.286
    2.419
    2.546
    1.898
    1.648
    2.477
    3.779
    4.280
    3.327
    1.498
    0.002
   -0.459
   -0.178
    0.153
    0.288
    0.495
    0.955
    1.444
    1.638
    1.443
    0.949
    0.301
   -0.271
   -0.510
   -0.325
    0.188
    0.966
    1.990
    3.039
    3.663
    3.607
    3.156
    2.874
    3.043
    3.414
    3.458
    2.812
    1.569
    0.278
   -0.410
   -0.277
    0.194
    0.221
   -0.523
   -1.568
   -2.080
   -1.587
   -0.322
    1.018
    1.847
    2.118
    2.238
    2.546
    2.902
    2.842
    2.130
    1.097
    0.484
    0.918
    2.381
    4.050
    4.797
    4.078
    2.395
    0.811
    0.019
   -0.107
   -0.159
   -0.485
   -0.849
   -0.762
   -0.145
    0.493
    0.617
    0.325
    0.263
    0.884
    1.915
    2.632
    2.629
    2.244
    2.175
    2.684
    3.260
    3.150
    2.211
    1.143
    0.791
    1.215
    1.573
    1.076
    0.005
   -0.441
    0.541
    2.364
    3.541
    3.117
    1.483
   -0.116
   -0.696
   -0.225
    0.559
    0.930
    0.837
    0.848
    1.450
    2.445
    3.093
    2.853
    1.914
    1.002
    0.685
    0.948
    1.385
    1.694
    1.856
    1.908
    1.718
    1.155
    0.474
    0.319
    1.103
    2.371
    2.973
    2.109
    0.276
   -0.994
   -0.530
    1.266
    2.686
    2.321
    0.454
   -1.190
   -1.122
    0.480
    1.983
    1.929
    0.503
   -0.572
    0.373
    3.306
    6.369
    7.434
    5.896
    3.040
    0.774
    0.035
    0.317
    0.506
    0.070
   -0.529
   -0.514
    0.219
    0.938
    0.897
    0.184
   -0.376
   -0.072
    0.989
    2.010
    2.304
    1.965
    1.652
    1.703
    1.679
    1.008
   -0.065
   -0.506
    0.406
    2.185
    3.549
    3.669
    2.855
    1.985
    1.494
    1.107
    0.499
    0.031
    0.590
    2.513
    4.714
    5.287
    3.359
    0.268
   -1.469
   -0.573
    1.657
    2.548
    0.711
   -2.415
   -3.791
   -1.697
    2.508
    5.600
    5.426
    2.616
   -0.440
   -1.961
   -1.986
   -1.499
   -0.916
    0.233
    2.290
    4.579
    5.794
    5.249
    3.617
    2.321
    2.121
    2.371
    1.816
    0.149
   -1.441
   -1.440
    0.378
    2.631
    3.580
    2.666
    0.891
   -0.245
   -0.165
    0.421
    0.474
   -0.194
   -0.675
    0.163
    2.360
    4.317
    3.927
    0.703
   -3.295
   -5.024
   -3.088
    1.125
    4.695
    5.529
    3.921
    2.086
    1.936
    3.083
    3.305
    1.282
   -1.363
   -1.262
    3.209
    9.852
   14.235
   13.416
    8.178
    1.949
   -2.213
   -3.719
   -4.022
   -4.604
   -5.553
   -5.900
   -4.908
   -2.840
   -0.609
    1.092
    2.226
    3.052
    3.481
    2.990
    1.326
   -0.735
   -1.533
    0.258
    4.298
    8.348
    9.610
    6.822
    1.431
   -3.275
   -4.499
   -1.777
    3.087
    7.673
   10.546
   11.493
   10.616
    7.764
    3.094
   -2.088
   -5.579
   -5.718
   -2.762
    1.143
    3.567
    3.687
    2.698
    2.238
    2.393
    1.318
   -3.217
  -11.746
  -22.054
  -29.948
  -31.703
  -26.620
  -17.387
   -7.602
    1.127
    9.461
   17.799
   24.011
   24.304
   16.815
    4.409
   -6.375
   -9.799
   -5.036
    3.578
   10.176
   11.570
    8.603
    4.135
    0.104
   -3.491
   -7.187
  -10.143
   -9.984
   -4.838
    4.219
   12.849
   16.104
   12.049
    3.177
   -5.601
  -10.511
  -10.959
   -8.715
   -5.535
   -1.837
    2.488
    6.564
    8.373
    6.128
   -0.266
   -8.800
  -16.094
  -18.934
  -15.893
   -8.078
    1.418
    8.900
   11.615
    8.996
    2.984
   -3.070
   -6.442
   -6.546
   -4.780
   -2.909
   -1.493
    0.199
    2.847
    5.858
    7.644
    7.035
    4.265
    0.610
   -2.727
   -5.269
   -6.936
   -7.369
   -6.005
   -2.966
    0.364
    2.073
    1.211
   -1.412
   -3.865
   -4.475
   -2.864
   -0.012
    2.570
    4.009
    4.633
    5.322
    6.275
    6.592
    5.221
    2.120
   -1.654
   -4.810
   -6.630
   -7.202
   -7.201
   -7.437
   -8.280
   -9.274
   -9.232
   -6.905
   -1.997
    4.132
    8.795
    9.531
    5.961
    0.364
   -3.841
   -4.624
   -2.686
   -0.418
    0.444
    0.189
    0.306
    1.508
    2.756
    2.317
   -0.406
   -4.324
   -7.811
  -10.019
  -10.943
  -10.568
   -8.466
   -4.510
    0.120
    3.078
    2.513
   -1.129
   -5.070
   -6.237
   -3.637
    0.970
    4.560
    5.191
    3.221
    0.566
   -1.109
   -1.491
   -1.273
   -1.133
   -1.162
   -1.053
   -0.581
    0.166
    0.881
    1.237
    1.002
    0.194
   -0.728
   -1.003
   -0.214
    1.129
    1.817
    0.886
   -1.540
   -4.187
   -5.336
   -3.861
   -0.112
    3.969
    5.829
    3.962
   -0.920
   -6.280
   -9.624
  -10.263
   -9.299
   -7.934
   -6.069
   -2.857
    1.409
    4.463
    3.743
   -0.773
   -5.734
   -7.023
   -3.467
    2.119
    5.592
    5.106
    2.310
    0.352
    0.873
    2.792
    3.768
    2.595
    0.155
   -1.716
   -1.925
   -0.792
    0.441
    0.430
   -1.612
   -5.406
   -9.423
  -11.492
  -10.222
   -6.211
   -1.828
    0.514
    0.157
   -1.554
   -2.798
   -3.040
   -3.285
   -4.643
   -6.773
   -7.935
   -6.664
   -3.331
    0.011
    1.337
    0.327
   -1.449
   -1.972
   -0.522
    1.850
    3.400
    3.120
    1.260
   -1.159
   -3.074
   -3.808
   -3.168
   -1.335
    1.269
    3.998
    6.057
    6.841
    6.404
    5.467
    4.746
    4.261
    3.422
    1.783
   -0.380
   -2.228
   -3.024
   -2.714
   -2.012
   -1.985
   -3.426
   -6.362
   -9.940
  -12.769
  -13.597
  -11.989
   -8.561
   -4.594
   -1.308
    0.694
    1.505
    1.635
    1.656
    1.886
    2.178
    1.992
    0.880
   -0.904
   -2.317
   -2.253
   -0.568
    1.583
    2.540
    1.454
   -1.014
   -3.267
   -4.130
   -3.789
   -3.381
   -3.632
   -3.966
   -3.078
   -0.355
    3.340
    6.260
    7.030
    5.385
    2.026
   -1.902
   -5.215
   -6.971
   -6.755
   -4.912
   -2.483
   -0.665
   -0.068
   -0.430
   -1.174
   -2.202
   -3.907
   -6.261
   -8.156
   -8.082
   -5.603
   -2.025
    0.576
    1.058
   -0.022
   -1.252
   -1.897
   -2.414
   -3.333
   -3.933
   -2.665
    0.860
    4.752
    6.297
    4.527
    1.072
   -1.575
   -2.358
   -2.160
   -2.238
   -2.576
   -2.036
   -0.070
    2.118
    2.458
    0.125
   -3.390
   -5.511
   -4.948
   -2.772
   -1.105
   -0.916
   -1.351
   -1.060
    0.276
    1.840
    2.657
    2.355
    1.206
   -0.253
   -1.658
   -2.996
   -4.329
   -5.378
   -5.592
   -4.735
   -3.318
   -2.284
   -2.214
   -2.808
   -3.156
   -2.541
   -1.041
    0.574
    1.444
    1.179
    0.051
   -1.177
   -1.735
   -1.369
   -0.473
    0.326
    0.651
    0.435
   -0.306
   -1.469
   -2.638
   -3.146
   -2.646
   -1.568
   -0.826
   -0.904
   -1.287
   -0.933
    0.538
    2.092
    1.932
   -0.783
   -4.807
   -7.580
   -7.383
   -4.770
   -1.879
   -0.444
   -0.635
   -1.612
   -2.691
   -3.700
   -4.533
   -4.857
   -4.419
   -3.437
   -2.497
   -2.039
   -2.007
   -2.003
   -1.705
   -1.077
   -0.243
    0.667
    1.454
    1.782
    1.411
    0.549
   -0.156
   -0.123
    0.622
    1.392
    1.408
    0.549
   -0.415
   -0.502
    0.407
    1.229
    0.568
   -1.974
   -5.336
   -7.839
   -8.543
   -7.854
   -6.870
   -6.180
   -5.356
   -3.679
   -1.276
    0.638
    0.834
   -0.556
   -1.901
   -1.556
    0.492
    2.623
    3.224
    2.176
    0.679
   -0.138
   -0.162
    0.062
    0.266
    0.760
    1.783
    2.808
    2.771
    1.091
   -1.638
   -4.089
   -5.299
   -5.311
   -4.779
   -4.106
   -3.086
   -1.402
    0.603
    1.832
    1.269
   -1.042
   -3.882
   -5.727
   -5.803
   -4.484
   -2.828
   -1.765
   -1.555
   -1.878
   -2.321
   -2.764
   -3.350
   -4.134
   -4.797
   -4.744
   -3.569
   -1.500
    0.579
    1.586
    0.926
   -1.019
   -2.990
   -3.688
   -2.743
   -0.936
    0.604
    1.358
    1.617
    1.925
    2.461
    2.883
    2.636
    1.422
   -0.499
   -2.419
   -3.659
   -3.989
   -3.664
   -3.104
   -2.559
   -2.009
   -1.352
   -0.644
   -0.138
   -0.092
   -0.601
   -1.563
   -2.753
   -3.860
   -4.507
   -4.394
   -3.552
   -2.457
   -1.781
   -1.938
   -2.794
   -3.719
   -3.973
   -3.251
   -1.974
   -0.935
   -0.566
   -0.620
   -0.580
   -0.233
    0.208
    0.421
    0.327
    0.164
    0.265
    0.708
    1.187
    1.244
    0.660
   -0.325
   -1.108
   -1.180
   -0.644
   -0.255
   -0.752
   -2.113
   -3.542
   -4.217
   -3.961
   -3.210
   -2.455
   -1.820
   -1.208
   -0.723
   -0.759
   -1.521
   -2.548
   -2.954
   -2.302
   -1.171
   -0.672
   -1.342
   -2.550
   -3.107
   -2.510
   -1.509
   -1.350
   -2.423
   -3.733
   -3.814
   -2.184
    0.129
    1.521
    1.199
   -0.339
   -1.993
   -3.055
   -3.543
   -3.732
   -3.551
   -2.608
   -0.839
    1.041
    1.946
    1.347
   -0.233
   -1.645
   -2.006
   -1.301
   -0.295
    0.156
   -0.179
   -0.791
   -1.043
   -0.878
   -0.862
   -1.514
