Origin Time       05/3/2012 07:41:05	
Lat.              28.7 N	
Long.             76.6 E	
Depth (Km)         14.0
Magnitude         4.9
 Region           Haryana-Delhi-Border-Region                                      
 Above details taken from IMD 
   
Station Code       NTPC
Station Lat.       28.508
Station Long.      77.304
Station Height(m)  146.0
Site Class        C   Vs30 between 200 m/sec to 375 m/sec *  
Record Time        3/5/2012   13:15:58.00
Sampling Rate     200. Hz
 Record Duration  105.000 Sec.
 Direction         Vert. (Up positive)
Max. Acceleration   8.146 cm/sec**2
     
  * For reference see Site Classification link of website 
     
 Base Line Corrected and Low Pass Filtered (Cut Off at 35 Hz) Time History
 Acceleration data in cm/sec**2
    
[...]
   -0.678
   -0.775
   -0.955
   -1.177
   -1.365
   -1.457
   -1.441
   -1.365
   -1.301
   -1.302
   -1.359
   -1.401
   -1.337
   -1.117
   -0.767
   -0.357
    0.043
    0.399
    0.701
    0.944
    1.120
    1.235
    1.325
    1.436
    1.582
    1.733
    1.841
    1.877
    1.849
    1.779
    1.675
    1.534
    1.347
    1.102
    0.792
    0.405
   -0.061
   -0.588
   -1.117
   -1.556
   -1.811
   -1.828
   -1.624
   -1.292
   -0.970
   -0.787
   -0.804
   -0.992
   -1.256
   -1.479
   -1.574
   -1.491
   -1.233
   -0.858
   -0.470
   -0.177
   -0.031
    0.008
    0.053
    0.228
    0.580
    1.054
    1.522
    1.852
    1.958
    1.824
    1.506
    1.127
    0.824
    0.670
    0.625
    0.569
    0.407
    0.150
   -0.093
   -0.216
   -0.212
   -0.175
   -0.229
   -0.435
   -0.771
   -1.159
   -1.514
   -1.767
   -1.882
   -1.850
   -1.682
   -1.381
   -0.940
   -0.359
    0.329
    1.033
    1.617
    1.938
    1.922
    1.626
    1.235
    0.967
    0.940
    1.105
    1.286
    1.312
    1.135
    0.851
    0.608
    0.485
    0.433
    0.322
    0.052
   -0.345
   -0.706
   -0.839
   -0.673
   -0.343
   -0.136
   -0.332
   -1.034
   -2.084
   -3.109
   -3.680
   -3.541
   -2.759
   -1.684
   -0.734
   -0.148
    0.106
    0.239
    0.452
    0.819
    1.277
    1.694
    1.931
    1.906
    1.624
    1.204
    0.841
    0.702
    0.814
    1.055
    1.240
    1.252
    1.087
    0.826
    0.557
    0.342
    0.212
    0.191
    0.280
    0.430
    0.528
    0.453
    0.164
   -0.253
   -0.630
   -0.807
   -0.714
   -0.402
   -0.030
    0.196
    0.117
   -0.296
   -0.937
   -1.621
   -2.179
   -2.505
   -2.570
   -2.396
   -2.035
   -1.573
   -1.117
   -0.762
   -0.528
   -0.354
   -0.142
    0.170
    0.561
    0.947
    1.228
    1.341
    1.283
    1.113
    0.938
    0.867
    0.971
    1.234
    1.550
    1.767
    1.754
    1.465
    0.955
    0.356
   -0.183
   -0.547
   -0.691
   -0.643
   -0.484
   -0.323
   -0.267
   -0.373
   -0.607
   -0.851
   -0.983
   -0.954
   -0.833
   -0.752
   -0.805
   -0.967
   -1.081
   -0.967
   -0.561
    0.016
    0.536
    0.805
    0.781
    0.574
    0.347
    0.212
    0.194
    0.261
    0.370
    0.478
    0.512
    0.385
    0.073
   -0.329
   -0.640
   -0.710
   -0.507
   -0.129
    0.267
    0.552
    0.679
    0.682
    0.626
    0.531
    0.354
    0.063
   -0.282
   -0.522
   -0.514
   -0.276
   -0.006
    0.058
   -0.153
   -0.483
   -0.675
   -0.578
   -0.248
    0.124
    0.353
    0.374
    0.250
    0.117
    0.107
    0.275
    0.566
    0.840
    0.949
    0.818
    0.484
    0.072
   -0.266
   -0.409
   -0.304
    0.017
    0.430
    0.753
    0.829
    0.637
    0.320
    0.091
    0.068
    0.179
    0.232
    0.081
   -0.245
   -0.594
   -0.837
   -0.965
   -1.055
   -1.160
   -1.255
   -1.259
   -1.110
   -0.813
   -0.449
   -0.125
    0.074
    0.127
    0.055
   -0.109
   -0.332
   -0.555
   -0.667
   -0.549
   -0.149
    0.446
    1.045
    1.460
    1.613
    1.558
    1.409
    1.255
    1.128
    1.022
    0.912
    0.782
    0.634
    0.499
    0.403
    0.338
    0.260
    0.133
   -0.041
   -0.221
   -0.346
   -0.386
   -0.371
   -0.387
   -0.526
   -0.800
   -1.120
   -1.362
   -1.473
   -1.510
   -1.570
   -1.673
   -1.730
   -1.612
   -1.267
   -0.758
   -0.202
    0.293
    0.657
    0.834
    0.793
    0.553
    0.211
   -0.089
   -0.218
   -0.109
    0.234
    0.754
    1.366
    1.958
    2.409
    2.616
    2.542
    2.215
    1.694
    1.039
    0.321
   -0.341
   -0.790
   -0.914
   -0.730
   -0.399
   -0.141
   -0.109
   -0.305
   -0.590
   -0.796
   -0.838
   -0.758
   -0.682
   -0.734
   -0.942
   -1.218
   -1.401
   -1.368
   -1.133
   -0.855
   -0.735
   -0.881
   -1.237
   -1.619
   -1.796
   -1.584
   -0.932
    0.031
    1.010
    1.659
    1.763
    1.382
    0.840
    0.532
    0.669
    1.143
    1.617
    1.779
    1.554
    1.136
    0.828
    0.810
    1.020
    1.230
    1.243
    1.033
    0.732
    0.488
    0.337
    0.186
   -0.102
   -0.580
   -1.151
   -1.595
   -1.717
   -1.483
   -1.053
   -0.651
   -0.399
   -0.253
   -0.099
    0.106
    0.260
    0.193
   -0.200
   -0.861
   -1.578
   -2.092
   -2.231
   -1.991
   -1.508
   -0.956
   -0.454
   -0.047
    0.250
    0.434
    0.539
    0.658
    0.908
    1.334
    1.838
    2.204
    2.218
    1.809
    1.119
    0.435
    0.039
    0.062
    0.436
    0.949
    1.361
    1.501
    1.324
    0.910
    0.415
   -0.014
   -0.314
   -0.529
   -0.757
   -1.055
   -1.367
   -1.549
   -1.463
   -1.093
   -0.585
   -0.185
   -0.093
   -0.342
   -0.775
   -1.143
   -1.249
   -1.046
   -0.641
   -0.250
   -0.085
   -0.221
   -0.530
   -0.766
   -0.767
   -0.585
   -0.404
   -0.336
   -0.306
   -0.138
    0.256
    0.770
    1.190
    1.377
    1.375
    1.347
    1.421
    1.588
    1.730
    1.727
    1.536
    1.193
    0.780
    0.386
    0.081
   -0.103
   -0.177
   -0.178
   -0.135
   -0.063
    0.027
    0.093
    0.033
   -0.279
   -0.903
   -1.747
   -2.580
   -3.131
   -3.231
   -2.877
   -2.206
   -1.403
   -0.627
    0.015
    0.462
    0.695
    0.740
    0.665
    0.553
    0.471
    0.459
    0.533
    0.709
    0.997
    1.372
    1.726
    1.880
    1.699
    1.229
    0.721
    0.468
    0.572
    0.859
    1.010
    0.801
    0.258
   -0.374
   -0.812
   -0.900
   -0.671
   -0.295
    0.021
    0.136
    0.035
   -0.170
   -0.321
   -0.339
   -0.297
   -0.373
   -0.705
   -1.253
   -1.795
   -2.055
   -1.892
   -1.403
   -0.849
   -0.473
   -0.342
   -0.338
   -0.293
   -0.124
    0.128
    0.370
    0.545
    0.658
    0.746
    0.835
    0.936
    1.051
    1.168
    1.248
    1.243
    1.160
    1.093
    1.151
    1.330
    1.463
    1.326
    0.828
    0.103
   -0.564
   -0.930
   -0.946
   -0.767
   -0.615
   -0.616
   -0.720
   -0.747
   -0.538
   -0.092
    0.392
    0.606
    0.331
   -0.410
   -1.342
   -2.099
   -2.427
   -2.286
   -1.809
   -1.183
   -0.566
   -0.061
    0.291
    0.530
    0.750
    1.019
    1.302
    1.479
    1.458
    1.278
    1.066
    0.904
    0.757
    0.533
    0.218
   -0.079
   -0.211
   -0.131
    0.065
    0.218
    0.222
    0.076
   -0.168
   -0.471
   -0.802
   -1.096
   -1.252
   -1.200
   -0.959
   -0.628
   -0.316
   -0.078
    0.077
    0.171
    0.260
    0.439
    0.797
    1.304
    1.748
    1.824
    1.352
    0.435
   -0.578
   -1.296
   -1.491
   -1.194
   -0.648
   -0.181
   -0.025
   -0.166
   -0.352
   -0.285
    0.124
    0.662
    0.980
    0.889
    0.506
    0.133
   -0.017
    0.016
    0.023
   -0.164
   -0.522
   -0.881
   -1.065
   -1.008
   -0.783
   -0.530
   -0.369
   -0.323
   -0.312
   -0.213
    0.055
    0.452
    0.814
    0.943
    0.754
    0.358
   -0.010
   -0.155
   -0.032
    0.265
    0.598
    0.852
    0.958
    0.885
    0.659
    0.362
    0.079
   -0.168
   -0.423
   -0.721
   -1.005
   -1.141
   -1.034
   -0.729
   -0.380
   -0.099
    0.148
    0.482
    0.936
    1.355
    1.458
    1.045
    0.161
   -0.917
   -1.821
   -2.276
   -2.190
   -1.645
   -0.850
   -0.064
    0.488
    0.702
    0.621
    0.388
    0.160
    0.050
    0.122
    0.401
    0.879
    1.482
    2.052
    2.389
    2.346
    1.945
    1.387
    0.908
    0.603
    0.362
    0.000
   -0.540
   -1.109
   -1.473
   -1.503
   -1.265
   -0.950
   -0.751
   -0.779
   -1.054
   -1.502
   -1.967
   -2.244
   -2.145
   -1.591
   -0.666
    0.377
    1.194
    1.480
    1.109
    0.227
   -0.780
   -1.450
   -1.472
   -0.860
    0.045
    0.775
    1.021
    0.794
    0.368
    0.078
    0.116
    0.443
    0.851
    1.098
    1.055
    0.773
    0.466
    0.385
    0.663
    1.201
    1.695
    1.810
    1.402
    0.637
   -0.104
   -0.459
   -0.301
    0.208
    0.729
    0.946
    0.718
    0.122
   -0.626
   -1.287
   -1.702
   -1.823
   -1.701
   -1.432
   -1.109
   -0.790
   -0.508
   -0.306
   -0.257
   -0.447
   -0.890
   -1.455
   -1.893
   -1.972
   -1.641
   -1.070
   -0.518
   -0.135
    0.114
    0.356
    0.645
    0.913
    1.053
    1.042
    0.961
    0.897
    0.853
    0.759
    0.582
    0.386
    0.296
    0.411
    0.758
    1.292
    1.914
    2.476
    2.810
    2.799
    2.438
    1.825
    1.070
    0.220
   -0.719
   -1.670
   -2.417
   -2.673
   -2.263
   -1.274
   -0.042
    1.012
    1.572
    1.533
    0.987
    0.129
   -0.846
   -1.806
   -2.662
   -3.317
   -3.641
   -3.519
   -2.924
   -1.953
   -0.802
    0.287
    1.084
    1.445
    1.381
    1.075
    0.779
    0.664
    0.712
    0.763
    0.675
    0.455
    0.246
    0.206
    0.373
    0.643
    0.848
    0.870
    0.717
    0.519
    0.439
    0.574
    0.895
    1.248
    1.428
    1.279
    0.792
    0.123
   -0.479
   -0.818
   -0.854
   -0.704
   -0.535
   -0.455
   -0.477
   -0.555
   -0.611
   -0.531
   -0.200
    0.401
    1.078
    1.464
    1.231
    0.353
   -0.849
   -1.916
   -2.528
   -2.631
   -2.354
   -1.868
   -1.319
   -0.842
   -0.547
   -0.426
   -0.279
    0.188
    1.101
    2.210
    2.994
    3.019
    2.272
    1.166
    0.226
   -0.253
   -0.326
   -0.262
   -0.307
   -0.503
   -0.685
   -0.604
   -0.132
    0.598
    1.240
    1.456
    1.141
    0.466
   -0.278
   -0.882
   -1.288
   -1.529
   -1.653
   -1.703
   -1.710
   -1.648
   -1.399
   -0.814
    0.119
    1.160
    1.890
    1.994
    1.513
    0.831
    0.383
    0.328
    0.485
    0.540
    0.331
   -0.048
   -0.349
   -0.375
   -0.114
    0.263
    0.551
    0.677
    0.745
    0.911
    1.181
    1.333
    1.050
    0.187
   -1.049
   -2.166
   -2.679
   -2.409
   -1.559
   -0.558
    0.198
    0.509
    0.390
   -0.001
   -0.477
   -0.914
   -1.261
   -1.485
   -1.512
   -1.251
   -0.675
    0.131
    0.991
    1.729
    2.232
    2.473
    2.491
    2.335
    2.017
    1.500
    0.767
   -0.072
   -0.739
   -0.910
   -0.464
    0.373
    1.129
    1.416
    1.188
    0.721
    0.343
    0.190
    0.179
    0.146
   -0.019
   -0.329
   -0.704
   -0.979
   -0.964
   -0.558
    0.116
    0.725
    0.890
    0.421
   -0.572
   -1.738
   -2.654
   -3.008
   -2.708
   -1.902
   -0.903
   -0.047
    0.443
    0.555
    0.471
    0.445
    0.612
    0.884
    1.024
    0.857
    0.436
    0.012
   -0.151
    0.046
    0.521
    1.096
    1.602
    1.911
    1.916
    1.527
    0.728
   -0.351
   -1.447
   -2.268
   -2.626
   -2.493
   -1.999
   -1.392
   -0.971
   -0.970
   -1.422
   -2.116
   -2.696
   -2.852
   -2.466
   -1.627
   -0.560
    0.472
    1.242
    1.613
    1.568
    1.199
    0.668
    0.141
   -0.233
   -0.334
   -0.090
    0.484
    1.275
    2.095
    2.757
    3.153
    3.292
    3.265
    3.159
    2.967
    2.575
    1.839
    0.675
   -0.878
   -2.630
   -4.234
   -5.254
   -5.323
   -4.335
   -2.542
   -0.467
    1.322
    2.440
    2.797
    2.527
    1.813
    0.754
   -0.602
   -2.120
   -3.491
   -4.321
   -4.324
   -3.480
   -2.048
   -0.435
    0.979
    1.957
    2.437
    2.506
    2.366
    2.242
    2.248
    2.285
    2.074
    1.362
    0.161
   -1.157
   -2.004
   -1.907
   -0.809
    0.862
    2.440
    3.419
    3.719
    3.620
    3.441
    3.236
    2.744
    1.650
   -0.096
   -2.139
   -3.898
   -4.893
   -4.984
   -4.352
   -3.315
   -2.145
   -1.010
   -0.002
    0.812
    1.392
    1.750
    1.942
    2.022
    1.986
    1.764
    1.256
    0.417
   -0.670
   -1.765
   -2.528
   -2.666
   -2.068
   -0.851
    0.713
    2.284
    3.499
    4.042
    3.769
    2.831
    1.641
    0.646
    0.057
   -0.237
   -0.484
   -0.795
   -1.022
   -0.908
   -0.362
    0.384
    0.862
    0.653
   -0.337
   -1.818
   -3.303
   -4.402
   -5.026
   -5.350
   -5.585
   -5.770
   -5.744
   -5.300
   -4.363
   -3.057
   -1.635
   -0.353
    0.639
    1.346
    1.892
    2.444
    3.098
    3.820
    4.462
    4.876
    5.019
    4.976
    4.861
    4.715
    4.477
    4.051
    3.389
    2.521
    1.539
    0.585
   -0.187
   -0.659
   -0.835
   -0.857
   -0.931
   -1.189
   -1.624
   -2.127
   -2.589
   -2.944
   -3.152
   -3.178
   -3.006
   -2.670
   -2.277
   -1.983
   -1.928
   -2.147
   -2.516
   -2.775
   -2.635
   -1.917
   -0.652
    0.905
    2.373
    3.422
    3.915
    3.932
    3.657
    3.251
    2.809
    2.397
    2.095
    1.988
    2.112
    2.382
    2.615
    2.622
    2.329
    1.784
    1.081
    0.289
   -0.540
   -1.336
   -2.008
   -2.492
   -2.765
   -2.824
   -2.679
   -2.382
   -2.054
   -1.871
   -1.994
   -2.470
   -3.169
   -3.786
   -3.963
   -3.479
   -2.395
   -1.047
    0.134
    0.856
    1.091
    1.011
    0.811
    0.608
    0.466
    0.458
    0.653
    1.040
    1.523
    2.009
    2.490
    3.024
    3.617
    4.152
    4.440
    4.350
    3.908
    3.276
    2.636
    2.073
    1.542
    0.909
    0.040
   -1.100
   -2.372
   -3.480
   -4.123
   -4.222
   -3.993
   -3.789
   -3.814
   -3.960
   -3.946
   -3.622
   -3.146
   -2.832
   -2.824
   -2.926
   -2.765
   -2.109
   -1.034
    0.185
    1.302
    2.230
    2.976
    3.509
    3.728
    3.562
    3.087
    2.533
    2.167
    2.166
    2.571
    3.315
    4.258
    5.190
    5.848
    5.973
    5.408
    4.173
    2.468
    0.606
   -1.070
   -2.271
   -2.824
   -2.724
   -2.144
   -1.388
   -0.781
   -0.564
   -0.857
   -1.661
   -2.884
   -4.349
   -5.808
   -6.966
   -7.552
   -7.422
   -6.627
   -5.424
   -4.187
   -3.269
   -2.838
   -2.785
   -2.756
   -2.329
   -1.262
    0.374
    2.266
    4.078
    5.622
    6.853
    7.737
    8.146
    7.912
    6.979
    5.497
    3.762
    2.068
    0.633
   -0.353
   -0.674
   -0.200
    0.900
    2.081
    2.681
    2.347
    1.264
   -0.046
   -1.148
   -1.942
   -2.571
   -3.137
   -3.562
   -3.684
   -3.455
   -3.026
   -2.654
   -2.529
   -2.668
   -2.939
   -3.156
   -3.158
   -2.853
   -2.253
   -1.496
   -0.810
   -0.400
   -0.300
   -0.340
   -0.270
    0.058
    0.598
    1.172
    1.624
    1.924
    2.176
    2.536
    3.095
    3.772
    4.317
    4.439
    3.998
    3.122
    2.139
    1.376
    0.999
    1.018
    1.396
    2.102
    3.018
    3.836
    4.108
    3.504
    2.053
    0.157
   -1.656
   -3.040
   -3.941
   -4.497
   -4.848
   -5.051
   -5.104
   -4.979
   -4.658
   -4.174
   -3.668
   -3.372
   -3.452
   -3.825
   -4.136
   -3.947
   -2.999
   -1.337
    0.731
    2.779
    4.353
    5.049
    4.638
    3.259
    1.500
    0.196
   -0.001
    0.982
    2.600
    4.026
    4.649
    4.382
    3.632
    2.971
    2.750
    2.888
    2.991
    2.679
    1.874
    0.842
    0.000
   -0.361
   -0.246
    0.065
    0.197
   -0.119
   -0.942
   -2.162
   -3.586
   -4.982
   -6.079
   -6.591
   -6.325
   -5.347
   -4.042
   -2.950
   -2.442
   -2.460
   -2.578
   -2.334
   -1.559
   -0.446
    0.647
    1.463
    1.967
    2.291
    2.574
    2.859
    3.098
    3.234
    3.261
    3.237
    3.254
    3.413
    3.749
    4.153
    4.389
    4.223
    3.569
    2.514
    1.242
   -0.037
   -1.080
   -1.643
   -1.619
   -1.171
   -0.685
   -0.537
   -0.852
   -1.490
   -2.233
   -2.970
   -3.717
   -4.505
   -5.261
   -5.790
   -5.846
   -5.253
   -4.037
   -2.475
   -0.992
    0.075
    0.642
    0.858
    0.923
    0.929
    0.859
    0.692
    0.496
    0.429
    0.648
    1.205
    1.991
    2.766
    3.284
    3.433
    3.290
    3.062
    2.964
    3.131
    3.585
    4.238
    4.893
    5.270
    5.107
    4.272
    2.823
    0.983
   -0.934
   -2.598
   -3.749
   -4.278
   -4.287
   -4.040
   -3.847
   -3.902
   -4.177
   -4.448
   -4.437
   -3.986
   -3.158
   -2.182
   -1.331
   -0.800
   -0.654
   -0.822
   -1.130
   -1.359
   -1.320
   -0.918
   -0.186
    0.722
    1.580
    2.175
    2.376
    2.194
    1.795
    1.482
    1.581
    2.240
    3.262
    4.140
    4.351
    3.698
    2.416
    0.980
   -0.180
   -0.823
   -0.868
   -0.337
    0.628
    1.740
    2.651
    3.087
    2.926
    2.147
    0.768
   -1.087
   -3.090
   -4.752
   -5.687
   -5.851
   -5.545
   -5.135
   -4.733
   -4.133
   -3.066
   -1.581
   -0.201
    0.345
   -0.368
   -2.072
   -3.877
   -4.734
   -3.999
   -1.753
    1.267
    4.041
    5.739
    6.061
    5.307
    4.163
    3.309
    3.077
    3.333
    3.650
    3.625
    3.128
    2.338
    1.605
    1.238
    1.331
    1.685
    1.872
    1.436
    0.155
   -1.767
   -3.722
   -4.960
   -4.994
   -3.908
   -2.351
   -1.185
   -0.980
   -1.698
   -2.764
   -3.453
   -3.293
   -2.254
   -0.681
    0.901
    1.994
    2.306
    1.881
    1.064
    0.276
   -0.241
   -0.492
   -0.568
   -0.479
   -0.166
    0.344
    0.867
    1.196
    1.287
    1.296
    1.424
    1.736
    2.127
    2.428
    2.502
    2.239
    1.546
    0.416
   -0.919
   -1.976
   -2.237
   -1.500
   -0.083
    1.330
    2.082
    1.874
    0.824
   -0.689
   -2.199
   -3.244
   -3.457
   -2.739
   -1.415
   -0.150
    0.426
    0.141
   -0.584
   -1.032
   -0.706
    0.332
    1.536
    2.264
    2.154
    1.260
   -0.042
   -1.228
   -1.806
   -1.491
   -0.321
    1.338
    2.926
    3.903
    3.937
    3.025
    1.487
   -0.158
   -1.407
   -1.961
   -1.820
   -1.242
   -0.627
   -0.359
   -0.632
   -1.320
   -2.011
   -2.243
   -1.848
   -1.134
   -0.701
   -0.953
   -1.721
   -2.379
   -2.364
   -1.605
   -0.464
    0.654
    1.565
    2.225
    2.550
    2.413
    1.829
    1.031
    0.314
   -0.193
   -0.575
   -0.932
   -1.196
   -1.175
   -0.808
   -0.315
   -0.054
   -0.202
   -0.588
   -0.796
   -0.442
    0.576
    2.001
    3.332
    4.095
    4.088
    3.450
    2.518
    1.612
    0.905
    0.416
    0.068
   -0.272
   -0.739
   -1.359
   -1.985
   -2.382
   -2.439
   -2.311
   -2.292
   -2.521
   -2.810
   -2.791
   -2.246
   -1.309
   -0.375
    0.186
    0.235
   -0.111
   -0.576
   -0.847
   -0.693
   -0.106
    0.652
    1.188
    1.256
    0.934
    0.527
    0.276
    0.170
    0.044
   -0.181
   -0.379
   -0.339
    0.028
    0.612
    1.200
    1.623
    1.830
    1.870
    1.839
    1.818
    1.819
    1.755
    1.509
    1.054
    0.518
    0.091
   -0.123
   -0.164
   -0.126
   -0.063
   -0.002
   -0.019
   -0.254
   -0.798
   -1.585
   -2.403
   -3.054
   -3.494
   -3.793
   -3.935
   -3.672
   -2.675
   -0.893
    1.198
    2.749
    3.047
    2.017
    0.340
   -0.940
   -1.078
   -0.081
    1.374
    2.489
    2.886
    2.735
    2.400
    2.049
    1.574
    0.868
    0.086
   -0.407
   -0.374
    0.042
    0.428
    0.486
    0.298
    0.204
    0.421
    0.782
    0.826
    0.163
   -1.183
   -2.689
   -3.588
   -3.336
   -2.005
   -0.302
    0.844
    0.866
   -0.108
   -1.389
   -2.192
   -2.083
   -1.142
    0.182
    1.347
    1.977
    1.986
    1.572
    1.073
    0.760
    0.681
    0.688
    0.620
    0.480
    0.424
    0.582
    0.881
    1.073
    0.935
    0.459
   -0.162
   -0.726
   -1.187
   -1.607
   -1.963
   -2.032
   -1.519
   -0.336
    1.224
    2.587
    3.221
    2.937
    1.944
    0.661
   -0.535
   -1.457
   -2.082
   -2.449
   -2.555
   -2.339
   -1.750
   -0.872
    0.004
    0.472
    0.263
   -0.530
   -1.438
   -1.874
   -1.494
   -0.397
    0.957
    2.037
    2.524
    2.394
    1.815
    0.990
    0.110
   -0.624
   -0.990
   -0.863
   -0.351
    0.199
    0.415
    0.189
   -0.234
   -0.469
   -0.308
    0.138
    0.604
    0.913
    1.055
