Origin Time       05/3/2012 07:41:05	
Lat.              28.7 N	
Long.             76.6 E	
Depth (Km)         14.0
Magnitude         4.9
 Region           Haryana-Delhi-Border-Region                                      
 Above details taken from IMD 
     
Station Code       NTPC
Station Lat.       28.508  N
Station Long.      77.304  E
Station Height(m)  146.0
Site Class        C   Vs30 between 200 m/sec to 375 m/sec *  
Record Time        3/5/2012   13:15:58.00
Sampling Rate     200. Hz
 Record Duration  105.000 Sec.
 Direction         E-W (E positive)
Max. Acceleration -10.528 cm/sec**2
     
  * For reference see Site Classification link of website 
     
 Base Line Corrected and Low Pass Filtered (Cut Off at 35 Hz) Time History
 Acceleration data in cm/sec**2
    
[...]
   -1.738
   -2.559
   -2.491
   -1.415
    0.324
    2.085
    3.233
    3.397
    2.627
    1.358
    0.201
   -0.364
   -0.231
    0.308
    0.793
    0.916
    0.698
    0.408
    0.318
    0.494
    0.773
    0.915
    0.786
    0.434
    0.031
   -0.271
   -0.442
   -0.562
   -0.702
   -0.819
   -0.782
   -0.519
   -0.139
    0.088
   -0.093
   -0.713
   -1.513
   -2.080
   -2.110
   -1.602
   -0.857
   -0.275
   -0.115
   -0.377
   -0.854
   -1.277
   -1.447
   -1.297
   -0.882
   -0.345
    0.148
    0.486
    0.671
    0.796
    0.942
    1.081
    1.091
    0.862
    0.419
   -0.064
   -0.361
   -0.321
    0.053
    0.629
    1.212
    1.622
    1.740
    1.544
    1.120
    0.630
    0.241
    0.033
   -0.036
   -0.090
   -0.241
   -0.505
   -0.773
   -0.880
   -0.700
   -0.229
    0.424
    1.108
    1.707
    2.166
    2.461
    2.556
    2.397
    1.975
    1.375
    0.786
    0.399
    0.285
    0.325
    0.273
   -0.084
   -0.774
   -1.613
   -2.336
   -2.758
   -2.861
   -2.744
   -2.496
   -2.138
   -1.651
   -1.050
   -0.417
    0.154
    0.617
    0.990
    1.296
    1.490
    1.439
    1.014
    0.212
   -0.773
   -1.624
   -2.069
   -2.040
   -1.703
   -1.320
   -1.059
   -0.892
   -0.665
   -0.270
    0.228
    0.637
    0.797
    0.726
    0.597
    0.577
    0.677
    0.761
    0.725
    0.647
    0.760
    1.218
    1.878
    2.317
    2.111
    1.174
   -0.114
   -1.129
   -1.422
   -1.007
   -0.306
    0.188
    0.239
   -0.055
   -0.447
   -0.753
   -0.924
   -0.955
   -0.811
   -0.481
   -0.085
    0.132
   -0.017
   -0.461
   -0.862
   -0.857
   -0.349
    0.397
    0.955
    1.063
    0.826
    0.620
    0.779
    1.296
    1.801
    1.814
    1.105
   -0.117
   -1.309
   -1.916
   -1.687
   -0.792
    0.306
    1.117
    1.366
    1.087
    0.553
    0.101
   -0.065
    0.029
    0.162
    0.078
   -0.335
   -0.956
   -1.477
   -1.579
   -1.127
   -0.283
    0.557
    0.968
    0.734
   -0.020
   -0.887
   -1.406
   -1.332
   -0.781
   -0.149
    0.161
    0.015
   -0.373
   -0.629
   -0.527
   -0.186
    0.015
   -0.259
   -1.002
   -1.818
   -2.156
   -1.664
   -0.403
    1.202
    2.611
    3.441
    3.602
    3.263
    2.720
    2.233
    1.921
    1.717
    1.432
    0.909
    0.157
   -0.631
   -1.206
   -1.444
   -1.418
   -1.311
   -1.251
   -1.226
   -1.134
   -0.924
   -0.685
   -0.590
   -0.751
   -1.114
   -1.472
   -1.599
   -1.388
   -0.910
   -0.348
    0.118
    0.406
    0.549
    0.642
    0.776
    0.992
    1.240
    1.378
    1.224
    0.682
   -0.135
   -0.910
   -1.289
   -1.116
   -0.537
    0.114
    0.547
    0.662
    0.516
    0.187
   -0.289
   -0.845
   -1.295
   -1.386
   -0.981
   -0.207
    0.584
    1.037
    1.015
    0.636
    0.128
   -0.352
   -0.762
   -1.081
   -1.209
   -0.995
   -0.380
    0.511
    1.404
    2.034
    2.279
    2.178
    1.860
    1.455
    1.062
    0.749
    0.558
    0.511
    0.635
    0.971
    1.535
    2.205
    2.649
    2.395
    1.091
   -1.178
   -3.762
   -5.667
   -6.071
   -4.814
   -2.533
   -0.300
    0.972
    0.978
    0.067
   -1.064
   -1.796
   -1.854
   -1.331
   -0.536
    0.208
    0.703
    0.934
    1.026
    1.146
    1.370
    1.619
    1.684
    1.364
    0.606
   -0.395
   -1.239
   -1.481
   -0.889
    0.375
    1.758
    2.585
    2.455
    1.507
    0.322
   -0.486
   -0.701
   -0.588
   -0.590
   -0.912
   -1.361
   -1.541
   -1.219
   -0.514
    0.212
    0.633
    0.658
    0.400
    0.009
   -0.445
   -0.949
   -1.468
   -1.923
   -2.228
   -2.319
   -2.126
   -1.568
   -0.633
    0.495
    1.425
    1.729
    1.226
    0.153
   -0.917
   -1.390
   -0.992
    0.075
    1.267
    2.031
    2.110
    1.647
    1.019
    0.557
    0.362
    0.329
    0.317
    0.283
    0.291
    0.422
    0.695
    1.063
    1.446
    1.756
    1.906
    1.822
    1.494
    1.023
    0.588
    0.341
    0.315
    0.415
    0.491
    0.417
    0.120
   -0.425
   -1.172
   -1.952
   -2.479
   -2.461
   -1.813
   -0.793
    0.085
    0.360
   -0.073
   -0.922
   -1.732
   -2.210
   -2.367
   -2.390
   -2.415
   -2.392
   -2.146
   -1.564
   -0.730
    0.079
    0.526
    0.400
   -0.244
   -1.066
   -1.582
   -1.424
   -0.567
    0.628
    1.610
    1.955
    1.604
    0.854
    0.162
   -0.109
    0.168
    0.879
    1.762
    2.512
    2.897
    2.853
    2.519
    2.139
    1.898
    1.816
    1.786
    1.720
    1.636
    1.593
    1.548
    1.328
    0.784
    0.003
   -0.661
   -0.828
   -0.447
    0.069
    0.072
   -0.859
   -2.566
   -4.349
   -5.373
   -5.162
   -3.856
   -2.081
   -0.559
    0.264
    0.359
    0.012
   -0.405
   -0.616
   -0.527
   -0.199
    0.220
    0.578
    0.762
    0.725
    0.499
    0.194
   -0.054
   -0.155
   -0.133
   -0.094
   -0.111
   -0.104
    0.129
    0.727
    1.573
    2.282
    2.419
    1.804
    0.664
   -0.470
   -1.070
   -0.909
   -0.177
    0.674
    1.209
    1.226
    0.794
    0.144
   -0.465
   -0.814
   -0.766
   -0.304
    0.441
    1.203
    1.663
    1.594
    0.995
    0.153
   -0.441
   -0.330
    0.604
    1.972
    3.021
    3.072
    1.973
    0.211
   -1.382
   -2.156
   -1.998
   -1.334
   -0.801
   -0.845
   -1.476
   -2.309
   -2.835
   -2.743
   -2.092
   -1.225
   -0.520
   -0.160
   -0.101
   -0.202
   -0.375
   -0.600
   -0.834
   -0.956
   -0.828
   -0.410
    0.195
    0.814
    1.311
    1.623
    1.713
    1.541
    1.119
    0.603
    0.285
    0.419
    1.002
    1.704
    2.042
    1.679
    0.635
   -0.737
   -1.932
   -2.524
   -2.318
   -1.403
   -0.104
    1.128
    1.868
    1.866
    1.148
    0.013
   -1.086
   -1.743
   -1.786
   -1.335
   -0.703
   -0.171
    0.183
    0.470
    0.816
    1.176
    1.345
    1.152
    0.659
    0.148
   -0.116
   -0.115
   -0.087
   -0.272
   -0.646
   -0.904
   -0.729
   -0.130
    0.481
    0.568
   -0.098
   -1.207
   -2.070
   -2.070
   -1.062
    0.555
    2.122
    3.123
    3.391
    3.034
    2.221
    1.074
   -0.260
   -1.460
   -2.053
   -1.667
   -0.353
    1.330
    2.579
    2.823
    2.033
    0.650
   -0.782
   -1.973
   -2.949
   -3.829
   -4.558
   -4.837
   -4.311
   -2.860
   -0.760
    1.380
    2.865
    3.204
    2.319
    0.570
   -1.366
   -2.720
   -2.909
   -1.795
    0.174
    2.103
    3.083
    2.711
    1.328
   -0.224
   -1.183
   -1.340
   -1.046
   -0.798
   -0.769
   -0.711
   -0.273
    0.582
    1.457
    1.803
    1.352
    0.340
   -0.653
   -1.100
   -0.855
   -0.159
    0.621
    1.280
    1.817
    2.251
    2.442
    2.131
    1.209
   -0.040
   -0.994
   -1.067
   -0.149
    1.250
    2.287
    2.306
    1.235
   -0.397
   -1.783
   -2.274
   -1.709
   -0.463
    0.758
    1.307
    0.944
   -0.042
   -1.032
   -1.484
   -1.279
   -0.758
   -0.414
   -0.479
   -0.744
   -0.752
   -0.208
    0.711
    1.422
    1.348
    0.380
   -0.972
   -1.888
   -1.822
   -0.923
    0.035
    0.214
   -0.641
   -1.967
   -2.770
   -2.371
   -0.933
    0.653
    1.455
    1.199
    0.427
    0.009
    0.434
    1.457
    2.340
    2.436
    1.632
    0.352
   -0.802
   -1.432
   -1.489
   -1.178
   -0.750
   -0.366
   -0.057
    0.220
    0.508
    0.792
    0.981
    0.950
    0.636
    0.161
   -0.145
    0.101
    1.040
    2.353
    3.332
    3.263
    1.901
   -0.305
   -2.419
   -3.541
   -3.308
   -2.049
   -0.552
    0.388
    0.378
   -0.389
   -1.270
   -1.543
   -0.864
    0.489
    1.752
    2.142
    1.377
   -0.129
   -1.523
   -2.072
   -1.620
   -0.645
    0.129
    0.247
   -0.205
   -0.746
   -0.895
   -0.497
    0.251
    1.005
    1.512
    1.681
    1.518
    1.048
    0.324
   -0.500
   -1.156
   -1.367
   -1.024
   -0.284
    0.510
    1.045
    1.241
    1.264
    1.336
    1.487
    1.474
    0.973
   -0.076
   -1.285
   -2.002
   -1.776
   -0.729
    0.503
    1.234
    1.212
    0.723
    0.274
    0.141
    0.151
   -0.144
   -1.071
   -2.517
   -3.895
   -4.439
   -3.654
   -1.672
    0.755
    2.652
    3.379
    2.959
    1.947
    0.995
    0.461
    0.325
    0.372
    0.414
    0.383
    0.300
    0.225
    0.233
    0.382
    0.617
    0.701
    0.303
   -0.724
   -2.097
   -3.138
   -3.165
   -1.990
   -0.133
    1.440
    1.924
    1.208
   -0.063
   -0.938
   -0.809
    0.200
    1.381
    1.954
    1.560
    0.397
   -1.007
   -2.129
   -2.630
   -2.374
   -1.404
    0.024
    1.411
    2.141
    1.775
    0.366
   -1.462
   -2.766
   -2.773
   -1.330
    0.951
    2.967
    3.720
    2.884
    1.018
   -0.761
   -1.471
   -0.854
    0.531
    1.770
    2.234
    1.904
    1.194
    0.510
   -0.036
   -0.566
   -1.172
   -1.736
   -2.015
   -1.873
   -1.442
   -1.036
   -0.893
   -0.972
   -1.021
   -0.835
   -0.481
   -0.250
   -0.373
   -0.775
   -1.090
   -0.944
   -0.264
    0.643
    1.294
    1.380
    0.998
    0.616
    0.756
    1.599
    2.783
    3.579
    3.357
    2.045
    0.205
   -1.330
   -1.993
   -1.802
   -1.236
   -0.828
   -0.784
   -0.904
   -0.781
   -0.126
    1.000
    2.184
    2.893
    2.840
    2.226
    1.647
    1.651
    2.292
    3.055
    3.267
    2.656
    1.568
    0.642
    0.249
    0.177
   -0.149
   -1.130
   -2.607
   -3.923
   -4.378
   -3.696
   -2.188
   -0.553
    0.510
    0.602
   -0.242
   -1.625
   -2.958
   -3.702
   -3.597
   -2.791
   -1.748
   -0.978
   -0.732
   -0.891
   -1.097
   -1.027
   -0.602
   -0.036
    0.291
    0.031
   -0.923
   -2.320
   -3.595
   -4.090
   -3.399
   -1.625
    0.599
    2.390
    3.051
    2.429
    0.995
   -0.393
   -0.942
   -0.372
    0.936
    2.212
    2.841
    2.782
    2.549
    2.734
    3.467
    4.266
    4.429
    3.643
    2.278
    1.111
    0.712
    1.016
    1.433
    1.374
    0.732
   -0.089
   -0.577
   -0.578
   -0.402
   -0.496
   -1.033
   -1.760
   -2.241
   -2.209
   -1.714
   -0.986
   -0.202
    0.593
    1.369
    1.946
    2.002
    1.277
   -0.190
   -1.997
   -3.543
   -4.322
   -4.140
   -3.183
   -1.929
   -0.963
   -0.750
   -1.435
   -2.765
   -4.178
   -5.051
   -4.987
   -4.002
   -2.516
   -1.121
   -0.264
   -0.029
   -0.154
   -0.268
   -0.169
    0.082
    0.312
    0.483
    0.802
    1.560
    2.858
    4.445
    5.823
    6.559
    6.544
    6.001
    5.279
    4.606
    4.014
    3.454
    2.957
    2.673
    2.756
    3.199
    3.780
    4.149
    3.984
    3.145
    1.723
    0.010
   -1.607
   -2.776
   -3.318
   -3.302
   -3.014
   -2.804
   -2.880
   -3.219
   -3.637
   -3.974
   -4.189
   -4.290
   -4.188
   -3.668
   -2.581
   -1.085
    0.312
    0.998
    0.646
   -0.574
   -2.113
   -3.370
   -3.988
   -3.924
   -3.334
   -2.425
   -1.373
   -0.311
    0.696
    1.664
    2.647
    3.596
    4.242
    4.151
    2.993
    0.866
   -1.612
   -3.553
   -4.279
   -3.669
   -2.165
   -0.471
    0.800
    1.322
    1.065
    0.233
   -0.786
   -1.502
   -1.498
   -0.677
    0.617
    1.742
    2.182
    1.936
    1.544
    1.668
    2.525
    3.682
    4.382
    4.164
    3.252
    2.370
    2.153
    2.648
    3.292
    3.372
    2.547
    1.056
   -0.514
   -1.649
   -2.203
   -2.352
   -2.306
   -2.076
   -1.511
   -0.570
    0.493
    1.261
    1.513
    1.460
    1.595
    2.257
    3.260
    3.937
    3.579
    1.960
   -0.451
   -2.741
   -4.087
   -4.232
   -3.599
   -2.986
   -3.040
   -3.836
   -4.846
   -5.324
   -4.833
   -3.558
   -2.169
   -1.381
   -1.521
   -2.411
   -3.544
   -4.388
   -4.592
   -4.032
   -2.758
   -0.948
    1.109
    3.029
    4.403
    4.939
    4.608
    3.716
    2.774
    2.228
    2.167
    2.241
    1.898
    0.812
   -0.780
   -2.104
   -2.313
   -1.083
    1.064
    2.997
    3.643
    2.665
    0.677
   -1.115
   -1.648
   -0.623
    1.341
    3.102
    3.706
    2.947
    1.446
    0.212
   -0.023
    0.749
    1.838
    2.324
    1.654
   -0.002
   -1.818
   -2.773
   -2.238
   -0.409
    1.683
    2.671
    1.666
   -1.073
   -4.129
   -5.723
   -4.873
   -2.106
    0.873
    2.359
    1.823
    0.143
   -1.203
   -1.279
   -0.234
    1.059
    1.782
    1.646
    0.823
   -0.372
   -1.634
   -2.612
   -2.918
   -2.368
   -1.280
   -0.453
   -0.718
   -2.360
   -4.857
   -7.140
   -8.175
   -7.437
   -5.021
   -1.446
    2.571
    6.235
    8.725
    9.397
    8.136
    5.626
    3.174
    2.057
    2.741
    4.535
    6.024
    6.025
    4.391
    2.056
    0.294
   -0.189
    0.356
    1.063
    1.149
    0.383
   -0.928
   -2.282
   -3.285
   -3.744
   -3.606
   -2.907
   -1.838
   -0.802
   -0.330
   -0.790
   -2.065
   -3.487
   -4.179
   -3.620
   -2.018
   -0.181
    1.029
    1.238
    0.701
   -0.007
   -0.436
   -0.488
   -0.328
   -0.139
   -0.010
   -0.007
   -0.296
   -1.087
   -2.407
   -3.904
   -4.910
   -4.789
   -3.367
   -1.132
    0.988
    2.160
    2.179
    1.616
    1.424
    2.239
    3.864
    5.334
    5.540
    4.004
    1.265
   -1.404
   -2.758
   -2.362
   -0.864
    0.420
    0.384
   -1.107
   -3.106
   -4.221
   -3.560
   -1.358
    1.180
    2.686
    2.531
    1.167
   -0.301
   -0.938
   -0.533
    0.516
    1.718
    2.852
    3.846
    4.450
    4.196
    2.815
    0.696
   -1.166
   -1.848
   -1.240
   -0.189
    0.165
   -0.710
   -2.313
   -3.504
   -3.354
   -1.774
    0.493
    2.419
    3.316
    3.111
    2.204
    1.142
    0.392
    0.291
    1.020
    2.483
    4.175
    5.273
    5.063
    3.484
    1.320
   -0.252
   -0.492
    0.333
    1.159
    0.989
   -0.294
   -1.856
   -2.637
   -2.249
   -1.303
   -0.937
   -1.980
   -4.402
   -7.356
   -9.690
  -10.528
   -9.628
   -7.422
   -4.777
   -2.596
   -1.432
   -1.307
   -1.809
   -2.383
   -2.601
   -2.305
   -1.633
   -0.936
   -0.605
   -0.821
   -1.357
   -1.633
   -1.041
    0.641
    3.068
    5.543
    7.475
    8.705
    9.437
    9.865
    9.851
    8.968
    6.904
    3.871
    0.675
   -1.668
   -2.511
   -1.950
   -0.724
    0.280
    0.572
    0.308
    0.072
    0.397
    1.358
    2.516
    3.192
    2.870
    1.490
   -0.486
   -2.230
   -2.877
   -1.935
    0.373
    3.053
    4.711
    4.266
    1.637
   -2.081
   -5.143
   -6.135
   -4.754
   -1.918
    0.842
    2.264
    1.977
    0.527
   -1.089
   -2.035
   -2.039
   -1.411
   -0.766
   -0.651
   -1.279
   -2.490
   -3.910
   -5.152
   -5.929
   -6.053
   -5.436
   -4.159
   -2.547
   -1.122
   -0.373
   -0.497
   -1.277
   -2.185
   -2.630
   -2.215
   -0.900
    0.980
    2.856
    4.167
    4.624
    4.368
    3.875
    3.619
    3.713
    3.807
    3.365
    2.105
    0.231
   -1.704
   -3.148
   -3.840
   -3.841
   -3.406
   -2.811
   -2.232
   -1.676
   -0.959
    0.188
    1.893
    3.930
    5.739
    6.725
    6.633
    5.721
    4.580
    3.713
    3.230
    2.870
    2.344
    1.668
    1.190
    1.292
    2.015
    2.926
    3.343
    2.762
    1.183
   -0.880
   -2.667
   -3.533
   -3.222
   -1.955
   -0.364
    0.756
    0.807
   -0.308
   -2.134
   -3.934
   -5.094
   -5.373
   -4.883
   -3.919
   -2.813
   -1.897
   -1.435
   -1.482
   -1.775
   -1.858
   -1.417
   -0.569
    0.178
    0.278
   -0.500
   -1.950
   -3.542
   -4.623
   -4.624
   -3.321
   -1.092
    1.058
    1.958
    1.013
   -1.278
   -3.546
   -4.410
   -3.333
   -0.834
    2.016
    4.334
    5.811
    6.582
    6.840
    6.564
    5.533
    3.581
    0.914
   -1.730
   -3.272
   -2.848
   -0.426
    2.958
    5.651
    6.308
    4.692
    1.766
   -0.984
   -2.493
   -2.625
   -1.971
   -1.225
   -0.698
   -0.294
    0.208
    0.916
    1.802
    2.772
    3.640
    4.022
    3.373
    1.328
   -1.831
   -5.035
   -6.904
   -6.601
   -4.435
   -1.692
    0.206
    0.591
   -0.202
   -1.310
   -2.057
   -2.332
   -2.414
   -2.546
   -2.653
   -2.436
   -1.687
   -0.554
    0.477
    0.887
    0.531
   -0.155
   -0.350
    0.612
    2.693
    4.999
    6.211
    5.407
    2.700
   -0.745
   -3.378
   -4.158
   -3.093
   -1.093
    0.660
    1.391
    1.037
    0.108
   -0.694
   -0.846
   -0.226
    0.849
    1.777
    1.992
    1.300
    0.027
   -1.117
   -1.445
   -0.749
    0.499
    1.403
    1.257
    0.093
   -1.304
   -1.970
   -1.473
   -0.172
    1.155
    1.926
    2.038
    1.642
    0.811
   -0.434
   -1.770
   -2.405
   -1.510
    0.976
    3.915
    5.494
    4.460
    1.171
   -2.427
   -4.023
   -2.547
    1.023
    4.303
    5.162
    3.177
   -0.187
   -2.765
   -3.260
   -2.005
   -0.479
   -0.109
   -1.345
   -3.559
   -5.616
   -6.560
   -6.029
   -4.322
   -2.221
   -0.645
   -0.221
   -0.937
   -2.127
   -2.859
   -2.524
   -1.207
    0.442
    1.720
    2.313
    2.365
    2.206
    2.050
    1.945
    1.921
    2.112
    2.673
    3.563
    4.449
    4.880
    4.636
    3.944
    3.361
    3.366
    3.998
    4.803
    5.140
    4.592
    3.217
    1.467
   -0.097
   -1.101
   -1.474
   -1.377
   -1.056
   -0.776
   -0.823
   -1.454
   -2.684
   -4.071
   -4.814
   -4.304
   -2.763
   -1.335
   -1.338
   -3.127
   -5.545
   -6.618
   -5.081
   -1.557
    1.694
    2.348
   -0.255
   -4.585
   -8.012
   -8.614
   -6.350
   -2.807
    0.113
    1.481
    1.690
    1.759
    2.295
    2.987
    3.021
    1.984
    0.388
   -0.681
   -0.472
    0.824
    2.306
    3.175
    3.309
    3.102
    2.823
    2.264
    1.073
   -0.609
   -1.927
   -1.827
    0.134
    3.378
    6.587
    8.398
    8.020
    5.477
    1.533
   -2.571
   -5.504
   -6.319
   -4.876
   -1.966
    1.048
    2.941
    3.255
    2.407
    1.215
    0.239
   -0.534
   -1.443
   -2.640
   -3.817
   -4.438
   -4.218
   -3.353
   -2.309
   -1.404
   -0.640
    0.096
    0.739
    1.038
    0.851
    0.381
    0.044
    0.053
    0.189
    0.040
   -0.489
   -0.939
   -0.662
    0.545
    2.152
    3.225
    3.104
    1.855
    0.177
   -1.085
   -1.421
   -0.865
    0.109
    0.852
    0.868
    0.096
   -1.000
   -1.661
   -1.284
    0.178
    2.142
    3.680
    4.000
    2.856
    0.687
   -1.596
   -3.102
   -3.460
   -2.993
   -2.386
   -2.080
   -1.883
   -1.186
    0.385
    2.449
    3.990
    4.065
    2.514
    0.103
   -1.993
   -2.918
   -2.521
   -1.212
    0.443
    2.023
    3.282
    4.057
    4.252
    3.886
    3.112
    2.139
    1.127
    0.154
   -0.741
   -1.505
   -2.062
   -2.351
   -2.339
   -2.000
   -1.325
   -0.390
    0.564
    1.187
    1.223
    0.682
   -0.171
   -0.995
   -1.557
   -1.778
   -1.676
   -1.330
   -0.896
   -0.644
   -0.900
   -1.900
   -3.596
   -5.548
   -6.976
   -7.076
   -5.478
   -2.589
    0.464
    2.381
    2.425
    0.888
   -1.063
   -2.082
   -1.477
    0.335
    2.045
    2.285
    0.575
   -2.242
   -4.441
   -4.513
   -2.150
    1.570
    4.931
    6.655
    6.560
    5.397
    4.157
    3.445
    3.290
    3.339
    3.146
    2.411
    1.167
   -0.117
   -0.681
    0.044
    1.878
    3.778
    4.459
    3.374
    1.215
   -0.581
   -0.964
   -0.085
    0.888
    0.765
   -0.741
   -2.888
   -4.558
   -5.033
   -4.301
   -2.816
   -1.115
    0.357
    1.225
    1.218
    0.378
   -0.781
   -1.476
   -1.205
   -0.222
    0.544
    0.188
   -1.405
   -3.367
   -4.453
   -3.977
   -2.327
   -0.666
   -0.073
   -0.789
   -2.108
   -2.905
   -2.398
   -0.617
    1.690
    3.594
    4.576
    4.756
    4.623
    4.540
    4.454
    4.050
    3.152
    1.962
    0.893
    0.208
   -0.137
   -0.268
   -0.098
    0.606
    1.786
    2.741
    2.375
    0.026
