Origin Time       05/3/2012 07:41:05	
Lat.              28.7 N	
Long.             76.6 E	
Depth (Km)         14.0
Magnitude         4.9
 Region           Haryana-Delhi-Border-Region                                      
 Above details taken from IMD 
    
Station Code       NTPC
Station Lat.       28.508  N
Station Long.      77.304  E
Station Height(m)  146.0
Site Class        C   Vs30 between 200 m/sec to 375 m/sec *  
Record Time        3/5/2012   13:15:58.00
Sampling Rate     200. Hz
 Record Duration  105.000 Sec.
 Direction         N-S (N positive)
Max. Acceleration  15.523 cm/sec**2
     
  * For reference see Site Classification link of website 
     
 Base Line Corrected and Low Pass Filtered (Cut Off at 35 Hz) Time History
 Acceleration data in cm/sec**2
    
[...]
   -2.655
   -0.996
    0.614
    1.658
    1.973
    1.720
    1.196
    0.642
    0.136
   -0.382
   -1.003
   -1.724
   -2.373
   -2.647
   -2.256
   -1.154
    0.299
    1.401
    1.467
    0.303
   -1.584
   -3.258
   -3.940
   -3.460
   -2.254
   -0.994
   -0.191
   -0.064
   -0.588
   -1.541
   -2.469
   -2.747
   -1.877
    0.113
    2.513
    4.259
    4.563
    3.408
    1.528
   -0.084
   -0.762
   -0.422
    0.605
    1.893
    3.124
    4.096
    4.654
    4.674
    4.110
    3.021
    1.577
    0.040
   -1.271
   -2.054
   -2.133
   -1.583
   -0.757
   -0.155
   -0.143
   -0.695
   -1.377
   -1.622
   -1.131
   -0.106
    0.869
    1.229
    0.829
    0.035
   -0.577
   -0.641
   -0.220
    0.322
    0.600
    0.390
   -0.369
   -1.611
   -3.065
   -4.157
   -4.156
   -2.646
   -0.026
    2.461
    3.370
    2.012
   -0.983
   -3.973
   -5.297
   -4.291
   -1.637
    1.143
    2.637
    2.285
    0.527
   -1.566
   -2.861
   -2.642
   -0.899
    1.661
    3.884
    4.698
    3.637
    1.111
   -1.773
   -3.731
   -3.924
   -2.342
    0.240
    2.709
    4.197
    4.456
    3.831
    2.908
    2.143
    1.721
    1.665
    1.960
    2.527
    3.096
    3.230
    2.598
    1.312
   -0.025
   -0.710
   -0.497
    0.148
    0.390
   -0.280
   -1.573
   -2.593
   -2.549
   -1.375
    0.265
    1.562
    2.165
    2.264
    2.164
    1.871
    1.117
   -0.258
   -2.005
   -3.583
   -4.573
   -4.965
   -5.049
   -5.037
   -4.820
   -4.113
   -2.850
   -1.441
   -0.613
   -0.944
   -2.426
   -4.375
   -5.768
   -5.800
   -4.340
   -2.002
    0.228
    1.563
    1.833
    1.486
    1.218
    1.505
    2.358
    3.407
    4.214
    4.586
    4.688
    4.891
    5.429
    6.115
    6.351
    5.508
    3.406
    0.551
   -2.081
   -3.557
   -3.466
   -2.073
   -0.113
    1.618
    2.658
    3.021
    3.019
    2.892
    2.517
    1.457
   -0.647
   -3.635
   -6.713
   -8.784
   -9.003
   -7.193
   -3.915
   -0.201
    2.898
    4.716
    5.151
    4.554
    3.448
    2.256
    1.203
    0.346
   -0.357
   -1.020
   -1.787
   -2.716
   -3.635
   -4.110
   -3.682
   -2.255
   -0.342
    1.134
    1.443
    0.629
   -0.470
   -0.878
   -0.310
    0.549
    0.627
   -0.536
   -2.238
   -3.074
   -2.096
    0.284
    2.482
    2.987
    1.615
   -0.315
   -1.049
    0.213
    2.775
    5.090
    5.934
    5.128
    3.385
    1.609
    0.305
   -0.544
   -1.188
   -1.760
   -2.118
   -1.929
   -0.895
    0.994
    3.310
    5.265
    6.030
    5.167
    2.927
    0.205
   -1.880
   -2.576
   -1.912
   -0.650
    0.212
    0.056
   -1.055
   -2.568
   -3.911
   -4.860
   -5.572
   -6.335
   -7.272
   -8.199
   -8.704
   -8.377
   -7.029
   -4.774
   -1.988
    0.803
    3.001
    4.034
    3.532
    1.579
   -1.118
   -3.358
   -3.935
   -2.246
    1.322
    5.516
    8.819
   10.202
    9.580
    7.701
    5.573
    3.857
    2.684
    1.926
    1.575
    1.791
    2.610
    3.695
    4.459
    4.505
    3.965
    3.374
    3.157
    3.182
    2.801
    1.394
   -1.035
   -3.714
   -5.565
   -5.924
   -4.967
   -3.516
   -2.438
   -2.130
   -2.446
   -2.988
   -3.442
   -3.689
   -3.714
   -3.479
   -2.931
   -2.119
   -1.313
   -0.939
   -1.323
   -2.388
   -3.584
   -4.183
   -3.774
   -2.548
   -1.118
   -0.028
    0.583
    0.897
    1.047
    0.895
    0.180
   -1.138
   -2.681
   -3.805
   -3.971
   -3.029
   -1.243
    0.916
    3.001
    4.693
    5.757
    5.987
    5.226
    3.511
    1.211
   -1.003
   -2.423
   -2.682
   -1.955
   -0.804
    0.241
    1.030
    1.782
    2.740
    3.805
    4.519
    4.437
    3.611
    2.741
    2.774
    4.208
    6.636
    8.899
    9.764
    8.620
    5.736
    1.952
   -1.866
   -5.185
   -7.783
   -9.481
   -9.963
   -8.895
   -6.266
   -2.662
    0.811
    2.995
    3.277
    1.911
   -0.158
   -1.890
   -2.738
   -2.859
   -2.798
   -2.923
   -3.076
   -2.748
   -1.593
    0.167
    1.824
    2.659
    2.386
    1.241
   -0.289
   -1.827
   -3.254
   -4.574
   -5.655
   -6.131
   -5.582
   -3.885
   -1.446
    0.908
    2.404
    2.815
    2.611
    2.598
    3.309
    4.611
    5.789
    6.025
    4.915
    2.717
    0.221
   -1.610
   -2.032
   -0.824
    1.570
    4.113
    5.573
    5.165
    3.078
    0.442
   -1.376
   -1.703
   -0.975
   -0.311
   -0.627
   -2.028
   -3.885
   -5.352
   -5.808
   -5.014
   -3.099
   -0.562
    1.780
    3.046
    2.713
    0.919
   -1.576
   -3.786
   -4.925
   -4.653
   -3.085
   -0.704
    1.771
    3.587
    4.250
    3.771
    2.670
    1.640
    1.086
    0.894
    0.618
   -0.048
   -0.959
   -1.600
   -1.497
   -0.594
    0.694
    1.753
    2.150
    1.832
    1.057
    0.118
   -0.867
   -1.943
   -3.111
   -4.177
   -4.841
   -4.960
   -4.712
   -4.445
   -4.297
   -3.955
   -2.822
   -0.533
    2.627
    5.770
    7.897
    8.447
    7.513
    5.625
    3.387
    1.215
   -0.718
   -2.407
   -3.876
   -5.036
   -5.580
   -5.042
   -3.058
    0.265
    4.155
    7.390
    8.894
    8.300
    6.088
    3.227
    0.633
   -1.163
   -2.030
   -2.071
   -1.517
   -0.743
   -0.277
   -0.599
   -1.769
   -3.170
   -3.737
   -2.649
   -0.030
    2.945
    4.711
    4.307
    1.981
   -1.025
   -3.304
   -4.088
   -3.470
   -2.033
   -0.330
    1.329
    2.695
    3.370
    2.912
    1.230
   -1.139
   -3.236
   -4.245
   -3.950
   -2.748
   -1.327
   -0.322
   -0.128
   -0.802
   -1.967
   -2.843
   -2.600
   -0.934
    1.525
    3.433
    3.544
    1.610
   -1.323
   -3.487
   -3.456
   -1.000
    2.817
    6.290
    8.003
    7.408
    4.804
    0.957
   -3.223
   -6.801
   -8.910
   -9.006
   -7.166
   -4.139
   -0.999
    1.403
    2.824
    3.620
    4.370
    5.426
    6.659
    7.537
    7.455
    6.105
    3.652
    0.640
   -2.250
   -4.393
   -5.306
   -4.738
   -2.815
   -0.161
    2.221
    3.373
    2.904
    1.228
   -0.702
   -1.992
   -2.284
   -1.795
   -1.011
   -0.375
   -0.213
   -0.771
   -2.132
   -3.965
   -5.400
   -5.355
   -3.273
    0.267
    3.676
    5.275
    4.360
    1.597
   -1.494
   -3.493
   -3.776
   -2.604
   -0.782
    0.773
    1.395
    0.929
   -0.165
   -1.022
   -0.895
    0.307
    1.879
    2.761
    2.270
    0.605
   -1.246
   -2.164
   -1.625
   -0.004
    1.745
    2.741
    2.688
    1.909
    0.969
    0.269
   -0.128
   -0.382
   -0.664
   -1.005
   -1.269
   -1.241
   -0.772
    0.101
    1.139
    2.014
    2.475
    2.457
    2.075
    1.519
    0.919
    0.271
   -0.534
   -1.589
   -2.816
   -3.915
   -4.476
   -4.209
   -3.131
   -1.586
   -0.080
    0.948
    1.306
    1.120
    0.747
    0.575
    0.770
    1.152
    1.304
    0.860
   -0.231
   -1.645
   -2.861
   -3.388
   -2.932
   -1.447
    0.833
    3.366
    5.334
    5.866
    4.457
    1.374
   -2.290
   -5.093
   -6.042
   -5.141
   -3.232
   -1.224
    0.632
    2.790
    5.737
    9.223
   12.100
   12.964
   11.106
    7.023
    2.134
   -2.027
   -4.530
   -5.310
   -4.960
   -4.320
   -4.028
   -4.172
   -4.210
   -3.324
   -1.109
    1.884
    4.252
    4.541
    2.202
   -1.975
   -6.236
   -8.767
   -8.553
   -5.810
   -1.863
    1.430
    2.493
    0.788
   -2.859
   -6.614
   -8.575
   -7.773
   -4.613
   -0.477
    3.158
    5.444
    6.274
    5.902
    4.535
    2.330
   -0.291
   -2.430
   -3.055
   -1.772
    0.608
    2.359
    1.982
   -0.613
   -3.874
   -5.625
   -4.595
   -1.293
    2.453
    4.845
    5.277
    4.468
    3.654
    3.635
    4.412
    5.442
    6.067
    5.768
    4.311
    1.937
   -0.558
   -2.095
   -1.930
   -0.166
    2.254
    4.064
    4.290
    2.592
   -0.702
   -4.680
   -8.058
   -9.595
   -8.687
   -5.736
   -1.974
    1.210
    2.947
    3.145
    2.262
    0.874
   -0.658
   -2.239
   -3.842
   -5.252
   -6.040
   -5.843
   -4.720
   -3.216
   -1.968
   -1.211
   -0.644
    0.217
    1.585
    3.250
    4.792
    5.832
    6.111
    5.470
    3.932
    1.867
    0.012
   -0.841
   -0.331
    1.178
    2.753
    3.403
    2.635
    0.730
   -1.385
   -2.602
   -2.193
   -0.181
    2.672
    5.234
    6.505
    5.994
    3.846
    0.763
   -2.258
   -4.332
   -5.072
   -4.708
   -3.831
   -2.941
   -2.179
   -1.436
   -0.671
   -0.078
    0.114
   -0.041
   -0.218
   -0.269
   -0.647
   -2.206
   -5.324
   -9.074
  -11.353
  -10.149
   -5.090
    1.955
    7.866
   10.175
    8.499
    4.491
    0.546
   -1.616
   -1.520
    0.404
    3.384
    6.546
    8.855
    9.247
    7.177
    3.228
   -0.897
   -3.252
   -2.877
   -0.450
    2.195
    3.326
    2.369
    0.033
   -2.405
   -3.951
   -4.299
   -3.724
   -2.770
   -1.957
   -1.554
   -1.420
   -1.059
    0.011
    1.730
    3.258
    3.367
    1.300
   -2.519
   -6.480
   -8.563
   -7.462
   -3.396
    1.857
    5.792
    6.500
    3.776
   -0.692
   -4.244
   -4.760
   -1.856
    2.956
    7.161
    8.622
    6.669
    2.337
   -2.307
   -5.350
   -6.042
   -5.048
   -3.824
   -3.533
   -4.211
   -4.783
   -3.921
   -1.164
    2.521
    5.220
    5.294
    2.518
   -1.687
   -5.099
   -6.019
   -4.183
   -0.757
    2.477
    4.139
    3.904
    2.468
    0.955
    0.144
    0.058
    0.171
    0.030
   -0.275
   -0.215
    0.626
    2.104
    3.576
    4.364
    4.150
    3.038
    1.388
   -0.292
   -1.367
   -1.223
    0.361
    2.850
    5.000
    5.468
    3.683
    0.346
   -2.841
   -4.117
   -2.707
    0.666
    4.112
    5.572
    3.925
   -0.376
   -5.477
   -9.047
   -9.517
   -7.001
   -3.284
   -0.755
   -0.874
   -3.193
   -5.661
   -6.041
   -3.467
    0.983
    5.066
    6.890
    6.032
    3.555
    1.062
   -0.395
   -0.796
   -0.817
   -1.102
   -1.716
   -2.150
   -1.785
   -0.415
    1.542
    3.276
    4.058
    3.611
    2.202
    0.453
   -0.967
   -1.633
   -1.517
   -0.913
   -0.195
    0.406
    0.834
    1.057
    0.920
    0.204
   -1.121
   -2.634
   -3.464
   -2.658
    0.231
    4.661
    9.064
   11.440
   10.397
    6.023
   -0.035
   -5.397
   -8.172
   -7.763
   -4.863
   -0.895
    2.606
    4.409
    3.884
    1.257
   -2.377
   -5.495
   -6.883
   -6.223
   -4.144
   -1.782
   -0.157
    0.293
   -0.130
   -0.609
   -0.369
    0.691
    1.763
    1.640
   -0.237
   -3.021
   -4.761
   -3.753
    0.064
    4.846
    8.007
    7.927
    4.893
    0.689
   -2.658
   -3.985
   -3.334
   -1.577
    0.228
    1.362
    1.663
    1.440
    1.170
    1.128
    1.155
    0.704
   -0.756
   -3.228
   -5.946
   -7.690
   -7.523
   -5.441
   -2.450
    0.006
    0.888
    0.131
   -1.379
   -2.361
   -1.855
    0.287
    3.304
    5.837
    6.534
    4.796
    1.269
   -2.314
   -4.076
   -3.155
   -0.273
    2.796
    4.433
    4.154
    2.683
    1.203
    0.464
    0.416
    0.523
    0.321
   -0.271
   -0.995
   -1.427
   -1.094
    0.375
    2.956
    5.958
    8.159
    8.475
    6.717
    3.781
    1.014
   -0.730
   -1.575
   -2.300
   -3.515
   -5.054
   -6.018
   -5.402
   -2.842
    1.021
    4.746
    6.758
    6.134
    3.092
   -1.053
   -4.509
   -5.896
   -4.916
   -2.419
    0.196
    1.806
    2.071
    1.358
    0.293
   -0.676
   -1.464
   -2.280
   -3.423
   -4.973
   -6.532
   -7.274
   -6.445
   -4.022
   -0.964
    1.284
    1.712
    0.408
   -1.490
   -2.493
   -1.625
    1.024
    4.369
    6.937
    7.697
    6.570
    4.319
    1.931
    0.017
   -1.318
   -2.170
   -2.497
   -2.115
   -1.018
    0.351
    1.232
    1.037
   -0.163
   -1.587
   -2.208
   -1.442
    0.445
    2.543
    3.976
    4.502
    4.569
    4.777
    5.237
    5.389
    4.440
    2.062
   -1.229
   -4.310
   -6.143
   -6.395
   -5.520
   -4.266
   -3.035
   -1.694
   -0.005
    1.766
    2.729
    1.981
   -0.510
   -3.582
   -5.499
   -5.125
   -2.692
    0.421
    2.670
    3.264
    2.351
    0.567
   -1.489
   -3.386
   -4.670
   -4.756
   -3.219
   -0.279
    2.984
    5.014
    4.617
    1.735
   -2.367
   -5.689
   -6.549
   -4.479
   -0.426
    3.810
    6.520
    6.845
    5.018
    2.142
   -0.307
   -1.111
    0.065
    2.381
    4.202
    4.115
    1.923
   -1.125
   -3.158
   -2.956
   -0.754
    1.995
    3.659
    3.445
    1.713
   -0.498
   -2.214
   -2.947
   -2.620
   -1.292
    0.903
    3.545
    5.758
    6.466
    5.036
    1.820
   -1.924
   -4.740
   -5.762
   -4.959
   -2.821
    0.048
    2.958
    4.947
    4.927
    2.378
   -1.945
   -6.104
   -8.091
   -7.177
   -4.382
   -1.662
   -0.507
   -1.037
   -2.182
   -2.605
   -1.611
    0.514
    2.780
    4.083
    3.749
    1.858
   -0.768
   -2.919
   -3.614
   -2.635
   -0.653
    1.177
    1.882
    1.162
   -0.554
   -2.426
   -3.603
   -3.545
   -2.202
   -0.047
    2.093
    3.430
    3.648
    3.084
    2.450
    2.275
    2.492
    2.541
    1.923
    0.704
   -0.512
   -1.135
   -1.147
   -1.123
   -1.672
   -2.797
   -3.760
   -3.610
   -1.965
    0.591
    2.843
    3.746
    3.093
    1.564
    0.213
   -0.213
    0.335
    1.335
    2.171
    2.564
    2.625
    2.563
    2.401
    1.993
    1.284
    0.479
   -0.075
   -0.115
    0.470
    1.709
    3.495
    5.306
    6.081
    4.690
    0.888
   -4.065
   -7.863
   -8.577
   -6.026
   -1.944
    1.212
    1.914
    0.385
   -1.910
   -3.532
   -4.015
   -3.866
   -3.820
   -4.126
   -4.428
   -4.225
   -3.407
   -2.366
   -1.644
   -1.531
   -1.979
   -2.806
   -3.847
   -4.842
   -5.265
   -4.450
   -2.089
    1.291
    4.426
    6.062
    5.808
    4.340
    2.782
    1.847
    1.540
    1.550
    1.753
    2.184
    2.600
    2.364
    1.067
   -0.650
   -1.111
    1.225
    6.285
   11.998
   15.523
   15.219
   11.731
    7.312
    4.017
    2.352
    1.407
    0.085
   -1.862
   -3.849
   -5.207
   -5.734
   -5.603
   -4.985
   -3.956
   -2.732
   -1.769
   -1.452
   -1.698
   -2.005
   -2.038
   -2.103
   -2.938
   -4.881
   -7.242
   -8.619
   -8.004
   -5.691
   -3.096
   -1.601
   -1.454
   -1.700
   -1.191
    0.273
    1.715
    1.859
    0.320
   -1.980
   -3.544
   -3.504
   -2.237
   -0.918
   -0.461
   -0.786
   -0.956
   -0.038
    2.020
    4.185
    5.008
    3.726
    0.961
   -1.546
   -2.036
    0.103
    3.933
    7.560
    9.255
    8.367
    5.535
    2.237
    0.007
   -0.260
    1.328
    3.764
    5.632
    5.791
    3.926
    0.707
   -2.510
   -4.319
   -3.957
   -1.756
    0.979
    2.678
    2.496
    0.913
   -0.588
   -0.658
    0.790
    2.420
    2.452
    0.055
   -3.956
   -7.630
   -9.123
   -7.718
   -4.009
    0.631
    4.715
    7.026
    6.752
    3.676
   -1.547
   -7.321
  -11.631
  -13.008
  -11.375
   -8.091
   -5.081
   -3.609
   -3.546
   -3.651
   -2.612
   -0.092
    2.971
    4.986
    4.811
    2.588
   -0.258
   -1.846
   -0.964
    2.244
    6.399
    9.663
   10.660
    9.065
    5.700
    2.152
    0.080
    0.437
    2.925
    6.035
    7.800
    6.934
    3.637
   -0.529
   -3.676
   -4.767
   -4.067
   -2.566
   -0.998
    0.613
    2.493
    4.338
    5.168
    4.109
    1.345
   -1.813
   -3.916
   -4.549
   -4.561
   -5.197
   -6.951
   -9.144
  -10.467
   -9.938
   -7.522
   -4.077
   -0.803
    1.389
    2.221
    1.975
    1.129
    0.011
   -1.248
   -2.483
   -3.265
   -3.015
   -1.463
    0.938
    3.072
    3.812
    2.829
    0.962
   -0.239
    0.445
    2.982
    5.977
    7.520
    6.465
    3.250
   -0.368
   -2.498
   -2.351
   -0.599
    1.366
    2.573
    3.044
    3.419
    4.060
    4.539
    4.012
    2.187
   -0.055
   -1.081
    0.227
    3.400
    6.439
    7.045
    4.145
   -1.331
   -6.913
   -9.956
   -9.046
   -4.654
    1.236
    6.159
    8.239
    6.791
    2.375
   -3.484
   -8.725
  -11.335
  -10.106
   -5.335
    1.035
    6.167
    7.723
    5.106
   -0.229
   -5.602
   -8.589
   -8.271
   -5.559
   -2.454
   -0.732
   -0.920
   -2.192
   -3.190
   -3.103
   -2.186
   -1.365
   -1.330
   -1.895
   -2.149
   -1.205
    1.078
    3.960
    6.267
    7.029
    5.888
    3.155
   -0.298
   -3.195
   -4.163
   -2.308
    2.102
    7.360
   10.939
   10.931
    7.403
    2.548
   -0.738
   -0.894
    1.235
    3.173
    2.772
   -0.200
   -4.024
   -6.425
   -6.210
   -3.919
   -1.176
    0.597
    1.067
    0.874
    0.779
    0.909
    0.767
   -0.063
   -1.293
   -2.040
   -1.607
   -0.203
    1.070
    0.974
   -0.951
   -3.986
   -6.589
   -7.243
   -5.293
   -1.369
    2.830
    5.306
    4.792
    1.512
   -2.813
   -5.856
   -6.017
   -3.372
    0.381
    2.987
    3.007
    0.663
   -2.319
   -3.707
   -2.040
    2.487
    7.955
   11.600
   11.266
    6.677
   -0.277
   -6.478
   -9.196
   -7.410
   -2.178
    4.008
    8.419
    9.287
    6.548
    1.797
   -2.573
   -4.698
   -4.268
   -2.539
   -1.262
   -1.301
   -2.069
   -2.267
   -1.260
    0.203
    0.654
   -0.645
   -2.852
   -4.110
   -3.051
    0.078
    3.585
    5.581
    5.251
    3.202
    0.808
   -0.818
   -1.467
   -1.746
   -2.430
   -3.709
   -4.863
   -4.710
   -2.625
    0.650
    3.213
    3.250
    0.415
   -3.795
   -6.977
   -7.369
   -4.860
   -0.874
    2.643
    4.372
    4.249
    3.313
    2.943
    3.915
    5.829
    7.268
    6.685
    3.487
   -1.366
   -5.712
   -7.314
   -5.164
   -0.193
    5.124
    8.120
    7.462
    3.845
   -0.577
   -3.581
   -4.097
   -2.524
   -0.179
    1.538
    1.738
    0.238
   -2.472
   -5.347
   -7.055
   -6.490
   -3.407
    1.204
    5.419
    7.323
    6.054
    2.266
   -2.284
   -5.706
   -6.869
   -5.722
   -3.021
    0.208
    3.065
    4.883
    5.163
    3.605
    0.337
   -3.842
   -7.515
   -9.181
   -8.025
   -4.456
    0.014
    3.535
    4.866
    3.925
    1.654
   -0.646
   -2.049
   -2.328
   -1.754
   -0.647
    0.893
    2.872
    5.095
    7.032
    8.023
    7.634
    5.810
    2.781
   -1.013
   -4.834
   -7.596
   -8.191
   -6.168
   -2.235
    1.959
    4.742
    5.394
    4.413
    2.923
    1.788
    1.150
    0.678
    0.173
   -0.079
    0.484
    2.102
    4.259
    5.805
    5.578
    3.116
   -1.006
   -5.378
   -8.350
   -8.732
   -6.285
   -1.822
    3.112
    6.785
    7.854
    5.772
    0.975
   -5.171
  -10.684
  -13.546
  -12.497
   -7.727
   -1.067
    4.654
    6.932
    4.969
    0.237
   -4.275
   -5.813
   -3.530
    1.014
    4.869
    5.567
    2.666
   -1.950
   -5.214
   -4.822
   -0.805
    4.338
    7.235
    5.973
    1.501
   -3.038
   -4.598
   -2.390
    1.755
    4.972
    5.503
    3.729
    1.525
    0.689
    1.728
    3.728
    5.183
    5.024
    3.169
    0.382
   -2.319
   -4.217
   -5.110
   -5.161
   -4.617
   -3.651
   -2.365
   -0.839
    0.857
    2.626
    4.244
    5.234
    4.919
    2.785
   -0.948
   -4.949
   -7.112
   -5.699
   -0.673
    5.835
   10.539
   10.948
    6.879
    0.419
   -5.538
   -8.976
   -9.466
   -7.707
   -4.656
   -1.084
    2.306
    4.671
    5.229
    3.731
    0.730
   -2.680
   -5.427
   -6.865
   -6.794
   -5.282
   -2.599
    0.665
    3.535
    4.844
    3.730
    0.178
   -4.733
   -9.092
  -10.907
   -9.030
   -3.803
    2.950
    8.713
   11.461
   10.603
    7.097
    2.716
   -1.010
   -3.435
   -4.709
   -5.187
   -4.911
   -3.540
   -0.718
    3.398
    7.814
   10.843
   10.781
    6.921
    0.338
   -6.188
   -9.374
   -7.273
   -0.675
    7.003
   11.544
   10.457
    4.522
   -2.757
   -7.429
   -7.537
   -4.095
   -0.073
    1.799
    0.828
   -1.444
   -2.686
   -1.691
    0.747
    2.630
    2.455
    0.354
   -2.212
