Origin Time       18/01/2011 20:23:27
Lat.              28.9 N	
Long.             64.0 E	
Depth (Km)          5.0
Magnitude         7.4
 Region           Southwestern-Pakistan                                            
 Above details taken from IMD 
     
Station Code       NTPC
Station Lat.       28.508  N
Station Long.      77.304  E
Station Height(m)  146.0
Site Class        C   Vs30 between 200 m/sec to 375 m/sec *  
Record Time        1/18/2011 ) 20:27:56.0
Sampling Rate     200. Hz
 Record Duration   86.000 Sec.
 Direction         E-W (E positive)
Max. Acceleration  22.221 cm/sec**2
     
  * For reference see Site Classification link of website 
     
 Base Line Corrected and Low Pass Filtered (Cut Off at 35 Hz) Time History
 Acceleration data in cm/sec**2
    
[...]
    0.301
   -0.084
   -0.385
   -0.498
   -0.417
   -0.240
   -0.116
   -0.162
   -0.410
   -0.803
   -1.231
   -1.574
   -1.738
   -1.670
   -1.402
   -1.064
   -0.827
   -0.787
   -0.892
   -0.981
   -0.906
   -0.624
   -0.207
    0.224
    0.603
    0.954
    1.335
    1.744
    2.097
    2.282
    2.232
    1.954
    1.517
    1.018
    0.549
    0.181
   -0.025
   -0.025
    0.158
    0.398
    0.520
    0.417
    0.124
   -0.221
   -0.477
   -0.592
   -0.616
   -0.656
   -0.785
   -0.987
   -1.169
   -1.249
   -1.216
   -1.118
   -1.017
   -0.932
   -0.832
   -0.645
   -0.332
    0.070
    0.463
    0.772
    0.984
    1.114
    1.154
    1.064
    0.808
    0.410
   -0.023
   -0.334
   -0.411
   -0.276
   -0.073
    0.049
    0.037
   -0.060
   -0.167
   -0.237
   -0.267
   -0.284
   -0.332
   -0.442
   -0.620
   -0.846
   -1.062
   -1.160
   -1.009
   -0.548
    0.123
    0.780
    1.207
    1.324
    1.204
    0.972
    0.709
    0.421
    0.097
   -0.219
   -0.442
   -0.512
   -0.450
   -0.329
   -0.223
   -0.186
   -0.258
   -0.451
   -0.720
   -0.965
   -1.074
   -0.978
   -0.677
   -0.247
    0.182
    0.472
    0.532
    0.349
    0.003
   -0.363
   -0.620
   -0.727
   -0.746
   -0.760
   -0.778
   -0.722
   -0.523
   -0.203
    0.136
    0.384
    0.495
    0.497
    0.452
    0.405
    0.372
    0.368
    0.423
    0.550
    0.707
    0.818
    0.833
    0.778
    0.752
    0.864
    1.150
    1.512
    1.774
    1.804
    1.606
    1.284
    0.953
    0.681
    0.480
    0.327
    0.160
   -0.092
   -0.472
   -0.954
   -1.452
   -1.853
   -2.072
   -2.113
   -2.081
   -2.120
   -2.295
   -2.552
   -2.766
   -2.825
   -2.699
   -2.444
   -2.170
   -1.967
   -1.851
   -1.761
   -1.623
   -1.404
   -1.119
   -0.814
   -0.530
   -0.288
   -0.093
    0.055
    0.167
    0.276
    0.440
    0.698
    1.033
    1.376
    1.662
    1.884
    2.086
    2.320
    2.595
    2.855
    3.004
    2.976
    2.779
    2.480
    2.153
    1.844
    1.590
    1.415
    1.321
    1.269
    1.191
    1.022
    0.744
    0.404
    0.088
   -0.139
   -0.284
   -0.423
   -0.638
   -0.943
   -1.264
   -1.493
   -1.571
   -1.537
   -1.509
   -1.595
   -1.820
   -2.116
   -2.382
   -2.536
   -2.545
   -2.428
   -2.249
   -2.086
   -1.986
   -1.940
   -1.888
   -1.738
   -1.404
   -0.854
   -0.140
    0.615
    1.265
    1.704
    1.900
    1.896
    1.788
    1.675
    1.625
    1.658
    1.763
    1.903
    2.035
    2.128
    2.176
    2.191
    2.167
    2.069
    1.864
    1.568
    1.261
    1.053
    1.028
    1.191
    1.458
    1.693
    1.789
    1.717
    1.518
    1.270
    1.031
    0.814
    0.585
    0.305
   -0.039
   -0.421
   -0.802
   -1.154
   -1.457
   -1.704
   -1.915
   -2.140
   -2.433
   -2.791
   -3.124
   -3.276
   -3.116
   -2.628
   -1.962
   -1.359
   -1.012
   -0.962
   -1.099
   -1.250
   -1.274
   -1.120
   -0.828
   -0.504
   -0.267
   -0.200
   -0.305
   -0.488
   -0.606
   -0.543
   -0.285
    0.083
    0.438
    0.692
    0.822
    0.883
    0.985
    1.230
    1.628
    2.055
    2.322
    2.306
    2.033
    1.660
    1.370
    1.250
    1.252
    1.259
    1.179
    1.005
    0.783
    0.578
    0.454
    0.450
    0.553
    0.689
    0.766
    0.731
    0.595
    0.423
    0.300
    0.299
    0.448
    0.719
    1.023
    1.231
    1.222
    0.955
    0.531
    0.145
   -0.037
    0.019
    0.214
    0.412
    0.531
    0.581
    0.617
    0.673
    0.728
    0.726
    0.621
    0.394
    0.046
   -0.403
   -0.885
   -1.273
   -1.440
   -1.341
   -1.067
   -0.796
   -0.682
   -0.772
   -1.000
   -1.263
   -1.488
   -1.657
   -1.783
   -1.886
   -1.982
   -2.053
   -2.058
   -1.966
   -1.817
   -1.710
   -1.728
   -1.874
   -2.069
   -2.209
   -2.218
   -2.059
   -1.738
   -1.305
   -0.859
   -0.527
   -0.419
   -0.565
   -0.893
   -1.271
   -1.581
   -1.748
   -1.738
   -1.543
   -1.183
   -0.710
   -0.191
    0.326
    0.819
    1.266
    1.629
    1.863
    1.951
    1.944
    1.954
    2.104
    2.453
    2.955
    3.483
    3.875
    3.985
    3.744
    3.226
    2.659
    2.309
    2.307
    2.546
    2.753
    2.690
    2.320
    1.794
    1.302
    0.912
    0.552
    0.103
   -0.495
   -1.228
   -2.030
   -2.796
   -3.401
   -3.747
   -3.835
   -3.797
   -3.842
   -4.138
   -4.707
   -5.416
   -6.064
   -6.519
   -6.762
   -6.840
   -6.782
   -6.581
   -6.228
   -5.754
   -5.219
   -4.677
   -4.140
   -3.571
   -2.926
   -2.196
   -1.414
   -0.604
    0.245
    1.154
    2.119
    3.094
    4.000
    4.735
    5.215
    5.427
    5.461
    5.464
    5.547
    5.722
    5.908
    6.002
    5.961
    5.835
    5.715
    5.642
    5.558
    5.361
    4.989
    4.466
    3.882
    3.336
    2.897
    2.572
    2.324
    2.106
    1.881
    1.598
    1.173
    0.530
   -0.329
   -1.303
   -2.234
   -2.983
   -3.488
   -3.790
   -3.996
   -4.222
   -4.529
   -4.900
   -5.258
   -5.510
   -5.606
   -5.580
   -5.528
   -5.527
   -5.559
   -5.512
   -5.262
   -4.763
   -4.080
   -3.371
   -2.813
   -2.510
   -2.415
   -2.349
   -2.088
   -1.483
   -0.534
    0.603
    1.706
    2.618
    3.322
    3.892
    4.388
    4.792
    5.052
    5.158
    5.165
    5.154
    5.176
    5.239
    5.345
    5.508
    5.719
    5.895
    5.895
    5.625
    5.130
    4.562
    4.067
    3.690
    3.390
    3.107
    2.795
    2.432
    2.023
    1.595
    1.179
    0.782
    0.374
   -0.110
   -0.723
   -1.457
   -2.211
   -2.843
   -3.256
   -3.452
   -3.531
   -3.639
   -3.902
   -4.353
   -4.895
   -5.340
   -5.505
   -5.298
   -4.764
   -4.061
   -3.394
   -2.902
   -2.568
   -2.235
   -1.741
   -1.047
   -0.271
    0.394
    0.819
    1.036
    1.227
    1.592
    2.217
    3.036
    3.889
    4.597
    5.019
    5.108
    4.947
    4.720
    4.607
    4.680
    4.895
    5.138
    5.287
    5.251
    5.003
    4.587
    4.094
    3.606
    3.147
    2.670
    2.097
    1.404
    0.692
    0.129
   -0.171
   -0.243
   -0.228
   -0.275
   -0.462
   -0.795
   -1.236
   -1.734
   -2.224
   -2.615
   -2.816
   -2.803
   -2.675
   -2.604
   -2.688
   -2.882
   -3.064
   -3.184
   -3.320
   -3.608
   -4.103
   -4.703
   -5.183
   -5.313
   -4.972
   -4.180
   -3.076
   -1.872
   -0.807
   -0.058
    0.360
    0.601
    0.889
    1.373
    2.060
    2.836
    3.537
    4.035
    4.299
    4.389
    4.405
    4.421
    4.459
    4.494
    4.478
    4.379
    4.209
    4.013
    3.827
    3.666
    3.542
    3.457
    3.348
    3.079
    2.547
    1.807
    1.053
    0.482
    0.155
   -0.016
   -0.186
   -0.471
   -0.903
   -1.445
   -2.032
   -2.595
   -3.064
   -3.393
   -3.594
   -3.746
   -3.952
   -4.257
   -4.607
   -4.863
   -4.876
   -4.580
   -4.064
   -3.549
   -3.253
   -3.236
   -3.362
   -3.407
   -3.230
   -2.867
   -2.499
   -2.319
   -2.392
   -2.622
   -2.826
   -2.857
   -2.678
   -2.359
   -2.034
   -1.835
   -1.824
   -1.967
   -2.177
   -2.367
   -2.469
   -2.430
   -2.237
   -1.948
   -1.671
   -1.488
   -1.391
   -1.276
   -1.012
   -0.539
    0.074
    0.660
    1.084
    1.348
    1.586
    1.938
    2.440
    3.012
    3.514
    3.830
    3.919
    3.816
    3.599
    3.343
    3.111
    2.942
    2.822
    2.670
    2.370
    1.852
    1.143
    0.360
   -0.337
   -0.806
   -0.988
   -0.936
   -0.781
   -0.646
   -0.596
   -0.621
   -0.664
   -0.673
   -0.653
   -0.690
   -0.884
   -1.263
   -1.759
   -2.270
   -2.729
   -3.130
   -3.515
   -3.946
   -4.468
   -5.078
   -5.717
   -6.280
   -6.630
   -6.645
   -6.306
   -5.754
   -5.227
   -4.896
   -4.751
   -4.630
   -4.351
   -3.835
   -3.140
   -2.422
   -1.838
   -1.454
   -1.210
   -0.960
   -0.555
    0.078
    0.880
    1.679
    2.282
    2.599
    2.697
    2.746
    2.917
    3.298
    3.863
    4.487
    5.017
    5.351
    5.486
    5.506
    5.525
    5.631
    5.825
    6.014
    6.073
    5.945
    5.692
    5.443
    5.287
    5.210
    5.109
    4.853
    4.353
    3.595
    2.642
    1.623
    0.717
    0.101
   -0.159
   -0.184
   -0.225
   -0.485
   -0.979
   -1.556
   -2.042
   -2.381
   -2.652
   -3.006
   -3.558
   -4.330
   -5.268
   -6.289
   -7.307
   -8.222
   -8.922
   -9.341
   -9.524
   -9.634
   -9.869
  -10.329
  -10.922
  -11.386
  -11.438
  -10.956
  -10.041
   -8.903
   -7.683
   -6.362
   -4.806
   -2.894
   -0.632
    1.803
    4.139
    6.149
    7.755
    9.016
   10.051
   10.967
   11.832
   12.643
   13.320
   13.726
   13.746
   13.365
   12.700
   11.954
   11.315
   10.860
   10.521
   10.147
    9.601
    8.828
    7.870
    6.837
    5.836
    4.896
    3.935
    2.812
    1.430
   -0.191
   -1.908
   -3.513
   -4.836
   -5.839
   -6.646
   -7.479
   -8.530
   -9.838
  -11.253
  -12.492
  -13.290
  -13.531
  -13.285
  -12.707
  -11.906
  -10.901
   -9.673
   -8.230
   -6.630
   -4.967
   -3.336
   -1.791
   -0.319
    1.127
    2.600
    4.115
    5.634
    7.059
    8.261
    9.127
    9.599
    9.672
    9.392
    8.850
    8.181
    7.515
    6.930
    6.420
    5.911
    5.304
    4.546
    3.682
    2.845
    2.169
    1.679
    1.278
    0.839
    0.323
   -0.155
   -0.385
   -0.191
    0.429
    1.268
    2.000
    2.341
    2.168
    1.563
    0.771
    0.077
   -0.345
   -0.520
   -0.615
   -0.782
   -1.042
   -1.291
   -1.397
   -1.304
   -1.067
   -0.817
   -0.692
   -0.778
   -1.109
   -1.652
   -2.293
   -2.850
   -3.163
   -3.209
   -3.131
   -3.148
   -3.415
   -3.928
   -4.519
   -4.952
   -5.064
   -4.878
   -4.581
   -4.401
   -4.472
   -4.784
   -5.210
   -5.579
   -5.764
   -5.718
   -5.469
   -5.060
   -4.512
   -3.825
   -2.972
   -1.901
   -0.556
    1.063
    2.854
    4.638
    6.236
    7.563
    8.677
    9.747
   10.926
   12.220
   13.462
   14.413
   14.910
   14.957
   14.709
   14.383
   14.130
   13.956
   13.751
   13.368
   12.706
   11.718
   10.417
    8.880
    7.230
    5.575
    3.941
    2.257
    0.420
   -1.608
   -3.728
   -5.720
   -7.372
   -8.621
   -9.591
  -10.495
  -11.503
  -12.650
  -13.834
  -14.887
  -15.670
  -16.156
  -16.424
  -16.584
  -16.681
  -16.678
  -16.489
  -16.034
  -15.270
  -14.203
  -12.885
  -11.384
   -9.781
   -8.155
   -6.568
   -5.021
   -3.453
   -1.790
   -0.012
    1.814
    3.553
    5.066
    6.285
    7.270
    8.186
    9.195
   10.345
   11.523
   12.516
   13.137
   13.321
   13.155
   12.796
   12.360
   11.849
   11.181
   10.279
    9.154
    7.926
    6.793
    5.940
    5.435
    5.208
    5.105
    4.978
    4.730
    4.322
    3.763
    3.111
    2.445
    1.828
    1.254
    0.630
   -0.182
   -1.254
   -2.496
   -3.690
   -4.621
   -5.212
   -5.559
   -5.860
   -6.296
   -6.929
   -7.661
   -8.309
   -8.745
   -9.007
   -9.263
   -9.686
  -10.329
  -11.111
  -11.885
  -12.545
  -13.075
  -13.526
  -13.937
  -14.312
  -14.647
  -14.934
  -15.138
  -15.156
  -14.860
  -14.160
  -13.061
  -11.668
  -10.165
   -8.742
   -7.499
   -6.365
   -5.133
   -3.614
   -1.761
    0.304
    2.376
    4.292
    5.997
    7.529
    8.939
   10.230
   11.370
   12.335
   13.129
   13.772
   14.291
   14.725
   15.124
   15.516
   15.885
   16.162
   16.243
   16.037
   15.523
   14.784
   13.953
   13.130
   12.302
   11.348
   10.099
    8.442
    6.392
    4.103
    1.789
   -0.403
   -2.453
   -4.435
   -6.417
   -8.384
  -10.242
  -11.874
  -13.207
  -14.229
  -14.961
  -15.451
  -15.790
  -16.104
  -16.461
  -16.778
  -16.842
  -16.464
  -15.650
  -14.610
  -13.624
  -12.845
  -12.217
  -11.547
  -10.659
   -9.504
   -8.146
   -6.679
   -5.185
   -3.731
   -2.355
   -1.021
    0.381
    1.962
    3.736
    5.562
    7.181
    8.355
    9.014
    9.306
    9.512
    9.882
   10.530
   11.407
   12.355
   13.196
   13.823
   14.227
   14.448
   14.485
   14.268
   13.705
   12.749
   11.419
    9.784
    7.943
    6.009
    4.107
    2.356
    0.845
   -0.405
   -1.460
   -2.410
   -3.279
   -3.980
   -4.376
   -4.374
   -3.974
   -3.265
   -2.378
   -1.442
   -0.564
    0.176
    0.730
    1.088
    1.282
    1.368
    1.387
    1.354
    1.295
    1.291
    1.467
    1.918
    2.615
    3.357
    3.842
    3.827
    3.285
    2.419
    1.532
    0.845
    0.399
    0.090
   -0.228
   -0.640
   -1.135
   -1.631
   -2.007
   -2.147
   -2.001
   -1.660
   -1.357
   -1.350
   -1.740
   -2.366
   -2.891
   -3.019
   -2.679
   -2.051
   -1.442
   -1.088
   -1.020
   -1.055
   -0.932
   -0.459
    0.390
    1.474
    2.552
    3.418
    4.018
    4.463
    4.933
    5.562
    6.375
    7.295
    8.191
    8.946
    9.501
    9.869
   10.116
   10.319
   10.509
   10.617
   10.468
    9.858
    8.694
    7.094
    5.326
    3.654
    2.194
    0.882
   -0.446
   -1.909
   -3.484
   -5.011
   -6.283
   -7.155
   -7.603
   -7.731
   -7.731
   -7.789
   -7.989
   -8.271
   -8.476
   -8.438
   -8.045
   -7.268
   -6.163
   -4.845
   -3.444
   -2.051
   -0.677
    0.731
    2.256
    3.935
    5.710
    7.427
    8.926
   10.147
   11.158
   12.100
   13.097
   14.179
   15.253
   16.134
   16.644
   16.710
   16.392
   15.827
   15.132
   14.306
   13.212
   11.662
    9.551
    6.933
    3.996
    0.982
   -1.900
   -4.520
   -6.852
   -8.958
  -10.935
  -12.823
  -14.562
  -16.022
  -17.080
  -17.696
  -17.947
  -17.976
  -17.906
  -17.788
  -17.605
  -17.321
  -16.906
  -16.358
  -15.703
  -14.986
  -14.220
  -13.344
  -12.244
  -10.804
   -8.949
   -6.664
   -3.984
   -1.000
    2.145
    5.282
    8.270
   11.029
   13.562
   15.906
   18.050
   19.887
   21.255
   22.032
   22.221
   21.939
   21.355
   20.601
   19.709
   18.611
   17.223
   15.538
   13.673
   11.803
   10.062
    8.467
    6.920
    5.278
    3.449
    1.450
   -0.619
   -2.650
   -4.574
   -6.351
   -7.954
   -9.375
  -10.656
  -11.874
  -13.078
  -14.216
  -15.128
  -15.627
  -15.652
  -15.368
  -15.119
  -15.215
  -15.729
  -16.424
  -16.884
  -16.748
  -15.929
  -14.644
  -13.247
  -11.992
  -10.898
   -9.790
   -8.434
   -6.681
   -4.550
   -2.215
    0.076
    2.114
    3.801
    5.172
    6.357
    7.516
    8.747
   10.010
   11.130
   11.898
   12.190
   12.020
   11.512
   10.808
    9.980
    8.996
    7.773
    6.269
    4.539
    2.734
    1.053
   -0.331
   -1.336
   -2.007
   -2.484
   -2.915
   -3.379
   -3.856
   -4.241
   -4.406
   -4.291
   -3.969
   -3.629
   -3.474
   -3.604
   -3.982
   -4.483
   -4.976
   -5.392
   -5.726
   -5.984
   -6.146
   -6.178
   -6.072
   -5.845
   -5.501
   -5.029
   -4.451
   -3.873
   -3.446
   -3.282
   -3.357
   -3.511
   -3.550
   -3.389
   -3.118
   -2.938
   -3.032
   -3.487
   -4.276
   -5.284
   -6.322
   -7.170
   -7.672
   -7.807
   -7.676
   -7.405
   -7.067
   -6.653
   -6.108
   -5.394
   -4.539
   -3.629
   -2.764
   -2.010
   -1.388
   -0.866
   -0.358
    0.249
    1.032
    1.975
    2.966
    3.864
    4.584
    5.154
    5.679
    6.243
    6.820
    7.269
    7.421
    7.169
    6.519
    5.578
    4.532
    3.582
    2.852
    2.314
    1.809
    1.144
    0.211
   -0.957
   -2.222
   -3.435
   -4.505
   -5.418
   -6.225
   -7.034
   -7.983
   -9.163
  -10.523
  -11.860
  -12.917
  -13.528
  -13.697
  -13.548
  -13.219
  -12.772
  -12.172
  -11.314
  -10.100
   -8.526
   -6.720
   -4.918
   -3.378
   -2.242
   -1.441
   -0.723
    0.176
    1.362
    2.736
    4.092
    5.257
    6.183
    6.935
    7.619
    8.294
    8.937
    9.468
    9.787
    9.799
    9.439
    8.714
    7.728
    6.628
    5.508
    4.361
    3.146
    1.886
    0.723
   -0.145
   -0.594
   -0.681
   -0.615
   -0.610
   -0.753
   -0.987
   -1.215
   -1.392
   -1.544
   -1.720
   -1.935
   -2.158
   -2.353
   -2.513
   -2.649
   -2.745
   -2.746
   -2.591
   -2.269
   -1.815
   -1.286
   -0.739
   -0.235
    0.200
    0.616
    1.130
    1.848
    2.783
    3.826
    4.778
    5.454
    5.789
    5.878
    5.885
    5.924
    5.992
    5.998
    5.840
    5.481
    4.979
    4.454
    4.006
    3.621
    3.176
    2.528
    1.660
    0.731
    0.005
   -0.316
   -0.227
    0.078
    0.327
    0.314
   -0.028
   -0.654
   -1.431
   -2.154
   -2.591
   -2.587
   -2.155
   -1.487
   -0.841
   -0.386
   -0.098
    0.176
    0.570
    1.076
    1.566
    1.894
    2.011
    1.984
    1.956
    2.087
    2.486
    3.157
    3.984
    4.770
    5.325
    5.546
    5.459
    5.189
    4.881
    4.604
    4.333
    3.993
    3.507
    2.822
    1.916
    0.818
   -0.386
   -1.573
   -2.638
   -3.533
   -4.259
   -4.822
   -5.188
   -5.286
   -5.060
   -4.528
   -3.776
   -2.923
   -2.085
   -1.360
   -0.811
   -0.433
   -0.116
    0.300
    0.932
    1.782
    2.747
    3.693
    4.557
    5.379
    6.258
    7.264
    8.378
    9.512
   10.533
   11.314
   11.790
   12.009
   12.116
   12.251
   12.448
   12.595
   12.507
   12.061
   11.311
   10.480
    9.852
    9.603
    9.712
    9.985
   10.174
   10.093
    9.696
    9.085
    8.428
    7.852
    7.377
    6.914
    6.326
    5.487
    4.352
    3.016
    1.689
    0.590
   -0.176
   -0.681
   -1.145
   -1.828
   -2.902
   -4.355
   -6.006
   -7.617
   -9.021
  -10.196
  -11.255
  -12.355
  -13.579
  -14.841
  -15.905
  -16.508
  -16.519
  -16.023
  -15.268
  -14.530
  -13.966
  -13.534
  -13.029
  -12.215
  -10.957
   -9.286
   -7.365
   -5.407
   -3.558
   -1.836
   -0.150
    1.602
    3.451
    5.314
    7.036
    8.476
    9.599
   10.484
   11.267
   12.040
   12.805
   13.482
   13.939
   14.041
   13.712
   13.027
   12.242
   11.677
   11.514
   11.670
   11.856
   11.747
   11.156
   10.107
    8.783
    7.402
    6.093
    4.837
    3.499
    1.947
    0.172
   -1.662
   -3.294
   -4.513
   -5.282
   -5.771
   -6.275
   -7.094
   -8.409
  -10.200
  -12.239
  -14.183
  -15.734
  -16.779
  -17.426
  -17.901
  -18.393
  -18.924
  -19.366
  -19.548
  -19.365
  -18.808
  -17.940
  -16.883
  -15.783
  -14.752
  -13.784
  -12.733
  -11.407
   -9.706
   -7.738
   -5.799
   -4.229
   -3.220
   -2.707
   -2.400
   -1.949
   -1.109
    0.149
    1.664
    3.198
    4.599
    5.896
    7.238
    8.750
   10.436
   12.193
   13.870
   15.321
   16.426
   17.101
   17.299
   17.039
   16.424
   15.610
   14.714
   13.732
   12.564
   11.121
    9.443
    7.715
    6.170
    4.947
    4.017
    3.223
    2.390
    1.445
    0.418
   -0.625
   -1.659
   -2.710
   -3.825
   -5.037
   -6.333
   -7.630
   -8.788
   -9.644
  -10.070
  -10.033
   -9.623
   -9.022
   -8.430
   -7.977
   -7.695
   -7.527
   -7.385
   -7.196
   -6.950
   -6.675
   -6.397
   -6.088
   -5.698
   -5.217
   -4.722
   -4.322
   -4.080
   -3.969
   -3.905
   -3.823
   -3.719
   -3.614
   -3.479
   -3.207
   -2.701
   -1.972
   -1.170
   -0.497
   -0.094
    0.019
   -0.083
   -0.277
   -0.468
   -0.620
   -0.765
   -0.982
   -1.346
   -1.860
   -2.410
   -2.776
   -2.741
   -2.215
   -1.307
   -0.251
    0.742
    1.591
    2.342
    3.067
    3.736
    4.182
    4.199
    3.700
    2.812
    1.820
    1.030
    0.635
    0.659
    0.983
    1.417
    1.781
    1.967
    1.980
    1.945
    2.032
    2.335
    2.805
    3.266
    3.528
    3.480
    3.117
    2.494
    1.683
    0.757
   -0.206
   -1.117
   -1.871
   -2.355
   -2.455
   -2.064
   -1.115
    0.351
    2.117
    3.824
    5.118
    5.812
    5.967
    5.838
    5.717
    5.779
    6.017
    6.278
    6.364
    6.125
    5.529
    4.662
