Origin Time       1/5/2013 06:57:12	  UTC
Lat.              33.1 N	
Long.             75.8 E	
Depth (Km)         15.0
Magnitude         5.8
 Region           JK-HP-Border                                                     
 Above details taken from IMD 
    
Station Code      PLM
Station Lat.       32.110  N
Station Long.      76.537  E
Station Height(m) 1285.0
Site Class        B   Vs30 between 375 m/sec to 700 m/sec *  
Record Time       01.05.2013 06:57:23.884 UTC
Sampling Rate     200. Hz
 Record Duration  103.855 Sec.
 Direction         N-S (N positive)
Max. Acceleration     -9.815 cm/sec**2
     
  * For reference see Site Classification link of website 
     
 Base Line Corrected and Low Pass Filtered (Cut Off at 35 Hz) Time History
 Acceleration data in cm/sec**2
    
[...]
       1.752
       1.495
       1.234
       0.977
       0.707
       0.402
       0.050
      -0.346
      -0.764
      -1.176
      -1.553
      -1.869
      -2.105
      -2.247
      -2.293
      -2.251
      -2.140
      -1.976
      -1.766
      -1.501
      -1.174
      -0.793
      -0.390
      -0.012
       0.308
       0.571
       0.807
       1.061
       1.365
       1.715
       2.066
       2.348
       2.491
       2.461
       2.277
       1.995
       1.685
       1.395
       1.137
       0.894
       0.641
       0.363
       0.064
      -0.241
      -0.536
      -0.804
      -1.031
      -1.199
      -1.296
      -1.317
      -1.278
      -1.211
      -1.151
      -1.118
      -1.105
      -1.084
      -1.022
      -0.905
      -0.738
      -0.550
      -0.365
      -0.197
      -0.042
       0.109
       0.260
       0.403
       0.527
       0.632
       0.730
       0.831
       0.931
       1.011
       1.045
       1.020
       0.938
       0.812
       0.659
       0.498
       0.344
       0.202
       0.064
      -0.088
      -0.272
      -0.499
      -0.766
      -1.053
      -1.322
      -1.529
      -1.629
      -1.593
      -1.417
      -1.130
      -0.786
      -0.451
      -0.180
       0.003
       0.112
       0.184
       0.260
       0.358
       0.475
       0.586
       0.665
       0.691
       0.654
       0.560
       0.425
       0.272
       0.115
      -0.048
      -0.228
      -0.430
      -0.634
      -0.810
      -0.931
      -0.999
      -1.038
      -1.071
      -1.097
      -1.083
      -0.986
      -0.781
      -0.479
      -0.125
       0.226
       0.535
       0.792
       1.002
       1.167
       1.285
       1.351
       1.368
       1.346
       1.297
       1.230
       1.143
       1.023
       0.859
       0.653
       0.420
       0.191
      -0.007
      -0.157
      -0.262
      -0.336
      -0.395
      -0.452
      -0.514
      -0.586
      -0.672
      -0.772
      -0.880
      -0.983
      -1.062
      -1.095
      -1.066
      -0.966
      -0.795
      -0.570
      -0.318
      -0.073
       0.131
       0.277
       0.369
       0.430
       0.494
       0.588
       0.716
       0.864
       1.005
       1.117
       1.182
       1.193
       1.153
       1.085
       1.027
       1.010
       1.041
       1.087
       1.087
       0.981
       0.741
       0.384
      -0.038
      -0.464
      -0.850
      -1.176
      -1.451
      -1.687
      -1.884
      -2.023
      -2.080
      -2.036
      -1.891
      -1.660
      -1.368
      -1.042
      -0.705
      -0.370
      -0.041
       0.287
       0.616
       0.942
       1.243
       1.492
       1.663
       1.745
       1.742
       1.669
       1.537
       1.357
       1.134
       0.870
       0.562
       0.212
      -0.171
      -0.562
      -0.930
      -1.239
      -1.462
      -1.573
      -1.562
      -1.443
      -1.247
      -1.015
      -0.766
      -0.491
      -0.161
       0.248
       0.730
       1.242
       1.714
       2.079
       2.298
       2.361
       2.283
       2.085
       1.783
       1.393
       0.940
       0.456
      -0.028
      -0.493
      -0.938
      -1.369
      -1.776
      -2.129
      -2.386
      -2.514
      -2.504
      -2.374
      -2.155
      -1.877
      -1.554
      -1.191
      -0.792
      -0.373
       0.029
       0.365
       0.595
       0.701
       0.704
       0.648
       0.578
       0.517
       0.463
       0.394
       0.292
       0.158
       0.010
      -0.123
      -0.211
      -0.243
      -0.222
      -0.161
      -0.065
       0.068
       0.240
       0.444
       0.661
       0.872
       1.068
       1.245
       1.400
       1.520
       1.583
       1.571
       1.493
       1.387
       1.296
       1.242
       1.202
       1.124
       0.965
       0.714
       0.407
       0.099
      -0.162
      -0.355
      -0.489
      -0.589
      -0.679
      -0.778
      -0.887
      -0.992
      -1.065
      -1.071
      -0.990
      -0.831
      -0.633
      -0.451
      -0.326
      -0.265
      -0.250
      -0.256
      -0.270
      -0.296
      -0.339
      -0.389
      -0.425
      -0.423
      -0.370
      -0.270
      -0.141
      -0.005
       0.122
       0.226
       0.303
       0.356
       0.396
       0.436
       0.485
       0.548
       0.616
       0.664
       0.658
       0.568
       0.393
       0.162
      -0.079
      -0.285
      -0.432
      -0.520
      -0.559
      -0.572
      -0.578
      -0.590
      -0.611
      -0.629
      -0.631
      -0.604
      -0.540
      -0.432
      -0.278
      -0.088
       0.117
       0.310
       0.476
       0.610
       0.709
       0.763
       0.758
       0.681
       0.539
       0.356
       0.173
       0.029
      -0.049
      -0.058
      -0.009
       0.073
       0.161
       0.220
       0.221
       0.145
       0.000
      -0.185
      -0.362
      -0.490
      -0.549
      -0.549
      -0.527
      -0.522
      -0.552
      -0.598
      -0.611
      -0.544
      -0.383
      -0.163
       0.048
       0.187
       0.229
       0.200
       0.156
       0.141
       0.161
       0.187
       0.178
       0.111
      -0.010
      -0.166
      -0.339
      -0.521
      -0.708
      -0.897
      -1.073
      -1.210
      -1.288
      -1.296
      -1.243
      -1.145
      -1.021
      -0.884
      -0.741
      -0.596
      -0.452
      -0.310
      -0.166
      -0.011
       0.166
       0.376
       0.612
       0.856
       1.079
       1.254
       1.365
       1.411
       1.403
       1.356
       1.289
       1.219
       1.156
       1.097
       1.027
       0.929
       0.798
       0.633
       0.438
       0.212
      -0.044
      -0.317
      -0.584
      -0.819
      -1.000
      -1.117
      -1.171
      -1.166
      -1.105
      -0.993
      -0.843
      -0.676
      -0.513
      -0.364
      -0.223
      -0.079
       0.068
       0.199
       0.288
       0.319
       0.297
       0.241
       0.175
       0.114
       0.063
       0.022
      -0.007
      -0.021
      -0.023
      -0.027
      -0.051
      -0.097
      -0.156
      -0.211
      -0.257
      -0.299
      -0.349
      -0.414
      -0.484
      -0.534
      -0.541
      -0.488
      -0.378
      -0.230
      -0.074
       0.065
       0.182
       0.283
       0.382
       0.485
       0.595
       0.721
       0.873
       1.062
       1.278
       1.492
       1.657
       1.737
       1.713
       1.592
       1.394
       1.148
       0.885
       0.626
       0.372
       0.115
      -0.156
      -0.437
      -0.701
      -0.907
      -1.019
      -1.017
      -0.909
      -0.727
      -0.508
      -0.286
      -0.080
       0.095
       0.230
       0.321
       0.367
       0.375
       0.355
       0.319
       0.280
       0.251
       0.249
       0.285
       0.355
       0.427
       0.459
       0.416
       0.290
       0.107
      -0.092
      -0.268
      -0.397
      -0.471
      -0.493
      -0.470
      -0.419
      -0.366
      -0.345
      -0.381
      -0.471
      -0.584
      -0.667
      -0.669
      -0.564
      -0.367
      -0.123
       0.109
       0.287
       0.398
       0.456
       0.491
       0.535
       0.605
       0.700
       0.800
       0.880
       0.924
       0.937
       0.938
       0.942
       0.936
       0.893
       0.789
       0.625
       0.420
       0.201
      -0.011
      -0.207
      -0.383
      -0.542
      -0.685
      -0.821
      -0.965
      -1.132
      -1.323
      -1.513
      -1.649
      -1.671
      -1.538
      -1.258
      -0.876
      -0.469
      -0.111
       0.147
       0.293
       0.350
       0.362
       0.370
       0.393
       0.421
       0.426
       0.386
       0.296
       0.174
       0.046
      -0.070
      -0.170
      -0.267
      -0.375
      -0.502
      -0.638
      -0.760
      -0.842
      -0.873
      -0.859
      -0.816
      -0.764
      -0.716
      -0.673
      -0.631
      -0.591
      -0.558
      -0.540
      -0.539
      -0.542
      -0.520
      -0.447
      -0.313
      -0.133
       0.055
       0.212
       0.319
       0.385
       0.435
       0.488
       0.552
       0.619
       0.678
       0.720
       0.748
       0.764
       0.767
       0.746
       0.685
       0.576
       0.415
       0.205
      -0.043
      -0.312
      -0.576
      -0.818
      -1.031
      -1.219
      -1.392
      -1.549
      -1.680
      -1.769
      -1.807
      -1.802
      -1.764
      -1.699
      -1.598
      -1.452
      -1.265
      -1.054
      -0.837
      -0.610
      -0.349
      -0.033
       0.332
       0.705
       1.025
       1.241
       1.334
       1.316
       1.226
       1.106
       0.995
       0.916
       0.877
       0.872
       0.875
       0.854
       0.776
       0.629
       0.425
       0.205
       0.016
      -0.105
      -0.142
      -0.095
       0.021
       0.177
       0.335
       0.460
       0.528
       0.541
       0.523
       0.505
       0.512
       0.546
       0.591
       0.620
       0.606
       0.529
       0.386
       0.195
      -0.010
      -0.196
      -0.337
      -0.431
      -0.494
      -0.546
      -0.597
      -0.637
      -0.644
      -0.599
      -0.507
      -0.388
      -0.263
      -0.136
       0.005
       0.178
       0.382
       0.600
       0.800
       0.962
       1.081
       1.166
       1.231
       1.282
       1.313
       1.310
       1.261
       1.164
       1.028
       0.861
       0.682
       0.514
       0.395
       0.355
       0.397
       0.488
       0.561
       0.541
       0.382
       0.087
      -0.289
      -0.668
      -0.985
      -1.207
      -1.331
      -1.375
      -1.355
      -1.278
      -1.147
      -0.967
      -0.749
      -0.518
      -0.302
      -0.120
       0.020
       0.125
       0.204
       0.265
       0.320
       0.379
       0.457
       0.556
       0.658
       0.726
       0.716
       0.598
       0.366
       0.048
      -0.304
      -0.630
      -0.891
      -1.083
      -1.236
      -1.389
      -1.563
      -1.738
      -1.860
      -1.870
      -1.740
      -1.486
      -1.163
      -0.827
      -0.509
      -0.210
       0.080
       0.352
       0.574
       0.711
       0.747
       0.692
       0.565
       0.386
       0.175
      -0.043
      -0.233
      -0.369
      -0.438
      -0.451
      -0.431
      -0.398
      -0.359
      -0.309
      -0.238
      -0.135
       0.005
       0.180
       0.380
       0.591
       0.788
       0.946
       1.041
       1.065
       1.024
       0.936
       0.814
       0.675
       0.531
       0.399
       0.284
       0.179
       0.067
      -0.076
      -0.268
      -0.510
      -0.792
      -1.094
      -1.394
      -1.674
      -1.919
      -2.114
      -2.239
      -2.278
      -2.226
      -2.097
      -1.923
      -1.733
      -1.539
      -1.323
      -1.048
      -0.677
      -0.198
       0.361
       0.948
       1.508
       2.000
       2.403
       2.713
       2.930
       3.058
       3.100
       3.062
       2.947
       2.755
       2.474
       2.094
       1.622
       1.097
       0.583
       0.149
      -0.169
      -0.378
      -0.523
      -0.649
      -0.772
      -0.878
      -0.935
      -0.928
      -0.865
      -0.771
      -0.663
      -0.536
      -0.369
      -0.140
       0.151
       0.484
       0.820
       1.119
       1.342
       1.465
       1.474
       1.374
       1.188
       0.952
       0.709
       0.503
       0.357
       0.275
       0.241
       0.238
       0.262
       0.322
       0.427
       0.570
       0.726
       0.866
       0.976
       1.055
       1.112
       1.155
       1.180
       1.185
       1.171
       1.153
       1.150
       1.179
       1.242
       1.326
       1.405
       1.448
       1.431
       1.343
       1.183
       0.967
       0.718
       0.455
       0.191
      -0.072
      -0.330
      -0.580
      -0.820
      -1.052
      -1.283
      -1.514
      -1.736
      -1.930
      -2.074
      -2.148
      -2.145
      -2.075
      -1.960
      -1.823
      -1.680
      -1.544
      -1.430
      -1.352
      -1.304
      -1.253
      -1.148
      -0.938
      -0.601
      -0.162
       0.313
       0.744
       1.070
       1.271
       1.364
       1.371
       1.306
       1.160
       0.924
       0.595
       0.194
      -0.242
      -0.676
      -1.078
      -1.420
      -1.675
      -1.821
      -1.852
      -1.783
      -1.641
      -1.452
      -1.230
      -0.976
      -0.680
      -0.332
       0.069
       0.508
       0.955
       1.374
       1.735
       2.031
       2.271
       2.467
       2.621
       2.727
       2.783
       2.787
       2.728
       2.578
       2.301
       1.877
       1.311
       0.633
      -0.122
      -0.924
      -1.746
      -2.566
      -3.365
      -4.126
      -4.825
      -5.420
      -5.856
      -6.093
      -6.126
      -5.981
      -5.687
      -5.257
      -4.674
      -3.917
      -2.988
      -1.922
      -0.789
       0.336
       1.395
       2.368
       3.264
       4.107
       4.909
       5.661
       6.335
       6.892
       7.288
       7.470
       7.393
       7.034
       6.414
       5.599
       4.664
       3.665
       2.605
       1.452
       0.158
      -1.292
      -2.862
      -4.453
      -5.936
      -7.199
      -8.188
      -8.909
      -9.404
      -9.706
      -9.815
      -9.712
      -9.378
      -8.809
      -8.005
      -6.963
      -5.681
      -4.185
      -2.526
      -0.770
       1.005
       2.715
       4.278
       5.626
       6.719
       7.541
       8.083
       8.336
       8.295
       7.961
       7.351
       6.503
       5.478
       4.367
       3.273
       2.287
       1.472
       0.854
       0.433
       0.190
       0.093
       0.101
       0.175
       0.281
       0.384
       0.446
       0.441
       0.357
       0.200
      -0.003
      -0.222
      -0.428
      -0.609
      -0.763
      -0.904
      -1.048
      -1.201
      -1.353
      -1.476
      -1.542
      -1.534
      -1.440
      -1.245
      -0.937
      -0.537
      -0.107
       0.266
       0.521
       0.645
       0.665
       0.614
       0.515
       0.367
       0.158
      -0.130
      -0.510
      -0.968
      -1.458
      -1.902
      -2.225
      -2.389
      -2.409
      -2.335
      -2.216
      -2.082
      -1.942
      -1.808
      -1.695
      -1.603
      -1.505
      -1.357
      -1.125
      -0.813
      -0.452
      -0.074
       0.306
       0.687
       1.062
       1.404
       1.668
       1.824
       1.874
       1.855
       1.817
       1.785
       1.752
       1.684
       1.554
       1.357
       1.103
       0.811
       0.493
       0.162
      -0.166
      -0.469
      -0.725
      -0.918
      -1.040
      -1.097
      -1.107
      -1.081
      -1.020
      -0.910
      -0.737
      -0.499
      -0.215
       0.080
       0.358
       0.601
       0.807
       0.979
       1.130
       1.278
       1.443
       1.633
       1.838
       2.029
       2.179
       2.271
       2.309
       2.316
       2.322
       2.346
       2.375
       2.367
       2.269
       2.039
       1.669
       1.188
       0.650
       0.124
      -0.325
      -0.656
      -0.870
      -1.005
      -1.115
      -1.251
      -1.439
      -1.682
      -1.972
      -2.298
      -2.650
      -3.022
      -3.412
      -3.814
      -4.209
      -4.556
      -4.790
      -4.845
      -4.675
      -4.281
      -3.714
      -3.054
      -2.379
      -1.726
      -1.100
      -0.493
       0.083
       0.603
       1.038
       1.385
       1.672
       1.935
       2.185
       2.388
       2.475
       2.386
       2.105
       1.686
       1.221
       0.797
       0.455
       0.193
      -0.016
      -0.183
      -0.302
      -0.354
      -0.330
      -0.240
      -0.106
       0.049
       0.212
       0.376
       0.534
       0.672
       0.776
       0.842
       0.893
       0.974
       1.133
       1.390
       1.723
       2.075
       2.378
       2.585
       2.680
       2.676
       2.592
       2.440
       2.209
       1.875
       1.420
       0.845
       0.178
      -0.549
      -1.302
      -2.058
      -2.794
      -3.478
      -4.062
      -4.481
      -4.663
      -4.553
      -4.136
      -3.454
      -2.591
      -1.652
      -0.727
       0.126
       0.888
       1.577
       2.233
       2.902
       3.616
       4.365
       5.100
       5.742
       6.219
       6.499
       6.603
       6.589
       6.511
       6.395
       6.230
       5.988
       5.645
       5.194
       4.640
       3.991
       3.253
       2.432
       1.540
       0.591
      -0.397
      -1.402
      -2.401
      -3.366
      -4.277
      -5.118
      -5.878
      -6.552
      -7.137
      -7.638
      -8.063
      -8.417
      -8.689
      -8.852
      -8.869
      -8.715
      -8.383
      -7.881
      -7.219
      -6.397
      -5.410
      -4.265
      -2.997
      -1.671
      -0.365
       0.858
       1.962
       2.942
       3.808
       4.570
       5.226
       5.763
       6.170
       6.442
       6.590
       6.638
       6.610
       6.512
       6.327
       6.029
       5.602
       5.058
       4.443
       3.815
       3.215
       2.646
       2.079
       1.480
       0.843
       0.198
      -0.411
      -0.947
      -1.397
      -1.768
      -2.070
      -2.311
      -2.486
      -2.593
      -2.643
      -2.671
      -2.729
      -2.863
      -3.092
      -3.388
      -3.681
      -3.888
      -3.946
      -3.829
      -3.541
      -3.108
      -2.560
      -1.940
      -1.297
      -0.676
      -0.100
       0.426
       0.905
       1.333
       1.692
       1.948
       2.069
       2.035
       1.860
       1.594
       1.295
       0.999
       0.703
       0.375
      -0.020
      -0.491
      -1.016
      -1.552
      -2.057
      -2.497
      -2.846
      -3.088
      -3.219
      -3.244
      -3.174
      -3.022
      -2.796
      -2.501
      -2.149
      -1.749
      -1.309
      -0.835
      -0.326
       0.217
       0.794
       1.401
       2.019
       2.609
       3.115
       3.489
       3.711
       3.791
       3.750
       3.599
       3.334
       2.955
       2.487
       1.984
       1.510
       1.111
       0.792
       0.528
       0.271
      -0.013
      -0.324
      -0.613
      -0.801
      -0.818
      -0.643
      -0.326
       0.036
       0.336
       0.493
       0.473
       0.289
      -0.013
      -0.374
      -0.742
      -1.075
      -1.352
      -1.568
      -1.726
      -1.826
      -1.865
      -1.837
      -1.744
      -1.595
      -1.421
      -1.260
      -1.159
      -1.147
      -1.240
      -1.427
      -1.674
      -1.924
      -2.116
      -2.208
      -2.194
      -2.103
      -1.974
      -1.832
      -1.675
      -1.475
      -1.196
      -0.810
      -0.304
       0.306
       0.970
       1.600
       2.094
       2.369
       2.398
       2.227
       1.947
       1.660
       1.435
       1.291
       1.198
       1.109
       0.980
       0.796
       0.578
       0.366
       0.203
       0.105
       0.053
       0.003
