Origin Time       1/5/2013 06:57:12	 
Lat.              33.1 N	
Long.             75.8 E	
Depth (Km)         15.0
Magnitude         5.8
 Region           JK-HP-Border                                                     
 Above details taken from IMD 
     
Station Code      PLM
Station Lat.       32.110  N
Station Long.      76.537  E
Station Height(m) 1285.0
Site Class        B   Vs30 between 375 m/sec to 700 m/sec *  
Record Time       01.05.2013 06:57:23.884
Sampling Rate     200. Hz
 Record Duration  103.855 Sec.
 Direction         E-W (E positive)
Max. Acceleration      7.050 cm/sec**2
     
  * For reference see Site Classification link of website 
     
 Base Line Corrected and Low Pass Filtered (Cut Off at 35 Hz) Time History
 Acceleration data in cm/sec**2
    
[...]
      -0.187
      -0.161
      -0.140
      -0.115
      -0.078
      -0.029
       0.023
       0.070
       0.104
       0.117
       0.104
       0.065
       0.011
      -0.039
      -0.063
      -0.047
       0.019
       0.141
       0.325
       0.564
       0.834
       1.097
       1.315
       1.469
       1.559
       1.597
       1.585
       1.520
       1.393
       1.211
       0.993
       0.767
       0.557
       0.367
       0.184
      -0.014
      -0.242
      -0.493
      -0.742
      -0.954
      -1.097
      -1.155
      -1.134
      -1.057
      -0.957
      -0.862
      -0.786
      -0.729
      -0.682
      -0.637
      -0.600
      -0.583
      -0.605
      -0.674
      -0.780
      -0.899
      -1.001
      -1.065
      -1.082
      -1.053
      -0.976
      -0.846
      -0.656
      -0.410
      -0.130
       0.150
       0.397
       0.588
       0.722
       0.809
       0.861
       0.882
       0.865
       0.806
       0.715
       0.613
       0.528
       0.479
       0.464
       0.460
       0.437
       0.372
       0.254
       0.087
      -0.115
      -0.333
      -0.542
      -0.718
      -0.841
      -0.901
      -0.906
      -0.874
      -0.835
      -0.808
      -0.801
      -0.804
      -0.792
      -0.742
      -0.641
      -0.496
      -0.326
      -0.158
      -0.007
       0.128
       0.261
       0.406
       0.574
       0.763
       0.962
       1.149
       1.302
       1.404
       1.449
       1.443
       1.396
       1.323
       1.235
       1.148
       1.071
       1.003
       0.932
       0.829
       0.666
       0.428
       0.118
      -0.237
      -0.592
      -0.893
      -1.086
      -1.141
      -1.063
      -0.891
      -0.685
      -0.502
      -0.379
      -0.332
      -0.359
      -0.440
      -0.540
      -0.616
      -0.630
      -0.563
      -0.424
      -0.243
      -0.058
       0.095
       0.191
       0.227
       0.222
       0.207
       0.209
       0.236
       0.277
       0.312
       0.330
       0.337
       0.338
       0.327
       0.282
       0.185
       0.040
      -0.123
      -0.265
      -0.349
      -0.361
      -0.311
      -0.222
      -0.127
      -0.058
      -0.038
      -0.077
      -0.162
      -0.267
      -0.361
      -0.423
      -0.445
      -0.436
      -0.410
      -0.385
      -0.369
      -0.355
      -0.332
      -0.295
      -0.254
      -0.234
      -0.251
      -0.307
      -0.382
      -0.450
      -0.488
      -0.483
      -0.434
      -0.352
      -0.260
      -0.187
      -0.163
      -0.197
      -0.278
      -0.375
      -0.448
      -0.466
      -0.414
      -0.298
      -0.137
       0.042
       0.218
       0.380
       0.530
       0.676
       0.821
       0.961
       1.080
       1.165
       1.212
       1.228
       1.227
       1.217
       1.190
       1.127
       1.014
       0.856
       0.675
       0.489
       0.297
       0.084
      -0.165
      -0.441
      -0.715
      -0.951
      -1.117
      -1.193
      -1.172
      -1.063
      -0.893
      -0.702
      -0.531
      -0.405
      -0.330
      -0.297
      -0.293
      -0.310
      -0.341
      -0.376
      -0.395
      -0.381
      -0.328
      -0.251
      -0.183
      -0.149
      -0.159
      -0.199
      -0.242
      -0.253
      -0.201
      -0.069
       0.137
       0.381
       0.615
       0.792
       0.889
       0.908
       0.863
       0.774
       0.655
       0.518
       0.371
       0.216
       0.046
      -0.151
      -0.383
      -0.637
      -0.884
      -1.092
      -1.241
      -1.330
      -1.371
      -1.368
      -1.319
      -1.215
      -1.053
      -0.845
      -0.610
      -0.369
      -0.134
       0.091
       0.307
       0.515
       0.717
       0.908
       1.079
       1.206
       1.263
       1.229
       1.109
       0.931
       0.735
       0.553
       0.401
       0.276
       0.175
       0.107
       0.086
       0.118
       0.193
       0.280
       0.349
       0.382
       0.376
       0.338
       0.281
       0.218
       0.164
       0.130
       0.119
       0.119
       0.108
       0.066
      -0.014
      -0.128
      -0.264
      -0.415
      -0.571
      -0.723
      -0.857
      -0.963
      -1.034
      -1.065
      -1.049
      -0.979
      -0.851
      -0.674
      -0.465
      -0.240
      -0.004
       0.250
       0.527
       0.818
       1.096
       1.324
       1.472
       1.528
       1.506
       1.441
       1.377
       1.349
       1.371
       1.429
       1.491
       1.519
       1.489
       1.387
       1.204
       0.933
       0.580
       0.172
      -0.240
      -0.605
      -0.886
      -1.077
      -1.198
      -1.274
      -1.323
      -1.343
      -1.323
      -1.250
      -1.121
      -0.939
      -0.714
      -0.459
      -0.191
       0.068
       0.288
       0.432
       0.473
       0.402
       0.246
       0.061
      -0.091
      -0.161
      -0.138
      -0.046
       0.067
       0.155
       0.191
       0.171
       0.107
       0.009
      -0.124
      -0.295
      -0.496
      -0.705
      -0.886
      -1.008
      -1.054
      -1.027
      -0.939
      -0.811
      -0.665
      -0.530
      -0.435
      -0.402
      -0.430
      -0.489
      -0.526
      -0.492
      -0.360
      -0.138
       0.129
       0.374
       0.539
       0.591
       0.531
       0.386
       0.186
      -0.045
      -0.295
      -0.561
      -0.842
      -1.127
      -1.391
      -1.600
      -1.717
      -1.718
      -1.599
      -1.374
      -1.066
      -0.702
      -0.312
       0.078
       0.454
       0.816
       1.171
       1.522
       1.858
       2.154
       2.380
       2.503
       2.498
       2.355
       2.091
       1.754
       1.404
       1.090
       0.834
       0.626
       0.447
       0.282
       0.132
       0.004
      -0.100
      -0.188
      -0.275
      -0.370
      -0.467
      -0.548
      -0.594
      -0.591
      -0.536
      -0.442
      -0.329
      -0.225
      -0.152
      -0.121
      -0.130
      -0.169
      -0.221
      -0.269
      -0.299
      -0.308
      -0.288
      -0.227
      -0.102
       0.099
       0.355
       0.614
       0.809
       0.890
       0.844
       0.693
       0.479
       0.251
       0.053
      -0.072
      -0.087
       0.026
       0.257
       0.559
       0.858
       1.080
       1.172
       1.120
       0.951
       0.720
       0.484
       0.284
       0.137
       0.040
      -0.020
      -0.058
      -0.082
      -0.107
      -0.153
      -0.242
      -0.383
      -0.567
      -0.763
      -0.935
      -1.044
      -1.066
      -1.000
      -0.875
      -0.733
      -0.614
      -0.534
      -0.484
      -0.437
      -0.361
      -0.241
      -0.083
       0.086
       0.224
       0.296
       0.293
       0.228
       0.127
       0.010
      -0.115
      -0.252
      -0.400
      -0.554
      -0.700
      -0.817
      -0.875
      -0.844
      -0.702
      -0.449
      -0.119
       0.222
       0.497
       0.638
       0.611
       0.430
       0.144
      -0.182
      -0.495
      -0.762
      -0.975
      -1.138
      -1.267
      -1.381
      -1.505
      -1.659
      -1.843
      -2.039
      -2.206
      -2.298
      -2.269
      -2.093
      -1.764
      -1.299
      -0.725
      -0.077
       0.602
       1.263
       1.857
       2.342
       2.703
       2.941
       3.076
       3.125
       3.099
       2.995
       2.803
       2.518
       2.152
       1.738
       1.319
       0.925
       0.571
       0.254
      -0.028
      -0.267
      -0.450
      -0.567
      -0.623
      -0.642
      -0.653
      -0.685
      -0.753
      -0.862
      -1.013
      -1.203
      -1.424
      -1.658
      -1.875
      -2.050
      -2.169
      -2.238
      -2.283
      -2.336
      -2.422
      -2.550
      -2.705
      -2.852
      -2.949
      -2.955
      -2.850
      -2.627
      -2.303
      -1.906
      -1.481
      -1.084
      -0.771
      -0.582
      -0.522
      -0.557
      -0.624
      -0.655
      -0.604
      -0.453
      -0.213
       0.092
       0.431
       0.781
       1.119
       1.425
       1.682
       1.878
       2.013
       2.103
       2.170
       2.232
       2.295
       2.350
       2.389
       2.419
       2.458
       2.518
       2.585
       2.618
       2.559
       2.363
       2.007
       1.506
       0.911
       0.300
      -0.244
      -0.662
      -0.938
      -1.091
      -1.165
      -1.193
      -1.185
      -1.132
      -1.026
      -0.877
      -0.710
      -0.552
      -0.408
      -0.267
      -0.115
       0.049
       0.215
       0.371
       0.516
       0.661
       0.813
       0.972
       1.133
       1.293
       1.449
       1.595
       1.710
       1.767
       1.744
       1.638
       1.468
       1.271
       1.093
       0.975
       0.954
       1.049
       1.253
       1.526
       1.814
       2.064
       2.237
       2.311
       2.276
       2.127
       1.880
       1.568
       1.242
       0.944
       0.684
       0.443
       0.197
      -0.057
      -0.299
      -0.503
      -0.658
      -0.773
      -0.862
      -0.934
      -0.979
      -0.973
      -0.887
      -0.699
      -0.405
      -0.027
       0.384
       0.770
       1.080
       1.291
       1.412
       1.470
       1.504
       1.552
       1.641
       1.776
       1.936
       2.081
       2.172
       2.188
       2.121
       1.973
       1.740
       1.417
       1.000
       0.498
      -0.078
      -0.718
      -1.418
      -2.179
      -2.986
      -3.808
      -4.598
      -5.302
      -5.875
      -6.285
      -6.514
      -6.555
      -6.412
      -6.095
      -5.615
      -4.990
      -4.245
      -3.423
      -2.574
      -1.745
      -0.961
      -0.234
       0.434
       1.041
       1.586
       2.079
       2.538
       2.978
       3.402
       3.798
       4.152
       4.448
       4.665
       4.778
       4.750
       4.549
       4.166
       3.627
       2.987
       2.307
       1.623
       0.935
       0.221
      -0.532
      -1.315
      -2.097
      -2.842
      -3.527
      -4.141
      -4.676
      -5.114
      -5.434
      -5.618
      -5.667
      -5.599
      -5.444
      -5.234
      -4.988
      -4.706
      -4.374
      -3.974
      -3.501
      -2.969
      -2.407
      -1.851
      -1.339
      -0.903
      -0.570
      -0.345
      -0.216
      -0.152
      -0.121
      -0.091
      -0.041
       0.043
       0.166
       0.327
       0.521
       0.749
       1.018
       1.336
       1.699
       2.092
       2.496
       2.906
       3.324
       3.738
       4.115
       4.414
       4.613
       4.731
       4.807
       4.855
       4.841
       4.696
       4.360
       3.827
       3.149
       2.405
       1.662
       0.971
       0.363
      -0.140
      -0.535
      -0.835
      -1.068
      -1.254
      -1.402
      -1.509
      -1.577
      -1.608
      -1.597
      -1.523
      -1.355
      -1.084
      -0.741
      -0.376
      -0.028
       0.301
       0.643
       1.028
       1.454
       1.886
       2.279
       2.604
       2.856
       3.042
       3.177
       3.284
       3.395
       3.545
       3.751
       3.988
       4.191
       4.275
       4.166
       3.826
       3.259
       2.499
       1.603
       0.644
      -0.300
      -1.159
      -1.890
      -2.481
      -2.941
      -3.281
      -3.503
      -3.612
      -3.632
      -3.610
      -3.588
      -3.580
      -3.572
      -3.531
      -3.435
      -3.279
      -3.080
      -2.862
      -2.645
      -2.451
      -2.314
      -2.270
      -2.345
      -2.538
      -2.818
      -3.134
      -3.438
      -3.685
      -3.833
      -3.841
      -3.688
      -3.378
      -2.942
      -2.422
      -1.847
      -1.239
      -0.618
      -0.009
       0.561
       1.079
       1.547
       1.978
       2.382
       2.753
       3.064
       3.276
       3.343
       3.232
       2.935
       2.467
       1.868
       1.194
       0.508
      -0.132
      -0.681
      -1.111
      -1.409
      -1.578
      -1.642
      -1.648
      -1.645
      -1.668
      -1.714
      -1.751
      -1.728
      -1.605
      -1.365
      -1.031
      -0.649
      -0.276
       0.045
       0.301
       0.510
       0.711
       0.937
       1.201
       1.491
       1.773
       2.011
       2.175
       2.253
       2.251
       2.180
       2.054
       1.874
       1.637
       1.336
       0.979
       0.590
       0.215
      -0.098
      -0.317
      -0.447
      -0.525
      -0.608
      -0.736
      -0.923
      -1.148
      -1.374
      -1.568
      -1.714
      -1.819
      -1.898
      -1.970
      -2.040
      -2.103
      -2.146
      -2.153
      -2.114
      -2.024
      -1.885
      -1.698
      -1.460
      -1.163
      -0.801
      -0.379
       0.077
       0.532
       0.944
       1.282
       1.526
       1.675
       1.745
       1.767
       1.777
       1.812
       1.901
       2.067
       2.322
       2.664
       3.064
       3.475
       3.850
       4.163
       4.406
       4.579
       4.678
       4.696
       4.634
       4.512
       4.369
       4.240
       4.132
       4.021
       3.864
       3.627
       3.295
       2.869
       2.350
       1.740
       1.046
       0.291
      -0.498
      -1.293
      -2.076
      -2.844
      -3.602
      -4.357
      -5.104
      -5.808
      -6.407
      -6.835
      -7.048
      -7.043
      -6.858
      -6.551
      -6.184
      -5.802
      -5.428
      -5.069
      -4.718
      -4.361
      -3.993
      -3.618
      -3.253
      -2.913
      -2.595
      -2.276
      -1.926
      -1.525
      -1.060
      -0.530
       0.067
       0.726
       1.429
       2.141
       2.817
       3.415
       3.913
       4.310
       4.614
       4.837
       4.984
       5.064
       5.092
       5.084
       5.052
       4.986
       4.862
       4.655
       4.363
       4.012
       3.660
       3.365
       3.173
       3.091
       3.093
       3.122
       3.110
       3.002
       2.766
       2.392
       1.881
       1.245
       0.508
      -0.290
      -1.099
      -1.869
      -2.557
      -3.133
      -3.575
      -3.876
      -4.043
      -4.105
      -4.096
      -4.047
      -3.967
      -3.844
      -3.654
      -3.375
      -3.009
      -2.585
      -2.149
      -1.740
      -1.380
      -1.064
      -0.774
      -0.483
      -0.166
       0.201
       0.632
       1.129
       1.675
       2.237
       2.783
       3.284
       3.723
       4.078
       4.324
       4.436
       4.402
       4.229
       3.934
       3.533
       3.033
       2.438
       1.757
       1.005
       0.191
      -0.673
      -1.572
      -2.470
      -3.321
      -4.079
      -4.723
      -5.258
      -5.703
      -6.065
      -6.325
      -6.450
      -6.406
      -6.173
      -5.751
      -5.165
      -4.461
      -3.698
      -2.934
      -2.205
      -1.524
      -0.890
      -0.302
       0.230
       0.689
       1.059
       1.333
       1.515
       1.615
       1.647
       1.633
       1.604
       1.604
       1.676
       1.845
       2.107
       2.431
       2.771
       3.091
       3.372
       3.612
       3.813
       3.961
       4.026
       3.968
       3.755
       3.385
       2.892
       2.338
       1.791
       1.296
       0.869
       0.502
       0.182
      -0.104
      -0.364
      -0.609
      -0.850
      -1.097
      -1.365
      -1.664
      -2.000
      -2.361
      -2.715
      -3.007
      -3.175
      -3.170
      -2.978
      -2.629
      -2.179
      -1.697
      -1.237
      -0.830
      -0.469
      -0.127
       0.228
       0.605
       0.978
       1.299
       1.534
       1.689
       1.814
       1.967
       2.179
       2.429
       2.662
       2.822
       2.878
       2.838
       2.731
       2.578
       2.374
       2.095
       1.713
       1.219
       0.634
      -0.005
      -0.651
      -1.261
      -1.790
      -2.193
      -2.438
      -2.515
      -2.450
      -2.301
      -2.135
      -2.015
      -1.983
      -2.060
      -2.244
      -2.516
      -2.834
      -3.136
      -3.356
      -3.443
      -3.367
      -3.114
      -2.675
      -2.050
      -1.263
      -0.374
       0.520
       1.309
       1.899
       2.236
       2.326
       2.231
       2.041
       1.839
       1.668
       1.528
       1.382
       1.193
       0.943
       0.640
       0.311
      -0.011
      -0.304
      -0.559
      -0.784
      -0.995
      -1.210
      -1.431
      -1.638
      -1.779
      -1.790
      -1.619
      -1.266
      -0.795
      -0.320
       0.041
       0.201
       0.133
      -0.134
      -0.535
      -0.984
      -1.396
      -1.694
      -1.817
      -1.732
      -1.440
      -0.986
      -0.436
       0.142
       0.703
       1.231
       1.724
       2.178
       2.584
       2.931
       3.223
       3.481
       3.731
       3.984
       4.228
       4.437
       4.580
       4.636
       4.591
       4.430
       4.139
       3.713
       3.163
       2.522
       1.830
       1.111
       0.368
      -0.422
      -1.281
      -2.212
      -3.179
      -4.117
      -4.949
      -5.601
      -6.028
      -6.223
      -6.220
      -6.075
      -5.843
      -5.553
      -5.208
      -4.791
      -4.291
      -3.723
      -3.125
      -2.541
      -2.003
      -1.511
      -1.048
      -0.580
      -0.080
       0.460
       1.017
       1.540
       1.967
       2.240
       2.322
       2.217
       1.973
       1.672
       1.403
       1.228
       1.160
       1.170
       1.202
       1.205
       1.150
       1.052
       0.960
       0.937
       1.026
       1.224
       1.480
       1.725
       1.900
       1.988
       2.017
       2.039
       2.101
       2.217
       2.361
       2.476
       2.499
       2.388
       2.133
       1.759
       1.302
       0.794
       0.251
      -0.315
      -0.893
      -1.470
      -2.037
      -2.587
      -3.110
      -3.592
      -4.019
      -4.381
      -4.665
      -4.856
      -4.929
      -4.853
      -4.598
      -4.155
      -3.541
      -2.796
      -1.954
      -1.036
      -0.048
       0.997
       2.064
       3.091
       4.008
       4.752
       5.274
       5.534
       5.503
       5.167
       4.554
       3.733
       2.798
       1.841
       0.926
       0.094
      -0.631
      -1.228
      -1.678
      -1.972
      -2.106
      -2.077
      -1.874
      -1.492
      -0.936
      -0.233
       0.577
       1.445
       2.318
       3.140
       3.851
       4.397
       4.749
       4.914
       4.933
       4.859
       4.736
       4.590
       4.432
       4.267
       4.087
       3.871
       3.570
       3.131
       2.517
       1.734
       0.831
      -0.114
      -1.028
      -1.860
      -2.586
      -3.203
      -3.720
      -4.151
      -4.502
      -4.780
      -4.990
      -5.146
      -5.270
      -5.371
      -5.434
      -5.419
      -5.284
      -5.007
      -4.589
      -4.043
      -3.385
      -2.631
      -1.808
      -0.953
      -0.099
       0.740
       1.565
       2.371
       3.124
       3.769
       4.262
       4.596
       4.798
       4.895
