Origin Time       1/5/2013 06:57:12	 
Lat.              33.1 N	
Long.             75.8 E	
Depth (Km)         15.0
Magnitude         5.8
 Region           JK-HP-Border                                                     
 Above details taken from IMD 
   
Station Code      PLM
Station Lat.       32.110
Station Long.      76.537
Station Height(m) 1285.0
Site Class        B   Vs30 between 375 m/sec to 700 m/sec *  
Record Time       01.05.2013 06:57:23.884
Sampling Rate     200. Hz
 Record Duration  103.855 Sec.
 Direction         Vert. (Up positive)
Max. Acceleration     -6.296 cm/sec**2
     
  * For reference see Site Classification link of website 
     
 Base Line Corrected and Low Pass Filtered (Cut Off at 35 Hz) Time History
 Acceleration data in cm/sec**2
    
[...]
      -0.493
      -0.445
      -0.287
       0.029
       0.483
       0.996
       1.466
       1.810
       1.994
       2.037
       1.976
       1.829
       1.566
       1.140
       0.545
      -0.144
      -0.791
      -1.267
      -1.509
      -1.542
      -1.442
      -1.282
      -1.083
      -0.808
      -0.410
       0.111
       0.677
       1.161
       1.455
       1.519
       1.380
       1.101
       0.747
       0.388
       0.092
      -0.084
      -0.126
      -0.073
       0.013
       0.093
       0.170
       0.271
       0.394
       0.502
       0.537
       0.471
       0.318
       0.126
      -0.052
      -0.171
      -0.200
      -0.139
      -0.027
       0.070
       0.100
       0.067
       0.026
       0.032
       0.094
       0.169
       0.203
       0.183
       0.143
       0.145
       0.240
       0.447
       0.737
       1.032
       1.235
       1.285
       1.185
       0.984
       0.732
       0.448
       0.128
      -0.225
      -0.593
      -0.961
      -1.319
      -1.650
      -1.909
      -2.043
      -2.015
      -1.836
      -1.550
      -1.206
      -0.841
      -0.484
      -0.166
       0.089
       0.273
       0.400
       0.485
       0.511
       0.441
       0.256
       0.001
      -0.225
      -0.331
      -0.305
      -0.213
      -0.145
      -0.155
      -0.230
      -0.316
      -0.344
      -0.259
      -0.044
       0.270
       0.606
       0.874
       1.025
       1.071
       1.083
       1.134
       1.254
       1.413
       1.536
       1.542
       1.370
       1.000
       0.462
      -0.167
      -0.791
      -1.339
      -1.789
      -2.163
      -2.492
      -2.784
      -3.003
      -3.083
      -2.955
      -2.586
      -2.007
      -1.308
      -0.602
       0.032
       0.578
       1.064
       1.520
       1.933
       2.252
       2.422
       2.422
       2.273
       2.023
       1.717
       1.370
       0.972
       0.501
      -0.055
      -0.683
      -1.343
      -1.976
      -2.512
      -2.881
      -3.033
      -2.961
      -2.699
      -2.302
      -1.826
      -1.323
      -0.851
      -0.463
      -0.178
       0.052
       0.311
       0.656
       1.073
       1.484
       1.807
       1.996
       2.050
       1.995
       1.870
       1.707
       1.517
       1.273
       0.944
       0.542
       0.132
      -0.206
      -0.435
      -0.569
      -0.633
      -0.629
      -0.555
      -0.433
      -0.318
      -0.265
      -0.284
      -0.351
      -0.430
      -0.504
      -0.581
      -0.687
      -0.851
      -1.073
      -1.306
      -1.454
      -1.416
      -1.132
      -0.627
       0.004
       0.635
       1.152
       1.488
       1.630
       1.608
       1.473
       1.284
       1.091
       0.919
       0.775
       0.658
       0.579
       0.564
       0.637
       0.794
       0.988
       1.156
       1.258
       1.301
       1.311
       1.299
       1.236
       1.088
       0.857
       0.596
       0.377
       0.246
       0.195
       0.189
       0.195
       0.192
       0.160
       0.073
      -0.093
      -0.350
      -0.697
      -1.133
      -1.648
      -2.207
      -2.738
      -3.157
      -3.398
      -3.428
      -3.252
      -2.901
      -2.427
      -1.903
      -1.403
      -0.964
      -0.570
      -0.166
       0.283
       0.755
       1.162
       1.407
       1.441
       1.297
       1.072
       0.868
       0.737
       0.655
       0.558
       0.395
       0.158
      -0.125
      -0.414
      -0.662
      -0.814
      -0.832
      -0.718
      -0.526
      -0.324
      -0.143
       0.040
       0.269
       0.567
       0.916
       1.263
       1.537
       1.673
       1.630
       1.427
       1.142
       0.880
       0.716
       0.651
       0.621
       0.541
       0.366
       0.110
      -0.180
      -0.454
      -0.679
      -0.833
      -0.894
      -0.848
      -0.715
      -0.566
      -0.500
      -0.587
      -0.829
      -1.162
      -1.507
      -1.817
      -2.092
      -2.354
      -2.604
      -2.804
      -2.892
      -2.821
      -2.588
      -2.240
      -1.845
      -1.455
      -1.078
      -0.674
      -0.203
       0.324
       0.837
       1.264
       1.588
       1.845
       2.068
       2.238
       2.313
       2.280
       2.179
       2.065
       1.961
       1.847
       1.691
       1.478
       1.213
       0.917
       0.601
       0.268
      -0.075
      -0.399
      -0.661
      -0.849
      -0.999
      -1.173
      -1.387
      -1.589
      -1.694
      -1.661
      -1.534
      -1.404
      -1.339
      -1.327
      -1.286
      -1.125
      -0.802
      -0.340
       0.207
       0.801
       1.434
       2.103
       2.795
       3.472
       4.078
       4.523
       4.701
       4.548
       4.106
       3.508
       2.875
       2.205
       1.394
       0.375
      -0.770
      -1.849
      -2.713
      -3.368
      -3.919
      -4.434
      -4.864
      -5.081
      -4.992
      -4.606
      -4.026
      -3.384
      -2.772
      -2.201
      -1.601
      -0.879
      -0.005
       0.946
       1.819
       2.477
       2.867
       3.021
       3.000
       2.867
       2.676
       2.477
       2.298
       2.122
       1.904
       1.629
       1.359
       1.213
       1.292
       1.609
       2.084
       2.588
       3.010
       3.292
       3.421
       3.405
       3.264
       3.023
       2.721
       2.384
       1.993
       1.470
       0.740
      -0.186
      -1.169
      -2.004
      -2.551
      -2.822
      -2.937
      -3.007
      -3.048
      -2.989
      -2.758
      -2.346
      -1.812
      -1.255
      -0.792
      -0.541
      -0.587
      -0.934
      -1.482
      -2.065
      -2.550
      -2.882
      -3.062
      -3.082
      -2.916
      -2.566
      -2.084
      -1.555
      -1.049
      -0.592
      -0.182
       0.185
       0.489
       0.711
       0.873
       1.049
       1.315
       1.666
       1.992
       2.147
       2.071
       1.856
       1.687
       1.704
       1.896
       2.125
       2.251
       2.246
       2.190
       2.175
       2.211
       2.221
       2.111
       1.857
       1.528
       1.231
       1.026
       0.881
       0.704
       0.423
       0.041
      -0.374
      -0.750
      -1.047
      -1.261
      -1.415
      -1.539
      -1.657
      -1.766
      -1.823
      -1.784
      -1.654
      -1.520
      -1.518
      -1.743
      -2.174
      -2.679
      -3.091
      -3.300
      -3.290
      -3.112
      -2.821
      -2.446
      -2.000
      -1.519
      -1.060
      -0.671
      -0.333
       0.043
       0.567
       1.273
       2.063
       2.751
       3.171
       3.283
       3.184
       3.024
       2.893
       2.775
       2.576
       2.216
       1.685
       1.050
       0.409
      -0.149
      -0.571
      -0.839
      -0.970
      -1.008
      -0.996
      -0.941
      -0.816
      -0.595
      -0.274
       0.116
       0.535
       0.935
       1.252
       1.420
       1.408
       1.248
       1.004
       0.704
       0.326
      -0.154
      -0.701
      -1.231
      -1.668
      -1.976
      -2.142
      -2.141
      -1.955
      -1.612
      -1.191
      -0.778
      -0.412
      -0.090
       0.194
       0.435
       0.628
       0.789
       0.940
       1.091
       1.234
       1.356
       1.442
       1.468
       1.404
       1.245
       1.025
       0.793
       0.556
       0.277
      -0.076
      -0.483
      -0.895
      -1.297
      -1.727
      -2.220
      -2.750
      -3.223
      -3.535
      -3.625
      -3.491
      -3.182
      -2.765
      -2.284
      -1.739
      -1.098
      -0.359
       0.419
       1.138
       1.724
       2.163
       2.491
       2.750
       2.961
       3.113
       3.181
       3.153
       3.048
       2.916
       2.807
       2.742
       2.697
       2.640
       2.557
       2.453
       2.328
       2.167
       1.954
       1.690
       1.391
       1.069
       0.719
       0.330
      -0.088
      -0.483
      -0.796
      -1.001
      -1.119
      -1.193
      -1.236
      -1.235
      -1.187
      -1.140
      -1.171
      -1.308
      -1.493
      -1.615
      -1.609
      -1.514
      -1.443
      -1.487
      -1.667
      -1.946
      -2.280
      -2.636
      -2.976
      -3.234
      -3.327
      -3.199
      -2.841
      -2.290
      -1.608
      -0.856
      -0.085
       0.675
       1.404
       2.099
       2.747
       3.313
       3.730
       3.926
       3.857
       3.530
       2.992
       2.296
       1.484
       0.598
      -0.305
      -1.161
      -1.911
      -2.512
      -2.929
      -3.140
      -3.148
      -2.998
      -2.756
      -2.468
      -2.140
      -1.758
      -1.334
      -0.926
      -0.597
      -0.362
      -0.182
       0.001
       0.210
       0.421
       0.577
       0.627
       0.558
       0.402
       0.216
       0.037
      -0.147
      -0.372
      -0.655
      -0.973
      -1.285
      -1.570
      -1.826
      -2.026
      -2.101
      -1.964
      -1.574
      -0.963
      -0.216
       0.581
       1.374
       2.127
       2.814
       3.419
       3.932
       4.316
       4.485
       4.333
       3.812
       2.989
       2.027
       1.084
       0.231
      -0.558
      -1.326
      -2.048
      -2.623
      -2.935
      -2.932
      -2.677
      -2.321
      -2.043
      -1.964
      -2.090
      -2.328
      -2.543
      -2.629
      -2.538
      -2.277
      -1.887
      -1.428
      -0.971
      -0.569
      -0.219
       0.141
       0.591
       1.157
       1.782
       2.359
       2.799
       3.074
       3.199
       3.198
       3.089
       2.906
       2.695
       2.477
       2.222
       1.875
       1.425
       0.965
       0.649
       0.579
       0.713
       0.903
       1.005
       0.972
       0.845
       0.676
       0.489
       0.294
       0.094
      -0.121
      -0.398
      -0.768
      -1.178
      -1.486
      -1.563
      -1.420
      -1.223
      -1.168
      -1.332
      -1.631
      -1.913
      -2.079
      -2.126
      -2.088
      -1.955
      -1.652
      -1.102
      -0.301
       0.664
       1.649
       2.527
       3.224
       3.716
       3.983
       3.993
       3.705
       3.103
       2.227
       1.182
       0.122
      -0.792
      -1.441
      -1.785
      -1.845
      -1.675
      -1.322
      -0.822
      -0.214
       0.426
       0.992
       1.380
       1.530
       1.445
       1.180
       0.827
       0.473
       0.163
      -0.095
      -0.285
      -0.348
      -0.234
       0.020
       0.261
       0.318
       0.124
      -0.237
      -0.613
      -0.896
      -1.079
      -1.203
      -1.287
      -1.298
      -1.185
      -0.925
      -0.551
      -0.120
       0.320
       0.735
       1.090
       1.331
       1.408
       1.323
       1.134
       0.918
       0.711
       0.488
       0.207
      -0.142
      -0.520
      -0.857
      -1.089
      -1.168
      -1.062
      -0.772
      -0.347
       0.123
       0.544
       0.849
       1.027
       1.116
       1.167
       1.198
       1.174
       1.028
       0.730
       0.323
      -0.088
      -0.397
      -0.552
      -0.561
      -0.472
      -0.347
      -0.242
      -0.173
      -0.100
       0.055
       0.347
       0.740
       1.101
       1.265
       1.125
       0.702
       0.137
      -0.399
      -0.801
      -1.073
      -1.284
      -1.499
      -1.742
      -2.001
      -2.252
      -2.469
      -2.611
      -2.622
      -2.435
      -2.007
      -1.345
      -0.516
       0.361
       1.151
       1.755
       2.140
       2.329
       2.358
       2.232
       1.931
       1.466
       0.922
       0.440
       0.147
       0.097
       0.275
       0.636
       1.129
       1.691
       2.238
       2.688
       3.007
       3.231
       3.415
       3.571
       3.633
       3.497
       3.092
       2.426
       1.562
       0.577
      -0.473
      -1.551
      -2.622
      -3.643
      -4.565
      -5.335
      -5.884
      -6.151
      -6.111
      -5.799
      -5.292
      -4.667
      -3.973
      -3.230
      -2.472
      -1.764
      -1.185
      -0.769
      -0.458
      -0.118
       0.359
       0.952
       1.497
       1.804
       1.807
       1.614
       1.404
       1.279
       1.208
       1.107
       0.957
       0.830
       0.815
       0.920
       1.056
       1.127
       1.113
       1.080
       1.083
       1.095
       1.034
       0.856
       0.591
       0.297
       0.003
      -0.278
      -0.501
      -0.602
      -0.585
      -0.568
      -0.702
      -1.019
      -1.384
      -1.603
      -1.582
      -1.395
      -1.215
      -1.173
      -1.287
      -1.476
      -1.628
      -1.667
      -1.578
      -1.399
      -1.172
      -0.910
      -0.602
      -0.257
       0.072
       0.303
       0.376
       0.280
       0.042
      -0.296
      -0.679
      -1.034
      -1.264
      -1.290
      -1.081
      -0.666
      -0.109
       0.513
       1.126
       1.660
       2.058
       2.298
       2.401
       2.421
       2.406
       2.372
       2.302
       2.170
       1.979
       1.776
       1.621
       1.538
       1.491
       1.403
       1.217
       0.943
       0.649
       0.404
       0.211
       0.004
      -0.316
      -0.820
      -1.513
      -2.327
      -3.153
      -3.893
      -4.510
      -5.043
      -5.554
      -6.027
      -6.296
      -6.104
      -5.292
      -3.979
      -2.528
      -1.287
      -0.341
       0.488
       1.385
       2.312
       3.013
       3.236
       2.956
       2.409
       1.916
       1.642
       1.484
       1.197
       0.663
       0.045
      -0.320
      -0.233
       0.164
       0.503
       0.537
       0.345
       0.208
       0.314
       0.609
       0.910
       1.088
       1.158
       1.215
       1.339
       1.556
       1.850
       2.161
       2.380
       2.407
       2.232
       1.973
       1.768
       1.638
       1.455
       1.085
       0.547
       0.031
      -0.249
      -0.236
      -0.059
       0.115
       0.231
       0.385
       0.705
       1.222
       1.833
       2.361
       2.665
       2.712
       2.571
       2.351
       2.116
       1.859
       1.552
       1.208
       0.872
       0.568
       0.250
      -0.154
      -0.649
      -1.157
      -1.577
      -1.861
      -2.023
      -2.084
      -2.024
      -1.802
      -1.409
      -0.901
      -0.383
       0.042
       0.300
       0.351
       0.166
      -0.276
      -0.962
      -1.800
      -2.621
      -3.253
      -3.626
      -3.790
      -3.820
      -3.715
      -3.412
      -2.888
      -2.228
      -1.574
      -1.029
      -0.614
      -0.305
      -0.073
       0.114
       0.292
       0.487
       0.689
       0.869
       1.018
       1.156
       1.284
       1.363
       1.338
       1.207
       1.029
       0.905
       0.919
       1.098
       1.388
       1.689
       1.908
       2.024
       2.084
       2.146
       2.211
       2.219
       2.109
       1.889
       1.644
       1.462
       1.350
       1.234
       1.019
       0.675
       0.258
      -0.143
      -0.477
      -0.776
      -1.113
      -1.550
      -2.083
      -2.643
      -3.136
      -3.496
      -3.707
      -3.776
      -3.689
      -3.393
      -2.833
      -2.026
      -1.090
      -0.196
       0.514
       0.978
       1.178
       1.109
       0.777
       0.237
      -0.404
      -1.041
      -1.607
      -2.071
      -2.390
      -2.495
      -2.335
      -1.922
      -1.347
      -0.740
      -0.212
       0.188
       0.465
       0.649
       0.749
       0.740
       0.605
       0.379
       0.156
       0.033
       0.067
       0.257
       0.568
       0.952
       1.347
       1.680
       1.890
       1.957
       1.913
       1.826
       1.748
       1.690
       1.607
       1.428
       1.102
       0.649
       0.171
      -0.198
      -0.372
      -0.354
      -0.215
      -0.021
       0.198
       0.448
       0.744
       1.095
       1.480
       1.842
       2.099
       2.185
       2.096
       1.885
       1.620
       1.341
       1.057
       0.756
       0.414
       0.000
      -0.485
      -0.988
      -1.423
      -1.745
      -1.983
      -2.200
      -2.411
      -2.559
      -2.580
      -2.468
      -2.271
      -2.030
      -1.731
      -1.317
      -0.764
      -0.127
       0.470
       0.912
       1.163
       1.280
       1.358
       1.461
       1.583
       1.672
       1.673
       1.566
       1.369
       1.118
       0.857
       0.626
       0.463
       0.389
       0.397
       0.450
       0.501
       0.521
       0.512
       0.497
       0.489
       0.482
       0.452
       0.383
       0.282
       0.162
       0.036
      -0.097
      -0.243
      -0.413
      -0.636
      -0.956
      -1.396
      -1.905
      -2.354
      -2.601
      -2.584
      -2.361
      -2.060
      -1.805
      -1.653
      -1.570
      -1.455
      -1.192
      -0.734
      -0.153
       0.404
       0.813
       1.054
       1.180
       1.235
       1.220
       1.130
       0.985
       0.803
       0.563
       0.231
      -0.166
      -0.514
      -0.678
      -0.594
      -0.314
       0.030
       0.290
       0.370
       0.260
       0.041
      -0.180
      -0.336
      -0.431
      -0.510
      -0.612
      -0.763
      -0.990
      -1.293
      -1.606
      -1.804
      -1.787
      -1.577
      -1.311
      -1.140
      -1.103
      -1.104
      -0.992
      -0.671
      -0.137
       0.552
       1.331
       2.147
       2.933
       3.597
       4.048
       4.259
       4.279
       4.181
       3.979
       3.626
       3.084
       2.392
       1.677
       1.086
       0.731
       0.655
       0.837
       1.194
       1.588
       1.866
       1.927
       1.753
       1.391
       0.888
       0.269
      -0.440
      -1.164
      -1.800
      -2.275
      -2.584
      -2.778
      -2.907
      -2.982
      -2.994
      -2.950
      -2.885
      -2.831
      -2.789
      -2.724
      -2.594
      -2.382
      -2.111
      -1.830
      -1.576
      -1.345
      -1.104
      -0.828
      -0.542
      -0.303
      -0.161
      -0.107
      -0.067
       0.051
       0.289
       0.599
       0.903
       1.170
       1.456
       1.850
       2.392
       3.026
       3.613
       4.022
       4.205
       4.207
       4.108
       3.956
       3.744
       3.450
       3.081
       2.665
       2.219
       1.731
       1.177
       0.550
      -0.133
      -0.864
      -1.652
      -2.501
      -3.371
      -4.163
      -4.762
      -5.104
      -5.214
      -5.187
      -5.110
      -4.981
      -4.709
      -4.190
      -3.419
      -2.514
      -1.654
      -0.968
      -0.487
      -0.176
       0.012
       0.119
       0.186
       0.262
       0.376
       0.527
       0.682
       0.801
       0.860
       0.853
       0.788
       0.690
       0.605
       0.603
       0.739
       1.012
       1.350
       1.653
       1.844
       1.899
       1.828
       1.643
       1.351
       0.969
       0.543
       0.139
      -0.189
      -0.426
      -0.598
      -0.730
