Origin Time       25/11/2007 23:12:20
Lat.              28.6 N 
Long.             77.0 E 
Depth (Km)         20.3
Magnitude         4.3
 Region           DELHI-HARYANA-BORDER-REGION                                      
 Above details taken from IMD 
     
Station Code      PAL
Station Lat.       28.130  N
Station Long.      77.330  E
Station Height(m)    0.0
Site Class        C   Vs30 between 200 m/sec to 375 m/sec *  
Record Time       25.11.2007 23:12:25.924
Sampling Rate     200. Hz
 Record Duration   32.855 Sec.
 Direction         E-W (E positive)
Max. Acceleration      7.549 cm/sec**2
     
  * For reference see Site Classification link of website 
     
 Base Line Corrected and Low Pass Filtered (Cut Off at 35 Hz) Time History
 Acceleration data in cm/sec**2
    
[...]
      -0.148
      -0.627
      -0.830
      -0.605
      -0.084
       0.365
       0.411
       0.046
      -0.404
      -0.560
      -0.311
       0.124
       0.420
       0.425
       0.252
       0.142
       0.232
       0.447
       0.594
       0.561
       0.428
       0.383
       0.522
       0.727
       0.763
       0.509
       0.100
      -0.177
      -0.141
       0.118
       0.327
       0.273
       0.006
      -0.216
      -0.171
       0.107
       0.383
       0.443
       0.275
       0.036
      -0.110
      -0.111
      -0.044
      -0.041
      -0.173
      -0.385
      -0.539
      -0.538
      -0.415
      -0.310
      -0.365
      -0.614
      -0.958
      -1.229
      -1.287
      -1.091
      -0.721
      -0.340
      -0.093
      -0.019
      -0.033
      -0.001
       0.156
       0.404
       0.616
       0.669
       0.546
       0.361
       0.281
       0.400
       0.673
       0.939
       1.046
       0.948
       0.717
       0.470
       0.302
       0.254
       0.303
       0.352
       0.260
      -0.062
      -0.550
      -1.005
      -1.231
      -1.177
      -0.952
      -0.703
      -0.498
      -0.315
      -0.114
       0.087
       0.221
       0.230
       0.111
      -0.077
      -0.240
      -0.294
      -0.198
       0.012
       0.239
       0.382
       0.415
       0.408
       0.472
       0.658
       0.901
       1.057
       0.985
       0.625
       0.041
      -0.586
      -1.014
      -1.063
      -0.746
      -0.287
       0.021
       0.024
      -0.190
      -0.395
      -0.427
      -0.314
      -0.209
      -0.235
      -0.382
      -0.543
      -0.616
      -0.573
      -0.445
      -0.286
      -0.128
       0.017
       0.144
       0.241
       0.277
       0.225
       0.103
       0.000
       0.016
       0.164
       0.326
       0.338
       0.141
      -0.146
      -0.299
      -0.161
       0.219
       0.610
       0.768
       0.626
       0.344
       0.178
       0.275
       0.547
       0.746
       0.678
       0.372
       0.042
      -0.107
      -0.048
       0.072
       0.066
      -0.143
      -0.493
      -0.844
      -1.088
      -1.191
      -1.167
      -1.032
      -0.785
      -0.440
      -0.066
       0.229
       0.342
       0.230
      -0.056
      -0.372
      -0.536
      -0.443
      -0.130
       0.268
       0.631
       0.920
       1.135
       1.251
       1.217
       1.023
       0.737
       0.467
       0.289
       0.216
       0.203
       0.178
       0.092
      -0.027
      -0.083
       0.010
       0.242
       0.492
       0.607
       0.492
       0.164
      -0.247
      -0.561
      -0.655
      -0.562
      -0.459
      -0.524
      -0.768
      -1.015
      -1.055
      -0.838
      -0.519
      -0.326
      -0.378
      -0.606
      -0.817
      -0.843
      -0.641
      -0.278
       0.146
       0.538
       0.815
       0.911
       0.819
       0.618
       0.427
       0.346
       0.403
       0.556
       0.726
       0.819
       0.768
       0.570
       0.318
       0.160
       0.200
       0.417
       0.671
       0.792
       0.689
       0.390
       0.006
      -0.346
      -0.598
      -0.736
      -0.762
      -0.680
      -0.514
      -0.345
      -0.294
      -0.420
      -0.623
      -0.671
      -0.375
       0.228
       0.838
       1.066
       0.710
      -0.068
      -0.818
      -1.103
      -0.792
      -0.156
       0.337
       0.360
      -0.046
      -0.518
      -0.663
      -0.366
       0.135
       0.447
       0.329
      -0.135
      -0.620
      -0.819
      -0.665
      -0.333
      -0.053
       0.092
       0.181
       0.309
       0.467
       0.568
       0.561
       0.465
       0.317
       0.127
      -0.091
      -0.277
      -0.349
      -0.301
      -0.223
      -0.213
      -0.258
      -0.245
      -0.099
       0.116
       0.246
       0.190
       0.010
      -0.095
       0.059
       0.472
       0.924
       1.126
       0.923
       0.420
      -0.068
      -0.230
      -0.002
       0.360
       0.488
       0.236
      -0.195
      -0.450
      -0.352
      -0.035
       0.204
       0.182
      -0.032
      -0.205
      -0.170
       0.018
       0.126
      -0.039
      -0.444
      -0.845
      -0.997
      -0.883
      -0.723
      -0.765
      -1.028
      -1.267
      -1.193
      -0.720
      -0.027
       0.604
       0.981
       1.083
       0.998
       0.821
       0.586
       0.281
      -0.071
      -0.349
      -0.397
      -0.169
       0.187
       0.398
       0.276
      -0.117
      -0.465
      -0.435
       0.045
       0.712
       1.171
       1.186
       0.822
       0.377
       0.169
       0.318
       0.662
       0.887
       0.767
       0.320
      -0.216
      -0.554
      -0.544
      -0.268
       0.013
       0.041
      -0.256
      -0.708
      -1.024
      -0.986
      -0.606
      -0.128
       0.106
      -0.113
      -0.696
      -1.276
      -1.446
      -1.050
      -0.307
       0.332
       0.502
       0.185
      -0.290
      -0.506
      -0.288
       0.170
       0.476
       0.368
      -0.069
      -0.482
      -0.540
      -0.180
       0.401
       0.928
       1.220
       1.223
       0.979
       0.605
       0.265
       0.110
       0.209
       0.491
       0.786
       0.919
       0.813
       0.533
       0.240
       0.114
       0.257
       0.609
       0.950
       1.007
       0.636
      -0.046
      -0.705
      -1.004
      -0.843
      -0.415
      -0.052
       0.020
      -0.189
      -0.493
      -0.712
      -0.784
      -0.742
      -0.636
      -0.494
      -0.350
      -0.248
      -0.209
      -0.217
      -0.237
      -0.220
      -0.109
       0.120
       0.401
       0.573
       0.476
       0.086
      -0.446
      -0.887
      -1.070
      -1.006
      -0.855
      -0.793
      -0.871
      -0.995
      -1.045
      -0.983
      -0.856
      -0.723
      -0.633
      -0.646
      -0.803
      -1.035
      -1.163
      -1.040
      -0.681
      -0.205
       0.306
       0.841
       1.341
       1.649
       1.632
       1.350
       1.077
       1.129
       1.623
       2.359
       2.934
       3.023
       2.635
       2.116
       1.890
       2.144
       2.703
       3.176
       3.218
       2.728
       1.886
       1.038
       0.491
       0.336
       0.436
       0.578
       0.666
       0.779
       1.054
       1.524
       2.052
       2.410
       2.419
       2.040
       1.408
       0.761
       0.290
      -0.010
      -0.342
      -0.954
      -1.965
      -3.285
      -4.634
      -5.657
      -6.128
      -6.087
      -5.802
      -5.553
      -5.448
      -5.394
      -5.186
      -4.637
      -3.686
      -2.480
      -1.337
      -0.545
      -0.134
       0.133
       0.531
       1.132
       1.771
       2.210
       2.314
       2.112
       1.735
       1.331
       1.009
       0.818
       0.729
       0.631
       0.412
       0.070
      -0.260
      -0.408
      -0.312
      -0.082
       0.076
       0.022
      -0.208
      -0.436
      -0.480
      -0.254
       0.199
       0.736
       1.167
       1.355
       1.289
       1.084
       0.906
       0.907
       1.176
       1.684
       2.253
       2.613
       2.571
       2.125
       1.432
       0.658
      -0.124
      -0.905
      -1.663
      -2.324
      -2.786
      -2.995
      -3.024
      -3.062
      -3.259
      -3.555
      -3.691
      -3.410
      -2.678
      -1.719
      -0.870
      -0.396
      -0.359
      -0.602
      -0.814
      -0.676
      -0.023
       1.028
       2.097
       2.739
       2.720
       2.178
       1.541
       1.244
       1.417
       1.782
       1.887
       1.495
       0.772
       0.100
      -0.248
      -0.252
      -0.062
       0.131
       0.172
      -0.017
      -0.378
      -0.715
      -0.774
      -0.378
       0.463
       1.510
       2.376
       2.712
       2.437
       1.861
       1.539
       1.902
       2.897
       3.973
       4.430
       3.896
       2.572
       1.069
      -0.025
      -0.524
      -0.691
      -0.962
      -1.598
      -2.538
      -3.500
      -4.184
      -4.438
      -4.321
      -4.039
      -3.776
      -3.536
      -3.132
      -2.370
      -1.269
      -0.099
       0.794
       1.253
       1.419
       1.614
       2.090
       2.829
       3.535
       3.833
       3.525
       2.726
       1.753
       0.887
       0.216
      -0.319
      -0.768
      -1.073
      -1.133
      -0.942
      -0.654
      -0.474
      -0.493
      -0.622
      -0.699
      -0.668
      -0.622
      -0.708
      -0.991
      -1.433
      -1.955
      -2.476
      -2.902
      -3.141
      -3.138
      -2.895
      -2.439
      -1.783
      -0.937
       0.046
       1.034
       1.841
       2.313
       2.437
       2.350
       2.240
       2.201
       2.156
       1.917
       1.352
       0.541
      -0.224
      -0.634
      -0.593
      -0.264
       0.123
       0.487
       0.934
       1.595
       2.446
       3.274
       3.801
       3.860
       3.502
       2.986
       2.644
       2.687
       3.054
       3.448
       3.529
       3.146
       2.410
       1.570
       0.804
       0.090
      -0.755
      -1.893
      -3.312
      -4.796
      -6.045
      -6.820
      -7.032
      -6.738
      -6.105
      -5.348
      -4.637
      -4.018
      -3.417
      -2.741
      -1.966
      -1.170
      -0.460
       0.122
       0.636
       1.175
       1.738
       2.183
       2.348
       2.245
       2.103
       2.185
       2.557
       3.026
       3.283
       3.117
       2.534
       1.750
       1.025
       0.468
      -0.034
      -0.685
      -1.557
      -2.472
      -3.130
      -3.357
      -3.263
      -3.128
      -3.130
      -3.151
      -2.868
      -2.026
      -0.648
       0.993
       2.568
       3.876
       4.869
       5.542
       5.849
       5.743
       5.266
       4.550
       3.736
       2.892
       1.989
       0.927
      -0.369
      -1.829
      -3.185
      -4.073
      -4.251
      -3.771
      -2.939
      -2.130
      -1.578
      -1.288
      -1.084
      -0.784
      -0.375
      -0.009
       0.190
       0.279
       0.393
       0.538
       0.558
       0.321
      -0.107
      -0.490
      -0.604
      -0.386
       0.035
       0.416
       0.513
       0.196
      -0.452
      -1.110
      -1.361
      -0.970
      -0.090
       0.809
       1.276
       1.179
       0.748
       0.366
       0.299
       0.588
       1.106
       1.659
       2.038
       2.085
       1.805
       1.378
       1.014
       0.783
       0.626
       0.492
       0.376
       0.236
      -0.064
      -0.644
      -1.454
      -2.248
      -2.726
      -2.709
      -2.247
      -1.600
      -1.084
      -0.894
      -1.027
      -1.322
      -1.563
      -1.586
      -1.353
      -0.977
      -0.659
      -0.561
      -0.708
      -0.977
      -1.188
      -1.223
      -1.083
      -0.859
      -0.666
      -0.607
      -0.710
      -0.854
      -0.784
      -0.304
       0.491
       1.223
       1.527
       1.380
       1.143
       1.242
       1.808
       2.590
       3.216
       3.523
       3.647
       3.823
       4.110
       4.321
       4.190
       3.588
       2.618
       1.554
       0.673
       0.092
      -0.315
      -0.833
      -1.667
      -2.757
      -3.807
      -4.509
      -4.747
      -4.621
      -4.331
      -4.052
      -3.860
      -3.714
      -3.461
      -2.920
      -2.038
      -1.001
      -0.144
       0.297
       0.393
       0.483
       0.918
       1.795
       2.878
       3.783
       4.245
       4.281
       4.106
       3.931
       3.780
       3.476
       2.804
       1.713
       0.392
      -0.869
      -1.900
      -2.767
      -3.666
      -4.689
      -5.660
      -6.198
      -5.979
      -5.029
      -3.775
      -2.759
      -2.220
      -1.882
      -1.171
       0.278
       2.253
       4.070
       5.090
       5.167
       4.659
       4.048
       3.567
       3.098
       2.394
       1.391
       0.325
      -0.455
      -0.813
      -0.941
      -1.129
      -1.434
      -1.613
      -1.424
      -0.943
      -0.552
      -0.611
      -1.151
      -1.839
      -2.177
      -1.773
      -0.566
       1.076
       2.499
       3.130
       2.848
       2.073
       1.467
       1.457
       1.895
       2.142
       1.574
       0.122
      -1.597
      -2.712
      -2.739
      -1.909
      -0.929
      -0.391
      -0.332
      -0.286
       0.245
       1.320
       2.477
       3.129
       3.062
       2.606
       2.323
       2.517
       2.970
       3.126
       2.550
       1.261
      -0.308
      -1.636
      -2.422
      -2.697
      -2.695
      -2.631
      -2.569
      -2.467
      -2.296
      -2.069
      -1.803
      -1.500
      -1.187
      -0.901
      -0.634
      -0.335
       0.024
       0.398
       0.720
       0.990
       1.270
       1.562
       1.752
       1.699
       1.389
       0.953
       0.557
       0.283
       0.094
      -0.105
      -0.375
      -0.719
      -1.137
      -1.676
      -2.391
      -3.245
      -4.070
      -4.632
      -4.770
      -4.509
      -4.050
      -3.612
      -3.218
      -2.634
      -1.589
      -0.080
       1.533
       2.762
       3.349
       3.441
       3.462
       3.824
       4.688
       5.878
       6.980
       7.549
       7.335
       6.380
       4.960
       3.441
       2.127
       1.176
       0.591
       0.258
       0.017
      -0.308
      -0.892
      -1.858
      -3.171
      -4.558
      -5.614
      -6.041
      -5.839
      -5.264
      -4.611
      -4.032
      -3.526
      -3.043
      -2.538
      -1.956
      -1.225
      -0.325
       0.667
       1.623
       2.445
       3.098
       3.575
       3.857
       3.935
       3.832
       3.581
       3.170
       2.506
       1.463
       0.016
      -1.645
      -3.129
      -4.042
      -4.234
      -3.892
      -3.349
      -2.784
      -2.108
      -1.137
       0.144
       1.523
       2.733
       3.639
       4.238
       4.538
       4.510
       4.121
       3.388
       2.383
       1.215
       0.015
      -1.069
      -1.890
      -2.357
      -2.490
      -2.429
      -2.347
      -2.349
      -2.422
      -2.495
      -2.512
      -2.464
      -2.352
      -2.170
      -1.919
      -1.634
      -1.333
      -0.975
      -0.516
      -0.009
       0.398
       0.562
       0.452
       0.168
      -0.130
      -0.335
      -0.460
      -0.614
      -0.905
      -1.345
      -1.789
      -1.963
      -1.587
      -0.598
       0.723
       1.863
       2.420
       2.387
       2.147
       2.160
       2.620
       3.363
       4.037
       4.349
       4.178
       3.586
       2.787
       2.084
       1.737
       1.802
       2.068
       2.173
       1.831
       1.000
      -0.118
      -1.196
      -1.947
      -2.271
      -2.279
      -2.198
      -2.193
      -2.267
      -2.268
      -2.017
      -1.453
      -0.704
      -0.032
       0.296
       0.148
      -0.384
      -0.982
      -1.253
      -0.957
      -0.172
       0.727
       1.266
       1.139
       0.369
      -0.733
      -1.760
      -2.418
      -2.639
      -2.554
      -2.359
      -2.189
      -2.071
      -1.983
      -1.891
      -1.743
      -1.455
      -0.955
      -0.277
       0.377
       0.713
       0.549
      -0.019
      -0.653
      -0.994
      -0.876
      -0.408
       0.126
       0.461
       0.499
       0.331
       0.144
       0.135
       0.441
       1.062
       1.810
       2.384
       2.558
       2.347
       2.006
       1.809
       1.789
       1.687
       1.232
       0.469
      -0.212
      -0.405
      -0.049
       0.510
       0.792
       0.552
      -0.039
      -0.538
      -0.551
       0.022
       0.950
       1.782
       2.069
       1.633
       0.748
       0.027
       0.004
       0.702
       1.601
       2.034
       1.685
       0.776
      -0.128
      -0.523
      -0.305
       0.152
       0.287
      -0.197
      -1.084
      -1.834
      -2.038
      -1.746
      -1.411
      -1.494
      -2.077
      -2.779
      -3.072
      -2.716
      -1.941
      -1.228
      -0.863
      -0.698
      -0.356
       0.332
       1.128
       1.652
       1.768
       1.682
       1.680
       1.856
       2.095
       2.243
       2.251
       2.162
       1.995
       1.670
       1.053
       0.109
      -0.990
      -1.915
      -2.396
      -2.415
      -2.218
      -2.105
      -2.214
      -2.431
      -2.493
      -2.186
      -1.521
      -0.724
      -0.035
       0.491
       0.982
       1.599
       2.390
       3.268
       4.064
       4.612
       4.827
       4.713
       4.322
       3.716
       2.960
       2.107
       1.191
       0.244
      -0.680
      -1.501
      -2.146
      -2.605
      -2.949
      -3.251
      -3.463
      -3.431
      -3.055
      -2.428
      -1.791
      -1.360
      -1.175
      -1.102
      -0.952
      -0.637
      -0.239
       0.065
       0.158
       0.096
       0.093
       0.358
       0.907
       1.511
       1.841
       1.700
       1.169
       0.545
       0.130
       0.038
       0.179
       0.380
       0.489
       0.421
       0.177
      -0.116
      -0.209
       0.155
       1.032
       2.119
       2.862
       2.817
       1.997
       0.875
       0.025
      -0.277
      -0.199
      -0.167
      -0.530
      -1.346
      -2.410
      -3.434
      -4.194
      -4.581
      -4.594
      -4.347
      -4.036
      -3.848
      -3.818
      -3.787
      -3.516
      -2.856
      -1.844
      -0.678
       0.365
       1.052
       1.345
       1.430
       1.548
       1.784
       2.017
       2.079
       1.917
       1.625
       1.375
       1.283
       1.318
       1.311
       1.091
       0.622
       0.019
      -0.593
      -1.166
      -1.685
      -2.053
      -2.108
      -1.770
      -1.123
      -0.357
       0.361
       0.945
       1.392
       1.750
       2.067
       2.331
       2.494
       2.526
       2.469
       2.423
       2.477
       2.620
       2.717
       2.609
       2.233
       1.647
       0.956
       0.264
      -0.312
      -0.645
      -0.652
      -0.372
       0.003
       0.198
      -0.007
      -0.641
      -1.512
      -2.323
      -2.836
      -2.984
      -2.831
      -2.481
      -1.992
      -1.378
      -0.662
       0.054
       0.573
       0.711
       0.475
       0.134
       0.082
       0.567
       1.478
       2.388
       2.849
       2.722
       2.234
       1.723
       1.351
       1.072
       0.807
       0.567
       0.423
       0.414
       0.536
       0.762
       1.005
       1.093
       0.838
       0.215
      -0.546
      -1.076
      -1.120
      -0.711
      -0.136
       0.234
       0.116
      -0.542
      -1.507
      -2.313
      -2.516
      -2.021
      -1.203
      -0.640
      -0.637
      -0.979
      -1.145
      -0.791
      -0.073
       0.483
       0.429
      -0.216
      -1.003
      -1.435
      -1.344
      -0.939
      -0.557
      -0.387
      -0.384
      -0.403
      -0.366
