Origin Time       25/11/2007 23:12:20 UTC
Lat.              28.6 N 
Long.             77.0 E 
Depth (Km)         20.3
Magnitude         4.3
 Region           DELHI-HARYANA-BORDER-REGION                                      
 Above details taken from IMD 
    
Station Code      PAL
Station Lat.       28.130  N
Station Long.      77.330  E
Station Height(m)    0.0
Site Class        C   Vs30 between 200 m/sec to 375 m/sec *  
Record Time       25.11.2007 23:12:25.924 UTC
Sampling Rate     200. Hz
 Record Duration   32.855 Sec.
 Direction         N-S (N positive)
Max. Acceleration      6.863 cm/sec**2
     
  * For reference see Site Classification link of website 
     
 Base Line Corrected and Low Pass Filtered (Cut Off at 35 Hz) Time History
 Acceleration data in cm/sec**2
    
[...]
      -0.625
      -0.210
       0.070
       0.042
      -0.179
      -0.332
      -0.263
      -0.028
       0.228
       0.439
       0.653
       0.914
       1.143
       1.173
       0.904
       0.437
       0.024
      -0.125
      -0.015
       0.166
       0.229
       0.133
      -0.030
      -0.149
      -0.180
      -0.133
      -0.040
       0.055
       0.094
       0.038
      -0.102
      -0.268
      -0.416
      -0.537
      -0.631
      -0.648
      -0.511
      -0.214
       0.110
       0.251
       0.090
      -0.294
      -0.667
      -0.794
      -0.591
      -0.156
       0.290
       0.523
       0.433
       0.078
      -0.344
      -0.615
      -0.623
      -0.412
      -0.126
       0.091
       0.176
       0.145
       0.053
      -0.040
      -0.093
      -0.086
      -0.025
       0.044
       0.072
       0.051
       0.031
       0.073
       0.174
       0.272
       0.317
       0.340
       0.407
       0.530
       0.637
       0.656
       0.594
       0.509
       0.419
       0.271
       0.012
      -0.333
      -0.664
      -0.886
      -0.971
      -0.946
      -0.839
      -0.668
      -0.464
      -0.277
      -0.147
      -0.073
      -0.018
       0.052
       0.145
       0.243
       0.312
       0.334
       0.322
       0.323
       0.381
       0.490
       0.604
       0.680
       0.716
       0.717
       0.651
       0.463
       0.160
      -0.132
      -0.253
      -0.157
       0.011
       0.046
      -0.110
      -0.316
      -0.400
      -0.344
      -0.265
      -0.228
      -0.173
      -0.045
       0.065
       0.003
      -0.249
      -0.515
      -0.599
      -0.465
      -0.227
      -0.008
       0.140
       0.214
       0.224
       0.201
       0.190
       0.210
       0.217
       0.152
       0.005
      -0.171
      -0.320
      -0.428
      -0.504
      -0.539
      -0.516
      -0.459
      -0.441
      -0.511
      -0.623
      -0.656
      -0.520
      -0.259
      -0.030
       0.036
      -0.047
      -0.123
      -0.034
       0.248
       0.600
       0.830
       0.818
       0.601
       0.346
       0.231
       0.301
       0.435
       0.471
       0.370
       0.274
       0.376
       0.724
       1.137
       1.338
       1.168
       0.709
       0.205
      -0.129
      -0.252
      -0.293
      -0.410
      -0.640
      -0.880
      -0.991
      -0.934
      -0.779
      -0.595
      -0.360
      -0.030
       0.319
       0.476
       0.286
      -0.143
      -0.479
      -0.441
      -0.058
       0.366
       0.531
       0.389
       0.124
      -0.040
      -0.008
       0.171
       0.380
       0.504
       0.482
       0.339
       0.183
       0.141
       0.249
       0.403
       0.429
       0.247
      -0.053
      -0.280
      -0.308
      -0.183
      -0.060
      -0.046
      -0.116
      -0.172
      -0.161
      -0.127
      -0.149
      -0.259
      -0.403
      -0.489
      -0.456
      -0.323
      -0.181
      -0.133
      -0.216
      -0.370
      -0.498
      -0.543
      -0.517
      -0.434
      -0.280
      -0.070
       0.092
       0.084
      -0.084
      -0.226
      -0.139
       0.169
       0.435
       0.366
      -0.078
      -0.614
      -0.873
      -0.714
      -0.332
      -0.057
      -0.068
      -0.265
      -0.384
      -0.223
       0.200
       0.658
       0.876
       0.722
       0.299
      -0.132
      -0.343
      -0.285
      -0.085
       0.076
       0.090
      -0.031
      -0.175
      -0.201
      -0.034
       0.249
       0.443
       0.374
       0.089
      -0.147
      -0.095
       0.222
       0.532
       0.594
       0.418
       0.218
       0.174
       0.273
       0.393
       0.457
       0.486
       0.513
       0.496
       0.367
       0.135
      -0.086
      -0.179
      -0.121
      -0.003
       0.057
      -0.011
      -0.177
      -0.338
      -0.385
      -0.293
      -0.136
      -0.040
      -0.125
      -0.442
      -0.926
      -1.372
      -1.503
      -1.147
      -0.397
       0.384
       0.780
       0.630
       0.158
      -0.186
      -0.076
       0.451
       1.045
       1.331
       1.190
       0.797
       0.436
       0.266
       0.230
       0.132
      -0.189
      -0.716
      -1.235
      -1.463
      -1.243
      -0.669
      -0.045
       0.315
       0.295
       0.037
      -0.195
      -0.215
      -0.014
       0.282
       0.528
       0.656
       0.680
       0.653
       0.612
       0.541
       0.374
       0.059
      -0.355
      -0.712
      -0.859
      -0.784
      -0.619
      -0.507
      -0.465
      -0.377
      -0.121
       0.282
       0.639
       0.718
       0.451
       0.017
      -0.280
      -0.246
       0.046
       0.319
       0.309
      -0.020
      -0.431
      -0.594
      -0.365
       0.089
       0.440
       0.507
       0.397
       0.347
       0.442
       0.528
       0.399
       0.041
      -0.337
      -0.499
      -0.388
      -0.153
       0.007
       0.014
      -0.047
      -0.033
       0.124
       0.388
       0.672
       0.886
       0.927
       0.698
       0.198
      -0.415
      -0.905
      -1.127
      -1.091
      -0.897
      -0.663
      -0.520
      -0.585
      -0.828
      -1.017
      -0.907
      -0.535
      -0.242
      -0.363
      -0.880
      -1.418
      -1.564
      -1.183
      -0.479
       0.183
       0.507
       0.403
       0.000
      -0.430
      -0.604
      -0.377
       0.172
       0.783
       1.169
       1.210
       1.013
       0.822
       0.839
       1.106
       1.520
       1.925
       2.202
       2.317
       2.297
       2.190
       2.021
       1.802
       1.564
       1.405
       1.467
       1.823
       2.353
       2.768
       2.788
       2.329
       1.542
       0.697
       0.025
      -0.375
      -0.545
      -0.613
      -0.774
      -1.256
      -2.211
      -3.529
      -4.782
      -5.466
      -5.410
      -4.937
      -4.551
      -4.449
      -4.358
      -3.883
      -2.942
      -1.855
      -1.034
      -0.630
      -0.448
      -0.173
       0.357
       1.048
       1.674
       2.059
       2.160
       2.041
       1.803
       1.535
       1.314
       1.232
       1.362
       1.660
       1.904
       1.791
       1.162
       0.160
      -0.860
      -1.627
      -2.178
      -2.759
      -3.471
      -4.080
      -4.211
      -3.733
      -2.882
      -2.011
      -1.272
      -0.577
       0.162
       0.871
       1.401
       1.751
       2.124
       2.766
       3.720
       4.756
       5.544
       5.915
       5.965
       5.880
       5.690
       5.255
       4.472
       3.466
       2.498
       1.712
       0.998
       0.120
      -1.041
      -2.387
      -3.719
      -4.905
      -5.883
      -6.534
      -6.638
      -6.035
      -4.855
      -3.522
      -2.483
      -1.883
      -1.497
      -0.986
      -0.234
       0.561
       1.105
       1.277
       1.197
       1.105
       1.181
       1.450
       1.758
       1.827
       1.426
       0.563
      -0.456
      -1.215
      -1.460
      -1.206
      -0.621
       0.126
       0.866
       1.371
       1.439
       1.067
       0.511
       0.092
      -0.072
      -0.127
      -0.284
      -0.595
      -0.932
      -1.153
      -1.227
      -1.170
      -0.944
      -0.490
       0.143
       0.771
       1.251
       1.645
       2.164
       2.917
       3.729
       4.210
       4.049
       3.275
       2.265
       1.482
       1.149
       1.114
       1.024
       0.625
      -0.063
      -0.827
      -1.476
      -1.978
      -2.421
      -2.861
      -3.218
      -3.316
      -3.023
      -2.370
      -1.550
      -0.793
      -0.231
       0.145
       0.433
       0.739
       1.137
       1.606
       1.990
       2.038
       1.599
       0.818
       0.102
      -0.189
      -0.038
       0.251
       0.373
       0.289
       0.194
       0.272
       0.528
       0.818
       1.000
       1.030
       0.958
       0.867
       0.815
       0.794
       0.718
       0.486
       0.074
      -0.428
      -0.909
      -1.331
      -1.712
      -2.015
      -2.131
      -2.012
      -1.784
      -1.663
      -1.755
      -1.969
      -2.136
      -2.161
      -2.026
      -1.696
      -1.131
      -0.423
       0.138
       0.246
      -0.126
      -0.616
      -0.723
      -0.212
       0.676
       1.399
       1.522
       1.008
       0.196
      -0.471
      -0.690
      -0.388
       0.310
       1.137
       1.763
       1.961
       1.771
       1.503
       1.495
       1.812
       2.164
       2.140
       1.554
       0.592
      -0.349
      -0.973
      -1.273
      -1.480
      -1.855
      -2.474
      -3.143
      -3.533
      -3.453
      -3.037
      -2.625
      -2.399
      -2.154
      -1.516
      -0.415
       0.718
       1.328
       1.313
       1.160
       1.445
       2.205
       2.848
       2.716
       1.724
       0.444
      -0.419
      -0.594
      -0.333
      -0.058
       0.023
      -0.022
      -0.035
       0.063
       0.251
       0.459
       0.614
       0.679
       0.706
       0.820
       1.059
       1.233
       1.043
       0.425
      -0.252
      -0.427
       0.137
       1.103
       1.820
       1.859
       1.328
       0.720
       0.492
       0.742
       1.180
       1.380
       1.084
       0.363
      -0.468
      -1.073
      -1.290
      -1.227
      -1.208
      -1.562
      -2.348
      -3.232
      -3.712
      -3.522
      -2.867
      -2.244
      -1.976
      -1.904
      -1.539
      -0.570
       0.787
       1.938
       2.416
       2.235
       1.815
       1.616
       1.829
       2.292
       2.605
       2.376
       1.526
       0.440
      -0.245
      -0.158
       0.461
       0.961
       0.877
       0.299
      -0.344
      -0.774
      -1.050
      -1.363
      -1.767
      -2.157
      -2.436
      -2.612
      -2.716
      -2.679
      -2.311
      -1.473
      -0.297
       0.778
       1.285
       1.141
       0.799
       0.918
       1.774
       2.950
       3.638
       3.335
       2.301
       1.347
       1.100
       1.448
       1.667
       1.117
      -0.164
      -1.483
      -2.087
      -1.760
      -0.916
      -0.150
       0.243
       0.376
       0.488
       0.659
       0.817
       0.922
       1.085
       1.439
       1.947
       2.357
       2.386
       1.926
       1.115
       0.249
      -0.363
      -0.537
      -0.310
       0.035
       0.137
      -0.156
      -0.615
      -0.814
      -0.544
      -0.044
       0.218
      -0.006
      -0.527
      -0.909
      -0.877
      -0.533
      -0.266
      -0.447
      -1.134
      -1.973
      -2.373
      -1.930
      -0.790
       0.392
       0.986
       0.968
       0.947
       1.549
       2.744
       3.814
       3.992
       3.136
       1.777
       0.554
      -0.331
      -1.132
      -2.129
      -3.278
      -4.261
      -4.821
      -4.986
      -4.990
      -4.998
      -4.928
      -4.556
      -3.780
      -2.789
      -1.929
      -1.389
      -1.033
      -0.556
       0.172
       0.966
       1.514
       1.686
       1.631
       1.581
       1.641
       1.759
       1.851
       1.883
       1.876
       1.874
       1.901
       1.930
       1.924
       1.912
       1.981
       2.145
       2.247
       2.079
       1.600
       0.990
       0.444
      -0.001
      -0.400
      -0.717
      -0.849
      -0.840
      -0.942
      -1.376
      -2.046
      -2.557
      -2.556
      -2.080
      -1.556
      -1.457
      -1.885
      -2.444
      -2.557
      -1.953
      -0.900
       0.050
       0.559
       0.790
       1.205
       2.053
       3.040
       3.520
       3.093
       2.034
       1.111
       0.924
       1.397
       1.918
       1.941
       1.458
       0.922
       0.819
       1.286
       2.057
       2.683
       2.778
       2.177
       0.998
      -0.396
      -1.557
      -2.202
      -2.387
      -2.441
      -2.702
      -3.233
      -3.742
      -3.800
      -3.195
      -2.088
      -0.864
       0.149
       0.790
       0.999
       0.774
       0.224
      -0.396
      -0.823
      -0.994
      -1.089
      -1.340
      -1.803
      -2.315
      -2.643
      -2.667
      -2.446
      -2.178
      -2.054
      -2.099
      -2.104
      -1.736
      -0.784
       0.608
       1.964
       2.786
       2.933
       2.711
       2.571
       2.722
       3.012
       3.140
       2.963
       2.581
       2.200
       1.972
       1.921
       1.950
       1.865
       1.490
       0.826
       0.127
      -0.250
      -0.104
       0.466
       1.147
       1.643
       1.829
       1.764
       1.594
       1.471
       1.503
       1.723
       2.041
       2.237
       2.021
       1.208
      -0.127
      -1.630
      -2.883
      -3.682
      -4.150
      -4.539
      -4.927
      -5.092
      -4.723
      -3.740
      -2.397
      -1.068
       0.047
       1.011
       1.988
       3.004
       3.850
       4.213
       3.918
       3.091
       2.084
       1.239
       0.662
       0.215
      -0.296
      -0.934
      -1.624
      -2.264
      -2.818
      -3.303
      -3.714
      -3.975
      -3.992
      -3.781
      -3.542
      -3.535
      -3.803
      -4.013
      -3.651
      -2.484
      -0.837
       0.643
       1.556
       2.084
       2.773
       3.960
       5.414
       6.530
       6.863
       6.513
       5.990
       5.732
       5.720
       5.527
       4.730
       3.337
       1.809
       0.659
       0.016
      -0.432
      -1.057
      -1.859
      -2.410
      -2.250
      -1.388
      -0.401
       0.007
      -0.411
      -1.270
      -1.944
      -2.151
      -2.189
      -2.600
      -3.573
      -4.672
      -5.148
      -4.558
      -3.091
      -1.400
      -0.134
       0.433
       0.458
       0.335
       0.409
       0.765
       1.200
       1.416
       1.293
       1.023
       0.909
       1.009
       0.981
       0.389
      -0.806
      -2.055
      -2.609
      -2.148
      -1.085
      -0.271
      -0.333
      -1.176
      -2.031
      -2.067
      -1.057
       0.443
       1.564
       1.811
       1.354
       0.761
       0.497
       0.633
       0.910
       0.998
       0.704
       0.060
      -0.702
      -1.250
      -1.327
      -0.901
      -0.185
       0.518
       1.003
       1.227
       1.235
       1.067
       0.784
       0.560
       0.656
       1.197
       1.972
       2.521
       2.469
       1.832
       1.008
       0.483
       0.501
       0.940
       1.436
       1.618
       1.347
       0.818
       0.432
       0.466
       0.797
       0.966
       0.580
      -0.330
      -1.314
      -1.910
      -2.091
      -2.312
      -3.064
      -4.339
      -5.528
      -5.890
      -5.174
      -3.849
      -2.734
      -2.350
      -2.567
      -2.807
      -2.540
      -1.644
      -0.402
       0.703
       1.229
       0.992
       0.212
      -0.518
      -0.537
       0.422
       1.961
       3.262
       3.723
       3.452
       3.109
       3.233
       3.716
       3.914
       3.287
       1.926
       0.525
      -0.161
       0.107
       0.867
       1.313
       0.915
      -0.149
      -1.150
      -1.436
      -0.993
      -0.423
      -0.394
      -1.083
      -2.092
      -2.850
      -3.099
      -3.018
      -2.915
      -2.839
      -2.510
      -1.646
      -0.325
       0.999
       1.880
       2.263
       2.465
       2.800
       3.265
       3.620
       3.673
       3.412
       2.889
       2.093
       1.001
      -0.273
      -1.448
      -2.232
      -2.515
      -2.423
      -2.203
      -2.031
      -1.905
      -1.680
      -1.229
      -0.576
       0.092
       0.542
       0.640
       0.426
       0.092
      -0.115
      -0.019
       0.417
       1.110
       1.899
       2.598
       3.035
       3.125
       2.898
       2.466
       1.941
       1.375
       0.758
       0.054
      -0.718
      -1.438
      -1.922
      -2.044
      -1.836
      -1.455
      -1.052
      -0.665
      -0.249
       0.200
       0.601
       0.860
       0.966
       0.988
       1.005
       1.045
       1.082
       1.068
       0.997
       0.943
       1.026
       1.293
       1.624
       1.749
       1.428
       0.644
      -0.343
      -1.161
      -1.582
      -1.670
      -1.687
      -1.863
      -2.192
      -2.436
      -2.335
      -1.835
      -1.156
      -0.651
      -0.569
      -0.904
      -1.444
      -1.932
      -2.203
      -2.211
      -2.026
      -1.807
      -1.723
      -1.825
      -2.002
      -2.096
      -2.045
      -1.898
      -1.665
      -1.225
      -0.452
       0.526
       1.279
       1.390
       0.892
       0.362
       0.495
       1.527
       3.004
       4.132
       4.370
       3.773
       2.841
       2.092
       1.728
       1.592
       1.393
       0.980
       0.431
      -0.079
      -0.442
      -0.658
      -0.790
      -0.928
      -1.149
      -1.438
      -1.647
      -1.606
      -1.299
      -0.899
      -0.595
      -0.412
      -0.232
       0.025
       0.303
       0.477
       0.465
       0.268
      -0.043
      -0.343
      -0.491
      -0.390
      -0.056
       0.396
       0.806
       1.047
       1.056
       0.835
       0.432
      -0.072
      -0.583
      -1.060
      -1.536
      -2.049
      -2.538
      -2.846
      -2.864
      -2.641
      -2.351
      -2.138
      -1.989
      -1.728
      -1.140
      -0.113
       1.284
       2.825
       4.211
       5.169
       5.535
       5.337
       4.818
       4.335
       4.148
       4.234
       4.321
       4.112
       3.505
       2.628
       1.694
       0.827
       0.036
      -0.696
      -1.364
      -1.988
      -2.676
      -3.524
      -4.453
      -5.188
      -5.442
      -5.154
      -4.553
      -4.005
      -3.739
      -3.654
      -3.368
      -2.515
      -1.082
       0.488
       1.599
       1.959
       1.798
       1.633
       1.834
       2.398
       3.060
       3.536
       3.663
       3.420
       2.914
       2.345
       1.890
       1.568
       1.244
       0.785
       0.190
      -0.473
      -1.193
      -1.997
      -2.789
      -3.311
      -3.332
      -2.880
      -2.250
      -1.749
      -1.462
      -1.262
      -1.012
      -0.715
      -0.472
      -0.359
      -0.389
      -0.548
      -0.814
      -1.121
      -1.341
      -1.334
      -1.053
      -0.588
      -0.100
       0.311
       0.668
       1.062
       1.503
       1.827
       1.787
       1.297
       0.615
       0.210
       0.360
       0.834
       1.021
       0.461
      -0.695
      -1.734
      -1.927
      -1.109
       0.195
       1.180
       1.354
       0.839
       0.175
      -0.149
      -0.023
       0.352
       0.747
       1.071
       1.298
       1.329
       1.040
       0.452
      -0.185
      -0.549
      -0.487
      -0.108
       0.328
       0.611
       0.696
       0.694
       0.758
       0.938
       1.096
       0.990
       0.465
      -0.397
      -1.327
      -2.046
      -2.403
      -2.381
      -2.041
      -1.512
      -0.961
      -0.525
      -0.197
