Origin Time       25/11/2007 23:12:20
Lat.              28.6 N 
Long.             77.0 E 
Depth (Km)         20.3
Magnitude         4.3
 Region           DELHI-HARYANA-BORDER-REGION                                      
 Above details taken from IMD 
   
Station Code      PAL
Station Lat.       28.130
Station Long.      77.330
Station Height(m)    0.0
Site Class        C   Vs30 between 200 m/sec to 375 m/sec *  
Record Time       25.11.2007 23:12:25.924
Sampling Rate     200. Hz
 Record Duration   32.855 Sec.
 Direction         Vert. (Up positive)
Max. Acceleration      8.972 cm/sec**2
     
  * For reference see Site Classification link of website 
     
 Base Line Corrected and Low Pass Filtered (Cut Off at 35 Hz) Time History
 Acceleration data in cm/sec**2
    
[...]
       1.891
       1.605
       0.414
      -0.767
      -1.178
      -0.820
      -0.313
      -0.238
      -0.608
      -0.942
      -0.815
      -0.290
       0.206
       0.359
       0.218
       0.012
      -0.142
      -0.290
      -0.480
      -0.651
      -0.675
      -0.487
      -0.170
       0.085
       0.154
       0.129
       0.246
       0.632
       1.130
       1.425
       1.332
       0.942
       0.508
       0.204
       0.008
      -0.234
      -0.648
      -1.202
      -1.646
      -1.622
      -0.960
       0.064
       0.850
       0.991
       0.639
       0.318
       0.392
       0.753
       0.996
       0.831
       0.312
      -0.280
      -0.717
      -0.965
      -1.087
      -1.072
      -0.858
      -0.513
      -0.271
      -0.307
      -0.489
      -0.420
       0.227
       1.350
       2.360
       2.540
       1.624
       0.106
      -1.059
      -1.168
      -0.309
       0.713
       0.995
       0.252
      -0.952
      -1.662
      -1.343
      -0.304
       0.612
       0.719
      -0.042
      -1.126
      -1.793
      -1.612
      -0.735
       0.266
       0.821
       0.716
       0.189
      -0.266
      -0.276
       0.098
       0.418
       0.285
      -0.259
      -0.743
      -0.651
       0.162
       1.330
       2.211
       2.330
       1.722
       0.880
       0.351
       0.322
       0.525
       0.458
      -0.222
      -1.372
      -2.374
      -2.582
      -1.874
      -0.774
      -0.037
      -0.061
      -0.620
      -1.062
      -0.805
       0.237
       1.583
       2.520
       2.567
       1.752
       0.536
      -0.495
      -0.947
      -0.803
      -0.375
      -0.082
      -0.158
      -0.506
      -0.777
      -0.673
      -0.191
       0.387
       0.720
       0.627
       0.178
      -0.336
      -0.577
      -0.383
       0.114
       0.592
       0.775
       0.635
       0.428
       0.473
       0.787
       0.972
       0.569
      -0.430
      -1.472
      -1.874
      -1.348
      -0.193
       0.906
       1.324
       0.946
       0.274
      -0.003
       0.373
       1.002
       1.185
       0.509
      -0.800
      -2.021
      -2.427
      -1.802
      -0.621
       0.249
       0.159
      -0.786
      -1.725
      -1.676
      -0.376
       1.430
       2.567
       2.363
       1.133
      -0.143
      -0.608
      -0.148
       0.633
       1.014
       0.762
       0.146
      -0.499
      -1.049
      -1.443
      -1.515
      -1.169
      -0.620
      -0.283
      -0.347
      -0.522
      -0.295
       0.499
       1.402
       1.710
       1.178
       0.321
      -0.061
       0.346
       1.082
       1.354
       0.761
      -0.359
      -1.252
      -1.421
      -0.983
      -0.425
      -0.099
      -0.001
       0.049
       0.165
       0.362
       0.644
       1.006
       1.304
       1.206
       0.432
      -0.870
      -2.033
      -2.311
      -1.517
      -0.249
       0.567
       0.441
      -0.300
      -0.821
      -0.512
       0.494
       1.443
       1.611
       0.899
      -0.097
      -0.597
      -0.310
       0.318
       0.542
       0.031
      -0.798
      -1.151
      -0.565
       0.663
       1.672
       1.693
       0.656
      -0.753
      -1.610
      -1.410
      -0.364
       0.832
       1.491
       1.353
       0.640
      -0.191
      -0.739
      -0.812
      -0.489
      -0.105
      -0.067
      -0.509
      -1.098
      -1.301
      -0.903
      -0.256
       0.066
      -0.161
      -0.591
      -0.692
      -0.263
       0.457
       1.116
       1.560
       1.813
       1.873
       1.647
       1.042
       0.096
      -0.996
      -1.942
      -2.462
      -2.404
      -1.814
      -0.953
      -0.211
       0.128
       0.126
       0.156
       0.566
       1.338
       2.097
       2.435
       2.250
       1.774
       1.301
       0.916
       0.498
      -0.038
      -0.599
      -1.039
      -1.365
      -1.708
      -2.089
      -2.289
      -2.007
      -1.161
      -0.043
       0.829
       1.062
       0.643
      -0.107
      -0.789
      -1.122
      -1.019
      -0.592
      -0.082
       0.322
       0.609
       0.866
       1.112
       1.247
       1.153
       0.787
       0.226
      -0.300
      -0.467
      -0.072
       0.759
       1.579
       1.895
       1.489
       0.572
      -0.351
      -0.837
      -0.822
      -0.625
      -0.652
      -1.028
      -1.462
      -1.473
      -0.828
       0.227
       1.155
       1.574
       1.507
       1.235
       0.973
       0.701
       0.268
      -0.375
      -1.107
      -1.776
      -2.326
      -2.699
      -2.675
      -1.949
      -0.500
       1.171
       2.270
       2.318
       1.586
       0.908
       0.954
       1.616
       2.115
       1.752
       0.544
      -0.856
      -1.769
      -1.980
      -1.708
      -1.258
      -0.765
      -0.232
       0.298
       0.686
       0.826
       0.779
       0.689
       0.580
       0.302
      -0.279
      -1.059
      -1.693
      -1.865
      -1.556
      -1.016
      -0.475
       0.049
       0.629
       1.236
       1.764
       2.170
       2.422
       2.311
       1.536
       0.146
      -1.200
      -1.653
      -0.948
       0.266
       0.944
       0.547
      -0.504
      -1.247
      -1.090
      -0.358
       0.029
      -0.522
      -1.634
      -2.262
      -1.656
      -0.030
       1.686
       2.642
       2.596
       1.841
       0.824
      -0.113
      -0.774
      -1.081
      -1.115
      -1.120
      -1.330
      -1.728
      -1.984
      -1.719
      -0.895
       0.059
       0.580
       0.518
       0.348
       0.742
       1.846
       3.011
       3.297
       2.303
       0.535
      -1.019
      -1.683
      -1.583
      -1.417
      -1.740
      -2.433
      -2.826
      -2.289
      -0.720
       1.363
       3.095
       3.725
       3.065
       1.652
       0.446
       0.176
       0.797
       1.484
       1.300
       0.072
      -1.350
      -1.825
      -1.029
       0.178
       0.564
      -0.318
      -1.781
      -2.711
      -2.538
      -1.585
      -0.613
      -0.110
       0.013
       0.139
       0.497
       1.018
       1.512
       1.854
       2.011
       1.981
       1.755
       1.331
       0.726
      -0.017
      -0.813
      -1.532
      -2.016
      -2.139
      -1.911
      -1.513
      -1.184
      -0.970
      -0.595
       0.320
       1.797
       3.218
       3.637
       2.526
       0.328
      -1.730
      -2.496
      -1.777
      -0.520
      -0.058
      -0.974
      -2.523
      -3.182
      -1.911
       0.894
       3.585
       4.468
       3.079
       0.537
      -1.299
      -1.214
       0.468
       2.169
       2.283
       0.416
      -2.306
      -4.069
      -3.689
      -1.434
       1.216
       2.616
       2.098
       0.433
      -0.750
      -0.277
       1.527
       3.044
       2.752
       0.605
      -1.869
      -2.859
      -1.800
       0.173
       1.251
       0.499
      -1.437
      -3.048
      -3.304
      -2.358
      -1.138
      -0.419
      -0.256
      -0.160
       0.322
       1.199
       2.131
       2.778
       2.989
       2.742
       2.116
       1.381
       0.916
       0.854
       0.819
       0.213
      -1.141
      -2.648
      -3.343
      -2.720
      -1.226
       0.073
       0.395
      -0.110
      -0.577
      -0.256
       0.803
       1.803
       1.869
       0.794
      -0.763
      -1.765
      -1.607
      -0.555
       0.476
       0.618
      -0.289
      -1.556
      -2.162
      -1.581
      -0.194
       1.082
       1.562
       1.237
       0.600
       0.129
      -0.054
      -0.118
      -0.200
      -0.195
       0.076
       0.553
       0.916
       0.916
       0.647
       0.431
       0.477
       0.682
       0.734
       0.401
      -0.231
      -0.804
      -1.036
      -1.049
      -1.270
      -1.966
      -2.891
      -3.420
      -3.034
      -1.754
      -0.191
       0.872
       1.088
       0.806
       0.683
       1.042
       1.640
       2.002
       1.865
       1.290
       0.508
      -0.184
      -0.408
       0.178
       1.536
       3.039
       3.786
       3.313
       2.026
       0.858
       0.446
       0.616
       0.639
      -0.029
      -1.231
      -2.281
      -2.594
      -2.142
      -1.341
      -0.597
      -0.027
       0.453
       0.946
       1.524
       2.201
       2.804
       2.924
       2.219
       0.870
      -0.406
      -0.952
      -0.808
      -0.687
      -1.288
      -2.627
      -4.033
      -4.752
      -4.588
      -4.014
      -3.658
      -3.665
      -3.571
      -2.806
      -1.251
       0.731
       2.649
       4.081
       4.641
       4.104
       2.793
       1.660
       1.666
       2.876
       4.209
       4.264
       2.556
      -0.016
      -1.970
      -2.562
      -2.365
      -2.550
      -3.608
      -4.765
      -4.722
      -3.005
      -0.552
       1.083
       1.120
       0.170
      -0.511
      -0.271
       0.479
       0.978
       1.021
       1.047
       1.507
       2.368
       3.208
       3.661
       3.700
       3.510
       3.130
       2.343
       1.044
      -0.345
      -1.079
      -0.846
      -0.236
      -0.248
      -1.279
      -2.657
      -3.263
      -2.640
      -1.454
      -0.824
      -1.226
      -2.086
      -2.395
      -1.621
      -0.057
       1.542
       2.550
       2.770
       2.347
       1.504
       0.402
      -0.778
      -1.742
      -2.181
      -1.999
      -1.385
      -0.655
      -0.070
       0.245
       0.322
       0.305
       0.287
       0.186
      -0.121
      -0.584
      -0.958
      -0.980
      -0.520
       0.322
       1.195
       1.655
       1.453
       0.682
      -0.313
      -1.072
      -1.133
      -0.271
       1.151
       2.157
       1.775
      -0.062
      -2.216
      -3.142
      -2.231
      -0.424
       0.581
      -0.164
      -2.066
      -3.605
      -3.618
      -2.077
       0.117
       1.909
       2.750
       2.747
       2.320
       1.815
       1.391
       1.085
       0.801
       0.331
      -0.395
      -1.016
      -0.881
       0.330
       2.132
       3.450
       3.427
       2.108
       0.394
      -0.706
      -0.848
      -0.461
      -0.190
      -0.295
      -0.493
      -0.291
       0.497
       1.480
       1.934
       1.428
       0.244
      -0.814
      -1.056
      -0.430
       0.480
       0.926
       0.555
      -0.353
      -1.157
      -1.440
      -1.351
      -1.331
      -1.539
      -1.663
      -1.333
      -0.632
      -0.128
      -0.420
      -1.628
      -3.217
      -4.286
      -4.159
      -2.862
      -1.109
       0.221
       0.669
       0.411
       0.015
      -0.013
       0.425
       1.008
       1.292
       1.076
       0.570
       0.253
       0.530
       1.413
       2.442
       2.954
       2.557
       1.416
       0.113
      -0.749
      -0.886
      -0.431
       0.197
       0.550
       0.418
      -0.049
      -0.410
      -0.206
       0.701
       1.960
       2.966
       3.349
       3.220
       2.891
       2.410
       1.501
      -0.003
      -1.750
      -2.987
      -3.172
      -2.509
      -1.830
      -1.877
      -2.602
      -3.177
      -2.699
      -0.979
       1.259
       2.919
       3.355
       2.814
       2.141
       1.997
       2.330
       2.504
       1.881
       0.296
      -1.847
      -3.820
      -4.949
      -4.954
      -4.076
      -2.948
      -2.235
      -2.173
      -2.337
      -1.923
      -0.477
       1.570
       3.118
       3.282
       2.157
       0.769
       0.257
       0.930
       1.993
       2.259
       1.310
      -0.027
      -0.447
       0.557
       2.169
       2.968
       2.169
       0.324
      -1.105
      -0.967
       0.544
       1.977
       1.836
      -0.112
      -2.564
      -3.729
      -2.782
      -0.516
       1.366
       1.673
       0.665
      -0.298
      -0.059
       1.290
       2.575
       2.711
       1.696
       0.458
      -0.137
      -0.004
       0.347
       0.431
       0.089
      -0.650
      -1.737
      -3.007
      -4.051
      -4.382
      -3.883
      -3.017
      -2.431
      -2.273
      -2.017
      -1.080
       0.382
       1.438
       1.283
       0.180
      -0.612
       0.011
       1.891
       3.676
       4.038
       2.869
       1.321
       0.773
       1.733
       3.532
       4.855
       4.681
       3.006
       0.785
      -0.850
      -1.391
      -1.159
      -0.930
      -1.345
      -2.392
      -3.347
      -3.403
      -2.539
      -1.636
      -1.531
      -2.038
      -2.064
      -0.747
       1.560
       3.431
       3.527
       1.752
      -0.592
      -1.827
      -1.248
       0.321
       1.194
       0.212
      -2.244
      -4.436
      -4.635
      -2.558
       0.429
       2.493
       2.752
       1.677
       0.408
      -0.221
      -0.141
       0.241
       0.616
       1.007
       1.452
       1.655
       1.213
       0.187
      -0.740
      -0.839
      -0.043
       0.953
       1.267
       0.577
      -0.549
      -1.079
      -0.439
       0.895
       1.797
       1.531
       0.348
      -0.893
      -1.550
      -1.653
      -1.734
      -2.328
      -3.497
      -4.705
      -5.199
      -4.638
      -3.389
      -2.175
      -1.450
      -1.058
      -0.430
       0.939
       3.121
       5.687
       7.891
       8.972
       8.521
       6.777
       4.539
       2.596
       1.172
      -0.032
      -1.249
      -2.265
      -2.723
      -2.654
      -2.514
      -2.655
      -2.920
      -2.856
      -2.308
      -1.672
      -1.494
      -1.848
      -2.195
      -1.934
      -1.059
      -0.206
      -0.019
      -0.503
      -1.027
      -0.935
      -0.116
       0.993
       1.907
       2.521
       3.060
       3.677
       4.150
       3.952
       2.697
       0.619
      -1.398
      -2.417
      -2.174
      -1.252
      -0.558
      -0.603
      -1.186
      -1.621
      -1.335
      -0.353
       0.712
       1.198
       0.939
       0.332
      -0.067
       0.016
       0.450
       0.889
       1.026
       0.758
       0.217
      -0.272
      -0.337
       0.160
       0.878
       1.109
       0.400
      -0.835
      -1.510
      -0.879
       0.594
       1.493
       0.718
      -1.372
      -3.128
      -3.081
      -1.371
       0.328
       0.419
      -1.061
      -2.496
      -2.281
      -0.334
       1.911
       2.933
       2.522
       1.841
       2.155
       3.513
       4.689
       4.432
       2.709
       0.709
      -0.371
      -0.490
      -0.695
      -1.914
      -3.917
      -5.525
      -5.730
      -4.499
      -2.625
      -0.988
       0.056
       0.756
       1.528
       2.418
       2.985
       2.770
       1.804
       0.508
      -0.839
      -2.263
      -3.688
      -4.635
      -4.541
      -3.312
      -1.495
       0.165
       1.370
       2.506
       4.103
       6.044
       7.409
       7.217
       5.292
       2.420
      -0.263
      -2.060
      -3.058
      -3.809
      -4.658
      -5.394
      -5.540
      -4.853
      -3.440
      -1.530
       0.619
       2.616
       3.974
       4.444
       4.295
       4.135
       4.320
       4.449
       3.569
       1.083
      -2.437
      -5.465
      -6.710
      -6.093
      -4.532
      -2.929
      -1.546
      -0.199
       1.286
       2.844
       4.187
       4.900
       4.614
       3.259
       1.273
      -0.461
      -1.110
      -0.566
       0.315
       0.346
      -0.950
      -2.846
      -3.965
      -3.429
      -1.634
       0.040
       0.383
      -0.628
      -1.847
      -1.977
      -0.664
       1.259
       2.483
       2.253
       0.843
      -0.797
      -1.780
      -1.747
      -0.873
       0.358
       1.430
       2.008
       2.082
       1.896
       1.724
       1.676
       1.729
       1.892
       2.216
       2.577
       2.566
       1.782
       0.288
      -1.289
      -2.210
      -2.250
      -1.848
      -1.634
      -1.789
      -1.858
      -1.241
       0.073
       1.280
       1.414
       0.360
      -0.868
      -1.036
       0.062
       1.285
       1.152
      -0.730
      -3.195
      -4.540
      -4.124
      -2.895
      -2.319
      -2.845
      -3.520
      -3.118
      -1.510
       0.176
       0.773
       0.364
       0.244
       1.533
       3.869
       5.600
       5.335
       3.292
       1.065
       0.107
       0.467
       0.928
       0.291
      -1.494
      -3.362
      -4.149
      -3.582
      -2.355
      -1.309
      -0.628
       0.168
       1.491
       3.099
       4.270
       4.503
       3.917
       2.957
       1.879
       0.647
      -0.763
      -2.129
      -3.052
      -3.191
      -2.506
      -1.380
      -0.357
       0.374
       1.167
       2.441
       4.040
       5.160
       4.951
       3.255
       0.829
      -1.104
      -1.677
      -0.999
      -0.112
      -0.283
      -2.121
      -5.068
      -7.567
      -7.901
      -5.391
      -1.141
       2.528
       3.812
       2.934
       1.917
       2.747
       5.535
       8.307
       8.590
       5.454
       0.340
      -4.007
      -5.602
      -4.560
      -2.686
      -1.842
      -2.503
      -3.586
      -3.535
      -1.697
       1.158
       3.480
       4.076
       2.905
       1.051
      -0.087
       0.134
       1.028
       1.049
      -0.858
      -4.074
      -6.464
      -6.069
      -3.016
       0.245
       0.922
      -1.560
      -4.868
      -5.696
      -2.628
       2.624
       6.642
       7.108
       4.570
       1.774
       1.218
       3.058
       5.123
       4.906
       1.741
      -2.657
      -5.632
      -5.669
      -3.411
      -0.937
      -0.055
      -0.980
      -2.361
      -2.505
      -0.793
       1.823
       3.587
       3.328
       1.365
      -0.837
      -1.873
      -1.415
      -0.244
       0.532
       0.334
      -0.511
      -1.038
      -0.360
       1.633
       4.059
       5.592
       5.489
       4.259
       3.255
       3.383
       4.129
       3.948
       1.757
      -1.885
      -5.055
      -5.988
      -4.505
      -2.142
      -0.904
      -1.689
      -3.656
      -4.959
      -4.231
      -1.692
       0.949
       1.773
       0.195
      -2.442
      -3.791
      -2.314
       1.428
       5.091
       6.361
       4.774
       1.918
      -0.147
      -0.657
      -0.418
      -0.647
      -1.779
      -3.311
      -4.469
      -4.803
      -4.259
      -2.947
      -1.051
       1.032
       2.645
       3.233
       2.884
       2.343
       2.245
       2.317
       1.561
      -0.568
      -3.218
      -4.618
      -3.696
      -1.239
       0.689
       0.625
      -0.967
      -2.218
      -1.657
       0.501
       2.705
       3.550
       2.931
       1.957
       1.823
       2.705
       3.626
       3.353
       1.496
      -1.169
      -3.312
      -3.990
      -3.205
      -1.759
      -0.614
      -0.194
      -0.159
       0.205
       1.306
       2.871
       4.165
       4.584
       4.042
       2.863
       1.400
      -0.147
      -1.580
      -2.578
      -2.867
      -2.518
