Origin Time       1/5/2013 06:57:12	 
Lat.              33.1 N	
Long.             75.8 E	
Depth (Km)         15.0
Magnitude         5.8
 Region           JK-HP-Border                                                     
 Above details taken from IMD 
   
Station Code      PTK
Station Lat.       32.272
Station Long.      75.662
Station Height(m)    0.0
Site Class        C   Vs30 between 200 m/sec to 375 m/sec *  
Record Time       01.05.2013 06:57:39.929
Sampling Rate     200. Hz
 Record Duration   66.890 Sec.
 Direction         Vert. (Up positive)
Max. Acceleration     -6.170 cm/sec**2
     
  * For reference see Site Classification link of website 
     
 Base Line Corrected and Low Pass Filtered (Cut Off at 35 Hz) Time History
 Acceleration data in cm/sec**2
    
[...]
      -0.243
      -0.761
      -1.092
      -1.117
      -0.810
      -0.284
       0.249
       0.598
       0.692
       0.575
       0.353
       0.139
       0.018
      -0.007
      -0.012
      -0.090
      -0.269
      -0.492
      -0.665
      -0.701
      -0.561
      -0.252
       0.186
       0.704
       1.236
       1.674
       1.865
       1.699
       1.200
       0.524
      -0.150
      -0.720
      -1.170
      -1.525
      -1.813
      -2.037
      -2.147
      -2.055
      -1.694
      -1.075
      -0.271
       0.625
       1.531
       2.359
       3.007
       3.376
       3.389
       3.018
       2.320
       1.445
       0.573
      -0.174
      -0.773
      -1.245
      -1.615
      -1.893
      -2.067
      -2.083
      -1.859
      -1.368
      -0.685
       0.048
       0.724
       1.305
       1.785
       2.139
       2.311
       2.217
       1.770
       0.949
      -0.138
      -1.265
      -2.203
      -2.813
      -3.059
      -2.964
      -2.593
      -2.063
      -1.527
      -1.123
      -0.918
      -0.887
      -0.918
      -0.862
      -0.620
      -0.219
       0.209
       0.505
       0.567
       0.381
       0.018
      -0.381
      -0.670
      -0.772
      -0.706
      -0.537
      -0.317
      -0.059
       0.241
       0.589
       0.978
       1.349
       1.585
       1.567
       1.261
       0.729
       0.074
      -0.614
      -1.263
      -1.809
      -2.193
      -2.366
      -2.301
      -2.006
      -1.552
      -1.059
      -0.619
      -0.254
       0.055
       0.321
       0.542
       0.740
       0.953
       1.182
       1.357
       1.369
       1.132
       0.629
      -0.069
      -0.825
      -1.477
      -1.900
      -2.056
      -1.974
      -1.719
      -1.369
      -0.995
      -0.647
      -0.352
      -0.110
       0.123
       0.429
       0.874
       1.411
       1.852
       1.980
       1.703
       1.086
       0.273
      -0.582
      -1.334
      -1.862
      -2.122
      -2.159
      -2.044
      -1.791
      -1.381
      -0.826
      -0.196
       0.423
       0.971
       1.416
       1.756
       2.020
       2.212
       2.252
       1.982
       1.286
       0.200
      -1.066
      -2.222
      -3.008
      -3.292
      -3.109
      -2.614
      -1.968
      -1.266
      -0.541
       0.164
       0.774
       1.208
       1.430
       1.478
       1.452
       1.461
       1.534
       1.576
       1.442
       1.067
       0.524
      -0.031
      -0.441
      -0.598
      -0.485
      -0.219
      -0.029
      -0.101
      -0.425
      -0.793
      -0.961
      -0.824
      -0.462
      -0.073
       0.139
       0.070
      -0.234
      -0.610
      -0.879
      -0.941
      -0.782
      -0.427
       0.102
       0.798
       1.628
       2.469
       3.100
       3.302
       3.016
       2.401
       1.724
       1.194
       0.870
       0.695
       0.564
       0.383
       0.114
      -0.205
      -0.488
      -0.669
      -0.726
      -0.654
      -0.459
      -0.181
       0.101
       0.314
       0.440
       0.504
       0.544
       0.611
       0.766
       1.031
       1.341
       1.563
       1.597
       1.429
       1.123
       0.767
       0.455
       0.248
       0.145
       0.079
      -0.024
      -0.186
      -0.380
      -0.565
      -0.708
      -0.774
      -0.732
      -0.566
      -0.276
       0.108
       0.504
       0.788
       0.868
       0.777
       0.678
       0.757
       1.102
       1.660
       2.258
       2.677
       2.745
       2.430
       1.850
       1.168
       0.471
      -0.258
      -1.069
      -1.962
      -2.850
      -3.576
      -3.957
      -3.857
      -3.248
      -2.210
      -0.896
       0.500
       1.775
       2.757
       3.350
       3.541
       3.358
       2.861
       2.152
       1.366
       0.594
      -0.158
      -0.921
      -1.677
      -2.330
      -2.735
      -2.731
      -2.195
      -1.142
       0.214
       1.524
       2.482
       2.957
       2.982
       2.666
       2.116
       1.402
       0.557
      -0.379
      -1.305
      -2.051
      -2.472
      -2.522
      -2.252
      -1.737
      -1.047
      -0.268
       0.498
       1.165
       1.660
       1.880
       1.707
       1.098
       0.170
      -0.848
      -1.729
      -2.338
      -2.641
      -2.670
      -2.486
      -2.137
      -1.645
      -1.031
      -0.355
       0.299
       0.855
       1.265
       1.503
       1.559
       1.437
       1.134
       0.635
      -0.049
      -0.823
      -1.515
      -1.979
      -2.175
      -2.156
      -1.992
      -1.724
      -1.370
      -0.928
      -0.393
       0.217
       0.826
       1.312
       1.560
       1.492
       1.095
       0.441
      -0.315
      -0.998
      -1.509
      -1.853
      -2.078
      -2.209
      -2.243
      -2.156
      -1.917
      -1.508
      -0.962
      -0.365
       0.202
       0.729
       1.244
       1.749
       2.211
       2.593
       2.856
       2.918
       2.665
       2.044
       1.132
       0.095
      -0.899
      -1.720
      -2.273
      -2.500
      -2.408
      -2.076
      -1.624
      -1.183
      -0.851
      -0.651
      -0.519
      -0.352
      -0.103
       0.186
       0.412
       0.467
       0.296
      -0.052
      -0.423
      -0.633
      -0.597
      -0.368
      -0.059
       0.261
       0.594
       0.968
       1.402
       1.884
       2.349
       2.669
       2.713
       2.437
       1.920
       1.317
       0.782
       0.408
       0.194
       0.040
      -0.172
      -0.477
      -0.783
      -0.936
      -0.830
      -0.467
       0.064
       0.640
       1.161
       1.588
       1.932
       2.188
       2.296
       2.201
       1.930
       1.583
       1.256
       0.974
       0.713
       0.429
       0.081
      -0.338
      -0.753
      -1.037
      -1.113
      -1.035
      -0.936
      -0.900
      -0.905
      -0.857
      -0.664
      -0.279
       0.275
       0.886
       1.399
       1.703
       1.780
       1.684
       1.484
       1.225
       0.910
       0.505
      -0.038
      -0.724
      -1.493
      -2.246
      -2.882
      -3.298
      -3.417
      -3.225
      -2.803
      -2.279
      -1.745
      -1.230
      -0.730
      -0.236
       0.262
       0.755
       1.173
       1.394
       1.336
       1.023
       0.569
       0.090
      -0.343
      -0.703
      -0.989
      -1.199
      -1.310
      -1.280
      -1.092
      -0.793
      -0.464
      -0.145
       0.174
       0.502
       0.800
       1.000
       1.041
       0.895
       0.575
       0.161
      -0.214
      -0.422
      -0.409
      -0.199
       0.132
       0.478
       0.709
       0.729
       0.529
       0.184
      -0.210
      -0.601
      -0.979
      -1.357
      -1.742
      -2.100
      -2.341
      -2.360
      -2.112
      -1.657
      -1.110
      -0.563
      -0.055
       0.414
       0.862
       1.292
       1.656
       1.873
       1.902
       1.800
       1.666
       1.533
       1.333
       0.978
       0.461
      -0.117
      -0.601
      -0.842
      -0.777
      -0.497
      -0.227
      -0.193
      -0.450
      -0.838
      -1.096
      -1.032
      -0.635
      -0.074
       0.399
       0.584
       0.453
       0.140
      -0.169
      -0.355
      -0.413
      -0.423
      -0.484
      -0.641
      -0.837
      -0.942
      -0.846
      -0.544
      -0.133
       0.252
       0.507
       0.608
       0.626
       0.684
       0.861
       1.117
       1.312
       1.308
       1.039
       0.532
      -0.101
      -0.686
      -1.056
      -1.145
      -1.014
      -0.769
      -0.482
      -0.184
       0.087
       0.280
       0.356
       0.298
       0.103
      -0.212
      -0.576
      -0.881
      -1.045
      -1.062
      -0.972
      -0.810
      -0.579
      -0.271
       0.118
       0.561
       0.987
       1.292
       1.400
       1.316
       1.105
       0.841
       0.554
       0.233
      -0.161
      -0.648
      -1.172
      -1.583
      -1.716
      -1.501
      -1.007
      -0.360
       0.345
       1.061
       1.757
       2.393
       2.911
       3.226
       3.232
       2.861
       2.151
       1.255
       0.366
      -0.369
      -0.906
      -1.305
      -1.670
      -2.046
      -2.337
      -2.349
      -1.938
      -1.151
      -0.220
       0.544
       0.901
       0.797
       0.403
       0.037
      -0.023
       0.284
       0.773
       1.149
       1.195
       0.876
       0.338
      -0.181
      -0.475
      -0.473
      -0.256
       0.008
       0.150
       0.055
      -0.297
      -0.817
      -1.341
      -1.688
      -1.718
      -1.337
      -0.525
       0.605
       1.790
       2.714
       3.158
       3.075
       2.563
       1.800
       0.991
       0.291
      -0.264
      -0.746
      -1.221
      -1.640
      -1.852
      -1.711
      -1.169
      -0.304
       0.696
       1.583
       2.162
       2.375
       2.298
       2.041
       1.671
       1.211
       0.688
       0.151
      -0.340
      -0.743
      -1.055
      -1.303
      -1.506
      -1.632
      -1.603
      -1.353
      -0.874
      -0.227
       0.471
       1.074
       1.452
       1.566
       1.484
       1.292
       0.996
       0.529
      -0.141
      -0.954
      -1.776
      -2.451
      -2.821
      -2.755
      -2.223
      -1.324
      -0.246
       0.831
       1.757
       2.404
       2.668
       2.523
       2.046
       1.379
       0.664
      -0.015
      -0.646
      -1.259
      -1.841
      -2.286
      -2.437
      -2.198
      -1.610
      -0.833
      -0.061
       0.535
       0.871
       0.983
       0.978
       0.929
       0.800
       0.529
       0.148
      -0.215
      -0.447
      -0.536
      -0.531
      -0.463
      -0.319
      -0.078
       0.272
       0.720
       1.219
       1.688
       2.053
       2.282
       2.378
       2.330
       2.096
       1.637
       0.951
       0.097
      -0.808
      -1.625
      -2.258
      -2.679
      -2.901
      -2.915
      -2.701
      -2.282
      -1.746
      -1.189
      -0.659
      -0.155
       0.339
       0.836
       1.333
       1.785
       2.109
       2.238
       2.178
       1.995
       1.766
       1.529
       1.273
       0.936
       0.442
      -0.234
      -1.000
      -1.670
      -2.071
      -2.116
      -1.816
      -1.248
      -0.528
       0.218
       0.920
       1.589
       2.254
       2.882
       3.373
       3.627
       3.595
       3.275
       2.696
       1.908
       0.972
      -0.054
      -1.107
      -2.094
      -2.886
      -3.359
      -3.454
      -3.186
      -2.638
      -1.932
      -1.166
      -0.355
       0.561
       1.595
       2.612
       3.347
       3.553
       3.140
       2.229
       1.102
       0.088
      -0.590
      -0.915
      -1.035
      -1.116
      -1.224
      -1.312
      -1.289
      -1.086
      -0.718
      -0.292
       0.052
       0.260
       0.396
       0.550
       0.730
       0.875
       0.950
       0.982
       0.984
       0.893
       0.620
       0.133
      -0.507
      -1.182
      -1.752
      -2.089
      -2.143
      -1.982
      -1.740
      -1.512
      -1.278
      -0.935
      -0.394
       0.313
       1.012
       1.459
       1.499
       1.172
       0.651
       0.097
      -0.447
      -1.028
      -1.693
      -2.427
      -3.129
      -3.619
      -3.714
      -3.327
      -2.524
      -1.483
      -0.405
       0.538
       1.222
       1.605
       1.733
       1.701
       1.569
       1.332
       0.955
       0.426
      -0.223
      -0.911
      -1.518
      -1.941
      -2.154
      -2.199
      -2.120
      -1.914
      -1.577
      -1.165
      -0.775
      -0.471
      -0.248
      -0.049
       0.206
       0.593
       1.123
       1.686
       2.076
       2.111
       1.730
       1.006
       0.097
      -0.791
      -1.459
      -1.784
      -1.782
      -1.581
      -1.347
      -1.201
      -1.170
      -1.185
      -1.119
      -0.890
      -0.518
      -0.110
       0.226
       0.426
       0.462
       0.347
       0.155
      -0.007
      -0.066
      -0.025
       0.066
       0.167
       0.262
       0.358
       0.498
       0.746
       1.120
       1.521
       1.771
       1.714
       1.300
       0.589
      -0.281
      -1.121
      -1.744
      -2.041
      -2.025
      -1.790
      -1.437
      -1.012
      -0.512
       0.084
       0.755
       1.399
       1.862
       2.023
       1.881
       1.545
       1.161
       0.826
       0.529
       0.159
      -0.411
      -1.178
      -1.942
      -2.411
      -2.413
      -2.023
      -1.482
      -1.010
      -0.689
      -0.466
      -0.232
       0.078
       0.411
       0.623
       0.588
       0.310
      -0.069
      -0.367
      -0.480
      -0.420
      -0.294
      -0.227
      -0.275
      -0.381
      -0.429
      -0.338
      -0.117
       0.171
       0.472
       0.753
       1.001
       1.227
       1.469
       1.748
       2.028
       2.212
       2.192
       1.892
       1.291
       0.443
      -0.532
      -1.485
      -2.284
      -2.814
      -2.962
      -2.655
      -1.918
      -0.877
       0.328
       1.603
       2.870
       3.992
       4.786
       5.115
       4.952
       4.371
       3.496
       2.448
       1.285
      -0.017
      -1.499
      -3.098
      -4.594
      -5.695
      -6.170
      -5.929
      -5.018
      -3.585
      -1.839
      -0.003
       1.739
       3.238
       4.348
       4.943
       4.968
       4.484
       3.636
       2.593
       1.471
       0.330
      -0.788
      -1.784
      -2.503
      -2.816
      -2.721
      -2.341
      -1.805
      -1.152
      -0.357
       0.569
       1.523
       2.349
       2.912
       3.153
       3.122
       2.942
       2.721
       2.471
       2.105
       1.532
       0.739
      -0.173
      -1.014
      -1.580
      -1.768
      -1.683
      -1.580
      -1.668
      -1.930
      -2.142
      -2.049
      -1.529
      -0.641
       0.415
       1.384
       2.054
       2.356
       2.358
       2.189
       1.932
       1.590
       1.109
       0.422
      -0.479
      -1.493
      -2.426
      -3.080
      -3.326
      -3.127
      -2.519
      -1.630
      -0.677
       0.120
       0.646
       0.920
       1.021
       0.998
       0.860
       0.606
       0.254
      -0.160
      -0.598
      -1.039
      -1.483
      -1.921
      -2.296
      -2.513
      -2.499
      -2.236
      -1.734
      -0.996
      -0.050
       0.993
       1.948
       2.626
       2.902
       2.744
       2.241
       1.597
       1.040
       0.684
       0.464
       0.239
      -0.071
      -0.425
      -0.715
      -0.847
      -0.784
      -0.565
      -0.298
      -0.112
      -0.098
      -0.263
      -0.544
      -0.839
      -1.042
      -1.073
      -0.899
      -0.530
      -0.007
       0.598
       1.186
       1.657
       1.938
       1.997
       1.817
       1.413
       0.871
       0.343
      -0.035
      -0.213
      -0.221
      -0.111
       0.056
       0.206
       0.274
       0.266
       0.248
       0.263
       0.257
       0.132
      -0.156
      -0.526
      -0.811
      -0.839
      -0.525
       0.078
       0.790
       1.386
       1.687
       1.605
       1.158
       0.469
      -0.262
      -0.846
      -1.192
      -1.344
      -1.417
      -1.513
      -1.664
      -1.822
      -1.888
      -1.777
      -1.473
      -1.030
      -0.526
       0.000
       0.545
       1.130
       1.764
       2.404
       2.922
       3.151
       3.010
       2.567
       1.948
       1.205
       0.299
      -0.758
      -1.807
      -2.600
      -2.933
      -2.728
      -2.028
      -0.987
       0.163
       1.176
       1.888
       2.244
       2.258
       1.971
       1.454
       0.815
       0.194
      -0.259
      -0.427
      -0.290
       0.039
       0.368
       0.561
       0.623
       0.673
       0.827
       1.118
       1.468
       1.713
       1.690
       1.358
       0.841
       0.346
      -0.003
      -0.254
      -0.567
      -1.062
      -1.706
      -2.290
      -2.545
      -2.317
      -1.675
      -0.861
      -0.108
       0.492
       0.984
       1.455
       1.945
       2.411
       2.740
       2.801
       2.540
       2.036
       1.440
       0.860
       0.303
      -0.276
      -0.894
      -1.512
      -2.050
      -2.408
      -2.517
      -2.368
      -2.029
      -1.596
      -1.147
      -0.716
      -0.286
       0.184
       0.707
       1.207
       1.537
       1.602
       1.430
       1.127
       0.775
       0.410
       0.085
      -0.122
      -0.180
      -0.152
      -0.137
      -0.205
      -0.392
      -0.735
      -1.240
      -1.806
      -2.227
      -2.292
      -1.907
      -1.146
      -0.212
       0.659
       1.310
       1.712
       1.934
       2.055
       2.110
       2.086
       1.929
       1.579
       1.019
       0.319
      -0.399
      -1.054
      -1.626
      -2.090
      -2.366
      -2.379
      -2.150
      -1.799
      -1.445
      -1.137
      -0.862
      -0.594
      -0.307
       0.007
       0.328
       0.621
       0.879
       1.132
       1.399
       1.633
       1.742
       1.656
       1.391
       1.040
       0.724
       0.507
       0.346
       0.116
      -0.285
      -0.836
      -1.405
      -1.836
      -2.028
      -1.949
      -1.619
      -1.105
      -0.502
       0.103
       0.640
       1.046
       1.270
       1.301
       1.172
       0.928
       0.579
       0.115
      -0.471
      -1.163
      -1.900
      -2.552
      -2.937
      -2.907
      -2.442
      -1.657
      -0.734
       0.140
       0.805
       1.171
       1.275
       1.257
       1.246
       1.251
       1.172
       0.905
       0.415
      -0.233
      -0.896
      -1.397
      -1.597
      -1.467
      -1.087
      -0.583
      -0.074
       0.363
       0.701
       0.964
       1.181
       1.317
       1.266
       0.928
       0.304
      -0.491
      -1.273
      -1.860
      -2.141
      -2.127
      -1.951
      -1.759
      -1.599
      -1.405
      -1.084
      -0.609
      -0.047
       0.470
       0.796
       0.864
       0.740
       0.584
       0.513
       0.512
       0.459
       0.237
      -0.180
      -0.709
      -1.176
      -1.399
      -1.301
      -0.998
      -0.732
      -0.693
      -0.879
      -1.097
      -1.096
      -0.737
      -0.089
       0.596
       1.037
       1.084
       0.784
       0.301
      -0.210
      -0.663
      -1.042
      -1.356
      -1.589
      -1.661
      -1.480
      -1.046
      -0.498
      -0.031
       0.254
       0.395
       0.506
       0.692
       1.003
       1.407
       1.760
       1.857
       1.565
       0.925
       0.114
      -0.676
      -1.328
      -1.799
      -2.078
      -2.153
      -1.983
      -1.516
      -0.750
       0.205
       1.150
       1.900
       2.379
       2.617
       2.674
       2.566
       2.224
       1.532
       0.449
      -0.872
      -2.106
      -2.923
      -3.155
      -2.837
      -2.141
      -1.293
      -0.504
       0.100
