Origin Time       1/5/2013 06:57:12	 
Lat.              33.1 N	
Long.             75.8 E	
Depth (Km)         15.0
Magnitude         5.8
 Region           JK-HP-Border                                                     
 Above details taken from IMD 
     
Station Code      PTK
Station Lat.       32.272  N
Station Long.      75.662  E
Station Height(m)    0.0
Site Class        C   Vs30 between 200 m/sec to 375 m/sec *  
Record Time       01.05.2013 06:57:39.929
Sampling Rate     200. Hz
 Record Duration   66.890 Sec.
 Direction         E-W (E positive)
Max. Acceleration     -7.140 cm/sec**2
     
  * For reference see Site Classification link of website 
     
 Base Line Corrected and Low Pass Filtered (Cut Off at 35 Hz) Time History
 Acceleration data in cm/sec**2
    
[...]
       0.673
       0.833
       0.999
       1.158
       1.277
       1.341
       1.356
       1.319
       1.209
       1.015
       0.752
       0.444
       0.113
      -0.204
      -0.441
      -0.539
      -0.471
      -0.251
       0.083
       0.473
       0.848
       1.145
       1.352
       1.500
       1.622
       1.717
       1.751
       1.673
       1.435
       1.016
       0.454
      -0.161
      -0.721
      -1.143
      -1.382
      -1.423
      -1.285
      -1.023
      -0.695
      -0.335
       0.034
       0.388
       0.701
       0.970
       1.208
       1.400
       1.492
       1.422
       1.173
       0.781
       0.322
      -0.108
      -0.434
      -0.635
      -0.754
      -0.846
      -0.926
      -0.971
      -0.965
      -0.907
      -0.806
      -0.672
      -0.523
      -0.376
      -0.220
      -0.026
       0.221
       0.514
       0.831
       1.153
       1.454
       1.703
       1.893
       2.039
       2.153
       2.209
       2.169
       2.017
       1.753
       1.379
       0.897
       0.337
      -0.255
      -0.838
      -1.376
      -1.820
      -2.107
      -2.201
      -2.103
      -1.842
      -1.461
      -1.022
      -0.598
      -0.227
       0.106
       0.441
       0.790
       1.125
       1.392
       1.533
       1.497
       1.265
       0.874
       0.403
      -0.058
      -0.432
      -0.659
      -0.718
      -0.646
      -0.524
      -0.424
      -0.361
      -0.301
      -0.194
       0.005
       0.319
       0.725
       1.150
       1.494
       1.688
       1.714
       1.596
       1.373
       1.075
       0.704
       0.236
      -0.354
      -1.053
      -1.797
      -2.502
      -3.094
      -3.512
      -3.713
      -3.682
      -3.450
      -3.069
      -2.587
      -2.031
      -1.430
      -0.813
      -0.204
       0.358
       0.803
       1.053
       1.068
       0.866
       0.503
       0.046
      -0.430
      -0.832
      -1.092
      -1.189
      -1.151
      -1.021
      -0.830
      -0.601
      -0.346
      -0.075
       0.192
       0.405
       0.500
       0.425
       0.164
      -0.269
      -0.821
      -1.403
      -1.908
      -2.273
      -2.489
      -2.573
      -2.537
      -2.375
      -2.080
      -1.637
      -1.040
      -0.316
       0.459
       1.193
       1.816
       2.284
       2.570
       2.663
       2.590
       2.402
       2.142
       1.819
       1.419
       0.934
       0.370
      -0.228
      -0.775
      -1.164
      -1.341
      -1.352
      -1.319
      -1.365
      -1.539
      -1.806
      -2.069
      -2.216
      -2.175
      -1.949
      -1.598
      -1.181
      -0.712
      -0.175
       0.441
       1.116
       1.795
       2.388
       2.790
       2.941
       2.847
       2.567
       2.164
       1.688
       1.177
       0.649
       0.106
      -0.446
      -0.954
      -1.328
      -1.481
      -1.372
      -1.016
      -0.474
       0.153
       0.754
       1.253
       1.637
       1.925
       2.121
       2.193
       2.103
       1.828
       1.372
       0.783
       0.152
      -0.430
      -0.914
      -1.295
      -1.571
      -1.725
      -1.737
      -1.599
      -1.307
      -0.872
      -0.340
       0.215
       0.736
       1.212
       1.651
       2.035
       2.324
       2.489
       2.521
       2.422
       2.204
       1.895
       1.536
       1.167
       0.823
       0.548
       0.383
       0.329
       0.337
       0.345
       0.320
       0.265
       0.220
       0.250
       0.433
       0.801
       1.315
       1.885
       2.428
       2.894
       3.252
       3.478
       3.555
       3.472
       3.227
       2.823
       2.278
       1.620
       0.856
      -0.022
      -1.003
      -2.026
      -2.979
      -3.740
      -4.207
      -4.324
      -4.106
      -3.645
      -3.068
      -2.473
      -1.908
      -1.372
      -0.850
      -0.323
       0.193
       0.640
       0.933
       1.011
       0.863
       0.516
       0.018
      -0.556
      -1.110
      -1.559
      -1.860
      -2.008
      -2.004
      -1.852
      -1.571
      -1.194
      -0.748
      -0.259
       0.230
       0.661
       0.991
       1.199
       1.276
       1.218
       1.045
       0.810
       0.568
       0.346
       0.145
      -0.019
      -0.101
      -0.045
       0.197
       0.637
       1.227
       1.853
       2.389
       2.760
       2.959
       3.020
       2.992
       2.929
       2.880
       2.852
       2.808
       2.687
       2.450
       2.090
       1.636
       1.157
       0.738
       0.441
       0.260
       0.134
      -0.006
      -0.207
      -0.489
      -0.845
      -1.224
      -1.554
      -1.790
      -1.935
      -2.016
      -2.049
      -2.040
      -2.000
      -1.932
      -1.811
      -1.593
      -1.250
      -0.786
      -0.230
       0.362
       0.914
       1.350
       1.639
       1.801
       1.873
       1.879
       1.818
       1.669
       1.401
       0.995
       0.471
      -0.107
      -0.679
      -1.213
      -1.684
      -2.053
      -2.272
      -2.312
      -2.180
      -1.909
      -1.568
      -1.255
      -1.054
      -0.982
      -0.999
      -1.065
      -1.175
      -1.337
      -1.551
      -1.816
      -2.134
      -2.481
      -2.791
      -2.989
      -3.035
      -2.934
      -2.706
      -2.374
      -1.965
      -1.505
      -1.018
      -0.537
      -0.119
       0.178
       0.329
       0.353
       0.273
       0.083
      -0.225
      -0.640
      -1.123
      -1.620
      -2.069
      -2.431
      -2.706
      -2.931
      -3.115
      -3.212
      -3.150
      -2.898
      -2.486
      -1.979
      -1.443
      -0.941
      -0.504
      -0.114
       0.286
       0.739
       1.242
       1.758
       2.242
       2.647
       2.928
       3.070
       3.104
       3.092
       3.084
       3.091
       3.097
       3.062
       2.947
       2.736
       2.452
       2.140
       1.836
       1.561
       1.351
       1.250
       1.272
       1.373
       1.477
       1.520
       1.475
       1.349
       1.181
       1.015
       0.852
       0.633
       0.272
      -0.272
      -0.978
      -1.777
      -2.576
      -3.272
      -3.768
      -4.007
      -3.977
      -3.702
      -3.221
      -2.591
      -1.879
      -1.129
      -0.355
       0.426
       1.158
       1.764
       2.180
       2.375
       2.340
       2.090
       1.673
       1.152
       0.583
       0.013
      -0.494
      -0.861
      -1.031
      -1.001
      -0.810
      -0.516
      -0.188
       0.103
       0.313
       0.438
       0.491
       0.478
       0.404
       0.290
       0.166
       0.050
      -0.052
      -0.122
      -0.128
      -0.056
       0.081
       0.255
       0.443
       0.611
       0.716
       0.729
       0.659
       0.540
       0.406
       0.283
       0.184
       0.104
       0.018
      -0.092
      -0.212
      -0.298
      -0.311
      -0.231
      -0.060
       0.186
       0.463
       0.724
       0.942
       1.117
       1.249
       1.327
       1.342
       1.301
       1.200
       1.018
       0.736
       0.366
      -0.060
      -0.514
      -0.979
      -1.423
      -1.809
      -2.103
      -2.280
      -2.303
      -2.135
      -1.770
      -1.242
      -0.606
       0.079
       0.740
       1.291
       1.658
       1.815
       1.766
       1.535
       1.171
       0.761
       0.392
       0.101
      -0.126
      -0.307
      -0.436
      -0.495
      -0.469
      -0.355
      -0.164
       0.065
       0.268
       0.384
       0.383
       0.261
       0.016
      -0.339
      -0.765
      -1.199
      -1.566
      -1.798
      -1.840
      -1.682
      -1.362
      -0.945
      -0.475
       0.032
       0.563
       1.091
       1.590
       2.035
       2.391
       2.617
       2.682
       2.592
       2.373
       2.055
       1.670
       1.264
       0.885
       0.568
       0.338
       0.218
       0.218
       0.323
       0.502
       0.728
       0.974
       1.189
       1.312
       1.310
       1.197
       1.007
       0.774
       0.524
       0.279
       0.042
      -0.206
      -0.480
      -0.756
      -1.001
      -1.205
      -1.376
      -1.508
      -1.569
      -1.532
      -1.393
      -1.162
      -0.857
      -0.515
      -0.195
       0.054
       0.217
       0.311
       0.358
       0.381
       0.394
       0.392
       0.341
       0.218
       0.035
      -0.171
      -0.382
      -0.604
      -0.836
      -1.050
      -1.200
      -1.245
      -1.160
      -0.956
      -0.693
      -0.465
      -0.351
      -0.372
      -0.505
      -0.706
      -0.923
      -1.099
      -1.200
      -1.229
      -1.215
      -1.170
      -1.077
      -0.922
      -0.707
      -0.450
      -0.169
       0.118
       0.402
       0.681
       0.948
       1.162
       1.261
       1.214
       1.054
       0.849
       0.655
       0.483
       0.321
       0.149
      -0.034
      -0.194
      -0.271
      -0.226
      -0.098
       0.007
      -0.011
      -0.188
      -0.496
      -0.870
      -1.239
      -1.548
      -1.778
      -1.948
      -2.076
      -2.144
      -2.115
      -1.961
      -1.679
      -1.283
      -0.794
      -0.246
       0.321
       0.880
       1.410
       1.875
       2.226
       2.431
       2.498
       2.455
       2.339
       2.187
       2.032
       1.887
       1.743
       1.600
       1.483
       1.414
       1.373
       1.301
       1.145
       0.889
       0.556
       0.194
      -0.127
      -0.340
      -0.417
      -0.379
      -0.272
      -0.143
      -0.033
       0.029
       0.042
       0.043
       0.077
       0.150
       0.228
       0.267
       0.226
       0.079
      -0.174
      -0.488
      -0.781
      -0.982
      -1.055
      -0.990
      -0.796
      -0.498
      -0.140
       0.238
       0.605
       0.936
       1.205
       1.400
       1.537
       1.635
       1.682
       1.641
       1.483
       1.201
       0.800
       0.284
      -0.331
      -1.017
      -1.740
      -2.462
      -3.132
      -3.695
      -4.116
      -4.397
      -4.553
      -4.574
      -4.433
      -4.104
      -3.574
      -2.835
      -1.907
      -0.851
       0.245
       1.287
       2.184
       2.840
       3.171
       3.150
       2.819
       2.257
       1.535
       0.712
      -0.149
      -0.995
      -1.783
      -2.461
      -2.959
      -3.205
      -3.164
      -2.846
      -2.294
      -1.577
      -0.784
      -0.006
       0.707
       1.349
       1.924
       2.419
       2.809
       3.073
       3.181
       3.105
       2.841
       2.431
       1.956
       1.498
       1.118
       0.826
       0.576
       0.284
      -0.105
      -0.564
      -1.001
      -1.318
      -1.462
      -1.434
      -1.279
      -1.082
      -0.918
      -0.803
      -0.696
      -0.554
      -0.380
      -0.213
      -0.092
      -0.046
      -0.107
      -0.294
      -0.588
      -0.942
      -1.298
      -1.620
      -1.887
      -2.099
      -2.278
      -2.442
      -2.567
      -2.576
      -2.387
      -1.961
      -1.322
      -0.552
       0.237
       0.931
       1.474
       1.881
       2.191
       2.408
       2.488
       2.382
       2.080
       1.610
       1.037
       0.435
      -0.130
      -0.626
      -1.039
      -1.338
      -1.470
      -1.392
      -1.107
      -0.656
      -0.100
       0.478
       0.978
       1.320
       1.480
       1.474
       1.311
       0.979
       0.468
      -0.202
      -0.979
      -1.782
      -2.507
      -3.046
      -3.332
      -3.348
      -3.098
      -2.578
      -1.798
      -0.801
       0.347
       1.566
       2.770
       3.852
       4.713
       5.305
       5.633
       5.722
       5.587
       5.237
       4.696
       4.007
       3.236
       2.471
       1.784
       1.205
       0.734
       0.386
       0.213
       0.261
       0.523
       0.935
       1.399
       1.811
       2.075
       2.137
       2.012
       1.771
       1.497
       1.244
       1.027
       0.815
       0.545
       0.164
      -0.311
      -0.790
      -1.161
      -1.357
      -1.370
      -1.234
      -1.003
      -0.745
      -0.521
      -0.364
      -0.288
      -0.304
      -0.412
      -0.588
      -0.785
      -0.967
      -1.124
      -1.264
      -1.403
      -1.556
      -1.713
      -1.827
      -1.821
      -1.643
      -1.292
      -0.815
      -0.274
       0.262
       0.729
       1.079
       1.289
       1.341
       1.199
       0.837
       0.280
      -0.391
      -1.082
      -1.709
      -2.205
      -2.520
      -2.633
      -2.561
      -2.338
      -1.992
      -1.547
      -1.040
      -0.507
       0.035
       0.574
       1.079
       1.495
       1.766
       1.850
       1.724
       1.404
       0.959
       0.486
       0.062
      -0.274
      -0.499
      -0.589
      -0.538
      -0.373
      -0.134
       0.144
       0.428
       0.669
       0.818
       0.857
       0.789
       0.611
       0.322
      -0.053
      -0.449
      -0.794
      -1.044
      -1.179
      -1.196
      -1.103
      -0.903
      -0.578
      -0.100
       0.528
       1.243
       1.945
       2.536
       2.936
       3.089
       2.967
       2.592
       2.017
       1.286
       0.426
      -0.546
      -1.612
      -2.752
      -3.926
      -5.049
      -6.008
      -6.700
      -7.077
      -7.140
      -6.930
      -6.514
      -5.968
      -5.337
      -4.615
      -3.785
      -2.860
      -1.893
      -0.949
      -0.095
       0.601
       1.100
       1.411
       1.585
       1.672
       1.708
       1.724
       1.761
       1.856
       2.023
       2.262
       2.573
       2.949
       3.357
       3.742
       4.039
       4.184
       4.133
       3.884
       3.504
       3.092
       2.716
       2.389
       2.096
       1.825
       1.566
       1.308
       1.056
       0.840
       0.711
       0.717
       0.895
       1.253
       1.738
       2.232
       2.599
       2.758
       2.708
       2.501
       2.207
       1.878
       1.527
       1.114
       0.575
      -0.120
      -0.943
      -1.830
      -2.699
      -3.447
      -3.953
      -4.135
      -3.989
      -3.576
      -2.980
      -2.284
      -1.571
      -0.906
      -0.311
       0.213
       0.648
       0.946
       1.074
       1.043
       0.908
       0.738
       0.591
       0.494
       0.432
       0.371
       0.302
       0.259
       0.288
       0.405
       0.592
       0.816
       1.034
       1.199
       1.271
       1.231
       1.078
       0.809
       0.425
      -0.039
      -0.512
      -0.920
      -1.215
      -1.391
      -1.468
      -1.487
      -1.479
      -1.441
      -1.333
      -1.112
      -0.774
      -0.353
       0.098
       0.525
       0.875
       1.106
       1.198
       1.142
       0.918
       0.515
      -0.034
      -0.646
      -1.231
      -1.730
      -2.122
      -2.405
      -2.585
      -2.673
      -2.651
      -2.472
      -2.095
      -1.527
      -0.836
      -0.110
       0.566
       1.119
       1.488
       1.646
       1.602
       1.377
       0.999
       0.511
      -0.022
      -0.541
      -1.012
      -1.422
      -1.763
      -2.023
      -2.198
      -2.280
      -2.248
      -2.090
      -1.824
      -1.488
      -1.109
      -0.697
      -0.276
       0.120
       0.478
       0.814
       1.146
       1.463
       1.733
       1.917
       1.983
       1.921
       1.762
       1.570
       1.391
       1.208
       0.957
       0.588
       0.106
      -0.432
      -0.944
      -1.361
      -1.660
      -1.883
      -2.102
      -2.365
      -2.659
      -2.931
      -3.124
      -3.198
      -3.131
      -2.926
      -2.615
      -2.226
      -1.775
      -1.268
      -0.729
      -0.195
       0.310
       0.780
       1.208
       1.577
       1.863
       2.043
       2.080
       1.938
       1.616
       1.168
       0.681
       0.234
      -0.123
      -0.356
      -0.450
      -0.410
      -0.258
      -0.014
       0.294
       0.611
       0.876
       1.046
       1.110
       1.065
       0.913
       0.677
       0.402
       0.128
      -0.131
      -0.379
      -0.627
      -0.886
      -1.172
      -1.479
      -1.763
      -1.966
      -2.060
      -2.058
      -1.989
      -1.898
      -1.843
      -1.874
      -1.997
      -2.166
      -2.306
      -2.349
      -2.242
      -1.949
      -1.485
      -0.905
      -0.270
       0.392
       1.079
       1.793
       2.541
       3.329
       4.132
       4.872
       5.447
       5.791
       5.899
       5.805
       5.538
       5.128
       4.595
       3.950
       3.196
       2.364
       1.524
       0.757
       0.116
      -0.379
      -0.713
      -0.870
      -0.831
      -0.591
      -0.160
       0.424
       1.088
       1.735
       2.283
       2.685
       2.927
       3.015
       2.971
       2.811
       2.525
       2.077
       1.446
       0.663
      -0.186
      -1.003
      -1.708
      -2.243
      -2.572
      -2.676
      -2.550
      -2.203
      -1.674
      -1.051
      -0.443
       0.067
       0.441
       0.661
       0.716
       0.622
       0.415
       0.128
      -0.235
      -0.679
      -1.184
      -1.704
      -2.198
      -2.630
      -2.966
      -3.173
      -3.230
      -3.128
      -2.860
      -2.429
      -1.861
      -1.203
      -0.505
       0.193
       0.833
       1.349
       1.699
       1.887
       1.947
       1.907
       1.786
       1.591
       1.309
       0.900
       0.333
      -0.369
      -1.115
      -1.787
      -2.280
      -2.535
      -2.548
      -2.365
      -2.050
      -1.648
      -1.182
      -0.676
      -0.167
       0.312
       0.749
       1.137
       1.468
       1.737
       1.954
       2.120
       2.209
       2.188
       2.059
       1.869
       1.678
       1.533
       1.470
       1.509
       1.624
       1.745
       1.789
       1.703
       1.471
       1.111
       0.681
       0.270
      -0.041
      -0.231
      -0.336
      -0.413
      -0.510
      -0.649
      -0.826
      -1.019
      -1.214
      -1.427
      -1.692
      -2.017
      -2.364
      -2.676
      -2.906
      -3.024
      -3.017
      -2.901
      -2.714
      -2.483
      -2.203
      -1.869
      -1.512
      -1.190
      -0.951
      -0.809
      -0.764
      -0.810
      -0.932
      -1.105
      -1.313
      -1.549
      -1.791
      -1.992
      -2.103
      -2.099
      -1.976
      -1.735
      -1.391
      -0.986
      -0.565
      -0.157
       0.217
       0.525
       0.736
       0.843
       0.869
       0.830
       0.725
       0.557
       0.350
       0.147
      -0.001
      -0.037
       0.078
       0.336
       0.678
       1.037
       1.376
       1.692
       1.996
       2.302
       2.627
       2.965
       3.272
       3.482
       3.547
       3.438
       3.133
       2.623
       1.934
       1.123
       0.244
      -0.685
      -1.652
      -2.621
      -3.529
      -4.303
      -4.857
      -5.099
      -4.964
      -4.456
      -3.649
      -2.649
      -1.568
      -0.507
       0.459
       1.295
