Origin Time       1/5/2013 06:57:12	  UTC
Lat.              33.1 N	
Long.             75.8 E	
Depth (Km)         15.0
Magnitude         5.8
 Region           JK-HP-Border                                                     
 Above details taken from IMD 
    
Station Code      PTK
Station Lat.       32.272  N
Station Long.      75.662  E
Station Height(m)    0.0
Site Class        C   Vs30 between 200 m/sec to 375 m/sec *  
Record Time       01.05.2013 06:57:39.929 UTC
Sampling Rate     200. Hz
 Record Duration   66.890 Sec.
 Direction         N-S (N positive)
Max. Acceleration      5.332 cm/sec**2
     
  * For reference see Site Classification link of website 
     
 Base Line Corrected and Low Pass Filtered (Cut Off at 35 Hz) Time History
 Acceleration data in cm/sec**2
    
[...]
       0.156
       0.089
       0.096
       0.189
       0.356
       0.560
       0.752
       0.889
       0.952
       0.949
       0.893
       0.792
       0.662
       0.520
       0.372
       0.209
       0.030
      -0.152
      -0.323
      -0.477
      -0.605
      -0.687
      -0.706
      -0.667
      -0.584
      -0.457
      -0.275
      -0.042
       0.221
       0.488
       0.733
       0.925
       1.024
       1.012
       0.904
       0.738
       0.557
       0.399
       0.284
       0.206
       0.143
       0.075
      -0.005
      -0.102
      -0.221
      -0.345
      -0.431
      -0.432
      -0.340
      -0.177
       0.038
       0.302
       0.610
       0.936
       1.241
       1.486
       1.632
       1.652
       1.563
       1.424
       1.294
       1.190
       1.086
       0.943
       0.736
       0.454
       0.114
      -0.235
      -0.530
      -0.731
      -0.827
      -0.827
      -0.742
      -0.596
      -0.426
      -0.257
      -0.091
       0.082
       0.254
       0.409
       0.521
       0.570
       0.544
       0.446
       0.295
       0.107
      -0.127
      -0.424
      -0.776
      -1.148
      -1.496
      -1.790
      -2.014
      -2.157
      -2.220
      -2.219
      -2.177
      -2.116
      -2.053
      -2.006
      -1.980
      -1.965
      -1.942
      -1.890
      -1.785
      -1.606
      -1.352
      -1.066
      -0.809
      -0.607
      -0.439
      -0.268
      -0.075
       0.133
       0.328
       0.470
       0.519
       0.463
       0.331
       0.169
       0.015
      -0.111
      -0.190
      -0.214
      -0.199
      -0.169
      -0.129
      -0.064
       0.043
       0.195
       0.385
       0.599
       0.803
       0.958
       1.046
       1.090
       1.123
       1.165
       1.222
       1.301
       1.405
       1.525
       1.642
       1.742
       1.813
       1.848
       1.855
       1.862
       1.894
       1.941
       1.964
       1.926
       1.817
       1.645
       1.424
       1.176
       0.926
       0.680
       0.417
       0.120
      -0.194
      -0.482
      -0.705
      -0.851
      -0.919
      -0.924
      -0.891
      -0.853
      -0.826
      -0.815
      -0.833
      -0.907
      -1.049
      -1.237
      -1.432
      -1.600
      -1.721
      -1.783
      -1.790
      -1.762
      -1.712
      -1.641
      -1.548
      -1.451
      -1.370
      -1.289
      -1.166
      -0.969
      -0.713
      -0.442
      -0.202
      -0.025
       0.079
       0.125
       0.147
       0.168
       0.191
       0.209
       0.215
       0.190
       0.108
      -0.035
      -0.206
      -0.359
      -0.481
      -0.591
      -0.706
      -0.812
      -0.879
      -0.882
      -0.801
      -0.628
      -0.371
      -0.073
       0.210
       0.427
       0.537
       0.532
       0.445
       0.346
       0.295
       0.299
       0.326
       0.342
       0.331
       0.285
       0.199
       0.085
      -0.031
      -0.127
      -0.202
      -0.248
      -0.243
      -0.169
      -0.037
       0.114
       0.239
       0.287
       0.211
      -0.008
      -0.336
      -0.709
      -1.083
      -1.439
      -1.754
      -1.983
      -2.082
      -2.039
      -1.870
      -1.595
      -1.227
      -0.767
      -0.203
       0.485
       1.287
       2.149
       2.978
       3.671
       4.129
       4.267
       4.050
       3.516
       2.759
       1.888
       0.993
       0.145
      -0.604
      -1.232
      -1.731
      -2.089
      -2.278
      -2.281
      -2.107
      -1.774
      -1.308
      -0.749
      -0.146
       0.461
       1.066
       1.673
       2.261
       2.766
       3.111
       3.234
       3.108
       2.746
       2.210
       1.577
       0.906
       0.223
      -0.456
      -1.108
      -1.708
      -2.224
      -2.609
      -2.802
      -2.761
      -2.507
      -2.117
      -1.689
      -1.307
      -1.034
      -0.901
      -0.901
      -1.002
      -1.184
      -1.442
      -1.758
      -2.091
      -2.385
      -2.598
      -2.695
      -2.647
      -2.436
      -2.075
      -1.596
      -1.028
      -0.385
       0.324
       1.087
       1.889
       2.696
       3.454
       4.102
       4.597
       4.907
       5.002
       4.869
       4.533
       4.056
       3.490
       2.847
       2.120
       1.317
       0.467
      -0.391
      -1.218
      -1.962
      -2.578
      -3.039
      -3.333
      -3.447
      -3.375
      -3.154
      -2.853
      -2.528
      -2.201
      -1.871
      -1.545
      -1.235
      -0.947
      -0.685
      -0.455
      -0.255
      -0.074
       0.087
       0.208
       0.267
       0.263
       0.209
       0.110
      -0.032
      -0.199
      -0.358
      -0.493
      -0.622
      -0.777
      -0.975
      -1.223
      -1.516
      -1.831
      -2.111
      -2.291
      -2.324
      -2.197
      -1.926
      -1.546
      -1.111
      -0.667
      -0.235
       0.191
       0.616
       1.027
       1.401
       1.721
       1.976
       2.177
       2.361
       2.565
       2.779
       2.934
       2.949
       2.798
       2.504
       2.115
       1.681
       1.264
       0.916
       0.651
       0.439
       0.243
       0.047
      -0.149
      -0.343
      -0.530
      -0.696
      -0.832
      -0.942
      -1.034
      -1.112
      -1.180
      -1.246
      -1.306
      -1.334
      -1.296
      -1.181
      -1.002
      -0.785
      -0.554
      -0.318
      -0.071
       0.193
       0.459
       0.670
       0.764
       0.717
       0.562
       0.346
       0.104
      -0.145
      -0.388
      -0.618
      -0.851
      -1.106
      -1.386
      -1.677
      -1.949
      -2.156
      -2.242
      -2.168
      -1.949
      -1.641
      -1.303
      -0.964
      -0.636
      -0.333
      -0.075
       0.122
       0.258
       0.338
       0.388
       0.447
       0.546
       0.683
       0.832
       0.967
       1.072
       1.135
       1.152
       1.136
       1.110
       1.095
       1.098
       1.122
       1.165
       1.202
       1.188
       1.079
       0.850
       0.499
       0.044
      -0.464
      -0.960
      -1.392
      -1.740
      -1.992
      -2.125
      -2.119
      -1.976
      -1.722
      -1.368
      -0.912
      -0.359
       0.268
       0.937
       1.620
       2.286
       2.893
       3.405
       3.790
       4.004
       3.987
       3.703
       3.187
       2.533
       1.843
       1.190
       0.618
       0.149
      -0.210
      -0.454
      -0.563
      -0.522
      -0.347
      -0.102
       0.139
       0.323
       0.423
       0.425
       0.323
       0.119
      -0.179
      -0.544
      -0.931
      -1.270
      -1.507
      -1.626
      -1.633
      -1.526
      -1.281
      -0.883
      -0.349
       0.266
       0.887
       1.437
       1.861
       2.154
       2.344
       2.454
       2.473
       2.379
       2.168
       1.852
       1.440
       0.944
       0.398
      -0.142
      -0.618
      -0.978
      -1.180
      -1.193
      -1.023
      -0.711
      -0.311
       0.142
       0.619
       1.087
       1.499
       1.796
       1.916
       1.809
       1.481
       1.001
       0.469
      -0.047
      -0.513
      -0.912
      -1.231
      -1.479
      -1.688
      -1.885
      -2.074
      -2.246
      -2.382
      -2.449
      -2.406
      -2.227
      -1.933
      -1.565
      -1.161
      -0.736
      -0.306
       0.101
       0.452
       0.708
       0.832
       0.820
       0.713
       0.576
       0.446
       0.317
       0.163
      -0.027
      -0.251
      -0.501
      -0.755
      -0.983
      -1.153
      -1.248
      -1.251
      -1.127
      -0.852
      -0.448
       0.017
       0.459
       0.809
       1.019
       1.061
       0.947
       0.721
       0.433
       0.116
      -0.190
      -0.427
      -0.538
      -0.500
      -0.335
      -0.089
       0.173
       0.393
       0.548
       0.666
       0.788
       0.917
       1.008
       1.002
       0.876
       0.649
       0.383
       0.158
       0.043
       0.057
       0.169
       0.330
       0.500
       0.643
       0.728
       0.739
       0.676
       0.535
       0.308
      -0.006
      -0.373
      -0.738
      -1.057
      -1.300
      -1.438
      -1.454
      -1.378
      -1.281
      -1.231
      -1.254
      -1.332
      -1.432
      -1.523
      -1.572
      -1.562
      -1.504
      -1.426
      -1.349
      -1.292
      -1.269
      -1.292
      -1.358
      -1.448
      -1.543
      -1.627
      -1.665
      -1.612
      -1.438
      -1.144
      -0.763
      -0.341
       0.070
       0.429
       0.728
       0.990
       1.232
       1.438
       1.585
       1.680
       1.748
       1.790
       1.772
       1.661
       1.452
       1.162
       0.801
       0.373
      -0.100
      -0.574
      -0.985
      -1.272
      -1.404
      -1.411
      -1.367
      -1.334
      -1.312
      -1.258
      -1.134
      -0.927
      -0.639
      -0.276
       0.139
       0.569
       0.979
       1.351
       1.669
       1.909
       2.052
       2.101
       2.087
       2.057
       2.053
       2.095
       2.175
       2.257
       2.307
       2.303
       2.236
       2.104
       1.921
       1.732
       1.570
       1.422
       1.229
       0.938
       0.538
       0.049
      -0.497
      -1.048
      -1.528
      -1.865
      -2.030
      -2.042
      -1.933
      -1.728
      -1.437
      -1.065
      -0.635
      -0.213
       0.107
       0.253
       0.223
       0.076
      -0.119
      -0.308
      -0.450
      -0.513
      -0.498
      -0.444
      -0.398
      -0.385
      -0.407
      -0.453
      -0.508
      -0.544
      -0.537
      -0.487
      -0.409
      -0.321
      -0.247
      -0.218
      -0.267
      -0.399
      -0.583
      -0.786
      -0.994
      -1.200
      -1.392
      -1.549
      -1.656
      -1.695
      -1.648
      -1.499
      -1.256
      -0.936
      -0.557
      -0.134
       0.310
       0.764
       1.229
       1.709
       2.189
       2.628
       2.981
       3.215
       3.306
       3.247
       3.062
       2.807
       2.537
       2.279
       2.039
       1.825
       1.641
       1.479
       1.322
       1.166
       1.021
       0.900
       0.818
       0.772
       0.740
       0.670
       0.518
       0.292
       0.055
      -0.129
      -0.245
      -0.317
      -0.367
      -0.396
      -0.388
      -0.311
      -0.135
       0.140
       0.468
       0.781
       1.042
       1.252
       1.434
       1.601
       1.755
       1.872
       1.907
       1.812
       1.571
       1.213
       0.780
       0.309
      -0.160
      -0.575
      -0.881
      -1.052
      -1.094
      -1.045
      -0.968
      -0.933
      -0.982
      -1.092
      -1.197
      -1.232
      -1.174
      -1.033
      -0.842
      -0.649
      -0.497
      -0.405
      -0.366
      -0.379
      -0.458
      -0.606
      -0.793
      -0.972
      -1.107
      -1.187
      -1.210
      -1.183
      -1.127
      -1.065
      -1.002
      -0.934
      -0.867
      -0.813
      -0.770
      -0.728
      -0.699
      -0.719
      -0.806
      -0.937
      -1.058
      -1.127
      -1.123
      -1.030
      -0.849
      -0.598
      -0.296
       0.054
       0.461
       0.902
       1.322
       1.650
       1.838
       1.862
       1.733
       1.496
       1.216
       0.943
       0.703
       0.507
       0.372
       0.304
       0.284
       0.285
       0.296
       0.324
       0.377
       0.472
       0.640
       0.904
       1.248
       1.613
       1.931
       2.151
       2.231
       2.136
       1.857
       1.421
       0.867
       0.225
      -0.497
      -1.291
      -2.140
      -2.997
      -3.778
      -4.365
      -4.658
      -4.624
      -4.294
      -3.727
      -2.974
      -2.080
      -1.080
      -0.009
       1.088
       2.132
       3.023
       3.672
       4.036
       4.109
       3.895
       3.410
       2.685
       1.766
       0.714
      -0.394
      -1.456
      -2.374
      -3.084
      -3.553
      -3.757
      -3.679
      -3.324
      -2.738
      -1.975
      -1.091
      -0.143
       0.802
       1.683
       2.438
       2.990
       3.249
       3.159
       2.742
       2.083
       1.281
       0.417
      -0.446
      -1.253
      -1.960
      -2.529
      -2.905
      -3.025
      -2.857
      -2.419
      -1.760
      -0.945
      -0.056
       0.806
       1.540
       2.063
       2.308
       2.235
       1.854
       1.238
       0.491
      -0.304
      -1.091
      -1.820
      -2.436
      -2.892
      -3.166
      -3.259
      -3.188
      -2.978
      -2.644
      -2.169
      -1.528
      -0.727
       0.171
       1.080
       1.920
       2.629
       3.153
       3.458
       3.548
       3.451
       3.184
       2.751
       2.176
       1.509
       0.804
       0.098
      -0.580
      -1.195
      -1.716
      -2.132
      -2.441
      -2.639
      -2.721
      -2.690
      -2.548
      -2.299
      -1.953
      -1.543
      -1.111
      -0.679
      -0.258
       0.137
       0.479
       0.747
       0.925
       0.985
       0.877
       0.566
       0.053
      -0.621
      -1.389
      -2.145
      -2.762
      -3.125
      -3.171
      -2.893
      -2.310
      -1.464
      -0.422
       0.730
       1.911
       3.039
       4.020
       4.758
       5.197
       5.332
       5.182
       4.756
       4.072
       3.179
       2.156
       1.097
       0.098
      -0.757
      -1.416
      -1.873
      -2.147
      -2.252
      -2.187
      -1.964
      -1.602
      -1.116
      -0.506
       0.215
       0.999
       1.776
       2.469
       3.014
       3.358
       3.477
       3.373
       3.062
       2.559
       1.887
       1.090
       0.224
      -0.650
      -1.468
      -2.157
      -2.658
      -2.963
      -3.110
      -3.135
      -3.037
      -2.778
      -2.318
      -1.648
      -0.808
       0.110
       1.001
       1.795
       2.478
       3.058
       3.514
       3.784
       3.787
       3.453
       2.756
       1.743
       0.536
      -0.718
      -1.908
      -2.980
      -3.894
      -4.593
      -5.022
      -5.144
      -4.943
      -4.423
      -3.622
      -2.628
      -1.553
      -0.505
       0.423
       1.148
       1.610
       1.788
       1.690
       1.336
       0.751
      -0.005
      -0.841
      -1.652
      -2.358
      -2.911
      -3.290
      -3.497
      -3.539
      -3.408
      -3.079
      -2.552
      -1.872
      -1.114
      -0.360
       0.315
       0.843
       1.179
       1.329
       1.324
       1.194
       0.953
       0.621
       0.244
      -0.124
      -0.435
      -0.648
      -0.740
      -0.706
      -0.563
      -0.332
      -0.024
       0.349
       0.766
       1.203
       1.640
       2.058
       2.421
       2.689
       2.844
       2.883
       2.807
       2.618
       2.346
       2.046
       1.775
       1.568
       1.441
       1.405
       1.449
       1.532
       1.606
       1.641
       1.631
       1.583
       1.515
       1.455
       1.417
       1.371
       1.257
       1.030
       0.693
       0.276
      -0.185
      -0.660
      -1.117
      -1.524
      -1.862
      -2.111
      -2.252
      -2.271
      -2.174
      -1.966
      -1.638
      -1.192
      -0.665
      -0.126
       0.360
       0.754
       1.037
       1.212
       1.316
       1.393
       1.463
       1.505
       1.485
       1.398
       1.256
       1.077
       0.879
       0.683
       0.505
       0.349
       0.219
       0.123
       0.064
       0.018
      -0.052
      -0.164
      -0.306
      -0.451
      -0.573
      -0.657
      -0.699
      -0.723
      -0.767
      -0.857
      -0.976
      -1.094
      -1.198
      -1.295
      -1.392
      -1.480
      -1.557
      -1.623
      -1.677
      -1.717
      -1.753
      -1.806
      -1.885
      -1.975
      -2.053
      -2.099
      -2.106
      -2.080
      -2.035
      -1.986
      -1.928
      -1.838
      -1.699
      -1.513
      -1.288
      -1.022
      -0.720
      -0.408
      -0.128
       0.094
       0.250
       0.331
       0.316
       0.196
      -0.015
      -0.289
      -0.598
      -0.904
      -1.165
      -1.362
      -1.512
      -1.651
      -1.794
      -1.922
      -1.998
      -1.982
      -1.844
      -1.588
      -1.251
      -0.883
      -0.503
      -0.095
       0.356
       0.830
       1.276
       1.632
       1.853
       1.925
       1.875
       1.757
       1.618
       1.469
       1.305
       1.133
       0.977
       0.863
       0.815
       0.847
       0.958
       1.122
       1.300
       1.475
       1.648
       1.818
       1.965
       2.072
       2.139
       2.163
       2.124
       1.999
       1.787
       1.509
       1.196
       0.877
       0.584
       0.342
       0.155
       0.018
      -0.055
      -0.035
       0.101
       0.342
       0.647
       0.949
       1.176
       1.272
       1.232
       1.095
       0.907
       0.693
       0.472
       0.277
       0.146
       0.103
       0.153
       0.291
       0.493
       0.717
       0.920
       1.090
       1.234
       1.359
       1.457
       1.531
       1.601
       1.686
       1.790
       1.909
       2.050
       2.210
       2.370
       2.510
       2.633
       2.766
       2.925
       3.111
       3.313
       3.505
       3.640
       3.662
       3.528
       3.224
       2.753
       2.136
       1.425
       0.708
       0.064
      -0.476
      -0.927
      -1.321
      -1.686
      -2.029
      -2.332
      -2.557
      -2.678
      -2.713
      -2.706
      -2.690
      -2.671
      -2.648
      -2.626
      -2.600
      -2.546
      -2.444
      -2.297
      -2.125
      -1.951
      -1.793
      -1.646
      -1.478
      -1.229
      -0.858
      -0.383
       0.118
       0.550
       0.841
       0.960
       0.926
       0.793
       0.614
       0.401
       0.132
      -0.213
      -0.624
      -1.066
      -1.494
      -1.857
      -2.108
      -2.231
      -2.250
      -2.195
      -2.074
      -1.868
      -1.565
      -1.168
      -0.699
      -0.204
       0.244
       0.577
       0.770
       0.854
       0.893
       0.960
       1.124
       1.426
       1.842
       2.288
       2.670
       2.937
       3.075
       3.085
       2.970
       2.746
       2.431
       2.031
       1.550
       1.016
       0.476
      -0.040
      -0.528
      -0.998
      -1.438
      -1.820
      -2.104
      -2.250
      -2.241
      -2.092
      -1.838
      -1.496
      -1.049
      -0.485
       0.164
       0.819
       1.387
       1.797
       2.007
       2.010
       1.835
       1.516
       1.081
       0.559
       0.011
      -0.474
      -0.820
      -1.000
      -1.021
      -0.896
      -0.639
      -0.289
       0.093
       0.427
       0.633
       0.651
       0.470
       0.140
      -0.264
      -0.680
      -1.072
      -1.412
      -1.676
      -1.853
      -1.946
      -1.956
      -1.880
      -1.734
      -1.548
      -1.346
      -1.127
      -0.887
      -0.639
      -0.398
      -0.163
       0.075
