Origin Time       02/01/2013 17:42:15
Lat.              29.4 N	
Long.             81.1 E	
Depth (Km)         10.0
Magnitude         4.8
 Region           Western-NEPAL                                                    
 Above details taken from IMD 
     
Station Code      PTI
Station Lat.       29.407  N
Station Long.      79.931  E
Station Height(m) 1667.0
Site Class        A   Vs30 between 700 m/sec to 1400 m/sec * 
Record Time       02.01.2013 17:42:27.684
Sampling Rate     200. Hz
 Record Duration   81.090 Sec.
 Direction         E-W (E positive)
Max. Acceleration      4.406 cm/sec**2
     
  * For reference see Site Classification link of website 
     
 Base Line Corrected and Low Pass Filtered (Cut Off at 35 Hz) Time History
 Acceleration data in cm/sec**2
    
[...]
       0.317
       0.324
       0.321
       0.309
       0.292
       0.272
       0.250
       0.225
       0.195
       0.158
       0.114
       0.069
       0.027
      -0.007
      -0.034
      -0.056
      -0.081
      -0.117
      -0.171
      -0.240
      -0.313
      -0.376
      -0.417
      -0.435
      -0.436
      -0.435
      -0.441
      -0.449
      -0.448
      -0.431
      -0.397
      -0.352
      -0.302
      -0.251
      -0.200
      -0.145
      -0.085
      -0.022
       0.041
       0.101
       0.160
       0.216
       0.268
       0.316
       0.356
       0.385
       0.401
       0.410
       0.417
       0.422
       0.425
       0.428
       0.434
       0.442
       0.452
       0.457
       0.453
       0.437
       0.403
       0.349
       0.273
       0.173
       0.054
      -0.071
      -0.196
      -0.316
      -0.429
      -0.528
      -0.601
      -0.638
      -0.636
      -0.600
      -0.544
      -0.483
      -0.427
      -0.377
      -0.328
      -0.275
      -0.217
      -0.155
      -0.091
      -0.028
       0.036
       0.104
       0.179
       0.260
       0.339
       0.408
       0.458
       0.485
       0.488
       0.471
       0.437
       0.386
       0.317
       0.234
       0.137
       0.030
      -0.081
      -0.189
      -0.285
      -0.363
      -0.416
      -0.445
      -0.455
      -0.454
      -0.449
      -0.437
      -0.415
      -0.384
      -0.343
      -0.292
      -0.227
      -0.148
      -0.061
       0.025
       0.101
       0.164
       0.219
       0.272
       0.325
       0.370
       0.404
       0.428
       0.447
       0.457
       0.454
       0.434
       0.401
       0.355
       0.298
       0.224
       0.134
       0.033
      -0.070
      -0.162
      -0.239
      -0.303
      -0.358
      -0.408
      -0.455
      -0.497
      -0.525
      -0.526
      -0.493
      -0.428
      -0.343
      -0.250
      -0.158
      -0.075
       0.000
       0.065
       0.123
       0.170
       0.207
       0.234
       0.255
       0.273
       0.289
       0.298
       0.292
       0.264
       0.216
       0.154
       0.087
       0.021
      -0.034
      -0.074
      -0.096
      -0.105
      -0.109
      -0.116
      -0.135
      -0.173
      -0.231
      -0.307
      -0.389
      -0.462
      -0.514
      -0.536
      -0.526
      -0.491
      -0.434
      -0.359
      -0.267
      -0.164
      -0.054
       0.059
       0.171
       0.277
       0.371
       0.444
       0.493
       0.511
       0.502
       0.474
       0.440
       0.410
       0.398
       0.412
       0.455
       0.520
       0.598
       0.676
       0.742
       0.785
       0.794
       0.766
       0.699
       0.599
       0.476
       0.347
       0.224
       0.111
       0.007
      -0.097
      -0.209
      -0.336
      -0.480
      -0.639
      -0.806
      -0.973
      -1.130
      -1.264
      -1.364
      -1.428
      -1.457
      -1.455
      -1.423
      -1.361
      -1.267
      -1.139
      -0.976
      -0.782
      -0.561
      -0.319
      -0.063
       0.196
       0.452
       0.694
       0.913
       1.095
       1.234
       1.332
       1.400
       1.448
       1.483
       1.506
       1.506
       1.472
       1.391
       1.259
       1.078
       0.856
       0.609
       0.354
       0.104
      -0.132
      -0.345
      -0.532
      -0.686
      -0.807
      -0.892
      -0.944
      -0.971
      -0.986
      -0.992
      -0.987
      -0.968
      -0.932
      -0.881
      -0.817
      -0.742
      -0.660
      -0.570
      -0.470
      -0.355
      -0.219
      -0.060
       0.119
       0.305
       0.484
       0.644
       0.782
       0.892
       0.972
       1.014
       1.014
       0.972
       0.896
       0.799
       0.697
       0.595
       0.491
       0.380
       0.264
       0.145
       0.030
      -0.078
      -0.180
      -0.280
      -0.381
      -0.482
      -0.575
      -0.650
      -0.696
      -0.705
      -0.675
      -0.612
      -0.532
      -0.453
      -0.381
      -0.316
      -0.252
      -0.182
      -0.107
      -0.034
       0.027
       0.070
       0.096
       0.105
       0.099
       0.081
       0.057
       0.034
       0.020
       0.021
       0.040
       0.073
       0.117
       0.168
       0.225
       0.284
       0.338
       0.379
       0.404
       0.408
       0.393
       0.364
       0.327
       0.285
       0.233
       0.169
       0.095
       0.015
      -0.060
      -0.121
      -0.162
      -0.189
      -0.211
      -0.239
      -0.277
      -0.324
      -0.371
      -0.409
      -0.429
      -0.430
      -0.410
      -0.367
      -0.299
      -0.209
      -0.105
      -0.006
       0.071
       0.117
       0.134
       0.137
       0.145
       0.169
       0.212
       0.268
       0.326
       0.378
       0.418
       0.447
       0.467
       0.477
       0.468
       0.431
       0.362
       0.267
       0.158
       0.045
      -0.066
      -0.180
      -0.300
      -0.420
      -0.519
      -0.578
      -0.584
      -0.541
      -0.465
      -0.378
      -0.299
      -0.238
      -0.201
      -0.192
      -0.209
      -0.243
      -0.275
      -0.290
      -0.284
      -0.257
      -0.210
      -0.145
      -0.063
       0.032
       0.131
       0.223
       0.306
       0.385
       0.464
       0.540
       0.601
       0.637
       0.644
       0.624
       0.580
       0.521
       0.451
       0.378
       0.309
       0.254
       0.218
       0.198
       0.184
       0.168
       0.143
       0.109
       0.062
       0.001
      -0.079
      -0.177
      -0.291
      -0.410
      -0.525
      -0.624
      -0.699
      -0.743
      -0.756
      -0.743
      -0.710
      -0.655
      -0.576
      -0.470
      -0.346
      -0.221
      -0.112
      -0.033
       0.017
       0.053
       0.095
       0.154
       0.230
       0.316
       0.402
       0.474
       0.521
       0.534
       0.512
       0.454
       0.368
       0.270
       0.180
       0.113
       0.074
       0.058
       0.048
       0.029
      -0.005
      -0.047
      -0.086
      -0.120
      -0.157
      -0.203
      -0.257
      -0.309
      -0.350
      -0.371
      -0.369
      -0.344
      -0.295
      -0.225
      -0.135
      -0.032
       0.076
       0.185
       0.292
       0.394
       0.489
       0.580
       0.663
       0.727
       0.758
       0.751
       0.707
       0.632
       0.529
       0.403
       0.258
       0.103
      -0.052
      -0.201
      -0.338
      -0.459
      -0.558
      -0.626
      -0.664
      -0.686
      -0.708
      -0.734
      -0.758
      -0.769
      -0.756
      -0.711
      -0.628
      -0.505
      -0.345
      -0.159
       0.032
       0.204
       0.342
       0.446
       0.528
       0.602
       0.672
       0.738
       0.791
       0.820
       0.822
       0.794
       0.739
       0.659
       0.564
       0.467
       0.382
       0.313
       0.255
       0.194
       0.113
      -0.007
      -0.173
      -0.376
      -0.590
      -0.782
      -0.917
      -0.972
      -0.947
      -0.855
      -0.720
      -0.566
      -0.411
      -0.265
      -0.132
      -0.013
       0.092
       0.183
       0.261
       0.327
       0.382
       0.419
       0.434
       0.426
       0.395
       0.349
       0.295
       0.245
       0.205
       0.172
       0.136
       0.090
       0.031
      -0.037
      -0.108
      -0.171
      -0.222
      -0.260
      -0.290
      -0.316
      -0.339
      -0.351
      -0.334
      -0.270
      -0.149
       0.024
       0.237
       0.470
       0.704
       0.922
       1.109
       1.253
       1.333
       1.331
       1.234
       1.046
       0.783
       0.465
       0.112
      -0.255
      -0.616
      -0.951
      -1.241
      -1.472
      -1.641
      -1.754
      -1.818
      -1.840
      -1.822
      -1.764
      -1.668
      -1.538
      -1.379
      -1.200
      -1.002
      -0.784
      -0.551
      -0.314
      -0.091
       0.111
       0.297
       0.485
       0.701
       0.960
       1.261
       1.580
       1.889
       2.163
       2.385
       2.546
       2.642
       2.668
       2.620
       2.489
       2.264
       1.944
       1.538
       1.074
       0.589
       0.117
      -0.317
      -0.699
      -1.017
      -1.260
      -1.425
      -1.519
      -1.562
      -1.572
      -1.562
      -1.541
      -1.513
      -1.486
      -1.470
      -1.470
      -1.471
      -1.449
      -1.375
      -1.233
      -1.019
      -0.747
      -0.440
      -0.132
       0.148
       0.382
       0.559
       0.679
       0.742
       0.756
       0.729
       0.678
       0.617
       0.559
       0.510
       0.475
       0.454
       0.449
       0.458
       0.480
       0.513
       0.558
       0.613
       0.678
       0.750
       0.823
       0.891
       0.944
       0.975
       0.981
       0.956
       0.893
       0.791
       0.651
       0.479
       0.275
       0.035
      -0.246
      -0.572
      -0.930
      -1.294
      -1.632
      -1.921
      -2.144
      -2.293
      -2.361
      -2.347
      -2.260
      -2.114
      -1.924
      -1.693
      -1.420
      -1.105
      -0.761
      -0.410
      -0.078
       0.227
       0.514
       0.800
       1.095
       1.397
       1.690
       1.955
       2.182
       2.369
       2.513
       2.609
       2.648
       2.624
       2.536
       2.386
       2.177
       1.916
       1.612
       1.276
       0.918
       0.548
       0.174
      -0.194
      -0.553
      -0.896
      -1.224
      -1.539
      -1.847
      -2.149
      -2.431
      -2.672
      -2.848
      -2.936
      -2.927
      -2.820
      -2.628
      -2.362
      -2.029
      -1.629
      -1.166
      -0.650
      -0.099
       0.454
       0.974
       1.430
       1.803
       2.091
       2.298
       2.434
       2.503
       2.499
       2.412
       2.238
       1.988
       1.691
       1.383
       1.095
       0.840
       0.609
       0.384
       0.149
      -0.102
      -0.366
      -0.641
      -0.921
      -1.204
      -1.480
      -1.732
      -1.939
      -2.081
      -2.147
      -2.135
      -2.043
      -1.870
      -1.619
      -1.301
      -0.935
      -0.543
      -0.151
       0.220
       0.558
       0.854
       1.105
       1.306
       1.453
       1.551
       1.608
       1.637
       1.649
       1.645
       1.618
       1.562
       1.479
       1.373
       1.244
       1.083
       0.885
       0.650
       0.389
       0.112
      -0.176
      -0.480
      -0.806
      -1.149
      -1.493
      -1.813
      -2.092
      -2.318
      -2.487
      -2.591
      -2.627
      -2.591
      -2.480
      -2.296
      -2.042
      -1.722
      -1.338
      -0.891
      -0.389
       0.155
       0.715
       1.261
       1.758
       2.180
       2.510
       2.748
       2.905
       2.995
       3.029
       3.007
       2.917
       2.750
       2.506
       2.198
       1.841
       1.453
       1.050
       0.650
       0.268
      -0.081
      -0.390
      -0.662
      -0.917
      -1.179
      -1.461
      -1.756
      -2.041
      -2.285
      -2.459
      -2.549
      -2.552
      -2.470
      -2.306
      -2.065
      -1.764
      -1.432
      -1.096
      -0.775
      -0.476
      -0.192
       0.087
       0.361
       0.622
       0.856
       1.052
       1.202
       1.303
       1.351
       1.353
       1.318
       1.257
       1.175
       1.074
       0.954
       0.816
       0.668
       0.524
       0.394
       0.286
       0.206
       0.160
       0.149
       0.163
       0.189
       0.207
       0.204
       0.166
       0.087
      -0.023
      -0.146
      -0.255
      -0.330
      -0.362
      -0.354
      -0.323
      -0.294
      -0.288
      -0.321
      -0.400
      -0.526
      -0.697
      -0.911
      -1.153
      -1.391
      -1.584
      -1.695
      -1.714
      -1.650
      -1.523
      -1.349
      -1.135
      -0.880
      -0.584
      -0.260
       0.069
       0.376
       0.646
       0.881
       1.097
       1.312
       1.534
       1.748
       1.929
       2.057
       2.131
       2.161
       2.156
       2.111
       2.021
       1.886
       1.710
       1.505
       1.283
       1.051
       0.811
       0.562
       0.302
       0.028
      -0.262
      -0.567
      -0.878
      -1.187
      -1.480
      -1.743
      -1.963
      -2.129
      -2.239
      -2.300
      -2.319
      -2.301
      -2.252
      -2.181
      -2.097
      -2.004
      -1.896
      -1.751
      -1.549
      -1.280
      -0.962
      -0.629
      -0.316
      -0.046
       0.183
       0.392
       0.614
       0.874
       1.176
       1.508
       1.851
       2.186
       2.495
       2.760
       2.959
       3.077
       3.105
       3.052
       2.944
       2.815
       2.692
       2.581
       2.470
       2.325
       2.115
       1.819
       1.441
       0.996
       0.501
      -0.030
      -0.585
      -1.145
      -1.685
      -2.178
      -2.606
      -2.965
      -3.268
      -3.531
      -3.759
      -3.948
      -4.081
      -4.138
      -4.098
      -3.949
      -3.688
      -3.319
      -2.855
      -2.316
      -1.729
      -1.115
      -0.492
       0.129
       0.738
       1.329
       1.900
       2.444
       2.949
       3.400
       3.780
       4.080
       4.292
       4.405
       4.406
       4.281
       4.032
       3.682
       3.268
       2.820
       2.349
       1.851
       1.321
       0.765
       0.195
      -0.379
      -0.955
      -1.532
      -2.104
      -2.644
      -3.117
      -3.486
      -3.728
      -3.837
      -3.823
      -3.703
      -3.500
      -3.235
      -2.921
      -2.570
      -2.187
      -1.781
      -1.359
      -0.937
      -0.529
      -0.150
       0.191
       0.488
       0.739
       0.951
       1.137
       1.312
       1.482
       1.643
       1.779
       1.873
       1.912
       1.899
       1.852
       1.789
       1.724
       1.657
       1.588
       1.517
       1.445
       1.377
       1.314
       1.254
       1.185
       1.097
       0.981
       0.827
       0.626
       0.381
       0.100
      -0.203
      -0.511
      -0.804
      -1.053
      -1.237
      -1.349
      -1.400
      -1.416
      -1.427
      -1.450
      -1.485
      -1.520
      -1.546
      -1.560
      -1.561
      -1.540
      -1.485
      -1.391
      -1.265
      -1.124
      -0.983
      -0.844
      -0.691
      -0.499
      -0.249
       0.061
       0.409
       0.757
       1.060
       1.286
       1.431
       1.517
       1.572
       1.609
       1.622
       1.596
       1.514
       1.373
       1.177
       0.936
       0.660
       0.356
       0.042
      -0.252
      -0.497
      -0.664
      -0.742
      -0.735
      -0.665
      -0.566
      -0.467
      -0.391
      -0.349
      -0.342
      -0.360
      -0.386
      -0.403
      -0.397
      -0.364
      -0.308
      -0.239
      -0.174
      -0.121
      -0.080
      -0.047
      -0.014
       0.034
       0.117
       0.249
       0.431
       0.639
       0.835
       0.976
       1.037
       1.015
       0.922
       0.775
       0.585
       0.366
       0.132
      -0.099
      -0.308
      -0.478
      -0.603
      -0.684
      -0.729
      -0.743
      -0.735
      -0.718
      -0.707
      -0.706
      -0.708
      -0.704
      -0.689
      -0.665
      -0.630
      -0.574
      -0.484
      -0.356
      -0.196
      -0.025
       0.139
       0.285
       0.411
       0.511
       0.575
       0.592
       0.564
       0.505
       0.438
       0.387
       0.371
       0.393
       0.441
       0.498
       0.550
       0.583
       0.588
       0.554
       0.473
       0.342
       0.169
      -0.024
      -0.205
      -0.345
      -0.429
      -0.454
      -0.430
      -0.369
      -0.280
      -0.168
      -0.039
       0.092
       0.200
       0.262
       0.263
       0.205
       0.100
      -0.034
      -0.172
      -0.294
      -0.381
      -0.420
      -0.411
      -0.371
      -0.319
      -0.269
      -0.225
      -0.187
      -0.155
      -0.127
      -0.102
      -0.082
      -0.065
      -0.045
      -0.008
       0.055
       0.140
       0.230
       0.304
       0.346
       0.351
       0.321
       0.262
       0.180
       0.084
      -0.010
      -0.088
      -0.144
      -0.179
      -0.194
      -0.191
      -0.170
      -0.138
      -0.103
      -0.069
      -0.034
       0.005
       0.046
       0.076
       0.071
       0.012
      -0.095
      -0.227
      -0.341
      -0.397
      -0.365
      -0.240
      -0.050
       0.162
       0.352
       0.491
       0.567
       0.579
       0.536
       0.450
       0.331
       0.189
       0.038
      -0.103
      -0.220
      -0.303
      -0.351
      -0.373
      -0.374
      -0.353
      -0.303
      -0.221
      -0.116
      -0.008
       0.083
       0.146
       0.182
       0.201
       0.214
       0.231
       0.253
       0.280
       0.309
       0.338
       0.363
       0.383
       0.401
       0.420
       0.440
       0.449
       0.432
       0.377
       0.284
       0.168
       0.044
      -0.083
      -0.221
      -0.380
      -0.550
      -0.705
      -0.806
      -0.827
      -0.761
      -0.631
      -0.479
      -0.347
      -0.257
      -0.203
      -0.169
      -0.133
      -0.091
      -0.048
      -0.020
      -0.021
      -0.054
      -0.112
      -0.184
      -0.259
      -0.326
      -0.374
      -0.394
      -0.372
      -0.296
      -0.156
       0.036
       0.253
       0.461
       0.632
       0.754
       0.829
       0.867
       0.874
       0.848
       0.783
       0.675
       0.528
       0.354
       0.171
       0.002
      -0.136
      -0.232
      -0.289
      -0.309
      -0.302
      -0.282
      -0.273
      -0.296
      -0.361
      -0.460
      -0.564
      -0.637
      -0.650
      -0.598
      -0.487
      -0.333
      -0.155
       0.026
       0.185
       0.301
       0.362
       0.370
       0.339
       0.296
       0.261
       0.244
       0.244
       0.255
       0.272
       0.291
       0.305
       0.307
       0.286
       0.233
       0.147
       0.038
      -0.074
      -0.170
      -0.239
      -0.277
      -0.293
      -0.298
      -0.297
      -0.286
      -0.260
      -0.219
      -0.168
      -0.114
      -0.069
      -0.049
      -0.061
      -0.101
      -0.156
      -0.211
      -0.253
      -0.280
      -0.296
      -0.308
      -0.312
      -0.295
      -0.237
      -0.130
       0.016
       0.176
       0.320
       0.426
       0.498
       0.552
       0.603
       0.645
       0.659
       0.630
       0.564
       0.489
       0.440
       0.439
       0.478
       0.525
       0.548
       0.530
       0.466
       0.362
       0.226
       0.069
      -0.090
      -0.228
      -0.325
      -0.381
      -0.414
      -0.458
      -0.534
      -0.641
      -0.754
      -0.842
      -0.886
      -0.880
      -0.835
      -0.764
      -0.678
      -0.582
      -0.483
      -0.389
      -0.309
      -0.247
      -0.204
      -0.177
      -0.158
      -0.138
