Origin Time       04/04/2011 11:31:40
Lat.              29.6 N	
Long.             80.8 E	
Depth (Km)         10.0
Magnitude         5.7
 Region           NEPAL-INDIA-BORDER-REGION                                        
 Above details taken from IMD 
     
Station Code      PTI
Station Lat.       29.407  N
Station Long.      79.931  E
Station Height(m) 1667.0
Site Class        A   Vs30 between 700 m/sec to 1400 m/sec * 
Record Time       04.04.2011 11:31:38.004
Sampling Rate     200. Hz
 Record Duration   97.110 Sec.
 Direction         E-W (E positive)
Max. Acceleration      4.713 cm/sec**2
     
  * For reference see Site Classification link of website 
     
 Base Line Corrected and Low Pass Filtered (Cut Off at 35 Hz) Time History
 Acceleration data in cm/sec**2
    
[...]
      -0.223
      -0.141
       0.003
       0.226
       0.460
       0.620
       0.659
       0.597
       0.493
       0.400
       0.344
       0.319
       0.303
       0.259
       0.162
       0.017
      -0.123
      -0.172
      -0.042
       0.318
       0.902
       1.642
       2.427
       3.132
       3.658
       3.950
       4.008
       3.864
       3.574
       3.194
       2.768
       2.318
       1.854
       1.394
       0.977
       0.645
       0.419
       0.270
       0.132
      -0.047
      -0.255
      -0.414
      -0.434
      -0.278
       0.019
       0.384
       0.760
       1.137
       1.537
       1.971
       2.414
       2.823
       3.156
       3.396
       3.531
       3.532
       3.357
       2.961
       2.327
       1.484
       0.513
      -0.467
      -1.336
      -2.021
      -2.518
      -2.889
      -3.208
      -3.514
      -3.785
      -3.963
      -3.988
      -3.828
      -3.477
      -2.945
      -2.267
      -1.517
      -0.804
      -0.241
       0.114
       0.288
       0.378
       0.494
       0.683
       0.902
       1.040
       0.982
       0.663
       0.103
      -0.619
      -1.405
      -2.178
      -2.871
      -3.411
      -3.718
      -3.731
      -3.443
      -2.905
      -2.207
      -1.449
      -0.709
      -0.033
       0.567
       1.095
       1.545
       1.905
       2.156
       2.290
       2.329
       2.320
       2.311
       2.309
       2.283
       2.187
       2.001
       1.730
       1.384
       0.966
       0.494
       0.026
      -0.343
      -0.536
      -0.549
      -0.463
      -0.399
      -0.440
      -0.596
      -0.811
      -0.991
      -1.053
      -0.967
      -0.778
      -0.573
      -0.424
      -0.327
      -0.214
      -0.020
       0.260
       0.566
       0.830
       1.044
       1.262
       1.555
       1.939
       2.364
       2.736
       2.980
       3.065
       3.008
       2.847
       2.620
       2.359
       2.099
       1.877
       1.712
       1.576
       1.408
       1.150
       0.796
       0.400
       0.031
      -0.273
      -0.519
      -0.724
      -0.879
      -0.951
      -0.924
      -0.823
      -0.710
      -0.660
      -0.741
      -1.005
      -1.458
      -2.047
      -2.664
      -3.188
      -3.544
      -3.733
      -3.825
      -3.902
      -3.994
      -4.068
      -4.062
      -3.934
      -3.682
      -3.329
      -2.906
      -2.441
      -1.967
      -1.513
      -1.102
      -0.748
      -0.443
      -0.161
       0.143
       0.499
       0.894
       1.264
       1.525
       1.611
       1.497
       1.214
       0.835
       0.462
       0.185
       0.033
      -0.051
      -0.194
      -0.502
      -0.973
      -1.482
      -1.852
      -1.961
      -1.799
      -1.453
      -1.042
      -0.660
      -0.345
      -0.089
       0.149
       0.417
       0.758
       1.190
       1.690
       2.184
       2.578
       2.802
       2.841
       2.733
       2.547
       2.356
       2.203
       2.097
       2.021
       1.948
       1.857
       1.736
       1.588
       1.425
       1.267
       1.143
       1.080
       1.106
       1.244
       1.497
       1.835
       2.192
       2.489
       2.671
       2.744
       2.757
       2.754
       2.732
       2.646
       2.450
       2.132
       1.720
       1.263
       0.808
       0.377
      -0.031
      -0.426
      -0.812
      -1.190
      -1.565
      -1.942
      -2.311
      -2.647
      -2.930
      -3.148
      -3.285
      -3.322
      -3.255
      -3.110
      -2.926
      -2.726
      -2.500
      -2.235
      -1.946
      -1.673
      -1.439
      -1.215
      -0.921
      -0.493
       0.072
       0.707
       1.323
       1.878
       2.380
       2.852
       3.275
       3.569
       3.642
       3.456
       3.060
       2.569
       2.087
       1.651
       1.229
       0.764
       0.223
      -0.371
      -0.955
      -1.466
      -1.877
      -2.218
      -2.537
      -2.853
      -3.120
      -3.250
      -3.183
      -2.942
      -2.614
      -2.272
      -1.924
      -1.533
      -1.092
      -0.651
      -0.270
       0.044
       0.338
       0.655
       0.975
       1.216
       1.284
       1.124
       0.744
       0.214
      -0.358
      -0.869
      -1.263
      -1.537
      -1.726
      -1.869
      -1.977
      -2.008
      -1.882
      -1.522
      -0.914
      -0.134
       0.676
       1.365
       1.836
       2.095
       2.230
       2.353
       2.528
       2.750
       2.961
       3.087
       3.055
       2.812
       2.349
       1.724
       1.066
       0.537
       0.260
       0.269
       0.501
       0.841
       1.172
       1.407
       1.489
       1.400
       1.167
       0.869
       0.612
       0.480
       0.502
       0.642
       0.843
       1.062
       1.278
       1.448
       1.474
       1.219
       0.584
      -0.417
      -1.631
      -2.816
      -3.733
      -4.241
      -4.335
      -4.117
      -3.728
      -3.291
      -2.867
      -2.453
      -2.019
      -1.555
      -1.100
      -0.708
      -0.411
      -0.193
      -0.002
       0.231
       0.557
       0.976
       1.424
       1.807
       2.075
       2.255
       2.411
       2.569
       2.665
       2.573
       2.202
       1.579
       0.853
       0.203
      -0.268
      -0.578
      -0.807
      -1.024
      -1.247
      -1.476
      -1.727
      -2.032
      -2.388
      -2.726
      -2.949
      -2.995
      -2.890
      -2.737
      -2.660
      -2.734
      -2.946
      -3.208
      -3.402
      -3.437
      -3.287
      -2.975
      -2.541
      -2.022
      -1.464
      -0.941
      -0.549
      -0.356
      -0.353
      -0.457
      -0.555
      -0.571
      -0.497
      -0.383
      -0.307
      -0.345
      -0.535
      -0.855
      -1.201
      -1.408
      -1.321
      -0.893
      -0.233
       0.443
       0.933
       1.150
       1.143
       1.032
       0.929
       0.882
       0.874
       0.855
       0.775
       0.621
       0.433
       0.298
       0.321
       0.576
       1.080
       1.784
       2.581
       3.325
       3.866
       4.110
       4.060
       3.806
       3.467
       3.117
       2.769
       2.397
       1.991
       1.576
       1.212
       0.966
       0.874
       0.923
       1.059
       1.205
       1.293
       1.277
       1.147
       0.913
       0.581
       0.151
      -0.349
      -0.830
      -1.164
      -1.247
      -1.060
      -0.680
      -0.237
       0.146
       0.386
       0.458
       0.389
       0.241
       0.101
       0.042
       0.105
       0.280
       0.508
       0.690
       0.728
       0.571
       0.272
      -0.019
      -0.125
       0.056
       0.485
       1.004
       1.422
       1.614
       1.561
       1.328
       0.995
       0.599
       0.142
      -0.377
      -0.915
      -1.393
      -1.716
      -1.814
      -1.667
      -1.314
      -0.829
      -0.294
       0.225
       0.677
       1.022
       1.244
       1.359
       1.414
       1.468
       1.541
       1.574
       1.436
       1.023
       0.377
      -0.284
      -0.689
      -0.713
      -0.481
      -0.294
      -0.419
      -0.912
      -1.594
      -2.191
      -2.507
      -2.519
      -2.341
      -2.116
      -1.929
      -1.778
      -1.593
      -1.291
      -0.820
      -0.195
       0.502
       1.157
       1.656
       1.914
       1.889
       1.598
       1.105
       0.502
      -0.120
      -0.705
      -1.228
      -1.664
      -1.947
      -1.975
      -1.658
      -0.998
      -0.132
       0.703
       1.277
       1.475
       1.344
       1.046
       0.746
       0.525
       0.354
       0.143
      -0.163
      -0.521
      -0.796
      -0.843
      -0.606
      -0.156
       0.346
       0.724
       0.848
       0.674
       0.267
      -0.214
      -0.574
      -0.683
      -0.531
      -0.221
       0.103
       0.346
       0.498
       0.619
       0.777
       0.988
       1.196
       1.312
       1.264
       1.038
       0.681
       0.281
      -0.064
      -0.275
      -0.311
      -0.196
      -0.003
       0.189
       0.341
       0.477
       0.647
       0.882
       1.157
       1.366
       1.358
       1.004
       0.288
      -0.661
      -1.637
      -2.478
      -3.135
      -3.644
      -4.037
      -4.280
      -4.284
      -3.978
      -3.370
      -2.557
      -1.687
      -0.890
      -0.241
       0.247
       0.600
       0.855
       1.045
       1.205
       1.391
       1.660
       2.034
       2.466
       2.858
       3.109
       3.159
       3.006
       2.685
       2.251
       1.757
       1.247
       0.760
       0.340
       0.048
      -0.055
       0.074
       0.434
       0.964
       1.546
       2.045
       2.369
       2.503
       2.488
       2.373
       2.183
       1.928
       1.620
       1.271
       0.885
       0.462
       0.034
      -0.319
      -0.520
      -0.566
      -0.551
      -0.611
      -0.815
      -1.114
      -1.374
      -1.487
      -1.450
      -1.360
      -1.338
      -1.446
      -1.658
      -1.892
      -2.064
      -2.109
      -2.004
      -1.783
      -1.535
      -1.376
      -1.381
      -1.535
      -1.733
      -1.840
      -1.773
      -1.539
      -1.233
      -0.974
      -0.838
      -0.814
      -0.824
      -0.780
      -0.648
      -0.467
      -0.327
      -0.308
      -0.423
      -0.594
      -0.688
      -0.590
      -0.266
       0.213
       0.703
       1.055
       1.173
       1.046
       0.739
       0.360
       0.028
      -0.166
      -0.197
      -0.134
      -0.126
      -0.314
      -0.728
      -1.237
      -1.618
      -1.681
      -1.387
      -0.866
      -0.342
      -0.005
       0.080
      -0.017
      -0.170
      -0.298
      -0.419
      -0.605
      -0.902
      -1.282
      -1.650
      -1.900
      -1.975
      -1.904
      -1.788
      -1.733
      -1.755
      -1.764
      -1.625
      -1.273
      -0.757
      -0.187
       0.355
       0.849
       1.303
       1.697
       1.972
       2.083
       2.049
       1.962
       1.943
       2.058
       2.268
       2.451
       2.469
       2.238
       1.750
       1.070
       0.300
      -0.447
      -1.080
      -1.542
      -1.807
      -1.879
      -1.792
      -1.606
      -1.373
      -1.107
      -0.778
      -0.349
       0.161
       0.648
       0.969
       1.014
       0.777
       0.362
      -0.066
      -0.345
      -0.390
      -0.223
       0.033
       0.216
       0.214
       0.026
      -0.229
      -0.381
      -0.312
      -0.037
       0.312
       0.560
       0.596
       0.416
       0.136
      -0.065
      -0.027
       0.293
       0.789
       1.262
       1.523
       1.494
       1.222
       0.836
       0.463
       0.161
      -0.085
      -0.316
      -0.531
      -0.663
      -0.613
      -0.338
       0.107
       0.576
       0.917
       1.074
       1.103
       1.106
       1.129
       1.138
       1.079
       0.949
       0.791
       0.639
       0.476
       0.263
       0.013
      -0.180
      -0.187
       0.056
       0.493
       0.971
       1.334
       1.510
       1.518
       1.422
       1.281
       1.122
       0.932
       0.668
       0.287
      -0.205
      -0.727
      -1.157
      -1.409
      -1.484
      -1.463
      -1.435
      -1.451
      -1.525
      -1.674
      -1.920
      -2.245
      -2.546
      -2.645
      -2.393
      -1.781
      -0.964
      -0.170
       0.442
       0.843
       1.084
       1.207
       1.212
       1.096
       0.916
       0.786
       0.812
       1.022
       1.342
       1.635
       1.759
       1.616
       1.190
       0.583
       0.012
      -0.289
      -0.206
       0.185
       0.667
       1.022
       1.129
       0.980
       0.641
       0.212
      -0.194
      -0.485
      -0.632
      -0.675
      -0.689
      -0.733
      -0.817
      -0.924
      -1.033
      -1.129
      -1.199
      -1.225
      -1.213
      -1.207
      -1.275
      -1.455
      -1.705
      -1.914
      -1.970
      -1.834
      -1.537
      -1.128
      -0.636
      -0.093
       0.430
       0.827
       1.019
       0.997
       0.815
       0.546
       0.271
       0.061
      -0.049
      -0.087
      -0.142
      -0.306
      -0.624
      -1.067
      -1.549
      -1.949
      -2.128
      -1.960
      -1.391
      -0.490
       0.549
       1.488
       2.152
       2.510
       2.669
       2.798
       3.008
       3.293
       3.537
       3.602
       3.424
       3.050
       2.601
       2.185
       1.811
       1.382
       0.766
      -0.098
      -1.129
      -2.126
      -2.872
      -3.244
      -3.250
      -2.990
      -2.568
      -2.043
      -1.417
      -0.666
       0.232
       1.243
       2.253
       3.062
       3.465
       3.337
       2.709
       1.744
       0.670
      -0.330
      -1.183
      -1.935
      -2.682
      -3.454
      -4.160
      -4.619
      -4.659
      -4.218
      -3.379
      -2.321
      -1.245
      -0.296
       0.470
       1.097
       1.684
       2.315
       2.984
       3.573
       3.912
       3.887
       3.495
       2.832
       2.018
       1.145
       0.266
      -0.574
      -1.319
      -1.925
      -2.378
      -2.694
      -2.868
      -2.837
      -2.505
      -1.818
      -0.832
       0.302
       1.414
       2.401
       3.246
       3.954
       4.480
       4.713
       4.545
       3.978
       3.156
       2.295
       1.551
       0.964
       0.508
       0.187
       0.056
       0.129
       0.286
       0.307
       0.022
      -0.542
      -1.163
      -1.577
      -1.663
      -1.496
      -1.247
      -1.030
      -0.853
      -0.685
      -0.543
      -0.503
      -0.637
      -0.934
      -1.303
      -1.637
      -1.872
      -1.993
      -2.005
      -1.921
      -1.769
      -1.603
      -1.477
      -1.407
      -1.354
      -1.246
      -1.011
      -0.630
      -0.176
       0.196
       0.337
       0.195
      -0.137
      -0.486
      -0.680
      -0.631
      -0.341
       0.115
       0.634
       1.122
       1.505
       1.720
       1.729
       1.549
       1.269
       1.009
       0.842
       0.740
       0.608
       0.370
       0.033
      -0.323
      -0.627
      -0.869
      -1.076
      -1.254
      -1.359
      -1.323
      -1.100
      -0.692
      -0.146
       0.445
       0.949
       1.224
       1.160
       0.757
       0.152
      -0.419
      -0.739
      -0.728
      -0.476
      -0.175
      -0.008
      -0.057
      -0.270
      -0.481
      -0.504
      -0.242
       0.235
       0.744
       1.123
       1.353
       1.558
       1.890
       2.379
       2.892
       3.203
       3.150
       2.728
       2.073
       1.355
       0.680
       0.060
      -0.547
      -1.166
      -1.776
      -2.313
      -2.730
      -3.030
      -3.268
      -3.496
      -3.707
      -3.814
      -3.690
      -3.249
      -2.517
      -1.643
      -0.836
      -0.260
       0.032
       0.088
      -0.005
      -0.183
      -0.427
      -0.747
      -1.152
      -1.632
      -2.166
      -2.741
      -3.335
      -3.865
      -4.159
      -4.013
      -3.320
      -2.155
      -0.753
       0.612
       1.746
       2.590
       3.184
       3.597
       3.862
       3.971
       3.891
       3.598
       3.102
       2.469
       1.821
       1.292
       0.950
       0.740
       0.514
       0.137
      -0.399
      -0.945
      -1.296
      -1.328
      -1.080
      -0.706
      -0.355
      -0.061
       0.263
       0.724
       1.329
       1.945
       2.353
       2.372
       1.951
       1.191
       0.290
      -0.533
      -1.117
      -1.398
      -1.434
      -1.368
      -1.352
      -1.446
      -1.585
      -1.618
      -1.409
      -0.932
      -0.288
       0.358
       0.878
       1.230
       1.450
       1.585
       1.631
       1.546
       1.300
       0.945
       0.604
       0.403
       0.398
       0.561
       0.832
       1.173
       1.554
       1.909
       2.135
       2.143
       1.945
       1.670
       1.518
       1.638
       2.033
       2.542
       2.919
       2.963
       2.618
       1.981
       1.230
       0.534
      -0.015
      -0.405
      -0.664
      -0.830
      -0.930
      -0.994
      -1.051
      -1.119
      -1.196
      -1.270
      -1.330
      -1.379
      -1.414
      -1.403
      -1.287
      -0.999
      -0.524
       0.077
       0.665
       1.076
       1.174
       0.893
       0.269
      -0.563
      -1.413
      -2.104
      -2.523
      -2.613
      -2.369
      -1.849
      -1.195
      -0.599
      -0.211
      -0.064
      -0.060
      -0.050
       0.070
       0.319
       0.633
       0.914
       1.066
       1.019
       0.747
       0.279
      -0.293
      -0.845
      -1.258
      -1.460
      -1.449
      -1.282
      -1.040
      -0.778
      -0.509
      -0.213
       0.117
       0.460
       0.775
       1.039
       1.260
       1.457
       1.612
       1.654
       1.494
       1.103
       0.526
      -0.154
      -0.869
      -1.582
      -2.257
      -2.833
      -3.231
      -3.393
      -3.317
      -3.062
      -2.721
      -2.377
      -2.053
      -1.698
      -1.217
      -0.544
       0.283
       1.106
       1.708
       1.935
       1.791
       1.447
       1.145
       1.054
       1.163
       1.288
       1.197
       0.774
       0.101
      -0.588
      -1.050
      -1.146
      -0.903
      -0.486
      -0.104
       0.109
       0.169
       0.214
       0.383
       0.703
       1.069
       1.321
       1.362
       1.216
       0.991
       0.787
       0.624
       0.462
       0.247
      -0.039
      -0.376
      -0.706
      -0.946
      -1.017
      -0.891
      -0.628
      -0.355
      -0.198
      -0.206
      -0.321
      -0.437
      -0.472
      -0.424
      -0.347
      -0.305
      -0.343
      -0.479
      -0.699
      -0.951
      -1.161
      -1.278
      -1.321
      -1.377
      -1.529
      -1.764
      -1.949
      -1.917
      -1.599
      -1.081
      -0.540
      -0.107
       0.209
       0.497
       0.851
       1.288
       1.734
       2.048
       2.108
       1.882
       1.463
       1.020
       0.710
       0.597
       0.650
       0.795
       0.961
       1.097
       1.155
       1.093
       0.898
       0.606
       0.278
      -0.033
      -0.305
      -0.531
      -0.700
      -0.788
      -0.781
      -0.688
      -0.543
      -0.371
      -0.175
       0.060
       0.324
       0.567
       0.719
       0.743
       0.679
       0.622
       0.662
       0.825
       1.052
       1.236
       1.292
       1.184
       0.914
       0.507
       0.017
      -0.456
      -0.781
      -0.873
      -0.773
      -0.634
      -0.627
      -0.809
      -1.076
      -1.234
      -1.125
      -0.727
      -0.158
       0.408
       0.841
       1.105
       1.247
       1.349
       1.470
       1.605
       1.689
       1.627
       1.365
       0.936
       0.470
       0.126
       0.002
       0.071
       0.198
       0.223
       0.050
      -0.308
      -0.742
      -1.105
      -1.275
      -1.197
      -0.909
