Origin Time       09/01/2013 07:44:20
Lat.              29.75 N
Long.             81.74 E
Depth (Km)         34.0
Magnitude         5.0
 Region           NEPAL                                                            
 Above details taken from IIT 
     
Station Code      PTI
Station Lat.       29.407  N
Station Long.      79.931  E
Station Height(m) 1667.0
Site Class        A   Vs30 between 700 m/sec to 1400 m/sec * 
Record Time       09.01.2013 07:44:39.314
Sampling Rate     200. Hz
 Record Duration   84.525 Sec.
 Direction         E-W (E positive)
Max. Acceleration     -4.211 cm/sec**2
     
  * For reference see Site Classification link of website 
     
 Base Line Corrected and Low Pass Filtered (Cut Off at 35 Hz) Time History
 Acceleration data in cm/sec**2
    
[...]
       0.131
       0.168
       0.227
       0.298
       0.365
       0.416
       0.445
       0.455
       0.447
       0.420
       0.378
       0.326
       0.268
       0.206
       0.147
       0.098
       0.061
       0.031
      -0.001
      -0.041
      -0.089
      -0.139
      -0.184
      -0.216
      -0.231
      -0.231
      -0.220
      -0.202
      -0.180
      -0.155
      -0.125
      -0.086
      -0.039
       0.009
       0.052
       0.084
       0.102
       0.105
       0.092
       0.066
       0.029
      -0.015
      -0.060
      -0.099
      -0.124
      -0.133
      -0.133
      -0.131
      -0.136
      -0.151
      -0.174
      -0.199
      -0.223
      -0.244
      -0.257
      -0.255
      -0.238
      -0.208
      -0.166
      -0.103
      -0.009
       0.121
       0.275
       0.424
       0.534
       0.585
       0.587
       0.567
       0.551
       0.542
       0.528
       0.498
       0.444
       0.377
       0.308
       0.248
       0.195
       0.140
       0.073
      -0.008
      -0.097
      -0.185
      -0.259
      -0.311
      -0.340
      -0.352
      -0.354
      -0.355
      -0.361
      -0.376
      -0.396
      -0.413
      -0.419
      -0.411
      -0.388
      -0.353
      -0.306
      -0.250
      -0.189
      -0.130
      -0.085
      -0.062
      -0.057
      -0.058
      -0.048
      -0.016
       0.038
       0.107
       0.177
       0.235
       0.280
       0.318
       0.352
       0.384
       0.410
       0.428
       0.438
       0.443
       0.448
       0.456
       0.465
       0.467
       0.456
       0.429
       0.387
       0.331
       0.264
       0.186
       0.099
       0.009
      -0.071
      -0.127
      -0.157
      -0.172
      -0.186
      -0.207
      -0.239
      -0.280
      -0.330
      -0.392
      -0.468
      -0.550
      -0.628
      -0.687
      -0.719
      -0.718
      -0.680
      -0.605
      -0.504
      -0.390
      -0.278
      -0.178
      -0.095
      -0.027
       0.034
       0.096
       0.166
       0.244
       0.322
       0.390
       0.431
       0.438
       0.419
       0.395
       0.388
       0.407
       0.449
       0.497
       0.531
       0.532
       0.491
       0.407
       0.294
       0.174
       0.067
      -0.015
      -0.074
      -0.119
      -0.151
      -0.173
      -0.191
      -0.222
      -0.279
      -0.370
      -0.481
      -0.584
      -0.644
      -0.639
      -0.566
      -0.444
      -0.298
      -0.157
      -0.042
       0.035
       0.077
       0.097
       0.106
       0.115
       0.124
       0.132
       0.135
       0.136
       0.139
       0.150
       0.166
       0.186
       0.214
       0.253
       0.301
       0.348
       0.387
       0.408
       0.413
       0.405
       0.394
       0.385
       0.371
       0.341
       0.288
       0.211
       0.117
       0.012
      -0.091
      -0.187
      -0.276
      -0.363
      -0.446
      -0.516
      -0.563
      -0.580
      -0.567
      -0.532
      -0.485
      -0.430
      -0.369
      -0.302
      -0.230
      -0.153
      -0.068
       0.022
       0.106
       0.169
       0.204
       0.216
       0.219
       0.226
       0.244
       0.269
       0.289
       0.288
       0.261
       0.209
       0.136
       0.050
      -0.039
      -0.126
      -0.205
      -0.264
      -0.288
      -0.263
      -0.194
      -0.103
      -0.018
       0.043
       0.078
       0.097
       0.111
       0.123
       0.126
       0.114
       0.085
       0.049
       0.019
       0.013
       0.042
       0.104
       0.181
       0.250
       0.291
       0.302
       0.284
       0.249
       0.203
       0.149
       0.084
       0.008
      -0.064
      -0.118
      -0.142
      -0.141
      -0.123
      -0.101
      -0.080
      -0.056
      -0.021
       0.027
       0.079
       0.124
       0.158
       0.188
       0.222
       0.263
       0.302
       0.324
       0.320
       0.293
       0.255
       0.211
       0.158
       0.092
       0.015
      -0.071
      -0.162
      -0.254
      -0.340
      -0.418
      -0.493
      -0.563
      -0.619
      -0.647
      -0.637
      -0.593
      -0.528
      -0.459
      -0.404
      -0.364
      -0.327
      -0.283
      -0.230
      -0.169
      -0.101
      -0.024
       0.060
       0.147
       0.230
       0.297
       0.345
       0.379
       0.411
       0.447
       0.485
       0.519
       0.544
       0.557
       0.549
       0.515
       0.455
       0.375
       0.290
       0.215
       0.162
       0.128
       0.098
       0.056
      -0.005
      -0.076
      -0.144
      -0.198
      -0.233
      -0.256
      -0.269
      -0.271
      -0.259
      -0.231
      -0.194
      -0.155
      -0.113
      -0.065
      -0.018
       0.021
       0.042
       0.040
       0.019
      -0.007
      -0.021
      -0.011
       0.021
       0.064
       0.104
       0.126
       0.117
       0.079
       0.025
      -0.024
      -0.056
      -0.066
      -0.065
      -0.066
      -0.080
      -0.111
      -0.153
      -0.207
      -0.271
      -0.340
      -0.398
      -0.430
      -0.425
      -0.387
      -0.326
      -0.263
      -0.211
      -0.178
      -0.162
      -0.158
      -0.161
      -0.169
      -0.178
      -0.184
      -0.189
      -0.189
      -0.179
      -0.154
      -0.106
      -0.030
       0.070
       0.186
       0.304
       0.415
       0.510
       0.586
       0.642
       0.686
       0.724
       0.757
       0.777
       0.768
       0.719
       0.626
       0.496
       0.347
       0.195
       0.058
      -0.054
      -0.131
      -0.174
      -0.194
      -0.208
      -0.226
      -0.250
      -0.279
      -0.306
      -0.327
      -0.343
      -0.357
      -0.378
      -0.406
      -0.436
      -0.461
      -0.476
      -0.481
      -0.476
      -0.461
      -0.435
      -0.397
      -0.339
      -0.252
      -0.131
       0.023
       0.198
       0.368
       0.507
       0.600
       0.645
       0.646
       0.603
       0.513
       0.372
       0.186
      -0.026
      -0.228
      -0.388
      -0.481
      -0.497
      -0.439
      -0.321
      -0.169
      -0.016
       0.116
       0.215
       0.282
       0.326
       0.354
       0.375
       0.392
       0.404
       0.411
       0.412
       0.405
       0.390
       0.372
       0.360
       0.357
       0.359
       0.356
       0.335
       0.290
       0.229
       0.165
       0.109
       0.060
       0.005
      -0.060
      -0.126
      -0.175
      -0.194
      -0.185
      -0.165
      -0.159
      -0.183
      -0.238
      -0.311
      -0.398
      -0.499
      -0.623
      -0.763
      -0.902
      -1.010
      -1.060
      -1.044
      -0.970
      -0.859
      -0.732
      -0.608
      -0.509
      -0.450
      -0.433
      -0.445
      -0.466
      -0.479
      -0.469
      -0.432
      -0.369
      -0.288
      -0.197
      -0.101
      -0.002
       0.104
       0.224
       0.364
       0.524
       0.691
       0.850
       0.978
       1.058
       1.081
       1.053
       0.990
       0.915
       0.841
       0.778
       0.722
       0.667
       0.610
       0.547
       0.472
       0.371
       0.233
       0.057
      -0.145
      -0.358
      -0.570
      -0.772
      -0.957
      -1.116
      -1.240
      -1.323
      -1.363
      -1.364
      -1.324
      -1.232
      -1.074
      -0.847
      -0.566
      -0.257
       0.052
       0.342
       0.607
       0.852
       1.081
       1.297
       1.502
       1.698
       1.884
       2.043
       2.155
       2.198
       2.149
       1.990
       1.712
       1.324
       0.854
       0.346
      -0.151
      -0.595
      -0.964
      -1.258
      -1.489
      -1.664
      -1.786
      -1.855
      -1.873
      -1.838
      -1.753
      -1.626
      -1.475
      -1.319
      -1.175
      -1.048
      -0.930
      -0.801
      -0.648
      -0.464
      -0.246
       0.014
       0.329
       0.706
       1.142
       1.620
       2.110
       2.575
       2.974
       3.274
       3.446
       3.467
       3.333
       3.064
       2.691
       2.254
       1.786
       1.313
       0.846
       0.385
      -0.070
      -0.515
      -0.939
      -1.324
      -1.653
      -1.909
      -2.083
      -2.173
      -2.178
      -2.100
      -1.947
      -1.732
      -1.477
      -1.205
      -0.939
      -0.694
      -0.474
      -0.267
      -0.057
       0.170
       0.419
       0.678
       0.924
       1.127
       1.265
       1.331
       1.326
       1.260
       1.150
       1.014
       0.865
       0.701
       0.511
       0.287
       0.033
      -0.234
      -0.488
      -0.708
      -0.892
      -1.050
      -1.191
      -1.314
      -1.406
      -1.455
      -1.453
      -1.399
      -1.300
      -1.173
      -1.037
      -0.907
      -0.795
      -0.710
      -0.659
      -0.647
      -0.681
      -0.764
      -0.896
      -1.069
      -1.268
      -1.471
      -1.650
      -1.770
      -1.802
      -1.719
      -1.503
      -1.153
      -0.693
      -0.164
       0.394
       0.945
       1.465
       1.928
       2.315
       2.615
       2.826
       2.954
       3.000
       2.964
       2.836
       2.610
       2.289
       1.882
       1.406
       0.877
       0.309
      -0.281
      -0.882
      -1.476
      -2.034
      -2.509
      -2.856
      -3.049
      -3.091
      -3.012
      -2.852
      -2.631
      -2.349
      -1.994
      -1.567
      -1.096
      -0.618
      -0.162
       0.263
       0.662
       1.038
       1.390
       1.708
       1.985
       2.227
       2.444
       2.637
       2.795
       2.899
       2.929
       2.868
       2.696
       2.393
       1.941
       1.349
       0.657
      -0.067
      -0.752
      -1.353
      -1.856
      -2.270
      -2.613
      -2.911
      -3.180
      -3.422
      -3.611
      -3.700
      -3.641
      -3.405
      -2.993
      -2.440
      -1.795
      -1.114
      -0.443
       0.178
       0.720
       1.176
       1.551
       1.862
       2.132
       2.393
       2.674
       2.986
       3.311
       3.608
       3.828
       3.929
       3.890
       3.714
       3.424
       3.045
       2.597
       2.101
       1.572
       1.031
       0.502
       0.015
      -0.405
      -0.747
      -1.015
      -1.226
      -1.401
      -1.554
      -1.696
      -1.823
      -1.923
      -1.991
      -2.029
      -2.050
      -2.063
      -2.075
      -2.073
      -2.034
      -1.931
      -1.749
      -1.493
      -1.185
      -0.857
      -0.544
      -0.269
      -0.040
       0.150
       0.315
       0.475
       0.659
       0.895
       1.196
       1.555
       1.945
       2.326
       2.649
       2.867
       2.940
       2.838
       2.549
       2.089
       1.510
       0.881
       0.268
      -0.282
      -0.743
      -1.098
      -1.335
      -1.445
      -1.433
      -1.327
      -1.172
      -1.017
      -0.894
      -0.819
      -0.795
      -0.824
      -0.896
      -0.993
      -1.080
      -1.121
      -1.083
      -0.955
      -0.755
      -0.525
      -0.306
      -0.124
       0.012
       0.102
       0.145
       0.129
       0.046
      -0.099
      -0.282
      -0.466
      -0.624
      -0.745
      -0.834
      -0.905
      -0.968
      -1.030
      -1.086
      -1.129
      -1.142
      -1.105
      -0.991
      -0.774
      -0.448
      -0.023
       0.477
       1.015
       1.547
       2.025
       2.407
       2.670
       2.811
       2.846
       2.796
       2.678
       2.506
       2.290
       2.046
       1.791
       1.537
       1.281
       1.012
       0.715
       0.378
      -0.005
      -0.432
      -0.894
      -1.377
      -1.860
      -2.315
      -2.707
      -3.014
      -3.223
      -3.331
      -3.331
      -3.213
      -2.960
      -2.563
      -2.036
      -1.416
      -0.760
      -0.131
       0.415
       0.843
       1.145
       1.345
       1.482
       1.595
       1.700
       1.792
       1.848
       1.845
       1.771
       1.638
       1.466
       1.276
       1.083
       0.900
       0.728
       0.560
       0.382
       0.187
      -0.022
      -0.241
      -0.466
      -0.691
      -0.907
      -1.099
      -1.247
      -1.322
      -1.305
      -1.192
      -0.996
      -0.744
      -0.470
      -0.208
       0.012
       0.178
       0.292
       0.368
       0.428
       0.495
       0.588
       0.719
       0.899
       1.134
       1.413
       1.710
       1.985
       2.197
       2.311
       2.305
       2.169
       1.911
       1.553
       1.123
       0.652
       0.167
      -0.320
      -0.803
      -1.280
      -1.740
      -2.167
      -2.546
      -2.861
      -3.103
      -3.263
      -3.339
      -3.329
      -3.235
      -3.062
      -2.820
      -2.520
      -2.163
      -1.749
      -1.274
      -0.740
      -0.155
       0.467
       1.097
       1.699
       2.227
       2.638
       2.905
       3.019
       2.999
       2.875
       2.689
       2.479
       2.279
       2.112
       1.985
       1.893
       1.819
       1.738
       1.622
       1.455
       1.240
       0.996
       0.749
       0.530
       0.360
       0.249
       0.182
       0.124
       0.035
      -0.120
      -0.355
      -0.667
      -1.044
      -1.474
      -1.950
      -2.454
      -2.953
      -3.404
      -3.771
      -4.031
      -4.175
      -4.211
      -4.151
      -4.013
      -3.809
      -3.543
      -3.201
      -2.762
      -2.213
      -1.562
      -0.842
      -0.097
       0.635
       1.326
       1.952
       2.494
       2.936
       3.274
       3.517
       3.685
       3.797
       3.853
       3.840
       3.735
       3.523
       3.202
       2.786
       2.306
       1.803
       1.315
       0.872
       0.497
       0.203
      -0.011
      -0.163
      -0.275
      -0.367
      -0.448
      -0.521
      -0.585
      -0.636
      -0.676
      -0.715
      -0.762
      -0.829
      -0.926
      -1.055
      -1.217
      -1.411
      -1.638
      -1.893
      -2.149
      -2.368
      -2.513
      -2.564
      -2.519
      -2.384
      -2.168
      -1.874
      -1.502
      -1.057
      -0.554
      -0.028
       0.479
       0.921
       1.255
       1.456
       1.525
       1.489
       1.385
       1.252
       1.121
       1.011
       0.930
       0.871
       0.822
       0.765
       0.686
       0.577
       0.447
       0.324
       0.246
       0.247
       0.347
       0.540
       0.794
       1.063
       1.301
       1.474
       1.562
       1.556
       1.461
       1.292
       1.067
       0.808
       0.538
       0.273
       0.025
      -0.203
      -0.409
      -0.591
      -0.747
      -0.875
      -0.971
      -1.033
      -1.062
      -1.059
      -1.016
      -0.921
      -0.762
      -0.538
      -0.267
       0.020
       0.284
       0.499
       0.658
       0.775
       0.868
       0.951
       1.031
       1.108
       1.173
       1.212
       1.212
       1.161
       1.050
       0.869
       0.617
       0.308
      -0.035
      -0.376
      -0.674
      -0.887
      -0.983
      -0.960
      -0.844
      -0.683
      -0.533
      -0.440
      -0.426
      -0.502
      -0.669
      -0.914
      -1.210
      -1.514
      -1.782
      -1.979
      -2.085
      -2.102
      -2.044
      -1.932
      -1.776
      -1.581
      -1.350
      -1.088
      -0.789
      -0.443
      -0.039
       0.425
       0.936
       1.468
       1.985
       2.444
       2.805
       3.039
       3.128
       3.072
       2.880
       2.571
       2.166
       1.688
       1.170
       0.653
       0.173
      -0.244
      -0.585
      -0.850
      -1.044
      -1.160
      -1.190
      -1.130
      -1.005
      -0.857
      -0.738
      -0.684
      -0.714
      -0.820
      -0.979
      -1.163
      -1.349
      -1.513
      -1.635
      -1.704
      -1.714
      -1.660
      -1.535
      -1.333
      -1.058
      -0.735
      -0.394
      -0.069
       0.218
       0.457
       0.649
       0.797
       0.907
       0.987
       1.055
       1.139
       1.265
       1.453
       1.702
       1.992
       2.284
       2.536
       2.717
       2.801
       2.770
       2.612
       2.330
       1.935
       1.449
       0.895
       0.308
      -0.275
      -0.816
      -1.285
      -1.670
      -1.977
      -2.221
      -2.409
      -2.537
      -2.602
      -2.606
      -2.558
      -2.461
      -2.313
      -2.111
      -1.859
      -1.570
      -1.259
      -0.943
      -0.635
      -0.341
      -0.072
       0.157
       0.335
       0.455
       0.527
       0.564
       0.585
       0.615
       0.688
       0.835
       1.075
       1.401
       1.771
       2.123
       2.401
       2.569
       2.615
       2.545
       2.373
       2.117
       1.796
       1.422
       1.000
       0.541
       0.065
      -0.395
      -0.807
      -1.152
      -1.436
      -1.673
      -1.874
      -2.030
      -2.131
      -2.170
      -2.154
      -2.099
      -2.013
      -1.900
      -1.751
      -1.559
      -1.324
      -1.063
      -0.796
      -0.538
      -0.294
      -0.062
       0.167
       0.409
       0.675
       0.967
       1.274
       1.574
       1.838
       2.036
       2.144
       2.145
       2.035
       1.814
       1.503
       1.134
       0.753
       0.401
       0.109
      -0.104
      -0.236
      -0.297
      -0.300
      -0.254
      -0.169
      -0.056
       0.077
       0.220
       0.359
       0.476
       0.552
       0.578
       0.549
       0.461
       0.307
       0.082
      -0.208
      -0.540
      -0.878
      -1.188
      -1.451
      -1.672
      -1.866
      -2.045
      -2.208
      -2.340
      -2.419
      -2.424
      -2.342
      -2.175
      -1.925
      -1.598
      -1.202
      -0.764
      -0.319
       0.093
       0.450
       0.750
       1.004
       1.229
       1.430
       1.602
       1.741
       1.846
       1.917
       1.949
       1.933
       1.863
       1.744
       1.596
       1.448
       1.329
       1.248
       1.194
       1.149
       1.097
       1.032
       0.958
       0.882
       0.809
       0.733
       0.639
       0.513
       0.354
       0.167
      -0.036
      -0.236
      -0.414
      -0.560
      -0.674
      -0.770
      -0.862
      -0.962
      -1.070
      -1.171
      -1.245
      -1.274
      -1.254
      -1.188
      -1.076
      -0.915
      -0.699
      -0.426
      -0.106
       0.232
       0.539
       0.767
       0.883
       0.883
       0.799
       0.682
       0.585
       0.532
       0.514
       0.497
       0.442
       0.319
       0.116
      -0.153
      -0.453
      -0.748
      -1.003
      -1.191
      -1.298
      -1.325
      -1.283
      -1.189
      -1.056
      -0.898
      -0.725
      -0.545
      -0.356
      -0.160
       0.043
       0.246
       0.441
       0.619
       0.775
       0.910
       1.031
       1.141
       1.236
       1.307
       1.339
       1.320
       1.246
       1.129
       0.987
       0.834
       0.674
       0.507
       0.332
       0.145
      -0.062
      -0.298
      -0.564
      -0.855
