Origin Time       11/11/2012 18:39:19
Lat.              29.2 N	
Long.             81.5 E	
Depth (Km)         10.0
Magnitude         5.0
 Region           Western-NEPAL                                                    
 Above details taken from IMD 
     
Station Code      PTI
Station Lat.       29.407  N
Station Long.      79.931  E
Station Height(m) 1667.0
Site Class        A   Vs30 between 700 m/sec to 1400 m/sec * 
Record Time       11.11.2012 18:39:35.874
Sampling Rate     200. Hz
 Record Duration   82.740 Sec.
 Direction         E-W (E positive)
Max. Acceleration      3.477 cm/sec**2
     
  * For reference see Site Classification link of website 
     
 Base Line Corrected and Low Pass Filtered (Cut Off at 35 Hz) Time History
 Acceleration data in cm/sec**2
    
[...]
      -0.040
      -0.123
      -0.180
      -0.210
      -0.218
      -0.210
      -0.193
      -0.172
      -0.151
      -0.135
      -0.133
      -0.157
      -0.210
      -0.282
      -0.350
      -0.390
      -0.384
      -0.336
      -0.262
      -0.181
      -0.105
      -0.034
       0.029
       0.082
       0.124
       0.153
       0.172
       0.189
       0.212
       0.241
       0.270
       0.286
       0.283
       0.262
       0.228
       0.189
       0.148
       0.106
       0.066
       0.032
       0.010
      -0.001
      -0.006
      -0.013
      -0.025
      -0.039
      -0.051
      -0.060
      -0.071
      -0.091
      -0.122
      -0.161
      -0.200
      -0.230
      -0.249
      -0.259
      -0.260
      -0.253
      -0.238
      -0.212
      -0.168
      -0.100
      -0.009
       0.092
       0.185
       0.257
       0.299
       0.315
       0.311
       0.292
       0.252
       0.185
       0.093
      -0.009
      -0.097
      -0.148
      -0.151
      -0.116
      -0.067
      -0.025
       0.001
       0.009
       0.000
      -0.026
      -0.070
      -0.130
      -0.201
      -0.275
      -0.349
      -0.418
      -0.476
      -0.506
      -0.493
      -0.431
      -0.335
      -0.222
      -0.109
       0.001
       0.104
       0.198
       0.274
       0.323
       0.345
       0.355
       0.370
       0.404
       0.451
       0.492
       0.509
       0.491
       0.441
       0.367
       0.284
       0.199
       0.115
       0.029
      -0.055
      -0.132
      -0.197
      -0.243
      -0.270
      -0.278
      -0.278
      -0.280
      -0.291
      -0.316
      -0.349
      -0.384
      -0.410
      -0.422
      -0.419
      -0.403
      -0.377
      -0.345
      -0.308
      -0.264
      -0.206
      -0.124
      -0.017
       0.108
       0.232
       0.334
       0.390
       0.392
       0.348
       0.280
       0.216
       0.174
       0.162
       0.171
       0.190
       0.211
       0.231
       0.246
       0.252
       0.246
       0.230
       0.208
       0.184
       0.159
       0.132
       0.096
       0.049
      -0.011
      -0.083
      -0.168
      -0.266
      -0.372
      -0.467
      -0.529
      -0.538
      -0.484
      -0.381
      -0.259
      -0.155
      -0.092
      -0.077
      -0.100
      -0.148
      -0.204
      -0.255
      -0.289
      -0.303
      -0.295
      -0.263
      -0.205
      -0.121
      -0.020
       0.086
       0.181
       0.257
       0.315
       0.366
       0.412
       0.447
       0.463
       0.455
       0.420
       0.364
       0.295
       0.224
       0.159
       0.104
       0.060
       0.027
       0.003
      -0.018
      -0.039
      -0.066
      -0.097
      -0.132
      -0.163
      -0.184
      -0.190
      -0.181
      -0.161
      -0.140
      -0.126
      -0.119
      -0.110
      -0.093
      -0.067
      -0.045
      -0.035
      -0.041
      -0.057
      -0.073
      -0.080
      -0.073
      -0.051
      -0.018
       0.023
       0.061
       0.082
       0.080
       0.058
       0.025
      -0.010
      -0.043
      -0.077
      -0.113
      -0.144
      -0.156
      -0.137
      -0.087
      -0.027
       0.012
       0.009
      -0.030
      -0.082
      -0.119
      -0.126
      -0.105
      -0.069
      -0.022
       0.039
       0.121
       0.215
       0.301
       0.360
       0.383
       0.371
       0.335
       0.288
       0.242
       0.201
       0.165
       0.123
       0.070
       0.001
      -0.075
      -0.144
      -0.189
      -0.205
      -0.198
      -0.177
      -0.150
      -0.119
      -0.081
      -0.038
       0.003
       0.032
       0.045
       0.046
       0.043
       0.043
       0.047
       0.049
       0.044
       0.025
      -0.010
      -0.052
      -0.096
      -0.139
      -0.184
      -0.230
      -0.271
      -0.296
      -0.294
      -0.260
      -0.202
      -0.137
      -0.087
      -0.061
      -0.057
      -0.068
      -0.089
      -0.114
      -0.138
      -0.156
      -0.164
      -0.159
      -0.140
      -0.112
      -0.080
      -0.049
      -0.018
       0.014
       0.052
       0.106
       0.181
       0.267
       0.346
       0.392
       0.392
       0.349
       0.282
       0.217
       0.171
       0.141
       0.118
       0.097
       0.082
       0.081
       0.097
       0.117
       0.127
       0.114
       0.077
       0.024
      -0.038
      -0.103
      -0.166
      -0.215
      -0.239
      -0.234
      -0.207
      -0.175
      -0.157
      -0.166
      -0.199
      -0.238
      -0.265
      -0.273
      -0.264
      -0.248
      -0.227
      -0.196
      -0.148
      -0.082
      -0.009
       0.053
       0.092
       0.108
       0.107
       0.097
       0.085
       0.077
       0.079
       0.093
       0.118
       0.154
       0.194
       0.229
       0.249
       0.250
       0.232
       0.197
       0.148
       0.088
       0.021
      -0.047
      -0.110
      -0.162
      -0.198
      -0.219
      -0.223
      -0.210
      -0.186
      -0.158
      -0.137
      -0.129
      -0.131
      -0.139
      -0.146
      -0.151
      -0.154
      -0.161
      -0.169
      -0.173
      -0.162
      -0.132
      -0.084
      -0.024
       0.040
       0.096
       0.139
       0.168
       0.187
       0.204
       0.226
       0.257
       0.295
       0.330
       0.348
       0.341
       0.306
       0.252
       0.189
       0.128
       0.073
       0.018
      -0.042
      -0.105
      -0.166
      -0.217
      -0.253
      -0.271
      -0.272
      -0.260
      -0.242
      -0.222
      -0.199
      -0.170
      -0.127
      -0.067
       0.007
       0.080
       0.137
       0.168
       0.175
       0.168
       0.160
       0.155
       0.151
       0.142
       0.124
       0.104
       0.088
       0.081
       0.079
       0.078
       0.069
       0.049
       0.018
      -0.012
      -0.031
      -0.030
      -0.010
       0.024
       0.061
       0.088
       0.097
       0.087
       0.064
       0.034
      -0.005
      -0.057
      -0.130
      -0.221
      -0.321
      -0.415
      -0.489
      -0.535
      -0.548
      -0.525
      -0.473
      -0.402
      -0.327
      -0.261
      -0.211
      -0.175
      -0.148
      -0.122
      -0.098
      -0.081
      -0.075
      -0.080
      -0.094
      -0.112
      -0.128
      -0.135
      -0.131
      -0.119
      -0.104
      -0.091
      -0.078
      -0.060
      -0.035
      -0.002
       0.035
       0.074
       0.116
       0.166
       0.227
       0.292
       0.355
       0.406
       0.437
       0.441
       0.427
       0.410
       0.409
       0.430
       0.470
       0.517
       0.555
       0.579
       0.587
       0.581
       0.561
       0.528
       0.483
       0.430
       0.372
       0.310
       0.243
       0.175
       0.105
       0.025
      -0.075
      -0.205
      -0.362
      -0.528
      -0.674
      -0.777
      -0.837
      -0.870
      -0.896
      -0.924
      -0.954
      -0.981
      -1.009
      -1.049
      -1.105
      -1.170
      -1.217
      -1.214
      -1.146
      -1.017
      -0.847
      -0.657
      -0.460
      -0.261
      -0.059
       0.145
       0.345
       0.531
       0.692
       0.821
       0.911
       0.965
       0.995
       1.020
       1.051
       1.091
       1.129
       1.149
       1.136
       1.081
       0.988
       0.871
       0.742
       0.612
       0.480
       0.343
       0.199
       0.050
      -0.097
      -0.236
      -0.369
      -0.507
      -0.656
      -0.810
      -0.950
      -1.049
      -1.087
      -1.059
      -0.981
      -0.881
      -0.781
      -0.689
      -0.600
      -0.508
      -0.414
      -0.318
      -0.222
      -0.117
       0.005
       0.148
       0.301
       0.444
       0.563
       0.655
       0.728
       0.794
       0.861
       0.930
       0.995
       1.046
       1.077
       1.082
       1.054
       0.986
       0.872
       0.708
       0.499
       0.255
      -0.002
      -0.250
      -0.470
      -0.654
      -0.799
      -0.911
      -1.000
      -1.078
      -1.155
      -1.225
      -1.278
      -1.296
      -1.271
      -1.201
      -1.101
      -0.988
      -0.867
      -0.735
      -0.584
      -0.409
      -0.218
      -0.024
       0.168
       0.361
       0.566
       0.782
       0.990
       1.158
       1.257
       1.282
       1.248
       1.184
       1.113
       1.049
       0.995
       0.949
       0.908
       0.867
       0.817
       0.747
       0.650
       0.526
       0.381
       0.224
       0.062
      -0.100
      -0.256
      -0.398
      -0.520
      -0.621
      -0.708
      -0.791
      -0.879
      -0.970
      -1.062
      -1.151
      -1.231
      -1.293
      -1.328
      -1.330
      -1.298
      -1.238
      -1.157
      -1.061
      -0.949
      -0.815
      -0.657
      -0.479
      -0.294
      -0.118
       0.038
       0.165
       0.265
       0.347
       0.426
       0.516
       0.628
       0.754
       0.878
       0.975
       1.037
       1.069
       1.085
       1.096
       1.099
       1.086
       1.047
       0.982
       0.892
       0.779
       0.636
       0.456
       0.239
      -0.006
      -0.263
      -0.517
      -0.755
      -0.966
      -1.137
      -1.263
      -1.344
      -1.388
      -1.409
      -1.411
      -1.386
      -1.319
      -1.198
      -1.024
      -0.811
      -0.572
      -0.322
      -0.070
       0.175
       0.399
       0.590
       0.738
       0.848
       0.929
       0.992
       1.040
       1.076
       1.102
       1.113
       1.107
       1.077
       1.022
       0.944
       0.852
       0.754
       0.657
       0.567
       0.492
       0.441
       0.419
       0.419
       0.429
       0.433
       0.420
       0.382
       0.320
       0.241
       0.155
       0.070
      -0.007
      -0.072
      -0.127
      -0.182
      -0.252
      -0.346
      -0.461
      -0.580
      -0.681
      -0.748
      -0.774
      -0.770
      -0.755
      -0.743
      -0.738
      -0.734
      -0.724
      -0.702
      -0.668
      -0.622
      -0.562
      -0.486
      -0.400
      -0.310
      -0.226
      -0.149
      -0.078
      -0.007
       0.072
       0.167
       0.281
       0.409
       0.540
       0.667
       0.787
       0.894
       0.983
       1.052
       1.100
       1.121
       1.105
       1.038
       0.912
       0.728
       0.495
       0.223
      -0.083
      -0.425
      -0.797
      -1.174
      -1.519
      -1.788
      -1.950
      -1.998
      -1.949
      -1.834
      -1.686
      -1.529
      -1.383
      -1.264
      -1.176
      -1.110
      -1.044
      -0.951
      -0.810
      -0.604
      -0.329
       0.007
       0.385
       0.777
       1.151
       1.475
       1.725
       1.890
       1.980
       2.011
       2.009
       1.993
       1.977
       1.965
       1.955
       1.943
       1.919
       1.865
       1.765
       1.603
       1.375
       1.082
       0.741
       0.379
       0.027
      -0.294
      -0.576
      -0.827
      -1.054
      -1.263
      -1.452
      -1.617
      -1.757
      -1.872
      -1.964
      -2.032
      -2.078
      -2.103
      -2.100
      -2.058
      -1.963
      -1.812
      -1.610
      -1.368
      -1.102
      -0.824
      -0.545
      -0.274
      -0.025
       0.185
       0.345
       0.455
       0.521
       0.555
       0.572
       0.597
       0.658
       0.777
       0.958
       1.182
       1.416
       1.628
       1.802
       1.937
       2.033
       2.078
       2.056
       1.955
       1.774
       1.529
       1.246
       0.954
       0.674
       0.409
       0.151
      -0.111
      -0.386
      -0.672
      -0.958
      -1.224
      -1.446
      -1.608
      -1.711
      -1.777
      -1.837
      -1.917
      -2.021
      -2.132
      -2.217
      -2.249
      -2.207
      -2.081
      -1.863
      -1.549
      -1.138
      -0.644
      -0.097
       0.464
       1.007
       1.516
       1.983
       2.399
       2.747
       3.011
       3.182
       3.262
       3.262
       3.187
       3.031
       2.781
       2.432
       1.995
       1.500
       0.990
       0.515
       0.115
      -0.192
      -0.412
      -0.564
      -0.669
      -0.750
      -0.830
      -0.933
      -1.077
      -1.258
      -1.458
      -1.651
      -1.821
      -1.961
      -2.068
      -2.134
      -2.145
      -2.099
      -2.009
      -1.895
      -1.774
      -1.647
      -1.505
      -1.343
      -1.164
      -0.979
      -0.798
      -0.621
      -0.437
      -0.236
      -0.019
       0.204
       0.415
       0.601
       0.751
       0.867
       0.951
       1.005
       1.032
       1.039
       1.036
       1.030
       1.022
       1.004
       0.969
       0.920
       0.872
       0.843
       0.844
       0.869
       0.907
       0.954
       1.009
       1.070
       1.122
       1.142
       1.104
       0.987
       0.789
       0.530
       0.236
      -0.071
      -0.387
      -0.719
      -1.071
      -1.438
      -1.800
      -2.134
      -2.418
      -2.646
      -2.814
      -2.913
      -2.926
      -2.834
      -2.626
      -2.303
      -1.880
      -1.376
      -0.823
      -0.260
       0.269
       0.729
       1.112
       1.437
       1.743
       2.056
       2.381
       2.700
       2.988
       3.223
       3.390
       3.477
       3.468
       3.341
       3.083
       2.696
       2.205
       1.648
       1.065
       0.491
      -0.055
      -0.562
      -1.022
      -1.422
      -1.741
      -1.956
      -2.053
      -2.023
      -1.876
      -1.637
      -1.352
      -1.070
      -0.831
      -0.656
      -0.539
      -0.463
      -0.414
      -0.394
      -0.415
      -0.489
      -0.613
      -0.774
      -0.946
      -1.097
      -1.201
      -1.244
      -1.224
      -1.147
      -1.022
      -0.860
      -0.675
      -0.479
      -0.279
      -0.073
       0.146
       0.390
       0.655
       0.922
       1.164
       1.361
       1.504
       1.599
       1.656
       1.681
       1.678
       1.647
       1.585
       1.492
       1.371
       1.229
       1.071
       0.897
       0.699
       0.464
       0.186
      -0.129
      -0.467
      -0.809
      -1.135
      -1.424
      -1.657
      -1.826
      -1.926
      -1.950
      -1.886
      -1.728
      -1.477
      -1.150
      -0.780
      -0.419
      -0.128
       0.044
       0.078
      -0.003
      -0.143
      -0.276
      -0.352
      -0.351
      -0.273
      -0.120
       0.110
       0.423
       0.812
       1.252
       1.708
       2.140
       2.512
       2.796
       2.964
       2.994
       2.876
       2.615
       2.230
       1.744
       1.185
       0.584
      -0.024
      -0.608
      -1.140
      -1.599
      -1.969
      -2.242
      -2.418
      -2.496
      -2.484
      -2.388
      -2.217
      -1.978
      -1.681
      -1.349
      -1.006
      -0.680
      -0.392
      -0.163
      -0.006
       0.083
       0.122
       0.143
       0.173
       0.233
       0.325
       0.447
       0.595
       0.767
       0.951
       1.120
       1.234
       1.263
       1.191
       1.025
       0.793
       0.533
       0.282
       0.066
      -0.101
      -0.211
      -0.258
      -0.242
      -0.177
      -0.090
      -0.016
       0.014
      -0.014
      -0.100
      -0.243
      -0.445
      -0.701
      -0.982
      -1.241
      -1.430
      -1.512
      -1.470
      -1.303
      -1.029
      -0.683
      -0.316
       0.019
       0.284
       0.471
       0.598
       0.697
       0.785
       0.870
       0.951
       1.028
       1.101
       1.163
       1.205
       1.210
       1.165
       1.064
       0.910
       0.712
       0.479
       0.227
      -0.019
      -0.231
      -0.386
      -0.472
      -0.494
      -0.476
      -0.452
      -0.452
      -0.491
      -0.561
      -0.638
      -0.690
      -0.690
      -0.627
      -0.513
      -0.377
      -0.249
      -0.149
      -0.077
      -0.025
       0.017
       0.052
       0.079
       0.097
       0.107
       0.107
       0.092
       0.053
      -0.016
      -0.117
      -0.241
      -0.372
      -0.488
      -0.569
      -0.606
      -0.593
      -0.531
      -0.424
      -0.286
      -0.135
       0.020
       0.176
       0.334
       0.492
       0.641
       0.770
       0.876
       0.969
       1.057
       1.136
       1.181
       1.160
       1.055
       0.875
       0.658
       0.453
       0.300
       0.220
       0.211
       0.264
       0.359
       0.462
       0.524
       0.502
       0.378
       0.171
      -0.072
      -0.304
      -0.497
      -0.647
      -0.765
      -0.859
      -0.929
      -0.970
      -0.979
      -0.953
      -0.892
      -0.799
      -0.683
      -0.548
      -0.401
      -0.246
      -0.100
       0.017
       0.081
       0.079
       0.016
      -0.081
      -0.175
      -0.241
      -0.271
      -0.275
      -0.265
      -0.259
      -0.270
      -0.311
      -0.378
      -0.452
      -0.497
      -0.479
      -0.388
      -0.243
      -0.085
       0.056
       0.170
       0.270
       0.372
       0.477
       0.574
       0.650
       0.703
       0.738
       0.769
       0.801
       0.834
       0.859
       0.863
       0.831
       0.751
       0.625
       0.472
       0.323
       0.212
       0.160
       0.166
       0.208
       0.246
       0.243
       0.172
       0.026
      -0.189
      -0.451
      -0.738
      -1.027
      -1.298
      -1.532
      -1.712
      -1.826
      -1.865
      -1.817
      -1.677
      -1.451
      -1.157
      -0.816
      -0.438
      -0.031
       0.393
       0.809
       1.185
       1.486
       1.684
       1.765
       1.735
       1.615
       1.442
       1.256
       1.097
       0.990
       0.940
       0.922
       0.892
       0.799
       0.611
       0.326
      -0.024
      -0.387
      -0.711
      -0.952
      -1.093
      -1.146
      -1.147
      -1.132
      -1.119
      -1.101
      -1.055
      -0.957
      -0.794
      -0.568
      -0.290
       0.019
       0.335
       0.623
       0.852
       0.994
       1.037
       0.980
       0.838
       0.633
       0.396
       0.153
      -0.077
      -0.289
      -0.487
      -0.673
      -0.844
      -0.991
      -1.112
      -1.213
      -1.307
      -1.392
      -1.451
      -1.456
      -1.377
      -1.187
      -0.876
      -0.456
       0.031
       0.521
       0.955
       1.295
       1.536
       1.694
       1.788
       1.826
       1.812
       1.760
       1.696
       1.641
       1.604
       1.572
       1.531
       1.471
       1.395
       1.305
       1.191
       1.033
       0.809
       0.507
       0.134
      -0.295
      -0.761
      -1.246
      -1.732
      -2.196
      -2.603
      -2.911
      -3.089
      -3.130
      -3.050
      -2.881
      -2.660
      -2.427
      -2.210
      -2.018
      -1.826
      -1.581
      -1.234
      -0.765
      -0.194
       0.433
       1.065
       1.662
       2.193
       2.634
       2.975
       3.213
       3.357
       3.410
       3.377
       3.268
