Origin Time       11/11/2012 18:39:19
Lat.              29.2 N	
Long.             81.5 E	
Depth (Km)         10.0
Magnitude         5.0
 Region           Western-NEPAL                                                    
 Above details taken from IMD 
   
Station Code      PTI
Station Lat.       29.407
Station Long.      79.931
Station Height(m) 1667.0
Site Class        A   Vs30 between 700 m/sec to 1400 m/sec * 
Record Time       11.11.2012 18:39:35.874
Sampling Rate     200. Hz
 Record Duration   82.740 Sec.
 Direction         Vert. (Up positive)
Max. Acceleration     -2.431 cm/sec**2
     
  * For reference see Site Classification link of website 
     
 Base Line Corrected and Low Pass Filtered (Cut Off at 35 Hz) Time History
 Acceleration data in cm/sec**2
    
[...]
      -0.032
      -0.067
      -0.066
      -0.063
      -0.094
      -0.182
      -0.317
      -0.448
      -0.507
      -0.446
      -0.276
      -0.063
       0.112
       0.196
       0.192
       0.144
       0.097
       0.074
       0.072
       0.076
       0.069
       0.042
      -0.005
      -0.058
      -0.090
      -0.075
      -0.008
       0.085
       0.152
       0.155
       0.088
      -0.016
      -0.105
      -0.143
      -0.126
      -0.080
      -0.035
      -0.013
      -0.017
      -0.041
      -0.076
      -0.108
      -0.119
      -0.095
      -0.033
       0.053
       0.139
       0.198
       0.216
       0.199
       0.162
       0.119
       0.075
       0.024
      -0.040
      -0.118
      -0.206
      -0.295
      -0.374
      -0.424
      -0.419
      -0.342
      -0.196
      -0.019
       0.134
       0.218
       0.223
       0.181
       0.142
       0.144
       0.190
       0.252
       0.291
       0.276
       0.202
       0.087
      -0.036
      -0.130
      -0.168
      -0.140
      -0.055
       0.054
       0.150
       0.201
       0.200
       0.162
       0.114
       0.079
       0.064
       0.057
       0.046
       0.026
      -0.002
      -0.034
      -0.072
      -0.126
      -0.193
      -0.258
      -0.296
      -0.294
      -0.254
      -0.186
      -0.093
       0.029
       0.171
       0.299
       0.369
       0.351
       0.254
       0.119
      -0.013
      -0.115
      -0.183
      -0.223
      -0.241
      -0.244
      -0.243
      -0.247
      -0.255
      -0.246
      -0.192
      -0.070
       0.112
       0.322
       0.512
       0.635
       0.661
       0.590
       0.444
       0.269
       0.104
      -0.031
      -0.132
      -0.209
      -0.276
      -0.346
      -0.428
      -0.516
      -0.586
      -0.596
      -0.515
      -0.344
      -0.125
       0.075
       0.196
       0.215
       0.151
       0.056
      -0.009
       0.003
       0.109
       0.283
       0.463
       0.575
       0.567
       0.436
       0.233
       0.031
      -0.111
      -0.165
      -0.144
      -0.079
      -0.014
       0.010
      -0.036
      -0.150
      -0.296
      -0.416
      -0.460
      -0.405
      -0.270
      -0.096
       0.063
       0.162
       0.175
       0.115
       0.029
      -0.025
      -0.006
       0.084
       0.202
       0.297
       0.334
       0.303
       0.221
       0.116
       0.023
      -0.027
      -0.013
       0.064
       0.180
       0.293
       0.368
       0.390
       0.363
       0.296
       0.200
       0.088
      -0.020
      -0.109
      -0.180
      -0.249
      -0.331
      -0.426
      -0.517
      -0.580
      -0.603
      -0.591
      -0.550
      -0.480
      -0.377
      -0.245
      -0.096
       0.049
       0.174
       0.274
       0.350
       0.407
       0.447
       0.470
       0.475
       0.463
       0.434
       0.393
       0.346
       0.300
       0.255
       0.196
       0.097
      -0.055
      -0.250
      -0.442
      -0.576
      -0.617
      -0.569
      -0.470
      -0.368
      -0.298
      -0.262
      -0.236
      -0.177
      -0.050
       0.148
       0.377
       0.569
       0.652
       0.590
       0.401
       0.152
      -0.071
      -0.203
      -0.218
      -0.139
      -0.018
       0.090
       0.142
       0.130
       0.076
       0.019
      -0.004
       0.015
       0.050
       0.054
      -0.006
      -0.132
      -0.281
      -0.397
      -0.434
      -0.378
      -0.247
      -0.078
       0.083
       0.198
       0.245
       0.223
       0.156
       0.084
       0.036
       0.026
       0.039
       0.053
       0.046
       0.018
      -0.017
      -0.037
      -0.024
       0.024
       0.088
       0.140
       0.155
       0.126
       0.064
      -0.012
      -0.089
      -0.162
      -0.225
      -0.266
      -0.271
      -0.239
      -0.183
      -0.124
      -0.074
      -0.036
      -0.010
       0.001
      -0.006
      -0.027
      -0.043
      -0.036
       0.000
       0.043
       0.059
       0.032
      -0.027
      -0.080
      -0.092
      -0.056
       0.009
       0.071
       0.106
       0.110
       0.094
       0.076
       0.075
       0.094
       0.124
       0.146
       0.149
       0.136
       0.121
       0.116
       0.117
       0.116
       0.101
       0.066
       0.010
      -0.062
      -0.134
      -0.180
      -0.173
      -0.105
      -0.005
       0.073
       0.077
      -0.003
      -0.127
      -0.230
      -0.256
      -0.200
      -0.097
      -0.007
       0.027
       0.001
      -0.052
      -0.069
       0.004
       0.183
       0.426
       0.646
       0.758
       0.715
       0.532
       0.264
      -0.019
      -0.262
      -0.432
      -0.517
      -0.527
      -0.493
      -0.453
      -0.431
      -0.419
      -0.385
      -0.305
      -0.182
      -0.050
       0.053
       0.103
       0.098
       0.051
      -0.020
      -0.095
      -0.148
      -0.151
      -0.091
       0.026
       0.177
       0.335
       0.480
       0.596
       0.659
       0.647
       0.548
       0.379
       0.177
      -0.019
      -0.186
      -0.315
      -0.405
      -0.460
      -0.493
      -0.516
      -0.531
      -0.516
      -0.437
      -0.275
      -0.046
       0.197
       0.392
       0.501
       0.529
       0.512
       0.496
       0.510
       0.550
       0.580
       0.555
       0.442
       0.240
      -0.016
      -0.274
      -0.488
      -0.629
      -0.695
      -0.698
      -0.664
      -0.623
      -0.598
      -0.582
      -0.538
      -0.419
      -0.204
       0.084
       0.379
       0.605
       0.711
       0.686
       0.559
       0.380
       0.201
       0.058
      -0.046
      -0.129
      -0.216
      -0.314
      -0.399
      -0.433
      -0.382
      -0.240
      -0.029
       0.203
       0.399
       0.508
       0.501
       0.388
       0.220
       0.063
      -0.027
      -0.042
      -0.011
       0.022
       0.027
      -0.008
      -0.073
      -0.145
      -0.193
      -0.188
      -0.121
      -0.019
       0.065
       0.074
      -0.010
      -0.156
      -0.295
      -0.362
      -0.329
      -0.208
      -0.039
       0.133
       0.273
       0.355
       0.373
       0.333
       0.264
       0.200
       0.172
       0.185
       0.222
       0.253
       0.259
       0.242
       0.214
       0.183
       0.150
       0.109
       0.060
       0.009
      -0.032
      -0.057
      -0.068
      -0.070
      -0.068
      -0.068
      -0.072
      -0.086
      -0.109
      -0.133
      -0.146
      -0.142
      -0.126
      -0.120
      -0.151
      -0.235
      -0.370
      -0.532
      -0.687
      -0.795
      -0.816
      -0.726
      -0.531
      -0.278
      -0.037
       0.135
       0.219
       0.243
       0.260
       0.306
       0.387
       0.480
       0.559
       0.596
       0.572
       0.475
       0.308
       0.099
      -0.095
      -0.212
      -0.215
      -0.118
       0.023
       0.137
       0.161
       0.071
      -0.121
      -0.364
      -0.585
      -0.716
      -0.721
      -0.612
      -0.442
      -0.271
      -0.147
      -0.089
      -0.084
      -0.097
      -0.092
      -0.046
       0.037
       0.128
       0.187
       0.184
       0.125
       0.047
       0.004
       0.036
       0.148
       0.308
       0.465
       0.572
       0.598
       0.534
       0.385
       0.176
      -0.048
      -0.236
      -0.347
      -0.375
      -0.348
      -0.311
      -0.296
      -0.303
      -0.304
      -0.268
      -0.179
      -0.042
       0.119
       0.272
       0.374
       0.390
       0.312
       0.175
       0.038
      -0.041
      -0.046
       0.000
       0.055
       0.089
       0.101
       0.107
       0.114
       0.116
       0.100
       0.071
       0.050
       0.065
       0.121
       0.197
       0.251
       0.245
       0.159
       0.005
      -0.181
      -0.349
      -0.454
      -0.468
      -0.395
      -0.269
      -0.149
      -0.085
      -0.100
      -0.171
      -0.241
      -0.253
      -0.180
      -0.042
       0.110
       0.221
       0.269
       0.269
       0.266
       0.301
       0.395
       0.536
       0.684
       0.784
       0.780
       0.639
       0.381
       0.078
      -0.174
      -0.311
      -0.333
      -0.299
      -0.278
      -0.306
      -0.371
      -0.432
      -0.448
      -0.398
      -0.287
      -0.135
       0.029
       0.170
       0.256
       0.274
       0.246
       0.217
       0.222
       0.265
       0.316
       0.336
       0.304
       0.222
       0.107
      -0.025
      -0.169
      -0.321
      -0.469
      -0.596
      -0.682
      -0.721
      -0.716
      -0.672
      -0.589
      -0.461
      -0.294
      -0.111
       0.055
       0.184
       0.280
       0.364
       0.445
       0.511
       0.530
       0.480
       0.365
       0.219
       0.088
       0.008
      -0.003
       0.056
       0.167
       0.288
       0.362
       0.342
       0.222
       0.042
      -0.131
      -0.241
      -0.275
      -0.257
      -0.228
      -0.218
      -0.237
      -0.280
      -0.340
      -0.397
      -0.429
      -0.419
      -0.383
      -0.357
      -0.374
      -0.430
      -0.470
      -0.432
      -0.284
      -0.055
       0.192
       0.394
       0.525
       0.596
       0.626
       0.631
       0.619
       0.605
       0.604
       0.619
       0.631
       0.618
       0.571
       0.501
       0.427
       0.358
       0.282
       0.175
       0.024
      -0.164
      -0.359
      -0.524
      -0.632
      -0.679
      -0.685
      -0.676
      -0.665
      -0.645
      -0.590
      -0.478
      -0.309
      -0.113
       0.067
       0.193
       0.252
       0.255
       0.219
       0.164
       0.101
       0.039
      -0.019
      -0.070
      -0.110
      -0.132
      -0.130
      -0.106
      -0.072
      -0.042
      -0.034
      -0.056
      -0.104
      -0.163
      -0.214
      -0.246
      -0.261
      -0.269
      -0.285
      -0.310
      -0.320
      -0.271
      -0.122
       0.135
       0.460
       0.775
       1.005
       1.102
       1.068
       0.937
       0.761
       0.587
       0.445
       0.348
       0.294
       0.259
       0.214
       0.138
       0.034
      -0.078
      -0.169
      -0.229
      -0.265
      -0.301
      -0.355
      -0.437
      -0.545
      -0.667
      -0.776
      -0.831
      -0.795
      -0.653
      -0.425
      -0.161
       0.072
       0.221
       0.259
       0.198
       0.081
      -0.029
      -0.069
       0.001
       0.179
       0.421
       0.651
       0.796
       0.819
       0.734
       0.593
       0.455
       0.358
       0.304
       0.267
       0.215
       0.128
       0.007
      -0.136
      -0.284
      -0.415
      -0.510
      -0.555
      -0.544
      -0.490
      -0.417
      -0.344
      -0.275
      -0.200
      -0.104
       0.011
       0.122
       0.200
       0.227
       0.210
       0.177
       0.161
       0.180
       0.233
       0.305
       0.374
       0.427
       0.464
       0.488
       0.500
       0.486
       0.430
       0.321
       0.178
       0.040
      -0.060
      -0.121
      -0.180
      -0.284
      -0.457
      -0.677
      -0.892
      -1.056
      -1.147
      -1.162
      -1.098
      -0.956
      -0.758
      -0.553
      -0.390
      -0.288
      -0.215
      -0.114
       0.059
       0.303
       0.581
       0.842
       1.051
       1.194
       1.275
       1.308
       1.322
       1.349
       1.402
       1.455
       1.439
       1.272
       0.908
       0.365
      -0.274
      -0.893
      -1.391
      -1.717
      -1.876
      -1.909
      -1.869
      -1.799
      -1.729
      -1.662
      -1.574
      -1.418
      -1.143
      -0.735
      -0.238
       0.253
       0.638
       0.865
       0.950
       0.957
       0.958
       1.004
       1.113
       1.277
       1.459
       1.595
       1.611
       1.460
       1.154
       0.771
       0.411
       0.145
      -0.027
      -0.160
      -0.323
      -0.560
      -0.867
      -1.192
      -1.456
      -1.592
      -1.572
      -1.426
      -1.225
      -1.042
      -0.911
      -0.815
      -0.702
      -0.519
      -0.248
       0.097
       0.472
       0.824
       1.100
       1.263
       1.301
       1.232
       1.092
       0.912
       0.699
       0.448
       0.158
      -0.146
      -0.416
      -0.606
      -0.687
      -0.664
      -0.562
      -0.415
      -0.260
      -0.130
      -0.059
      -0.067
      -0.153
      -0.288
      -0.419
      -0.495
      -0.491
      -0.422
      -0.327
      -0.240
      -0.168
      -0.084
       0.045
       0.239
       0.485
       0.751
       0.991
       1.173
       1.278
       1.308
       1.268
       1.172
       1.034
       0.866
       0.670
       0.427
       0.115
      -0.274
      -0.712
      -1.139
      -1.489
      -1.717
      -1.816
      -1.814
      -1.751
      -1.652
      -1.518
      -1.334
      -1.091
      -0.797
      -0.472
      -0.138
       0.191
       0.492
       0.741
       0.917
       1.019
       1.068
       1.098
       1.136
       1.194
       1.268
       1.356
       1.458
       1.572
       1.687
       1.762
       1.735
       1.542
       1.148
       0.570
      -0.122
      -0.828
      -1.450
      -1.922
      -2.227
      -2.384
      -2.431
      -2.394
      -2.278
      -2.067
      -1.735
      -1.275
      -0.712
      -0.117
       0.414
       0.799
       1.000
       1.040
       0.988
       0.931
       0.948
       1.076
       1.292
       1.511
       1.627
       1.562
       1.306
       0.920
       0.500
       0.130
      -0.142
      -0.307
      -0.383
      -0.405
      -0.419
      -0.468
      -0.572
      -0.709
      -0.822
      -0.849
      -0.758
      -0.573
      -0.353
      -0.165
      -0.047
       0.001
       0.008
       0.014
       0.056
       0.161
       0.337
       0.565
       0.800
       0.985
       1.066
       1.016
       0.840
       0.571
       0.256
      -0.056
      -0.327
      -0.530
      -0.646
      -0.671
      -0.620
      -0.520
      -0.403
      -0.278
      -0.133
       0.056
       0.296
       0.565
       0.810
       0.959
       0.938
       0.698
       0.246
      -0.340
      -0.932
      -1.399
      -1.664
      -1.723
      -1.626
      -1.435
      -1.187
      -0.902
      -0.589
      -0.269
       0.045
       0.346
       0.633
       0.885
       1.062
       1.126
       1.086
       0.992
       0.907
       0.859
       0.829
       0.774
       0.665
       0.502
       0.303
       0.078
      -0.176
      -0.461
      -0.759
      -1.034
      -1.248
      -1.369
      -1.379
      -1.267
      -1.030
      -0.684
      -0.275
       0.135
       0.487
       0.755
       0.949
       1.090
       1.187
       1.221
       1.153
       0.955
       0.627
       0.206
      -0.249
      -0.668
      -0.986
      -1.162
      -1.193
      -1.116
      -1.000
      -0.912
      -0.897
      -0.956
      -1.057
      -1.144
      -1.155
      -1.029
      -0.723
      -0.247
       0.333
       0.914
       1.389
       1.696
       1.821
       1.794
       1.657
       1.450
       1.195
       0.903
       0.584
       0.251
      -0.067
      -0.333
      -0.506
      -0.560
      -0.489
      -0.316
      -0.095
       0.107
       0.233
       0.260
       0.201
       0.100
       0.001
      -0.064
      -0.089
      -0.081
      -0.050
      -0.011
       0.014
      -0.002
      -0.071
      -0.177
      -0.284
      -0.372
      -0.464
      -0.613
      -0.847
      -1.124
      -1.340
      -1.389
      -1.232
      -0.916
      -0.527
      -0.134
       0.228
       0.546
       0.798
       0.959
       1.028
       1.035
       1.008
       0.949
       0.825
       0.616
       0.358
       0.132
       0.016
       0.030
       0.127
       0.229
       0.269
       0.216
       0.073
      -0.131
      -0.341
      -0.499
      -0.562
      -0.543
      -0.502
      -0.506
      -0.585
      -0.710
      -0.827
      -0.892
      -0.889
      -0.817
      -0.668
      -0.433
      -0.119
       0.242
       0.604
       0.923
       1.170
       1.329
       1.394
       1.371
       1.279
       1.150
       1.015
       0.898
       0.801
       0.707
       0.580
       0.386
       0.112
      -0.208
      -0.493
      -0.654
      -0.651
      -0.521
      -0.361
      -0.261
      -0.255
      -0.312
      -0.368
      -0.367
      -0.285
      -0.137
       0.024
       0.133
       0.135
       0.018
      -0.183
      -0.402
      -0.576
      -0.672
      -0.683
      -0.615
      -0.473
      -0.272
      -0.048
       0.153
       0.304
       0.415
       0.519
       0.627
       0.707
       0.695
       0.547
       0.277
      -0.046
      -0.340
      -0.561
      -0.707
      -0.791
      -0.821
      -0.794
      -0.726
      -0.646
      -0.572
      -0.493
      -0.375
      -0.196
       0.023
       0.232
       0.389
       0.488
       0.550
       0.590
       0.612
       0.616
       0.614
       0.623
       0.645
       0.659
       0.636
       0.563
       0.450
       0.317
       0.184
       0.060
      -0.049
      -0.143
      -0.231
      -0.332
      -0.460
      -0.607
      -0.739
      -0.820
      -0.832
      -0.790
      -0.724
      -0.664
      -0.630
      -0.631
      -0.656
      -0.655
      -0.555
      -0.290
       0.137
       0.637
       1.077
       1.354
       1.442
       1.388
       1.266
       1.141
       1.052
       1.017
       1.019
       1.008
       0.908
       0.657
       0.257
      -0.207
      -0.598
      -0.802
      -0.786
      -0.616
      -0.412
      -0.286
      -0.293
      -0.422
      -0.611
      -0.778
      -0.861
      -0.840
      -0.739
      -0.600
      -0.464
      -0.348
      -0.248
      -0.157
      -0.074
      -0.002
       0.063
       0.131
       0.200
       0.234
       0.186
       0.031
      -0.186
      -0.366
      -0.419
      -0.323
      -0.128
       0.092
       0.287
       0.430
       0.494
       0.445
       0.276
       0.040
      -0.165
      -0.247
      -0.187
      -0.045
       0.089
       0.158
       0.170
       0.175
       0.222
       0.330
       0.483
       0.642
       0.752
       0.759
       0.634
       0.389
       0.077
      -0.225
      -0.450
      -0.564
      -0.571
      -0.498
      -0.378
      -0.239
      -0.111
      -0.015
       0.034
       0.031
      -0.018
      -0.113
      -0.260
      -0.457
      -0.677
      -0.861
      -0.936
      -0.847
      -0.592
      -0.233
       0.125
       0.384
       0.497
       0.484
       0.422
       0.404
       0.491
       0.691
       0.949
       1.176
       1.277
       1.180
       0.860
       0.356
      -0.231
      -0.767
      -1.137
      -1.287
      -1.252
      -1.121
      -0.987
      -0.893
      -0.818
      -0.707
      -0.521
      -0.267
       0.007
       0.235
       0.372
       0.411
       0.391
       0.377
       0.432
       0.581
       0.785
