Origin Time       14/12/2005 07:09:48
Lat.              30.9 N 
Long.             79.3 E 
Depth (Km)         25.7
Magnitude         5.2
 Region           Chamoli-Uttarakhand                                              
 Above details taken from IMD 
     
Station Code      PAU
Station Lat.       30.150  N
Station Long.      78.777  E
Station Height(m) 1606.0
Site Class        A   Vs30 between 700 m/sec to 1400 m/sec * 
Record Time       14.12.2005 07:09:28.609
Sampling Rate     200. Hz
 Record Duration   33.745 Sec.
 Direction         E-W (E positive)
Max. Acceleration    -10.496 cm/sec**2
     
  * For reference see Site Classification link of website 
     
 Base Line Corrected and Low Pass Filtered (Cut Off at 35 Hz) Time History
 Acceleration data in cm/sec**2
    
[...]
      -0.223
      -0.805
      -1.281
      -1.520
      -1.437
      -1.045
      -0.460
       0.134
       0.566
       0.760
       0.748
       0.623
       0.469
       0.317
       0.123
      -0.195
      -0.689
      -1.305
      -1.864
      -2.148
      -2.024
      -1.528
      -0.853
      -0.247
       0.117
       0.215
       0.165
       0.110
       0.097
       0.043
      -0.182
      -0.610
      -1.098
      -1.390
      -1.270
      -0.697
       0.180
       1.110
       1.849
       2.234
       2.220
       1.904
       1.477
       1.104
       0.825
       0.556
       0.213
      -0.184
      -0.525
      -0.698
      -0.660
      -0.433
      -0.068
       0.353
       0.708
       0.863
       0.739
       0.385
      -0.039
      -0.365
      -0.542
      -0.666
      -0.879
      -1.222
      -1.554
      -1.628
      -1.270
      -0.514
       0.401
       1.173
       1.618
       1.732
       1.627
       1.400
       1.075
       0.657
       0.208
      -0.129
      -0.217
      -0.044
       0.236
       0.403
       0.358
       0.215
       0.206
       0.451
       0.833
       1.075
       0.949
       0.438
      -0.261
      -0.870
      -1.196
      -1.222
      -1.074
      -0.906
      -0.804
      -0.767
      -0.764
      -0.780
      -0.808
      -0.820
      -0.767
      -0.614
      -0.373
      -0.104
       0.121
       0.263
       0.339
       0.416
       0.568
       0.816
       1.098
       1.299
       1.316
       1.121
       0.778
       0.403
       0.074
      -0.209
      -0.506
      -0.863
      -1.255
      -1.591
      -1.757
      -1.659
      -1.260
      -0.601
       0.190
       0.929
       1.440
       1.632
       1.520
       1.200
       0.782
       0.354
      -0.042
      -0.404
      -0.757
      -1.117
      -1.439
      -1.619
      -1.560
      -1.242
      -0.751
      -0.239
       0.148
       0.351
       0.414
       0.441
       0.495
       0.537
       0.453
       0.155
      -0.340
      -0.892
      -1.301
      -1.416
      -1.205
      -0.756
      -0.188
       0.409
       0.955
       1.339
       1.449
       1.262
       0.892
       0.532
       0.337
       0.351
       0.489
       0.599
       0.563
       0.379
       0.159
       0.035
       0.044
       0.102
       0.092
      -0.035
      -0.234
      -0.428
      -0.577
      -0.679
      -0.721
      -0.671
      -0.508
      -0.258
       0.021
       0.278
       0.496
       0.695
       0.916
       1.170
       1.393
       1.437
       1.162
       0.547
      -0.256
      -0.992
      -1.441
      -1.527
      -1.336
      -1.042
      -0.783
      -0.589
      -0.401
      -0.149
       0.177
       0.523
       0.823
       1.027
       1.108
       1.050
       0.872
       0.668
       0.582
       0.703
       0.963
       1.144
       1.017
       0.508
      -0.237
      -0.925
      -1.301
      -1.294
      -1.052
      -0.826
      -0.800
      -0.985
      -1.237
      -1.370
      -1.266
      -0.926
      -0.454
       0.003
       0.313
       0.407
       0.303
       0.093
      -0.096
      -0.174
      -0.115
       0.053
       0.272
       0.479
       0.630
       0.697
       0.647
       0.443
       0.082
      -0.353
      -0.706
      -0.823
      -0.642
      -0.213
       0.342
       0.897
       1.355
       1.649
       1.716
       1.484
       0.915
       0.071
      -0.851
      -1.579
      -1.898
      -1.755
      -1.282
      -0.727
      -0.325
      -0.187
      -0.247
      -0.320
      -0.233
       0.053
       0.417
       0.676
       0.709
       0.537
       0.297
       0.153
       0.198
       0.410
       0.681
       0.900
       1.028
       1.092
       1.140
       1.182
       1.183
       1.094
       0.899
       0.637
       0.375
       0.176
       0.075
       0.078
       0.173
       0.317
       0.424
       0.382
       0.118
      -0.335
      -0.841
      -1.239
      -1.436
      -1.436
      -1.305
      -1.105
      -0.872
      -0.636
      -0.453
      -0.408
      -0.558
      -0.867
      -1.195
      -1.372
      -1.313
      -1.063
      -0.763
      -0.537
      -0.414
      -0.329
      -0.190
       0.058
       0.396
       0.756
       1.045
       1.179
       1.106
       0.850
       0.516
       0.221
       0.010
      -0.166
      -0.387
      -0.678
      -0.978
      -1.182
      -1.196
      -0.989
      -0.637
      -0.300
      -0.126
      -0.156
      -0.295
      -0.384
      -0.292
       0.005
       0.399
       0.714
       0.817
       0.712
       0.523
       0.393
       0.398
       0.505
       0.597
       0.545
       0.298
      -0.061
      -0.344
      -0.377
      -0.111
       0.339
       0.771
       1.019
       1.039
       0.906
       0.727
       0.575
       0.466
       0.399
       0.372
       0.401
       0.511
       0.700
       0.893
       0.946
       0.744
       0.321
      -0.132
      -0.387
      -0.332
      -0.015
       0.394
       0.692
       0.750
       0.585
       0.346
       0.184
       0.123
       0.048
      -0.164
      -0.515
      -0.868
      -1.053
      -0.999
      -0.787
      -0.598
      -0.587
      -0.772
      -1.012
      -1.081
      -0.799
      -0.139
       0.743
       1.564
       2.030
       1.947
       1.301
       0.266
      -0.859
      -1.775
      -2.314
      -2.487
      -2.414
      -2.192
      -1.841
      -1.345
      -0.727
      -0.074
       0.508
       0.940
       1.204
       1.334
       1.379
       1.357
       1.237
       0.977
       0.578
       0.118
      -0.288
      -0.550
      -0.657
      -0.666
      -0.660
      -0.696
      -0.791
      -0.913
      -0.982
      -0.886
      -0.552
      -0.018
       0.560
       0.997
       1.202
       1.237
       1.246
       1.320
       1.428
       1.466
       1.364
       1.136
       0.842
       0.528
       0.212
      -0.109
      -0.436
      -0.771
      -1.102
      -1.383
      -1.518
      -1.409
      -1.031
      -0.481
       0.051
       0.401
       0.522
       0.510
       0.520
       0.653
       0.870
       1.017
       0.933
       0.575
       0.064
      -0.391
      -0.642
      -0.697
      -0.697
      -0.781
      -0.967
      -1.140
      -1.142
      -0.875
      -0.355
       0.285
       0.831
       1.054
       0.834
       0.249
      -0.437
      -0.918
      -1.027
      -0.814
      -0.469
      -0.164
       0.048
       0.219
       0.416
       0.653
       0.879
       1.014
       0.991
       0.779
       0.389
      -0.119
      -0.655
      -1.118
      -1.434
      -1.578
      -1.577
      -1.482
      -1.343
      -1.185
      -1.005
      -0.778
      -0.491
      -0.157
       0.178
       0.459
       0.630
       0.641
       0.470
       0.152
      -0.203
      -0.433
      -0.389
      -0.025
       0.538
       1.060
       1.323
       1.282
       1.074
       0.900
       0.880
       1.003
       1.161
       1.221
       1.109
       0.852
       0.554
       0.321
       0.214
       0.243
       0.374
       0.542
       0.667
       0.708
       0.689
       0.662
       0.634
       0.534
       0.274
      -0.159
      -0.650
      -1.014
      -1.114
      -0.946
      -0.619
      -0.275
      -0.031
       0.030
      -0.100
      -0.334
      -0.511
      -0.494
      -0.253
       0.117
       0.454
       0.605
       0.512
       0.238
      -0.083
      -0.339
      -0.493
      -0.570
      -0.617
      -0.672
      -0.756
      -0.856
      -0.940
      -0.964
      -0.876
      -0.613
      -0.137
       0.510
       1.181
       1.674
       1.810
       1.514
       0.859
       0.056
      -0.644
      -1.087
      -1.274
      -1.305
      -1.275
      -1.225
      -1.153
      -1.033
      -0.843
      -0.579
      -0.269
       0.044
       0.318
       0.509
       0.581
       0.541
       0.425
       0.254
       0.000
      -0.365
      -0.786
      -1.108
      -1.150
      -0.813
      -0.165
       0.565
       1.074
       1.143
       0.763
       0.132
      -0.457
      -0.755
      -0.653
      -0.211
       0.374
       0.860
       1.078
       1.000
       0.719
       0.389
       0.138
       0.010
      -0.038
      -0.089
      -0.186
      -0.304
      -0.361
      -0.273
       0.004
       0.422
       0.863
       1.204
       1.401
       1.477
       1.454
       1.322
       1.087
       0.793
       0.477
       0.105
      -0.401
      -1.038
      -1.603
      -1.759
      -1.262
      -0.207
       0.957
       1.688
       1.693
       1.084
       0.245
      -0.451
      -0.861
      -1.110
      -1.453
      -2.046
      -2.787
      -3.342
      -3.351
      -2.663
      -1.403
       0.115
       1.550
       2.622
       3.165
       3.148
       2.675
       1.929
       1.088
       0.254
      -0.531
      -1.231
      -1.773
      -2.047
      -1.954
      -1.493
      -0.807
      -0.151
       0.246
       0.321
       0.202
       0.103
       0.161
       0.343
       0.487
       0.462
       0.297
       0.171
       0.256
       0.564
       0.956
       1.263
       1.393
       1.311
       0.981
       0.367
      -0.510
      -1.538
      -2.526
      -3.249
      -3.503
      -3.176
      -2.303
      -1.048
       0.362
       1.714
       2.838
       3.599
       3.890
       3.661
       2.954
       1.920
       0.783
      -0.210
      -0.849
      -1.015
      -0.734
      -0.196
       0.340
       0.692
       0.846
       0.908
       0.967
       1.005
       0.922
       0.606
       0.006
      -0.839
      -1.800
      -2.691
      -3.322
      -3.556
      -3.369
      -2.870
      -2.259
      -1.697
      -1.210
      -0.699
      -0.063
       0.685
       1.411
       1.953
       2.239
       2.346
       2.453
       2.699
       3.047
       3.288
       3.194
       2.686
       1.900
       1.112
       0.577
       0.387
       0.406
       0.344
      -0.062
      -0.856
      -1.815
      -2.576
      -2.852
      -2.616
      -2.134
      -1.803
      -1.883
      -2.296
      -2.683
      -2.658
      -2.066
      -1.064
       0.001
       0.803
       1.193
       1.234
       1.106
       0.964
       0.873
       0.821
       0.780
       0.748
       0.744
       0.808
       0.988
       1.318
       1.775
       2.228
       2.447
       2.222
       1.539
       0.649
      -0.058
      -0.310
      -0.106
       0.330
       0.706
       0.816
       0.624
       0.259
      -0.097
      -0.358
      -0.589
      -0.890
      -1.244
      -1.481
      -1.428
      -1.087
      -0.679
      -0.485
      -0.627
      -0.993
      -1.358
      -1.597
      -1.760
      -1.971
      -2.262
      -2.494
      -2.440
      -1.944
      -1.051
      -0.024
       0.799
       1.205
       1.217
       1.027
       0.827
       0.702
       0.630
       0.547
       0.411
       0.228
       0.029
      -0.176
      -0.407
      -0.672
      -0.925
      -1.077
      -1.043
      -0.794
      -0.365
       0.169
       0.726
       1.221
       1.555
       1.641
       1.452
       1.069
       0.654
       0.365
       0.277
       0.375
       0.603
       0.905
       1.231
       1.525
       1.723
       1.762
       1.596
       1.196
       0.560
      -0.275
      -1.214
      -2.112
      -2.802
      -3.135
      -3.007
      -2.380
      -1.314
       0.019
       1.354
       2.413
       3.008
       3.080
       2.677
       1.924
       1.024
       0.227
      -0.254
      -0.346
      -0.133
       0.237
       0.662
       1.116
       1.581
       1.989
       2.226
       2.205
       1.943
       1.572
       1.242
       0.988
       0.679
       0.130
      -0.719
      -1.742
      -2.735
      -3.565
      -4.229
      -4.776
      -5.195
      -5.382
      -5.212
      -4.675
      -3.930
      -3.224
      -2.721
      -2.411
      -2.175
      -1.915
      -1.615
      -1.273
      -0.816
      -0.115
       0.899
       2.123
       3.293
       4.121
       4.452
       4.351
       4.044
       3.798
       3.772
       3.954
       4.183
       4.269
       4.107
       3.737
       3.286
       2.867
       2.480
       1.987
       1.171
      -0.129
      -1.882
      -3.840
      -5.666
      -7.106
      -8.068
      -8.559
      -8.580
      -8.082
      -7.027
      -5.460
      -3.521
      -1.404
       0.678
       2.501
       3.854
       4.605
       4.778
       4.541
       4.099
       3.584
       3.045
       2.534
       2.155
       2.017
       2.146
       2.461
       2.839
       3.192
       3.475
       3.650
       3.657
       3.419
       2.873
       2.038
       1.057
       0.165
      -0.433
      -0.677
      -0.683
      -0.664
      -0.804
      -1.168
      -1.672
      -2.148
      -2.433
      -2.432
      -2.150
      -1.700
      -1.297
      -1.183
      -1.487
      -2.116
      -2.809
      -3.304
      -3.487
      -3.388
      -3.056
      -2.470
      -1.549
      -0.261
       1.300
       2.932
       4.394
       5.480
       6.023
       5.886
       4.989
       3.390
       1.359
      -0.662
      -2.210
      -2.982
      -2.926
      -2.210
      -1.128
       0.007
       0.950
       1.538
       1.648
       1.149
      -0.052
      -1.924
      -4.259
      -6.705
      -8.832
     -10.205
     -10.496
      -9.599
      -7.699
      -5.224
      -2.692
      -0.525
       1.085
       2.186
       2.934
       3.424
       3.629
       3.462
       2.899
       2.041
       1.103
       0.349
      -0.004
       0.111
       0.578
       1.169
       1.663
       1.918
       1.891
       1.626
       1.234
       0.847
       0.566
       0.428
       0.400
       0.395
       0.327
       0.197
       0.110
       0.203
       0.558
       1.186
       2.060
       3.131
       4.297
       5.409
       6.288
       6.757
       6.679
       6.029
       4.933
       3.623
       2.333
       1.225
       0.361
      -0.271
      -0.681
      -0.821
      -0.606
      -0.033
       0.764
       1.579
       2.243
       2.631
       2.631
       2.180
       1.359
       0.415
      -0.334
      -0.647
      -0.469
       0.021
       0.476
       0.572
       0.204
      -0.459
      -1.108
      -1.493
      -1.536
      -1.347
      -1.128
      -1.024
      -1.011
      -0.928
      -0.654
      -0.257
       0.006
      -0.177
      -0.995
      -2.398
      -4.089
      -5.660
      -6.799
      -7.419
      -7.610
      -7.492
      -7.110
      -6.458
      -5.561
      -4.545
      -3.608
      -2.916
      -2.505
      -2.310
      -2.298
      -2.542
      -3.109
      -3.889
      -4.564
      -4.767
      -4.303
      -3.255
      -1.932
      -0.687
       0.275
       0.989
       1.660
       2.484
       3.519
       4.662
       5.700
       6.381
       6.501
       6.014
       5.079
       3.990
       3.015
       2.270
       1.693
       1.146
       0.570
       0.084
      -0.067
       0.304
       1.165
       2.259
       3.244
       3.825
       3.845
       3.319
       2.423
       1.410
       0.509
      -0.142
      -0.483
      -0.516
      -0.299
       0.053
       0.396
       0.612
       0.646
       0.508
       0.228
      -0.168
      -0.622
      -0.991
      -1.092
      -0.842
      -0.360
       0.109
       0.382
       0.451
       0.436
       0.450
       0.532
       0.672
       0.862
       1.096
       1.308
       1.344
       1.032
       0.298
      -0.750
      -1.847
      -2.696
      -3.108
      -3.083
      -2.793
      -2.468
      -2.265
      -2.166
      -1.987
      -1.481
      -0.484
       0.970
       2.621
       4.069
       4.935
       5.007
       4.325
       3.153
       1.868
       0.816
       0.197
       0.019
       0.134
       0.326
       0.408
       0.294
       0.017
      -0.330
      -0.664
      -0.958
      -1.243
      -1.558
      -1.880
      -2.111
      -2.135
      -1.940
      -1.651
      -1.444
      -1.417
      -1.555
      -1.786
      -2.049
      -2.299
      -2.492
      -2.558
      -2.412
      -1.994
      -1.355
      -0.687
      -0.251
      -0.228
      -0.621
      -1.278
      -2.000
      -2.635
      -3.103
      -3.347
      -3.268
      -2.728
      -1.640
      -0.079
       1.717
       3.458
       4.929
       6.021
       6.690
       6.929
       6.785
       6.386
       5.915
       5.536
       5.293
       5.059
       4.568
       3.555
       1.910
      -0.223
      -2.485
      -4.456
      -5.828
      -6.483
      -6.463
      -5.887
      -4.892
      -3.631
      -2.268
      -0.962
       0.127
       0.817
       0.913
       0.290
      -0.980
      -2.562
      -3.922
      -4.527
      -4.077
      -2.644
      -0.607
       1.542
       3.384
       4.678
       5.360
       5.487
       5.146
       4.372
       3.170
       1.618
      -0.052
      -1.506
      -2.458
      -2.793
      -2.572
      -1.971
      -1.219
      -0.545
      -0.134
      -0.077
      -0.374
      -0.997
      -1.949
      -3.213
      -4.629
      -5.862
      -6.568
      -6.623
      -6.165
      -5.411
      -4.436
      -3.147
      -1.452
       0.552
       2.538
       4.103
       4.982
       5.188
       4.970
       4.667
       4.555
       4.749
       5.145
       5.432
       5.256
       4.455
       3.207
       1.939
       1.071
       0.795
       1.024
       1.518
       2.043
       2.490
       2.887
       3.327
       3.874
       4.493
       5.052
       5.399
       5.454
       5.232
       4.782
       4.116
       3.219
       2.119
       0.896
      -0.368
      -1.629
      -2.836
      -3.850
      -4.443
      -4.397
      -3.668
      -2.470
      -1.222
      -0.357
      -0.113
      -0.449
      -1.132
      -1.919
      -2.673
      -3.357
      -3.953
      -4.407
      -4.642
      -4.583
      -4.161
      -3.309
      -2.041
      -0.568
       0.664
       1.121
       0.485
      -1.106
      -3.079
      -4.761
      -5.764
      -6.151
      -6.251
      -6.329
      -6.364
      -6.107
      -5.324
      -4.010
      -2.410
      -0.869
       0.346
       1.110
       1.387
       1.158
       0.428
      -0.700
      -1.992
      -3.161
      -3.996
      -4.409
      -4.355
      -3.744
      -2.509
      -0.762
       1.145
       2.769
       3.797
       4.171
       4.044
       3.672
       3.315
       3.161
       3.290
       3.672
       4.205
       4.770
       5.301
       5.810
       6.376
       7.067
       7.861
       8.605
       9.044
       8.908
       8.016
       6.352
       4.092
       1.571
      -0.799
      -2.650
      -3.744
      -3.994
      -3.448
      -2.282
      -0.796
       0.660
       1.832
       2.655
       3.198
       3.510
       3.521
       3.102
       2.229
       1.096
       0.034
      -0.694
      -1.056
      -1.216
      -1.349
      -1.482
      -1.498
      -1.307
      -1.001
      -0.821
      -0.963
      -1.429
      -2.060
      -2.692
      -3.267
      -3.813
      -4.350
      -4.821
      -5.092
