Origin Time       16/1/2012 05:01:00  UTC
Lat.              29.7 N 
Long.             78.9 E 
Depth (Km)         10.0
Magnitude         3.6
 Region           Pauri-Uttarakhand                                                
 Above details taken from IMD 
    
Station Code      PAU
Station Lat.       30.150  N
Station Long.      78.777  E
Station Height(m) 1606.0
Site Class        A   Vs30 between 700 m/sec to 1400 m/sec * 
Record Time       16.01.2012 05:00:59.509 UTC
Sampling Rate     200. Hz
 Record Duration   80.005 Sec.
 Direction         N-S (N positive)
Max. Acceleration      1.208 cm/sec**2
     
  * For reference see Site Classification link of website 
     
 Base Line Corrected and Low Pass Filtered (Cut Off at 35 Hz) Time History
 Acceleration data in cm/sec**2
    
[...]
      -0.052
      -0.043
      -0.062
      -0.121
      -0.197
      -0.255
      -0.271
      -0.249
      -0.206
      -0.153
      -0.087
      -0.008
       0.069
       0.115
       0.117
       0.085
       0.053
       0.048
       0.068
       0.084
       0.064
       0.003
      -0.064
      -0.090
      -0.046
       0.052
       0.163
       0.240
       0.256
       0.215
       0.148
       0.090
       0.054
       0.025
      -0.020
      -0.081
      -0.139
      -0.170
      -0.167
      -0.140
      -0.107
      -0.083
      -0.079
      -0.103
      -0.155
      -0.221
      -0.276
      -0.293
      -0.260
      -0.176
      -0.050
       0.097
       0.231
       0.317
       0.346
       0.345
       0.348
       0.359
       0.344
       0.264
       0.125
      -0.021
      -0.101
      -0.081
       0.011
       0.104
       0.143
       0.125
       0.086
       0.067
       0.078
       0.091
       0.068
      -0.009
      -0.123
      -0.233
      -0.302
      -0.322
      -0.310
      -0.289
      -0.280
      -0.282
      -0.281
      -0.251
      -0.179
      -0.080
       0.010
       0.059
       0.070
       0.081
       0.128
       0.213
       0.295
       0.325
       0.290
       0.214
       0.136
       0.070
       0.007
      -0.065
      -0.139
      -0.192
      -0.206
      -0.182
      -0.139
      -0.099
      -0.068
      -0.032
       0.022
       0.093
       0.160
       0.197
       0.197
       0.171
       0.137
       0.108
       0.089
       0.075
       0.061
       0.043
       0.015
      -0.030
      -0.088
      -0.146
      -0.183
      -0.187
      -0.166
      -0.141
      -0.132
      -0.145
      -0.169
      -0.178
      -0.156
      -0.103
      -0.035
       0.032
       0.083
       0.106
       0.095
       0.062
       0.028
       0.012
       0.014
       0.026
       0.042
       0.063
       0.094
       0.130
       0.158
       0.163
       0.147
       0.130
       0.133
       0.157
       0.177
       0.163
       0.102
       0.013
      -0.070
      -0.121
      -0.142
      -0.158
      -0.191
      -0.236
      -0.261
      -0.234
      -0.159
      -0.071
      -0.018
      -0.020
      -0.056
      -0.082
      -0.066
      -0.010
       0.049
       0.075
       0.057
       0.013
      -0.024
      -0.037
      -0.032
      -0.032
      -0.052
      -0.079
      -0.087
      -0.057
       0.006
       0.080
       0.152
       0.220
       0.283
       0.328
       0.330
       0.268
       0.145
      -0.003
      -0.129
      -0.197
      -0.205
      -0.174
      -0.130
      -0.092
      -0.063
      -0.033
       0.012
       0.076
       0.142
       0.178
       0.168
       0.122
       0.066
       0.019
      -0.023
      -0.068
      -0.119
      -0.160
      -0.173
      -0.149
      -0.100
      -0.049
      -0.023
      -0.032
      -0.065
      -0.091
      -0.091
      -0.069
      -0.046
      -0.041
      -0.052
      -0.064
      -0.064
      -0.051
      -0.033
      -0.018
      -0.014
      -0.018
      -0.025
      -0.027
      -0.021
      -0.005
       0.020
       0.050
       0.080
       0.107
       0.132
       0.154
       0.162
       0.147
       0.107
       0.058
       0.019
       0.003
       0.011
       0.027
       0.030
       0.009
      -0.026
      -0.053
      -0.054
      -0.032
      -0.007
       0.001
      -0.014
      -0.043
      -0.066
      -0.073
      -0.067
      -0.066
      -0.079
      -0.100
      -0.108
      -0.086
      -0.029
       0.051
       0.131
       0.182
       0.188
       0.151
       0.096
       0.052
       0.033
       0.029
       0.019
      -0.013
      -0.057
      -0.083
      -0.077
      -0.053
      -0.039
      -0.054
      -0.079
      -0.080
      -0.035
       0.042
       0.101
       0.097
       0.023
      -0.079
      -0.150
      -0.156
      -0.106
      -0.047
      -0.021
      -0.034
      -0.058
      -0.059
      -0.034
      -0.014
      -0.039
      -0.113
      -0.200
      -0.241
      -0.202
      -0.089
       0.051
       0.159
       0.194
       0.164
       0.114
       0.103
       0.160
       0.252
       0.312
       0.281
       0.157
       0.000
      -0.115
      -0.151
      -0.128
      -0.095
      -0.090
      -0.108
      -0.120
      -0.104
      -0.064
      -0.020
       0.013
       0.045
       0.096
       0.174
       0.259
       0.319
       0.327
       0.283
       0.211
       0.138
       0.070
      -0.009
      -0.108
      -0.212
      -0.281
      -0.288
      -0.238
      -0.170
      -0.127
      -0.130
      -0.159
      -0.173
      -0.140
      -0.072
      -0.009
       0.007
      -0.029
      -0.086
      -0.119
      -0.099
      -0.032
       0.048
       0.105
       0.124
       0.121
       0.118
       0.121
       0.117
       0.087
       0.024
      -0.054
      -0.110
      -0.116
      -0.070
      -0.002
       0.052
       0.076
       0.084
       0.099
       0.127
       0.143
       0.110
       0.013
      -0.123
      -0.246
      -0.315
      -0.321
      -0.278
      -0.213
      -0.142
      -0.075
      -0.009
       0.060
       0.128
       0.180
       0.205
       0.201
       0.178
       0.149
       0.118
       0.087
       0.052
       0.016
      -0.015
      -0.035
      -0.048
      -0.065
      -0.088
      -0.109
      -0.114
      -0.104
      -0.093
      -0.093
      -0.103
      -0.109
      -0.094
      -0.055
      -0.003
       0.045
       0.082
       0.109
       0.136
       0.167
       0.201
       0.228
       0.229
       0.188
       0.101
      -0.013
      -0.120
      -0.190
      -0.217
      -0.208
      -0.179
      -0.138
      -0.087
      -0.035
       0.004
       0.020
       0.025
       0.045
       0.098
       0.176
       0.243
       0.255
       0.193
       0.076
      -0.044
      -0.114
      -0.114
      -0.071
      -0.027
      -0.013
      -0.026
      -0.043
      -0.037
      -0.005
       0.029
       0.029
      -0.025
      -0.117
      -0.209
      -0.261
      -0.252
      -0.190
      -0.108
      -0.043
      -0.014
      -0.014
      -0.021
      -0.019
      -0.009
       0.001
       0.010
       0.024
       0.051
       0.088
       0.120
       0.132
       0.118
       0.089
       0.062
       0.051
       0.057
       0.073
       0.087
       0.090
       0.084
       0.072
       0.063
       0.054
       0.042
       0.024
       0.004
      -0.009
      -0.012
      -0.008
      -0.005
      -0.009
      -0.025
      -0.052
      -0.090
      -0.137
      -0.185
      -0.223
      -0.237
      -0.217
      -0.166
      -0.092
      -0.016
       0.045
       0.085
       0.113
       0.139
       0.159
       0.157
       0.121
       0.057
      -0.007
      -0.050
      -0.060
      -0.045
      -0.017
       0.017
       0.053
       0.088
       0.116
       0.133
       0.144
       0.152
       0.156
       0.145
       0.112
       0.055
      -0.020
      -0.099
      -0.166
      -0.204
      -0.204
      -0.169
      -0.116
      -0.070
      -0.053
      -0.069
      -0.098
      -0.109
      -0.087
      -0.045
      -0.012
      -0.013
      -0.044
      -0.080
      -0.090
      -0.065
      -0.023
       0.002
      -0.008
      -0.042
      -0.068
      -0.067
      -0.039
      -0.004
       0.018
       0.025
       0.027
       0.040
       0.070
       0.110
       0.152
       0.185
       0.198
       0.179
       0.122
       0.035
      -0.057
      -0.128
      -0.158
      -0.142
      -0.092
      -0.036
       0.003
       0.015
       0.012
       0.014
       0.037
       0.078
       0.120
       0.143
       0.137
       0.100
       0.039
      -0.036
      -0.107
      -0.151
      -0.156
      -0.134
      -0.113
      -0.106
      -0.104
      -0.087
      -0.049
      -0.002
       0.031
       0.035
       0.015
      -0.009
      -0.012
       0.019
       0.077
       0.147
       0.208
       0.247
       0.259
       0.246
       0.212
       0.159
       0.090
       0.014
      -0.058
      -0.116
      -0.162
      -0.202
      -0.235
      -0.249
      -0.234
      -0.186
      -0.120
      -0.064
      -0.039
      -0.049
      -0.076
      -0.091
      -0.081
      -0.053
      -0.030
      -0.026
      -0.040
      -0.049
      -0.033
       0.012
       0.060
       0.078
       0.050
      -0.010
      -0.063
      -0.075
      -0.040
       0.020
       0.074
       0.106
       0.120
       0.128
       0.138
       0.145
       0.133
       0.091
       0.023
      -0.041
      -0.071
      -0.057
      -0.025
      -0.007
      -0.023
      -0.063
      -0.100
      -0.113
      -0.094
      -0.055
      -0.018
       0.004
       0.008
      -0.001
      -0.022
      -0.051
      -0.077
      -0.090
      -0.091
      -0.095
      -0.111
      -0.128
      -0.116
      -0.049
       0.067
       0.192
       0.273
       0.278
       0.219
       0.137
       0.073
       0.045
       0.040
       0.023
      -0.032
      -0.121
      -0.204
      -0.235
      -0.192
      -0.092
       0.019
       0.102
       0.143
       0.152
       0.150
       0.142
       0.114
       0.054
      -0.036
      -0.135
      -0.218
      -0.265
      -0.266
      -0.223
      -0.156
      -0.089
      -0.043
      -0.026
      -0.033
      -0.045
      -0.040
      -0.004
       0.061
       0.135
       0.197
       0.236
       0.251
       0.248
       0.232
       0.201
       0.147
       0.068
      -0.030
      -0.128
      -0.204
      -0.246
      -0.253
      -0.240
      -0.217
      -0.187
      -0.145
      -0.093
      -0.050
      -0.034
      -0.044
      -0.060
      -0.057
      -0.028
       0.012
       0.044
       0.063
       0.077
       0.101
       0.133
       0.157
       0.152
       0.116
       0.066
       0.019
      -0.018
      -0.044
      -0.056
      -0.052
      -0.040
      -0.028
      -0.026
      -0.033
      -0.045
      -0.062
      -0.085
      -0.111
      -0.125
      -0.114
      -0.074
      -0.017
       0.036
       0.078
       0.117
       0.159
       0.196
       0.210
       0.193
       0.153
       0.106
       0.069
       0.047
       0.034
       0.017
      -0.012
      -0.053
      -0.091
      -0.113
      -0.115
      -0.104
      -0.097
      -0.106
      -0.126
      -0.138
      -0.130
      -0.116
      -0.120
      -0.150
      -0.190
      -0.211
      -0.200
      -0.160
      -0.104
      -0.042
       0.025
       0.095
       0.160
       0.208
       0.229
       0.226
       0.204
       0.167
       0.116
       0.055
      -0.004
      -0.047
      -0.067
      -0.063
      -0.045
      -0.020
       0.007
       0.039
       0.083
       0.131
       0.166
       0.163
       0.108
       0.007
      -0.112
      -0.213
      -0.281
      -0.322
      -0.357
      -0.391
      -0.405
      -0.370
      -0.269
      -0.109
       0.074
       0.228
       0.314
       0.338
       0.347
       0.391
       0.482
       0.579
       0.619
       0.564
       0.423
       0.244
       0.078
      -0.048
      -0.135
      -0.196
      -0.241
      -0.276
      -0.297
      -0.298
      -0.274
      -0.228
      -0.173
      -0.122
      -0.081
      -0.048
      -0.015
       0.031
       0.092
       0.155
       0.193
       0.190
       0.151
       0.101
       0.062
       0.048
       0.061
       0.094
       0.132
       0.169
       0.205
       0.239
       0.263
       0.258
       0.212
       0.127
       0.028
      -0.052
      -0.089
      -0.082
      -0.051
      -0.026
      -0.025
      -0.047
      -0.070
      -0.073
      -0.056
      -0.042
      -0.066
      -0.148
      -0.285
      -0.446
      -0.590
      -0.682
      -0.705
      -0.669
      -0.608
      -0.558
      -0.538
      -0.539
      -0.529
      -0.469
      -0.341
      -0.159
       0.045
       0.243
       0.429
       0.610
       0.795
       0.971
       1.110
       1.178
       1.158
       1.054
       0.889
       0.690
       0.474
       0.248
       0.019
      -0.201
      -0.398
      -0.557
      -0.668
      -0.721
      -0.708
      -0.627
      -0.496
      -0.346
      -0.218
      -0.138
      -0.114
      -0.131
      -0.169
      -0.214
      -0.260
      -0.313
      -0.377
      -0.439
      -0.468
      -0.428
      -0.303
      -0.108
       0.112
       0.312
       0.463
       0.567
       0.649
       0.742
       0.855
       0.961
       1.007
       0.950
       0.794
       0.596
       0.429
       0.328
       0.260
       0.164
      -0.003
      -0.233
      -0.484
      -0.717
      -0.913
      -1.062
      -1.148
      -1.153
      -1.070
      -0.909
      -0.702
      -0.482
      -0.277
      -0.105
       0.024
       0.105
       0.140
       0.130
       0.079
       0.011
      -0.029
       0.012
       0.154
       0.370
       0.602
       0.791
       0.904
       0.939
       0.913
       0.852
       0.777
       0.704
       0.631
       0.547
       0.436
       0.302
       0.159
       0.021
      -0.122
      -0.295
      -0.503
      -0.722
      -0.915
      -1.057
      -1.145
      -1.185
      -1.179
      -1.126
      -1.024
      -0.876
      -0.687
      -0.471
      -0.245
      -0.019
       0.206
       0.440
       0.689
       0.935
       1.126
       1.208
       1.150
       0.972
       0.724
       0.464
       0.230
       0.038
      -0.116
      -0.241
      -0.335
      -0.389
      -0.391
      -0.336
      -0.232
      -0.092
       0.056
       0.184
       0.264
       0.283
       0.246
       0.168
       0.068
      -0.041
      -0.154
      -0.269
      -0.377
      -0.448
      -0.447
      -0.357
      -0.192
       0.005
       0.187
       0.323
       0.408
       0.453
       0.477
       0.483
       0.460
       0.381
       0.228
       0.011
      -0.222
      -0.409
      -0.511
      -0.533
      -0.520
      -0.515
      -0.535
      -0.561
      -0.562
      -0.519
      -0.433
      -0.323
      -0.207
      -0.092
       0.021
       0.130
       0.227
       0.297
       0.332
       0.326
       0.281
       0.203
       0.100
      -0.012
      -0.103
      -0.140
      -0.113
      -0.047
       0.018
       0.052
       0.055
       0.054
       0.074
       0.123
       0.188
       0.245
       0.270
       0.252
       0.187
       0.079
      -0.060
      -0.215
      -0.366
      -0.492
      -0.570
      -0.576
      -0.500
      -0.352
      -0.163
       0.038
       0.232
       0.405
       0.542
       0.624
       0.638
       0.582
       0.466
       0.321
       0.191
       0.120
       0.124
       0.186
       0.264
       0.317
       0.320
       0.269
       0.171
       0.042
      -0.098
      -0.226
      -0.329
      -0.413
      -0.493
      -0.568
      -0.615
      -0.599
      -0.501
      -0.332
      -0.135
       0.042
       0.156
       0.190
       0.151
       0.070
      -0.011
      -0.050
      -0.027
       0.045
       0.124
       0.157
       0.110
      -0.015
      -0.176
      -0.311
      -0.363
      -0.314
      -0.189
      -0.033
       0.118
       0.249
       0.362
       0.457
       0.530
       0.571
       0.574
       0.544
       0.494
       0.438
       0.387
       0.344
       0.297
       0.229
       0.118
      -0.043
      -0.238
      -0.433
      -0.602
      -0.733
      -0.823
      -0.865
      -0.845
      -0.753
      -0.597
      -0.404
      -0.213
      -0.055
       0.054
       0.118
       0.154
       0.187
       0.239
       0.309
       0.376
       0.407
       0.381
       0.296
       0.167
       0.024
      -0.100
      -0.183
      -0.218
      -0.216
      -0.191
      -0.154
      -0.106
      -0.043
       0.043
       0.150
       0.260
       0.345
       0.387
       0.389
       0.367
       0.333
       0.283
       0.207
       0.101
      -0.016
      -0.119
      -0.189
      -0.234
      -0.276
      -0.332
      -0.402
      -0.474
      -0.531
      -0.549
      -0.508
      -0.401
      -0.249
      -0.094
       0.028
       0.110
       0.178
       0.267
       0.387
       0.511
       0.587
       0.581
       0.498
       0.369
       0.238
       0.136
       0.076
       0.054
       0.056
       0.069
       0.082
       0.078
       0.038
      -0.046
      -0.163
      -0.282
      -0.372
      -0.419
      -0.434
      -0.439
      -0.449
      -0.455
      -0.432
      -0.366
      -0.264
      -0.155
      -0.076
      -0.056
      -0.109
      -0.221
      -0.350
      -0.449
      -0.489
      -0.473
      -0.421
      -0.351
      -0.266
      -0.163
      -0.045
       0.075
       0.184
       0.280
       0.366
       0.450
       0.534
       0.615
       0.692
       0.761
       0.814
       0.843
       0.838
       0.793
       0.708
       0.594
       0.467
       0.341
       0.224
       0.116
       0.020
      -0.059
      -0.116
      -0.150
      -0.164
      -0.167
      -0.169
      -0.179
      -0.203
      -0.254
      -0.351
      -0.504
      -0.684
      -0.832
      -0.892
      -0.847
      -0.727
      -0.582
      -0.442
      -0.300
      -0.126
       0.092
       0.332
       0.541
       0.667
       0.691
       0.636
       0.551
       0.476
       0.414
       0.336
       0.211
       0.041
      -0.138
      -0.279
      -0.351
      -0.355
      -0.310
      -0.241
      -0.167
      -0.099
      -0.041
      -0.001
       0.011
      -0.014
      -0.081
      -0.183
      -0.288
      -0.356
      -0.352
      -0.278
      -0.165
      -0.051
       0.037
       0.099
       0.144
       0.186
       0.222
       0.235
       0.209
       0.143
       0.058
      -0.010
      -0.034
      -0.002
       0.077
       0.177
       0.259
       0.286
       0.246
       0.155
       0.045
      -0.054
      -0.130
      -0.179
      -0.201
      -0.189
      -0.136
      -0.051
       0.044
       0.128
       0.191
       0.235
       0.253
       0.226
       0.143
       0.011
      -0.134
      -0.247
      -0.291
      -0.263
      -0.187
      -0.095
      -0.013
       0.049
       0.091
       0.120
       0.134
       0.124
       0.075
      -0.012
      -0.123
      -0.228
      -0.306
      -0.338
      -0.319
      -0.250
      -0.146
      -0.036
       0.052
       0.101
       0.115
       0.119
       0.133
       0.166
       0.208
       0.246
       0.268
       0.269
       0.246
       0.202
       0.147
       0.089
       0.028
      -0.042
      -0.119
      -0.188
      -0.224
      -0.209
      -0.151
      -0.080
      -0.035
      -0.036
      -0.071
      -0.109
      -0.128
      -0.123
      -0.100
      -0.065
      -0.025
       0.010
       0.032
       0.035
       0.028
       0.020
       0.018
       0.017
       0.016
       0.022
       0.051
       0.105
       0.164
       0.213
       0.249
       0.281
       0.311
       0.321
       0.299
       0.251
       0.196
       0.143
       0.083
      -0.003
      -0.120
      -0.244
      -0.342
      -0.387
      -0.385
