Origin Time       16/1/2012 05:01:00 
Lat.              29.7 N 
Long.             78.9 E 
Depth (Km)         10.0
Magnitude         3.6
 Region           Pauri-Uttarakhand                                                
 Above details taken from IMD 
     
Station Code      PAU
Station Lat.       30.150  N
Station Long.      78.777  E
Station Height(m) 1606.0
Site Class        A   Vs30 between 700 m/sec to 1400 m/sec * 
Record Time       16.01.2012 05:00:59.509
Sampling Rate     200. Hz
 Record Duration   80.005 Sec.
 Direction         E-W (E positive)
Max. Acceleration      1.395 cm/sec**2
     
  * For reference see Site Classification link of website 
     
 Base Line Corrected and Low Pass Filtered (Cut Off at 35 Hz) Time History
 Acceleration data in cm/sec**2
    
[...]
       0.082
       0.370
       0.684
       0.892
       0.885
       0.668
       0.363
       0.108
      -0.047
      -0.159
      -0.308
      -0.505
      -0.677
      -0.741
      -0.675
      -0.526
      -0.361
      -0.215
      -0.073
       0.092
       0.281
       0.449
       0.530
       0.486
       0.343
       0.188
       0.109
       0.133
       0.204
       0.236
       0.186
       0.080
      -0.028
      -0.114
      -0.193
      -0.289
      -0.398
      -0.495
      -0.545
      -0.516
      -0.387
      -0.171
       0.068
       0.246
       0.309
       0.267
       0.175
       0.079
      -0.002
      -0.066
      -0.097
      -0.072
       0.023
       0.171
       0.334
       0.472
       0.552
       0.546
       0.438
       0.241
       0.004
      -0.210
      -0.361
      -0.441
      -0.457
      -0.415
      -0.327
      -0.229
      -0.170
      -0.176
      -0.215
      -0.215
      -0.107
       0.118
       0.401
       0.643
       0.760
       0.723
       0.569
       0.369
       0.177
      -0.008
      -0.227
      -0.491
      -0.739
      -0.863
      -0.795
      -0.570
      -0.303
      -0.103
      -0.007
       0.030
       0.071
       0.147
       0.242
       0.320
       0.355
       0.337
       0.271
       0.172
       0.062
      -0.038
      -0.115
      -0.160
      -0.161
      -0.112
      -0.029
       0.049
       0.080
       0.046
      -0.034
      -0.120
      -0.173
      -0.185
      -0.170
      -0.151
      -0.145
      -0.150
      -0.157
      -0.149
      -0.107
      -0.024
       0.085
       0.181
       0.242
       0.273
       0.303
       0.339
       0.351
       0.297
       0.168
       0.000
      -0.154
      -0.273
      -0.373
      -0.471
      -0.545
      -0.545
      -0.445
      -0.265
      -0.067
       0.098
       0.208
       0.283
       0.359
       0.457
       0.554
       0.601
       0.566
       0.475
       0.399
       0.383
       0.404
       0.391
       0.291
       0.113
      -0.088
      -0.266
      -0.415
      -0.549
      -0.663
      -0.728
      -0.714
      -0.622
      -0.482
      -0.335
      -0.216
      -0.137
      -0.083
      -0.029
       0.035
       0.081
       0.077
       0.018
      -0.045
      -0.035
       0.090
       0.300
       0.500
       0.597
       0.558
       0.427
       0.276
       0.154
       0.059
      -0.035
      -0.146
      -0.257
      -0.323
      -0.300
      -0.186
      -0.033
       0.081
       0.105
       0.052
      -0.028
      -0.089
      -0.123
      -0.142
      -0.157
      -0.166
      -0.168
      -0.166
      -0.163
      -0.147
      -0.099
      -0.019
       0.058
       0.090
       0.065
       0.009
      -0.034
      -0.040
      -0.018
       0.019
       0.070
       0.140
       0.219
       0.270
       0.253
       0.163
       0.045
      -0.045
      -0.081
      -0.078
      -0.068
      -0.067
      -0.070
      -0.056
      -0.005
       0.078
       0.160
       0.198
       0.170
       0.103
       0.039
       0.002
      -0.028
      -0.086
      -0.176
      -0.262
      -0.298
      -0.271
      -0.207
      -0.137
      -0.066
       0.017
       0.109
       0.181
       0.203
       0.170
       0.110
       0.059
       0.040
       0.049
       0.056
       0.028
      -0.035
      -0.096
      -0.110
      -0.073
      -0.029
      -0.030
      -0.085
      -0.149
      -0.165
      -0.113
      -0.028
       0.044
       0.086
       0.123
       0.183
       0.262
       0.321
       0.320
       0.246
       0.123
      -0.001
      -0.077
      -0.095
      -0.084
      -0.094
      -0.138
      -0.185
      -0.186
      -0.124
      -0.038
       0.010
      -0.011
      -0.080
      -0.148
      -0.191
      -0.217
      -0.247
      -0.275
      -0.275
      -0.228
      -0.145
      -0.052
       0.026
       0.085
       0.131
       0.182
       0.247
       0.327
       0.401
       0.440
       0.419
       0.335
       0.210
       0.079
      -0.033
      -0.111
      -0.155
      -0.171
      -0.173
      -0.174
      -0.181
      -0.185
      -0.187
      -0.201
      -0.238
      -0.275
      -0.261
      -0.164
      -0.009
       0.134
       0.209
       0.211
       0.182
       0.171
       0.199
       0.247
       0.276
       0.248
       0.155
       0.029
      -0.080
      -0.147
      -0.189
      -0.239
      -0.302
      -0.336
      -0.292
      -0.166
      -0.011
       0.103
       0.145
       0.140
       0.132
       0.147
       0.165
       0.152
       0.097
       0.027
      -0.014
      -0.010
       0.023
       0.047
       0.040
       0.003
      -0.046
      -0.094
      -0.140
      -0.188
      -0.229
      -0.234
      -0.186
      -0.101
      -0.021
       0.021
       0.021
       0.010
       0.016
       0.040
       0.053
       0.026
      -0.032
      -0.075
      -0.064
      -0.009
       0.032
       0.014
      -0.045
      -0.077
      -0.033
       0.064
       0.141
       0.140
       0.061
      -0.045
      -0.127
      -0.167
      -0.180
      -0.190
      -0.205
      -0.207
      -0.168
      -0.072
       0.068
       0.207
       0.293
       0.298
       0.240
       0.169
       0.128
       0.132
       0.162
       0.184
       0.170
       0.110
       0.024
      -0.061
      -0.122
      -0.154
      -0.168
      -0.182
      -0.201
      -0.206
      -0.167
      -0.082
       0.008
       0.041
      -0.005
      -0.080
      -0.101
      -0.017
       0.132
       0.249
       0.252
       0.140
      -0.008
      -0.099
      -0.096
      -0.033
       0.017
       0.011
      -0.038
      -0.077
      -0.063
      -0.001
       0.064
       0.083
       0.051
       0.001
      -0.027
      -0.015
       0.016
       0.036
       0.022
      -0.027
      -0.090
      -0.140
      -0.159
      -0.148
      -0.125
      -0.105
      -0.087
      -0.063
      -0.040
      -0.037
      -0.063
      -0.093
      -0.074
       0.030
       0.200
       0.363
       0.435
       0.370
       0.187
      -0.044
      -0.234
      -0.326
      -0.323
      -0.269
      -0.215
      -0.181
      -0.148
      -0.085
       0.024
       0.151
       0.247
       0.271
       0.234
       0.185
       0.163
       0.163
       0.138
       0.052
      -0.093
      -0.249
      -0.354
      -0.376
      -0.323
      -0.234
      -0.148
      -0.074
       0.000
       0.088
       0.182
       0.256
       0.285
       0.265
       0.217
       0.168
       0.121
       0.059
      -0.035
      -0.150
      -0.250
      -0.296
      -0.273
      -0.203
      -0.130
      -0.096
      -0.110
      -0.146
      -0.164
      -0.135
      -0.061
       0.038
       0.135
       0.213
       0.275
       0.327
       0.359
       0.345
       0.268
       0.139
      -0.001
      -0.112
      -0.182
      -0.210
      -0.196
      -0.134
      -0.038
       0.052
       0.086
       0.041
      -0.048
      -0.116
      -0.115
      -0.048
       0.042
       0.108
       0.124
       0.086
       0.009
      -0.083
      -0.159
      -0.200
      -0.202
      -0.176
      -0.130
      -0.074
      -0.021
       0.007
       0.000
      -0.032
      -0.061
      -0.065
      -0.050
      -0.038
      -0.043
      -0.059
      -0.065
      -0.042
       0.016
       0.092
       0.150
       0.153
       0.095
       0.014
      -0.036
      -0.024
       0.039
       0.110
       0.149
       0.138
       0.084
       0.011
      -0.053
      -0.086
      -0.079
      -0.041
      -0.001
       0.016
       0.007
      -0.005
      -0.005
      -0.007
      -0.042
      -0.119
      -0.207
      -0.256
      -0.234
      -0.144
      -0.019
       0.102
       0.189
       0.228
       0.220
       0.171
       0.089
      -0.015
      -0.119
      -0.196
      -0.219
      -0.178
      -0.084
       0.028
       0.116
       0.154
       0.145
       0.107
       0.059
       0.008
      -0.043
      -0.084
      -0.097
      -0.070
      -0.011
       0.052
       0.090
       0.090
       0.060
       0.015
      -0.028
      -0.062
      -0.084
      -0.096
      -0.098
      -0.085
      -0.052
      -0.015
       0.001
      -0.023
      -0.074
      -0.117
      -0.117
      -0.072
      -0.006
       0.049
       0.083
       0.106
       0.131
       0.153
       0.159
       0.141
       0.110
       0.082
       0.062
       0.040
      -0.001
      -0.063
      -0.135
      -0.199
      -0.238
      -0.247
      -0.231
      -0.202
      -0.164
      -0.119
      -0.060
       0.014
       0.091
       0.144
       0.153
       0.121
       0.075
       0.048
       0.054
       0.087
       0.122
       0.126
       0.075
      -0.025
      -0.131
      -0.183
      -0.154
      -0.069
       0.007
       0.017
      -0.044
      -0.133
      -0.195
      -0.204
      -0.169
      -0.111
      -0.043
       0.027
       0.085
       0.120
       0.128
       0.117
       0.094
       0.065
       0.038
       0.030
       0.044
       0.064
       0.065
       0.041
       0.012
       0.001
       0.007
       0.008
      -0.021
      -0.081
      -0.143
      -0.180
      -0.187
      -0.176
      -0.163
      -0.151
      -0.134
      -0.109
      -0.070
      -0.014
       0.057
       0.132
       0.194
       0.222
       0.199
       0.128
       0.036
      -0.029
      -0.038
       0.000
       0.040
       0.047
       0.023
       0.005
       0.024
       0.075
       0.118
       0.115
       0.060
      -0.017
      -0.079
      -0.109
      -0.107
      -0.075
      -0.012
       0.076
       0.168
       0.232
       0.244
       0.204
       0.131
       0.055
      -0.011
      -0.074
      -0.153
      -0.253
      -0.353
      -0.404
      -0.363
      -0.220
      -0.027
       0.132
       0.194
       0.159
       0.080
       0.018
      -0.013
      -0.036
      -0.079
      -0.138
      -0.180
      -0.172
      -0.110
      -0.021
       0.053
       0.081
       0.062
       0.024
       0.001
       0.007
       0.017
       0.000
      -0.048
      -0.095
      -0.105
      -0.070
      -0.013
       0.036
       0.056
       0.043
       0.014
      -0.002
       0.023
       0.089
       0.167
       0.221
       0.231
       0.203
       0.154
       0.095
       0.037
      -0.006
      -0.020
      -0.007
       0.003
      -0.025
      -0.092
      -0.157
      -0.169
      -0.117
      -0.039
       0.015
       0.018
      -0.017
      -0.053
      -0.057
      -0.016
       0.051
       0.105
       0.117
       0.092
       0.064
       0.067
       0.107
       0.159
       0.188
       0.167
       0.089
      -0.039
      -0.191
      -0.325
      -0.395
      -0.382
      -0.310
      -0.218
      -0.137
      -0.079
      -0.046
      -0.038
      -0.041
      -0.031
       0.004
       0.051
       0.082
       0.087
       0.086
       0.114
       0.177
       0.249
       0.285
       0.262
       0.194
       0.115
       0.053
       0.012
      -0.020
      -0.057
      -0.111
      -0.176
      -0.232
      -0.256
      -0.236
      -0.192
      -0.148
      -0.118
      -0.087
      -0.039
       0.022
       0.070
       0.081
       0.058
       0.031
       0.021
       0.018
      -0.015
      -0.093
      -0.187
      -0.238
      -0.206
      -0.106
       0.010
       0.092
       0.127
       0.138
       0.155
       0.190
       0.227
       0.240
       0.215
       0.164
       0.117
       0.098
       0.109
       0.124
       0.109
       0.058
      -0.007
      -0.059
      -0.101
      -0.159
      -0.250
      -0.351
      -0.405
      -0.366
      -0.238
      -0.067
       0.094
       0.220
       0.313
       0.381
       0.413
       0.390
       0.306
       0.171
       0.011
      -0.142
      -0.259
      -0.329
      -0.359
      -0.364
      -0.346
      -0.292
      -0.199
      -0.082
       0.041
       0.164
       0.288
       0.402
       0.474
       0.467
       0.370
       0.203
       0.013
      -0.158
      -0.288
      -0.374
      -0.422
      -0.432
      -0.401
      -0.322
      -0.199
      -0.054
       0.071
       0.140
       0.149
       0.129
       0.117
       0.118
       0.104
       0.045
      -0.057
      -0.161
      -0.230
      -0.264
      -0.300
      -0.364
      -0.435
      -0.453
      -0.374
      -0.202
       0.011
       0.202
       0.338
       0.424
       0.491
       0.562
       0.632
       0.667
       0.633
       0.524
       0.369
       0.206
       0.064
      -0.051
      -0.142
      -0.207
      -0.232
      -0.199
      -0.104
       0.043
       0.214
       0.374
       0.483
       0.503
       0.411
       0.220
      -0.018
      -0.233
      -0.373
      -0.434
      -0.443
      -0.430
      -0.395
      -0.323
      -0.209
      -0.078
       0.037
       0.109
       0.121
       0.064
      -0.054
      -0.204
      -0.346
      -0.451
      -0.498
      -0.472
      -0.366
      -0.202
      -0.028
       0.114
       0.213
       0.289
       0.355
       0.395
       0.380
       0.307
       0.199
       0.079
      -0.059
      -0.246
      -0.490
      -0.752
      -0.965
      -1.071
      -1.054
      -0.931
      -0.727
      -0.461
      -0.147
       0.201
       0.564
       0.910
       1.193
       1.363
       1.395
       1.314
       1.176
       1.035
       0.911
       0.800
       0.696
       0.595
       0.480
       0.312
       0.065
      -0.239
      -0.544
      -0.802
      -1.007
      -1.176
      -1.309
      -1.372
      -1.323
      -1.151
      -0.884
      -0.569
      -0.242
       0.071
       0.351
       0.578
       0.743
       0.839
       0.864
       0.819
       0.716
       0.579
       0.425
       0.249
       0.048
      -0.147
      -0.273
      -0.285
      -0.200
      -0.096
      -0.047
      -0.075
      -0.146
      -0.221
      -0.299
      -0.414
      -0.590
      -0.797
      -0.967
      -1.029
      -0.953
      -0.751
      -0.465
      -0.144
       0.165
       0.435
       0.657
       0.824
       0.915
       0.900
       0.769
       0.554
       0.320
       0.129
       0.025
       0.029
       0.142
       0.340
       0.563
       0.737
       0.813
       0.792
       0.702
       0.569
       0.402
       0.220
       0.053
      -0.085
      -0.211
      -0.360
      -0.535
      -0.692
      -0.772
      -0.764
      -0.717
      -0.704
      -0.759
      -0.847
      -0.900
      -0.858
      -0.698
      -0.427
      -0.081
       0.282
       0.592
       0.792
       0.863
       0.815
       0.664
       0.431
       0.146
      -0.146
      -0.406
      -0.601
      -0.708
      -0.709
      -0.600
      -0.406
      -0.174
       0.045
       0.224
       0.371
       0.501
       0.613
       0.677
       0.668
       0.588
       0.463
       0.326
       0.193
       0.067
      -0.061
      -0.187
      -0.289
      -0.336
      -0.305
      -0.209
      -0.091
      -0.002
       0.031
       0.016
      -0.022
      -0.065
      -0.121
      -0.201
      -0.295
      -0.362
      -0.370
      -0.330
      -0.285
      -0.269
      -0.267
      -0.239
      -0.162
      -0.052
       0.058
       0.150
       0.226
       0.294
       0.349
       0.381
       0.388
       0.376
       0.359
       0.347
       0.345
       0.346
       0.335
       0.291
       0.213
       0.136
       0.106
       0.141
       0.210
       0.256
       0.241
       0.161
       0.038
      -0.099
      -0.229
      -0.337
      -0.418
      -0.473
      -0.507
      -0.525
      -0.525
      -0.511
      -0.498
      -0.491
      -0.470
      -0.401
      -0.273
      -0.130
      -0.033
      -0.007
      -0.016
      -0.005
       0.045
       0.105
       0.125
       0.085
       0.006
      -0.063
      -0.078
      -0.016
       0.118
       0.289
       0.440
       0.522
       0.521
       0.461
       0.378
       0.285
       0.177
       0.057
      -0.053
      -0.136
      -0.204
      -0.275
      -0.351
      -0.410
      -0.420
      -0.369
      -0.260
      -0.113
       0.045
       0.190
       0.309
       0.411
       0.508
       0.595
       0.638
       0.597
       0.461
       0.263
       0.055
      -0.132
      -0.305
      -0.477
      -0.629
      -0.701
      -0.645
      -0.459
      -0.203
       0.040
       0.212
       0.304
       0.340
       0.351
       0.339
       0.288
       0.182
       0.037
      -0.098
      -0.175
      -0.181
      -0.148
      -0.120
      -0.112
      -0.107
      -0.088
      -0.049
       0.006
       0.086
       0.206
       0.371
       0.549
       0.671
       0.665
       0.493
       0.187
      -0.163
      -0.459
      -0.648
      -0.739
      -0.767
      -0.750
      -0.673
      -0.508
      -0.250
       0.059
       0.334
       0.480
       0.440
       0.225
      -0.099
      -0.443
      -0.730
      -0.898
      -0.909
      -0.763
      -0.505
      -0.211
       0.050
       0.248
       0.388
       0.483
       0.534
       0.535
       0.490
       0.416
       0.347
       0.313
       0.320
       0.336
       0.306
       0.195
       0.023
      -0.139
      -0.227
      -0.220
      -0.146
      -0.042
       0.071
       0.188
       0.309
       0.419
       0.498
       0.532
       0.516
       0.447
       0.324
       0.157
      -0.028
      -0.192
      -0.315
      -0.399
      -0.457
      -0.497
      -0.517
      -0.510
      -0.467
      -0.375
      -0.235
      -0.066
       0.094
       0.216
       0.294
       0.347
       0.401
       0.453
       0.480
       0.454
       0.381
       0.295
       0.229
       0.188
       0.148
       0.080
      -0.031
      -0.188
      -0.375
      -0.564
      -0.730
      -0.855
      -0.929
      -0.942
      -0.883
      -0.745
      -0.546
      -0.326
      -0.132
       0.012
       0.116
       0.206
       0.291
       0.348
       0.354
       0.319
       0.278
       0.264
       0.284
       0.319
       0.342
       0.322
       0.235
       0.079
      -0.109
      -0.266
      -0.339
      -0.315
      -0.226
      -0.113
      -0.006
       0.087
       0.160
       0.204
       0.220
       0.227
       0.247
       0.273
       0.268
       0.194
       0.057
      -0.098
      -0.217
      -0.278
      -0.292
      -0.277
      -0.231
      -0.140
      -0.002
       0.162
       0.319
       0.441
       0.508
       0.514
       0.476
       0.430
       0.401
       0.379
       0.329
       0.240
       0.142
       0.070
       0.020
      -0.049
      -0.173
      -0.343
      -0.505
      -0.607
      -0.632
      -0.610
      -0.587
      -0.584
      -0.581
      -0.534
      -0.412
      -0.232
      -0.051
       0.066
       0.103
       0.106
       0.142
       0.238
       0.360
       0.450
       0.476
       0.456
       0.430
       0.417
       0.405
       0.366
       0.289
       0.180
       0.050
      -0.094
      -0.245
      -0.371
      -0.435
      -0.413
      -0.322
      -0.206
      -0.111
