Origin Time       14/12/2005 07:09:48
Lat.              30.9 N 
Long.             79.3 E 
Depth (Km)         25.7
Magnitude         5.2
 Region           Chamoli-Uttarakhand                                              
 Above details taken from IMD 
   
Station Code      PAU
Station Lat.       30.150
Station Long.      78.777
Station Height(m) 1606.0
Site Class        A   Vs30 between 700 m/sec to 1400 m/sec * 
Record Time       14.12.2005 07:09:28.609
Sampling Rate     200. Hz
 Record Duration   33.745 Sec.
 Direction         Vert. (Up positive)
Max. Acceleration     10.500 cm/sec**2
     
  * For reference see Site Classification link of website 
     
 Base Line Corrected and Low Pass Filtered (Cut Off at 35 Hz) Time History
 Acceleration data in cm/sec**2
    
[...]
       2.196
       3.586
       4.193
       3.637
       2.061
       0.031
      -1.836
      -3.150
      -3.796
      -3.848
      -3.455
      -2.760
      -1.859
      -0.839
       0.187
       1.110
       1.875
       2.448
       2.725
       2.545
       1.834
       0.745
      -0.388
      -1.227
      -1.608
      -1.601
      -1.408
      -1.161
      -0.771
       0.000
       1.256
       2.721
       3.790
       3.885
       2.811
       0.863
      -1.372
      -3.319
      -4.588
      -4.984
      -4.475
      -3.208
      -1.482
       0.377
       2.133
       3.616
       4.620
       4.910
       4.376
       3.129
       1.434
      -0.411
      -2.094
      -3.270
      -3.648
      -3.157
      -2.027
      -0.686
       0.446
       1.145
       1.463
       1.641
       1.886
       2.167
       2.217
       1.756
       0.744
      -0.531
      -1.640
      -2.311
      -2.608
      -2.795
      -2.979
      -2.902
      -2.143
      -0.599
       1.265
       2.687
       3.151
       2.738
       2.002
       1.483
       1.275
       0.976
       0.119
      -1.280
      -2.595
      -3.040
      -2.315
      -0.845
       0.542
       1.180
       0.957
       0.315
      -0.134
      -0.117
       0.092
      -0.009
      -0.588
      -1.267
      -1.484
      -1.017
      -0.132
       0.710
       1.238
       1.512
       1.773
       2.148
       2.440
       2.195
       1.073
      -0.758
      -2.614
      -3.717
      -3.718
      -2.875
      -1.810
      -1.056
      -0.726
      -0.513
       0.020
       1.064
       2.403
       3.557
       4.104
       3.896
       3.067
       1.879
       0.553
      -0.811
      -2.159
      -3.320
      -3.960
      -3.754
      -2.663
      -1.043
       0.565
       1.780
       2.546
       2.985
       3.125
       2.817
       1.890
       0.383
      -1.372
      -2.869
      -3.653
      -3.543
      -2.744
      -1.735
      -0.958
      -0.527
      -0.228
       0.213
       0.872
       1.583
       2.120
       2.396
       2.510
       2.574
       2.486
       1.939
       0.749
      -0.829
      -2.185
      -2.795
      -2.554
      -1.719
      -0.643
       0.402
       1.269
       1.888
       2.172
       1.915
       0.885
      -0.866
      -2.792
      -4.080
      -4.160
      -3.039
      -1.213
       0.690
       2.196
       3.087
       3.343
       3.061
       2.387
       1.517
       0.675
       0.046
      -0.338
      -0.634
      -1.086
      -1.802
      -2.570
      -2.916
      -2.444
      -1.206
       0.249
       1.241
       1.427
       0.960
       0.284
      -0.213
      -0.393
      -0.350
      -0.256
      -0.186
      -0.063
       0.246
       0.753
       1.301
       1.702
       1.901
       1.957
       1.859
       1.440
       0.520
      -0.831
      -2.208
      -3.100
      -3.230
      -2.746
      -2.092
      -1.668
      -1.544
      -1.459
      -1.094
      -0.371
       0.508
       1.276
       1.827
       2.234
       2.578
       2.799
       2.693
       2.075
       0.956
      -0.394
      -1.559
      -2.198
      -2.192
      -1.659
      -0.844
       0.001
       0.679
       1.036
       0.936
       0.319
      -0.690
      -1.767
      -2.537
      -2.770
      -2.430
      -1.620
      -0.536
       0.541
       1.320
       1.648
       1.601
       1.443
       1.495
       1.962
       2.774
       3.541
       3.732
       3.009
       1.471
      -0.367
      -1.850
      -2.530
      -2.407
      -1.889
      -1.473
      -1.357
      -1.358
      -1.186
      -0.774
      -0.305
       0.007
       0.096
       0.041
      -0.029
       0.013
       0.222
       0.521
       0.714
       0.653
       0.366
       0.028
      -0.215
      -0.354
      -0.462
      -0.556
      -0.514
      -0.166
       0.490
       1.155
       1.364
       0.857
      -0.149
      -1.061
      -1.342
      -0.873
       0.034
       0.942
       1.588
       1.960
       2.140
       2.107
       1.687
       0.727
      -0.654
      -1.977
      -2.649
      -2.363
      -1.329
      -0.112
       0.771
       1.134
       1.102
       0.890
       0.622
       0.291
      -0.135
      -0.597
      -0.926
      -0.951
      -0.647
      -0.175
       0.185
       0.166
      -0.346
      -1.193
      -1.960
      -2.203
      -1.746
      -0.783
       0.327
       1.283
       1.903
       2.076
       1.793
       1.217
       0.598
       0.105
      -0.228
      -0.402
      -0.394
      -0.222
       0.039
       0.329
       0.633
       0.884
       0.936
       0.702
       0.260
      -0.208
      -0.565
      -0.750
      -0.754
      -0.635
      -0.525
      -0.522
      -0.586
      -0.599
      -0.520
      -0.412
      -0.347
      -0.347
      -0.422
      -0.582
      -0.785
      -0.944
      -1.009
      -1.020
      -1.049
      -1.090
      -1.026
      -0.695
      -0.033
       0.835
       1.650
       2.208
       2.484
       2.545
       2.381
       1.896
       1.022
      -0.192
      -1.583
      -2.820
      -3.396
      -2.868
      -1.273
       0.751
       2.360
       3.061
       2.921
       2.350
       1.787
       1.478
       1.378
       1.214
       0.719
      -0.144
      -1.205
      -2.311
      -3.409
      -4.393
      -4.980
      -4.841
      -3.837
      -2.124
      -0.050
       1.999
       3.707
       4.873
       5.386
       5.177
       4.236
       2.687
       0.811
      -1.048
      -2.595
      -3.607
      -3.924
      -3.504
      -2.489
      -1.179
       0.083
       1.023
       1.473
       1.402
       0.941
       0.344
      -0.129
      -0.327
      -0.242
       0.035
       0.334
       0.447
       0.239
      -0.209
      -0.594
      -0.587
      -0.084
       0.705
       1.387
       1.615
       1.285
       0.580
      -0.167
      -0.717
      -1.059
      -1.319
      -1.584
      -1.826
      -1.939
      -1.790
      -1.253
      -0.268
       1.069
       2.507
       3.729
       4.452
       4.472
       3.731
       2.362
       0.665
      -1.019
      -2.405
      -3.273
      -3.438
      -2.809
      -1.539
      -0.086
       0.941
       1.110
       0.437
      -0.613
      -1.419
      -1.560
      -1.012
      -0.083
       0.791
       1.261
       1.221
       0.870
       0.625
       0.836
       1.500
       2.248
       2.633
       2.477
       1.948
       1.349
       0.855
       0.424
      -0.101
      -0.821
      -1.680
      -2.503
      -3.107
      -3.393
      -3.345
      -2.982
      -2.319
      -1.375
      -0.226
       0.934
       1.804
       2.115
       1.822
       1.165
       0.508
       0.088
      -0.119
      -0.316
      -0.690
      -1.260
      -1.858
      -2.219
      -2.110
      -1.444
      -0.343
       0.902
       1.955
       2.574
       2.661
       2.250
       1.495
       0.653
      -0.017
      -0.408
      -0.598
      -0.717
      -0.806
      -0.830
      -0.754
      -0.565
      -0.263
       0.085
       0.332
       0.349
       0.133
      -0.234
      -0.691
      -1.184
      -1.586
      -1.749
      -1.660
      -1.471
      -1.316
      -1.184
      -0.967
      -0.590
      -0.038
       0.673
       1.487
       2.280
       2.899
       3.241
       3.287
       3.092
       2.759
       2.366
       1.908
       1.294
       0.443
      -0.634
      -1.815
      -2.918
      -3.765
      -4.226
      -4.221
      -3.677
      -2.526
      -0.818
       1.160
       2.917
       3.973
       4.088
       3.351
       2.082
       0.621
      -0.822
      -2.137
      -3.158
      -3.604
      -3.227
      -2.012
      -0.226
       1.675
       3.200
       3.983
       3.952
       3.338
       2.451
       1.431
       0.248
      -1.105
      -2.470
      -3.537
      -3.946
      -3.442
      -2.071
      -0.239
       1.526
       2.887
       3.739
       4.023
       3.675
       2.798
       1.724
       0.772
       0.006
      -0.728
      -1.598
      -2.642
      -3.716
      -4.493
      -4.615
      -3.960
      -2.759
      -1.381
      -0.066
       1.090
       1.981
       2.452
       2.410
       1.857
       0.859
      -0.408
      -1.564
      -2.133
      -1.814
      -0.648
       1.027
       2.699
       3.805
       3.907
       2.905
       1.122
      -0.835
      -2.351
      -3.042
      -2.884
      -2.142
      -1.162
      -0.212
       0.508
       0.837
       0.762
       0.532
       0.496
       0.737
       0.903
       0.463
      -0.835
      -2.685
      -4.309
      -4.883
      -4.054
      -2.213
      -0.236
       1.150
       1.866
       2.413
       3.335
       4.672
       5.863
       6.153
       5.177
       3.217
       0.913
      -1.238
      -3.087
      -4.598
      -5.567
      -5.663
      -4.702
      -2.840
      -0.528
       1.643
       3.130
       3.626
       3.165
       2.025
       0.509
      -1.156
      -2.721
      -3.821
      -4.103
      -3.467
      -2.159
      -0.602
       0.836
       1.964
       2.733
       3.118
       3.024
       2.346
       1.165
      -0.101
      -0.870
      -0.788
       0.012
       1.042
       1.801
       2.019
       1.701
       1.069
       0.433
      -0.019
      -0.312
      -0.533
      -0.633
      -0.505
      -0.287
      -0.398
      -1.162
      -2.410
      -3.521
      -3.815
      -2.929
      -0.948
       1.619
       4.003
       5.463
       5.620
       4.604
       2.903
       1.044
      -0.685
      -2.272
      -3.770
      -5.063
      -5.836
      -5.800
      -4.901
      -3.339
      -1.440
       0.437
       1.953
       2.868
       3.128
       2.874
       2.340
       1.739
       1.184
       0.679
       0.193
      -0.226
      -0.426
      -0.274
       0.197
       0.766
       1.128
       1.069
       0.602
      -0.021
      -0.511
      -0.813
      -1.155
      -1.773
      -2.606
      -3.304
      -3.505
      -3.047
      -1.979
      -0.513
       0.990
       2.087
       2.464
       2.140
       1.494
       1.092
       1.378
       2.334
       3.382
       3.713
       2.901
       1.263
      -0.388
      -1.320
      -1.305
      -0.661
      -0.018
       0.062
      -0.578
      -1.608
      -2.491
      -2.856
      -2.641
      -1.962
      -0.993
       0.034
       0.852
       1.284
       1.367
       1.327
       1.420
       1.753
       2.212
       2.533
       2.493
       2.037
       1.242
       0.205
      -0.980
      -2.173
      -3.166
      -3.713
      -3.554
      -2.529
      -0.819
       0.941
       1.952
       1.819
       0.838
      -0.288
      -1.019
      -1.310
      -1.465
      -1.730
      -1.974
      -1.758
      -0.770
       0.773
       2.164
       2.710
       2.250
       1.257
       0.469
       0.348
       0.754
       1.072
       0.741
      -0.239
      -1.288
      -1.737
      -1.353
      -0.450
       0.417
       0.870
       0.916
       0.843
       0.885
       0.967
       0.780
       0.117
      -0.862
      -1.710
      -2.000
      -1.624
      -0.865
      -0.201
       0.058
      -0.002
      -0.021
       0.254
       0.712
       0.994
       0.819
       0.207
      -0.561
      -1.135
      -1.308
      -1.138
      -0.878
      -0.762
      -0.809
      -0.846
      -0.694
      -0.317
       0.168
       0.603
       0.878
       0.983
       0.977
       0.914
       0.790
       0.529
       0.034
      -0.723
      -1.593
      -2.207
      -2.119
      -1.125
       0.544
       2.361
       3.852
       4.788
       5.072
       4.605
       3.343
       1.468
      -0.586
      -2.296
      -3.273
      -3.425
      -3.006
      -2.480
      -2.219
      -2.249
      -2.305
      -2.138
      -1.708
      -1.094
      -0.317
       0.670
       1.838
       2.978
       3.741
       3.793
       3.018
       1.659
       0.203
      -0.947
      -1.694
      -2.105
      -2.155
      -1.718
      -0.825
       0.193
       0.891
       1.021
       0.670
       0.193
       0.016
       0.375
       1.109
       1.724
       1.764
       1.180
       0.360
      -0.218
      -0.381
      -0.379
      -0.670
      -1.527
      -2.783
      -3.895
      -4.279
      -3.651
      -2.171
      -0.361
       1.153
       1.958
       2.057
       1.783
       1.460
       1.155
       0.745
       0.176
      -0.425
      -0.869
      -1.095
      -1.188
      -1.273
      -1.381
      -1.397
      -1.093
      -0.231
       1.273
       3.224
       5.142
       6.432
       6.664
       5.775
       4.047
       1.885
      -0.372
      -2.477
      -4.192
      -5.284
      -5.612
      -5.154
      -3.959
      -2.148
      -0.007
       2.021
       3.539
       4.416
       4.754
       4.684
       4.250
       3.483
       2.480
       1.380
       0.312
      -0.614
      -1.324
      -1.794
      -2.016
      -1.980
      -1.759
      -1.591
      -1.747
      -2.221
      -2.638
      -2.514
      -1.634
      -0.148
       1.574
       3.103
       4.053
       4.198
       3.582
       2.475
       1.211
       0.080
      -0.692
      -0.991
      -0.928
      -0.832
      -1.027
      -1.568
      -2.203
      -2.603
      -2.640
      -2.498
      -2.576
      -3.195
      -4.288
      -5.309
      -5.545
      -4.584
      -2.502
       0.347
       3.564
       6.707
       9.209
      10.500
      10.240
       8.440
       5.416
       1.697
      -2.094
      -5.397
      -7.812
      -9.073
      -9.018
      -7.664
      -5.292
      -2.391
       0.507
       2.939
       4.544
       5.104
       4.571
       3.011
       0.564
      -2.444
      -5.359
      -7.345
      -7.817
      -6.763
      -4.656
      -2.088
       0.508
       2.921
       5.038
       6.626
       7.233
       6.398
       4.060
       0.764
      -2.581
      -5.140
      -6.425
      -6.327
      -5.040
      -2.932
      -0.387
       2.231
       4.482
       5.872
       6.119
       5.383
       4.167
       2.946
       1.886
       0.842
      -0.446
      -2.079
      -3.835
      -5.263
      -5.978
      -5.814
      -4.722
      -2.716
      -0.046
       2.707
       4.884
       6.105
       6.296
       5.559
       4.199
       2.722
       1.505
       0.478
      -0.676
      -1.963
      -2.887
      -2.848
      -1.664
       0.272
       2.176
       3.245
       3.089
       1.959
       0.518
      -0.680
      -1.483
      -2.025
      -2.459
      -2.811
      -2.931
      -2.539
      -1.489
      -0.063
       1.119
       1.606
       1.497
       1.261
       1.238
       1.370
       1.350
       0.956
       0.290
      -0.208
      -0.077
       0.713
       1.627
       1.989
       1.569
       0.745
       0.170
       0.293
       1.082
       2.046
       2.554
       2.316
       1.641
       1.154
       1.231
       1.753
       2.312
       2.523
       2.140
       1.095
      -0.413
      -1.931
      -2.968
      -3.248
      -2.803
      -1.953
      -1.196
      -0.987
      -1.448
      -2.318
      -3.228
      -3.995
      -4.620
      -5.104
      -5.361
      -5.275
      -4.783
      -3.924
      -2.885
      -1.959
      -1.372
      -1.144
      -1.139
      -1.222
      -1.296
      -1.258
      -0.985
      -0.404
       0.451
       1.434
       2.332
       2.957
       3.234
       3.194
       2.876
       2.290
       1.525
       0.838
       0.547
       0.813
       1.537
       2.462
       3.314
       3.900
       4.145
       4.065
       3.662
       2.819
       1.350
      -0.771
      -3.241
      -5.479
      -6.881
      -7.095
      -6.117
      -4.241
      -1.912
       0.417
       2.394
       3.796
       4.497
       4.431
       3.601
       2.148
       0.399
      -1.179
      -2.129
      -2.175
      -1.327
       0.126
       1.731
       3.017
       3.612
       3.286
       1.980
      -0.128
      -2.578
      -4.691
      -5.818
      -5.677
      -4.523
      -2.990
      -1.668
      -0.800
      -0.319
      -0.082
       0.010
       0.086
       0.341
       0.895
       1.624
       2.170
       2.158
       1.449
       0.267
      -0.894
      -1.589
      -1.723
      -1.563
      -1.406
      -1.238
      -0.741
       0.417
       2.266
       4.429
       6.258
       7.194
       7.134
       6.460
       5.629
       4.755
       3.674
       2.376
       1.212
       0.633
       0.793
       1.427
       2.027
       2.110
       1.459
       0.255
      -1.052
      -2.082
      -2.766
      -3.244
      -3.574
      -3.614
      -3.177
      -2.241
      -1.013
       0.154
       0.865
       0.799
      -0.153
      -1.758
      -3.455
      -4.576
      -4.679
      -3.763
      -2.234
      -0.675
       0.408
       0.773
       0.499
      -0.116
      -0.771
      -1.344
      -1.892
      -2.486
      -3.053
      -3.340
      -3.007
      -1.837
       0.037
       2.097
       3.703
       4.482
       4.491
       4.053
       3.456
       2.776
       1.904
       0.718
      -0.736
      -2.158
      -3.114
      -3.303
      -2.789
      -1.986
      -1.349
      -0.957
      -0.384
       0.916
       2.972
       5.058
       6.160
       5.713
       3.955
       1.657
      -0.415
      -1.880
      -2.804
      -3.467
      -4.031
      -4.397
      -4.349
      -3.791
      -2.803
      -1.552
      -0.242
       0.885
       1.643
       2.008
       2.061
       1.839
       1.335
       0.646
      -0.025
      -0.562
      -1.027
      -1.467
      -1.710
      -1.478
      -0.700
       0.345
       1.183
       1.421
       0.890
      -0.350
      -2.034
      -3.670
      -4.599
      -4.227
      -2.400
       0.385
       3.177
       5.069
       5.614
       4.930
       3.516
       1.972
       0.743
      -0.006
      -0.313
      -0.235
       0.221
       0.967
       1.706
       2.056
       1.801
       1.005
      -0.116
      -1.366
      -2.567
      -3.458
      -3.691
      -3.014
      -1.514
       0.296
       1.703
       2.233
       1.994
       1.579
       1.569
       2.043
       2.526
       2.393
       1.382
      -0.197
      -1.690
      -2.595
      -2.927
      -3.115
      -3.501
      -3.948
      -3.978
      -3.260
      -1.913
      -0.315
       1.242
       2.607
       3.536
       3.602
       2.482
       0.360
      -2.018
      -3.739
      -4.207
      -3.356
      -1.570
       0.536
       2.399
       3.735
       4.585
       5.086
       5.211
       4.763
       3.610
       1.893
      -0.028
      -1.760
      -3.031
      -3.765
      -4.056
      -4.052
      -3.834
      -3.388
      -2.659
      -1.597
      -0.163
       1.605
       3.478
       5.002
       5.678
       5.253
       3.861
       1.888
      -0.318
      -2.567
      -4.668
      -6.213
      -6.624
      -5.487
      -2.887
       0.545
       3.908
       6.408
       7.623
       7.520
       6.307
       4.283
       1.823
      -0.579
      -2.387
      -3.260
      -3.294
      -2.975
      -2.816
      -2.980
      -3.193
      -3.019
      -2.210
      -0.875
       0.584
       1.709
