Origin Time       14/12/2005 07:09:48 UTC
Lat.              30.9 N 
Long.             79.3 E 
Depth (Km)         25.7
Magnitude         5.2
 Region           Chamoli-Uttarakhand                                              
 Above details taken from IMD 
    
Station Code      PAU
Station Lat.       30.150  N
Station Long.      78.777  E
Station Height(m) 1606.0
Site Class        A   Vs30 between 700 m/sec to 1400 m/sec * 
Record Time       14.12.2005 07:09:28.609 UTC
Sampling Rate     200. Hz
 Record Duration   33.745 Sec.
 Direction         N-S (N positive)
Max. Acceleration      8.173 cm/sec**2
     
  * For reference see Site Classification link of website 
     
 Base Line Corrected and Low Pass Filtered (Cut Off at 35 Hz) Time History
 Acceleration data in cm/sec**2
    
[...]
      -0.217
      -0.327
      -0.378
      -0.408
      -0.391
      -0.289
      -0.110
       0.084
       0.234
       0.331
       0.418
       0.552
       0.773
       1.087
       1.453
       1.781
       1.968
       1.957
       1.779
       1.537
       1.320
       1.127
       0.856
       0.397
      -0.246
      -0.913
      -1.386
      -1.538
      -1.403
      -1.129
      -0.874
      -0.736
      -0.732
      -0.805
      -0.839
      -0.717
      -0.416
      -0.065
       0.109
      -0.054
      -0.509
      -1.008
      -1.272
      -1.188
      -0.880
      -0.590
      -0.473
      -0.492
      -0.477
      -0.279
       0.103
       0.531
       0.837
       0.935
       0.860
       0.737
       0.708
       0.868
       1.186
       1.481
       1.469
       0.926
      -0.136
      -1.415
      -2.454
      -2.915
      -2.794
      -2.395
      -2.081
      -1.979
      -1.902
      -1.524
      -0.660
       0.577
       1.841
       2.759
       3.137
       3.026
       2.641
       2.206
       1.841
       1.529
       1.187
       0.746
       0.209
      -0.329
      -0.700
      -0.738
      -0.370
       0.301
       1.004
       1.422
       1.375
       0.924
       0.334
      -0.101
      -0.244
      -0.170
      -0.074
      -0.089
      -0.189
      -0.230
      -0.108
       0.115
       0.224
       0.020
      -0.504
      -1.124
      -1.539
      -1.603
      -1.431
      -1.283
      -1.328
      -1.488
      -1.502
      -1.148
      -0.452
       0.314
       0.822
       0.932
       0.779
       0.665
       0.835
       1.307
       1.879
       2.275
       2.311
       1.981
       1.427
       0.820
       0.256
      -0.275
      -0.819
      -1.375
      -1.851
      -2.102
      -2.021
      -1.616
      -1.029
      -0.464
      -0.070
       0.137
       0.244
       0.358
       0.521
       0.700
       0.817
       0.800
       0.614
       0.283
      -0.121
      -0.511
      -0.828
      -1.058
      -1.215
      -1.300
      -1.297
      -1.187
      -0.983
      -0.747
      -0.561
      -0.468
      -0.437
      -0.383
      -0.245
      -0.039
       0.152
       0.252
       0.263
       0.267
       0.346
       0.500
       0.644
       0.687
       0.610
       0.460
       0.284
       0.084
      -0.148
      -0.378
      -0.529
      -0.548
      -0.454
      -0.324
      -0.213
      -0.104
       0.068
       0.321
       0.564
       0.643
       0.478
       0.149
      -0.146
      -0.263
      -0.226
      -0.197
      -0.312
      -0.571
      -0.843
      -0.987
      -0.946
      -0.763
      -0.521
      -0.290
      -0.114
      -0.028
      -0.064
      -0.206
      -0.360
      -0.375
      -0.128
       0.394
       1.079
       1.765
       2.333
       2.754
       3.066
       3.304
       3.431
       3.329
       2.870
       2.014
       0.874
      -0.318
      -1.320
      -1.995
      -2.374
      -2.603
      -2.826
      -3.063
      -3.176
      -2.964
      -2.316
      -1.325
      -0.263
       0.574
       1.029
       1.152
       1.130
       1.149
       1.271
       1.420
       1.458
       1.296
       0.954
       0.540
       0.191
       0.004
      -0.018
       0.039
       0.046
      -0.075
      -0.290
      -0.485
      -0.565
      -0.539
      -0.500
      -0.509
      -0.515
      -0.388
      -0.042
       0.461
       0.940
       1.218
       1.249
       1.120
       0.944
       0.752
       0.482
       0.047
      -0.571
      -1.306
      -2.045
      -2.689
      -3.175
      -3.473
      -3.557
      -3.410
      -3.027
      -2.432
      -1.666
      -0.762
       0.236
       1.240
       2.084
       2.571
       2.590
       2.218
       1.680
       1.209
       0.911
       0.747
       0.628
       0.516
       0.446
       0.486
       0.669
       0.971
       1.334
       1.705
       2.050
       2.314
       2.387
       2.150
       1.570
       0.760
      -0.062
      -0.679
      -0.975
      -0.958
      -0.719
      -0.354
       0.093
       0.628
       1.243
       1.851
       2.306
       2.462
       2.221
       1.551
       0.497
      -0.789
      -2.063
      -3.058
      -3.596
      -3.666
      -3.417
      -3.057
      -2.728
      -2.446
      -2.148
      -1.790
      -1.416
      -1.120
      -0.979
      -1.001
      -1.127
      -1.276
      -1.413
      -1.570
      -1.812
      -2.142
      -2.452
      -2.567
      -2.364
      -1.869
      -1.243
      -0.687
      -0.317
      -0.100
       0.104
       0.431
       0.923
       1.509
       2.063
       2.479
       2.712
       2.798
       2.816
       2.833
       2.859
       2.841
       2.690
       2.307
       1.604
       0.534
      -0.872
      -2.472
      -4.043
      -5.361
      -6.278
      -6.739
      -6.738
      -6.276
      -5.374
      -4.103
      -2.603
      -1.035
       0.477
       1.856
       3.014
       3.820
       4.148
       3.980
       3.457
       2.835
       2.368
       2.164
       2.130
       2.040
       1.732
       1.255
       0.863
       0.841
       1.308
       2.127
       2.982
       3.569
       3.789
       3.808
       3.901
       4.241
       4.759
       5.202
       5.311
       4.976
       4.311
       3.579
       3.029
       2.724
       2.490
       2.053
       1.250
       0.151
      -1.002
      -1.962
      -2.604
      -2.915
      -2.909
      -2.581
      -1.971
      -1.261
      -0.756
      -0.699
      -1.071
      -1.568
      -1.790
      -1.502
      -0.771
       0.104
       0.777
       1.029
       0.827
       0.281
      -0.441
      -1.166
      -1.740
      -2.070
      -2.163
      -2.098
      -1.954
      -1.753
      -1.492
      -1.226
      -1.093
      -1.249
      -1.745
      -2.457
      -3.129
      -3.527
      -3.600
      -3.525
      -3.603
      -4.066
      -4.932
      -5.979
      -6.842
      -7.173
      -6.792
      -5.758
      -4.327
      -2.827
      -1.522
      -0.533
       0.158
       0.670
       1.138
       1.633
       2.100
       2.396
       2.402
       2.144
       1.806
       1.625
       1.752
       2.174
       2.770
       3.396
       3.936
       4.285
       4.342
       4.043
       3.430
       2.652
       1.908
       1.343
       0.995
       0.789
       0.602
       0.343
       0.002
      -0.351
      -0.624
      -0.772
      -0.831
      -0.883
      -0.997
      -1.157
      -1.251
      -1.123
      -0.677
       0.048
       0.891
       1.661
       2.238
       2.626
       2.919
       3.235
       3.638
       4.115
       4.597
       5.003
       5.268
       5.354
       5.272
       5.082
       4.871
       4.691
       4.496
       4.132
       3.399
       2.179
       0.527
      -1.332
      -3.106
      -4.564
      -5.604
      -6.230
      -6.493
      -6.451
      -6.170
      -5.743
      -5.276
      -4.826
      -4.347
      -3.716
      -2.874
      -1.960
      -1.284
      -1.136
      -1.566
      -2.329
      -3.032
      -3.363
      -3.255
      -2.865
      -2.414
      -2.025
      -1.670
      -1.258
      -0.729
      -0.061
       0.782
       1.846
       3.118
       4.451
       5.598
       6.324
       6.524
       6.265
       5.732
       5.084
       4.343
       3.386
       2.084
       0.459
      -1.278
      -2.813
      -3.871
      -4.307
      -4.136
      -3.513
      -2.669
      -1.814
      -1.047
      -0.343
       0.380
       1.155
       1.889
       2.373
       2.393
       1.878
       0.975
      -0.025
      -0.838
      -1.322
      -1.510
      -1.570
      -1.711
      -2.069
      -2.602
      -3.077
      -3.176
      -2.678
      -1.578
      -0.066
       1.602
       3.230
       4.693
       5.874
       6.621
       6.787
       6.324
       5.346
       4.090
       2.808
       1.637
       0.523
      -0.752
      -2.391
      -4.364
      -6.300
      -7.647
      -8.003
      -7.374
      -6.150
      -4.811
      -3.610
      -2.479
      -1.226
       0.203
       1.625
       2.768
       3.477
       3.810
       3.960
       4.123
       4.396
       4.728
       4.916
       4.693
       3.875
       2.496
       0.812
      -0.822
      -2.131
      -3.018
      -3.541
      -3.815
      -3.896
      -3.750
      -3.292
      -2.471
      -1.333
      -0.036
       1.219
       2.266
       3.026
       3.487
       3.650
       3.486
       2.967
       2.122
       1.051
      -0.126
      -1.344
      -2.574
      -3.750
      -4.709
      -5.257
      -5.291
      -4.888
      -4.246
      -3.545
      -2.854
      -2.166
      -1.479
      -0.825
      -0.222
       0.365
       0.987
       1.648
       2.294
       2.886
       3.474
       4.186
       5.098
       6.073
       6.746
       6.722
       5.868
       4.452
       2.977
       1.858
       1.184
       0.749
       0.278
      -0.367
      -1.118
      -1.806
      -2.298
      -2.584
      -2.753
      -2.917
      -3.151
      -3.473
      -3.841
      -4.150
      -4.245
      -3.998
      -3.419
      -2.701
      -2.127
      -1.867
      -1.851
      -1.830
      -1.579
      -1.051
      -0.368
       0.321
       0.956
       1.569
       2.198
       2.815
       3.329
       3.653
       3.749
       3.599
       3.171
       2.441
       1.478
       0.450
      -0.460
      -1.186
      -1.794
      -2.390
      -3.002
      -3.563
      -3.970
      -4.150
      -4.096
      -3.871
      -3.581
      -3.316
      -3.094
      -2.844
      -2.463
      -1.909
      -1.237
      -0.568
       0.019
       0.560
       1.176
       1.945
       2.795
       3.541
       4.025
       4.231
       4.265
       4.233
       4.152
       3.971
       3.667
       3.300
       2.946
       2.596
       2.168
       1.619
       1.041
       0.616
       0.466
       0.550
       0.703
       0.779
       0.768
       0.789
       0.969
       1.303
       1.628
       1.726
       1.484
       0.962
       0.322
      -0.289
      -0.790
      -1.136
      -1.290
      -1.229
      -0.954
      -0.487
       0.125
       0.802
       1.429
       1.887
       2.072
       1.918
       1.431
       0.712
      -0.084
      -0.843
      -1.571
      -2.368
      -3.331
      -4.444
      -5.545
      -6.374
      -6.704
      -6.463
      -5.783
      -4.907
      -4.025
      -3.179
      -2.303
      -1.356
      -0.416
       0.355
       0.816
       0.958
       0.919
       0.891
       0.987
       1.157
       1.247
       1.166
       1.008
       1.021
       1.434
       2.261
       3.234
       3.936
       4.073
       3.695
       3.095
       2.504
       1.926
       1.260
       0.462
      -0.431
      -1.352
      -2.255
      -3.136
      -4.014
      -4.848
      -5.438
      -5.490
      -4.852
      -3.667
      -2.280
      -0.995
       0.044
       0.834
       1.408
       1.768
       1.863
       1.633
       1.104
       0.420
      -0.242
      -0.748
      -0.988
      -0.848
      -0.271
       0.634
       1.600
       2.350
       2.766
       2.914
       2.959
       3.016
       3.053
       2.912
       2.491
       1.905
       1.458
       1.434
       1.892
       2.623
       3.268
       3.497
       3.190
       2.488
       1.677
       0.965
       0.378
      -0.170
      -0.723
      -1.211
      -1.491
      -1.452
      -1.112
      -0.656
      -0.345
      -0.364
      -0.743
      -1.407
      -2.267
      -3.254
      -4.303
      -5.346
      -6.303
      -7.073
      -7.518
      -7.497
      -6.923
      -5.810
      -4.279
      -2.522
      -0.733
       0.954
       2.477
       3.781
       4.751
       5.228
       5.114
       4.471
       3.541
       2.662
       2.120
       2.000
       2.139
       2.255
       2.150
       1.820
       1.411
       1.073
       0.854
       0.688
       0.458
       0.104
      -0.316
      -0.667
      -0.820
      -0.729
      -0.443
      -0.087
       0.187
       0.283
       0.223
       0.143
       0.195
       0.462
       0.915
       1.412
       1.735
       1.679
       1.183
       0.402
      -0.368
      -0.877
      -1.072
      -1.111
      -1.237
      -1.585
      -2.047
      -2.312
      -2.074
      -1.246
       0.000
       1.371
       2.651
       3.771
       4.738
       5.513
       5.956
       5.889
       5.218
       4.026
       2.534
       0.991
      -0.417
      -1.580
      -2.436
      -2.955
      -3.144
      -3.046
      -2.725
      -2.262
      -1.749
      -1.297
      -1.016
      -0.985
      -1.203
      -1.580
      -1.995
      -2.388
      -2.817
      -3.399
      -4.167
      -4.951
      -5.412
      -5.232
      -4.350
      -3.047
      -1.774
      -0.860
      -0.330
       0.025
       0.424
       0.920
       1.381
       1.601
       1.465
       1.065
       0.687
       0.638
       1.035
       1.724
       2.396
       2.791
       2.840
       2.639
       2.310
       1.868
       1.216
       0.277
      -0.885
      -2.073
      -3.106
      -3.947
      -4.688
      -5.410
      -6.037
      -6.333
      -6.038
      -5.064
      -3.598
      -2.027
      -0.733
       0.110
       0.586
       0.926
       1.335
       1.864
       2.419
       2.873
       3.196
       3.518
       4.037
       4.860
       5.904
       6.934
       7.707
       8.105
       8.173
       8.054
       7.859
       7.577
       7.098
       6.321
       5.243
       3.969
       2.670
       1.522
       0.628
      -0.043
      -0.670
      -1.464
      -2.511
      -3.693
      -4.758
      -5.467
      -5.701
      -5.475
      -4.879
      -4.014
      -2.983
      -1.913
      -0.958
      -0.238
       0.218
       0.460
       0.544
       0.454
       0.108
      -0.547
      -1.444
      -2.359
      -3.002
      -3.181
      -2.929
      -2.481
      -2.098
      -1.867
      -1.640
      -1.172
      -0.357
       0.617
       1.331
       1.399
       0.751
      -0.279
      -1.172
      -1.568
      -1.479
      -1.202
      -1.067
      -1.198
      -1.484
      -1.702
      -1.698
      -1.486
      -1.201
      -0.994
      -0.946
      -1.053
      -1.263
      -1.481
      -1.591
      -1.495
      -1.189
      -0.779
      -0.435
      -0.283
      -0.324
      -0.432
      -0.435
      -0.221
       0.213
       0.799
       1.475
       2.211
       2.976
       3.692
       4.260
       4.613
       4.750
       4.707
       4.498
       4.114
       3.560
       2.907
       2.271
       1.761
       1.426
       1.247
       1.167
       1.118
       1.028
       0.836
       0.508
       0.055
      -0.478
      -1.028
      -1.538
      -1.981
      -2.357
      -2.671
      -2.896
      -2.970
      -2.829
      -2.476
      -2.010
      -1.602
      -1.418
      -1.527
      -1.861
      -2.263
      -2.586
      -2.759
      -2.796
      -2.758
      -2.716
      -2.725
      -2.800
      -2.888
      -2.880
      -2.678
      -2.247
      -1.627
      -0.883
      -0.047
       0.888
       1.922
       2.989
       3.963
       4.713
       5.175
       5.367
       5.348
       5.153
       4.769
       4.158
       3.308
       2.286
       1.241
       0.349
      -0.283
      -0.661
      -0.870
      -0.989
      -1.043
      -1.019
      -0.920
      -0.794
      -0.726
      -0.783
      -0.963
      -1.201
      -1.417
      -1.570
      -1.652
      -1.651
      -1.526
      -1.226
      -0.742
      -0.149
       0.387
       0.671
       0.586
       0.180
      -0.368
      -0.866
      -1.228
      -1.460
      -1.564
      -1.459
      -1.009
      -0.150
       1.014
       2.214
       3.159
       3.703
       3.913
       3.987
       4.092
       4.254
       4.350
       4.203
       3.705
       2.883
       1.872
       0.833
      -0.129
      -0.992
      -1.775
      -2.503
      -3.180
      -3.788
      -4.277
      -4.599
      -4.753
      -4.814
      -4.896
      -5.067
      -5.280
      -5.362
      -5.104
      -4.409
      -3.363
      -2.166
      -0.998
       0.056
       0.956
       1.646
       2.061
       2.197
       2.143
       2.027
       1.919
       1.782
       1.496
       0.964
       0.220
      -0.543
      -1.038
      -1.032
      -0.469
       0.478
       1.466
       2.155
       2.406
       2.351
       2.257
       2.288
       2.394
       2.411
       2.253
       2.009
       1.862
       1.931
       2.164
       2.375
       2.374
       2.097
       1.622
       1.075
       0.534
       0.034
      -0.391
      -0.698
      -0.880
      -0.998
      -1.140
      -1.355
      -1.612
      -1.833
      -1.948
      -1.950
      -1.911
      -1.928
      -2.031
      -2.144
      -2.134
      -1.922
      -1.533
      -1.068
      -0.632
      -0.266
       0.092
       0.578
       1.287
       2.146
       2.889
       3.191
       2.862
       1.971
       0.818
      -0.237
      -0.959
      -1.352
      -1.586
      -1.827
      -2.100
      -2.301
      -2.323
      -2.144
      -1.799
      -1.305
      -0.649
       0.142
       0.934
       1.516
       1.719
       1.527
       1.078
       0.586
       0.243
       0.136
       0.220
       0.343
       0.341
       0.146
      -0.167
      -0.441
      -0.533
      -0.402
      -0.118
       0.212
       0.537
       0.890
       1.326
       1.839
       2.352
       2.769
       3.035
       3.127
       3.040
       2.783
       2.417
       2.046
       1.778
       1.662
       1.668
       1.720
       1.758
       1.789
       1.873
       2.051
       2.259
       2.318
       2.004
       1.179
      -0.111
      -1.632
      -3.056
      -4.116
      -4.697
      -4.814
      -4.533
      -3.905
      -2.995
      -1.938
      -0.944
      -0.224
       0.117
       0.129
      -0.041
      -0.268
      -0.522
      -0.848
      -1.270
      -1.735
      -2.142
      -2.428
      -2.608
      -2.729
      -2.786
      -2.710
      -2.433
      -1.972
      -1.431
      -0.933
      -0.551
      -0.296
      -0.153
      -0.103
      -0.109
      -0.089
       0.059
       0.397
       0.875
       1.329
       1.555
       1.404
       0.843
      -0.051
      -1.103
      -2.074
      -2.702
      -2.801
      -2.346
      -1.484
      -0.431
       0.646
       1.667
       2.577
       3.265
       3.560
       3.323
       2.565
       1.471
       0.309
      -0.715
      -1.522
      -2.115
      -2.480
      -2.571
      -2.384
      -2.013
      -1.616
      -1.308
      -1.081
      -0.827
      -0.422
       0.186
       0.953
       1.789
       2.624
       3.425
       4.165
       4.769
       5.117
       5.103
       4.703
       4.010
       3.200
       2.468
       1.953
       1.709
       1.710
       1.885
       2.141
       2.392
       2.569
       2.631
       2.555
       2.318
       1.888
       1.235
       0.379
      -0.574
      -1.438
      -2.049
      -2.366
      -2.507
      -2.649
      -2.894
      -3.202
      -3.433
      -3.460
      -3.257
      -2.925
      -2.629
      -2.500
      -2.540
      -2.627
      -2.603
