Origin Time       16/1/2012 05:01:00 
Lat.              29.7 N 
Long.             78.9 E 
Depth (Km)         10.0
Magnitude         3.6
 Region           Pauri-Uttarakhand                                                
 Above details taken from IMD 
   
Station Code      PAU
Station Lat.       30.150
Station Long.      78.777
Station Height(m) 1606.0
Site Class        A   Vs30 between 700 m/sec to 1400 m/sec * 
Record Time       16.01.2012 05:00:59.509
Sampling Rate     200. Hz
 Record Duration   80.005 Sec.
 Direction         Vert. (Up positive)
Max. Acceleration     -2.815 cm/sec**2
     
  * For reference see Site Classification link of website 
     
 Base Line Corrected and Low Pass Filtered (Cut Off at 35 Hz) Time History
 Acceleration data in cm/sec**2
    
[...]
       0.009
       0.010
       0.015
       0.009
      -0.013
      -0.036
      -0.037
      -0.017
       0.004
       0.012
       0.011
       0.009
       0.008
       0.008
       0.005
      -0.002
      -0.011
      -0.017
      -0.018
      -0.014
      -0.005
       0.012
       0.029
       0.031
       0.010
      -0.016
      -0.028
      -0.025
      -0.021
      -0.023
      -0.019
      -0.002
       0.014
       0.014
      -0.004
      -0.022
      -0.024
      -0.004
       0.024
       0.035
       0.017
      -0.010
      -0.023
      -0.014
       0.001
       0.011
       0.011
       0.005
      -0.003
      -0.004
       0.006
       0.013
       0.002
      -0.020
      -0.030
      -0.014
       0.015
       0.029
       0.011
      -0.029
      -0.059
      -0.049
       0.000
       0.044
       0.043
       0.006
      -0.017
      -0.003
       0.013
      -0.008
      -0.055
      -0.065
      -0.002
       0.091
       0.130
       0.071
      -0.034
      -0.095
      -0.070
      -0.005
       0.036
       0.033
       0.015
       0.002
      -0.010
      -0.021
      -0.011
       0.022
       0.039
       0.010
      -0.038
      -0.043
       0.011
       0.066
       0.055
      -0.015
      -0.069
      -0.052
       0.011
       0.042
       0.010
      -0.034
      -0.023
       0.034
       0.064
       0.029
      -0.027
      -0.038
      -0.003
       0.026
       0.014
      -0.019
      -0.035
      -0.028
      -0.015
      -0.009
      -0.003
       0.011
       0.023
       0.021
       0.006
       0.002
       0.023
       0.043
       0.030
      -0.012
      -0.032
      -0.001
       0.048
       0.055
       0.012
      -0.033
      -0.038
      -0.010
       0.013
       0.012
       0.001
       0.002
       0.013
       0.009
      -0.022
      -0.057
      -0.052
       0.007
       0.075
       0.088
       0.033
      -0.041
      -0.066
      -0.022
       0.049
       0.078
       0.036
      -0.038
      -0.071
      -0.037
       0.021
       0.046
       0.025
      -0.007
      -0.028
      -0.039
      -0.044
      -0.032
       0.000
       0.024
       0.015
      -0.018
      -0.031
      -0.004
       0.036
       0.042
       0.001
      -0.041
      -0.036
       0.012
       0.040
       0.013
      -0.033
      -0.035
       0.010
       0.042
       0.018
      -0.033
      -0.051
      -0.023
       0.010
       0.012
      -0.007
      -0.014
       0.002
       0.023
       0.024
       0.007
      -0.005
      -0.003
      -0.005
      -0.026
      -0.043
      -0.025
       0.017
       0.039
       0.014
      -0.029
      -0.043
      -0.020
       0.008
       0.012
      -0.002
      -0.014
      -0.014
      -0.014
      -0.023
      -0.033
      -0.027
      -0.004
       0.012
      -0.001
      -0.027
      -0.034
      -0.009
       0.019
       0.020
       0.002
      -0.005
       0.006
       0.017
       0.013
      -0.001
      -0.009
      -0.004
       0.002
      -0.001
      -0.012
      -0.013
       0.008
       0.035
       0.039
       0.010
      -0.025
      -0.034
      -0.015
       0.011
       0.026
       0.026
       0.015
      -0.002
      -0.016
      -0.020
      -0.017
      -0.013
      -0.006
       0.009
       0.028
       0.035
       0.024
      -0.001
      -0.025
      -0.033
      -0.019
       0.007
       0.024
       0.017
      -0.006
      -0.028
      -0.042
      -0.044
      -0.031
      -0.007
       0.012
       0.011
      -0.001
      -0.004
       0.005
       0.012
       0.003
      -0.013
      -0.018
      -0.008
       0.005
       0.008
      -0.002
      -0.013
      -0.010
       0.005
       0.009
      -0.009
      -0.032
      -0.035
      -0.018
      -0.002
      -0.004
      -0.010
      -0.006
       0.004
       0.010
       0.005
      -0.003
      -0.009
      -0.010
      -0.010
      -0.011
      -0.014
      -0.011
       0.002
       0.014
       0.014
       0.004
      -0.005
      -0.013
      -0.025
      -0.037
      -0.032
      -0.006
       0.020
       0.026
       0.010
      -0.006
      -0.009
       0.001
       0.013
       0.014
       0.003
      -0.006
      -0.003
       0.006
       0.006
      -0.003
      -0.007
      -0.002
       0.000
      -0.013
      -0.030
      -0.033
      -0.015
       0.011
       0.027
       0.024
       0.004
      -0.019
      -0.027
      -0.018
      -0.005
       0.003
       0.009
       0.016
       0.020
       0.017
       0.012
       0.009
       0.004
      -0.008
      -0.020
      -0.021
      -0.007
       0.010
       0.018
       0.009
      -0.014
      -0.032
      -0.025
       0.006
       0.032
       0.028
       0.001
      -0.021
      -0.023
      -0.014
      -0.011
      -0.016
      -0.025
      -0.029
      -0.021
      -0.003
       0.011
       0.015
       0.011
       0.006
      -0.001
      -0.011
      -0.014
      -0.007
       0.004
       0.006
       0.004
       0.007
       0.013
       0.012
       0.002
      -0.009
      -0.009
       0.002
       0.020
       0.031
       0.026
       0.004
      -0.017
      -0.019
      -0.002
       0.015
       0.019
       0.011
       0.000
      -0.008
      -0.008
       0.004
       0.020
       0.028
       0.022
       0.010
      -0.003
      -0.014
      -0.017
      -0.006
       0.010
       0.016
       0.007
      -0.003
      -0.006
       0.001
       0.009
       0.011
       0.005
      -0.008
      -0.016
      -0.009
       0.005
       0.012
       0.010
       0.006
       0.003
      -0.007
      -0.023
      -0.031
      -0.018
       0.010
       0.032
       0.032
       0.010
      -0.016
      -0.027
      -0.013
       0.010
       0.019
       0.009
      -0.005
      -0.011
      -0.010
      -0.009
      -0.007
      -0.003
      -0.005
      -0.015
      -0.020
      -0.007
       0.014
       0.023
       0.009
      -0.016
      -0.029
      -0.018
       0.005
       0.014
      -0.008
      -0.041
      -0.051
      -0.029
      -0.001
       0.010
       0.010
       0.018
       0.036
       0.045
       0.033
       0.006
      -0.021
      -0.034
      -0.029
      -0.012
       0.002
       0.008
       0.009
       0.007
       0.002
      -0.005
      -0.004
       0.006
       0.017
       0.020
       0.020
       0.023
       0.017
      -0.008
      -0.042
      -0.057
      -0.040
      -0.006
       0.019
       0.018
      -0.003
      -0.024
      -0.025
      -0.007
       0.012
       0.018
       0.016
       0.019
       0.023
       0.021
       0.012
       0.002
      -0.007
      -0.017
      -0.023
      -0.020
      -0.010
      -0.003
       0.000
       0.005
       0.010
       0.004
      -0.014
      -0.030
      -0.028
      -0.011
       0.011
       0.024
       0.019
       0.002
      -0.012
      -0.012
      -0.006
      -0.004
      -0.006
      -0.001
       0.011
       0.018
       0.016
       0.012
       0.013
       0.015
       0.011
       0.003
      -0.006
      -0.013
      -0.014
      -0.006
       0.001
      -0.003
      -0.017
      -0.028
      -0.024
      -0.010
       0.006
       0.019
       0.024
       0.018
       0.008
       0.005
       0.009
       0.009
       0.001
      -0.008
      -0.011
      -0.011
      -0.013
      -0.018
      -0.021
      -0.020
      -0.013
       0.000
       0.013
       0.012
      -0.001
      -0.014
      -0.013
      -0.001
       0.011
       0.015
       0.012
       0.001
      -0.010
      -0.011
      -0.003
       0.000
      -0.007
      -0.016
      -0.015
      -0.003
       0.009
       0.015
       0.010
      -0.002
      -0.012
      -0.010
       0.001
       0.003
      -0.010
      -0.022
      -0.018
      -0.002
       0.008
       0.002
      -0.011
      -0.020
      -0.016
       0.000
       0.018
       0.026
       0.020
       0.005
      -0.013
      -0.033
      -0.046
      -0.038
      -0.007
       0.023
       0.025
       0.004
      -0.015
      -0.013
      -0.001
       0.007
       0.004
      -0.008
      -0.018
      -0.022
      -0.018
      -0.013
      -0.006
       0.003
       0.010
       0.006
      -0.008
      -0.018
      -0.011
       0.006
       0.013
       0.005
      -0.009
      -0.025
      -0.042
      -0.048
      -0.025
       0.025
       0.068
       0.069
       0.023
      -0.029
      -0.042
      -0.002
       0.052
       0.064
       0.014
      -0.057
      -0.092
      -0.072
      -0.022
       0.022
       0.043
       0.040
       0.015
      -0.018
      -0.034
      -0.022
       0.005
       0.022
       0.018
       0.000
      -0.016
      -0.019
      -0.009
       0.000
       0.002
       0.001
       0.002
      -0.001
      -0.018
      -0.039
      -0.040
      -0.013
       0.019
       0.029
       0.011
      -0.015
      -0.029
      -0.017
       0.011
       0.030
       0.017
      -0.021
      -0.052
      -0.050
      -0.022
       0.006
       0.018
       0.014
       0.006
       0.003
       0.008
       0.014
       0.012
       0.002
      -0.003
      -0.001
      -0.001
      -0.010
      -0.021
      -0.024
      -0.018
      -0.008
       0.002
       0.006
      -0.002
      -0.019
      -0.028
      -0.015
       0.008
       0.020
       0.015
       0.002
      -0.006
      -0.005
       0.004
       0.011
       0.008
      -0.005
      -0.014
      -0.009
       0.001
       0.005
       0.001
      -0.004
      -0.007
      -0.003
       0.008
       0.023
       0.022
      -0.005
      -0.039
      -0.047
      -0.011
       0.046
       0.079
       0.056
      -0.009
      -0.066
      -0.066
      -0.014
       0.034
       0.025
      -0.028
      -0.064
      -0.042
       0.012
       0.043
       0.024
      -0.019
      -0.037
      -0.014
       0.015
       0.011
      -0.022
      -0.039
      -0.015
       0.022
       0.029
       0.000
      -0.029
      -0.034
      -0.024
      -0.015
      -0.005
       0.014
       0.029
       0.018
      -0.016
      -0.039
      -0.021
       0.027
       0.059
       0.042
      -0.008
      -0.038
      -0.019
       0.020
       0.030
       0.008
      -0.011
      -0.003
       0.013
       0.011
      -0.004
      -0.011
      -0.003
       0.005
       0.003
      -0.002
       0.004
       0.020
       0.026
       0.010
      -0.016
      -0.023
      -0.004
       0.014
       0.002
      -0.027
      -0.033
      -0.004
       0.025
       0.017
      -0.018
      -0.041
      -0.033
      -0.008
       0.009
       0.010
       0.004
       0.002
       0.003
      -0.001
      -0.011
      -0.018
      -0.014
      -0.011
      -0.021
      -0.037
      -0.031
       0.000
       0.025
       0.021
      -0.001
      -0.011
      -0.003
       0.002
      -0.013
      -0.038
      -0.044
      -0.019
       0.019
       0.038
       0.023
      -0.009
      -0.025
      -0.015
       0.000
       0.004
       0.002
       0.006
       0.007
      -0.009
      -0.036
      -0.050
      -0.038
      -0.015
      -0.001
      -0.002
      -0.012
      -0.016
      -0.010
       0.001
       0.008
       0.008
       0.009
       0.011
       0.009
       0.001
      -0.002
       0.005
       0.008
      -0.007
      -0.033
      -0.045
      -0.033
      -0.012
       0.003
       0.008
       0.008
       0.011
       0.019
       0.025
       0.018
      -0.005
      -0.029
      -0.035
      -0.022
      -0.007
       0.001
      -0.001
      -0.009
      -0.020
      -0.023
      -0.011
       0.006
       0.012
       0.000
      -0.017
      -0.022
      -0.010
       0.008
       0.019
       0.012
      -0.009
      -0.023
      -0.017
       0.000
       0.007
      -0.003
      -0.014
      -0.015
      -0.006
       0.004
       0.011
       0.014
       0.009
      -0.003
      -0.011
      -0.008
       0.003
       0.013
       0.015
       0.007
      -0.009
      -0.020
      -0.018
      -0.009
      -0.005
      -0.007
      -0.001
       0.016
       0.028
       0.020
       0.002
      -0.007
      -0.001
       0.002
      -0.012
      -0.041
      -0.060
      -0.042
       0.017
       0.078
       0.094
       0.051
      -0.017
      -0.059
      -0.056
      -0.019
       0.025
       0.052
       0.045
       0.010
      -0.028
      -0.044
      -0.034
      -0.018
      -0.011
      -0.017
      -0.023
      -0.021
      -0.014
      -0.018
      -0.043
      -0.070
      -0.069
      -0.029
       0.022
       0.053
       0.061
       0.061
       0.059
       0.043
       0.011
      -0.020
      -0.032
      -0.023
      -0.009
      -0.012
      -0.033
      -0.042
      -0.005
       0.083
       0.173
       0.208
       0.169
       0.093
       0.027
      -0.004
      -0.022
      -0.081
      -0.217
      -0.395
      -0.508
      -0.468
      -0.295
      -0.112
      -0.022
      -0.001
       0.076
       0.285
       0.546
       0.668
       0.533
       0.223
      -0.047
      -0.136
      -0.098
      -0.100
      -0.231
      -0.417
      -0.510
      -0.427
      -0.212
       0.016
       0.153
       0.176
       0.130
       0.075
       0.041
       0.043
       0.129
       0.381
       0.827
       1.342
       1.659
       1.529
       0.917
       0.072
      -0.651
      -1.081
      -1.366
      -1.780
      -2.371
      -2.815
      -2.656
      -1.720
      -0.326
       0.924
       1.589
       1.701
       1.663
       1.841
       2.203
       2.344
       1.867
       0.778
      -0.462
      -1.265
      -1.355
      -0.971
      -0.663
      -0.822
      -1.327
      -1.630
      -1.248
      -0.229
       0.843
       1.316
       1.007
       0.302
      -0.222
      -0.297
      -0.117
      -0.045
      -0.214
      -0.418
      -0.354
       0.070
       0.653
       1.058
       1.049
       0.633
       0.046
      -0.405
      -0.557
      -0.496
      -0.452
      -0.570
      -0.758
      -0.781
      -0.507
      -0.067
       0.266
       0.341
       0.267
       0.293
       0.552
       0.960
       1.311
       1.428
       1.221
       0.688
      -0.059
      -0.792
      -1.269
      -1.399
      -1.289
      -1.102
      -0.878
      -0.519
       0.047
       0.700
       1.151
       1.148
       0.662
      -0.101
      -0.839
      -1.305
      -1.374
      -1.061
      -0.510
       0.070
       0.542
       0.906
       1.218
       1.437
       1.404
       1.009
       0.357
      -0.264
      -0.610
      -0.667
      -0.620
      -0.640
      -0.716
      -0.694
      -0.467
      -0.109
       0.188
       0.284
       0.210
       0.143
       0.270
       0.636
       1.066
       1.252
       0.979
       0.314
      -0.416
      -0.878
      -0.983
      -0.903
      -0.858
      -0.898
      -0.882
      -0.648
      -0.206
       0.254
       0.524
       0.546
       0.431
       0.334
       0.323
       0.350
       0.305
       0.118
      -0.181
      -0.451
      -0.532
      -0.371
      -0.074
       0.180
       0.283
       0.274
       0.281
       0.393
       0.577
       0.696
       0.626
       0.343
      -0.064
      -0.447
      -0.661
      -0.610
      -0.310
       0.082
       0.345
       0.348
       0.148
      -0.086
      -0.237
      -0.318
      -0.407
      -0.511
      -0.526
      -0.342
       0.027
       0.414
       0.624
       0.581
       0.363
       0.109
      -0.092
      -0.238
      -0.387
      -0.580
      -0.769
      -0.800
      -0.522
       0.044
       0.656
       1.013
       1.000
       0.770
       0.564
       0.467
       0.348
       0.035
      -0.458
      -0.912
      -1.087
      -0.934
      -0.601
      -0.264
       0.007
       0.240
       0.456
       0.617
       0.655
       0.522
       0.239
      -0.084
      -0.282
      -0.254
      -0.072
       0.044
      -0.093
      -0.441
      -0.733
      -0.699
      -0.324
       0.124
       0.333
       0.236
       0.064
       0.104
       0.412
       0.766
       0.868
       0.592
       0.067
      -0.432
      -0.668
      -0.595
      -0.357
      -0.157
      -0.087
      -0.067
       0.051
       0.326
       0.659
       0.861
       0.793
       0.464
       0.009
      -0.409
      -0.684
      -0.789
      -0.754
      -0.655
      -0.580
      -0.563
      -0.533
      -0.375
      -0.056
       0.306
       0.531
       0.539
       0.428
       0.376
       0.468
       0.618
       0.645
       0.450
       0.112
      -0.185
      -0.312
      -0.283
      -0.221
      -0.253
      -0.409
      -0.591
      -0.627
      -0.418
      -0.041
       0.282
       0.374
       0.257
       0.106
       0.076
       0.163
       0.243
       0.228
       0.166
       0.178
       0.303
       0.439
       0.434
       0.245
      -0.031
      -0.252
      -0.353
      -0.361
      -0.328
      -0.282
      -0.211
      -0.091
       0.063
       0.173
       0.144
      -0.047
      -0.294
      -0.430
      -0.369
      -0.187
      -0.049
      -0.057
      -0.146
      -0.155
      -0.002
       0.208
       0.275
       0.112
      -0.147
      -0.264
      -0.108
       0.229
       0.516
       0.562
       0.360
       0.095
      -0.017
       0.090
       0.260
       0.252
      -0.027
      -0.418
      -0.635
      -0.515
      -0.159
       0.159
       0.243
       0.127
      -0.010
      -0.049
      -0.045
      -0.113
      -0.271
      -0.406
      -0.388
      -0.184
       0.128
       0.422
       0.593
       0.590
       0.432
       0.191
      -0.051
      -0.251
      -0.415
      -0.560
      -0.666
      -0.674
      -0.532
      -0.259
       0.070
       0.377
       0.630
       0.815
       0.912
       0.911
       0.839
       0.728
       0.556
       0.256
      -0.176
      -0.622
      -0.912
      -0.967
      -0.860
      -0.737
      -0.672
      -0.599
      -0.390
       0.000
       0.455
       0.764
       0.768
       0.485
       0.090
      -0.197
      -0.262
      -0.173
      -0.107
      -0.188
      -0.356
      -0.424
      -0.271
       0.030
       0.275
       0.323
       0.215
       0.117
       0.147
       0.261
       0.311
       0.197
      -0.026
      -0.209
      -0.245
      -0.156
      -0.037
       0.037
       0.059
       0.071
       0.106
       0.153
       0.166
       0.115
       0.029
      -0.026
      -0.011
       0.038
       0.052
      -0.002
      -0.082
      -0.116
      -0.086
      -0.059
      -0.122
      -0.270
      -0.366
      -0.264
       0.025
       0.298
       0.344
       0.139
      -0.136
      -0.279
      -0.240
      -0.136
      -0.104
      -0.169
      -0.216
      -0.109
       0.175
       0.503
       0.675
       0.567
       0.221
      -0.173
      -0.396
      -0.353
      -0.140
       0.033
       0.032
      -0.087
      -0.150
      -0.045
       0.175
       0.349
       0.357
       0.213
       0.046
      -0.011
       0.080
       0.245
       0.350
       0.290
       0.037
      -0.329
      -0.635
      -0.706
      -0.508
      -0.202
      -0.028
      -0.086
