Origin Time       9/1/2009 12:40:18  
Lat.              31.7 N 
Long.             78.3 E 
Depth (Km)         16.0
Magnitude         3.8
 Region           KINNAUR-DISTRICT-HIMACHAL-PRADESH                                
 Above details taken from IMD 
     
Station Code      PEO
Station Lat.       31.541  N
Station Long.      78.272  E
Station Height(m)    0.0
Site Class        A   Vs30 between 700 m/sec to 1400 m/sec * 
Record Time       09.01.2009 12:40:12.824
Sampling Rate     200. Hz
 Record Duration   67.040 Sec.
 Direction         E-W (E positive)
Max. Acceleration     -9.189 cm/sec**2
     
  * For reference see Site Classification link of website 
     
 Base Line Corrected and Low Pass Filtered (Cut Off at 35 Hz) Time History
 Acceleration data in cm/sec**2
    
[...]
       0.056
       0.311
       0.688
       1.082
       1.312
       1.270
       1.011
       0.672
       0.338
      -0.002
      -0.367
      -0.699
      -0.894
      -0.908
      -0.810
      -0.695
      -0.582
      -0.415
      -0.162
       0.113
       0.284
       0.272
       0.100
      -0.138
      -0.356
      -0.517
      -0.631
      -0.723
      -0.801
      -0.839
      -0.789
      -0.606
      -0.297
       0.070
       0.406
       0.658
       0.829
       0.944
       1.000
       0.962
       0.794
       0.516
       0.211
      -0.008
      -0.067
       0.017
       0.148
       0.240
       0.301
       0.420
       0.662
       0.969
       1.171
       1.113
       0.780
       0.297
      -0.186
      -0.583
      -0.879
      -1.068
      -1.140
      -1.105
      -1.018
      -0.928
      -0.827
      -0.665
      -0.429
      -0.190
      -0.053
      -0.069
      -0.192
      -0.342
      -0.471
      -0.578
      -0.660
      -0.662
      -0.507
      -0.174
       0.251
       0.617
       0.833
       0.925
       0.989
       1.070
       1.101
       0.978
       0.671
       0.269
      -0.087
      -0.307
      -0.388
      -0.381
      -0.333
      -0.258
      -0.147
       0.008
       0.195
       0.367
       0.456
       0.410
       0.229
      -0.032
      -0.305
      -0.534
      -0.689
      -0.753
      -0.717
      -0.595
      -0.428
      -0.276
      -0.186
      -0.172
      -0.193
      -0.175
      -0.070
       0.100
       0.239
       0.251
       0.125
      -0.044
      -0.120
      -0.041
       0.124
       0.230
       0.180
       0.021
      -0.092
      -0.032
       0.178
       0.388
       0.464
       0.401
       0.306
       0.270
       0.267
       0.193
      -0.005
      -0.252
      -0.399
      -0.359
      -0.179
       0.002
       0.083
       0.074
       0.066
       0.127
       0.228
       0.282
       0.235
       0.128
       0.048
       0.043
       0.063
       0.021
      -0.113
      -0.269
      -0.341
      -0.285
      -0.163
      -0.076
      -0.077
      -0.139
      -0.193
      -0.207
      -0.199
      -0.200
      -0.209
      -0.192
      -0.124
      -0.022
       0.072
       0.135
       0.173
       0.200
       0.218
       0.211
       0.177
       0.138
       0.125
       0.148
       0.187
       0.211
       0.211
       0.210
       0.230
       0.263
       0.264
       0.200
       0.075
      -0.066
      -0.175
      -0.233
      -0.244
      -0.220
      -0.169
      -0.101
      -0.042
      -0.021
      -0.058
      -0.148
      -0.267
      -0.391
      -0.498
      -0.573
      -0.597
      -0.549
      -0.406
      -0.164
       0.135
       0.416
       0.608
       0.683
       0.656
       0.548
       0.372
       0.141
      -0.105
      -0.300
      -0.393
      -0.389
      -0.344
      -0.312
      -0.293
      -0.235
      -0.091
       0.117
       0.297
       0.362
       0.301
       0.193
       0.137
       0.164
       0.208
       0.166
       0.000
      -0.220
      -0.362
      -0.339
      -0.183
      -0.011
       0.063
       0.010
      -0.113
      -0.222
      -0.262
      -0.237
      -0.171
      -0.080
       0.038
       0.177
       0.296
       0.337
       0.263
       0.094
      -0.107
      -0.274
      -0.371
      -0.397
      -0.362
      -0.271
      -0.125
       0.064
       0.268
       0.446
       0.549
       0.535
       0.401
       0.197
       0.014
      -0.084
      -0.109
      -0.127
      -0.186
      -0.250
      -0.228
      -0.068
       0.184
       0.416
       0.548
       0.577
       0.535
       0.420
       0.200
      -0.128
      -0.479
      -0.726
      -0.788
      -0.687
      -0.512
      -0.343
      -0.199
      -0.052
       0.117
       0.280
       0.389
       0.408
       0.346
       0.244
       0.140
       0.045
      -0.056
      -0.171
      -0.286
      -0.378
      -0.437
      -0.473
      -0.489
      -0.457
      -0.330
      -0.087
       0.219
       0.470
       0.559
       0.477
       0.327
       0.239
       0.258
       0.326
       0.345
       0.267
       0.114
      -0.058
      -0.192
      -0.243
      -0.188
      -0.043
       0.136
       0.283
       0.360
       0.370
       0.328
       0.235
       0.095
      -0.076
      -0.243
      -0.389
      -0.513
      -0.604
      -0.623
      -0.527
      -0.327
      -0.105
       0.054
       0.131
       0.179
       0.247
       0.319
       0.336
       0.275
       0.184
       0.132
       0.131
       0.123
       0.049
      -0.080
      -0.196
      -0.230
      -0.181
      -0.101
      -0.045
      -0.024
      -0.010
       0.018
       0.042
       0.016
      -0.086
      -0.237
      -0.365
      -0.405
      -0.342
      -0.221
      -0.110
      -0.067
      -0.115
      -0.242
      -0.407
      -0.546
      -0.597
      -0.523
      -0.338
      -0.097
       0.134
       0.309
       0.407
       0.438
       0.444
       0.491
       0.637
       0.860
       1.043
       1.025
       0.730
       0.245
      -0.231
      -0.528
      -0.615
      -0.577
      -0.507
      -0.421
      -0.287
      -0.098
       0.098
       0.248
       0.336
       0.387
       0.421
       0.425
       0.359
       0.196
      -0.053
      -0.327
      -0.530
      -0.584
      -0.481
      -0.299
      -0.162
      -0.148
      -0.245
      -0.361
      -0.402
      -0.324
      -0.154
       0.044
       0.210
       0.310
       0.335
       0.295
       0.206
       0.085
      -0.049
      -0.183
      -0.309
      -0.408
      -0.448
      -0.390
      -0.228
      -0.003
       0.209
       0.342
       0.377
       0.336
       0.257
       0.163
       0.057
      -0.049
      -0.115
      -0.100
      -0.005
       0.103
       0.145
       0.101
       0.042
       0.053
       0.130
       0.172
       0.087
      -0.103
      -0.265
      -0.285
      -0.183
      -0.092
      -0.126
      -0.270
      -0.399
      -0.396
      -0.248
      -0.047
       0.099
       0.148
       0.136
       0.115
       0.111
       0.115
       0.120
       0.140
       0.171
       0.181
       0.144
       0.090
       0.098
       0.214
       0.394
       0.538
       0.586
       0.552
       0.470
       0.321
       0.055
      -0.305
      -0.627
      -0.759
      -0.669
      -0.469
      -0.308
      -0.239
      -0.203
      -0.124
      -0.013
       0.036
      -0.048
      -0.230
      -0.391
      -0.452
      -0.434
      -0.404
      -0.364
      -0.239
       0.024
       0.356
       0.597
       0.640
       0.523
       0.378
       0.291
       0.247
       0.205
       0.186
       0.264
       0.454
       0.656
       0.730
       0.638
       0.487
       0.400
       0.363
       0.227
      -0.114
      -0.569
      -0.887
      -0.876
      -0.574
      -0.213
      -0.015
      -0.028
      -0.136
      -0.196
      -0.167
      -0.119
      -0.138
      -0.228
      -0.302
      -0.268
      -0.106
       0.108
       0.264
       0.274
       0.118
      -0.154
      -0.435
      -0.598
      -0.583
      -0.440
      -0.297
      -0.238
      -0.237
      -0.201
      -0.088
       0.042
       0.100
       0.071
       0.049
       0.158
       0.426
       0.725
       0.848
       0.673
       0.286
      -0.054
      -0.115
       0.106
       0.381
       0.446
       0.235
      -0.086
      -0.296
      -0.322
      -0.262
      -0.235
      -0.248
      -0.204
      -0.041
       0.186
       0.355
       0.399
       0.355
       0.291
       0.204
       0.028
      -0.265
      -0.577
      -0.729
      -0.606
      -0.256
       0.140
       0.402
       0.463
       0.383
       0.265
       0.150
      -0.011
      -0.276
      -0.609
      -0.882
      -0.969
      -0.858
      -0.640
      -0.410
      -0.177
       0.102
       0.432
       0.734
       0.908
       0.930
       0.875
       0.844
       0.876
       0.926
       0.916
       0.792
       0.556
       0.247
      -0.072
      -0.340
      -0.513
      -0.587
      -0.592
      -0.564
      -0.522
      -0.462
      -0.370
      -0.252
      -0.140
      -0.079
      -0.100
      -0.201
      -0.337
      -0.449
      -0.492
      -0.462
      -0.398
      -0.348
      -0.347
      -0.399
      -0.473
      -0.495
      -0.383
      -0.103
       0.286
       0.659
       0.914
       1.042
       1.094
       1.089
       0.972
       0.691
       0.298
      -0.056
      -0.239
      -0.255
      -0.213
      -0.190
      -0.150
      -0.009
       0.219
       0.391
       0.354
       0.096
      -0.250
      -0.539
      -0.729
      -0.874
      -1.014
      -1.108
      -1.080
      -0.907
      -0.656
      -0.425
      -0.258
      -0.130
       0.000
       0.136
       0.225
       0.220
       0.124
       0.007
      -0.049
      -0.001
       0.129
       0.286
       0.431
       0.576
       0.762
       0.995
       1.211
       1.301
       1.200
       0.948
       0.659
       0.424
       0.253
       0.104
      -0.041
      -0.159
      -0.224
      -0.253
      -0.294
      -0.361
      -0.415
      -0.390
      -0.252
      -0.037
       0.169
       0.289
       0.314
       0.303
       0.314
       0.320
       0.206
      -0.104
      -0.529
      -0.856
      -0.920
      -0.754
      -0.555
      -0.477
      -0.492
      -0.445
      -0.244
       0.035
       0.219
       0.193
      -0.008
      -0.259
      -0.448
      -0.554
      -0.612
      -0.632
      -0.561
      -0.321
       0.110
       0.651
       1.151
       1.466
       1.532
       1.374
       1.067
       0.675
       0.227
      -0.257
      -0.717
      -1.045
      -1.121
      -0.904
      -0.479
      -0.015
       0.339
       0.530
       0.595
       0.592
       0.549
       0.457
       0.309
       0.137
       0.025
       0.077
       0.360
       0.830
       1.336
       1.700
       1.829
       1.753
       1.555
       1.269
       0.866
       0.332
      -0.270
      -0.821
      -1.231
      -1.512
      -1.744
      -2.005
      -2.312
      -2.627
      -2.901
      -3.093
      -3.175
      -3.137
      -2.998
      -2.801
      -2.581
      -2.330
      -2.004
      -1.558
      -0.981
      -0.314
       0.371
       0.998
       1.529
       1.982
       2.406
       2.824
       3.187
       3.395
       3.387
       3.193
       2.915
       2.649
       2.431
       2.261
       2.150
       2.116
       2.145
       2.162
       2.072
       1.794
       1.279
       0.507
      -0.494
      -1.633
      -2.760
      -3.735
      -4.482
      -4.998
      -5.294
      -5.344
      -5.104
      -4.573
      -3.840
      -3.046
      -2.308
      -1.668
      -1.110
      -0.602
      -0.129
       0.314
       0.738
       1.170
       1.664
       2.284
       3.072
       4.002
       4.959
       5.782
       6.326
       6.514
       6.338
       5.835
       5.064
       4.113
       3.096
       2.123
       1.260
       0.511
      -0.177
      -0.872
      -1.619
      -2.409
      -3.182
      -3.872
      -4.448
      -4.943
      -5.423
      -5.942
      -6.498
      -7.023
      -7.396
      -7.469
      -7.097
      -6.169
      -4.657
      -2.637
      -0.300
       2.095
       4.281
       6.054
       7.299
       7.985
       8.134
       7.809
       7.103
       6.126
       4.969
       3.691
       2.332
       0.958
      -0.324
      -1.381
      -2.113
      -2.483
      -2.523
      -2.319
      -1.997
      -1.682
      -1.456
      -1.321
      -1.229
      -1.147
      -1.099
      -1.145
      -1.312
      -1.550
      -1.758
      -1.839
      -1.736
      -1.442
      -0.976
      -0.366
       0.348
       1.102
       1.799
       2.321
       2.575
       2.531
       2.216
       1.682
       0.977
       0.157
      -0.690
      -1.453
      -2.032
      -2.362
      -2.402
      -2.113
      -1.488
      -0.599
       0.383
       1.263
       1.914
       2.304
       2.456
       2.378
       2.070
       1.562
       0.944
       0.326
      -0.208
      -0.614
      -0.855
      -0.888
      -0.692
      -0.306
       0.175
       0.634
       0.976
       1.142
       1.131
       1.011
       0.902
       0.911
       1.068
       1.318
       1.556
       1.674
       1.582
       1.212
       0.543
      -0.399
      -1.536
      -2.754
      -3.907
      -4.832
      -5.385
      -5.487
      -5.140
      -4.414
      -3.406
      -2.209
      -0.918
       0.353
       1.465
       2.268
       2.647
       2.574
       2.137
       1.533
       0.984
       0.651
       0.574
       0.699
       0.955
       1.299
       1.692
       2.037
       2.158
       1.868
       1.084
      -0.116
      -1.529
      -2.909
      -4.033
      -4.730
      -4.888
      -4.477
      -3.547
      -2.200
      -0.538
       1.346
       3.311
       5.116
       6.438
       7.000
       6.719
       5.749
       4.393
       2.941
       1.573
       0.366
      -0.647
      -1.438
      -2.006
      -2.415
      -2.788
      -3.237
      -3.783
      -4.339
      -4.761
      -4.926
      -4.762
      -4.204
      -3.146
      -1.486
       0.746
       3.271
       5.588
       7.161
       7.622
       6.875
       5.054
       2.433
      -0.632
      -3.729
      -6.424
      -8.337
      -9.189
      -8.820
      -7.190
      -4.436
      -0.929
       2.743
       5.917
       8.055
       8.904
       8.507
       7.111
       5.038
       2.609
       0.146
      -1.990
      -3.429
      -3.892
      -3.331
      -1.987
      -0.309
       1.203
       2.149
       2.320
       1.720
       0.559
      -0.826
      -2.085
      -2.975
      -3.396
      -3.362
      -2.937
      -2.208
      -1.286
      -0.293
       0.657
       1.481
       2.117
       2.510
       2.598
       2.342
       1.758
       0.947
       0.095
      -0.554
      -0.775
      -0.455
       0.347
       1.421
       2.486
       3.279
       3.601
       3.322
       2.397
       0.892
      -1.002
      -2.998
      -4.791
      -6.126
      -6.831
      -6.812
      -6.054
      -4.645
      -2.798
      -0.818
       0.969
       2.307
       3.055
       3.192
       2.794
       2.011
       1.052
       0.154
      -0.476
      -0.712
      -0.529
       0.014
       0.815
       1.738
       2.635
       3.369
       3.849
       4.042
       3.945
       3.552
       2.850
       1.857
       0.675
      -0.510
      -1.488
      -2.122
      -2.407
      -2.463
      -2.459
      -2.525
      -2.688
      -2.868
      -2.908
      -2.654
      -2.039
      -1.139
      -0.155
       0.684
       1.229
       1.450
       1.402
       1.160
       0.802
       0.429
       0.176
       0.164
       0.421
       0.831
       1.187
       1.306
       1.141
       0.801
       0.479
       0.339
       0.436
       0.705
       1.023
       1.270
       1.362
       1.240
       0.869
       0.258
      -0.504
      -1.271
      -1.913
      -2.409
      -2.840
      -3.300
      -3.782
      -4.146
      -4.204
      -3.831
      -3.039
      -1.960
      -0.768
       0.382
       1.371
       2.101
       2.481
       2.456
       2.065
       1.475
       0.948
       0.733
       0.945
       1.508
       2.205
       2.789
       3.085
       3.030
       2.652
       2.032
       1.253
       0.371
      -0.577
      -1.546
      -2.448
      -3.167
      -3.598
      -3.697
      -3.477
      -2.983
      -2.270
      -1.421
      -0.560
       0.154
       0.582
       0.663
       0.452
       0.104
      -0.198
      -0.330
      -0.268
      -0.061
       0.245
       0.656
       1.199
       1.851
       2.497
       2.971
       3.147
       3.004
       2.611
       2.070
       1.461
       0.842
       0.276
      -0.157
      -0.389
      -0.416
      -0.305
      -0.154
      -0.035
       0.033
       0.068
       0.092
       0.104
       0.073
      -0.042
      -0.283
      -0.665
      -1.174
      -1.748
      -2.268
      -2.597
      -2.630
      -2.355
      -1.848
      -1.226
      -0.597
      -0.044
       0.387
       0.698
       0.948
       1.216
       1.527
       1.804
       1.920
       1.802
       1.492
       1.105
       0.711
       0.292
      -0.196
      -0.712
      -1.111
      -1.247
      -1.107
      -0.840
      -0.636
      -0.586
      -0.638
      -0.673
      -0.626
      -0.529
      -0.465
      -0.498
      -0.622
      -0.770
      -0.853
      -0.802
      -0.595
      -0.259
       0.154
       0.588
       0.998
       1.339
       1.563
       1.632
       1.540
       1.318
       1.014
       0.673
       0.327
       0.001
      -0.277
      -0.479
      -0.575
      -0.538
      -0.359
      -0.065
       0.280
       0.596
       0.821
       0.921
       0.894
       0.757
       0.545
       0.293
       0.017
      -0.297
      -0.686
      -1.169
      -1.710
      -2.196
      -2.471
      -2.403
      -1.966
      -1.260
      -0.468
       0.240
       0.772
       1.120
       1.311
       1.372
       1.330
       1.220
       1.087
       0.955
       0.806
       0.584
       0.253
      -0.156
      -0.535
      -0.756
      -0.757
      -0.576
      -0.316
      -0.075
       0.110
       0.250
       0.355
       0.401
       0.343
       0.164
      -0.095
      -0.351
      -0.531
      -0.615
      -0.637
      -0.645
      -0.646
      -0.583
      -0.373
       0.018
       0.519
       0.980
       1.250
       1.259
       1.037
       0.663
       0.212
      -0.269
      -0.750
      -1.196
      -1.555
      -1.750
      -1.709
      -1.405
      -0.887
      -0.271
       0.310
       0.771
       1.093
       1.296
       1.391
       1.372
       1.245
       1.055
       0.868
       0.725
       0.617
       0.495
       0.319
       0.082
      -0.191
      -0.452
      -0.638
      -0.697
      -0.611
      -0.411
      -0.160
       0.074
       0.240
       0.302
       0.245
       0.078
      -0.145
      -0.326
      -0.374
      -0.264
      -0.064
       0.116
       0.215
       0.256
       0.307
       0.403
       0.508
       0.554
       0.502
       0.377
       0.239
       0.131
       0.053
      -0.019
      -0.083
      -0.098
      -0.008
       0.202
       0.474
       0.707
       0.812
       0.746
       0.510
       0.131
      -0.345
      -0.837
      -1.242
      -1.476
      -1.519
      -1.417
      -1.237
      -1.010
      -0.719
      -0.341
       0.099
       0.524
       0.839
       0.986
       0.960
       0.800
       0.549
       0.234
      -0.129
      -0.504
      -0.820
      -0.995
      -0.987
      -0.829
      -0.601
      -0.373
      -0.166
       0.026
       0.198
       0.323
       0.377
       0.378
       0.381
       0.442
       0.567
       0.704
       0.769
       0.708
       0.534
       0.324
       0.180
       0.173
       0.307
       0.522
       0.723
       0.831
       0.812
       0.680
       0.469
       0.203
      -0.111
      -0.462
      -0.813
      -1.098
      -1.245
