Origin Time       9/1/2009 12:40:18   UTC
Lat.              31.7 N 
Long.             78.3 E 
Depth (Km)         16.0
Magnitude         3.8
 Region           KINNAUR-DISTRICT-HIMACHAL-PRADESH                                
 Above details taken from IMD 
    
Station Code      PEO
Station Lat.       31.541  N
Station Long.      78.272  E
Station Height(m)    0.0
Site Class        A   Vs30 between 700 m/sec to 1400 m/sec * 
Record Time       09.01.2009 12:40:12.824 UTC
Sampling Rate     200. Hz
 Record Duration   67.040 Sec.
 Direction         N-S (N positive)
Max. Acceleration     -8.790 cm/sec**2
     
  * For reference see Site Classification link of website 
     
 Base Line Corrected and Low Pass Filtered (Cut Off at 35 Hz) Time History
 Acceleration data in cm/sec**2
    
[...]
      -0.046
      -0.063
      -0.065
      -0.046
      -0.006
       0.038
       0.057
       0.041
       0.005
      -0.020
      -0.027
      -0.030
      -0.042
      -0.058
      -0.054
      -0.017
       0.032
       0.062
       0.057
       0.028
      -0.007
      -0.035
      -0.057
      -0.068
      -0.058
      -0.025
       0.018
       0.043
       0.035
       0.005
      -0.022
      -0.034
      -0.041
      -0.054
      -0.067
      -0.061
      -0.023
       0.030
       0.065
       0.063
       0.032
      -0.006
      -0.036
      -0.054
      -0.058
      -0.043
      -0.009
       0.028
       0.045
       0.032
       0.001
      -0.023
      -0.028
      -0.027
      -0.034
      -0.045
      -0.040
      -0.004
       0.045
       0.078
       0.072
       0.036
      -0.008
      -0.043
      -0.064
      -0.068
      -0.050
      -0.013
       0.029
       0.051
       0.041
       0.012
      -0.013
      -0.024
      -0.028
      -0.031
      -0.025
       0.008
       0.070
       0.136
       0.165
       0.145
       0.094
       0.047
       0.028
       0.038
       0.065
       0.091
       0.102
       0.089
       0.060
       0.045
       0.088
       0.205
       0.355
       0.451
       0.407
       0.206
      -0.086
      -0.359
      -0.520
      -0.542
      -0.466
      -0.374
      -0.347
      -0.414
      -0.529
      -0.589
      -0.501
      -0.264
       0.015
       0.173
       0.104
      -0.169
      -0.497
      -0.708
      -0.707
      -0.514
      -0.230
       0.039
       0.234
       0.362
       0.478
       0.642
       0.868
       1.107
       1.263
       1.254
       1.056
       0.727
       0.373
       0.102
      -0.023
       0.001
       0.126
       0.272
       0.361
       0.350
       0.257
       0.139
       0.049
      -0.007
      -0.067
      -0.166
      -0.298
      -0.429
      -0.553
      -0.709
      -0.940
      -1.208
      -1.390
      -1.361
      -1.103
      -0.725
      -0.384
      -0.183
      -0.149
      -0.275
      -0.521
      -0.773
      -0.849
      -0.623
      -0.164
       0.282
       0.493
       0.469
       0.404
       0.471
       0.666
       0.870
       1.014
       1.131
       1.239
       1.254
       1.074
       0.736
       0.427
       0.310
       0.357
       0.387
       0.272
       0.085
       0.020
       0.182
       0.457
       0.599
       0.431
      -0.039
      -0.648
      -1.188
      -1.485
      -1.466
      -1.199
      -0.872
      -0.683
      -0.707
      -0.838
      -0.882
      -0.711
      -0.355
       0.022
       0.238
       0.198
      -0.071
      -0.456
      -0.809
      -0.997
      -0.928
      -0.589
      -0.071
       0.446
       0.766
       0.795
       0.609
       0.412
       0.392
       0.601
       0.932
       1.208
       1.287
       1.107
       0.713
       0.252
      -0.054
      -0.035
       0.290
       0.681
       0.835
       0.630
       0.220
      -0.105
      -0.174
      -0.039
       0.123
       0.179
       0.089
      -0.149
      -0.528
      -0.974
      -1.312
      -1.356
      -1.083
      -0.686
      -0.438
      -0.461
      -0.634
      -0.714
      -0.567
      -0.290
      -0.096
      -0.098
      -0.212
      -0.279
      -0.254
      -0.215
      -0.216
      -0.175
       0.036
       0.405
       0.745
       0.856
       0.703
       0.435
       0.247
       0.238
       0.364
       0.502
       0.559
       0.540
       0.524
       0.589
       0.741
       0.900
       0.952
       0.820
       0.504
       0.095
      -0.259
      -0.415
      -0.332
      -0.124
      -0.008
      -0.149
      -0.524
      -0.921
      -1.090
      -0.924
      -0.522
      -0.103
       0.138
       0.123
      -0.096
      -0.396
      -0.639
      -0.728
      -0.624
      -0.360
      -0.037
       0.207
       0.274
       0.187
       0.088
       0.139
       0.377
       0.678
       0.847
       0.766
       0.476
       0.135
      -0.101
      -0.164
      -0.096
       0.014
       0.108
       0.181
       0.244
       0.271
       0.197
       0.001
      -0.237
      -0.368
      -0.292
      -0.051
       0.208
       0.348
       0.324
       0.181
      -0.013
      -0.211
      -0.373
      -0.456
      -0.423
      -0.291
      -0.133
      -0.036
      -0.039
      -0.113
      -0.189
      -0.211
      -0.173
      -0.110
      -0.067
      -0.071
      -0.114
      -0.164
      -0.180
      -0.148
      -0.081
       0.004
       0.098
       0.197
       0.275
       0.296
       0.242
       0.131
       0.005
      -0.103
      -0.173
      -0.191
      -0.154
      -0.082
      -0.001
       0.078
       0.177
       0.307
       0.446
       0.535
       0.528
       0.433
       0.312
       0.231
       0.214
       0.221
       0.196
       0.120
       0.030
      -0.024
      -0.040
      -0.075
      -0.181
      -0.335
      -0.437
      -0.398
      -0.239
      -0.096
      -0.098
      -0.245
      -0.395
      -0.387
      -0.178
       0.132
       0.385
       0.487
       0.455
       0.372
       0.294
       0.210
       0.079
      -0.095
      -0.246
      -0.296
      -0.214
      -0.043
       0.139
       0.250
       0.237
       0.075
      -0.210
      -0.526
      -0.730
      -0.692
      -0.396
       0.018
       0.317
       0.319
       0.025
      -0.380
      -0.654
      -0.655
      -0.427
      -0.141
       0.037
       0.045
      -0.073
      -0.225
      -0.326
      -0.317
      -0.165
       0.118
       0.457
       0.729
       0.824
       0.716
       0.477
       0.213
      -0.010
      -0.173
      -0.266
      -0.250
      -0.093
       0.177
       0.470
       0.696
       0.831
       0.903
       0.922
       0.847
       0.634
       0.308
      -0.025
      -0.271
      -0.430
      -0.569
      -0.730
      -0.875
      -0.930
      -0.857
      -0.675
      -0.428
      -0.156
       0.103
       0.287
       0.312
       0.125
      -0.232
      -0.611
      -0.817
      -0.733
      -0.403
      -0.006
       0.278
       0.398
       0.449
       0.562
       0.764
       0.938
       0.924
       0.665
       0.258
      -0.110
      -0.298
      -0.276
      -0.102
       0.126
       0.294
       0.283
       0.037
      -0.340
      -0.593
      -0.492
      -0.043
       0.479
       0.735
       0.586
       0.167
      -0.251
      -0.467
      -0.438
      -0.253
      -0.052
       0.050
       0.014
      -0.096
      -0.171
      -0.145
      -0.045
       0.050
       0.095
       0.120
       0.182
       0.282
       0.350
       0.324
       0.213
       0.079
      -0.035
      -0.143
      -0.257
      -0.338
      -0.319
      -0.195
      -0.058
      -0.012
      -0.068
      -0.121
      -0.069
       0.076
       0.187
       0.132
      -0.096
      -0.368
      -0.516
      -0.460
      -0.252
      -0.018
       0.138
       0.174
       0.095
      -0.076
      -0.296
      -0.492
      -0.572
      -0.471
      -0.195
       0.157
       0.425
       0.465
       0.225
      -0.204
      -0.623
      -0.813
      -0.645
      -0.162
       0.418
       0.789
       0.723
       0.220
      -0.466
      -0.976
      -1.048
      -0.649
       0.039
       0.730
       1.156
       1.174
       0.839
       0.392
       0.139
       0.265
       0.711
       1.210
       1.470
       1.339
       0.847
       0.151
      -0.531
      -0.972
      -1.003
      -0.624
      -0.045
       0.413
       0.509
       0.221
      -0.257
      -0.630
      -0.668
      -0.337
       0.161
       0.486
       0.366
      -0.212
      -0.969
      -1.519
      -1.617
      -1.297
      -0.809
      -0.417
      -0.229
      -0.176
      -0.114
       0.039
       0.252
       0.418
       0.443
       0.311
       0.089
      -0.101
      -0.143
       0.013
       0.303
       0.575
       0.675
       0.535
       0.227
      -0.049
      -0.064
       0.280
       0.838
       1.285
       1.348
       1.017
       0.530
       0.151
      -0.038
      -0.135
      -0.244
      -0.352
      -0.378
      -0.299
      -0.204
      -0.200
      -0.295
      -0.392
      -0.396
      -0.323
      -0.267
      -0.277
      -0.280
      -0.160
       0.085
       0.274
       0.174
      -0.259
      -0.772
      -0.965
      -0.619
       0.096
       0.750
       0.988
       0.758
       0.253
      -0.295
      -0.728
      -0.932
      -0.811
      -0.358
       0.257
       0.726
       0.796
       0.455
      -0.044
      -0.357
      -0.276
       0.133
       0.596
       0.840
       0.772
       0.486
       0.121
      -0.245
      -0.558
      -0.715
      -0.596
      -0.197
       0.315
       0.698
       0.787
       0.589
       0.241
      -0.076
      -0.220
      -0.160
      -0.003
       0.055
      -0.134
      -0.536
      -0.922
      -1.012
      -0.700
      -0.154
       0.299
       0.430
       0.291
       0.142
       0.212
       0.505
       0.821
       0.928
       0.716
       0.260
      -0.223
      -0.484
      -0.387
      -0.005
       0.407
       0.586
       0.430
       0.041
      -0.380
      -0.681
      -0.835
      -0.897
      -0.890
      -0.735
      -0.330
       0.286
       0.852
       1.028
       0.676
       0.004
      -0.588
      -0.811
      -0.646
      -0.255
       0.193
       0.579
       0.786
       0.688
       0.239
      -0.421
      -0.978
      -1.101
      -0.664
       0.143
       0.910
       1.270
       1.125
       0.672
       0.197
      -0.123
      -0.263
      -0.228
       0.015
       0.457
       0.923
       1.105
       0.803
       0.160
      -0.379
      -0.418
       0.032
       0.540
       0.616
       0.135
      -0.574
      -1.024
      -0.976
      -0.601
      -0.287
      -0.298
      -0.593
      -0.924
      -1.066
      -0.958
      -0.677
      -0.342
      -0.061
       0.056
      -0.080
      -0.449
      -0.832
      -0.901
      -0.462
       0.326
       1.020
       1.222
       0.904
       0.393
       0.073
       0.078
       0.258
       0.400
       0.442
       0.462
       0.531
       0.610
       0.628
       0.591
       0.590
       0.685
       0.815
       0.840
       0.673
       0.366
       0.061
      -0.145
      -0.279
      -0.437
      -0.658
      -0.866
      -0.934
      -0.800
      -0.515
      -0.196
       0.060
       0.189
       0.148
      -0.094
      -0.487
      -0.868
      -1.027
      -0.869
      -0.516
      -0.229
      -0.199
      -0.400
      -0.638
      -0.730
      -0.629
      -0.394
      -0.083
       0.287
       0.680
       1.001
       1.147
       1.085
       0.873
       0.599
       0.321
       0.073
      -0.091
      -0.098
       0.085
       0.387
       0.662
       0.784
       0.716
       0.509
       0.237
      -0.038
      -0.261
      -0.371
      -0.316
      -0.099
       0.189
       0.396
       0.381
       0.092
      -0.395
      -0.897
      -1.222
      -1.277
      -1.119
      -0.884
      -0.672
      -0.494
      -0.310
      -0.100
       0.123
       0.331
       0.503
       0.612
       0.605
       0.430
       0.100
      -0.262
      -0.482
      -0.466
      -0.286
      -0.100
       0.012
       0.125
       0.364
       0.730
       1.049
       1.105
       0.829
       0.353
      -0.076
      -0.251
      -0.115
       0.218
       0.547
       0.722
       0.720
       0.608
       0.430
       0.155
      -0.253
      -0.735
      -1.130
      -1.276
      -1.129
      -0.791
      -0.432
      -0.200
      -0.160
      -0.270
      -0.405
      -0.426
      -0.281
      -0.043
       0.155
       0.227
       0.187
       0.094
      -0.016
      -0.131
      -0.217
      -0.206
      -0.054
       0.197
       0.428
       0.524
       0.464
       0.328
       0.234
       0.252
       0.372
       0.531
       0.660
       0.722
       0.712
       0.649
       0.557
       0.435
       0.241
      -0.075
      -0.494
      -0.890
      -1.105
      -1.084
      -0.929
      -0.806
      -0.797
      -0.870
      -0.971
      -1.114
      -1.333
      -1.559
      -1.606
      -1.322
      -0.736
      -0.042
       0.568
       1.043
       1.447
       1.859
       2.285
       2.669
       2.941
       3.044
       2.923
       2.523
       1.844
       0.986
       0.140
      -0.515
      -0.919
      -1.144
      -1.325
      -1.561
      -1.855
      -2.125
      -2.255
      -2.183
      -1.958
      -1.709
      -1.553
      -1.504
      -1.466
      -1.300
      -0.901
      -0.253
       0.540
       1.277
       1.743
       1.832
       1.616
       1.297
       1.073
       1.048
       1.240
       1.622
       2.125
       2.612
       2.904
       2.870
       2.501
       1.899
       1.193
       0.451
      -0.336
      -1.205
      -2.169
      -3.193
      -4.204
      -5.099
      -5.737
      -5.948
      -5.588
      -4.616
      -3.143
      -1.406
       0.306
       1.730
       2.687
       3.109
       3.035
       2.583
       1.919
       1.244
       0.759
       0.596
       0.756
       1.117
       1.548
       2.027
       2.648
       3.512
       4.577
       5.614
       6.293
       6.348
       5.686
       4.374
       2.552
       0.368
      -2.018
      -4.385
      -6.453
      -7.959
      -8.743
      -8.790
      -8.185
      -7.059
      -5.544
      -3.764
      -1.838
       0.096
       1.862
       3.260
       4.133
       4.425
       4.180
       3.501
       2.499
       1.299
       0.047
      -1.099
      -2.009
      -2.596
      -2.789
      -2.515
      -1.724
      -0.463
       1.077
       2.626
       3.950
       4.936
       5.540
       5.701
       5.314
       4.331
       2.851
       1.108
      -0.654
      -2.290
      -3.753
      -5.009
      -5.968
      -6.502
      -6.517
      -6.014
      -5.096
      -3.914
      -2.600
      -1.238
       0.098
       1.317
       2.321
       3.045
       3.478
       3.637
       3.551
       3.269
       2.876
       2.450
       1.990
       1.400
       0.593
      -0.368
      -1.252
      -1.778
      -1.771
      -1.226
      -0.271
       0.885
       1.967
       2.682
       2.816
       2.348
       1.465
       0.437
      -0.553
      -1.475
      -2.397
      -3.372
      -4.374
      -5.275
      -5.839
      -5.767
      -4.824
      -3.023
      -0.692
       1.665
       3.592
       4.846
       5.377
       5.246
       4.570
       3.519
       2.313
       1.168
       0.244
      -0.378
      -0.684
      -0.686
      -0.402
       0.157
       0.940
       1.819
       2.596
       3.073
       3.109
       2.629
       1.605
       0.076
      -1.793
      -3.690
      -5.254
      -6.238
      -6.619
      -6.551
      -6.199
      -5.595
      -4.636
      -3.200
      -1.290
       0.915
       3.119
       5.011
       6.358
       7.047
       7.085
       6.554
       5.553
       4.192
       2.630
       1.134
       0.026
      -0.471
      -0.387
      -0.009
       0.290
       0.272
      -0.068
      -0.569
      -1.055
      -1.432
      -1.681
      -1.808
      -1.842
      -1.867
      -2.027
      -2.458
      -3.177
      -4.045
      -4.836
      -5.341
      -5.440
      -5.090
      -4.293
      -3.081
      -1.531
       0.207
       1.917
       3.349
       4.284
       4.594
       4.264
       3.382
       2.123
       0.742
      -0.431
      -1.071
      -0.982
      -0.199
       1.027
       2.364
       3.546
       4.431
       4.943
       5.006
       4.517
       3.396
       1.664
      -0.479
      -2.650
      -4.376
      -5.246
      -5.047
      -3.822
      -1.847
       0.432
       2.491
       3.870
       4.302
       3.768
       2.449
       0.636
      -1.349
      -3.191
      -4.629
      -5.499
      -5.737
      -5.337
      -4.316
      -2.735
      -0.746
       1.399
       3.395
       4.953
       5.815
       5.765
       4.684
       2.651
       0.002
      -2.726
      -4.948
      -6.193
      -6.205
      -5.001
      -2.865
      -0.257
       2.337
       4.541
       6.123
       6.932
       6.858
       5.848
       3.980
       1.498
      -1.219
      -3.743
      -5.698
      -6.830
      -7.026
      -6.316
      -4.856
      -2.915
      -0.841
       1.003
       2.328
       2.997
       3.057
       2.692
       2.130
       1.562
       1.117
       0.875
       0.865
       1.027
       1.207
       1.218
       0.961
       0.479
      -0.082
      -0.574
      -0.914
      -1.085
      -1.106
      -1.016
      -0.873
      -0.749
      -0.687
      -0.673
      -0.633
      -0.488
      -0.193
       0.232
       0.706
       1.097
       1.248
       1.042
       0.484
      -0.264
      -0.929
      -1.240
      -1.053
      -0.411
       0.465
       1.266
       1.727
       1.752
       1.443
       1.004
       0.589
       0.223
      -0.154
      -0.579
      -0.997
      -1.286
      -1.354
      -1.205
      -0.938
      -0.666
      -0.446
      -0.273
      -0.125
      -0.007
       0.055
       0.056
       0.030
       0.022
       0.056
       0.121
       0.187
       0.219
       0.175
      -0.009
      -0.386
      -0.936
      -1.525
      -1.939
      -1.986
      -1.598
      -0.844
       0.133
       1.194
       2.233
       3.142
       3.792
       4.049
       3.830
       3.149
       2.139
       1.014
      -0.005
      -0.776
      -1.277
      -1.562
      -1.675
      -1.613
      -1.376
      -1.058
      -0.850
      -0.916
      -1.249
      -1.650
      -1.857
      -1.724
      -1.285
      -0.698
      -0.140
       0.246
       0.356
       0.142
      -0.358
      -0.994
      -1.553
      -1.856
      -1.836
      -1.542
      -1.047
      -0.379
       0.457
       1.395
       2.270
       2.883
       3.127
       3.034
       2.698
       2.179
       1.487
       0.664
      -0.155
      -0.777
      -1.062
      -0.993
      -0.650
      -0.135
       0.469
       1.068
       1.530
       1.728
       1.612
       1.239
       0.723
       0.156
      -0.425
      -0.994
      -1.498
      -1.852
      -1.998
      -1.952
      -1.794
      -1.612
      -1.450
      -1.298
      -1.130
      -0.940
      -0.751
      -0.571
      -0.365
      -0.069
       0.341
       0.774
       1.051
       1.017
       0.667
       0.152
      -0.328
      -0.650
      -0.801
      -0.800
      -0.632
      -0.269
       0.253
       0.802
       1.216
       1.406
       1.376
       1.178
       0.852
       0.430
      -0.020
      -0.393
      -0.613
      -0.696
      -0.740
      -0.816
      -0.885
      -0.817
      -0.526
      -0.070
       0.367
       0.621
       0.659
       0.585
       0.546
       0.636
       0.866
       1.190
       1.554
       1.909
       2.190
       2.318
       2.222
       1.889
       1.370
       0.754
       0.119
      -0.487
      -1.037
      -1.508
      -1.886
      -2.151
      -2.272
      -2.214
      -1.975
      -1.621
      -1.267
      -1.024
      -0.922
      -0.906
      -0.865
