Origin Time       9/1/2009 12:40:18  
Lat.              31.7 N 
Long.             78.3 E 
Depth (Km)         16.0
Magnitude         3.8
 Region           KINNAUR-DISTRICT-HIMACHAL-PRADESH                                
 Above details taken from IMD 
   
Station Code      PEO
Station Lat.       31.541
Station Long.      78.272
Station Height(m)    0.0
Site Class        A   Vs30 between 700 m/sec to 1400 m/sec * 
Record Time       09.01.2009 12:40:12.824
Sampling Rate     200. Hz
 Record Duration   67.040 Sec.
 Direction         Vert. (Up positive)
Max. Acceleration     -4.207 cm/sec**2
     
  * For reference see Site Classification link of website 
     
 Base Line Corrected and Low Pass Filtered (Cut Off at 35 Hz) Time History
 Acceleration data in cm/sec**2
    
[...]
      -0.024
      -0.010
       0.009
       0.021
       0.029
       0.038
       0.045
       0.043
       0.022
      -0.010
      -0.036
      -0.042
      -0.029
      -0.004
       0.022
       0.042
       0.050
       0.040
       0.013
      -0.017
      -0.033
      -0.027
      -0.011
      -0.007
      -0.030
      -0.073
      -0.126
      -0.189
      -0.264
      -0.344
      -0.391
      -0.359
      -0.226
      -0.017
       0.205
       0.359
       0.380
       0.237
      -0.052
      -0.416
      -0.744
      -0.934
      -0.941
      -0.795
      -0.567
      -0.309
      -0.019
       0.338
       0.779
       1.260
       1.683
       1.934
       1.935
       1.676
       1.228
       0.716
       0.273
      -0.018
      -0.164
      -0.245
      -0.347
      -0.502
      -0.666
      -0.753
      -0.697
      -0.497
      -0.220
       0.020
       0.116
       0.008
      -0.281
      -0.647
      -0.942
      -1.048
      -0.938
      -0.687
      -0.413
      -0.207
      -0.086
      -0.001
       0.116
       0.306
       0.555
       0.798
       0.953
       0.948
       0.756
       0.413
       0.012
      -0.321
      -0.473
      -0.378
      -0.054
       0.396
       0.811
       1.036
       0.997
       0.733
       0.358
      -0.013
      -0.313
      -0.509
      -0.595
      -0.604
      -0.600
      -0.624
      -0.611
      -0.415
       0.058
       0.724
       1.331
       1.603
       1.402
       0.776
      -0.100
      -0.998
      -1.690
      -1.998
      -1.885
      -1.486
      -1.022
      -0.640
      -0.337
      -0.018
       0.388
       0.855
       1.266
       1.469
       1.357
       0.938
       0.353
      -0.190
      -0.535
      -0.671
      -0.719
      -0.809
      -0.924
      -0.899
      -0.584
       0.015
       0.737
       1.372
       1.746
       1.739
       1.314
       0.572
      -0.231
      -0.793
      -0.939
      -0.720
      -0.362
      -0.094
      -0.010
      -0.058
      -0.105
      -0.012
       0.308
       0.811
       1.285
       1.426
       1.029
       0.154
      -0.887
      -1.704
      -2.027
      -1.819
      -1.267
      -0.674
      -0.304
      -0.248
      -0.381
      -0.449
      -0.243
       0.251
       0.824
       1.174
       1.093
       0.582
      -0.158
      -0.827
      -1.140
      -0.948
      -0.332
       0.410
       0.918
       0.974
       0.620
       0.131
      -0.135
       0.054
       0.630
       1.225
       1.424
       1.070
       0.363
      -0.330
      -0.735
      -0.779
      -0.532
      -0.132
       0.250
       0.451
       0.395
       0.136
      -0.178
      -0.389
      -0.407
      -0.262
      -0.105
      -0.099
      -0.280
      -0.513
      -0.611
      -0.497
      -0.255
      -0.048
       0.008
      -0.091
      -0.245
      -0.320
      -0.239
      -0.026
       0.208
       0.346
       0.347
       0.268
       0.228
       0.302
       0.454
       0.562
       0.526
       0.353
       0.137
      -0.026
      -0.083
      -0.027
       0.125
       0.320
       0.463
       0.438
       0.169
      -0.289
      -0.723
      -0.858
      -0.555
       0.047
       0.583
       0.706
       0.336
      -0.299
      -0.832
      -0.997
      -0.755
      -0.280
       0.172
       0.412
       0.396
       0.200
      -0.067
      -0.307
      -0.426
      -0.321
       0.045
       0.563
       0.987
       1.080
       0.795
       0.315
      -0.079
      -0.208
      -0.094
       0.087
       0.156
       0.034
      -0.242
      -0.566
      -0.824
      -0.923
      -0.816
      -0.526
      -0.157
       0.131
       0.204
       0.045
      -0.221
      -0.387
      -0.292
       0.073
       0.559
       0.953
       1.108
       1.009
       0.749
       0.442
       0.177
       0.003
      -0.061
      -0.038
       0.014
       0.034
       0.004
      -0.058
      -0.120
      -0.168
      -0.199
      -0.222
      -0.259
      -0.340
      -0.465
      -0.594
      -0.668
      -0.653
      -0.550
      -0.387
      -0.189
       0.024
       0.229
       0.394
       0.493
       0.532
       0.541
       0.545
       0.536
       0.475
       0.332
       0.099
      -0.195
      -0.483
      -0.656
      -0.616
      -0.345
       0.057
       0.419
       0.595
       0.543
       0.335
       0.090
      -0.109
      -0.253
      -0.368
      -0.450
      -0.450
      -0.344
      -0.177
      -0.048
      -0.030
      -0.110
      -0.204
      -0.220
      -0.103
       0.137
       0.438
       0.721
       0.917
       0.970
       0.853
       0.588
       0.263
       0.002
      -0.111
      -0.094
      -0.065
      -0.165
      -0.461
      -0.892
      -1.278
      -1.418
      -1.186
      -0.605
       0.155
       0.850
       1.278
       1.366
       1.176
       0.832
       0.444
       0.074
      -0.250
      -0.508
      -0.688
      -0.786
      -0.809
      -0.756
      -0.602
      -0.324
       0.053
       0.430
       0.670
       0.673
       0.438
       0.062
      -0.299
      -0.515
      -0.543
      -0.437
      -0.288
      -0.150
      -0.017
       0.154
       0.399
       0.717
       1.048
       1.299
       1.398
       1.312
       1.034
       0.574
      -0.009
      -0.581
      -1.003
      -1.226
      -1.307
      -1.323
      -1.262
      -1.040
      -0.605
      -0.041
       0.449
       0.673
       0.591
       0.340
       0.121
       0.045
       0.081
       0.112
       0.039
      -0.163
      -0.454
      -0.736
      -0.870
      -0.713
      -0.222
       0.465
       1.073
       1.361
       1.278
       0.963
       0.622
       0.401
       0.333
       0.342
       0.300
       0.106
      -0.225
      -0.548
      -0.697
      -0.618
      -0.408
      -0.231
      -0.190
      -0.271
      -0.391
      -0.465
      -0.447
      -0.311
      -0.056
       0.261
       0.509
       0.541
       0.299
      -0.127
      -0.554
      -0.817
      -0.855
      -0.702
      -0.441
      -0.163
       0.056
       0.159
       0.129
       0.006
      -0.104
      -0.064
       0.224
       0.730
       1.271
       1.589
       1.505
       1.029
       0.355
      -0.263
      -0.653
      -0.790
      -0.757
      -0.663
      -0.579
      -0.541
      -0.551
      -0.565
      -0.486
      -0.201
       0.343
       1.064
       1.742
       2.105
       1.956
       1.276
       0.247
      -0.806
      -1.529
      -1.704
      -1.370
      -0.804
      -0.349
      -0.210
      -0.335
      -0.475
      -0.341
       0.228
       1.153
       2.122
       2.699
       2.532
       1.565
       0.111
      -1.277
      -2.084
      -2.089
      -1.450
      -0.612
      -0.092
      -0.216
      -0.935
      -1.824
      -2.325
      -2.066
      -1.058
       0.343
       1.627
       2.341
       2.282
       1.586
       0.662
      -0.034
      -0.258
      -0.086
       0.173
       0.198
      -0.151
      -0.751
      -1.283
      -1.409
      -0.976
      -0.104
       0.869
       1.572
       1.779
       1.494
       0.904
       0.266
      -0.216
      -0.461
      -0.520
      -0.522
      -0.583
      -0.722
      -0.831
      -0.735
      -0.330
       0.290
       0.849
       1.070
       0.886
       0.471
       0.078
      -0.150
      -0.225
      -0.227
      -0.214
      -0.204
      -0.188
      -0.147
      -0.052
       0.115
       0.342
       0.580
       0.743
       0.728
       0.450
      -0.091
      -0.767
      -1.365
      -1.691
      -1.653
      -1.276
      -0.643
       0.138
       0.925
       1.510
       1.679
       1.358
       0.720
       0.097
      -0.235
      -0.210
       0.029
       0.229
       0.170
      -0.205
      -0.744
      -1.171
      -1.262
      -0.974
      -0.440
       0.123
       0.499
       0.525
       0.164
      -0.423
      -0.900
      -0.934
      -0.423
       0.451
       1.345
       1.929
       1.989
       1.485
       0.588
      -0.352
      -0.957
      -1.022
      -0.607
       0.026
       0.562
       0.785
       0.659
       0.332
       0.044
      -0.019
       0.162
       0.429
       0.539
       0.318
      -0.213
      -0.808
      -1.146
      -1.064
      -0.686
      -0.316
      -0.202
      -0.370
      -0.655
      -0.832
      -0.733
      -0.321
       0.287
       0.882
       1.264
       1.333
       1.088
       0.622
       0.112
      -0.221
      -0.243
      -0.018
       0.227
       0.266
       0.014
      -0.467
      -1.025
      -1.460
      -1.557
      -1.181
      -0.395
       0.530
       1.269
       1.613
       1.534
       1.147
       0.647
       0.255
       0.133
       0.313
       0.668
       0.974
       0.993
       0.570
      -0.261
      -1.232
      -1.961
      -2.206
      -2.018
      -1.659
      -1.351
      -1.119
      -0.847
      -0.450
       0.049
       0.583
       1.131
       1.679
       2.109
       2.163
       1.622
       0.557
      -0.608
      -1.326
      -1.293
      -0.640
       0.179
       0.687
       0.662
       0.230
      -0.277
      -0.556
      -0.503
      -0.213
       0.126
       0.345
       0.345
       0.125
      -0.211
      -0.477
      -0.484
      -0.149
       0.399
       0.865
       0.971
       0.685
       0.252
       0.001
       0.067
       0.298
       0.392
       0.151
      -0.377
      -0.958
      -1.344
      -1.390
      -1.084
      -0.517
       0.140
       0.683
       0.942
       0.862
       0.531
       0.142
      -0.119
      -0.187
      -0.136
      -0.079
      -0.050
      -0.002
       0.101
       0.207
       0.219
       0.090
      -0.135
      -0.365
      -0.528
      -0.573
      -0.453
      -0.142
       0.325
       0.826
       1.208
       1.363
       1.274
       0.986
       0.562
       0.077
      -0.362
      -0.648
      -0.746
      -0.738
      -0.745
      -0.805
      -0.824
      -0.679
      -0.356
       0.023
       0.296
       0.382
       0.297
       0.097
      -0.174
      -0.484
      -0.762
      -0.899
      -0.808
      -0.485
      -0.012
       0.506
       0.984
       1.360
       1.567
       1.531
       1.194
       0.568
      -0.222
      -0.945
      -1.336
      -1.245
      -0.750
      -0.121
       0.368
       0.614
       0.697
       0.734
       0.745
       0.679
       0.503
       0.250
      -0.025
      -0.278
      -0.482
      -0.610
      -0.627
      -0.501
      -0.251
       0.019
       0.168
       0.128
      -0.029
      -0.169
      -0.219
      -0.217
      -0.237
      -0.292
      -0.309
      -0.191
       0.103
       0.499
       0.820
       0.879
       0.609
       0.108
      -0.451
      -0.948
      -1.332
      -1.537
      -1.441
      -0.965
      -0.195
       0.613
       1.189
       1.394
       1.268
       0.945
       0.549
       0.156
      -0.198
      -0.493
      -0.700
      -0.766
      -0.614
      -0.209
       0.374
       0.954
       1.348
       1.465
       1.300
       0.866
       0.189
      -0.621
      -1.338
      -1.703
      -1.580
      -1.052
      -0.379
       0.161
       0.422
       0.426
       0.299
       0.162
       0.054
      -0.049
      -0.177
      -0.313
      -0.397
      -0.370
      -0.222
       0.010
       0.252
       0.423
       0.475
       0.411
       0.263
       0.067
      -0.135
      -0.278
      -0.267
      -0.053
       0.294
       0.598
       0.706
       0.608
       0.425
       0.283
       0.225
       0.208
       0.162
       0.031
      -0.211
      -0.538
      -0.869
      -1.094
      -1.136
      -0.985
      -0.718
      -0.456
      -0.289
      -0.210
      -0.104
       0.167
       0.662
       1.300
       1.872
       2.126
       1.902
       1.251
       0.423
      -0.270
      -0.630
      -0.626
      -0.350
       0.049
       0.398
       0.552
       0.473
       0.275
       0.144
       0.204
       0.424
       0.651
       0.696
       0.417
      -0.229
      -1.135
      -2.040
      -2.626
      -2.693
      -2.280
      -1.620
      -0.980
      -0.524
      -0.270
      -0.136
      -0.002
       0.228
       0.582
       0.997
       1.348
       1.500
       1.383
       1.035
       0.593
       0.223
       0.042
       0.088
       0.314
       0.594
       0.764
       0.707
       0.438
       0.100
      -0.142
      -0.203
      -0.096
       0.109
       0.324
       0.452
       0.405
       0.155
      -0.245
      -0.674
      -1.002
      -1.156
      -1.161
      -1.125
      -1.177
      -1.370
      -1.645
      -1.858
      -1.877
      -1.655
      -1.238
      -0.720
      -0.194
       0.282
       0.684
       1.019
       1.319
       1.639
       2.040
       2.549
       3.096
       3.514
       3.628
       3.356
       2.745
       1.926
       1.038
       0.187
      -0.569
      -1.224
      -1.805
      -2.321
      -2.738
      -2.988
      -3.037
      -2.914
      -2.695
      -2.435
      -2.129
      -1.738
      -1.258
      -0.758
      -0.332
      -0.002
       0.315
       0.735
       1.289
       1.879
       2.351
       2.599
       2.606
       2.425
       2.146
       1.873
       1.679
       1.549
       1.400
       1.175
       0.902
       0.651
       0.440
       0.209
      -0.129
      -0.636
      -1.332
      -2.188
      -3.090
      -3.833
      -4.207
      -4.130
      -3.697
      -3.087
      -2.407
      -1.637
      -0.727
       0.299
       1.329
       2.236
       2.932
       3.358
       3.434
       3.090
       2.349
       1.396
       0.535
       0.053
       0.088
       0.562
       1.207
       1.669
       1.657
       1.092
       0.166
      -0.751
      -1.314
      -1.384
      -1.074
      -0.663
      -0.440
      -0.565
      -0.985
      -1.445
      -1.624
      -1.337
      -0.656
       0.145
       0.751
       0.950
       0.705
       0.158
      -0.447
      -0.898
      -1.128
      -1.204
      -1.226
      -1.226
      -1.164
      -0.996
      -0.705
      -0.289
       0.264
       0.950
       1.704
       2.384
       2.815
       2.858
       2.488
       1.823
       1.096
       0.549
       0.312
       0.336
       0.405
       0.239
      -0.339
      -1.253
      -2.167
      -2.684
      -2.612
      -2.056
      -1.288
      -0.527
       0.162
       0.803
       1.399
       1.889
       2.189
       2.258
       2.109
       1.759
       1.187
       0.374
      -0.611
      -1.588
      -2.348
      -2.768
      -2.869
      -2.751
      -2.488
      -2.082
      -1.494
      -0.739
       0.061
       0.706
       1.047
       1.080
       0.936
       0.753
       0.579
       0.377
       0.123
      -0.117
      -0.215
      -0.085
       0.258
       0.723
       1.206
       1.613
       1.840
       1.775
       1.354
       0.624
      -0.231
      -0.960
      -1.371
      -1.449
      -1.360
      -1.313
      -1.387
      -1.485
      -1.433
      -1.118
      -0.524
       0.301
       1.267
       2.199
       2.844
       2.984
       2.580
       1.799
       0.901
       0.112
      -0.445
      -0.740
      -0.845
      -0.915
      -1.127
      -1.564
      -2.143
      -2.655
      -2.877
      -2.679
      -2.085
      -1.275
      -0.489
       0.116
       0.553
       0.950
       1.416
       1.951
       2.482
       2.939
       3.279
       3.440
       3.316
       2.796
       1.865
       0.652
      -0.598
      -1.631
      -2.283
      -2.525
      -2.442
      -2.178
      -1.871
      -1.592
      -1.342
      -1.089
      -0.822
      -0.543
      -0.227
       0.189
       0.753
       1.415
       2.018
       2.374
       2.382
       2.058
       1.499
       0.823
       0.147
      -0.413
      -0.766
      -0.888
      -0.829
      -0.654
      -0.375
       0.042
       0.588
       1.148
       1.531
       1.579
       1.270
       0.727
       0.116
      -0.469
      -1.034
      -1.612
      -2.169
      -2.589
      -2.733
      -2.519
      -1.956
      -1.126
      -0.141
       0.870
       1.750
       2.328
       2.475
       2.181
       1.580
       0.884
       0.262
      -0.225
      -0.600
      -0.878
      -1.034
      -1.035
      -0.890
      -0.647
      -0.362
      -0.077
       0.180
       0.384
       0.501
       0.494
       0.333
       0.019
      -0.395
      -0.818
      -1.168
      -1.412
      -1.554
      -1.586
      -1.461
      -1.127
      -0.600
       0.012
       0.564
       0.964
       1.214
       1.373
       1.483
       1.540
       1.510
       1.366
       1.095
       0.705
       0.242
      -0.192
      -0.465
      -0.488
      -0.277
       0.064
       0.387
       0.552
       0.454
       0.069
      -0.504
      -1.042
      -1.308
      -1.192
      -0.785
      -0.304
       0.056
       0.244
       0.337
       0.424
       0.505
       0.485
       0.256
      -0.228
      -0.918
      -1.672
      -2.281
      -2.531
      -2.290
      -1.580
      -0.593
       0.403
       1.206
       1.775
       2.178
       2.454
       2.534
       2.298
       1.713
       0.912
       0.123
      -0.447
      -0.700
      -0.640
      -0.337
       0.083
       0.449
       0.575
       0.352
      -0.189
      -0.885
      -1.544
      -2.037
      -2.290
      -2.231
      -1.786
      -0.958
       0.092
       1.092
       1.805
       2.165
       2.251
       2.167
       1.922
       1.454
       0.757
      -0.032
      -0.671
      -0.967
      -0.890
      -0.564
      -0.159
       0.213
       0.504
       0.680
       0.688
       0.479
       0.059
      -0.495
      -1.068
      -1.557
      -1.907
      -2.088
      -2.049
      -1.726
      -1.108
      -0.303
       0.477
       1.013
       1.199
       1.100
       0.891
       0.745
       0.732
       0.814
       0.893
       0.886
       0.755
       0.509
       0.204
      -0.066
      -0.193
      -0.123
       0.096
       0.337
       0.474
       0.468
       0.373
       0.293
       0.301
       0.382
       0.449
       0.413
       0.264
       0.068
      -0.097
      -0.214
      -0.315
      -0.426
      -0.534
      -0.614
      -0.673
      -0.756
      -0.896
      -1.065
      -1.177
      -1.144
      -0.936
      -0.607
      -0.255
       0.036
       0.237
       0.371
       0.481
       0.593
       0.706
       0.788
       0.802
       0.724
       0.553
       0.318
       0.073
      -0.122
      -0.236
      -0.279
      -0.290
      -0.303
      -0.330
      -0.371
      -0.416
      -0.444
      -0.420
      -0.325
      -0.191
      -0.102
      -0.136
      -0.309
      -0.553
      -0.747
      -0.776
      -0.597
      -0.259
       0.115
       0.396
       0.525
       0.524
       0.456
       0.372
       0.297
       0.239
       0.210
       0.222
       0.288
       0.413
       0.580
       0.737
       0.822
       0.801
       0.691
       0.542
       0.402
       0.303
       0.254
       0.239
       0.215
       0.136
      -0.014
      -0.206
      -0.389
      -0.536
      -0.657
      -0.769
      -0.852
      -0.844
