Origin Time       1/5/2013 06:57:12	 
Lat.              33.1 N	
Long.             75.8 E	
Depth (Km)         15.0
Magnitude         5.8
 Region           JK-HP-Border                                                     
 Above details taken from IMD 
   
Station Code      PHG
Station Lat.       31.212
Station Long.      75.774
Station Height(m)  246.0
Site Class        C   Vs30 between 200 m/sec to 375 m/sec *  
Record Time       01.05.2013 06:58:01.134
Sampling Rate     200. Hz
 Record Duration   72.005 Sec.
 Direction         Vert. (Up positive)
Max. Acceleration     -8.490 cm/sec**2
     
  * For reference see Site Classification link of website 
     
 Base Line Corrected and Low Pass Filtered (Cut Off at 35 Hz) Time History
 Acceleration data in cm/sec**2
    
[...]
      -0.132
      -0.275
      -0.477
      -0.745
      -1.098
      -1.557
      -2.127
      -2.786
      -3.473
      -4.097
      -4.553
      -4.766
      -4.722
      -4.475
      -4.115
      -3.710
      -3.287
      -2.843
      -2.381
      -1.917
      -1.464
      -1.015
      -0.551
      -0.072
       0.386
       0.759
       1.006
       1.135
       1.207
       1.295
       1.448
       1.678
       1.987
       2.370
       2.818
       3.290
       3.715
       4.010
       4.127
       4.064
       3.850
       3.513
       3.071
       2.530
       1.892
       1.173
       0.405
      -0.366
      -1.096
      -1.760
      -2.354
      -2.885
      -3.351
      -3.727
      -3.973
      -4.050
      -3.931
      -3.611
      -3.109
      -2.466
      -1.733
      -0.964
      -0.202
       0.524
       1.201
       1.821
       2.361
       2.789
       3.091
       3.308
       3.520
       3.796
       4.136
       4.458
       4.648
       4.629
       4.397
       4.019
       3.572
       3.099
       2.592
       2.021
       1.372
       0.663
      -0.061
      -0.753
      -1.377
      -1.924
      -2.411
      -2.871
      -3.327
      -3.765
      -4.136
      -4.385
      -4.490
      -4.482
      -4.422
      -4.350
      -4.261
      -4.113
      -3.876
      -3.571
      -3.256
      -2.991
      -2.801
      -2.663
      -2.518
      -2.295
      -1.941
      -1.446
      -0.862
      -0.271
       0.259
       0.720
       1.160
       1.626
       2.100
       2.493
       2.690
       2.635
       2.373
       2.030
       1.734
       1.554
       1.485
       1.485
       1.513
       1.551
       1.605
       1.693
       1.843
       2.076
       2.376
       2.682
       2.905
       2.970
       2.849
       2.571
       2.195
       1.773
       1.335
       0.891
       0.451
       0.033
      -0.338
      -0.647
      -0.896
      -1.114
      -1.341
      -1.611
      -1.929
      -2.266
      -2.567
      -2.783
      -2.884
      -2.878
      -2.803
      -2.711
      -2.639
      -2.593
      -2.544
      -2.449
      -2.271
      -2.000
      -1.655
      -1.259
      -0.821
      -0.325
       0.252
       0.912
       1.615
       2.276
       2.790
       3.072
       3.093
       2.894
       2.571
       2.232
       1.963
       1.812
       1.792
       1.888
       2.068
       2.289
       2.511
       2.704
       2.841
       2.889
       2.800
       2.533
       2.077
       1.463
       0.761
       0.055
      -0.575
      -1.076
      -1.440
      -1.713
      -1.965
      -2.238
      -2.507
      -2.696
      -2.739
      -2.636
      -2.449
      -2.260
      -2.112
      -1.997
      -1.889
      -1.787
      -1.714
      -1.695
      -1.711
      -1.702
      -1.596
      -1.357
      -1.007
      -0.598
      -0.160
       0.323
       0.877
       1.469
       1.981
       2.259
       2.212
       1.861
       1.313
       0.693
       0.082
      -0.493
      -1.024
      -1.488
      -1.834
      -2.004
      -1.959
      -1.702
      -1.288
      -0.802
      -0.335
       0.049
       0.329
       0.504
       0.580
       0.558
       0.446
       0.274
       0.088
      -0.062
      -0.141
      -0.141
      -0.088
      -0.031
      -0.011
      -0.037
      -0.066
      -0.020
       0.174
       0.541
       1.039
       1.578
       2.055
       2.388
       2.521
       2.437
       2.159
       1.744
       1.255
       0.734
       0.214
      -0.252
      -0.572
      -0.652
      -0.471
      -0.109
       0.271
       0.510
       0.524
       0.320
      -0.026
      -0.421
      -0.787
      -1.080
      -1.282
      -1.377
      -1.346
      -1.181
      -0.910
      -0.607
      -0.362
      -0.239
      -0.253
      -0.365
      -0.510
      -0.611
      -0.599
      -0.428
      -0.098
       0.322
       0.714
       0.955
       0.974
       0.779
       0.434
       0.020
      -0.399
      -0.782
      -1.100
      -1.325
      -1.432
      -1.414
      -1.286
      -1.082
      -0.839
      -0.581
      -0.324
      -0.092
       0.075
       0.133
       0.072
      -0.064
      -0.195
      -0.236
      -0.143
       0.077
       0.389
       0.747
       1.113
       1.453
       1.743
       1.960
       2.090
       2.117
       2.029
       1.820
       1.505
       1.118
       0.698
       0.269
      -0.172
      -0.632
      -1.104
      -1.546
      -1.894
      -2.089
      -2.105
      -1.955
      -1.688
      -1.369
      -1.055
      -0.776
      -0.530
      -0.292
      -0.031
       0.275
       0.640
       1.081
       1.603
       2.181
       2.745
       3.201
       3.468
       3.518
       3.382
       3.128
       2.816
       2.470
       2.071
       1.581
       0.968
       0.235
      -0.578
      -1.393
      -2.109
      -2.633
      -2.913
      -2.961
      -2.841
      -2.624
      -2.360
      -2.069
      -1.758
      -1.449
      -1.184
      -1.001
      -0.907
      -0.877
      -0.882
      -0.923
      -1.030
      -1.227
      -1.484
      -1.721
      -1.839
      -1.779
      -1.550
      -1.214
      -0.840
      -0.474
      -0.123
       0.220
       0.563
       0.901
       1.222
       1.514
       1.778
       2.033
       2.295
       2.562
       2.805
       2.983
       3.059
       2.999
       2.766
       2.330
       1.704
       0.959
       0.204
      -0.466
      -1.004
      -1.413
      -1.712
      -1.909
      -1.998
      -1.984
      -1.890
      -1.742
      -1.552
      -1.317
      -1.027
      -0.678
      -0.271
       0.191
       0.692
       1.206
       1.697
       2.140
       2.527
       2.851
       3.083
       3.159
       2.993
       2.521
       1.745
       0.760
      -0.275
      -1.199
      -1.911
      -2.401
      -2.727
      -2.978
      -3.224
      -3.494
      -3.771
      -4.001
      -4.105
      -4.005
      -3.654
      -3.067
      -2.307
      -1.447
      -0.541
       0.385
       1.290
       2.094
       2.675
       2.927
       2.814
       2.405
       1.838
       1.259
       0.773
       0.444
       0.305
       0.371
       0.622
       0.997
       1.412
       1.789
       2.071
       2.216
       2.183
       1.955
       1.560
       1.082
       0.623
       0.258
       0.007
      -0.139
      -0.193
      -0.156
      -0.047
       0.071
       0.108
      -0.019
      -0.331
      -0.789
      -1.319
      -1.859
      -2.370
      -2.832
      -3.215
      -3.484
      -3.614
      -3.615
      -3.525
      -3.386
      -3.206
      -2.951
      -2.564
      -2.018
      -1.335
      -0.576
       0.203
       0.975
       1.728
       2.421
       2.980
       3.330
       3.454
       3.414
       3.312
       3.216
       3.122
       2.964
       2.670
       2.216
       1.620
       0.917
       0.125
      -0.742
      -1.655
      -2.554
      -3.375
      -4.084
      -4.681
      -5.168
      -5.502
      -5.584
      -5.301
      -4.595
      -3.517
      -2.225
      -0.915
       0.271
       1.301
       2.236
       3.157
       4.101
       5.035
       5.891
       6.607
       7.157
       7.534
       7.734
       7.738
       7.510
       7.010
       6.214
       5.140
       3.861
       2.499
       1.192
       0.036
      -0.940
      -1.782
      -2.560
      -3.324
      -4.069
      -4.749
      -5.316
      -5.755
      -6.088
      -6.344
      -6.532
      -6.616
      -6.523
      -6.184
      -5.568
      -4.711
      -3.727
      -2.769
      -1.982
      -1.442
      -1.133
      -0.965
      -0.839
      -0.696
      -0.534
      -0.378
      -0.233
      -0.067
       0.167
       0.488
       0.856
       1.185
       1.393
       1.439
       1.336
       1.126
       0.861
       0.589
       0.367
       0.258
       0.326
       0.605
       1.066
       1.617
       2.129
       2.490
       2.638
       2.568
       2.326
       1.982
       1.600
       1.214
       0.822
       0.393
      -0.099
      -0.649
      -1.204
      -1.679
      -1.995
      -2.115
      -2.047
      -1.816
      -1.431
      -0.879
      -0.147
       0.752
       1.773
       2.842
       3.866
       4.751
       5.416
       5.806
       5.898
       5.693
       5.208
       4.474
       3.543
       2.494
       1.436
       0.471
      -0.334
      -0.963
      -1.424
      -1.715
      -1.825
      -1.757
      -1.551
      -1.273
      -0.978
      -0.672
      -0.310
       0.174
       0.814
       1.571
       2.332
       2.958
       3.353
       3.500
       3.455
       3.282
       3.006
       2.613
       2.080
       1.404
       0.601
      -0.312
      -1.300
      -2.300
      -3.215
      -3.961
      -4.515
      -4.932
      -5.299
      -5.667
      -6.011
      -6.246
      -6.285
      -6.082
      -5.644
      -5.011
      -4.226
      -3.325
      -2.332
      -1.272
      -0.185
       0.877
       1.846
       2.649
       3.225
       3.544
       3.613
       3.474
       3.192
       2.829
       2.429
       2.003
       1.537
       1.020
       0.451
      -0.159
      -0.791
      -1.406
      -1.923
      -2.237
      -2.260
      -1.962
      -1.386
      -0.627
       0.199
       0.988
       1.663
       2.182
       2.528
       2.685
       2.622
       2.302
       1.714
       0.902
      -0.038
      -0.988
      -1.839
      -2.514
      -2.976
      -3.230
      -3.308
      -3.262
      -3.151
      -3.017
      -2.862
      -2.625
      -2.205
      -1.520
      -0.575
       0.515
       1.576
       2.457
       3.086
       3.468
       3.630
       3.593
       3.379
       3.038
       2.651
       2.293
       2.000
       1.772
       1.612
       1.534
       1.543
       1.599
       1.618
       1.516
       1.246
       0.808
       0.235
      -0.437
      -1.169
      -1.900
      -2.536
      -2.971
      -3.150
      -3.106
      -2.941
      -2.760
      -2.610
      -2.475
      -2.312
      -2.081
      -1.752
      -1.294
      -0.687
       0.047
       0.825
       1.514
       1.987
       2.186
       2.134
       1.899
       1.535
       1.050
       0.425
      -0.310
      -1.036
      -1.557
      -1.685
      -1.328
      -0.532
       0.547
       1.700
       2.725
       3.477
       3.878
       3.906
       3.577
       2.938
       2.071
       1.095
       0.154
      -0.615
      -1.128
      -1.389
      -1.478
      -1.496
      -1.509
      -1.536
      -1.578
      -1.654
      -1.790
      -1.988
      -2.195
      -2.321
      -2.289
      -2.083
      -1.751
      -1.367
      -0.987
      -0.649
      -0.389
      -0.249
      -0.251
      -0.360
      -0.489
      -0.541
      -0.477
      -0.337
      -0.191
      -0.072
       0.055
       0.258
       0.559
       0.880
       1.087
       1.085
       0.883
       0.582
       0.291
       0.059
      -0.127
      -0.303
      -0.486
      -0.661
      -0.789
      -0.805
      -0.627
      -0.189
       0.511
       1.379
       2.256
       3.002
       3.558
       3.948
       4.208
       4.317
       4.199
       3.792
       3.097
       2.192
       1.176
       0.134
      -0.868
      -1.762
      -2.458
      -2.872
      -2.965
      -2.778
      -2.415
      -1.988
      -1.558
      -1.129
      -0.676
      -0.195
       0.288
       0.729
       1.090
       1.349
       1.501
       1.544
       1.470
       1.264
       0.921
       0.459
      -0.084
      -0.667
      -1.264
      -1.858
      -2.419
      -2.891
      -3.199
      -3.287
      -3.151
      -2.840
      -2.434
      -1.999
      -1.583
      -1.216
      -0.914
      -0.672
      -0.443
      -0.164
       0.207
       0.655
       1.122
       1.545
       1.895
       2.166
       2.352
       2.446
       2.441
       2.339
       2.136
       1.808
       1.328
       0.697
      -0.017
      -0.689
      -1.192
      -1.472
      -1.573
      -1.597
      -1.638
      -1.727
      -1.833
      -1.897
      -1.879
      -1.780
      -1.643
      -1.526
      -1.460
      -1.435
      -1.406
      -1.319
      -1.130
      -0.819
      -0.400
       0.088
       0.586
       1.041
       1.426
       1.748
       2.040
       2.317
       2.560
       2.730
       2.791
       2.734
       2.568
       2.311
       1.973
       1.560
       1.076
       0.531
      -0.052
      -0.631
      -1.151
      -1.565
      -1.851
      -2.016
      -2.081
      -2.067
      -1.985
      -1.834
      -1.613
      -1.332
      -1.020
      -0.720
      -0.470
      -0.293
      -0.182
      -0.116
      -0.083
      -0.089
      -0.147
      -0.254
      -0.385
      -0.492
      -0.516
      -0.384
      -0.038
       0.518
       1.190
       1.823
       2.276
       2.497
       2.527
       2.446
       2.298
       2.064
       1.691
       1.148
       0.473
      -0.225
      -0.813
      -1.187
      -1.304
      -1.198
      -0.956
      -0.680
      -0.454
      -0.309
      -0.219
      -0.122
       0.033
       0.252
       0.488
       0.688
       0.848
       1.033
       1.331
       1.792
       2.387
       3.039
       3.664
       4.195
       4.570
       4.716
       4.567
       4.110
       3.403
       2.553
       1.666
       0.790
      -0.083
      -0.990
      -1.953
      -2.963
      -3.995
      -5.024
      -6.025
      -6.957
      -7.746
      -8.292
      -8.490
      -8.259
      -7.556
      -6.379
      -4.769
      -2.825
      -0.710
       1.369
       3.220
       4.714
       5.808
       6.527
       6.910
       6.986
       6.774
       6.304
       5.641
       4.869
       4.069
       3.297
       2.585
       1.956
       1.423
       0.977
       0.582
       0.188
      -0.225
      -0.618
      -0.908
      -1.019
      -0.956
      -0.834
      -0.830
      -1.082
      -1.595
      -2.244
      -2.846
      -3.270
      -3.480
      -3.515
      -3.423
      -3.215
      -2.861
      -2.329
      -1.622
      -0.807
      -0.015
       0.601
       0.918
       0.885
       0.525
      -0.097
      -0.898
      -1.786
      -2.668
      -3.457
      -4.085
      -4.511
      -4.708
      -4.658
      -4.347
      -3.789
      -3.034
      -2.156
      -1.202
      -0.170
       0.956
       2.144
       3.280
       4.207
       4.808
       5.043
       4.943
       4.558
       3.925
       3.079
       2.077
       1.004
      -0.034
      -0.933
      -1.591
      -1.916
      -1.840
      -1.366
      -0.594
       0.303
       1.139
       1.795
       2.251
       2.555
       2.768
       2.906
       2.941
       2.829
       2.543
       2.095
       1.532
       0.929
       0.378
      -0.049
      -0.326
      -0.488
      -0.604
      -0.740
      -0.930
      -1.166
      -1.410
      -1.617
      -1.754
      -1.821
      -1.836
      -1.819
      -1.786
      -1.753
      -1.744
      -1.788
      -1.900
      -2.062
      -2.212
      -2.259
      -2.111
      -1.710
      -1.050
      -0.182
       0.803
       1.778
       2.606
       3.178
       3.446
       3.427
       3.177
       2.758
       2.221
       1.620
       1.025
       0.525
       0.207
       0.125
       0.278
       0.605
       1.007
       1.373
       1.611
       1.674
       1.577
       1.378
       1.136
       0.872
       0.569
       0.198
      -0.259
      -0.802
      -1.427
      -2.128
      -2.891
      -3.664
      -4.364
      -4.893
      -5.184
      -5.217
      -5.001
      -4.543
      -3.841
      -2.915
      -1.844
      -0.759
       0.193
       0.913
       1.366
       1.577
       1.590
       1.454
       1.216
       0.934
       0.675
       0.491
       0.401
       0.386
       0.418
       0.469
       0.519
       0.560
       0.590
       0.630
       0.714
       0.878
       1.122
       1.407
       1.669
       1.856
       1.947
       1.945
       1.860
       1.700
       1.479
       1.229
       1.003
       0.859
       0.833
       0.930
       1.130
       1.405
       1.736
       2.097
       2.444
       2.715
       2.842
       2.769
       2.458
       1.899
       1.121
       0.202
      -0.749
      -1.625
      -2.360
      -2.953
      -3.445
      -3.871
      -4.230
      -4.480
      -4.580
      -4.515
      -4.302
      -3.972
      -3.560
      -3.102
      -2.643
      -2.224
      -1.853
      -1.494
      -1.101
      -0.662
      -0.227
       0.122
       0.331
       0.407
       0.415
       0.436
       0.534
       0.743
       1.059
       1.452
       1.872
       2.255
       2.539
       2.673
       2.635
       2.432
       2.087
       1.629
       1.088
       0.519
       0.006
      -0.340
      -0.421
      -0.193
       0.311
       0.987
       1.716
       2.400
       2.963
       3.328
       3.414
       3.179
       2.666
       1.992
       1.276
       0.565
      -0.173
      -0.984
      -1.837
      -2.599
      -3.097
      -3.216
      -2.971
      -2.497
      -1.972
      -1.540
      -1.271
      -1.161
      -1.151
      -1.167
      -1.145
      -1.057
      -0.919
      -0.775
      -0.674
      -0.637
      -0.643
      -0.644
      -0.603
      -0.531
      -0.489
      -0.541
      -0.696
      -0.887
      -1.010
      -0.968
      -0.717
      -0.275
       0.294
       0.917
       1.522
       2.053
       2.464
       2.736
       2.893
       2.998
       3.123
       3.300
       3.504
       3.671
       3.739
       3.683
       3.501
       3.196
       2.757
       2.173
       1.458
       0.654
      -0.183
      -1.001
      -1.763
      -2.433
      -2.968
      -3.322
      -3.471
      -3.441
      -3.304
      -3.147
      -3.025
      -2.938
      -2.847
      -2.711
      -2.524
      -2.318
      -2.133
      -1.976
      -1.810
      -1.561
      -1.168
      -0.625
       0.007
       0.623
       1.121
       1.443
       1.586
       1.586
       1.482
       1.298
       1.055
       0.780
       0.513
       0.283
       0.100
      -0.037
      -0.128
      -0.158
      -0.111
       0.010
       0.166
       0.293
       0.322
       0.224
       0.027
      -0.183
      -0.302
      -0.258
      -0.045
       0.272
       0.590
       0.818
       0.916
       0.900
       0.812
       0.693
       0.560
       0.403
       0.200
      -0.071
      -0.413
      -0.798
      -1.171
      -1.463
      -1.614
      -1.602
      -1.453
      -1.236
      -1.014
      -0.821
      -0.647
      -0.465
      -0.262
      -0.054
       0.133
       0.295
       0.456
       0.634
       0.812
       0.935
       0.947
       0.835
       0.638
       0.419
       0.226
       0.076
      -0.032
      -0.093
      -0.100
      -0.059
      -0.006
       0.008
      -0.047
      -0.149
      -0.235
      -0.239
      -0.127
       0.095
       0.392
       0.735
       1.103
       1.493
       1.895
       2.282
       2.607
       2.827
       2.917
       2.870
       2.698
       2.429
       2.098
       1.741
       1.366
       0.950
       0.463
      -0.094
      -0.668
      -1.175
      -1.549
      -1.784
      -1.922
      -2.025
      -2.137
      -2.264
