Origin Time       1/5/2013 06:57:12	 
Lat.              33.1 N	
Long.             75.8 E	
Depth (Km)         15.0
Magnitude         5.8
 Region           JK-HP-Border                                                     
 Above details taken from IMD 
     
Station Code      PHG
Station Lat.       31.212  N
Station Long.      75.774  E
Station Height(m)  246.0
Site Class        C   Vs30 between 200 m/sec to 375 m/sec *  
Record Time       01.05.2013 06:58:01.134
Sampling Rate     200. Hz
 Record Duration   72.005 Sec.
 Direction         E-W (E positive)
Max. Acceleration     11.085 cm/sec**2
     
  * For reference see Site Classification link of website 
     
 Base Line Corrected and Low Pass Filtered (Cut Off at 35 Hz) Time History
 Acceleration data in cm/sec**2
    
[...]
      -0.005
       0.004
       0.023
       0.049
       0.075
       0.097
       0.114
       0.135
       0.165
       0.203
       0.233
       0.237
       0.196
       0.110
      -0.006
      -0.128
      -0.233
      -0.308
      -0.355
      -0.378
      -0.381
      -0.366
      -0.335
      -0.292
      -0.236
      -0.167
      -0.088
      -0.006
       0.069
       0.123
       0.143
       0.120
       0.056
      -0.036
      -0.134
      -0.219
      -0.286
      -0.340
      -0.389
      -0.434
      -0.468
      -0.476
      -0.446
      -0.375
      -0.270
      -0.144
      -0.019
       0.087
       0.162
       0.208
       0.238
       0.267
       0.305
       0.350
       0.394
       0.425
       0.437
       0.428
       0.409
       0.393
       0.392
       0.411
       0.445
       0.480
       0.496
       0.474
       0.398
       0.264
       0.080
      -0.137
      -0.364
      -0.582
      -0.774
      -0.925
      -1.019
      -1.041
      -0.988
      -0.868
      -0.701
      -0.505
      -0.298
      -0.094
       0.092
       0.251
       0.377
       0.470
       0.526
       0.540
       0.506
       0.422
       0.300
       0.161
       0.030
      -0.077
      -0.162
      -0.244
      -0.337
      -0.445
      -0.551
      -0.631
      -0.660
      -0.630
      -0.549
      -0.428
      -0.276
      -0.097
       0.102
       0.311
       0.510
       0.674
       0.778
       0.805
       0.753
       0.628
       0.451
       0.248
       0.056
      -0.093
      -0.182
      -0.214
      -0.203
      -0.171
      -0.132
      -0.099
      -0.083
      -0.089
      -0.113
      -0.142
      -0.160
      -0.153
      -0.118
      -0.063
      -0.003
       0.043
       0.062
       0.051
       0.018
      -0.018
      -0.036
      -0.019
       0.040
       0.134
       0.247
       0.357
       0.442
       0.488
       0.484
       0.429
       0.324
       0.182
       0.014
      -0.166
      -0.346
      -0.517
      -0.664
      -0.767
      -0.805
      -0.765
      -0.648
      -0.470
      -0.258
      -0.041
       0.151
       0.301
       0.399
       0.450
       0.461
       0.446
       0.422
       0.405
       0.411
       0.443
       0.493
       0.540
       0.556
       0.517
       0.419
       0.279
       0.133
       0.011
      -0.069
      -0.104
      -0.101
      -0.068
      -0.017
       0.040
       0.092
       0.127
       0.140
       0.129
       0.097
       0.051
      -0.003
      -0.061
      -0.128
      -0.206
      -0.297
      -0.385
      -0.453
      -0.487
      -0.489
      -0.472
      -0.441
      -0.393
      -0.320
      -0.226
      -0.123
      -0.026
       0.061
       0.139
       0.203
       0.241
       0.241
       0.205
       0.152
       0.105
       0.078
       0.072
       0.077
       0.084
       0.083
       0.072
       0.047
       0.015
      -0.020
      -0.048
      -0.064
      -0.067
      -0.067
      -0.079
      -0.116
      -0.171
      -0.219
      -0.232
      -0.197
      -0.125
      -0.045
       0.019
       0.056
       0.074
       0.082
       0.094
       0.117
       0.155
       0.201
       0.238
       0.253
       0.239
       0.200
       0.142
       0.070
      -0.010
      -0.088
      -0.148
      -0.174
      -0.164
      -0.131
      -0.095
      -0.076
      -0.081
      -0.103
      -0.127
      -0.143
      -0.149
      -0.156
      -0.174
      -0.208
      -0.252
      -0.292
      -0.317
      -0.318
      -0.288
      -0.222
      -0.120
       0.013
       0.168
       0.334
       0.497
       0.638
       0.742
       0.801
       0.816
       0.784
       0.703
       0.577
       0.420
       0.250
       0.085
      -0.070
      -0.213
      -0.348
      -0.472
      -0.579
      -0.663
      -0.724
      -0.761
      -0.773
      -0.752
      -0.691
      -0.587
      -0.444
      -0.267
      -0.067
       0.141
       0.335
       0.495
       0.605
       0.657
       0.647
       0.580
       0.465
       0.316
       0.146
      -0.031
      -0.198
      -0.331
      -0.407
      -0.418
      -0.379
      -0.325
      -0.284
      -0.261
      -0.245
      -0.224
      -0.198
      -0.173
      -0.151
      -0.120
      -0.064
       0.024
       0.135
       0.254
       0.358
       0.430
       0.456
       0.437
       0.391
       0.346
       0.319
       0.305
       0.286
       0.247
       0.193
       0.140
       0.099
       0.067
       0.038
       0.007
      -0.021
      -0.040
      -0.049
      -0.053
      -0.062
      -0.080
      -0.111
      -0.149
      -0.188
      -0.219
      -0.240
      -0.250
      -0.244
      -0.213
      -0.148
      -0.051
       0.061
       0.164
       0.234
       0.261
       0.246
       0.194
       0.112
       0.005
      -0.113
      -0.222
      -0.296
      -0.314
      -0.267
      -0.163
      -0.026
       0.118
       0.249
       0.356
       0.437
       0.494
       0.525
       0.525
       0.486
       0.409
       0.306
       0.199
       0.106
       0.032
      -0.022
      -0.057
      -0.069
      -0.047
       0.013
       0.102
       0.200
       0.287
       0.348
       0.371
       0.340
       0.242
       0.072
      -0.153
      -0.401
      -0.630
      -0.809
      -0.919
      -0.954
      -0.918
      -0.823
      -0.688
      -0.540
      -0.399
      -0.276
      -0.167
      -0.064
       0.037
       0.136
       0.227
       0.307
       0.372
       0.418
       0.445
       0.452
       0.437
       0.394
       0.325
       0.246
       0.178
       0.140
       0.133
       0.141
       0.150
       0.156
       0.168
       0.187
       0.201
       0.194
       0.161
       0.113
       0.069
       0.037
       0.016
      -0.004
      -0.028
      -0.057
      -0.094
      -0.144
      -0.201
      -0.252
      -0.277
      -0.269
      -0.235
      -0.193
      -0.151
      -0.111
      -0.064
      -0.002
       0.074
       0.151
       0.214
       0.247
       0.244
       0.210
       0.155
       0.094
       0.043
       0.014
       0.015
       0.043
       0.086
       0.124
       0.139
       0.117
       0.052
      -0.053
      -0.185
      -0.317
      -0.421
      -0.474
      -0.473
      -0.428
      -0.351
      -0.256
      -0.152
      -0.049
       0.045
       0.126
       0.199
       0.268
       0.335
       0.390
       0.419
       0.414
       0.375
       0.311
       0.231
       0.137
       0.034
      -0.070
      -0.162
      -0.225
      -0.251
      -0.243
      -0.211
      -0.165
      -0.116
      -0.071
      -0.041
      -0.031
      -0.042
      -0.070
      -0.105
      -0.137
      -0.159
      -0.170
      -0.168
      -0.152
      -0.119
      -0.072
      -0.020
       0.025
       0.055
       0.069
       0.082
       0.111
       0.164
       0.228
       0.275
       0.272
       0.200
       0.069
      -0.092
      -0.251
      -0.382
      -0.475
      -0.526
      -0.533
      -0.491
      -0.406
      -0.297
      -0.185
      -0.084
       0.007
       0.093
       0.178
       0.255
       0.310
       0.335
       0.330
       0.304
       0.262
       0.208
       0.149
       0.104
       0.090
       0.111
       0.153
       0.195
       0.222
       0.232
       0.229
       0.219
       0.209
       0.203
       0.201
       0.203
       0.209
       0.218
       0.226
       0.222
       0.182
       0.092
      -0.044
      -0.204
      -0.351
      -0.459
      -0.518
      -0.533
      -0.509
      -0.449
      -0.347
      -0.200
      -0.013
       0.194
       0.396
       0.569
       0.703
       0.801
       0.868
       0.908
       0.919
       0.905
       0.871
       0.821
       0.760
       0.690
       0.618
       0.546
       0.470
       0.382
       0.273
       0.142
      -0.005
      -0.157
      -0.296
      -0.410
      -0.492
      -0.543
      -0.571
      -0.580
      -0.571
      -0.541
      -0.483
      -0.394
      -0.273
      -0.130
       0.021
       0.167
       0.307
       0.449
       0.603
       0.763
       0.914
       1.035
       1.117
       1.166
       1.198
       1.227
       1.255
       1.276
       1.280
       1.260
       1.219
       1.164
       1.102
       1.033
       0.950
       0.836
       0.676
       0.466
       0.221
      -0.029
      -0.253
      -0.424
      -0.531
      -0.571
      -0.546
      -0.463
      -0.336
      -0.190
      -0.062
       0.011
       0.006
      -0.075
      -0.207
      -0.357
      -0.497
      -0.609
      -0.679
      -0.699
      -0.663
      -0.573
      -0.435
      -0.263
      -0.075
       0.109
       0.266
       0.381
       0.442
       0.450
       0.416
       0.357
       0.286
       0.208
       0.121
       0.025
      -0.079
      -0.184
      -0.283
      -0.378
      -0.474
      -0.583
      -0.710
      -0.855
      -1.009
      -1.157
      -1.287
      -1.386
      -1.448
      -1.468
      -1.442
      -1.374
      -1.268
      -1.133
      -0.978
      -0.810
      -0.634
      -0.454
      -0.272
      -0.103
       0.032
       0.105
       0.101
       0.020
      -0.124
      -0.313
      -0.532
      -0.766
      -0.996
      -1.201
      -1.362
      -1.472
      -1.537
      -1.569
      -1.578
      -1.564
      -1.528
      -1.471
      -1.407
      -1.352
      -1.324
      -1.325
      -1.345
      -1.368
      -1.376
      -1.359
      -1.308
      -1.222
      -1.111
      -0.991
      -0.877
      -0.773
      -0.673
      -0.571
      -0.460
      -0.341
      -0.213
      -0.068
       0.099
       0.288
       0.490
       0.688
       0.871
       1.036
       1.188
       1.333
       1.475
       1.612
       1.741
       1.859
       1.968
       2.073
       2.181
       2.294
       2.403
       2.493
       2.544
       2.551
       2.518
       2.460
       2.388
       2.307
       2.214
       2.099
       1.957
       1.786
       1.591
       1.385
       1.181
       0.989
       0.817
       0.665
       0.539
       0.441
       0.379
       0.355
       0.364
       0.394
       0.422
       0.418
       0.351
       0.205
      -0.017
      -0.286
      -0.570
      -0.846
      -1.108
      -1.351
      -1.568
      -1.744
      -1.869
      -1.948
      -1.998
      -2.037
      -2.068
      -2.082
      -2.062
      -1.998
      -1.890
      -1.743
      -1.562
      -1.348
      -1.109
      -0.862
      -0.636
      -0.453
      -0.327
      -0.251
      -0.205
      -0.167
      -0.126
      -0.080
      -0.029
       0.031
       0.114
       0.231
       0.382
       0.552
       0.719
       0.866
       0.983
       1.071
       1.128
       1.156
       1.151
       1.118
       1.065
       1.007
       0.958
       0.934
       0.940
       0.975
       1.030
       1.088
       1.128
       1.127
       1.066
       0.943
       0.778
       0.608
       0.466
       0.367
       0.308
       0.276
       0.258
       0.242
       0.215
       0.157
       0.046
      -0.137
      -0.395
      -0.718
      -1.084
      -1.473
      -1.867
      -2.253
      -2.615
      -2.929
      -3.166
      -3.301
      -3.321
      -3.229
      -3.039
      -2.781
      -2.490
      -2.200
      -1.935
      -1.700
      -1.483
      -1.265
      -1.029
      -0.761
      -0.458
      -0.114
       0.268
       0.685
       1.124
       1.565
       1.986
       2.368
       2.699
       2.974
       3.192
       3.354
       3.466
       3.530
       3.546
       3.513
       3.434
       3.315
       3.164
       2.982
       2.769
       2.522
       2.237
       1.917
       1.569
       1.208
       0.852
       0.518
       0.219
      -0.038
      -0.250
      -0.420
      -0.554
      -0.658
      -0.738
      -0.796
      -0.838
      -0.866
      -0.890
      -0.913
      -0.931
      -0.929
      -0.878
      -0.754
      -0.543
      -0.248
       0.109
       0.495
       0.870
       1.193
       1.431
       1.561
       1.574
       1.480
       1.300
       1.074
       0.848
       0.670
       0.569
       0.558
       0.624
       0.736
       0.851
       0.924
       0.928
       0.859
       0.742
       0.615
       0.522
       0.499
       0.558
       0.689
       0.859
       1.031
       1.170
       1.244
       1.222
       1.073
       0.774
       0.326
      -0.241
      -0.872
      -1.505
      -2.093
      -2.605
      -3.034
      -3.383
      -3.660
      -3.880
      -4.055
      -4.199
      -4.325
      -4.441
      -4.540
      -4.605
      -4.609
      -4.525
      -4.338
      -4.041
      -3.637
      -3.130
      -2.534
      -1.868
      -1.160
      -0.442
       0.249
       0.872
       1.384
       1.745
       1.922
       1.897
       1.670
       1.249
       0.654
      -0.085
      -0.920
      -1.785
      -2.612
      -3.347
      -3.962
      -4.449
      -4.809
      -5.049
      -5.174
      -5.192
      -5.116
      -4.967
      -4.772
      -4.558
      -4.344
      -4.143
      -3.962
      -3.804
      -3.670
      -3.570
      -3.517
      -3.526
      -3.597
      -3.702
      -3.786
      -3.774
      -3.596
      -3.206
      -2.583
      -1.736
      -0.691
       0.515
       1.837
       3.228
       4.628
       5.976
       7.210
       8.292
       9.207
       9.955
      10.533
      10.920
      11.085
      11.006
      10.677
      10.112
       9.330
       8.347
       7.188
       5.891
       4.514
       3.117
       1.752
       0.456
      -0.731
      -1.764
      -2.596
      -3.205
      -3.598
      -3.800
      -3.840
      -3.734
      -3.489
      -3.115
      -2.631
      -2.061
      -1.428
      -0.756
      -0.080
       0.552
       1.078
       1.448
       1.631
       1.629
       1.465
       1.173
       0.793
       0.371
      -0.054
      -0.456
      -0.833
      -1.186
      -1.494
      -1.713
      -1.794
      -1.711
      -1.478
      -1.142
      -0.762
      -0.378
      -0.010
       0.331
       0.632
       0.864
       0.997
       1.016
       0.934
       0.782
       0.589
       0.372
       0.128
      -0.144
      -0.433
      -0.714
      -0.955
      -1.130
      -1.212
      -1.177
      -1.001
      -0.666
      -0.164
       0.497
       1.297
       2.205
       3.175
       4.158
       5.098
       5.943
       6.640
       7.140
       7.395
       7.377
       7.080
       6.532
       5.782
       4.888
       3.903
       2.871
       1.821
       0.777
      -0.246
      -1.234
      -2.178
      -3.073
      -3.918
      -4.712
      -5.449
      -6.109
      -6.660
      -7.060
      -7.264
      -7.234
      -6.943
      -6.385
      -5.589
      -4.607
      -3.505
      -2.337
      -1.140
       0.049
       1.184
       2.205
       3.058
       3.704
       4.129
       4.328
       4.311
       4.100
       3.734
       3.263
       2.738
       2.197
       1.648
       1.080
       0.475
      -0.178
      -0.874
      -1.592
      -2.306
      -2.993
      -3.628
      -4.184
      -4.630
      -4.935
      -5.082
      -5.074
      -4.937
      -4.708
      -4.427
      -4.122
      -3.803
      -3.458
      -3.063
      -2.606
      -2.097
      -1.561
      -1.018
      -0.470
       0.093
       0.684
       1.293
       1.893
       2.445
       2.918
       3.304
       3.614
       3.873
       4.105
       4.326
       4.548
       4.771
       4.985
       5.168
       5.290
       5.322
       5.246
       5.052
       4.734
       4.274
       3.648
       2.835
       1.838
       0.697
      -0.524
      -1.751
      -2.914
      -3.964
      -4.866
      -5.600
      -6.143
      -6.470
      -6.552
      -6.374
      -5.944
      -5.289
      -4.449
      -3.472
      -2.412
      -1.325
      -0.263
       0.748
       1.698
       2.590
       3.413
       4.151
       4.805
       5.397
       5.948
       6.446
       6.842
       7.072
       7.093
       6.885
       6.442
       5.758
       4.831
       3.669
       2.301
       0.773
      -0.852
      -2.500
      -4.086
      -5.530
      -6.766
      -7.754
      -8.471
      -8.907
      -9.059
      -8.934
      -8.552
      -7.950
      -7.171
      -6.250
      -5.212
      -4.069
      -2.828
      -1.501
      -0.105
       1.335
       2.780
       4.183
       5.479
       6.605
       7.503
       8.134
       8.478
       8.533
       8.316
       7.847
       7.146
       6.233
       5.142
       3.917
       2.613
       1.281
      -0.035
      -1.288
      -2.434
      -3.432
      -4.257
      -4.897
      -5.354
      -5.648
      -5.815
      -5.906
      -5.968
      -6.037
      -6.133
      -6.270
      -6.470
      -6.750
      -7.118
      -7.549
      -7.993
      -8.390
      -8.683
      -8.835
      -8.827
      -8.654
      -8.319
      -7.823
      -7.163
      -6.330
      -5.318
      -4.129
      -2.777
      -1.293
       0.277
       1.883
       3.479
       5.018
       6.451
       7.726
       8.795
       9.624
      10.197
      10.514
      10.584
      10.426
      10.067
       9.549
       8.930
       8.275
       7.635
       7.038
       6.487
       5.976
       5.501
       5.064
       4.668
       4.307
       3.971
       3.647
       3.329
       3.016
       2.700
       2.364
       1.988
       1.557
       1.074
       0.551
       0.003
      -0.566
      -1.170
      -1.834
      -2.566
      -3.344
      -4.102
      -4.750
      -5.206
      -5.424
      -5.396
      -5.144
      -4.697
      -4.075
      -3.295
      -2.387
      -1.401
      -0.408
       0.511
       1.289
       1.878
       2.257
       2.424
       2.386
       2.148
       1.722
       1.128
       0.412
      -0.365
      -1.128
      -1.803
      -2.334
      -2.687
      -2.861
      -2.877
      -2.769
      -2.575
      -2.323
      -2.041
      -1.760
      -1.522
      -1.365
      -1.315
      -1.369
      -1.487
      -1.608
      -1.670
      -1.638
      -1.505
      -1.288
      -1.001
      -0.645
      -0.205
       0.334
       0.968
       1.665
       2.376
       3.048
       3.636
       4.112
       4.464
       4.707
       4.881
       5.037
       5.224
       5.468
       5.775
       6.131
       6.519
       6.915
       7.289
       7.593
       7.769
       7.754
       7.502
       6.983
       6.196
       5.162
       3.917
       2.514
       1.014
      -0.514
      -2.010
      -3.425
      -4.729
      -5.907
      -6.956
      -7.881
      -8.687
      -9.372
      -9.925
     -10.324
     -10.536
     -10.535
     -10.311
      -9.887
      -9.317
      -8.668
      -7.988
      -7.292
      -6.558
      -5.749
      -4.831
      -3.800
      -2.691
      -1.569
      -0.509
       0.436
       1.251
       1.948
       2.545
       3.048
       3.453
       3.769
       4.029
       4.287
       4.593
       4.974
       5.423
       5.912
       6.403
       6.854
       7.213
       7.417
       7.404
       7.136
       6.610
       5.849
       4.887
       3.760
       2.509
       1.185
      -0.156
      -1.456
      -2.671
