Origin Time       1/5/2013 06:57:12	  UTC
Lat.              33.1 N	
Long.             75.8 E	
Depth (Km)         15.0
Magnitude         5.8
 Region           JK-HP-Border                                                     
 Above details taken from IMD 
    
Station Code      PHG
Station Lat.       31.212  N
Station Long.      75.774  E
Station Height(m)  246.0
Site Class        C   Vs30 between 200 m/sec to 375 m/sec *  
Record Time       01.05.2013 06:58:01.134 UTC
Sampling Rate     200. Hz
 Record Duration   72.005 Sec.
 Direction         N-S (N positive)
Max. Acceleration     18.453 cm/sec**2
     
  * For reference see Site Classification link of website 
     
 Base Line Corrected and Low Pass Filtered (Cut Off at 35 Hz) Time History
 Acceleration data in cm/sec**2
    
[...]
      -0.477
      -0.325
      -0.157
      -0.001
       0.116
       0.185
       0.217
       0.233
       0.255
       0.291
       0.340
       0.399
       0.467
       0.540
       0.610
       0.663
       0.677
       0.638
       0.548
       0.424
       0.294
       0.183
       0.105
       0.060
       0.037
       0.022
       0.003
      -0.021
      -0.040
      -0.046
      -0.038
      -0.028
      -0.035
      -0.069
      -0.125
      -0.184
      -0.233
      -0.269
      -0.303
      -0.342
      -0.381
      -0.405
      -0.397
      -0.348
      -0.254
      -0.118
       0.049
       0.223
       0.375
       0.476
       0.513
       0.491
       0.420
       0.316
       0.190
       0.054
      -0.083
      -0.216
      -0.341
      -0.459
      -0.568
      -0.662
      -0.726
      -0.741
      -0.693
      -0.576
      -0.407
      -0.220
      -0.055
       0.058
       0.115
       0.140
       0.169
       0.223
       0.299
       0.374
       0.426
       0.444
       0.432
       0.392
       0.329
       0.247
       0.160
       0.087
       0.042
       0.024
       0.016
      -0.001
      -0.042
      -0.108
      -0.183
      -0.244
      -0.271
      -0.262
      -0.230
      -0.191
      -0.156
      -0.126
      -0.096
      -0.063
      -0.034
      -0.025
      -0.050
      -0.114
      -0.205
      -0.299
      -0.369
      -0.396
      -0.375
      -0.318
      -0.244
      -0.175
      -0.125
      -0.102
      -0.100
      -0.098
      -0.067
       0.011
       0.129
       0.258
       0.358
       0.407
       0.407
       0.385
       0.367
       0.365
       0.374
       0.373
       0.343
       0.272
       0.169
       0.053
      -0.052
      -0.132
      -0.187
      -0.232
      -0.280
      -0.336
      -0.386
      -0.412
      -0.398
      -0.342
      -0.253
      -0.140
      -0.010
       0.130
       0.268
       0.387
       0.475
       0.531
       0.558
       0.557
       0.527
       0.468
       0.385
       0.282
       0.159
       0.021
      -0.120
      -0.246
      -0.335
      -0.378
      -0.380
      -0.360
      -0.338
      -0.328
      -0.331
      -0.336
      -0.326
      -0.294
      -0.245
      -0.191
      -0.151
      -0.134
      -0.139
      -0.153
      -0.152
      -0.119
      -0.058
       0.005
       0.039
       0.026
      -0.025
      -0.086
      -0.128
      -0.135
      -0.107
      -0.056
       0.004
       0.052
       0.069
       0.040
      -0.031
      -0.119
      -0.196
      -0.239
      -0.246
      -0.218
      -0.165
      -0.090
       0.000
       0.102
       0.216
       0.341
       0.467
       0.578
       0.654
       0.684
       0.672
       0.628
       0.567
       0.492
       0.402
       0.291
       0.159
       0.012
      -0.133
      -0.255
      -0.338
      -0.380
      -0.392
      -0.395
      -0.405
      -0.424
      -0.442
      -0.451
      -0.440
      -0.404
      -0.336
      -0.236
      -0.114
       0.008
       0.107
       0.166
       0.185
       0.180
       0.176
       0.196
       0.246
       0.315
       0.378
       0.406
       0.382
       0.307
       0.194
       0.067
      -0.054
      -0.148
      -0.211
      -0.250
      -0.280
      -0.309
      -0.330
      -0.325
      -0.286
      -0.225
      -0.169
      -0.140
      -0.147
      -0.181
      -0.226
      -0.268
      -0.289
      -0.275
      -0.210
      -0.089
       0.071
       0.236
       0.366
       0.435
       0.445
       0.423
       0.400
       0.386
       0.363
       0.303
       0.192
       0.036
      -0.136
      -0.293
      -0.406
      -0.464
      -0.469
      -0.438
      -0.386
      -0.325
      -0.253
      -0.162
      -0.043
       0.105
       0.266
       0.409
       0.507
       0.551
       0.551
       0.538
       0.536
       0.555
       0.585
       0.597
       0.567
       0.487
       0.373
       0.244
       0.115
      -0.014
      -0.148
      -0.284
      -0.403
      -0.484
      -0.517
      -0.519
      -0.515
      -0.526
      -0.550
      -0.567
      -0.554
      -0.498
      -0.399
      -0.276
      -0.158
      -0.079
      -0.052
      -0.064
      -0.078
      -0.061
      -0.004
       0.078
       0.164
       0.241
       0.307
       0.363
       0.406
       0.432
       0.440
       0.439
       0.439
       0.445
       0.450
       0.446
       0.427
       0.396
       0.356
       0.302
       0.227
       0.127
       0.005
      -0.119
      -0.224
      -0.289
      -0.307
      -0.282
      -0.236
      -0.193
      -0.174
      -0.179
      -0.192
      -0.195
      -0.178
      -0.143
      -0.091
      -0.024
       0.059
       0.147
       0.223
       0.267
       0.274
       0.253
       0.223
       0.197
       0.179
       0.163
       0.137
       0.096
       0.038
      -0.032
      -0.107
      -0.181
      -0.257
      -0.334
      -0.408
      -0.468
      -0.502
      -0.501
      -0.466
      -0.403
      -0.323
      -0.241
      -0.167
      -0.110
      -0.073
      -0.054
      -0.046
      -0.043
      -0.046
      -0.056
      -0.076
      -0.107
      -0.144
      -0.177
      -0.192
      -0.175
      -0.121
      -0.034
       0.068
       0.170
       0.261
       0.341
       0.409
       0.463
       0.495
       0.500
       0.472
       0.413
       0.327
       0.220
       0.103
      -0.015
      -0.132
      -0.255
      -0.386
      -0.513
      -0.616
      -0.670
      -0.667
      -0.618
      -0.554
      -0.503
      -0.476
      -0.462
      -0.442
      -0.403
      -0.349
      -0.288
      -0.221
      -0.136
      -0.020
       0.125
       0.282
       0.429
       0.552
       0.649
       0.719
       0.758
       0.757
       0.711
       0.632
       0.542
       0.465
       0.415
       0.386
       0.360
       0.316
       0.242
       0.134
      -0.004
      -0.162
      -0.328
      -0.485
      -0.619
      -0.724
      -0.798
      -0.839
      -0.837
      -0.778
      -0.660
      -0.502
      -0.341
      -0.215
      -0.144
      -0.118
      -0.109
      -0.085
      -0.035
       0.038
       0.117
       0.185
       0.231
       0.251
       0.250
       0.243
       0.245
       0.266
       0.302
       0.343
       0.376
       0.390
       0.378
       0.334
       0.261
       0.164
       0.055
      -0.055
      -0.156
      -0.235
      -0.279
      -0.284
      -0.256
      -0.211
      -0.168
      -0.131
      -0.097
      -0.062
      -0.021
       0.021
       0.054
       0.071
       0.068
       0.052
       0.033
       0.018
       0.014
       0.027
       0.067
       0.134
       0.219
       0.298
       0.343
       0.337
       0.286
       0.213
       0.155
       0.136
       0.158
       0.202
       0.238
       0.248
       0.235
       0.218
       0.212
       0.213
       0.193
       0.125
      -0.002
      -0.173
      -0.359
      -0.530
      -0.668
      -0.760
      -0.798
      -0.777
      -0.703
      -0.592
      -0.470
      -0.357
      -0.259
      -0.175
      -0.097
      -0.015
       0.071
       0.154
       0.218
       0.247
       0.238
       0.203
       0.171
       0.174
       0.232
       0.344
       0.481
       0.601
       0.665
       0.654
       0.568
       0.429
       0.264
       0.096
      -0.061
      -0.199
      -0.318
      -0.421
      -0.514
      -0.599
      -0.667
      -0.706
      -0.704
      -0.653
      -0.554
      -0.410
      -0.234
      -0.045
       0.130
       0.266
       0.348
       0.379
       0.374
       0.355
       0.336
       0.318
       0.292
       0.257
       0.219
       0.190
       0.177
       0.177
       0.184
       0.187
       0.174
       0.138
       0.070
      -0.031
      -0.157
      -0.291
      -0.407
      -0.476
      -0.481
      -0.423
      -0.327
      -0.225
      -0.137
      -0.073
      -0.030
      -0.009
      -0.010
      -0.035
      -0.083
      -0.153
      -0.251
      -0.376
      -0.515
      -0.634
      -0.699
      -0.688
      -0.603
      -0.465
      -0.303
      -0.136
       0.018
       0.149
       0.248
       0.315
       0.354
       0.371
       0.366
       0.336
       0.289
       0.240
       0.208
       0.203
       0.224
       0.259
       0.302
       0.349
       0.396
       0.433
       0.444
       0.417
       0.356
       0.280
       0.212
       0.162
       0.119
       0.067
      -0.005
      -0.094
      -0.186
      -0.272
      -0.344
      -0.400
      -0.440
      -0.460
      -0.459
      -0.441
      -0.409
      -0.366
      -0.309
      -0.233
      -0.136
      -0.022
       0.097
       0.210
       0.312
       0.406
       0.498
       0.582
       0.650
       0.696
       0.731
       0.771
       0.824
       0.885
       0.940
       0.980
       1.010
       1.040
       1.073
       1.098
       1.102
       1.077
       1.036
       1.001
       0.984
       0.981
       0.970
       0.925
       0.827
       0.673
       0.480
       0.278
       0.099
      -0.032
      -0.104
      -0.119
      -0.092
      -0.036
       0.042
       0.140
       0.257
       0.381
       0.493
       0.569
       0.598
       0.586
       0.551
       0.520
       0.509
       0.526
       0.573
       0.652
       0.760
       0.891
       1.033
       1.180
       1.328
       1.471
       1.587
       1.649
       1.633
       1.534
       1.369
       1.161
       0.936
       0.711
       0.494
       0.280
       0.063
      -0.164
      -0.403
      -0.649
      -0.892
      -1.123
      -1.329
      -1.503
      -1.641
      -1.754
      -1.855
      -1.953
      -2.050
      -2.145
      -2.242
      -2.354
      -2.497
      -2.681
      -2.899
      -3.130
      -3.343
      -3.510
      -3.613
      -3.639
      -3.580
      -3.432
      -3.198
      -2.893
      -2.543
      -2.175
      -1.806
      -1.446
      -1.106
      -0.797
      -0.535
      -0.341
      -0.235
      -0.218
      -0.268
      -0.345
      -0.411
      -0.449
      -0.470
      -0.493
      -0.532
      -0.589
      -0.659
      -0.746
      -0.856
      -0.989
      -1.133
      -1.266
      -1.363
      -1.406
      -1.382
      -1.286
      -1.124
      -0.910
      -0.668
      -0.420
      -0.180
       0.056
       0.296
       0.551
       0.831
       1.142
       1.484
       1.846
       2.207
       2.540
       2.819
       3.023
       3.141
       3.180
       3.165
       3.124
       3.073
       3.010
       2.924
       2.808
       2.668
       2.526
       2.405
       2.318
       2.267
       2.241
       2.216
       2.164
       2.061
       1.899
       1.691
       1.458
       1.217
       0.968
       0.699
       0.398
       0.059
      -0.312
      -0.700
      -1.081
      -1.423
      -1.694
      -1.873
      -1.955
      -1.949
      -1.869
      -1.723
      -1.518
      -1.264
      -0.983
      -0.697
      -0.424
      -0.170
       0.065
       0.283
       0.487
       0.670
       0.826
       0.947
       1.027
       1.065
       1.059
       1.009
       0.921
       0.809
       0.688
       0.568
       0.447
       0.312
       0.145
      -0.062
      -0.305
      -0.563
      -0.810
      -1.027
      -1.212
      -1.381
      -1.551
      -1.731
      -1.909
      -2.061
      -2.160
      -2.194
      -2.167
      -2.090
      -1.975
      -1.835
      -1.682
      -1.535
      -1.401
      -1.275
      -1.135
      -0.960
      -0.739
      -0.476
      -0.181
       0.144
       0.498
       0.883
       1.293
       1.714
       2.132
       2.529
       2.892
       3.212
       3.484
       3.711
       3.893
       4.029
       4.114
       4.143
       4.110
       4.001
       3.793
       3.467
       3.015
       2.453
       1.817
       1.153
       0.505
      -0.095
      -0.615
      -1.030
      -1.323
      -1.505
      -1.608
      -1.671
      -1.721
      -1.762
      -1.784
      -1.775
      -1.730
      -1.655
      -1.559
      -1.457
      -1.357
      -1.265
      -1.174
      -1.075
      -0.968
      -0.855
      -0.743
      -0.628
      -0.497
      -0.332
      -0.117
       0.161
       0.503
       0.898
       1.330
       1.784
       2.247
       2.706
       3.145
       3.536
       3.850
       4.065
       4.169
       4.167
       4.068
       3.873
       3.565
       3.120
       2.522
       1.781
       0.927
       0.002
      -0.963
      -1.951
      -2.955
      -3.961
      -4.939
      -5.851
      -6.671
      -7.399
      -8.059
      -8.682
      -9.288
      -9.862
     -10.360
     -10.716
     -10.869
     -10.784
     -10.456
      -9.900
      -9.135
      -8.174
      -7.036
      -5.753
      -4.371
      -2.933
      -1.477
      -0.034
       1.358
       2.647
       3.779
       4.704
       5.383
       5.779
       5.852
       5.573
       4.938
       3.981
       2.776
       1.423
       0.032
      -1.308
      -2.549
      -3.681
      -4.717
      -5.662
      -6.509
      -7.246
      -7.863
      -8.351
      -8.692
      -8.858
      -8.818
      -8.550
      -8.041
      -7.285
      -6.275
      -5.011
      -3.510
      -1.810
       0.036
       1.976
       3.968
       5.979
       7.972
       9.907
      11.741
      13.431
      14.936
      16.216
      17.232
      17.952
      18.358
      18.453
      18.252
      17.766
      17.001
      15.961
      14.678
      13.221
      11.691
      10.173
       8.707
       7.276
       5.841
       4.370
       2.852
       1.291
      -0.304
      -1.919
      -3.535
      -5.126
      -6.667
      -8.128
      -9.475
     -10.654
     -11.599
     -12.246
     -12.561
     -12.548
     -12.233
     -11.631
     -10.736
      -9.536
      -8.057
      -6.380
      -4.624
      -2.903
      -1.293
       0.161
       1.423
       2.443
       3.155
       3.507
       3.480
       3.096
       2.410
       1.495
       0.432
      -0.701
      -1.838
      -2.928
      -3.938
      -4.832
      -5.571
      -6.112
      -6.424
      -6.505
      -6.384
      -6.102
      -5.693
      -5.171
      -4.534
      -3.765
      -2.856
      -1.813
      -0.658
       0.586
       1.906
       3.303
       4.768
       6.271
       7.747
       9.112
      10.289
      11.224
      11.892
      12.283
      12.397
      12.238
      11.815
      11.143
      10.252
       9.192
       8.034
       6.865
       5.756
       4.745
       3.835
       3.018
       2.293
       1.672
       1.159
       0.737
       0.363
      -0.016
      -0.445
      -0.956
      -1.562
      -2.267
      -3.059
      -3.915
      -4.801
      -5.683
      -6.544
      -7.372
      -8.148
      -8.834
      -9.383
      -9.760
      -9.958
      -9.993
      -9.883
      -9.632
      -9.229
      -8.659
      -7.935
      -7.107
      -6.249
      -5.430
      -4.692
      -4.043
      -3.472
      -2.962
      -2.497
      -2.070
      -1.675
      -1.312
      -0.982
      -0.682
      -0.405
      -0.144
       0.111
       0.364
       0.622
       0.889
       1.174
       1.483
       1.814
       2.164
       2.530
       2.922
       3.358
       3.855
       4.409
       4.981
       5.512
       5.953
       6.281
       6.509
       6.660
       6.756
       6.806
       6.806
       6.731
       6.544
       6.210
       5.718
       5.088
       4.366
       3.612
       2.878
       2.200
       1.600
       1.085
       0.647
       0.260
      -0.115
      -0.513
      -0.948
      -1.407
      -1.861
      -2.280
      -2.650
      -2.976
      -3.267
      -3.529
      -3.750
      -3.911
      -3.998
      -4.003
      -3.927
      -3.761
      -3.488
      -3.093
      -2.592
      -2.037
      -1.507
      -1.074
      -0.775
      -0.610
      -0.553
      -0.564
      -0.599
      -0.614
      -0.572
      -0.451
      -0.244
       0.039
       0.380
       0.750
       1.099
       1.365
       1.487
       1.435
       1.221
       0.895
       0.515
       0.123
      -0.263
      -0.635
      -0.985
      -1.295
      -1.551
      -1.748
      -1.893
      -1.993
      -2.043
      -2.029
      -1.946
      -1.814
      -1.675
      -1.569
      -1.507
      -1.463
      -1.393
      -1.268
      -1.091
      -0.882
      -0.655
      -0.398
      -0.087
       0.284
       0.683
       1.052
       1.336
       1.509
       1.577
       1.557
       1.462
       1.289
       1.034
       0.701
       0.311
      -0.115
      -0.564
      -1.031
      -1.502
      -1.941
      -2.288
      -2.486
      -2.505
      -2.353
      -2.067
      -1.686
      -1.240
      -0.741
      -0.201
       0.366
       0.945
       1.520
       2.081
       2.623
       3.155
       3.692
       4.242
       4.793
       5.306
       5.733
       6.043
       6.231
       6.307
       6.282
       6.151
       5.896
       5.500
       4.954
       4.264
       3.443
       2.512
       1.509
       0.490
      -0.480
      -1.341
      -2.058
      -2.624
      -3.055
      -3.377
      -3.607
      -3.744
      -3.779
      -3.708
      -3.543
      -3.304
      -3.014
      -2.691
      -2.354
      -2.028
      -1.736
      -1.498
      -1.325
      -1.218
      -1.184
      -1.248
      -1.449
      -1.820
      -2.368
      -3.054
      -3.807
      -4.544
      -5.199
      -5.735
      -6.131
      -6.369
      -6.430
      -6.290
      -5.939
      -5.381
      -4.639
      -3.752
      -2.759
      -1.702
      -0.622
       0.429
       1.395
       2.221
       2.871
       3.334
       3.612
       3.715
       3.657
       3.463
       3.174
       2.847
       2.545
       2.331
       2.252
       2.347
       2.635
       3.119
       3.772
       4.540
       5.346
       6.116
       6.791
       7.328
       7.698
       7.869
       7.805
       7.471
       6.848
       5.937
       4.763
       3.375
       1.843
       0.250
      -1.318
      -2.783
      -4.083
      -5.167
      -5.996
      -6.532
      -6.756
      -6.675
      -6.329
      -5.779
      -5.079
      -4.267
      -3.364
      -2.391
      -1.390
      -0.419
       0.457
       1.194
       1.772
       2.195
       2.471
       2.606
       2.597
       2.444
       2.153
       1.738
       1.221
       0.628
      -0.003
      -0.627
      -1.184
      -1.614
      -1.873
      -1.948
      -1.854
      -1.612
      -1.229
      -0.704
      -0.035
       0.762
       1.644
       2.553
       3.423
       4.194
       4.813
       5.240
       5.455
       5.451
       5.235
       4.809
       4.180
       3.357
       2.364
       1.234
       0.008
      -1.262
      -2.506
      -3.647
      -4.616
      -5.381
      -5.945
      -6.335
      -6.573
      -6.661
      -6.591
      -6.358
      -5.975
      -5.470
      -4.871
      -4.200
      -3.473
      -2.718
      -1.978
      -1.298
      -0.702
      -0.182
       0.286
       0.717
       1.100
       1.391
       1.544
       1.525
       1.330
       0.981
       0.524
       0.024
      -0.445
      -0.816
      -1.054
      -1.161
      -1.167
