Origin Time       31/5/2010 11:37:04	 UTC
Lat.              30.0 N	
Long.             79.8 E	
Depth (Km)         10.0
Magnitude         3.6
 Region           Almora-UTTRAKHAND                                                
 Above details taken from IMD 
    
Station Code      PIT
Station Lat.       29.579  N
Station Long.      80.207  E
Station Height(m) 1538.0
Site Class        A   Vs30 between 700 m/sec to 1400 m/sec * 
Record Time       31.05.2010 11:36:33.024 UTC
Sampling Rate     200. Hz
 Record Duration   81.710 Sec.
 Direction         N-S (N positive)
Max. Acceleration     12.067 cm/sec**2
     
  * For reference see Site Classification link of website 
     
 Base Line Corrected and Low Pass Filtered (Cut Off at 35 Hz) Time History
 Acceleration data in cm/sec**2
    
[...]
      -0.011
      -0.008
      -0.001
       0.003
       0.001
      -0.004
      -0.007
      -0.009
      -0.009
      -0.007
      -0.001
       0.004
       0.007
       0.007
       0.005
       0.001
      -0.002
      -0.002
       0.000
       0.000
      -0.002
      -0.004
      -0.006
      -0.008
      -0.009
      -0.010
      -0.013
      -0.018
      -0.021
      -0.014
       0.000
       0.015
       0.026
       0.031
       0.028
       0.018
       0.007
       0.002
       0.003
       0.002
      -0.004
      -0.012
      -0.018
      -0.023
      -0.024
      -0.017
      -0.003
       0.013
       0.023
       0.022
       0.013
      -0.001
      -0.012
      -0.015
      -0.009
       0.000
       0.002
      -0.003
      -0.010
      -0.014
      -0.012
      -0.008
      -0.004
      -0.004
      -0.005
       0.000
       0.009
       0.013
       0.009
       0.000
      -0.007
      -0.005
       0.001
       0.006
       0.005
      -0.002
      -0.005
       0.001
       0.011
       0.016
       0.011
       0.005
       0.003
       0.003
       0.003
       0.001
      -0.001
      -0.003
      -0.004
      -0.002
       0.002
       0.004
       0.001
      -0.002
       0.000
       0.004
       0.008
       0.009
       0.007
       0.000
      -0.006
      -0.008
      -0.003
       0.002
       0.005
       0.003
      -0.001
      -0.005
      -0.005
      -0.001
       0.003
       0.005
       0.001
      -0.004
      -0.007
      -0.008
      -0.007
      -0.003
       0.005
       0.013
       0.016
       0.015
       0.010
       0.004
       0.001
       0.003
       0.009
       0.011
       0.006
      -0.004
      -0.014
      -0.017
      -0.011
       0.003
       0.014
       0.008
      -0.014
      -0.036
      -0.042
      -0.030
      -0.011
       0.006
       0.015
       0.016
       0.013
       0.010
       0.007
       0.004
      -0.001
      -0.002
       0.002
       0.006
       0.002
      -0.008
      -0.016
      -0.016
      -0.009
       0.002
       0.014
       0.021
       0.021
       0.014
       0.004
      -0.004
      -0.007
      -0.004
       0.003
       0.008
       0.010
       0.010
       0.013
       0.014
       0.013
       0.010
       0.008
       0.008
       0.006
       0.002
      -0.002
      -0.005
      -0.005
      -0.004
      -0.001
      -0.003
      -0.007
      -0.009
      -0.005
       0.002
       0.003
       0.001
      -0.002
       0.000
       0.005
       0.010
       0.012
       0.006
      -0.004
      -0.012
      -0.010
       0.000
       0.009
       0.014
       0.016
       0.015
       0.013
       0.010
       0.009
       0.012
       0.015
       0.016
       0.011
       0.000
      -0.015
      -0.025
      -0.022
      -0.010
       0.005
       0.012
       0.009
       0.000
      -0.009
      -0.010
      -0.002
       0.009
       0.015
       0.014
       0.009
       0.003
       0.000
       0.002
       0.010
       0.017
       0.018
       0.012
       0.000
      -0.018
      -0.036
      -0.044
      -0.035
      -0.015
       0.006
       0.021
       0.029
       0.026
       0.015
       0.003
      -0.002
       0.001
       0.004
       0.004
      -0.002
      -0.013
      -0.026
      -0.035
      -0.032
      -0.016
       0.004
       0.018
       0.022
       0.017
       0.010
       0.006
       0.008
       0.010
       0.009
       0.004
      -0.002
      -0.007
      -0.010
      -0.010
      -0.003
       0.006
       0.012
       0.009
      -0.001
      -0.013
      -0.019
      -0.014
      -0.002
       0.006
       0.002
      -0.008
      -0.015
      -0.014
      -0.006
       0.003
       0.009
       0.009
       0.001
      -0.008
      -0.011
      -0.010
      -0.009
      -0.007
      -0.002
       0.006
       0.013
       0.016
       0.015
       0.012
       0.004
      -0.006
      -0.014
      -0.015
      -0.011
      -0.003
       0.005
       0.009
       0.006
       0.001
      -0.002
      -0.002
      -0.003
      -0.009
      -0.015
      -0.017
      -0.014
      -0.006
       0.003
       0.007
       0.004
      -0.003
      -0.011
      -0.015
      -0.015
      -0.012
      -0.006
      -0.003
      -0.002
      -0.002
       0.001
       0.004
       0.002
      -0.007
      -0.015
      -0.018
      -0.013
      -0.003
       0.005
       0.006
       0.000
      -0.006
      -0.003
       0.005
       0.010
       0.007
       0.002
       0.002
       0.003
       0.004
       0.004
       0.002
      -0.002
      -0.007
      -0.007
      -0.001
       0.008
       0.014
       0.014
       0.011
       0.007
       0.007
       0.010
       0.012
       0.009
       0.001
      -0.005
      -0.006
      -0.005
      -0.004
      -0.003
       0.001
       0.008
       0.015
       0.019
       0.016
       0.007
      -0.002
      -0.006
      -0.007
      -0.004
      -0.001
       0.002
       0.004
       0.003
       0.002
       0.005
       0.010
       0.011
       0.007
       0.004
       0.005
       0.008
       0.011
       0.010
       0.008
       0.003
       0.000
       0.000
       0.003
       0.003
       0.000
      -0.005
      -0.007
      -0.006
      -0.002
       0.008
       0.019
       0.026
       0.024
       0.018
       0.014
       0.012
       0.010
       0.007
       0.003
      -0.003
      -0.008
      -0.012
      -0.014
      -0.013
      -0.008
       0.002
       0.014
       0.021
       0.020
       0.013
       0.004
      -0.001
      -0.001
       0.005
       0.011
       0.010
       0.006
       0.003
       0.004
       0.003
      -0.002
      -0.005
      -0.004
       0.001
       0.007
       0.010
       0.007
      -0.003
      -0.013
      -0.013
      -0.003
       0.009
       0.015
       0.012
       0.008
       0.004
       0.004
       0.007
       0.008
      -0.001
      -0.018
      -0.031
      -0.034
      -0.026
      -0.015
      -0.007
      -0.004
      -0.005
      -0.008
      -0.008
      -0.003
       0.001
       0.002
      -0.001
      -0.003
      -0.004
      -0.005
      -0.004
      -0.003
      -0.002
       0.001
       0.006
       0.011
       0.013
       0.010
       0.008
       0.006
       0.003
      -0.004
      -0.010
      -0.013
      -0.012
      -0.012
      -0.011
      -0.012
      -0.015
      -0.018
      -0.013
      -0.001
       0.012
       0.018
       0.019
       0.018
       0.018
       0.017
       0.018
       0.018
       0.013
       0.000
      -0.015
      -0.025
      -0.028
      -0.029
      -0.030
      -0.030
      -0.031
      -0.031
      -0.028
      -0.018
      -0.002
       0.014
       0.025
       0.028
       0.024
       0.019
       0.019
       0.025
       0.032
       0.033
       0.022
       0.000
      -0.031
      -0.061
      -0.079
      -0.079
      -0.065
      -0.046
      -0.026
      -0.009
       0.010
       0.035
       0.070
       0.105
       0.121
       0.109
       0.079
       0.058
       0.058
       0.068
       0.058
       0.007
      -0.078
      -0.156
      -0.188
      -0.163
      -0.107
      -0.055
      -0.027
      -0.016
      -0.007
       0.015
       0.053
       0.103
       0.150
       0.182
       0.184
       0.149
       0.070
      -0.047
      -0.176
      -0.277
      -0.312
      -0.264
      -0.151
      -0.013
       0.101
       0.159
       0.153
       0.103
       0.048
       0.023
       0.044
       0.092
       0.131
       0.133
       0.108
       0.088
       0.101
       0.144
       0.184
       0.173
       0.081
      -0.090
      -0.304
      -0.498
      -0.605
      -0.574
      -0.397
      -0.132
       0.121
       0.268
       0.265
       0.140
      -0.024
      -0.130
      -0.116
       0.014
       0.204
       0.403
       0.583
       0.728
       0.800
       0.735
       0.492
       0.094
      -0.356
      -0.713
      -0.854
      -0.748
      -0.476
      -0.181
       0.012
       0.057
      -0.021
      -0.162
      -0.314
      -0.448
      -0.542
      -0.559
      -0.448
      -0.186
       0.182
       0.540
       0.755
       0.759
       0.594
       0.389
       0.279
       0.325
       0.487
       0.658
       0.732
       0.655
       0.438
       0.138
      -0.181
      -0.476
      -0.726
      -0.916
      -1.020
      -1.001
      -0.835
      -0.542
      -0.196
       0.091
       0.228
       0.194
       0.046
      -0.112
      -0.182
      -0.114
       0.071
       0.290
       0.441
       0.469
       0.403
       0.327
       0.325
       0.426
       0.582
       0.686
       0.622
       0.347
      -0.066
      -0.462
      -0.702
      -0.749
      -0.685
      -0.641
      -0.692
      -0.793
      -0.793
      -0.562
      -0.109
       0.399
       0.738
       0.769
       0.525
       0.191
      -0.017
       0.015
       0.236
       0.495
       0.659
       0.683
       0.585
       0.405
       0.177
      -0.084
      -0.372
      -0.672
      -0.923
      -1.018
      -0.867
      -0.490
      -0.045
       0.245
       0.237
      -0.022
      -0.314
      -0.393
      -0.168
       0.243
       0.601
       0.709
       0.536
       0.225
      -0.003
      -0.002
       0.200
       0.437
       0.527
       0.398
       0.125
      -0.142
      -0.289
      -0.303
      -0.253
      -0.210
      -0.200
      -0.202
      -0.187
      -0.140
      -0.085
      -0.093
      -0.240
      -0.528
      -0.830
      -0.934
      -0.684
      -0.098
       0.607
       1.125
       1.231
       0.922
       0.423
       0.030
      -0.082
       0.045
       0.228
       0.284
       0.159
      -0.061
      -0.232
      -0.275
      -0.223
      -0.182
      -0.236
      -0.390
      -0.584
      -0.723
      -0.706
      -0.460
       0.001
       0.547
       0.971
       1.100
       0.889
       0.439
      -0.060
      -0.442
      -0.640
      -0.691
      -0.672
      -0.623
      -0.516
      -0.307
       0.002
       0.343
       0.623
       0.783
       0.811
       0.727
       0.564
       0.382
       0.254
       0.213
       0.208
       0.138
      -0.068
      -0.396
      -0.755
      -1.042
      -1.196
      -1.216
      -1.131
      -0.938
      -0.595
      -0.085
       0.502
       0.971
       1.136
       0.958
       0.579
       0.232
       0.093
       0.181
       0.381
       0.538
       0.574
       0.504
       0.385
       0.253
       0.111
      -0.051
      -0.226
      -0.401
      -0.563
      -0.703
      -0.805
      -0.845
      -0.801
      -0.668
      -0.467
      -0.225
       0.042
       0.324
       0.597
       0.806
       0.892
       0.826
       0.639
       0.419
       0.259
       0.204
       0.216
       0.205
       0.105
      -0.095
      -0.361
      -0.645
      -0.895
      -1.048
      -1.055
      -0.913
      -0.672
      -0.399
      -0.136
       0.101
       0.312
       0.487
       0.619
       0.728
       0.864
       1.071
       1.324
       1.524
       1.541
       1.269
       0.682
      -0.150
      -1.061
      -1.836
      -2.282
      -2.299
      -1.913
      -1.275
      -0.614
      -0.143
       0.055
       0.085
       0.165
       0.448
       0.882
       1.223
       1.226
       0.846
       0.296
      -0.101
      -0.151
       0.088
       0.368
       0.464
       0.326
       0.101
      -0.008
       0.093
       0.312
       0.429
       0.257
      -0.216
      -0.796
      -1.205
      -1.262
      -0.991
      -0.571
      -0.190
       0.075
       0.273
       0.486
       0.736
       0.957
       1.051
       0.965
       0.744
       0.488
       0.260
       0.012
      -0.377
      -0.960
      -1.615
      -2.066
      -2.060
      -1.543
      -0.709
       0.131
       0.735
       1.045
       1.163
       1.228
       1.311
       1.380
       1.337
       1.090
       0.599
      -0.093
      -0.857
      -1.494
      -1.801
      -1.655
      -1.093
      -0.304
       0.453
       0.976
       1.203
       1.200
       1.071
       0.867
       0.572
       0.150
      -0.384
      -0.941
      -1.384
      -1.581
      -1.464
      -1.069
      -0.539
      -0.072
       0.195
       0.263
       0.260
       0.322
       0.488
       0.701
       0.880
       0.987
       1.029
       0.998
       0.854
       0.545
       0.060
      -0.518
      -1.021
      -1.264
      -1.146
      -0.721
      -0.192
       0.175
       0.200
      -0.110
      -0.556
      -0.867
      -0.862
      -0.537
      -0.041
       0.436
       0.790
       1.056
       1.356
       1.773
       2.236
       2.501
       2.284
       1.431
       0.051
      -1.504
      -2.801
      -3.545
      -3.701
      -3.448
      -3.013
      -2.512
      -1.906
      -1.089
      -0.023
       1.178
       2.289
       3.090
       3.446
       3.314
       2.699
       1.662
       0.363
      -0.934
      -1.938
      -2.441
      -2.386
      -1.838
      -0.896
       0.380
       1.934
       3.606
       5.074
       5.936
       5.888
       4.868
       3.069
       0.844
      -1.432
      -3.465
      -5.083
      -6.216
      -6.872
      -7.111
      -7.029
      -6.713
      -6.193
      -5.422
      -4.291
      -2.679
      -0.503
       2.198
       5.205
       8.125
      10.483
      11.868
      12.067
      11.124
       9.275
       6.812
       3.941
       0.770
      -2.581
      -5.835
      -8.554
     -10.290
     -10.786
     -10.081
      -8.438
      -6.207
      -3.729
      -1.334
       0.653
       1.950
       2.411
       2.099
       1.292
       0.375
      -0.326
      -0.674
      -0.705
      -0.476
       0.063
       1.056
       2.588
       4.536
       6.522
       8.012
       8.521
       7.824
       6.067
       3.683
       1.159
      -1.179
      -3.235
      -5.036
      -6.569
      -7.677
      -8.103
      -7.647
      -6.361
      -4.597
      -2.878
      -1.632
      -0.967
      -0.658
      -0.332
       0.276
       1.190
       2.258
       3.318
       4.304
       5.229
       6.095
       6.835
       7.303
       7.320
       6.733
       5.465
       3.528
       1.029
      -1.808
      -4.642
      -7.059
      -8.693
      -9.359
      -9.100
      -8.140
      -6.749
      -5.136
      -3.429
      -1.728
      -0.153
       1.164
       2.148
       2.815
       3.246
       3.521
       3.684
       3.749
       3.742
       3.715
       3.731
       3.814
       3.914
       3.895
       3.578
       2.814
       1.566
      -0.033
      -1.708
      -3.152
      -4.160
      -4.689
      -4.811
      -4.623
      -4.181
      -3.492
      -2.567
      -1.472
      -0.352
       0.630
       1.376
       1.901
       2.288
       2.595
       2.780
       2.728
       2.353
       1.716
       1.032
       0.558
       0.420
       0.521
       0.617
       0.478
       0.017
      -0.679
      -1.414
      -1.987
      -2.285
      -2.334
      -2.277
      -2.287
      -2.449
      -2.691
      -2.812
      -2.602
      -1.979
      -1.033
       0.038
       1.059
       1.962
       2.778
       3.532
       4.159
       4.507
       4.433
       3.911
       3.048
       1.998
       0.887
      -0.207
      -1.216
      -2.054
      -2.621
      -2.833
      -2.643
      -2.069
      -1.234
      -0.379
       0.188
       0.239
      -0.214
      -0.891
      -1.400
      -1.463
      -1.054
      -0.348
       0.440
       1.176
       1.810
       2.299
       2.548
       2.441
       1.938
       1.132
       0.205
      -0.691
      -1.514
      -2.288
      -2.991
      -3.484
      -3.561
      -3.083
      -2.091
      -0.806
       0.465
       1.478
       2.132
       2.475
       2.630
       2.689
       2.644
       2.395
       1.865
       1.114
       0.348
      -0.201
      -0.423
      -0.379
      -0.233
      -0.137
      -0.143
      -0.209
      -0.268
      -0.311
      -0.417
      -0.693
      -1.186
      -1.826
      -2.443
      -2.838
      -2.870
      -2.509
      -1.828
      -0.953
      -0.003
       0.927
       1.764
       2.437
       2.883
       3.077
       3.048
       2.869
       2.596
       2.210
       1.620
       0.739
      -0.422
      -1.699
      -2.822
      -3.524
      -3.671
      -3.313
      -2.634
      -1.842
      -1.092
      -0.451
       0.078
       0.533
       0.950
       1.328
       1.619
       1.772
       1.774
       1.671
       1.549
       1.487
       1.507
       1.540
       1.457
       1.153
       0.608
      -0.102
      -0.848
      -1.485
      -1.898
      -2.053
      -2.017
      -1.930
      -1.904
      -1.956
      -1.991
      -1.868
      -1.499
      -0.913
      -0.241
       0.366
       0.833
       1.177
       1.465
       1.753
       2.051
       2.334
       2.559
       2.671
       2.608
       2.314
       1.773
       1.048
       0.269
      -0.428
      -0.967
      -1.359
      -1.664
      -1.931
      -2.160
      -2.299
      -2.288
      -2.100
      -1.759
      -1.325
      -0.871
      -0.471
      -0.184
      -0.021
       0.071
       0.189
       0.413
       0.765
       1.186
       1.553
       1.737
       1.679
       1.429
       1.113
       0.852
       0.702
       0.644
       0.614
       0.535
       0.351
       0.054
      -0.302
      -0.622
      -0.820
      -0.877
      -0.856
      -0.863
      -0.958
      -1.094
      -1.136
      -0.960
      -0.538
       0.032
       0.586
       0.983
       1.171
       1.198
       1.147
       1.068
       0.947
       0.733
       0.398
      -0.027
      -0.459
      -0.808
      -1.031
      -1.154
      -1.235
      -1.304
      -1.321
      -1.198
      -0.874
      -0.381
       0.131
       0.462
       0.484
       0.237
      -0.098
      -0.319
      -0.335
      -0.188
       0.016
       0.214
       0.427
       0.714
       1.087
       1.469
       1.735
       1.789
       1.611
       1.243
       0.762
       0.246
      -0.229
      -0.610
      -0.876
      -1.037
      -1.112
      -1.110
      -1.027
      -0.860
      -0.628
      -0.374
      -0.137
       0.063
       0.228
       0.364
       0.462
       0.504
       0.489
       0.445
       0.419
       0.431
       0.456
       0.441
       0.352
       0.200
       0.017
      -0.185
      -0.417
      -0.672
      -0.895
      -1.001
      -0.934
      -0.730
      -0.498
      -0.350
      -0.309
      -0.300
      -0.222
      -0.034
       0.217
       0.453
       0.609
       0.660
       0.613
       0.490
       0.320
       0.125
      -0.083
      -0.297
      -0.491
      -0.613
      -0.599
      -0.404
      -0.049
       0.383
       0.770
       1.003
       1.030
       0.875
       0.630
       0.409
       0.283
       0.233
       0.163
      -0.024
      -0.343
      -0.695
      -0.922
      -0.918
      -0.702
      -0.401
      -0.144
       0.029
       0.155
       0.273
       0.359
       0.351
       0.231
       0.073
       0.001
       0.092
       0.308
       0.512
       0.569
       0.440
