Origin Time       04/09/2008 12:53:21 UTC
Lat.              30.1°N 
Long.             80.4°E 
Depth (Km)         10.0
Magnitude         5.1
 Region           INDIA(UTTARAKHAND)-TIBET-BORDER-REGION                           
 Above details taken from IMD 
    
Station Code      PIT
Station Lat.       29.579  N
Station Long.      80.207  E
Station Height(m) 1538.0
Site Class        A   Vs30 between 700 m/sec to 1400 m/sec * 
Record Time       04.09.2008 12:53:19.299 UTC
Sampling Rate     200. Hz
 Record Duration   76.560 Sec.
 Direction         N-S (N positive)
Max. Acceleration     -5.538 cm/sec**2
     
  * For reference see Site Classification link of website 
     
 Base Line Corrected and Low Pass Filtered (Cut Off at 35 Hz) Time History
 Acceleration data in cm/sec**2
    
[...]
      -0.487
      -0.803
      -1.052
      -1.223
      -1.312
      -1.325
      -1.268
      -1.150
      -0.977
      -0.757
      -0.510
      -0.262
      -0.030
       0.184
       0.388
       0.580
       0.748
       0.868
       0.921
       0.905
       0.836
       0.743
       0.652
       0.572
       0.494
       0.400
       0.274
       0.117
      -0.042
      -0.162
      -0.217
      -0.212
      -0.188
      -0.191
      -0.242
      -0.330
      -0.422
      -0.494
      -0.535
      -0.548
      -0.537
      -0.498
      -0.433
      -0.352
      -0.267
      -0.185
      -0.099
       0.000
       0.118
       0.247
       0.374
       0.475
       0.528
       0.521
       0.450
       0.327
       0.165
      -0.016
      -0.192
      -0.330
      -0.393
      -0.351
      -0.195
       0.054
       0.352
       0.654
       0.926
       1.141
       1.272
       1.286
       1.163
       0.906
       0.552
       0.159
      -0.209
      -0.511
      -0.732
      -0.887
      -0.994
      -1.062
      -1.082
      -1.038
      -0.924
      -0.762
      -0.597
      -0.470
      -0.398
      -0.364
      -0.336
      -0.280
      -0.181
      -0.042
       0.123
       0.289
       0.440
       0.571
       0.687
       0.799
       0.906
       0.989
       1.022
       0.985
       0.877
       0.709
       0.495
       0.248
      -0.020
      -0.289
      -0.536
      -0.746
      -0.918
      -1.054
      -1.159
      -1.233
      -1.271
      -1.266
      -1.209
      -1.090
      -0.898
      -0.633
      -0.312
       0.037
       0.386
       0.712
       0.996
       1.217
       1.363
       1.437
       1.453
       1.428
       1.369
       1.273
       1.135
       0.958
       0.754
       0.546
       0.354
       0.191
       0.056
      -0.063
      -0.186
      -0.332
      -0.513
      -0.726
      -0.957
      -1.182
      -1.374
      -1.505
      -1.550
      -1.491
      -1.332
      -1.090
      -0.799
      -0.497
      -0.213
       0.044
       0.281
       0.509
       0.732
       0.936
       1.103
       1.216
       1.282
       1.321
       1.354
       1.377
       1.354
       1.238
       1.008
       0.678
       0.300
      -0.074
      -0.408
      -0.695
      -0.941
      -1.154
      -1.339
      -1.499
      -1.632
      -1.724
      -1.750
      -1.690
      -1.543
      -1.333
      -1.098
      -0.864
      -0.637
      -0.414
      -0.193
       0.014
       0.192
       0.341
       0.487
       0.668
       0.909
       1.195
       1.478
       1.694
       1.797
       1.778
       1.664
       1.503
       1.332
       1.163
       0.985
       0.776
       0.531
       0.268
       0.022
      -0.175
      -0.312
      -0.405
      -0.483
      -0.570
      -0.671
      -0.769
      -0.833
      -0.836
      -0.769
      -0.649
      -0.508
      -0.374
      -0.261
      -0.167
      -0.087
      -0.018
       0.037
       0.080
       0.126
       0.191
       0.282
       0.379
       0.444
       0.443
       0.365
       0.228
       0.065
      -0.083
      -0.182
      -0.210
      -0.162
      -0.056
       0.075
       0.188
       0.250
       0.240
       0.145
      -0.039
      -0.305
      -0.623
      -0.944
      -1.216
      -1.399
      -1.472
      -1.428
      -1.267
      -0.998
      -0.639
      -0.223
       0.208
       0.607
       0.933
       1.160
       1.281
       1.318
       1.305
       1.279
       1.258
       1.233
       1.183
       1.090
       0.959
       0.804
       0.636
       0.447
       0.217
      -0.074
      -0.424
      -0.803
      -1.158
      -1.437
      -1.604
      -1.651
      -1.606
      -1.513
      -1.413
      -1.321
      -1.222
      -1.075
      -0.837
      -0.476
       0.011
       0.583
       1.158
       1.643
       1.966
       2.105
       2.088
       1.966
       1.779
       1.543
       1.256
       0.917
       0.537
       0.143
      -0.230
      -0.551
      -0.800
      -0.975
      -1.099
      -1.205
      -1.319
      -1.448
      -1.570
      -1.645
      -1.636
      -1.519
      -1.303
      -1.016
      -0.701
      -0.396
      -0.122
       0.127
       0.377
       0.647
       0.931
       1.193
       1.387
       1.485
       1.490
       1.430
       1.347
       1.274
       1.222
       1.174
       1.100
       0.981
       0.823
       0.651
       0.487
       0.330
       0.159
      -0.048
      -0.284
      -0.510
      -0.685
      -0.791
      -0.847
      -0.890
      -0.954
      -1.053
      -1.171
      -1.274
      -1.318
      -1.272
      -1.132
      -0.929
      -0.714
      -0.529
      -0.381
      -0.248
      -0.100
       0.063
       0.215
       0.324
       0.382
       0.409
       0.442
       0.514
       0.643
       0.825
       1.041
       1.250
       1.401
       1.447
       1.360
       1.142
       0.821
       0.432
       0.010
      -0.413
      -0.808
      -1.153
      -1.425
      -1.601
      -1.659
      -1.592
      -1.421
      -1.191
      -0.949
      -0.722
      -0.516
      -0.318
      -0.115
       0.095
       0.310
       0.529
       0.750
       0.961
       1.135
       1.240
       1.253
       1.174
       1.020
       0.807
       0.550
       0.261
      -0.036
      -0.304
      -0.501
      -0.593
      -0.570
      -0.445
      -0.251
      -0.032
       0.162
       0.285
       0.305
       0.214
       0.037
      -0.181
      -0.382
      -0.527
      -0.607
      -0.644
      -0.671
      -0.707
      -0.744
      -0.753
      -0.704
      -0.588
      -0.419
      -0.227
      -0.039
       0.134
       0.289
       0.425
       0.535
       0.610
       0.640
       0.615
       0.539
       0.428
       0.312
       0.227
       0.194
       0.208
       0.242
       0.268
       0.277
       0.282
       0.299
       0.329
       0.354
       0.348
       0.290
       0.174
       0.012
      -0.176
      -0.373
      -0.564
      -0.741
      -0.890
      -0.991
      -1.028
      -0.992
      -0.887
      -0.732
      -0.550
      -0.358
      -0.159
       0.053
       0.278
       0.501
       0.699
       0.851
       0.958
       1.030
       1.080
       1.106
       1.087
       0.998
       0.825
       0.574
       0.262
      -0.088
      -0.451
      -0.799
      -1.100
      -1.322
      -1.443
      -1.454
      -1.366
      -1.198
      -0.963
      -0.668
      -0.315
       0.082
       0.494
       0.882
       1.207
       1.435
       1.546
       1.535
       1.420
       1.234
       1.025
       0.837
       0.695
       0.592
       0.500
       0.388
       0.245
       0.083
      -0.078
      -0.226
      -0.364
      -0.513
      -0.692
      -0.906
      -1.142
      -1.373
      -1.567
      -1.696
      -1.751
      -1.736
      -1.660
      -1.524
      -1.319
      -1.041
      -0.700
      -0.316
       0.091
       0.507
       0.915
       1.293
       1.608
       1.830
       1.936
       1.928
       1.823
       1.646
       1.421
       1.171
       0.914
       0.654
       0.381
       0.077
      -0.266
      -0.645
      -1.045
      -1.442
      -1.805
      -2.102
      -2.308
      -2.412
      -2.422
      -2.349
      -2.197
      -1.960
      -1.623
      -1.181
      -0.650
      -0.071
       0.493
       0.975
       1.324
       1.520
       1.587
       1.577
       1.542
       1.513
       1.487
       1.447
       1.374
       1.266
       1.135
       1.000
       0.876
       0.772
       0.683
       0.596
       0.490
       0.339
       0.129
      -0.133
      -0.422
      -0.706
      -0.958
      -1.174
      -1.366
      -1.546
      -1.709
      -1.826
      -1.858
      -1.772
      -1.563
      -1.248
      -0.865
      -0.458
      -0.063
       0.303
       0.636
       0.932
       1.185
       1.387
       1.531
       1.605
       1.600
       1.512
       1.355
       1.165
       0.976
       0.801
       0.616
       0.380
       0.080
      -0.252
      -0.561
      -0.807
      -0.995
      -1.158
      -1.316
      -1.454
      -1.524
      -1.475
      -1.295
      -1.015
      -0.701
      -0.417
      -0.197
      -0.029
       0.125
       0.305
       0.527
       0.776
       1.016
       1.207
       1.324
       1.360
       1.329
       1.250
       1.143
       1.009
       0.835
       0.598
       0.283
      -0.095
      -0.493
      -0.852
      -1.125
      -1.304
      -1.412
      -1.474
      -1.493
      -1.453
      -1.337
      -1.150
      -0.911
      -0.645
      -0.361
      -0.048
       0.306
       0.708
       1.133
       1.532
       1.844
       2.022
       2.048
       1.934
       1.710
       1.406
       1.038
       0.620
       0.170
      -0.276
      -0.672
      -0.984
      -1.199
      -1.331
      -1.410
      -1.460
      -1.493
      -1.508
      -1.489
      -1.414
      -1.262
      -1.028
      -0.731
      -0.418
      -0.136
       0.091
       0.271
       0.435
       0.609
       0.800
       0.993
       1.163
       1.293
       1.380
       1.425
       1.425
       1.367
       1.234
       1.020
       0.729
       0.385
       0.030
      -0.291
      -0.539
      -0.693
      -0.748
      -0.715
      -0.613
      -0.463
      -0.282
      -0.078
       0.134
       0.328
       0.460
       0.494
       0.417
       0.251
       0.037
      -0.184
      -0.388
      -0.572
      -0.733
      -0.862
      -0.935
      -0.925
      -0.817
      -0.629
      -0.410
      -0.226
      -0.128
      -0.121
      -0.168
      -0.211
      -0.203
      -0.135
      -0.031
       0.076
       0.160
       0.223
       0.280
       0.345
       0.424
       0.510
       0.583
       0.623
       0.614
       0.564
       0.495
       0.432
       0.382
       0.329
       0.235
       0.066
      -0.179
      -0.461
      -0.712
      -0.876
      -0.926
      -0.876
      -0.767
      -0.635
      -0.497
      -0.343
      -0.152
       0.083
       0.339
       0.579
       0.764
       0.877
       0.924
       0.929
       0.913
       0.888
       0.849
       0.777
       0.658
       0.483
       0.263
       0.020
      -0.223
      -0.457
      -0.688
      -0.914
      -1.113
      -1.236
      -1.246
      -1.138
      -0.953
      -0.754
      -0.589
      -0.468
      -0.362
      -0.227
      -0.032
       0.216
       0.484
       0.719
       0.876
       0.938
       0.934
       0.915
       0.923
       0.955
       0.965
       0.884
       0.670
       0.331
      -0.073
      -0.455
      -0.745
      -0.912
      -0.967
      -0.947
      -0.889
      -0.806
      -0.691
      -0.533
      -0.350
      -0.192
      -0.121
      -0.175
      -0.342
      -0.561
      -0.747
      -0.833
      -0.794
      -0.654
      -0.469
      -0.288
      -0.134
       0.003
       0.156
       0.349
       0.574
       0.796
       0.979
       1.107
       1.193
       1.248
       1.275
       1.270
       1.242
       1.223
       1.246
       1.326
       1.440
       1.540
       1.575
       1.509
       1.325
       1.015
       0.569
      -0.007
      -0.684
      -1.408
      -2.109
      -2.727
      -3.226
      -3.589
      -3.807
      -3.872
      -3.768
      -3.491
      -3.051
      -2.481
      -1.824
      -1.128
      -0.432
       0.232
       0.836
       1.347
       1.738
       1.997
       2.136
       2.187
       2.187
       2.161
       2.121
       2.073
       2.030
       2.010
       2.024
       2.061
       2.081
       2.037
       1.898
       1.668
       1.371
       1.036
       0.680
       0.307
      -0.077
      -0.458
      -0.807
      -1.097
      -1.316
      -1.475
      -1.604
      -1.734
      -1.884
      -2.046
      -2.200
      -2.325
      -2.416
      -2.482
      -2.528
      -2.552
      -2.545
      -2.496
      -2.390
      -2.211
      -1.937
      -1.554
      -1.061
      -0.478
       0.164
       0.827
       1.483
       2.113
       2.709
       3.262
       3.766
       4.211
       4.578
       4.837
       4.948
       4.869
       4.575
       4.059
       3.342
       2.463
       1.471
       0.416
      -0.658
      -1.717
      -2.729
      -3.657
      -4.452
      -5.051
      -5.405
      -5.494
      -5.330
      -4.951
      -4.397
      -3.705
      -2.908
      -2.039
      -1.128
      -0.200
       0.722
       1.616
       2.459
       3.218
       3.863
       4.365
       4.696
       4.836
       4.771
       4.499
       4.029
       3.383
       2.579
       1.643
       0.603
      -0.502
      -1.620
      -2.683
      -3.613
      -4.333
      -4.784
      -4.930
      -4.765
      -4.303
      -3.573
      -2.616
      -1.487
      -0.269
       0.933
       2.013
       2.887
       3.511
       3.874
       3.983
       3.857
       3.523
       3.017
       2.381
       1.659
       0.892
       0.120
      -0.616
      -1.284
      -1.868
      -2.369
      -2.784
      -3.103
      -3.307
      -3.383
      -3.337
      -3.182
      -2.933
      -2.591
      -2.150
      -1.602
      -0.952
      -0.222
       0.549
       1.320
       2.052
       2.719
       3.304
       3.797
       4.180
       4.420
       4.472
       4.299
       3.880
       3.216
       2.322
       1.238
       0.028
      -1.217
      -2.407
      -3.466
      -4.345
      -5.006
      -5.414
      -5.538
      -5.367
      -4.915
      -4.227
      -3.354
      -2.344
      -1.246
      -0.113
       0.994
       2.023
       2.938
       3.706
       4.296
       4.673
       4.811
       4.705
       4.382
       3.887
       3.265
       2.551
       1.766
       0.926
       0.051
      -0.824
      -1.644
      -2.334
      -2.815
      -3.035
      -2.991
      -2.727
      -2.310
      -1.801
      -1.251
      -0.705
      -0.212
       0.179
       0.428
       0.518
       0.457
       0.268
      -0.019
      -0.370
      -0.743
      -1.099
      -1.410
      -1.656
      -1.817
      -1.867
      -1.779
      -1.534
      -1.134
      -0.606
       0.014
       0.687
       1.372
       2.022
       2.582
       2.992
       3.210
       3.222
       3.048
       2.730
       2.322
       1.866
       1.390
       0.905
       0.422
      -0.040
      -0.457
      -0.805
      -1.071
      -1.258
      -1.379
      -1.452
      -1.489
      -1.501
      -1.490
      -1.448
      -1.356
      -1.191
      -0.958
      -0.697
      -0.474
      -0.344
      -0.328
      -0.405
      -0.534
      -0.677
      -0.806
      -0.903
      -0.954
      -0.949
      -0.886
      -0.776
      -0.634
      -0.473
      -0.295
      -0.100
       0.113
       0.346
       0.593
       0.849
       1.107
       1.364
       1.619
       1.856
       2.053
       2.177
       2.206
       2.141
       2.006
       1.833
       1.641
       1.420
       1.141
       0.780
       0.333
      -0.177
      -0.712
      -1.226
      -1.677
      -2.035
      -2.275
      -2.378
      -2.331
      -2.134
      -1.812
      -1.417
      -1.014
      -0.664
      -0.400
      -0.224
      -0.112
      -0.043
      -0.002
       0.017
       0.027
       0.052
       0.112
       0.222
       0.384
       0.594
       0.845
       1.116
       1.378
       1.593
       1.728
       1.763
       1.689
       1.506
       1.221
       0.848
       0.413
      -0.055
      -0.526
      -0.974
      -1.363
      -1.650
      -1.795
      -1.772
      -1.578
      -1.231
      -0.768
      -0.238
       0.297
       0.769
       1.112
       1.279
       1.256
       1.066
       0.757
       0.385
      -0.004
      -0.380
      -0.723
      -1.017
      -1.235
      -1.346
      -1.330
      -1.197
      -0.974
      -0.697
      -0.382
      -0.026
       0.378
       0.816
       1.244
       1.601
       1.842
       1.957
       1.960
       1.870
       1.694
       1.435
       1.104
       0.723
       0.322
      -0.071
      -0.435
      -0.754
      -1.014
      -1.197
      -1.293
      -1.298
      -1.222
      -1.081
      -0.894
      -0.684
      -0.477
      -0.292
      -0.139
      -0.030
       0.025
       0.016
      -0.054
      -0.169
      -0.299
      -0.417
      -0.500
      -0.529
      -0.485
      -0.350
      -0.119
       0.189
       0.529
       0.845
       1.092
       1.244
       1.295
       1.260
       1.169
       1.053
       0.937
       0.824
       0.699
       0.539
       0.324
       0.049
      -0.266
      -0.588
      -0.879
      -1.113
      -1.291
      -1.442
      -1.604
      -1.796
      -1.996
      -2.142
      -2.158
      -1.988
      -1.625
      -1.112
      -0.529
       0.043
       0.547
       0.971
       1.329
       1.640
       1.903
       2.096
       2.183
       2.140
       1.969
       1.699
       1.373
       1.028
       0.687
       0.356
       0.036
      -0.275
      -0.573
      -0.845
      -1.076
      -1.254
      -1.378
      -1.450
      -1.473
      -1.442
      -1.345
      -1.172
      -0.938
      -0.681
      -0.452
      -0.282
      -0.168
      -0.082
      -0.001
       0.084
       0.167
       0.240
       0.309
       0.393
       0.516
       0.695
       0.930
       1.205
       1.485
       1.720
       1.861
       1.880
       1.783
       1.604
       1.383
       1.151
       0.907
       0.629
       0.291
      -0.113
      -0.559
      -0.993
      -1.360
      -1.631
      -1.816
      -1.949
      -2.061
      -2.152
      -2.191
      -2.146
      -2.000
      -1.761
      -1.450
      -1.086
      -0.682
      -0.246
       0.216
       0.694
       1.170
       1.619
       2.008
       2.305
       2.487
       2.549
       2.502
       2.364
       2.152
       1.876
       1.535
       1.127
       0.644
       0.086
      -0.524
      -1.136
      -1.690
      -2.130
      -2.425
      -2.567
      -2.569
      -2.449
      -2.224
      -1.913
      -1.531
      -1.094
      -0.611
      -0.092
       0.437
       0.931
       1.343
       1.641
       1.822
       1.907
       1.922
       1.890
       1.820
       1.713
       1.566
       1.373
       1.134
       0.867
       0.599
       0.362
       0.168
       0.007
      -0.146
      -0.312
      -0.499
      -0.700
      -0.893
      -1.050
      -1.155
      -1.216
      -1.257
      -1.303
      -1.360
      -1.409
      -1.411
      -1.335
      -1.169
      -0.933
      -0.657
      -0.366
      -0.071
       0.227
       0.515
       0.770
       0.964
       1.080
       1.118
       1.099
       1.054
       1.011
       0.985
       0.972
       0.949
       0.888
       0.774
       0.614
       0.429
       0.243
       0.069
      -0.089
      -0.230
      -0.358
      -0.474
      -0.585
      -0.694
      -0.802
      -0.895
      -0.954
      -0.952
      -0.873
      -0.716
      -0.500
      -0.257
      -0.017
       0.200
       0.389
       0.549
       0.675
       0.747
       0.738
       0.629
       0.418
       0.127
      -0.209
      -0.552
      -0.872
      -1.153
      -1.384
      -1.555
      -1.650
      -1.654
      -1.564
      -1.384
      -1.126
