Origin Time       04/09/2008 12:53:21
Lat.              30.1°N 
Long.             80.4°E 
Depth (Km)         10.0
Magnitude         5.1
 Region           INDIA(UTTARAKHAND)-TIBET-BORDER-REGION                           
 Above details taken from IMD 
     
Station Code      PIT
Station Lat.       29.579  N
Station Long.      80.207  E
Station Height(m) 1538.0
Site Class        A   Vs30 between 700 m/sec to 1400 m/sec * 
Record Time       04.09.2008 12:53:19.299
Sampling Rate     200. Hz
 Record Duration   76.560 Sec.
 Direction         E-W (E positive)
Max. Acceleration      6.661 cm/sec**2
     
  * For reference see Site Classification link of website 
     
 Base Line Corrected and Low Pass Filtered (Cut Off at 35 Hz) Time History
 Acceleration data in cm/sec**2
    
[...]
       0.541
       0.600
       0.642
       0.640
       0.568
       0.416
       0.209
      -0.006
      -0.178
      -0.283
      -0.335
      -0.367
      -0.400
      -0.430
      -0.430
      -0.371
      -0.243
      -0.064
       0.134
       0.313
       0.445
       0.510
       0.497
       0.408
       0.262
       0.090
      -0.071
      -0.191
      -0.253
      -0.260
      -0.234
      -0.202
      -0.179
      -0.165
      -0.146
      -0.108
      -0.048
       0.025
       0.099
       0.176
       0.269
       0.394
       0.546
       0.693
       0.795
       0.828
       0.796
       0.719
       0.613
       0.481
       0.316
       0.113
      -0.121
      -0.362
      -0.577
      -0.729
      -0.792
      -0.754
      -0.623
      -0.425
      -0.196
       0.025
       0.199
       0.290
       0.274
       0.149
      -0.054
      -0.279
      -0.470
      -0.587
      -0.612
      -0.542
      -0.391
      -0.180
       0.052
       0.264
       0.418
       0.500
       0.521
       0.508
       0.485
       0.460
       0.431
       0.388
       0.326
       0.251
       0.173
       0.105
       0.048
      -0.004
      -0.066
      -0.154
      -0.271
      -0.403
      -0.517
      -0.584
      -0.586
      -0.530
      -0.438
      -0.335
      -0.232
      -0.130
      -0.017
       0.110
       0.244
       0.370
       0.472
       0.540
       0.570
       0.567
       0.548
       0.526
       0.511
       0.507
       0.512
       0.514
       0.494
       0.424
       0.289
       0.090
      -0.148
      -0.394
      -0.623
      -0.817
      -0.964
      -1.047
      -1.052
      -0.972
      -0.816
      -0.609
      -0.385
      -0.173
       0.008
       0.162
       0.306
       0.458
       0.617
       0.755
       0.832
       0.822
       0.724
       0.567
       0.391
       0.231
       0.110
       0.033
      -0.007
      -0.022
      -0.030
      -0.036
      -0.043
      -0.053
      -0.080
      -0.151
      -0.282
      -0.461
      -0.646
      -0.792
      -0.865
      -0.855
      -0.774
      -0.647
      -0.507
      -0.385
      -0.301
      -0.259
      -0.241
      -0.210
      -0.130
       0.012
       0.203
       0.414
       0.611
       0.772
       0.883
       0.935
       0.924
       0.850
       0.729
       0.588
       0.457
       0.353
       0.274
       0.202
       0.111
      -0.011
      -0.164
      -0.330
      -0.485
      -0.610
      -0.696
      -0.742
      -0.746
      -0.707
      -0.627
      -0.511
      -0.367
      -0.207
      -0.043
       0.105
       0.217
       0.277
       0.284
       0.257
       0.231
       0.240
       0.297
       0.392
       0.496
       0.572
       0.586
       0.516
       0.359
       0.134
      -0.125
      -0.376
      -0.585
      -0.726
      -0.793
      -0.787
      -0.716
      -0.591
      -0.424
      -0.233
      -0.034
       0.160
       0.332
       0.468
       0.555
       0.583
       0.552
       0.470
       0.366
       0.278
       0.240
       0.264
       0.333
       0.410
       0.459
       0.456
       0.396
       0.275
       0.093
      -0.140
      -0.392
      -0.609
      -0.737
      -0.752
      -0.661
      -0.493
      -0.275
      -0.030
       0.216
       0.434
       0.592
       0.664
       0.642
       0.534
       0.358
       0.137
      -0.102
      -0.329
      -0.519
      -0.659
      -0.747
      -0.776
      -0.735
      -0.610
      -0.402
      -0.130
       0.167
       0.439
       0.639
       0.742
       0.750
       0.690
       0.600
       0.514
       0.445
       0.377
       0.276
       0.110
      -0.121
      -0.382
      -0.612
      -0.747
      -0.751
      -0.628
      -0.422
      -0.192
       0.006
       0.135
       0.177
       0.137
       0.041
      -0.072
      -0.155
      -0.170
      -0.104
       0.034
       0.213
       0.405
       0.587
       0.736
       0.825
       0.822
       0.713
       0.512
       0.259
       0.013
      -0.171
      -0.257
      -0.234
      -0.120
       0.045
       0.209
       0.322
       0.351
       0.296
       0.183
       0.049
      -0.083
      -0.206
      -0.324
      -0.437
      -0.535
      -0.607
      -0.651
      -0.678
      -0.699
      -0.714
      -0.708
      -0.664
      -0.582
      -0.474
      -0.356
      -0.238
      -0.119
       0.008
       0.148
       0.308
       0.483
       0.661
       0.821
       0.933
       0.973
       0.933
       0.826
       0.678
       0.512
       0.339
       0.167
       0.003
      -0.143
      -0.258
      -0.338
      -0.380
      -0.390
      -0.376
      -0.351
      -0.333
      -0.334
      -0.354
      -0.379
      -0.387
      -0.358
      -0.286
      -0.187
      -0.092
      -0.030
      -0.011
      -0.023
      -0.044
      -0.060
      -0.069
      -0.076
      -0.075
      -0.052
       0.006
       0.102
       0.219
       0.330
       0.409
       0.445
       0.444
       0.420
       0.382
       0.336
       0.286
       0.233
       0.176
       0.106
       0.010
      -0.121
      -0.293
      -0.504
      -0.738
      -0.973
      -1.177
      -1.316
      -1.360
      -1.294
      -1.125
      -0.876
      -0.581
      -0.269
       0.040
       0.338
       0.619
       0.867
       1.050
       1.134
       1.102
       0.971
       0.788
       0.603
       0.449
       0.333
       0.247
       0.186
       0.146
       0.122
       0.097
       0.052
      -0.026
      -0.131
      -0.244
      -0.345
      -0.415
      -0.443
      -0.425
      -0.371
      -0.297
      -0.231
      -0.204
      -0.236
      -0.330
      -0.459
      -0.585
      -0.676
      -0.715
      -0.696
      -0.616
      -0.474
      -0.273
      -0.035
       0.204
       0.405
       0.545
       0.630
       0.679
       0.710
       0.720
       0.698
       0.643
       0.574
       0.522
       0.515
       0.556
       0.621
       0.679
       0.705
       0.688
       0.621
       0.501
       0.323
       0.089
      -0.195
      -0.519
      -0.865
      -1.203
      -1.497
      -1.715
      -1.834
      -1.849
      -1.766
      -1.591
      -1.332
      -1.002
      -0.624
      -0.227
       0.167
       0.543
       0.889
       1.184
       1.405
       1.533
       1.564
       1.503
       1.361
       1.158
       0.923
       0.694
       0.507
       0.380
       0.304
       0.242
       0.160
       0.038
      -0.119
      -0.292
      -0.458
      -0.595
      -0.693
      -0.749
      -0.772
      -0.778
      -0.782
      -0.804
      -0.850
      -0.912
      -0.964
      -0.974
      -0.921
      -0.796
      -0.604
      -0.356
      -0.065
       0.261
       0.608
       0.954
       1.266
       1.504
       1.634
       1.642
       1.536
       1.340
       1.087
       0.806
       0.522
       0.250
       0.002
      -0.217
      -0.413
      -0.599
      -0.785
      -0.968
      -1.125
      -1.214
      -1.192
      -1.031
      -0.740
      -0.363
       0.038
       0.406
       0.704
       0.917
       1.038
       1.067
       1.005
       0.861
       0.645
       0.369
       0.040
      -0.322
      -0.676
      -0.964
      -1.136
      -1.170
      -1.087
      -0.932
      -0.751
      -0.571
      -0.396
      -0.217
      -0.025
       0.182
       0.393
       0.584
       0.726
       0.790
       0.768
       0.671
       0.526
       0.362
       0.198
       0.040
      -0.112
      -0.257
      -0.386
      -0.489
      -0.557
      -0.592
      -0.597
      -0.575
      -0.525
      -0.446
      -0.347
      -0.241
      -0.144
      -0.060
       0.022
       0.115
       0.211
       0.279
       0.274
       0.172
      -0.010
      -0.228
      -0.434
      -0.596
      -0.701
      -0.743
      -0.705
      -0.570
      -0.332
      -0.020
       0.308
       0.589
       0.784
       0.890
       0.929
       0.927
       0.897
       0.835
       0.729
       0.580
       0.407
       0.240
       0.104
       0.001
      -0.083
      -0.167
      -0.256
      -0.345
      -0.431
      -0.518
      -0.612
      -0.705
      -0.768
      -0.768
      -0.693
      -0.557
      -0.389
      -0.215
      -0.048
       0.108
       0.253
       0.383
       0.497
       0.598
       0.693
       0.776
       0.825
       0.819
       0.747
       0.623
       0.476
       0.337
       0.226
       0.144
       0.073
      -0.006
      -0.097
      -0.184
      -0.239
      -0.244
      -0.202
      -0.139
      -0.087
      -0.071
      -0.094
      -0.145
      -0.212
      -0.286
      -0.360
      -0.424
      -0.464
      -0.472
      -0.442
      -0.373
      -0.264
      -0.125
       0.026
       0.161
       0.252
       0.284
       0.262
       0.211
       0.163
       0.147
       0.173
       0.235
       0.315
       0.386
       0.432
       0.443
       0.418
       0.352
       0.244
       0.103
      -0.043
      -0.162
      -0.231
      -0.248
      -0.227
      -0.188
      -0.146
      -0.110
      -0.083
      -0.076
      -0.096
      -0.148
      -0.223
      -0.301
      -0.361
      -0.383
      -0.355
      -0.277
      -0.160
      -0.027
       0.094
       0.177
       0.208
       0.191
       0.147
       0.099
       0.070
       0.071
       0.103
       0.155
       0.213
       0.264
       0.312
       0.361
       0.408
       0.442
       0.448
       0.419
       0.361
       0.283
       0.193
       0.094
      -0.012
      -0.121
      -0.220
      -0.301
      -0.358
      -0.395
      -0.413
      -0.411
      -0.385
      -0.330
      -0.249
      -0.151
      -0.050
       0.038
       0.107
       0.156
       0.194
       0.224
       0.241
       0.236
       0.203
       0.151
       0.103
       0.080
       0.087
       0.117
       0.159
       0.209
       0.264
       0.312
       0.329
       0.294
       0.205
       0.083
      -0.037
      -0.131
      -0.193
      -0.237
      -0.276
      -0.315
      -0.350
      -0.376
      -0.388
      -0.383
      -0.357
      -0.310
      -0.252
      -0.199
      -0.165
      -0.152
      -0.145
      -0.117
      -0.044
       0.081
       0.241
       0.401
       0.519
       0.566
       0.537
       0.452
       0.346
       0.252
       0.183
       0.135
       0.090
       0.031
      -0.049
      -0.137
      -0.217
      -0.274
      -0.305
      -0.320
      -0.334
      -0.353
      -0.365
      -0.354
      -0.307
      -0.225
      -0.118
       0.011
       0.172
       0.369
       0.588
       0.792
       0.933
       0.980
       0.925
       0.783
       0.571
       0.304
       0.002
      -0.298
      -0.542
      -0.685
      -0.710
      -0.632
      -0.490
      -0.328
      -0.194
      -0.120
      -0.114
      -0.158
      -0.213
      -0.243
      -0.232
      -0.191
      -0.154
      -0.147
      -0.178
      -0.227
      -0.263
      -0.260
      -0.207
      -0.111
       0.013
       0.146
       0.270
       0.364
       0.410
       0.396
       0.328
       0.227
       0.121
       0.034
      -0.019
      -0.028
       0.013
       0.105
       0.242
       0.405
       0.565
       0.692
       0.770
       0.793
       0.760
       0.659
       0.476
       0.212
      -0.106
      -0.437
      -0.739
      -0.987
      -1.179
      -1.319
      -1.410
      -1.439
      -1.388
      -1.245
      -1.015
      -0.721
      -0.404
      -0.102
       0.161
       0.380
       0.558
       0.692
       0.772
       0.793
       0.768
       0.730
       0.720
       0.768
       0.879
       1.039
       1.216
       1.375
       1.474
       1.479
       1.366
       1.142
       0.840
       0.509
       0.191
      -0.095
      -0.348
      -0.580
      -0.797
      -1.001
      -1.181
      -1.324
      -1.410
      -1.426
      -1.368
      -1.249
      -1.088
      -0.904
      -0.710
      -0.518
      -0.335
      -0.160
       0.015
       0.198
       0.387
       0.562
       0.697
       0.774
       0.797
       0.790
       0.792
       0.831
       0.917
       1.040
       1.179
       1.313
       1.425
       1.502
       1.534
       1.513
       1.433
       1.293
       1.092
       0.829
       0.497
       0.084
      -0.421
      -1.009
      -1.649
      -2.284
      -2.851
      -3.300
      -3.602
      -3.748
      -3.730
      -3.542
      -3.183
      -2.664
      -2.011
      -1.252
      -0.422
       0.439
       1.284
       2.074
       2.780
       3.386
       3.878
       4.241
       4.455
       4.505
       4.384
       4.099
       3.662
       3.084
       2.377
       1.546
       0.601
      -0.445
      -1.562
      -2.699
      -3.790
      -4.762
      -5.542
      -6.071
      -6.304
      -6.213
      -5.791
      -5.055
      -4.056
      -2.873
      -1.600
      -0.328
       0.874
       1.958
       2.895
       3.666
       4.263
       4.680
       4.910
       4.957
       4.835
       4.575
       4.214
       3.778
       3.275
       2.695
       2.026
       1.265
       0.420
      -0.486
      -1.425
      -2.353
      -3.216
      -3.963
      -4.564
      -5.003
      -5.273
      -5.363
      -5.258
      -4.944
      -4.421
      -3.708
      -2.831
      -1.812
      -0.667
       0.580
       1.886
       3.183
       4.383
       5.401
       6.163
       6.601
       6.661
       6.310
       5.554
       4.446
       3.081
       1.573
       0.030
      -1.458
      -2.820
      -3.997
      -4.938
      -5.601
      -5.951
      -5.973
      -5.673
      -5.078
      -4.229
      -3.180
      -1.996
      -0.757
       0.462
       1.593
       2.589
       3.413
       4.034
       4.427
       4.568
       4.442
       4.046
       3.399
       2.544
       1.548
       0.494
      -0.531
      -1.452
      -2.214
      -2.780
      -3.122
      -3.221
      -3.069
      -2.685
      -2.106
      -1.389
      -0.604
       0.173
       0.872
       1.447
       1.873
       2.139
       2.237
       2.155
       1.887
       1.455
       0.913
       0.331
      -0.220
      -0.691
      -1.041
      -1.243
      -1.280
      -1.164
      -0.935
      -0.649
      -0.357
      -0.079
       0.185
       0.431
       0.638
       0.763
       0.770
       0.653
       0.438
       0.176
      -0.069
      -0.246
      -0.326
      -0.303
      -0.194
      -0.032
       0.147
       0.307
       0.420
       0.476
       0.480
       0.443
       0.375
       0.274
       0.134
      -0.051
      -0.268
      -0.495
      -0.708
      -0.894
      -1.038
      -1.122
      -1.120
      -1.009
      -0.782
      -0.456
      -0.070
       0.334
       0.712
       1.034
       1.274
       1.420
       1.468
       1.424
       1.301
       1.113
       0.871
       0.591
       0.289
      -0.022
      -0.336
      -0.642
      -0.921
      -1.142
      -1.274
      -1.299
      -1.223
      -1.067
      -0.858
      -0.616
      -0.355
      -0.096
       0.138
       0.323
       0.454
       0.536
       0.579
       0.582
       0.544
       0.467
       0.372
       0.285
       0.229
       0.210
       0.215
       0.218
       0.188
       0.098
      -0.066
      -0.293
      -0.548
      -0.776
      -0.928
      -0.964
      -0.867
      -0.638
      -0.305
       0.086
       0.471
       0.785
       0.982
       1.037
       0.957
       0.772
       0.530
       0.284
       0.072
      -0.092
      -0.212
      -0.301
      -0.366
      -0.406
      -0.427
      -0.442
      -0.464
      -0.484
      -0.477
      -0.409
      -0.269
      -0.070
       0.148
       0.340
       0.474
       0.532
       0.509
       0.403
       0.221
      -0.017
      -0.273
      -0.501
      -0.667
      -0.751
      -0.757
      -0.701
      -0.600
      -0.463
      -0.294
      -0.098
       0.112
       0.320
       0.510
       0.677
       0.828
       0.969
       1.092
       1.176
       1.200
       1.152
       1.037
       0.859
       0.615
       0.304
      -0.055
      -0.418
      -0.733
      -0.957
      -1.074
      -1.096
      -1.048
      -0.950
      -0.809
      -0.623
      -0.393
      -0.129
       0.147
       0.397
       0.583
       0.673
       0.651
       0.523
       0.311
       0.057
      -0.184
      -0.351
      -0.398
      -0.306
      -0.100
       0.161
       0.405
       0.572
       0.635
       0.600
       0.496
       0.357
       0.215
       0.084
      -0.032
      -0.148
      -0.272
      -0.405
      -0.524
      -0.598
      -0.599
      -0.525
      -0.400
      -0.267
      -0.166
      -0.119
      -0.120
      -0.139
      -0.135
      -0.082
       0.024
       0.164
       0.312
       0.449
       0.562
       0.636
       0.656
       0.612
       0.511
       0.380
       0.247
       0.129
       0.025
      -0.081
      -0.196
      -0.314
      -0.418
      -0.493
      -0.536
      -0.553
      -0.553
      -0.545
      -0.530
      -0.502
      -0.454
      -0.383
      -0.296
      -0.207
      -0.129
      -0.063
       0.001
       0.082
       0.198
       0.360
       0.570
       0.816
       1.065
       1.262
       1.350
       1.294
       1.100
       0.803
       0.448
       0.073
      -0.300
      -0.654
      -0.969
      -1.221
      -1.385
      -1.443
      -1.385
      -1.215
      -0.948
      -0.622
      -0.281
       0.034
       0.298
       0.499
       0.636
       0.706
       0.718
       0.683
       0.621
       0.553
       0.488
       0.431
       0.379
       0.329
       0.275
       0.201
       0.085
      -0.093
      -0.330
      -0.600
      -0.860
      -1.060
      -1.158
      -1.136
      -1.005
      -0.798
      -0.552
      -0.294
      -0.036
       0.217
       0.467
       0.707
       0.927
       1.111
       1.240
       1.292
       1.251
       1.115
       0.907
       0.661
       0.409
       0.164
      -0.075
      -0.304
      -0.507
      -0.662
      -0.750
      -0.763
      -0.713
      -0.623
      -0.525
      -0.454
      -0.432
      -0.461
      -0.511
      -0.539
      -0.508
      -0.408
      -0.254
      -0.073
       0.112
       0.281
       0.417
       0.502
       0.527
       0.489
       0.402
       0.286
       0.163
       0.045
      -0.060
      -0.145
      -0.197
      -0.198
      -0.134
      -0.004
       0.178
       0.372
       0.524
       0.584
       0.523
       0.342
       0.064
      -0.274
      -0.630
      -0.960
      -1.225
      -1.388
      -1.428
      -1.344
      -1.152
      -0.883
      -0.568
      -0.232
       0.108
       0.442
       0.768
       1.072
       1.329
       1.509
       1.587
       1.552
       1.410
       1.176
       0.880
       0.558
       0.246
      -0.030
      -0.265
      -0.468
      -0.656
      -0.835
      -0.994
      -1.111
      -1.171
      -1.172
      -1.124
      -1.030
      -0.885
      -0.676
      -0.398
      -0.058
       0.324
       0.722
       1.101
       1.422
       1.636
       1.703
       1.609
       1.369
       1.020
       0.607
       0.170
      -0.262
      -0.663
