Origin Time       11/1/2010 5:15:18	 
Lat.              29.7 N	
Long.             80.0 E	
Depth (Km)         15.0
Magnitude         3.9
 Region           PITHORAGARH-UTTRAKHAND                                           
 Above details taken from IMD 
     
Station Code      PIT
Station Lat.       29.579  N
Station Long.      80.207  E
Station Height(m) 1538.0
Site Class        A   Vs30 between 700 m/sec to 1400 m/sec * 
Record Time       11.01.2010 05:15:11.939
Sampling Rate     200. Hz
 Record Duration   67.680 Sec.
 Direction         E-W (E positive)
Max. Acceleration     14.487 cm/sec**2
     
  * For reference see Site Classification link of website 
     
 Base Line Corrected and Low Pass Filtered (Cut Off at 35 Hz) Time History
 Acceleration data in cm/sec**2
    
[...]
      -0.619
      -0.418
      -0.210
      -0.028
       0.139
       0.304
       0.445
       0.517
       0.505
       0.458
       0.441
       0.463
       0.458
       0.363
       0.195
       0.047
      -0.010
       0.004
       0.009
      -0.048
      -0.157
      -0.283
      -0.424
      -0.596
      -0.781
      -0.900
      -0.859
      -0.623
      -0.251
       0.141
       0.448
       0.627
       0.706
       0.751
       0.795
       0.809
       0.719
       0.489
       0.163
      -0.164
      -0.419
      -0.591
      -0.691
      -0.681
      -0.484
      -0.066
       0.473
       0.906
       1.006
       0.696
       0.109
      -0.500
      -0.924
      -1.099
      -1.096
      -1.012
      -0.876
      -0.639
      -0.249
       0.272
       0.806
       1.208
       1.384
       1.317
       1.043
       0.614
       0.095
      -0.420
      -0.821
      -1.024
      -1.019
      -0.874
      -0.668
      -0.427
      -0.108
       0.324
       0.802
       1.151
       1.191
       0.878
       0.362
      -0.102
      -0.320
      -0.283
      -0.160
      -0.152
      -0.317
      -0.515
      -0.534
      -0.294
       0.060
       0.268
       0.176
      -0.141
      -0.458
      -0.575
      -0.448
      -0.175
       0.103
       0.289
       0.351
       0.321
       0.279
       0.309
       0.439
       0.607
       0.679
       0.552
       0.227
      -0.185
      -0.534
      -0.715
      -0.705
      -0.547
      -0.323
      -0.115
       0.020
       0.074
       0.090
       0.123
       0.202
       0.311
       0.406
       0.444
       0.401
       0.276
       0.086
      -0.123
      -0.293
      -0.382
      -0.385
      -0.327
      -0.238
      -0.140
      -0.059
      -0.026
      -0.061
      -0.136
      -0.183
      -0.134
       0.027
       0.246
       0.423
       0.474
       0.385
       0.221
       0.082
       0.023
       0.024
       0.024
       0.000
      -0.004
       0.074
       0.247
       0.450
       0.581
       0.567
       0.387
       0.065
      -0.354
      -0.819
      -1.252
      -1.552
      -1.626
      -1.437
      -1.030
      -0.512
       0.001
       0.423
       0.711
       0.858
       0.896
       0.893
       0.924
       1.023
       1.141
       1.162
       0.982
       0.590
       0.100
      -0.314
      -0.519
      -0.502
      -0.367
      -0.253
      -0.246
      -0.338
      -0.463
      -0.541
      -0.524
      -0.408
      -0.226
      -0.039
       0.089
       0.116
       0.046
      -0.068
      -0.161
      -0.198
      -0.191
      -0.164
      -0.118
      -0.031
       0.119
       0.321
       0.538
       0.716
       0.804
       0.771
       0.617
       0.369
       0.062
      -0.280
      -0.631
      -0.947
      -1.167
      -1.234
      -1.122
      -0.847
      -0.457
      -0.008
       0.441
       0.832
       1.104
       1.217
       1.166
       0.989
       0.744
       0.490
       0.264
       0.072
      -0.099
      -0.264
      -0.426
      -0.565
      -0.651
      -0.660
      -0.598
      -0.504
      -0.426
      -0.388
      -0.373
      -0.347
      -0.288
      -0.189
      -0.037
       0.190
       0.494
       0.821
       1.057
       1.076
       0.818
       0.345
      -0.174
      -0.549
      -0.672
      -0.559
      -0.312
      -0.051
       0.142
       0.226
       0.187
       0.049
      -0.119
      -0.221
      -0.194
      -0.070
       0.028
      -0.022
      -0.212
      -0.379
      -0.319
       0.034
       0.532
       0.919
       1.022
       0.857
       0.555
       0.220
      -0.142
      -0.568
      -1.035
      -1.438
      -1.661
      -1.658
      -1.466
      -1.141
      -0.700
      -0.141
       0.505
       1.141
       1.649
       1.960
       2.075
       2.030
       1.847
       1.519
       1.050
       0.481
      -0.103
      -0.615
      -1.002
      -1.255
      -1.390
      -1.425
      -1.378
      -1.279
      -1.171
      -1.078
      -0.973
      -0.775
      -0.402
       0.160
       0.810
       1.363
       1.647
       1.592
       1.263
       0.800
       0.327
      -0.098
      -0.464
      -0.749
      -0.901
      -0.859
      -0.600
      -0.170
       0.323
       0.754
       1.028
       1.092
       0.922
       0.527
      -0.038
      -0.648
      -1.134
      -1.349
      -1.250
      -0.921
      -0.508
      -0.130
       0.183
       0.464
       0.739
       0.976
       1.093
       1.014
       0.723
       0.288
      -0.166
      -0.510
      -0.669
      -0.648
      -0.518
      -0.372
      -0.269
      -0.219
      -0.196
      -0.169
      -0.130
      -0.092
      -0.067
      -0.040
       0.035
       0.193
       0.417
       0.627
       0.738
       0.724
       0.620
       0.464
       0.242
      -0.104
      -0.595
      -1.154
      -1.614
      -1.801
      -1.632
      -1.151
      -0.493
       0.191
       0.796
       1.279
       1.649
       1.911
       2.034
       1.942
       1.559
       0.879
       0.012
      -0.844
      -1.483
      -1.798
      -1.820
      -1.664
      -1.429
      -1.129
      -0.721
      -0.201
       0.347
       0.784
       1.009
       1.024
       0.917
       0.780
       0.648
       0.504
       0.332
       0.154
       0.012
      -0.082
      -0.173
      -0.318
      -0.525
      -0.721
      -0.793
      -0.685
      -0.445
      -0.187
       0.010
       0.164
       0.343
       0.568
       0.766
       0.819
       0.676
       0.409
       0.153
      -0.014
      -0.135
      -0.312
      -0.585
      -0.873
      -1.025
      -0.944
      -0.654
      -0.290
      -0.006
       0.114
       0.105
       0.089
       0.181
       0.399
       0.644
       0.766
       0.669
       0.384
       0.043
      -0.203
      -0.280
      -0.209
      -0.050
       0.163
       0.422
       0.693
       0.877
       0.850
       0.554
       0.065
      -0.446
      -0.824
      -1.025
      -1.098
      -1.102
      -1.036
      -0.863
      -0.577
      -0.235
       0.080
       0.331
       0.560
       0.833
       1.151
       1.406
       1.443
       1.185
       0.696
       0.121
      -0.412
      -0.848
      -1.175
      -1.384
      -1.469
      -1.455
      -1.393
      -1.299
      -1.111
      -0.731
      -0.126
       0.597
       1.247
       1.679
       1.898
       2.014
       2.105
       2.110
       1.873
       1.299
       0.472
      -0.371
      -1.004
      -1.357
      -1.519
      -1.608
      -1.646
      -1.554
      -1.258
      -0.803
      -0.343
      -0.025
       0.122
       0.182
       0.246
       0.326
       0.359
       0.307
       0.219
       0.197
       0.298
       0.472
       0.594
       0.564
       0.364
       0.067
      -0.209
      -0.343
      -0.264
       0.012
       0.355
       0.566
       0.477
       0.074
      -0.473
      -0.888
      -0.964
      -0.676
      -0.176
       0.334
       0.700
       0.854
       0.772
       0.466
       0.015
      -0.419
      -0.659
      -0.636
      -0.465
      -0.364
      -0.475
      -0.733
      -0.909
      -0.800
      -0.399
       0.105
       0.480
       0.627
       0.621
       0.619
       0.732
       0.967
       1.246
       1.451
       1.471
       1.232
       0.745
       0.109
      -0.535
      -1.068
      -1.425
      -1.580
      -1.526
      -1.281
      -0.927
      -0.601
      -0.424
      -0.400
      -0.384
      -0.198
       0.209
       0.687
       0.996
       1.006
       0.780
       0.486
       0.221
      -0.053
      -0.413
      -0.824
      -1.105
      -1.054
      -0.618
       0.047
       0.678
       1.075
       1.195
       1.116
       0.927
       0.667
       0.348
       0.011
      -0.265
      -0.413
      -0.445
      -0.434
      -0.441
      -0.443
      -0.346
      -0.070
       0.366
       0.834
       1.155
       1.183
       0.878
       0.315
      -0.347
      -0.926
      -1.277
      -1.354
      -1.222
      -1.030
      -0.920
      -0.918
      -0.902
      -0.688
      -0.186
       0.499
       1.130
       1.500
       1.558
       1.387
       1.095
       0.739
       0.343
      -0.044
      -0.337
      -0.486
      -0.544
      -0.629
      -0.799
      -0.959
      -0.917
      -0.545
       0.090
       0.752
       1.182
       1.262
       1.056
       0.729
       0.416
       0.142
      -0.142
      -0.465
      -0.768
      -0.931
      -0.875
      -0.650
      -0.416
      -0.325
      -0.391
      -0.482
      -0.443
      -0.245
      -0.009
       0.111
       0.070
      -0.027
      -0.026
       0.150
       0.437
       0.694
       0.809
       0.782
       0.698
       0.659
       0.697
       0.765
       0.783
       0.704
       0.531
       0.288
      -0.012
      -0.368
      -0.751
      -1.082
      -1.255
      -1.187
      -0.883
      -0.442
      -0.017
       0.254
       0.312
       0.183
      -0.053
      -0.299
      -0.459
      -0.462
      -0.305
      -0.076
       0.071
       0.011
      -0.254
      -0.595
      -0.840
      -0.916
      -0.892
      -0.918
      -1.082
      -1.325
      -1.474
      -1.373
      -0.997
      -0.468
       0.029
       0.360
       0.508
       0.565
       0.660
       0.872
       1.193
       1.564
       1.931
       2.264
       2.545
       2.749
       2.865
       2.922
       2.975
       3.056
       3.129
       3.115
       2.944
       2.610
       2.157
       1.615
       0.973
       0.193
      -0.724
      -1.717
      -2.712
      -3.684
      -4.667
      -5.689
      -6.686
      -7.495
      -7.926
      -7.860
      -7.293
      -6.316
      -5.056
      -3.637
      -2.158
      -0.685
       0.766
       2.225
       3.729
       5.243
       6.618
       7.628
       8.093
       8.010
       7.565
       7.012
       6.510
       6.022
       5.371
       4.388
       3.046
       1.488
      -0.056
      -1.411
      -2.532
      -3.504
      -4.470
      -5.540
      -6.727
      -7.916
      -8.881
      -9.382
      -9.287
      -8.624
      -7.527
      -6.095
      -4.329
      -2.210
       0.171
       2.546
       4.563
       5.961
       6.705
       6.977
       7.030
       7.034
       7.014
       6.900
       6.614
       6.106
       5.339
       4.297
       3.006
       1.560
       0.085
      -1.312
      -2.577
      -3.692
      -4.632
      -5.341
      -5.756
      -5.856
      -5.695
      -5.381
      -4.996
      -4.535
      -3.919
      -3.074
      -2.024
      -0.906
       0.109
       0.917
       1.525
       2.020
       2.471
       2.870
       3.135
       3.209
       3.161
       3.199
       3.528
       4.159
       4.804
       4.991
       4.340
       2.809
       0.735
      -1.362
      -3.057
      -4.186
      -4.814
      -5.058
      -4.955
      -4.465
      -3.577
      -2.387
      -1.082
       0.132
       1.099
       1.720
       1.925
       1.674
       0.992
       0.032
      -0.940
      -1.653
      -1.978
      -1.970
      -1.769
      -1.434
      -0.866
       0.110
       1.563
       3.342
       5.132
       6.615
       7.591
       7.983
       7.770
       6.954
       5.571
       3.723
       1.573
      -0.700
      -2.912
      -4.887
      -6.456
      -7.515
      -8.082
      -8.300
      -8.349
      -8.313
      -8.111
      -7.550
      -6.446
      -4.762
      -2.656
      -0.419
       1.672
       3.484
       5.025
       6.312
       7.256
       7.681
       7.466
       6.660
       5.468
       4.130
       2.815
       1.596
       0.494
      -0.450
      -1.164
      -1.596
      -1.779
      -1.836
      -1.907
      -2.059
      -2.261
      -2.432
      -2.510
      -2.483
      -2.353
      -2.076
      -1.555
      -0.715
       0.388
       1.544
       2.484
       3.018
       3.122
       2.911
       2.528
       2.037
       1.393
       0.497
      -0.681
      -2.023
      -3.275
      -4.156
      -4.488
      -4.265
      -3.601
      -2.619
      -1.376
       0.122
       1.814
       3.486
       4.786
       5.365
       5.053
       3.949
       2.371
       0.726
      -0.637
      -1.519
      -1.886
      -1.815
      -1.413
      -0.767
       0.026
       0.821
       1.421
       1.665
       1.527
       1.140
       0.686
       0.250
      -0.249
      -0.960
      -1.939
      -3.065
      -4.110
      -4.894
      -5.377
      -5.609
      -5.602
      -5.255
      -4.414
      -3.008
      -1.136
       0.968
       3.035
       4.852
       6.283
       7.237
       7.647
       7.477
       6.763
       5.632
       4.269
       2.842
       1.438
       0.059
      -1.289
      -2.500
      -3.364
      -3.688
      -3.474
      -2.959
      -2.487
      -2.284
      -2.345
      -2.505
      -2.595
      -2.534
      -2.293
      -1.825
      -1.057
       0.042
       1.357
       2.615
       3.492
       3.772
       3.453
       2.728
       1.840
       0.946
       0.074
      -0.784
      -1.552
      -2.021
      -1.945
      -1.218
       0.021
       1.448
       2.732
       3.670
       4.168
       4.118
       3.342
       1.680
      -0.847
      -3.932
      -7.037
      -9.579
     -11.139
     -11.569
     -10.941
      -9.384
      -6.973
      -3.751
       0.130
       4.314
       8.282
      11.519
      13.650
      14.487
      13.998
      12.300
       9.685
       6.632
       3.723
       1.454
       0.029
      -0.709
      -1.168
      -1.761
      -2.712
      -4.013
      -5.521
      -7.063
      -8.482
      -9.624
     -10.338
     -10.496
     -10.032
      -8.956
      -7.344
      -5.323
      -3.059
      -0.740
       1.438
       3.304
       4.752
       5.755
       6.360
       6.652
       6.717
       6.639
       6.509
       6.426
       6.450
       6.546
       6.568
       6.336
       5.741
       4.812
       3.673
       2.416
       1.020
      -0.614
      -2.535
      -4.633
      -6.643
      -8.252
      -9.218
      -9.443
      -8.967
      -7.917
      -6.470
      -4.833
      -3.239
      -1.913
      -1.008
      -0.536
      -0.352
      -0.215
       0.094
       0.655
       1.398
       2.192
       2.963
       3.746
       4.610
       5.540
       6.384
       6.898
       6.866
       6.191
       4.929
       3.242
       1.338
      -0.593
      -2.391
      -3.936
      -5.126
      -5.873
      -6.113
      -5.826
      -5.071
      -4.000
      -2.827
      -1.774
      -0.987
      -0.494
      -0.204
       0.040
       0.392
       0.961
       1.797
       2.876
       4.091
       5.252
       6.138
       6.566
       6.449
       5.789
       4.631
       3.034
       1.095
      -1.007
      -3.017
      -4.672
      -5.790
      -6.311
      -6.260
      -5.692
      -4.673
      -3.323
      -1.865
      -0.596
       0.242
       0.589
       0.593
       0.498
       0.494
       0.629
       0.838
       1.024
       1.136
       1.185
       1.224
       1.297
       1.407
       1.507
       1.519
       1.361
       0.986
       0.421
      -0.227
      -0.798
      -1.152
      -1.236
      -1.104
      -0.882
      -0.698
      -0.632
      -0.679
      -0.774
      -0.827
      -0.771
      -0.588
      -0.300
       0.042
       0.367
       0.603
       0.708
       0.711
       0.709
       0.804
       1.007
       1.207
       1.228
       0.958
       0.430
      -0.198
      -0.742
      -1.090
      -1.230
      -1.204
      -1.044
      -0.743
      -0.296
       0.257
       0.814
       1.253
       1.486
       1.482
       1.252
       0.832
       0.284
      -0.296
      -0.769
      -1.000
      -0.914
      -0.551
      -0.045
       0.447
       0.808
       0.986
       0.984
       0.841
       0.615
       0.371
       0.171
       0.056
       0.028
       0.035
      -0.021
      -0.244
      -0.684
      -1.298
      -1.940
      -2.424
      -2.597
      -2.396
      -1.850
      -1.048
      -0.101
       0.877
       1.786
       2.542
       3.069
       3.295
       3.166
       2.662
       1.832
       0.798
      -0.273
      -1.225
      -1.976
      -2.525
      -2.917
      -3.162
      -3.208
      -2.980
      -2.455
      -1.719
      -0.929
      -0.231
       0.321
       0.767
       1.190
       1.642
       2.111
       2.531
       2.822
       2.910
       2.749
       2.317
       1.642
       0.803
      -0.069
      -0.841
      -1.424
      -1.797
      -1.988
      -2.018
      -1.887
      -1.590
      -1.171
      -0.728
      -0.377
      -0.171
      -0.068
       0.029
       0.187
       0.382
       0.527
       0.556
       0.482
       0.402
       0.420
       0.575
       0.817
       1.041
       1.150
       1.095
       0.880
       0.536
       0.112
      -0.321
      -0.667
      -0.842
      -0.827
      -0.692
      -0.565
      -0.557
      -0.694
      -0.915
      -1.128
      -1.265
      -1.312
      -1.297
      -1.243
      -1.134
      -0.911
      -0.513
       0.078
       0.824
       1.635
       2.388
       2.938
       3.156
       2.984
       2.476
       1.781
       1.062
       0.423
      -0.114
      -0.558
      -0.897
      -1.099
      -1.154
      -1.096
      -0.982
      -0.854
      -0.734
      -0.653
      -0.671
      -0.849
      -1.197
      -1.648
      -2.084
      -2.383
      -2.452
      -2.240
      -1.746
      -1.008
      -0.095
       0.904
       1.886
       2.726
       3.291
       3.473
       3.249
       2.705
       1.995
       1.274
       0.631
       0.090
      -0.344
      -0.638
      -0.740
      -0.634
      -0.391
      -0.152
      -0.049
      -0.119
      -0.294
      -0.469
      -0.583
      -0.667
      -0.803
      -1.054
      -1.410
      -1.783
      -2.054
      -2.124
      -1.955
      -1.586
      -1.096
      -0.560
      -0.019
       0.507
       0.992
       1.392
       1.670
       1.833
       1.945
       2.079
       2.252
       2.394
       2.390
       2.155
       1.704
       1.133
       0.544
      -0.027
      -0.595
      -1.169
      -1.686
      -2.025
      -2.089
      -1.873
      -1.478
      -1.043
      -0.675
      -0.415
      -0.262
      -0.204
      -0.232
      -0.331
      -0.473
      -0.622
      -0.735
      -0.763
      -0.662
      -0.409
      -0.023
       0.431
       0.861
       1.181
       1.335
       1.312
       1.149
       0.906
       0.645
       0.413
       0.240
       0.153
       0.167
       0.268
       0.406
       0.520
       0.572
       0.557
       0.485
       0.355
       0.153
      -0.123
      -0.441
      -0.730
      -0.912
      -0.944
      -0.849
      -0.703
      -0.590
      -0.550
      -0.557
      -0.541
      -0.447
      -0.278
      -0.098
       0.007
      -0.006
      -0.118
      -0.260
      -0.359
      -0.372
      -0.291
      -0.127
       0.100
       0.369
       0.648
       0.893
       1.045
       1.049
       0.884
       0.585
       0.246
      -0.017
      -0.124
      -0.079
       0.048
       0.164
       0.210
       0.181
       0.106
       0.022
