Origin Time       19/08/2008 10:54:26 UTC
Lat.              30.1°N 
Long.             80.1°E 
Depth (Km)         15.0
Magnitude         4.3
 Region           PITHORAGARH                                                      
 Above details taken from IMD 
    
Station Code      PIT
Station Lat.       29.579  N
Station Long.      80.207  E
Station Height(m) 1538.0
Site Class        A   Vs30 between 700 m/sec to 1400 m/sec * 
Record Time       19.08.2008 10:54:28.399 UTC
Sampling Rate     200. Hz
 Record Duration   66.060 Sec.
 Direction         N-S (N positive)
Max. Acceleration      4.494 cm/sec**2
     
  * For reference see Site Classification link of website 
     
 Base Line Corrected and Low Pass Filtered (Cut Off at 35 Hz) Time History
 Acceleration data in cm/sec**2
    
[...]
      -0.204
      -0.056
       0.052
       0.102
       0.094
       0.047
      -0.010
      -0.053
      -0.068
      -0.056
      -0.016
       0.052
       0.137
       0.218
       0.273
       0.293
       0.278
       0.227
       0.137
       0.013
      -0.115
      -0.202
      -0.214
      -0.146
      -0.033
       0.077
       0.143
       0.146
       0.088
      -0.010
      -0.107
      -0.157
      -0.134
      -0.052
       0.039
       0.086
       0.069
       0.014
      -0.031
      -0.028
       0.024
       0.096
       0.147
       0.142
       0.070
      -0.054
      -0.184
      -0.263
      -0.251
      -0.154
      -0.019
       0.097
       0.158
       0.168
       0.154
       0.142
       0.142
       0.145
       0.130
       0.075
      -0.026
      -0.159
      -0.295
      -0.397
      -0.434
      -0.389
      -0.264
      -0.086
       0.102
       0.245
       0.309
       0.287
       0.208
       0.126
       0.090
       0.114
       0.169
       0.201
       0.175
       0.103
       0.031
       0.005
       0.032
       0.080
       0.099
       0.063
      -0.016
      -0.097
      -0.148
      -0.165
      -0.163
      -0.157
      -0.147
      -0.125
      -0.094
      -0.073
      -0.085
      -0.142
      -0.224
      -0.280
      -0.254
      -0.125
       0.077
       0.275
       0.387
       0.370
       0.256
       0.127
       0.062
       0.082
       0.144
       0.171
       0.106
      -0.064
      -0.294
      -0.499
      -0.587
      -0.496
      -0.241
       0.081
       0.336
       0.421
       0.330
       0.156
       0.029
       0.024
       0.118
       0.214
       0.217
       0.105
      -0.068
      -0.212
      -0.263
      -0.216
      -0.116
      -0.033
      -0.019
      -0.090
      -0.211
      -0.318
      -0.344
      -0.257
      -0.074
       0.148
       0.341
       0.456
       0.480
       0.437
       0.371
       0.318
       0.288
       0.257
       0.187
       0.058
      -0.106
      -0.250
      -0.325
      -0.324
      -0.287
      -0.267
      -0.287
      -0.332
      -0.361
      -0.346
      -0.292
      -0.231
      -0.187
      -0.157
      -0.115
      -0.036
       0.085
       0.234
       0.393
       0.542
       0.663
       0.735
       0.736
       0.651
       0.491
       0.289
       0.092
      -0.065
      -0.174
      -0.250
      -0.314
      -0.377
      -0.432
      -0.465
      -0.461
      -0.420
      -0.348
      -0.266
      -0.196
      -0.153
      -0.131
      -0.108
      -0.068
      -0.014
       0.033
       0.062
       0.086
       0.131
       0.215
       0.323
       0.414
       0.446
       0.409
       0.326
       0.239
       0.182
       0.170
       0.197
       0.239
       0.256
       0.202
       0.060
      -0.146
      -0.352
      -0.490
      -0.529
      -0.485
      -0.399
      -0.304
      -0.209
      -0.112
      -0.017
       0.068
       0.142
       0.208
       0.261
       0.270
       0.198
       0.037
      -0.170
      -0.336
      -0.382
      -0.290
      -0.121
       0.033
       0.118
       0.141
       0.154
       0.194
       0.259
       0.313
       0.319
       0.263
       0.160
       0.042
      -0.062
      -0.130
      -0.154
      -0.142
      -0.117
      -0.104
      -0.109
      -0.117
      -0.100
      -0.046
       0.034
       0.107
       0.137
       0.112
       0.048
      -0.024
      -0.079
      -0.105
      -0.105
      -0.094
      -0.089
      -0.105
      -0.138
      -0.166
      -0.152
      -0.073
       0.060
       0.207
       0.309
       0.326
       0.250
       0.110
      -0.040
      -0.144
      -0.163
      -0.096
       0.028
       0.164
       0.272
       0.328
       0.324
       0.272
       0.198
       0.131
       0.083
       0.040
      -0.019
      -0.107
      -0.212
      -0.313
      -0.392
      -0.441
      -0.460
      -0.453
      -0.425
      -0.381
      -0.322
      -0.239
      -0.119
       0.036
       0.194
       0.303
       0.324
       0.263
       0.169
       0.112
       0.134
       0.232
       0.357
       0.445
       0.450
       0.364
       0.215
       0.055
      -0.061
      -0.097
      -0.063
      -0.003
       0.037
       0.038
       0.021
       0.021
       0.052
       0.101
       0.129
       0.103
       0.018
      -0.101
      -0.213
      -0.287
      -0.314
      -0.296
      -0.247
      -0.187
      -0.143
      -0.140
      -0.173
      -0.208
      -0.199
      -0.127
      -0.015
       0.090
       0.150
       0.165
       0.164
       0.171
       0.193
       0.216
       0.223
       0.206
       0.175
       0.144
       0.121
       0.104
       0.085
       0.068
       0.055
       0.045
       0.026
      -0.019
      -0.103
      -0.221
      -0.341
      -0.418
      -0.418
      -0.338
      -0.217
      -0.104
      -0.030
       0.009
       0.039
       0.072
       0.104
       0.118
       0.118
       0.128
       0.167
       0.226
       0.269
       0.263
       0.213
       0.162
       0.154
       0.197
       0.256
       0.280
       0.240
       0.145
       0.028
      -0.084
      -0.179
      -0.257
      -0.311
      -0.330
      -0.311
      -0.273
      -0.251
      -0.268
      -0.317
      -0.353
      -0.326
      -0.224
      -0.079
       0.048
       0.118
       0.140
       0.159
       0.214
       0.312
       0.419
       0.491
       0.498
       0.429
       0.290
       0.092
      -0.135
      -0.344
      -0.477
      -0.487
      -0.377
      -0.198
      -0.027
       0.085
       0.135
       0.145
       0.139
       0.127
       0.118
       0.130
       0.177
       0.246
       0.302
       0.315
       0.280
       0.219
       0.149
       0.071
      -0.027
      -0.141
      -0.238
      -0.288
      -0.294
      -0.297
      -0.340
      -0.431
      -0.524
      -0.547
      -0.457
      -0.274
      -0.073
       0.068
       0.118
       0.110
       0.113
       0.178
       0.301
       0.428
       0.498
       0.480
       0.397
       0.294
       0.208
       0.145
       0.098
       0.063
       0.043
       0.034
       0.013
      -0.051
      -0.167
      -0.305
      -0.409
      -0.441
      -0.397
      -0.307
      -0.201
      -0.095
       0.008
       0.105
       0.189
       0.250
       0.283
       0.292
       0.279
       0.249
       0.200
       0.141
       0.086
       0.052
       0.048
       0.065
       0.084
       0.087
       0.066
       0.022
      -0.048
      -0.151
      -0.284
      -0.412
      -0.480
      -0.448
      -0.326
      -0.176
      -0.068
      -0.034
      -0.054
      -0.072
      -0.048
       0.016
       0.080
       0.103
       0.076
       0.029
       0.001
       0.017
       0.080
       0.175
       0.279
       0.367
       0.416
       0.406
       0.333
       0.213
       0.084
      -0.012
      -0.051
      -0.046
      -0.038
      -0.067
      -0.138
      -0.215
      -0.247
      -0.201
      -0.099
      -0.008
       0.010
      -0.060
      -0.170
      -0.249
      -0.257
      -0.209
      -0.145
      -0.090
      -0.038
       0.024
       0.088
       0.129
       0.143
       0.161
       0.223
       0.329
       0.416
       0.397
       0.240
       0.007
      -0.187
      -0.256
      -0.205
      -0.106
      -0.029
       0.008
       0.032
       0.062
       0.086
       0.078
       0.031
      -0.028
      -0.068
      -0.080
      -0.078
      -0.081
      -0.093
      -0.109
      -0.127
      -0.154
      -0.183
      -0.185
      -0.128
      -0.015
       0.097
       0.126
       0.027
      -0.173
      -0.368
      -0.437
      -0.307
      -0.005
       0.354
       0.627
       0.723
       0.645
       0.480
       0.326
       0.236
       0.196
       0.158
       0.082
      -0.047
      -0.212
      -0.375
      -0.488
      -0.513
      -0.435
      -0.278
      -0.095
       0.056
       0.144
       0.171
       0.157
       0.126
       0.092
       0.069
       0.063
       0.067
       0.052
      -0.002
      -0.093
      -0.178
      -0.202
      -0.137
      -0.004
       0.129
       0.199
       0.185
       0.125
       0.084
       0.103
       0.169
       0.218
       0.177
       0.017
      -0.215
      -0.421
      -0.508
      -0.458
      -0.336
      -0.242
      -0.233
      -0.278
      -0.278
      -0.149
       0.119
       0.449
       0.722
       0.837
       0.761
       0.540
       0.275
       0.065
      -0.042
      -0.072
      -0.087
      -0.147
      -0.257
      -0.374
      -0.430
      -0.380
      -0.241
      -0.080
       0.018
       0.008
      -0.086
      -0.187
      -0.220
      -0.152
      -0.008
       0.149
       0.257
       0.283
       0.232
       0.145
       0.079
       0.070
       0.114
       0.161
       0.152
       0.058
      -0.098
      -0.254
      -0.338
      -0.310
      -0.184
      -0.015
       0.132
       0.220
       0.248
       0.246
       0.246
       0.257
       0.259
       0.212
       0.093
      -0.082
      -0.266
      -0.411
      -0.495
      -0.522
      -0.501
      -0.438
      -0.336
      -0.206
      -0.067
       0.059
       0.167
       0.267
       0.371
       0.476
       0.547
       0.538
       0.421
       0.212
      -0.029
      -0.227
      -0.322
      -0.299
      -0.186
      -0.039
       0.087
       0.162
       0.178
       0.132
       0.017
      -0.165
      -0.380
      -0.554
      -0.612
      -0.520
      -0.305
      -0.036
       0.213
       0.389
       0.472
       0.474
       0.426
       0.363
       0.311
       0.270
       0.217
       0.130
       0.008
      -0.118
      -0.207
      -0.229
      -0.192
      -0.136
      -0.101
      -0.101
      -0.112
      -0.111
      -0.101
      -0.122
      -0.206
      -0.334
      -0.435
      -0.422
      -0.257
       0.018
       0.309
       0.524
       0.618
       0.602
       0.510
       0.369
       0.200
       0.024
      -0.133
      -0.256
      -0.348
      -0.411
      -0.433
      -0.390
      -0.272
      -0.105
       0.055
       0.156
       0.184
       0.170
       0.154
       0.149
       0.132
       0.064
      -0.057
      -0.192
      -0.280
      -0.282
      -0.213
      -0.139
      -0.132
      -0.217
      -0.347
      -0.432
      -0.401
      -0.249
      -0.043
       0.138
       0.248
       0.299
       0.325
       0.349
       0.363
       0.340
       0.262
       0.140
       0.013
      -0.066
      -0.068
      -0.011
       0.045
       0.038
      -0.055
      -0.201
      -0.331
      -0.385
      -0.340
      -0.209
      -0.027
       0.168
       0.337
       0.452
       0.514
       0.557
       0.613
       0.670
       0.670
       0.559
       0.339
       0.081
      -0.122
      -0.219
      -0.227
      -0.215
      -0.249
      -0.349
      -0.473
      -0.542
      -0.491
      -0.314
      -0.076
       0.119
       0.181
       0.083
      -0.125
      -0.345
      -0.471
      -0.435
      -0.236
       0.048
       0.296
       0.395
       0.310
       0.111
      -0.066
      -0.099
       0.044
       0.285
       0.494
       0.576
       0.528
       0.419
       0.331
       0.308
       0.341
       0.396
       0.430
       0.409
       0.305
       0.118
      -0.110
      -0.315
      -0.447
      -0.514
      -0.564
      -0.645
      -0.768
      -0.902
      -1.010
      -1.071
      -1.085
      -1.060
      -0.994
      -0.879
      -0.718
      -0.543
      -0.399
      -0.309
      -0.244
      -0.141
       0.057
       0.359
       0.719
       1.061
       1.322
       1.472
       1.524
       1.511
       1.460
       1.373
       1.229
       0.996
       0.664
       0.268
      -0.128
      -0.462
      -0.696
      -0.826
      -0.873
      -0.855
      -0.769
      -0.593
      -0.303
       0.078
       0.461
       0.717
       0.744
       0.530
       0.171
      -0.190
      -0.446
      -0.588
      -0.686
      -0.818
      -1.006
      -1.209
      -1.356
      -1.394
      -1.297
      -1.062
      -0.686
      -0.174
       0.441
       1.083
       1.646
       2.039
       2.212
       2.170
       1.945
       1.585
       1.138
       0.645
       0.134
      -0.373
      -0.847
      -1.239
      -1.502
      -1.612
      -1.595
      -1.505
      -1.398
      -1.298
      -1.198
      -1.067
      -0.873
      -0.592
      -0.235
       0.143
       0.462
       0.661
       0.746
       0.787
       0.874
       1.048
       1.271
       1.444
       1.480
       1.369
       1.179
       1.009
       0.911
       0.864
       0.794
       0.635
       0.373
       0.052
      -0.265
      -0.552
      -0.835
      -1.166
      -1.562
      -1.976
      -2.310
      -2.474
      -2.435
      -2.228
      -1.919
      -1.564
      -1.172
      -0.721
      -0.181
       0.457
       1.156
       1.835
       2.387
       2.726
       2.824
       2.713
       2.459
       2.133
       1.786
       1.447
       1.127
       0.837
       0.587
       0.372
       0.155
      -0.117
      -0.484
      -0.956
      -1.514
      -2.126
      -2.755
      -3.346
      -3.808
      -4.029
      -3.925
      -3.493
      -2.809
      -1.964
      -1.012
       0.039
       1.169
       2.303
       3.308
       4.048
       4.444
       4.494
       4.257
       3.799
       3.174
       2.417
       1.569
       0.687
      -0.165
      -0.930
      -1.572
      -2.065
      -2.372
      -2.445
      -2.248
      -1.806
      -1.231
      -0.683
      -0.290
      -0.080
       0.011
       0.073
       0.144
       0.184
       0.118
      -0.100
      -0.444
      -0.825
      -1.127
      -1.259
      -1.193
      -0.972
      -0.683
      -0.400
      -0.140
       0.128
       0.421
       0.704
       0.905
       0.980
       0.965
       0.948
       1.002
       1.126
       1.241
       1.251
       1.108
       0.837
       0.507
       0.179
      -0.126
      -0.417
      -0.700
      -0.968
      -1.194
      -1.348
      -1.401
      -1.315
      -1.061
      -0.643
      -0.124
       0.379
       0.738
       0.878
       0.817
       0.648
       0.485
       0.390
       0.347
       0.290
       0.171
       0.013
      -0.107
      -0.119
      -0.017
       0.128
       0.230
       0.254
       0.237
       0.251
       0.348
       0.520
       0.705
       0.816
       0.778
       0.552
       0.153
      -0.347
      -0.845
      -1.243
      -1.489
      -1.591
      -1.598
      -1.563
      -1.510
      -1.427
      -1.289
      -1.071
      -0.763
      -0.378
       0.040
       0.427
       0.722
       0.905
       1.019
       1.152
       1.382
       1.719
       2.073
       2.304
       2.303
       2.058
       1.655
       1.221
       0.868
       0.643
       0.518
       0.406
       0.209
      -0.137
      -0.623
      -1.165
      -1.630
      -1.901
      -1.951
      -1.858
      -1.770
      -1.803
      -1.980
      -2.223
      -2.407
      -2.438
      -2.294
      -2.025
      -1.709
      -1.403
      -1.115
      -0.804
      -0.407
       0.123
       0.794
       1.565
       2.353
       3.054
       3.574
       3.856
       3.902
       3.757
       3.478
       3.102
       2.633
       2.059
       1.370
       0.583
      -0.258
      -1.092
      -1.861
      -2.515
      -3.006
      -3.274
      -3.265
      -2.956
      -2.388
      -1.652
      -0.871
      -0.145
       0.471
       0.966
       1.346
       1.604
       1.717
       1.655
       1.399
       0.965
       0.405
      -0.213
      -0.840
      -1.460
      -2.059
      -2.583
      -2.919
      -2.941
      -2.582
      -1.876
      -0.948
       0.055
       1.015
       1.850
       2.496
       2.903
       3.057
       2.996
       2.787
       2.469
       2.032
       1.440
       0.702
      -0.093
      -0.807
      -1.325
      -1.624
      -1.768
      -1.844
      -1.901
      -1.930
      -1.890
      -1.742
      -1.469
      -1.070
      -0.571
      -0.020
       0.505
       0.928
       1.205
       1.351
       1.409
       1.414
       1.364
       1.229
       0.981
       0.622
       0.198
      -0.209
      -0.504
      -0.623
      -0.567
      -0.402
      -0.216
      -0.067
       0.039
       0.132
       0.233
       0.335
       0.399
       0.379
       0.241
      -0.042
      -0.472
      -1.006
      -1.526
      -1.872
      -1.912
      -1.628
      -1.122
      -0.554
      -0.056
       0.315
       0.567
       0.741
       0.881
       1.022
       1.165
       1.278
       1.313
       1.261
       1.182
       1.171
       1.280
       1.450
       1.531
       1.371
       0.914
       0.235
      -0.512
      -1.187
      -1.720
      -2.098
      -2.327
      -2.404
      -2.328
      -2.128
      -1.857
      -1.566
      -1.266
      -0.920
      -0.480
       0.066
       0.661
       1.207
       1.622
       1.886
       2.028
       2.075
       2.007
       1.774
       1.349
       0.789
       0.220
      -0.231
      -0.508
      -0.645
      -0.708
      -0.722
      -0.650
      -0.437
      -0.079
       0.345
       0.694
       0.844
       0.749
       0.464
       0.099
      -0.243
      -0.521
      -0.757
      -1.002
      -1.280
      -1.559
      -1.764
      -1.814
      -1.671
      -1.363
      -0.975
      -0.607
      -0.307
      -0.037
       0.294
       0.758
       1.337
       1.919
       2.352
       2.530
       2.439
       2.143
       1.744
       1.329
       0.949
       0.617
       0.304
      -0.048
      -0.477
      -0.956
      -1.377
      -1.615
      -1.620
      -1.473
      -1.332
      -1.325
      -1.457
      -1.614
      -1.659
      -1.532
      -1.276
      -0.983
      -0.715
      -0.469
      -0.188
       0.178
       0.631
       1.110
       1.517
       1.759
       1.794
       1.650
       1.420
       1.215
       1.109
       1.107
       1.156
       1.184
       1.139
       1.017
       0.850
       0.688
       0.551
       0.420
       0.252
       0.021
      -0.269
      -0.597
      -0.941
      -1.281
      -1.595
      -1.864
      -2.084
      -2.254
      -2.369
      -2.401
      -2.321
      -2.122
      -1.838
      -1.523
      -1.216
      -0.929
      -0.642
      -0.332
       0.018
       0.416
       0.855
       1.324
       1.800
       2.250
       2.626
       2.879
       2.986
       2.958
       2.829
       2.635
       2.392
       2.095
       1.718
       1.242
       0.669
       0.035
      -0.595
      -1.160
      -1.629
      -2.004
      -2.304
      -2.535
      -2.671
      -2.671
      -2.515
      -2.235
      -1.898
      -1.563
      -1.252
      -0.942
      -0.612
      -0.270
       0.036
       0.251
       0.365
       0.427
       0.520
       0.700
       0.968
       1.280
       1.582
       1.824
       1.963
       1.972
       1.848
       1.617
       1.321
       0.985
       0.622
       0.244
      -0.114
      -0.410
      -0.615
      -0.736
      -0.802
      -0.847
      -0.889
