Origin Time       31/5/2010 11:37:04	
Lat.              30.0 N	
Long.             79.8 E	
Depth (Km)         10.0
Magnitude         3.6
 Region           Almora-UTTRAKHAND                                                
 Above details taken from IMD 
   
Station Code      PIT
Station Lat.       29.579
Station Long.      80.207
Station Height(m) 1538.0
Site Class        A   Vs30 between 700 m/sec to 1400 m/sec * 
Record Time       31.05.2010 11:36:33.024
Sampling Rate     200. Hz
 Record Duration   81.710 Sec.
 Direction         Vert. (Up positive)
Max. Acceleration      6.580 cm/sec**2
     
  * For reference see Site Classification link of website 
     
 Base Line Corrected and Low Pass Filtered (Cut Off at 35 Hz) Time History
 Acceleration data in cm/sec**2
    
[...]
      -0.014
      -0.013
      -0.011
      -0.013
      -0.021
      -0.027
      -0.026
      -0.017
      -0.005
       0.003
       0.004
       0.000
      -0.001
       0.002
       0.006
       0.003
      -0.003
      -0.007
      -0.008
      -0.007
      -0.008
      -0.012
      -0.017
      -0.022
      -0.023
      -0.021
      -0.014
      -0.002
       0.012
       0.019
       0.015
       0.000
      -0.018
      -0.029
      -0.029
      -0.017
      -0.001
       0.010
       0.010
       0.002
      -0.009
      -0.016
      -0.018
      -0.015
      -0.009
      -0.002
       0.002
      -0.003
      -0.011
      -0.019
      -0.021
      -0.018
      -0.012
      -0.005
       0.001
       0.006
       0.007
       0.001
      -0.010
      -0.019
      -0.019
      -0.008
       0.003
       0.007
       0.003
      -0.006
      -0.015
      -0.020
      -0.021
      -0.019
      -0.015
      -0.013
      -0.012
      -0.012
      -0.012
      -0.014
      -0.016
      -0.015
      -0.011
      -0.009
      -0.010
      -0.014
      -0.017
      -0.015
      -0.011
      -0.005
       0.000
       0.000
      -0.009
      -0.021
      -0.029
      -0.025
      -0.009
       0.009
       0.014
       0.000
      -0.024
      -0.040
      -0.031
       0.001
       0.035
       0.041
       0.010
      -0.036
      -0.056
      -0.031
       0.016
       0.045
       0.036
       0.005
      -0.016
      -0.016
      -0.007
      -0.005
      -0.014
      -0.026
      -0.027
      -0.014
       0.004
       0.014
       0.009
      -0.006
      -0.016
      -0.011
       0.004
       0.015
       0.012
      -0.004
      -0.019
      -0.026
      -0.025
      -0.021
      -0.015
      -0.010
      -0.006
      -0.007
      -0.011
      -0.014
      -0.012
      -0.007
      -0.006
      -0.009
      -0.016
      -0.021
      -0.021
      -0.017
      -0.011
      -0.005
      -0.001
      -0.002
      -0.005
      -0.008
      -0.007
      -0.004
      -0.001
      -0.001
      -0.001
      -0.001
       0.000
       0.002
       0.003
       0.003
       0.000
      -0.003
      -0.001
       0.005
       0.008
       0.003
      -0.006
      -0.013
      -0.013
      -0.009
      -0.004
       0.000
       0.004
       0.006
       0.001
      -0.009
      -0.016
      -0.015
      -0.008
      -0.003
      -0.006
      -0.012
      -0.016
      -0.017
      -0.018
      -0.016
      -0.012
      -0.006
      -0.003
      -0.004
      -0.007
      -0.010
      -0.015
      -0.022
      -0.029
      -0.029
      -0.020
      -0.005
       0.009
       0.016
       0.006
      -0.017
      -0.039
      -0.043
      -0.023
       0.004
       0.019
       0.011
      -0.010
      -0.028
      -0.031
      -0.023
      -0.014
      -0.010
      -0.011
      -0.013
      -0.014
      -0.012
      -0.009
      -0.003
       0.000
       0.000
      -0.007
      -0.017
      -0.025
      -0.028
      -0.022
      -0.010
       0.001
       0.003
      -0.005
      -0.021
      -0.039
      -0.047
      -0.041
      -0.024
      -0.007
       0.003
       0.004
      -0.001
      -0.009
      -0.016
      -0.019
      -0.015
      -0.006
       0.000
      -0.003
      -0.014
      -0.029
      -0.040
      -0.038
      -0.025
      -0.008
       0.000
      -0.004
      -0.014
      -0.020
      -0.019
      -0.011
      -0.002
       0.005
       0.005
      -0.003
      -0.014
      -0.024
      -0.026
      -0.022
      -0.013
      -0.004
       0.000
      -0.002
      -0.007
      -0.011
      -0.010
      -0.008
      -0.007
      -0.007
      -0.004
       0.003
       0.011
       0.012
       0.002
      -0.011
      -0.019
      -0.017
      -0.010
      -0.005
      -0.004
      -0.006
      -0.008
      -0.009
      -0.010
      -0.010
      -0.007
      -0.002
       0.003
       0.002
      -0.004
      -0.007
      -0.001
       0.010
       0.018
       0.014
      -0.001
      -0.017
      -0.023
      -0.011
       0.012
       0.031
       0.031
       0.012
      -0.015
      -0.034
      -0.036
      -0.025
      -0.008
       0.005
       0.008
       0.003
      -0.004
      -0.009
      -0.012
      -0.014
      -0.012
      -0.005
       0.003
       0.001
      -0.011
      -0.024
      -0.025
      -0.014
       0.002
       0.010
       0.007
      -0.004
      -0.013
      -0.017
      -0.011
       0.001
       0.009
       0.006
      -0.005
      -0.012
      -0.010
      -0.004
      -0.005
      -0.015
      -0.023
      -0.019
      -0.004
       0.012
       0.018
       0.007
      -0.011
      -0.022
      -0.019
      -0.009
      -0.005
      -0.010
      -0.014
      -0.010
      -0.002
       0.003
       0.001
      -0.004
      -0.005
       0.000
       0.005
       0.004
      -0.005
      -0.016
      -0.020
      -0.012
       0.005
       0.018
       0.019
       0.002
      -0.021
      -0.036
      -0.032
      -0.010
       0.015
       0.029
       0.027
       0.014
      -0.001
      -0.008
      -0.007
      -0.004
      -0.004
      -0.007
      -0.010
      -0.006
       0.004
       0.015
       0.019
       0.016
       0.008
       0.001
      -0.001
      -0.004
      -0.009
      -0.013
      -0.006
       0.011
       0.031
       0.038
       0.027
       0.006
      -0.012
      -0.014
      -0.001
       0.013
       0.015
       0.005
      -0.009
      -0.017
      -0.017
      -0.014
      -0.011
      -0.010
      -0.009
      -0.009
      -0.006
       0.002
       0.011
       0.014
       0.009
      -0.002
      -0.011
      -0.014
      -0.014
      -0.016
      -0.017
      -0.015
      -0.008
      -0.001
      -0.003
      -0.013
      -0.021
      -0.019
      -0.006
       0.010
       0.018
       0.013
      -0.002
      -0.018
      -0.027
      -0.027
      -0.025
      -0.023
      -0.024
      -0.023
      -0.019
      -0.012
      -0.006
      -0.003
      -0.005
      -0.012
      -0.020
      -0.023
      -0.017
      -0.001
       0.017
       0.024
       0.017
       0.004
      -0.004
      -0.001
       0.004
       0.001
      -0.013
      -0.027
      -0.032
      -0.024
      -0.008
       0.010
       0.020
       0.017
       0.005
      -0.010
      -0.016
      -0.009
       0.007
       0.022
       0.026
       0.018
       0.003
      -0.011
      -0.019
      -0.017
      -0.008
      -0.003
      -0.011
      -0.033
      -0.061
      -0.077
      -0.072
      -0.045
      -0.012
       0.014
       0.025
       0.023
       0.016
       0.017
       0.034
       0.065
       0.092
       0.091
       0.050
      -0.016
      -0.078
      -0.118
      -0.140
      -0.149
      -0.131
      -0.064
       0.045
       0.149
       0.192
       0.149
       0.055
      -0.015
       0.000
       0.100
       0.211
       0.239
       0.132
      -0.072
      -0.259
      -0.319
      -0.227
      -0.063
       0.051
       0.043
      -0.065
      -0.200
      -0.304
      -0.358
      -0.356
      -0.282
      -0.133
       0.058
       0.224
       0.312
       0.315
       0.269
       0.215
       0.167
       0.122
       0.087
       0.078
       0.103
       0.144
       0.166
       0.134
       0.035
      -0.113
      -0.258
      -0.343
      -0.352
      -0.327
      -0.322
      -0.342
      -0.330
      -0.219
      -0.003
       0.255
       0.460
       0.538
       0.456
       0.235
      -0.053
      -0.292
      -0.379
      -0.279
      -0.055
       0.174
       0.304
       0.312
       0.244
       0.158
       0.066
      -0.064
      -0.254
      -0.455
      -0.550
      -0.425
      -0.064
       0.395
       0.717
       0.707
       0.338
      -0.218
      -0.688
      -0.860
      -0.694
      -0.322
       0.061
       0.312
       0.398
       0.363
       0.270
       0.150
      -0.008
      -0.217
      -0.427
      -0.513
      -0.354
       0.062
       0.584
       0.968
       1.023
       0.736
       0.293
      -0.058
      -0.178
      -0.110
      -0.004
       0.027
      -0.036
      -0.146
      -0.263
      -0.371
      -0.473
      -0.569
      -0.652
      -0.697
      -0.671
      -0.553
      -0.357
      -0.122
       0.106
       0.282
       0.353
       0.278
       0.083
      -0.108
      -0.126
       0.100
       0.471
       0.766
       0.804
       0.581
       0.281
       0.148
       0.303
       0.640
       0.862
       0.682
       0.047
      -0.772
      -1.317
      -1.264
      -0.681
      -0.004
       0.287
       0.037
      -0.496
      -0.875
      -0.825
      -0.392
       0.157
       0.545
       0.643
       0.497
       0.255
       0.067
       0.018
       0.091
       0.198
       0.230
       0.131
      -0.057
      -0.204
      -0.181
       0.027
       0.257
       0.261
      -0.079
      -0.590
      -0.884
      -0.652
       0.058
       0.820
       1.129
       0.785
       0.053
      -0.540
      -0.620
      -0.232
       0.234
       0.376
       0.063
      -0.496
      -0.913
      -0.878
      -0.365
       0.341
       0.834
       0.870
       0.502
      -0.003
      -0.387
      -0.535
      -0.467
      -0.248
       0.057
       0.375
       0.610
       0.679
       0.549
       0.238
      -0.215
      -0.730
      -1.151
      -1.276
      -0.991
      -0.393
       0.255
       0.694
       0.835
       0.760
       0.610
       0.483
       0.412
       0.377
       0.330
       0.221
       0.048
      -0.133
      -0.251
      -0.284
      -0.267
      -0.251
      -0.282
      -0.407
      -0.650
      -0.935
      -1.069
      -0.853
      -0.273
       0.436
       0.922
       0.960
       0.601
       0.126
      -0.141
      -0.046
       0.307
       0.630
       0.660
       0.339
      -0.156
      -0.549
      -0.657
      -0.477
      -0.158
       0.114
       0.216
       0.133
      -0.053
      -0.221
      -0.272
      -0.177
       0.016
       0.213
       0.336
       0.360
       0.309
       0.211
       0.066
      -0.134
      -0.355
      -0.506
      -0.498
      -0.320
      -0.062
       0.152
       0.235
       0.165
      -0.026
      -0.258
      -0.413
      -0.384
      -0.160
       0.153
       0.401
       0.491
       0.457
       0.413
       0.466
       0.627
       0.797
       0.822
       0.598
       0.162
      -0.325
      -0.689
      -0.872
      -0.947
      -1.013
      -1.075
      -1.055
      -0.901
      -0.664
      -0.457
      -0.339
      -0.263
      -0.131
       0.124
       0.490
       0.903
       1.278
       1.534
       1.601
       1.440
       1.055
       0.498
      -0.133
      -0.704
      -1.083
      -1.200
      -1.079
      -0.813
      -0.502
      -0.223
      -0.035
       0.021
      -0.039
      -0.121
      -0.110
       0.038
       0.261
       0.465
       0.606
       0.663
       0.551
       0.145
      -0.549
      -1.256
      -1.537
      -1.109
      -0.124
       0.878
       1.306
       0.918
      -0.009
      -0.853
      -1.050
      -0.469
       0.500
       1.212
       1.230
       0.644
      -0.020
      -0.236
       0.095
       0.613
       0.857
       0.667
       0.265
       0.022
       0.139
       0.496
       0.736
       0.521
      -0.225
      -1.245
      -2.101
      -2.458
      -2.261
      -1.725
      -1.142
      -0.698
      -0.397
      -0.134
       0.190
       0.583
       0.974
       1.267
       1.402
       1.383
       1.257
       1.066
       0.818
       0.516
       0.208
      -0.014
      -0.081
      -0.037
      -0.028
      -0.213
      -0.643
      -1.214
      -1.721
      -1.956
      -1.780
      -1.152
      -0.136
       1.065
       2.100
       2.581
       2.311
       1.450
       0.444
      -0.263
      -0.518
      -0.500
      -0.516
      -0.714
      -0.977
      -1.047
      -0.754
      -0.174
       0.396
       0.616
       0.322
      -0.363
      -1.097
      -1.497
      -1.337
      -0.629
       0.386
       1.315
       1.761
       1.523
       0.745
      -0.126
      -0.598
      -0.454
       0.131
       0.755
       1.075
       0.983
       0.608
       0.196
      -0.031
      -0.001
       0.156
       0.206
      -0.001
      -0.419
      -0.882
      -1.281
      -1.624
      -1.913
      -1.998
      -1.615
      -0.637
       0.697
       1.820
       2.172
       1.597
       0.486
      -0.467
      -0.722
      -0.230
       0.572
       1.094
       0.991
       0.351
      -0.441
      -0.995
      -1.111
      -0.774
      -0.075
       0.817
       1.638
       2.082
       1.938
       1.248
       0.323
      -0.411
      -0.675
      -0.519
      -0.277
      -0.302
      -0.695
      -1.252
      -1.658
      -1.766
      -1.723
      -1.844
      -2.332
      -3.090
      -3.767
      -3.950
      -3.362
      -1.967
       0.012
       2.157
       3.999
       5.196
       5.647
       5.451
       4.755
       3.642
       2.149
       0.406
      -1.271
      -2.432
      -2.690
      -1.938
      -0.461
       1.138
       2.189
       2.286
       1.492
       0.287
      -0.735
      -1.220
      -1.209
      -0.999
      -0.838
      -0.709
      -0.414
       0.102
       0.524
       0.314
      -0.844
      -2.693
      -4.470
      -5.355
      -4.961
      -3.509
      -1.586
       0.297
       1.962
       3.488
       4.922
       6.073
       6.580
       6.153
       4.774
       2.709
       0.377
      -1.799
      -3.478
      -4.430
      -4.552
      -3.870
      -2.570
      -1.029
       0.212
       0.624
      -0.004
      -1.336
      -2.584
      -2.938
      -2.070
      -0.319
       1.541
       2.774
       3.052
       2.532
       1.671
       0.915
       0.455
       0.168
      -0.232
      -0.937
      -1.869
      -2.677
      -2.911
      -2.279
      -0.835
       0.998
       2.637
       3.657
       3.991
       3.867
       3.541
       3.097
       2.453
       1.543
       0.443
      -0.657
      -1.596
      -2.324
      -2.869
      -3.277
      -3.562
      -3.695
      -3.591
      -3.156
      -2.379
      -1.396
      -0.445
       0.274
       0.694
       0.862
       0.864
       0.774
       0.674
       0.686
       0.941
       1.500
       2.288
       3.099
       3.689
       3.865
       3.541
       2.717
       1.456
      -0.099
      -1.683
      -2.943
      -3.569
      -3.482
      -2.905
      -2.240
      -1.817
      -1.711
      -1.750
      -1.691
      -1.405
      -0.936
      -0.415
       0.068
       0.528
       1.030
       1.586
       2.105
       2.427
       2.441
       2.178
       1.817
       1.558
       1.459
       1.364
       1.027
       0.323
      -0.614
      -1.458
      -1.897
      -1.818
      -1.358
      -0.798
      -0.393
      -0.240
      -0.260
      -0.291
      -0.215
      -0.038
       0.129
       0.155
      -0.014
      -0.305
      -0.551
      -0.574
      -0.299
       0.179
       0.626
       0.809
       0.637
       0.227
      -0.187
      -0.417
      -0.439
      -0.371
      -0.369
      -0.533
      -0.869
      -1.302
      -1.675
      -1.782
      -1.458
      -0.689
       0.340
       1.338
       2.082
       2.517
       2.709
       2.717
       2.533
       2.138
       1.567
       0.914
       0.267
      -0.327
      -0.865
      -1.356
      -1.816
      -2.248
      -2.627
      -2.876
      -2.882
      -2.542
      -1.829
      -0.832
       0.240
       1.117
       1.584
       1.580
       1.226
       0.750
       0.377
       0.238
       0.348
       0.617
       0.894
       1.025
       0.946
       0.758
       0.714
       1.047
       1.730
       2.391
       2.508
       1.803
       0.486
      -0.849
      -1.645
      -1.761
      -1.511
      -1.362
      -1.574
      -2.052
      -2.494
      -2.643
      -2.444
      -2.012
      -1.490
      -0.944
      -0.375
       0.182
       0.618
       0.820
       0.791
       0.685
       0.694
       0.900
       1.207
       1.417
       1.381
       1.133
       0.905
       0.969
       1.422
       2.063
       2.495
       2.372
       1.601
       0.379
      -0.928
      -1.969
      -2.538
      -2.622
      -2.366
      -1.986
      -1.675
      -1.513
      -1.415
      -1.185
      -0.656
       0.145
       0.970
       1.495
       1.545
       1.209
       0.776
       0.563
       0.724
       1.170
       1.615
       1.738
       1.359
       0.545
      -0.427
      -1.214
      -1.568
      -1.450
      -1.021
      -0.541
      -0.241
      -0.238
      -0.534
      -1.055
      -1.653
      -2.116
      -2.212
      -1.812
      -1.000
      -0.059
       0.690
       1.086
       1.211
       1.300
       1.558
       2.024
       2.549
       2.899
       2.903
       2.551
       1.975
       1.330
       0.690
       0.051
      -0.596
      -1.206
      -1.691
      -1.992
      -2.117
      -2.123
      -2.058
      -1.915
      -1.654
      -1.267
      -0.821
      -0.435
      -0.219
      -0.205
      -0.311
      -0.371
      -0.210
       0.231
       0.851
       1.431
       1.758
       1.721
       1.346
       0.785
       0.270
       0.021
       0.124
       0.461
       0.760
       0.774
       0.436
      -0.115
      -0.649
      -0.992
      -1.098
      -1.025
      -0.866
      -0.701
      -0.581
      -0.533
      -0.563
      -0.643
      -0.708
      -0.673
      -0.478
      -0.125
       0.313
       0.731
       1.043
       1.199
       1.182
       0.993
       0.652
       0.225
      -0.187
      -0.461
      -0.509
      -0.311
       0.065
       0.477
       0.764
       0.817
       0.643
       0.349
       0.061
      -0.152
      -0.300
      -0.418
      -0.511
      -0.541
      -0.475
      -0.343
      -0.241
      -0.266
      -0.431
      -0.648
      -0.773
      -0.703
      -0.446
      -0.109
       0.178
       0.355
       0.447
       0.511
       0.566
       0.582
       0.524
       0.388
       0.200
      -0.001
      -0.178
      -0.306
      -0.370
      -0.361
      -0.261
      -0.058
       0.213
       0.443
       0.500
       0.329
       0.014
      -0.256
      -0.303
      -0.074
       0.329
       0.703
       0.853
       0.689
       0.271
      -0.218
      -0.573
      -0.677
      -0.555
      -0.340
      -0.178
      -0.144
      -0.223
      -0.338
      -0.393
      -0.321
      -0.112
       0.170
       0.406
       0.491
       0.415
       0.303
       0.335
       0.585
       0.911
       1.015
       0.677
      -0.030
      -0.744
      -1.054
      -0.809
      -0.238
       0.211
       0.205
      -0.249
      -0.828
      -1.147
      -1.026
      -0.580
      -0.096
       0.180
       0.191
       0.059
      -0.045
      -0.021
       0.126
       0.338
       0.568
       0.779
       0.917
       0.909
       0.711
       0.371
       0.024
      -0.200
      -0.273
      -0.287
      -0.371
      -0.572
      -0.822
      -0.996
      -1.006
      -0.862
      -0.648
      -0.463
      -0.360
      -0.334
      -0.327
      -0.252
      -0.031
       0.358
       0.861
       1.362
