Origin Time       19/08/2008 10:54:26
Lat.              30.1°N 
Long.             80.1°E 
Depth (Km)         15.0
Magnitude         4.3
 Region           PITHORAGARH                                                      
 Above details taken from IMD 
   
Station Code      PIT
Station Lat.       29.579
Station Long.      80.207
Station Height(m) 1538.0
Site Class        A   Vs30 between 700 m/sec to 1400 m/sec * 
Record Time       19.08.2008 10:54:28.399
Sampling Rate     200. Hz
 Record Duration   66.060 Sec.
 Direction         Vert. (Up positive)
Max. Acceleration      2.366 cm/sec**2
     
  * For reference see Site Classification link of website 
     
 Base Line Corrected and Low Pass Filtered (Cut Off at 35 Hz) Time History
 Acceleration data in cm/sec**2
    
[...]
       0.033
      -0.104
      -0.148
      -0.158
      -0.208
      -0.313
      -0.411
      -0.424
      -0.320
      -0.148
       0.000
       0.041
      -0.039
      -0.180
      -0.287
      -0.287
      -0.174
      -0.010
       0.121
       0.168
       0.133
       0.057
      -0.016
      -0.051
      -0.035
       0.038
       0.148
       0.259
       0.327
       0.329
       0.293
       0.272
       0.303
       0.367
       0.405
       0.363
       0.234
       0.061
      -0.102
      -0.220
      -0.298
      -0.354
      -0.392
      -0.389
      -0.323
      -0.208
      -0.091
      -0.029
      -0.048
      -0.131
      -0.229
      -0.302
      -0.332
      -0.324
      -0.289
      -0.235
      -0.171
      -0.102
      -0.028
       0.050
       0.122
       0.188
       0.263
       0.369
       0.507
       0.638
       0.705
       0.675
       0.557
       0.384
       0.181
      -0.036
      -0.247
      -0.408
      -0.469
      -0.412
      -0.275
      -0.130
      -0.042
      -0.032
      -0.075
      -0.129
      -0.160
      -0.157
      -0.134
      -0.103
      -0.067
      -0.019
       0.031
       0.051
       0.015
      -0.060
      -0.118
      -0.107
      -0.023
       0.088
       0.173
       0.207
       0.197
       0.165
       0.119
       0.064
       0.010
      -0.025
      -0.035
      -0.038
      -0.062
      -0.115
      -0.167
      -0.169
      -0.090
       0.046
       0.164
       0.186
       0.097
      -0.034
      -0.113
      -0.094
      -0.021
       0.023
      -0.009
      -0.082
      -0.117
      -0.072
       0.022
       0.099
       0.119
       0.087
       0.036
      -0.011
      -0.046
      -0.065
      -0.061
      -0.029
       0.024
       0.081
       0.116
       0.112
       0.067
      -0.010
      -0.093
      -0.148
      -0.144
      -0.076
       0.027
       0.123
       0.186
       0.220
       0.241
       0.258
       0.258
       0.223
       0.142
       0.034
      -0.066
      -0.129
      -0.155
      -0.170
      -0.196
      -0.226
      -0.233
      -0.197
      -0.136
      -0.094
      -0.102
      -0.151
      -0.199
      -0.200
      -0.135
      -0.016
       0.121
       0.237
       0.307
       0.327
       0.303
       0.246
       0.172
       0.091
       0.012
      -0.064
      -0.124
      -0.146
      -0.107
      -0.014
       0.084
       0.127
       0.085
      -0.009
      -0.092
      -0.115
      -0.080
      -0.026
       0.008
       0.008
      -0.022
      -0.068
      -0.116
      -0.147
      -0.144
      -0.099
      -0.021
       0.059
       0.109
       0.115
       0.088
       0.053
       0.033
       0.035
       0.048
       0.051
       0.033
       0.011
       0.016
       0.058
       0.108
       0.128
       0.108
       0.079
       0.086
       0.136
       0.180
       0.152
       0.030
      -0.134
      -0.248
      -0.254
      -0.164
      -0.055
      -0.007
      -0.045
      -0.123
      -0.172
      -0.163
      -0.128
      -0.116
      -0.137
      -0.150
      -0.096
       0.033
       0.179
       0.256
       0.223
       0.115
       0.009
      -0.047
      -0.069
      -0.099
      -0.148
      -0.176
      -0.133
      -0.018
       0.103
       0.152
       0.106
       0.022
      -0.015
       0.030
       0.111
       0.147
       0.090
      -0.029
      -0.133
      -0.156
      -0.088
       0.030
       0.148
       0.240
       0.310
       0.363
       0.388
       0.359
       0.265
       0.119
      -0.050
      -0.213
      -0.340
      -0.409
      -0.410
      -0.352
      -0.257
      -0.154
      -0.075
      -0.040
      -0.048
      -0.078
      -0.107
      -0.122
      -0.119
      -0.095
      -0.055
      -0.007
       0.036
       0.065
       0.077
       0.081
       0.098
       0.139
       0.186
       0.190
       0.115
      -0.015
      -0.113
      -0.101
       0.018
       0.146
       0.172
       0.075
      -0.058
      -0.114
      -0.056
       0.040
       0.068
      -0.009
      -0.127
      -0.177
      -0.101
       0.063
       0.211
       0.256
       0.194
       0.087
       0.008
      -0.017
      -0.010
      -0.005
      -0.006
       0.005
       0.042
       0.087
       0.103
       0.067
      -0.002
      -0.070
      -0.113
      -0.137
      -0.155
      -0.170
      -0.169
      -0.148
      -0.118
      -0.110
      -0.144
      -0.207
      -0.253
      -0.238
      -0.158
      -0.056
       0.026
       0.085
       0.162
       0.290
       0.447
       0.552
       0.523
       0.346
       0.097
      -0.108
      -0.196
      -0.177
      -0.115
      -0.068
      -0.040
       0.001
       0.073
       0.147
       0.164
       0.082
      -0.080
      -0.252
      -0.364
      -0.389
      -0.351
      -0.285
      -0.202
      -0.093
       0.037
       0.145
       0.183
       0.149
       0.100
       0.101
       0.164
       0.236
       0.245
       0.171
       0.055
      -0.033
      -0.054
      -0.027
       0.006
       0.021
       0.031
       0.064
       0.126
       0.191
       0.218
       0.179
       0.077
      -0.050
      -0.151
      -0.196
      -0.199
      -0.186
      -0.157
      -0.096
      -0.012
       0.043
       0.014
      -0.100
      -0.224
      -0.256
      -0.147
       0.052
       0.221
       0.258
       0.154
      -0.007
      -0.119
      -0.118
      -0.015
       0.124
       0.230
       0.267
       0.235
       0.143
      -0.002
      -0.175
      -0.317
      -0.374
      -0.339
      -0.266
      -0.216
      -0.186
      -0.117
       0.051
       0.291
       0.494
       0.550
       0.447
       0.275
       0.145
       0.095
       0.075
       0.011
      -0.118
      -0.260
      -0.329
      -0.270
      -0.113
       0.035
       0.063
      -0.055
      -0.233
      -0.343
      -0.317
      -0.184
      -0.021
       0.117
       0.220
       0.291
       0.319
       0.284
       0.190
       0.075
      -0.016
      -0.075
      -0.127
      -0.178
      -0.179
      -0.067
       0.157
       0.385
       0.475
       0.354
       0.084
      -0.188
      -0.336
      -0.332
      -0.243
      -0.167
      -0.156
      -0.201
      -0.252
      -0.256
      -0.194
      -0.085
       0.028
       0.104
       0.139
       0.167
       0.221
       0.295
       0.331
       0.273
       0.114
      -0.082
      -0.226
      -0.268
      -0.229
      -0.165
      -0.125
      -0.116
      -0.113
      -0.089
      -0.033
       0.038
       0.094
       0.107
       0.080
       0.047
       0.056
       0.131
       0.245
       0.329
       0.325
       0.231
       0.105
       0.013
      -0.008
       0.032
       0.096
       0.134
       0.103
      -0.016
      -0.200
      -0.384
      -0.483
      -0.455
      -0.329
      -0.193
      -0.121
      -0.122
      -0.130
      -0.070
       0.079
       0.256
       0.366
       0.353
       0.233
       0.079
      -0.033
      -0.071
      -0.057
      -0.041
      -0.057
      -0.100
      -0.131
      -0.107
      -0.008
       0.138
       0.266
       0.307
       0.233
       0.079
      -0.084
      -0.198
      -0.257
      -0.288
      -0.319
      -0.345
      -0.335
      -0.264
      -0.141
       0.002
       0.124
       0.193
       0.198
       0.153
       0.093
       0.056
       0.063
       0.112
       0.191
       0.278
       0.361
       0.432
       0.486
       0.496
       0.427
       0.262
       0.043
      -0.152
      -0.271
      -0.318
      -0.344
      -0.389
      -0.447
      -0.466
      -0.391
      -0.220
      -0.017
       0.126
       0.142
       0.030
      -0.159
      -0.344
      -0.446
      -0.421
      -0.287
      -0.104
       0.066
       0.199
       0.312
       0.437
       0.578
       0.699
       0.737
       0.649
       0.449
       0.210
       0.017
      -0.086
      -0.123
      -0.158
      -0.232
      -0.326
      -0.374
      -0.331
      -0.228
      -0.156
      -0.180
      -0.277
      -0.364
      -0.374
      -0.313
      -0.232
      -0.166
      -0.116
      -0.081
      -0.079
      -0.120
      -0.164
      -0.126
       0.042
       0.299
       0.524
       0.616
       0.570
       0.473
       0.422
       0.455
       0.526
       0.544
       0.434
       0.192
      -0.098
      -0.303
      -0.330
      -0.199
      -0.029
       0.051
      -0.001
      -0.136
      -0.268
      -0.351
      -0.392
      -0.418
      -0.449
      -0.501
      -0.583
      -0.672
      -0.698
      -0.577
      -0.292
       0.065
       0.344
       0.436
       0.346
       0.184
       0.080
       0.097
       0.198
       0.289
       0.293
       0.207
       0.097
       0.046
       0.098
       0.226
       0.356
       0.426
       0.437
       0.442
       0.472
       0.488
       0.414
       0.224
      -0.012
      -0.181
      -0.213
      -0.145
      -0.075
      -0.074
      -0.139
      -0.219
      -0.287
      -0.357
      -0.443
      -0.521
      -0.537
      -0.459
      -0.317
      -0.187
      -0.141
      -0.191
      -0.279
      -0.321
      -0.257
      -0.086
       0.147
       0.382
       0.575
       0.705
       0.763
       0.733
       0.605
       0.406
       0.196
       0.033
      -0.077
      -0.174
      -0.300
      -0.445
      -0.539
      -0.504
      -0.333
      -0.103
       0.072
       0.133
       0.124
       0.153
       0.290
       0.494
       0.639
       0.622
       0.450
       0.235
       0.082
      -0.002
      -0.107
      -0.313
      -0.596
      -0.846
      -0.963
      -0.937
      -0.836
      -0.734
      -0.661
      -0.616
      -0.582
      -0.525
      -0.389
      -0.126
       0.261
       0.691
       1.033
       1.171
       1.091
       0.901
       0.768
       0.807
       1.002
       1.223
       1.317
       1.201
       0.898
       0.492
       0.071
      -0.304
      -0.590
      -0.757
      -0.808
      -0.790
      -0.779
      -0.815
      -0.870
      -0.872
      -0.770
      -0.576
      -0.351
      -0.171
      -0.082
      -0.090
      -0.151
      -0.197
      -0.176
      -0.078
       0.076
       0.257
       0.440
       0.593
       0.679
       0.664
       0.555
       0.416
       0.331
       0.326
       0.321
       0.182
      -0.157
      -0.619
      -1.009
      -1.154
      -1.017
      -0.727
      -0.484
      -0.419
      -0.522
      -0.668
      -0.721
      -0.627
      -0.443
      -0.282
      -0.205
      -0.170
      -0.062
       0.193
       0.555
       0.894
       1.096
       1.150
       1.143
       1.167
       1.228
       1.245
       1.134
       0.892
       0.607
       0.399
       0.345
       0.435
       0.579
       0.665
       0.636
       0.520
       0.401
       0.336
       0.305
       0.227
       0.016
      -0.364
      -0.871
      -1.404
      -1.857
      -2.160
      -2.290
      -2.260
      -2.104
      -1.865
      -1.578
      -1.256
      -0.900
      -0.508
      -0.087
       0.345
       0.749
       1.071
       1.255
       1.270
       1.123
       0.877
       0.642
       0.534
       0.611
       0.826
       1.051
       1.162
       1.113
       0.931
       0.668
       0.352
      -0.006
      -0.374
      -0.682
      -0.861
      -0.909
      -0.908
      -0.963
      -1.108
      -1.254
      -1.253
      -1.010
      -0.563
      -0.044
       0.424
       0.815
       1.181
       1.561
       1.900
       2.059
       1.917
       1.480
       0.898
       0.371
       0.017
      -0.179
      -0.321
      -0.495
      -0.709
      -0.898
      -0.993
      -0.987
      -0.935
      -0.898
      -0.878
      -0.815
      -0.640
      -0.344
      -0.008
       0.239
       0.297
       0.159
      -0.085
      -0.307
      -0.403
      -0.347
      -0.190
      -0.040
       0.005
      -0.072
      -0.190
      -0.228
      -0.125
       0.072
       0.254
       0.330
       0.287
       0.176
       0.063
       0.006
       0.042
       0.189
       0.420
       0.645
       0.754
       0.695
       0.536
       0.415
       0.412
       0.464
       0.427
       0.213
      -0.117
      -0.398
      -0.493
      -0.408
      -0.287
      -0.293
      -0.478
      -0.733
      -0.868
      -0.745
      -0.371
       0.109
       0.509
       0.714
       0.729
       0.640
       0.523
       0.404
       0.271
       0.129
       0.024
       0.013
       0.121
       0.315
       0.504
       0.579
       0.451
       0.108
      -0.369
      -0.830
      -1.130
      -1.208
      -1.101
      -0.909
      -0.735
      -0.636
      -0.625
      -0.676
      -0.752
      -0.820
      -0.845
      -0.777
      -0.558
      -0.160
       0.374
       0.921
       1.324
       1.466
       1.339
       1.043
       0.735
       0.551
       0.566
       0.783
       1.115
       1.391
       1.419
       1.102
       0.528
      -0.061
      -0.412
      -0.413
      -0.153
       0.165
       0.365
       0.393
       0.303
       0.174
       0.037
      -0.130
      -0.355
      -0.636
      -0.942
      -1.236
      -1.505
      -1.747
      -1.951
      -2.082
      -2.097
      -1.973
      -1.716
      -1.354
      -0.919
      -0.452
      -0.002
       0.382
       0.690
       0.963
       1.270
       1.648
       2.044
       2.329
       2.366
       2.108
       1.635
       1.108
       0.686
       0.442
       0.342
       0.273
       0.131
      -0.111
      -0.388
      -0.595
      -0.655
      -0.571
      -0.422
      -0.305
      -0.266
      -0.272
      -0.256
      -0.180
      -0.066
       0.037
       0.103
       0.152
       0.216
       0.284
       0.279
       0.108
      -0.257
      -0.743
      -1.213
      -1.550
      -1.710
      -1.717
      -1.606
      -1.381
      -1.014
      -0.492
       0.139
       0.768
       1.276
       1.592
       1.730
       1.755
       1.721
       1.639
       1.498
       1.320
       1.147
       0.984
       0.735
       0.264
      -0.463
      -1.275
      -1.870
      -2.013
      -1.712
      -1.218
      -0.824
      -0.654
      -0.614
      -0.523
      -0.301
      -0.021
       0.187
       0.268
       0.286
       0.342
       0.457
       0.536
       0.466
       0.231
      -0.067
      -0.292
      -0.378
      -0.352
      -0.274
      -0.168
      -0.010
       0.235
       0.552
       0.872
       1.111
       1.212
       1.163
       0.978
       0.691
       0.342
      -0.031
      -0.389
      -0.700
      -0.929
      -1.045
      -1.024
      -0.871
      -0.630
      -0.388
      -0.242
      -0.246
      -0.364
      -0.471
      -0.432
      -0.195
       0.162
       0.485
       0.664
       0.709
       0.717
       0.754
       0.775
       0.668
       0.387
       0.050
      -0.134
      -0.038
       0.255
       0.500
       0.491
       0.222
      -0.127
      -0.376
      -0.505
      -0.648
      -0.923
      -1.293
      -1.576
      -1.592
      -1.300
      -0.813
      -0.293
       0.165
       0.562
       0.925
       1.233
       1.409
       1.393
       1.206
       0.963
       0.791
       0.726
       0.683
       0.528
       0.205
      -0.208
      -0.548
      -0.702
      -0.679
      -0.583
      -0.508
      -0.472
      -0.426
      -0.318
      -0.138
       0.087
       0.311
       0.473
       0.498
       0.343
       0.039
      -0.312
      -0.600
      -0.770
      -0.839
      -0.857
      -0.860
      -0.849
      -0.801
      -0.691
      -0.504
      -0.238
       0.092
       0.439
       0.737
       0.925
       0.981
       0.931
       0.842
       0.791
       0.821
       0.914
       0.987
       0.946
       0.751
       0.460
       0.194
       0.032
      -0.054
      -0.168
      -0.378
      -0.643
      -0.843
      -0.877
      -0.749
      -0.559
      -0.423
      -0.389
      -0.425
      -0.474
      -0.509
      -0.530
      -0.526
      -0.460
      -0.306
      -0.104
       0.058
       0.111
       0.075
       0.054
       0.144
       0.347
       0.580
       0.757
       0.868
       0.971
       1.107
       1.240
       1.266
       1.089
       0.684
       0.113
      -0.505
      -1.035
      -1.364
      -1.441
      -1.292
      -1.014
      -0.732
      -0.546
      -0.481
      -0.491
      -0.502
      -0.453
      -0.325
      -0.135
       0.072
       0.237
       0.312
       0.271
       0.115
      -0.107
      -0.295
      -0.334
      -0.173
       0.144
       0.501
       0.789
       0.961
       1.034
       1.062
       1.080
       1.092
       1.076
       1.017
       0.914
       0.756
       0.515
       0.175
      -0.242
      -0.671
      -1.035
      -1.277
      -1.370
      -1.320
      -1.164
      -0.973
      -0.822
      -0.746
      -0.700
      -0.587
      -0.332
       0.036
       0.391
       0.598
       0.603
       0.453
       0.237
       0.025
      -0.150
      -0.279
      -0.348
      -0.346
      -0.274
      -0.141
       0.057
       0.349
       0.756
       1.235
       1.667
       1.910
       1.875
       1.575
       1.110
       0.616
       0.202
      -0.092
      -0.305
      -0.523
      -0.816
      -1.179
      -1.520
      -1.730
      -1.762
      -1.664
      -1.540
      -1.460
      -1.407
      -1.286
      -1.020
      -0.635
      -0.265
      -0.059
      -0.051
      -0.124
      -0.085
       0.193
       0.681
       1.224
       1.662
       1.930
       2.064
       2.129
       2.147
       2.092
       1.932
       1.648
       1.236
       0.713
       0.142
      -0.364
      -0.692
      -0.800
      -0.766
      -0.735
      -0.823
      -1.045
      -1.306
      -1.461
      -1.389
      -1.082
      -0.680
      -0.418
      -0.478
      -0.844
      -1.279
      -1.477
      -1.274
      -0.777
      -0.267
       0.031
       0.124
       0.200
       0.436
       0.830
       1.217
       1.411
       1.352
       1.135
       0.927
       0.849
       0.906
       0.995
       0.973
       0.732
       0.275
      -0.253
      -0.629
      -0.689
      -0.457
      -0.137
       0.018
      -0.112
      -0.448
      -0.780
      -0.928
      -0.856
      -0.665
      -0.490
      -0.396
      -0.353
      -0.298
      -0.196
      -0.071
       0.035
       0.122
       0.260
       0.523
       0.887
       1.198
       1.263
       1.004
       0.535
       0.079
      -0.203
      -0.305
      -0.322
      -0.326
      -0.302
      -0.212
      -0.100
      -0.095
      -0.310
      -0.728
      -1.168
      -1.394
      -1.250
      -0.756
      -0.098
       0.477
       0.787
       0.806
       0.654
       0.500
       0.434
       0.431
       0.414
       0.349
       0.285
       0.306
       0.446
       0.642
       0.766
       0.715
       0.484
       0.182
      -0.034
      -0.064
       0.066
       0.231
       0.289
       0.182
      -0.053
      -0.338
      -0.613
      -0.850
      -1.022
      -1.102
      -1.086
      -1.017
      -0.946
      -0.877
      -0.743
      -0.460
      -0.033
       0.409
