Origin Time       11/1/2010 5:15:18	  UTC
Lat.              29.7 N	
Long.             80.0 E	
Depth (Km)         15.0
Magnitude         3.9
 Region           PITHORAGARH-UTTRAKHAND                                           
 Above details taken from IMD 
    
Station Code      PIT
Station Lat.       29.579  N
Station Long.      80.207  E
Station Height(m) 1538.0
Site Class        A   Vs30 between 700 m/sec to 1400 m/sec * 
Record Time       11.01.2010 05:15:11.939 UTC
Sampling Rate     200. Hz
 Record Duration   67.680 Sec.
 Direction         N-S (N positive)
Max. Acceleration    -16.215 cm/sec**2
     
  * For reference see Site Classification link of website 
     
 Base Line Corrected and Low Pass Filtered (Cut Off at 35 Hz) Time History
 Acceleration data in cm/sec**2
    
[...]
      -0.228
      -0.442
      -0.510
      -0.476
      -0.472
      -0.578
      -0.733
      -0.788
      -0.647
      -0.338
       0.024
       0.351
       0.629
       0.885
       1.109
       1.229
       1.152
       0.837
       0.339
      -0.202
      -0.630
      -0.856
      -0.911
      -0.901
      -0.911
      -0.924
      -0.844
      -0.593
      -0.196
       0.221
       0.513
       0.610
       0.536
       0.385
       0.261
       0.231
       0.306
       0.439
       0.557
       0.607
       0.570
       0.449
       0.251
      -0.010
      -0.287
      -0.513
      -0.642
      -0.677
      -0.660
      -0.631
      -0.605
      -0.568
      -0.497
      -0.376
      -0.208
      -0.013
       0.176
       0.318
       0.377
       0.348
       0.264
       0.182
       0.139
       0.133
       0.142
       0.148
       0.150
       0.159
       0.182
       0.222
       0.280
       0.349
       0.398
       0.383
       0.279
       0.112
      -0.045
      -0.119
      -0.100
      -0.061
      -0.107
      -0.294
      -0.582
      -0.870
      -1.057
      -1.100
      -1.019
      -0.863
      -0.676
      -0.459
      -0.181
       0.195
       0.660
       1.134
       1.494
       1.637
       1.543
       1.279
       0.953
       0.638
       0.334
      -0.006
      -0.410
      -0.824
      -1.139
      -1.264
      -1.193
      -0.987
      -0.718
      -0.429
      -0.146
       0.093
       0.227
       0.204
       0.040
      -0.166
      -0.280
      -0.233
      -0.074
       0.084
       0.179
       0.246
       0.361
       0.544
       0.725
       0.798
       0.702
       0.473
       0.207
      -0.012
      -0.166
      -0.285
      -0.383
      -0.427
      -0.377
      -0.255
      -0.139
      -0.099
      -0.132
      -0.175
      -0.156
      -0.051
       0.101
       0.221
       0.230
       0.097
      -0.150
      -0.424
      -0.618
      -0.650
      -0.501
      -0.232
       0.049
       0.255
       0.375
       0.459
       0.556
       0.649
       0.658
       0.504
       0.184
      -0.196
      -0.483
      -0.565
      -0.443
      -0.212
      -0.002
       0.100
       0.086
       0.003
      -0.102
      -0.223
      -0.370
      -0.516
      -0.576
      -0.469
      -0.194
       0.158
       0.469
       0.670
       0.779
       0.862
       0.949
       0.982
       0.846
       0.476
      -0.065
      -0.613
      -1.005
      -1.176
      -1.165
      -1.063
      -0.925
      -0.740
      -0.464
      -0.089
       0.321
       0.662
       0.853
       0.881
       0.783
       0.600
       0.352
       0.054
      -0.250
      -0.483
      -0.571
      -0.495
      -0.298
      -0.057
       0.151
       0.288
       0.351
       0.364
       0.340
       0.263
       0.102
      -0.138
      -0.389
      -0.559
      -0.587
      -0.483
      -0.308
      -0.138
      -0.033
      -0.008
      -0.027
      -0.027
       0.030
       0.132
       0.236
       0.312
       0.361
       0.406
       0.464
       0.523
       0.561
       0.567
       0.558
       0.545
       0.507
       0.392
       0.164
      -0.163
      -0.529
      -0.876
      -1.171
      -1.399
      -1.533
      -1.528
      -1.347
      -0.997
      -0.546
      -0.091
       0.296
       0.598
       0.843
       1.050
       1.202
       1.250
       1.163
       0.972
       0.771
       0.655
       0.643
       0.655
       0.575
       0.329
      -0.064
      -0.530
      -0.985
      -1.372
      -1.650
      -1.776
      -1.700
      -1.405
      -0.944
      -0.426
       0.038
       0.387
       0.618
       0.760
       0.837
       0.842
       0.755
       0.577
       0.362
       0.200
       0.155
       0.241
       0.423
       0.657
       0.886
       1.044
       1.060
       0.890
       0.539
       0.067
      -0.429
      -0.848
      -1.140
      -1.322
      -1.439
      -1.487
      -1.396
      -1.100
      -0.634
      -0.146
       0.186
       0.283
       0.205
       0.096
       0.074
       0.151
       0.271
       0.383
       0.507
       0.690
       0.932
       1.146
       1.200
       1.005
       0.576
       0.027
      -0.498
      -0.894
      -1.132
      -1.238
      -1.242
      -1.141
      -0.899
      -0.492
       0.043
       0.589
       1.000
       1.180
       1.125
       0.900
       0.588
       0.253
      -0.054
      -0.295
      -0.451
      -0.517
      -0.505
      -0.433
      -0.326
      -0.211
      -0.099
       0.011
       0.128
       0.246
       0.339
       0.363
       0.286
       0.119
      -0.086
      -0.262
      -0.373
      -0.427
      -0.441
      -0.404
      -0.287
      -0.092
       0.117
       0.257
       0.291
       0.267
       0.275
       0.360
       0.472
       0.507
       0.398
       0.180
      -0.045
      -0.187
      -0.243
      -0.282
      -0.377
      -0.517
      -0.607
      -0.531
      -0.250
       0.159
       0.551
       0.789
       0.811
       0.639
       0.339
      -0.016
      -0.366
      -0.647
      -0.782
      -0.718
      -0.467
      -0.125
       0.180
       0.360
       0.407
       0.371
       0.305
       0.242
       0.194
       0.161
       0.136
       0.099
       0.026
      -0.099
      -0.253
      -0.389
      -0.458
      -0.452
      -0.402
      -0.354
      -0.329
      -0.318
      -0.280
      -0.176
       0.007
       0.238
       0.452
       0.584
       0.607
       0.551
       0.483
       0.451
       0.440
       0.386
       0.237
       0.013
      -0.198
      -0.300
      -0.256
      -0.117
       0.017
       0.059
      -0.009
      -0.134
      -0.243
      -0.302
      -0.334
      -0.388
      -0.490
      -0.608
      -0.661
      -0.572
      -0.325
       0.022
       0.361
       0.593
       0.670
       0.601
       0.446
       0.288
       0.190
       0.161
       0.157
       0.134
       0.081
       0.019
      -0.028
      -0.061
      -0.104
      -0.182
      -0.291
      -0.390
      -0.425
      -0.374
      -0.256
      -0.099
       0.084
       0.288
       0.480
       0.609
       0.648
       0.622
       0.583
       0.547
       0.468
       0.272
      -0.069
      -0.487
      -0.854
      -1.072
      -1.135
      -1.104
      -1.020
      -0.863
      -0.591
      -0.210
       0.192
       0.502
       0.678
       0.774
       0.876
       0.997
       1.056
       0.943
       0.638
       0.239
      -0.110
      -0.326
      -0.437
      -0.525
      -0.624
      -0.693
      -0.670
      -0.547
      -0.383
      -0.256
      -0.201
      -0.200
      -0.212
      -0.200
      -0.149
      -0.057
       0.068
       0.221
       0.396
       0.580
       0.752
       0.878
       0.919
       0.838
       0.623
       0.290
      -0.117
      -0.547
      -0.938
      -1.212
      -1.283
      -1.106
      -0.713
      -0.211
       0.280
       0.676
       0.937
       1.040
       0.966
       0.719
       0.354
      -0.018
      -0.285
      -0.405
      -0.419
      -0.409
      -0.420
      -0.434
      -0.408
      -0.338
      -0.261
      -0.221
      -0.212
      -0.181
      -0.064
       0.159
       0.456
       0.758
       1.001
       1.136
       1.119
       0.914
       0.515
      -0.026
      -0.602
      -1.087
      -1.381
      -1.442
      -1.288
      -0.983
      -0.599
      -0.193
       0.202
       0.555
       0.827
       0.965
       0.930
       0.728
       0.423
       0.112
      -0.114
      -0.221
      -0.226
      -0.181
      -0.129
      -0.084
      -0.045
      -0.011
      -0.008
      -0.071
      -0.214
      -0.387
      -0.497
      -0.469
      -0.311
      -0.100
       0.079
       0.187
       0.244
       0.285
       0.320
       0.317
       0.237
       0.072
      -0.127
      -0.281
      -0.335
      -0.272
      -0.112
       0.108
       0.339
       0.541
       0.693
       0.801
       0.868
       0.867
       0.739
       0.430
      -0.059
      -0.636
      -1.151
      -1.472
      -1.551
      -1.429
      -1.177
      -0.841
      -0.433
       0.034
       0.505
       0.886
       1.089
       1.099
       0.988
       0.854
       0.737
       0.597
       0.377
       0.074
      -0.242
      -0.484
      -0.626
      -0.713
      -0.795
      -0.853
      -0.808
      -0.598
      -0.256
       0.105
       0.371
       0.507
       0.549
       0.549
       0.516
       0.419
       0.239
       0.009
      -0.206
      -0.351
      -0.421
      -0.449
      -0.465
      -0.475
      -0.456
      -0.377
      -0.220
      -0.002
       0.220
       0.383
       0.465
       0.515
       0.626
       0.843
       1.100
       1.248
       1.154
       0.796
       0.259
      -0.318
      -0.818
      -1.181
      -1.396
      -1.474
      -1.426
      -1.259
      -0.994
      -0.676
      -0.363
      -0.095
       0.134
       0.359
       0.600
       0.831
       1.002
       1.086
       1.098
       1.057
       0.958
       0.772
       0.493
       0.169
      -0.115
      -0.287
      -0.349
      -0.374
      -0.437
      -0.554
      -0.674
      -0.739
      -0.729
      -0.663
      -0.564
      -0.443
      -0.297
      -0.133
       0.030
       0.161
       0.246
       0.286
       0.284
       0.238
       0.159
       0.100
       0.130
       0.271
       0.446
       0.513
       0.371
       0.049
      -0.307
      -0.537
      -0.575
      -0.481
      -0.365
      -0.277
      -0.170
       0.029
       0.322
       0.609
       0.765
       0.731
       0.543
       0.286
       0.030
      -0.186
      -0.328
      -0.357
      -0.262
      -0.102
       0.005
      -0.039
      -0.236
      -0.491
      -0.689
      -0.758
      -0.683
      -0.472
      -0.134
       0.291
       0.708
       0.982
       1.023
       0.855
       0.608
       0.416
       0.319
       0.263
       0.178
       0.047
      -0.098
      -0.236
      -0.390
      -0.596
      -0.832
      -1.001
      -1.002
      -0.818
      -0.529
      -0.244
       0.001
       0.255
       0.572
       0.931
       1.217
       1.289
       1.084
       0.670
       0.205
      -0.161
      -0.360
      -0.429
      -0.463
      -0.553
      -0.723
      -0.919
      -1.059
      -1.095
      -1.040
      -0.928
      -0.758
      -0.485
      -0.084
       0.389
       0.797
       1.016
       1.030
       0.956
       0.946
       1.059
       1.206
       1.221
       1.007
       0.603
       0.143
      -0.267
      -0.609
      -0.930
      -1.250
      -1.507
      -1.586
      -1.404
      -0.986
      -0.462
       0.018
       0.369
       0.591
       0.720
       0.776
       0.750
       0.631
       0.428
       0.174
      -0.091
      -0.335
      -0.536
      -0.671
      -0.703
      -0.592
      -0.319
       0.076
       0.499
       0.836
       1.010
       1.002
       0.845
       0.599
       0.329
       0.095
      -0.070
      -0.177
      -0.262
      -0.343
      -0.389
      -0.353
      -0.229
      -0.070
       0.040
       0.057
      -0.001
      -0.088
      -0.190
      -0.321
      -0.479
      -0.609
      -0.630
      -0.515
      -0.325
      -0.166
      -0.099
      -0.091
      -0.035
       0.154
       0.473
       0.824
       1.074
       1.139
       1.026
       0.811
       0.576
       0.344
       0.077
      -0.261
      -0.628
      -0.900
      -0.959
      -0.801
      -0.549
      -0.356
      -0.293
      -0.308
      -0.306
      -0.248
      -0.187
      -0.197
      -0.284
      -0.361
      -0.307
      -0.067
       0.297
       0.639
       0.823
       0.809
       0.650
       0.446
       0.277
       0.168
       0.088
      -0.017
      -0.172
      -0.355
      -0.517
      -0.623
      -0.654
      -0.595
      -0.421
      -0.120
       0.280
       0.708
       1.086
       1.365
       1.528
       1.553
       1.394
       1.009
       0.443
      -0.154
      -0.607
      -0.829
      -0.877
      -0.883
      -0.950
      -1.072
      -1.151
      -1.089
      -0.874
      -0.585
      -0.323
      -0.130
       0.034
       0.224
       0.443
       0.610
       0.606
       0.347
      -0.148
      -0.755
      -1.319
      -1.749
      -2.033
      -2.182
      -2.179
      -1.991
      -1.621
      -1.125
      -0.568
       0.026
       0.666
       1.354
       2.046
       2.668
       3.167
       3.544
       3.833
       4.041
       4.117
       3.986
       3.602
       2.977
       2.148
       1.128
      -0.096
      -1.517
      -3.034
      -4.446
      -5.514
      -6.062
      -6.040
      -5.518
      -4.618
      -3.462
      -2.147
      -0.765
       0.572
       1.718
       2.514
       2.831
       2.629
       1.988
       1.101
       0.217
      -0.425
      -0.662
      -0.440
       0.187
       1.112
       2.224
       3.433
       4.643
       5.720
       6.486
       6.743
       6.329
       5.167
       3.283
       0.794
      -2.109
      -5.183
      -8.150
     -10.737
     -12.688
     -13.768
     -13.762
     -12.531
     -10.087
      -6.645
      -2.585
       1.657
       5.701
       9.272
      12.186
      14.291
      15.455
      15.589
      14.694
      12.861
      10.232
       6.956
       3.193
      -0.848
      -4.899
      -8.660
     -11.855
     -14.270
     -15.757
     -16.215
     -15.564
     -13.746
     -10.769
      -6.795
      -2.185
       2.555
       6.908
      10.483
      13.054
      14.522
      14.849
      14.015
      12.035
       9.010
       5.188
       0.974
      -3.142
      -6.711
      -9.424
     -11.112
     -11.690
     -11.092
      -9.306
      -6.453
      -2.858
       0.962
       4.419
       7.011
       8.441
       8.637
       7.707
       5.867
       3.410
       0.679
      -1.953
      -4.144
      -5.642
      -6.310
      -6.104
      -5.060
      -3.320
      -1.167
       1.004
       2.787
       3.897
       4.243
       3.895
       2.987
       1.654
       0.052
      -1.586
      -2.955
      -3.781
      -3.921
      -3.388
      -2.299
      -0.823
       0.817
       2.346
       3.485
       4.043
       3.991
       3.452
       2.597
       1.550
       0.373
      -0.870
      -2.052
      -2.996
      -3.558
      -3.678
      -3.375
      -2.697
      -1.699
      -0.455
       0.900
       2.170
       3.152
       3.721
       3.879
       3.737
       3.420
       2.974
       2.349
       1.462
       0.305
      -1.014
      -2.302
      -3.370
      -4.099
      -4.455
      -4.453
      -4.107
      -3.414
      -2.388
      -1.118
       0.205
       1.334
       2.055
       2.261
       1.984
       1.365
       0.589
      -0.168
      -0.768
      -1.102
      -1.089
      -0.694
       0.055
       1.044
       2.090
       2.981
       3.540
       3.679
       3.415
       2.831
       2.022
       1.060
       0.000
      -1.115
      -2.242
      -3.326
      -4.287
      -5.028
      -5.446
      -5.442
      -4.925
      -3.825
      -2.153
      -0.043
       2.228
       4.291
       5.784
       6.465
       6.281
       5.341
       3.831
       1.942
      -0.108
      -2.030
      -3.485
      -4.204
      -4.111
      -3.361
      -2.230
      -0.973
       0.263
       1.404
       2.381
       3.082
       3.379
       3.185
       2.488
       1.355
      -0.092
      -1.685
      -3.229
      -4.522
      -5.390
      -5.710
      -5.438
      -4.599
      -3.250
      -1.449
       0.733
       3.140
       5.486
       7.389
       8.501
       8.640
       7.852
       6.348
       4.378
       2.122
      -0.307
      -2.778
      -5.053
      -6.809
      -7.763
      -7.838
      -7.216
      -6.227
      -5.157
      -4.116
      -3.066
      -1.925
      -0.675
       0.622
       1.871
       3.021
       4.092
       5.131
       6.124
       6.932
       7.326
       7.104
       6.195
       4.703
       2.868
       0.960
      -0.836
      -2.462
      -3.924
      -5.167
      -6.026
      -6.300
      -5.903
      -4.949
      -3.718
      -2.540
      -1.652
      -1.106
      -0.801
      -0.581
      -0.354
      -0.112
       0.118
       0.327
       0.530
       0.739
       0.966
       1.250
       1.678
       2.345
       3.263
       4.300
       5.202
       5.701
       5.616
       4.875
       3.491
       1.541
      -0.813
      -3.283
      -5.467
      -6.930
      -7.330
      -6.527
      -4.622
      -1.922
       1.116
       3.952
       6.066
       7.099
       6.944
       5.719
       3.651
       0.989
      -1.993
      -4.945
      -7.438
      -9.059
      -9.535
      -8.843
      -7.206
      -4.982
      -2.519
      -0.057
       2.259
       4.319
       5.999
       7.179
       7.799
       7.888
       7.524
       6.767
       5.631
       4.126
       2.332
       0.408
      -1.467
      -3.171
      -4.651
      -5.874
      -6.775
      -7.257
      -7.244
      -6.722
      -5.729
      -4.315
      -2.538
      -0.503
       1.609
       3.568
       5.169
       6.284
       6.859
       6.883
       6.377
       5.395
       4.033
       2.421
       0.713
      -0.921
      -2.323
      -3.374
      -4.024
      -4.285
      -4.205
      -3.851
      -3.314
      -2.725
      -2.227
      -1.908
      -1.746
      -1.615
      -1.375
      -0.947
      -0.332
       0.439
       1.357
       2.439
       3.680
       4.981
       6.127
       6.845
       6.912
       6.253
       4.941
       3.138
       1.027
      -1.204
      -3.366
      -5.270
      -6.750
      -7.666
      -7.913
      -7.443
      -6.324
      -4.774
      -3.124
      -1.687
      -0.612
       0.161
       0.812
       1.485
       2.208
       2.925
       3.596
       4.226
       4.819
       5.304
       5.522
       5.293
       4.513
       3.216
       1.553
      -0.265
      -2.032
      -3.597
      -4.865
      -5.769
      -6.224
      -6.124
      -5.400
      -4.099
      -2.398
      -0.541
       1.244
       2.807
       4.065
       4.969
       5.476
       5.554
       5.197
       4.431
       3.308
       1.907
       0.348
      -1.195
      -2.518
      -3.458
      -3.955
      -4.077
      -3.948
      -3.658
      -3.220
      -2.607
      -1.831
      -0.965
      -0.117
       0.618
       1.179
       1.536
       1.686
       1.644
       1.450
       1.163
       0.864
       0.629
       0.490
       0.416
       0.344
       0.243
       0.145
       0.128
       0.250
       0.504
       0.810
       1.053
       1.141
       1.038
       0.755
       0.321
      -0.229
      -0.849
      -1.464
      -1.986
      -2.320
      -2.392
      -2.162
      -1.639
      -0.898
      -0.065
       0.726
       1.379
       1.861
       2.174
       2.317
       2.271
       2.011
       1.525
       0.842
       0.044
      -0.736
      -1.359
      -1.734
      -1.852
      -1.772
      -1.581
      -1.350
      -1.120
      -0.912
      -0.719
      -0.499
      -0.182
       0.274
       0.829
       1.348
       1.670
       1.704
       1.472
       1.075
