Origin Time       31/5/2010 11:37:04	
Lat.              30.0 N	
Long.             79.8 E	
Depth (Km)         10.0
Magnitude         3.6
 Region           Almora-UTTRAKHAND                                                
 Above details taken from IMD 
     
Station Code      PIT
Station Lat.       29.579  N
Station Long.      80.207  E
Station Height(m) 1538.0
Site Class        A   Vs30 between 700 m/sec to 1400 m/sec * 
Record Time       31.05.2010 11:36:33.024
Sampling Rate     200. Hz
 Record Duration   81.710 Sec.
 Direction         E-W (E positive)
Max. Acceleration    -12.859 cm/sec**2
     
  * For reference see Site Classification link of website 
     
 Base Line Corrected and Low Pass Filtered (Cut Off at 35 Hz) Time History
 Acceleration data in cm/sec**2
    
[...]
       0.008
       0.006
       0.003
       0.003
       0.005
       0.009
       0.010
       0.006
       0.000
      -0.004
      -0.003
       0.001
       0.005
       0.004
       0.000
      -0.002
      -0.002
      -0.001
      -0.002
      -0.006
      -0.011
      -0.013
      -0.009
      -0.003
       0.001
       0.003
       0.006
       0.009
       0.010
       0.007
      -0.001
      -0.009
      -0.012
      -0.008
       0.001
       0.008
       0.008
       0.003
      -0.005
      -0.010
      -0.010
      -0.005
       0.002
       0.008
       0.010
       0.008
       0.004
      -0.001
      -0.003
      -0.002
       0.004
       0.009
       0.011
       0.010
       0.009
       0.008
       0.008
       0.007
       0.008
       0.009
       0.008
       0.004
      -0.002
      -0.006
      -0.009
      -0.010
      -0.006
       0.002
       0.010
       0.014
       0.013
       0.006
      -0.002
      -0.008
      -0.007
      -0.002
       0.002
       0.005
       0.007
       0.010
       0.011
       0.009
       0.006
       0.001
      -0.004
      -0.008
      -0.007
      -0.004
       0.001
       0.003
       0.002
      -0.003
      -0.010
      -0.015
      -0.012
      -0.002
       0.009
       0.013
       0.011
       0.005
      -0.001
      -0.004
      -0.006
      -0.007
      -0.010
      -0.013
      -0.012
      -0.008
      -0.003
      -0.004
      -0.010
      -0.015
      -0.013
      -0.006
       0.002
       0.005
       0.001
      -0.008
      -0.013
      -0.010
      -0.002
       0.005
       0.008
       0.006
      -0.003
      -0.013
      -0.017
      -0.013
      -0.008
      -0.006
      -0.009
      -0.014
      -0.015
      -0.011
      -0.001
       0.010
       0.017
       0.017
       0.014
       0.009
       0.002
      -0.008
      -0.018
      -0.023
      -0.021
      -0.015
      -0.010
      -0.006
      -0.002
       0.005
       0.013
       0.017
       0.014
       0.006
      -0.001
      -0.002
       0.003
       0.007
       0.008
       0.004
      -0.001
      -0.006
      -0.009
      -0.008
      -0.006
      -0.007
      -0.010
      -0.011
      -0.007
       0.000
       0.007
       0.006
      -0.001
      -0.008
      -0.011
      -0.010
      -0.009
      -0.009
      -0.008
      -0.004
       0.000
       0.000
      -0.004
      -0.007
      -0.005
       0.001
       0.007
       0.009
       0.005
      -0.004
      -0.013
      -0.017
      -0.016
      -0.012
      -0.008
      -0.005
      -0.001
       0.004
       0.007
       0.004
      -0.004
      -0.013
      -0.016
      -0.013
      -0.007
      -0.004
      -0.006
      -0.008
      -0.011
      -0.012
      -0.013
      -0.011
      -0.007
      -0.002
      -0.001
      -0.005
      -0.012
      -0.015
      -0.010
      -0.001
       0.006
       0.007
       0.000
      -0.009
      -0.018
      -0.022
      -0.017
      -0.008
       0.001
       0.003
       0.002
      -0.002
      -0.006
      -0.011
      -0.015
      -0.015
      -0.010
      -0.003
       0.003
       0.005
       0.001
      -0.007
      -0.014
      -0.015
      -0.011
      -0.004
       0.001
       0.000
      -0.006
      -0.014
      -0.017
      -0.012
      -0.003
       0.004
       0.007
       0.007
       0.005
       0.001
      -0.003
      -0.006
      -0.006
      -0.005
      -0.004
      -0.005
      -0.007
      -0.011
      -0.014
      -0.014
      -0.012
      -0.010
      -0.009
      -0.007
      -0.005
      -0.004
      -0.001
       0.001
       0.001
       0.001
       0.000
       0.000
      -0.001
      -0.001
       0.000
       0.003
       0.004
       0.001
      -0.005
      -0.011
      -0.012
      -0.011
      -0.008
      -0.006
      -0.005
      -0.008
      -0.011
      -0.012
      -0.009
      -0.003
       0.004
       0.009
       0.010
       0.006
       0.001
      -0.002
      -0.001
       0.001
       0.002
       0.004
       0.008
       0.010
       0.010
       0.008
       0.006
       0.004
       0.002
       0.004
       0.007
       0.011
       0.012
       0.010
       0.006
       0.004
       0.004
       0.006
       0.007
       0.005
       0.002
      -0.001
      -0.004
      -0.007
      -0.007
      -0.004
       0.001
       0.005
       0.005
       0.004
       0.003
       0.000
      -0.003
      -0.005
      -0.003
      -0.001
       0.000
      -0.002
      -0.006
      -0.010
      -0.013
      -0.013
      -0.009
      -0.001
       0.009
       0.018
       0.020
       0.016
       0.010
       0.006
       0.002
      -0.005
      -0.016
      -0.023
      -0.019
      -0.007
       0.004
       0.008
       0.005
      -0.001
      -0.005
      -0.006
      -0.006
      -0.004
      -0.001
       0.004
       0.007
       0.006
       0.002
      -0.003
      -0.009
      -0.016
      -0.020
      -0.017
      -0.007
       0.003
       0.009
       0.006
      -0.003
      -0.014
      -0.023
      -0.028
      -0.029
      -0.024
      -0.013
       0.001
       0.011
       0.008
      -0.006
      -0.022
      -0.032
      -0.031
      -0.023
      -0.013
      -0.006
      -0.005
      -0.010
      -0.015
      -0.015
      -0.011
      -0.005
      -0.002
      -0.003
      -0.007
      -0.013
      -0.017
      -0.020
      -0.018
      -0.010
      -0.001
       0.003
       0.000
      -0.008
      -0.012
      -0.010
      -0.002
       0.005
       0.006
       0.002
      -0.004
      -0.006
      -0.004
       0.000
       0.002
       0.000
      -0.004
      -0.009
      -0.011
      -0.010
      -0.007
      -0.003
       0.000
       0.001
       0.001
      -0.004
      -0.012
      -0.018
      -0.017
      -0.007
       0.005
       0.010
       0.004
      -0.009
      -0.023
      -0.032
      -0.031
      -0.023
      -0.015
      -0.011
      -0.010
      -0.007
      -0.001
       0.006
       0.012
       0.012
       0.005
      -0.008
      -0.017
      -0.018
      -0.010
      -0.002
       0.003
       0.001
      -0.004
      -0.009
      -0.011
      -0.011
      -0.009
      -0.006
      -0.001
       0.003
       0.002
      -0.002
      -0.006
      -0.005
      -0.002
       0.000
      -0.001
      -0.005
      -0.010
      -0.014
      -0.012
      -0.006
       0.002
       0.008
       0.011
       0.013
       0.015
       0.017
       0.016
       0.013
       0.008
       0.001
      -0.002
      -0.001
      -0.001
      -0.006
      -0.014
      -0.019
      -0.018
      -0.009
       0.001
       0.007
       0.004
      -0.009
      -0.022
      -0.023
      -0.010
       0.012
       0.029
       0.032
       0.017
      -0.005
      -0.021
      -0.018
       0.001
       0.021
       0.024
       0.006
      -0.023
      -0.041
      -0.030
       0.005
       0.042
       0.055
       0.027
      -0.036
      -0.107
      -0.147
      -0.126
      -0.039
       0.082
       0.178
       0.196
       0.121
      -0.007
      -0.118
      -0.152
      -0.101
      -0.009
       0.068
       0.091
       0.059
      -0.006
      -0.076
      -0.121
      -0.112
      -0.031
       0.107
       0.235
       0.262
       0.130
      -0.130
      -0.395
      -0.515
      -0.415
      -0.140
       0.169
       0.366
       0.384
       0.247
       0.040
      -0.155
      -0.278
      -0.296
      -0.203
      -0.033
       0.144
       0.254
       0.270
       0.227
       0.185
       0.175
       0.172
       0.121
      -0.004
      -0.163
      -0.274
      -0.271
      -0.142
       0.063
       0.267
       0.401
       0.420
       0.304
       0.052
      -0.307
      -0.698
      -0.996
      -1.071
      -0.854
      -0.382
       0.216
       0.767
       1.100
       1.101
       0.753
       0.161
      -0.459
      -0.853
      -0.839
      -0.409
       0.258
       0.886
       1.242
       1.220
       0.838
       0.189
      -0.588
      -1.296
      -1.714
      -1.667
      -1.126
      -0.248
       0.658
       1.252
       1.314
       0.858
       0.125
      -0.553
      -0.927
      -0.920
      -0.602
      -0.102
       0.458
       0.968
       1.313
       1.378
       1.091
       0.473
      -0.342
      -1.121
      -1.598
      -1.585
      -1.073
      -0.257
       0.535
       0.983
       0.924
       0.438
      -0.195
      -0.640
      -0.686
      -0.347
       0.164
       0.568
       0.673
       0.464
       0.087
      -0.264
      -0.467
      -0.516
      -0.480
      -0.428
      -0.373
      -0.282
      -0.110
       0.157
       0.471
       0.719
       0.775
       0.584
       0.208
      -0.178
      -0.369
      -0.256
       0.091
       0.436
       0.532
       0.294
      -0.133
      -0.493
      -0.608
      -0.504
      -0.353
      -0.300
      -0.315
      -0.219
       0.129
       0.636
       0.968
       0.794
       0.075
      -0.844
      -1.441
      -1.357
      -0.616
       0.418
       1.265
       1.582
       1.290
       0.559
      -0.292
      -0.939
      -1.168
      -0.961
      -0.487
      -0.003
       0.298
       0.380
       0.341
       0.300
       0.288
       0.229
       0.053
      -0.191
      -0.324
      -0.194
       0.157
       0.489
       0.552
       0.314
       0.005
      -0.079
       0.156
       0.494
       0.563
       0.130
      -0.709
      -1.564
      -1.980
      -1.699
      -0.788
       0.399
       1.396
       1.823
       1.531
       0.656
      -0.436
      -1.291
      -1.563
      -1.175
      -0.350
       0.528
       1.130
       1.342
       1.254
       1.018
       0.702
       0.282
      -0.252
      -0.787
      -1.124
      -1.127
      -0.829
      -0.384
       0.056
       0.410
       0.637
       0.668
       0.444
       0.000
      -0.483
      -0.768
      -0.717
      -0.395
      -0.003
       0.285
       0.441
       0.550
       0.660
       0.678
       0.423
      -0.182
      -0.953
      -1.506
      -1.511
      -0.934
      -0.056
       0.733
       1.172
       1.232
       1.047
       0.771
       0.478
       0.163
      -0.188
      -0.537
      -0.788
      -0.830
      -0.596
      -0.105
       0.507
       1.003
       1.135
       0.777
       0.033
      -0.789
      -1.329
      -1.375
      -0.967
      -0.338
       0.234
       0.575
       0.643
       0.479
       0.150
      -0.252
      -0.585
      -0.685
      -0.459
       0.031
       0.572
       0.916
       0.926
       0.636
       0.211
      -0.168
      -0.392
      -0.451
      -0.403
      -0.325
      -0.270
      -0.249
      -0.230
      -0.155
       0.021
       0.289
       0.574
       0.767
       0.798
       0.689
       0.511
       0.303
       0.031
      -0.360
      -0.832
      -1.220
      -1.316
      -1.035
      -0.512
      -0.040
       0.111
      -0.125
      -0.566
      -0.895
      -0.838
      -0.292
       0.645
       1.704
       2.530
       2.798
       2.360
       1.336
       0.100
      -0.876
      -1.259
      -1.027
      -0.466
      -0.001
       0.036
      -0.429
      -1.199
      -1.924
      -2.278
      -2.113
      -1.502
      -0.678
       0.104
       0.694
       1.094
       1.401
       1.671
       1.814
       1.646
       1.080
       0.289
      -0.341
      -0.485
      -0.132
       0.380
       0.619
       0.371
      -0.213
      -0.758
      -0.957
      -0.795
      -0.518
      -0.385
      -0.435
      -0.486
      -0.360
      -0.101
       0.059
      -0.062
      -0.392
      -0.625
      -0.467
       0.122
       0.867
       1.352
       1.286
       0.695
      -0.095
      -0.667
      -0.776
      -0.486
      -0.087
       0.118
       0.020
      -0.251
      -0.450
      -0.404
      -0.114
       0.285
       0.641
       0.867
       0.948
       0.888
       0.678
       0.319
      -0.129
      -0.532
      -0.749
      -0.718
      -0.497
      -0.217
       0.006
       0.097
       0.017
      -0.254
      -0.666
      -1.056
      -1.183
      -0.864
      -0.139
       0.698
       1.249
       1.269
       0.816
       0.184
      -0.322
      -0.584
      -0.677
      -0.716
      -0.710
      -0.569
      -0.218
       0.301
       0.830
       1.185
       1.220
       0.859
       0.126
      -0.811
      -1.634
      -1.964
      -1.562
      -0.504
       0.786
       1.729
       1.897
       1.273
       0.252
      -0.609
      -0.943
      -0.773
      -0.433
      -0.280
      -0.440
      -0.750
      -0.929
      -0.816
      -0.487
      -0.191
      -0.142
      -0.342
      -0.567
      -0.522
      -0.057
       0.730
       1.569
       2.179
       2.395
       2.191
       1.640
       0.876
       0.073
      -0.584
      -0.937
      -0.899
      -0.486
       0.151
       0.746
       1.000
       0.720
      -0.085
      -1.222
      -2.432
      -3.480
      -4.162
      -4.282
      -3.680
      -2.357
      -0.577
       1.169
       2.381
       2.812
       2.592
       2.093
       1.648
       1.361
       1.153
       0.972
       0.932
       1.230
       1.914
       2.730
       3.229
       3.070
       2.297
       1.375
       0.946
       1.467
       2.942
       4.881
       6.495
       7.035
       6.110
       3.833
       0.721
      -2.574
      -5.537
      -7.938
      -9.795
     -11.224
     -12.276
     -12.859
     -12.772
     -11.844
     -10.061
      -7.597
      -4.721
      -1.672
       1.397
       4.359
       7.010
       9.063
      10.249
      10.474
       9.873
       8.706
       7.194
       5.425
       3.424
       1.305
      -0.645
      -2.039
      -2.582
      -2.240
      -1.252
       0.028
       1.342
       2.609
       3.804
       4.753
       5.081
       4.395
       2.598
       0.038
      -2.671
      -5.012
      -6.820
      -8.236
      -9.426
     -10.308
     -10.525
      -9.662
      -7.552
      -4.441
      -0.899
       2.432
       5.096
       6.932
       7.996
       8.387
       8.125
       7.180
       5.610
       3.667
       1.755
       0.263
      -0.613
      -0.937
      -0.949
      -0.924
      -1.055
      -1.431
      -2.037
      -2.762
      -3.399
      -3.698
      -3.487
      -2.762
      -1.688
      -0.501
       0.614
       1.558
       2.284
       2.722
       2.776
       2.365
       1.503
       0.329
      -0.937
      -2.077
      -2.930
      -3.375
      -3.277
      -2.486
      -0.936
       1.203
       3.487
       5.341
       6.323
       6.303
       5.440
       4.009
       2.232
       0.243
      -1.851
      -3.901
      -5.707
      -7.058
      -7.786
      -7.789
      -7.036
      -5.588
      -3.621
      -1.411
       0.737
       2.592
       4.042
       5.076
       5.703
       5.908
       5.659
       4.971
       3.952
       2.788
       1.654
       0.648
      -0.217
      -0.955
      -1.553
      -1.984
      -2.248
      -2.406
      -2.531
      -2.626
      -2.574
      -2.195
      -1.392
      -0.255
       0.956
       1.935
       2.473
       2.507
       2.092
       1.328
       0.346
      -0.673
      -1.505
      -1.968
      -2.034
      -1.865
      -1.712
      -1.726
      -1.833
      -1.788
      -1.352
      -0.487
       0.601
       1.576
       2.149
       2.196
       1.770
       1.062
       0.345
      -0.113
      -0.138
       0.266
       0.917
       1.530
       1.855
       1.783
       1.389
       0.869
       0.419
       0.143
       0.030
       0.018
       0.055
       0.116
       0.171
       0.154
      -0.017
      -0.400
      -0.985
      -1.681
      -2.335
      -2.768
      -2.829
      -2.463
      -1.757
      -0.921
      -0.186
       0.307
       0.571
       0.718
       0.858
       1.019
       1.154
       1.210
       1.191
       1.157
       1.174
       1.248
       1.310
       1.246
       0.954
       0.413
      -0.295
      -1.016
      -1.598
      -1.967
      -2.145
      -2.187
      -2.117
      -1.891
      -1.445
      -0.786
      -0.051
       0.542
       0.835
       0.852
       0.790
       0.886
       1.253
       1.803
       2.283
       2.403
       1.989
       1.080
      -0.067
      -1.083
      -1.649
      -1.625
      -1.085
      -0.254
       0.588
       1.188
       1.371
       1.094
       0.471
      -0.255
      -0.816
      -1.039
      -0.920
      -0.608
      -0.304
      -0.160
      -0.226
      -0.459
      -0.772
      -1.070
      -1.270
      -1.312
      -1.175
      -0.879
      -0.470
       0.001
       0.481
       0.914
       1.228
       1.357
       1.273
       1.016
       0.687
       0.395
       0.206
       0.118
       0.096
       0.114
       0.162
       0.234
       0.296
       0.296
       0.193
      -0.007
      -0.263
      -0.530
      -0.786
      -1.010
      -1.148
      -1.113
      -0.842
      -0.358
       0.218
       0.733
       1.073
       1.197
       1.122
       0.898
       0.593
       0.299
       0.106
       0.056
       0.096
       0.105
      -0.017
      -0.263
      -0.512
      -0.617
      -0.511
      -0.263
      -0.020
       0.095
       0.055
      -0.079
      -0.234
      -0.389
      -0.567
      -0.784
      -0.999
      -1.119
      -1.053
      -0.777
      -0.357
       0.086
       0.456
       0.722
       0.908
       1.054
       1.173
       1.252
       1.275
       1.242
       1.160
       1.029
       0.829
       0.523
       0.087
      -0.470
      -1.099
      -1.721
      -2.232
      -2.511
      -2.455
      -2.039
      -1.355
      -0.608
      -0.034
       0.215
       0.151
      -0.052
      -0.153
       0.030
       0.528
       1.215
       1.871
       2.280
       2.310
       1.957
       1.318
       0.545
      -0.209
      -0.810
      -1.150
      -1.164
      -0.843
      -0.254
       0.469
       1.158
       1.666
       1.905
       1.861
       1.569
       1.097
       0.537
      -0.003
      -0.427
      -0.706
      -0.906
      -1.152
      -1.528
      -1.997
      -2.412
      -2.633
      -2.635
      -2.509
      -2.362
      -2.214
      -1.990
      -1.601
      -1.024
      -0.321
       0.414
       1.111
       1.742
       2.282
       2.687
       2.905
       2.913
       2.745
       2.479
       2.181
       1.865
       1.496
       1.029
       0.464
      -0.139
      -0.684
      -1.092
      -1.332
      -1.419
      -1.397
      -1.306
      -1.166
      -0.967
      -0.703
      -0.397
      -0.125
       0.019
      -0.029
      -0.265
      -0.609
      -0.936
      -1.122
      -1.097
      -0.864
      -0.496
      -0.100
       0.237
       0.484
       0.659
       0.804
       0.946
       1.084
       1.186
       1.206
       1.098
       0.834
       0.426
      -0.065
      -0.542
      -0.909
      -1.120
      -1.183
      -1.130
      -0.972
      -0.713
      -0.402
      -0.156
      -0.101
      -0.253
      -0.450
      -0.428
      -0.008
       0.750
       1.546
       2.031
       2.028
       1.634
       1.106
       0.649
       0.285
      -0.085
      -0.526
      -0.966
      -1.256
