Origin Time       19/08/2008 10:54:26
Lat.              30.1°N 
Long.             80.1°E 
Depth (Km)         15.0
Magnitude         4.3
 Region           PITHORAGARH                                                      
 Above details taken from IMD 
     
Station Code      PIT
Station Lat.       29.579  N
Station Long.      80.207  E
Station Height(m) 1538.0
Site Class        A   Vs30 between 700 m/sec to 1400 m/sec * 
Record Time       19.08.2008 10:54:28.399
Sampling Rate     200. Hz
 Record Duration   66.060 Sec.
 Direction         E-W (E positive)
Max. Acceleration     -2.661 cm/sec**2
     
  * For reference see Site Classification link of website 
     
 Base Line Corrected and Low Pass Filtered (Cut Off at 35 Hz) Time History
 Acceleration data in cm/sec**2
    
[...]
      -0.117
       0.035
       0.153
       0.222
       0.249
       0.254
       0.255
       0.251
       0.228
       0.171
       0.077
      -0.048
      -0.190
      -0.333
      -0.448
      -0.500
      -0.458
      -0.326
      -0.144
       0.026
       0.132
       0.151
       0.092
      -0.019
      -0.141
      -0.231
      -0.245
      -0.164
      -0.009
       0.166
       0.297
       0.358
       0.361
       0.345
       0.330
       0.306
       0.247
       0.150
       0.040
      -0.045
      -0.090
      -0.111
      -0.136
      -0.174
      -0.198
      -0.177
      -0.114
      -0.049
      -0.023
      -0.038
      -0.049
      -0.012
       0.077
       0.175
       0.227
       0.209
       0.142
       0.066
      -0.001
      -0.067
      -0.148
      -0.238
      -0.312
      -0.344
      -0.336
      -0.300
      -0.239
      -0.143
      -0.010
       0.132
       0.232
       0.256
       0.216
       0.157
       0.119
       0.100
       0.072
       0.019
      -0.046
      -0.087
      -0.080
      -0.021
       0.076
       0.183
       0.267
       0.293
       0.236
       0.102
      -0.069
      -0.212
      -0.272
      -0.236
      -0.139
      -0.037
       0.024
       0.030
      -0.010
      -0.071
      -0.128
      -0.159
      -0.150
      -0.100
      -0.025
       0.052
       0.119
       0.174
       0.219
       0.243
       0.218
       0.131
       0.003
      -0.108
      -0.149
      -0.107
      -0.018
       0.061
       0.092
       0.072
       0.019
      -0.049
      -0.118
      -0.166
      -0.166
      -0.106
      -0.003
       0.103
       0.164
       0.153
       0.077
      -0.027
      -0.115
      -0.157
      -0.145
      -0.090
      -0.013
       0.060
       0.101
       0.097
       0.052
      -0.013
      -0.070
      -0.105
      -0.117
      -0.113
      -0.096
      -0.058
       0.006
       0.089
       0.167
       0.209
       0.194
       0.124
       0.024
      -0.066
      -0.112
      -0.096
      -0.021
       0.092
       0.208
       0.283
       0.282
       0.199
       0.075
      -0.030
      -0.076
      -0.068
      -0.048
      -0.056
      -0.094
      -0.124
      -0.105
      -0.037
       0.037
       0.063
       0.009
      -0.114
      -0.261
      -0.382
      -0.438
      -0.415
      -0.318
      -0.164
       0.017
       0.185
       0.305
       0.351
       0.327
       0.261
       0.198
       0.182
       0.223
       0.297
       0.358
       0.369
       0.323
       0.235
       0.124
      -0.003
      -0.140
      -0.271
      -0.367
      -0.409
      -0.411
      -0.408
      -0.427
      -0.450
      -0.421
      -0.294
      -0.080
       0.146
       0.302
       0.356
       0.337
       0.298
       0.265
       0.230
       0.178
       0.114
       0.059
       0.031
       0.020
       0.001
      -0.033
      -0.064
      -0.060
      -0.010
       0.063
       0.111
       0.092
       0.006
      -0.110
      -0.208
      -0.252
      -0.228
      -0.132
       0.029
       0.230
       0.421
       0.533
       0.509
       0.338
       0.062
      -0.238
      -0.485
      -0.631
      -0.663
      -0.595
      -0.454
      -0.284
      -0.132
      -0.034
       0.009
       0.035
       0.092
       0.201
       0.331
       0.431
       0.469
       0.457
       0.428
       0.402
       0.363
       0.281
       0.137
      -0.055
      -0.254
      -0.418
      -0.527
      -0.578
      -0.580
      -0.534
      -0.433
      -0.279
      -0.091
       0.096
       0.238
       0.314
       0.332
       0.325
       0.327
       0.349
       0.370
       0.355
       0.286
       0.174
       0.058
      -0.027
      -0.073
      -0.092
      -0.096
      -0.077
      -0.029
       0.033
       0.071
       0.051
      -0.020
      -0.105
      -0.168
      -0.203
      -0.231
      -0.277
      -0.339
      -0.395
      -0.420
      -0.399
      -0.334
      -0.230
      -0.097
       0.044
       0.158
       0.212
       0.201
       0.161
       0.148
       0.197
       0.300
       0.412
       0.492
       0.532
       0.549
       0.543
       0.492
       0.373
       0.198
       0.014
      -0.137
      -0.250
      -0.353
      -0.470
      -0.580
      -0.622
      -0.547
      -0.367
      -0.156
      -0.003
       0.053
       0.030
      -0.017
      -0.046
      -0.042
      -0.010
       0.041
       0.109
       0.191
       0.276
       0.341
       0.369
       0.346
       0.270
       0.153
       0.018
      -0.111
      -0.216
      -0.285
      -0.308
      -0.266
      -0.151
       0.012
       0.155
       0.201
       0.121
      -0.034
      -0.157
      -0.169
      -0.065
       0.082
       0.188
       0.216
       0.187
       0.137
       0.075
      -0.008
      -0.106
      -0.173
      -0.154
      -0.041
       0.101
       0.179
       0.137
       0.002
      -0.153
      -0.264
      -0.314
      -0.312
      -0.262
      -0.163
      -0.031
       0.084
       0.126
       0.085
       0.013
      -0.004
       0.083
       0.243
       0.382
       0.415
       0.334
       0.197
       0.082
       0.027
       0.024
       0.051
       0.093
       0.139
       0.157
       0.105
      -0.034
      -0.215
      -0.361
      -0.408
      -0.358
      -0.264
      -0.184
      -0.137
      -0.111
      -0.090
      -0.076
      -0.071
      -0.059
      -0.006
       0.092
       0.197
       0.249
       0.222
       0.148
       0.093
       0.094
       0.132
       0.156
       0.132
       0.073
       0.013
      -0.032
      -0.075
      -0.131
      -0.195
      -0.244
      -0.257
      -0.233
      -0.179
      -0.099
       0.010
       0.144
       0.274
       0.352
       0.346
       0.264
       0.149
       0.041
      -0.040
      -0.091
      -0.110
      -0.087
      -0.022
       0.069
       0.157
       0.211
       0.216
       0.175
       0.096
      -0.014
      -0.156
      -0.319
      -0.480
      -0.610
      -0.680
      -0.673
      -0.586
      -0.434
      -0.243
      -0.043
       0.146
       0.315
       0.455
       0.551
       0.589
       0.560
       0.478
       0.373
       0.281
       0.220
       0.187
       0.166
       0.140
       0.098
       0.037
      -0.037
      -0.108
      -0.156
      -0.172
      -0.164
      -0.157
      -0.175
      -0.221
      -0.275
      -0.316
      -0.335
      -0.343
      -0.345
      -0.330
      -0.278
      -0.192
      -0.099
      -0.030
       0.018
       0.075
       0.175
       0.312
       0.439
       0.506
       0.493
       0.425
       0.343
       0.275
       0.215
       0.138
       0.027
      -0.110
      -0.241
      -0.335
      -0.372
      -0.351
      -0.283
      -0.191
      -0.118
      -0.107
      -0.173
      -0.283
      -0.365
      -0.349
      -0.203
       0.051
       0.346
       0.602
       0.753
       0.765
       0.632
       0.384
       0.076
      -0.217
      -0.414
      -0.461
      -0.350
      -0.131
       0.107
       0.270
       0.306
       0.212
       0.030
      -0.185
      -0.374
      -0.491
      -0.507
      -0.424
      -0.269
      -0.083
       0.089
       0.211
       0.265
       0.249
       0.187
       0.111
       0.052
       0.015
      -0.018
      -0.068
      -0.134
      -0.190
      -0.204
      -0.160
      -0.068
       0.055
       0.192
       0.331
       0.448
       0.508
       0.484
       0.377
       0.227
       0.090
      -0.002
      -0.054
      -0.084
      -0.103
      -0.105
      -0.098
      -0.116
      -0.201
      -0.361
      -0.544
      -0.661
      -0.645
      -0.496
      -0.281
      -0.079
       0.069
       0.185
       0.314
       0.477
       0.639
       0.735
       0.710
       0.570
       0.371
       0.188
       0.066
       0.007
      -0.011
      -0.001
       0.045
       0.144
       0.282
       0.400
       0.415
       0.281
       0.023
      -0.283
      -0.557
      -0.754
      -0.867
      -0.900
      -0.852
      -0.722
      -0.531
      -0.338
      -0.211
      -0.180
      -0.213
      -0.239
      -0.200
      -0.088
       0.066
       0.218
       0.344
       0.437
       0.491
       0.488
       0.415
       0.283
       0.145
       0.068
       0.087
       0.188
       0.322
       0.439
       0.502
       0.491
       0.397
       0.226
       0.013
      -0.179
      -0.284
      -0.275
      -0.192
      -0.129
      -0.175
      -0.353
      -0.597
      -0.787
      -0.823
      -0.677
      -0.404
      -0.096
       0.171
       0.357
       0.446
       0.437
       0.349
       0.235
       0.175
       0.234
       0.402
       0.581
       0.634
       0.479
       0.155
      -0.211
      -0.485
      -0.613
      -0.629
      -0.605
      -0.591
      -0.581
      -0.534
      -0.413
      -0.218
       0.024
       0.277
       0.505
       0.675
       0.765
       0.781
       0.765
       0.771
       0.817
       0.867
       0.847
       0.694
       0.403
       0.035
      -0.318
      -0.581
      -0.726
      -0.771
      -0.754
      -0.712
      -0.684
      -0.710
      -0.826
      -1.031
      -1.270
      -1.437
      -1.432
      -1.210
      -0.804
      -0.292
       0.244
       0.739
       1.145
       1.429
       1.580
       1.619
       1.594
       1.565
       1.569
       1.598
       1.599
       1.509
       1.279
       0.887
       0.334
      -0.347
      -1.078
      -1.733
      -2.180
      -2.342
      -2.247
      -2.012
      -1.770
      -1.586
      -1.427
      -1.199
      -0.827
      -0.298
       0.339
       1.005
       1.626
       2.136
       2.477
       2.599
       2.471
       2.101
       1.547
       0.917
       0.326
      -0.143
      -0.462
      -0.649
      -0.732
      -0.734
      -0.674
      -0.589
      -0.534
      -0.568
      -0.715
      -0.947
      -1.199
      -1.397
      -1.490
      -1.473
      -1.372
      -1.215
      -1.010
      -0.759
      -0.471
      -0.172
       0.114
       0.379
       0.627
       0.869
       1.101
       1.307
       1.455
       1.512
       1.470
       1.344
       1.160
       0.922
       0.608
       0.198
      -0.290
      -0.775
      -1.147
      -1.317
      -1.257
      -0.993
      -0.575
      -0.064
       0.469
       0.945
       1.291
       1.462
       1.463
       1.346
       1.180
       1.018
       0.868
       0.702
       0.469
       0.123
      -0.359
      -0.948
      -1.565
      -2.093
      -2.424
      -2.495
      -2.309
      -1.929
      -1.440
      -0.931
      -0.476
      -0.128
       0.085
       0.181
       0.219
       0.273
       0.385
       0.557
       0.752
       0.934
       1.080
       1.181
       1.226
       1.195
       1.058
       0.807
       0.472
       0.113
      -0.209
      -0.470
      -0.676
      -0.843
      -0.957
      -0.970
      -0.833
      -0.547
      -0.184
       0.141
       0.351
       0.454
       0.539
       0.700
       0.959
       1.248
       1.454
       1.499
       1.369
       1.098
       0.723
       0.274
      -0.212
      -0.687
      -1.095
      -1.398
      -1.583
      -1.648
      -1.594
      -1.430
      -1.174
      -0.847
      -0.467
      -0.056
       0.355
       0.706
       0.930
       0.993
       0.920
       0.776
       0.609
       0.419
       0.173
      -0.139
      -0.471
      -0.744
      -0.909
      -0.976
      -0.998
      -1.004
      -0.955
      -0.780
      -0.443
       0.002
       0.440
       0.773
       0.987
       1.146
       1.320
       1.514
       1.660
       1.668
       1.501
       1.191
       0.810
       0.418
       0.029
      -0.375
      -0.798
      -1.204
      -1.525
      -1.706
      -1.742
      -1.672
      -1.532
      -1.329
      -1.049
      -0.693
      -0.302
       0.063
       0.358
       0.585
       0.768
       0.914
       0.997
       0.977
       0.840
       0.621
       0.382
       0.183
       0.063
       0.034
       0.091
       0.207
       0.338
       0.436
       0.469
       0.432
       0.329
       0.160
      -0.092
      -0.438
      -0.850
      -1.247
      -1.520
      -1.588
      -1.430
      -1.087
      -0.638
      -0.178
       0.203
       0.438
       0.509
       0.466
       0.407
       0.431
       0.577
       0.807
       1.040
       1.208
       1.285
       1.283
       1.225
       1.121
       0.964
       0.745
       0.466
       0.144
      -0.194
      -0.506
      -0.733
      -0.813
      -0.711
      -0.448
      -0.105
       0.216
       0.428
       0.487
       0.385
       0.144
      -0.191
      -0.548
      -0.846
      -1.032
      -1.104
      -1.115
      -1.137
      -1.215
      -1.337
      -1.439
      -1.435
      -1.246
      -0.845
      -0.268
       0.384
       0.981
       1.411
       1.627
       1.660
       1.592
       1.501
       1.418
       1.323
       1.173
       0.940
       0.632
       0.280
      -0.095
      -0.497
      -0.939
      -1.392
      -1.769
      -1.954
      -1.867
      -1.520
      -1.015
      -0.484
      -0.020
       0.361
       0.690
       0.997
       1.284
       1.541
       1.759
       1.922
       1.982
       1.865
       1.506
       0.903
       0.138
      -0.660
      -1.377
      -1.955
      -2.378
      -2.628
      -2.661
      -2.430
      -1.942
      -1.279
      -0.570
       0.087
       0.659
       1.155
       1.562
       1.820
       1.852
       1.646
       1.283
       0.895
       0.582
       0.361
       0.187
       0.012
      -0.163
      -0.299
      -0.361
      -0.360
      -0.336
      -0.331
      -0.363
      -0.428
      -0.504
      -0.552
      -0.522
      -0.370
      -0.098
       0.225
       0.481
       0.555
       0.389
       0.017
      -0.454
      -0.872
      -1.106
      -1.094
      -0.869
      -0.539
      -0.217
       0.042
       0.250
       0.450
       0.659
       0.854
       0.988
       1.034
       1.006
       0.944
       0.883
       0.825
       0.738
       0.586
       0.358
       0.070
      -0.241
      -0.532
      -0.759
      -0.890
      -0.912
      -0.839
      -0.689
      -0.483
      -0.255
      -0.062
       0.015
      -0.073
      -0.299
      -0.542
      -0.643
      -0.505
      -0.161
       0.248
       0.561
       0.698
       0.686
       0.603
       0.506
       0.394
       0.242
       0.057
      -0.109
      -0.206
      -0.243
      -0.282
      -0.381
      -0.540
      -0.702
      -0.811
      -0.857
      -0.869
      -0.859
      -0.780
      -0.548
      -0.105
       0.513
       1.165
       1.673
       1.917
       1.880
       1.636
       1.285
       0.899
       0.518
       0.168
      -0.115
      -0.298
      -0.372
      -0.367
      -0.335
      -0.330
      -0.384
      -0.503
      -0.663
      -0.813
      -0.889
      -0.838
      -0.652
      -0.375
      -0.089
       0.134
       0.267
       0.316
       0.286
       0.156
      -0.088
      -0.409
      -0.705
      -0.870
      -0.861
      -0.720
      -0.527
      -0.322
      -0.086
       0.206
       0.520
       0.763
       0.848
       0.775
       0.637
       0.546
       0.549
       0.596
       0.603
       0.525
       0.392
       0.271
       0.199
       0.153
       0.085
      -0.032
      -0.181
      -0.323
      -0.439
      -0.535
      -0.623
      -0.701
      -0.748
      -0.739
      -0.661
      -0.514
      -0.308
      -0.069
       0.159
       0.332
       0.428
       0.466
       0.482
       0.492
       0.486
       0.451
       0.395
       0.350
       0.343
       0.361
       0.352
       0.266
       0.102
      -0.085
      -0.226
      -0.279
      -0.246
      -0.146
      -0.001
       0.166
       0.311
       0.370
       0.289
       0.073
      -0.206
      -0.447
      -0.582
      -0.606
      -0.560
      -0.490
      -0.421
      -0.364
      -0.328
      -0.321
      -0.345
      -0.377
      -0.378
      -0.319
      -0.203
      -0.056
       0.098
       0.248
       0.385
       0.497
       0.570
       0.616
       0.679
       0.806
       0.988
       1.151
       1.196
       1.083
       0.857
       0.609
       0.397
       0.207
      -0.020
      -0.318
      -0.659
      -0.980
      -1.235
      -1.426
      -1.579
      -1.702
      -1.770
      -1.746
      -1.610
      -1.370
      -1.047
      -0.670
      -0.270
       0.119
       0.471
       0.781
       1.066
       1.355
       1.654
       1.927
       2.110
       2.147
       2.018
       1.735
       1.326
       0.838
       0.338
      -0.101
      -0.423
      -0.626
      -0.759
      -0.883
      -1.031
      -1.190
      -1.324
      -1.406
      -1.429
      -1.385
      -1.250
      -0.986
      -0.578
      -0.076
       0.414
       0.773
       0.926
       0.872
       0.682
       0.449
       0.250
       0.113
       0.026
      -0.039
      -0.096
      -0.135
      -0.123
      -0.024
       0.165
       0.403
       0.617
       0.742
       0.746
       0.645
       0.483
       0.301
       0.104
      -0.133
      -0.422
      -0.719
      -0.914
      -0.882
      -0.562
      -0.014
       0.580
       1.012
       1.149
       1.003
       0.694
       0.357
       0.060
      -0.224
      -0.561
      -0.977
      -1.415
      -1.768
      -1.944
      -1.927
      -1.768
      -1.534
      -1.250
      -0.889
      -0.416
       0.151
       0.732
       1.225
       1.568
       1.762
       1.848
       1.853
       1.768
       1.569
       1.262
       0.898
       0.554
       0.282
       0.088
      -0.057
      -0.177
      -0.280
      -0.364
      -0.433
      -0.493
      -0.537
      -0.546
      -0.508
      -0.435
      -0.374
      -0.374
      -0.460
      -0.607
      -0.746
      -0.795
      -0.688
      -0.412
      -0.018
       0.392
       0.707
       0.853
       0.831
       0.701
       0.546
       0.428
       0.357
       0.300
       0.203
       0.034
      -0.186
      -0.391
      -0.503
      -0.483
      -0.364
      -0.229
      -0.164
      -0.199
      -0.296
      -0.385
      -0.423
      -0.417
      -0.403
      -0.401
      -0.389
      -0.323
      -0.183
       0.002
       0.174
       0.302
       0.399
       0.504
       0.632
       0.759
       0.846
       0.868
       0.815
       0.682
       0.457
       0.146
      -0.212
      -0.539
      -0.764
      -0.870
      -0.910
      -0.956
      -1.033
      -1.089
      -1.033
      -0.814
      -0.470
      -0.101
       0.193
       0.380
       0.498
       0.617
       0.786
       0.995
       1.186
       1.280
       1.216
       0.987
       0.644
       0.275
      -0.040
      -0.270
      -0.435
      -0.574
      -0.698
      -0.779
      -0.768
      -0.643
      -0.415
      -0.125
       0.183
       0.462
       0.656
       0.717
       0.637
       0.461
       0.256
       0.067
      -0.098
      -0.246
      -0.371
      -0.446
      -0.458
      -0.432
      -0.435
      -0.528
      -0.720
      -0.949
      -1.106
