Origin Time       04/09/2008 12:53:21
Lat.              30.1°N 
Long.             80.4°E 
Depth (Km)         10.0
Magnitude         5.1
 Region           INDIA(UTTARAKHAND)-TIBET-BORDER-REGION                           
 Above details taken from IMD 
   
Station Code      PIT
Station Lat.       29.579
Station Long.      80.207
Station Height(m) 1538.0
Site Class        A   Vs30 between 700 m/sec to 1400 m/sec * 
Record Time       04.09.2008 12:53:19.299
Sampling Rate     200. Hz
 Record Duration   76.560 Sec.
 Direction         Vert. (Up positive)
Max. Acceleration      3.444 cm/sec**2
     
  * For reference see Site Classification link of website 
     
 Base Line Corrected and Low Pass Filtered (Cut Off at 35 Hz) Time History
 Acceleration data in cm/sec**2
    
[...]
      -0.074
       0.066
       0.165
       0.192
       0.158
       0.097
       0.037
      -0.026
      -0.112
      -0.233
      -0.373
      -0.492
      -0.552
      -0.535
      -0.452
      -0.326
      -0.180
      -0.037
       0.089
       0.188
       0.258
       0.307
       0.335
       0.338
       0.304
       0.240
       0.167
       0.108
       0.066
       0.020
      -0.054
      -0.151
      -0.234
      -0.260
      -0.211
      -0.107
       0.013
       0.118
       0.208
       0.300
       0.403
       0.506
       0.577
       0.590
       0.539
       0.446
       0.338
       0.232
       0.118
      -0.028
      -0.212
      -0.402
      -0.537
      -0.561
      -0.465
      -0.298
      -0.139
      -0.047
      -0.026
      -0.035
      -0.032
      -0.002
       0.030
       0.028
      -0.027
      -0.127
      -0.252
      -0.369
      -0.447
      -0.455
      -0.374
      -0.215
      -0.013
       0.186
       0.350
       0.462
       0.516
       0.505
       0.435
       0.328
       0.223
       0.152
       0.116
       0.096
       0.065
       0.017
      -0.038
      -0.094
      -0.155
      -0.228
      -0.305
      -0.363
      -0.377
      -0.336
      -0.244
      -0.117
       0.022
       0.144
       0.221
       0.240
       0.210
       0.161
       0.127
       0.125
       0.145
       0.161
       0.146
       0.097
       0.036
      -0.003
       0.005
       0.057
       0.133
       0.203
       0.244
       0.242
       0.188
       0.081
      -0.064
      -0.214
      -0.326
      -0.378
      -0.378
      -0.351
      -0.322
      -0.297
      -0.265
      -0.214
      -0.139
      -0.044
       0.065
       0.183
       0.308
       0.432
       0.542
       0.615
       0.631
       0.582
       0.481
       0.359
       0.246
       0.159
       0.104
       0.083
       0.091
       0.107
       0.094
       0.010
      -0.154
      -0.374
      -0.604
      -0.805
      -0.958
      -1.055
      -1.087
      -1.037
      -0.897
      -0.690
      -0.464
      -0.274
      -0.152
      -0.090
      -0.049
       0.014
       0.124
       0.276
       0.434
       0.565
       0.655
       0.720
       0.781
       0.837
       0.865
       0.840
       0.755
       0.629
       0.482
       0.330
       0.189
       0.084
       0.038
       0.049
       0.076
       0.055
      -0.058
      -0.254
      -0.480
      -0.672
      -0.787
      -0.818
      -0.793
      -0.755
      -0.746
      -0.782
      -0.846
      -0.889
      -0.866
      -0.756
      -0.579
      -0.369
      -0.148
       0.080
       0.316
       0.548
       0.743
       0.865
       0.894
       0.851
       0.789
       0.766
       0.797
       0.832
       0.779
       0.572
       0.230
      -0.146
      -0.425
      -0.528
      -0.473
      -0.348
      -0.242
      -0.192
      -0.178
      -0.162
      -0.121
      -0.065
      -0.011
       0.035
       0.087
       0.166
       0.272
       0.379
       0.438
       0.411
       0.287
       0.096
      -0.106
      -0.260
      -0.328
      -0.312
      -0.250
      -0.186
      -0.146
      -0.126
      -0.105
      -0.063
       0.000
       0.067
       0.121
       0.153
       0.165
       0.165
       0.154
       0.119
       0.036
      -0.118
      -0.335
      -0.564
      -0.730
      -0.772
      -0.682
      -0.503
      -0.312
      -0.171
      -0.105
      -0.095
      -0.098
      -0.071
       0.010
       0.145
       0.315
       0.498
       0.680
       0.845
       0.970
       1.030
       1.009
       0.914
       0.769
       0.596
       0.403
       0.188
      -0.045
      -0.283
      -0.509
      -0.715
      -0.897
      -1.046
      -1.141
      -1.165
      -1.113
      -0.997
      -0.834
      -0.639
      -0.415
      -0.163
       0.118
       0.416
       0.699
       0.923
       1.047
       1.061
       0.985
       0.858
       0.712
       0.566
       0.426
       0.301
       0.197
       0.111
       0.028
      -0.068
      -0.175
      -0.273
      -0.333
      -0.338
      -0.286
      -0.191
      -0.076
       0.031
       0.099
       0.098
       0.012
      -0.146
      -0.340
      -0.521
      -0.657
      -0.745
      -0.801
      -0.836
      -0.829
      -0.737
      -0.533
      -0.240
       0.074
       0.337
       0.523
       0.662
       0.806
       0.973
       1.137
       1.249
       1.286
       1.266
       1.230
       1.209
       1.194
       1.147
       1.016
       0.772
       0.428
       0.034
      -0.344
      -0.661
      -0.915
      -1.140
      -1.370
      -1.596
      -1.753
      -1.750
      -1.522
      -1.085
      -0.538
      -0.022
       0.348
       0.528
       0.549
       0.487
       0.418
       0.388
       0.410
       0.474
       0.555
       0.617
       0.625
       0.562
       0.447
       0.326
       0.237
       0.178
       0.119
       0.029
      -0.084
      -0.174
      -0.201
      -0.165
      -0.117
      -0.114
      -0.171
      -0.247
      -0.283
      -0.247
      -0.160
      -0.073
      -0.036
      -0.060
      -0.124
      -0.189
      -0.221
      -0.216
      -0.191
      -0.171
      -0.174
      -0.198
      -0.224
      -0.220
      -0.163
      -0.051
       0.092
       0.219
       0.283
       0.265
       0.188
       0.100
       0.050
       0.055
       0.099
       0.150
       0.191
       0.226
       0.263
       0.300
       0.314
       0.280
       0.189
       0.054
      -0.090
      -0.210
      -0.277
      -0.283
      -0.238
      -0.163
      -0.087
      -0.033
      -0.012
      -0.012
      -0.014
      -0.004
       0.011
       0.010
      -0.025
      -0.092
      -0.172
      -0.243
      -0.294
      -0.336
      -0.383
      -0.432
      -0.451
      -0.395
      -0.234
       0.015
       0.295
       0.536
       0.695
       0.778
       0.818
       0.841
       0.844
       0.796
       0.667
       0.454
       0.190
      -0.071
      -0.285
      -0.431
      -0.513
      -0.544
      -0.528
      -0.457
      -0.328
      -0.160
       0.001
       0.107
       0.141
       0.128
       0.108
       0.105
       0.118
       0.131
       0.134
       0.125
       0.100
       0.058
       0.004
      -0.041
      -0.046
       0.006
       0.102
       0.210
       0.292
       0.330
       0.325
       0.292
       0.251
       0.212
       0.166
       0.088
      -0.046
      -0.230
      -0.423
      -0.568
      -0.627
      -0.597
      -0.501
      -0.365
      -0.206
      -0.046
       0.087
       0.158
       0.146
       0.064
      -0.044
      -0.119
      -0.114
      -0.028
       0.099
       0.212
       0.279
       0.305
       0.319
       0.349
       0.396
       0.443
       0.462
       0.437
       0.366
       0.254
       0.111
      -0.056
      -0.241
      -0.438
      -0.639
      -0.834
      -1.008
      -1.132
      -1.174
      -1.106
      -0.924
      -0.647
      -0.318
       0.013
       0.293
       0.491
       0.602
       0.648
       0.663
       0.676
       0.697
       0.716
       0.712
       0.666
       0.565
       0.415
       0.230
       0.026
      -0.181
      -0.377
      -0.548
      -0.680
      -0.768
      -0.819
      -0.849
      -0.872
      -0.885
      -0.871
      -0.809
      -0.683
      -0.487
      -0.226
       0.076
       0.375
       0.617
       0.770
       0.830
       0.822
       0.774
       0.702
       0.608
       0.492
       0.365
       0.243
       0.134
       0.036
      -0.055
      -0.130
      -0.166
      -0.142
      -0.053
       0.077
       0.207
       0.294
       0.311
       0.257
       0.155
       0.032
      -0.087
      -0.192
      -0.275
      -0.340
      -0.397
      -0.460
      -0.534
      -0.600
      -0.615
      -0.549
      -0.409
      -0.241
      -0.098
       0.003
       0.091
       0.206
       0.357
       0.505
       0.602
       0.630
       0.620
       0.617
       0.636
       0.636
       0.545
       0.318
      -0.025
      -0.397
      -0.692
      -0.837
      -0.823
      -0.694
      -0.515
      -0.344
      -0.218
      -0.147
      -0.124
      -0.123
      -0.109
      -0.053
       0.053
       0.188
       0.317
       0.409
       0.453
       0.457
       0.435
       0.393
       0.328
       0.243
       0.163
       0.118
       0.119
       0.133
       0.106
      -0.005
      -0.191
      -0.388
      -0.512
      -0.513
      -0.413
      -0.293
      -0.236
      -0.271
      -0.357
      -0.420
      -0.400
      -0.293
      -0.142
      -0.008
       0.071
       0.100
       0.110
       0.141
       0.216
       0.323
       0.431
       0.502
       0.523
       0.503
       0.461
       0.416
       0.378
       0.346
       0.310
       0.257
       0.172
       0.050
      -0.097
      -0.244
      -0.362
      -0.435
      -0.469
      -0.477
      -0.470
      -0.449
      -0.410
      -0.358
      -0.311
      -0.293
      -0.319
      -0.383
      -0.455
      -0.491
      -0.463
      -0.365
      -0.217
      -0.048
       0.118
       0.266
       0.389
       0.480
       0.531
       0.543
       0.525
       0.490
       0.450
       0.407
       0.351
       0.272
       0.164
       0.026
      -0.133
      -0.296
      -0.442
      -0.542
      -0.570
      -0.509
      -0.365
      -0.167
       0.040
       0.219
       0.353
       0.443
       0.497
       0.514
       0.484
       0.397
       0.257
       0.089
      -0.069
      -0.186
      -0.251
      -0.281
      -0.303
      -0.338
      -0.389
      -0.444
      -0.484
      -0.498
      -0.490
      -0.470
      -0.443
      -0.404
      -0.344
      -0.259
      -0.151
      -0.019
       0.134
       0.298
       0.451
       0.566
       0.621
       0.614
       0.568
       0.507
       0.435
       0.333
       0.177
      -0.037
      -0.284
      -0.522
      -0.715
      -0.840
      -0.893
      -0.883
      -0.828
      -0.745
      -0.645
      -0.530
      -0.393
      -0.231
      -0.050
       0.132
       0.291
       0.414
       0.509
       0.601
       0.710
       0.826
       0.906
       0.889
       0.746
       0.508
       0.257
       0.078
       0.007
       0.011
       0.019
      -0.022
      -0.116
      -0.226
      -0.308
      -0.343
      -0.336
      -0.306
      -0.273
      -0.254
      -0.256
      -0.278
      -0.301
      -0.301
      -0.268
      -0.204
      -0.125
      -0.033
       0.082
       0.229
       0.393
       0.535
       0.611
       0.601
       0.513
       0.381
       0.248
       0.158
       0.133
       0.165
       0.213
       0.227
       0.182
       0.097
       0.016
      -0.033
      -0.062
      -0.109
      -0.208
      -0.353
      -0.501
      -0.600
      -0.622
      -0.590
      -0.561
      -0.590
      -0.686
      -0.800
      -0.843
      -0.747
      -0.505
      -0.180
       0.139
       0.394
       0.589
       0.760
       0.929
       1.080
       1.179
       1.209
       1.183
       1.130
       1.062
       0.972
       0.843
       0.678
       0.495
       0.319
       0.162
       0.021
      -0.110
      -0.220
      -0.287
      -0.292
      -0.248
      -0.205
      -0.218
      -0.318
      -0.489
      -0.679
      -0.839
      -0.946
      -0.998
      -0.995
      -0.921
      -0.759
      -0.528
      -0.288
      -0.114
      -0.057
      -0.110
      -0.223
      -0.334
      -0.397
      -0.399
      -0.355
      -0.279
      -0.174
      -0.022
       0.193
       0.466
       0.761
       1.037
       1.274
       1.480
       1.669
       1.842
       1.974
       2.028
       1.975
       1.796
       1.489
       1.060
       0.536
      -0.038
      -0.600
      -1.089
      -1.459
      -1.693
      -1.801
      -1.810
      -1.752
      -1.655
      -1.546
      -1.457
      -1.413
      -1.410
      -1.409
      -1.354
      -1.205
      -0.968
      -0.692
      -0.432
      -0.213
      -0.026
       0.153
       0.342
       0.539
       0.733
       0.917
       1.085
       1.237
       1.378
       1.514
       1.654
       1.790
       1.905
       1.972
       1.968
       1.873
       1.670
       1.343
       0.888
       0.328
      -0.286
      -0.887
      -1.419
      -1.852
      -2.182
      -2.423
      -2.584
      -2.663
      -2.648
      -2.524
      -2.278
      -1.914
      -1.454
      -0.940
      -0.418
       0.066
       0.484
       0.825
       1.102
       1.338
       1.558
       1.766
       1.949
       2.087
       2.179
       2.234
       2.251
       2.200
       2.029
       1.704
       1.238
       0.693
       0.144
      -0.366
      -0.837
      -1.300
      -1.771
      -2.220
      -2.569
      -2.732
      -2.665
      -2.391
      -1.986
      -1.534
      -1.093
      -0.679
      -0.281
       0.120
       0.527
       0.921
       1.267
       1.534
       1.705
       1.787
       1.795
       1.739
       1.625
       1.462
       1.268
       1.062
       0.854
       0.643
       0.430
       0.222
       0.017
      -0.200
      -0.453
      -0.757
      -1.107
      -1.488
      -1.882
      -2.265
      -2.590
      -2.784
      -2.767
      -2.500
      -2.005
      -1.353
      -0.621
       0.135
       0.880
       1.581
       2.205
       2.725
       3.122
       3.374
       3.444
       3.288
       2.881
       2.250
       1.470
       0.639
      -0.156
      -0.866
      -1.470
      -1.960
      -2.319
      -2.523
      -2.555
      -2.416
      -2.136
      -1.756
      -1.321
      -0.864
      -0.408
       0.019
       0.393
       0.697
       0.935
       1.119
       1.263
       1.366
       1.423
       1.428
       1.385
       1.303
       1.193
       1.057
       0.886
       0.662
       0.374
       0.030
      -0.330
      -0.652
      -0.887
      -1.004
      -0.999
      -0.888
      -0.699
      -0.471
      -0.239
      -0.034
       0.131
       0.252
       0.328
       0.351
       0.302
       0.167
      -0.046
      -0.303
      -0.562
      -0.785
      -0.955
      -1.069
      -1.127
      -1.131
      -1.082
      -0.978
      -0.811
      -0.580
      -0.290
       0.038
       0.368
       0.653
       0.857
       0.973
       1.024
       1.048
       1.060
       1.046
       0.978
       0.857
       0.727
       0.653
       0.676
       0.776
       0.891
       0.960
       0.961
       0.901
       0.788
       0.616
       0.372
       0.056
      -0.323
      -0.745
      -1.189
      -1.631
      -2.037
      -2.374
      -2.608
      -2.715
      -2.675
      -2.477
      -2.120
      -1.629
      -1.051
      -0.432
       0.188
       0.772
       1.278
       1.666
       1.919
       2.046
       2.068
       1.998
       1.834
       1.584
       1.278
       0.962
       0.686
       0.487
       0.380
       0.355
       0.382
       0.415
       0.409
       0.334
       0.194
       0.014
      -0.181
      -0.389
      -0.625
      -0.908
      -1.231
      -1.552
      -1.803
      -1.921
      -1.873
      -1.674
      -1.369
      -1.009
      -0.631
      -0.254
       0.103
       0.412
       0.637
       0.747
       0.736
       0.630
       0.475
       0.317
       0.195
       0.126
       0.116
       0.153
       0.215
       0.276
       0.313
       0.319
       0.309
       0.304
       0.314
       0.324
       0.300
       0.218
       0.079
      -0.092
      -0.264
      -0.417
      -0.539
      -0.620
      -0.642
      -0.588
      -0.448
      -0.231
       0.028
       0.280
       0.472
       0.567
       0.560
       0.475
       0.344
       0.192
       0.029
      -0.136
      -0.285
      -0.397
      -0.460
      -0.485
      -0.499
      -0.524
      -0.564
      -0.600
      -0.604
      -0.552
      -0.440
      -0.278
      -0.079
       0.148
       0.398
       0.657
       0.895
       1.080
       1.187
       1.215
       1.174
       1.076
       0.925
       0.724
       0.485
       0.226
      -0.035
      -0.298
      -0.570
      -0.846
      -1.094
      -1.256
      -1.283
      -1.167
      -0.953
      -0.710
      -0.494
      -0.313
      -0.142
       0.044
       0.236
       0.397
       0.491
       0.522
       0.535
       0.589
       0.713
       0.891
       1.067
       1.175
       1.173
       1.056
       0.854
       0.618
       0.393
       0.204
       0.052
      -0.072
      -0.185
      -0.300
      -0.424
      -0.555
      -0.682
      -0.793
      -0.883
      -0.952
      -0.999
      -1.009
      -0.962
      -0.845
      -0.669
      -0.471
      -0.296
      -0.168
      -0.077
       0.015
       0.143
       0.312
       0.491
       0.635
       0.719
       0.751
       0.765
       0.792
       0.837
       0.874
       0.865
       0.786
       0.649
       0.497
       0.382
       0.323
       0.289
       0.213
       0.034
      -0.265
      -0.645
      -1.037
      -1.381
      -1.641
      -1.804
      -1.865
      -1.825
      -1.688
      -1.468
      -1.179
      -0.829
      -0.429
      -0.006
       0.398
       0.745
       1.017
       1.221
       1.369
       1.461
       1.488
       1.440
       1.311
       1.105
       0.840
       0.553
       0.291
       0.092
      -0.030
      -0.095
      -0.135
      -0.172
      -0.202
      -0.203
      -0.157
      -0.065
       0.054
       0.165
       0.236
       0.253
       0.221
       0.158
       0.068
      -0.061
      -0.245
      -0.484
      -0.744
      -0.970
      -1.110
      -1.138
      -1.064
      -0.923
      -0.750
      -0.571
      -0.391
      -0.204
      -0.002
       0.211
       0.414
       0.582
       0.697
       0.760
       0.792
       0.818
       0.849
       0.874
       0.867
       0.809
       0.700
       0.554
       0.387
       0.202
      -0.004
      -0.218
      -0.414
      -0.567
      -0.674
      -0.758
      -0.844
      -0.939
      -1.022
      -1.066
      -1.056
      -1.001
      -0.920
      -0.828
      -0.724
      -0.594
      -0.422
      -0.194
       0.085
       0.394
       0.698
       0.960
       1.153
       1.266
       1.295
       1.248
       1.148
       1.023
       0.898
       0.779
       0.644
       0.469
       0.249
       0.017
      -0.167
      -0.253
      -0.231
      -0.140
      -0.037
       0.027
       0.033
      -0.014
      -0.104
      -0.233
      -0.401
      -0.595
      -0.787
      -0.944
      -1.038
      -1.051
      -0.979
      -0.827
      -0.609
      -0.350
      -0.072
       0.208
       0.477
       0.725
       0.932
       1.070
       1.114
       1.056
       0.911
       0.716
       0.519
       0.366
       0.284
       0.264
       0.264
       0.230
       0.132
      -0.021
      -0.196
      -0.351
      -0.463
      -0.520
      -0.523
      -0.476
      -0.394
      -0.300
      -0.222
      -0.175
      -0.161
      -0.160
      -0.148
      -0.100
      -0.001
       0.143
       0.309
       0.467
       0.599
       0.699
       0.762
       0.776
       0.719
       0.579
       0.365
