Origin Time       11/1/2010 5:15:18	 
Lat.              29.7 N	
Long.             80.0 E	
Depth (Km)         15.0
Magnitude         3.9
 Region           PITHORAGARH-UTTRAKHAND                                           
 Above details taken from IMD 
   
Station Code      PIT
Station Lat.       29.579
Station Long.      80.207
Station Height(m) 1538.0
Site Class        A   Vs30 between 700 m/sec to 1400 m/sec * 
Record Time       11.01.2010 05:15:11.939
Sampling Rate     200. Hz
 Record Duration   67.680 Sec.
 Direction         Vert. (Up positive)
Max. Acceleration      9.597 cm/sec**2
     
  * For reference see Site Classification link of website 
     
 Base Line Corrected and Low Pass Filtered (Cut Off at 35 Hz) Time History
 Acceleration data in cm/sec**2
    
[...]
       0.392
       0.205
      -0.174
      -0.554
      -0.709
      -0.600
      -0.412
      -0.364
      -0.503
      -0.654
      -0.579
      -0.188
       0.364
       0.769
       0.798
       0.483
       0.117
       0.032
       0.315
       0.709
       0.814
       0.439
      -0.220
      -0.756
      -0.912
      -0.775
      -0.631
      -0.647
      -0.730
      -0.655
      -0.302
       0.249
       0.810
       1.227
       1.430
       1.405
       1.164
       0.752
       0.233
      -0.337
      -0.914
      -1.415
      -1.716
      -1.730
      -1.473
      -1.037
      -0.496
       0.115
       0.734
       1.228
       1.475
       1.483
       1.385
       1.288
       1.141
       0.790
       0.184
      -0.501
      -0.987
      -1.118
      -0.978
      -0.773
      -0.649
      -0.603
      -0.549
      -0.406
      -0.145
       0.202
       0.548
       0.780
       0.818
       0.656
       0.358
       0.012
      -0.308
      -0.555
      -0.699
      -0.727
      -0.657
      -0.535
      -0.409
      -0.291
      -0.139
       0.095
       0.401
       0.681
       0.810
       0.748
       0.582
       0.443
       0.385
       0.370
       0.327
       0.229
       0.091
      -0.066
      -0.241
      -0.449
      -0.692
      -0.921
      -1.032
      -0.923
      -0.584
      -0.128
       0.285
       0.555
       0.666
       0.642
       0.493
       0.227
      -0.110
      -0.403
      -0.505
      -0.331
       0.041
       0.399
       0.546
       0.464
       0.314
       0.265
       0.341
       0.424
       0.393
       0.238
       0.055
      -0.062
      -0.115
      -0.193
      -0.374
      -0.611
      -0.751
      -0.664
      -0.374
      -0.049
       0.135
       0.128
       0.005
      -0.112
      -0.136
      -0.059
       0.061
       0.123
       0.052
      -0.142
      -0.349
      -0.430
      -0.306
      -0.017
       0.299
       0.489
       0.476
       0.303
       0.099
      -0.006
       0.043
       0.201
       0.351
       0.389
       0.303
       0.183
       0.139
       0.189
       0.252
       0.236
       0.136
       0.035
      -0.005
      -0.037
      -0.218
      -0.636
      -1.147
      -1.404
      -1.131
      -0.395
       0.404
       0.836
       0.764
       0.404
       0.110
       0.087
       0.251
       0.338
       0.132
      -0.351
      -0.866
      -1.116
      -0.960
      -0.490
       0.064
       0.515
       0.806
       0.963
       0.983
       0.825
       0.508
       0.170
      -0.018
      -0.006
       0.091
       0.103
      -0.057
      -0.335
      -0.603
      -0.759
      -0.767
      -0.651
      -0.466
      -0.272
      -0.102
       0.057
       0.251
       0.494
       0.725
       0.828
       0.712
       0.384
      -0.056
      -0.446
      -0.614
      -0.457
      -0.025
       0.465
       0.748
       0.687
       0.360
      -0.032
      -0.333
      -0.524
      -0.667
      -0.783
      -0.813
      -0.675
      -0.373
      -0.013
       0.280
       0.449
       0.512
       0.507
       0.455
       0.373
       0.265
       0.107
      -0.146
      -0.480
      -0.777
      -0.875
      -0.709
      -0.375
      -0.046
       0.170
       0.287
       0.384
       0.521
       0.705
       0.887
       0.985
       0.915
       0.644
       0.243
      -0.152
      -0.450
      -0.682
      -0.939
      -1.222
      -1.379
      -1.225
      -0.745
      -0.149
       0.289
       0.450
       0.449
       0.480
       0.619
       0.756
       0.722
       0.463
       0.101
      -0.161
      -0.194
      -0.020
       0.213
       0.349
       0.346
       0.296
       0.312
       0.390
       0.407
       0.252
      -0.057
      -0.397
      -0.658
      -0.818
      -0.922
      -1.004
      -1.032
      -0.918
      -0.601
      -0.137
       0.301
       0.549
       0.582
       0.506
       0.424
       0.323
       0.126
      -0.179
      -0.449
      -0.470
      -0.138
       0.408
       0.858
       0.955
       0.717
       0.414
       0.317
       0.440
       0.524
       0.305
      -0.225
      -0.792
      -1.063
      -0.891
      -0.401
       0.111
       0.368
       0.266
      -0.077
      -0.398
      -0.469
      -0.261
       0.044
       0.205
       0.118
      -0.126
      -0.350
      -0.435
      -0.377
      -0.236
      -0.080
       0.025
       0.024
      -0.075
      -0.171
      -0.124
       0.113
       0.419
       0.585
       0.497
       0.232
      -0.005
      -0.060
       0.068
       0.262
       0.395
       0.402
       0.289
       0.102
      -0.098
      -0.250
      -0.321
      -0.325
      -0.304
      -0.287
      -0.269
      -0.221
      -0.127
       0.001
       0.128
       0.199
       0.167
       0.019
      -0.184
      -0.329
      -0.328
      -0.193
      -0.021
       0.097
       0.151
       0.200
       0.298
       0.434
       0.536
       0.525
       0.376
       0.141
      -0.086
      -0.233
      -0.287
      -0.288
      -0.291
      -0.330
      -0.395
      -0.428
      -0.356
      -0.150
       0.129
       0.361
       0.443
       0.359
       0.183
       0.019
      -0.074
      -0.111
      -0.153
      -0.256
      -0.416
      -0.573
      -0.639
      -0.560
      -0.360
      -0.130
       0.037
       0.121
       0.188
       0.329
       0.566
       0.822
       0.977
       0.950
       0.740
       0.410
       0.046
      -0.282
      -0.533
      -0.689
      -0.734
      -0.649
      -0.434
      -0.121
       0.229
       0.541
       0.733
       0.723
       0.465
       0.009
      -0.489
      -0.832
      -0.914
      -0.789
      -0.614
      -0.508
      -0.450
      -0.323
      -0.061
       0.271
       0.530
       0.627
       0.599
       0.553
       0.570
       0.642
       0.683
       0.596
       0.343
      -0.013
      -0.348
      -0.558
      -0.626
      -0.605
      -0.541
      -0.429
      -0.243
      -0.013
       0.166
       0.212
       0.141
       0.067
       0.084
       0.167
       0.190
       0.068
      -0.141
      -0.278
      -0.235
      -0.051
       0.122
       0.141
      -0.021
      -0.254
      -0.396
      -0.341
      -0.112
       0.174
       0.394
       0.504
       0.524
       0.485
       0.388
       0.219
      -0.003
      -0.223
      -0.382
      -0.462
      -0.497
      -0.526
      -0.530
      -0.436
      -0.184
       0.185
       0.520
       0.654
       0.544
       0.309
       0.138
       0.125
       0.202
       0.214
       0.059
      -0.218
      -0.456
      -0.511
      -0.373
      -0.170
      -0.045
      -0.027
      -0.037
      -0.001
       0.069
       0.104
       0.069
       0.009
       0.001
       0.070
       0.145
       0.122
      -0.034
      -0.247
      -0.404
      -0.472
      -0.507
      -0.547
      -0.519
      -0.294
       0.159
       0.697
       1.089
       1.196
       1.061
       0.850
       0.694
       0.581
       0.390
       0.030
      -0.462
      -0.945
      -1.289
      -1.446
      -1.427
      -1.237
      -0.857
      -0.295
       0.362
       0.939
       1.242
       1.180
       0.834
       0.406
       0.078
      -0.116
      -0.264
      -0.456
      -0.677
      -0.806
      -0.724
      -0.423
      -0.025
       0.312
       0.505
       0.588
       0.641
       0.701
       0.729
       0.657
       0.458
       0.179
      -0.083
      -0.251
      -0.316
      -0.335
      -0.377
      -0.468
      -0.584
      -0.673
      -0.685
      -0.603
      -0.452
      -0.283
      -0.124
       0.059
       0.334
       0.719
       1.113
       1.331
       1.223
       0.794
       0.201
      -0.346
      -0.708
      -0.869
      -0.905
      -0.895
      -0.849
      -0.700
      -0.371
       0.135
       0.685
       1.062
       1.102
       0.814
       0.390
       0.067
      -0.049
      -0.049
      -0.112
      -0.347
      -0.689
      -0.948
      -0.958
      -0.705
      -0.348
      -0.086
       0.000
       0.001
       0.088
       0.354
       0.743
       1.074
       1.169
       0.960
       0.533
       0.071
      -0.270
      -0.453
      -0.552
      -0.650
      -0.745
      -0.749
      -0.594
      -0.319
      -0.052
       0.106
       0.160
       0.185
       0.234
       0.305
       0.383
       0.483
       0.619
       0.744
       0.750
       0.544
       0.135
      -0.351
      -0.742
      -0.932
      -0.929
      -0.813
      -0.659
      -0.487
      -0.256
       0.084
       0.521
       0.938
       1.163
       1.100
       0.813
       0.486
       0.262
       0.120
      -0.089
      -0.475
      -0.963
      -1.333
      -1.405
      -1.184
      -0.837
      -0.530
      -0.307
      -0.099
       0.168
       0.487
       0.772
       0.927
       0.922
       0.815
       0.678
       0.524
       0.293
      -0.053
      -0.444
      -0.712
      -0.707
      -0.416
       0.023
       0.416
       0.630
       0.645
       0.527
       0.345
       0.129
      -0.109
      -0.329
      -0.455
      -0.442
      -0.336
      -0.228
      -0.164
      -0.113
      -0.043
       0.005
      -0.048
      -0.202
      -0.334
      -0.288
      -0.039
       0.257
       0.389
       0.281
       0.062
      -0.056
       0.022
       0.178
       0.189
      -0.067
      -0.483
      -0.778
      -0.704
      -0.245
       0.350
       0.744
       0.750
       0.459
       0.142
       0.008
       0.058
       0.127
       0.076
      -0.075
      -0.176
      -0.099
       0.134
       0.350
       0.359
       0.095
      -0.316
      -0.634
      -0.673
      -0.435
      -0.102
       0.102
       0.086
      -0.060
      -0.165
      -0.134
      -0.015
       0.063
       0.024
      -0.085
      -0.153
      -0.117
      -0.017
       0.065
       0.114
       0.191
       0.352
       0.561
       0.702
       0.678
       0.481
       0.182
      -0.127
      -0.375
      -0.522
      -0.559
      -0.515
      -0.449
      -0.413
      -0.398
      -0.330
      -0.139
       0.137
       0.350
       0.351
       0.132
      -0.150
      -0.283
      -0.161
       0.123
       0.352
       0.367
       0.203
       0.027
      -0.056
      -0.103
      -0.224
      -0.395
      -0.432
      -0.165
       0.376
       0.953
       1.303
       1.330
       1.138
       0.897
       0.675
       0.401
      -0.020
      -0.576
      -1.129
      -1.503
      -1.605
      -1.458
      -1.159
      -0.805
      -0.445
      -0.102
       0.178
       0.321
       0.300
       0.193
       0.150
       0.262
       0.464
       0.574
       0.435
       0.052
      -0.395
      -0.675
      -0.667
      -0.431
      -0.126
       0.131
       0.338
       0.562
       0.826
       1.060
       1.148
       1.019
       0.692
       0.253
      -0.205
      -0.618
      -0.924
      -1.064
      -1.017
      -0.839
      -0.634
      -0.457
      -0.269
       0.006
       0.363
       0.685
       0.833
       0.779
       0.637
       0.537
       0.479
       0.333
      -0.012
      -0.503
      -0.934
      -1.106
      -0.968
      -0.635
      -0.291
      -0.064
       0.053
       0.179
       0.424
       0.763
       1.018
       0.997
       0.670
       0.205
      -0.165
      -0.327
      -0.359
      -0.403
      -0.490
      -0.498
      -0.295
       0.073
       0.386
       0.439
       0.240
      -0.006
      -0.094
       0.006
       0.146
       0.147
      -0.044
      -0.324
      -0.518
      -0.519
      -0.357
      -0.170
      -0.089
      -0.133
      -0.194
      -0.141
       0.045
       0.243
       0.295
       0.153
      -0.078
      -0.238
      -0.252
      -0.161
      -0.036
       0.104
       0.270
       0.426
       0.465
       0.310
       0.031
      -0.164
      -0.095
       0.195
       0.442
       0.391
       0.048
      -0.299
      -0.345
      -0.049
       0.336
       0.500
       0.343
       0.045
      -0.112
       0.012
       0.288
       0.435
       0.266
      -0.141
      -0.513
      -0.600
      -0.365
       0.023
       0.348
       0.525
       0.640
       0.834
       1.123
       1.332
       1.236
       0.772
       0.118
      -0.467
      -0.865
      -1.164
      -1.528
      -2.031
      -2.615
      -3.165
      -3.581
      -3.789
      -3.710
      -3.244
      -2.324
      -0.980
       0.629
       2.259
       3.679
       4.746
       5.422
       5.735
       5.728
       5.431
       4.865
       4.052
       3.049
       1.958
       0.913
       0.020
      -0.706
      -1.371
      -2.147
      -3.147
      -4.298
      -5.325
      -5.887
      -5.784
      -5.088
      -4.072
      -3.018
      -2.053
      -1.141
      -0.202
       0.747
       1.543
       1.965
       1.918
       1.563
       1.266
       1.361
       1.903
       2.598
       2.977
       2.686
       1.705
       0.372
      -0.799
      -1.393
      -1.309
      -0.779
      -0.169
       0.313
       0.761
       1.428
       2.407
       3.425
       3.966
       3.610
       2.346
       0.583
      -1.107
      -2.340
      -3.113
      -3.701
      -4.371
      -5.147
      -5.809
      -6.095
      -5.887
      -5.248
      -4.320
      -3.212
      -1.948
      -0.475
       1.276
       3.292
       5.419
       7.376
       8.853
       9.597
       9.480
       8.554
       7.051
       5.287
       3.502
       1.758
      -0.008
      -1.844
      -3.665
      -5.244
      -6.341
      -6.916
      -7.210
      -7.567
      -8.066
      -8.302
      -7.601
      -5.557
      -2.422
       0.970
       3.701
       5.285
       5.829
       5.770
       5.446
       4.847
       3.754
       2.085
       0.146
      -1.472
      -2.270
      -2.168
      -1.502
      -0.690
       0.110
       1.029
       2.211
       3.524
       4.563
       4.940
       4.546
       3.586
       2.370
       1.093
      -0.224
      -1.643
      -3.148
      -4.558
      -5.591
      -6.013
      -5.774
      -5.024
      -4.021
      -3.007
      -2.136
      -1.468
      -1.013
      -0.763
      -0.693
      -0.742
      -0.811
      -0.755
      -0.422
       0.275
       1.269
       2.345
       3.269
       3.932
       4.360
       4.622
       4.759
       4.776
       4.647
       4.286
       3.562
       2.420
       0.993
      -0.441
      -1.634
      -2.526
      -3.205
      -3.747
      -4.095
      -4.086
      -3.595
      -2.671
      -1.572
      -0.652
      -0.155
      -0.054
      -0.098
      -0.027
       0.191
       0.342
       0.169
      -0.367
      -1.003
      -1.352
      -1.168
      -0.460
       0.592
       1.785
       2.920
       3.725
       3.880
       3.202
       1.870
       0.433
      -0.472
      -0.516
       0.085
       0.694
       0.665
      -0.242
      -1.724
      -3.147
      -3.929
      -3.814
      -2.893
      -1.458
       0.169
       1.710
       2.941
       3.675
       3.772
       3.179
       1.977
       0.378
      -1.318
      -2.803
      -3.824
      -4.243
      -4.087
      -3.537
      -2.827
      -2.125
      -1.488
      -0.900
      -0.313
       0.332
       1.103
       2.033
       3.077
       4.091
       4.861
       5.170
       4.906
       4.121
       2.998
       1.707
       0.293
      -1.282
      -2.966
      -4.467
      -5.313
      -5.104
      -3.794
      -1.760
       0.401
       2.220
       3.561
       4.536
       5.235
       5.528
       5.100
       3.692
       1.351
      -1.520
      -4.337
      -6.594
      -8.018
      -8.537
      -8.165
      -6.944
      -5.012
      -2.673
      -0.368
       1.504
       2.785
       3.624
       4.341
       5.185
       6.182
       7.147
       7.814
       7.936
       7.333
       5.914
       3.725
       0.990
      -1.906
      -4.520
      -6.501
      -7.714
      -8.236
      -8.228
      -7.768
      -6.799
      -5.257
      -3.284
      -1.323
       0.060
       0.587
       0.580
       0.825
       1.990
       4.047
       6.232
       7.572
       7.544
       6.333
       4.568
       2.829
       1.313
      -0.113
      -1.569
      -2.861
      -3.527
      -3.207
      -1.991
      -0.399
       0.946
       1.632
       1.541
       0.713
      -0.768
      -2.741
      -4.828
      -6.421
      -6.896
      -5.980
      -3.944
      -1.470
       0.752
       2.362
       3.399
       4.077
       4.501
       4.572
       4.149
       3.288
       2.319
       1.660
       1.542
       1.849
       2.180
       2.083
       1.312
      -0.030
      -1.556
      -2.811
      -3.500
      -3.579
      -3.194
      -2.558
      -1.851
      -1.180
      -0.592
      -0.136
       0.082
      -0.065
      -0.610
      -1.404
      -2.151
      -2.564
      -2.535
      -2.178
      -1.724
      -1.349
      -1.044
      -0.631
       0.087
       1.154
       2.401
       3.530
       4.303
       4.697
       4.905
       5.178
       5.589
       5.914
       5.771
       4.920
       3.487
       1.857
       0.322
      -1.186
      -2.963
      -5.109
      -7.223
      -8.565
      -8.583
      -7.348
      -5.527
      -3.918
      -2.952
      -2.508
      -2.138
      -1.446
      -0.355
       0.901
       2.013
       2.864
       3.614
       4.519
       5.642
       6.699
       7.190
       6.731
       5.338
       3.433
       1.567
       0.077
      -1.067
      -2.129
      -3.310
      -4.517
      -5.395
      -5.582
      -5.021
      -4.042
      -3.156
      -2.684
      -2.555
      -2.419
      -1.938
      -1.022
       0.165
       1.362
       2.369
       3.099
       3.556
       3.781
       3.828
       3.737
       3.518
       3.157
       2.657
       2.076
       1.497
       0.967
       0.466
      -0.047
      -0.557
      -0.992
      -1.303
      -1.543
      -1.841
      -2.293
      -2.865
      -3.381
      -3.619
      -3.426
      -2.788
      -1.819
      -0.701
       0.382
       1.266
       1.811
       1.923
       1.599
       0.949
       0.163
      -0.549
      -1.011
      -1.116
      -0.848
      -0.276
       0.480
       1.301
       2.090
       2.735
       3.070
       2.914
       2.221
       1.211
       0.319
      -0.082
       0.036
       0.326
       0.350
      -0.080
      -0.797
      -1.457
      -1.824
      -1.907
      -1.887
      -1.925
      -2.018
      -1.991
      -1.639
      -0.885
       0.154
       1.220
       2.042
       2.427
       2.314
       1.765
       0.945
       0.080
      -0.599
      -0.934
      -0.909
      -0.644
      -0.312
      -0.031
       0.171
       0.317
       0.413
       0.410
       0.222
      -0.184
      -0.706
      -1.118
      -1.210
      -0.953
      -0.536
      -0.234
      -0.211
      -0.409
      -0.625
      -0.699
      -0.642
      -0.575
      -0.558
      -0.486
      -0.154
       0.569
       1.613
       2.694
       3.444
       3.578
       3.022
       1.934
       0.609
      -0.636
      -1.573
      -2.117
      -2.333
      -2.370
      -2.342
      -2.264
      -2.079
