Origin Time       05/3/2012 07:41:05	
Lat.              28.7 N	
Long.             76.6 E	
Depth (Km)         14.0
Magnitude         4.9
 Region           Haryana-Delhi-Border-Region                                      
 Above details taken from IMD 
   
Station Code      PLW
Station Lat.       28.130
Station Long.      77.330
Station Height(m)    0.0
Site Class        C   Vs30 between 200 m/sec to 375 m/sec *  
Record Time       05.03.2012 07:41:04.169
Sampling Rate     200. Hz
 Record Duration   80.015 Sec.
 Direction         Vert. (Up positive)
Max. Acceleration      7.027 cm/sec**2
     
  * For reference see Site Classification link of website 
     
 Base Line Corrected and Low Pass Filtered (Cut Off at 35 Hz) Time History
 Acceleration data in cm/sec**2
    
[...]
      -0.036
      -0.261
      -0.604
      -1.029
      -1.415
      -1.617
      -1.550
      -1.232
      -0.797
      -0.431
      -0.261
      -0.241
      -0.175
       0.111
       0.599
       1.088
       1.379
       1.448
       1.427
       1.436
       1.438
       1.262
       0.756
      -0.051
      -0.927
      -1.551
      -1.696
      -1.370
      -0.805
      -0.287
       0.022
       0.156
       0.262
       0.445
       0.668
       0.787
       0.669
       0.329
      -0.050
      -0.232
      -0.104
       0.229
       0.507
       0.493
       0.133
      -0.409
      -0.866
      -1.036
      -0.897
      -0.593
      -0.328
      -0.224
      -0.242
      -0.204
       0.075
       0.632
       1.287
       1.731
       1.726
       1.279
       0.647
       0.129
      -0.163
      -0.348
      -0.609
      -0.994
      -1.377
      -1.597
      -1.613
      -1.526
      -1.458
      -1.403
      -1.207
      -0.715
       0.066
       0.909
       1.479
       1.542
       1.108
       0.421
      -0.209
      -0.585
      -0.706
      -0.715
      -0.758
      -0.834
      -0.772
      -0.369
       0.393
       1.262
       1.850
       1.907
       1.504
       0.967
       0.618
       0.539
       0.546
       0.387
      -0.023
      -0.530
      -0.874
      -0.904
      -0.703
      -0.508
      -0.512
      -0.696
      -0.839
      -0.695
      -0.210
       0.400
       0.798
       0.785
       0.459
       0.132
       0.077
       0.311
       0.599
       0.661
       0.392
      -0.075
      -0.500
      -0.737
      -0.813
      -0.840
      -0.863
      -0.818
      -0.617
      -0.243
       0.245
       0.779
       1.320
       1.812
       2.146
       2.179
       1.828
       1.137
       0.259
      -0.608
      -1.316
      -1.805
      -2.098
      -2.238
      -2.232
      -2.038
      -1.616
      -1.007
      -0.359
       0.153
       0.452
       0.607
       0.770
       1.030
       1.340
       1.553
       1.551
       1.330
       1.005
       0.711
       0.502
       0.313
       0.040
      -0.345
      -0.751
      -1.019
      -1.032
      -0.808
      -0.478
      -0.204
      -0.079
      -0.095
      -0.163
      -0.182
      -0.099
       0.067
       0.242
       0.330
       0.256
       0.016
      -0.299
      -0.561
      -0.696
      -0.719
      -0.692
      -0.632
      -0.478
      -0.152
       0.340
       0.889
       1.358
       1.655
       1.766
       1.728
       1.562
       1.240
       0.718
       0.034
      -0.651
      -1.113
      -1.213
      -0.993
      -0.660
      -0.433
      -0.372
      -0.347
      -0.167
       0.217
       0.637
       0.821
       0.610
       0.086
      -0.493
      -0.872
      -0.966
      -0.874
      -0.767
      -0.736
      -0.720
      -0.575
      -0.232
       0.198
       0.484
       0.470
       0.221
      -0.002
       0.032
       0.335
       0.681
       0.795
       0.556
       0.096
      -0.290
      -0.361
      -0.109
       0.228
       0.361
       0.169
      -0.210
      -0.506
      -0.514
      -0.232
       0.172
       0.483
       0.564
       0.416
       0.150
      -0.076
      -0.146
      -0.036
       0.192
       0.442
       0.609
       0.605
       0.378
      -0.038
      -0.500
      -0.811
      -0.834
      -0.597
      -0.289
      -0.114
      -0.112
      -0.139
      -0.007
       0.333
       0.755
       1.064
       1.136
       0.969
       0.646
       0.263
      -0.113
      -0.441
      -0.700
      -0.881
      -0.989
      -1.026
      -0.988
      -0.860
      -0.638
      -0.341
      -0.007
       0.317
       0.582
       0.737
       0.745
       0.638
       0.515
       0.487
       0.599
       0.797
       0.963
       0.997
       0.874
       0.646
       0.385
       0.132
      -0.113
      -0.341
      -0.519
      -0.615
      -0.649
      -0.667
      -0.691
      -0.670
      -0.529
      -0.246
       0.103
       0.392
       0.526
       0.499
       0.378
       0.245
       0.130
      -0.015
      -0.270
      -0.664
      -1.121
      -1.486
      -1.619
      -1.495
      -1.223
      -0.948
      -0.715
      -0.434
       0.027
       0.674
       1.328
       1.737
       1.753
       1.452
       1.064
       0.803
       0.715
       0.685
       0.574
       0.354
       0.131
       0.031
       0.063
       0.100
      -0.007
      -0.282
      -0.611
      -0.851
      -0.956
      -0.994
      -1.043
      -1.098
      -1.072
      -0.901
      -0.635
      -0.405
      -0.292
      -0.220
      -0.022
       0.375
       0.822
       1.012
       0.751
       0.175
      -0.299
      -0.294
       0.220
       0.876
       1.187
       0.927
       0.320
      -0.144
      -0.109
       0.370
       0.887
       1.013
       0.634
       0.010
      -0.446
      -0.489
      -0.201
       0.102
       0.123
      -0.195
      -0.638
      -0.885
      -0.737
      -0.256
       0.276
       0.533
       0.364
      -0.098
      -0.508
      -0.544
      -0.140
       0.459
       0.857
       0.771
       0.228
      -0.462
      -0.917
      -0.937
      -0.600
      -0.155
       0.172
       0.314
       0.345
       0.382
       0.469
       0.547
       0.508
       0.292
      -0.053
      -0.394
      -0.604
      -0.673
      -0.718
      -0.882
      -1.188
      -1.495
      -1.586
      -1.328
      -0.765
      -0.098
       0.443
       0.743
       0.878
       1.046
       1.383
       1.805
       2.028
       1.771
       0.989
      -0.059
      -0.965
      -1.426
      -1.421
      -1.178
      -0.966
      -0.881
      -0.786
      -0.466
       0.166
       0.969
       1.664
       1.979
       1.766
       1.085
       0.213
      -0.462
      -0.665
      -0.415
       0.000
       0.232
       0.106
      -0.286
      -0.676
      -0.822
      -0.664
      -0.348
      -0.108
      -0.080
      -0.201
      -0.276
      -0.152
       0.140
       0.410
       0.457
       0.234
      -0.100
      -0.280
      -0.104
       0.423
       1.073
       1.516
       1.535
       1.161
       0.653
       0.293
       0.174
       0.142
      -0.038
      -0.462
      -0.993
      -1.371
      -1.409
      -1.123
      -0.686
      -0.294
      -0.051
       0.065
       0.146
       0.263
       0.394
       0.451
       0.355
       0.128
      -0.097
      -0.192
      -0.163
      -0.168
      -0.368
      -0.751
      -1.113
      -1.213
      -0.986
      -0.583
      -0.240
      -0.064
       0.060
       0.356
       0.909
       1.519
       1.808
       1.522
       0.759
      -0.082
      -0.589
      -0.627
      -0.391
      -0.206
      -0.232
      -0.362
      -0.363
      -0.125
       0.235
       0.477
       0.437
       0.157
      -0.147
      -0.257
      -0.116
       0.146
       0.343
       0.395
       0.383
       0.439
       0.581
       0.667
       0.537
       0.187
      -0.214
      -0.470
      -0.518
      -0.473
      -0.529
      -0.805
      -1.241
      -1.608
      -1.646
      -1.246
      -0.559
       0.092
       0.431
       0.436
       0.342
       0.434
       0.820
       1.346
       1.721
       1.729
       1.379
       0.889
       0.518
       0.390
       0.430
       0.448
       0.283
      -0.094
      -0.568
      -0.944
      -1.059
      -0.892
      -0.595
      -0.386
      -0.399
      -0.587
      -0.784
      -0.833
      -0.686
      -0.404
      -0.094
       0.170
       0.372
       0.525
       0.620
       0.619
       0.486
       0.243
      -0.025
      -0.225
      -0.310
      -0.305
      -0.264
      -0.234
      -0.243
      -0.306
      -0.440
      -0.639
      -0.845
      -0.930
      -0.757
      -0.284
       0.369
       0.960
       1.275
       1.288
       1.180
       1.175
       1.312
       1.372
       1.083
       0.405
      -0.376
      -0.868
      -0.908
      -0.700
      -0.607
      -0.807
      -1.130
      -1.236
      -0.930
      -0.334
       0.222
       0.480
       0.443
       0.338
       0.384
       0.590
       0.773
       0.768
       0.599
       0.433
       0.387
       0.402
       0.320
       0.075
      -0.218
      -0.357
      -0.241
       0.031
       0.239
       0.238
       0.085
      -0.028
       0.034
       0.215
       0.326
       0.232
      -0.018
      -0.232
      -0.265
      -0.153
      -0.078
      -0.182
      -0.436
      -0.673
      -0.727
      -0.564
      -0.284
      -0.030
       0.106
       0.109
       0.002
      -0.187
      -0.427
      -0.666
      -0.826
      -0.852
      -0.758
      -0.628
      -0.560
      -0.607
      -0.735
      -0.800
      -0.613
      -0.081
       0.653
       1.260
       1.455
       1.238
       0.902
       0.783
       0.960
       1.189
       1.131
       0.656
      -0.024
      -0.500
      -0.490
      -0.091
       0.268
       0.151
      -0.536
      -1.456
      -2.086
      -2.088
      -1.542
      -0.847
      -0.387
      -0.231
      -0.126
       0.224
       0.844
       1.432
       1.618
       1.272
       0.601
      -0.012
      -0.283
      -0.200
       0.033
       0.181
       0.154
       0.038
      -0.007
       0.101
       0.307
       0.467
       0.464
       0.291
       0.053
      -0.111
      -0.123
      -0.009
       0.150
       0.292
       0.426
       0.600
       0.823
       1.010
       1.026
       0.812
       0.473
       0.225
       0.218
       0.391
       0.499
       0.291
      -0.279
      -0.998
      -1.527
      -1.645
      -1.383
      -0.982
      -0.705
      -0.639
      -0.652
      -0.529
      -0.173
       0.317
       0.743
       0.957
       0.919
       0.661
       0.240
      -0.259
      -0.723
      -1.036
      -1.132
      -1.022
      -0.785
      -0.528
      -0.316
      -0.132
       0.098
       0.411
       0.739
       0.938
       0.903
       0.665
       0.381
       0.227
       0.274
       0.440
       0.569
       0.574
       0.516
       0.535
       0.694
       0.901
       0.995
       0.899
       0.664
       0.383
       0.096
      -0.213
      -0.522
      -0.720
      -0.676
      -0.382
      -0.030
       0.083
      -0.228
      -0.888
      -1.588
      -1.990
      -1.942
      -1.555
      -1.097
      -0.793
      -0.683
      -0.618
      -0.387
       0.098
       0.721
       1.238
       1.471
       1.445
       1.332
       1.286
       1.332
       1.373
       1.291
       1.029
       0.622
       0.166
      -0.217
      -0.423
      -0.397
      -0.169
       0.134
       0.336
       0.306
       0.023
      -0.430
      -0.923
      -1.327
      -1.521
      -1.442
      -1.161
      -0.897
      -0.889
      -1.173
      -1.499
      -1.501
      -1.020
      -0.262
       0.350
       0.535
       0.397
       0.301
       0.511
       0.930
       1.213
       1.115
       0.742
       0.463
       0.589
       1.105
       1.665
       1.874
       1.609
       1.118
       0.807
       0.901
       1.282
       1.617
       1.622
       1.251
       0.684
       0.175
      -0.140
      -0.333
      -0.623
      -1.194
      -2.034
      -2.927
      -3.591
      -3.857
      -3.745
      -3.419
      -3.073
      -2.816
      -2.594
      -2.215
      -1.478
      -0.366
       0.880
       1.877
       2.342
       2.278
       1.960
       1.744
       1.835
       2.190
       2.581
       2.771
       2.673
       2.405
       2.177
       2.099
       2.059
       1.802
       1.173
       0.294
      -0.491
      -0.869
      -0.800
      -0.547
      -0.476
      -0.768
      -1.289
      -1.728
      -1.887
      -1.853
      -1.871
      -2.064
      -2.276
      -2.221
      -1.782
      -1.170
      -0.761
      -0.784
      -1.129
      -1.439
      -1.387
      -0.918
      -0.269
       0.235
       0.446
       0.490
       0.615
       0.932
       1.297
       1.445
       1.256
       0.879
       0.609
       0.618
       0.808
       0.893
       0.662
       0.172
      -0.272
      -0.360
      -0.039
       0.431
       0.667
       0.480
       0.002
      -0.455
      -0.694
      -0.780
      -0.924
      -1.238
      -1.596
      -1.713
      -1.393
      -0.722
      -0.037
       0.313
       0.246
       0.027
       0.055
       0.512
       1.206
       1.744
       1.888
       1.755
       1.682
       1.901
       2.326
       2.619
       2.473
       1.878
       1.163
       0.741
       0.780
       1.049
       1.074
       0.490
      -0.670
      -1.959
      -2.800
      -2.869
      -2.284
      -1.492
      -0.945
      -0.819
      -0.942
      -0.980
      -0.713
      -0.200
       0.280
       0.459
       0.274
      -0.110
      -0.454
      -0.625
      -0.641
      -0.589
      -0.495
      -0.285
       0.129
       0.732
       1.378
       1.887
       2.169
       2.275
       2.338
       2.471
       2.699
       2.928
       2.979
       2.693
       2.025
       1.088
       0.092
      -0.761
      -1.384
      -1.833
      -2.244
      -2.688
      -3.070
      -3.181
      -2.890
      -2.320
      -1.844
      -1.855
      -2.478
      -3.444
      -4.261
      -4.551
      -4.296
      -3.791
      -3.361
      -3.086
      -2.766
      -2.135
      -1.085
       0.276
       1.737
       3.125
       4.364
       5.432
       6.298
       6.872
       7.027
       6.672
       5.822
       4.597
       3.159
       1.641
       0.133
      -1.299
      -2.582
      -3.612
      -4.273
      -4.489
      -4.261
      -3.674
      -2.877
      -2.042
      -1.337
      -0.868
      -0.647
      -0.580
      -0.524
      -0.367
      -0.098
       0.218
       0.520
       0.827
       1.201
       1.648
       2.067
       2.320
       2.350
       2.247
       2.180
       2.266
       2.465
       2.604
       2.493
       2.054
       1.369
       0.628
       0.008
      -0.455
      -0.879
      -1.408
      -2.036
      -2.558
      -2.701
      -2.333
      -1.589
      -0.810
      -0.324
      -0.240
      -0.408
      -0.570
      -0.587
      -0.540
      -0.642
      -1.025
      -1.597
      -2.072
      -2.172
      -1.828
      -1.220
      -0.615
      -0.161
       0.206
       0.657
       1.287
       1.997
       2.587
       2.915
       2.970
       2.786
       2.358
       1.681
       0.829
      -0.027
      -0.699
      -1.085
      -1.209
      -1.177
      -1.089
      -0.994
      -0.896
      -0.793
      -0.705
      -0.689
      -0.795
      -1.003
      -1.204
      -1.261
      -1.120
      -0.857
      -0.627
      -0.543
      -0.567
      -0.528
      -0.256
       0.258
       0.833
       1.228
       1.339
       1.273
       1.236
       1.325
       1.453
       1.454
       1.277
       1.061
       1.005
       1.144
       1.282
       1.175
       0.782
       0.331
       0.135
       0.328
       0.773
       1.188
       1.345
       1.199
       0.868
       0.492
       0.108
      -0.378
      -1.078
      -1.976
      -2.864
      -3.446
      -3.550
      -3.267
      -2.864
      -2.560
      -2.366
      -2.133
      -1.741
      -1.236
      -0.801
      -0.588
      -0.584
      -0.619
      -0.475
      -0.021
       0.745
       1.725
       2.750
       3.604
       4.070
       4.013
       3.465
       2.610
       1.681
       0.825
       0.043
      -0.736
      -1.532
      -2.229
      -2.629
      -2.604
      -2.229
      -1.767
      -1.502
      -1.522
      -1.641
      -1.534
      -0.998
      -0.148
       0.628
       0.942
       0.691
       0.136
      -0.295
      -0.317
       0.020
       0.430
       0.664
       0.729
       0.846
       1.215
       1.792
       2.296
       2.412
       2.036
       1.361
       0.742
       0.464
       0.592
       0.961
       1.282
       1.290
       0.893
       0.215
      -0.492
      -1.028
      -1.355
      -1.574
      -1.793
      -2.006
      -2.081
      -1.854
      -1.280
      -0.503
       0.188
       0.542
       0.514
       0.300
       0.163
       0.203
       0.261
       0.084
      -0.412
      -1.022
      -1.397
      -1.328
      -0.939
      -0.599
      -0.614
      -0.956
      -1.257
      -1.097
      -0.346
       0.702
       1.520
       1.735
       1.391
       0.889
       0.667
       0.850
       1.167
       1.200
       0.768
       0.108
      -0.297
      -0.114
       0.544
       1.196
       1.365
       0.965
       0.359
       0.053
       0.273
       0.796
       1.139
       0.961
       0.328
      -0.344
      -0.624
      -0.390
       0.087
       0.351
       0.090
      -0.666
      -1.585
      -2.276
      -2.510
      -2.295
      -1.797
      -1.202
      -0.627
      -0.110
       0.333
       0.660
       0.817
       0.799
       0.695
       0.654
       0.787
       1.080
       1.373
       1.458
       1.222
       0.738
       0.215
      -0.143
      -0.283
      -0.331
      -0.476
      -0.782
      -1.116
      -1.251
      -1.068
      -0.645
      -0.190
       0.118
       0.242
       0.268
       0.309
       0.442
       0.695
       1.050
       1.432
       1.729
       1.865
       1.849
       1.751
       1.627
       1.460
       1.186
       0.773
       0.266
      -0.250
      -0.717
      -1.122
      -1.451
      -1.640
      -1.591
      -1.262
      -0.762
      -0.336
      -0.220
      -0.469
      -0.929
      -1.378
      -1.720
      -2.025
      -2.395
      -2.795
      -3.025
      -2.872
      -2.272
      -1.354
      -0.339
       0.580
       1.269
       1.637
       1.671
       1.488
       1.301
       1.284
       1.448
       1.670
       1.802
       1.760
       1.559
       1.267
       0.935
       0.556
       0.117
      -0.311
      -0.579
      -0.555
      -0.240
       0.203
       0.511
       0.470
       0.062
      -0.530
      -1.055
      -1.388
      -1.597
      -1.821
      -2.077
      -2.187
      -1.914
      -1.174
      -0.157
       0.753
       1.218
       1.172
       0.845
       0.589
       0.632
       0.957
       1.366
       1.679
       1.856
       1.967
       2.035
       1.947
       1.525
       0.701
      -0.355
      -1.294
      -1.810
      -1.849
      -1.610
      -1.357
      -1.221
      -1.153
      -1.025
      -0.786
      -0.535
      -0.448
      -0.613
      -0.931
      -1.161
      -1.076
      -0.606
       0.118
       0.833
       1.300
       1.431
       1.311
       1.102
       0.915
       0.725
       0.425
      -0.033
      -0.524
      -0.805
      -0.687
      -0.203
       0.398
       0.805
       0.874
       0.711
       0.555
       0.588
       0.844
       1.252
       1.691
       2.003
       2.006
       1.567
       0.708
      -0.372
      -1.385
      -2.110
      -2.477
      -2.519
      -2.273
      -1.729
      -0.876
       0.201
       1.259
       1.967
       2.072
       1.569
       0.722
      -0.064
      -0.492
      -0.539
      -0.447
      -0.511
      -0.858
      -1.351
      -1.670
      -1.528
      -0.891
      -0.057
       0.518
       0.518
       0.003
      -0.615
