Origin Time       05/3/2012 07:41:05	 UTC
Lat.              28.7 N	
Long.             76.6 E	
Depth (Km)         14.0
Magnitude         4.9
 Region           Haryana-Delhi-Border-Region                                      
 Above details taken from IMD 
    
Station Code      PLW
Station Lat.       28.130  N
Station Long.      77.330  E
Station Height(m)    0.0
Site Class        C   Vs30 between 200 m/sec to 375 m/sec *  
Record Time       05.03.2012 07:41:04.169 UTC
Sampling Rate     200. Hz
 Record Duration   80.015 Sec.
 Direction         N-S (N positive)
Max. Acceleration      5.228 cm/sec**2
     
  * For reference see Site Classification link of website 
     
 Base Line Corrected and Low Pass Filtered (Cut Off at 35 Hz) Time History
 Acceleration data in cm/sec**2
    
[...]
      -0.112
      -0.266
      -0.444
      -0.620
      -0.749
      -0.801
      -0.779
      -0.716
      -0.635
      -0.535
      -0.398
      -0.215
       0.006
       0.235
       0.437
       0.581
       0.653
       0.658
       0.616
       0.551
       0.481
       0.416
       0.363
       0.338
       0.356
       0.420
       0.510
       0.585
       0.607
       0.573
       0.516
       0.472
       0.449
       0.418
       0.352
       0.252
       0.147
       0.059
      -0.027
      -0.155
      -0.358
      -0.612
      -0.842
      -0.969
      -0.967
      -0.878
      -0.769
      -0.680
      -0.592
      -0.456
      -0.248
       0.002
       0.226
       0.366
       0.424
       0.453
       0.511
       0.606
       0.682
       0.663
       0.518
       0.287
       0.050
      -0.132
      -0.257
      -0.360
      -0.459
      -0.535
      -0.551
      -0.502
      -0.428
      -0.370
      -0.333
      -0.278
      -0.153
       0.066
       0.352
       0.643
       0.871
       0.995
       1.013
       0.942
       0.796
       0.570
       0.258
      -0.119
      -0.498
      -0.797
      -0.956
      -0.970
      -0.885
      -0.759
      -0.629
      -0.503
      -0.376
      -0.243
      -0.100
       0.053
       0.211
       0.355
       0.464
       0.523
       0.533
       0.510
       0.463
       0.389
       0.278
       0.142
       0.017
      -0.053
      -0.053
      -0.018
      -0.014
      -0.089
      -0.229
      -0.375
      -0.468
      -0.497
      -0.490
      -0.476
      -0.440
      -0.348
      -0.183
       0.016
       0.178
       0.241
       0.200
       0.096
      -0.004
      -0.039
       0.024
       0.177
       0.367
       0.522
       0.587
       0.544
       0.405
       0.189
      -0.082
      -0.376
      -0.641
      -0.827
      -0.910
      -0.897
      -0.810
      -0.665
      -0.473
      -0.249
      -0.012
       0.212
       0.397
       0.516
       0.561
       0.549
       0.523
       0.531
       0.592
       0.691
       0.785
       0.821
       0.771
       0.647
       0.494
       0.366
       0.295
       0.273
       0.264
       0.219
       0.102
      -0.099
      -0.361
      -0.628
      -0.833
      -0.928
      -0.902
      -0.785
      -0.630
      -0.488
      -0.374
      -0.272
      -0.169
      -0.076
      -0.031
      -0.059
      -0.140
      -0.218
      -0.231
      -0.155
      -0.021
       0.111
       0.192
       0.209
       0.189
       0.164
       0.154
       0.150
       0.132
       0.093
       0.033
      -0.037
      -0.118
      -0.214
      -0.318
      -0.398
      -0.409
      -0.321
      -0.148
       0.062
       0.258
       0.405
       0.495
       0.542
       0.566
       0.582
       0.577
       0.514
       0.358
       0.112
      -0.168
      -0.409
      -0.555
      -0.600
      -0.575
      -0.537
      -0.540
      -0.608
      -0.720
      -0.817
      -0.835
      -0.743
      -0.563
      -0.360
      -0.204
      -0.128
      -0.106
      -0.077
       0.013
       0.169
       0.354
       0.516
       0.628
       0.700
       0.758
       0.807
       0.826
       0.780
       0.639
       0.401
       0.101
      -0.196
      -0.421
      -0.534
      -0.535
      -0.455
      -0.325
      -0.169
      -0.019
       0.072
       0.061
      -0.044
      -0.171
      -0.223
      -0.150
       0.027
       0.233
       0.395
       0.471
       0.463
       0.391
       0.288
       0.198
       0.167
       0.226
       0.355
       0.481
       0.507
       0.378
       0.130
      -0.124
      -0.272
      -0.277
      -0.198
      -0.144
      -0.178
      -0.268
      -0.318
      -0.255
      -0.097
       0.056
       0.096
      -0.011
      -0.205
      -0.382
      -0.467
      -0.451
      -0.378
      -0.294
      -0.206
      -0.091
       0.069
       0.262
       0.445
       0.579
       0.648
       0.660
       0.629
       0.562
       0.462
       0.337
       0.203
       0.077
      -0.038
      -0.156
      -0.296
      -0.457
      -0.619
      -0.741
      -0.793
      -0.776
      -0.733
      -0.712
      -0.722
      -0.715
      -0.623
      -0.414
      -0.132
       0.132
       0.305
       0.377
       0.397
       0.414
       0.447
       0.475
       0.469
       0.412
       0.314
       0.203
       0.108
       0.039
      -0.014
      -0.065
      -0.113
      -0.147
      -0.156
      -0.132
      -0.067
       0.045
       0.196
       0.349
       0.454
       0.467
       0.379
       0.222
       0.056
      -0.060
      -0.096
      -0.058
       0.024
       0.120
       0.193
       0.206
       0.135
       0.002
      -0.121
      -0.149
      -0.049
       0.136
       0.309
       0.379
       0.311
       0.146
      -0.033
      -0.152
      -0.190
      -0.201
      -0.261
      -0.419
      -0.650
      -0.874
      -1.003
      -0.989
      -0.851
      -0.644
      -0.431
      -0.243
      -0.078
       0.072
       0.203
       0.292
       0.312
       0.254
       0.136
      -0.001
      -0.107
      -0.140
      -0.088
       0.018
       0.110
       0.122
       0.036
      -0.101
      -0.214
      -0.246
      -0.185
      -0.060
       0.084
       0.206
       0.284
       0.328
       0.364
       0.418
       0.482
       0.523
       0.506
       0.425
       0.317
       0.234
       0.208
       0.216
       0.204
       0.131
       0.008
      -0.113
      -0.181
      -0.190
      -0.175
      -0.186
      -0.255
      -0.378
      -0.513
      -0.611
      -0.641
      -0.607
      -0.536
      -0.459
      -0.382
      -0.282
      -0.127
       0.094
       0.352
       0.589
       0.750
       0.809
       0.786
       0.737
       0.716
       0.743
       0.788
       0.800
       0.745
       0.636
       0.523
       0.443
       0.394
       0.342
       0.260
       0.150
       0.044
      -0.024
      -0.054
      -0.070
      -0.110
      -0.200
      -0.342
      -0.524
      -0.719
      -0.891
      -0.995
      -0.988
      -0.858
      -0.635
      -0.392
      -0.212
      -0.153
      -0.223
      -0.378
      -0.549
      -0.663
      -0.674
      -0.577
      -0.412
      -0.237
      -0.095
       0.020
       0.150
       0.316
       0.484
       0.581
       0.551
       0.413
       0.241
       0.112
       0.048
       0.032
       0.040
       0.075
       0.145
       0.235
       0.302
       0.308
       0.254
       0.181
       0.137
       0.133
       0.130
       0.076
      -0.048
      -0.206
      -0.333
      -0.378
      -0.323
      -0.180
       0.027
       0.263
       0.489
       0.660
       0.742
       0.722
       0.611
       0.434
       0.229
       0.035
      -0.117
      -0.223
      -0.310
      -0.419
      -0.566
      -0.726
      -0.851
      -0.901
      -0.871
      -0.790
      -0.696
      -0.603
      -0.499
      -0.367
      -0.207
      -0.052
       0.051
       0.076
       0.045
       0.020
       0.068
       0.219
       0.452
       0.715
       0.947
       1.094
       1.115
       0.997
       0.764
       0.483
       0.226
       0.038
      -0.095
      -0.235
      -0.445
      -0.735
      -1.047
      -1.284
      -1.374
      -1.310
      -1.150
      -0.966
      -0.797
      -0.637
      -0.464
      -0.276
      -0.087
       0.094
       0.280
       0.496
       0.745
       1.001
       1.213
       1.337
       1.354
       1.268
       1.098
       0.868
       0.606
       0.358
       0.171
       0.069
       0.038
       0.035
       0.016
      -0.041
      -0.130
      -0.237
      -0.367
      -0.540
      -0.761
      -0.980
      -1.096
      -1.013
      -0.718
      -0.305
       0.072
       0.286
       0.304
       0.184
       0.027
      -0.082
      -0.110
      -0.083
      -0.052
      -0.065
      -0.124
      -0.187
      -0.189
      -0.086
       0.109
       0.318
       0.440
       0.419
       0.285
       0.134
       0.052
       0.057
       0.097
       0.106
       0.062
      -0.003
      -0.048
      -0.062
      -0.072
      -0.098
      -0.127
      -0.122
      -0.070
      -0.004
       0.022
      -0.008
      -0.046
      -0.026
       0.072
       0.193
       0.262
       0.255
       0.218
       0.213
       0.250
       0.284
       0.262
       0.168
       0.031
      -0.112
      -0.247
      -0.396
      -0.584
      -0.804
      -1.002
      -1.113
      -1.092
      -0.935
      -0.670
      -0.350
      -0.047
       0.165
       0.250
       0.248
       0.239
       0.284
       0.376
       0.457
       0.480
       0.446
       0.404
       0.410
       0.496
       0.646
       0.816
       0.952
       1.025
       1.030
       0.969
       0.849
       0.683
       0.496
       0.309
       0.111
      -0.132
      -0.450
      -0.822
      -1.166
      -1.379
      -1.392
      -1.209
      -0.904
      -0.580
      -0.323
      -0.166
      -0.095
      -0.064
      -0.029
       0.035
       0.123
       0.215
       0.294
       0.354
       0.406
       0.468
       0.556
       0.663
       0.757
       0.795
       0.751
       0.631
       0.476
       0.337
       0.245
       0.189
       0.119
      -0.010
      -0.203
      -0.400
      -0.511
      -0.481
      -0.334
      -0.157
      -0.027
       0.054
       0.152
       0.323
       0.546
       0.728
       0.774
       0.675
       0.522
       0.432
       0.468
       0.604
       0.764
       0.872
       0.879
       0.760
       0.509
       0.155
      -0.232
      -0.562
      -0.774
      -0.870
      -0.903
      -0.928
      -0.960
      -0.976
      -0.945
      -0.853
      -0.699
      -0.487
      -0.221
       0.073
       0.330
       0.474
       0.465
       0.326
       0.127
      -0.074
      -0.263
      -0.460
      -0.674
      -0.864
      -0.962
      -0.941
      -0.848
      -0.768
      -0.742
      -0.718
      -0.601
      -0.347
      -0.008
       0.310
       0.527
       0.639
       0.691
       0.714
       0.693
       0.597
       0.440
       0.304
       0.277
       0.387
       0.573
       0.736
       0.800
       0.742
       0.569
       0.291
      -0.087
      -0.539
      -1.007
      -1.414
      -1.707
      -1.883
      -1.971
      -1.991
      -1.929
      -1.753
      -1.453
      -1.083
      -0.743
      -0.529
      -0.461
      -0.471
      -0.453
      -0.336
      -0.124
       0.128
       0.358
       0.535
       0.666
       0.786
       0.939
       1.158
       1.448
       1.774
       2.079
       2.306
       2.417
       2.392
       2.229
       1.933
       1.522
       1.026
       0.474
      -0.111
      -0.704
      -1.270
      -1.761
      -2.133
      -2.375
      -2.522
      -2.625
      -2.698
      -2.703
      -2.584
      -2.330
      -1.984
      -1.608
      -1.225
      -0.812
      -0.342
       0.173
       0.678
       1.118
       1.477
       1.788
       2.108
       2.482
       2.913
       3.348
       3.700
       3.885
       3.866
       3.658
       3.316
       2.901
       2.459
       2.010
       1.561
       1.116
       0.687
       0.286
      -0.089
      -0.453
      -0.819
      -1.177
      -1.488
      -1.715
      -1.850
      -1.926
      -1.985
      -2.052
      -2.112
      -2.120
      -2.032
      -1.838
      -1.566
      -1.253
      -0.906
      -0.504
      -0.048
       0.404
       0.752
       0.925
       0.938
       0.875
       0.798
       0.686
       0.453
       0.032
      -0.560
      -1.230
      -1.870
      -2.408
      -2.810
      -3.056
      -3.122
      -2.987
      -2.650
      -2.150
      -1.559
      -0.956
      -0.389
       0.136
       0.637
       1.110
       1.511
       1.777
       1.872
       1.824
       1.705
       1.576
       1.437
       1.242
       0.952
       0.588
       0.243
       0.033
       0.023
       0.185
       0.413
       0.602
       0.710
       0.775
       0.878
       1.087
       1.406
       1.778
       2.111
       2.330
       2.405
       2.342
       2.161
       1.874
       1.492
       1.031
       0.511
      -0.064
      -0.714
      -1.463
      -2.296
      -3.132
      -3.846
      -4.320
      -4.504
      -4.438
      -4.217
      -3.912
      -3.521
      -2.977
      -2.236
      -1.346
      -0.435
       0.372
       1.040
       1.626
       2.205
       2.786
       3.294
       3.645
       3.828
       3.905
       3.934
       3.910
       3.779
       3.497
       3.072
       2.547
       1.957
       1.325
       0.681
       0.081
      -0.410
      -0.758
      -0.985
      -1.148
      -1.299
      -1.461
      -1.628
      -1.782
      -1.906
      -1.989
      -2.031
      -2.045
      -2.049
      -2.053
      -2.028
      -1.901
      -1.586
      -1.044
      -0.326
       0.436
       1.087
       1.526
       1.734
       1.750
       1.623
       1.384
       1.050
       0.637
       0.170
      -0.326
      -0.833
      -1.333
      -1.814
      -2.266
      -2.684
      -3.056
      -3.358
      -3.548
      -3.578
      -3.429
      -3.141
      -2.806
      -2.515
      -2.305
      -2.130
      -1.902
      -1.556
      -1.081
      -0.513
       0.105
       0.736
       1.370
       2.010
       2.666
       3.329
       3.958
       4.500
       4.906
       5.151
       5.228
       5.129
       4.854
       4.416
       3.857
       3.227
       2.559
       1.865
       1.150
       0.424
      -0.299
      -1.005
      -1.685
      -2.319
      -2.879
      -3.327
      -3.635
      -3.797
      -3.821
      -3.718
      -3.491
      -3.137
      -2.644
      -2.010
      -1.250
      -0.426
       0.367
       1.016
       1.438
       1.596
       1.511
       1.252
       0.923
       0.624
       0.410
       0.268
       0.135
      -0.042
      -0.271
      -0.501
      -0.665
      -0.726
      -0.711
      -0.687
      -0.700
      -0.734
      -0.709
      -0.530
      -0.157
       0.365
       0.932
       1.436
       1.811
       2.042
       2.145
       2.146
       2.068
       1.933
       1.762
       1.585
       1.430
       1.312
       1.224
       1.144
       1.051
       0.930
       0.756
       0.489
       0.100
      -0.397
      -0.922
      -1.356
      -1.605
      -1.644
      -1.504
      -1.244
      -0.908
      -0.532
      -0.163
       0.135
       0.304
       0.338
       0.294
       0.251
       0.252
       0.268
       0.222
       0.049
      -0.258
      -0.641
      -0.992
      -1.197
      -1.185
      -0.951
      -0.556
      -0.097
       0.337
       0.691
       0.951
       1.129
       1.244
       1.302
       1.286
       1.160
       0.905
       0.552
       0.189
      -0.086
      -0.227
      -0.265
      -0.268
      -0.281
      -0.311
      -0.363
      -0.473
      -0.683
      -0.988
      -1.303
      -1.498
      -1.481
      -1.260
      -0.935
      -0.624
      -0.387
      -0.210
      -0.049
       0.103
       0.207
       0.217
       0.132
       0.003
      -0.111
      -0.199
      -0.293
      -0.429
      -0.590
      -0.705
      -0.696
      -0.546
      -0.320
      -0.139
      -0.116
      -0.291
      -0.622
      -1.012
      -1.364
      -1.619
      -1.764
      -1.802
      -1.734
      -1.545
      -1.216
      -0.740
      -0.148
       0.494
       1.113
       1.672
       2.172
       2.612
       2.946
       3.084
       2.942
       2.513
       1.891
       1.229
       0.660
       0.237
      -0.068
      -0.320
      -0.565
      -0.803
      -1.005
      -1.149
      -1.237
      -1.276
      -1.270
      -1.220
      -1.140
      -1.043
      -0.926
      -0.756
      -0.494
      -0.125
       0.321
       0.783
       1.185
       1.455
       1.534
       1.390
       1.051
       0.603
       0.156
      -0.201
      -0.444
      -0.612
      -0.766
      -0.936
      -1.096
      -1.167
      -1.071
      -0.781
      -0.336
       0.167
       0.619
       0.939
       1.096
       1.113
       1.049
       0.966
       0.900
       0.863
       0.853
       0.874
       0.929
       1.017
       1.116
       1.180
       1.143
       0.956
       0.614
       0.164
      -0.327
      -0.817
      -1.299
      -1.780
      -2.253
      -2.681
      -3.009
      -3.190
      -3.189
      -2.990
      -2.605
      -2.091
      -1.532
      -0.995
      -0.477
       0.088
       0.777
       1.595
       2.451
       3.199
       3.719
       3.978
       4.021
       3.927
       3.753
       3.507
       3.162
       2.695
       2.106
       1.419
       0.673
      -0.090
      -0.817
      -1.460
      -1.999
      -2.447
      -2.832
      -3.166
      -3.433
      -3.583
      -3.550
      -3.280
      -2.782
      -2.139
      -1.488
      -0.958
      -0.615
      -0.436
      -0.342
      -0.242
      -0.078
       0.170
       0.496
       0.888
       1.336
       1.826
       2.319
       2.742
       2.992
       2.981
       2.678
       2.130
       1.455
       0.782
       0.201
      -0.273
      -0.673
      -1.039
      -1.380
      -1.667
      -1.854
      -1.906
      -1.831
      -1.674
      -1.486
      -1.288
      -1.056
      -0.745
      -0.340
       0.113
       0.524
       0.814
       0.966
       1.023
       1.052
       1.098
       1.159
       1.192
       1.153
       1.032
       0.855
       0.663
       0.479
       0.297
       0.111
      -0.060
      -0.167
      -0.161
      -0.031
       0.181
       0.401
       0.561
       0.636
       0.642
       0.612
       0.558
       0.476
       0.361
       0.220
       0.052
      -0.169
      -0.478
      -0.868
      -1.270
      -1.582
      -1.729
      -1.710
      -1.581
      -1.404
      -1.209
      -0.981
      -0.692
      -0.342
       0.019
       0.303
       0.437
       0.414
       0.304
       0.204
       0.175
       0.210
       0.261
       0.292
       0.311
       0.360
       0.470
       0.634
       0.811
       0.959
       1.057
       1.105
       1.098
       1.031
       0.894
       0.693
       0.451
       0.214
       0.038
      -0.019
       0.074
       0.291
       0.546
       0.728
       0.766
       0.678
       0.547
       0.464
       0.459
       0.482
       0.440
       0.262
      -0.058
      -0.451
      -0.817
      -1.069
      -1.168
      -1.128
      -0.979
      -0.742
      -0.432
      -0.094
       0.179
       0.288
       0.189
      -0.076
      -0.417
      -0.764
      -1.110
      -1.484
      -1.898
      -2.303
      -2.619
      -2.782
      -2.793
      -2.697
      -2.541
      -2.333
      -2.040
      -1.637
      -1.154
      -0.663
      -0.230
       0.138
       0.484
       0.841
       1.183
       1.439
       1.563
       1.588
       1.613
       1.733
       1.954
       2.187
       2.316
       2.298
       2.199
       2.137
       2.180
       2.292
       2.369
       2.335
       2.205
       2.052
       1.929
       1.810
       1.614
       1.286
       0.847
       0.391
       0.020
      -0.225
      -0.377
      -0.498
