Origin Time       05/3/2012 07:41:05	
Lat.              28.7 N	
Long.             76.6 E	
Depth (Km)         14.0
Magnitude         4.9
 Region           Haryana-Delhi-Border-Region                                      
 Above details taken from IMD 
     
Station Code      PLW
Station Lat.       28.130  N
Station Long.      77.330  E
Station Height(m)    0.0
Site Class        C   Vs30 between 200 m/sec to 375 m/sec *  
Record Time       05.03.2012 07:41:04.169
Sampling Rate     200. Hz
 Record Duration   80.015 Sec.
 Direction         E-W (E positive)
Max. Acceleration     -5.830 cm/sec**2
     
  * For reference see Site Classification link of website 
     
 Base Line Corrected and Low Pass Filtered (Cut Off at 35 Hz) Time History
 Acceleration data in cm/sec**2
    
[...]
      -0.401
      -0.365
      -0.330
      -0.299
      -0.281
      -0.273
      -0.258
      -0.210
      -0.121
      -0.016
       0.061
       0.079
       0.037
      -0.041
      -0.133
      -0.235
      -0.359
      -0.521
      -0.725
      -0.949
      -1.132
      -1.195
      -1.074
      -0.766
      -0.343
       0.086
       0.428
       0.648
       0.770
       0.836
       0.866
       0.847
       0.769
       0.657
       0.571
       0.554
       0.597
       0.643
       0.628
       0.528
       0.355
       0.141
      -0.084
      -0.298
      -0.483
      -0.623
      -0.715
      -0.762
      -0.771
      -0.741
      -0.678
      -0.593
      -0.506
      -0.430
      -0.361
      -0.278
      -0.167
      -0.046
       0.040
       0.049
      -0.020
      -0.115
      -0.167
      -0.137
      -0.036
       0.101
       0.244
       0.383
       0.511
       0.608
       0.640
       0.588
       0.465
       0.320
       0.215
       0.187
       0.233
       0.319
       0.399
       0.433
       0.396
       0.284
       0.118
      -0.065
      -0.220
      -0.313
      -0.328
      -0.276
      -0.188
      -0.100
      -0.032
       0.020
       0.069
       0.121
       0.164
       0.179
       0.159
       0.120
       0.088
       0.085
       0.113
       0.157
       0.193
       0.202
       0.175
       0.119
       0.053
       0.003
      -0.013
       0.004
       0.038
       0.072
       0.102
       0.136
       0.176
       0.209
       0.213
       0.181
       0.119
       0.045
      -0.027
      -0.094
      -0.149
      -0.181
      -0.181
      -0.158
      -0.144
      -0.178
      -0.273
      -0.403
      -0.514
      -0.556
      -0.507
      -0.381
      -0.212
      -0.048
       0.071
       0.128
       0.138
       0.138
       0.158
       0.193
       0.207
       0.172
       0.093
       0.013
      -0.021
       0.014
       0.099
       0.198
       0.278
       0.329
       0.361
       0.385
       0.403
       0.397
       0.343
       0.237
       0.104
      -0.012
      -0.084
      -0.133
      -0.210
      -0.349
      -0.521
      -0.643
      -0.632
      -0.480
      -0.268
      -0.108
      -0.065
      -0.119
      -0.188
      -0.195
      -0.125
      -0.031
       0.000
      -0.085
      -0.272
      -0.481
      -0.616
      -0.615
      -0.479
      -0.262
      -0.036
       0.152
       0.293
       0.405
       0.503
       0.588
       0.650
       0.675
       0.653
       0.568
       0.413
       0.208
       0.013
      -0.094
      -0.066
       0.071
       0.226
       0.304
       0.266
       0.140
      -0.006
      -0.110
      -0.141
      -0.102
      -0.020
       0.065
       0.110
       0.085
      -0.009
      -0.138
      -0.250
      -0.299
      -0.267
      -0.163
      -0.019
       0.134
       0.275
       0.403
       0.526
       0.644
       0.741
       0.792
       0.781
       0.710
       0.590
       0.424
       0.205
      -0.060
      -0.331
      -0.550
      -0.670
      -0.681
      -0.605
      -0.474
      -0.313
      -0.159
      -0.061
      -0.074
      -0.214
      -0.430
      -0.627
      -0.721
      -0.690
      -0.578
      -0.456
      -0.377
      -0.353
      -0.365
      -0.385
      -0.393
      -0.381
      -0.354
      -0.317
      -0.269
      -0.194
      -0.078
       0.073
       0.229
       0.345
       0.379
       0.322
       0.199
       0.055
      -0.063
      -0.134
      -0.166
      -0.186
      -0.212
      -0.238
      -0.233
      -0.165
      -0.028
       0.152
       0.329
       0.457
       0.513
       0.501
       0.448
       0.402
       0.402
       0.467
       0.584
       0.711
       0.808
       0.845
       0.819
       0.746
       0.650
       0.546
       0.427
       0.272
       0.069
      -0.168
      -0.406
      -0.615
      -0.801
      -0.989
      -1.181
      -1.327
      -1.343
      -1.179
      -0.872
      -0.536
      -0.277
      -0.120
       0.001
       0.169
       0.415
       0.687
       0.907
       1.028
       1.071
       1.085
       1.096
       1.080
       0.986
       0.778
       0.463
       0.094
      -0.254
      -0.517
      -0.667
      -0.730
      -0.767
      -0.842
      -0.978
      -1.144
      -1.283
      -1.342
      -1.292
      -1.129
      -0.861
      -0.516
      -0.146
       0.183
       0.432
       0.610
       0.766
       0.949
       1.158
       1.338
       1.413
       1.338
       1.133
       0.874
       0.635
       0.439
       0.259
       0.053
      -0.189
      -0.432
      -0.615
      -0.688
      -0.637
      -0.493
      -0.310
      -0.138
      -0.004
       0.085
       0.135
       0.159
       0.169
       0.171
       0.144
       0.053
      -0.130
      -0.390
      -0.652
      -0.821
      -0.838
      -0.722
      -0.555
      -0.425
      -0.365
      -0.351
      -0.328
      -0.258
      -0.137
       0.015
       0.173
       0.312
       0.405
       0.429
       0.372
       0.249
       0.099
      -0.036
      -0.134
      -0.197
      -0.241
      -0.273
      -0.292
      -0.288
      -0.262
      -0.225
      -0.195
      -0.183
      -0.186
      -0.178
      -0.128
      -0.016
       0.145
       0.310
       0.427
       0.471
       0.472
       0.489
       0.556
       0.648
       0.707
       0.688
       0.598
       0.471
       0.338
       0.211
       0.096
       0.002
      -0.059
      -0.084
      -0.088
      -0.090
      -0.099
      -0.102
      -0.082
      -0.028
       0.051
       0.141
       0.227
       0.295
       0.341
       0.363
       0.360
       0.321
       0.220
       0.036
      -0.229
      -0.530
      -0.791
      -0.941
      -0.960
      -0.892
      -0.816
      -0.782
      -0.770
      -0.710
      -0.547
      -0.300
      -0.053
       0.106
       0.151
       0.133
       0.132
       0.193
       0.286
       0.345
       0.324
       0.241
       0.156
       0.112
       0.096
       0.054
      -0.043
      -0.167
      -0.251
      -0.253
      -0.188
      -0.118
      -0.097
      -0.133
      -0.184
      -0.194
      -0.119
       0.039
       0.241
       0.431
       0.565
       0.634
       0.665
       0.689
       0.714
       0.710
       0.630
       0.453
       0.219
       0.006
      -0.120
      -0.149
      -0.134
      -0.132
      -0.161
      -0.189
      -0.168
      -0.085
       0.025
       0.098
       0.083
      -0.021
      -0.167
      -0.287
      -0.331
      -0.289
      -0.184
      -0.050
       0.081
       0.181
       0.224
       0.190
       0.076
      -0.092
      -0.269
      -0.412
      -0.497
      -0.528
      -0.516
      -0.467
      -0.381
      -0.258
      -0.111
       0.039
       0.168
       0.262
       0.316
       0.329
       0.302
       0.230
       0.115
      -0.030
      -0.174
      -0.278
      -0.311
      -0.262
      -0.162
      -0.075
      -0.072
      -0.182
      -0.368
      -0.541
      -0.612
      -0.542
      -0.353
      -0.097
       0.174
       0.437
       0.679
       0.880
       1.004
       1.016
       0.907
       0.708
       0.461
       0.208
      -0.016
      -0.172
      -0.207
      -0.087
       0.172
       0.497
       0.784
       0.954
       0.989
       0.920
       0.793
       0.633
       0.437
       0.204
      -0.033
      -0.218
      -0.309
      -0.321
      -0.328
      -0.407
      -0.582
      -0.807
      -1.012
      -1.154
      -1.228
      -1.234
      -1.148
      -0.936
      -0.599
      -0.195
       0.178
       0.445
       0.599
       0.697
       0.796
       0.901
       0.960
       0.911
       0.750
       0.536
       0.352
       0.241
       0.175
       0.089
      -0.064
      -0.273
      -0.487
      -0.670
      -0.829
      -0.977
      -1.097
      -1.133
      -1.039
      -0.825
      -0.557
      -0.303
      -0.086
       0.116
       0.326
       0.524
       0.657
       0.683
       0.610
       0.489
       0.377
       0.302
       0.259
       0.219
       0.145
       0.007
      -0.198
      -0.432
      -0.634
      -0.754
      -0.790
      -0.782
      -0.764
      -0.728
      -0.631
      -0.447
      -0.203
       0.038
       0.224
       0.353
       0.453
       0.533
       0.562
       0.500
       0.337
       0.122
      -0.068
      -0.177
      -0.207
      -0.205
      -0.223
      -0.281
      -0.358
      -0.410
      -0.399
      -0.310
      -0.154
       0.030
       0.185
       0.257
       0.229
       0.125
      -0.011
      -0.152
      -0.292
      -0.425
      -0.522
      -0.533
      -0.437
      -0.266
      -0.101
      -0.007
       0.023
       0.060
       0.177
       0.372
       0.566
       0.669
       0.660
       0.594
       0.541
       0.524
       0.508
       0.445
       0.316
       0.150
       0.004
      -0.063
      -0.021
       0.119
       0.308
       0.477
       0.579
       0.611
       0.608
       0.608
       0.617
       0.598
       0.512
       0.354
       0.163
      -0.011
      -0.137
      -0.204
      -0.209
      -0.144
      -0.023
       0.103
       0.154
       0.079
      -0.111
      -0.343
      -0.530
      -0.630
      -0.663
      -0.670
      -0.665
      -0.619
      -0.491
      -0.277
      -0.020
       0.218
       0.398
       0.515
       0.585
       0.622
       0.637
       0.641
       0.647
       0.659
       0.658
       0.605
       0.473
       0.280
       0.083
      -0.069
      -0.174
      -0.294
      -0.505
      -0.824
      -1.183
      -1.455
      -1.528
      -1.368
      -1.023
      -0.584
      -0.142
       0.230
       0.487
       0.618
       0.666
       0.716
       0.846
       1.072
       1.329
       1.521
       1.583
       1.520
       1.396
       1.267
       1.145
       0.998
       0.791
       0.511
       0.175
      -0.179
      -0.494
      -0.716
      -0.830
      -0.884
      -0.974
      -1.187
      -1.528
      -1.902
      -2.168
      -2.230
      -2.097
      -1.864
      -1.640
      -1.473
      -1.354
      -1.254
      -1.163
      -1.086
      -1.018
      -0.943
      -0.845
      -0.733
      -0.626
      -0.533
      -0.425
      -0.251
       0.036
       0.447
       0.942
       1.441
       1.858
       2.142
       2.291
       2.344
       2.346
       2.315
       2.242
       2.112
       1.928
       1.713
       1.496
       1.289
       1.081
       0.834
       0.513
       0.107
      -0.343
      -0.774
      -1.135
      -1.424
      -1.674
      -1.917
      -2.153
      -2.359
      -2.502
      -2.566
      -2.549
      -2.455
      -2.297
      -2.095
      -1.880
      -1.677
      -1.489
      -1.296
      -1.067
      -0.780
      -0.434
      -0.042
       0.374
       0.780
       1.129
       1.372
       1.487
       1.504
       1.488
       1.495
       1.538
       1.593
       1.625
       1.618
       1.573
       1.493
       1.375
       1.214
       1.011
       0.771
       0.509
       0.248
       0.022
      -0.139
      -0.225
      -0.257
      -0.265
      -0.266
      -0.248
      -0.187
      -0.074
       0.063
       0.175
       0.227
       0.227
       0.217
       0.230
       0.247
       0.202
       0.031
      -0.264
      -0.605
      -0.877
      -0.997
      -0.948
      -0.769
      -0.517
      -0.232
       0.063
       0.348
       0.600
       0.797
       0.931
       1.009
       1.034
       0.997
       0.873
       0.647
       0.328
      -0.051
      -0.449
      -0.842
      -1.224
      -1.588
      -1.901
      -2.106
      -2.149
      -2.014
      -1.733
      -1.379
      -1.027
      -0.721
      -0.454
      -0.176
       0.167
       0.600
       1.086
       1.546
       1.901
       2.111
       2.181
       2.126
       1.949
       1.639
       1.188
       0.616
      -0.028
      -0.673
      -1.239
      -1.660
      -1.910
      -2.012
      -2.027
      -2.006
      -1.958
      -1.840
      -1.604
      -1.225
      -0.723
      -0.143
       0.472
       1.087
       1.674
       2.196
       2.614
       2.899
       3.056
       3.120
       3.125
       3.066
       2.894
       2.556
       2.040
       1.408
       0.765
       0.199
      -0.260
      -0.644
      -1.013
      -1.408
      -1.836
      -2.275
      -2.684
      -3.020
      -3.254
      -3.381
      -3.423
      -3.406
      -3.333
      -3.177
      -2.919
      -2.578
      -2.215
      -1.882
      -1.581
      -1.265
      -0.890
      -0.465
      -0.058
       0.262
       0.483
       0.667
       0.892
       1.187
       1.511
       1.793
       1.990
       2.108
       2.172
       2.200
       2.193
       2.176
       2.206
       2.352
       2.641
       3.030
       3.432
       3.769
       4.003
       4.122
       4.104
       3.904
       3.476
       2.815
       1.967
       1.019
       0.068
      -0.797
      -1.507
      -2.024
      -2.353
      -2.532
      -2.604
      -2.593
      -2.495
      -2.283
      -1.937
      -1.459
      -0.886
      -0.288
       0.259
       0.703
       1.043
       1.326
       1.607
       1.900
       2.150
       2.258
       2.140
       1.782
       1.243
       0.603
      -0.079
      -0.783
      -1.511
      -2.266
      -3.039
      -3.795
      -4.482
      -5.046
      -5.457
      -5.713
      -5.830
      -5.805
      -5.604
      -5.185
      -4.540
      -3.720
      -2.811
      -1.895
      -1.017
      -0.191
       0.574
       1.260
       1.848
       2.341
       2.774
       3.188
       3.602
       3.991
       4.293
       4.450
       4.439
       4.283
       4.038
       3.748
       3.423
       3.046
       2.613
       2.163
       1.761
       1.447
       1.200
       0.955
       0.661
       0.328
       0.002
      -0.273
      -0.498
      -0.700
      -0.889
      -1.048
      -1.171
      -1.291
      -1.473
      -1.755
      -2.094
      -2.382
      -2.512
      -2.455
      -2.267
      -2.045
      -1.860
      -1.734
      -1.654
      -1.598
      -1.549
      -1.483
      -1.363
      -1.151
      -0.840
      -0.481
      -0.165
       0.022
       0.055
      -0.017
      -0.101
      -0.121
      -0.062
       0.025
       0.070
       0.044
      -0.020
      -0.063
      -0.057
      -0.034
      -0.046
      -0.110
      -0.168
      -0.126
       0.081
       0.427
       0.800
       1.063
       1.128
       1.005
       0.787
       0.588
       0.476
       0.456
       0.492
       0.552
       0.633
       0.749
       0.919
       1.149
       1.415
       1.664
       1.825
       1.837
       1.682
       1.392
       1.042
       0.712
       0.448
       0.260
       0.141
       0.079
       0.053
       0.019
      -0.082
      -0.293
      -0.609
      -0.982
      -1.340
      -1.617
      -1.773
      -1.799
      -1.713
      -1.555
      -1.366
      -1.177
      -0.992
      -0.792
      -0.554
      -0.277
       0.008
       0.245
       0.387
       0.427
       0.394
       0.335
       0.286
       0.260
       0.258
       0.287
       0.365
       0.510
       0.713
       0.934
       1.112
       1.201
       1.182
       1.061
       0.847
       0.532
       0.109
      -0.405
      -0.943
      -1.405
      -1.692
      -1.757
      -1.622
      -1.358
      -1.046
      -0.724
      -0.377
       0.032
       0.498
       0.939
       1.234
       1.304
       1.174
       0.968
       0.816
       0.771
       0.773
       0.717
       0.549
       0.314
       0.122
       0.038
       0.012
      -0.093
      -0.383
      -0.828
      -1.264
      -1.501
      -1.437
      -1.120
      -0.692
      -0.294
       0.007
       0.238
       0.471
       0.759
       1.087
       1.362
       1.455
       1.279
       0.844
       0.260
      -0.327
      -0.802
      -1.119
      -1.286
      -1.330
      -1.282
      -1.182
      -1.085
      -1.039
      -1.048
      -1.057
      -0.974
      -0.727
      -0.303
       0.240
       0.809
       1.313
       1.700
       1.973
       2.169
       2.332
       2.473
       2.565
       2.567
       2.453
       2.227
       1.914
       1.538
       1.111
       0.643
       0.164
      -0.278
      -0.621
      -0.820
      -0.869
      -0.810
      -0.710
      -0.632
      -0.600
      -0.602
      -0.607
      -0.591
      -0.560
      -0.542
      -0.573
      -0.662
      -0.791
      -0.914
      -0.974
      -0.910
      -0.672
      -0.246
       0.330
       0.964
       1.534
       1.929
       2.096
       2.063
       1.899
       1.655
       1.326
       0.880
       0.318
      -0.297
      -0.870
      -1.326
      -1.662
      -1.936
      -2.206
      -2.477
      -2.682
      -2.717
      -2.509
      -2.071
      -1.495
      -0.910
      -0.415
      -0.045
       0.219
       0.421
       0.592
       0.742
       0.867
       0.949
       0.969
       0.924
       0.835
       0.737
       0.650
       0.544
       0.349
       0.003
      -0.487
      -1.023
      -1.457
      -1.667
      -1.618
      -1.365
      -0.991
      -0.554
      -0.079
       0.403
       0.824
       1.099
       1.173
       1.060
       0.844
       0.624
       0.471
       0.399
       0.389
       0.412
       0.445
       0.463
       0.432
       0.307
       0.058
      -0.304
      -0.712
      -1.068
      -1.300
      -1.396
      -1.402
      -1.387
      -1.387
      -1.404
      -1.425
      -1.442
      -1.453
      -1.441
      -1.365
      -1.188
      -0.898
      -0.530
      -0.139
       0.227
       0.561
       0.883
       1.213
       1.543
       1.837
       2.050
       2.150
       2.135
       2.040
       1.931
       1.884
       1.947
       2.114
       2.318
       2.454
       2.434
       2.226
       1.859
       1.385
       0.850
       0.280
      -0.302
      -0.865
      -1.377
      -1.827
      -2.232
      -2.613
      -2.959
      -3.208
      -3.280
      -3.135
      -2.809
      -2.388
      -1.954
      -1.543
      -1.156
      -0.793
      -0.473
      -0.213
      -0.004
       0.187
       0.384
       0.569
       0.702
       0.765
       0.789
       0.830
       0.915
       1.000
       0.995
       0.815
       0.438
      -0.078
      -0.613
      -1.041
      -1.299
      -1.409
      -1.462
      -1.539
      -1.644
      -1.691
      -1.562
      -1.200
      -0.654
      -0.052
       0.483
       0.897
       1.216
       1.493
       1.761
       1.994
       2.134
       2.124
       1.954
       1.667
       1.338
       1.027
       0.740
       0.435
       0.057
      -0.411
      -0.932
      -1.427
      -1.807
      -2.018
      -2.058
      -1.964
      -1.774
      -1.507
      -1.160
      -0.739
      -0.281
       0.152
       0.520
       0.827
       1.113
       1.409
       1.708
       1.976
       2.183
       2.335
       2.473
       2.647
       2.883
       3.153
       3.379
       3.462
       3.332
       2.985
       2.481
       1.906
       1.322
       0.749
       0.192
      -0.316
      -0.692
      -0.842
      -0.727
