Origin Time       10/01/2013 15:16:13 UTC
Lat.              30.1 N	
Long.             80.4 E	
Depth (Km)          5.0
Magnitude         3.2
 Region           Pithoragarh                                                      
 Above details taken from IMD 
    
Station Code      PTH
Station Lat.       29.579  N
Station Long.      80.207  E
Station Height(m) 1538.0
Site Class        A   Vs30 between 700 m/sec to 1400 m/sec * 
Record Time       10.01.2013 15:15:51.089 UTC
Sampling Rate     200. Hz
 Record Duration   82.145 Sec.
 Direction         N-S (N positive)
Max. Acceleration     -6.826 cm/sec**2
     
  * For reference see Site Classification link of website 
     
 Base Line Corrected and Low Pass Filtered (Cut Off at 35 Hz) Time History
 Acceleration data in cm/sec**2
    
[...]
       0.007
      -0.120
      -0.213
      -0.225
      -0.157
      -0.060
       0.006
       0.015
      -0.024
      -0.075
      -0.115
      -0.135
      -0.140
      -0.131
      -0.107
      -0.067
      -0.021
       0.017
       0.037
       0.031
       0.000
      -0.042
      -0.069
      -0.063
      -0.034
      -0.017
      -0.032
      -0.062
      -0.064
      -0.005
       0.100
       0.211
       0.294
       0.344
       0.371
       0.367
       0.307
       0.175
      -0.003
      -0.174
      -0.292
      -0.355
      -0.386
      -0.400
      -0.376
      -0.282
      -0.122
       0.049
       0.165
       0.197
       0.167
       0.124
       0.101
       0.109
       0.139
       0.172
       0.185
       0.168
       0.137
       0.118
       0.121
       0.119
       0.070
      -0.040
      -0.172
      -0.268
      -0.293
      -0.267
      -0.227
      -0.200
      -0.193
      -0.203
      -0.222
      -0.214
      -0.134
       0.043
       0.270
       0.451
       0.500
       0.416
       0.279
       0.176
       0.130
       0.095
       0.021
      -0.088
      -0.178
      -0.198
      -0.147
      -0.065
       0.003
       0.029
       0.009
      -0.042
      -0.099
      -0.140
      -0.163
      -0.177
      -0.178
      -0.131
      -0.006
       0.180
       0.348
       0.410
       0.341
       0.198
       0.065
      -0.015
      -0.069
      -0.150
      -0.276
      -0.405
      -0.466
      -0.413
      -0.257
      -0.054
       0.131
       0.257
       0.329
       0.376
       0.426
       0.472
       0.467
       0.361
       0.149
      -0.104
      -0.296
      -0.365
      -0.328
      -0.260
      -0.220
      -0.203
      -0.147
      -0.002
       0.204
       0.374
       0.407
       0.275
       0.033
      -0.214
      -0.379
      -0.435
      -0.408
      -0.348
      -0.276
      -0.179
      -0.036
       0.141
       0.297
       0.367
       0.327
       0.219
       0.118
       0.075
       0.083
       0.093
       0.070
       0.027
       0.005
       0.029
       0.086
       0.139
       0.153
       0.119
       0.052
      -0.026
      -0.101
      -0.172
      -0.239
      -0.289
      -0.291
      -0.219
      -0.083
       0.064
       0.157
       0.158
       0.080
      -0.029
      -0.117
      -0.162
      -0.168
      -0.150
      -0.118
      -0.079
      -0.033
       0.031
       0.124
       0.239
       0.336
       0.361
       0.287
       0.138
      -0.017
      -0.121
      -0.162
      -0.166
      -0.160
      -0.141
      -0.093
      -0.011
       0.080
       0.144
       0.169
       0.164
       0.143
       0.099
       0.016
      -0.107
      -0.241
      -0.337
      -0.360
      -0.304
      -0.194
      -0.067
       0.041
       0.111
       0.148
       0.178
       0.213
       0.229
       0.178
       0.044
      -0.116
      -0.214
      -0.202
      -0.117
      -0.039
      -0.004
       0.026
       0.113
       0.261
       0.388
       0.396
       0.250
       0.006
      -0.238
      -0.405
      -0.468
      -0.437
      -0.335
      -0.191
      -0.040
       0.091
       0.191
       0.259
       0.293
       0.285
       0.237
       0.172
       0.112
       0.058
      -0.015
      -0.121
      -0.236
      -0.307
      -0.302
      -0.233
      -0.147
      -0.076
      -0.014
       0.064
       0.159
       0.238
       0.256
       0.197
       0.083
      -0.041
      -0.139
      -0.188
      -0.180
      -0.122
      -0.034
       0.050
       0.097
       0.095
       0.059
       0.015
      -0.018
      -0.037
      -0.046
      -0.046
      -0.036
      -0.018
       0.005
       0.032
       0.061
       0.087
       0.095
       0.079
       0.053
       0.043
       0.061
       0.088
       0.081
       0.012
      -0.099
      -0.193
      -0.218
      -0.174
      -0.107
      -0.070
      -0.073
      -0.075
      -0.021
       0.107
       0.259
       0.351
       0.319
       0.169
      -0.025
      -0.175
      -0.238
      -0.233
      -0.203
      -0.173
      -0.130
      -0.052
       0.056
       0.151
       0.184
       0.138
       0.055
      -0.002
       0.007
       0.058
       0.090
       0.061
      -0.008
      -0.051
      -0.027
       0.031
       0.049
      -0.019
      -0.135
      -0.209
      -0.180
      -0.067
       0.052
       0.108
       0.096
       0.064
       0.062
       0.091
       0.111
       0.085
       0.016
      -0.058
      -0.100
      -0.106
      -0.096
      -0.092
      -0.094
      -0.091
      -0.073
      -0.035
       0.013
       0.054
       0.069
       0.051
       0.017
       0.000
       0.026
       0.093
       0.178
       0.250
       0.291
       0.290
       0.244
       0.155
       0.035
      -0.097
      -0.219
      -0.326
      -0.414
      -0.469
      -0.459
      -0.362
      -0.191
       0.002
       0.162
       0.268
       0.325
       0.345
       0.326
       0.261
       0.160
       0.054
      -0.023
      -0.060
      -0.074
      -0.093
      -0.125
      -0.151
      -0.142
      -0.088
      -0.014
       0.036
       0.030
      -0.022
      -0.077
      -0.082
      -0.020
       0.085
       0.185
       0.240
       0.243
       0.210
       0.156
       0.080
      -0.028
      -0.162
      -0.283
      -0.343
      -0.317
      -0.218
      -0.093
       0.015
       0.079
       0.102
       0.102
       0.103
       0.120
       0.148
       0.169
       0.165
       0.130
       0.067
      -0.016
      -0.105
      -0.184
      -0.227
      -0.222
      -0.178
      -0.112
      -0.037
       0.049
       0.147
       0.241
       0.299
       0.291
       0.211
       0.086
      -0.041
      -0.142
      -0.211
      -0.255
      -0.275
      -0.260
      -0.205
      -0.125
      -0.057
      -0.036
      -0.063
      -0.106
      -0.121
      -0.082
      -0.002
       0.084
       0.154
       0.213
       0.282
       0.363
       0.430
       0.446
       0.393
       0.284
       0.151
       0.017
      -0.115
      -0.256
      -0.408
      -0.548
      -0.636
      -0.636
      -0.536
      -0.355
      -0.125
       0.115
       0.325
       0.466
       0.506
       0.448
       0.325
       0.186
       0.062
      -0.040
      -0.130
      -0.206
      -0.256
      -0.261
      -0.213
      -0.113
       0.025
       0.179
       0.321
       0.417
       0.444
       0.398
       0.297
       0.171
       0.043
      -0.081
      -0.214
      -0.365
      -0.518
      -0.630
      -0.659
      -0.592
      -0.465
      -0.341
      -0.261
      -0.213
      -0.141
       0.009
       0.234
       0.476
       0.662
       0.758
       0.783
       0.777
       0.755
       0.689
       0.539
       0.292
      -0.013
      -0.307
      -0.527
      -0.650
      -0.692
      -0.688
      -0.667
      -0.636
      -0.588
      -0.511
      -0.395
      -0.240
      -0.050
       0.158
       0.360
       0.523
       0.621
       0.643
       0.606
       0.533
       0.434
       0.298
       0.118
      -0.082
      -0.244
      -0.318
      -0.298
      -0.231
      -0.175
      -0.161
      -0.176
      -0.193
      -0.196
      -0.192
      -0.196
      -0.205
      -0.202
      -0.157
      -0.056
       0.093
       0.253
       0.378
       0.431
       0.408
       0.335
       0.239
       0.136
       0.028
      -0.080
      -0.168
      -0.216
      -0.229
      -0.234
      -0.260
      -0.300
      -0.307
      -0.236
      -0.088
       0.084
       0.218
       0.284
       0.296
       0.280
       0.253
       0.219
       0.173
       0.105
       0.013
      -0.090
      -0.168
      -0.187
      -0.143
      -0.079
      -0.059
      -0.111
      -0.205
      -0.273
      -0.263
      -0.182
      -0.085
      -0.016
       0.020
       0.053
       0.103
       0.153
       0.168
       0.131
       0.063
       0.008
       0.003
       0.058
       0.150
       0.237
       0.278
       0.259
       0.195
       0.118
       0.049
      -0.017
      -0.093
      -0.176
      -0.234
      -0.239
      -0.196
      -0.152
      -0.159
      -0.224
      -0.296
      -0.310
      -0.240
      -0.115
       0.014
       0.123
       0.214
       0.291
       0.331
       0.300
       0.192
       0.042
      -0.084
      -0.140
      -0.119
      -0.045
       0.048
       0.133
       0.189
       0.208
       0.190
       0.136
       0.038
      -0.104
      -0.263
      -0.370
      -0.361
      -0.224
      -0.013
       0.186
       0.313
       0.351
       0.315
       0.222
       0.088
      -0.063
      -0.198
      -0.290
      -0.339
      -0.356
      -0.337
      -0.262
      -0.117
       0.072
       0.245
       0.346
       0.365
       0.328
       0.269
       0.193
       0.091
      -0.036
      -0.159
      -0.237
      -0.249
      -0.204
      -0.128
      -0.045
       0.030
       0.083
       0.102
       0.089
       0.061
       0.040
       0.035
       0.040
       0.047
       0.050
       0.050
       0.045
       0.028
      -0.011
      -0.072
      -0.146
      -0.214
      -0.253
      -0.250
      -0.197
      -0.097
       0.037
       0.183
       0.319
       0.423
       0.479
       0.469
       0.383
       0.229
       0.038
      -0.146
      -0.283
      -0.354
      -0.372
      -0.360
      -0.331
      -0.285
      -0.220
      -0.151
      -0.101
      -0.084
      -0.088
      -0.079
      -0.034
       0.039
       0.114
       0.178
       0.246
       0.339
       0.453
       0.546
       0.565
       0.489
       0.340
       0.154
      -0.045
      -0.247
      -0.435
      -0.574
      -0.619
      -0.548
      -0.380
      -0.163
       0.048
       0.213
       0.307
       0.321
       0.266
       0.167
       0.052
      -0.057
      -0.148
      -0.206
      -0.219
      -0.182
      -0.110
      -0.027
       0.051
       0.116
       0.165
       0.199
       0.217
       0.220
       0.210
       0.184
       0.137
       0.074
       0.009
      -0.040
      -0.064
      -0.071
      -0.080
      -0.102
      -0.138
      -0.179
      -0.211
      -0.220
      -0.198
      -0.146
      -0.073
       0.016
       0.114
       0.209
       0.278
       0.293
       0.246
       0.152
       0.050
      -0.024
      -0.052
      -0.044
      -0.018
       0.012
       0.044
       0.077
       0.098
       0.079
       0.000
      -0.132
      -0.273
      -0.371
      -0.392
      -0.338
      -0.231
      -0.104
       0.018
       0.116
       0.177
       0.195
       0.168
       0.107
       0.046
       0.034
       0.100
       0.227
       0.350
       0.403
       0.369
       0.291
       0.229
       0.198
       0.159
       0.059
      -0.103
      -0.267
      -0.356
      -0.350
      -0.300
      -0.287
      -0.341
      -0.420
      -0.446
      -0.385
      -0.275
      -0.195
      -0.189
      -0.222
      -0.206
      -0.072
       0.164
       0.415
       0.588
       0.656
       0.663
       0.667
       0.677
       0.640
       0.498
       0.246
      -0.056
      -0.332
      -0.544
      -0.694
      -0.781
      -0.774
      -0.631
      -0.359
      -0.028
       0.253
       0.412
       0.445
       0.400
       0.323
       0.234
       0.133
       0.028
      -0.057
      -0.102
      -0.110
      -0.104
      -0.115
      -0.159
      -0.225
      -0.278
      -0.285
      -0.233
      -0.151
      -0.082
      -0.045
      -0.016
       0.052
       0.182
       0.340
       0.460
       0.489
       0.428
       0.326
       0.239
       0.186
       0.148
       0.094
       0.009
      -0.098
      -0.202
      -0.279
      -0.314
      -0.299
      -0.245
      -0.171
      -0.101
      -0.045
      -0.003
       0.028
       0.040
       0.028
      -0.008
      -0.048
      -0.072
      -0.076
      -0.079
      -0.105
      -0.154
      -0.202
      -0.212
      -0.168
      -0.076
       0.040
       0.163
       0.285
       0.403
       0.506
       0.565
       0.555
       0.466
       0.323
       0.167
       0.038
      -0.045
      -0.083
      -0.087
      -0.067
      -0.039
      -0.026
      -0.057
      -0.149
      -0.298
      -0.473
      -0.629
      -0.717
      -0.709
      -0.608
      -0.454
      -0.308
      -0.213
      -0.171
      -0.146
      -0.092
       0.021
       0.193
       0.404
       0.616
       0.798
       0.931
       1.014
       1.060
       1.078
       1.075
       1.043
       0.972
       0.843
       0.627
       0.289
      -0.194
      -0.807
      -1.482
      -2.113
      -2.594
      -2.857
      -2.887
      -2.713
      -2.363
      -1.847
      -1.163
      -0.344
       0.520
       1.311
       1.941
       2.395
       2.704
       2.902
       2.983
       2.925
       2.725
       2.420
       2.061
       1.676
       1.251
       0.751
       0.159
      -0.491
      -1.131
      -1.694
      -2.147
      -2.499
      -2.775
      -2.983
      -3.105
      -3.119
      -3.019
      -2.821
      -2.541
      -2.177
      -1.708
      -1.110
      -0.380
       0.459
       1.362
       2.284
       3.188
       4.034
       4.763
       5.289
       5.525
       5.410
       4.930
       4.099
       2.945
       1.510
      -0.135
      -1.869
      -3.541
      -4.995
      -6.095
      -6.731
      -6.826
      -6.368
      -5.424
      -4.131
      -2.647
      -1.105
       0.397
       1.776
       2.941
       3.802
       4.295
       4.412
       4.203
       3.755
       3.156
       2.477
       1.780
       1.130
       0.592
       0.208
      -0.023
      -0.142
      -0.221
      -0.331
      -0.529
      -0.848
      -1.282
      -1.797
      -2.345
      -2.867
      -3.299
      -3.557
      -3.555
      -3.234
      -2.596
      -1.704
      -0.661
       0.431
       1.487
       2.443
       3.240
       3.820
       4.141
       4.190
       3.989
       3.581
       3.001
       2.264
       1.376
       0.367
      -0.693
      -1.702
      -2.571
      -3.256
      -3.751
      -4.042
      -4.081
      -3.800
      -3.179
      -2.276
      -1.212
      -0.114
       0.924
       1.827
       2.523
       2.949
       3.075
       2.927
       2.568
       2.058
       1.449
       0.792
       0.165
      -0.343
      -0.654
      -0.729
      -0.573
      -0.240
       0.169
       0.520
       0.690
       0.617
       0.307
      -0.191
      -0.823
      -1.537
      -2.264
      -2.900
      -3.333
      -3.498
      -3.397
      -3.077
      -2.570
      -1.867
      -0.946
       0.181
       1.430
       2.668
       3.753
       4.570
       5.050
       5.160
       4.897
       4.278
       3.347
       2.183
       0.893
      -0.403
      -1.591
      -2.567
      -3.244
      -3.559
      -3.492
      -3.079
      -2.398
      -1.561
      -0.694
       0.063
       0.585
       0.789
       0.672
       0.310
      -0.182
      -0.699
      -1.157
      -1.490
      -1.640
      -1.569
      -1.295
      -0.880
      -0.395
       0.131
       0.711
       1.368
       2.076
       2.749
       3.282
       3.602
       3.694
       3.564
       3.200
       2.566
       1.637
       0.442
      -0.928
      -2.351
      -3.693
      -4.825
      -5.604
      -5.887
      -5.565
      -4.623
      -3.178
      -1.446
       0.330
       1.953
       3.296
       4.273
       4.814
       4.874
       4.458
       3.644
       2.558
       1.340
       0.112
      -1.039
      -2.042
      -2.827
      -3.301
      -3.366
      -2.960
      -2.114
      -0.974
       0.244
       1.331
       2.158
       2.681
       2.905
       2.829
       2.434
       1.710
       0.700
      -0.486
      -1.696
      -2.776
      -3.605
      -4.101
      -4.213
      -3.917
      -3.234
      -2.239
      -1.047
       0.223
       1.484
       2.667
       3.697
       4.477
       4.909
       4.934
       4.558
       3.833
       2.833
       1.636
       0.332
      -0.970
      -2.144
      -3.079
      -3.700
      -3.987
      -3.952
      -3.628
      -3.063
      -2.329
      -1.535
      -0.798
      -0.199
       0.253
       0.605
       0.929
       1.270
       1.630
       1.967
       2.230
       2.383
       2.415
       2.330
       2.119
       1.751
       1.201
       0.491
      -0.299
      -1.073
      -1.772
      -2.388
      -2.911
      -3.279
      -3.384
      -3.139
      -2.545
      -1.695
      -0.725
       0.255
       1.179
       2.004
       2.682
       3.152
       3.364
       3.301
       2.981
       2.434
       1.685
       0.778
      -0.210
      -1.168
      -1.991
      -2.600
      -2.939
      -2.955
      -2.608
      -1.908
      -0.948
       0.102
       1.055
       1.761
       2.151
       2.230
       2.042
       1.644
       1.079
       0.397
      -0.337
      -1.030
      -1.579
      -1.905
      -1.971
      -1.787
      -1.406
      -0.903
      -0.362
       0.132
       0.510
       0.724
       0.773
       0.694
       0.555
       0.419
       0.327
       0.297
       0.333
       0.429
       0.569
       0.726
       0.861
       0.939
       0.942
       0.871
       0.743
       0.586
       0.414
       0.222
      -0.019
      -0.337
      -0.734
      -1.177
      -1.611
      -1.993
      -2.301
      -2.527
      -2.633
      -2.543
      -2.173
      -1.486
      -0.530
       0.564
       1.628
       2.506
       3.095
       3.345
       3.247
       2.816
       2.107
       1.224
       0.319
      -0.445
      -0.942
      -1.127
      -1.043
      -0.786
      -0.473
      -0.208
      -0.063
      -0.062
      -0.183
      -0.362
      -0.520
      -0.589
      -0.545
      -0.415
      -0.259
      -0.133
      -0.056
      -0.017
       0.002
      -0.002
      -0.052
      -0.162
      -0.311
      -0.440
      -0.479
      -0.395
      -0.220
      -0.033
       0.089
       0.129
       0.127
       0.149
       0.235
       0.383
       0.563
       0.728
       0.831
       0.837
       0.739
       0.570
       0.382
       0.215
       0.081
      -0.038
      -0.160
      -0.288
      -0.406
      -0.488
      -0.512
      -0.478
      -0.405
      -0.326
      -0.269
      -0.241
      -0.229
      -0.220
      -0.221
      -0.260
      -0.361
      -0.508
      -0.642
      -0.685
      -0.593
      -0.375
      -0.074
       0.271
       0.635
       0.990
       1.290
       1.478
       1.514
       1.396
       1.152
       0.817
       0.421
      -0.011
      -0.445
      -0.835
      -1.137
      -1.333
      -1.429
      -1.441
      -1.371
      -1.206
      -0.933
      -0.558
      -0.118
       0.340
       0.765
       1.108
       1.320
       1.368
       1.253
       1.023
       0.743
       0.465
       0.201
      -0.057
      -0.305
      -0.509
      -0.631
      -0.660
      -0.634
      -0.614
      -0.650
      -0.750
      -0.878
      -0.969
      -0.964
      -0.830
      -0.570
      -0.209
       0.222
       0.683
       1.124
       1.481
       1.694
       1.734
       1.613
       1.367
