Origin Time       09/01/2013 07:44:20
Lat.              29.75 N
Long.             81.74 E
Depth (Km)         34.0
Magnitude         5.0
 Region           NEPAL                                                            
 Above details taken from IIT 
     
Station Code      PTH
Station Lat.       29.579  N
Station Long.      80.207  E
Station Height(m) 1538.0
Site Class        A   Vs30 between 700 m/sec to 1400 m/sec * 
Record Time       09.01.2013 07:44:33.214
Sampling Rate     200. Hz
 Record Duration   82.630 Sec.
 Direction         E-W (E positive)
Max. Acceleration     -5.709 cm/sec**2
     
  * For reference see Site Classification link of website 
     
 Base Line Corrected and Low Pass Filtered (Cut Off at 35 Hz) Time History
 Acceleration data in cm/sec**2
    
[...]
       0.135
       0.179
       0.205
       0.198
       0.152
       0.072
      -0.025
      -0.114
      -0.170
      -0.180
      -0.147
      -0.091
      -0.034
       0.010
       0.037
       0.057
       0.079
       0.108
       0.138
       0.161
       0.166
       0.150
       0.115
       0.073
       0.030
      -0.010
      -0.043
      -0.058
      -0.048
      -0.016
       0.017
       0.029
       0.007
      -0.044
      -0.110
      -0.176
      -0.234
      -0.281
      -0.310
      -0.306
      -0.255
      -0.156
      -0.029
       0.094
       0.185
       0.231
       0.232
       0.199
       0.141
       0.065
      -0.019
      -0.095
      -0.146
      -0.164
      -0.153
      -0.127
      -0.100
      -0.084
      -0.084
      -0.104
      -0.143
      -0.192
      -0.227
      -0.221
      -0.153
      -0.028
       0.122
       0.252
       0.324
       0.328
       0.286
       0.232
       0.187
       0.146
       0.092
       0.016
      -0.070
      -0.139
      -0.172
      -0.167
      -0.147
      -0.142
      -0.175
      -0.238
      -0.298
      -0.315
      -0.264
      -0.145
       0.015
       0.173
       0.291
       0.348
       0.349
       0.311
       0.258
       0.204
       0.159
       0.126
       0.108
       0.106
       0.113
       0.125
       0.144
       0.175
       0.221
       0.271
       0.304
       0.301
       0.254
       0.172
       0.072
      -0.023
      -0.100
      -0.159
      -0.213
      -0.273
      -0.340
      -0.400
      -0.429
      -0.408
      -0.330
      -0.206
      -0.061
       0.073
       0.165
       0.195
       0.162
       0.084
      -0.015
      -0.106
      -0.163
      -0.171
      -0.126
      -0.044
       0.052
       0.140
       0.201
       0.225
       0.219
       0.203
       0.196
       0.208
       0.232
       0.252
       0.252
       0.222
       0.166
       0.096
       0.022
      -0.047
      -0.104
      -0.146
      -0.175
      -0.192
      -0.199
      -0.191
      -0.161
      -0.108
      -0.041
       0.022
       0.057
       0.048
       0.001
      -0.063
      -0.121
      -0.157
      -0.172
      -0.172
      -0.164
      -0.157
      -0.156
      -0.159
      -0.155
      -0.128
      -0.060
       0.056
       0.200
       0.340
       0.436
       0.463
       0.413
       0.297
       0.150
       0.016
      -0.066
      -0.080
      -0.041
       0.020
       0.068
       0.089
       0.091
       0.098
       0.126
       0.165
       0.185
       0.158
       0.074
      -0.052
      -0.188
      -0.313
      -0.420
      -0.512
      -0.589
      -0.644
      -0.663
      -0.638
      -0.569
      -0.456
      -0.295
      -0.088
       0.154
       0.400
       0.604
       0.731
       0.775
       0.756
       0.702
       0.622
       0.506
       0.342
       0.133
      -0.100
      -0.319
      -0.484
      -0.567
      -0.562
      -0.483
      -0.358
      -0.224
      -0.110
      -0.036
      -0.004
       0.003
       0.006
       0.016
       0.031
       0.031
       0.005
      -0.038
      -0.064
      -0.039
       0.052
       0.195
       0.353
       0.480
       0.547
       0.546
       0.496
       0.425
       0.358
       0.307
       0.273
       0.244
       0.197
       0.113
      -0.015
      -0.173
      -0.328
      -0.450
      -0.524
      -0.558
      -0.571
      -0.576
      -0.571
      -0.542
      -0.474
      -0.357
      -0.195
      -0.008
       0.174
       0.319
       0.398
       0.390
       0.294
       0.128
      -0.067
      -0.238
      -0.338
      -0.348
      -0.274
      -0.155
      -0.033
       0.059
       0.110
       0.125
       0.118
       0.100
       0.078
       0.051
       0.019
      -0.008
      -0.019
      -0.011
       0.010
       0.034
       0.050
       0.054
       0.050
       0.054
       0.093
       0.185
       0.333
       0.517
       0.702
       0.847
       0.914
       0.877
       0.735
       0.510
       0.240
      -0.037
      -0.290
      -0.505
      -0.675
      -0.794
      -0.856
      -0.852
      -0.782
      -0.657
      -0.496
      -0.320
      -0.139
       0.042
       0.212
       0.345
       0.406
       0.377
       0.271
       0.129
       0.005
      -0.061
      -0.051
       0.023
       0.131
       0.235
       0.302
       0.313
       0.265
       0.177
       0.079
       0.001
      -0.045
      -0.063
      -0.074
      -0.100
      -0.150
      -0.217
      -0.287
      -0.346
      -0.388
      -0.411
      -0.422
      -0.428
      -0.426
      -0.405
      -0.343
      -0.233
      -0.090
       0.057
       0.175
       0.251
       0.298
       0.344
       0.412
       0.502
       0.586
       0.633
       0.625
       0.562
       0.458
       0.328
       0.181
       0.027
      -0.122
      -0.251
      -0.351
      -0.422
      -0.463
      -0.471
      -0.446
      -0.400
      -0.358
      -0.340
      -0.344
      -0.346
      -0.315
      -0.234
      -0.111
       0.027
       0.145
       0.222
       0.254
       0.250
       0.223
       0.183
       0.135
       0.088
       0.053
       0.038
       0.032
       0.011
      -0.048
      -0.147
      -0.262
      -0.352
      -0.381
      -0.330
      -0.210
      -0.054
       0.089
       0.183
       0.214
       0.193
       0.148
       0.112
       0.107
       0.137
       0.181
       0.200
       0.159
       0.053
      -0.087
      -0.204
      -0.245
      -0.189
      -0.051
       0.127
       0.292
       0.396
       0.410
       0.332
       0.184
       0.004
      -0.167
      -0.297
      -0.371
      -0.386
      -0.347
      -0.252
      -0.105
       0.076
       0.263
       0.426
       0.544
       0.603
       0.593
       0.510
       0.365
       0.183
      -0.002
      -0.165
      -0.297
      -0.399
      -0.469
      -0.502
      -0.496
      -0.459
      -0.407
      -0.348
      -0.282
      -0.206
      -0.119
      -0.033
       0.043
       0.106
       0.165
       0.234
       0.313
       0.381
       0.411
       0.393
       0.336
       0.264
       0.195
       0.134
       0.077
       0.014
      -0.058
      -0.132
      -0.200
      -0.249
      -0.273
      -0.273
      -0.261
      -0.253
      -0.263
      -0.288
      -0.314
      -0.328
      -0.315
      -0.266
      -0.178
      -0.055
       0.083
       0.205
       0.281
       0.302
       0.292
       0.301
       0.365
       0.486
       0.626
       0.734
       0.768
       0.724
       0.629
       0.519
       0.417
       0.319
       0.205
       0.058
      -0.121
      -0.308
      -0.472
      -0.591
      -0.658
      -0.674
      -0.634
      -0.529
      -0.360
      -0.157
       0.032
       0.160
       0.203
       0.166
       0.076
      -0.034
      -0.138
      -0.222
      -0.288
      -0.349
      -0.416
      -0.486
      -0.533
      -0.521
      -0.426
      -0.262
      -0.073
       0.091
       0.200
       0.251
       0.269
       0.278
       0.289
       0.302
       0.312
       0.319
       0.313
       0.275
       0.182
       0.037
      -0.123
      -0.243
      -0.273
      -0.204
      -0.066
       0.089
       0.209
       0.259
       0.231
       0.138
       0.009
      -0.124
      -0.235
      -0.307
      -0.324
      -0.275
      -0.159
       0.007
       0.187
       0.339
       0.423
       0.419
       0.342
       0.225
       0.110
       0.021
      -0.037
      -0.073
      -0.098
      -0.117
      -0.124
      -0.112
      -0.083
      -0.047
      -0.014
       0.010
       0.025
       0.039
       0.056
       0.077
       0.103
       0.134
       0.168
       0.194
       0.186
       0.123
       0.005
      -0.144
      -0.287
      -0.398
      -0.469
      -0.509
      -0.537
      -0.566
      -0.594
      -0.606
      -0.576
      -0.484
      -0.319
      -0.095
       0.156
       0.386
       0.556
       0.646
       0.662
       0.623
       0.552
       0.462
       0.362
       0.268
       0.203
       0.188
       0.217
       0.267
       0.306
       0.314
       0.291
       0.244
       0.183
       0.108
       0.015
      -0.096
      -0.214
      -0.325
      -0.416
      -0.484
      -0.536
      -0.575
      -0.600
      -0.604
      -0.572
      -0.496
      -0.375
      -0.220
      -0.046
       0.129
       0.282
       0.388
       0.431
       0.412
       0.355
       0.291
       0.251
       0.249
       0.273
       0.295
       0.288
       0.234
       0.128
      -0.017
      -0.179
      -0.330
      -0.448
      -0.523
      -0.557
      -0.555
      -0.523
      -0.469
      -0.399
      -0.325
      -0.253
      -0.180
      -0.098
      -0.004
       0.088
       0.149
       0.161
       0.124
       0.059
      -0.006
      -0.044
      -0.042
      -0.002
       0.059
       0.116
       0.153
       0.169
       0.169
       0.163
       0.148
       0.115
       0.052
      -0.044
      -0.165
      -0.287
      -0.377
      -0.399
      -0.336
      -0.201
      -0.036
       0.113
       0.210
       0.250
       0.253
       0.248
       0.253
       0.265
       0.268
       0.248
       0.207
       0.156
       0.120
       0.126
       0.196
       0.329
       0.499
       0.658
       0.768
       0.812
       0.804
       0.762
       0.699
       0.614
       0.503
       0.367
       0.211
       0.036
      -0.152
      -0.339
      -0.502
      -0.624
      -0.699
      -0.733
      -0.736
      -0.712
      -0.661
      -0.576
      -0.461
      -0.325
      -0.182
      -0.036
       0.118
       0.287
       0.468
       0.650
       0.817
       0.954
       1.048
       1.090
       1.078
       1.018
       0.917
       0.785
       0.622
       0.422
       0.183
      -0.078
      -0.335
      -0.554
      -0.714
      -0.812
      -0.868
      -0.914
      -0.976
      -1.054
      -1.129
      -1.179
      -1.193
      -1.179
      -1.152
      -1.130
      -1.124
      -1.138
      -1.167
      -1.200
      -1.225
      -1.227
      -1.192
      -1.115
      -0.995
      -0.837
      -0.650
      -0.440
      -0.195
       0.105
       0.479
       0.923
       1.404
       1.869
       2.269
       2.575
       2.786
       2.925
       3.009
       3.028
       2.943
       2.709
       2.300
       1.724
       1.011
       0.201
      -0.665
      -1.548
      -2.406
      -3.191
      -3.855
      -4.355
      -4.657
      -4.742
      -4.609
      -4.265
      -3.716
      -2.968
      -2.036
      -0.957
       0.208
       1.383
       2.488
       3.451
       4.217
       4.753
       5.047
       5.101
       4.932
       4.566
       4.035
       3.375
       2.618
       1.797
       0.949
       0.110
      -0.685
      -1.403
      -2.015
      -2.493
      -2.816
      -2.979
      -2.996
      -2.904
      -2.748
      -2.571
      -2.403
      -2.261
      -2.143
      -2.036
      -1.919
      -1.771
      -1.579
      -1.339
      -1.055
      -0.725
      -0.336
       0.133
       0.702
       1.363
       2.070
       2.746
       3.304
       3.676
       3.832
       3.772
       3.507
       3.049
       2.417
       1.655
       0.833
       0.025
      -0.707
      -1.328
      -1.821
      -2.176
      -2.385
      -2.442
      -2.357
      -2.152
      -1.861
      -1.512
      -1.120
      -0.692
      -0.231
       0.240
       0.674
       1.017
       1.236
       1.346
       1.391
       1.424
       1.480
       1.562
       1.643
       1.675
       1.599
       1.369
       0.969
       0.421
      -0.215
      -0.856
      -1.418
      -1.842
      -2.099
      -2.195
      -2.158
      -2.015
      -1.782
      -1.461
      -1.057
      -0.588
      -0.082
       0.434
       0.939
       1.425
       1.889
       2.327
       2.721
       3.034
       3.211
       3.198
       2.951
       2.459
       1.754
       0.907
       0.011
      -0.841
      -1.580
      -2.173
      -2.614
      -2.918
      -3.104
      -3.197
      -3.232
      -3.243
      -3.255
      -3.262
      -3.240
      -3.150
      -2.958
      -2.638
      -2.175
      -1.568
      -0.822
       0.040
       0.978
       1.933
       2.836
       3.623
       4.238
       4.634
       4.774
       4.645
       4.267
       3.695
       3.010
       2.291
       1.592
       0.928
       0.290
      -0.346
      -0.993
      -1.648
      -2.283
      -2.852
      -3.293
      -3.545
      -3.561
      -3.318
      -2.840
      -2.190
      -1.463
      -0.753
      -0.137
       0.334
       0.630
       0.742
       0.682
       0.495
       0.262
       0.082
       0.049
       0.221
       0.608
       1.167
       1.813
       2.443
       2.958
       3.272
       3.328
       3.110
       2.642
       1.987
       1.224
       0.428
      -0.324
      -0.961
      -1.428
      -1.695
      -1.767
      -1.677
      -1.482
      -1.248
      -1.042
      -0.924
      -0.930
      -1.071
      -1.326
      -1.650
      -1.973
      -2.217
      -2.310
      -2.204
      -1.887
      -1.379
      -0.718
       0.051
       0.872
       1.681
       2.411
       3.008
       3.434
       3.675
       3.736
       3.635
       3.398
       3.041
       2.562
       1.931
       1.105
       0.062
      -1.170
      -2.491
      -3.752
      -4.789
      -5.469
      -5.709
      -5.493
      -4.858
      -3.882
      -2.672
      -1.363
      -0.090
       1.027
       1.911
       2.526
       2.869
       2.959
       2.827
       2.505
       2.035
       1.471
       0.876
       0.322
      -0.131
      -0.448
      -0.628
      -0.696
      -0.685
      -0.619
      -0.515
      -0.384
      -0.233
      -0.059
       0.157
       0.437
       0.785
       1.174
       1.543
       1.817
       1.932
       1.856
       1.588
       1.147
       0.568
      -0.098
      -0.778
      -1.399
      -1.899
      -2.243
      -2.420
      -2.437
      -2.303
      -2.025
      -1.614
      -1.096
      -0.522
       0.044
       0.529
       0.875
       1.051
       1.053
       0.904
       0.642
       0.317
      -0.017
      -0.320
      -0.585
      -0.835
      -1.097
      -1.367
      -1.606
      -1.755
      -1.755
      -1.577
      -1.220
      -0.712
      -0.091
       0.598
       1.312
       2.012
       2.655
       3.191
       3.566
       3.739
       3.697
       3.449
       3.025
       2.459
       1.791
       1.062
       0.310
      -0.430
      -1.126
      -1.764
      -2.338
      -2.846
      -3.263
      -3.535
      -3.595
      -3.395
      -2.935
      -2.265
      -1.469
      -0.643
       0.124
       0.754
       1.211
       1.507
       1.703
       1.863
       2.025
       2.182
       2.297
       2.318
       2.206
       1.940
       1.527
       0.999
       0.411
      -0.173
      -0.687
      -1.089
      -1.364
      -1.519
      -1.560
      -1.482
      -1.273
      -0.931
      -0.485
      -0.002
       0.428
       0.721
       0.830
       0.758
       0.552
       0.284
       0.027
      -0.169
      -0.284
      -0.319
      -0.287
      -0.202
      -0.074
       0.091
       0.289
       0.510
       0.726
       0.893
       0.960
       0.893
       0.691
       0.378
       0.003
      -0.385
      -0.743
      -1.045
      -1.283
      -1.463
      -1.595
      -1.674
      -1.679
      -1.584
      -1.373
      -1.046
      -0.622
      -0.127
       0.414
       0.979
       1.543
       2.066
       2.491
       2.765
       2.855
       2.754
       2.479
       2.047
       1.481
       0.802
       0.049
      -0.719
      -1.421
      -1.967
      -2.286
      -2.350
      -2.191
      -1.883
      -1.508
      -1.123
      -0.757
      -0.422
      -0.138
       0.065
       0.161
       0.138
       0.005
      -0.212
      -0.474
      -0.747
      -1.001
      -1.207
      -1.330
      -1.343
      -1.244
      -1.050
      -0.791
      -0.482
      -0.113
       0.325
       0.816
       1.297
       1.672
       1.855
       1.814
       1.579
       1.233
       0.870
       0.563
       0.344
       0.214
       0.153
       0.138
       0.148
       0.162
       0.160
       0.121
       0.020
      -0.174
      -0.485
      -0.911
      -1.406
      -1.883
      -2.235
      -2.367
      -2.229
      -1.828
      -1.222
      -0.498
       0.253
       0.949
       1.534
       1.970
       2.233
       2.310
       2.206
       1.954
       1.607
       1.223
       0.855
       0.539
       0.291
       0.107
      -0.031
      -0.148
      -0.267
      -0.397
      -0.535
      -0.664
      -0.769
      -0.829
      -0.817
      -0.702
      -0.472
      -0.145
       0.226
       0.574
       0.840
       0.992
       1.028
       0.960
       0.802
       0.564
       0.258
      -0.090
      -0.446
      -0.769
      -1.016
      -1.155
      -1.173
      -1.082
      -0.912
      -0.695
      -0.454
      -0.202
       0.050
       0.287
       0.491
       0.646
       0.735
       0.738
       0.638
       0.431
       0.133
      -0.217
      -0.572
      -0.887
      -1.122
      -1.245
      -1.241
      -1.114
      -0.896
      -0.635
      -0.382
      -0.175
      -0.024
       0.090
       0.205
       0.354
       0.548
       0.766
       0.956
       1.067
       1.075
       0.991
       0.855
       0.711
       0.587
       0.481
       0.372
       0.234
       0.055
      -0.164
      -0.407
      -0.660
      -0.902
      -1.106
      -1.242
      -1.291
      -1.252
      -1.138
      -0.973
      -0.767
      -0.519
      -0.219
       0.130
       0.500
       0.837
       1.092
       1.236
       1.280
       1.268
       1.252
       1.269
       1.328
       1.413
       1.491
       1.520
       1.461
       1.285
       0.986
       0.578
       0.109
      -0.344
      -0.702
      -0.932
      -1.058
      -1.151
      -1.271
      -1.430
      -1.590
      -1.694
      -1.701
      -1.605
      -1.422
      -1.177
      -0.884
      -0.557
      -0.212
       0.130
       0.447
       0.726
       0.960
       1.143
       1.271
       1.336
       1.333
       1.259
       1.116
       0.906
       0.644
       0.359
       0.085
      -0.151
      -0.340
      -0.489
      -0.608
      -0.703
      -0.773
      -0.807
      -0.793
      -0.727
      -0.607
      -0.433
      -0.211
       0.051
       0.334
       0.605
       0.816
       0.923
       0.905
       0.776
       0.571
       0.322
       0.044
      -0.254
      -0.554
      -0.827
      -1.037
      -1.151
      -1.150
      -1.034
      -0.821
      -0.539
      -0.216
       0.123
       0.458
       0.766
       1.014
       1.152
       1.140
       0.962
       0.652
       0.275
      -0.086
      -0.364
      -0.515
      -0.533
      -0.441
      -0.281
      -0.108
       0.022
       0.072
       0.026
      -0.104
      -0.296
      -0.517
      -0.733
      -0.913
      -1.036
      -1.086
      -1.045
      -0.896
      -0.633
      -0.278
       0.115
       0.468
       0.712
       0.809
       0.763
       0.605
