Origin Time       10/01/2013 15:16:13
Lat.              30.1 N	
Long.             80.4 E	
Depth (Km)          5.0
Magnitude         3.2
 Region           Pithoragarh                                                      
 Above details taken from IMD 
   
Station Code      PTH
Station Lat.       29.579
Station Long.      80.207
Station Height(m) 1538.0
Site Class        A   Vs30 between 700 m/sec to 1400 m/sec * 
Record Time       10.01.2013 15:15:51.089
Sampling Rate     200. Hz
 Record Duration   82.145 Sec.
 Direction         Vert. (Up positive)
Max. Acceleration      3.843 cm/sec**2
     
  * For reference see Site Classification link of website 
     
 Base Line Corrected and Low Pass Filtered (Cut Off at 35 Hz) Time History
 Acceleration data in cm/sec**2
    
[...]
      -0.124
      -0.331
      -0.441
      -0.339
      -0.066
       0.208
       0.313
       0.222
       0.070
       0.022
       0.118
       0.230
       0.199
      -0.005
      -0.233
      -0.298
      -0.155
       0.049
       0.120
       0.011
      -0.135
      -0.137
       0.032
       0.206
       0.199
      -0.003
      -0.209
      -0.209
       0.029
       0.321
       0.437
       0.302
       0.037
      -0.165
      -0.204
      -0.129
      -0.059
      -0.076
      -0.169
      -0.261
      -0.273
      -0.182
      -0.029
       0.102
       0.145
       0.107
       0.066
       0.108
       0.236
       0.360
       0.379
       0.271
       0.094
      -0.094
      -0.285
      -0.482
      -0.627
      -0.629
      -0.452
      -0.177
       0.054
       0.170
       0.225
       0.314
       0.452
       0.542
       0.485
       0.289
       0.056
      -0.123
      -0.238
      -0.318
      -0.358
      -0.311
      -0.153
       0.063
       0.233
       0.291
       0.246
       0.158
       0.078
       0.022
      -0.013
      -0.036
      -0.054
      -0.079
      -0.109
      -0.131
      -0.145
      -0.182
      -0.271
      -0.380
      -0.411
      -0.278
      -0.001
       0.294
       0.468
       0.484
       0.408
       0.326
       0.251
       0.143
      -0.014
      -0.168
      -0.238
      -0.193
      -0.079
       0.018
       0.039
      -0.018
      -0.102
      -0.146
      -0.118
      -0.047
      -0.006
      -0.043
      -0.134
      -0.200
      -0.182
      -0.097
      -0.012
       0.035
       0.073
       0.152
       0.270
       0.359
       0.351
       0.239
       0.079
      -0.068
      -0.161
      -0.183
      -0.127
      -0.003
       0.146
       0.245
       0.228
       0.083
      -0.120
      -0.273
      -0.301
      -0.219
      -0.118
      -0.092
      -0.161
      -0.258
      -0.273
      -0.148
       0.069
       0.256
       0.315
       0.258
       0.188
       0.198
       0.283
       0.347
       0.297
       0.122
      -0.096
      -0.261
      -0.337
      -0.358
      -0.371
      -0.374
      -0.323
      -0.184
       0.021
       0.221
       0.352
       0.409
       0.420
       0.404
       0.339
       0.199
      -0.004
      -0.216
      -0.385
      -0.488
      -0.519
      -0.466
      -0.312
      -0.073
       0.181
       0.346
       0.351
       0.218
       0.060
      -0.001
       0.069
       0.190
       0.242
       0.175
       0.052
      -0.022
      -0.018
      -0.025
      -0.152
      -0.393
      -0.578
      -0.508
      -0.145
       0.323
       0.612
       0.572
       0.301
       0.041
      -0.039
       0.018
       0.035
      -0.112
      -0.372
      -0.571
      -0.573
      -0.390
      -0.146
       0.036
       0.125
       0.167
       0.220
       0.293
       0.353
       0.370
       0.347
       0.299
       0.220
       0.087
      -0.093
      -0.257
      -0.320
      -0.248
      -0.107
      -0.017
      -0.050
      -0.153
      -0.185
      -0.050
       0.187
       0.337
       0.251
      -0.039
      -0.341
      -0.464
      -0.370
      -0.184
      -0.061
      -0.052
      -0.091
      -0.078
       0.027
       0.194
       0.368
       0.495
       0.533
       0.466
       0.319
       0.151
       0.010
      -0.098
      -0.198
      -0.296
      -0.354
      -0.334
      -0.257
      -0.194
      -0.191
      -0.221
      -0.226
      -0.183
      -0.130
      -0.092
      -0.041
       0.077
       0.258
       0.425
       0.495
       0.466
       0.400
       0.333
       0.221
      -0.004
      -0.326
      -0.623
      -0.765
      -0.721
      -0.550
      -0.309
      -0.001
       0.371
       0.721
       0.903
       0.825
       0.543
       0.234
       0.052
       0.016
       0.022
      -0.040
      -0.186
      -0.344
      -0.442
      -0.471
      -0.471
      -0.469
      -0.457
      -0.409
      -0.318
      -0.180
       0.008
       0.242
       0.468
       0.593
       0.544
       0.331
       0.050
      -0.187
      -0.320
      -0.346
      -0.278
      -0.126
       0.077
       0.257
       0.342
       0.334
       0.315
       0.352
       0.405
       0.356
       0.141
      -0.149
      -0.332
      -0.303
      -0.128
       0.027
       0.042
      -0.084
      -0.268
      -0.415
      -0.455
      -0.358
      -0.163
       0.014
       0.056
      -0.053
      -0.183
      -0.170
       0.026
       0.271
       0.388
       0.328
       0.200
       0.131
       0.136
       0.129
       0.052
      -0.063
      -0.137
      -0.142
      -0.105
      -0.043
       0.057
       0.189
       0.277
       0.225
       0.026
      -0.206
      -0.332
      -0.315
      -0.235
      -0.183
      -0.158
      -0.094
       0.038
       0.184
       0.268
       0.261
       0.189
       0.084
      -0.037
      -0.139
      -0.163
      -0.066
       0.111
       0.254
       0.261
       0.136
      -0.022
      -0.124
      -0.159
      -0.181
      -0.219
      -0.250
      -0.234
      -0.168
      -0.073
       0.031
       0.137
       0.216
       0.219
       0.124
      -0.018
      -0.098
      -0.047
       0.095
       0.201
       0.178
       0.052
      -0.054
      -0.039
       0.076
       0.171
       0.139
      -0.012
      -0.159
      -0.186
      -0.097
      -0.007
      -0.017
      -0.104
      -0.152
      -0.090
       0.027
       0.083
       0.037
      -0.038
      -0.051
      -0.008
       0.006
      -0.054
      -0.121
      -0.088
       0.046
       0.147
       0.090
      -0.106
      -0.285
      -0.315
      -0.197
      -0.036
       0.078
       0.121
       0.117
       0.093
       0.075
       0.103
       0.205
       0.344
       0.418
       0.351
       0.174
       0.005
      -0.067
      -0.064
      -0.075
      -0.156
      -0.271
      -0.347
      -0.339
      -0.246
      -0.094
       0.072
       0.192
       0.210
       0.124
       0.001
      -0.073
      -0.071
      -0.052
      -0.097
      -0.223
      -0.357
      -0.400
      -0.311
      -0.131
       0.057
       0.185
       0.233
       0.229
       0.222
       0.252
       0.312
       0.361
       0.357
       0.300
       0.227
       0.170
       0.112
       0.004
      -0.180
      -0.387
      -0.524
      -0.533
      -0.434
      -0.288
      -0.136
       0.026
       0.209
       0.383
       0.483
       0.444
       0.255
      -0.022
      -0.284
      -0.432
      -0.423
      -0.291
      -0.122
       0.005
       0.074
       0.139
       0.246
       0.358
       0.367
       0.209
      -0.030
      -0.162
      -0.068
       0.162
       0.291
       0.161
      -0.140
      -0.350
      -0.277
       0.012
       0.242
       0.190
      -0.113
      -0.421
      -0.497
      -0.308
      -0.034
       0.118
       0.088
      -0.006
      -0.009
       0.118
       0.268
       0.296
       0.159
      -0.039
      -0.146
      -0.092
       0.054
       0.155
       0.140
       0.061
       0.024
       0.068
       0.120
       0.076
      -0.071
      -0.215
      -0.232
      -0.103
       0.065
       0.137
       0.074
      -0.048
      -0.127
      -0.140
      -0.147
      -0.203
      -0.283
      -0.297
      -0.186
       0.009
       0.176
       0.225
       0.166
       0.097
       0.116
       0.233
       0.360
       0.372
       0.213
      -0.048
      -0.245
      -0.235
      -0.018
       0.250
       0.381
       0.305
       0.113
      -0.058
      -0.150
      -0.205
      -0.278
      -0.352
      -0.370
      -0.319
      -0.260
      -0.253
      -0.281
      -0.265
      -0.163
      -0.036
       0.019
      -0.011
      -0.031
       0.059
       0.248
       0.424
       0.491
       0.459
       0.409
       0.392
       0.376
       0.305
       0.181
       0.070
       0.022
       0.016
      -0.013
      -0.096
      -0.199
      -0.268
      -0.290
      -0.304
      -0.353
      -0.418
      -0.426
      -0.316
      -0.112
       0.080
       0.144
       0.036
      -0.186
      -0.404
      -0.497
      -0.410
      -0.168
       0.136
       0.397
       0.554
       0.610
       0.611
       0.598
       0.576
       0.517
       0.387
       0.182
      -0.064
      -0.298
      -0.478
      -0.597
      -0.665
      -0.690
      -0.663
      -0.555
      -0.342
      -0.029
       0.323
       0.616
       0.771
       0.782
       0.712
       0.639
       0.579
       0.488
       0.320
       0.086
      -0.142
      -0.299
      -0.383
      -0.459
      -0.592
      -0.778
      -0.929
      -0.935
      -0.748
      -0.433
      -0.132
       0.044
       0.084
       0.060
       0.033
      -0.010
      -0.113
      -0.257
      -0.318
      -0.158
       0.247
       0.748
       1.124
       1.236
       1.107
       0.873
       0.672
       0.567
       0.539
       0.524
       0.462
       0.337
       0.184
       0.059
      -0.029
      -0.143
      -0.367
      -0.717
      -1.108
      -1.408
      -1.548
      -1.559
      -1.513
      -1.427
      -1.238
      -0.885
      -0.403
       0.069
       0.384
       0.495
       0.475
       0.453
       0.525
       0.699
       0.912
       1.078
       1.127
       1.026
       0.786
       0.463
       0.148
      -0.073
      -0.149
      -0.086
       0.082
       0.320
       0.593
       0.839
       0.961
       0.856
       0.499
      -0.020
      -0.538
      -0.917
      -1.115
      -1.178
      -1.185
      -1.192
      -1.213
      -1.225
      -1.196
      -1.105
      -0.961
      -0.793
      -0.612
      -0.379
      -0.026
       0.472
       1.023
       1.445
       1.588
       1.464
       1.232
       1.062
       0.994
       0.954
       0.874
       0.775
       0.731
       0.759
       0.775
       0.663
       0.375
      -0.043
      -0.507
      -0.964
      -1.411
      -1.842
      -2.201
      -2.389
      -2.320
      -1.983
      -1.457
      -0.852
      -0.238
       0.373
       0.976
       1.513
       1.867
       1.942
       1.738
       1.351
       0.899
       0.456
       0.059
      -0.243
      -0.389
      -0.378
      -0.334
      -0.421
      -0.681
      -0.949
      -0.980
      -0.665
      -0.115
       0.471
       0.982
       1.409
       1.723
       1.798
       1.495
       0.823
      -0.037
      -0.868
      -1.549
      -2.036
      -2.256
      -2.098
      -1.546
      -0.802
      -0.198
       0.057
       0.044
       0.039
       0.236
       0.569
       0.793
       0.746
       0.517
       0.383
       0.567
       1.044
       1.547
       1.736
       1.417
       0.650
      -0.286
      -1.055
      -1.436
      -1.401
      -1.064
      -0.577
      -0.062
       0.396
       0.721
       0.843
       0.719
       0.371
      -0.078
      -0.431
      -0.511
      -0.293
       0.025
       0.132
      -0.171
      -0.801
      -1.454
      -1.835
      -1.855
      -1.608
      -1.196
      -0.611
       0.196
       1.161
       2.059
       2.638
       2.778
       2.519
       1.960
       1.158
       0.152
      -0.939
      -1.867
      -2.346
      -2.239
      -1.666
      -0.934
      -0.334
       0.029
       0.260
       0.552
       1.016
       1.570
       1.983
       2.034
       1.681
       1.102
       0.548
       0.152
      -0.144
      -0.498
      -0.994
      -1.572
      -2.096
      -2.473
      -2.702
      -2.806
      -2.741
      -2.378
      -1.611
      -0.480
       0.794
       1.918
       2.701
       3.130
       3.296
       3.245
       2.922
       2.263
       1.344
       0.409
      -0.269
      -0.586
      -0.673
      -0.772
      -1.013
      -1.315
      -1.483
      -1.408
      -1.148
      -0.844
      -0.564
      -0.267
       0.097
       0.466
       0.667
       0.549
       0.118
      -0.443
      -0.894
      -1.099
      -1.084
      -0.960
      -0.803
      -0.594
      -0.277
       0.160
       0.634
       1.007
       1.175
       1.137
       0.992
       0.860
       0.804
       0.818
       0.876
       0.970
       1.098
       1.217
       1.231
       1.028
       0.550
      -0.156
      -0.948
      -1.632
      -2.040
      -2.094
      -1.838
      -1.388
      -0.865
      -0.365
      -0.005
       0.033
      -0.406
      -1.260
      -2.151
      -2.541
      -2.092
      -0.919
       0.472
       1.549
       2.092
       2.245
       2.283
       2.351
       2.388
       2.253
       1.879
       1.336
       0.768
       0.296
      -0.030
      -0.236
      -0.377
      -0.515
      -0.696
      -0.932
      -1.184
      -1.360
      -1.345
      -1.073
      -0.593
      -0.081
       0.243
       0.231
      -0.099
      -0.584
      -1.040
      -1.370
      -1.564
      -1.613
      -1.443
      -0.971
      -0.218
       0.648
       1.389
       1.837
       1.970
       1.871
       1.627
       1.281
       0.864
       0.456
       0.174
       0.096
       0.177
       0.266
       0.216
      -0.007
      -0.304
      -0.530
      -0.601
      -0.533
      -0.383
      -0.203
      -0.017
       0.147
       0.254
       0.276
       0.192
      -0.030
      -0.436
      -1.047
      -1.785
      -2.450
      -2.804
      -2.691
      -2.116
      -1.198
      -0.086
       1.096
       2.224
       3.144
       3.707
       3.843
       3.591
       3.067
       2.389
       1.638
       0.863
       0.108
      -0.582
      -1.175
      -1.676
      -2.122
      -2.552
      -2.960
      -3.266
      -3.340
      -3.066
      -2.419
      -1.504
      -0.520
       0.339
       0.968
       1.368
       1.585
       1.646
       1.556
       1.334
       1.061
       0.865
       0.847
       0.996
       1.187
       1.261
       1.147
       0.901
       0.638
       0.431
       0.256
       0.034
      -0.279
      -0.648
      -1.000
      -1.278
      -1.454
      -1.485
      -1.297
      -0.873
      -0.330
       0.093
       0.196
      -0.039
      -0.439
      -0.779
      -0.942
      -0.949
      -0.874
      -0.738
      -0.487
      -0.047
       0.603
       1.390
       2.139
       2.634
       2.711
       2.363
       1.748
       1.091
       0.547
       0.139
      -0.196
      -0.531
      -0.904
      -1.337
      -1.840
      -2.366
      -2.751
      -2.759
      -2.248
      -1.324
      -0.314
       0.436
       0.790
       0.856
       0.847
       0.892
       0.978
       1.019
       0.973
       0.873
       0.790
       0.764
       0.783
       0.808
       0.804
       0.747
       0.632
       0.475
       0.317
       0.191
       0.081
      -0.094
      -0.424
      -0.921
      -1.468
      -1.882
      -2.040
      -1.961
      -1.756
      -1.520
      -1.262
      -0.943
      -0.556
      -0.149
       0.222
       0.546
       0.839
       1.100
       1.290
       1.379
       1.405
       1.468
       1.634
       1.857
       1.995
       1.897
       1.494
       0.828
       0.029
      -0.717
      -1.232
      -1.424
      -1.342
      -1.160
      -1.071
      -1.163
      -1.364
      -1.507
      -1.473
      -1.282
      -1.053
      -0.882
      -0.747
      -0.534
      -0.152
       0.373
       0.893
       1.245
       1.364
       1.320
       1.236
       1.185
       1.143
       1.033
       0.812
       0.506
       0.195
      -0.041
      -0.170
      -0.221
      -0.241
      -0.241
      -0.193
      -0.080
       0.043
       0.060
      -0.126
      -0.502
      -0.926
      -1.222
      -1.287
      -1.142
      -0.881
      -0.594
      -0.331
      -0.112
       0.049
       0.157
       0.251
       0.390
       0.615
       0.907
       1.180
       1.328
       1.274
       1.008
       0.595
       0.143
      -0.238
      -0.486
      -0.609
      -0.662
      -0.676
      -0.627
      -0.465
      -0.182
       0.149
       0.401
       0.459
       0.279
      -0.073
      -0.443
      -0.662
      -0.639
      -0.421
      -0.153
       0.027
       0.078
       0.063
       0.067
       0.125
       0.220
       0.331
       0.447
       0.546
       0.570
       0.473
       0.282
       0.089
      -0.040
      -0.137
      -0.294
      -0.538
      -0.765
      -0.812
      -0.614
      -0.271
       0.044
       0.227
       0.295
       0.306
       0.289
       0.244
       0.187
       0.154
       0.146
       0.124
       0.073
       0.040
       0.080
       0.150
       0.105
      -0.160
      -0.560
      -0.837
      -0.771
      -0.371
       0.127
       0.466
       0.548
       0.452
       0.310
       0.205
       0.166
       0.192
       0.249
       0.261
       0.144
      -0.099
      -0.352
      -0.468
      -0.404
      -0.266
      -0.200
      -0.256
      -0.365
      -0.421
      -0.376
      -0.241
      -0.036
       0.222
       0.482
       0.649
       0.660
       0.557
       0.472
       0.493
       0.559
       0.492
       0.160
      -0.371
      -0.870
      -1.109
      -1.019
      -0.701
      -0.305
       0.067
       0.365
       0.535
       0.515
       0.287
      -0.064
      -0.391
      -0.576
      -0.595
      -0.485
      -0.274
       0.029
       0.395
       0.738
       0.953
       0.985
       0.861
       0.648
       0.396
       0.126
      -0.135
      -0.336
      -0.433
      -0.440
      -0.420
      -0.415
      -0.394
      -0.290
      -0.099
       0.090
       0.159
       0.083
      -0.044
      -0.099
      -0.043
       0.047
       0.055
      -0.055
      -0.207
      -0.281
      -0.226
      -0.098
      -0.006
      -0.020
      -0.113
      -0.199
      -0.209
      -0.141
      -0.038
       0.072
       0.203
       0.379
       0.562
       0.652
       0.550
       0.247
      -0.140
      -0.438
      -0.528
      -0.412
      -0.196
       0.001
       0.128
       0.207
       0.277
       0.339
       0.351
       0.273
       0.119
      -0.045
      -0.137
      -0.124
      -0.031
       0.085
       0.179
       0.226
       0.203
       0.079
      -0.150
      -0.424
      -0.626
      -0.652
      -0.492
      -0.243
      -0.036
       0.062
       0.088
       0.116
       0.178
       0.236
       0.223
       0.119
      -0.030
      -0.145
      -0.166
      -0.082
       0.074
       0.248
       0.383
       0.432
       0.371
       0.219
       0.037
      -0.108
      -0.175
      -0.160
      -0.083
       0.031
       0.150
       0.227
       0.214
       0.084
      -0.143
      -0.403
      -0.622
      -0.745
      -0.750
      -0.627
      -0.392
      -0.100
       0.156
       0.297
       0.317
       0.284
       0.275
       0.305
       0.333
       0.325
       0.309
       0.343
       0.434
       0.507
       0.455
       0.239
      -0.078
      -0.379
      -0.584
      -0.674
      -0.667
      -0.576
      -0.405
      -0.178
       0.049
       0.213
       0.271
       0.223
       0.104
      -0.027
      -0.107
      -0.090
       0.024
       0.178
       0.295
       0.343
       0.353
       0.374
       0.400
       0.361
       0.187
      -0.104
