Origin Time       04/04/2011 11:31:40 UTC
Lat.              29.6 N	
Long.             80.8 E	
Depth (Km)         10.0
Magnitude         5.7
 Region           NEPAL-INDIA-BORDER-REGION                                        
 Above details taken from IMD 
    
Station Code      PTH
Station Lat.       29.579  N
Station Long.      80.207  E
Station Height(m) 1538.0
Site Class        A   Vs30 between 700 m/sec to 1400 m/sec * 
Record Time       04.04.2011 11:31:21.644 UTC
Sampling Rate     200. Hz
 Record Duration  114.120 Sec.
 Direction         N-S (N positive)
Max. Acceleration     60.297 cm/sec**2
     
  * For reference see Site Classification link of website 
     
 Base Line Corrected and Low Pass Filtered (Cut Off at 35 Hz) Time History
 Acceleration data in cm/sec**2
    
[...]
       1.550
       1.482
       1.224
       1.001
       0.994
       1.281
       1.845
       2.590
       3.353
       3.907
       3.980
       3.332
       1.882
      -0.194
      -2.470
      -4.411
      -5.574
      -5.763
      -5.068
      -3.792
      -2.320
      -0.982
       0.044
       0.737
       1.157
       1.359
       1.370
       1.237
       1.059
       0.945
       0.921
       0.910
       0.830
       0.724
       0.766
       1.116
       1.768
       2.505
       3.024
       3.102
       2.697
       1.939
       1.051
       0.238
      -0.389
      -0.847
      -1.232
      -1.622
      -1.997
      -2.249
      -2.311
      -2.269
      -2.346
      -2.716
      -3.314
      -3.826
      -3.881
      -3.287
      -2.118
      -0.587
       1.121
       2.903
       4.653
       6.176
       7.218
       7.579
       7.213
       6.227
       4.811
       3.144
       1.335
      -0.583
      -2.597
      -4.613
      -6.394
      -7.600
      -7.934
      -7.332
      -6.039
      -4.493
      -3.051
      -1.787
      -0.536
       0.837
       2.200
       3.195
       3.523
       3.216
       2.636
       2.200
       2.090
       2.188
       2.281
       2.283
       2.258
       2.242
       2.100
       1.587
       0.574
      -0.802
      -2.207
      -3.332
      -4.053
      -4.407
      -4.456
      -4.207
      -3.633
      -2.750
      -1.636
      -0.402
       0.816
       1.853
       2.551
       2.838
       2.774
       2.503
       2.140
       1.703
       1.173
       0.602
       0.165
       0.068
       0.392
       1.010
       1.657
       2.080
       2.166
       1.939
       1.481
       0.849
       0.056
      -0.885
      -1.892
      -2.793
      -3.375
      -3.485
      -3.103
      -2.374
      -1.579
      -1.045
      -1.001
      -1.439
      -2.093
      -2.554
      -2.457
      -1.632
      -0.159
       1.670
       3.457
       4.826
       5.529
       5.486
       4.794
       3.684
       2.453
       1.350
       0.478
      -0.215
      -0.854
      -1.498
      -2.072
      -2.420
      -2.449
      -2.227
      -1.962
      -1.880
      -2.085
      -2.490
      -2.846
      -2.856
      -2.322
      -1.252
       0.136
       1.525
       2.634
       3.299
       3.471
       3.164
       2.438
       1.405
       0.255
      -0.781
      -1.498
      -1.792
      -1.680
      -1.273
      -0.708
      -0.118
       0.371
       0.627
       0.540
       0.097
      -0.536
      -1.029
      -1.036
      -0.416
       0.647
       1.718
       2.346
       2.295
       1.647
       0.717
      -0.132
      -0.674
      -0.891
      -0.915
      -0.899
      -0.905
      -0.877
      -0.690
      -0.252
       0.402
       1.092
       1.581
       1.698
       1.424
       0.865
       0.167
      -0.558
      -1.240
      -1.827
      -2.249
      -2.407
      -2.190
      -1.518
      -0.407
       0.988
       2.377
       3.421
       3.867
       3.651
       2.890
       1.782
       0.500
      -0.849
      -2.176
      -3.332
      -4.071
      -4.136
      -3.421
      -2.089
      -0.543
       0.762
       1.545
       1.804
       1.737
       1.554
       1.337
       1.051
       0.678
       0.309
       0.091
       0.085
       0.199
       0.271
       0.231
       0.157
       0.179
       0.321
       0.444
       0.346
      -0.084
      -0.795
      -1.632
      -2.422
      -3.022
      -3.334
      -3.326
      -3.038
      -2.523
      -1.748
      -0.582
       1.063
       3.031
       4.861
       5.980
       6.024
       5.037
       3.391
       1.514
      -0.306
      -1.917
      -3.168
      -3.872
      -3.915
      -3.386
      -2.567
      -1.748
      -1.059
      -0.445
       0.178
       0.777
       1.181
       1.232
       0.931
       0.452
       0.015
      -0.243
      -0.323
      -0.329
      -0.380
      -0.533
      -0.729
      -0.819
      -0.655
      -0.204
       0.398
       0.892
       1.028
       0.709
       0.054
      -0.660
      -1.140
      -1.193
      -0.791
      -0.075
       0.719
       1.386
       1.864
       2.207
       2.446
       2.466
       2.060
       1.142
      -0.104
      -1.276
      -1.981
      -2.030
      -1.451
      -0.391
       0.949
       2.303
       3.338
       3.746
       3.384
       2.341
       0.862
      -0.782
      -2.356
      -3.640
      -4.422
      -4.585
      -4.219
      -3.586
      -2.941
      -2.355
      -1.707
      -0.831
       0.320
       1.620
       2.847
       3.785
       4.303
       4.384
       4.123
       3.688
       3.243
       2.861
       2.479
       1.976
       1.290
       0.502
      -0.233
      -0.833
      -1.399
      -2.143
      -3.197
      -4.451
      -5.589
      -6.267
      -6.308
      -5.751
      -4.745
      -3.401
      -1.759
       0.113
       1.999
       3.541
       4.414
       4.518
       4.046
       3.347
       2.695
       2.148
       1.591
       0.917
       0.183
      -0.393
      -0.567
      -0.244
       0.450
       1.230
       1.800
       1.980
       1.730
       1.097
       0.160
      -0.965
      -2.126
      -3.170
      -4.027
      -4.718
      -5.267
      -5.576
      -5.398
      -4.490
      -2.816
      -0.642
       1.577
       3.414
       4.616
       5.108
       4.917
       4.115
       2.837
       1.319
      -0.118
      -1.147
      -1.560
      -1.372
      -0.818
      -0.229
       0.149
       0.291
       0.375
       0.610
       1.054
       1.542
       1.821
       1.760
       1.454
       1.116
       0.865
       0.629
       0.219
      -0.484
      -1.422
      -2.398
      -3.208
      -3.744
      -4.006
      -4.033
      -3.811
      -3.272
      -2.349
      -1.066
       0.443
       1.966
       3.286
       4.250
       4.816
       5.018
       4.888
       4.408
       3.566
       2.465
       1.349
       0.482
      -0.018
      -0.235
      -0.371
      -0.603
      -1.023
      -1.644
      -2.438
      -3.350
      -4.277
      -5.062
      -5.517
      -5.485
      -4.896
      -3.774
      -2.222
      -0.396
       1.496
       3.232
       4.638
       5.626
       6.159
       6.195
       5.705
       4.784
       3.726
       2.895
       2.446
       2.151
       1.547
       0.317
      -1.402
      -3.085
      -4.189
      -4.510
      -4.243
      -3.726
      -3.138
      -2.456
      -1.641
      -0.828
      -0.271
      -0.096
      -0.149
      -0.083
       0.365
       1.175
       2.046
       2.592
       2.572
       2.015
       1.175
       0.382
      -0.126
      -0.293
      -0.212
      -0.022
       0.196
       0.441
       0.739
       1.061
       1.299
       1.303
       0.967
       0.309
      -0.532
      -1.366
      -2.054
      -2.549
      -2.863
      -3.016
      -3.023
      -2.908
      -2.709
      -2.450
      -2.098
      -1.582
      -0.870
      -0.040
       0.763
       1.448
       2.055
       2.677
       3.295
       3.717
       3.715
       3.247
       2.535
       1.930
       1.655
       1.654
       1.639
       1.269
       0.353
      -1.032
      -2.568
      -3.860
      -4.615
      -4.744
      -4.310
      -3.419
      -2.161
      -0.645
       0.933
       2.281
       3.099
       3.221
       2.704
       1.779
       0.718
      -0.293
      -1.172
      -1.873
      -2.324
      -2.430
      -2.149
      -1.555
      -0.844
      -0.249
       0.064
       0.064
      -0.158
      -0.439
      -0.587
      -0.396
       0.304
       1.549
       3.151
       4.733
       5.903
       6.445
       6.350
       5.690
       4.488
       2.741
       0.559
      -1.751
      -3.794
      -5.316
      -6.321
      -6.929
      -7.125
      -6.673
      -5.336
      -3.189
      -0.720
       1.405
       2.700
       3.076
       2.794
       2.244
       1.713
       1.296
       0.942
       0.588
       0.267
       0.115
       0.279
       0.764
       1.375
       1.804
       1.817
       1.386
       0.665
      -0.132
      -0.842
      -1.356
      -1.567
      -1.378
      -0.809
      -0.072
       0.526
       0.804
       0.874
       1.031
       1.467
       2.056
       2.441
       2.319
       1.666
       0.707
      -0.283
      -1.120
      -1.717
      -2.032
      -2.056
      -1.846
      -1.529
      -1.241
      -1.052
      -0.951
      -0.911
      -1.004
      -1.399
      -2.206
      -3.276
      -4.168
      -4.374
      -3.614
      -1.967
       0.235
       2.581
       4.680
       6.201
       6.921
       6.790
       5.943
       4.616
       3.044
       1.428
      -0.036
      -1.153
      -1.821
      -2.118
      -2.250
      -2.368
      -2.422
      -2.222
      -1.642
      -0.780
       0.090
       0.691
       0.890
       0.730
       0.378
       0.047
      -0.041
       0.286
       1.055
       2.064
       2.912
       3.206
       2.796
       1.867
       0.764
      -0.272
      -1.237
      -2.239
      -3.250
      -3.996
      -4.122
      -3.493
      -2.353
      -1.189
      -0.425
      -0.192
      -0.334
      -0.583
      -0.731
      -0.688
      -0.437
       0.025
       0.699
       1.553
       2.501
       3.425
       4.215
       4.807
       5.180
       5.337
       5.292
       5.050
       4.597
       3.897
       2.931
       1.719
       0.319
      -1.209
      -2.806
      -4.385
      -5.793
      -6.827
      -7.284
      -7.036
      -6.072
      -4.517
      -2.617
      -0.685
       0.969
       2.112
       2.641
       2.618
       2.245
       1.775
       1.389
       1.131
       0.947
       0.797
       0.727
       0.823
       1.114
       1.516
       1.906
       2.218
       2.448
       2.551
       2.358
       1.641
       0.308
      -1.433
      -3.096
      -4.164
      -4.394
      -3.920
      -3.078
      -2.107
      -1.015
       0.274
       1.669
       2.835
       3.378
       3.119
       2.192
       0.918
      -0.410
      -1.635
      -2.681
      -3.443
      -3.762
      -3.526
      -2.799
      -1.830
      -0.897
      -0.127
       0.567
       1.365
       2.370
       3.514
       4.620
       5.512
       6.082
       6.291
       6.140
       5.668
       4.973
       4.201
       3.480
       2.828
       2.107
       1.067
      -0.520
      -2.710
      -5.292
      -7.813
      -9.743
     -10.694
     -10.567
      -9.554
      -7.992
      -6.186
      -4.302
      -2.389
      -0.483
       1.280
       2.639
       3.314
       3.197
       2.473
       1.553
       0.850
       0.574
       0.682
       0.992
       1.357
       1.762
       2.296
       3.033
       3.935
       4.865
       5.673
       6.279
       6.658
       6.769
       6.513
       5.781
       4.550
       2.960
       1.285
      -0.205
      -1.385
      -2.328
      -3.227
      -4.247
      -5.405
      -6.584
      -7.621
      -8.412
      -8.948
      -9.271
      -9.406
      -9.304
      -8.875
      -8.076
      -6.994
      -5.843
      -4.844
      -4.083
      -3.429
      -2.584
      -1.255
       0.647
       2.906
       5.093
       6.771
       7.695
       7.879
       7.505
       6.772
       5.808
       4.705
       3.607
       2.718
       2.204
       2.053
       2.041
       1.858
       1.297
       0.383
      -0.680
      -1.660
      -2.419
      -2.924
      -3.190
      -3.255
      -3.189
      -3.087
      -3.008
      -2.920
      -2.722
      -2.321
      -1.699
      -0.880
       0.145
       1.461
       3.139
       5.085
       6.972
       8.338
       8.829
       8.376
       7.161
       5.426
       3.300
       0.813
      -1.992
      -4.991
      -8.021
     -10.942
     -13.637
     -15.952
     -17.678
     -18.620
     -18.679
     -17.855
     -16.163
     -13.562
      -9.999
      -5.526
      -0.408
       4.864
       9.666
      13.423
      15.807
      16.827
      16.758
      15.941
      14.602
      12.818
      10.624
       8.166
       5.716
       3.556
       1.812
       0.383
      -0.967
      -2.463
      -4.224
      -6.279
      -8.604
     -11.120
     -13.617
     -15.729
     -16.969
     -16.856
     -15.045
     -11.422
      -6.128
       0.491
       7.947
      15.690
      23.167
      29.878
      35.383
      39.268
      41.098
      40.434
      36.930
      30.471
      21.313
      10.151
      -1.955
     -13.819
     -24.436
     -33.167
     -39.671
     -43.710
     -45.026
     -43.464
     -39.196
     -32.801
     -25.060
     -16.631
      -7.895
       0.907
       9.427
      17.123
      23.388
      27.760
      30.033
      30.247
      28.610
      25.424
      21.066
      16.017
      10.876
       6.291
       2.788
       0.609
      -0.338
      -0.386
       0.073
       0.737
       1.446
       2.129
       2.716
       3.068
       2.980
       2.251
       0.786
      -1.380
      -4.119
      -7.242
     -10.482
     -13.470
     -15.811
     -17.210
     -17.527
     -16.694
     -14.601
     -11.104
      -6.212
      -0.295
       5.865
      11.258
      14.924
      16.181
      14.712
      10.559
       4.078
      -4.128
     -13.292
     -22.559
     -31.037
     -37.809
     -41.966
     -42.716
     -39.572
     -32.498
     -21.976
      -8.938
       5.404
      19.824
      33.283
      44.924
      53.887
      59.254
      60.297
      56.834
      49.345
      38.742
      26.067
      12.357
      -1.341
     -13.952
     -24.437
     -31.955
     -36.055
     -36.787
     -34.601
     -30.132
     -24.051
     -17.066
      -9.992
      -3.707
       1.000
       3.606
       3.910
       1.998
      -1.842
      -7.162
     -13.343
     -19.594
     -25.019
     -28.773
     -30.231
     -29.070
     -25.229
     -18.805
     -10.008
       0.786
      12.972
      25.727
      38.044
      48.726
      56.413
      59.867
      58.418
      52.226
      42.096
      29.049
      14.113
      -1.572
     -16.688
     -29.970
     -40.552
     -48.026
     -52.193
     -52.875
     -50.068
     -44.258
     -36.461
     -27.808
     -19.028
     -10.286
      -1.503
       7.185
      15.232
      21.896
      26.637
      29.366
      30.335
      29.799
      27.765
      24.071
      18.704
      12.044
       4.835
      -2.077
      -7.967
     -12.279
     -14.582
     -14.599
     -12.366
      -8.380
      -3.554
       1.038
       4.502
       6.327
       6.399
       4.905
       2.250
      -0.991
      -4.113
      -6.373
      -7.124
      -5.973
      -2.875
       1.874
       7.714
      13.932
      19.775
      24.562
      27.796
      29.208
      28.691
      26.182
      21.615
      15.067
       6.980
      -1.784
     -10.208
     -17.556
     -23.613
     -28.528
     -32.395
     -34.969
     -35.759
     -34.397
     -30.932
     -25.801
     -19.563
     -12.641
      -5.235
       2.584
      10.724
      18.897
      26.515
      32.733
      36.709
      37.986
      36.721
      33.561
      29.236
      24.183
      18.451
      11.895
       4.471
      -3.576
     -11.695
     -19.164
     -25.307
     -29.669
     -32.087
     -32.641
     -31.550
     -29.104
     -25.618
     -21.369
     -16.532
     -11.139
      -5.126
       1.533
       8.663
      15.825
      22.442
      28.051
      32.472
      35.738
      37.821
      38.371
      36.724
      32.204
      24.537
      14.126
       2.031
     -10.331
     -21.621
     -30.921
     -37.779
     -41.954
     -43.119
     -40.818
     -34.786
     -25.354
     -13.569
      -0.888
      11.333
      22.171
      31.103
      37.770
      41.823
      42.934
      40.890
      35.677
      27.542
      17.052
       5.055
      -7.445
     -19.470
     -30.175
     -38.880
     -45.025
     -48.159
     -48.019
     -44.698
     -38.771
     -31.219
     -23.170
     -15.534
      -8.748
      -2.816
       2.406
       6.931
      10.614
      13.348
      15.315
      16.993
      18.899
      21.238
      23.772
      25.999
      27.466
      27.977
      27.580
      26.404
      24.520
      21.882
      18.367
      13.881
       8.475
       2.361
      -4.177
     -10.896
     -17.624
     -24.204
     -30.402
     -35.866
     -40.151
     -42.826
     -43.608
     -42.422
     -39.294
     -34.138
     -26.685
     -16.729
      -4.580
       8.666
      21.337
      31.813
      39.128
      43.163
      44.378
      43.361
      40.516
      36.029
      30.065
      22.969
      15.319
       7.787
       0.899
      -5.125
     -10.370
     -15.075
     -19.445
     -23.475
     -26.821
     -28.812
     -28.694
     -26.047
     -21.061
     -14.482
      -7.273
      -0.313
       5.704
      10.261
      13.074
      14.204
      14.049
      13.176
      12.077
      11.027
      10.090
       9.228
       8.384
       7.494
       6.433
       4.946
       2.688
      -0.572
      -4.680
      -9.027
     -12.816
     -15.523
     -17.186
     -18.250
     -19.073
     -19.507
     -18.948
     -16.830
     -13.145
      -8.506
      -3.716
       0.739
       4.849
       8.810
      12.657
      16.133
      18.861
      20.641
      21.581
      22.022
      22.333
      22.742
      23.243
      23.604
      23.428
      22.266
      19.752
      15.728
      10.305
       3.826
      -3.271
     -10.610
     -17.930
     -24.969
     -31.279
     -36.131
     -38.667
     -38.267
     -34.883
     -29.086
     -21.762
     -13.684
      -5.289
       3.236
      11.666
      19.504
      25.946
      30.093
      31.303
      29.486
      25.143
      19.104
      12.220
       5.220
      -1.252
      -6.640
     -10.594
     -13.081
     -14.310
     -14.553
     -14.019
     -12.882
     -11.360
      -9.708
      -8.121
      -6.650
      -5.206
      -3.655
      -1.935
      -0.139
       1.511
       2.751
       3.362
       3.223
       2.325
       0.784
      -1.170
      -3.270
      -5.307
      -7.163
      -8.743
      -9.864
     -10.243
      -9.597
      -7.807
      -5.006
      -1.553
       2.093
       5.507
       8.411
      10.739
      12.618
      14.260
      15.771
      17.005
      17.560
      16.969
      14.968
      11.692
       7.647
       3.477
      -0.327
      -3.572
      -6.318
      -8.705
     -10.790
     -12.503
     -13.705
     -14.304
     -14.339
     -13.987
     -13.484
     -13.026
     -12.697
     -12.477
     -12.324
     -12.222
     -12.147
     -11.965
     -11.365
      -9.917
      -7.239
      -3.196
       1.998
       7.826
      13.643
      18.870
      23.097
      26.092
      27.765
      28.149
      27.383
      25.663
      23.171
      20.005
      16.205
      11.840
       7.123
       2.430
      -1.845
      -5.504
      -8.665
     -11.696
     -14.977
     -18.661
     -22.579
     -26.320
     -29.411
     -31.449
     -32.153
     -31.357
     -28.984
     -25.025
     -19.530
     -12.630
      -4.623
       3.979
      12.505
      20.292
      26.848
      31.894
      35.275
      36.885
      36.681
      34.790
      31.519
      27.240
      22.233
      16.668
