Origin Time       11/11/2012 18:39:19 UTC
Lat.              29.2 N	
Long.             81.5 E	
Depth (Km)         10.0
Magnitude         5.0
 Region           Western-NEPAL                                                    
 Above details taken from IMD 
    
Station Code      PTH
Station Lat.       29.579  N
Station Long.      80.207  E
Station Height(m) 1538.0
Site Class        A   Vs30 between 700 m/sec to 1400 m/sec * 
Record Time       11.11.2012 18:39:28.854 UTC
Sampling Rate     200. Hz
 Record Duration   83.600 Sec.
 Direction         N-S (N positive)
Max. Acceleration     -3.417 cm/sec**2
     
  * For reference see Site Classification link of website 
     
 Base Line Corrected and Low Pass Filtered (Cut Off at 35 Hz) Time History
 Acceleration data in cm/sec**2
    
[...]
       0.239
       0.197
       0.121
       0.021
      -0.087
      -0.190
      -0.275
      -0.339
      -0.381
      -0.402
      -0.392
      -0.346
      -0.276
      -0.201
      -0.129
      -0.050
       0.052
       0.183
       0.327
       0.457
       0.549
       0.600
       0.621
       0.623
       0.596
       0.525
       0.404
       0.247
       0.070
      -0.112
      -0.291
      -0.452
      -0.579
      -0.650
      -0.652
      -0.588
      -0.482
      -0.370
      -0.278
      -0.219
      -0.189
      -0.174
      -0.150
      -0.105
      -0.040
       0.031
       0.105
       0.185
       0.270
       0.347
       0.386
       0.359
       0.253
       0.088
      -0.086
      -0.215
      -0.266
      -0.236
      -0.141
      -0.012
       0.113
       0.197
       0.224
       0.194
       0.122
       0.035
      -0.041
      -0.086
      -0.099
      -0.089
      -0.065
      -0.028
       0.027
       0.105
       0.201
       0.293
       0.352
       0.360
       0.322
       0.255
       0.167
       0.056
      -0.074
      -0.209
      -0.326
      -0.402
      -0.426
      -0.402
      -0.353
      -0.301
      -0.261
      -0.231
      -0.204
      -0.166
      -0.101
       0.000
       0.131
       0.280
       0.430
       0.566
       0.661
       0.693
       0.651
       0.540
       0.373
       0.172
      -0.039
      -0.236
      -0.396
      -0.497
      -0.520
      -0.459
      -0.338
      -0.201
      -0.099
      -0.063
      -0.100
      -0.180
      -0.255
      -0.285
      -0.263
      -0.206
      -0.138
      -0.073
      -0.014
       0.042
       0.100
       0.156
       0.205
       0.243
       0.278
       0.317
       0.356
       0.383
       0.389
       0.376
       0.354
       0.337
       0.330
       0.320
       0.282
       0.198
       0.077
      -0.062
      -0.203
      -0.337
      -0.458
      -0.557
      -0.620
      -0.637
      -0.601
      -0.524
      -0.431
      -0.345
      -0.274
      -0.215
      -0.159
      -0.100
      -0.032
       0.047
       0.138
       0.243
       0.361
       0.476
       0.557
       0.578
       0.534
       0.442
       0.327
       0.203
       0.078
      -0.053
      -0.186
      -0.303
      -0.377
      -0.390
      -0.353
      -0.291
      -0.230
      -0.184
      -0.165
      -0.176
      -0.218
      -0.286
      -0.369
      -0.448
      -0.497
      -0.495
      -0.430
      -0.303
      -0.123
       0.092
       0.318
       0.534
       0.729
       0.885
       0.981
       1.002
       0.942
       0.805
       0.600
       0.345
       0.064
      -0.219
      -0.481
      -0.701
      -0.857
      -0.937
      -0.941
      -0.878
      -0.760
      -0.605
      -0.430
      -0.243
      -0.051
       0.136
       0.294
       0.393
       0.414
       0.349
       0.210
       0.018
      -0.195
      -0.398
      -0.565
      -0.674
      -0.705
      -0.655
      -0.539
      -0.378
      -0.192
      -0.004
       0.168
       0.314
       0.435
       0.537
       0.623
       0.686
       0.718
       0.718
       0.690
       0.651
       0.611
       0.568
       0.517
       0.460
       0.405
       0.352
       0.285
       0.191
       0.072
      -0.057
      -0.180
      -0.282
      -0.353
      -0.386
      -0.378
      -0.332
      -0.255
      -0.164
      -0.079
      -0.013
       0.037
       0.082
       0.132
       0.189
       0.239
       0.253
       0.199
       0.073
      -0.100
      -0.275
      -0.420
      -0.523
      -0.594
      -0.653
      -0.718
      -0.789
      -0.846
      -0.863
      -0.818
      -0.703
      -0.519
      -0.288
      -0.039
       0.208
       0.449
       0.696
       0.961
       1.238
       1.493
       1.663
       1.689
       1.544
       1.254
       0.870
       0.445
       0.021
      -0.378
      -0.739
      -1.046
      -1.269
      -1.372
      -1.335
      -1.174
      -0.930
      -0.648
      -0.366
      -0.105
       0.126
       0.323
       0.474
       0.569
       0.605
       0.592
       0.550
       0.499
       0.457
       0.426
       0.393
       0.339
       0.260
       0.170
       0.095
       0.056
       0.065
       0.122
       0.209
       0.290
       0.327
       0.295
       0.191
       0.024
      -0.186
      -0.422
      -0.672
      -0.914
      -1.106
      -1.207
      -1.199
      -1.098
      -0.937
      -0.740
      -0.523
      -0.296
      -0.066
       0.163
       0.389
       0.612
       0.833
       1.043
       1.220
       1.339
       1.386
       1.362
       1.276
       1.138
       0.956
       0.735
       0.467
       0.141
      -0.237
      -0.643
      -1.037
      -1.385
      -1.655
      -1.824
      -1.877
      -1.810
      -1.638
      -1.390
      -1.104
      -0.813
      -0.529
      -0.263
      -0.034
       0.133
       0.233
       0.291
       0.356
       0.469
       0.648
       0.873
       1.105
       1.305
       1.451
       1.530
       1.531
       1.446
       1.282
       1.059
       0.802
       0.531
       0.268
       0.035
      -0.152
      -0.288
      -0.378
      -0.435
      -0.471
      -0.501
      -0.539
      -0.598
      -0.684
      -0.795
      -0.910
      -1.004
      -1.065
      -1.090
      -1.073
      -1.002
      -0.869
      -0.678
      -0.447
      -0.197
       0.050
       0.283
       0.495
       0.686
       0.851
       0.987
       1.093
       1.169
       1.205
       1.191
       1.124
       1.007
       0.837
       0.619
       0.365
       0.096
      -0.168
      -0.413
      -0.633
      -0.824
      -0.975
      -1.068
      -1.075
      -0.983
      -0.800
      -0.556
      -0.276
       0.016
       0.297
       0.535
       0.704
       0.788
       0.788
       0.715
       0.592
       0.439
       0.272
       0.102
      -0.058
      -0.199
      -0.321
      -0.432
      -0.536
      -0.633
      -0.714
      -0.765
      -0.773
      -0.735
      -0.666
      -0.577
      -0.464
      -0.314
      -0.123
       0.093
       0.306
       0.486
       0.608
       0.662
       0.653
       0.591
       0.485
       0.347
       0.193
       0.040
      -0.098
      -0.218
      -0.322
      -0.423
      -0.540
      -0.686
      -0.850
      -0.997
      -1.088
      -1.092
      -0.990
      -0.779
      -0.477
      -0.116
       0.256
       0.586
       0.827
       0.959
       0.991
       0.946
       0.838
       0.682
       0.500
       0.322
       0.175
       0.077
       0.041
       0.071
       0.161
       0.295
       0.448
       0.586
       0.670
       0.675
       0.592
       0.425
       0.180
      -0.127
      -0.468
      -0.812
      -1.131
      -1.401
      -1.602
      -1.716
      -1.730
      -1.635
      -1.422
      -1.083
      -0.623
      -0.063
       0.557
       1.180
       1.752
       2.228
       2.587
       2.808
       2.872
       2.761
       2.479
       2.050
       1.516
       0.930
       0.343
      -0.198
      -0.665
      -1.038
      -1.306
      -1.474
      -1.565
      -1.603
      -1.595
      -1.533
      -1.402
      -1.195
      -0.923
      -0.614
      -0.310
      -0.054
       0.119
       0.182
       0.120
      -0.054
      -0.305
      -0.578
      -0.824
      -0.996
      -1.061
      -1.003
      -0.826
      -0.544
      -0.170
       0.286
       0.801
       1.336
       1.837
       2.241
       2.492
       2.560
       2.445
       2.162
       1.732
       1.188
       0.575
      -0.054
      -0.655
      -1.195
      -1.648
      -2.000
      -2.244
      -2.377
      -2.394
      -2.294
      -2.081
      -1.764
      -1.353
      -0.868
      -0.340
       0.199
       0.727
       1.224
       1.669
       2.041
       2.320
       2.493
       2.549
       2.482
       2.291
       1.974
       1.538
       1.009
       0.427
      -0.166
      -0.737
      -1.259
      -1.712
      -2.081
      -2.360
      -2.541
      -2.601
      -2.520
      -2.289
      -1.924
      -1.458
      -0.928
      -0.368
       0.194
       0.730
       1.197
       1.541
       1.724
       1.736
       1.605
       1.371
       1.082
       0.777
       0.484
       0.224
       0.009
      -0.159
      -0.292
      -0.412
      -0.529
      -0.641
      -0.735
      -0.803
      -0.837
      -0.825
      -0.752
      -0.610
      -0.397
      -0.131
       0.149
       0.396
       0.574
       0.680
       0.729
       0.742
       0.735
       0.708
       0.640
       0.509
       0.306
       0.054
      -0.212
      -0.456
      -0.645
      -0.752
      -0.756
      -0.651
      -0.448
      -0.184
       0.090
       0.327
       0.506
       0.630
       0.707
       0.741
       0.732
       0.689
       0.615
       0.511
       0.380
       0.224
       0.044
      -0.164
      -0.399
      -0.645
      -0.877
      -1.064
      -1.184
      -1.229
      -1.204
      -1.113
      -0.955
      -0.725
      -0.428
      -0.079
       0.304
       0.699
       1.072
       1.372
       1.549
       1.575
       1.443
       1.167
       0.781
       0.332
      -0.126
      -0.541
      -0.867
      -1.075
      -1.165
      -1.150
      -1.047
      -0.869
      -0.633
      -0.370
      -0.120
       0.078
       0.197
       0.237
       0.225
       0.203
       0.206
       0.241
       0.297
       0.353
       0.383
       0.373
       0.330
       0.268
       0.197
       0.120
       0.047
      -0.004
      -0.016
       0.017
       0.083
       0.164
       0.245
       0.324
       0.410
       0.510
       0.618
       0.712
       0.765
       0.756
       0.667
       0.495
       0.247
      -0.051
      -0.370
      -0.673
      -0.921
      -1.081
      -1.143
      -1.114
      -0.999
      -0.802
      -0.535
      -0.224
       0.101
       0.408
       0.667
       0.859
       0.984
       1.051
       1.067
       1.023
       0.897
       0.662
       0.309
      -0.143
      -0.643
      -1.138
      -1.587
      -1.964
      -2.234
      -2.357
      -2.301
      -2.055
      -1.632
      -1.060
      -0.375
       0.373
       1.127
       1.821
       2.389
       2.781
       2.976
       2.969
       2.764
       2.374
       1.845
       1.247
       0.661
       0.159
      -0.209
      -0.432
      -0.535
      -0.568
      -0.578
      -0.597
      -0.637
      -0.697
      -0.764
      -0.828
      -0.887
      -0.937
      -0.959
      -0.932
      -0.853
      -0.743
      -0.635
      -0.553
      -0.495
      -0.432
      -0.320
      -0.134
       0.108
       0.362
       0.581
       0.740
       0.835
       0.872
       0.863
       0.814
       0.727
       0.600
       0.433
       0.233
       0.017
      -0.185
      -0.333
      -0.398
      -0.380
      -0.304
      -0.205
      -0.114
      -0.063
      -0.077
      -0.177
      -0.366
      -0.628
      -0.922
      -1.179
      -1.326
      -1.314
      -1.138
      -0.830
      -0.450
      -0.069
       0.257
       0.504
       0.678
       0.802
       0.899
       0.987
       1.071
       1.147
       1.213
       1.274
       1.322
       1.323
       1.225
       0.984
       0.595
       0.087
      -0.487
      -1.067
      -1.603
      -2.062
      -2.421
      -2.657
      -2.749
      -2.686
      -2.471
      -2.132
      -1.719
      -1.301
      -0.923
      -0.594
      -0.294
       0.005
       0.314
       0.635
       0.960
       1.276
       1.557
       1.773
       1.893
       1.894
       1.779
       1.570
       1.293
       0.976
       0.649
       0.349
       0.112
      -0.049
      -0.136
      -0.153
      -0.098
       0.027
       0.207
       0.412
       0.597
       0.718
       0.748
       0.681
       0.518
       0.262
      -0.078
      -0.472
      -0.867
      -1.207
      -1.437
      -1.513
      -1.408
      -1.116
      -0.656
      -0.076
       0.553
       1.144
       1.623
       1.934
       2.037
       1.905
       1.537
       0.973
       0.286
      -0.430
      -1.081
      -1.586
      -1.891
      -1.974
      -1.844
      -1.538
      -1.116
      -0.659
      -0.247
       0.053
       0.198
       0.175
       0.012
      -0.222
      -0.450
      -0.607
      -0.658
      -0.594
      -0.432
      -0.215
       0.010
       0.205
       0.366
       0.508
       0.662
       0.841
       1.039
       1.232
       1.399
       1.525
       1.590
       1.567
       1.437
       1.204
       0.896
       0.543
       0.161
      -0.240
      -0.647
      -1.037
      -1.375
      -1.620
      -1.744
      -1.734
      -1.584
      -1.289
      -0.853
      -0.302
       0.322
       0.962
       1.546
       1.996
       2.244
       2.246
       1.992
       1.497
       0.809
       0.009
      -0.795
      -1.487
      -1.970
      -2.185
      -2.125
      -1.827
      -1.343
      -0.733
      -0.067
       0.573
       1.106
       1.470
       1.635
       1.600
       1.396
       1.070
       0.675
       0.257
      -0.142
      -0.484
      -0.734
      -0.867
      -0.872
      -0.755
      -0.546
      -0.286
       0.000
       0.305
       0.631
       0.967
       1.277
       1.516
       1.641
       1.633
       1.491
       1.228
       0.851
       0.361
      -0.232
      -0.898
      -1.592
      -2.260
      -2.836
      -3.244
      -3.417
      -3.307
      -2.901
      -2.226
      -1.351
      -0.370
       0.617
       1.526
       2.292
       2.869
       3.230
       3.365
       3.271
       2.955
       2.436
       1.753
       0.957
       0.102
      -0.750
      -1.531
      -2.172
      -2.621
      -2.838
      -2.813
      -2.565
      -2.140
      -1.598
      -1.005
      -0.430
       0.073
       0.477
       0.784
       1.005
       1.152
       1.231
       1.254
       1.236
       1.198
       1.160
       1.135
       1.122
       1.107
       1.072
       1.000
       0.878
       0.695
       0.452
       0.159
      -0.169
      -0.514
      -0.848
      -1.132
      -1.336
      -1.446
      -1.465
      -1.404
      -1.276
      -1.089
      -0.841
      -0.535
      -0.189
       0.167
       0.495
       0.759
       0.921
       0.949
       0.838
       0.604
       0.274
      -0.123
      -0.552
      -0.964
      -1.301
      -1.504
      -1.528
      -1.360
      -1.022
      -0.560
      -0.028
       0.526
       1.054
       1.511
       1.859
       2.075
       2.150
       2.086
       1.901
       1.629
       1.310
       0.975
       0.640
       0.300
      -0.060
      -0.444
      -0.831
      -1.182
      -1.468
      -1.684
      -1.840
      -1.942
      -1.993
      -1.987
      -1.914
      -1.764
      -1.532
      -1.213
      -0.796
      -0.274
       0.339
       1.005
       1.666
       2.252
       2.694
       2.945
       2.991
       2.838
       2.505
       2.012
       1.400
       0.720
       0.028
      -0.631
      -1.219
      -1.700
      -2.037
      -2.200
      -2.171
      -1.962
      -1.628
      -1.248
      -0.904
      -0.651
      -0.504
      -0.443
      -0.415
      -0.365
      -0.263
      -0.100
       0.118
       0.384
       0.687
       0.998
       1.271
       1.450
       1.489
       1.375
       1.131
       0.803
       0.433
       0.054
      -0.300
      -0.592
      -0.792
      -0.892
      -0.902
      -0.855
      -0.799
      -0.774
      -0.794
      -0.828
      -0.812
      -0.681
      -0.395
       0.031
       0.530
       1.016
       1.412
       1.660
       1.725
       1.584
       1.249
       0.758
       0.178
      -0.405
      -0.903
      -1.240
      -1.376
      -1.314
      -1.091
      -0.767
      -0.413
      -0.092
       0.152
       0.298
       0.332
       0.257
       0.086
      -0.147
      -0.401
      -0.629
      -0.793
      -0.871
      -0.860
      -0.759
      -0.553
      -0.223
       0.229
       0.772
       1.350
       1.893
       2.326
       2.583
       2.617
       2.404
       1.941
       1.255
       0.407
      -0.514
      -1.409
      -2.185
      -2.764
      -3.099
      -3.178
      -3.017
      -2.642
      -2.090
      -1.412
      -0.669
       0.085
       0.805
       1.449
       1.978
       2.356
       2.552
       2.554
       2.369
       2.030
       1.577
       1.042
       0.456
      -0.141
      -0.696
      -1.156
      -1.479
      -1.639
      -1.629
      -1.454
      -1.129
      -0.673
      -0.119
       0.483
       1.058
       1.519
       1.783
       1.798
       1.565
       1.133
       0.575
      -0.042
      -0.650
      -1.177
      -1.548
      -1.712
      -1.656
      -1.400
      -0.982
      -0.453
       0.137
       0.726
       1.237
       1.601
       1.785
       1.809
       1.712
       1.523
       1.248
       0.879
       0.425
      -0.084
      -0.598
      -1.072
      -1.485
      -1.835
      -2.114
      -2.284
      -2.290
      -2.095
      -1.714
      -1.206
      -0.657
      -0.138
       0.309
       0.674
       0.945
       1.106
       1.146
       1.089
       0.973
       0.832
       0.679
       0.517
       0.346
       0.178
       0.041
      -0.028
      -0.010
       0.084
       0.213
       0.329
       0.396
       0.397
       0.342
       0.265
       0.203
       0.191
       0.246
       0.361
       0.498
       0.595
       0.587
       0.433
       0.124
      -0.325
      -0.864
      -1.418
      -1.898
      -2.228
      -2.358
      -2.274
      -1.996
      -1.564
      -1.034
      -0.466
       0.080
       0.558
       0.953
       1.272
       1.526
       1.714
       1.828
       1.865
       1.823
       1.697
       1.482
       1.174
       0.782
       0.327
      -0.153
      -0.603
      -0.971
      -1.213
      -1.310
      -1.265
      -1.109
      -0.887
      -0.644
      -0.411
      -0.214
      -0.074
       0.007
       0.037
       0.031
      -0.007
      -0.069
      -0.134
      -0.167
      -0.128
       0.008
       0.239
       0.527
       0.817
       1.053
       1.196
       1.216
       1.095
       0.837
       0.467
       0.032
      -0.407
      -0.777
      -1.013
      -1.089
      -1.025
      -0.874
      -0.693
      -0.521
      -0.378
      -0.261
      -0.167
      -0.091
      -0.038
       0.000
       0.040
       0.101
       0.191
       0.298
       0.394
       0.441
       0.417
       0.339
       0.247
       0.173
       0.121
       0.067
      -0.012
      -0.126
      -0.272
      -0.434
      -0.589
      -0.712
      -0.782
      -0.778
      -0.685
      -0.495
      -0.208
       0.164
       0.595
       1.034
       1.413
       1.672
       1.769
       1.688
       1.434
       1.039
       0.561
       0.070
      -0.372
      -0.720
      -0.952
      -1.072
      -1.100
      -1.055
      -0.952
      -0.815
      -0.675
      -0.567
      -0.510
      -0.502
      -0.514
      -0.501
      -0.418
      -0.246
       0.008
       0.326
       0.690
       1.072
       1.432
       1.716
       1.875
       1.869
       1.681
       1.323
       0.832
       0.264
