Origin Time       09/01/2013 07:44:20 UTC
Lat.              29.75 N
Long.             81.74 E
Depth (Km)         34.0
Magnitude         5.0
 Region           NEPAL                                                            
 Above details taken from IIT 
    
Station Code      PTH
Station Lat.       29.579  N
Station Long.      80.207  E
Station Height(m) 1538.0
Site Class        A   Vs30 between 700 m/sec to 1400 m/sec * 
Record Time       09.01.2013 07:44:33.214 UTC
Sampling Rate     200. Hz
 Record Duration   82.630 Sec.
 Direction         N-S (N positive)
Max. Acceleration      5.558 cm/sec**2
     
  * For reference see Site Classification link of website 
     
 Base Line Corrected and Low Pass Filtered (Cut Off at 35 Hz) Time History
 Acceleration data in cm/sec**2
    
[...]
      -0.299
      -0.239
      -0.136
       0.002
       0.152
       0.287
       0.382
       0.430
       0.429
       0.388
       0.316
       0.232
       0.162
       0.125
       0.131
       0.169
       0.215
       0.245
       0.241
       0.190
       0.087
      -0.060
      -0.230
      -0.399
      -0.548
      -0.660
      -0.720
      -0.711
      -0.630
      -0.492
      -0.323
      -0.152
       0.002
       0.125
       0.214
       0.270
       0.299
       0.308
       0.300
       0.280
       0.250
       0.211
       0.168
       0.125
       0.089
       0.063
       0.046
       0.033
       0.018
       0.002
      -0.008
      -0.003
       0.020
       0.059
       0.111
       0.174
       0.238
       0.288
       0.311
       0.299
       0.244
       0.142
      -0.004
      -0.179
      -0.352
      -0.491
      -0.565
      -0.561
      -0.479
      -0.337
      -0.165
       0.001
       0.133
       0.217
       0.247
       0.223
       0.148
       0.038
      -0.075
      -0.160
      -0.200
      -0.197
      -0.163
      -0.109
      -0.036
       0.051
       0.142
       0.217
       0.253
       0.230
       0.149
       0.033
      -0.086
      -0.177
      -0.228
      -0.239
      -0.212
      -0.145
      -0.032
       0.117
       0.278
       0.414
       0.501
       0.526
       0.497
       0.423
       0.316
       0.181
       0.023
      -0.144
      -0.292
      -0.392
      -0.434
      -0.431
      -0.401
      -0.355
      -0.292
      -0.209
      -0.114
      -0.027
       0.038
       0.076
       0.096
       0.102
       0.097
       0.078
       0.049
       0.018
      -0.003
      -0.015
      -0.023
      -0.039
      -0.071
      -0.109
      -0.134
      -0.132
      -0.107
      -0.077
      -0.057
      -0.049
      -0.045
      -0.038
      -0.027
      -0.015
      -0.007
      -0.007
      -0.011
      -0.017
      -0.023
      -0.032
      -0.043
      -0.048
      -0.034
       0.011
       0.078
       0.146
       0.190
       0.206
       0.209
       0.215
       0.225
       0.229
       0.217
       0.187
       0.146
       0.101
       0.062
       0.033
       0.017
       0.009
       0.003
      -0.007
      -0.022
      -0.040
      -0.055
      -0.062
      -0.064
      -0.063
      -0.060
      -0.055
      -0.045
      -0.034
      -0.031
      -0.048
      -0.090
      -0.145
      -0.195
      -0.228
      -0.243
      -0.245
      -0.234
      -0.213
      -0.187
      -0.161
      -0.132
      -0.091
      -0.034
       0.032
       0.092
       0.141
       0.182
       0.228
       0.284
       0.342
       0.389
       0.412
       0.408
       0.372
       0.300
       0.193
       0.056
      -0.092
      -0.224
      -0.320
      -0.370
      -0.382
      -0.368
      -0.333
      -0.281
      -0.216
      -0.153
      -0.101
      -0.054
       0.004
       0.084
       0.181
       0.276
       0.351
       0.398
       0.416
       0.410
       0.383
       0.336
       0.266
       0.169
       0.049
      -0.082
      -0.201
      -0.291
      -0.348
      -0.379
      -0.393
      -0.390
      -0.361
      -0.300
      -0.213
      -0.118
      -0.031
       0.042
       0.106
       0.171
       0.237
       0.291
       0.317
       0.317
       0.301
       0.277
       0.240
       0.174
       0.072
      -0.056
      -0.182
      -0.282
      -0.342
      -0.360
      -0.332
      -0.258
      -0.147
      -0.019
       0.097
       0.178
       0.214
       0.214
       0.197
       0.179
       0.159
       0.117
       0.041
      -0.060
      -0.152
      -0.203
      -0.207
      -0.186
      -0.171
      -0.177
      -0.194
      -0.199
      -0.181
      -0.139
      -0.081
      -0.019
       0.041
       0.092
       0.129
       0.146
       0.140
       0.122
       0.107
       0.102
       0.098
       0.074
       0.014
      -0.069
      -0.147
      -0.192
      -0.194
      -0.158
      -0.097
      -0.028
       0.031
       0.067
       0.070
       0.038
      -0.026
      -0.108
      -0.184
      -0.224
      -0.200
      -0.105
       0.041
       0.205
       0.354
       0.462
       0.514
       0.498
       0.415
       0.285
       0.136
      -0.004
      -0.116
      -0.194
      -0.245
      -0.280
      -0.309
      -0.337
      -0.367
      -0.402
      -0.440
      -0.474
      -0.490
      -0.470
      -0.406
      -0.301
      -0.172
      -0.032
       0.108
       0.240
       0.355
       0.447
       0.519
       0.573
       0.605
       0.604
       0.566
       0.493
       0.391
       0.266
       0.124
      -0.025
      -0.161
      -0.260
      -0.304
      -0.292
      -0.236
      -0.163
      -0.100
      -0.064
      -0.056
      -0.060
      -0.057
      -0.036
      -0.003
       0.027
       0.044
       0.040
       0.013
      -0.032
      -0.085
      -0.126
      -0.139
      -0.114
      -0.048
       0.042
       0.130
       0.181
       0.179
       0.125
       0.037
      -0.067
      -0.177
      -0.284
      -0.376
      -0.431
      -0.433
      -0.378
      -0.279
      -0.157
      -0.040
       0.050
       0.104
       0.125
       0.132
       0.147
       0.178
       0.220
       0.268
       0.313
       0.350
       0.369
       0.364
       0.334
       0.282
       0.217
       0.146
       0.081
       0.028
      -0.010
      -0.032
      -0.033
      -0.013
       0.023
       0.057
       0.075
       0.075
       0.069
       0.069
       0.073
       0.063
       0.023
      -0.049
      -0.145
      -0.254
      -0.370
      -0.479
      -0.564
      -0.604
      -0.586
      -0.504
      -0.363
      -0.179
       0.024
       0.218
       0.385
       0.520
       0.631
       0.723
       0.790
       0.807
       0.745
       0.596
       0.380
       0.139
      -0.081
      -0.248
      -0.352
      -0.396
      -0.391
      -0.356
      -0.320
      -0.309
      -0.335
      -0.385
      -0.432
      -0.455
      -0.445
      -0.398
      -0.311
      -0.187
      -0.044
       0.092
       0.198
       0.262
       0.286
       0.276
       0.235
       0.166
       0.079
      -0.005
      -0.062
      -0.074
      -0.036
       0.044
       0.155
       0.278
       0.394
       0.481
       0.519
       0.499
       0.430
       0.325
       0.192
       0.031
      -0.153
      -0.340
      -0.503
      -0.628
      -0.720
      -0.788
      -0.824
      -0.811
      -0.736
      -0.607
      -0.441
      -0.243
      -0.001
       0.286
       0.592
       0.861
       1.039
       1.096
       1.038
       0.887
       0.669
       0.405
       0.115
      -0.182
      -0.458
      -0.687
      -0.840
      -0.896
      -0.845
      -0.698
      -0.484
      -0.246
      -0.023
       0.161
       0.295
       0.373
       0.388
       0.336
       0.227
       0.088
      -0.051
      -0.171
      -0.268
      -0.337
      -0.359
      -0.310
      -0.181
       0.009
       0.216
       0.391
       0.495
       0.515
       0.463
       0.373
       0.278
       0.193
       0.116
       0.041
      -0.037
      -0.114
      -0.179
      -0.218
      -0.224
      -0.197
      -0.149
      -0.091
      -0.025
       0.050
       0.134
       0.219
       0.293
       0.345
       0.374
       0.379
       0.356
       0.303
       0.226
       0.139
       0.055
      -0.024
      -0.094
      -0.142
      -0.150
      -0.110
      -0.030
       0.065
       0.150
       0.209
       0.243
       0.259
       0.267
       0.269
       0.267
       0.254
       0.220
       0.154
       0.044
      -0.111
      -0.298
      -0.489
      -0.646
      -0.733
      -0.729
      -0.635
      -0.473
      -0.281
      -0.097
       0.053
       0.167
       0.256
       0.327
       0.378
       0.405
       0.413
       0.415
       0.422
       0.432
       0.434
       0.414
       0.361
       0.272
       0.151
       0.010
      -0.135
      -0.269
      -0.387
      -0.488
      -0.568
      -0.615
      -0.616
      -0.565
      -0.462
      -0.316
      -0.135
       0.064
       0.259
       0.430
       0.565
       0.660
       0.712
       0.722
       0.694
       0.633
       0.544
       0.428
       0.288
       0.133
      -0.024
      -0.172
      -0.302
      -0.409
      -0.487
      -0.532
      -0.543
      -0.525
      -0.486
      -0.430
      -0.356
      -0.268
      -0.178
      -0.105
      -0.069
      -0.076
      -0.118
      -0.168
      -0.190
      -0.163
      -0.082
       0.042
       0.193
       0.352
       0.495
       0.594
       0.618
       0.546
       0.382
       0.146
      -0.127
      -0.409
      -0.678
      -0.922
      -1.128
      -1.280
      -1.355
      -1.334
      -1.215
      -1.011
      -0.745
      -0.435
      -0.100
       0.236
       0.539
       0.778
       0.939
       1.019
       1.016
       0.928
       0.764
       0.551
       0.327
       0.132
      -0.007
      -0.078
      -0.082
      -0.035
       0.031
       0.081
       0.090
       0.059
       0.005
      -0.050
      -0.096
      -0.130
      -0.154
      -0.170
      -0.170
      -0.143
      -0.079
       0.028
       0.174
       0.347
       0.524
       0.673
       0.759
       0.767
       0.701
       0.583
       0.429
       0.245
       0.037
      -0.181
      -0.385
      -0.551
      -0.668
      -0.737
      -0.766
      -0.761
      -0.730
      -0.685
      -0.632
      -0.573
      -0.506
      -0.436
      -0.372
      -0.322
      -0.282
      -0.248
      -0.230
      -0.245
      -0.311
      -0.428
      -0.575
      -0.718
      -0.832
      -0.906
      -0.951
      -0.978
      -0.993
      -0.990
      -0.953
      -0.864
      -0.714
      -0.508
      -0.272
      -0.039
       0.158
       0.302
       0.395
       0.448
       0.471
       0.464
       0.428
       0.368
       0.293
       0.207
       0.112
       0.013
      -0.078
      -0.139
      -0.157
      -0.137
      -0.100
      -0.070
      -0.060
      -0.069
      -0.090
      -0.115
      -0.138
      -0.147
      -0.131
      -0.073
       0.039
       0.213
       0.442
       0.702
       0.960
       1.185
       1.356
       1.464
       1.513
       1.511
       1.473
       1.407
       1.324
       1.238
       1.171
       1.142
       1.162
       1.228
       1.321
       1.415
       1.478
       1.484
       1.417
       1.279
       1.084
       0.845
       0.567
       0.243
      -0.131
      -0.544
      -0.964
      -1.353
      -1.681
      -1.938
      -2.123
      -2.240
      -2.276
      -2.202
      -1.990
      -1.628
      -1.122
      -0.498
       0.217
       0.986
       1.759
       2.476
       3.072
       3.494
       3.711
       3.708
       3.483
       3.038
       2.389
       1.567
       0.620
      -0.399
      -1.435
      -2.433
      -3.345
      -4.124
      -4.728
      -5.119
      -5.275
      -5.181
      -4.831
      -4.226
      -3.381
      -2.336
      -1.154
       0.096
       1.346
       2.535
       3.595
       4.457
       5.058
       5.351
       5.319
       4.964
       4.312
       3.405
       2.309
       1.114
      -0.075
      -1.151
      -2.025
      -2.633
      -2.950
      -2.984
      -2.769
      -2.355
      -1.804
      -1.184
      -0.567
      -0.013
       0.423
       0.693
       0.760
       0.611
       0.266
      -0.218
      -0.768
      -1.306
      -1.766
      -2.089
      -2.221
      -2.126
      -1.799
      -1.269
      -0.581
       0.223
       1.111
       2.037
       2.921
       3.659
       4.151
       4.338
       4.206
       3.766
       3.043
       2.067
       0.888
      -0.408
      -1.711
      -2.897
      -3.853
      -4.497
      -4.797
      -4.767
      -4.449
      -3.895
      -3.160
      -2.310
      -1.425
      -0.584
       0.153
       0.758
       1.223
       1.544
       1.708
       1.700
       1.523
       1.218
       0.849
       0.485
       0.181
      -0.028
      -0.120
      -0.081
       0.086
       0.353
       0.659
       0.925
       1.082
       1.086
       0.917
       0.572
       0.054
      -0.612
      -1.371
      -2.134
      -2.786
      -3.219
      -3.356
      -3.174
      -2.691
      -1.953
      -1.020
       0.042
       1.153
       2.219
       3.144
       3.838
       4.238
       4.312
       4.062
       3.516
       2.727
       1.761
       0.701
      -0.356
      -1.310
      -2.072
      -2.579
      -2.801
      -2.732
      -2.390
      -1.821
      -1.102
      -0.337
       0.375
       0.961
       1.384
       1.642
       1.754
       1.746
       1.644
       1.473
       1.266
       1.058
       0.880
       0.745
       0.648
       0.567
       0.469
       0.322
       0.099
      -0.212
      -0.601
      -1.029
      -1.445
      -1.796
      -2.046
      -2.173
      -2.156
      -1.977
      -1.626
      -1.121
      -0.511
       0.129
       0.724
       1.225
       1.618
       1.913
       2.128
       2.270
       2.328
       2.282
       2.120
       1.834
       1.413
       0.834
       0.085
      -0.814
      -1.800
      -2.783
      -3.666
      -4.358
      -4.775
      -4.853
      -4.561
      -3.906
      -2.933
      -1.725
      -0.381
       0.985
       2.272
       3.395
       4.302
       4.970
       5.389
       5.558
       5.472
       5.134
       4.561
       3.784
       2.842
       1.776
       0.628
      -0.556
      -1.722
      -2.806
      -3.750
      -4.507
      -5.034
      -5.288
      -5.220
      -4.797
      -4.028
      -2.966
      -1.699
      -0.332
       1.027
       2.270
       3.288
       3.994
       4.336
       4.300
       3.913
       3.233
       2.343
       1.347
       0.346
      -0.587
      -1.412
      -2.114
      -2.683
      -3.111
      -3.389
      -3.511
      -3.481
      -3.308
      -2.999
      -2.557
      -1.989
      -1.315
      -0.576
       0.169
       0.855
       1.421
       1.819
       2.022
       2.027
       1.854
       1.534
       1.112
       0.643
       0.198
      -0.144
      -0.320
      -0.309
      -0.140
       0.118
       0.387
       0.597
       0.700
       0.670
       0.511
       0.254
      -0.044
      -0.321
      -0.523
      -0.618
      -0.595
      -0.465
      -0.253
       0.010
       0.292
       0.569
       0.818
       1.022
       1.171
       1.275
       1.355
       1.429
       1.504
       1.572
       1.629
       1.670
       1.688
       1.666
       1.568
       1.348
       0.959
       0.376
      -0.389
      -1.284
      -2.226
      -3.122
      -3.875
      -4.393
      -4.601
      -4.456
      -3.962
      -3.171
      -2.165
      -1.041
       0.110
       1.206
       2.183
       2.989
       3.590
       3.960
       4.079
       3.942
       3.564
       2.983
       2.240
       1.382
       0.451
      -0.505
      -1.436
      -2.282
      -2.974
      -3.442
      -3.624
      -3.484
      -3.022
      -2.278
      -1.338
      -0.314
       0.682
       1.564
       2.280
       2.799
       3.101
       3.159
       2.949
       2.460
       1.709
       0.743
      -0.363
      -1.506
      -2.566
      -3.421
      -3.975
      -4.170
      -3.991
      -3.456
      -2.609
      -1.522
      -0.288
       0.977
       2.147
       3.103
       3.750
       4.025
       3.908
       3.411
       2.582
       1.508
       0.318
      -0.828
      -1.769
      -2.393
      -2.665
      -2.616
      -2.315
      -1.841
      -1.265
      -0.643
      -0.016
       0.582
       1.121
       1.573
       1.920
       2.156
       2.279
       2.287
       2.181
       1.955
       1.601
       1.110
       0.491
      -0.225
      -0.977
      -1.682
      -2.257
      -2.636
      -2.779
      -2.674
      -2.335
      -1.804
      -1.141
      -0.414
       0.309
       0.969
       1.518
       1.923
       2.167
       2.250
       2.182
       1.978
       1.658
       1.243
       0.746
       0.185
      -0.414
      -1.017
      -1.578
      -2.049
      -2.385
      -2.551
      -2.525
      -2.303
      -1.908
      -1.384
      -0.788
      -0.168
       0.433
       0.975
       1.415
       1.712
       1.848
       1.832
       1.685
       1.429
       1.082
       0.667
       0.221
      -0.206
      -0.559
      -0.801
      -0.918
      -0.931
      -0.878
      -0.801
      -0.733
      -0.689
      -0.663
      -0.636
      -0.578
      -0.456
      -0.252
       0.027
       0.342
       0.640
       0.868
       0.988
       0.978
       0.836
       0.594
       0.310
       0.055
      -0.110
      -0.152
      -0.062
       0.149
       0.452
       0.796
       1.110
       1.316
       1.349
       1.172
       0.782
       0.212
      -0.470
      -1.168
      -1.774
      -2.201
      -2.395
      -2.345
      -2.083
      -1.659
      -1.131
      -0.552
       0.019
       0.515
       0.873
       1.048
       1.032
       0.851
       0.551
       0.200
      -0.127
      -0.357
      -0.440
      -0.361
      -0.146
       0.163
       0.518
       0.878
       1.200
       1.436
       1.540
       1.481
       1.245
       0.842
       0.308
      -0.299
      -0.911
      -1.459
      -1.890
      -2.166
      -2.263
      -2.172
      -1.903
      -1.481
      -0.947
      -0.347
       0.275
       0.878
       1.421
       1.862
       2.161
       2.287
       2.232
       2.015
       1.679
       1.271
       0.837
       0.406
      -0.005
      -0.386
      -0.739
      -1.064
      -1.356
      -1.597
      -1.760
      -1.816
      -1.746
      -1.541
      -1.209
      -0.779
      -0.292
       0.203
       0.663
       1.056
       1.361
       1.564
       1.671
       1.696
       1.658
       1.563
       1.400
       1.156
       0.829
       0.444
       0.043
      -0.322
      -0.606
      -0.780
      -0.844
      -0.817
      -0.726
      -0.587
      -0.409
      -0.201
       0.016
       0.213
       0.360
       0.436
       0.433
       0.350
       0.199
       0.002
      -0.205
      -0.385
      -0.513
      -0.588
      -0.633
      -0.680
      -0.754
      -0.853
      -0.942
      -0.968
      -0.886
      -0.676
      -0.345
       0.077
       0.546
       1.005
       1.392
       1.649
       1.739
       1.655
       1.423
       1.093
       0.718
       0.336
      -0.044
      -0.429
      -0.811
      -1.158
      -1.423
      -1.579
      -1.630
      -1.597
      -1.498
      -1.336
      -1.118
      -0.854
      -0.562
      -0.254
       0.065
       0.391
       0.715
       1.019
       1.281
       1.471
       1.557
       1.514
       1.338
       1.054
       0.710
       0.354
       0.026
      -0.251
      -0.465
      -0.622
      -0.734
      -0.813
      -0.866
      -0.892
      -0.888
      -0.857
      -0.804
      -0.735
      -0.656
      -0.564
      -0.453
      -0.321
      -0.182
      -0.064
       0.010
       0.042
       0.061
       0.108
       0.217
       0.396
       0.627
       0.868
       1.072
       1.208
       1.264
