Origin Time       09/01/2013 07:44:20
Lat.              29.75 N
Long.             81.74 E
Depth (Km)         34.0
Magnitude         5.0
 Region           NEPAL                                                            
 Above details taken from IIT 
   
Station Code      PTH
Station Lat.       29.579
Station Long.      80.207
Station Height(m) 1538.0
Site Class        A   Vs30 between 700 m/sec to 1400 m/sec * 
Record Time       09.01.2013 07:44:33.214
Sampling Rate     200. Hz
 Record Duration   82.630 Sec.
 Direction         Vert. (Up positive)
Max. Acceleration      4.568 cm/sec**2
     
  * For reference see Site Classification link of website 
     
 Base Line Corrected and Low Pass Filtered (Cut Off at 35 Hz) Time History
 Acceleration data in cm/sec**2
    
[...]
      -0.152
      -0.236
      -0.307
      -0.335
      -0.324
      -0.311
      -0.326
      -0.358
      -0.353
      -0.276
      -0.149
      -0.040
      -0.005
      -0.042
      -0.102
      -0.141
      -0.154
      -0.170
      -0.211
      -0.265
      -0.296
      -0.269
      -0.179
      -0.042
       0.110
       0.249
       0.366
       0.462
       0.533
       0.553
       0.488
       0.325
       0.098
      -0.124
      -0.274
      -0.324
      -0.292
      -0.213
      -0.118
      -0.017
       0.086
       0.169
       0.206
       0.178
       0.100
       0.011
      -0.052
      -0.076
      -0.071
      -0.059
      -0.058
      -0.067
      -0.070
      -0.048
       0.008
       0.088
       0.166
       0.218
       0.242
       0.261
       0.295
       0.328
       0.325
       0.260
       0.153
       0.051
      -0.007
      -0.027
      -0.040
      -0.075
      -0.135
      -0.197
      -0.238
      -0.249
      -0.238
      -0.218
      -0.199
      -0.186
      -0.178
      -0.162
      -0.126
      -0.067
       0.000
       0.050
       0.063
       0.043
       0.013
       0.000
       0.018
       0.055
       0.083
       0.073
       0.018
      -0.066
      -0.145
      -0.183
      -0.162
      -0.084
       0.035
       0.178
       0.334
       0.478
       0.567
       0.554
       0.424
       0.207
      -0.029
      -0.217
      -0.323
      -0.349
      -0.315
      -0.235
      -0.120
       0.007
       0.108
       0.147
       0.120
       0.063
       0.025
       0.036
       0.084
       0.129
       0.140
       0.118
       0.089
       0.069
       0.051
       0.008
      -0.077
      -0.179
      -0.238
      -0.204
      -0.081
       0.068
       0.163
       0.174
       0.140
       0.126
       0.159
       0.206
       0.214
       0.162
       0.091
       0.063
       0.102
       0.169
       0.201
       0.164
       0.086
       0.018
      -0.011
      -0.016
      -0.027
      -0.054
      -0.078
      -0.078
      -0.060
      -0.055
      -0.096
      -0.189
      -0.312
      -0.430
      -0.510
      -0.537
      -0.513
      -0.455
      -0.383
      -0.305
      -0.223
      -0.142
      -0.075
      -0.036
      -0.022
      -0.015
       0.003
       0.031
       0.048
       0.045
       0.044
       0.082
       0.177
       0.303
       0.404
       0.444
       0.428
       0.397
       0.388
       0.408
       0.428
       0.413
       0.347
       0.233
       0.077
      -0.118
      -0.336
      -0.544
      -0.694
      -0.754
      -0.716
      -0.596
      -0.424
      -0.235
      -0.074
       0.022
       0.035
      -0.012
      -0.065
      -0.078
      -0.041
       0.016
       0.060
       0.084
       0.105
       0.141
       0.187
       0.221
       0.229
       0.219
       0.217
       0.240
       0.290
       0.351
       0.406
       0.441
       0.440
       0.384
       0.263
       0.093
      -0.081
      -0.212
      -0.276
      -0.286
      -0.268
      -0.241
      -0.205
      -0.150
      -0.077
      -0.003
       0.053
       0.079
       0.074
       0.049
       0.018
      -0.005
      -0.015
      -0.024
      -0.052
      -0.109
      -0.187
      -0.262
      -0.302
      -0.290
      -0.225
      -0.127
      -0.028
       0.051
       0.105
       0.149
       0.201
       0.259
       0.301
       0.293
       0.229
       0.138
       0.068
       0.053
       0.076
       0.094
       0.070
       0.013
      -0.034
      -0.036
      -0.009
       0.001
      -0.031
      -0.078
      -0.091
      -0.055
      -0.018
      -0.044
      -0.150
      -0.283
      -0.368
      -0.379
      -0.355
      -0.355
      -0.389
      -0.409
      -0.353
      -0.207
      -0.021
       0.139
       0.241
       0.310
       0.395
       0.508
       0.613
       0.653
       0.605
       0.498
       0.381
       0.276
       0.165
       0.018
      -0.166
      -0.346
      -0.463
      -0.485
      -0.427
      -0.343
      -0.278
      -0.242
      -0.217
      -0.188
      -0.166
      -0.165
      -0.169
      -0.137
      -0.034
       0.121
       0.262
       0.323
       0.299
       0.245
       0.220
       0.239
       0.264
       0.254
       0.211
       0.174
       0.188
       0.255
       0.326
       0.337
       0.252
       0.087
      -0.106
      -0.278
      -0.405
      -0.491
      -0.549
      -0.581
      -0.570
      -0.497
      -0.361
      -0.192
      -0.038
       0.070
       0.134
       0.189
       0.264
       0.353
       0.414
       0.404
       0.313
       0.174
       0.029
      -0.100
      -0.214
      -0.312
      -0.383
      -0.414
      -0.406
      -0.370
      -0.318
      -0.252
      -0.174
      -0.098
      -0.046
      -0.032
      -0.051
      -0.080
      -0.097
      -0.095
      -0.076
      -0.038
       0.030
       0.144
       0.300
       0.473
       0.626
       0.734
       0.791
       0.797
       0.737
       0.589
       0.349
       0.054
      -0.226
      -0.422
      -0.509
      -0.514
      -0.487
      -0.466
      -0.455
      -0.439
      -0.413
      -0.400
      -0.425
      -0.486
      -0.537
      -0.524
      -0.418
      -0.242
      -0.047
       0.127
       0.275
       0.418
       0.565
       0.696
       0.768
       0.759
       0.680
       0.578
       0.499
       0.454
       0.411
       0.325
       0.179
       0.002
      -0.151
      -0.240
      -0.269
      -0.273
      -0.287
      -0.325
      -0.382
      -0.445
      -0.502
      -0.547
      -0.579
      -0.599
      -0.608
      -0.589
      -0.517
      -0.376
      -0.182
       0.023
       0.198
       0.326
       0.422
       0.504
       0.577
       0.628
       0.635
       0.587
       0.493
       0.380
       0.268
       0.165
       0.071
      -0.007
      -0.055
      -0.069
      -0.063
      -0.063
      -0.082
      -0.105
      -0.112
      -0.106
      -0.117
      -0.172
      -0.260
      -0.331
      -0.331
      -0.244
      -0.104
       0.025
       0.093
       0.098
       0.082
       0.104
       0.185
       0.297
       0.387
       0.423
       0.413
       0.379
       0.323
       0.218
       0.049
      -0.160
      -0.345
      -0.455
      -0.486
      -0.478
      -0.459
      -0.414
      -0.313
      -0.148
       0.035
       0.167
       0.214
       0.192
       0.145
       0.101
       0.056
      -0.002
      -0.063
      -0.100
      -0.098
      -0.070
      -0.031
       0.018
       0.090
       0.177
       0.241
       0.235
       0.156
       0.048
      -0.031
      -0.062
      -0.070
      -0.092
      -0.130
      -0.164
      -0.178
      -0.176
      -0.168
      -0.145
      -0.082
       0.026
       0.151
       0.252
       0.314
       0.352
       0.379
       0.375
       0.298
       0.139
      -0.054
      -0.198
      -0.243
      -0.210
      -0.159
      -0.129
      -0.112
      -0.084
      -0.042
      -0.010
      -0.011
      -0.045
      -0.096
      -0.161
      -0.248
      -0.344
      -0.408
      -0.393
      -0.296
      -0.155
      -0.018
       0.104
       0.230
       0.361
       0.453
       0.446
       0.327
       0.160
       0.030
      -0.033
      -0.084
      -0.204
      -0.408
      -0.615
      -0.711
      -0.640
      -0.439
      -0.189
       0.049
       0.255
       0.425
       0.536
       0.556
       0.480
       0.343
       0.195
       0.067
      -0.025
      -0.065
      -0.035
       0.065
       0.190
       0.278
       0.293
       0.263
       0.245
       0.272
       0.310
       0.294
       0.185
       0.007
      -0.174
      -0.311
      -0.407
      -0.485
      -0.541
      -0.540
      -0.449
      -0.282
      -0.099
       0.041
       0.123
       0.174
       0.223
       0.267
       0.281
       0.252
       0.189
       0.111
       0.020
      -0.096
      -0.236
      -0.369
      -0.448
      -0.445
      -0.373
      -0.270
      -0.169
      -0.072
       0.041
       0.181
       0.336
       0.464
       0.513
       0.450
       0.286
       0.080
      -0.099
      -0.214
      -0.278
      -0.320
      -0.348
      -0.334
      -0.249
      -0.099
       0.063
       0.174
       0.200
       0.150
       0.056
      -0.053
      -0.159
      -0.244
      -0.299
      -0.320
      -0.317
      -0.297
      -0.261
      -0.205
      -0.137
      -0.085
      -0.078
      -0.114
      -0.141
      -0.096
       0.047
       0.242
       0.412
       0.509
       0.543
       0.551
       0.549
       0.512
       0.408
       0.241
       0.063
      -0.062
      -0.106
      -0.088
      -0.047
      -0.003
       0.047
       0.110
       0.170
       0.193
       0.147
       0.034
      -0.114
      -0.248
      -0.333
      -0.358
      -0.327
      -0.253
      -0.155
      -0.063
      -0.008
      -0.010
      -0.055
      -0.102
      -0.106
      -0.043
       0.066
       0.177
       0.253
       0.295
       0.327
       0.363
       0.377
       0.322
       0.175
      -0.027
      -0.203
      -0.292
      -0.289
      -0.245
      -0.207
      -0.185
      -0.158
      -0.115
      -0.066
      -0.031
      -0.013
       0.010
       0.057
       0.125
       0.194
       0.246
       0.278
       0.288
       0.259
       0.172
       0.032
      -0.120
      -0.228
      -0.267
      -0.253
      -0.218
      -0.184
      -0.151
      -0.113
      -0.074
      -0.041
      -0.009
       0.037
       0.094
       0.129
       0.106
       0.023
      -0.068
      -0.108
      -0.086
      -0.043
      -0.024
      -0.026
      -0.008
       0.063
       0.173
       0.277
       0.347
       0.394
       0.440
       0.477
       0.466
       0.378
       0.216
       0.010
      -0.209
      -0.423
      -0.621
      -0.783
      -0.887
      -0.918
      -0.880
      -0.781
      -0.635
      -0.456
      -0.272
      -0.123
      -0.037
       0.002
       0.043
       0.128
       0.254
       0.382
       0.469
       0.506
       0.504
       0.475
       0.421
       0.348
       0.277
       0.227
       0.197
       0.161
       0.097
       0.013
      -0.059
      -0.092
      -0.078
      -0.020
       0.080
       0.216
       0.361
       0.469
       0.499
       0.444
       0.330
       0.195
       0.064
      -0.060
      -0.180
      -0.282
      -0.342
      -0.340
      -0.286
      -0.218
      -0.184
      -0.216
      -0.311
      -0.441
      -0.561
      -0.636
      -0.653
      -0.617
      -0.547
      -0.449
      -0.322
      -0.167
      -0.006
       0.120
       0.180
       0.183
       0.178
       0.206
       0.276
       0.360
       0.425
       0.458
       0.466
       0.453
       0.418
       0.351
       0.259
       0.166
       0.094
       0.040
      -0.031
      -0.161
      -0.357
      -0.576
      -0.754
      -0.853
      -0.889
      -0.907
      -0.924
      -0.903
      -0.787
      -0.561
      -0.274
      -0.002
       0.224
       0.430
       0.668
       0.949
       1.218
       1.394
       1.425
       1.319
       1.129
       0.908
       0.681
       0.445
       0.196
      -0.061
      -0.305
      -0.516
      -0.677
      -0.783
      -0.841
      -0.878
      -0.929
      -1.014
      -1.103
      -1.130
      -1.039
      -0.835
      -0.572
      -0.307
      -0.043
       0.258
       0.617
       1.004
       1.348
       1.594
       1.733
       1.779
       1.727
       1.536
       1.168
       0.640
       0.033
      -0.547
      -1.024
      -1.386
      -1.663
      -1.872
      -1.985
      -1.949
      -1.735
      -1.376
      -0.943
      -0.496
      -0.048
       0.422
       0.915
       1.383
       1.742
       1.923
       1.920
       1.785
       1.587
       1.374
       1.164
       0.960
       0.770
       0.604
       0.469
       0.370
       0.309
       0.294
       0.338
       0.431
       0.523
       0.532
       0.380
       0.042
      -0.431
      -0.941
      -1.399
      -1.764
      -2.042
      -2.250
      -2.388
      -2.428
      -2.337
      -2.108
      -1.770
      -1.373
      -0.956
      -0.528
      -0.074
       0.405
       0.865
       1.231
       1.455
       1.554
       1.576
       1.544
       1.426
       1.174
       0.796
       0.370
      -0.008
      -0.292
      -0.503
      -0.682
      -0.841
      -0.950
      -0.976
      -0.915
      -0.791
      -0.636
      -0.470
      -0.293
      -0.088
       0.170
       0.485
       0.820
       1.097
       1.246
       1.239
       1.114
       0.946
       0.806
       0.732
       0.727
       0.774
       0.857
       0.959
       1.045
       1.058
       0.933
       0.632
       0.159
      -0.434
      -1.082
      -1.713
      -2.246
      -2.580
      -2.624
      -2.344
      -1.789
      -1.069
      -0.297
       0.431
       1.040
       1.460
       1.652
       1.636
       1.501
       1.365
       1.305
       1.316
       1.323
       1.247
       1.060
       0.792
       0.492
       0.177
      -0.178
      -0.603
      -1.092
      -1.593
      -2.033
      -2.364
      -2.570
      -2.658
      -2.629
      -2.480
      -2.220
      -1.888
      -1.549
      -1.260
      -1.040
      -0.852
      -0.625
      -0.289
       0.185
       0.785
       1.481
       2.249
       3.052
       3.806
       4.364
       4.568
       4.330
       3.687
       2.775
       1.745
       0.708
      -0.264
      -1.111
      -1.767
      -2.191
      -2.401
      -2.476
      -2.514
      -2.572
      -2.642
      -2.675
      -2.626
      -2.486
      -2.267
      -1.967
      -1.565
      -1.042
      -0.415
       0.262
       0.916
       1.485
       1.942
       2.297
       2.588
       2.848
       3.068
       3.183
       3.101
       2.775
       2.244
       1.600
       0.916
       0.202
      -0.561
      -1.355
      -2.100
      -2.704
      -3.129
      -3.401
      -3.555
      -3.577
      -3.412
      -3.022
      -2.443
      -1.768
      -1.083
      -0.430
       0.188
       0.759
       1.248
       1.620
       1.867
       2.014
       2.082
       2.067
       1.948
       1.731
       1.475
       1.266
       1.166
       1.181
       1.271
       1.391
       1.506
       1.578
       1.545
       1.332
       0.877
       0.169
      -0.728
      -1.694
      -2.571
      -3.209
      -3.506
      -3.442
      -3.073
      -2.484
      -1.746
      -0.905
      -0.011
       0.860
       1.621
       2.217
       2.638
       2.901
       3.009
       2.930
       2.624
       2.084
       1.362
       0.552
      -0.263
      -1.037
      -1.751
      -2.368
      -2.805
      -2.955
      -2.758
      -2.259
      -1.608
      -0.986
      -0.516
      -0.227
      -0.068
       0.039
       0.169
       0.374
       0.686
       1.106
       1.599
       2.084
       2.458
       2.637
       2.586
       2.318
       1.868
       1.276
       0.587
      -0.126
      -0.760
      -1.217
      -1.460
      -1.531
      -1.516
      -1.488
      -1.455
      -1.375
      -1.193
      -0.885
      -0.475
      -0.028
       0.375
       0.675
       0.844
       0.874
       0.755
       0.473
       0.056
      -0.397
      -0.732
      -0.822
      -0.637
      -0.259
       0.169
       0.527
       0.760
       0.868
       0.872
       0.780
       0.597
       0.348
       0.093
      -0.091
      -0.155
      -0.123
      -0.078
      -0.101
      -0.210
      -0.366
      -0.524
      -0.677
      -0.838
      -1.000
      -1.113
      -1.107
      -0.931
      -0.577
      -0.093
       0.433
       0.883
       1.144
       1.144
       0.887
       0.454
      -0.032
      -0.445
      -0.699
      -0.771
      -0.692
      -0.523
      -0.326
      -0.158
      -0.062
      -0.067
      -0.175
      -0.349
      -0.524
      -0.619
      -0.565
      -0.329
       0.059
       0.505
       0.895
       1.148
       1.240
       1.186
       1.000
       0.688
       0.281
      -0.132
      -0.416
      -0.452
      -0.216
       0.209
       0.679
       1.066
       1.307
       1.401
       1.377
       1.264
       1.072
       0.802
       0.460
       0.091
      -0.221
      -0.385
      -0.354
      -0.162
       0.075
       0.214
       0.156
      -0.105
      -0.491
      -0.899
      -1.263
      -1.563
      -1.797
      -1.935
      -1.919
      -1.702
      -1.315
      -0.872
      -0.521
      -0.363
      -0.393
      -0.495
      -0.505
      -0.291
       0.164
       0.753
       1.303
       1.676
       1.825
       1.786
       1.605
       1.299
       0.868
       0.336
      -0.217
      -0.686
      -0.997
      -1.150
      -1.204
      -1.225
      -1.235
      -1.207
      -1.109
      -0.940
      -0.742
      -0.560
      -0.408
      -0.256
      -0.080
       0.114
       0.281
       0.373
       0.375
       0.313
       0.236
       0.193
       0.213
       0.302
       0.450
       0.633
       0.833
       1.035
       1.230
       1.404
       1.531
       1.588
       1.560
       1.446
       1.244
       0.941
       0.526
       0.021
      -0.505
      -0.952
      -1.243
      -1.364
      -1.361
      -1.290
      -1.171
      -0.989
      -0.744
      -0.488
      -0.313
      -0.274
      -0.337
      -0.397
      -0.368
      -0.244
      -0.096
       0.002
       0.029
       0.018
       0.011
       0.030
       0.086
       0.196
       0.382
       0.638
       0.904
       1.096
       1.148
       1.043
       0.802
       0.459
       0.038
      -0.431
      -0.894
      -1.275
      -1.505
      -1.557
      -1.449
      -1.222
      -0.915
      -0.551
      -0.157
       0.238
       0.604
       0.925
       1.192
       1.391
       1.505
       1.527
       1.476
       1.385
       1.280
       1.162
       1.017
       0.825
       0.566
       0.227
      -0.191
      -0.651
      -1.094
      -1.462
      -1.728
      -1.897
      -1.987
      -2.003
      -1.927
      -1.737
      -1.425
      -1.014
      -0.561
      -0.142
       0.180
       0.377
       0.467
       0.488
       0.474
       0.437
       0.380
       0.307
       0.233
       0.180
       0.168
       0.207
       0.287
       0.381
       0.462
       0.519
       0.562
       0.603
       0.638
       0.638
       0.564
       0.393
       0.139
      -0.149
      -0.405
      -0.582
      -0.663
      -0.657
      -0.584
      -0.463
      -0.309
      -0.147
      -0.007
       0.095
       0.173
       0.266
       0.407
       0.591
       0.773
       0.887
       0.885
       0.763
       0.568
       0.367
       0.205
       0.079
      -0.041
      -0.160
      -0.237
      -0.224
      -0.128
      -0.037
      -0.055
      -0.209
      -0.407
      -0.497
      -0.384
      -0.105
       0.205
       0.415
       0.485
       0.469
       0.455
       0.483
       0.529
       0.534
       0.445
       0.238
      -0.086
      -0.491
      -0.909
      -1.253
      -1.459
      -1.509
      -1.418
      -1.213
      -0.920
      -0.576
      -0.234
       0.050
       0.237
