Origin Time       02/01/2013 17:42:15 UTC
Lat.              29.4 N	
Long.             81.1 E	
Depth (Km)         10.0
Magnitude         4.8
 Region           Western-NEPAL                                                    
 Above details taken from IMD 
    
Station Code      PTH
Station Lat.       29.579  N
Station Long.      80.207  E
Station Height(m) 1538.0
Site Class        A   Vs30 between 700 m/sec to 1400 m/sec * 
Record Time       02.01.2013 17:42:18.174 UTC
Sampling Rate     200. Hz
 Record Duration   81.025 Sec.
 Direction         N-S (N positive)
Max. Acceleration     -3.444 cm/sec**2
     
  * For reference see Site Classification link of website 
     
 Base Line Corrected and Low Pass Filtered (Cut Off at 35 Hz) Time History
 Acceleration data in cm/sec**2
    
[...]
       0.040
       0.015
      -0.012
      -0.046
      -0.087
      -0.138
      -0.198
      -0.259
      -0.309
      -0.338
      -0.345
      -0.331
      -0.295
      -0.237
      -0.158
      -0.058
       0.063
       0.189
       0.305
       0.398
       0.463
       0.498
       0.498
       0.460
       0.386
       0.277
       0.138
      -0.015
      -0.162
      -0.288
      -0.380
      -0.427
      -0.426
      -0.383
      -0.313
      -0.229
      -0.146
      -0.077
      -0.033
      -0.012
      -0.006
      -0.008
      -0.011
      -0.002
       0.029
       0.087
       0.160
       0.236
       0.297
       0.332
       0.335
       0.315
       0.279
       0.230
       0.168
       0.099
       0.034
      -0.022
      -0.064
      -0.088
      -0.091
      -0.079
      -0.066
      -0.057
      -0.059
      -0.071
      -0.095
      -0.121
      -0.138
      -0.139
      -0.123
      -0.095
      -0.064
      -0.046
      -0.050
      -0.068
      -0.089
      -0.104
      -0.113
      -0.118
      -0.121
      -0.125
      -0.125
      -0.113
      -0.081
      -0.032
       0.027
       0.087
       0.145
       0.192
       0.224
       0.242
       0.246
       0.238
       0.223
       0.211
       0.211
       0.217
       0.217
       0.200
       0.161
       0.099
       0.018
      -0.075
      -0.169
      -0.259
      -0.339
      -0.394
      -0.413
      -0.394
      -0.343
      -0.266
      -0.173
      -0.080
      -0.001
       0.052
       0.074
       0.064
       0.031
      -0.001
      -0.009
       0.018
       0.075
       0.147
       0.212
       0.250
       0.246
       0.202
       0.127
       0.028
      -0.083
      -0.196
      -0.298
      -0.377
      -0.419
      -0.412
      -0.352
      -0.256
      -0.143
      -0.033
       0.065
       0.142
       0.196
       0.229
       0.243
       0.237
       0.215
       0.190
       0.174
       0.170
       0.180
       0.199
       0.222
       0.239
       0.241
       0.231
       0.217
       0.208
       0.208
       0.218
       0.237
       0.256
       0.264
       0.256
       0.226
       0.171
       0.092
      -0.002
      -0.104
      -0.215
      -0.329
      -0.432
      -0.506
      -0.545
      -0.548
      -0.521
      -0.470
      -0.401
      -0.319
      -0.226
      -0.128
      -0.035
       0.048
       0.120
       0.185
       0.238
       0.277
       0.303
       0.313
       0.300
       0.259
       0.192
       0.103
       0.000
      -0.108
      -0.205
      -0.282
      -0.336
      -0.371
      -0.392
      -0.404
      -0.408
      -0.400
      -0.366
      -0.294
      -0.183
      -0.040
       0.126
       0.296
       0.454
       0.586
       0.695
       0.780
       0.836
       0.856
       0.838
       0.781
       0.683
       0.544
       0.372
       0.174
      -0.041
      -0.255
      -0.442
      -0.581
      -0.662
      -0.688
      -0.669
      -0.622
      -0.568
      -0.517
      -0.474
      -0.437
      -0.409
      -0.387
      -0.365
      -0.334
      -0.287
      -0.215
      -0.111
       0.026
       0.180
       0.331
       0.463
       0.559
       0.612
       0.620
       0.594
       0.541
       0.463
       0.358
       0.232
       0.095
      -0.041
      -0.167
      -0.280
      -0.379
      -0.466
      -0.535
      -0.575
      -0.579
      -0.544
      -0.470
      -0.356
      -0.210
      -0.042
       0.133
       0.301
       0.448
       0.552
       0.598
       0.582
       0.508
       0.385
       0.232
       0.070
      -0.081
      -0.207
      -0.291
      -0.321
      -0.293
      -0.218
      -0.111
       0.013
       0.136
       0.236
       0.297
       0.315
       0.291
       0.233
       0.159
       0.090
       0.044
       0.026
       0.032
       0.056
       0.091
       0.132
       0.176
       0.216
       0.233
       0.205
       0.122
      -0.007
      -0.163
      -0.328
      -0.488
      -0.631
      -0.750
      -0.839
      -0.886
      -0.879
      -0.809
      -0.680
      -0.496
      -0.269
      -0.018
       0.229
       0.443
       0.600
       0.684
       0.689
       0.622
       0.500
       0.339
       0.152
      -0.040
      -0.211
      -0.336
      -0.404
      -0.412
      -0.363
      -0.271
      -0.148
       0.000
       0.176
       0.373
       0.569
       0.737
       0.858
       0.918
       0.916
       0.857
       0.755
       0.622
       0.467
       0.301
       0.132
      -0.035
      -0.205
      -0.377
      -0.543
      -0.696
      -0.827
      -0.928
      -0.990
      -1.002
      -0.958
      -0.851
      -0.683
      -0.472
      -0.246
      -0.032
       0.154
       0.309
       0.430
       0.519
       0.578
       0.606
       0.606
       0.590
       0.570
       0.553
       0.530
       0.495
       0.446
       0.382
       0.301
       0.199
       0.078
      -0.060
      -0.204
      -0.342
      -0.457
      -0.549
      -0.622
      -0.674
      -0.695
      -0.676
      -0.613
      -0.511
      -0.381
      -0.235
      -0.087
       0.059
       0.200
       0.327
       0.431
       0.505
       0.547
       0.555
       0.529
       0.477
       0.405
       0.310
       0.189
       0.046
      -0.103
      -0.240
      -0.352
      -0.429
      -0.459
      -0.442
      -0.380
      -0.286
      -0.176
      -0.074
      -0.004
       0.025
       0.017
      -0.022
      -0.085
      -0.164
      -0.249
      -0.331
      -0.401
      -0.439
      -0.429
      -0.367
      -0.268
      -0.148
      -0.018
       0.114
       0.235
       0.335
       0.396
       0.402
       0.345
       0.239
       0.113
      -0.002
      -0.084
      -0.117
      -0.096
      -0.030
       0.069
       0.193
       0.342
       0.509
       0.679
       0.830
       0.935
       0.967
       0.906
       0.752
       0.522
       0.237
      -0.082
      -0.412
      -0.732
      -1.022
      -1.263
      -1.433
      -1.514
      -1.502
      -1.402
      -1.218
      -0.955
      -0.619
      -0.225
       0.210
       0.662
       1.099
       1.484
       1.789
       1.984
       2.045
       1.955
       1.714
       1.340
       0.865
       0.334
      -0.202
      -0.694
      -1.114
      -1.443
      -1.667
      -1.778
      -1.777
      -1.671
      -1.471
      -1.192
      -0.858
      -0.496
      -0.123
       0.241
       0.569
       0.828
       0.996
       1.064
       1.037
       0.928
       0.760
       0.556
       0.333
       0.111
      -0.087
      -0.235
      -0.319
      -0.337
      -0.296
      -0.210
      -0.099
       0.018
       0.127
       0.216
       0.271
       0.276
       0.224
       0.119
      -0.032
      -0.212
      -0.398
      -0.567
      -0.698
      -0.778
      -0.794
      -0.743
      -0.634
      -0.479
      -0.287
      -0.068
       0.165
       0.397
       0.613
       0.799
       0.938
       1.016
       1.029
       0.972
       0.836
       0.622
       0.351
       0.064
      -0.194
      -0.385
      -0.490
      -0.509
      -0.462
      -0.368
      -0.239
      -0.082
       0.091
       0.261
       0.409
       0.521
       0.585
       0.597
       0.562
       0.487
       0.376
       0.232
       0.065
      -0.119
      -0.318
      -0.526
      -0.731
      -0.924
      -1.097
      -1.242
      -1.340
      -1.370
      -1.318
      -1.173
      -0.933
      -0.605
      -0.214
       0.209
       0.637
       1.042
       1.391
       1.655
       1.810
       1.841
       1.745
       1.531
       1.222
       0.848
       0.439
       0.027
      -0.354
      -0.681
      -0.943
      -1.143
      -1.285
      -1.379
      -1.434
      -1.453
      -1.426
      -1.342
      -1.193
      -0.984
      -0.723
      -0.424
      -0.100
       0.234
       0.571
       0.898
       1.189
       1.410
       1.536
       1.551
       1.452
       1.253
       0.977
       0.650
       0.297
      -0.052
      -0.365
      -0.618
      -0.801
      -0.918
      -0.977
      -0.987
      -0.959
      -0.903
      -0.827
      -0.738
      -0.646
      -0.552
      -0.448
      -0.332
      -0.215
      -0.109
      -0.012
       0.097
       0.241
       0.432
       0.659
       0.890
       1.084
       1.216
       1.283
       1.291
       1.239
       1.122
       0.933
       0.673
       0.356
       0.006
      -0.348
      -0.683
      -0.985
      -1.239
      -1.430
      -1.546
      -1.582
      -1.534
      -1.393
      -1.157
      -0.834
      -0.436
       0.017
       0.496
       0.961
       1.364
       1.669
       1.847
       1.882
       1.768
       1.515
       1.147
       0.695
       0.200
      -0.297
      -0.758
      -1.152
      -1.449
      -1.616
      -1.631
      -1.495
      -1.227
      -0.861
      -0.454
      -0.067
       0.250
       0.473
       0.599
       0.638
       0.611
       0.547
       0.471
       0.400
       0.350
       0.329
       0.331
       0.333
       0.307
       0.233
       0.106
      -0.063
      -0.254
      -0.439
      -0.594
      -0.702
      -0.750
      -0.723
      -0.621
      -0.461
      -0.263
      -0.054
       0.140
       0.287
       0.360
       0.344
       0.240
       0.066
      -0.141
      -0.336
      -0.481
      -0.557
      -0.549
      -0.451
      -0.262
       0.008
       0.337
       0.697
       1.055
       1.378
       1.641
       1.823
       1.905
       1.863
       1.685
       1.372
       0.939
       0.406
      -0.200
      -0.844
      -1.485
      -2.082
      -2.583
      -2.931
      -3.081
      -3.006
      -2.700
      -2.186
      -1.507
      -0.724
       0.099
       0.903
       1.634
       2.240
       2.680
       2.929
       2.976
       2.823
       2.487
       1.994
       1.373
       0.661
      -0.087
      -0.801
      -1.414
      -1.880
      -2.169
      -2.274
      -2.204
      -1.980
      -1.629
      -1.176
      -0.660
      -0.126
       0.381
       0.826
       1.181
       1.432
       1.579
       1.633
       1.602
       1.485
       1.286
       1.014
       0.688
       0.332
      -0.023
      -0.348
      -0.627
      -0.854
      -1.021
      -1.116
      -1.136
      -1.085
      -0.974
      -0.814
      -0.624
      -0.425
      -0.230
      -0.047
       0.113
       0.237
       0.316
       0.344
       0.311
       0.213
       0.059
      -0.124
      -0.306
      -0.465
      -0.584
      -0.658
      -0.691
      -0.698
      -0.686
      -0.657
      -0.609
      -0.540
      -0.444
      -0.318
      -0.164
       0.016
       0.229
       0.486
       0.790
       1.130
       1.487
       1.834
       2.133
       2.341
       2.425
       2.372
       2.179
       1.857
       1.425
       0.912
       0.348
      -0.231
      -0.786
      -1.280
      -1.692
      -2.018
      -2.257
      -2.405
      -2.456
      -2.408
      -2.262
      -2.033
      -1.744
      -1.417
      -1.064
      -0.690
      -0.300
       0.095
       0.486
       0.861
       1.199
       1.476
       1.669
       1.769
       1.769
       1.673
       1.491
       1.241
       0.933
       0.581
       0.203
      -0.176
      -0.530
      -0.838
      -1.083
      -1.253
      -1.348
      -1.368
      -1.307
      -1.164
      -0.947
      -0.674
      -0.365
      -0.043
       0.273
       0.570
       0.837
       1.064
       1.236
       1.338
       1.372
       1.346
       1.259
       1.099
       0.855
       0.531
       0.149
      -0.245
      -0.603
      -0.889
      -1.095
      -1.227
      -1.289
      -1.280
      -1.200
      -1.061
      -0.879
      -0.671
      -0.457
      -0.256
      -0.085
       0.046
       0.134
       0.189
       0.229
       0.278
       0.345
       0.429
       0.529
       0.640
       0.752
       0.846
       0.899
       0.888
       0.793
       0.610
       0.362
       0.079
      -0.214
      -0.501
      -0.764
      -0.976
      -1.100
      -1.100
      -0.954
      -0.665
      -0.267
       0.192
       0.666
       1.110
       1.480
       1.734
       1.847
       1.808
       1.614
       1.278
       0.827
       0.299
      -0.267
      -0.828
      -1.336
      -1.749
      -2.038
      -2.191
      -2.202
      -2.074
      -1.825
      -1.479
      -1.065
      -0.612
      -0.158
       0.262
       0.623
       0.914
       1.137
       1.297
       1.406
       1.465
       1.469
       1.407
       1.276
       1.080
       0.825
       0.520
       0.186
      -0.150
      -0.461
      -0.720
      -0.899
      -0.974
      -0.942
      -0.817
      -0.625
      -0.401
      -0.178
       0.023
       0.195
       0.334
       0.425
       0.459
       0.445
       0.409
       0.382
       0.389
       0.442
       0.537
       0.655
       0.770
       0.857
       0.884
       0.821
       0.651
       0.379
       0.026
      -0.387
      -0.836
      -1.288
      -1.707
      -2.054
      -2.293
      -2.394
      -2.346
      -2.161
      -1.872
      -1.510
      -1.101
      -0.662
      -0.191
       0.320
       0.874
       1.454
       2.025
       2.547
       2.978
       3.275
       3.404
       3.343
       3.076
       2.603
       1.945
       1.152
       0.290
      -0.581
      -1.405
      -2.134
      -2.728
      -3.158
      -3.401
      -3.444
      -3.288
      -2.959
      -2.491
      -1.922
      -1.293
      -0.648
      -0.032
       0.519
       0.977
       1.330
       1.580
       1.744
       1.839
       1.873
       1.850
       1.783
       1.685
       1.565
       1.423
       1.254
       1.046
       0.788
       0.485
       0.151
      -0.196
      -0.542
      -0.870
      -1.162
      -1.393
      -1.548
      -1.614
      -1.585
      -1.464
      -1.265
      -1.000
      -0.678
      -0.309
       0.083
       0.464
       0.798
       1.048
       1.182
       1.178
       1.029
       0.739
       0.328
      -0.159
      -0.660
      -1.109
      -1.454
      -1.660
      -1.707
      -1.591
      -1.325
      -0.936
      -0.459
       0.060
       0.572
       1.038
       1.427
       1.705
       1.841
       1.816
       1.639
       1.339
       0.960
       0.555
       0.170
      -0.165
      -0.436
      -0.632
      -0.738
      -0.749
      -0.674
      -0.537
      -0.367
      -0.189
      -0.020
       0.137
       0.289
       0.437
       0.564
       0.645
       0.663
       0.609
       0.491
       0.328
       0.149
      -0.027
      -0.191
      -0.340
      -0.462
      -0.545
      -0.586
      -0.587
      -0.561
      -0.529
      -0.516
      -0.537
      -0.589
      -0.655
      -0.709
      -0.717
      -0.646
      -0.483
      -0.239
       0.058
       0.373
       0.668
       0.905
       1.055
       1.101
       1.033
       0.850
       0.575
       0.251
      -0.065
      -0.323
      -0.490
      -0.554
      -0.527
      -0.436
      -0.310
      -0.176
      -0.058
       0.021
       0.051
       0.038
      -0.005
      -0.066
      -0.128
      -0.173
      -0.184
      -0.159
      -0.100
      -0.011
       0.104
       0.245
       0.411
       0.594
       0.771
       0.908
       0.979
       0.980
       0.920
       0.809
       0.659
       0.477
       0.270
       0.043
      -0.194
      -0.432
      -0.662
      -0.877
      -1.063
      -1.202
      -1.287
      -1.324
      -1.315
      -1.257
      -1.139
      -0.955
      -0.706
      -0.403
      -0.070
       0.263
       0.574
       0.849
       1.074
       1.232
       1.312
       1.313
       1.234
       1.081
       0.866
       0.611
       0.336
       0.057
      -0.212
      -0.457
      -0.668
      -0.839
      -0.963
      -1.039
      -1.064
      -1.038
      -0.952
      -0.799
      -0.590
      -0.347
      -0.098
       0.143
       0.363
       0.550
       0.690
       0.768
       0.773
       0.704
       0.576
       0.411
       0.227
       0.035
      -0.152
      -0.313
      -0.431
      -0.495
      -0.501
      -0.454
      -0.369
      -0.265
      -0.153
      -0.040
       0.071
       0.173
       0.258
       0.323
       0.359
       0.365
       0.347
       0.313
       0.268
       0.215
       0.163
       0.123
       0.093
       0.069
       0.048
       0.033
       0.027
       0.023
       0.014
      -0.010
      -0.053
      -0.115
      -0.180
      -0.225
      -0.233
      -0.197
      -0.119
      -0.010
       0.115
       0.238
       0.346
       0.429
       0.470
       0.453
       0.372
       0.243
       0.092
      -0.051
      -0.158
      -0.209
      -0.204
      -0.153
      -0.063
       0.057
       0.190
       0.308
       0.382
       0.390
       0.322
       0.185
       0.000
      -0.203
      -0.397
      -0.561
      -0.673
      -0.716
      -0.688
      -0.604
      -0.483
      -0.345
      -0.209
      -0.094
      -0.009
       0.044
       0.068
       0.066
       0.049
       0.029
       0.013
      -0.002
      -0.024
      -0.067
      -0.145
      -0.252
      -0.359
      -0.429
      -0.440
      -0.386
      -0.277
      -0.126
       0.052
       0.238
       0.418
       0.579
       0.704
       0.784
       0.818
       0.809
       0.764
       0.687
       0.586
       0.470
       0.343
       0.210
       0.077
      -0.053
      -0.182
      -0.307
      -0.411
      -0.471
      -0.476
      -0.432
      -0.354
      -0.257
      -0.155
      -0.058
       0.025
       0.083
       0.095
       0.046
      -0.063
      -0.218
      -0.398
      -0.579
      -0.739
      -0.849
      -0.885
      -0.824
      -0.653
      -0.385
      -0.055
       0.290
       0.612
       0.884
       1.078
       1.168
       1.144
       1.012
       0.794
       0.516
       0.208
      -0.107
      -0.413
      -0.692
      -0.922
      -1.085
      -1.170
      -1.176
      -1.097
      -0.929
      -0.674
      -0.341
       0.049
       0.458
       0.840
       1.146
       1.341
       1.412
       1.359
       1.201
       0.970
       0.703
       0.428
       0.167
      -0.062
      -0.241
      -0.360
      -0.416
      -0.413
      -0.366
      -0.301
      -0.239
      -0.191
      -0.160
      -0.149
      -0.158
      -0.189
      -0.240
      -0.311
      -0.396
      -0.479
      -0.542
      -0.577
      -0.579
      -0.546
      -0.483
      -0.402
      -0.311
      -0.205
      -0.071
       0.096
       0.290
       0.494
       0.686
       0.840
       0.940
       0.983
       0.969
       0.894
       0.754
       0.558
       0.326
       0.086
      -0.130
      -0.294
      -0.394
      -0.440
      -0.451
      -0.446
      -0.428
      -0.398
      -0.352
      -0.288
      -0.218
      -0.161
      -0.136
      -0.145
      -0.181
      -0.235
      -0.298
      -0.363
      -0.423
      -0.472
      -0.497
      -0.477
      -0.394
      -0.248
      -0.053
       0.175
       0.413
       0.642
       0.847
       1.017
       1.136
       1.181
       1.133
       0.993
       0.776
       0.500
       0.187
      -0.134
