Origin Time       29/01/2013 19:42:52
Lat.              30.0 N	
Long.             81.6 E	
Depth (Km)          7.0
Magnitude         4.0
 Region           NEPAL                                                            
 Above details taken from IMD 
   
Station Code      PTH
Station Lat.       29.579
Station Long.      80.207
Station Height(m) 1538.0
Site Class        A   Vs30 between 700 m/sec to 1400 m/sec * 
Record Time       29.01.2013 19:42:48.439
Sampling Rate     200. Hz
 Record Duration   81.020 Sec.
 Direction         Vert. (Up positive)
Max. Acceleration     -2.639 cm/sec**2
     
  * For reference see Site Classification link of website 
     
 Base Line Corrected and Low Pass Filtered (Cut Off at 35 Hz) Time History
 Acceleration data in cm/sec**2
    
[...]
      -0.223
      -0.222
      -0.100
       0.070
       0.191
       0.217
       0.178
       0.124
       0.088
       0.085
       0.096
       0.053
      -0.095
      -0.294
      -0.393
      -0.302
      -0.091
       0.073
       0.102
       0.051
       0.027
       0.072
       0.141
       0.162
       0.118
       0.056
       0.028
       0.039
       0.074
       0.124
       0.159
       0.109
      -0.074
      -0.315
      -0.443
      -0.361
      -0.139
       0.067
       0.163
       0.153
       0.086
       0.004
      -0.043
      -0.019
       0.067
       0.147
       0.134
       0.004
      -0.157
      -0.203
      -0.064
       0.163
       0.285
       0.196
      -0.033
      -0.235
      -0.287
      -0.170
       0.036
       0.192
       0.173
      -0.019
      -0.225
      -0.256
      -0.069
       0.185
       0.287
       0.141
      -0.135
      -0.300
      -0.199
       0.101
       0.371
       0.433
       0.283
       0.045
      -0.142
      -0.194
      -0.103
       0.053
       0.148
       0.108
      -0.025
      -0.150
      -0.197
      -0.166
      -0.088
       0.002
       0.066
       0.065
      -0.025
      -0.178
      -0.312
      -0.326
      -0.193
      -0.010
       0.078
       0.033
      -0.046
      -0.034
       0.095
       0.277
       0.426
       0.474
       0.382
       0.177
      -0.029
      -0.103
      -0.014
       0.135
       0.187
       0.066
      -0.155
      -0.322
      -0.344
      -0.270
      -0.203
      -0.165
      -0.106
      -0.023
      -0.004
      -0.091
      -0.185
      -0.140
       0.047
       0.207
       0.171
      -0.058
      -0.306
      -0.387
      -0.257
      -0.021
       0.177
       0.269
       0.254
       0.145
      -0.015
      -0.106
       0.002
       0.277
       0.493
       0.433
       0.131
      -0.147
      -0.166
       0.048
       0.248
       0.207
      -0.064
      -0.340
      -0.398
      -0.231
      -0.009
       0.111
       0.103
       0.017
      -0.107
      -0.224
      -0.251
      -0.121
       0.115
       0.301
       0.300
       0.112
      -0.112
      -0.188
      -0.051
       0.166
       0.239
       0.065
      -0.234
      -0.414
      -0.326
      -0.046
       0.188
       0.170
      -0.092
      -0.360
      -0.366
      -0.057
       0.351
       0.582
       0.534
       0.316
       0.111
       0.029
       0.048
       0.050
      -0.078
      -0.328
      -0.547
      -0.560
      -0.332
       0.008
       0.267
       0.339
       0.282
       0.242
       0.296
       0.357
       0.267
      -0.006
      -0.310
      -0.458
      -0.400
      -0.240
      -0.104
      -0.053
      -0.072
      -0.093
      -0.042
       0.093
       0.233
       0.259
       0.134
      -0.036
      -0.080
       0.083
       0.326
       0.394
       0.139
      -0.298
      -0.593
      -0.536
      -0.219
       0.089
       0.196
       0.111
      -0.021
      -0.049
       0.078
       0.272
       0.358
       0.220
      -0.079
      -0.338
      -0.392
      -0.261
      -0.119
      -0.120
      -0.235
      -0.266
      -0.046
       0.367
       0.719
       0.798
       0.601
       0.294
       0.030
      -0.142
      -0.259
      -0.376
      -0.508
      -0.600
      -0.560
      -0.361
      -0.103
       0.053
       0.037
      -0.051
      -0.025
       0.211
       0.547
       0.732
       0.600
       0.242
      -0.080
      -0.187
      -0.127
      -0.065
      -0.085
      -0.148
      -0.177
      -0.133
      -0.028
       0.082
       0.126
       0.075
      -0.022
      -0.081
      -0.058
       0.012
       0.063
       0.058
       0.014
      -0.027
      -0.060
      -0.137
      -0.284
      -0.414
      -0.384
      -0.158
       0.103
       0.182
       0.025
      -0.207
      -0.296
      -0.167
       0.074
       0.241
       0.242
       0.139
       0.070
       0.101
       0.175
       0.192
       0.117
       0.002
      -0.061
      -0.014
       0.104
       0.168
       0.082
      -0.085
      -0.131
       0.056
       0.337
       0.434
       0.202
      -0.219
      -0.542
      -0.578
      -0.376
      -0.156
      -0.086
      -0.149
      -0.201
      -0.146
      -0.019
       0.086
       0.121
       0.099
       0.056
       0.047
       0.119
       0.253
       0.343
       0.293
       0.127
      -0.018
      -0.029
       0.077
       0.174
       0.147
       0.001
      -0.154
      -0.214
      -0.184
      -0.153
      -0.177
      -0.227
      -0.259
      -0.269
      -0.256
      -0.178
      -0.005
       0.208
       0.354
       0.378
       0.318
       0.257
       0.239
       0.234
       0.166
      -0.008
      -0.237
      -0.403
      -0.426
      -0.330
      -0.202
      -0.108
      -0.067
      -0.071
      -0.088
      -0.074
      -0.013
       0.064
       0.127
       0.175
       0.216
       0.235
       0.212
       0.149
       0.067
      -0.022
      -0.109
      -0.167
      -0.166
      -0.089
       0.049
       0.200
       0.294
       0.279
       0.176
       0.062
      -0.014
      -0.072
      -0.150
      -0.229
      -0.257
      -0.204
      -0.089
       0.038
       0.106
       0.052
      -0.118
      -0.292
      -0.324
      -0.171
       0.057
       0.182
       0.118
      -0.033
      -0.068
       0.114
       0.369
       0.424
       0.166
      -0.221
      -0.434
      -0.344
      -0.083
       0.128
       0.182
       0.133
       0.089
       0.099
       0.126
       0.124
       0.094
       0.070
       0.058
       0.028
      -0.021
      -0.058
      -0.088
      -0.163
      -0.287
      -0.366
      -0.292
      -0.087
       0.103
       0.151
       0.058
      -0.076
      -0.158
      -0.168
      -0.141
      -0.098
      -0.021
       0.090
       0.174
       0.164
       0.094
       0.090
       0.207
       0.331
       0.298
       0.098
      -0.093
      -0.098
       0.071
       0.221
       0.155
      -0.135
      -0.443
      -0.523
      -0.311
       0.021
       0.224
       0.192
       0.014
      -0.125
      -0.097
       0.074
       0.242
       0.264
       0.139
      -0.007
      -0.068
      -0.070
      -0.101
      -0.185
      -0.260
      -0.274
      -0.236
      -0.179
      -0.106
       0.006
       0.170
       0.343
       0.452
       0.446
       0.347
       0.211
       0.070
      -0.069
      -0.179
      -0.209
      -0.166
      -0.140
      -0.195
      -0.272
      -0.243
      -0.069
       0.150
       0.270
       0.233
       0.095
      -0.048
      -0.140
      -0.179
      -0.163
      -0.062
       0.119
       0.274
       0.262
       0.063
      -0.172
      -0.269
      -0.205
      -0.102
      -0.068
      -0.105
      -0.137
      -0.085
       0.074
       0.284
       0.424
       0.381
       0.151
      -0.143
      -0.323
      -0.284
      -0.075
       0.124
       0.155
       0.035
      -0.069
      -0.028
       0.101
       0.165
       0.105
       0.004
      -0.027
       0.025
       0.086
       0.092
       0.044
      -0.008
      -0.022
      -0.013
      -0.037
      -0.129
      -0.273
      -0.412
      -0.467
      -0.365
      -0.103
       0.197
       0.356
       0.313
       0.201
       0.194
       0.301
       0.368
       0.277
       0.084
      -0.058
      -0.076
      -0.039
      -0.053
      -0.127
      -0.171
      -0.127
      -0.064
      -0.082
      -0.154
      -0.124
       0.083
       0.319
       0.343
       0.082
      -0.289
      -0.508
      -0.444
      -0.170
       0.112
       0.224
       0.137
      -0.020
      -0.084
       0.003
       0.170
       0.291
       0.294
       0.210
       0.135
       0.132
       0.155
       0.095
      -0.073
      -0.242
      -0.284
      -0.197
      -0.092
      -0.066
      -0.117
      -0.169
      -0.154
      -0.065
       0.034
       0.058
      -0.013
      -0.098
      -0.086
       0.044
       0.193
       0.227
       0.095
      -0.110
      -0.214
      -0.109
       0.131
       0.307
       0.291
       0.142
       0.015
       0.002
       0.074
       0.155
       0.190
       0.154
       0.052
      -0.082
      -0.207
      -0.308
      -0.391
      -0.451
      -0.457
      -0.373
      -0.190
       0.038
       0.200
       0.211
       0.113
       0.052
       0.122
       0.251
       0.292
       0.192
       0.039
      -0.050
      -0.048
      -0.018
      -0.033
      -0.105
      -0.178
      -0.168
      -0.044
       0.140
       0.287
       0.337
       0.296
       0.216
       0.152
       0.119
       0.073
      -0.044
      -0.208
      -0.313
      -0.293
      -0.220
      -0.233
      -0.366
      -0.496
      -0.466
      -0.237
       0.072
       0.291
       0.340
       0.278
       0.224
       0.225
       0.215
       0.117
      -0.048
      -0.174
      -0.165
      -0.021
       0.170
       0.275
       0.213
       0.031
      -0.110
      -0.085
       0.075
       0.212
       0.204
       0.058
      -0.114
      -0.189
      -0.135
      -0.033
      -0.007
      -0.097
      -0.199
      -0.169
       0.014
       0.208
       0.240
       0.061
      -0.197
      -0.317
      -0.188
       0.068
       0.191
       0.044
      -0.235
      -0.365
      -0.216
       0.074
       0.258
       0.219
       0.053
      -0.052
       0.008
       0.174
       0.300
       0.306
       0.227
       0.136
       0.067
       0.027
       0.036
       0.101
       0.170
       0.174
       0.104
       0.022
      -0.029
      -0.068
      -0.141
      -0.254
      -0.366
      -0.429
      -0.436
      -0.435
      -0.471
      -0.527
      -0.525
      -0.408
      -0.197
       0.040
       0.240
       0.363
       0.384
       0.332
       0.297
       0.354
       0.471
       0.531
       0.451
       0.270
       0.111
       0.070
       0.129
       0.177
       0.119
      -0.013
      -0.083
       0.000
       0.169
       0.263
       0.172
      -0.089
      -0.412
      -0.667
      -0.746
      -0.630
      -0.410
      -0.221
      -0.133
      -0.117
      -0.106
      -0.065
      -0.013
       0.001
      -0.046
      -0.100
      -0.053
       0.155
       0.439
       0.621
       0.577
       0.346
       0.103
       0.041
       0.227
       0.534
       0.735
       0.681
       0.420
       0.123
      -0.084
      -0.193
      -0.270
      -0.369
      -0.503
      -0.640
      -0.717
      -0.675
      -0.507
      -0.261
      -0.029
       0.095
       0.075
      -0.003
       0.013
       0.192
       0.421
       0.503
       0.363
       0.110
      -0.081
      -0.134
      -0.114
      -0.141
      -0.275
      -0.461
      -0.571
      -0.511
      -0.277
       0.080
       0.481
       0.811
       0.925
       0.759
       0.417
       0.107
      -0.041
      -0.079
      -0.147
      -0.314
      -0.504
      -0.581
      -0.489
      -0.318
      -0.207
      -0.186
      -0.146
       0.015
       0.254
       0.435
       0.488
       0.461
       0.426
       0.390
       0.301
       0.120
      -0.146
      -0.431
      -0.649
      -0.737
      -0.673
      -0.460
      -0.119
       0.264
       0.534
       0.567
       0.385
       0.144
      -0.002
      -0.006
       0.078
       0.158
       0.166
       0.097
       0.004
      -0.080
      -0.182
      -0.340
      -0.515
      -0.600
      -0.525
      -0.313
      -0.057
       0.146
       0.235
       0.189
       0.025
      -0.213
      -0.473
      -0.684
      -0.765
      -0.660
      -0.357
       0.123
       0.724
       1.302
       1.634
       1.545
       1.057
       0.387
      -0.224
      -0.646
      -0.856
      -0.862
      -0.665
      -0.287
       0.182
       0.579
       0.741
       0.610
       0.272
      -0.113
      -0.405
      -0.520
      -0.432
      -0.213
      -0.027
      -0.019
      -0.177
      -0.342
      -0.384
      -0.333
      -0.346
      -0.528
      -0.784
      -0.833
      -0.434
       0.367
       1.201
       1.648
       1.572
       1.195
       0.841
       0.642
       0.466
       0.095
      -0.529
      -1.204
      -1.624
      -1.627
      -1.309
      -0.889
      -0.511
      -0.188
       0.107
       0.367
       0.560
       0.652
       0.622
       0.477
       0.298
       0.219
       0.350
       0.689
       1.101
       1.375
       1.353
       1.032
       0.539
      -0.010
      -0.587
      -1.171
      -1.617
      -1.698
      -1.315
      -0.640
      -0.032
       0.208
       0.051
      -0.273
      -0.476
      -0.466
      -0.393
      -0.460
      -0.676
      -0.838
      -0.727
      -0.301
       0.283
       0.798
       1.093
       1.181
       1.199
       1.271
       1.379
       1.382
       1.157
       0.738
       0.324
       0.158
       0.335
       0.686
       0.851
       0.537
      -0.240
      -1.165
      -1.873
      -2.195
      -2.223
      -2.150
      -2.062
      -1.851
      -1.365
      -0.634
       0.053
       0.372
       0.256
      -0.043
      -0.167
       0.091
       0.685
       1.390
       1.948
       2.194
       2.131
       1.886
       1.612
       1.399
       1.227
       0.987
       0.589
       0.099
      -0.246
      -0.252
      -0.003
       0.151
      -0.112
      -0.812
      -1.668
      -2.334
      -2.639
      -2.631
      -2.456
      -2.205
      -1.887
      -1.514
      -1.140
      -0.793
      -0.393
       0.170
       0.881
       1.566
       2.036
       2.237
       2.254
       2.194
       2.081
       1.867
       1.529
       1.161
       0.917
       0.860
       0.870
       0.746
       0.387
      -0.160
      -0.772
      -1.344
      -1.801
      -2.087
      -2.170
      -2.046
      -1.727
      -1.267
      -0.789
      -0.433
      -0.256
      -0.201
      -0.164
      -0.076
       0.074
       0.279
       0.540
       0.855
       1.170
       1.348
       1.243
       0.842
       0.333
      -0.013
      -0.054
       0.133
       0.357
       0.452
       0.381
       0.237
       0.177
       0.279
       0.428
       0.380
      -0.021
      -0.658
      -1.184
      -1.279
      -0.921
      -0.424
      -0.184
      -0.325
      -0.605
      -0.680
      -0.450
      -0.123
       0.039
      -0.016
      -0.121
      -0.075
       0.180
       0.528
       0.791
       0.899
       0.950
       1.076
       1.256
       1.277
       0.926
       0.224
      -0.539
      -1.006
      -1.039
      -0.825
      -0.700
      -0.836
      -1.090
      -1.168
      -0.921
      -0.459
      -0.021
       0.215
       0.215
       0.071
      -0.053
       0.002
       0.291
       0.709
       1.036
       1.048
       0.667
       0.030
      -0.578
      -0.920
      -0.939
      -0.726
      -0.397
      -0.050
       0.224
       0.369
       0.426
       0.513
       0.692
       0.888
       0.959
       0.837
       0.587
       0.350
       0.219
       0.143
      -0.020
      -0.333
      -0.680
      -0.865
      -0.828
      -0.700
      -0.651
      -0.712
      -0.768
      -0.701
      -0.503
      -0.257
      -0.022
       0.249
       0.640
       1.106
       1.421
       1.348
       0.857
       0.160
      -0.472
      -0.890
      -1.096
      -1.151
      -1.082
      -0.864
      -0.462
       0.080
       0.621
       0.994
       1.115
       1.020
       0.811
       0.608
       0.493
       0.464
       0.428
       0.279
      -0.004
      -0.353
      -0.679
      -0.927
      -1.060
      -1.050
      -0.906
      -0.673
      -0.413
      -0.173
       0.014
       0.134
       0.190
       0.185
       0.110
      -0.020
      -0.136
      -0.142
      -0.019
       0.141
       0.201
       0.089
      -0.126
      -0.258
      -0.117
       0.332
       0.911
       1.350
       1.490
       1.359
       1.096
       0.824
       0.598
       0.401
       0.158
      -0.204
      -0.680
      -1.161
      -1.502
      -1.613
      -1.514
      -1.335
      -1.230
      -1.259
      -1.318
      -1.211
      -0.813
      -0.155
       0.599
       1.223
       1.512
       1.389
       0.986
       0.585
       0.432
       0.564
       0.808
       0.933
       0.838
       0.624
       0.494
       0.540
       0.624
       0.493
       0.009
      -0.721
      -1.429
      -1.852
      -1.844
      -1.414
      -0.719
      -0.003
       0.482
       0.571
       0.271
      -0.203
      -0.506
      -0.385
       0.132
       0.755
       1.166
       1.219
       0.971
       0.576
       0.179
      -0.154
      -0.440
      -0.721
      -0.982
      -1.140
      -1.114
      -0.894
      -0.554
      -0.228
      -0.043
      -0.024
      -0.059
       0.013
       0.245
       0.550
       0.822
       1.047
       1.265
       1.455
       1.492
       1.230
       0.642
      -0.105
      -0.738
      -1.077
      -1.156
      -1.141
      -1.141
      -1.122
      -0.971
      -0.618
      -0.099
       0.435
       0.776
       0.793
       0.547
       0.249
       0.086
       0.081
       0.133
       0.137
       0.059
      -0.075
      -0.223
      -0.346
      -0.405
      -0.355
      -0.182
       0.053
       0.233
       0.296
       0.323
       0.456
       0.724
       0.984
       1.047
       0.835
       0.419
      -0.058
      -0.470
      -0.749
      -0.887
      -0.899
      -0.812
      -0.663
      -0.506
      -0.385
      -0.301
      -0.243
      -0.223
      -0.243
      -0.251
      -0.151
       0.098
       0.444
       0.777
       0.982
       0.977
       0.737
       0.334
      -0.086
      -0.392
      -0.515
      -0.455
      -0.267
      -0.059
       0.052
       0.015
      -0.117
      -0.235
      -0.240
      -0.098
       0.132
       0.308
       0.298
       0.093
      -0.178
      -0.346
      -0.313
      -0.095
       0.200
       0.418
       0.449
       0.282
      -0.018
      -0.376
      -0.721
      -0.952
      -0.948
      -0.655
      -0.156
       0.370
       0.750
       0.901
       0.842
       0.658
       0.439
       0.256
       0.183
       0.290
       0.557
       0.808
       0.816
       0.507
       0.046
      -0.322
      -0.496
      -0.572
      -0.712
      -0.956
      -1.172
      -1.172
      -0.899
      -0.513
      -0.256
      -0.235
      -0.343
      -0.372
      -0.191
       0.176
       0.576
       0.817
       0.804
       0.615
       0.452
       0.466
       0.640
       0.827
       0.873
       0.718
       0.406
       0.045
      -0.273
      -0.511
      -0.682
      -0.805
      -0.886
      -0.921
      -0.890
      -0.751
      -0.481
      -0.130
       0.188
       0.366
       0.356
       0.165
      -0.133
      -0.381
      -0.389
      -0.086
       0.376
       0.702
       0.668
       0.289
      -0.182
      -0.448
      -0.387
      -0.124
       0.118
       0.220
       0.226
       0.224
       0.253
       0.315
       0.411
       0.532
       0.634
       0.662
       0.592
       0.426
       0.182
      -0.106
      -0.392
      -0.638
      -0.826
