Origin Time       02/01/2013 17:42:15
Lat.              29.4 N	
Long.             81.1 E	
Depth (Km)         10.0
Magnitude         4.8
 Region           Western-NEPAL                                                    
 Above details taken from IMD 
     
Station Code      PTH
Station Lat.       29.579  N
Station Long.      80.207  E
Station Height(m) 1538.0
Site Class        A   Vs30 between 700 m/sec to 1400 m/sec * 
Record Time       02.01.2013 17:42:18.174
Sampling Rate     200. Hz
 Record Duration   81.025 Sec.
 Direction         E-W (E positive)
Max. Acceleration      3.157 cm/sec**2
     
  * For reference see Site Classification link of website 
     
 Base Line Corrected and Low Pass Filtered (Cut Off at 35 Hz) Time History
 Acceleration data in cm/sec**2
    
[...]
       0.139
       0.201
       0.244
       0.256
       0.240
       0.219
       0.209
       0.211
       0.210
       0.194
       0.166
       0.130
       0.094
       0.061
       0.032
       0.007
      -0.013
      -0.024
      -0.028
      -0.037
      -0.069
      -0.121
      -0.179
      -0.219
      -0.230
      -0.214
      -0.182
      -0.160
      -0.165
      -0.197
      -0.230
      -0.237
      -0.197
      -0.107
       0.013
       0.135
       0.229
       0.292
       0.337
       0.378
       0.414
       0.438
       0.439
       0.409
       0.347
       0.262
       0.163
       0.052
      -0.074
      -0.201
      -0.308
      -0.372
      -0.385
      -0.358
      -0.312
      -0.271
      -0.252
      -0.248
      -0.241
      -0.215
      -0.170
      -0.116
      -0.069
      -0.043
      -0.040
      -0.041
      -0.026
       0.014
       0.068
       0.120
       0.155
       0.161
       0.130
       0.071
       0.005
      -0.044
      -0.054
      -0.016
       0.064
       0.155
       0.225
       0.259
       0.260
       0.245
       0.223
       0.205
       0.194
       0.185
       0.167
       0.131
       0.076
       0.001
      -0.083
      -0.156
      -0.203
      -0.219
      -0.211
      -0.183
      -0.136
      -0.081
      -0.030
       0.006
       0.025
       0.028
       0.019
       0.003
      -0.019
      -0.055
      -0.108
      -0.170
      -0.227
      -0.267
      -0.284
      -0.276
      -0.243
      -0.188
      -0.120
      -0.047
       0.020
       0.064
       0.079
       0.079
       0.084
       0.105
       0.140
       0.185
       0.231
       0.272
       0.299
       0.314
       0.321
       0.322
       0.316
       0.307
       0.290
       0.251
       0.178
       0.069
      -0.061
      -0.191
      -0.296
      -0.356
      -0.359
      -0.311
      -0.227
      -0.126
      -0.024
       0.060
       0.114
       0.139
       0.140
       0.118
       0.075
       0.015
      -0.054
      -0.125
      -0.193
      -0.255
      -0.304
      -0.339
      -0.349
      -0.315
      -0.223
      -0.081
       0.081
       0.227
       0.335
       0.397
       0.423
       0.428
       0.422
       0.399
       0.344
       0.252
       0.128
      -0.021
      -0.180
      -0.329
      -0.449
      -0.526
      -0.553
      -0.527
      -0.453
      -0.354
      -0.254
      -0.166
      -0.091
      -0.020
       0.060
       0.155
       0.258
       0.348
       0.401
       0.417
       0.412
       0.403
       0.400
       0.397
       0.375
       0.312
       0.199
       0.048
      -0.119
      -0.278
      -0.417
      -0.529
      -0.614
      -0.672
      -0.702
      -0.692
      -0.636
      -0.538
      -0.408
      -0.250
      -0.075
       0.101
       0.259
       0.388
       0.484
       0.544
       0.571
       0.574
       0.559
       0.526
       0.470
       0.391
       0.289
       0.171
       0.058
      -0.023
      -0.055
      -0.043
      -0.012
       0.014
       0.020
       0.001
      -0.038
      -0.082
      -0.124
      -0.164
      -0.208
      -0.255
      -0.303
      -0.344
      -0.372
      -0.377
      -0.354
      -0.311
      -0.260
      -0.207
      -0.158
      -0.113
      -0.065
       0.000
       0.081
       0.163
       0.226
       0.265
       0.287
       0.299
       0.308
       0.319
       0.332
       0.338
       0.330
       0.303
       0.251
       0.173
       0.082
       0.005
      -0.037
      -0.037
      -0.004
       0.051
       0.112
       0.164
       0.196
       0.203
       0.181
       0.124
       0.034
      -0.079
      -0.200
      -0.313
      -0.409
      -0.481
      -0.530
      -0.563
      -0.579
      -0.564
      -0.507
      -0.405
      -0.272
      -0.126
       0.010
       0.114
       0.181
       0.217
       0.232
       0.234
       0.238
       0.259
       0.301
       0.352
       0.389
       0.402
       0.390
       0.364
       0.341
       0.337
       0.349
       0.359
       0.349
       0.311
       0.249
       0.170
       0.083
      -0.006
      -0.098
      -0.200
      -0.305
      -0.397
      -0.460
      -0.491
      -0.492
      -0.471
      -0.439
      -0.405
      -0.371
      -0.334
      -0.297
      -0.267
      -0.250
      -0.242
      -0.234
      -0.222
      -0.199
      -0.156
      -0.089
      -0.005
       0.089
       0.191
       0.293
       0.390
       0.482
       0.573
       0.659
       0.724
       0.753
       0.735
       0.670
       0.563
       0.427
       0.275
       0.116
      -0.047
      -0.204
      -0.344
      -0.461
      -0.561
      -0.651
      -0.726
      -0.772
      -0.774
      -0.724
      -0.627
      -0.502
      -0.371
      -0.240
      -0.099
       0.059
       0.223
       0.370
       0.478
       0.529
       0.519
       0.463
       0.384
       0.302
       0.229
       0.173
       0.142
       0.133
       0.134
       0.138
       0.146
       0.164
       0.194
       0.230
       0.259
       0.255
       0.195
       0.081
      -0.057
      -0.182
      -0.270
      -0.317
      -0.331
      -0.330
      -0.332
      -0.343
      -0.359
      -0.374
      -0.381
      -0.372
      -0.340
      -0.298
      -0.263
      -0.252
      -0.264
      -0.286
      -0.298
      -0.281
      -0.228
      -0.153
      -0.081
      -0.030
       0.002
       0.029
       0.068
       0.136
       0.239
       0.367
       0.499
       0.621
       0.731
       0.831
       0.919
       0.989
       1.033
       1.036
       0.984
       0.875
       0.709
       0.488
       0.218
      -0.082
      -0.380
      -0.649
      -0.874
      -1.056
      -1.199
      -1.306
      -1.372
      -1.384
      -1.330
      -1.211
      -1.038
      -0.821
      -0.564
      -0.278
       0.021
       0.313
       0.571
       0.770
       0.899
       0.967
       1.004
       1.033
       1.061
       1.079
       1.073
       1.030
       0.945
       0.828
       0.693
       0.544
       0.375
       0.181
      -0.030
      -0.245
      -0.449
      -0.628
      -0.772
      -0.882
      -0.966
      -1.030
      -1.082
      -1.131
      -1.173
      -1.182
      -1.124
      -0.977
      -0.751
      -0.475
      -0.185
       0.088
       0.330
       0.550
       0.761
       0.959
       1.120
       1.218
       1.238
       1.184
       1.077
       0.942
       0.802
       0.664
       0.524
       0.383
       0.243
       0.100
      -0.061
      -0.255
      -0.493
      -0.776
      -1.086
      -1.390
      -1.648
      -1.831
      -1.916
      -1.884
      -1.720
      -1.428
      -1.031
      -0.559
      -0.049
       0.459
       0.926
       1.328
       1.646
       1.865
       1.973
       1.966
       1.854
       1.649
       1.375
       1.064
       0.748
       0.448
       0.167
      -0.100
      -0.361
      -0.622
      -0.875
      -1.096
      -1.255
      -1.333
      -1.334
      -1.274
      -1.174
      -1.055
      -0.932
      -0.808
      -0.677
      -0.537
      -0.386
      -0.229
      -0.072
       0.069
       0.187
       0.296
       0.423
       0.590
       0.809
       1.071
       1.349
       1.597
       1.772
       1.853
       1.847
       1.773
       1.656
       1.507
       1.317
       1.067
       0.741
       0.346
      -0.100
      -0.575
      -1.058
      -1.520
      -1.928
      -2.254
      -2.479
      -2.598
      -2.615
      -2.538
      -2.375
      -2.122
      -1.775
      -1.341
      -0.839
      -0.295
       0.258
       0.778
       1.233
       1.598
       1.862
       2.021
       2.079
       2.053
       1.956
       1.785
       1.529
       1.189
       0.779
       0.331
      -0.111
      -0.500
      -0.802
      -1.005
      -1.109
      -1.122
      -1.057
      -0.943
      -0.810
      -0.678
      -0.557
      -0.446
      -0.351
      -0.278
      -0.235
      -0.218
      -0.201
      -0.140
      -0.001
       0.219
       0.491
       0.770
       1.006
       1.165
       1.233
       1.224
       1.158
       1.050
       0.908
       0.736
       0.538
       0.311
       0.050
      -0.237
      -0.536
      -0.824
      -1.077
      -1.274
      -1.413
      -1.508
      -1.580
      -1.636
      -1.666
      -1.650
      -1.561
      -1.377
      -1.088
      -0.711
      -0.271
       0.207
       0.697
       1.168
       1.575
       1.879
       2.043
       2.054
       1.931
       1.722
       1.479
       1.231
       0.982
       0.729
       0.473
       0.221
      -0.014
      -0.219
      -0.391
      -0.536
      -0.668
      -0.792
      -0.911
      -1.027
      -1.134
      -1.219
      -1.265
      -1.263
      -1.213
      -1.116
      -0.985
      -0.835
      -0.679
      -0.513
      -0.325
      -0.106
       0.151
       0.443
       0.751
       1.046
       1.291
       1.460
       1.539
       1.521
       1.416
       1.240
       1.006
       0.714
       0.369
      -0.012
      -0.394
      -0.738
      -1.009
      -1.184
      -1.265
      -1.270
      -1.219
      -1.123
      -0.989
      -0.821
      -0.618
      -0.377
      -0.100
       0.192
       0.466
       0.690
       0.843
       0.910
       0.890
       0.797
       0.653
       0.477
       0.293
       0.122
      -0.020
      -0.125
      -0.186
      -0.194
      -0.148
      -0.052
       0.082
       0.238
       0.401
       0.550
       0.671
       0.754
       0.789
       0.758
       0.652
       0.480
       0.261
       0.019
      -0.218
      -0.428
      -0.601
      -0.742
      -0.858
      -0.950
      -1.016
      -1.057
      -1.073
      -1.068
      -1.046
      -1.008
      -0.942
      -0.826
      -0.641
      -0.385
      -0.074
       0.267
       0.599
       0.878
       1.067
       1.149
       1.133
       1.048
       0.933
       0.820
       0.718
       0.612
       0.486
       0.342
       0.190
       0.047
      -0.074
      -0.163
      -0.216
      -0.232
      -0.208
      -0.137
      -0.023
       0.118
       0.270
       0.418
       0.544
       0.626
       0.642
       0.579
       0.429
       0.195
      -0.106
      -0.443
      -0.781
      -1.083
      -1.316
      -1.460
      -1.511
      -1.486
      -1.400
      -1.252
      -1.033
      -0.738
      -0.372
       0.035
       0.433
       0.765
       0.995
       1.114
       1.130
       1.060
       0.925
       0.759
       0.595
       0.457
       0.354
       0.282
       0.225
       0.173
       0.133
       0.124
       0.153
       0.208
       0.265
       0.296
       0.281
       0.208
       0.081
      -0.089
      -0.294
      -0.532
      -0.797
      -1.069
      -1.317
      -1.504
      -1.591
      -1.552
      -1.391
      -1.134
      -0.821
      -0.485
      -0.154
       0.151
       0.421
       0.654
       0.848
       0.996
       1.093
       1.138
       1.135
       1.093
       1.038
       0.998
       0.991
       1.012
       1.034
       1.028
       0.964
       0.829
       0.626
       0.378
       0.103
      -0.191
      -0.499
      -0.818
      -1.144
      -1.464
      -1.747
      -1.953
      -2.047
      -2.020
      -1.880
      -1.650
      -1.358
      -1.023
      -0.656
      -0.261
       0.139
       0.513
       0.836
       1.101
       1.315
       1.486
       1.616
       1.694
       1.699
       1.618
       1.469
       1.289
       1.112
       0.953
       0.809
       0.666
       0.510
       0.333
       0.143
      -0.045
      -0.222
      -0.394
      -0.569
      -0.751
      -0.941
      -1.131
      -1.305
      -1.439
      -1.515
      -1.524
      -1.460
      -1.321
      -1.114
      -0.853
      -0.552
      -0.232
       0.075
       0.337
       0.535
       0.671
       0.758
       0.813
       0.853
       0.888
       0.915
       0.924
       0.912
       0.881
       0.829
       0.756
       0.661
       0.549
       0.423
       0.289
       0.161
       0.057
      -0.020
      -0.083
      -0.159
      -0.280
      -0.467
      -0.719
      -0.998
      -1.246
      -1.413
      -1.472
      -1.418
      -1.258
      -1.010
      -0.687
      -0.303
       0.118
       0.529
       0.868
       1.084
       1.148
       1.059
       0.843
       0.552
       0.248
      -0.015
      -0.200
      -0.288
      -0.279
      -0.191
      -0.052
       0.117
       0.304
       0.487
       0.639
       0.728
       0.731
       0.636
       0.456
       0.227
       0.005
      -0.165
      -0.260
      -0.281
      -0.254
      -0.222
      -0.221
      -0.267
      -0.359
      -0.496
      -0.672
      -0.864
      -1.038
      -1.159
      -1.205
      -1.175
      -1.086
      -0.961
      -0.812
      -0.631
      -0.408
      -0.146
       0.137
       0.425
       0.710
       0.985
       1.241
       1.465
       1.637
       1.735
       1.740
       1.656
       1.500
       1.297
       1.071
       0.835
       0.591
       0.328
       0.037
      -0.273
      -0.579
      -0.859
      -1.098
      -1.291
      -1.442
      -1.565
      -1.667
      -1.747
      -1.796
      -1.811
      -1.791
      -1.737
      -1.648
      -1.521
      -1.344
      -1.091
      -0.739
      -0.286
       0.247
       0.825
       1.404
       1.940
       2.401
       2.770
       3.031
       3.157
       3.123
       2.925
       2.586
       2.153
       1.679
       1.213
       0.779
       0.376
      -0.002
      -0.351
      -0.658
      -0.914
      -1.111
      -1.237
      -1.288
      -1.275
      -1.226
      -1.179
      -1.166
      -1.201
      -1.272
      -1.347
      -1.396
      -1.406
      -1.365
      -1.258
      -1.065
      -0.780
      -0.413
       0.001
       0.418
       0.793
       1.103
       1.346
       1.523
       1.618
       1.599
       1.446
       1.158
       0.762
       0.310
      -0.133
      -0.511
      -0.798
      -0.998
      -1.125
      -1.197
      -1.222
      -1.197
      -1.118
      -0.993
      -0.851
      -0.716
      -0.594
      -0.473
      -0.330
      -0.143
       0.104
       0.415
       0.775
       1.161
       1.536
       1.853
       2.053
       2.093
       1.963
       1.681
       1.287
       0.831
       0.360
      -0.089
      -0.496
      -0.840
      -1.103
      -1.273
      -1.355
      -1.373
      -1.352
      -1.310
      -1.253
      -1.169
      -1.038
      -0.850
      -0.607
      -0.320
       0.004
       0.348
       0.683
       0.971
       1.187
       1.316
       1.364
       1.352
       1.306
       1.234
       1.126
       0.965
       0.745
       0.474
       0.168
      -0.153
      -0.464
      -0.745
      -0.986
      -1.185
      -1.337
      -1.451
      -1.540
      -1.610
      -1.653
      -1.649
      -1.585
      -1.452
      -1.248
      -0.978
      -0.648
      -0.264
       0.170
       0.638
       1.100
       1.508
       1.818
       2.007
       2.067
       2.007
       1.845
       1.598
       1.287
       0.943
       0.606
       0.309
       0.066
      -0.122
      -0.258
      -0.353
      -0.425
      -0.495
      -0.577
      -0.683
      -0.815
      -0.961
      -1.097
      -1.198
      -1.242
      -1.218
      -1.120
      -0.959
      -0.752
      -0.515
      -0.255
       0.014
       0.266
       0.476
       0.632
       0.729
       0.766
       0.751
       0.701
       0.640
       0.587
       0.552
       0.532
       0.507
       0.456
       0.372
       0.267
       0.158
       0.056
      -0.033
      -0.109
      -0.172
      -0.219
      -0.243
      -0.239
      -0.214
      -0.190
      -0.185
      -0.200
      -0.221
      -0.233
      -0.223
      -0.189
      -0.145
      -0.110
      -0.095
      -0.098
      -0.117
      -0.146
      -0.178
      -0.195
      -0.188
      -0.162
      -0.122
      -0.073
      -0.018
       0.040
       0.098
       0.154
       0.202
       0.233
       0.245
       0.244
       0.234
       0.216
       0.194
       0.174
       0.154
       0.127
       0.098
       0.080
       0.089
       0.130
       0.195
       0.267
       0.323
       0.343
       0.326
       0.287
       0.239
       0.186
       0.128
       0.060
      -0.020
      -0.114
      -0.212
      -0.305
      -0.388
      -0.462
      -0.529
      -0.584
      -0.631
      -0.667
      -0.682
      -0.653
      -0.567
      -0.426
      -0.251
      -0.074
       0.074
       0.175
       0.238
       0.293
       0.363
       0.452
       0.547
       0.626
       0.670
       0.667
       0.620
       0.540
       0.438
       0.323
       0.211
       0.118
       0.052
       0.003
      -0.039
      -0.086
      -0.144
      -0.212
      -0.290
      -0.378
      -0.487
      -0.625
      -0.773
      -0.884
      -0.912
      -0.832
      -0.653
      -0.410
      -0.155
       0.069
       0.240
       0.361
       0.437
       0.474
       0.482
       0.469
       0.440
       0.398
       0.346
       0.294
       0.247
       0.208
       0.183
       0.172
       0.167
       0.156
       0.131
       0.095
       0.055
       0.016
      -0.018
      -0.048
      -0.084
      -0.136
      -0.209
      -0.296
      -0.390
      -0.481
      -0.557
      -0.607
      -0.630
      -0.631
      -0.609
      -0.553
      -0.451
      -0.295
      -0.080
       0.184
       0.467
       0.721
       0.902
       0.981
       0.949
       0.824
       0.648
       0.467
       0.313
       0.199
       0.127
       0.099
       0.115
       0.167
       0.244
       0.322
       0.368
       0.355
       0.274
       0.137
      -0.041
      -0.244
      -0.457
      -0.670
      -0.880
      -1.082
      -1.261
      -1.395
      -1.470
      -1.478
      -1.414
      -1.271
      -1.048
      -0.748
      -0.377
       0.043
       0.478
       0.888
       1.241
       1.516
       1.695
       1.767
       1.732
       1.601
       1.388
       1.109
       0.789
       0.459
       0.149
      -0.114
      -0.303
      -0.408
      -0.438
      -0.418
      -0.380
      -0.351
      -0.351
      -0.387
      -0.447
      -0.509
      -0.554
      -0.571
      -0.551
      -0.494
      -0.404
      -0.292
      -0.162
      -0.021
       0.119
       0.248
       0.358
       0.446
       0.502
       0.518
       0.490
       0.428
       0.347
       0.271
       0.223
       0.214
       0.231
       0.242
       0.216
       0.140
       0.018
      -0.130
      -0.278
      -0.412
      -0.538
      -0.669
      -0.806
      -0.933
      -1.031
      -1.081
      -1.063
      -0.967
      -0.800
      -0.587
      -0.355
      -0.130
       0.074
       0.260
       0.443
       0.634
       0.827
       1.003
       1.145
       1.236
       1.264
       1.223
       1.117
       0.958
       0.758
       0.533
       0.305
       0.090
      -0.107
      -0.290
      -0.464
      -0.623
      -0.757
      -0.852
      -0.886
      -0.848
      -0.747
      -0.611
      -0.474
      -0.363
      -0.293
      -0.264
      -0.256
      -0.252
      -0.241
