Origin Time       29/01/2013 19:42:52 UTC
Lat.              30.0 N	
Long.             81.6 E	
Depth (Km)          7.0
Magnitude         4.0
 Region           NEPAL                                                            
 Above details taken from IMD 
    
Station Code      PTH
Station Lat.       29.579  N
Station Long.      80.207  E
Station Height(m) 1538.0
Site Class        A   Vs30 between 700 m/sec to 1400 m/sec * 
Record Time       29.01.2013 19:42:48.439 UTC
Sampling Rate     200. Hz
 Record Duration   81.020 Sec.
 Direction         N-S (N positive)
Max. Acceleration      3.830 cm/sec**2
     
  * For reference see Site Classification link of website 
     
 Base Line Corrected and Low Pass Filtered (Cut Off at 35 Hz) Time History
 Acceleration data in cm/sec**2
    
[...]
      -0.500
      -0.609
      -0.632
      -0.586
      -0.507
      -0.420
      -0.333
      -0.240
      -0.130
       0.010
       0.176
       0.348
       0.505
       0.635
       0.737
       0.803
       0.811
       0.731
       0.549
       0.289
       0.016
      -0.202
      -0.342
      -0.434
      -0.530
      -0.650
      -0.766
      -0.818
      -0.757
      -0.580
      -0.341
      -0.117
       0.048
       0.165
       0.275
       0.399
       0.523
       0.605
       0.611
       0.538
       0.417
       0.292
       0.181
       0.071
      -0.064
      -0.220
      -0.359
      -0.429
      -0.402
      -0.297
      -0.177
      -0.107
      -0.106
      -0.134
      -0.136
      -0.095
      -0.037
       0.008
       0.031
       0.051
       0.089
       0.146
       0.198
       0.213
       0.183
       0.134
       0.111
       0.141
       0.209
       0.260
       0.234
       0.114
      -0.050
      -0.178
      -0.227
      -0.225
      -0.221
      -0.227
      -0.205
      -0.121
       0.005
       0.105
       0.110
       0.009
      -0.137
      -0.233
      -0.220
      -0.121
      -0.009
       0.051
       0.050
       0.034
       0.058
       0.140
       0.243
       0.305
       0.291
       0.218
       0.129
       0.056
       0.007
      -0.023
      -0.030
      -0.006
       0.051
       0.119
       0.150
       0.088
      -0.085
      -0.322
      -0.520
      -0.584
      -0.488
      -0.292
      -0.100
       0.014
       0.053
       0.075
       0.121
       0.187
       0.241
       0.265
       0.261
       0.232
       0.180
       0.113
       0.052
       0.023
       0.040
       0.095
       0.160
       0.196
       0.178
       0.109
       0.012
      -0.085
      -0.170
      -0.248
      -0.317
      -0.362
      -0.356
      -0.287
      -0.179
      -0.084
      -0.030
       0.004
       0.062
       0.157
       0.251
       0.291
       0.263
       0.204
       0.159
       0.146
       0.134
       0.091
       0.016
      -0.061
      -0.106
      -0.113
      -0.101
      -0.100
      -0.123
      -0.161
      -0.187
      -0.177
      -0.139
      -0.101
      -0.077
      -0.051
       0.003
       0.087
       0.166
       0.202
       0.189
       0.162
       0.157
       0.173
       0.164
       0.080
      -0.083
      -0.268
      -0.404
      -0.450
      -0.403
      -0.287
      -0.136
       0.011
       0.127
       0.203
       0.255
       0.299
       0.345
       0.383
       0.391
       0.355
       0.275
       0.161
       0.023
      -0.127
      -0.271
      -0.383
      -0.451
      -0.476
      -0.465
      -0.425
      -0.372
      -0.324
      -0.283
      -0.230
      -0.138
      -0.001
       0.153
       0.277
       0.341
       0.358
       0.375
       0.430
       0.514
       0.572
       0.544
       0.410
       0.197
      -0.041
      -0.249
      -0.389
      -0.452
      -0.447
      -0.389
      -0.298
      -0.202
      -0.126
      -0.079
      -0.052
      -0.029
      -0.012
      -0.006
      -0.007
       0.003
       0.045
       0.112
       0.177
       0.212
       0.214
       0.216
       0.248
       0.296
       0.312
       0.255
       0.141
       0.022
      -0.063
      -0.120
      -0.180
      -0.265
      -0.359
      -0.417
      -0.402
      -0.320
      -0.219
      -0.150
      -0.125
      -0.108
      -0.049
       0.076
       0.236
       0.370
       0.430
       0.424
       0.402
       0.399
       0.392
       0.328
       0.188
       0.009
      -0.153
      -0.270
      -0.363
      -0.455
      -0.532
      -0.538
      -0.434
      -0.244
      -0.041
       0.110
       0.198
       0.242
       0.258
       0.244
       0.197
       0.130
       0.061
       0.004
      -0.040
      -0.078
      -0.106
      -0.115
      -0.088
      -0.026
       0.053
       0.121
       0.156
       0.148
       0.103
       0.034
      -0.046
      -0.130
      -0.212
      -0.276
      -0.286
      -0.217
      -0.082
       0.069
       0.177
       0.215
       0.194
       0.148
       0.111
       0.090
       0.072
       0.047
       0.023
       0.015
       0.023
       0.033
       0.027
       0.003
      -0.024
      -0.030
      -0.002
       0.049
       0.091
       0.097
       0.062
       0.000
      -0.069
      -0.131
      -0.175
      -0.192
      -0.182
      -0.154
      -0.123
      -0.103
      -0.091
      -0.070
      -0.023
       0.046
       0.120
       0.177
       0.211
       0.221
       0.203
       0.159
       0.101
       0.050
       0.019
       0.010
       0.009
      -0.001
      -0.037
      -0.107
      -0.198
      -0.282
      -0.313
      -0.258
      -0.126
       0.026
       0.125
       0.144
       0.117
       0.097
       0.097
       0.094
       0.066
       0.020
      -0.011
      -0.002
       0.045
       0.095
       0.106
       0.065
       0.007
      -0.017
       0.016
       0.081
       0.126
       0.117
       0.057
      -0.018
      -0.078
      -0.118
      -0.160
      -0.209
      -0.240
      -0.220
      -0.156
      -0.090
      -0.058
      -0.046
      -0.009
       0.087
       0.218
       0.319
       0.331
       0.253
       0.136
       0.038
      -0.017
      -0.029
      -0.002
       0.057
       0.121
       0.150
       0.119
       0.035
      -0.063
      -0.136
      -0.162
      -0.139
      -0.088
      -0.041
      -0.015
      -0.008
      -0.007
       0.001
       0.016
       0.028
       0.039
       0.062
       0.105
       0.141
       0.122
       0.024
      -0.120
      -0.240
      -0.279
      -0.237
      -0.152
      -0.064
       0.010
       0.077
       0.147
       0.213
       0.251
       0.240
       0.179
       0.086
      -0.010
      -0.082
      -0.119
      -0.130
      -0.133
      -0.132
      -0.114
      -0.073
      -0.023
       0.011
       0.026
       0.040
       0.071
       0.114
       0.148
       0.152
       0.121
       0.074
       0.041
       0.046
       0.088
       0.140
       0.167
       0.137
       0.051
      -0.063
      -0.164
      -0.233
      -0.272
      -0.291
      -0.286
      -0.251
      -0.192
      -0.128
      -0.074
      -0.027
       0.032
       0.123
       0.246
       0.374
       0.459
       0.466
       0.391
       0.262
       0.126
       0.023
      -0.032
      -0.060
      -0.096
      -0.157
      -0.223
      -0.268
      -0.288
      -0.289
      -0.266
      -0.197
      -0.071
       0.088
       0.232
       0.315
       0.319
       0.262
       0.180
       0.102
       0.035
      -0.032
      -0.113
      -0.201
      -0.274
      -0.303
      -0.273
      -0.195
      -0.096
       0.013
       0.132
       0.254
       0.346
       0.370
       0.322
       0.242
       0.173
       0.134
       0.104
       0.057
      -0.012
      -0.078
      -0.108
      -0.102
      -0.093
      -0.113
      -0.160
      -0.190
      -0.153
      -0.045
       0.085
       0.162
       0.136
       0.023
      -0.114
      -0.211
      -0.241
      -0.210
      -0.130
      -0.018
       0.097
       0.175
       0.192
       0.159
       0.120
       0.118
       0.164
       0.219
       0.225
       0.156
       0.045
      -0.040
      -0.051
       0.002
       0.057
       0.044
      -0.070
      -0.249
      -0.409
      -0.479
      -0.449
      -0.364
      -0.277
      -0.204
      -0.118
       0.013
       0.189
       0.371
       0.507
       0.567
       0.554
       0.483
       0.362
       0.203
       0.036
      -0.094
      -0.159
      -0.159
      -0.115
      -0.061
      -0.030
      -0.053
      -0.132
      -0.239
      -0.334
      -0.394
      -0.424
      -0.443
      -0.451
      -0.417
      -0.295
      -0.068
       0.229
       0.519
       0.733
       0.844
       0.864
       0.831
       0.781
       0.721
       0.626
       0.461
       0.218
      -0.066
      -0.331
      -0.524
      -0.634
      -0.686
      -0.712
      -0.718
      -0.692
      -0.630
      -0.559
      -0.514
      -0.509
      -0.532
      -0.553
      -0.543
      -0.476
      -0.339
      -0.136
       0.117
       0.401
       0.690
       0.948
       1.132
       1.223
       1.236
       1.202
       1.153
       1.099
       1.027
       0.906
       0.705
       0.410
       0.037
      -0.385
      -0.822
      -1.245
      -1.632
      -1.950
      -2.152
      -2.178
      -2.001
      -1.654
      -1.222
      -0.788
      -0.391
      -0.016
       0.366
       0.761
       1.140
       1.463
       1.714
       1.902
       2.038
       2.109
       2.087
       1.952
       1.695
       1.316
       0.828
       0.267
      -0.316
      -0.868
      -1.357
      -1.764
      -2.084
      -2.304
      -2.396
      -2.327
      -2.087
      -1.706
      -1.244
      -0.762
      -0.294
       0.152
       0.583
       1.004
       1.402
       1.736
       1.964
       2.059
       2.019
       1.859
       1.598
       1.251
       0.829
       0.354
      -0.127
      -0.559
      -0.905
      -1.159
      -1.319
      -1.368
      -1.281
      -1.062
      -0.752
      -0.423
      -0.142
       0.052
       0.154
       0.185
       0.165
       0.103
       0.017
      -0.060
      -0.087
      -0.040
       0.089
       0.294
       0.544
       0.773
       0.911
       0.924
       0.837
       0.708
       0.573
       0.424
       0.225
      -0.053
      -0.385
      -0.701
      -0.927
      -1.038
      -1.067
      -1.062
      -1.047
      -1.010
      -0.914
      -0.726
      -0.440
      -0.089
       0.273
       0.593
       0.835
       0.984
       1.046
       1.033
       0.942
       0.764
       0.516
       0.271
       0.136
       0.176
       0.350
       0.538
       0.602
       0.466
       0.139
      -0.317
      -0.829
      -1.333
      -1.767
      -2.060
      -2.147
      -1.994
      -1.606
      -1.023
      -0.313
       0.436
       1.139
       1.726
       2.148
       2.369
       2.371
       2.161
       1.778
       1.288
       0.770
       0.298
      -0.090
      -0.402
      -0.680
      -0.951
      -1.202
      -1.395
      -1.502
      -1.530
      -1.516
      -1.494
      -1.465
      -1.403
      -1.286
      -1.118
      -0.909
      -0.652
      -0.317
       0.115
       0.614
       1.110
       1.523
       1.804
       1.955
       2.014
       2.022
       1.993
       1.910
       1.742
       1.466
       1.083
       0.622
       0.127
      -0.363
      -0.832
      -1.272
      -1.669
      -1.992
      -2.215
      -2.333
      -2.359
      -2.309
      -2.181
      -1.951
      -1.579
      -1.050
      -0.392
       0.345
       1.116
       1.885
       2.593
       3.148
       3.454
       3.447
       3.114
       2.488
       1.640
       0.670
      -0.307
      -1.186
      -1.889
      -2.384
      -2.666
      -2.742
      -2.619
      -2.320
      -1.900
      -1.434
      -0.981
      -0.554
      -0.139
       0.272
       0.658
       0.988
       1.252
       1.485
       1.730
       1.987
       2.181
       2.205
       1.994
       1.565
       1.002
       0.407
      -0.154
      -0.657
      -1.105
      -1.490
      -1.775
      -1.912
      -1.875
      -1.669
      -1.327
      -0.905
      -0.471
      -0.085
       0.217
       0.430
       0.561
       0.615
       0.606
       0.565
       0.533
       0.535
       0.578
       0.642
       0.699
       0.731
       0.736
       0.725
       0.695
       0.627
       0.496
       0.293
       0.034
      -0.254
      -0.539
      -0.805
      -1.044
      -1.254
      -1.420
      -1.520
      -1.525
      -1.412
      -1.177
      -0.854
      -0.498
      -0.150
       0.195
       0.565
       0.972
       1.391
       1.787
       2.142
       2.445
       2.663
       2.710
       2.476
       1.889
       0.993
      -0.059
      -1.074
      -1.915
      -2.538
      -2.949
      -3.138
      -3.064
      -2.693
      -2.049
      -1.241
      -0.424
       0.271
       0.782
       1.112
       1.282
       1.306
       1.193
       0.964
       0.671
       0.389
       0.193
       0.125
       0.172
       0.289
       0.431
       0.571
       0.694
       0.777
       0.788
       0.697
       0.493
       0.189
      -0.184
      -0.592
      -1.005
      -1.371
      -1.608
      -1.637
      -1.444
      -1.103
      -0.734
      -0.434
      -0.235
      -0.102
       0.035
       0.240
       0.534
       0.880
       1.211
       1.467
       1.618
       1.654
       1.568
       1.346
       0.975
       0.467
      -0.148
      -0.822
      -1.502
      -2.118
      -2.575
      -2.770
      -2.646
      -2.207
      -1.512
      -0.643
       0.309
       1.238
       2.020
       2.540
       2.733
       2.622
       2.301
       1.867
       1.369
       0.812
       0.203
      -0.418
      -0.975
      -1.395
      -1.638
      -1.717
      -1.675
      -1.537
      -1.290
      -0.903
      -0.372
       0.255
       0.899
       1.480
       1.933
       2.205
       2.258
       2.064
       1.614
       0.931
       0.072
      -0.875
      -1.807
      -2.624
      -3.230
      -3.547
      -3.523
      -3.149
      -2.459
      -1.523
      -0.427
       0.729
       1.840
       2.786
       3.461
       3.806
       3.830
       3.585
       3.117
       2.434
       1.538
       0.472
      -0.640
      -1.627
      -2.340
      -2.717
      -2.785
      -2.616
      -2.270
      -1.796
      -1.246
      -0.698
      -0.238
       0.064
       0.182
       0.144
       0.019
      -0.120
      -0.231
      -0.309
      -0.354
      -0.334
      -0.184
       0.160
       0.700
       1.349
       1.957
       2.380
       2.551
       2.481
       2.226
       1.831
       1.312
       0.673
      -0.060
      -0.823
      -1.529
      -2.108
      -2.524
      -2.763
      -2.810
      -2.657
      -2.328
      -1.884
      -1.389
      -0.869
      -0.313
       0.296
       0.932
       1.529
       2.014
       2.363
       2.602
       2.761
       2.817
       2.689
       2.297
       1.623
       0.727
      -0.271
      -1.236
      -2.057
      -2.667
      -3.053
      -3.226
      -3.196
      -2.956
      -2.481
      -1.764
      -0.845
       0.179
       1.182
       2.050
       2.705
       3.106
       3.236
       3.106
       2.748
       2.208
       1.532
       0.771
      -0.012
      -0.747
      -1.376
      -1.881
      -2.279
      -2.587
      -2.776
      -2.768
      -2.499
      -1.983
      -1.315
      -0.613
       0.047
       0.642
       1.176
       1.642
       2.012
       2.248
       2.338
       2.300
       2.161
       1.916
       1.532
       0.984
       0.299
      -0.445
      -1.145
      -1.708
      -2.072
      -2.212
      -2.141
      -1.894
      -1.525
      -1.093
      -0.651
      -0.232
       0.148
       0.475
       0.724
       0.874
       0.916
       0.859
       0.727
       0.551
       0.348
       0.133
      -0.071
      -0.213
      -0.243
      -0.151
       0.030
       0.253
       0.483
       0.700
       0.873
       0.972
       0.975
       0.883
       0.716
       0.493
       0.233
      -0.041
      -0.301
      -0.515
      -0.679
      -0.821
      -0.981
      -1.163
      -1.321
      -1.377
      -1.275
      -1.018
      -0.657
      -0.263
       0.115
       0.462
       0.788
       1.090
       1.340
       1.490
       1.503
       1.371
       1.120
       0.789
       0.419
       0.048
      -0.284
      -0.541
      -0.715
      -0.831
      -0.919
      -0.983
      -0.999
      -0.941
      -0.802
      -0.595
      -0.336
      -0.039
       0.289
       0.633
       0.952
       1.180
       1.262
       1.185
       0.988
       0.726
       0.442
       0.152
      -0.147
      -0.465
      -0.801
      -1.130
      -1.401
      -1.555
      -1.542
      -1.343
      -0.987
      -0.555
      -0.139
       0.205
       0.480
       0.716
       0.932
       1.119
       1.246
       1.285
       1.222
       1.063
       0.828
       0.541
       0.224
      -0.102
      -0.415
      -0.698
      -0.917
      -1.026
      -0.984
      -0.796
      -0.518
      -0.228
       0.013
       0.178
       0.270
       0.314
       0.344
       0.381
       0.423
       0.437
       0.378
       0.218
      -0.028
      -0.302
      -0.543
      -0.730
      -0.884
      -1.024
      -1.127
      -1.133
      -0.972
      -0.605
      -0.057
       0.586
       1.207
       1.712
       2.065
       2.264
       2.299
       2.135
       1.743
       1.141
       0.410
      -0.330
      -0.979
      -1.497
      -1.888
      -2.159
      -2.301
      -2.301
      -2.158
      -1.886
      -1.503
      -1.033
      -0.503
       0.058
       0.617
       1.132
       1.560
       1.881
       2.095
       2.214
       2.229
       2.105
       1.808
       1.338
       0.755
       0.163
      -0.336
      -0.695
      -0.930
      -1.094
      -1.234
      -1.369
      -1.494
      -1.574
      -1.565
      -1.437
      -1.197
      -0.883
      -0.551
      -0.244
       0.021
       0.249
       0.451
       0.634
       0.794
       0.921
       0.996
       0.994
       0.906
       0.767
       0.634
       0.546
       0.499
       0.468
       0.432
       0.384
       0.317
       0.212
       0.049
      -0.177
      -0.449
      -0.732
      -0.990
      -1.191
      -1.311
      -1.328
      -1.241
      -1.074
      -0.855
      -0.590
      -0.268
       0.107
       0.491
       0.824
       1.066
       1.210
       1.275
       1.283
       1.257
       1.208
       1.137
       1.021
       0.825
       0.530
       0.157
      -0.232
      -0.580
      -0.868
      -1.114
      -1.325
      -1.479
      -1.537
      -1.467
      -1.256
      -0.917
      -0.482
      -0.004
       0.465
       0.875
       1.184
       1.357
       1.382
       1.277
       1.082
       0.839
       0.577
       0.304
       0.020
      -0.259
      -0.498
      -0.666
      -0.753
      -0.774
      -0.752
      -0.700
      -0.627
      -0.536
      -0.429
      -0.317
      -0.226
      -0.174
      -0.149
      -0.102
       0.010
       0.188
       0.389
       0.555
       0.653
       0.692
       0.701
       0.697
       0.661
       0.560
       0.391
       0.197
       0.037
      -0.054
      -0.087
      -0.096
      -0.116
      -0.162
      -0.234
      -0.321
      -0.414
      -0.500
      -0.565
      -0.604
      -0.620
      -0.612
      -0.566
      -0.464
      -0.317
      -0.156
      -0.013
       0.110
       0.235
       0.382
       0.550
       0.716
       0.851
       0.934
       0.956
       0.916
       0.805
       0.622
       0.377
       0.098
      -0.186
      -0.451
      -0.675
      -0.838
      -0.934
      -0.969
      -0.946
      -0.858
      -0.691
      -0.444
      -0.130
       0.222
       0.561
       0.829
       0.983
       1.011
       0.931
       0.766
       0.533
       0.233
      -0.135
      -0.548
