Origin Time       04/04/2011 11:31:40
Lat.              29.6 N	
Long.             80.8 E	
Depth (Km)         10.0
Magnitude         5.7
 Region           NEPAL-INDIA-BORDER-REGION                                        
 Above details taken from IMD 
   
Station Code      PTH
Station Lat.       29.579
Station Long.      80.207
Station Height(m) 1538.0
Site Class        A   Vs30 between 700 m/sec to 1400 m/sec * 
Record Time       04.04.2011 11:31:21.644
Sampling Rate     200. Hz
 Record Duration  114.120 Sec.
 Direction         Vert. (Up positive)
Max. Acceleration     37.065 cm/sec**2
     
  * For reference see Site Classification link of website 
     
 Base Line Corrected and Low Pass Filtered (Cut Off at 35 Hz) Time History
 Acceleration data in cm/sec**2
    
[...]
       0.969
       1.656
       1.371
       0.556
      -0.055
      -0.086
       0.214
       0.306
      -0.086
      -0.703
      -1.009
      -0.703
      -0.018
       0.450
       0.181
      -0.911
      -2.419
      -3.654
      -4.037
      -3.434
      -2.230
      -1.011
      -0.100
       0.629
       1.462
       2.376
       2.959
       2.835
       2.157
       1.614
       1.861
       2.892
       3.954
       4.140
       3.150
       1.547
       0.304
       0.044
       0.610
       1.259
       1.254
       0.359
      -1.099
      -2.539
      -3.529
      -3.972
      -4.032
      -3.934
      -3.801
      -3.592
      -3.190
      -2.552
      -1.793
      -1.078
      -0.425
       0.343
       1.389
       2.589
       3.511
       3.732
       3.221
       2.390
       1.744
       1.442
       1.258
       0.955
       0.642
       0.664
       1.155
       1.779
       2.009
       1.633
       0.947
       0.420
       0.221
       0.110
      -0.248
      -0.885
      -1.504
      -1.818
      -1.881
      -2.046
      -2.633
      -3.616
      -4.615
      -5.135
      -4.854
      -3.791
      -2.273
      -0.746
       0.469
       1.342
       2.092
       2.942
       3.856
       4.500
       4.500
       3.796
       2.777
       2.055
       2.030
       2.577
       3.105
       2.983
       1.981
       0.440
      -0.926
      -1.451
      -0.946
       0.064
       0.554
      -0.356
      -2.684
      -5.421
      -7.147
      -7.019
      -5.349
      -3.289
      -1.905
      -1.409
      -1.143
      -0.259
       1.489
       3.439
       4.451
       3.768
       1.674
      -0.600
      -1.706
      -1.130
       0.467
       1.805
       2.001
       1.227
       0.485
       0.721
       2.044
       3.648
       4.462
       3.964
       2.511
       0.939
      -0.204
      -1.095
      -2.334
      -4.183
      -6.084
      -6.984
      -6.192
      -4.010
      -1.530
       0.198
       0.906
       1.111
       1.469
       2.120
       2.619
       2.434
       1.471
       0.150
      -0.951
      -1.511
      -1.571
      -1.336
      -0.887
      -0.074
       1.299
       3.135
       4.894
       5.851
       5.604
       4.352
       2.681
       1.075
      -0.352
      -1.668
      -2.749
      -3.196
      -2.714
      -1.579
      -0.631
      -0.646
      -1.650
      -2.857
      -3.341
      -2.851
      -2.022
      -1.779
      -2.466
      -3.461
      -3.641
      -2.310
       0.170
       2.587
       3.780
       3.520
       2.646
       2.332
       3.110
       4.455
       5.281
       4.889
       3.525
       2.096
       1.364
       1.361
       1.494
       1.124
       0.071
      -1.350
      -2.689
      -3.725
      -4.525
      -5.218
      -5.763
      -5.931
      -5.478
      -4.372
      -2.857
      -1.310
      -0.001
       1.020
       1.813
       2.394
       2.684
       2.614
       2.254
       1.823
       1.567
       1.595
       1.785
       1.835
       1.444
       0.560
      -0.512
      -1.293
      -1.509
      -1.312
      -1.104
      -1.111
      -1.140
      -0.757
       0.271
       1.672
       2.800
       3.081
       2.393
       1.102
      -0.219
      -1.123
      -1.477
      -1.450
      -1.373
      -1.488
      -1.739
      -1.780
      -1.313
      -0.465
       0.205
       0.164
      -0.562
      -1.335
      -1.417
      -0.617
       0.535
       1.244
       1.102
       0.368
      -0.328
      -0.518
      -0.203
       0.271
       0.573
       0.647
       0.668
       0.793
       0.978
       1.032
       0.820
       0.406
       0.021
      -0.099
       0.126
       0.539
       0.823
       0.734
       0.296
      -0.204
      -0.420
      -0.174
       0.428
       1.038
       1.253
       0.872
       0.002
      -1.078
      -2.177
      -3.264
      -4.234
      -4.689
      -4.111
      -2.398
      -0.183
       1.500
       2.024
       1.667
       1.289
       1.464
       1.949
       1.994
       1.169
      -0.129
      -0.960
      -0.659
       0.563
       1.772
       2.119
       1.572
       0.921
       1.011
       1.922
       2.831
       2.712
       1.277
      -0.689
      -1.951
      -1.923
      -1.230
      -1.132
      -2.272
      -3.922
      -4.515
      -3.016
       0.098
       3.140
       4.500
       3.789
       1.912
       0.146
      -0.886
      -1.486
      -2.311
      -3.584
      -4.792
      -5.091
      -4.018
      -1.902
       0.377
       2.023
       2.818
       3.096
       3.304
       3.578
       3.712
       3.478
       2.881
       2.072
       1.089
      -0.133
      -1.430
      -2.202
      -1.760
      -0.025
       2.119
       3.341
       2.900
       1.257
      -0.355
      -1.046
      -0.972
      -1.017
      -1.811
      -3.088
      -3.959
      -3.763
      -2.630
      -1.283
      -0.378
      -0.040
       0.043
       0.205
       0.487
       0.655
       0.424
      -0.315
      -1.433
      -2.631
      -3.584
      -4.062
      -3.946
      -3.156
      -1.620
       0.573
       2.918
       4.504
       4.505
       2.850
       0.426
      -1.469
      -1.966
      -1.092
       0.429
       1.774
       2.516
       2.713
       2.644
       2.483
       2.232
       1.914
       1.712
       1.810
       2.101
       2.166
       1.619
       0.500
      -0.698
      -1.426
      -1.563
      -1.516
      -1.825
      -2.674
      -3.781
      -4.700
      -5.154
      -5.080
      -4.476
      -3.362
      -1.894
      -0.402
       0.810
       1.689
       2.399
       3.005
       3.195
       2.427
       0.490
      -2.027
      -3.917
      -4.166
      -2.713
      -0.460
       1.466
       2.542
       3.064
       3.640
       4.462
       5.005
       4.410
       2.283
      -0.765
      -3.322
      -4.050
      -2.600
       0.111
       2.485
       3.292
       2.462
       1.013
       0.170
       0.377
       1.010
       1.004
      -0.146
      -1.888
      -3.067
      -2.930
      -1.812
      -0.876
      -1.134
      -2.593
      -4.245
      -4.859
      -3.867
      -1.661
       0.800
       2.625
       3.417
       3.315
       2.750
       2.115
       1.586
       1.137
       0.698
       0.289
       0.017
      -0.055
       0.000
      -0.011
      -0.260
      -0.722
      -1.089
      -0.921
       0.002
       1.369
       2.412
       2.394
       1.149
      -0.757
      -2.387
      -3.055
      -2.735
      -1.971
      -1.394
      -1.258
      -1.359
      -1.305
      -0.870
      -0.142
       0.597
       1.106
       1.378
       1.634
       2.095
       2.683
       2.970
       2.486
       1.195
      -0.345
      -1.325
      -1.313
      -0.617
      -0.058
      -0.278
      -1.201
      -2.129
      -2.393
      -1.938
      -1.314
      -1.087
      -1.280
      -1.390
      -0.939
       0.016
       0.888
       1.042
       0.317
      -0.839
      -1.701
      -1.762
      -1.003
       0.206
       1.415
       2.341
       2.901
       3.100
       2.953
       2.507
       1.895
       1.286
       0.774
       0.348
      -0.029
      -0.348
      -0.544
      -0.535
      -0.275
       0.207
       0.775
       1.217
       1.329
       1.039
       0.499
       0.029
      -0.122
      -0.008
       0.012
      -0.420
      -1.312
      -2.242
      -2.637
      -2.196
      -1.131
      -0.027
       0.608
       0.725
       0.727
       1.062
       1.804
       2.546
       2.712
       1.997
       0.610
      -0.902
      -2.072
      -2.842
      -3.483
      -4.203
      -4.810
      -4.773
      -3.652
      -1.526
       0.935
       2.861
       3.754
       3.801
       3.657
       3.909
       4.608
       5.217
       4.978
       3.479
       1.034
      -1.428
      -2.947
      -3.161
      -2.469
      -1.569
      -0.813
       0.032
       1.380
       3.213
       4.869
       5.503
       4.818
       3.415
       2.417
       2.625
       3.894
       5.253
       5.673
       4.835
       3.285
       1.900
       1.153
       0.772
       0.004
      -1.765
      -4.542
      -7.742
     -10.626
     -12.761
     -14.140
     -14.945
     -15.216
     -14.720
     -13.111
     -10.240
      -6.354
      -2.004
       2.215
       5.881
       8.796
      10.929
      12.357
      13.260
      13.918
      14.616
      15.479
      16.328
      16.716
      16.184
      14.591
      12.247
       9.705
       7.352
       5.159
       2.816
       0.121
      -2.774
      -5.483
      -7.728
      -9.510
     -10.937
     -11.963
     -12.377
     -12.062
     -11.193
     -10.138
      -9.211
      -8.513
      -7.937
      -7.215
      -5.967
      -3.806
      -0.539
       3.607
       7.919
      11.404
      13.220
      13.106
      11.483
       9.167
       6.870
       4.868
       3.017
       1.029
      -1.227
      -3.600
      -5.764
      -7.456
      -8.658
      -9.568
     -10.373
     -11.009
     -11.109
     -10.185
      -7.938
      -4.491
      -0.421
       3.453
       6.393
       7.993
       8.272
       7.606
       6.509
       5.331
       4.065
       2.452
       0.334
      -2.077
      -4.314
      -6.052
      -7.400
      -8.763
     -10.372
     -11.932
     -12.725
     -12.073
      -9.766
      -6.162
      -1.936
       2.260
       5.961
       8.871
      10.805
      11.675
      11.519
      10.534
       9.098
       7.754
       7.055
       7.268
       8.097
       8.724
       8.284
       6.490
       3.913
       1.585
       0.217
      -0.336
      -0.915
      -2.347
      -4.757
      -7.456
      -9.518
     -10.564
     -11.027
     -11.647
     -12.689
     -13.630
     -13.622
     -12.224
      -9.739
      -6.892
      -4.237
      -1.829
       0.615
       3.303
       6.093
       8.539
      10.138
      10.583
       9.875
       8.285
       6.175
       3.791
       1.190
      -1.592
      -4.245
      -6.092
      -6.421
      -5.039
      -2.525
       0.105
       2.053
       3.145
       3.652
       3.772
       3.326
       1.935
      -0.528
      -3.704
      -6.988
      -9.968
     -12.547
     -14.642
     -15.840
     -15.387
     -12.532
      -6.972
       0.844
       9.671
      17.748
      23.434
      25.952
      25.701
      23.836
      21.459
      19.055
      16.512
      13.488
       9.771
       5.390
       0.502
      -4.804
     -10.594
     -16.958
     -23.686
     -30.013
     -34.747
     -36.769
     -35.555
     -31.346
     -24.918
     -17.194
      -9.021
      -1.185
       5.517
      10.389
      13.092
      13.755
      12.836
      10.906
       8.605
       6.713
       6.006
       6.801
       8.556
      10.041
      10.115
       8.545
       6.138
       4.009
       2.660
       1.757
       0.757
      -0.346
      -0.960
      -0.483
       1.094
       3.101
       4.598
       4.859
       3.588
       0.904
      -2.673
      -6.184
      -8.416
      -8.430
      -6.154
      -2.518
       1.102
       3.813
       5.732
       7.637
      10.017
      12.420
      13.684
      12.813
       9.695
       5.146
       0.372
      -3.649
      -6.487
      -8.202
      -9.056
      -9.265
      -8.955
      -8.260
      -7.364
      -6.405
      -5.327
      -3.858
      -1.627
       1.661
       6.054
      11.211
      16.309
      20.138
      21.531
      19.977
      15.963
      10.677
       5.286
       0.392
      -3.935
      -7.750
     -10.960
     -13.442
     -15.322
     -16.969
     -18.548
     -19.541
     -18.848
     -15.571
      -9.879
      -3.224
       2.356
       5.406
       5.865
       4.972
       4.397
       5.236
       7.511
      10.408
      12.979
      14.771
      15.963
      16.979
      17.965
      18.584
      18.239
      16.514
      13.482
       9.690
       5.839
       2.397
      -0.557
      -3.159
      -5.557
      -7.981
     -10.940
     -15.093
     -20.682
     -27.022
     -32.610
     -35.807
     -35.569
     -31.815
     -25.317
     -17.244
      -8.663
      -0.306
       7.346
      13.836
      18.667
      21.494
      22.393
      21.898
      20.687
      19.185
      17.463
      15.500
      13.464
      11.653
      10.167
       8.731
       6.888
       4.377
       1.357
      -1.711
      -4.387
      -6.525
      -8.295
     -10.014
     -11.977
     -14.366
     -17.101
     -19.630
     -20.968
     -20.246
     -17.484
     -13.811
     -10.711
      -8.835
      -7.473
      -5.274
      -1.527
       3.237
       7.870
      11.753
      15.236
      18.914
      22.584
      25.066
      25.174
      22.751
      18.696
      14.188
       9.963
       5.978
       1.519
      -4.206
     -11.312
     -18.873
     -25.296
     -29.126
     -29.797
     -27.826
     -24.365
     -20.465
     -16.575
     -12.514
      -7.842
      -2.344
       3.715
       9.644
      14.604
      17.973
      19.542
      19.417
      17.811
      15.024
      11.640
       8.589
       6.853
       6.901
       8.247
       9.544
       9.247
       6.477
       1.489
      -4.576
     -10.438
     -15.290
     -18.892
     -21.244
     -22.259
     -21.743
     -19.694
     -16.619
     -13.496
     -11.358
     -10.717
     -11.183
     -11.529
     -10.220
      -6.156
       0.768
       9.590
      18.715
      26.609
      32.350
      35.755
      37.065
      36.507
      34.058
      29.545
      22.965
      14.814
       6.166
      -1.590
      -7.301
     -10.547
     -11.772
     -12.000
     -12.353
     -13.601
     -15.834
     -18.394
     -20.183
     -20.301
     -18.580
     -15.651
     -12.471
      -9.674
      -7.258
      -4.784
      -1.874
       1.426
       4.678
       7.365
       9.164
       9.990
       9.891
       8.994
       7.551
       6.022
       5.044
       5.186
       6.551
       8.518
       9.923
       9.668
       7.343
       3.413
      -1.112
      -5.183
      -8.092
      -9.582
      -9.783
      -9.057
      -7.827
      -6.448
      -5.168
      -4.190
      -3.711
      -3.870
      -4.653
      -5.848
      -7.079
      -7.870
      -7.700
      -6.090
      -2.784
       2.009
       7.534
      12.689
      16.452
      18.293
      18.318
      17.055
      15.094
      12.792
      10.228
       7.324
       4.019
       0.382
      -3.341
      -6.721
      -9.261
     -10.676
     -11.158
     -11.374
     -12.074
     -13.563
     -15.411
     -16.658
     -16.357
     -14.087
     -10.117
      -5.177
      -0.073
       4.568
       8.345
      11.026
      12.525
      12.858
      12.074
      10.239
       7.591
       4.718
       2.493
       1.650
       2.257
       3.525
       4.200
       3.305
       0.669
      -3.052
      -6.788
      -9.523
     -10.587
      -9.726
      -7.071
      -3.091
       1.483
       5.807
       9.166
      11.168
      11.782
      11.223
       9.793
       7.782
       5.443
       3.020
       0.784
      -0.964
      -1.949
      -2.076
      -1.595
      -1.155
      -1.603
      -3.591
      -7.162
     -11.546
     -15.347
     -17.104
     -16.022
     -12.476
      -7.937
      -4.284
      -2.801
      -3.423
      -4.778
      -5.074
      -3.282
       0.256
       4.232
       7.417
       9.489
      11.061
      12.959
      15.394
      17.668
      18.641
      17.578
      14.703
      11.056
       7.741
       5.198
       3.079
       0.793
      -1.844
      -4.463
      -6.577
      -8.096
      -9.392
     -10.909
     -12.715
     -14.409
     -15.407
     -15.337
     -14.245
     -12.520
     -10.634
      -8.901
      -7.356
      -5.808
      -4.022
      -1.875
       0.642
       3.546
       6.907
      10.652
      14.284
      16.872
      17.530
      16.082
      13.314
      10.510
       8.591
       7.561
       6.709
       5.314
       3.224
       0.835
      -1.376
      -3.272
      -5.076
      -7.049
      -9.162
     -11.005
     -11.989
     -11.705
     -10.214
      -8.076
      -6.091
      -4.886
      -4.615
      -4.954
      -5.335
      -5.205
      -4.138
      -1.808
       1.946
       6.884
      12.144
      16.378
      18.309
      17.418
      14.236
       9.972
       5.717
       1.866
      -1.778
      -5.374
      -8.529
     -10.437
     -10.566
      -9.256
      -7.653
      -7.002
      -7.824
      -9.570
     -10.957
     -10.732
      -8.406
      -4.498
      -0.159
       3.587
       6.432
       8.744
      10.968
      13.018
      14.230
      13.943
      12.203
       9.935
       8.370
       8.189
       9.106
      10.171
      10.417
       9.318
       6.822
       3.158
      -1.323
      -6.175
     -10.837
     -14.697
     -17.263
     -18.321
     -17.955
     -16.373
     -13.740
     -10.202
      -6.052
      -1.820
       1.909
       4.821
       7.031
       8.884
      10.557
      11.841
      12.254
      11.403
       9.291
       6.373
       3.335
       0.758
      -1.092
      -2.238
      -2.831
      -3.015
      -2.896
      -2.572
      -2.157
      -1.783
      -1.594
      -1.708
      -2.151
      -2.867
      -3.809
      -4.990
      -6.434
      -8.065
      -9.670
     -10.946
     -11.595
     -11.408
     -10.298
      -8.269
      -5.388
      -1.818
       2.085
       5.724
       8.402
       9.649
       9.532
       8.712
       8.161
       8.684
      10.494
      13.089
      15.502
      16.789
      16.460
      14.630
      11.804
       8.460
       4.719
       0.376
      -4.705
     -10.150
     -14.996
     -18.130
     -18.968
     -17.889
     -15.995
     -14.287
     -12.914
     -11.171
      -8.300
      -4.373
      -0.426
       2.300
       3.364
       3.452
       3.723
       4.730
       5.911
       6.114
       4.711
       2.312
       0.443
       0.433
       2.369
       4.969
       6.471
       5.858
       3.479
       0.662
      -1.315
      -2.079
      -2.205
      -2.514
      -3.246
      -3.823
      -3.377
      -1.549
       1.171
       3.824
       5.725
       6.907
       7.908
       9.145
      10.455
      11.193
      10.698
       8.726
       5.524
       1.616
      -2.491
      -6.470
     -10.164
     -13.460
     -16.181
     -18.041
     -18.741
     -18.155
     -16.454
     -14.000
     -11.095
      -7.869
      -4.432
      -1.098
       1.680
       3.697
       5.289
       7.086
       9.341
      11.466
      12.363
      11.366
       8.966
       6.563
       5.398
       5.622
       6.333
       6.457
       5.642
       4.392
       3.442
       3.019
       2.630
       1.533
      -0.589
      -3.308
      -5.736
      -7.137
      -7.388
      -7.001
      -6.705
      -6.925
      -7.531
      -8.035
      -8.056
      -7.662
      -7.255
      -7.115
      -7.063
      -6.557
      -5.116
      -2.691
       0.282
       3.109
       5.208
       6.380
       6.826
       6.920
       6.988
       7.238
       7.772
       8.533
       9.191
       9.173
       7.943
       5.385
       1.989
      -1.336
      -3.704
      -4.650
      -4.296
      -3.256
      -2.370
      -2.357
      -3.519
