Origin Time       04/04/2011 11:31:40
Lat.              29.6 N	
Long.             80.8 E	
Depth (Km)         10.0
Magnitude         5.7
 Region           NEPAL-INDIA-BORDER-REGION                                        
 Above details taken from IMD 
     
Station Code      PTH
Station Lat.       29.579  N
Station Long.      80.207  E
Station Height(m) 1538.0
Site Class        A   Vs30 between 700 m/sec to 1400 m/sec * 
Record Time       04.04.2011 11:31:21.644
Sampling Rate     200. Hz
 Record Duration  114.120 Sec.
 Direction         E-W (E positive)
Max. Acceleration     60.489 cm/sec**2
     
  * For reference see Site Classification link of website 
     
 Base Line Corrected and Low Pass Filtered (Cut Off at 35 Hz) Time History
 Acceleration data in cm/sec**2
    
[...]
      -2.445
      -1.161
       0.191
       1.276
       1.817
       1.754
       1.305
       0.857
       0.730
       0.991
       1.440
       1.767
       1.743
       1.313
       0.568
      -0.363
      -1.377
      -2.397
      -3.299
      -3.870
      -3.874
      -3.190
      -1.912
      -0.305
       1.331
       2.784
       3.958
       4.812
       5.272
       5.203
       4.480
       3.117
       1.360
      -0.359
      -1.610
      -2.178
      -2.149
      -1.818
      -1.488
      -1.305
      -1.248
      -1.218
      -1.144
      -1.019
      -0.863
      -0.649
      -0.277
       0.346
       1.135
       1.761
       1.810
       1.117
      -0.026
      -1.016
      -1.379
      -1.111
      -0.643
      -0.449
      -0.678
      -1.103
      -1.395
      -1.421
      -1.309
      -1.241
      -1.248
      -1.174
      -0.816
      -0.068
       1.023
       2.291
       3.493
       4.364
       4.684
       4.353
       3.416
       2.049
       0.502
      -0.935
      -1.993
      -2.523
      -2.638
      -2.730
      -3.289
      -4.536
      -6.168
      -7.451
      -7.685
      -6.690
      -4.902
      -2.998
      -1.378
       0.046
       1.591
       3.366
       5.069
       6.190
       6.415
       5.865
       4.984
       4.216
       3.754
       3.539
       3.410
       3.212
       2.812
       2.091
       0.992
      -0.400
      -1.841
      -3.014
      -3.699
      -3.894
      -3.825
      -3.796
      -3.984
      -4.322
      -4.541
      -4.374
      -3.748
      -2.815
      -1.838
      -1.028
      -0.477
      -0.165
       0.021
       0.284
       0.869
       1.908
       3.219
       4.262
       4.423
       3.476
       1.854
       0.439
       0.008
       0.763
       2.276
       3.816
       4.755
       4.799
       3.999
       2.673
       1.264
       0.163
      -0.508
      -0.962
      -1.570
      -2.527
      -3.664
      -4.591
      -5.037
      -5.063
      -4.952
      -4.914
      -4.888
      -4.579
      -3.679
      -2.098
      -0.080
       1.853
       3.129
       3.425
       2.880
       2.036
       1.511
       1.614
       2.188
       2.793
       3.087
       3.089
       3.108
       3.396
       3.826
       3.905
       3.164
       1.604
      -0.226
      -1.620
      -2.269
      -2.465
      -2.786
      -3.538
      -4.455
      -4.914
      -4.458
      -3.162
      -1.546
      -0.158
       0.795
       1.455
       2.016
       2.431
       2.395
       1.624
       0.181
      -1.462
      -2.684
      -3.094
      -2.736
      -1.963
      -1.113
      -0.249
       0.835
       2.360
       4.285
       6.239
       7.684
       8.162
       7.429
       5.486
       2.571
      -0.820
      -3.984
      -6.201
      -7.039
      -6.579
      -5.405
      -4.289
      -3.764
      -3.843
      -4.085
      -3.945
      -3.161
      -1.887
      -0.510
       0.666
       1.613
       2.481
       3.360
       4.140
       4.633
       4.796
       4.790
       4.775
       4.659
       4.084
       2.743
       0.753
      -1.271
      -2.579
      -2.814
      -2.283
      -1.723
      -1.759
      -2.464
      -3.342
      -3.735
      -3.325
      -2.375
      -1.522
      -1.279
      -1.638
      -2.093
      -2.022
      -1.136
       0.364
       1.963
       3.160
       3.687
       3.532
       2.831
       1.753
       0.463
      -0.833
      -1.872
      -2.407
      -2.342
      -1.780
      -0.902
       0.205
       1.585
       3.240
       4.934
       6.177
       6.454
       5.541
       3.680
       1.489
      -0.343
      -1.390
      -1.678
      -1.619
      -1.740
      -2.364
      -3.420
      -4.514
      -5.196
      -5.244
      -4.745
      -3.964
      -3.125
      -2.314
      -1.568
      -0.999
      -0.781
      -0.949
      -1.252
      -1.241
      -0.569
       0.750
       2.353
       3.763
       4.660
       4.993
       4.893
       4.504
       3.877
       3.007
       1.977
       1.027
       0.471
       0.468
       0.847
       1.153
       0.901
      -0.120
      -1.691
      -3.251
      -4.190
      -4.170
      -3.310
      -2.088
      -1.028
      -0.396
      -0.123
       0.026
       0.198
       0.331
       0.234
      -0.211
      -0.913
      -1.607
      -2.029
      -2.060
      -1.722
      -1.080
      -0.185
       0.888
       1.989
       2.921
       3.542
       3.832
       3.883
       3.789
       3.541
       3.002
       2.018
       0.602
      -0.969
      -2.247
      -2.873
      -2.797
      -2.256
      -1.541
      -0.778
       0.050
       0.888
       1.446
       1.303
       0.267
      -1.343
      -2.793
      -3.398
      -2.991
      -1.970
      -0.895
      -0.015
       0.848
       1.994
       3.440
       4.796
       5.515
       5.289
       4.237
       2.732
       1.056
      -0.775
      -2.798
      -4.746
      -5.966
      -5.829
      -4.317
      -2.204
      -0.589
      -0.119
      -0.557
      -1.060
      -0.901
      -0.018
       1.012
       1.466
       0.999
      -0.180
      -1.506
      -2.394
      -2.486
      -1.749
      -0.466
       0.873
       1.796
       2.111
       2.029
       2.001
       2.355
       3.005
       3.460
       3.151
       1.852
      -0.105
      -1.963
      -2.949
      -2.712
      -1.545
      -0.233
       0.421
       0.099
      -0.856
      -1.740
      -2.026
      -1.693
      -1.120
      -0.710
      -0.637
      -0.857
      -1.251
      -1.649
      -1.757
      -1.207
       0.175
       2.100
       3.862
       4.758
       4.557
       3.627
       2.605
       1.931
       1.620
       1.417
       1.125
       0.796
       0.632
       0.748
       1.016
       1.147
       0.892
       0.182
      -0.895
      -2.182
      -3.474
      -4.485
      -4.904
      -4.553
      -3.517
      -2.107
      -0.687
       0.485
       1.278
       1.644
       1.575
       1.127
       0.471
      -0.115
      -0.346
      -0.062
       0.695
       1.712
       2.669
       3.223
       3.108
       2.272
       0.969
      -0.321
      -1.147
      -1.327
      -1.016
      -0.551
      -0.210
      -0.051
       0.117
       0.611
       1.672
       3.238
       4.840
       5.749
       5.371
       3.648
       1.138
      -1.329
      -3.168
      -4.310
      -5.012
      -5.411
      -5.288
      -4.268
      -2.294
       0.086
       1.946
       2.580
       1.979
       0.789
      -0.203
      -0.613
      -0.596
      -0.550
      -0.700
      -0.922
      -0.906
      -0.458
       0.333
       1.160
       1.722
       1.903
       1.791
       1.555
       1.257
       0.771
      -0.104
      -1.404
      -2.820
      -3.784
      -3.792
      -2.747
      -1.048
       0.647
       1.811
       2.327
       2.470
       2.628
       2.976
       3.338
       3.344
       2.711
       1.428
      -0.282
      -2.116
      -3.778
      -4.981
      -5.462
      -5.079
      -3.904
      -2.195
      -0.279
       1.558
       3.099
       4.193
       4.781
       4.930
       4.782
       4.427
       3.786
       2.648
       0.899
      -1.258
      -3.313
      -4.738
      -5.327
      -5.278
      -4.959
      -4.572
      -4.038
      -3.189
      -2.066
      -1.011
      -0.439
      -0.485
      -0.873
      -1.114
      -0.857
      -0.085
       0.979
       2.104
       3.213
       4.343
       5.485
       6.462
       6.972
       6.766
       5.840
       4.455
       2.996
       1.771
       0.885
       0.215
      -0.511
      -1.567
      -3.057
      -4.813
      -6.421
      -7.399
      -7.436
      -6.573
      -5.209
      -3.924
      -3.220
      -3.310
      -4.039
      -4.962
      -5.542
      -5.379
      -4.363
      -2.702
      -0.806
       0.911
       2.214
       3.140
       3.920
       4.797
       5.850
       6.970
       7.979
       8.783
       9.403
       9.872
      10.096
       9.823
       8.790
       6.932
       4.471
       1.785
      -0.833
      -3.302
      -5.660
      -7.840
      -9.581
     -10.577
     -10.751
     -10.381
      -9.953
      -9.837
     -10.054
     -10.277
     -10.053
      -9.081
      -7.377
      -5.232
      -3.013
      -0.950
       0.936
       2.724
       4.432
       5.955
       7.172
       8.091
       8.872
       9.683
      10.526
      11.179
      11.317
      10.721
       9.428
       7.731
       6.031
       4.656
       3.739
       3.224
       2.940
       2.689
       2.300
       1.637
       0.553
      -1.133
      -3.538
      -6.523
      -9.565
     -11.912
     -12.995
     -12.823
     -11.996
     -11.260
     -10.929
     -10.651
      -9.708
      -7.588
      -4.340
      -0.486
       3.365
       6.833
       9.773
      12.077
      13.536
      13.949
      13.365
      12.184
      10.967
      10.092
       9.561
       9.112
       8.449
       7.351
       5.592
       2.908
      -0.860
      -5.536
     -10.548
     -15.145
     -18.741
     -21.137
     -22.481
     -23.035
     -22.961
     -22.247
     -20.801
     -18.588
     -15.712
     -12.394
      -8.873
      -5.306
      -1.729
       1.883
       5.527
       9.122
      12.527
      15.577
      18.115
      19.987
      21.071
      21.329
      20.860
      19.895
      18.712
      17.515
      16.369
      15.215
      13.915
      12.265
       9.984
       6.784
       2.582
      -2.289
      -7.104
     -11.078
     -13.789
     -15.357
     -16.248
     -16.876
     -17.316
     -17.320
     -16.567
     -14.915
     -12.503
      -9.658
      -6.727
      -3.946
      -1.376
       1.060
       3.442
       5.699
       7.542
       8.555
       8.411
       7.078
       4.865
       2.303
      -0.085
      -1.989
      -3.415
      -4.603
      -5.812
      -7.099
      -8.289
      -9.138
      -9.545
      -9.563
      -9.196
      -8.204
      -6.135
      -2.626
       2.285
       8.053
      13.801
      18.631
      21.876
      23.197
      22.560
      20.155
      16.352
      11.707
       6.977
       2.981
       0.287
      -1.085
      -1.669
      -2.177
      -2.990
      -3.904
      -4.300
      -3.604
      -1.710
       0.933
       3.554
       5.420
       6.062
       5.292
       3.084
      -0.478
      -5.132
     -10.330
     -15.268
     -19.137
     -21.431
     -22.100
     -21.466
     -19.980
     -18.005
     -15.730
     -13.205
     -10.447
      -7.543
      -4.682
      -2.094
       0.034
       1.642
       2.823
       3.834
       5.064
       6.920
       9.666
      13.310
      17.635
      22.339
      27.184
      31.988
      36.508
      40.333
      42.913
      43.698
      42.282
      38.482
      32.376
      24.319
      14.890
       4.769
      -5.392
     -15.066
     -23.864
     -31.492
     -37.660
     -42.060
     -44.470
     -44.957
     -43.981
     -42.234
     -40.288
     -38.300
     -35.989
     -32.934
     -28.932
     -24.162
     -19.029
     -13.880
      -8.836
      -3.846
       1.135
       6.005
      10.532
      14.510
      17.913
      20.945
      23.912
      26.996
      30.117
      33.000
      35.402
      37.259
      38.595
      39.274
      38.876
      36.840
      32.802
      26.846
      19.461
      11.276
       2.831
      -5.478
     -13.330
     -20.461
     -26.705
     -32.033
     -36.477
     -39.944
     -42.100
     -42.514
     -41.018
     -37.961
     -34.043
     -29.811
     -25.235
     -19.745
     -12.740
      -4.216
       4.958
      13.352
      19.687
      23.472
      25.156
      25.735
      26.121
      26.699
      27.288
      27.429
      26.734
      25.127
      22.869
      20.400
      18.065
      15.882
      13.484
      10.304
       5.895
       0.211
      -6.346
     -13.137
     -19.586
     -25.335
     -30.150
     -33.725
     -35.634
     -35.552
     -33.529
     -30.040
     -25.714
     -20.969
     -15.859
     -10.229
      -4.013
       2.567
       9.005
      14.643
      18.855
      21.200
      21.527
      19.986
      16.976
      13.064
       8.893
       5.041
       1.869
      -0.525
      -2.210
      -3.263
      -3.698
      -3.514
      -2.756
      -1.497
       0.203
       2.272
       4.494
       6.402
       7.372
       6.915
       4.956
       1.848
      -1.888
      -5.817
      -9.622
     -12.929
     -15.194
     -15.838
     -14.553
     -11.527
      -7.390
      -2.898
       1.441
       5.546
       9.641
      13.941
      18.400
      22.700
      26.415
      29.133
      30.428
      29.848
      27.091
      22.340
      16.445
      10.700
       6.280
       3.690
       2.601
       2.126
       1.294
      -0.571
      -3.726
      -8.096
     -13.382
     -19.125
     -24.769
     -29.821
     -34.050
     -37.582
     -40.725
     -43.565
     -45.599
     -45.745
     -42.803
     -36.117
     -26.006
     -13.708
      -0.857
      11.188
      21.769
      30.865
      38.637
      45.000
      49.593
      52.100
      52.531
      51.138
      48.103
      43.341
      36.625
      27.875
      17.354
       5.663
      -6.415
     -18.113
     -28.857
     -38.314
     -46.259
     -52.312
     -55.759
     -55.661
     -51.295
     -42.683
     -30.779
     -17.091
      -2.973
      10.860
      24.201
      36.781
      47.804
      56.051
      60.424
      60.489
      56.627
      49.767
      40.925
      30.852
      20.006
       8.754
      -2.417
     -12.931
     -22.308
     -30.308
     -36.861
     -41.889
     -45.199
     -46.565
     -45.949
     -43.675
     -40.394
     -36.797
     -33.241
     -29.580
     -25.348
     -20.155
     -13.967
      -7.100
      -0.004
       6.920
      13.342
      18.935
      23.370
      26.434
      28.174
      28.927
      29.157
      29.217
      29.207
      28.999
      28.364
      27.072
      24.945
      21.867
      17.789
      12.757
       6.976
       0.864
      -5.013
     -10.104
     -14.056
     -16.819
     -18.615
     -19.825
     -20.853
     -22.051
     -23.690
     -25.907
     -28.602
     -31.332
     -33.349
     -33.805
     -32.032
     -27.778
     -21.296
     -13.266
      -4.598
       3.814
      11.309
      17.573
      22.599
      26.507
      29.370
      31.160
      31.825
      31.373
      29.864
      27.351
      23.873
      19.527
      14.563
       9.395
       4.491
       0.177
      -3.495
      -6.709
      -9.664
     -12.361
     -14.574
     -16.039
     -16.685
     -16.669
     -16.177
     -15.186
     -13.431
     -10.632
      -6.814
      -2.452
       1.665
       4.750
       6.345
       6.462
       5.507
       4.029
       2.448
       0.929
      -0.567
      -2.114
      -3.686
      -5.142
      -6.305
      -7.055
      -7.343
      -7.153
      -6.447
      -5.168
      -3.300
      -0.941
       1.678
       4.296
       6.766
       9.098
      11.335
      13.379
      14.936
      15.683
      15.491
      14.504
      12.996
      11.167
       9.029
       6.440
       3.173
      -0.994
      -6.159
     -12.122
     -18.248
     -23.498
     -26.710
     -27.017
     -24.213
     -18.849
     -12.015
      -4.905
       1.595
       7.114
      11.704
      15.565
      18.787
      21.256
      22.781
      23.297
      22.944
      21.954
      20.469
      18.464
      15.839
      12.577
       8.815
       4.800
       0.771
      -3.110
      -6.729
      -9.940
     -12.550
     -14.401
     -15.485
     -15.980
     -16.166
     -16.304
     -16.561
     -16.993
     -17.529
     -17.980
     -18.092
     -17.619
     -16.371
     -14.217
     -11.121
      -7.231
      -2.957
       1.068
       4.216
       6.198
       7.304
       8.357
      10.319
      13.738
      18.349
      23.072
      26.475
      27.493
      25.999
      22.839
      19.250
      16.065
      13.265
      10.199
       6.224
       1.239
      -4.273
      -9.607
     -14.260
     -18.099
     -21.208
     -23.608
     -25.105
     -25.395
     -24.319
     -22.034
     -18.917
     -15.312
     -11.371
      -7.158
      -2.901
       0.909
       3.718
       5.293
       5.928
       6.285
       6.962
       8.132
       9.530
      10.768
      11.645
      12.188
      12.466
      12.426
      11.947
      11.027
       9.884
       8.863
       8.220
       7.949
       7.749
       7.175
       5.894
       3.904
       1.550
      -0.677
      -2.430
      -3.658
      -4.546
      -5.311
      -6.048
      -6.727
      -7.312
      -7.875
      -8.563
      -9.474
     -10.515
     -11.385
     -11.715
     -11.297
     -10.243
      -8.935
      -7.781
      -6.987
      -6.516
      -6.204
      -5.886
      -5.416
      -4.644
      -3.408
      -1.595
       0.811
       3.701
       6.849
       9.949
      12.687
      14.823
      16.195
      16.636
      15.926
      13.923
      10.826
       7.303
       4.256
       2.315
       1.439
       0.948
      -0.025
      -1.980
      -4.747
      -7.622
      -9.806
     -10.861
     -10.893
     -10.406
      -9.944
      -9.776
      -9.784
      -9.598
      -8.863
      -7.470
      -5.609
      -3.611
      -1.708
       0.103
       1.981
       4.062
       6.349
       8.743
      11.128
      13.365
      15.210
      16.278
      16.192
      14.856
      12.593
      10.015
       7.680
       5.832
       4.370
       3.022
       1.514
      -0.354
      -2.701
      -5.504
      -8.512
     -11.246
     -13.181
     -14.049
     -14.029
     -13.671
     -13.567
     -14.009
     -14.858
     -15.679
     -15.997
     -15.500
     -14.073
     -11.716
      -8.474
      -4.456
       0.108
       4.865
       9.447
      13.629
      17.395
      20.815
      23.824
      26.075
      27.028
      26.245
      23.675
      19.739
      15.128
      10.486
       6.181
       2.297
      -1.190
      -4.239
      -6.706
      -8.443
      -9.450
      -9.925
     -10.204
     -10.607
     -11.269
     -12.051
     -12.602
     -12.578
     -11.896
     -10.789
      -9.583
      -8.343
      -6.754
      -4.381
      -1.168
       2.284
       4.933
       5.927
       5.194
       3.540
       2.154
       1.869
       2.694
       3.935
       4.775
       4.844
       4.375
       3.862
       3.571
       3.318
       2.707
       1.557
       0.134
      -1.056
      -1.703
      -1.939
      -2.142
      -2.466
      -2.547
      -1.703
       0.505
       3.822
       7.334
      10.004
      11.296
      11.421
      11.034
      10.619
      10.060
       8.730
       6.025
       1.914
      -2.953
      -7.644
     -11.520
     -14.493
     -16.797
     -18.557
     -19.601
     -19.677
     -18.828
     -17.483
     -16.151
     -14.950
     -13.445
     -10.937
      -7.000
      -1.806
       3.959
       9.446
      13.977
      17.189
      19.031
      19.699
      19.547
      18.923
      17.996
      16.688
      14.764
      12.026
       8.487
       4.468
       0.581
      -2.437
      -4.019
      -4.063
      -3.045
      -1.798
      -1.046
      -1.003
      -1.339
      -1.540
