Origin Time       11/11/2012 18:39:19
Lat.              29.2 N	
Long.             81.5 E	
Depth (Km)         10.0
Magnitude         5.0
 Region           Western-NEPAL                                                    
 Above details taken from IMD 
     
Station Code      PTH
Station Lat.       29.579  N
Station Long.      80.207  E
Station Height(m) 1538.0
Site Class        A   Vs30 between 700 m/sec to 1400 m/sec * 
Record Time       11.11.2012 18:39:28.854
Sampling Rate     200. Hz
 Record Duration   83.600 Sec.
 Direction         E-W (E positive)
Max. Acceleration     -2.910 cm/sec**2
     
  * For reference see Site Classification link of website 
     
 Base Line Corrected and Low Pass Filtered (Cut Off at 35 Hz) Time History
 Acceleration data in cm/sec**2
    
[...]
      -0.220
      -0.350
      -0.492
      -0.606
      -0.644
      -0.572
      -0.386
      -0.129
       0.130
       0.328
       0.431
       0.452
       0.431
       0.410
       0.411
       0.416
       0.385
       0.289
       0.137
      -0.025
      -0.144
      -0.187
      -0.159
      -0.095
      -0.040
      -0.022
      -0.041
      -0.075
      -0.101
      -0.103
      -0.083
      -0.060
      -0.056
      -0.081
      -0.119
      -0.144
      -0.134
      -0.087
      -0.018
       0.054
       0.109
       0.141
       0.149
       0.131
       0.084
       0.009
      -0.078
      -0.155
      -0.202
      -0.211
      -0.185
      -0.131
      -0.054
       0.044
       0.160
       0.281
       0.386
       0.461
       0.502
       0.504
       0.456
       0.350
       0.193
       0.016
      -0.140
      -0.237
      -0.266
      -0.245
      -0.210
      -0.183
      -0.167
      -0.146
      -0.108
      -0.057
      -0.016
      -0.011
      -0.057
      -0.141
      -0.227
      -0.284
      -0.299
      -0.278
      -0.231
      -0.169
      -0.103
      -0.042
       0.010
       0.055
       0.099
       0.146
       0.186
       0.204
       0.190
       0.158
       0.130
       0.119
       0.125
       0.140
       0.164
       0.198
       0.238
       0.268
       0.267
       0.222
       0.141
       0.050
      -0.021
      -0.063
      -0.091
      -0.128
      -0.186
      -0.260
      -0.329
      -0.367
      -0.354
      -0.290
      -0.190
      -0.068
       0.075
       0.237
       0.404
       0.545
       0.625
       0.620
       0.530
       0.383
       0.215
       0.056
      -0.078
      -0.185
      -0.266
      -0.319
      -0.339
      -0.320
      -0.259
      -0.159
      -0.031
       0.112
       0.243
       0.324
       0.317
       0.209
       0.024
      -0.182
      -0.341
      -0.409
      -0.387
      -0.313
      -0.237
      -0.181
      -0.133
      -0.066
       0.032
       0.145
       0.239
       0.286
       0.275
       0.218
       0.137
       0.049
      -0.029
      -0.080
      -0.092
      -0.074
      -0.059
      -0.085
      -0.169
      -0.293
      -0.410
      -0.471
      -0.456
      -0.384
      -0.296
      -0.218
      -0.145
      -0.048
       0.096
       0.270
       0.428
       0.512
       0.494
       0.397
       0.279
       0.199
       0.181
       0.207
       0.237
       0.235
       0.185
       0.092
      -0.034
      -0.178
      -0.327
      -0.455
      -0.530
      -0.535
      -0.471
      -0.360
      -0.232
      -0.111
      -0.015
       0.050
       0.083
       0.085
       0.065
       0.044
       0.049
       0.090
       0.153
       0.201
       0.194
       0.117
      -0.007
      -0.127
      -0.193
      -0.193
      -0.154
      -0.120
      -0.123
      -0.165
      -0.214
      -0.222
      -0.150
       0.010
       0.229
       0.454
       0.630
       0.717
       0.698
       0.582
       0.391
       0.158
      -0.084
      -0.305
      -0.484
      -0.611
      -0.677
      -0.666
      -0.562
      -0.367
      -0.111
       0.145
       0.330
       0.393
       0.330
       0.193
       0.056
      -0.015
       0.000
       0.085
       0.202
       0.313
       0.391
       0.426
       0.415
       0.362
       0.275
       0.169
       0.057
      -0.054
      -0.167
      -0.281
      -0.386
      -0.465
      -0.495
      -0.458
      -0.355
      -0.204
      -0.031
       0.148
       0.331
       0.508
       0.652
       0.722
       0.683
       0.528
       0.296
       0.052
      -0.141
      -0.254
      -0.299
      -0.313
      -0.326
      -0.344
      -0.352
      -0.323
      -0.247
      -0.139
      -0.028
       0.055
       0.100
       0.111
       0.103
       0.091
       0.081
       0.068
       0.051
       0.033
       0.021
       0.021
       0.039
       0.082
       0.154
       0.250
       0.345
       0.406
       0.408
       0.344
       0.234
       0.115
       0.021
      -0.037
      -0.078
      -0.133
      -0.224
      -0.344
      -0.456
      -0.514
      -0.494
      -0.412
      -0.312
      -0.237
      -0.199
      -0.180
      -0.145
      -0.075
       0.019
       0.099
       0.121
       0.067
      -0.047
      -0.179
      -0.276
      -0.296
      -0.226
      -0.086
       0.079
       0.217
       0.288
       0.280
       0.210
       0.116
       0.033
      -0.021
      -0.054
      -0.080
      -0.110
      -0.139
      -0.141
      -0.083
       0.048
       0.225
       0.395
       0.501
       0.518
       0.466
       0.390
       0.329
       0.290
       0.244
       0.153
       0.006
      -0.171
      -0.329
      -0.417
      -0.416
      -0.350
      -0.267
      -0.213
      -0.201
      -0.220
      -0.246
      -0.256
      -0.230
      -0.151
      -0.018
       0.153
       0.330
       0.471
       0.543
       0.537
       0.466
       0.356
       0.225
       0.078
      -0.085
      -0.267
      -0.468
      -0.679
      -0.874
      -1.012
      -1.040
      -0.921
      -0.656
      -0.302
       0.041
       0.278
       0.369
       0.346
       0.288
       0.267
       0.315
       0.404
       0.478
       0.482
       0.395
       0.235
       0.045
      -0.121
      -0.222
      -0.247
      -0.227
      -0.208
      -0.225
      -0.273
      -0.304
      -0.252
      -0.074
       0.215
       0.548
       0.838
       1.025
       1.094
       1.065
       0.971
       0.838
       0.679
       0.493
       0.277
       0.034
      -0.227
      -0.490
      -0.731
      -0.920
      -1.032
      -1.055
      -0.994
      -0.869
      -0.710
      -0.546
      -0.385
      -0.219
      -0.041
       0.147
       0.323
       0.461
       0.536
       0.535
       0.451
       0.291
       0.071
      -0.175
      -0.406
      -0.576
      -0.661
      -0.662
      -0.599
      -0.497
      -0.374
      -0.235
      -0.078
       0.097
       0.278
       0.444
       0.578
       0.673
       0.729
       0.748
       0.733
       0.690
       0.622
       0.524
       0.382
       0.182
      -0.078
      -0.372
      -0.645
      -0.833
      -0.900
      -0.863
      -0.777
      -0.698
      -0.645
      -0.593
      -0.487
      -0.282
       0.023
       0.380
       0.703
       0.917
       0.984
       0.927
       0.814
       0.717
       0.673
       0.670
       0.661
       0.605
       0.490
       0.338
       0.195
       0.096
       0.041
      -0.004
      -0.084
      -0.213
      -0.361
      -0.463
      -0.457
      -0.318
      -0.081
       0.174
       0.372
       0.474
       0.477
       0.394
       0.240
       0.027
      -0.229
      -0.506
      -0.778
      -1.036
      -1.278
      -1.502
      -1.682
      -1.770
      -1.723
      -1.527
      -1.208
      -0.818
      -0.413
      -0.027
       0.329
       0.653
       0.942
       1.177
       1.339
       1.422
       1.434
       1.395
       1.325
       1.235
       1.126
       0.994
       0.845
       0.687
       0.517
       0.329
       0.118
      -0.106
      -0.321
      -0.506
      -0.654
      -0.776
      -0.894
      -1.025
      -1.154
      -1.247
      -1.268
      -1.203
      -1.070
      -0.909
      -0.761
      -0.641
      -0.532
      -0.397
      -0.207
       0.036
       0.308
       0.580
       0.828
       1.046
       1.235
       1.394
       1.517
       1.592
       1.614
       1.581
       1.489
       1.331
       1.103
       0.804
       0.433
      -0.011
      -0.516
      -1.044
      -1.530
      -1.899
      -2.089
      -2.080
      -1.903
      -1.622
      -1.296
      -0.952
      -0.586
      -0.188
       0.232
       0.636
       0.971
       1.205
       1.341
       1.408
       1.436
       1.446
       1.440
       1.413
       1.357
       1.259
       1.111
       0.908
       0.646
       0.320
      -0.070
      -0.514
      -0.981
      -1.411
      -1.728
      -1.872
      -1.825
      -1.621
      -1.328
      -1.020
      -0.752
      -0.545
      -0.392
      -0.262
      -0.125
       0.029
       0.194
       0.350
       0.469
       0.522
       0.494
       0.390
       0.239
       0.086
      -0.020
      -0.051
      -0.009
       0.079
       0.185
       0.294
       0.400
       0.502
       0.590
       0.648
       0.661
       0.619
       0.528
       0.393
       0.221
       0.013
      -0.220
      -0.453
      -0.651
      -0.777
      -0.809
      -0.748
      -0.617
      -0.441
      -0.236
      -0.001
       0.262
       0.536
       0.791
       0.984
       1.073
       1.037
       0.881
       0.632
       0.324
      -0.016
      -0.367
      -0.716
      -1.052
      -1.366
      -1.642
      -1.858
      -1.991
      -2.019
      -1.922
      -1.692
      -1.337
      -0.884
      -0.381
       0.113
       0.539
       0.850
       1.036
       1.120
       1.146
       1.152
       1.159
       1.166
       1.161
       1.132
       1.080
       1.006
       0.920
       0.832
       0.752
       0.682
       0.607
       0.506
       0.363
       0.179
      -0.034
      -0.249
      -0.437
      -0.568
      -0.628
      -0.619
      -0.561
      -0.489
      -0.444
      -0.454
      -0.526
      -0.644
      -0.783
      -0.916
      -1.019
      -1.068
      -1.049
      -0.958
      -0.806
      -0.605
      -0.367
      -0.097
       0.209
       0.548
       0.906
       1.263
       1.592
       1.864
       2.041
       2.092
       2.008
       1.803
       1.514
       1.176
       0.800
       0.373
      -0.130
      -0.707
      -1.315
      -1.883
      -2.344
      -2.650
      -2.788
      -2.768
      -2.604
      -2.300
      -1.855
      -1.277
      -0.607
       0.087
       0.731
       1.275
       1.702
       2.022
       2.248
       2.376
       2.384
       2.249
       1.977
       1.603
       1.181
       0.763
       0.384
       0.055
      -0.224
      -0.461
      -0.655
      -0.805
      -0.903
      -0.943
      -0.921
      -0.853
      -0.776
      -0.730
      -0.738
      -0.783
      -0.816
      -0.776
      -0.618
      -0.339
       0.019
       0.379
       0.663
       0.815
       0.813
       0.682
       0.475
       0.257
       0.078
      -0.037
      -0.096
      -0.131
      -0.176
      -0.243
      -0.314
      -0.356
      -0.345
      -0.273
      -0.149
       0.019
       0.220
       0.438
       0.635
       0.759
       0.760
       0.618
       0.348
      -0.007
      -0.392
      -0.751
      -1.032
      -1.208
      -1.272
      -1.231
      -1.091
      -0.858
      -0.548
      -0.176
       0.240
       0.693
       1.172
       1.653
       2.083
       2.387
       2.496
       2.378
       2.052
       1.579
       1.037
       0.505
       0.041
      -0.333
      -0.633
      -0.891
      -1.123
      -1.321
      -1.453
      -1.491
      -1.436
      -1.320
      -1.195
      -1.093
      -1.009
      -0.906
      -0.744
      -0.506
      -0.213
       0.089
       0.342
       0.506
       0.569
       0.544
       0.463
       0.372
       0.310
       0.296
       0.316
       0.337
       0.327
       0.274
       0.188
       0.097
       0.030
       0.003
       0.019
       0.079
       0.179
       0.314
       0.465
       0.604
       0.703
       0.742
       0.708
       0.608
       0.456
       0.267
       0.054
      -0.174
      -0.406
      -0.628
      -0.823
      -0.976
      -1.087
      -1.167
      -1.229
      -1.264
      -1.249
      -1.165
      -1.010
      -0.800
      -0.557
      -0.295
      -0.021
       0.262
       0.548
       0.822
       1.063
       1.257
       1.405
       1.513
       1.586
       1.615
       1.574
       1.431
       1.164
       0.782
       0.324
      -0.161
      -0.625
      -1.027
      -1.339
      -1.543
      -1.639
      -1.634
      -1.537
      -1.364
      -1.137
      -0.881
      -0.615
      -0.353
      -0.104
       0.126
       0.327
       0.484
       0.585
       0.621
       0.595
       0.512
       0.390
       0.259
       0.153
       0.100
       0.094
       0.107
       0.099
       0.046
      -0.042
      -0.115
      -0.110
       0.011
       0.240
       0.518
       0.771
       0.936
       0.988
       0.938
       0.814
       0.640
       0.427
       0.179
      -0.102
      -0.416
      -0.752
      -1.069
      -1.305
      -1.399
      -1.321
      -1.088
      -0.758
      -0.406
      -0.095
       0.138
       0.285
       0.352
       0.362
       0.345
       0.334
       0.345
       0.371
       0.388
       0.369
       0.297
       0.167
      -0.006
      -0.204
      -0.403
      -0.579
      -0.707
      -0.754
      -0.696
      -0.517
      -0.217
       0.184
       0.633
       1.045
       1.320
       1.380
       1.210
       0.871
       0.466
       0.088
      -0.223
      -0.474
      -0.681
      -0.836
      -0.905
      -0.849
      -0.653
      -0.351
      -0.016
       0.266
       0.445
       0.516
       0.514
       0.488
       0.479
       0.507
       0.567
       0.642
       0.707
       0.745
       0.749
       0.729
       0.707
       0.698
       0.689
       0.641
       0.508
       0.263
      -0.089
      -0.515
      -0.977
      -1.447
      -1.905
      -2.326
      -2.666
      -2.874
      -2.910
      -2.760
      -2.442
      -2.006
      -1.516
      -1.032
      -0.584
      -0.172
       0.227
       0.634
       1.055
       1.476
       1.864
       2.188
       2.432
       2.587
       2.646
       2.595
       2.427
       2.145
       1.772
       1.343
       0.900
       0.476
       0.089
      -0.258
      -0.564
      -0.827
      -1.049
      -1.236
      -1.394
      -1.526
      -1.629
      -1.690
      -1.697
      -1.646
      -1.549
      -1.414
      -1.236
      -0.989
      -0.639
      -0.166
       0.412
       1.030
       1.594
       2.017
       2.248
       2.279
       2.131
       1.836
       1.433
       0.961
       0.459
      -0.029
      -0.449
      -0.756
      -0.928
      -0.983
      -0.957
      -0.887
      -0.786
      -0.648
      -0.469
      -0.277
      -0.132
      -0.096
      -0.193
      -0.389
      -0.604
      -0.744
      -0.724
      -0.508
      -0.118
       0.371
       0.851
       1.223
       1.421
       1.432
       1.282
       1.013
       0.660
       0.250
      -0.196
      -0.644
      -1.046
      -1.337
      -1.456
      -1.381
      -1.142
      -0.809
      -0.456
      -0.133
       0.140
       0.364
       0.546
       0.685
       0.767
       0.774
       0.694
       0.534
       0.323
       0.110
      -0.047
      -0.113
      -0.081
       0.028
       0.179
       0.337
       0.471
       0.558
       0.590
       0.577
       0.542
       0.507
       0.480
       0.448
       0.380
       0.245
       0.029
      -0.259
      -0.592
      -0.936
      -1.257
      -1.526
      -1.724
      -1.843
      -1.878
      -1.821
      -1.647
      -1.323
      -0.833
      -0.210
       0.464
       1.082
       1.558
       1.856
       1.980
       1.966
       1.854
       1.671
       1.427
       1.125
       0.769
       0.365
      -0.069
      -0.497
      -0.863
      -1.105
      -1.182
      -1.084
      -0.838
      -0.498
      -0.132
       0.199
       0.448
       0.574
       0.547
       0.349
       0.001
      -0.436
      -0.869
      -1.196
      -1.337
      -1.258
      -0.975
      -0.543
      -0.035
       0.477
       0.938
       1.317
       1.597
       1.755
       1.755
       1.565
       1.176
       0.623
      -0.018
      -0.645
      -1.162
      -1.503
      -1.652
      -1.628
      -1.476
      -1.243
      -0.974
      -0.699
      -0.432
      -0.184
       0.037
       0.228
       0.395
       0.551
       0.706
       0.859
       0.992
       1.073
       1.063
       0.942
       0.715
       0.415
       0.086
      -0.221
      -0.466
      -0.618
      -0.666
      -0.613
      -0.469
      -0.262
      -0.026
       0.196
       0.370
       0.468
       0.474
       0.385
       0.214
      -0.014
      -0.259
      -0.479
      -0.638
      -0.725
      -0.757
      -0.759
      -0.749
      -0.729
      -0.692
      -0.628
      -0.536
      -0.428
      -0.320
      -0.230
      -0.172
      -0.155
      -0.175
      -0.202
      -0.185
      -0.072
       0.169
       0.533
       0.985
       1.466
       1.911
       2.266
       2.497
       2.587
       2.536
       2.352
       2.048
       1.643
       1.158
       0.616
       0.041
      -0.547
      -1.122
      -1.643
      -2.062
      -2.341
      -2.469
      -2.465
      -2.357
      -2.167
      -1.904
      -1.564
      -1.147
      -0.667
      -0.154
       0.345
       0.776
       1.083
       1.227
       1.198
       1.018
       0.729
       0.389
       0.062
      -0.185
      -0.305
      -0.289
      -0.160
       0.044
       0.292
       0.569
       0.856
       1.113
       1.274
       1.275
       1.091
       0.754
       0.343
      -0.049
      -0.342
      -0.493
      -0.500
      -0.394
      -0.224
      -0.049
       0.068
       0.076
      -0.042
      -0.255
      -0.503
      -0.720
      -0.867
      -0.945
      -0.989
      -1.040
      -1.116
      -1.200
      -1.250
      -1.219
      -1.064
      -0.769
      -0.352
       0.148
       0.673
       1.159
       1.546
       1.782
       1.838
       1.709
       1.413
       0.980
       0.462
      -0.076
      -0.565
      -0.946
      -1.181
      -1.260
      -1.193
      -1.010
      -0.747
      -0.448
      -0.163
       0.063
       0.205
       0.262
       0.248
       0.182
       0.070
      -0.093
      -0.316
      -0.590
      -0.875
      -1.104
      -1.214
      -1.163
      -0.940
      -0.555
      -0.036
       0.578
       1.230
       1.843
       2.338
       2.651
       2.757
       2.665
       2.398
       1.982
       1.445
       0.831
       0.203
      -0.370
      -0.843
      -1.214
      -1.515
      -1.775
      -1.978
      -2.072
      -2.000
      -1.744
      -1.337
      -0.853
      -0.380
       0.009
       0.278
       0.421
       0.454
       0.407
       0.319
       0.232
       0.181
       0.186
       0.257
       0.396
       0.599
       0.854
       1.138
       1.410
       1.612
       1.683
       1.587
       1.329
       0.953
       0.519
       0.080
      -0.336
      -0.720
      -1.064
      -1.347
      -1.550
      -1.668
      -1.721
      -1.737
      -1.729
      -1.689
      -1.604
      -1.480
      -1.341
      -1.221
      -1.130
      -1.040
      -0.908
      -0.708
      -0.444
      -0.131
       0.230
       0.654
       1.151
       1.691
       2.193
       2.558
       2.722
       2.687
       2.518
       2.293
       2.065
       1.839
       1.573
       1.210
       0.712
       0.088
      -0.604
      -1.281
      -1.856
      -2.268
      -2.497
      -2.563
      -2.506
      -2.361
      -2.140
      -1.836
      -1.441
      -0.960
      -0.428
       0.108
