Origin Time       10/01/2013 15:16:13
Lat.              30.1 N	
Long.             80.4 E	
Depth (Km)          5.0
Magnitude         3.2
 Region           Pithoragarh                                                      
 Above details taken from IMD 
     
Station Code      PTH
Station Lat.       29.579  N
Station Long.      80.207  E
Station Height(m) 1538.0
Site Class        A   Vs30 between 700 m/sec to 1400 m/sec * 
Record Time       10.01.2013 15:15:51.089
Sampling Rate     200. Hz
 Record Duration   82.145 Sec.
 Direction         E-W (E positive)
Max. Acceleration     -5.804 cm/sec**2
     
  * For reference see Site Classification link of website 
     
 Base Line Corrected and Low Pass Filtered (Cut Off at 35 Hz) Time History
 Acceleration data in cm/sec**2
    
[...]
       0.030
      -0.142
      -0.220
      -0.184
      -0.074
       0.036
       0.094
       0.105
       0.107
       0.132
       0.175
       0.199
       0.176
       0.103
       0.007
      -0.081
      -0.151
      -0.210
      -0.264
      -0.302
      -0.298
      -0.227
      -0.089
       0.084
       0.241
       0.327
       0.316
       0.218
       0.081
      -0.038
      -0.104
      -0.117
      -0.102
      -0.079
      -0.054
      -0.021
       0.024
       0.082
       0.149
       0.207
       0.232
       0.203
       0.123
       0.020
      -0.078
      -0.162
      -0.240
      -0.300
      -0.313
      -0.250
      -0.130
      -0.010
       0.067
       0.112
       0.174
       0.272
       0.362
       0.377
       0.292
       0.154
       0.032
      -0.043
      -0.101
      -0.174
      -0.249
      -0.273
      -0.215
      -0.097
       0.020
       0.088
       0.102
       0.090
       0.085
       0.107
       0.140
       0.145
       0.078
      -0.066
      -0.226
      -0.298
      -0.216
      -0.016
       0.181
       0.250
       0.158
      -0.020
      -0.163
      -0.189
      -0.086
       0.094
       0.269
       0.360
       0.321
       0.157
      -0.074
      -0.283
      -0.396
      -0.379
      -0.250
      -0.058
       0.132
       0.265
       0.307
       0.275
       0.224
       0.205
       0.213
       0.195
       0.095
      -0.082
      -0.266
      -0.382
      -0.396
      -0.326
      -0.208
      -0.064
       0.083
       0.205
       0.269
       0.268
       0.226
       0.174
       0.117
       0.037
      -0.068
      -0.170
      -0.226
      -0.218
      -0.171
      -0.123
      -0.092
      -0.062
      -0.006
       0.085
       0.184
       0.242
       0.224
       0.136
       0.028
      -0.035
      -0.015
       0.072
       0.166
       0.203
       0.161
       0.072
      -0.001
      -0.011
       0.042
       0.096
       0.074
      -0.058
      -0.249
      -0.389
      -0.389
      -0.246
      -0.049
       0.088
       0.105
       0.029
      -0.064
      -0.110
      -0.099
      -0.056
      -0.012
       0.026
       0.061
       0.087
       0.088
       0.061
       0.034
       0.056
       0.152
       0.289
       0.390
       0.387
       0.275
       0.108
      -0.041
      -0.136
      -0.190
      -0.243
      -0.323
      -0.411
      -0.457
      -0.410
      -0.265
      -0.075
       0.089
       0.185
       0.228
       0.260
       0.306
       0.342
       0.325
       0.235
       0.104
      -0.010
      -0.065
      -0.066
      -0.051
      -0.050
      -0.076
      -0.121
      -0.171
      -0.210
      -0.224
      -0.207
      -0.170
      -0.134
      -0.108
      -0.077
      -0.010
       0.110
       0.261
       0.391
       0.445
       0.397
       0.254
       0.055
      -0.143
      -0.283
      -0.337
      -0.309
      -0.230
      -0.127
      -0.012
       0.111
       0.231
       0.326
       0.371
       0.350
       0.260
       0.099
      -0.129
      -0.393
      -0.624
      -0.739
      -0.697
      -0.527
      -0.303
      -0.097
       0.069
       0.215
       0.370
       0.534
       0.678
       0.754
       0.729
       0.596
       0.379
       0.131
      -0.092
      -0.246
      -0.313
      -0.305
      -0.256
      -0.212
      -0.221
      -0.306
      -0.434
      -0.528
      -0.506
      -0.350
      -0.117
       0.098
       0.225
       0.251
       0.217
       0.170
       0.141
       0.138
       0.153
       0.170
       0.174
       0.157
       0.127
       0.099
       0.082
       0.072
       0.065
       0.057
       0.049
       0.037
       0.013
      -0.024
      -0.063
      -0.091
      -0.105
      -0.116
      -0.143
      -0.186
      -0.227
      -0.246
      -0.233
      -0.188
      -0.107
       0.016
       0.171
       0.313
       0.381
       0.336
       0.194
       0.024
      -0.097
      -0.132
      -0.102
      -0.053
      -0.015
       0.022
       0.075
       0.136
       0.171
       0.147
       0.064
      -0.039
      -0.111
      -0.117
      -0.068
       0.001
       0.046
       0.042
      -0.018
      -0.125
      -0.255
      -0.366
      -0.401
      -0.318
      -0.120
       0.125
       0.320
       0.404
       0.394
       0.363
       0.375
       0.428
       0.467
       0.431
       0.294
       0.075
      -0.185
      -0.438
      -0.632
      -0.713
      -0.651
      -0.472
      -0.256
      -0.089
      -0.005
       0.026
       0.069
       0.156
       0.268
       0.354
       0.384
       0.368
       0.338
       0.299
       0.222
       0.065
      -0.172
      -0.425
      -0.598
      -0.620
      -0.499
      -0.308
      -0.127
       0.011
       0.128
       0.257
       0.404
       0.536
       0.606
       0.583
       0.472
       0.305
       0.124
      -0.029
      -0.123
      -0.147
      -0.119
      -0.084
      -0.086
      -0.135
      -0.206
      -0.258
      -0.273
      -0.272
      -0.294
      -0.361
      -0.457
      -0.527
      -0.520
      -0.420
      -0.255
      -0.075
       0.090
       0.247
       0.431
       0.659
       0.899
       1.068
       1.084
       0.923
       0.637
       0.310
       0.012
      -0.234
      -0.435
      -0.592
      -0.686
      -0.698
      -0.633
      -0.516
      -0.380
      -0.246
      -0.138
      -0.074
      -0.066
      -0.095
      -0.118
      -0.091
       0.001
       0.144
       0.302
       0.442
       0.535
       0.552
       0.479
       0.335
       0.167
       0.026
      -0.070
      -0.134
      -0.186
      -0.234
      -0.261
      -0.247
      -0.182
      -0.083
       0.025
       0.119
       0.195
       0.261
       0.317
       0.343
       0.307
       0.182
      -0.023
      -0.260
      -0.460
      -0.565
      -0.561
      -0.474
      -0.344
      -0.198
      -0.043
       0.107
       0.226
       0.281
       0.267
       0.205
       0.136
       0.086
       0.056
       0.034
       0.017
       0.021
       0.065
       0.146
       0.231
       0.282
       0.287
       0.258
       0.223
       0.195
       0.170
       0.123
       0.032
      -0.123
      -0.337
      -0.572
      -0.764
      -0.849
      -0.797
      -0.619
      -0.357
      -0.055
       0.238
       0.467
       0.582
       0.567
       0.462
       0.339
       0.254
       0.215
       0.187
       0.133
       0.049
      -0.036
      -0.089
      -0.096
      -0.063
      -0.023
      -0.009
      -0.039
      -0.092
      -0.117
      -0.070
       0.046
       0.168
       0.214
       0.142
      -0.017
      -0.190
      -0.308
      -0.351
      -0.334
      -0.289
      -0.240
      -0.200
      -0.161
      -0.086
       0.058
       0.265
       0.473
       0.598
       0.596
       0.497
       0.366
       0.248
       0.136
       0.003
      -0.152
      -0.295
      -0.389
      -0.425
      -0.415
      -0.364
      -0.264
      -0.113
       0.058
       0.188
       0.228
       0.176
       0.076
      -0.010
      -0.044
      -0.028
       0.006
       0.023
       0.009
      -0.029
      -0.069
      -0.087
      -0.070
      -0.018
       0.059
       0.142
       0.198
       0.202
       0.158
       0.109
       0.110
       0.171
       0.238
       0.228
       0.104
      -0.097
      -0.290
      -0.397
      -0.385
      -0.267
      -0.089
       0.086
       0.191
       0.187
       0.087
      -0.043
      -0.131
      -0.148
      -0.118
      -0.093
      -0.110
      -0.167
      -0.229
      -0.252
      -0.204
      -0.092
       0.045
       0.159
       0.233
       0.290
       0.362
       0.449
       0.504
       0.472
       0.340
       0.160
       0.017
      -0.030
       0.016
       0.100
       0.139
       0.070
      -0.118
      -0.376
      -0.608
      -0.726
      -0.700
      -0.568
      -0.405
      -0.264
      -0.153
      -0.050
       0.060
       0.172
       0.268
       0.339
       0.381
       0.392
       0.373
       0.333
       0.287
       0.239
       0.183
       0.116
       0.050
       0.000
      -0.031
      -0.063
      -0.113
      -0.174
      -0.221
      -0.236
      -0.224
      -0.204
      -0.185
      -0.155
      -0.101
      -0.026
       0.044
       0.086
       0.094
       0.082
       0.072
       0.077
       0.100
       0.126
       0.132
       0.089
      -0.018
      -0.175
      -0.328
      -0.409
      -0.382
      -0.264
      -0.103
       0.057
       0.198
       0.321
       0.429
       0.512
       0.551
       0.536
       0.467
       0.346
       0.166
      -0.077
      -0.363
      -0.624
      -0.768
      -0.726
      -0.513
      -0.233
      -0.017
       0.059
       0.026
      -0.018
       0.005
       0.088
       0.165
       0.185
       0.161
       0.150
       0.182
       0.223
       0.208
       0.116
      -0.005
      -0.082
      -0.085
      -0.052
      -0.049
      -0.101
      -0.175
      -0.208
      -0.161
      -0.046
       0.085
       0.180
       0.210
       0.177
       0.103
       0.012
      -0.077
      -0.141
      -0.164
      -0.140
      -0.089
      -0.052
      -0.063
      -0.120
      -0.177
      -0.170
      -0.068
       0.101
       0.256
       0.322
       0.270
       0.133
      -0.026
      -0.150
      -0.209
      -0.185
      -0.072
       0.112
       0.315
       0.457
       0.476
       0.372
       0.208
       0.069
      -0.004
      -0.031
      -0.076
      -0.190
      -0.377
      -0.590
      -0.756
      -0.809
      -0.724
      -0.526
      -0.287
      -0.083
       0.048
       0.127
       0.203
       0.317
       0.468
       0.620
       0.720
       0.732
       0.655
       0.526
       0.396
       0.300
       0.235
       0.167
       0.068
      -0.068
      -0.223
      -0.373
      -0.500
      -0.584
      -0.612
      -0.582
      -0.512
      -0.430
      -0.350
      -0.263
      -0.144
       0.019
       0.199
       0.338
       0.380
       0.313
       0.177
       0.039
      -0.053
      -0.088
      -0.087
      -0.072
      -0.045
       0.005
       0.084
       0.181
       0.279
       0.362
       0.421
       0.444
       0.415
       0.317
       0.148
      -0.074
      -0.313
      -0.520
      -0.642
      -0.633
      -0.481
      -0.227
       0.043
       0.227
       0.257
       0.135
      -0.074
      -0.275
      -0.393
      -0.392
      -0.279
      -0.094
       0.113
       0.295
       0.430
       0.522
       0.595
       0.669
       0.749
       0.800
       0.753
       0.532
       0.109
      -0.462
      -1.055
      -1.525
      -1.774
      -1.781
      -1.594
      -1.287
      -0.922
      -0.532
      -0.114
       0.347
       0.852
       1.367
       1.828
       2.164
       2.326
       2.296
       2.086
       1.733
       1.298
       0.858
       0.476
       0.168
      -0.105
      -0.404
      -0.767
      -1.174
      -1.560
      -1.853
      -2.016
      -2.055
      -2.014
      -1.941
      -1.874
      -1.825
      -1.777
      -1.693
      -1.539
      -1.291
      -0.950
      -0.529
      -0.050
       0.468
       1.011
       1.571
       2.142
       2.706
       3.224
       3.633
       3.856
       3.844
       3.594
       3.151
       2.573
       1.902
       1.149
       0.315
      -0.590
      -1.526
      -2.415
      -3.165
      -3.696
      -3.978
      -4.040
      -3.959
      -3.811
      -3.620
      -3.339
      -2.882
      -2.198
      -1.324
      -0.385
       0.485
       1.220
       1.839
       2.404
       2.945
       3.425
       3.774
       3.930
       3.870
       3.593
       3.114
       2.452
       1.639
       0.733
      -0.184
      -1.020
      -1.696
      -2.168
      -2.434
      -2.522
      -2.473
      -2.317
      -2.075
      -1.767
      -1.420
      -1.072
      -0.755
      -0.480
      -0.230
       0.018
       0.277
       0.548
       0.818
       1.066
       1.268
       1.404
       1.465
       1.453
       1.375
       1.235
       1.041
       0.820
       0.606
       0.423
       0.267
       0.117
      -0.043
      -0.218
      -0.402
      -0.597
      -0.809
      -1.035
      -1.260
      -1.469
      -1.658
      -1.822
      -1.935
      -1.951
      -1.829
      -1.564
      -1.188
      -0.733
      -0.220
       0.343
       0.934
       1.514
       2.038
       2.474
       2.797
       2.974
       2.948
       2.655
       2.063
       1.206
       0.199
      -0.795
      -1.610
      -2.138
      -2.359
      -2.331
      -2.143
      -1.861
      -1.505
      -1.067
      -0.552
       0.000
       0.526
       0.963
       1.269
       1.440
       1.509
       1.517
       1.480
       1.375
       1.163
       0.839
       0.453
       0.089
      -0.195
      -0.397
      -0.542
      -0.639
      -0.665
      -0.604
      -0.500
      -0.455
      -0.556
      -0.803
      -1.103
      -1.334
      -1.416
      -1.352
      -1.200
      -1.036
      -0.916
      -0.865
      -0.876
      -0.918
      -0.937
      -0.861
      -0.610
      -0.118
       0.630
       1.580
       2.619
       3.602
       4.389
       4.857
       4.905
       4.479
       3.598
       2.372
       0.973
      -0.432
      -1.737
      -2.919
      -3.981
      -4.892
      -5.549
      -5.804
      -5.544
      -4.764
      -3.585
      -2.211
      -0.856
       0.322
       1.247
       1.910
       2.335
       2.554
       2.600
       2.514
       2.341
       2.120
       1.881
       1.663
       1.538
       1.583
       1.826
       2.187
       2.487
       2.535
       2.222
       1.565
       0.671
      -0.322
      -1.308
      -2.220
      -3.025
      -3.691
      -4.181
      -4.460
      -4.507
      -4.301
      -3.819
      -3.044
      -2.001
      -0.779
       0.481
       1.628
       2.558
       3.238
       3.691
       3.950
       4.021
       3.885
       3.521
       2.944
       2.212
       1.406
       0.602
      -0.157
      -0.847
      -1.447
      -1.916
      -2.215
      -2.341
      -2.346
      -2.308
      -2.283
      -2.280
      -2.265
      -2.196
      -2.052
      -1.840
      -1.568
      -1.221
      -0.768
      -0.197
       0.462
       1.147
       1.797
       2.363
       2.795
       3.041
       3.062
       2.872
       2.547
       2.201
       1.925
       1.741
       1.582
       1.321
       0.836
       0.089
      -0.827
      -1.718
      -2.391
      -2.738
      -2.766
      -2.551
      -2.176
      -1.710
      -1.216
      -0.757
      -0.388
      -0.136
      -0.002
       0.028
      -0.029
      -0.153
      -0.310
      -0.462
      -0.575
      -0.632
      -0.640
      -0.614
      -0.548
      -0.407
      -0.143
       0.264
       0.782
       1.339
       1.867
       2.329
       2.707
       2.970
       3.059
       2.905
       2.480
       1.826
       1.039
       0.216
      -0.585
      -1.331
      -1.985
      -2.493
      -2.809
      -2.931
      -2.902
      -2.781
      -2.599
      -2.345
      -1.993
      -1.538
      -1.022
      -0.518
      -0.092
       0.232
       0.482
       0.720
       1.011
       1.394
       1.875
       2.424
       2.981
       3.461
       3.769
       3.824
       3.579
       3.025
       2.185
       1.109
      -0.119
      -1.386
      -2.559
      -3.518
      -4.176
      -4.488
      -4.450
      -4.098
      -3.516
      -2.812
      -2.085
      -1.382
      -0.701
      -0.028
       0.616
       1.173
       1.588
       1.849
       2.002
       2.123
       2.270
       2.449
       2.616
       2.705
       2.669
       2.485
       2.154
       1.686
       1.103
       0.445
      -0.229
      -0.850
      -1.367
      -1.752
      -2.010
      -2.161
      -2.224
      -2.212
      -2.136
      -2.004
      -1.829
      -1.620
      -1.389
      -1.146
      -0.892
      -0.621
      -0.319
       0.024
       0.413
       0.842
       1.290
       1.714
       2.051
       2.236
       2.237
       2.078
       1.825
       1.541
       1.253
       0.953
       0.624
       0.264
      -0.118
      -0.500
      -0.859
      -1.168
      -1.403
      -1.550
      -1.613
      -1.600
      -1.520
      -1.368
      -1.147
      -0.883
      -0.625
      -0.425
      -0.305
      -0.244
      -0.186
      -0.067
       0.155
       0.479
       0.855
       1.202
       1.447
       1.550
       1.521
       1.402
       1.237
       1.044
       0.814
       0.536
       0.222
      -0.094
      -0.360
      -0.539
      -0.622
      -0.636
      -0.627
      -0.643
      -0.713
      -0.833
      -0.975
      -1.093
      -1.150
      -1.124
      -1.018
      -0.850
      -0.646
      -0.428
      -0.196
       0.069
       0.402
       0.827
       1.330
       1.848
       2.271
       2.489
       2.439
       2.132
       1.643
       1.057
       0.434
      -0.197
      -0.823
      -1.418
      -1.932
      -2.296
      -2.450
      -2.358
      -2.028
      -1.502
      -0.859
      -0.208
       0.326
       0.640
       0.694
       0.532
       0.271
       0.049
      -0.039
       0.019
       0.172
       0.354
       0.529
       0.691
       0.845
       0.971
       1.024
       0.958
       0.763
       0.479
       0.174
      -0.095
      -0.305
      -0.459
      -0.556
      -0.578
      -0.501
      -0.334
      -0.129
       0.032
       0.090
       0.035
      -0.101
      -0.273
      -0.455
      -0.633
      -0.789
      -0.888
      -0.889
      -0.762
      -0.509
      -0.165
       0.207
       0.535
       0.762
       0.863
       0.853
       0.768
       0.651
       0.527
       0.406
       0.286
       0.159
       0.031
      -0.079
      -0.147
      -0.158
      -0.123
      -0.070
      -0.034
      -0.041
      -0.099
      -0.197
      -0.302
      -0.371
      -0.372
      -0.298
      -0.171
      -0.031
       0.090
       0.184
       0.262
       0.333
       0.384
       0.380
       0.286
       0.091
      -0.177
      -0.453
      -0.654
      -0.718
      -0.630
      -0.422
      -0.156
       0.111
       0.339
       0.497
       0.557
       0.505
       0.355
       0.157
      -0.032
      -0.178
      -0.273
      -0.312
      -0.282
      -0.175
      -0.010
       0.159
       0.280
       0.333
       0.331
       0.292
       0.214
       0.081
      -0.101
      -0.291
      -0.428
      -0.463
      -0.384
      -0.212
       0.009
       0.227
       0.397
       0.499
       0.545
       0.556
       0.525
       0.411
       0.170
      -0.192
      -0.597
      -0.923
      -1.069
      -1.001
      -0.754
      -0.412
      -0.074
       0.174
       0.286
       0.274
       0.196
       0.119
       0.083
       0.086
       0.111
       0.143
       0.184
       0.232
       0.271
       0.279
       0.244
       0.175
       0.098
       0.040
       0.015
       0.017
       0.030
       0.031
       0.003
      -0.059
      -0.136
      -0.192
      -0.193
      -0.135
      -0.059
      -0.024
      -0.073
