Origin Time       11/11/2012 18:39:19
Lat.              29.2 N	
Long.             81.5 E	
Depth (Km)         10.0
Magnitude         5.0
 Region           Western-NEPAL                                                    
 Above details taken from IMD 
   
Station Code      PTH
Station Lat.       29.579
Station Long.      80.207
Station Height(m) 1538.0
Site Class        A   Vs30 between 700 m/sec to 1400 m/sec * 
Record Time       11.11.2012 18:39:28.854
Sampling Rate     200. Hz
 Record Duration   83.600 Sec.
 Direction         Vert. (Up positive)
Max. Acceleration      2.799 cm/sec**2
     
  * For reference see Site Classification link of website 
     
 Base Line Corrected and Low Pass Filtered (Cut Off at 35 Hz) Time History
 Acceleration data in cm/sec**2
    
[...]
      -0.591
      -0.575
      -0.515
      -0.445
      -0.383
      -0.315
      -0.228
      -0.134
      -0.055
      -0.013
      -0.019
      -0.059
      -0.090
      -0.063
       0.026
       0.135
       0.222
       0.294
       0.381
       0.491
       0.581
       0.586
       0.460
       0.220
      -0.053
      -0.263
      -0.376
      -0.426
      -0.460
      -0.487
      -0.478
      -0.400
      -0.239
      -0.018
       0.188
       0.291
       0.249
       0.106
      -0.046
      -0.133
      -0.138
      -0.098
      -0.074
      -0.104
      -0.167
      -0.204
      -0.171
      -0.072
       0.058
       0.180
       0.254
       0.254
       0.190
       0.102
       0.023
      -0.037
      -0.080
      -0.101
      -0.110
      -0.128
      -0.156
      -0.158
      -0.095
       0.027
       0.143
       0.164
       0.033
      -0.217
      -0.457
      -0.552
      -0.462
      -0.266
      -0.076
       0.057
       0.149
       0.235
       0.321
       0.374
       0.348
       0.242
       0.121
       0.066
       0.097
       0.160
       0.198
       0.211
       0.237
       0.298
       0.373
       0.417
       0.400
       0.328
       0.245
       0.188
       0.148
       0.087
      -0.010
      -0.126
      -0.240
      -0.354
      -0.469
      -0.569
      -0.633
      -0.638
      -0.563
      -0.406
      -0.205
      -0.019
       0.113
       0.198
       0.255
       0.295
       0.311
       0.297
       0.255
       0.200
       0.161
       0.159
       0.182
       0.198
       0.200
       0.209
       0.247
       0.325
       0.446
       0.598
       0.732
       0.791
       0.750
       0.638
       0.494
       0.335
       0.157
      -0.041
      -0.241
      -0.412
      -0.528
      -0.599
      -0.667
      -0.757
      -0.837
      -0.845
      -0.756
      -0.602
      -0.422
      -0.225
       0.004
       0.273
       0.561
       0.821
       0.986
       1.010
       0.902
       0.717
       0.517
       0.335
       0.173
       0.005
      -0.205
      -0.460
      -0.706
      -0.873
      -0.942
      -0.953
      -0.952
      -0.955
      -0.958
      -0.957
      -0.953
      -0.945
      -0.933
      -0.912
      -0.869
      -0.792
      -0.668
      -0.471
      -0.163
       0.252
       0.690
       1.025
       1.187
       1.214
       1.203
       1.231
       1.303
       1.359
       1.316
       1.135
       0.859
       0.571
       0.331
       0.146
      -0.008
      -0.160
      -0.328
      -0.495
      -0.609
      -0.636
      -0.612
      -0.621
      -0.718
      -0.877
      -1.014
      -1.059
      -0.999
      -0.872
      -0.714
      -0.515
      -0.241
       0.085
       0.363
       0.497
       0.505
       0.499
       0.570
       0.699
       0.795
       0.788
       0.691
       0.582
       0.531
       0.536
       0.535
       0.478
       0.383
       0.312
       0.310
       0.380
       0.497
       0.599
       0.595
       0.408
       0.049
      -0.376
      -0.733
      -0.941
      -1.003
      -0.986
      -0.951
      -0.902
      -0.789
      -0.587
      -0.342
      -0.135
      -0.008
       0.062
       0.115
       0.172
       0.230
       0.266
       0.263
       0.222
       0.172
       0.141
       0.140
       0.175
       0.271
       0.449
       0.686
       0.923
       1.087
       1.125
       1.022
       0.813
       0.561
       0.304
       0.029
      -0.288
      -0.623
      -0.906
      -1.075
      -1.123
      -1.094
      -1.059
      -1.064
      -1.102
      -1.113
      -1.048
      -0.921
      -0.791
      -0.707
      -0.681
      -0.686
      -0.674
      -0.599
      -0.441
      -0.220
       0.035
       0.304
       0.556
       0.738
       0.805
       0.772
       0.704
       0.664
       0.673
       0.708
       0.722
       0.684
       0.598
       0.484
       0.333
       0.104
      -0.216
      -0.560
      -0.815
      -0.901
      -0.817
      -0.622
      -0.391
      -0.185
      -0.033
       0.063
       0.108
       0.103
       0.066
       0.030
       0.019
       0.020
       0.009
      -0.026
      -0.087
      -0.175
      -0.265
      -0.306
      -0.252
      -0.101
       0.103
       0.309
       0.487
       0.629
       0.741
       0.828
       0.867
       0.818
       0.674
       0.473
       0.268
       0.076
      -0.115
      -0.315
      -0.514
      -0.685
      -0.785
      -0.769
      -0.632
      -0.415
      -0.181
       0.022
       0.164
       0.233
       0.242
       0.228
       0.214
       0.191
       0.138
       0.057
      -0.034
      -0.125
      -0.221
      -0.329
      -0.447
      -0.548
      -0.575
      -0.483
      -0.287
      -0.065
       0.104
       0.194
       0.216
       0.189
       0.136
       0.099
       0.118
       0.195
       0.291
       0.356
       0.352
       0.283
       0.190
       0.126
       0.108
       0.114
       0.122
       0.135
       0.159
       0.172
       0.149
       0.093
       0.037
       0.014
       0.040
       0.111
       0.202
       0.283
       0.339
       0.373
       0.374
       0.329
       0.247
       0.171
       0.130
       0.110
       0.074
       0.015
      -0.044
      -0.068
      -0.042
       0.024
       0.097
       0.135
       0.120
       0.057
      -0.040
      -0.151
      -0.237
      -0.266
      -0.259
      -0.290
      -0.403
      -0.556
      -0.653
      -0.629
      -0.503
      -0.357
      -0.270
      -0.256
      -0.246
      -0.164
      -0.004
       0.149
       0.201
       0.125
      -0.036
      -0.205
      -0.309
      -0.310
      -0.218
      -0.073
       0.094
       0.269
       0.434
       0.548
       0.566
       0.469
       0.273
       0.030
      -0.180
      -0.283
      -0.265
      -0.169
      -0.038
       0.121
       0.317
       0.528
       0.690
       0.732
       0.624
       0.411
       0.194
       0.056
      -0.002
      -0.035
      -0.077
      -0.097
      -0.053
       0.046
       0.145
       0.193
       0.173
       0.110
       0.040
      -0.011
      -0.054
      -0.105
      -0.153
      -0.171
      -0.154
      -0.132
      -0.139
      -0.183
      -0.258
      -0.348
      -0.424
      -0.452
      -0.419
      -0.336
      -0.220
      -0.077
       0.084
       0.237
       0.353
       0.402
       0.361
       0.232
       0.061
      -0.092
      -0.197
      -0.274
      -0.352
      -0.450
      -0.578
      -0.733
      -0.882
      -0.971
      -0.956
      -0.832
      -0.617
      -0.342
      -0.045
       0.234
       0.474
       0.668
       0.810
       0.888
       0.891
       0.817
       0.671
       0.483
       0.316
       0.232
       0.223
       0.220
       0.158
       0.036
      -0.096
      -0.189
      -0.237
      -0.278
      -0.362
      -0.492
      -0.609
      -0.648
      -0.603
      -0.522
      -0.443
      -0.361
      -0.265
      -0.176
      -0.138
      -0.170
      -0.244
      -0.289
      -0.240
      -0.093
       0.082
       0.206
       0.264
       0.295
       0.325
       0.334
       0.300
       0.232
       0.179
       0.194
       0.299
       0.465
       0.621
       0.711
       0.735
       0.735
       0.736
       0.730
       0.707
       0.658
       0.562
       0.387
       0.131
      -0.165
      -0.434
      -0.634
      -0.771
      -0.887
      -1.027
      -1.184
      -1.304
      -1.344
      -1.322
      -1.278
      -1.210
      -1.078
      -0.853
      -0.553
      -0.212
       0.151
       0.525
       0.896
       1.237
       1.509
       1.675
       1.716
       1.638
       1.454
       1.167
       0.793
       0.393
       0.045
      -0.203
      -0.344
      -0.391
      -0.362
      -0.299
      -0.266
      -0.317
      -0.467
      -0.674
      -0.851
      -0.910
      -0.827
      -0.668
      -0.525
      -0.435
      -0.366
      -0.273
      -0.140
       0.011
       0.149
       0.251
       0.321
       0.379
       0.431
       0.456
       0.431
       0.373
       0.322
       0.296
       0.283
       0.273
       0.272
       0.294
       0.352
       0.440
       0.525
       0.549
       0.466
       0.272
       0.004
      -0.292
      -0.574
      -0.803
      -0.960
      -1.056
      -1.101
      -1.087
      -1.004
      -0.876
      -0.749
      -0.637
      -0.511
      -0.329
      -0.074
       0.236
       0.551
       0.829
       1.059
       1.265
       1.457
       1.594
       1.609
       1.450
       1.109
       0.615
       0.046
      -0.486
      -0.884
      -1.111
      -1.189
      -1.159
      -1.059
      -0.916
      -0.742
      -0.532
      -0.290
      -0.059
       0.102
       0.169
       0.175
       0.180
       0.238
       0.343
       0.425
       0.396
       0.233
       0.010
      -0.172
      -0.269
      -0.286
      -0.224
      -0.059
       0.221
       0.567
       0.881
       1.069
       1.092
       0.983
       0.813
       0.628
       0.432
       0.228
       0.049
      -0.067
      -0.115
      -0.108
      -0.059
       0.007
       0.041
      -0.013
      -0.172
      -0.405
      -0.654
      -0.868
      -1.027
      -1.150
      -1.269
      -1.379
      -1.436
      -1.398
      -1.278
      -1.121
      -0.964
      -0.820
      -0.689
      -0.558
      -0.394
      -0.159
       0.160
       0.542
       0.937
       1.277
       1.505
       1.608
       1.613
       1.536
       1.360
       1.080
       0.748
       0.460
       0.287
       0.234
       0.246
       0.254
       0.217
       0.142
       0.050
      -0.070
      -0.258
      -0.518
      -0.794
      -1.013
      -1.150
      -1.220
      -1.239
      -1.208
      -1.128
      -1.004
      -0.837
      -0.609
      -0.298
       0.109
       0.577
       1.020
       1.342
       1.512
       1.570
       1.560
       1.462
       1.217
       0.791
       0.218
      -0.395
      -0.902
      -1.161
      -1.107
      -0.787
      -0.335
       0.095
       0.397
       0.539
       0.548
       0.465
       0.300
       0.056
      -0.230
      -0.484
      -0.662
      -0.774
      -0.839
      -0.832
      -0.701
      -0.434
      -0.086
       0.258
       0.546
       0.792
       1.058
       1.367
       1.646
       1.764
       1.634
       1.273
       0.770
       0.215
      -0.326
      -0.814
      -1.231
      -1.574
      -1.827
      -1.943
      -1.878
      -1.635
      -1.274
      -0.886
      -0.555
      -0.319
      -0.143
       0.042
       0.286
       0.593
       0.930
       1.252
       1.493
       1.595
       1.551
       1.422
       1.283
       1.165
       1.047
       0.877
       0.606
       0.230
      -0.188
      -0.541
      -0.755
      -0.825
      -0.803
      -0.753
      -0.717
      -0.705
      -0.691
      -0.644
      -0.570
      -0.512
      -0.503
      -0.526
      -0.537
      -0.503
      -0.430
      -0.362
      -0.354
      -0.424
      -0.514
      -0.527
      -0.418
      -0.223
      -0.004
       0.220
       0.469
       0.749
       1.010
       1.161
       1.123
       0.887
       0.539
       0.198
      -0.059
      -0.225
      -0.323
      -0.370
      -0.380
      -0.374
      -0.368
      -0.367
      -0.364
      -0.347
      -0.294
      -0.190
      -0.057
       0.060
       0.143
       0.217
       0.321
       0.467
       0.628
       0.751
       0.775
       0.675
       0.481
       0.254
       0.034
      -0.170
      -0.342
      -0.437
      -0.405
      -0.234
       0.037
       0.320
       0.507
       0.522
       0.351
       0.039
      -0.359
      -0.788
      -1.168
      -1.408
      -1.450
      -1.295
      -0.989
      -0.582
      -0.126
       0.333
       0.744
       1.054
       1.222
       1.242
       1.155
       1.005
       0.789
       0.483
       0.106
      -0.253
      -0.495
      -0.579
      -0.539
      -0.459
      -0.411
      -0.420
      -0.456
      -0.476
      -0.472
      -0.462
      -0.445
      -0.396
      -0.310
      -0.215
      -0.146
      -0.117
      -0.118
      -0.127
      -0.105
      -0.023
       0.117
       0.289
       0.467
       0.631
       0.761
       0.831
       0.818
       0.705
       0.486
       0.199
      -0.062
      -0.196
      -0.174
      -0.044
       0.120
       0.278
       0.409
       0.496
       0.521
       0.484
       0.411
       0.358
       0.376
       0.467
       0.566
       0.587
       0.487
       0.280
       0.008
      -0.279
      -0.523
      -0.681
      -0.754
      -0.776
      -0.775
      -0.753
      -0.703
      -0.628
      -0.535
      -0.431
      -0.320
      -0.205
      -0.090
      -0.005
      -0.006
      -0.139
      -0.387
      -0.677
      -0.921
      -1.041
      -0.979
      -0.723
      -0.331
       0.097
       0.486
       0.820
       1.116
       1.369
       1.533
       1.549
       1.396
       1.133
       0.864
       0.653
       0.464
       0.210
      -0.145
      -0.542
      -0.873
      -1.045
      -1.020
      -0.822
      -0.520
      -0.185
       0.140
       0.413
       0.571
       0.550
       0.330
      -0.043
      -0.489
      -0.924
      -1.273
      -1.486
      -1.533
      -1.400
      -1.086
      -0.616
      -0.056
       0.535
       1.130
       1.713
       2.238
       2.623
       2.799
       2.729
       2.402
       1.837
       1.081
       0.212
      -0.684
      -1.510
      -2.159
      -2.541
      -2.615
      -2.405
      -1.992
      -1.492
      -1.020
      -0.624
      -0.274
       0.065
       0.362
       0.529
       0.510
       0.340
       0.127
      -0.033
      -0.113
      -0.165
      -0.244
      -0.327
      -0.310
      -0.119
       0.202
       0.515
       0.710
       0.779
       0.791
       0.815
       0.864
       0.889
       0.826
       0.665
       0.464
       0.287
       0.135
      -0.065
      -0.392
      -0.870
      -1.423
      -1.898
      -2.132
      -2.057
      -1.736
      -1.294
      -0.819
      -0.335
       0.142
       0.564
       0.857
       0.963
       0.890
       0.728
       0.606
       0.600
       0.691
       0.801
       0.866
       0.861
       0.783
       0.638
       0.436
       0.185
      -0.093
      -0.346
      -0.495
      -0.490
      -0.357
      -0.167
       0.025
       0.215
       0.420
       0.637
       0.814
       0.862
       0.717
       0.421
       0.109
      -0.085
      -0.139
      -0.135
      -0.173
      -0.292
      -0.446
      -0.551
      -0.552
      -0.485
      -0.442
      -0.477
      -0.545
      -0.548
      -0.431
      -0.223
       0.003
       0.183
       0.296
       0.364
       0.409
       0.433
       0.428
       0.416
       0.446
       0.534
       0.628
       0.658
       0.598
       0.472
       0.313
       0.130
      -0.082
      -0.332
      -0.603
      -0.833
      -0.938
      -0.876
      -0.693
      -0.498
      -0.389
      -0.398
      -0.477
      -0.524
      -0.463
      -0.304
      -0.140
      -0.058
      -0.077
      -0.157
      -0.249
      -0.305
      -0.280
      -0.158
       0.038
       0.254
       0.443
       0.572
       0.627
       0.616
       0.559
       0.476
       0.383
       0.297
       0.229
       0.153
       0.021
      -0.181
      -0.406
      -0.585
      -0.686
      -0.718
      -0.710
      -0.685
      -0.651
      -0.601
      -0.524
      -0.414
      -0.278
      -0.121
       0.051
       0.214
       0.343
       0.434
       0.511
       0.576
       0.610
       0.601
       0.580
       0.588
       0.642
       0.725
       0.807
       0.850
       0.822
       0.720
       0.565
       0.385
       0.192
      -0.010
      -0.205
      -0.369
      -0.478
      -0.519
      -0.513
      -0.507
      -0.543
      -0.605
      -0.643
      -0.637
      -0.614
      -0.592
      -0.532
      -0.369
      -0.076
       0.300
       0.652
       0.859
       0.848
       0.655
       0.414
       0.287
       0.362
       0.616
       0.915
       1.095
       1.054
       0.819
       0.495
       0.170
      -0.131
      -0.399
      -0.598
      -0.682
      -0.648
      -0.551
      -0.478
      -0.496
      -0.612
      -0.772
      -0.909
      -0.984
      -0.983
      -0.884
      -0.671
      -0.374
      -0.078
       0.130
       0.216
       0.203
       0.145
       0.102
       0.114
       0.179
       0.269
       0.365
       0.464
       0.549
       0.588
       0.569
       0.512
       0.448
       0.387
       0.317
       0.225
       0.113
       0.004
      -0.082
      -0.154
      -0.258
      -0.414
      -0.571
      -0.638
      -0.577
      -0.437
      -0.298
      -0.199
      -0.140
      -0.105
      -0.086
      -0.072
      -0.052
      -0.008
       0.078
       0.195
       0.298
       0.343
       0.326
       0.266
       0.163
       0.004
      -0.192
      -0.361
      -0.444
      -0.435
      -0.368
      -0.279
      -0.188
      -0.100
      -0.021
       0.027
       0.030
       0.009
       0.030
       0.150
       0.357
       0.586
       0.772
       0.880
       0.885
       0.765
       0.530
       0.241
      -0.023
      -0.194
      -0.239
      -0.162
       0.006
       0.220
       0.445
       0.635
       0.731
       0.682
       0.489
       0.201
      -0.130
      -0.465
      -0.763
      -0.978
      -1.072
      -1.023
      -0.828
      -0.522
      -0.192
       0.053
       0.139
       0.055
      -0.139
      -0.330
      -0.387
      -0.235
       0.084
       0.437
       0.694
       0.797
       0.766
       0.665
       0.554
       0.463
       0.375
       0.259
       0.116
      -0.021
      -0.116
      -0.153
      -0.146
      -0.140
      -0.195
      -0.331
      -0.485
      -0.558
      -0.493
      -0.318
      -0.105
       0.071
       0.157
       0.134
       0.013
      -0.176
      -0.399
      -0.612
      -0.760
      -0.814
      -0.783
      -0.691
      -0.527
      -0.262
       0.097
       0.483
       0.794
       0.955
       0.949
       0.827
       0.671
       0.528
       0.375
       0.156
      -0.142
      -0.466
      -0.725
      -0.842
      -0.791
      -0.621
      -0.430
      -0.294
      -0.203
      -0.091
       0.092
       0.325
       0.533
       0.641
       0.620
       0.506
       0.378
       0.297
       0.257
       0.218
       0.154
       0.078
       0.017
      -0.007
       0.001
       0.003
      -0.055
      -0.199
      -0.397
      -0.578
      -0.679
      -0.657
      -0.482
      -0.160
       0.239
       0.598
       0.813
       0.843
       0.720
       0.526
       0.350
       0.224
       0.120
      -0.004
      -0.147
      -0.267
      -0.319
      -0.289
      -0.199
      -0.108
      -0.079
      -0.123
      -0.183
      -0.194
      -0.169
      -0.188
      -0.317
      -0.532
      -0.724
      -0.780
      -0.663
      -0.424
      -0.150
       0.125
       0.419
       0.727
       0.974
       1.073
       1.012
       0.864
       0.709
       0.583
       0.477
