Origin Time       29/01/2013 19:42:52
Lat.              30.0 N	
Long.             81.6 E	
Depth (Km)          7.0
Magnitude         4.0
 Region           NEPAL                                                            
 Above details taken from IMD 
     
Station Code      PTH
Station Lat.       29.579  N
Station Long.      80.207  E
Station Height(m) 1538.0
Site Class        A   Vs30 between 700 m/sec to 1400 m/sec * 
Record Time       29.01.2013 19:42:48.439
Sampling Rate     200. Hz
 Record Duration   81.020 Sec.
 Direction         E-W (E positive)
Max. Acceleration      3.193 cm/sec**2
     
  * For reference see Site Classification link of website 
     
 Base Line Corrected and Low Pass Filtered (Cut Off at 35 Hz) Time History
 Acceleration data in cm/sec**2
    
[...]
      -0.313
      -0.218
      -0.147
      -0.124
      -0.137
      -0.131
      -0.046
       0.135
       0.363
       0.553
       0.632
       0.568
       0.389
       0.157
      -0.059
      -0.215
      -0.307
      -0.356
      -0.391
      -0.417
      -0.406
      -0.324
      -0.162
       0.048
       0.257
       0.413
       0.465
       0.377
       0.172
      -0.050
      -0.169
      -0.126
       0.042
       0.224
       0.306
       0.229
       0.023
      -0.203
      -0.327
      -0.282
      -0.094
       0.136
       0.291
       0.299
       0.180
       0.015
      -0.115
      -0.179
      -0.182
      -0.144
      -0.096
      -0.067
      -0.067
      -0.083
      -0.086
      -0.063
      -0.022
       0.019
       0.052
       0.084
       0.119
       0.149
       0.154
       0.125
       0.086
       0.065
       0.058
       0.029
      -0.043
      -0.134
      -0.189
      -0.177
      -0.105
      -0.005
       0.082
       0.119
       0.087
       0.000
      -0.098
      -0.154
      -0.142
      -0.088
      -0.052
      -0.087
      -0.188
      -0.279
      -0.271
      -0.117
       0.148
       0.423
       0.584
       0.561
       0.390
       0.188
       0.067
       0.045
       0.061
       0.045
      -0.024
      -0.110
      -0.168
      -0.180
      -0.170
      -0.168
      -0.183
      -0.200
      -0.209
      -0.222
      -0.251
      -0.280
      -0.276
      -0.221
      -0.122
      -0.003
       0.120
       0.240
       0.361
       0.482
       0.577
       0.601
       0.527
       0.384
       0.236
       0.139
       0.091
       0.042
      -0.067
      -0.245
      -0.430
      -0.529
      -0.488
      -0.332
      -0.138
       0.008
       0.046
      -0.039
      -0.193
      -0.313
      -0.309
      -0.172
       0.016
       0.145
       0.157
       0.073
      -0.025
      -0.062
      -0.006
       0.125
       0.289
       0.432
       0.489
       0.414
       0.233
       0.046
      -0.050
      -0.044
      -0.010
      -0.033
      -0.131
      -0.250
      -0.314
      -0.288
      -0.203
      -0.116
      -0.060
      -0.025
       0.017
       0.071
       0.121
       0.139
       0.105
       0.018
      -0.096
      -0.190
      -0.231
      -0.219
      -0.173
      -0.107
      -0.026
       0.048
       0.084
       0.064
       0.003
      -0.062
      -0.092
      -0.075
      -0.034
       0.001
       0.025
       0.057
       0.096
       0.114
       0.090
       0.054
       0.070
       0.169
       0.317
       0.433
       0.448
       0.344
       0.162
      -0.024
      -0.166
      -0.260
      -0.336
      -0.415
      -0.491
      -0.536
      -0.521
      -0.441
      -0.314
      -0.169
      -0.016
       0.153
       0.341
       0.516
       0.621
       0.612
       0.486
       0.282
       0.067
      -0.086
      -0.139
      -0.110
      -0.046
       0.015
       0.058
       0.078
       0.065
       0.009
      -0.079
      -0.165
      -0.202
      -0.172
      -0.117
      -0.113
      -0.203
      -0.352
      -0.463
      -0.452
      -0.287
      -0.009
       0.288
       0.497
       0.560
       0.499
       0.386
       0.266
       0.125
      -0.071
      -0.302
      -0.481
      -0.505
      -0.353
      -0.126
       0.022
       0.007
      -0.117
      -0.209
      -0.147
       0.085
       0.399
       0.661
       0.762
       0.672
       0.445
       0.165
      -0.097
      -0.302
      -0.424
      -0.448
      -0.392
      -0.322
      -0.322
      -0.426
      -0.563
      -0.594
      -0.403
      -0.008
       0.423
       0.677
       0.632
       0.340
      -0.019
      -0.240
      -0.220
      -0.009
       0.239
       0.377
       0.365
       0.272
       0.193
       0.172
       0.180
       0.163
       0.097
       0.000
      -0.101
      -0.207
      -0.339
      -0.483
      -0.577
      -0.552
      -0.398
      -0.180
       0.012
       0.126
       0.168
       0.183
       0.210
       0.240
       0.229
       0.145
       0.016
      -0.096
      -0.138
      -0.110
      -0.046
       0.018
       0.069
       0.115
       0.158
       0.181
       0.164
       0.123
       0.097
       0.108
       0.126
       0.100
       0.021
      -0.060
      -0.083
      -0.033
       0.039
       0.056
      -0.019
      -0.155
      -0.282
      -0.354
      -0.376
      -0.371
      -0.336
      -0.244
      -0.082
       0.126
       0.320
       0.430
       0.418
       0.313
       0.201
       0.156
       0.176
       0.184
       0.104
      -0.067
      -0.258
      -0.375
      -0.367
      -0.247
      -0.074
       0.092
       0.211
       0.251
       0.199
       0.073
      -0.071
      -0.171
      -0.195
      -0.150
      -0.066
       0.026
       0.092
       0.109
       0.081
       0.035
       0.010
       0.027
       0.078
       0.115
       0.082
      -0.040
      -0.209
      -0.343
      -0.378
      -0.296
      -0.134
       0.035
       0.143
       0.166
       0.139
       0.118
       0.128
       0.159
       0.182
       0.175
       0.128
       0.048
      -0.039
      -0.101
      -0.107
      -0.041
       0.090
       0.240
       0.338
       0.326
       0.197
      -0.002
      -0.199
      -0.335
      -0.383
      -0.361
      -0.310
      -0.260
      -0.207
      -0.142
      -0.075
      -0.027
      -0.001
       0.021
       0.058
       0.115
       0.184
       0.245
       0.278
       0.270
       0.214
       0.106
      -0.046
      -0.198
      -0.279
      -0.239
      -0.104
       0.038
       0.098
       0.050
      -0.058
      -0.141
      -0.138
      -0.055
       0.045
       0.105
       0.119
       0.125
       0.151
       0.187
       0.198
       0.165
       0.101
       0.043
       0.020
       0.017
      -0.014
      -0.101
      -0.214
      -0.285
      -0.276
      -0.218
      -0.174
      -0.178
      -0.201
      -0.192
      -0.127
      -0.040
       0.013
       0.021
       0.022
       0.058
       0.129
       0.199
       0.238
       0.241
       0.213
       0.158
       0.087
       0.020
      -0.010
       0.015
       0.077
       0.120
       0.078
      -0.061
      -0.231
      -0.328
      -0.277
      -0.088
       0.154
       0.335
       0.385
       0.310
       0.185
       0.077
       0.004
      -0.058
      -0.130
      -0.208
      -0.272
      -0.308
      -0.311
      -0.291
      -0.266
      -0.255
      -0.254
      -0.237
      -0.174
      -0.053
       0.102
       0.238
       0.303
       0.288
       0.226
       0.159
       0.114
       0.101
       0.129
       0.191
       0.241
       0.224
       0.122
      -0.025
      -0.137
      -0.148
      -0.045
       0.121
       0.259
       0.289
       0.186
      -0.012
      -0.224
      -0.371
      -0.410
      -0.365
      -0.294
      -0.247
      -0.226
      -0.213
      -0.200
      -0.182
      -0.143
      -0.063
       0.060
       0.199
       0.315
       0.378
       0.376
       0.311
       0.186
       0.018
      -0.150
      -0.241
      -0.194
      -0.020
       0.171
       0.248
       0.158
      -0.034
      -0.201
      -0.241
      -0.135
       0.052
       0.222
       0.296
       0.250
       0.108
      -0.076
      -0.247
      -0.350
      -0.351
      -0.253
      -0.107
       0.007
       0.027
      -0.047
      -0.137
      -0.133
       0.006
       0.209
       0.355
       0.377
       0.305
       0.216
       0.155
       0.117
       0.080
       0.034
      -0.008
      -0.041
      -0.079
      -0.143
      -0.231
      -0.309
      -0.335
      -0.293
      -0.191
      -0.051
       0.100
       0.219
       0.258
       0.196
       0.052
      -0.118
      -0.249
      -0.289
      -0.229
      -0.112
      -0.006
       0.041
       0.032
       0.020
       0.070
       0.201
       0.362
       0.457
       0.426
       0.293
       0.134
       0.007
      -0.085
      -0.175
      -0.286
      -0.411
      -0.509
      -0.537
      -0.475
      -0.346
      -0.191
      -0.035
       0.111
       0.230
       0.294
       0.284
       0.212
       0.129
       0.094
       0.129
       0.195
       0.220
       0.166
       0.067
       0.004
       0.030
       0.126
       0.225
       0.253
       0.179
       0.035
      -0.107
      -0.193
      -0.222
      -0.231
      -0.251
      -0.273
      -0.266
      -0.208
      -0.119
      -0.049
      -0.047
      -0.105
      -0.161
      -0.150
      -0.058
       0.075
       0.195
       0.262
       0.254
       0.179
       0.074
      -0.015
      -0.057
      -0.050
      -0.006
       0.051
       0.087
       0.074
       0.012
      -0.053
      -0.063
       0.020
       0.176
       0.326
       0.384
       0.311
       0.143
      -0.047
      -0.206
      -0.315
      -0.373
      -0.378
      -0.335
      -0.261
      -0.181
      -0.116
      -0.070
      -0.029
       0.034
       0.133
       0.249
       0.338
       0.361
       0.299
       0.164
      -0.007
      -0.164
      -0.273
      -0.327
      -0.320
      -0.236
      -0.068
       0.144
       0.318
       0.388
       0.356
       0.299
       0.306
       0.408
       0.537
       0.572
       0.430
       0.132
      -0.213
      -0.481
      -0.612
      -0.616
      -0.539
      -0.426
      -0.307
      -0.212
      -0.170
      -0.195
      -0.245
      -0.235
      -0.107
       0.104
       0.287
       0.339
       0.243
       0.079
      -0.042
      -0.056
       0.014
       0.086
       0.095
       0.046
       0.003
       0.025
       0.123
       0.258
       0.365
       0.389
       0.316
       0.187
       0.066
      -0.005
      -0.023
      -0.012
       0.001
      -0.012
      -0.064
      -0.141
      -0.205
      -0.215
      -0.158
      -0.059
       0.026
       0.039
      -0.046
      -0.201
      -0.366
      -0.488
      -0.534
      -0.503
      -0.415
      -0.305
      -0.201
      -0.098
       0.040
       0.240
       0.485
       0.717
       0.866
       0.897
       0.827
       0.706
       0.570
       0.424
       0.249
       0.043
      -0.179
      -0.385
      -0.542
      -0.632
      -0.663
      -0.668
      -0.678
      -0.692
      -0.686
      -0.647
      -0.587
      -0.529
      -0.476
      -0.405
      -0.280
      -0.079
       0.166
       0.391
       0.544
       0.636
       0.734
       0.887
       1.079
       1.239
       1.297
       1.222
       1.043
       0.819
       0.602
       0.406
       0.210
      -0.005
      -0.243
      -0.491
      -0.734
      -0.965
      -1.179
      -1.372
      -1.521
      -1.580
      -1.505
      -1.287
      -0.968
      -0.626
      -0.333
      -0.123
       0.027
       0.181
       0.389
       0.650
       0.922
       1.170
       1.384
       1.567
       1.703
       1.760
       1.699
       1.508
       1.213
       0.865
       0.510
       0.166
      -0.168
      -0.487
      -0.784
      -1.070
      -1.357
      -1.626
      -1.824
      -1.895
      -1.833
      -1.688
      -1.531
      -1.404
      -1.284
      -1.103
      -0.803
      -0.386
       0.095
       0.577
       1.010
       1.349
       1.556
       1.621
       1.571
       1.450
       1.302
       1.143
       0.965
       0.740
       0.462
       0.170
      -0.064
      -0.186
      -0.195
      -0.137
      -0.079
      -0.072
      -0.126
      -0.208
      -0.273
      -0.310
      -0.348
      -0.422
      -0.540
      -0.677
      -0.784
      -0.804
      -0.704
      -0.509
      -0.292
      -0.129
      -0.055
      -0.056
      -0.087
      -0.107
      -0.103
      -0.095
      -0.108
      -0.130
      -0.120
      -0.044
       0.093
       0.244
       0.356
       0.405
       0.419
       0.451
       0.532
       0.639
       0.724
       0.762
       0.768
       0.760
       0.726
       0.628
       0.443
       0.186
      -0.092
      -0.322
      -0.450
      -0.444
      -0.297
      -0.030
       0.289
       0.542
       0.608
       0.425
       0.021
      -0.512
      -1.044
      -1.441
      -1.596
      -1.467
      -1.109
      -0.660
      -0.277
      -0.063
      -0.004
       0.006
       0.082
       0.264
       0.489
       0.657
       0.701
       0.626
       0.486
       0.342
       0.218
       0.103
      -0.018
      -0.129
      -0.192
      -0.177
      -0.088
       0.040
       0.149
       0.183
       0.129
       0.034
      -0.029
      -0.016
       0.048
       0.103
       0.111
       0.102
       0.144
       0.284
       0.494
       0.687
       0.788
       0.790
       0.739
       0.673
       0.581
       0.427
       0.187
      -0.129
      -0.477
      -0.815
      -1.127
      -1.424
      -1.714
      -1.964
      -2.109
      -2.101
      -1.937
      -1.658
      -1.314
      -0.936
      -0.515
      -0.015
       0.584
       1.241
       1.863
       2.352
       2.656
       2.783
       2.782
       2.692
       2.511
       2.192
       1.697
       1.049
       0.338
      -0.333
      -0.900
      -1.348
      -1.694
      -1.962
      -2.165
      -2.304
      -2.380
      -2.397
      -2.349
      -2.210
      -1.953
      -1.573
      -1.091
      -0.548
       0.018
       0.574
       1.112
       1.649
       2.194
       2.701
       3.070
       3.193
       3.032
       2.652
       2.190
       1.768
       1.403
       1.002
       0.458
      -0.243
      -0.991
      -1.638
      -2.097
      -2.373
      -2.532
      -2.635
      -2.707
      -2.728
      -2.664
      -2.499
      -2.236
      -1.883
      -1.440
      -0.915
      -0.321
       0.324
       0.998
       1.656
       2.235
       2.667
       2.906
       2.939
       2.790
       2.516
       2.187
       1.855
       1.542
       1.240
       0.928
       0.586
       0.217
      -0.157
      -0.509
      -0.824
      -1.104
      -1.358
      -1.596
      -1.825
      -2.046
      -2.234
      -2.343
      -2.337
      -2.200
      -1.939
      -1.563
      -1.081
      -0.522
       0.054
       0.550
       0.867
       0.966
       0.914
       0.855
       0.926
       1.177
       1.560
       1.961
       2.268
       2.409
       2.373
       2.177
       1.826
       1.316
       0.679
       0.004
      -0.593
      -1.051
      -1.407
      -1.761
      -2.173
      -2.574
      -2.782
      -2.636
      -2.136
      -1.452
      -0.799
      -0.297
       0.068
       0.381
       0.708
       1.039
       1.312
       1.473
       1.524
       1.508
       1.453
       1.345
       1.159
       0.909
       0.658
       0.478
       0.388
       0.325
       0.179
      -0.120
      -0.537
      -0.945
      -1.212
      -1.279
      -1.182
      -1.008
      -0.840
      -0.713
      -0.620
      -0.545
      -0.500
      -0.511
      -0.564
      -0.589
      -0.511
      -0.311
      -0.048
       0.189
       0.347
       0.457
       0.609
       0.877
       1.256
       1.655
       1.949
       2.040
       1.888
       1.527
       1.061
       0.621
       0.295
       0.074
      -0.138
      -0.450
      -0.902
      -1.421
      -1.864
      -2.105
      -2.112
      -1.935
      -1.650
      -1.308
      -0.928
      -0.521
      -0.100
       0.321
       0.725
       1.090
       1.378
       1.530
       1.478
       1.190
       0.720
       0.189
      -0.278
      -0.621
      -0.852
      -1.016
      -1.142
      -1.220
      -1.199
      -1.022
      -0.673
      -0.180
       0.399
       1.000
       1.559
       2.017
       2.324
       2.449
       2.374
       2.098
       1.639
       1.029
       0.298
      -0.505
      -1.299
      -1.976
      -2.445
      -2.668
      -2.664
      -2.488
      -2.199
      -1.841
      -1.430
      -0.976
      -0.502
      -0.043
       0.375
       0.748
       1.081
       1.364
       1.575
       1.684
       1.673
       1.557
       1.395
       1.252
       1.163
       1.119
       1.091
       1.055
       0.985
       0.843
       0.596
       0.233
      -0.202
      -0.620
      -0.915
      -1.045
      -1.076
      -1.142
      -1.347
      -1.683
      -2.028
      -2.231
      -2.194
      -1.920
      -1.503
      -1.063
      -0.678
      -0.366
      -0.097
       0.183
       0.536
       0.992
       1.508
       1.965
       2.228
       2.231
       2.013
       1.693
       1.399
       1.196
       1.057
       0.898
       0.654
       0.323
      -0.036
      -0.347
      -0.571
      -0.727
      -0.880
      -1.086
      -1.342
      -1.590
      -1.755
      -1.793
      -1.692
      -1.474
      -1.176
      -0.830
      -0.440
       0.009
       0.517
       1.040
       1.493
       1.777
       1.813
       1.593
       1.199
       0.760
       0.379
       0.078
      -0.185
      -0.454
      -0.728
      -0.952
      -1.050
      -0.986
      -0.790
      -0.538
      -0.287
      -0.046
       0.205
       0.469
       0.711
       0.882
       0.936
       0.859
       0.667
       0.404
       0.120
      -0.141
      -0.337
      -0.440
      -0.464
      -0.458
      -0.482
      -0.549
      -0.615
      -0.596
      -0.421
      -0.084
       0.337
       0.705
       0.903
       0.895
       0.720
       0.463
       0.197
      -0.034
      -0.222
      -0.381
      -0.525
      -0.649
      -0.736
      -0.761
      -0.700
      -0.548
      -0.339
      -0.129
       0.045
       0.188
       0.329
       0.475
       0.612
       0.719
       0.779
       0.781
       0.723
       0.607
       0.447
       0.256
       0.047
      -0.172
      -0.396
      -0.603
      -0.748
      -0.783
      -0.693
      -0.509
      -0.291
      -0.099
       0.023
       0.052
       0.003
      -0.087
      -0.178
      -0.234
      -0.223
      -0.125
       0.053
       0.269
       0.472
       0.621
       0.703
       0.727
       0.717
       0.691
       0.640
       0.547
       0.407
       0.225
      -0.014
      -0.336
      -0.743
      -1.166
      -1.478
      -1.549
      -1.319
      -0.839
      -0.255
       0.262
       0.595
       0.725
       0.699
       0.592
       0.476
       0.405
       0.393
       0.416
       0.421
       0.363
       0.229
       0.047
      -0.125
      -0.234
      -0.268
      -0.259
      -0.243
      -0.234
      -0.224
      -0.197
      -0.143
      -0.066
       0.017
       0.082
       0.116
       0.123
       0.104
       0.057
      -0.024
      -0.127
      -0.228
      -0.308
      -0.360
      -0.395
      -0.434
      -0.473
      -0.480
      -0.408
      -0.247
      -0.037
       0.164
       0.328
       0.469
       0.620
       0.797
       0.977
       1.096
       1.094
       0.956
       0.725
       0.459
       0.196
      -0.058
      -0.301
      -0.518
      -0.684
      -0.778
      -0.806
      -0.805
      -0.805
      -0.796
      -0.730
      -0.569
      -0.333
      -0.093
       0.086
       0.185
       0.226
       0.245
       0.254
       0.243
       0.207
       0.174
       0.180
       0.232
       0.288
