Origin Time       02/01/2013 17:42:15
Lat.              29.4 N	
Long.             81.1 E	
Depth (Km)         10.0
Magnitude         4.8
 Region           Western-NEPAL                                                    
 Above details taken from IMD 
   
Station Code      PTH
Station Lat.       29.579
Station Long.      80.207
Station Height(m) 1538.0
Site Class        A   Vs30 between 700 m/sec to 1400 m/sec * 
Record Time       02.01.2013 17:42:18.174
Sampling Rate     200. Hz
 Record Duration   81.025 Sec.
 Direction         Vert. (Up positive)
Max. Acceleration      1.830 cm/sec**2
     
  * For reference see Site Classification link of website 
     
 Base Line Corrected and Low Pass Filtered (Cut Off at 35 Hz) Time History
 Acceleration data in cm/sec**2
    
[...]
      -0.275
      -0.185
      -0.077
       0.020
       0.089
       0.143
       0.201
       0.247
       0.246
       0.189
       0.102
       0.016
      -0.045
      -0.060
      -0.024
       0.029
       0.059
       0.060
       0.053
       0.050
       0.054
       0.068
       0.089
       0.101
       0.091
       0.068
       0.047
       0.020
      -0.029
      -0.090
      -0.142
      -0.184
      -0.225
      -0.254
      -0.243
      -0.187
      -0.102
      -0.007
       0.078
       0.130
       0.138
       0.122
       0.106
       0.087
       0.053
       0.008
      -0.032
      -0.063
      -0.083
      -0.077
      -0.036
       0.017
       0.050
       0.054
       0.038
       0.008
      -0.029
      -0.053
      -0.043
      -0.008
       0.028
       0.056
       0.074
       0.074
       0.053
       0.030
       0.021
       0.009
      -0.028
      -0.079
      -0.116
      -0.123
      -0.104
      -0.065
      -0.019
       0.009
       0.009
       0.003
       0.018
       0.052
       0.084
       0.108
       0.120
       0.109
       0.069
       0.019
      -0.025
      -0.073
      -0.138
      -0.196
      -0.213
      -0.174
      -0.093
       0.013
       0.118
       0.188
       0.202
       0.176
       0.130
       0.065
      -0.020
      -0.105
      -0.166
      -0.198
      -0.203
      -0.174
      -0.106
      -0.026
       0.038
       0.080
       0.108
       0.125
       0.135
       0.153
       0.182
       0.204
       0.197
       0.166
       0.124
       0.071
       0.008
      -0.053
      -0.104
      -0.162
      -0.228
      -0.273
      -0.262
      -0.200
      -0.118
      -0.048
      -0.007
      -0.002
      -0.022
      -0.035
      -0.025
      -0.005
       0.012
       0.039
       0.089
       0.148
       0.196
       0.228
       0.242
       0.222
       0.158
       0.064
      -0.043
      -0.151
      -0.236
      -0.258
      -0.201
      -0.100
      -0.010
       0.040
       0.043
       0.008
      -0.041
      -0.067
      -0.058
      -0.040
      -0.039
      -0.048
      -0.043
      -0.021
       0.012
       0.051
       0.085
       0.091
       0.066
       0.042
       0.048
       0.078
       0.110
       0.133
       0.142
       0.129
       0.096
       0.062
       0.031
      -0.010
      -0.067
      -0.114
      -0.131
      -0.125
      -0.115
      -0.103
      -0.090
      -0.085
      -0.087
      -0.077
      -0.047
      -0.011
       0.017
       0.040
       0.060
       0.064
       0.051
       0.045
       0.062
       0.086
       0.101
       0.108
       0.109
       0.085
       0.024
      -0.056
      -0.122
      -0.152
      -0.139
      -0.088
      -0.031
      -0.006
      -0.011
       0.003
       0.065
       0.145
       0.188
       0.161
       0.072
      -0.051
      -0.161
      -0.217
      -0.210
      -0.168
      -0.112
      -0.043
       0.032
       0.092
       0.121
       0.130
       0.127
       0.108
       0.072
       0.038
       0.011
      -0.015
      -0.042
      -0.050
      -0.038
      -0.032
      -0.050
      -0.080
      -0.097
      -0.086
      -0.044
       0.023
       0.081
       0.094
       0.061
       0.019
      -0.005
      -0.019
      -0.035
      -0.040
      -0.021
       0.022
       0.077
       0.126
       0.144
       0.113
       0.061
       0.044
       0.083
       0.141
       0.172
       0.160
       0.112
       0.048
      -0.013
      -0.058
      -0.108
      -0.185
      -0.276
      -0.327
      -0.305
      -0.228
      -0.138
      -0.064
      -0.023
      -0.015
      -0.013
       0.019
       0.081
       0.139
       0.167
       0.169
       0.154
       0.119
       0.072
       0.030
       0.001
      -0.028
      -0.056
      -0.067
      -0.058
      -0.045
      -0.039
      -0.041
      -0.053
      -0.085
      -0.124
      -0.141
      -0.119
      -0.073
      -0.016
       0.041
       0.082
       0.084
       0.056
       0.032
       0.033
       0.047
       0.059
       0.061
       0.047
       0.008
      -0.046
      -0.090
      -0.116
      -0.127
      -0.114
      -0.060
       0.020
       0.085
       0.116
       0.127
       0.140
       0.155
       0.165
       0.160
       0.131
       0.079
       0.035
       0.033
       0.061
       0.067
       0.020
      -0.063
      -0.143
      -0.188
      -0.179
      -0.122
      -0.054
      -0.017
      -0.010
      -0.004
       0.014
       0.023
       0.005
      -0.040
      -0.105
      -0.180
      -0.244
      -0.283
      -0.306
      -0.330
      -0.343
      -0.307
      -0.213
      -0.088
       0.035
       0.140
       0.221
       0.280
       0.342
       0.425
       0.512
       0.561
       0.549
       0.487
       0.393
       0.278
       0.170
       0.096
       0.055
       0.025
      -0.004
      -0.026
      -0.043
      -0.059
      -0.070
      -0.067
      -0.067
      -0.099
      -0.162
      -0.232
      -0.287
      -0.322
      -0.332
      -0.317
      -0.299
      -0.302
      -0.321
      -0.329
      -0.321
      -0.311
      -0.301
      -0.276
      -0.220
      -0.128
       0.004
       0.169
       0.331
       0.454
       0.529
       0.572
       0.578
       0.534
       0.443
       0.331
       0.219
       0.117
       0.041
       0.004
      -0.010
      -0.025
      -0.046
      -0.060
      -0.063
      -0.066
      -0.068
      -0.067
      -0.074
      -0.100
      -0.125
      -0.123
      -0.099
      -0.084
      -0.096
      -0.129
      -0.173
      -0.218
      -0.240
      -0.220
      -0.168
      -0.110
      -0.056
      -0.001
       0.051
       0.091
       0.118
       0.128
       0.100
       0.024
      -0.065
      -0.117
      -0.113
      -0.071
      -0.011
       0.052
       0.104
       0.139
       0.168
       0.199
       0.213
       0.180
       0.108
       0.024
      -0.048
      -0.099
      -0.118
      -0.110
      -0.107
      -0.137
      -0.184
      -0.204
      -0.170
      -0.093
       0.001
       0.077
       0.096
       0.051
      -0.016
      -0.055
      -0.063
      -0.072
      -0.098
      -0.128
      -0.134
      -0.091
       0.012
       0.156
       0.281
       0.334
       0.325
       0.298
       0.285
       0.284
       0.279
       0.242
       0.157
       0.041
      -0.053
      -0.087
      -0.084
      -0.094
      -0.132
      -0.176
      -0.203
      -0.206
      -0.190
      -0.167
      -0.161
      -0.176
      -0.188
      -0.176
      -0.153
      -0.138
      -0.126
      -0.096
      -0.050
      -0.002
       0.042
       0.083
       0.113
       0.125
       0.131
       0.142
       0.151
       0.150
       0.154
       0.170
       0.179
       0.162
       0.123
       0.086
       0.058
       0.038
       0.028
       0.022
       0.000
      -0.052
      -0.118
      -0.176
      -0.221
      -0.260
      -0.277
      -0.254
      -0.196
      -0.118
      -0.030
       0.048
       0.093
       0.101
       0.104
       0.133
       0.169
       0.174
       0.137
       0.078
       0.023
      -0.010
      -0.017
      -0.019
      -0.049
      -0.110
      -0.160
      -0.164
      -0.132
      -0.097
      -0.073
      -0.058
      -0.053
      -0.053
      -0.050
      -0.045
      -0.055
      -0.084
      -0.102
      -0.079
      -0.025
       0.040
       0.109
       0.180
       0.242
       0.280
       0.292
       0.278
       0.228
       0.150
       0.079
       0.047
       0.050
       0.069
       0.092
       0.102
       0.072
      -0.007
      -0.101
      -0.163
      -0.173
      -0.136
      -0.067
       0.007
       0.049
       0.049
       0.029
       0.003
      -0.039
      -0.105
      -0.167
      -0.185
      -0.141
      -0.043
       0.086
       0.200
       0.254
       0.243
       0.211
       0.197
       0.200
       0.191
       0.159
       0.101
       0.014
      -0.095
      -0.203
      -0.304
      -0.406
      -0.509
      -0.580
      -0.594
      -0.549
      -0.453
      -0.308
      -0.132
       0.036
       0.163
       0.248
       0.306
       0.347
       0.377
       0.405
       0.419
       0.397
       0.343
       0.304
       0.315
       0.365
       0.417
       0.441
       0.414
       0.324
       0.183
       0.029
      -0.113
      -0.247
      -0.381
      -0.503
      -0.598
      -0.659
      -0.681
      -0.660
      -0.614
      -0.574
      -0.546
      -0.498
      -0.401
      -0.255
      -0.078
       0.110
       0.284
       0.413
       0.493
       0.545
       0.576
       0.572
       0.532
       0.490
       0.473
       0.475
       0.469
       0.436
       0.358
       0.229
       0.068
      -0.085
      -0.208
      -0.313
      -0.406
      -0.469
      -0.490
      -0.481
      -0.454
      -0.412
      -0.359
      -0.307
      -0.251
      -0.176
      -0.084
       0.000
       0.063
       0.118
       0.173
       0.213
       0.226
       0.216
       0.186
       0.138
       0.095
       0.093
       0.140
       0.209
       0.269
       0.307
       0.312
       0.270
       0.182
       0.071
      -0.043
      -0.151
      -0.239
      -0.284
      -0.287
      -0.268
      -0.233
      -0.171
      -0.085
      -0.006
       0.037
       0.041
       0.019
      -0.018
      -0.047
      -0.047
      -0.025
      -0.015
      -0.026
      -0.039
      -0.037
      -0.027
      -0.022
      -0.028
      -0.052
      -0.099
      -0.147
      -0.151
      -0.091
       0.009
       0.105
       0.159
       0.153
       0.096
       0.029
      -0.009
      -0.024
      -0.054
      -0.108
      -0.142
      -0.113
      -0.013
       0.130
       0.276
       0.380
       0.415
       0.394
       0.350
       0.295
       0.225
       0.147
       0.086
       0.043
      -0.006
      -0.080
      -0.175
      -0.286
      -0.409
      -0.526
      -0.608
      -0.644
      -0.646
      -0.615
      -0.544
      -0.437
      -0.314
      -0.187
      -0.059
       0.062
       0.160
       0.248
       0.352
       0.468
       0.567
       0.629
       0.664
       0.683
       0.690
       0.688
       0.677
       0.647
       0.584
       0.506
       0.432
       0.341
       0.187
      -0.048
      -0.327
      -0.596
      -0.813
      -0.953
      -1.012
      -1.018
      -1.004
      -0.977
      -0.919
      -0.827
      -0.716
      -0.588
      -0.434
      -0.251
      -0.046
       0.179
       0.420
       0.641
       0.796
       0.869
       0.882
       0.852
       0.785
       0.695
       0.605
       0.520
       0.434
       0.341
       0.242
       0.123
      -0.019
      -0.160
      -0.266
      -0.336
      -0.391
      -0.435
      -0.442
      -0.390
      -0.281
      -0.134
       0.018
       0.128
       0.168
       0.159
       0.147
       0.145
       0.136
       0.106
       0.063
       0.008
      -0.058
      -0.127
      -0.189
      -0.252
      -0.324
      -0.382
      -0.395
      -0.359
      -0.296
      -0.216
      -0.117
      -0.011
       0.080
       0.142
       0.177
       0.175
       0.134
       0.077
       0.032
       0.004
      -0.019
      -0.040
      -0.052
      -0.059
      -0.062
      -0.040
       0.031
       0.140
       0.247
       0.321
       0.347
       0.326
       0.270
       0.213
       0.175
       0.133
       0.053
      -0.062
      -0.170
      -0.246
      -0.291
      -0.313
      -0.315
      -0.301
      -0.266
      -0.189
      -0.061
       0.090
       0.216
       0.300
       0.343
       0.352
       0.331
       0.303
       0.289
       0.280
       0.255
       0.208
       0.139
       0.033
      -0.116
      -0.282
      -0.417
      -0.484
      -0.464
      -0.356
      -0.190
      -0.030
       0.065
       0.089
       0.078
       0.055
       0.020
      -0.034
      -0.111
      -0.205
      -0.286
      -0.296
      -0.211
      -0.072
       0.043
       0.087
       0.065
       0.004
      -0.057
      -0.084
      -0.074
      -0.062
      -0.076
      -0.098
      -0.086
      -0.028
       0.063
       0.162
       0.251
       0.309
       0.336
       0.355
       0.382
       0.391
       0.342
       0.229
       0.073
      -0.107
      -0.297
      -0.485
      -0.659
      -0.822
      -0.960
      -1.031
      -0.999
      -0.866
      -0.650
      -0.361
      -0.017
       0.336
       0.650
       0.904
       1.099
       1.224
       1.266
       1.235
       1.154
       1.040
       0.909
       0.787
       0.688
       0.593
       0.472
       0.320
       0.150
      -0.032
      -0.223
      -0.406
      -0.571
      -0.718
      -0.845
      -0.936
      -0.993
      -1.050
      -1.139
      -1.240
      -1.305
      -1.297
      -1.200
      -1.011
      -0.752
      -0.472
      -0.207
       0.041
       0.276
       0.481
       0.630
       0.730
       0.802
       0.864
       0.922
       0.980
       1.025
       1.026
       0.960
       0.836
       0.673
       0.477
       0.253
       0.015
      -0.226
      -0.469
      -0.697
      -0.871
      -0.967
      -1.009
      -1.036
      -1.062
      -1.084
      -1.098
      -1.091
      -1.037
      -0.920
      -0.745
      -0.514
      -0.205
       0.185
       0.612
       1.014
       1.349
       1.604
       1.767
       1.830
       1.791
       1.644
       1.390
       1.059
       0.713
       0.398
       0.112
      -0.159
      -0.403
      -0.597
      -0.726
      -0.789
      -0.799
      -0.797
      -0.833
      -0.910
      -0.973
      -0.972
      -0.910
      -0.831
      -0.762
      -0.709
      -0.658
      -0.579
      -0.435
      -0.218
       0.042
       0.318
       0.605
       0.896
       1.156
       1.342
       1.428
       1.399
       1.255
       1.025
       0.764
       0.506
       0.245
      -0.029
      -0.296
      -0.528
      -0.704
      -0.812
      -0.838
      -0.803
      -0.750
      -0.708
      -0.661
      -0.590
      -0.502
      -0.420
      -0.348
      -0.275
      -0.184
      -0.048
       0.155
       0.404
       0.640
       0.814
       0.919
       0.963
       0.953
       0.892
       0.787
       0.631
       0.412
       0.152
      -0.096
      -0.295
      -0.453
      -0.588
      -0.697
      -0.770
      -0.799
      -0.778
      -0.692
      -0.549
      -0.381
      -0.213
      -0.055
       0.073
       0.143
       0.145
       0.098
       0.026
      -0.060
      -0.140
      -0.188
      -0.194
      -0.169
      -0.122
      -0.046
       0.051
       0.139
       0.206
       0.274
       0.370
       0.509
       0.698
       0.933
       1.176
       1.364
       1.455
       1.443
       1.332
       1.117
       0.805
       0.433
       0.049
      -0.305
      -0.588
      -0.776
      -0.879
      -0.934
      -0.957
      -0.944
      -0.902
      -0.859
      -0.825
      -0.779
      -0.713
      -0.648
      -0.603
      -0.578
      -0.564
      -0.560
      -0.551
      -0.521
      -0.471
      -0.416
      -0.349
      -0.240
      -0.069
       0.147
       0.375
       0.584
       0.741
       0.817
       0.813
       0.752
       0.649
       0.516
       0.386
       0.304
       0.277
       0.271
       0.250
       0.209
       0.149
       0.068
      -0.033
      -0.146
      -0.272
      -0.409
      -0.526
      -0.580
      -0.561
      -0.492
      -0.390
      -0.252
      -0.090
       0.067
       0.196
       0.295
       0.360
       0.382
       0.363
       0.331
       0.308
       0.313
       0.358
       0.435
       0.502
       0.507
       0.440
       0.327
       0.187
       0.025
      -0.145
      -0.293
      -0.406
      -0.490
      -0.542
      -0.549
      -0.506
      -0.431
      -0.339
      -0.242
      -0.166
      -0.134
      -0.140
      -0.161
      -0.194
      -0.253
      -0.334
      -0.403
      -0.439
      -0.443
      -0.425
      -0.393
      -0.355
      -0.304
      -0.201
      -0.010
       0.249
       0.508
       0.705
       0.814
       0.838
       0.791
       0.698
       0.581
       0.433
       0.249
       0.062
      -0.073
      -0.127
      -0.120
      -0.078
      -0.016
       0.058
       0.148
       0.272
       0.439
       0.617
       0.747
       0.801
       0.775
       0.666
       0.462
       0.162
      -0.212
      -0.633
      -1.053
      -1.401
      -1.611
      -1.671
      -1.613
      -1.474
      -1.278
      -1.050
      -0.813
      -0.564
      -0.288
       0.008
       0.294
       0.546
       0.755
       0.910
       1.006
       1.057
       1.077
       1.053
       0.967
       0.841
       0.727
       0.661
       0.644
       0.664
       0.708
       0.744
       0.744
       0.696
       0.603
       0.451
       0.233
      -0.035
      -0.322
      -0.612
      -0.895
      -1.148
      -1.346
      -1.498
      -1.625
      -1.719
      -1.735
      -1.636
      -1.413
      -1.082
      -0.683
      -0.284
       0.065
       0.361
       0.622
       0.841
       0.991
       1.065
       1.083
       1.064
       1.020
       0.963
       0.890
       0.780
       0.615
       0.418
       0.232
       0.080
      -0.042
      -0.140
      -0.221
      -0.297
      -0.373
      -0.432
      -0.458
      -0.459
      -0.449
      -0.419
      -0.359
      -0.289
      -0.244
      -0.231
      -0.238
      -0.258
      -0.283
      -0.284
      -0.230
      -0.114
       0.052
       0.260
       0.496
       0.720
       0.891
       0.989
       1.009
       0.935
       0.758
       0.510
       0.253
       0.041
      -0.099
      -0.164
      -0.183
      -0.205
      -0.254
      -0.305
      -0.326
      -0.322
      -0.330
      -0.367
      -0.429
      -0.507
      -0.582
      -0.625
      -0.620
      -0.578
      -0.510
      -0.402
      -0.242
      -0.065
       0.073
       0.132
       0.103
      -0.004
      -0.161
      -0.323
      -0.461
      -0.572
      -0.654
      -0.673
      -0.590
      -0.414
      -0.187
       0.041
       0.235
       0.373
       0.462
       0.546
       0.664
       0.812
       0.969
       1.117
       1.247
       1.332
       1.351
       1.302
       1.185
       0.992
       0.730
       0.448
       0.202
       0.019
      -0.107
      -0.190
      -0.262
      -0.366
      -0.514
      -0.671
      -0.791
      -0.873
      -0.952
      -1.045
      -1.141
      -1.204
      -1.184
      -1.054
      -0.836
      -0.600
      -0.393
      -0.204
       0.006
       0.246
       0.503
       0.764
       1.015
       1.228
       1.372
       1.431
       1.394
       1.254
       1.022
       0.739
       0.441
       0.141
      -0.143
      -0.366
      -0.490
      -0.522
      -0.495
      -0.443
      -0.402
      -0.409
      -0.468
      -0.537
      -0.572
      -0.572
      -0.566
      -0.581
      -0.626
      -0.694
      -0.749
      -0.737
      -0.638
      -0.479
      -0.293
      -0.082
       0.165
       0.439
       0.717
       0.972
       1.174
       1.287
       1.303
