Origin Time       23/08/2012 16:30:19
Lat.              28.4 N	
Long.             82.7 E	
Depth (Km)         10.0
Magnitude         5.0
 Region           NEPAL                                                            
 Above details taken from IMD 
   
Station Code      PTI
Station Lat.       29.407
Station Long.      79.931
Station Height(m) 1667.0
Site Class        A   Vs30 between 700 m/sec to 1400 m/sec * 
Record Time       23.08.2012 16:31:14.879
Sampling Rate     200. Hz
 Record Duration   80.010 Sec.
 Direction         Vert. (Up positive)
Max. Acceleration      1.219 cm/sec**2
     
  * For reference see Site Classification link of website 
     
 Base Line Corrected and Low Pass Filtered (Cut Off at 35 Hz) Time History
 Acceleration data in cm/sec**2
    
[...]
      -0.128
      -0.023
       0.067
       0.117
       0.120
       0.086
       0.040
       0.003
      -0.008
       0.005
       0.032
       0.055
       0.062
       0.052
       0.033
       0.017
       0.013
       0.022
       0.038
       0.047
       0.036
      -0.003
      -0.061
      -0.117
      -0.145
      -0.125
      -0.058
       0.032
       0.114
       0.161
       0.163
       0.134
       0.093
       0.058
       0.036
       0.025
       0.017
       0.002
      -0.029
      -0.075
      -0.130
      -0.174
      -0.189
      -0.159
      -0.089
       0.000
       0.075
       0.112
       0.105
       0.072
       0.039
       0.029
       0.046
       0.081
       0.117
       0.139
       0.139
       0.113
       0.067
       0.011
      -0.041
      -0.076
      -0.089
      -0.086
      -0.084
      -0.100
      -0.141
      -0.200
      -0.257
      -0.290
      -0.280
      -0.221
      -0.127
      -0.019
       0.076
       0.139
       0.166
       0.166
       0.153
       0.137
       0.119
       0.099
       0.072
       0.036
      -0.007
      -0.048
      -0.070
      -0.058
      -0.006
       0.069
       0.140
       0.177
       0.167
       0.117
       0.049
      -0.013
      -0.055
      -0.071
      -0.068
      -0.053
      -0.039
      -0.030
      -0.028
      -0.028
      -0.026
      -0.025
      -0.029
      -0.045
      -0.073
      -0.106
      -0.137
      -0.152
      -0.144
      -0.111
      -0.061
      -0.006
       0.038
       0.064
       0.069
       0.055
       0.029
       0.004
      -0.004
       0.015
       0.057
       0.105
       0.136
       0.135
       0.100
       0.042
      -0.020
      -0.068
      -0.090
      -0.088
      -0.072
      -0.062
      -0.073
      -0.113
      -0.174
      -0.237
      -0.276
      -0.274
      -0.223
      -0.131
      -0.015
       0.098
       0.185
       0.232
       0.241
       0.228
       0.210
       0.203
       0.211
       0.228
       0.243
       0.241
       0.212
       0.153
       0.070
      -0.022
      -0.108
      -0.169
      -0.197
      -0.191
      -0.165
      -0.136
      -0.123
      -0.137
      -0.171
      -0.207
      -0.222
      -0.199
      -0.137
      -0.054
       0.026
       0.082
       0.111
       0.122
       0.129
       0.140
       0.153
       0.159
       0.151
       0.123
       0.071
       0.000
      -0.083
      -0.163
      -0.220
      -0.242
      -0.223
      -0.175
      -0.118
      -0.069
      -0.033
      -0.008
       0.016
       0.048
       0.089
       0.132
       0.168
       0.187
       0.187
       0.172
       0.151
       0.128
       0.104
       0.079
       0.052
       0.024
      -0.010
      -0.053
      -0.105
      -0.157
      -0.193
      -0.199
      -0.173
      -0.120
      -0.059
      -0.007
       0.023
       0.029
       0.015
      -0.007
      -0.024
      -0.025
      -0.002
       0.042
       0.092
       0.126
       0.128
       0.092
       0.030
      -0.043
      -0.110
      -0.161
      -0.194
      -0.211
      -0.214
      -0.208
      -0.192
      -0.163
      -0.118
      -0.057
       0.016
       0.094
       0.167
       0.227
       0.263
       0.265
       0.233
       0.179
       0.124
       0.089
       0.077
       0.076
       0.066
       0.035
      -0.015
      -0.068
      -0.108
      -0.123
      -0.109
      -0.073
      -0.027
       0.009
       0.019
      -0.003
      -0.050
      -0.104
      -0.148
      -0.167
      -0.159
      -0.127
      -0.085
      -0.050
      -0.030
      -0.025
      -0.021
      -0.008
       0.018
       0.046
       0.060
       0.047
       0.006
      -0.047
      -0.094
      -0.116
      -0.107
      -0.072
      -0.022
       0.035
       0.090
       0.137
       0.174
       0.200
       0.216
       0.216
       0.196
       0.158
       0.110
       0.067
       0.040
       0.030
       0.023
       0.004
      -0.034
      -0.085
      -0.135
      -0.173
      -0.191
      -0.187
      -0.164
      -0.124
      -0.070
      -0.007
       0.057
       0.112
       0.151
       0.175
       0.185
       0.181
       0.163
       0.129
       0.079
       0.020
      -0.045
      -0.111
      -0.175
      -0.228
      -0.259
      -0.260
      -0.231
      -0.178
      -0.110
      -0.037
       0.032
       0.082
       0.104
       0.097
       0.068
       0.031
       0.000
      -0.020
      -0.028
      -0.025
      -0.009
       0.020
       0.056
       0.090
       0.110
       0.112
       0.103
       0.094
       0.090
       0.090
       0.084
       0.060
       0.018
      -0.033
      -0.073
      -0.085
      -0.066
      -0.028
       0.009
       0.027
       0.018
      -0.011
      -0.051
      -0.095
      -0.139
      -0.176
      -0.200
      -0.201
      -0.178
      -0.141
      -0.108
      -0.089
      -0.081
      -0.071
      -0.046
      -0.004
       0.042
       0.071
       0.072
       0.046
       0.009
      -0.019
      -0.024
      -0.006
       0.029
       0.070
       0.104
       0.123
       0.122
       0.103
       0.068
       0.022
      -0.028
      -0.076
      -0.116
      -0.142
      -0.152
      -0.144
      -0.117
      -0.071
      -0.011
       0.057
       0.123
       0.174
       0.202
       0.205
       0.192
       0.178
       0.170
       0.162
       0.142
       0.100
       0.037
      -0.032
      -0.096
      -0.144
      -0.176
      -0.194
      -0.203
      -0.206
      -0.210
      -0.219
      -0.233
      -0.244
      -0.240
      -0.210
      -0.154
      -0.084
      -0.018
       0.030
       0.057
       0.074
       0.098
       0.145
       0.215
       0.293
       0.351
       0.368
       0.338
       0.272
       0.194
       0.129
       0.090
       0.071
       0.054
       0.020
      -0.042
      -0.121
      -0.192
      -0.231
      -0.227
      -0.185
      -0.127
      -0.077
      -0.053
      -0.059
      -0.085
      -0.110
      -0.112
      -0.079
      -0.018
       0.053
       0.113
       0.148
       0.159
       0.155
       0.151
       0.158
       0.176
       0.193
       0.190
       0.158
       0.102
       0.043
       0.004
      -0.008
      -0.001
       0.006
      -0.007
      -0.052
      -0.125
      -0.204
      -0.263
      -0.275
      -0.230
      -0.139
      -0.029
       0.070
       0.132
       0.148
       0.125
       0.082
       0.041
       0.017
       0.010
       0.015
       0.025
       0.033
       0.037
       0.035
       0.034
       0.042
       0.065
       0.103
       0.148
       0.185
       0.198
       0.174
       0.110
       0.012
      -0.102
      -0.205
      -0.272
      -0.292
      -0.268
      -0.219
      -0.169
      -0.135
      -0.120
      -0.115
      -0.110
      -0.095
      -0.073
      -0.048
      -0.021
       0.007
       0.039
       0.077
       0.122
       0.176
       0.242
       0.321
       0.406
       0.480
       0.526
       0.529
       0.484
       0.396
       0.275
       0.141
       0.012
      -0.092
      -0.157
      -0.180
      -0.169
      -0.144
      -0.127
      -0.134
      -0.166
      -0.209
      -0.246
      -0.266
      -0.264
      -0.243
      -0.214
      -0.188
      -0.171
      -0.160
      -0.142
      -0.099
      -0.019
       0.100
       0.238
       0.370
       0.466
       0.512
       0.507
       0.464
       0.392
       0.298
       0.183
       0.053
      -0.085
      -0.218
      -0.329
      -0.411
      -0.456
      -0.465
      -0.437
      -0.377
      -0.299
      -0.217
      -0.145
      -0.086
      -0.035
       0.015
       0.060
       0.094
       0.107
       0.104
       0.098
       0.108
       0.148
       0.213
       0.287
       0.344
       0.362
       0.330
       0.254
       0.149
       0.035
      -0.071
      -0.151
      -0.192
      -0.185
      -0.137
      -0.068
      -0.005
       0.033
       0.037
       0.013
      -0.024
      -0.061
      -0.092
      -0.111
      -0.120
      -0.120
      -0.119
      -0.126
      -0.147
      -0.174
      -0.193
      -0.189
      -0.158
      -0.107
      -0.045
       0.011
       0.048
       0.055
       0.030
      -0.019
      -0.067
      -0.087
      -0.063
       0.003
       0.088
       0.160
       0.196
       0.191
       0.165
       0.147
       0.153
       0.187
       0.232
       0.267
       0.274
       0.237
       0.157
       0.043
      -0.087
      -0.215
      -0.322
      -0.396
      -0.432
      -0.431
      -0.400
      -0.348
      -0.280
      -0.192
      -0.083
       0.039
       0.150
       0.224
       0.243
       0.205
       0.133
       0.052
      -0.014
      -0.058
      -0.093
      -0.138
      -0.202
      -0.276
      -0.332
      -0.338
      -0.275
      -0.148
       0.016
       0.181
       0.312
       0.393
       0.430
       0.441
       0.446
       0.450
       0.444
       0.415
       0.355
       0.264
       0.154
       0.044
      -0.051
      -0.123
      -0.178
      -0.227
      -0.285
      -0.357
      -0.438
      -0.512
      -0.559
      -0.564
      -0.519
      -0.436
      -0.338
      -0.250
      -0.181
      -0.127
      -0.072
      -0.003
       0.086
       0.187
       0.289
       0.378
       0.439
       0.459
       0.433
       0.369
       0.290
       0.228
       0.202
       0.210
       0.228
       0.224
       0.172
       0.073
      -0.051
      -0.171
      -0.263
      -0.321
      -0.355
      -0.381
      -0.412
      -0.451
      -0.484
      -0.495
      -0.472
      -0.416
      -0.343
      -0.273
      -0.221
      -0.190
      -0.170
      -0.137
      -0.069
       0.045
       0.196
       0.358
       0.499
       0.599
       0.651
       0.665
       0.656
       0.636
       0.611
       0.574
       0.514
       0.419
       0.290
       0.140
      -0.010
      -0.140
      -0.241
      -0.315
      -0.373
      -0.426
      -0.479
      -0.530
      -0.571
      -0.595
      -0.593
      -0.557
      -0.481
      -0.368
      -0.230
      -0.086
       0.049
       0.170
       0.281
       0.385
       0.473
       0.531
       0.547
       0.517
       0.445
       0.342
       0.221
       0.101
       0.005
      -0.044
      -0.041
      -0.007
       0.028
       0.036
       0.016
      -0.010
      -0.011
       0.024
       0.087
       0.154
       0.201
       0.211
       0.173
       0.085
      -0.037
      -0.167
      -0.274
      -0.340
      -0.363
      -0.358
      -0.338
      -0.312
      -0.283
      -0.249
      -0.209
      -0.159
      -0.093
      -0.008
       0.092
       0.192
       0.270
       0.313
       0.319
       0.303
       0.282
       0.268
       0.260
       0.250
       0.229
       0.190
       0.133
       0.061
      -0.016
      -0.084
      -0.137
      -0.175
      -0.209
      -0.245
      -0.287
      -0.332
      -0.371
      -0.391
      -0.376
      -0.317
      -0.214
      -0.078
       0.073
       0.224
       0.358
       0.458
       0.506
       0.493
       0.427
       0.326
       0.214
       0.106
       0.008
      -0.078
      -0.149
      -0.202
      -0.233
      -0.239
      -0.222
      -0.193
      -0.172
      -0.175
      -0.198
      -0.221
      -0.214
      -0.158
      -0.060
       0.057
       0.166
       0.249
       0.303
       0.328
       0.327
       0.300
       0.252
       0.190
       0.125
       0.064
       0.005
      -0.057
      -0.126
      -0.196
      -0.255
      -0.285
      -0.279
      -0.235
      -0.162
      -0.067
       0.045
       0.171
       0.306
       0.434
       0.532
       0.578
       0.560
       0.485
       0.373
       0.241
       0.098
      -0.052
      -0.203
      -0.341
      -0.450
      -0.517
      -0.543
      -0.534
      -0.507
      -0.474
      -0.445
      -0.418
      -0.385
      -0.336
      -0.266
      -0.176
      -0.077
       0.026
       0.127
       0.227
       0.323
       0.404
       0.455
       0.460
       0.420
       0.345
       0.251
       0.149
       0.039
      -0.084
      -0.220
      -0.356
      -0.466
      -0.528
      -0.528
      -0.472
      -0.376
      -0.260
      -0.140
      -0.023
       0.080
       0.162
       0.218
       0.250
       0.268
       0.277
       0.278
       0.265
       0.237
       0.194
       0.138
       0.077
       0.018
      -0.026
      -0.047
      -0.045
      -0.030
      -0.021
      -0.027
      -0.048
      -0.071
      -0.082
      -0.074
      -0.051
      -0.023
      -0.002
       0.001
      -0.017
      -0.047
      -0.075
      -0.091
      -0.102
      -0.123
      -0.172
      -0.247
      -0.328
      -0.390
      -0.417
      -0.409
      -0.378
      -0.339
      -0.299
      -0.251
      -0.182
      -0.083
       0.047
       0.200
       0.361
       0.508
       0.623
       0.688
       0.704
       0.682
       0.640
       0.588
       0.528
       0.467
       0.414
       0.377
       0.353
       0.325
       0.275
       0.195
       0.088
      -0.035
      -0.169
      -0.309
      -0.453
      -0.592
      -0.715
      -0.805
      -0.848
      -0.845
      -0.803
      -0.736
      -0.653
      -0.552
      -0.433
      -0.299
      -0.152
       0.013
       0.202
       0.418
       0.646
       0.862
       1.038
       1.160
       1.219
       1.219
       1.170
       1.084
       0.970
       0.827
       0.652
       0.440
       0.194
      -0.068
      -0.318
      -0.527
      -0.673
      -0.751
      -0.776
      -0.773
      -0.767
      -0.768
      -0.775
      -0.777
      -0.765
      -0.731
      -0.678
      -0.608
      -0.531
      -0.452
      -0.369
      -0.273
      -0.152
      -0.005
       0.156
       0.305
       0.422
       0.491
       0.509
       0.478
       0.414
       0.334
       0.258
       0.198
       0.155
       0.124
       0.098
       0.084
       0.092
       0.131
       0.197
       0.272
       0.330
       0.357
       0.348
       0.310
       0.250
       0.171
       0.076
      -0.026
      -0.119
      -0.186
      -0.216
      -0.213
      -0.186
      -0.151
      -0.123
      -0.109
      -0.113
      -0.128
      -0.151
      -0.175
      -0.199
      -0.224
      -0.252
      -0.280
      -0.302
      -0.308
      -0.290
      -0.248
      -0.187
      -0.113
      -0.030
       0.054
       0.128
       0.178
       0.198
       0.190
       0.166
       0.134
       0.097
       0.061
       0.037
       0.041
       0.077
       0.134
       0.188
       0.220
       0.221
       0.194
       0.146
       0.086
       0.022
      -0.038
      -0.084
      -0.113
      -0.129
      -0.142
      -0.159
      -0.171
      -0.164
      -0.122
      -0.047
       0.041
       0.111
       0.139
       0.121
       0.068
      -0.003
      -0.071
      -0.119
      -0.132
      -0.106
      -0.047
       0.031
       0.117
       0.209
       0.315
       0.438
       0.571
       0.695
       0.790
       0.843
       0.847
       0.792
       0.665
       0.467
       0.215
      -0.053
      -0.298
      -0.492
      -0.629
      -0.721
      -0.786
      -0.843
      -0.897
      -0.942
      -0.962
      -0.946
      -0.890
      -0.797
      -0.671
      -0.513
      -0.323
      -0.111
       0.103
       0.288
       0.424
       0.508
       0.555
       0.583
       0.600
       0.603
       0.581
       0.530
       0.451
       0.357
       0.266
       0.192
       0.141
       0.101
       0.054
      -0.018
      -0.123
      -0.256
      -0.404
      -0.543
      -0.642
      -0.671
      -0.612
      -0.469
      -0.274
      -0.070
       0.104
       0.230
       0.311
       0.366
       0.417
       0.476
       0.535
       0.568
       0.542
       0.443
       0.284
       0.105
      -0.050
      -0.152
      -0.200
      -0.215
      -0.222
      -0.231
      -0.233
      -0.211
      -0.153
      -0.061
       0.050
       0.159
       0.248
       0.298
       0.297
       0.245
       0.156
       0.057
      -0.027
      -0.092
      -0.155
      -0.240
      -0.357
      -0.491
      -0.607
      -0.667
      -0.652
      -0.570
      -0.449
      -0.319
      -0.195
      -0.080
       0.025
       0.118
       0.193
       0.256
       0.318
       0.390
       0.465
       0.518
       0.523
       0.472
       0.379
       0.277
       0.197
       0.153
       0.138
       0.129
       0.097
       0.029
      -0.072
      -0.189
      -0.303
      -0.402
      -0.478
      -0.525
      -0.537
      -0.509
      -0.438
      -0.327
      -0.185
      -0.030
       0.113
       0.220
       0.273
       0.272
       0.232
       0.177
       0.129
       0.095
       0.068
       0.037
      -0.007
      -0.061
      -0.111
      -0.144
      -0.154
      -0.140
      -0.106
      -0.057
      -0.003
       0.044
       0.071
       0.070
       0.043
       0.002
      -0.043
      -0.081
      -0.106
      -0.116
      -0.114
      -0.104
      -0.097
      -0.100
      -0.120
      -0.156
      -0.202
      -0.249
      -0.283
      -0.298
      -0.292
      -0.268
      -0.229
      -0.174
      -0.097
       0.010
       0.153
       0.324
       0.507
       0.670
       0.785
       0.836
       0.823
       0.751
       0.628
       0.460
       0.258
       0.045
      -0.151
      -0.304
      -0.404
      -0.453
      -0.461
      -0.436
      -0.386
      -0.323
      -0.260
      -0.207
      -0.162
      -0.121
      -0.077
      -0.034
      -0.002
       0.017
       0.031
       0.052
       0.091
       0.142
       0.190
       0.220
       0.224
       0.200
       0.151
       0.085
       0.017
      -0.034
      -0.055
      -0.045
      -0.017
       0.010
       0.024
       0.018
       0.000
      -0.023
      -0.041
      -0.051
      -0.049
      -0.031
       0.006
       0.065
       0.145
       0.239
       0.336
       0.431
       0.519
       0.590
       0.629
       0.622
       0.559
       0.447
       0.300
       0.138
      -0.021
      -0.167
      -0.293
      -0.396
      -0.475
      -0.528
      -0.555
      -0.554
      -0.526
      -0.472
      -0.399
      -0.315
      -0.231
      -0.150
      -0.071
       0.010
       0.089
       0.157
       0.204
       0.229
       0.244
       0.264
       0.300
       0.345
       0.382
       0.394
       0.377
       0.338
       0.289
       0.238
       0.194
       0.161
       0.139
       0.122
       0.101
       0.062
      -0.004
      -0.101
      -0.217
      -0.330
      -0.411
      -0.443
      -0.427
      -0.386
      -0.352
      -0.345
      -0.369
      -0.403
      -0.418
      -0.388
      -0.305
      -0.178
      -0.029
       0.119
       0.248
       0.349
       0.416
       0.447
       0.442
       0.402
       0.336
       0.250
       0.152
       0.042
      -0.081
      -0.214
      -0.348
      -0.463
      -0.538
      -0.557
      -0.509
      -0.400
      -0.249
      -0.090
       0.043
       0.131
       0.175
       0.198
       0.222
       0.257
       0.295
