Origin Time       28/07/2012 05:48:06
Lat.              29.7 N	
Long.             80.7 E	
Depth (Km)         10.0
Magnitude         4.5
 Region           NEPAL-INDIA-BORDER-REGION                                        
 Above details taken from IMD 
   
Station Code      PTI
Station Lat.       29.407
Station Long.      79.931
Station Height(m) 1667.0
Site Class        A   Vs30 between 700 m/sec to 1400 m/sec * 
Record Time       28.07.2012 05:48:03.914
Sampling Rate     200. Hz
 Record Duration   80.020 Sec.
 Direction         Vert. (Up positive)
Max. Acceleration      1.738 cm/sec**2
     
  * For reference see Site Classification link of website 
     
 Base Line Corrected and Low Pass Filtered (Cut Off at 35 Hz) Time History
 Acceleration data in cm/sec**2
    
[...]
       0.145
      -0.068
      -0.365
      -0.591
      -0.628
      -0.452
      -0.139
       0.179
       0.383
       0.419
       0.310
       0.130
      -0.040
      -0.142
      -0.161
      -0.115
      -0.046
      -0.001
       0.001
      -0.015
      -0.001
       0.078
       0.210
       0.347
       0.446
       0.495
       0.513
       0.519
       0.512
       0.467
       0.350
       0.141
      -0.151
      -0.479
      -0.768
      -0.940
      -0.938
      -0.763
      -0.485
      -0.220
      -0.075
      -0.086
      -0.194
      -0.280
      -0.238
      -0.049
       0.216
       0.438
       0.527
       0.463
       0.297
       0.119
       0.014
       0.022
       0.126
       0.262
       0.352
       0.347
       0.253
       0.133
       0.064
       0.076
       0.134
       0.156
       0.076
      -0.110
      -0.346
      -0.544
      -0.637
      -0.603
      -0.470
      -0.288
      -0.101
       0.059
       0.175
       0.247
       0.291
       0.334
       0.388
       0.433
       0.418
       0.292
       0.052
      -0.241
      -0.479
      -0.556
      -0.427
      -0.141
       0.183
       0.408
       0.447
       0.299
       0.044
      -0.203
      -0.347
      -0.353
      -0.256
      -0.127
      -0.034
      -0.010
      -0.038
      -0.072
      -0.066
      -0.008
       0.087
       0.180
       0.239
       0.249
       0.209
       0.138
       0.060
       0.009
       0.007
       0.051
       0.100
       0.100
       0.023
      -0.118
      -0.272
      -0.385
      -0.419
      -0.368
      -0.247
      -0.093
       0.047
       0.132
       0.148
       0.117
       0.081
       0.078
       0.121
       0.188
       0.230
       0.201
       0.079
      -0.106
      -0.287
      -0.387
      -0.359
      -0.203
       0.030
       0.262
       0.405
       0.405
       0.266
       0.061
      -0.100
      -0.128
      -0.003
       0.209
       0.389
       0.425
       0.267
      -0.048
      -0.403
      -0.652
      -0.687
      -0.499
      -0.183
       0.104
       0.227
       0.132
      -0.128
      -0.417
      -0.583
      -0.529
      -0.276
       0.046
       0.275
       0.311
       0.177
       0.001
      -0.076
       0.018
       0.243
       0.477
       0.592
       0.520
       0.296
       0.038
      -0.115
      -0.080
       0.118
       0.353
       0.467
       0.366
       0.080
      -0.250
      -0.459
      -0.459
      -0.281
      -0.057
       0.061
      -0.027
      -0.325
      -0.735
      -1.091
      -1.215
      -1.007
      -0.497
       0.141
       0.675
       0.926
       0.864
       0.609
       0.350
       0.239
       0.320
       0.516
       0.686
       0.698
       0.500
       0.143
      -0.240
      -0.502
      -0.557
      -0.426
      -0.226
      -0.093
      -0.110
      -0.265
      -0.472
      -0.630
      -0.671
      -0.586
      -0.415
      -0.226
      -0.073
       0.020
       0.069
       0.113
       0.187
       0.308
       0.467
       0.627
       0.726
       0.704
       0.543
       0.293
       0.045
      -0.120
      -0.173
      -0.137
      -0.058
       0.019
       0.060
       0.043
      -0.035
      -0.152
      -0.268
      -0.346
      -0.373
      -0.364
      -0.342
      -0.323
      -0.304
      -0.275
      -0.231
      -0.169
      -0.079
       0.053
       0.223
       0.390
       0.490
       0.478
       0.367
       0.227
       0.133
       0.108
       0.116
       0.106
       0.070
       0.043
       0.068
       0.146
       0.238
       0.294
       0.287
       0.219
       0.105
      -0.043
      -0.199
      -0.324
      -0.381
      -0.372
      -0.345
      -0.360
      -0.443
      -0.555
      -0.618
      -0.559
      -0.350
      -0.025
       0.337
       0.639
       0.798
       0.782
       0.620
       0.401
       0.222
       0.136
       0.114
       0.073
      -0.056
      -0.269
      -0.486
      -0.599
      -0.541
      -0.328
      -0.044
       0.205
       0.340
       0.330
       0.199
       0.019
      -0.117
      -0.129
      -0.005
       0.173
       0.270
       0.176
      -0.106
      -0.453
      -0.688
      -0.692
      -0.472
      -0.149
       0.125
       0.244
       0.181
      -0.014
      -0.243
      -0.395
      -0.379
      -0.169
       0.168
       0.492
       0.654
       0.584
       0.330
       0.028
      -0.182
      -0.227
      -0.121
       0.074
       0.282
       0.437
       0.491
       0.421
       0.242
       0.008
      -0.206
      -0.340
      -0.371
      -0.319
      -0.233
      -0.166
      -0.159
      -0.226
      -0.346
      -0.468
      -0.525
      -0.466
      -0.285
      -0.026
       0.242
       0.458
       0.588
       0.627
       0.588
       0.494
       0.376
       0.259
       0.154
       0.049
      -0.066
      -0.186
      -0.277
      -0.308
      -0.282
      -0.236
      -0.209
      -0.203
      -0.183
      -0.120
      -0.025
       0.052
       0.063
      -0.001
      -0.105
      -0.190
      -0.211
      -0.159
      -0.059
       0.043
       0.094
       0.062
      -0.049
      -0.184
      -0.261
      -0.211
      -0.028
       0.221
       0.424
       0.493
       0.409
       0.234
       0.077
       0.032
       0.136
       0.340
       0.535
       0.596
       0.456
       0.146
      -0.211
      -0.465
      -0.515
      -0.360
      -0.088
       0.185
       0.363
       0.403
       0.311
       0.138
      -0.044
      -0.167
      -0.197
      -0.159
      -0.111
      -0.103
      -0.148
      -0.221
      -0.298
      -0.364
      -0.418
      -0.453
      -0.457
      -0.419
      -0.335
      -0.216
      -0.088
       0.019
       0.089
       0.127
       0.150
       0.174
       0.201
       0.229
       0.265
       0.326
       0.418
       0.518
       0.574
       0.535
       0.391
       0.190
       0.008
      -0.092
      -0.088
      -0.010
       0.084
       0.127
       0.072
      -0.090
      -0.317
      -0.535
      -0.675
      -0.720
      -0.704
      -0.677
      -0.657
      -0.617
      -0.519
      -0.367
      -0.214
      -0.117
      -0.088
      -0.075
      -0.013
       0.129
       0.322
       0.501
       0.605
       0.602
       0.485
       0.280
       0.053
      -0.087
      -0.029
       0.261
       0.693
       1.075
       1.215
       1.028
       0.584
       0.058
      -0.367
      -0.571
      -0.540
      -0.352
      -0.150
      -0.080
      -0.217
      -0.518
      -0.832
      -0.971
      -0.826
      -0.436
       0.028
       0.360
       0.433
       0.264
      -0.022
      -0.276
      -0.398
      -0.369
      -0.230
      -0.050
       0.113
       0.225
       0.290
       0.335
       0.402
       0.517
       0.674
       0.823
       0.892
       0.821
       0.606
       0.313
       0.043
      -0.124
      -0.177
      -0.167
      -0.166
      -0.225
      -0.350
      -0.512
      -0.672
      -0.803
      -0.897
      -0.953
      -0.967
      -0.933
      -0.854
      -0.738
      -0.589
      -0.409
      -0.197
       0.045
       0.316
       0.620
       0.949
       1.264
       1.494
       1.575
       1.483
       1.251
       0.944
       0.613
       0.284
      -0.030
      -0.305
      -0.508
      -0.618
      -0.646
      -0.629
      -0.616
      -0.646
      -0.734
      -0.864
      -0.998
      -1.084
      -1.076
      -0.947
      -0.713
      -0.428
      -0.168
       0.006
       0.079
       0.097
       0.141
       0.281
       0.536
       0.858
       1.156
       1.342
       1.360
       1.206
       0.927
       0.604
       0.321
       0.133
       0.040
      -0.008
      -0.081
      -0.222
      -0.429
      -0.655
      -0.835
      -0.913
      -0.867
      -0.714
      -0.504
      -0.299
      -0.147
      -0.064
      -0.035
      -0.027
      -0.019
      -0.016
      -0.041
      -0.105
      -0.183
      -0.227
      -0.186
      -0.045
       0.175
       0.426
       0.655
       0.811
       0.856
       0.777
       0.609
       0.421
       0.284
       0.220
       0.190
       0.122
      -0.026
      -0.230
      -0.413
      -0.504
      -0.474
      -0.348
      -0.181
      -0.036
       0.032
       0.002
      -0.103
      -0.218
      -0.280
      -0.269
      -0.222
      -0.198
      -0.225
      -0.274
      -0.287
      -0.225
      -0.110
      -0.014
      -0.014
      -0.139
      -0.348
      -0.542
      -0.603
      -0.438
      -0.035
       0.515
       1.034
       1.343
       1.353
       1.118
       0.798
       0.562
       0.492
       0.551
       0.619
       0.570
       0.346
      -0.018
      -0.416
      -0.719
      -0.835
      -0.740
      -0.494
      -0.207
       0.007
       0.079
       0.012
      -0.141
      -0.308
      -0.435
      -0.499
      -0.512
      -0.505
      -0.514
      -0.546
      -0.568
      -0.527
      -0.395
      -0.192
       0.015
       0.169
       0.254
       0.299
       0.334
       0.365
       0.382
       0.386
       0.402
       0.450
       0.522
       0.574
       0.571
       0.507
       0.416
       0.332
       0.272
       0.229
       0.195
       0.157
       0.093
      -0.031
      -0.245
      -0.535
      -0.836
      -1.058
      -1.132
      -1.041
      -0.824
      -0.556
      -0.315
      -0.154
      -0.087
      -0.083
      -0.088
      -0.052
       0.047
       0.195
       0.357
       0.494
       0.583
       0.614
       0.589
       0.523
       0.440
       0.375
       0.363
       0.413
       0.506
       0.586
       0.595
       0.492
       0.277
      -0.013
      -0.313
      -0.552
      -0.674
      -0.658
      -0.537
      -0.388
      -0.302
      -0.335
      -0.471
      -0.629
      -0.705
      -0.633
      -0.415
      -0.111
       0.203
       0.470
       0.659
       0.749
       0.732
       0.628
       0.489
       0.372
       0.306
       0.269
       0.207
       0.089
      -0.066
      -0.197
      -0.255
      -0.228
      -0.150
      -0.061
       0.011
       0.062
       0.094
       0.108
       0.098
       0.058
      -0.016
      -0.126
      -0.265
      -0.414
      -0.539
      -0.613
      -0.624
      -0.571
      -0.455
      -0.276
      -0.048
       0.186
       0.368
       0.455
       0.461
       0.449
       0.486
       0.588
       0.706
       0.753
       0.661
       0.418
       0.075
      -0.276
      -0.533
      -0.618
      -0.506
      -0.250
       0.030
       0.202
       0.188
       0.013
      -0.216
      -0.364
      -0.347
      -0.168
       0.085
       0.284
       0.325
       0.175
      -0.113
      -0.425
      -0.642
      -0.687
      -0.567
      -0.360
      -0.176
      -0.102
      -0.159
      -0.305
      -0.467
      -0.575
      -0.587
      -0.487
      -0.289
      -0.029
       0.242
       0.481
       0.671
       0.816
       0.916
       0.953
       0.901
       0.756
       0.554
       0.361
       0.234
       0.181
       0.173
       0.169
       0.158
       0.148
       0.148
       0.147
       0.121
       0.049
      -0.073
      -0.239
      -0.444
      -0.685
      -0.940
      -1.164
      -1.296
      -1.295
      -1.155
      -0.911
      -0.617
      -0.318
      -0.036
       0.219
       0.436
       0.599
       0.708
       0.780
       0.837
       0.876
       0.869
       0.783
       0.610
       0.384
       0.176
       0.057
       0.060
       0.153
       0.250
       0.268
       0.175
       0.009
      -0.156
      -0.262
      -0.302
      -0.316
      -0.351
      -0.425
      -0.513
      -0.569
      -0.562
      -0.492
      -0.386
      -0.281
      -0.212
      -0.201
      -0.240
      -0.278
      -0.229
      -0.027
       0.327
       0.744
       1.089
       1.249
       1.190
       0.962
       0.654
       0.343
       0.063
      -0.192
      -0.440
      -0.695
      -0.949
      -1.176
      -1.329
      -1.361
      -1.241
      -0.971
      -0.587
      -0.148
       0.282
       0.641
       0.880
       0.972
       0.916
       0.739
       0.502
       0.290
       0.185
       0.233
       0.413
       0.652
       0.866
       0.994
       1.020
       0.952
       0.807
       0.595
       0.320
      -0.017
      -0.401
      -0.797
      -1.139
      -1.353
      -1.400
      -1.297
      -1.115
      -0.925
      -0.757
      -0.598
      -0.430
      -0.268
      -0.147
      -0.088
      -0.069
      -0.040
       0.036
       0.174
       0.376
       0.648
       0.985
       1.337
       1.591
       1.629
       1.397
       0.949
       0.409
      -0.096
      -0.498
      -0.781
      -0.952
      -1.014
      -0.967
      -0.834
      -0.651
      -0.450
      -0.241
      -0.022
       0.185
       0.334
       0.374
       0.300
       0.162
       0.036
      -0.024
      -0.014
       0.021
       0.030
      -0.011
      -0.077
      -0.108
      -0.035
       0.180
       0.508
       0.844
       1.049
       1.005
       0.687
       0.179
      -0.348
      -0.714
      -0.814
      -0.667
      -0.405
      -0.201
      -0.187
      -0.394
      -0.741
      -1.074
      -1.245
      -1.182
      -0.923
      -0.585
      -0.292
      -0.104
      -0.002
       0.077
       0.193
       0.373
       0.620
       0.921
       1.251
       1.553
       1.738
       1.714
       1.438
       0.950
       0.368
      -0.165
      -0.534
      -0.690
      -0.653
      -0.505
      -0.351
      -0.281
      -0.328
      -0.466
      -0.631
      -0.754
      -0.787
      -0.712
      -0.554
      -0.385
      -0.283
      -0.291
      -0.370
      -0.421
      -0.347
      -0.112
       0.232
       0.581
       0.835
       0.940
       0.902
       0.770
       0.609
       0.461
       0.332
       0.200
       0.041
      -0.142
      -0.313
      -0.415
      -0.398
      -0.251
      -0.021
       0.204
       0.335
       0.330
       0.214
       0.053
      -0.085
      -0.171
      -0.222
      -0.273
      -0.339
      -0.396
      -0.391
      -0.278
      -0.054
       0.228
       0.483
       0.632
       0.630
       0.493
       0.281
       0.084
      -0.025
      -0.022
       0.052
       0.114
       0.083
      -0.066
      -0.289
      -0.489
      -0.574
      -0.505
      -0.328
      -0.150
      -0.078
      -0.158
      -0.341
      -0.515
      -0.573
      -0.478
      -0.276
      -0.064
       0.079
       0.130
       0.122
       0.107
       0.127
       0.190
       0.273
       0.339
       0.351
       0.300
       0.219
       0.174
       0.219
       0.351
       0.506
       0.594
       0.561
       0.408
       0.184
      -0.054
      -0.262
      -0.409
      -0.476
      -0.458
      -0.377
      -0.276
      -0.198
      -0.159
      -0.133
      -0.086
      -0.013
       0.046
       0.030
      -0.089
      -0.283
      -0.482
      -0.625
      -0.693
      -0.704
      -0.679
      -0.618
      -0.509
      -0.350
      -0.161
       0.031
       0.219
       0.420
       0.650
       0.896
       1.114
       1.241
       1.235
       1.092
       0.848
       0.561
       0.293
       0.087
      -0.047
      -0.140
      -0.247
      -0.409
      -0.621
      -0.828
      -0.952
      -0.949
      -0.831
      -0.653
      -0.481
      -0.364
      -0.328
      -0.374
      -0.472
      -0.573
      -0.626
      -0.593
      -0.462
      -0.236
       0.074
       0.443
       0.827
       1.161
       1.378
       1.450
       1.400
       1.287
       1.161
       1.040
       0.908
       0.741
       0.535
       0.301
       0.054
      -0.194
      -0.435
      -0.659
      -0.851
      -1.005
      -1.128
      -1.235
      -1.339
      -1.433
      -1.491
      -1.471
      -1.335
      -1.070
      -0.691
      -0.239
       0.239
       0.693
       1.069
       1.318
       1.414
       1.373
       1.251
       1.111
       0.991
       0.898
       0.827
       0.771
       0.720
       0.648
       0.518
       0.314
       0.057
      -0.205
      -0.430
      -0.616
      -0.789
      -0.980
      -1.188
      -1.380
      -1.500
      -1.504
      -1.373
      -1.126
      -0.806
      -0.457
      -0.113
       0.195
       0.426
       0.541
       0.533
       0.445
       0.369
       0.388
       0.525
       0.729
       0.900
       0.953
       0.854
       0.634
       0.371
       0.156
       0.056
       0.083
       0.191
       0.286
       0.270
       0.077
      -0.280
      -0.705
      -1.059
      -1.220
      -1.143
      -0.878
      -0.547
      -0.283
      -0.175
      -0.217
      -0.318
      -0.355
      -0.245
       0.017
       0.358
       0.671
       0.863
       0.884
       0.751
       0.536
       0.347
       0.279
       0.367
       0.561
       0.737
       0.766
       0.585
       0.237
      -0.162
      -0.485
      -0.664
      -0.707
      -0.672
      -0.623
      -0.601
      -0.611
      -0.623
      -0.591
      -0.473
      -0.263
      -0.003
       0.224
       0.341
       0.320
       0.205
       0.084
       0.038
       0.089
       0.190
       0.266
       0.269
       0.208
       0.135
       0.109
       0.161
       0.289
       0.451
       0.577
       0.591
       0.454
       0.193
      -0.100
      -0.316
      -0.386
      -0.314
      -0.171
      -0.055
      -0.038
      -0.128
      -0.275
      -0.401
      -0.444
      -0.393
      -0.282
      -0.167
      -0.090
      -0.057
      -0.051
      -0.058
      -0.086
      -0.148
      -0.246
      -0.356
      -0.441
      -0.474
      -0.449
      -0.373
      -0.252
      -0.091
       0.101
       0.301
       0.489
       0.653
       0.790
       0.880
       0.876
       0.732
       0.441
       0.058
      -0.314
      -0.564
      -0.624
      -0.501
      -0.274
      -0.066
       0.021
      -0.051
      -0.230
      -0.409
      -0.490
      -0.445
      -0.337
      -0.277
      -0.342
      -0.521
      -0.716
      -0.799
      -0.679
      -0.350
       0.119
       0.603
       0.977
       1.155
       1.132
       0.974
       0.782
       0.633
       0.552
       0.517
       0.497
       0.474
       0.444
       0.408
       0.363
       0.308
       0.248
       0.176
       0.060
      -0.161
      -0.520
      -0.971
      -1.383
      -1.609
      -1.577
      -1.335
      -1.005
      -0.706
      -0.491
      -0.348
      -0.230
      -0.085
       0.122
       0.396
       0.698
       0.955
       1.077
       1.010
       0.774
       0.476
       0.262
       0.244
       0.435
       0.749
       1.048
       1.204
       1.137
       0.837
       0.367
      -0.144
      -0.544
      -0.725
      -0.683
      -0.523
      -0.402
      -0.443
      -0.663
      -0.977
      -1.244
      -1.347
      -1.254
      -1.009
      -0.700
      -0.410
      -0.194
      -0.079
      -0.057
      -0.082
      -0.076
       0.041
       0.308
       0.686
       1.064
       1.302
       1.311
       1.091
       0.736
       0.381
       0.131
       0.013
      -0.018
      -0.043
