Origin Time       26/02/2012 23:08:42
Lat.              29.6 N	
Long.             80.8 E	
Depth (Km)         10.0
Magnitude         4.3
 Region           Westren-nepal                                                    
 Above details taken from IMD 
   
Station Code      PTI
Station Lat.       29.407
Station Long.      79.931
Station Height(m) 1667.0
Site Class        A   Vs30 between 700 m/sec to 1400 m/sec * 
Record Time       26.02.2012 23:08:52.199
Sampling Rate     200. Hz
 Record Duration   80.220 Sec.
 Direction         Vert. (Up positive)
Max. Acceleration      1.563 cm/sec**2
     
  * For reference see Site Classification link of website 
     
 Base Line Corrected and Low Pass Filtered (Cut Off at 35 Hz) Time History
 Acceleration data in cm/sec**2
    
[...]
      -0.002
      -0.003
      -0.003
      -0.003
      -0.003
      -0.001
       0.003
       0.007
       0.009
       0.009
       0.006
       0.002
      -0.002
      -0.004
      -0.004
      -0.002
       0.000
       0.001
       0.001
       0.001
       0.004
       0.007
       0.008
       0.006
       0.002
      -0.001
      -0.002
      -0.002
      -0.001
       0.001
       0.004
       0.009
       0.011
       0.009
       0.004
      -0.002
      -0.004
      -0.001
       0.003
       0.006
       0.007
       0.007
       0.007
       0.004
       0.000
      -0.006
      -0.009
      -0.008
      -0.002
       0.007
       0.014
       0.017
       0.016
       0.012
       0.005
      -0.001
      -0.005
      -0.006
      -0.003
       0.000
       0.004
       0.006
       0.005
       0.003
       0.000
      -0.001
       0.000
       0.001
       0.004
       0.008
       0.015
       0.024
       0.033
       0.037
       0.034
       0.026
       0.017
       0.011
       0.007
       0.003
      -0.001
      -0.005
      -0.005
      -0.003
      -0.003
      -0.007
      -0.012
      -0.013
      -0.007
       0.004
       0.011
       0.011
       0.005
       0.000
      -0.003
      -0.002
      -0.001
       0.000
       0.002
       0.006
       0.009
       0.009
       0.006
       0.004
       0.003
       0.003
       0.002
       0.000
      -0.002
      -0.002
       0.002
       0.007
       0.011
       0.014
       0.016
       0.018
       0.018
       0.016
       0.010
       0.005
       0.002
       0.002
       0.004
       0.007
       0.007
       0.003
      -0.001
      -0.002
       0.002
       0.007
       0.011
       0.013
       0.013
       0.013
       0.013
       0.013
       0.014
       0.015
       0.016
       0.013
       0.009
       0.006
       0.006
       0.008
       0.011
       0.011
       0.008
       0.005
       0.004
       0.006
       0.008
       0.008
       0.008
       0.007
       0.005
       0.004
       0.005
       0.008
       0.010
       0.010
       0.007
       0.004
       0.003
       0.004
       0.006
       0.008
       0.010
       0.010
       0.010
       0.011
       0.010
       0.006
       0.003
       0.002
       0.005
       0.010
       0.012
       0.010
       0.006
       0.006
       0.010
       0.012
       0.010
       0.003
      -0.002
      -0.001
       0.003
       0.007
       0.006
       0.003
       0.001
       0.001
       0.004
       0.006
       0.006
       0.003
       0.000
       0.002
       0.008
       0.015
       0.017
       0.012
       0.002
      -0.008
      -0.011
      -0.006
       0.000
       0.004
       0.001
      -0.004
      -0.007
      -0.005
       0.000
       0.007
       0.013
       0.018
       0.019
       0.016
       0.009
       0.003
       0.003
       0.008
       0.012
       0.011
       0.007
       0.003
       0.004
       0.009
       0.011
       0.010
       0.006
       0.003
       0.004
       0.006
       0.008
       0.007
       0.005
       0.005
       0.007
       0.010
       0.012
       0.012
       0.009
       0.007
       0.005
       0.004
       0.004
       0.003
       0.000
      -0.003
      -0.006
      -0.007
      -0.004
      -0.001
       0.002
       0.002
       0.000
      -0.001
      -0.001
       0.003
       0.007
       0.009
       0.006
       0.002
      -0.001
       0.000
       0.003
       0.005
       0.005
       0.004
       0.004
       0.005
       0.007
       0.008
       0.009
       0.010
       0.013
       0.015
       0.013
       0.010
       0.009
       0.012
       0.017
       0.020
       0.019
       0.015
       0.010
       0.007
       0.008
       0.012
       0.015
       0.015
       0.011
       0.007
       0.003
       0.001
       0.001
       0.003
       0.006
       0.011
       0.016
       0.019
       0.020
       0.017
       0.013
       0.012
       0.014
       0.016
       0.016
       0.013
       0.009
       0.008
       0.008
       0.008
       0.008
       0.008
       0.010
       0.011
       0.010
       0.006
       0.003
       0.002
       0.005
       0.010
       0.012
       0.012
       0.009
       0.004
       0.001
       0.001
       0.006
       0.011
       0.014
       0.011
       0.004
      -0.003
      -0.006
      -0.003
       0.003
       0.008
       0.009
       0.006
       0.004
       0.006
       0.011
       0.016
       0.017
       0.013
       0.008
       0.005
       0.002
       0.000
      -0.003
      -0.004
       0.000
       0.008
       0.015
       0.015
       0.008
       0.001
      -0.001
       0.004
       0.012
       0.017
       0.017
       0.012
       0.008
       0.009
       0.012
       0.014
       0.013
       0.009
       0.007
       0.006
       0.006
       0.004
       0.001
      -0.002
      -0.002
       0.002
       0.007
       0.009
       0.009
       0.010
       0.013
       0.018
       0.020
       0.015
       0.006
       0.000
       0.000
       0.003
       0.008
       0.010
       0.011
       0.011
       0.010
       0.010
       0.010
       0.010
       0.009
       0.007
       0.005
       0.003
       0.004
       0.005
       0.007
       0.007
       0.007
       0.006
       0.005
       0.003
       0.000
      -0.003
      -0.005
      -0.006
      -0.008
      -0.011
      -0.013
      -0.011
      -0.006
       0.000
       0.001
      -0.001
      -0.003
       0.000
       0.008
       0.016
       0.021
       0.024
       0.026
       0.026
       0.023
       0.016
       0.006
      -0.002
      -0.004
       0.001
       0.010
       0.019
       0.024
       0.026
       0.025
       0.022
       0.019
       0.015
       0.012
       0.009
       0.007
       0.002
      -0.006
      -0.015
      -0.023
      -0.025
      -0.018
      -0.006
       0.006
       0.012
       0.012
       0.007
       0.002
      -0.003
      -0.011
      -0.022
      -0.032
      -0.035
      -0.029
      -0.017
      -0.005
       0.002
       0.006
       0.013
       0.024
       0.038
       0.050
       0.053
       0.047
       0.035
       0.021
       0.010
       0.003
       0.001
       0.000
       0.000
      -0.001
       0.001
       0.007
       0.016
       0.024
       0.029
       0.032
       0.033
       0.031
       0.024
       0.011
      -0.008
      -0.023
      -0.030
      -0.025
      -0.013
      -0.003
       0.002
       0.000
      -0.004
      -0.005
      -0.003
      -0.001
      -0.002
      -0.006
      -0.009
      -0.009
      -0.005
       0.001
       0.008
       0.016
       0.023
       0.028
       0.032
       0.032
       0.026
       0.015
      -0.003
      -0.023
      -0.038
      -0.045
      -0.041
      -0.027
      -0.007
       0.012
       0.026
       0.033
       0.034
       0.033
       0.027
       0.016
       0.001
      -0.013
      -0.020
      -0.018
      -0.009
       0.001
       0.010
       0.019
       0.030
       0.039
       0.039
       0.030
       0.015
      -0.001
      -0.014
      -0.027
      -0.040
      -0.053
      -0.060
      -0.057
      -0.038
      -0.002
       0.044
       0.088
       0.115
       0.116
       0.091
       0.050
       0.012
      -0.011
      -0.010
       0.006
       0.022
       0.026
       0.011
      -0.016
      -0.041
      -0.052
      -0.045
      -0.024
      -0.003
       0.008
       0.001
      -0.023
      -0.055
      -0.084
      -0.097
      -0.086
      -0.049
       0.004
       0.056
       0.090
       0.095
       0.077
       0.048
       0.026
       0.021
       0.034
       0.060
       0.086
       0.101
       0.099
       0.077
       0.045
       0.013
      -0.005
       0.000
       0.021
       0.046
       0.059
       0.046
       0.007
      -0.052
      -0.113
      -0.159
      -0.175
      -0.156
      -0.109
      -0.047
       0.015
       0.062
       0.085
       0.084
       0.066
       0.042
       0.024
       0.020
       0.029
       0.048
       0.067
       0.075
       0.067
       0.042
       0.012
      -0.010
      -0.011
       0.012
       0.050
       0.083
       0.092
       0.064
       0.005
      -0.071
      -0.140
      -0.185
      -0.199
      -0.181
      -0.139
      -0.085
      -0.033
       0.004
       0.022
       0.025
       0.026
       0.035
       0.051
       0.063
       0.062
       0.048
       0.033
       0.031
       0.047
       0.074
       0.097
       0.104
       0.090
       0.060
       0.027
       0.008
       0.013
       0.041
       0.074
       0.085
       0.054
      -0.012
      -0.085
      -0.121
      -0.095
      -0.008
       0.105
       0.204
       0.253
       0.241
       0.171
       0.059
      -0.072
      -0.193
      -0.276
      -0.310
      -0.303
      -0.280
      -0.261
      -0.249
      -0.229
      -0.181
      -0.096
       0.020
       0.148
       0.270
       0.365
       0.413
       0.394
       0.302
       0.154
      -0.008
      -0.130
      -0.173
      -0.128
      -0.022
       0.089
       0.149
       0.126
       0.033
      -0.074
      -0.127
      -0.082
       0.047
       0.195
       0.277
       0.240
       0.095
      -0.089
      -0.223
      -0.243
      -0.148
       0.004
       0.119
       0.119
      -0.026
      -0.273
      -0.524
      -0.670
      -0.643
      -0.447
      -0.164
       0.087
       0.210
       0.180
       0.056
      -0.060
      -0.076
       0.031
       0.206
       0.349
       0.383
       0.295
       0.146
       0.029
       0.019
       0.132
       0.321
       0.505
       0.608
       0.594
       0.476
       0.309
       0.159
       0.073
       0.051
       0.047
      -0.004
      -0.142
      -0.354
      -0.583
      -0.755
      -0.825
      -0.789
      -0.677
      -0.523
      -0.349
      -0.164
       0.018
       0.170
       0.258
       0.262
       0.192
       0.081
      -0.021
      -0.077
      -0.068
      -0.005
       0.077
       0.137
       0.148
       0.117
       0.080
       0.087
       0.170
       0.327
       0.516
       0.673
       0.736
       0.667
       0.472
       0.201
      -0.061
      -0.230
      -0.258
      -0.166
      -0.042
       0.003
      -0.104
      -0.354
      -0.655
      -0.886
      -0.966
      -0.893
      -0.726
      -0.538
      -0.361
      -0.180
       0.045
       0.323
       0.617
       0.855
       0.974
       0.945
       0.784
       0.538
       0.273
       0.060
      -0.049
      -0.046
       0.016
       0.049
      -0.022
      -0.209
      -0.443
      -0.604
      -0.586
      -0.361
      -0.006
       0.316
       0.435
       0.267
      -0.131
      -0.574
      -0.850
      -0.826
      -0.521
      -0.083
       0.300
       0.496
       0.482
       0.328
       0.143
       0.021
       0.015
       0.125
       0.298
       0.444
       0.461
       0.295
      -0.028
      -0.393
      -0.656
      -0.714
      -0.560
      -0.277
       0.010
       0.195
       0.240
       0.175
       0.074
       0.014
       0.043
       0.156
       0.304
       0.418
       0.450
       0.394
       0.286
       0.168
       0.065
      -0.024
      -0.110
      -0.190
      -0.246
      -0.257
      -0.218
      -0.155
      -0.104
      -0.089
      -0.109
      -0.132
      -0.124
      -0.063
       0.047
       0.172
       0.254
       0.236
       0.086
      -0.170
      -0.446
      -0.635
      -0.659
      -0.519
      -0.281
      -0.041
       0.135
       0.231
       0.268
       0.279
       0.288
       0.302
       0.313
       0.295
       0.225
       0.098
      -0.056
      -0.179
      -0.216
      -0.149
      -0.012
       0.133
       0.239
       0.305
       0.367
       0.455
       0.547
       0.573
       0.452
       0.152
      -0.275
      -0.708
      -1.007
      -1.086
      -0.946
      -0.677
      -0.396
      -0.195
      -0.099
      -0.081
      -0.075
      -0.012
       0.155
       0.418
       0.689
       0.829
       0.728
       0.380
      -0.081
      -0.443
      -0.537
      -0.333
       0.047
       0.404
       0.585
       0.550
       0.373
       0.176
       0.062
       0.077
       0.198
       0.354
       0.447
       0.393
       0.155
      -0.224
      -0.632
      -0.938
      -1.052
      -0.964
      -0.737
      -0.477
      -0.279
      -0.192
      -0.196
      -0.214
      -0.157
       0.015
       0.269
       0.512
       0.650
       0.643
       0.517
       0.336
       0.159
       0.018
      -0.070
      -0.095
      -0.042
       0.092
       0.277
       0.456
       0.564
       0.565
       0.470
       0.330
       0.202
       0.101
      -0.010
      -0.194
      -0.487
      -0.851
      -1.169
      -1.302
      -1.176
      -0.825
      -0.376
       0.018
       0.256
       0.321
       0.276
       0.219
       0.241
       0.395
       0.667
       0.972
       1.176
       1.156
       0.867
       0.386
      -0.116
      -0.453
      -0.527
      -0.376
      -0.153
      -0.032
      -0.113
      -0.379
      -0.714
      -0.968
      -1.032
      -0.878
      -0.570
      -0.227
       0.038
       0.159
       0.134
       0.003
      -0.175
      -0.338
      -0.415
      -0.340
      -0.070
       0.375
       0.896
       1.339
       1.563
       1.514
       1.242
       0.862
       0.492
       0.203
       0.011
      -0.105
      -0.194
      -0.319
      -0.535
      -0.845
      -1.170
      -1.370
      -1.324
      -1.016
      -0.567
      -0.167
       0.037
       0.022
      -0.109
      -0.207
      -0.164
       0.035
       0.323
       0.595
       0.758
       0.766
       0.628
       0.408
       0.198
       0.081
       0.095
       0.221
       0.384
       0.493
       0.481
       0.338
       0.121
      -0.075
      -0.171
      -0.148
      -0.064
      -0.023
      -0.107
      -0.320
      -0.576
      -0.753
      -0.768
      -0.630
      -0.427
      -0.263
      -0.194
      -0.197
      -0.206
      -0.166
      -0.062
       0.079
       0.221
       0.332
       0.395
       0.401
       0.360
       0.302
       0.272
       0.303
       0.387
       0.472
       0.499
       0.442
       0.330
       0.228
       0.186
       0.200
       0.207
       0.133
      -0.053
      -0.313
      -0.574
      -0.772
      -0.885
      -0.925
      -0.909
      -0.847
      -0.745
      -0.617
      -0.480
      -0.340
      -0.179
       0.033
       0.305
       0.605
       0.860
       0.994
       0.969
       0.820
       0.634
       0.512
       0.511
       0.604
       0.691
       0.646
       0.392
      -0.045
      -0.538
      -0.926
      -1.100
      -1.060
      -0.889
      -0.690
      -0.520
      -0.380
      -0.243
      -0.101
       0.028
       0.116
       0.146
       0.122
       0.062
      -0.011
      -0.066
      -0.068
       0.006
       0.150
       0.324
       0.471
       0.555
       0.581
       0.578
       0.563
       0.526
       0.434
       0.263
       0.026
      -0.224
      -0.414
      -0.488
      -0.428
      -0.274
      -0.104
      -0.003
      -0.022
      -0.148
      -0.310
      -0.416
      -0.402
      -0.273
      -0.101
       0.014
       0.004
      -0.136
      -0.337
      -0.493
      -0.509
      -0.346
      -0.042
       0.304
       0.571
       0.679
       0.629
       0.497
       0.392
       0.382
       0.460
       0.545
       0.545
       0.410
       0.167
      -0.101
      -0.307
      -0.403
      -0.406
      -0.368
      -0.340
      -0.342
      -0.365
      -0.390
      -0.402
      -0.385
      -0.321
      -0.201
      -0.051
       0.068
       0.089
      -0.008
      -0.166
      -0.282
      -0.263
      -0.089
       0.180
       0.445
       0.624
       0.688
       0.650
       0.545
       0.411
       0.277
       0.172
       0.110
       0.096
       0.113
       0.133
       0.118
       0.033
      -0.143
      -0.386
      -0.619
      -0.738
      -0.670
      -0.434
      -0.147
       0.043
       0.046
      -0.114
      -0.325
      -0.459
      -0.451
      -0.316
      -0.121
       0.064
       0.195
       0.253
       0.236
       0.157
       0.050
      -0.028
      -0.018
       0.103
       0.306
       0.519
       0.665
       0.707
       0.660
       0.577
       0.508
       0.464
       0.412
       0.307
       0.128
      -0.106
      -0.345
      -0.540
      -0.669
      -0.736
      -0.755
      -0.728
      -0.652
      -0.525
      -0.366
      -0.210
      -0.094
      -0.035
      -0.026
      -0.034
      -0.020
       0.046
       0.166
       0.321
       0.473
       0.583
       0.622
       0.583
       0.488
       0.376
       0.296
       0.274
       0.302
       0.332
       0.298
       0.147
      -0.125
      -0.462
      -0.768
      -0.942
      -0.927
      -0.736
      -0.449
      -0.175
      -0.010
       0.014
      -0.064
      -0.148
      -0.146
      -0.020
       0.189
       0.384
       0.470
       0.397
       0.190
      -0.060
      -0.237
      -0.245
      -0.059
       0.261
       0.586
       0.779
       0.758
       0.537
       0.218
      -0.068
      -0.232
      -0.271
      -0.248
      -0.252
      -0.332
      -0.477
      -0.628
      -0.720
      -0.713
      -0.600
      -0.402
      -0.150
       0.113
       0.338
       0.472
       0.483
       0.373
       0.184
      -0.020
      -0.180
      -0.256
      -0.235
      -0.126
       0.042
       0.224
       0.368
       0.438
       0.434
       0.395
       0.370
       0.381
       0.409
       0.405
       0.326
       0.166
      -0.040
      -0.233
      -0.356
      -0.375
      -0.299
      -0.175
      -0.076
      -0.058
      -0.140
      -0.289
      -0.438
      -0.521
      -0.489
      -0.328
      -0.076
       0.185
       0.344
       0.324
       0.145
      -0.075
      -0.182
      -0.094
       0.136
       0.357
       0.421
       0.289
       0.047
      -0.157
      -0.205
      -0.072
       0.173
       0.415
       0.547
       0.513
       0.324
       0.048
      -0.226
      -0.427
      -0.530
      -0.561
      -0.566
      -0.572
      -0.571
      -0.530
      -0.415
      -0.215
       0.054
       0.354
       0.630
       0.826
       0.900
       0.850
       0.706
       0.513
       0.306
       0.103
      -0.088
      -0.249
      -0.359
      -0.410
      -0.412
      -0.389
      -0.353
      -0.299
      -0.203
      -0.057
       0.114
       0.245
       0.267
       0.142
      -0.100
      -0.370
      -0.559
      -0.595
      -0.476
      -0.262
      -0.034
       0.148
       0.258
       0.302
       0.296
       0.260
       0.223
       0.209
       0.225
       0.241
       0.210
       0.096
      -0.085
      -0.271
      -0.380
      -0.358
      -0.207
       0.016
       0.230
       0.368
       0.398
       0.333
       0.222
       0.134
       0.122
       0.194
       0.294
       0.325
       0.210
      -0.054
      -0.385
      -0.656
      -0.771
