Origin Time       23/08/2012 16:30:19 UTC
Lat.              28.4 N	
Long.             82.7 E	
Depth (Km)         10.0
Magnitude         5.0
 Region           NEPAL                                                            
 Above details taken from IMD 
    
Station Code      PTI
Station Lat.       29.407  N
Station Long.      79.931  E
Station Height(m) 1667.0
Site Class        A   Vs30 between 700 m/sec to 1400 m/sec * 
Record Time       23.08.2012 16:31:14.879 UTC
Sampling Rate     200. Hz
 Record Duration   80.010 Sec.
 Direction         N-S (N positive)
Max. Acceleration     -2.515 cm/sec**2
     
  * For reference see Site Classification link of website 
     
 Base Line Corrected and Low Pass Filtered (Cut Off at 35 Hz) Time History
 Acceleration data in cm/sec**2
    
[...]
      -0.285
      -0.281
      -0.281
      -0.290
      -0.300
      -0.299
      -0.285
      -0.261
      -0.235
      -0.212
      -0.193
      -0.177
      -0.163
      -0.152
      -0.148
      -0.149
      -0.141
      -0.114
      -0.070
      -0.016
       0.036
       0.077
       0.104
       0.119
       0.131
       0.152
       0.186
       0.236
       0.302
       0.379
       0.453
       0.515
       0.557
       0.575
       0.562
       0.519
       0.454
       0.380
       0.305
       0.234
       0.168
       0.097
       0.012
      -0.093
      -0.208
      -0.312
      -0.391
      -0.442
      -0.469
      -0.479
      -0.476
      -0.457
      -0.418
      -0.359
      -0.287
      -0.215
      -0.144
      -0.075
      -0.004
       0.069
       0.146
       0.227
       0.305
       0.375
       0.431
       0.469
       0.481
       0.470
       0.444
       0.414
       0.384
       0.352
       0.312
       0.255
       0.175
       0.078
      -0.022
      -0.110
      -0.178
      -0.232
      -0.280
      -0.332
      -0.390
      -0.451
      -0.505
      -0.546
      -0.577
      -0.602
      -0.621
      -0.627
      -0.614
      -0.577
      -0.520
      -0.452
      -0.383
      -0.322
      -0.262
      -0.197
      -0.125
      -0.047
       0.037
       0.131
       0.233
       0.335
       0.430
       0.507
       0.556
       0.569
       0.548
       0.499
       0.433
       0.360
       0.293
       0.240
       0.200
       0.169
       0.139
       0.102
       0.051
      -0.014
      -0.085
      -0.150
      -0.203
      -0.240
      -0.261
      -0.269
      -0.268
      -0.259
      -0.243
      -0.217
      -0.184
      -0.146
      -0.107
      -0.067
      -0.034
      -0.012
      -0.004
      -0.008
      -0.019
      -0.029
      -0.030
      -0.015
       0.013
       0.048
       0.087
       0.127
       0.159
       0.177
       0.183
       0.185
       0.187
       0.192
       0.202
       0.215
       0.223
       0.220
       0.206
       0.184
       0.147
       0.085
      -0.006
      -0.122
      -0.251
      -0.377
      -0.486
      -0.567
      -0.625
      -0.670
      -0.708
      -0.739
      -0.763
      -0.776
      -0.774
      -0.750
      -0.700
      -0.623
      -0.515
      -0.374
      -0.204
      -0.012
       0.194
       0.403
       0.604
       0.783
       0.931
       1.043
       1.117
       1.154
       1.164
       1.154
       1.124
       1.070
       0.988
       0.876
       0.734
       0.568
       0.387
       0.203
       0.023
      -0.150
      -0.314
      -0.467
      -0.607
      -0.733
      -0.843
      -0.934
      -1.009
      -1.072
      -1.121
      -1.148
      -1.146
      -1.106
      -1.025
      -0.904
      -0.752
      -0.580
      -0.394
      -0.197
       0.002
       0.192
       0.367
       0.528
       0.675
       0.806
       0.918
       1.007
       1.070
       1.105
       1.110
       1.084
       1.026
       0.939
       0.827
       0.696
       0.550
       0.394
       0.238
       0.094
      -0.034
      -0.152
      -0.267
      -0.384
      -0.504
      -0.621
      -0.727
      -0.809
      -0.865
      -0.895
      -0.896
      -0.867
      -0.812
      -0.741
      -0.662
      -0.572
      -0.468
      -0.347
      -0.217
      -0.090
       0.022
       0.121
       0.219
       0.333
       0.465
       0.603
       0.728
       0.828
       0.897
       0.938
       0.952
       0.941
       0.903
       0.844
       0.774
       0.704
       0.629
       0.537
       0.422
       0.288
       0.145
       0.005
      -0.123
      -0.236
      -0.340
      -0.441
      -0.539
      -0.630
      -0.715
      -0.793
      -0.865
      -0.929
      -0.983
      -1.024
      -1.045
      -1.039
      -1.003
      -0.942
      -0.860
      -0.756
      -0.633
      -0.490
      -0.328
      -0.148
       0.040
       0.224
       0.396
       0.555
       0.700
       0.834
       0.958
       1.074
       1.173
       1.242
       1.271
       1.256
       1.198
       1.096
       0.961
       0.805
       0.640
       0.468
       0.290
       0.108
      -0.075
      -0.258
      -0.435
      -0.602
      -0.757
      -0.896
      -1.011
      -1.098
      -1.157
      -1.194
      -1.211
      -1.207
      -1.183
      -1.137
      -1.068
      -0.972
      -0.851
      -0.711
      -0.556
      -0.382
      -0.184
       0.042
       0.298
       0.577
       0.859
       1.118
       1.331
       1.484
       1.571
       1.589
       1.542
       1.437
       1.278
       1.072
       0.832
       0.577
       0.321
       0.068
      -0.177
      -0.412
      -0.631
      -0.829
      -0.995
      -1.118
      -1.190
      -1.210
      -1.186
      -1.128
      -1.052
      -0.967
      -0.877
      -0.779
      -0.673
      -0.564
      -0.456
      -0.345
      -0.224
      -0.089
       0.062
       0.226
       0.395
       0.554
       0.690
       0.798
       0.870
       0.908
       0.916
       0.899
       0.861
       0.798
       0.711
       0.603
       0.475
       0.329
       0.168
      -0.003
      -0.180
      -0.355
      -0.510
      -0.623
      -0.685
      -0.700
      -0.678
      -0.626
      -0.550
      -0.455
      -0.348
      -0.236
      -0.130
      -0.036
       0.046
       0.123
       0.198
       0.276
       0.357
       0.441
       0.526
       0.605
       0.667
       0.703
       0.705
       0.669
       0.601
       0.518
       0.427
       0.331
       0.227
       0.119
       0.012
      -0.089
      -0.180
      -0.259
      -0.335
      -0.415
      -0.501
      -0.583
      -0.647
      -0.685
      -0.692
      -0.670
      -0.626
      -0.571
      -0.509
      -0.446
      -0.385
      -0.332
      -0.288
      -0.245
      -0.194
      -0.134
      -0.067
       0.001
       0.064
       0.121
       0.176
       0.233
       0.289
       0.339
       0.379
       0.416
       0.455
       0.496
       0.535
       0.571
       0.595
       0.596
       0.567
       0.503
       0.408
       0.290
       0.165
       0.050
      -0.049
      -0.136
      -0.219
      -0.304
      -0.389
      -0.469
      -0.532
      -0.568
      -0.576
      -0.561
      -0.530
      -0.486
      -0.433
      -0.375
      -0.315
      -0.248
      -0.166
      -0.065
       0.060
       0.210
       0.378
       0.545
       0.697
       0.831
       0.952
       1.064
       1.165
       1.244
       1.278
       1.248
       1.140
       0.957
       0.708
       0.405
       0.065
      -0.292
      -0.648
      -0.987
      -1.298
      -1.570
      -1.795
      -1.962
      -2.050
      -2.043
      -1.937
      -1.752
      -1.518
      -1.262
      -1.001
      -0.740
      -0.475
      -0.204
       0.069
       0.331
       0.569
       0.781
       0.969
       1.137
       1.291
       1.433
       1.557
       1.652
       1.709
       1.729
       1.714
       1.664
       1.580
       1.460
       1.299
       1.100
       0.875
       0.644
       0.420
       0.198
      -0.033
      -0.280
      -0.542
      -0.812
      -1.077
      -1.323
      -1.537
      -1.709
      -1.828
      -1.883
      -1.872
      -1.800
      -1.676
      -1.502
      -1.281
      -1.022
      -0.742
      -0.469
      -0.235
      -0.056
       0.073
       0.173
       0.265
       0.352
       0.426
       0.483
       0.524
       0.555
       0.582
       0.611
       0.637
       0.656
       0.666
       0.674
       0.685
       0.696
       0.701
       0.693
       0.666
       0.611
       0.527
       0.419
       0.297
       0.173
       0.057
      -0.046
      -0.139
      -0.231
      -0.323
      -0.407
      -0.471
      -0.503
      -0.502
      -0.471
      -0.418
      -0.353
      -0.278
      -0.192
      -0.092
       0.018
       0.136
       0.262
       0.396
       0.534
       0.673
       0.812
       0.951
       1.084
       1.199
       1.279
       1.306
       1.270
       1.176
       1.035
       0.860
       0.658
       0.434
       0.196
      -0.050
      -0.307
      -0.576
      -0.853
      -1.124
      -1.375
      -1.597
      -1.785
      -1.943
      -2.073
      -2.168
      -2.213
      -2.200
      -2.133
      -2.021
      -1.863
      -1.649
      -1.373
      -1.037
      -0.653
      -0.235
       0.202
       0.647
       1.087
       1.497
       1.851
       2.128
       2.325
       2.448
       2.501
       2.483
       2.390
       2.220
       1.980
       1.683
       1.345
       0.985
       0.614
       0.250
      -0.086
      -0.377
      -0.613
      -0.799
      -0.943
      -1.054
      -1.141
      -1.204
      -1.244
      -1.260
      -1.254
      -1.221
      -1.153
      -1.047
      -0.912
      -0.762
      -0.608
      -0.457
      -0.315
      -0.183
      -0.062
       0.044
       0.128
       0.189
       0.232
       0.266
       0.294
       0.323
       0.361
       0.409
       0.459
       0.494
       0.501
       0.472
       0.409
       0.319
       0.215
       0.110
       0.010
      -0.083
      -0.163
      -0.224
      -0.266
      -0.294
      -0.313
      -0.330
      -0.352
      -0.377
      -0.396
      -0.396
      -0.370
      -0.314
      -0.232
      -0.138
      -0.049
       0.022
       0.075
       0.114
       0.142
       0.157
       0.163
       0.160
       0.149
       0.128
       0.099
       0.067
       0.032
      -0.002
      -0.029
      -0.039
      -0.024
       0.021
       0.096
       0.195
       0.299
       0.388
       0.446
       0.464
       0.439
       0.381
       0.306
       0.232
       0.171
       0.129
       0.112
       0.118
       0.137
       0.157
       0.173
       0.187
       0.200
       0.217
       0.238
       0.256
       0.258
       0.232
       0.175
       0.090
      -0.020
      -0.153
      -0.304
      -0.460
      -0.607
      -0.732
      -0.825
      -0.882
      -0.909
      -0.910
      -0.884
      -0.831
      -0.751
      -0.648
      -0.522
      -0.382
      -0.241
      -0.116
      -0.013
       0.069
       0.135
       0.189
       0.236
       0.276
       0.308
       0.331
       0.345
       0.349
       0.339
       0.307
       0.261
       0.217
       0.193
       0.202
       0.252
       0.339
       0.448
       0.561
       0.663
       0.743
       0.798
       0.826
       0.835
       0.828
       0.801
       0.752
       0.680
       0.586
       0.468
       0.322
       0.148
      -0.047
      -0.260
      -0.485
      -0.711
      -0.923
      -1.098
      -1.218
      -1.271
      -1.254
      -1.180
      -1.069
      -0.941
      -0.810
      -0.683
      -0.561
      -0.439
      -0.313
      -0.190
      -0.081
       0.003
       0.061
       0.093
       0.108
       0.116
       0.130
       0.155
       0.194
       0.248
       0.312
       0.370
       0.403
       0.401
       0.365
       0.304
       0.230
       0.150
       0.072
       0.004
      -0.046
      -0.067
      -0.053
      -0.010
       0.051
       0.121
       0.188
       0.240
       0.264
       0.259
       0.228
       0.176
       0.103
       0.011
      -0.101
      -0.236
      -0.394
      -0.563
      -0.724
      -0.858
      -0.944
      -0.970
      -0.931
      -0.830
      -0.678
      -0.479
      -0.240
       0.031
       0.318
       0.604
       0.873
       1.108
       1.297
       1.430
       1.504
       1.514
       1.460
       1.345
       1.178
       0.964
       0.709
       0.426
       0.130
      -0.165
      -0.446
      -0.706
      -0.933
      -1.119
      -1.250
      -1.315
      -1.316
      -1.267
      -1.189
      -1.097
      -0.993
      -0.874
      -0.738
      -0.583
      -0.409
      -0.218
      -0.007
       0.223
       0.468
       0.708
       0.917
       1.071
       1.163
       1.195
       1.182
       1.140
       1.083
       1.009
       0.916
       0.800
       0.664
       0.513
       0.350
       0.182
       0.011
      -0.163
      -0.342
      -0.522
      -0.697
      -0.860
      -1.005
      -1.126
      -1.215
      -1.271
      -1.295
      -1.287
      -1.246
      -1.174
      -1.079
      -0.965
      -0.828
      -0.664
      -0.466
      -0.240
       0.002
       0.240
       0.455
       0.641
       0.795
       0.912
       0.990
       1.035
       1.064
       1.089
       1.110
       1.120
       1.108
       1.069
       1.001
       0.906
       0.787
       0.647
       0.490
       0.328
       0.174
       0.032
      -0.102
      -0.232
      -0.359
      -0.480
      -0.593
      -0.694
      -0.785
      -0.867
      -0.944
      -1.006
      -1.037
      -1.024
      -0.964
      -0.861
      -0.724
      -0.571
      -0.420
      -0.283
      -0.160
      -0.051
       0.038
       0.105
       0.145
       0.161
       0.161
       0.164
       0.184
       0.226
       0.286
       0.357
       0.436
       0.519
       0.601
       0.680
       0.758
       0.839
       0.927
       1.028
       1.138
       1.247
       1.335
       1.386
       1.388
       1.336
       1.224
       1.058
       0.853
       0.626
       0.394
       0.166
      -0.059
      -0.288
      -0.526
      -0.771
      -1.018
      -1.274
      -1.547
      -1.831
      -2.101
      -2.322
      -2.466
      -2.515
      -2.470
      -2.343
      -2.155
      -1.918
      -1.643
      -1.338
      -1.011
      -0.671
      -0.321
       0.032
       0.380
       0.715
       1.032
       1.326
       1.588
       1.811
       1.988
       2.110
       2.172
       2.180
       2.147
       2.085
       1.998
       1.888
       1.756
       1.596
       1.402
       1.171
       0.910
       0.629
       0.342
       0.064
      -0.194
      -0.426
      -0.639
      -0.839
      -1.037
      -1.243
      -1.464
      -1.695
      -1.918
      -2.109
      -2.246
      -2.308
      -2.280
      -2.158
      -1.949
      -1.671
      -1.347
      -1.000
      -0.649
      -0.302
       0.040
       0.372
       0.685
       0.969
       1.216
       1.414
       1.552
       1.619
       1.609
       1.521
       1.369
       1.176
       0.972
       0.775
       0.584
       0.396
       0.206
       0.015
      -0.177
      -0.369
      -0.557
      -0.734
      -0.892
      -1.017
      -1.100
      -1.138
      -1.134
      -1.091
      -1.016
      -0.916
      -0.806
      -0.691
      -0.569
      -0.433
      -0.279
      -0.106
       0.080
       0.271
       0.454
       0.626
       0.788
       0.936
       1.062
       1.154
       1.209
       1.230
       1.221
       1.185
       1.127
       1.050
       0.957
       0.856
       0.753
       0.651
       0.544
       0.431
       0.311
       0.185
       0.045
      -0.111
      -0.277
      -0.445
      -0.611
      -0.771
      -0.919
      -1.052
      -1.167
      -1.258
      -1.326
      -1.375
      -1.410
      -1.432
      -1.429
      -1.388
      -1.303
      -1.171
      -0.997
      -0.786
      -0.550
      -0.294
      -0.028
       0.235
       0.475
       0.672
       0.818
       0.918
       0.986
       1.044
       1.106
       1.170
       1.219
       1.237
       1.218
       1.167
       1.095
       1.016
       0.939
       0.862
       0.771
       0.651
       0.498
       0.315
       0.113
      -0.101
      -0.318
      -0.541
      -0.772
      -1.007
      -1.235
      -1.436
      -1.594
      -1.694
      -1.722
      -1.675
      -1.555
      -1.371
      -1.136
      -0.866
      -0.578
      -0.282
       0.023
       0.336
       0.650
       0.952
       1.228
       1.459
       1.630
       1.733
       1.771
       1.747
       1.668
       1.540
       1.380
       1.200
       1.007
       0.804
       0.593
       0.375
       0.156
      -0.054
      -0.243
      -0.404
      -0.538
      -0.652
      -0.754
      -0.853
      -0.957
      -1.063
      -1.159
      -1.236
      -1.291
      -1.322
      -1.320
      -1.275
      -1.182
      -1.052
      -0.903
      -0.762
      -0.645
      -0.551
      -0.461
      -0.357
      -0.230
      -0.083
       0.078
       0.247
       0.416
       0.582
       0.738
       0.873
       0.970
       1.021
       1.025
       0.992
       0.931
       0.851
       0.761
       0.658
       0.537
       0.393
       0.233
       0.068
      -0.091
      -0.237
      -0.363
      -0.465
      -0.543
      -0.591
      -0.601
      -0.566
      -0.493
      -0.394
      -0.275
      -0.138
       0.013
       0.165
       0.308
       0.430
       0.531
       0.617
       0.691
       0.746
       0.765
       0.736
       0.666
       0.574
       0.478
       0.386
       0.296
       0.200
       0.087
      -0.044
      -0.186
      -0.324
      -0.451
      -0.561
      -0.653
      -0.727
      -0.784
      -0.825
      -0.851
      -0.868
      -0.881
      -0.889
      -0.882
      -0.843
      -0.766
      -0.653
      -0.511
      -0.348
      -0.173
       0.012
       0.213
       0.437
       0.688
       0.957
       1.231
       1.493
       1.721
       1.900
       2.022
       2.081
       2.073
       1.995
       1.854
       1.662
       1.430
       1.163
       0.865
       0.541
       0.195
      -0.163
      -0.521
      -0.874
      -1.219
      -1.554
      -1.864
      -2.122
      -2.304
      -2.395
      -2.392
      -2.303
      -2.147
      -1.944
      -1.707
      -1.449
      -1.182
      -0.911
      -0.638
      -0.362
      -0.092
       0.164
       0.404
       0.632
       0.849
       1.046
       1.206
       1.306
       1.326
       1.269
       1.159
       1.027
       0.899
       0.790
       0.705
       0.643
       0.596
       0.543
       0.468
       0.356
       0.206
       0.029
      -0.155
      -0.327
      -0.475
      -0.595
      -0.688
      -0.755
      -0.804
      -0.840
      -0.864
      -0.867
      -0.840
      -0.782
      -0.695
      -0.587
      -0.461
      -0.313
      -0.130
       0.090
       0.325
       0.544
       0.720
       0.844
       0.920
       0.958
       0.975
       0.981
       0.977
       0.957
       0.916
       0.852
       0.763
       0.651
       0.525
       0.391
       0.256
       0.126
       0.008
      -0.088
      -0.159
      -0.208
      -0.244
      -0.279
      -0.328
      -0.400
      -0.487
      -0.573
      -0.644
      -0.690
      -0.706
      -0.693
      -0.656
      -0.606
      -0.550
      -0.495
      -0.448
      -0.419
      -0.407
      -0.408
      -0.412
      -0.409
      -0.385
      -0.330
      -0.239
      -0.111
       0.054
       0.250
       0.461
       0.669
       0.863
       1.038
       1.189
       1.311
       1.403
       1.464
       1.491
       1.477
       1.416
       1.305
       1.142
       0.934
       0.695
       0.444
       0.194
      -0.047
      -0.270
      -0.472
      -0.649
      -0.799
      -0.920
      -1.014
      -1.088
      -1.147
      -1.189
      -1.209
      -1.208
      -1.192
      -1.163
      -1.115
      -1.043
