Origin Time       23/08/2012 16:30:19
Lat.              28.4 N	
Long.             82.7 E	
Depth (Km)         10.0
Magnitude         5.0
 Region           NEPAL                                                            
 Above details taken from IMD 
     
Station Code      PTI
Station Lat.       29.407  N
Station Long.      79.931  E
Station Height(m) 1667.0
Site Class        A   Vs30 between 700 m/sec to 1400 m/sec * 
Record Time       23.08.2012 16:31:14.879
Sampling Rate     200. Hz
 Record Duration   80.010 Sec.
 Direction         E-W (E positive)
Max. Acceleration     -3.164 cm/sec**2
     
  * For reference see Site Classification link of website 
     
 Base Line Corrected and Low Pass Filtered (Cut Off at 35 Hz) Time History
 Acceleration data in cm/sec**2
    
[...]
      -0.290
      -0.311
      -0.331
      -0.353
      -0.372
      -0.382
      -0.378
      -0.360
      -0.332
      -0.302
      -0.279
      -0.264
      -0.251
      -0.234
      -0.211
      -0.178
      -0.133
      -0.075
      -0.012
       0.047
       0.097
       0.138
       0.171
       0.201
       0.228
       0.250
       0.261
       0.264
       0.264
       0.267
       0.270
       0.270
       0.263
       0.249
       0.228
       0.203
       0.182
       0.165
       0.152
       0.142
       0.132
       0.117
       0.089
       0.045
      -0.011
      -0.076
      -0.146
      -0.217
      -0.284
      -0.343
      -0.392
      -0.424
      -0.433
      -0.417
      -0.384
      -0.341
      -0.290
      -0.231
      -0.167
      -0.101
      -0.041
       0.010
       0.044
       0.067
       0.087
       0.112
       0.143
       0.178
       0.218
       0.258
       0.293
       0.317
       0.324
       0.316
       0.291
       0.254
       0.214
       0.177
       0.143
       0.112
       0.086
       0.063
       0.039
       0.016
      -0.007
      -0.031
      -0.062
      -0.105
      -0.156
      -0.211
      -0.268
      -0.325
      -0.384
      -0.444
      -0.504
      -0.554
      -0.584
      -0.587
      -0.562
      -0.511
      -0.434
      -0.331
      -0.209
      -0.077
       0.056
       0.181
       0.289
       0.377
       0.448
       0.509
       0.561
       0.599
       0.619
       0.617
       0.591
       0.547
       0.499
       0.457
       0.418
       0.377
       0.326
       0.264
       0.195
       0.127
       0.066
       0.013
      -0.036
      -0.086
      -0.130
      -0.164
      -0.187
      -0.200
      -0.207
      -0.207
      -0.202
      -0.192
      -0.175
      -0.157
      -0.148
      -0.152
      -0.163
      -0.169
      -0.160
      -0.133
      -0.092
      -0.049
      -0.013
       0.017
       0.047
       0.079
       0.108
       0.125
       0.125
       0.108
       0.081
       0.053
       0.032
       0.019
       0.010
       0.003
       0.005
       0.025
       0.064
       0.115
       0.167
       0.210
       0.238
       0.253
       0.263
       0.272
       0.279
       0.276
       0.261
       0.232
       0.189
       0.135
       0.076
       0.019
      -0.033
      -0.079
      -0.119
      -0.150
      -0.168
      -0.173
      -0.164
      -0.144
      -0.121
      -0.103
      -0.093
      -0.094
      -0.110
      -0.135
      -0.158
      -0.168
      -0.165
      -0.154
      -0.140
      -0.124
      -0.107
      -0.084
      -0.052
      -0.012
       0.026
       0.057
       0.077
       0.090
       0.097
       0.098
       0.091
       0.071
       0.036
      -0.010
      -0.056
      -0.092
      -0.117
      -0.135
      -0.147
      -0.155
      -0.157
      -0.152
      -0.138
      -0.112
      -0.080
      -0.042
      -0.002
       0.039
       0.078
       0.113
       0.148
       0.187
       0.228
       0.266
       0.301
       0.328
       0.346
       0.351
       0.342
       0.315
       0.267
       0.198
       0.113
       0.018
      -0.088
      -0.207
      -0.332
      -0.450
      -0.546
      -0.614
      -0.661
      -0.701
      -0.747
      -0.800
      -0.849
      -0.878
      -0.881
      -0.861
      -0.823
      -0.767
      -0.693
      -0.597
      -0.472
      -0.314
      -0.129
       0.075
       0.286
       0.490
       0.667
       0.803
       0.899
       0.963
       1.003
       1.023
       1.020
       0.994
       0.945
       0.879
       0.805
       0.728
       0.646
       0.555
       0.458
       0.357
       0.252
       0.139
       0.019
      -0.103
      -0.222
      -0.338
      -0.444
      -0.536
      -0.608
      -0.657
      -0.683
      -0.686
      -0.672
      -0.645
      -0.610
      -0.571
      -0.538
      -0.517
      -0.502
      -0.485
      -0.460
      -0.423
      -0.373
      -0.309
      -0.232
      -0.143
      -0.045
       0.057
       0.152
       0.236
       0.310
       0.381
       0.451
       0.513
       0.561
       0.590
       0.599
       0.595
       0.590
       0.590
       0.597
       0.606
       0.615
       0.623
       0.626
       0.618
       0.597
       0.558
       0.498
       0.416
       0.317
       0.206
       0.085
      -0.042
      -0.167
      -0.285
      -0.394
      -0.499
      -0.604
      -0.712
      -0.819
      -0.915
      -0.985
      -1.020
      -1.018
      -0.980
      -0.910
      -0.810
      -0.686
      -0.548
      -0.398
      -0.240
      -0.074
       0.099
       0.278
       0.462
       0.646
       0.824
       0.989
       1.132
       1.239
       1.301
       1.320
       1.305
       1.261
       1.189
       1.090
       0.966
       0.824
       0.669
       0.509
       0.346
       0.183
       0.021
      -0.129
      -0.257
      -0.360
      -0.444
      -0.520
      -0.595
      -0.673
      -0.750
      -0.815
      -0.857
      -0.877
      -0.883
      -0.880
      -0.867
      -0.836
      -0.783
      -0.707
      -0.614
      -0.513
      -0.408
      -0.296
      -0.170
      -0.033
       0.101
       0.217
       0.307
       0.372
       0.419
       0.457
       0.488
       0.508
       0.512
       0.506
       0.498
       0.486
       0.462
       0.417
       0.351
       0.268
       0.175
       0.081
      -0.010
      -0.100
      -0.187
      -0.270
      -0.344
      -0.407
      -0.459
      -0.501
      -0.533
      -0.558
      -0.575
      -0.583
      -0.574
      -0.545
      -0.497
      -0.429
      -0.342
      -0.241
      -0.132
      -0.018
       0.104
       0.233
       0.362
       0.486
       0.598
       0.693
       0.761
       0.793
       0.783
       0.733
       0.647
       0.542
       0.426
       0.300
       0.160
       0.010
      -0.135
      -0.256
      -0.341
      -0.389
      -0.413
      -0.434
      -0.466
      -0.508
      -0.549
      -0.577
      -0.585
      -0.574
      -0.554
      -0.534
      -0.523
      -0.514
      -0.498
      -0.463
      -0.407
      -0.326
      -0.218
      -0.088
       0.058
       0.214
       0.370
       0.516
       0.643
       0.743
       0.817
       0.864
       0.881
       0.868
       0.823
       0.748
       0.647
       0.532
       0.413
       0.292
       0.166
       0.038
      -0.084
      -0.192
      -0.280
      -0.341
      -0.370
      -0.375
      -0.364
      -0.348
      -0.331
      -0.310
      -0.282
      -0.243
      -0.192
      -0.137
      -0.087
      -0.044
      -0.008
       0.020
       0.035
       0.035
       0.025
       0.015
       0.015
       0.034
       0.080
       0.152
       0.245
       0.349
       0.451
       0.535
       0.587
       0.600
       0.581
       0.540
       0.485
       0.423
       0.355
       0.274
       0.175
       0.056
      -0.075
      -0.211
      -0.345
      -0.467
      -0.566
      -0.637
      -0.678
      -0.691
      -0.681
      -0.657
      -0.631
      -0.610
      -0.596
      -0.584
      -0.567
      -0.531
      -0.468
      -0.376
      -0.261
      -0.134
      -0.005
       0.117
       0.229
       0.332
       0.434
       0.536
       0.629
       0.708
       0.763
       0.787
       0.776
       0.732
       0.666
       0.588
       0.508
       0.433
       0.373
       0.327
       0.291
       0.263
       0.243
       0.232
       0.229
       0.229
       0.226
       0.217
       0.203
       0.191
       0.188
       0.192
       0.192
       0.181
       0.156
       0.118
       0.070
       0.013
      -0.046
      -0.103
      -0.153
      -0.191
      -0.214
      -0.229
      -0.247
      -0.281
      -0.334
      -0.406
      -0.493
      -0.589
      -0.686
      -0.774
      -0.848
      -0.899
      -0.922
      -0.922
      -0.904
      -0.870
      -0.821
      -0.756
      -0.680
      -0.593
      -0.491
      -0.367
      -0.216
      -0.035
       0.172
       0.391
       0.608
       0.813
       1.007
       1.183
       1.331
       1.445
       1.520
       1.559
       1.560
       1.520
       1.442
       1.324
       1.170
       0.987
       0.781
       0.558
       0.319
       0.074
      -0.172
      -0.414
      -0.651
      -0.880
      -1.089
      -1.265
      -1.399
      -1.492
      -1.551
      -1.586
      -1.600
      -1.587
      -1.533
      -1.431
      -1.285
      -1.108
      -0.911
      -0.707
      -0.507
      -0.325
      -0.170
      -0.048
       0.042
       0.113
       0.182
       0.262
       0.355
       0.456
       0.561
       0.664
       0.757
       0.831
       0.874
       0.881
       0.853
       0.808
       0.771
       0.751
       0.742
       0.725
       0.688
       0.628
       0.551
       0.465
       0.376
       0.285
       0.193
       0.104
       0.027
      -0.039
      -0.098
      -0.163
      -0.240
      -0.335
      -0.448
      -0.576
      -0.710
      -0.838
      -0.949
      -1.032
      -1.079
      -1.093
      -1.079
      -1.041
      -0.977
      -0.886
      -0.770
      -0.632
      -0.472
      -0.291
      -0.088
       0.137
       0.385
       0.647
       0.904
       1.139
       1.338
       1.490
       1.588
       1.630
       1.620
       1.566
       1.478
       1.369
       1.252
       1.130
       1.000
       0.854
       0.685
       0.491
       0.273
       0.036
      -0.209
      -0.454
      -0.690
      -0.912
      -1.109
      -1.271
      -1.386
      -1.446
      -1.449
      -1.402
      -1.322
      -1.223
      -1.105
      -0.961
      -0.784
      -0.577
      -0.348
      -0.118
       0.098
       0.294
       0.481
       0.668
       0.858
       1.041
       1.202
       1.320
       1.378
       1.368
       1.297
       1.178
       1.023
       0.838
       0.632
       0.412
       0.187
      -0.034
      -0.243
      -0.435
      -0.607
      -0.755
      -0.872
      -0.955
      -1.005
      -1.024
      -1.009
      -0.957
      -0.874
      -0.767
      -0.640
      -0.495
      -0.339
      -0.181
      -0.026
       0.117
       0.241
       0.336
       0.397
       0.416
       0.392
       0.329
       0.242
       0.147
       0.060
      -0.013
      -0.069
      -0.109
      -0.133
      -0.138
      -0.120
      -0.084
      -0.042
      -0.010
       0.003
      -0.004
      -0.023
      -0.044
      -0.060
      -0.073
      -0.089
      -0.110
      -0.132
      -0.149
      -0.163
      -0.174
      -0.179
      -0.175
      -0.160
      -0.135
      -0.104
      -0.071
      -0.040
      -0.014
       0.006
       0.016
       0.013
       0.004
       0.001
       0.014
       0.040
       0.071
       0.101
       0.127
       0.149
       0.165
       0.176
       0.186
       0.195
       0.211
       0.237
       0.276
       0.317
       0.343
       0.340
       0.301
       0.236
       0.160
       0.092
       0.040
      -0.001
      -0.042
      -0.086
      -0.135
      -0.188
      -0.241
      -0.286
      -0.315
      -0.326
      -0.324
      -0.314
      -0.300
      -0.286
      -0.268
      -0.248
      -0.226
      -0.212
      -0.207
      -0.199
      -0.172
      -0.114
      -0.028
       0.077
       0.182
       0.274
       0.349
       0.410
       0.463
       0.506
       0.537
       0.553
       0.551
       0.526
       0.481
       0.424
       0.367
       0.322
       0.290
       0.272
       0.260
       0.243
       0.210
       0.156
       0.082
      -0.008
      -0.101
      -0.184
      -0.249
      -0.299
      -0.343
      -0.386
      -0.426
      -0.460
      -0.480
      -0.476
      -0.445
      -0.390
      -0.319
      -0.242
      -0.166
      -0.099
      -0.041
       0.013
       0.062
       0.102
       0.125
       0.131
       0.122
       0.102
       0.076
       0.052
       0.035
       0.025
       0.015
      -0.002
      -0.029
      -0.062
      -0.088
      -0.092
      -0.065
      -0.009
       0.071
       0.172
       0.288
       0.415
       0.541
       0.654
       0.739
       0.783
       0.783
       0.751
       0.709
       0.669
       0.636
       0.605
       0.572
       0.528
       0.469
       0.393
       0.300
       0.186
       0.055
      -0.084
      -0.220
      -0.347
      -0.466
      -0.580
      -0.692
      -0.806
      -0.918
      -1.019
      -1.097
      -1.142
      -1.149
      -1.114
      -1.038
      -0.928
      -0.796
      -0.647
      -0.482
      -0.302
      -0.116
       0.065
       0.226
       0.360
       0.467
       0.551
       0.617
       0.661
       0.679
       0.672
       0.645
       0.601
       0.540
       0.469
       0.395
       0.323
       0.258
       0.200
       0.142
       0.070
      -0.027
      -0.151
      -0.294
      -0.449
      -0.610
      -0.771
      -0.926
      -1.067
      -1.183
      -1.254
      -1.263
      -1.204
      -1.080
      -0.898
      -0.664
      -0.382
      -0.058
       0.307
       0.702
       1.109
       1.506
       1.872
       2.188
       2.437
       2.605
       2.687
       2.687
       2.609
       2.457
       2.237
       1.953
       1.610
       1.217
       0.783
       0.320
      -0.164
      -0.659
      -1.147
      -1.610
      -2.030
      -2.396
      -2.695
      -2.921
      -3.071
      -3.151
      -3.164
      -3.116
      -3.012
      -2.858
      -2.656
      -2.409
      -2.123
      -1.799
      -1.435
      -1.030
      -0.593
      -0.143
       0.299
       0.721
       1.114
       1.470
       1.783
       2.043
       2.241
       2.371
       2.435
       2.433
       2.367
       2.245
       2.083
       1.902
       1.715
       1.525
       1.336
       1.149
       0.964
       0.777
       0.584
       0.385
       0.177
      -0.041
      -0.269
      -0.504
      -0.745
      -0.986
      -1.219
      -1.432
      -1.620
      -1.777
      -1.898
      -1.975
      -2.007
      -1.996
      -1.943
      -1.844
      -1.693
      -1.486
      -1.221
      -0.907
      -0.566
      -0.224
       0.100
       0.396
       0.656
       0.876
       1.055
       1.200
       1.315
       1.404
       1.465
       1.494
       1.487
       1.448
       1.388
       1.324
       1.261
       1.195
       1.117
       1.020
       0.902
       0.763
       0.609
       0.442
       0.264
       0.073
      -0.124
      -0.317
      -0.500
      -0.672
      -0.828
      -0.957
      -1.052
      -1.110
      -1.131
      -1.121
      -1.089
      -1.043
      -0.990
      -0.934
      -0.878
      -0.823
      -0.761
      -0.688
      -0.602
      -0.504
      -0.390
      -0.249
      -0.079
       0.112
       0.308
       0.498
       0.672
       0.829
       0.973
       1.105
       1.224
       1.322
       1.396
       1.449
       1.478
       1.477
       1.441
       1.370
       1.263
       1.122
       0.958
       0.777
       0.584
       0.376
       0.153
      -0.084
      -0.331
      -0.587
      -0.847
      -1.103
      -1.345
      -1.563
      -1.746
      -1.889
      -1.993
      -2.055
      -2.069
      -2.025
      -1.919
      -1.757
      -1.545
      -1.289
      -0.993
      -0.665
      -0.319
       0.029
       0.361
       0.661
       0.923
       1.146
       1.327
       1.462
       1.550
       1.590
       1.581
       1.526
       1.433
       1.314
       1.175
       1.018
       0.851
       0.685
       0.528
       0.387
       0.263
       0.156
       0.061
      -0.026
      -0.107
      -0.186
      -0.266
      -0.353
      -0.443
      -0.522
      -0.579
      -0.608
      -0.611
      -0.595
      -0.567
      -0.530
      -0.483
      -0.426
      -0.365
      -0.311
      -0.268
      -0.236
      -0.216
      -0.210
      -0.220
      -0.246
      -0.295
      -0.371
      -0.472
      -0.580
      -0.679
      -0.756
      -0.804
      -0.818
      -0.797
      -0.736
      -0.632
      -0.484
      -0.302
      -0.102
       0.104
       0.305
       0.492
       0.657
       0.795
       0.911
       1.008
       1.092
       1.165
       1.221
       1.253
       1.254
       1.227
       1.180
       1.115
       1.030
       0.924
       0.808
       0.693
       0.583
       0.476
       0.366
       0.244
       0.107
      -0.040
      -0.188
      -0.335
      -0.482
      -0.630
      -0.773
      -0.900
      -1.009
      -1.095
      -1.159
      -1.201
      -1.221
      -1.221
      -1.201
      -1.169
      -1.129
      -1.078
      -1.009
      -0.922
      -0.824
      -0.725
      -0.625
      -0.518
      -0.396
      -0.255
      -0.098
       0.068
       0.235
       0.402
       0.576
       0.757
       0.939
       1.113
       1.269
       1.392
       1.471
       1.499
       1.478
       1.419
       1.332
       1.231
       1.121
       0.993
       0.833
       0.632
       0.393
       0.131
      -0.137
      -0.395
      -0.627
      -0.824
      -0.982
      -1.097
      -1.170
      -1.207
      -1.217
      -1.211
      -1.193
      -1.160
      -1.108
      -1.030
      -0.921
      -0.776
      -0.594
      -0.373
      -0.115
       0.168
       0.451
       0.709
       0.930
       1.106
       1.239
       1.327
       1.371
       1.363
       1.293
       1.158
       0.963
       0.720
       0.447
       0.165
      -0.106
      -0.351
      -0.562
      -0.730
      -0.849
      -0.922
      -0.957
      -0.961
      -0.939
      -0.892
      -0.828
      -0.747
      -0.645
      -0.516
      -0.359
      -0.182
      -0.001
       0.167
       0.308
       0.419
       0.503
       0.562
       0.592
       0.592
       0.566
       0.518
       0.452
       0.371
       0.287
       0.213
       0.157
       0.120
       0.091
       0.057
       0.012
      -0.039
      -0.080
      -0.102
      -0.106
      -0.103
      -0.102
      -0.106
      -0.114
      -0.120
      -0.118
      -0.107
      -0.089
      -0.065
      -0.031
       0.012
       0.058
       0.103
       0.141
       0.168
       0.178
       0.170
       0.147
       0.113
       0.067
       0.011
      -0.051
      -0.114
      -0.175
      -0.232
      -0.281
      -0.319
      -0.345
      -0.361
      -0.365
      -0.354
      -0.330
      -0.293
      -0.241
      -0.177
      -0.107
      -0.043
       0.008
       0.038
       0.042
       0.022
      -0.016
      -0.066
      -0.127
      -0.196
      -0.265
      -0.327
      -0.377
      -0.409
      -0.421
      -0.412
      -0.387
      -0.351
      -0.310
      -0.263
      -0.211
      -0.153
      -0.082
       0.007
       0.113
       0.235
       0.369
       0.512
       0.655
       0.788
       0.904
       0.996
       1.057
       1.084
       1.079
       1.045
       0.990
       0.926
       0.865
       0.812
       0.756
       0.680
       0.572
       0.424
       0.235
       0.010
      -0.242
      -0.513
      -0.797
      -1.084
      -1.355
      -1.589
      -1.779
      -1.927
      -2.035
      -2.107
      -2.135
      -2.110
      -2.017
      -1.855
      -1.633
