Origin Time       28/07/2012 05:48:06
Lat.              29.7 N	
Long.             80.7 E	
Depth (Km)         10.0
Magnitude         4.5
 Region           NEPAL-INDIA-BORDER-REGION                                        
 Above details taken from IMD 
     
Station Code      PTI
Station Lat.       29.407  N
Station Long.      79.931  E
Station Height(m) 1667.0
Site Class        A   Vs30 between 700 m/sec to 1400 m/sec * 
Record Time       28.07.2012 05:48:03.914
Sampling Rate     200. Hz
 Record Duration   80.020 Sec.
 Direction         E-W (E positive)
Max. Acceleration      2.303 cm/sec**2
     
  * For reference see Site Classification link of website 
     
 Base Line Corrected and Low Pass Filtered (Cut Off at 35 Hz) Time History
 Acceleration data in cm/sec**2
    
[...]
      -0.483
      -0.383
      -0.269
      -0.164
      -0.072
       0.011
       0.086
       0.147
       0.181
       0.192
       0.194
       0.207
       0.235
       0.262
       0.271
       0.255
       0.223
       0.185
       0.151
       0.129
       0.125
       0.143
       0.177
       0.204
       0.200
       0.150
       0.061
      -0.032
      -0.095
      -0.111
      -0.090
      -0.054
      -0.018
       0.015
       0.043
       0.052
       0.023
      -0.056
      -0.169
      -0.276
      -0.337
      -0.339
      -0.301
      -0.254
      -0.219
      -0.192
      -0.152
      -0.090
      -0.017
       0.039
       0.059
       0.051
       0.045
       0.064
       0.107
       0.153
       0.182
       0.190
       0.186
       0.175
       0.153
       0.107
       0.034
      -0.051
      -0.122
      -0.162
      -0.170
      -0.152
      -0.114
      -0.061
       0.002
       0.061
       0.101
       0.109
       0.085
       0.048
       0.021
       0.012
       0.016
       0.014
      -0.001
      -0.023
      -0.036
      -0.036
      -0.035
      -0.053
      -0.092
      -0.127
      -0.129
      -0.088
      -0.027
       0.021
       0.034
       0.013
      -0.021
      -0.043
      -0.036
      -0.001
       0.042
       0.077
       0.095
       0.098
       0.090
       0.069
       0.027
      -0.038
      -0.118
      -0.194
      -0.247
      -0.257
      -0.216
      -0.120
       0.016
       0.164
       0.288
       0.365
       0.391
       0.377
       0.337
       0.288
       0.244
       0.208
       0.173
       0.121
       0.038
      -0.082
      -0.224
      -0.361
      -0.461
      -0.502
      -0.483
      -0.416
      -0.316
      -0.198
      -0.076
       0.031
       0.103
       0.127
       0.102
       0.043
      -0.021
      -0.065
      -0.071
      -0.036
       0.030
       0.111
       0.180
       0.213
       0.202
       0.160
       0.118
       0.103
       0.122
       0.155
       0.172
       0.158
       0.115
       0.058
       0.000
      -0.050
      -0.086
      -0.106
      -0.112
      -0.117
      -0.131
      -0.153
      -0.174
      -0.182
      -0.173
      -0.150
      -0.128
      -0.114
      -0.108
      -0.092
      -0.055
      -0.001
       0.055
       0.097
       0.125
       0.151
       0.189
       0.234
       0.265
       0.263
       0.221
       0.150
       0.064
      -0.021
      -0.095
      -0.149
      -0.182
      -0.201
      -0.211
      -0.215
      -0.211
      -0.198
      -0.181
      -0.168
      -0.163
      -0.162
      -0.157
      -0.140
      -0.110
      -0.073
      -0.032
       0.011
       0.056
       0.108
       0.167
       0.227
       0.273
       0.290
       0.277
       0.247
       0.217
       0.193
       0.172
       0.145
       0.107
       0.063
       0.026
       0.003
      -0.014
      -0.040
      -0.088
      -0.156
      -0.227
      -0.277
      -0.291
      -0.263
      -0.204
      -0.128
      -0.050
       0.017
       0.059
       0.067
       0.047
       0.015
      -0.016
      -0.042
      -0.067
      -0.099
      -0.142
      -0.189
      -0.226
      -0.236
      -0.210
      -0.147
      -0.057
       0.041
       0.132
       0.206
       0.265
       0.318
       0.369
       0.413
       0.433
       0.410
       0.343
       0.246
       0.149
       0.073
       0.020
      -0.026
      -0.077
      -0.127
      -0.163
      -0.181
      -0.189
      -0.201
      -0.221
      -0.241
      -0.259
      -0.277
      -0.302
      -0.329
      -0.342
      -0.318
      -0.251
      -0.152
      -0.049
       0.030
       0.064
       0.055
       0.023
       0.000
       0.005
       0.030
       0.051
       0.050
       0.033
       0.027
       0.056
       0.122
       0.199
       0.252
       0.261
       0.242
       0.231
       0.263
       0.346
       0.458
       0.562
       0.620
       0.616
       0.553
       0.448
       0.319
       0.184
       0.054
      -0.062
      -0.161
      -0.239
      -0.291
      -0.318
      -0.338
      -0.380
      -0.464
      -0.577
      -0.677
      -0.725
      -0.713
      -0.664
      -0.611
      -0.558
      -0.488
      -0.387
      -0.265
      -0.151
      -0.066
      -0.010
       0.036
       0.088
       0.156
       0.240
       0.339
       0.446
       0.551
       0.640
       0.698
       0.717
       0.702
       0.664
       0.609
       0.541
       0.459
       0.375
       0.299
       0.238
       0.182
       0.112
       0.016
      -0.093
      -0.178
      -0.204
      -0.163
      -0.085
      -0.015
       0.009
      -0.027
      -0.113
      -0.225
      -0.338
      -0.434
      -0.501
      -0.533
      -0.535
      -0.516
      -0.491
      -0.465
      -0.435
      -0.393
      -0.343
      -0.295
      -0.262
      -0.249
      -0.244
      -0.229
      -0.182
      -0.102
      -0.003
       0.098
       0.190
       0.277
       0.365
       0.452
       0.524
       0.565
       0.566
       0.535
       0.489
       0.444
       0.409
       0.384
       0.364
       0.346
       0.331
       0.322
       0.321
       0.320
       0.299
       0.241
       0.146
       0.025
      -0.106
      -0.235
      -0.357
      -0.470
      -0.578
      -0.676
      -0.750
      -0.786
      -0.782
      -0.750
      -0.704
      -0.648
      -0.579
      -0.484
      -0.359
      -0.208
      -0.043
       0.115
       0.249
       0.345
       0.408
       0.452
       0.498
       0.553
       0.607
       0.636
       0.620
       0.552
       0.440
       0.309
       0.183
       0.082
       0.012
      -0.031
      -0.053
      -0.064
      -0.075
      -0.092
      -0.116
      -0.143
      -0.171
      -0.201
      -0.234
      -0.271
      -0.313
      -0.354
      -0.376
      -0.360
      -0.294
      -0.184
      -0.051
       0.079
       0.182
       0.246
       0.280
       0.305
       0.341
       0.387
       0.421
       0.419
       0.373
       0.300
       0.227
       0.169
       0.120
       0.061
      -0.016
      -0.096
      -0.153
      -0.169
      -0.147
      -0.105
      -0.064
      -0.038
      -0.027
      -0.029
      -0.042
      -0.069
      -0.104
      -0.133
      -0.140
      -0.116
      -0.069
      -0.023
       0.004
       0.005
      -0.009
      -0.021
      -0.024
      -0.015
       0.010
       0.054
       0.107
       0.144
       0.136
       0.074
      -0.021
      -0.106
      -0.140
      -0.101
      -0.005
       0.109
       0.198
       0.244
       0.251
       0.236
       0.212
       0.185
       0.157
       0.126
       0.086
       0.032
      -0.036
      -0.107
      -0.164
      -0.197
      -0.211
      -0.218
      -0.225
      -0.228
      -0.223
      -0.212
      -0.203
      -0.194
      -0.178
      -0.148
      -0.100
      -0.039
       0.024
       0.074
       0.104
       0.121
       0.135
       0.151
       0.166
       0.173
       0.169
       0.161
       0.156
       0.158
       0.161
       0.159
       0.153
       0.157
       0.177
       0.205
       0.222
       0.211
       0.171
       0.116
       0.069
       0.051
       0.069
       0.121
       0.186
       0.237
       0.243
       0.186
       0.067
      -0.090
      -0.253
      -0.394
      -0.491
      -0.533
      -0.517
      -0.454
      -0.372
      -0.304
      -0.281
      -0.316
      -0.387
      -0.445
      -0.443
      -0.365
      -0.233
      -0.088
       0.037
       0.133
       0.207
       0.261
       0.293
       0.309
       0.330
       0.388
       0.490
       0.605
       0.681
       0.685
       0.617
       0.503
       0.374
       0.245
       0.128
       0.032
      -0.032
      -0.064
      -0.075
      -0.089
      -0.127
      -0.195
      -0.276
      -0.344
      -0.377
      -0.371
      -0.338
      -0.292
      -0.242
      -0.193
      -0.153
      -0.131
      -0.128
      -0.134
      -0.134
      -0.120
      -0.098
      -0.073
      -0.036
       0.027
       0.118
       0.221
       0.303
       0.336
       0.311
       0.245
       0.174
       0.134
       0.141
       0.189
       0.257
       0.325
       0.379
       0.411
       0.416
       0.391
       0.344
       0.289
       0.236
       0.179
       0.099
      -0.011
      -0.130
      -0.224
      -0.265
      -0.251
      -0.195
      -0.118
      -0.039
       0.022
       0.045
       0.018
      -0.057
      -0.157
      -0.260
      -0.355
      -0.450
      -0.547
      -0.632
      -0.680
      -0.678
      -0.635
      -0.574
      -0.515
      -0.459
      -0.387
      -0.277
      -0.129
       0.041
       0.211
       0.370
       0.516
       0.642
       0.730
       0.766
       0.746
       0.686
       0.603
       0.512
       0.424
       0.353
       0.315
       0.315
       0.335
       0.344
       0.318
       0.260
       0.191
       0.126
       0.062
      -0.015
      -0.111
      -0.221
      -0.329
      -0.419
      -0.484
      -0.521
      -0.529
      -0.515
      -0.489
      -0.468
      -0.463
      -0.472
      -0.479
      -0.465
      -0.422
      -0.352
      -0.262
      -0.155
      -0.025
       0.133
       0.307
       0.469
       0.583
       0.637
       0.642
       0.627
       0.609
       0.593
       0.572
       0.548
       0.527
       0.514
       0.504
       0.478
       0.423
       0.336
       0.231
       0.121
       0.013
      -0.099
      -0.221
      -0.359
      -0.515
      -0.683
      -0.849
      -0.993
      -1.090
      -1.115
      -1.057
      -0.926
      -0.750
      -0.561
      -0.384
      -0.229
      -0.104
      -0.008
       0.065
       0.129
       0.198
       0.281
       0.377
       0.477
       0.572
       0.654
       0.715
       0.755
       0.784
       0.819
       0.873
       0.933
       0.965
       0.935
       0.842
       0.712
       0.583
       0.463
       0.333
       0.166
      -0.043
      -0.259
      -0.434
      -0.537
      -0.575
      -0.591
      -0.625
      -0.703
      -0.821
      -0.956
      -1.081
      -1.173
      -1.219
      -1.217
      -1.171
      -1.086
      -0.963
      -0.800
      -0.601
      -0.387
      -0.190
      -0.037
       0.074
       0.172
       0.289
       0.434
       0.593
       0.744
       0.872
       0.976
       1.058
       1.115
       1.141
       1.136
       1.108
       1.069
       1.028
       0.984
       0.930
       0.852
       0.733
       0.560
       0.338
       0.086
      -0.165
      -0.386
      -0.558
      -0.683
      -0.776
      -0.853
      -0.922
      -0.988
      -1.053
      -1.121
      -1.182
      -1.212
      -1.189
      -1.102
      -0.961
      -0.792
      -0.620
      -0.460
      -0.313
      -0.177
      -0.053
       0.057
       0.157
       0.267
       0.405
       0.578
       0.774
       0.963
       1.111
       1.195
       1.207
       1.165
       1.102
       1.053
       1.041
       1.066
       1.106
       1.129
       1.104
       1.014
       0.859
       0.656
       0.434
       0.221
       0.028
      -0.143
      -0.301
      -0.447
      -0.581
      -0.703
      -0.810
      -0.902
      -0.976
      -1.041
      -1.106
      -1.177
      -1.248
      -1.302
      -1.326
      -1.321
      -1.298
      -1.262
      -1.202
      -1.101
      -0.962
      -0.814
      -0.688
      -0.587
      -0.482
      -0.339
      -0.147
       0.076
       0.299
       0.507
       0.712
       0.933
       1.171
       1.396
       1.570
       1.666
       1.690
       1.668
       1.630
       1.597
       1.572
       1.542
       1.487
       1.382
       1.217
       0.997
       0.753
       0.524
       0.334
       0.170
      -0.007
      -0.240
      -0.542
      -0.885
      -1.223
      -1.515
      -1.748
      -1.930
      -2.071
      -2.168
      -2.208
      -2.178
      -2.075
      -1.910
      -1.708
      -1.493
      -1.272
      -1.028
      -0.741
      -0.398
       0.000
       0.434
       0.864
       1.239
       1.508
       1.652
       1.687
       1.660
       1.619
       1.600
       1.610
       1.639
       1.661
       1.653
       1.600
       1.503
       1.369
       1.209
       1.033
       0.852
       0.670
       0.487
       0.298
       0.102
      -0.099
      -0.298
      -0.499
      -0.713
      -0.942
      -1.169
      -1.361
      -1.494
      -1.570
      -1.603
      -1.610
      -1.598
      -1.575
      -1.552
      -1.543
      -1.549
      -1.548
      -1.498
      -1.363
      -1.139
      -0.853
      -0.547
      -0.259
      -0.008
       0.205
       0.402
       0.613
       0.861
       1.150
       1.466
       1.774
       2.031
       2.203
       2.277
       2.266
       2.193
       2.075
       1.919
       1.725
       1.500
       1.255
       0.999
       0.729
       0.433
       0.107
      -0.233
      -0.555
      -0.832
      -1.058
      -1.243
      -1.393
      -1.505
      -1.565
      -1.569
      -1.529
      -1.478
      -1.459
      -1.501
      -1.602
      -1.722
      -1.804
      -1.800
      -1.693
      -1.501
      -1.254
      -0.978
      -0.683
      -0.370
      -0.047
       0.276
       0.589
       0.885
       1.166
       1.434
       1.682
       1.896
       2.061
       2.172
       2.244
       2.289
       2.303
       2.271
       2.183
       2.042
       1.857
       1.627
       1.344
       1.005
       0.627
       0.241
      -0.126
      -0.465
      -0.780
      -1.069
      -1.310
      -1.483
      -1.584
      -1.633
      -1.651
      -1.647
      -1.617
      -1.553
      -1.455
      -1.332
      -1.204
      -1.094
      -1.019
      -0.978
      -0.951
      -0.899
      -0.787
      -0.607
      -0.379
      -0.141
       0.073
       0.239
       0.351
       0.420
       0.471
       0.539
       0.647
       0.791
       0.948
       1.085
       1.176
       1.214
       1.214
       1.199
       1.184
       1.160
       1.104
       1.001
       0.854
       0.688
       0.535
       0.408
       0.302
       0.198
       0.076
      -0.073
      -0.244
      -0.410
      -0.531
      -0.582
      -0.569
      -0.529
      -0.498
      -0.492
      -0.502
      -0.518
      -0.537
      -0.570
      -0.622
      -0.686
      -0.740
      -0.771
      -0.776
      -0.762
      -0.728
      -0.669
      -0.579
      -0.465
      -0.344
      -0.232
      -0.137
      -0.055
       0.024
       0.103
       0.182
       0.251
       0.306
       0.350
       0.395
       0.451
       0.530
       0.637
       0.769
       0.917
       1.067
       1.198
       1.286
       1.303
       1.226
       1.047
       0.779
       0.456
       0.126
      -0.165
      -0.392
      -0.554
      -0.665
      -0.743
      -0.806
      -0.863
      -0.923
      -0.989
      -1.058
      -1.116
      -1.140
      -1.110
      -1.026
      -0.903
      -0.756
      -0.589
      -0.396
      -0.184
       0.017
       0.172
       0.263
       0.307
       0.344
       0.402
       0.481
       0.558
       0.615
       0.659
       0.705
       0.756
       0.796
       0.806
       0.776
       0.711
       0.619
       0.510
       0.398
       0.303
       0.250
       0.250
       0.292
       0.340
       0.358
       0.327
       0.257
       0.172
       0.105
       0.081
       0.107
       0.168
       0.240
       0.299
       0.325
       0.305
       0.230
       0.107
      -0.042
      -0.195
      -0.342
      -0.489
      -0.646
      -0.810
      -0.955
      -1.044
      -1.052
      -0.982
      -0.869
      -0.752
      -0.648
      -0.544
      -0.409
      -0.232
      -0.034
       0.139
       0.257
       0.322
       0.364
       0.403
       0.439
       0.452
       0.429
       0.370
       0.289
       0.200
       0.112
       0.027
      -0.051
      -0.112
      -0.140
      -0.133
      -0.105
      -0.079
      -0.075
      -0.101
      -0.149
      -0.205
      -0.251
      -0.271
      -0.257
      -0.210
      -0.135
      -0.042
       0.063
       0.171
       0.271
       0.349
       0.396
       0.418
       0.437
       0.473
       0.527
       0.576
       0.582
       0.519
       0.386
       0.200
      -0.020
      -0.264
      -0.519
      -0.756
      -0.930
      -1.011
      -1.001
      -0.933
      -0.849
      -0.765
      -0.668
      -0.525
      -0.313
      -0.040
       0.262
       0.559
       0.835
       1.093
       1.331
       1.529
       1.661
       1.704
       1.652
       1.513
       1.309
       1.076
       0.850
       0.658
       0.502
       0.360
       0.206
       0.025
      -0.174
      -0.377
      -0.574
      -0.764
      -0.952
      -1.147
      -1.359
      -1.593
      -1.837
      -2.059
      -2.224
      -2.303
      -2.286
      -2.172
      -1.958
      -1.629
      -1.182
      -0.642
      -0.069
       0.460
       0.881
       1.164
       1.320
       1.382
       1.388
       1.365
       1.335
       1.324
       1.362
       1.457
       1.583
       1.687
       1.720
       1.663
       1.525
       1.330
       1.100
       0.854
       0.606
       0.373
       0.168
      -0.003
      -0.135
      -0.219
      -0.249
      -0.227
      -0.183
      -0.168
      -0.226
      -0.368
      -0.561
      -0.752
      -0.900
      -0.996
      -1.062
      -1.133
      -1.231
      -1.355
      -1.481
      -1.576
      -1.614
      -1.585
      -1.494
      -1.348
      -1.152
      -0.912
      -0.639
      -0.348
      -0.060
       0.203
       0.420
       0.579
       0.684
       0.756
       0.825
       0.924
       1.078
       1.291
       1.541
       1.781
       1.969
       2.078
       2.098
       2.013
       1.806
       1.481
       1.076
       0.663
       0.316
       0.073
      -0.078
      -0.184
      -0.289
      -0.411
      -0.545
      -0.678
      -0.800
      -0.905
      -0.992
      -1.070
      -1.160
      -1.287
      -1.454
      -1.636
      -1.781
      -1.841
      -1.807
      -1.709
      -1.588
      -1.456
      -1.284
      -1.033
      -0.691
      -0.289
       0.108
       0.443
       0.693
       0.870
       1.005
       1.119
       1.217
       1.293
       1.337
       1.339
       1.302
       1.244
       1.187
       1.141
       1.094
       1.033
       0.954
       0.872
       0.803
       0.743
       0.666
       0.546
       0.382
       0.206
       0.051
      -0.076
      -0.210
      -0.396
      -0.654
      -0.957
      -1.242
      -1.451
      -1.559
      -1.587
      -1.571
      -1.543
      -1.521
      -1.507
      -1.484
      -1.419
      -1.272
      -1.025
      -0.695
      -0.333
       0.000
       0.267
       0.472
       0.653
       0.862
       1.122
       1.416
       1.689
       1.879
       1.948
       1.895
       1.750
       1.550
       1.329
       1.115
       0.936
       0.818
       0.765
       0.753
       0.729
       0.646
       0.485
       0.267
       0.031
      -0.192
      -0.394
      -0.579
      -0.746
      -0.879
      -0.965
