Origin Time       28/07/2012 05:48:06 UTC
Lat.              29.7 N	
Long.             80.7 E	
Depth (Km)         10.0
Magnitude         4.5
 Region           NEPAL-INDIA-BORDER-REGION                                        
 Above details taken from IMD 
    
Station Code      PTI
Station Lat.       29.407  N
Station Long.      79.931  E
Station Height(m) 1667.0
Site Class        A   Vs30 between 700 m/sec to 1400 m/sec * 
Record Time       28.07.2012 05:48:03.914 UTC
Sampling Rate     200. Hz
 Record Duration   80.020 Sec.
 Direction         N-S (N positive)
Max. Acceleration      3.111 cm/sec**2
     
  * For reference see Site Classification link of website 
     
 Base Line Corrected and Low Pass Filtered (Cut Off at 35 Hz) Time History
 Acceleration data in cm/sec**2
    
[...]
      -0.017
       0.044
       0.124
       0.213
       0.288
       0.339
       0.369
       0.377
       0.349
       0.270
       0.146
       0.013
      -0.076
      -0.087
      -0.029
       0.059
       0.132
       0.166
       0.162
       0.137
       0.108
       0.090
       0.091
       0.110
       0.137
       0.158
       0.157
       0.127
       0.073
       0.012
      -0.036
      -0.069
      -0.106
      -0.170
      -0.270
      -0.385
      -0.481
      -0.525
      -0.503
      -0.431
      -0.342
      -0.269
      -0.223
      -0.191
      -0.146
      -0.065
       0.050
       0.173
       0.266
       0.304
       0.289
       0.243
       0.192
       0.156
       0.139
       0.131
       0.120
       0.098
       0.071
       0.049
       0.043
       0.057
       0.093
       0.144
       0.204
       0.263
       0.316
       0.354
       0.368
       0.350
       0.301
       0.231
       0.152
       0.083
       0.032
      -0.001
      -0.029
      -0.066
      -0.120
      -0.187
      -0.259
      -0.326
      -0.381
      -0.420
      -0.445
      -0.459
      -0.466
      -0.464
      -0.446
      -0.412
      -0.371
      -0.337
      -0.318
      -0.304
      -0.262
      -0.161
       0.010
       0.229
       0.451
       0.629
       0.727
       0.731
       0.659
       0.543
       0.419
       0.319
       0.257
       0.233
       0.225
       0.205
       0.149
       0.056
      -0.058
      -0.167
      -0.249
      -0.294
      -0.303
      -0.284
      -0.249
      -0.210
      -0.181
      -0.167
      -0.157
      -0.137
      -0.096
      -0.041
       0.014
       0.058
       0.088
       0.104
       0.111
       0.109
       0.096
       0.071
       0.037
      -0.006
      -0.055
      -0.105
      -0.142
      -0.148
      -0.116
      -0.051
       0.024
       0.080
       0.096
       0.064
      -0.003
      -0.085
      -0.158
      -0.203
      -0.200
      -0.138
      -0.031
       0.081
       0.147
       0.138
       0.073
       0.004
      -0.014
       0.035
       0.126
       0.215
       0.270
       0.287
       0.274
       0.243
       0.201
       0.150
       0.100
       0.072
       0.088
       0.153
       0.246
       0.328
       0.362
       0.329
       0.237
       0.111
      -0.012
      -0.092
      -0.108
      -0.065
       0.001
       0.044
       0.032
      -0.040
      -0.157
      -0.292
      -0.424
      -0.534
      -0.601
      -0.608
      -0.554
      -0.454
      -0.339
      -0.236
      -0.158
      -0.102
      -0.053
       0.003
       0.069
       0.136
       0.196
       0.240
       0.269
       0.285
       0.289
       0.289
       0.287
       0.279
       0.264
       0.241
       0.217
       0.208
       0.230
       0.290
       0.370
       0.431
       0.434
       0.369
       0.264
       0.160
       0.087
       0.046
       0.007
      -0.066
      -0.194
      -0.361
      -0.522
      -0.628
      -0.654
      -0.604
      -0.506
      -0.391
      -0.280
      -0.177
      -0.086
      -0.014
       0.032
       0.047
       0.041
       0.032
       0.040
       0.077
       0.139
       0.215
       0.296
       0.375
       0.446
       0.491
       0.484
       0.407
       0.261
       0.075
      -0.113
      -0.266
      -0.365
      -0.408
      -0.406
      -0.378
      -0.346
      -0.333
      -0.344
      -0.362
      -0.356
      -0.308
      -0.223
      -0.119
      -0.009
       0.100
       0.210
       0.320
       0.422
       0.507
       0.564
       0.588
       0.580
       0.539
       0.469
       0.379
       0.282
       0.195
       0.132
       0.098
       0.080
       0.051
      -0.017
      -0.128
      -0.255
      -0.355
      -0.402
      -0.395
      -0.353
      -0.305
      -0.261
      -0.216
      -0.162
      -0.098
      -0.044
      -0.024
      -0.051
      -0.114
      -0.183
      -0.220
      -0.202
      -0.134
      -0.052
       0.010
       0.035
       0.029
       0.014
       0.012
       0.036
       0.088
       0.157
       0.225
       0.277
       0.300
       0.294
       0.269
       0.245
       0.241
       0.255
       0.269
       0.258
       0.212
       0.139
       0.066
       0.016
      -0.010
      -0.027
      -0.054
      -0.093
      -0.132
      -0.164
      -0.195
      -0.240
      -0.306
      -0.381
      -0.436
      -0.439
      -0.384
      -0.296
      -0.211
      -0.155
      -0.131
      -0.123
      -0.108
      -0.074
      -0.017
       0.060
       0.150
       0.245
       0.331
       0.388
       0.410
       0.402
       0.380
       0.345
       0.285
       0.181
       0.037
      -0.116
      -0.229
      -0.264
      -0.217
      -0.124
      -0.033
       0.018
       0.022
       0.000
      -0.015
       0.004
       0.074
       0.193
       0.335
       0.454
       0.500
       0.452
       0.330
       0.188
       0.073
       0.001
      -0.048
      -0.102
      -0.172
      -0.242
      -0.288
      -0.292
      -0.250
      -0.169
      -0.067
       0.033
       0.099
       0.105
       0.046
      -0.052
      -0.139
      -0.179
      -0.166
      -0.129
      -0.106
      -0.117
      -0.159
      -0.208
      -0.245
      -0.260
      -0.250
      -0.217
      -0.165
      -0.103
      -0.051
      -0.026
      -0.032
      -0.055
      -0.068
      -0.049
       0.008
       0.083
       0.143
       0.168
       0.157
       0.136
       0.139
       0.189
       0.285
       0.394
       0.474
       0.489
       0.436
       0.343
       0.254
       0.201
       0.194
       0.218
       0.243
       0.250
       0.234
       0.198
       0.141
       0.064
      -0.025
      -0.113
      -0.195
      -0.278
      -0.377
      -0.492
      -0.607
      -0.696
      -0.740
      -0.741
      -0.710
      -0.658
      -0.583
      -0.485
      -0.371
      -0.252
      -0.134
      -0.016
       0.103
       0.213
       0.302
       0.363
       0.403
       0.441
       0.494
       0.564
       0.641
       0.709
       0.759
       0.780
       0.754
       0.657
       0.478
       0.238
      -0.007
      -0.184
      -0.253
      -0.224
      -0.153
      -0.097
      -0.081
      -0.088
      -0.088
      -0.068
      -0.034
      -0.008
      -0.004
      -0.020
      -0.046
      -0.072
      -0.090
      -0.098
      -0.094
      -0.086
      -0.090
      -0.123
      -0.179
      -0.228
      -0.228
      -0.156
      -0.033
       0.086
       0.138
       0.089
      -0.042
      -0.197
      -0.317
      -0.368
      -0.356
      -0.310
      -0.268
      -0.250
      -0.254
      -0.258
      -0.240
      -0.187
      -0.105
      -0.010
       0.073
       0.125
       0.134
       0.102
       0.047
      -0.002
      -0.014
       0.022
       0.088
       0.139
       0.140
       0.091
       0.030
       0.004
       0.040
       0.127
       0.224
       0.294
       0.330
       0.354
       0.396
       0.465
       0.543
       0.601
       0.626
       0.624
       0.608
       0.588
       0.567
       0.544
       0.527
       0.518
       0.506
       0.465
       0.373
       0.235
       0.072
      -0.087
      -0.227
      -0.348
      -0.462
      -0.577
      -0.694
      -0.804
      -0.897
      -0.975
      -1.050
      -1.129
      -1.203
      -1.246
      -1.230
      -1.145
      -1.008
      -0.849
      -0.686
      -0.520
      -0.348
      -0.176
      -0.013
       0.141
       0.296
       0.460
       0.630
       0.791
       0.920
       1.002
       1.035
       1.027
       0.985
       0.920
       0.845
       0.785
       0.764
       0.791
       0.848
       0.893
       0.880
       0.781
       0.602
       0.373
       0.128
      -0.108
      -0.324
      -0.513
      -0.673
      -0.804
      -0.904
      -0.971
      -1.008
      -1.024
      -1.035
      -1.043
      -1.031
      -0.977
      -0.868
      -0.712
      -0.535
      -0.368
      -0.231
      -0.125
      -0.038
       0.047
       0.145
       0.259
       0.381
       0.495
       0.588
       0.662
       0.728
       0.788
       0.833
       0.852
       0.842
       0.816
       0.787
       0.765
       0.746
       0.710
       0.635
       0.508
       0.345
       0.179
       0.056
       0.003
       0.018
       0.061
       0.077
       0.024
      -0.102
      -0.271
      -0.432
      -0.547
      -0.600
      -0.605
      -0.584
      -0.552
      -0.513
      -0.478
      -0.467
      -0.495
      -0.556
      -0.620
      -0.643
      -0.599
      -0.490
      -0.347
      -0.210
      -0.100
      -0.018
       0.045
       0.096
       0.135
       0.155
       0.149
       0.114
       0.054
      -0.020
      -0.098
      -0.172
      -0.228
      -0.248
      -0.224
      -0.167
      -0.101
      -0.048
      -0.011
       0.029
       0.101
       0.224
       0.395
       0.591
       0.777
       0.919
       0.995
       1.005
       0.971
       0.918
       0.864
       0.811
       0.759
       0.711
       0.666
       0.611
       0.520
       0.370
       0.152
      -0.115
      -0.388
      -0.616
      -0.760
      -0.808
      -0.784
      -0.731
      -0.696
      -0.714
      -0.788
      -0.898
      -1.006
      -1.077
      -1.091
      -1.056
      -0.995
      -0.933
      -0.880
      -0.826
      -0.763
      -0.689
      -0.609
      -0.514
      -0.389
      -0.226
      -0.039
       0.143
       0.293
       0.407
       0.501
       0.593
       0.687
       0.769
       0.828
       0.865
       0.891
       0.924
       0.977
       1.062
       1.177
       1.311
       1.438
       1.528
       1.554
       1.498
       1.360
       1.161
       0.937
       0.713
       0.494
       0.267
       0.017
      -0.259
      -0.550
      -0.838
      -1.110
      -1.357
      -1.564
      -1.718
      -1.816
      -1.870
      -1.897
      -1.900
      -1.859
      -1.752
      -1.579
      -1.371
      -1.169
      -0.998
      -0.843
      -0.658
      -0.401
      -0.066
       0.312
       0.680
       1.001
       1.267
       1.485
       1.660
       1.776
       1.815
       1.773
       1.674
       1.555
       1.441
       1.344
       1.266
       1.203
       1.149
       1.085
       0.991
       0.847
       0.651
       0.417
       0.172
      -0.049
      -0.220
      -0.330
      -0.390
      -0.428
      -0.483
      -0.585
      -0.741
      -0.925
      -1.096
      -1.209
      -1.242
      -1.201
      -1.116
      -1.034
      -0.990
      -0.995
      -1.036
      -1.082
      -1.099
      -1.067
      -0.984
      -0.866
      -0.733
      -0.595
      -0.450
      -0.298
      -0.142
       0.010
       0.151
       0.295
       0.468
       0.689
       0.949
       1.202
       1.383
       1.444
       1.374
       1.201
       0.984
       0.784
       0.640
       0.554
       0.509
       0.481
       0.450
       0.402
       0.335
       0.265
       0.220
       0.219
       0.250
       0.272
       0.236
       0.106
      -0.113
      -0.391
      -0.682
      -0.953
      -1.184
      -1.366
      -1.493
      -1.554
      -1.540
      -1.455
      -1.317
      -1.153
      -0.976
      -0.777
      -0.534
      -0.237
       0.093
       0.416
       0.692
       0.900
       1.034
       1.095
       1.081
       0.995
       0.859
       0.716
       0.618
       0.607
       0.700
       0.878
       1.084
       1.244
       1.291
       1.198
       0.984
       0.702
       0.414
       0.170
      -0.004
      -0.117
      -0.195
      -0.267
      -0.351
      -0.457
      -0.587
      -0.738
      -0.894
      -1.032
      -1.123
      -1.149
      -1.108
      -1.012
      -0.879
      -0.728
      -0.578
      -0.446
      -0.338
      -0.241
      -0.135
      -0.007
       0.148
       0.324
       0.518
       0.726
       0.939
       1.138
       1.299
       1.400
       1.421
       1.352
       1.196
       0.972
       0.706
       0.421
       0.128
      -0.170
      -0.464
      -0.731
      -0.939
      -1.068
      -1.118
      -1.107
      -1.060
      -0.996
      -0.930
      -0.864
      -0.787
      -0.683
      -0.544
      -0.372
      -0.179
       0.018
       0.203
       0.364
       0.493
       0.593
       0.663
       0.698
       0.683
       0.603
       0.466
       0.307
       0.175
       0.110
       0.123
       0.188
       0.253
       0.255
       0.147
      -0.074
      -0.367
      -0.663
      -0.905
      -1.067
      -1.150
      -1.171
      -1.151
      -1.109
      -1.062
      -1.010
      -0.937
      -0.817
      -0.629
      -0.381
      -0.100
       0.184
       0.460
       0.745
       1.066
       1.438
       1.855
       2.280
       2.648
       2.882
       2.918
       2.744
       2.406
       1.997
       1.613
       1.310
       1.085
       0.883
       0.635
       0.292
      -0.140
      -0.604
      -1.025
      -1.360
      -1.612
      -1.820
      -2.015
      -2.203
      -2.364
      -2.478
      -2.546
      -2.588
      -2.622
      -2.648
      -2.644
      -2.576
      -2.422
      -2.174
      -1.840
      -1.426
      -0.948
      -0.428
       0.106
       0.630
       1.130
       1.591
       1.994
       2.311
       2.530
       2.671
       2.777
       2.890
       3.012
       3.105
       3.111
       2.992
       2.746
       2.408
       2.018
       1.599
       1.153
       0.676
       0.181
      -0.300
      -0.732
      -1.097
      -1.403
      -1.670
      -1.910
      -2.108
      -2.238
      -2.283
      -2.252
      -2.177
      -2.091
      -2.012
      -1.939
      -1.855
      -1.736
      -1.556
      -1.310
      -1.014
      -0.706
      -0.421
      -0.170
       0.060
       0.296
       0.558
       0.841
       1.125
       1.376
       1.561
       1.650
       1.636
       1.547
       1.437
       1.361
       1.342
       1.364
       1.376
       1.322
       1.170
       0.933
       0.667
       0.446
       0.321
       0.306
       0.367
       0.444
       0.470
       0.394
       0.209
      -0.052
      -0.326
      -0.556
      -0.719
      -0.830
      -0.937
      -1.084
      -1.285
      -1.513
      -1.710
      -1.811
      -1.774
      -1.604
      -1.351
      -1.086
      -0.866
      -0.710
      -0.604
      -0.517
      -0.417
      -0.282
      -0.103
       0.107
       0.313
       0.482
       0.595
       0.662
       0.711
       0.762
       0.823
       0.898
       0.995
       1.118
       1.256
       1.378
       1.445
       1.435
       1.353
       1.231
       1.107
       0.995
       0.881
       0.733
       0.537
       0.304
       0.064
      -0.151
      -0.315
      -0.425
      -0.500
      -0.578
      -0.690
      -0.843
      -1.015
      -1.169
      -1.281
      -1.350
      -1.388
      -1.406
      -1.399
      -1.351
      -1.259
      -1.129
      -0.964
      -0.764
      -0.527
      -0.266
      -0.005
       0.237
       0.450
       0.638
       0.803
       0.939
       1.039
       1.100
       1.143
       1.191
       1.252
       1.304
       1.308
       1.244
       1.127
       1.007
       0.934
       0.918
       0.915
       0.851
       0.673
       0.384
       0.037
      -0.308
      -0.611
      -0.868
      -1.102
      -1.339
      -1.578
      -1.787
      -1.910
      -1.902
      -1.755
      -1.500
      -1.197
      -0.899
      -0.623
      -0.348
      -0.044
       0.291
       0.617
       0.869
       0.985
       0.944
       0.780
       0.559
       0.352
       0.203
       0.130
       0.125
       0.169
       0.232
       0.288
       0.314
       0.302
       0.258
       0.208
       0.188
       0.227
       0.324
       0.440
       0.504
       0.451
       0.256
      -0.039
      -0.347
      -0.578
      -0.686
      -0.679
      -0.592
      -0.458
      -0.291
      -0.096
       0.120
       0.329
       0.494
       0.584
       0.591
       0.539
       0.460
       0.379
       0.302
       0.213
       0.094
      -0.067
      -0.266
      -0.494
      -0.739
      -0.974
      -1.157
      -1.236
      -1.179
      -0.989
      -0.705
      -0.382
      -0.067
       0.216
       0.466
       0.687
       0.875
       1.013
       1.088
       1.095
       1.038
       0.923
       0.753
       0.544
       0.325
       0.128
      -0.021
      -0.122
      -0.192
      -0.245
      -0.285
      -0.306
      -0.309
      -0.312
      -0.331
      -0.375
      -0.435
      -0.501
      -0.565
      -0.620
      -0.658
      -0.665
      -0.624
      -0.526
      -0.385
      -0.235
      -0.119
      -0.062
      -0.059
      -0.077
      -0.074
      -0.028
       0.040
       0.083
       0.058
      -0.039
      -0.167
      -0.256
      -0.249
      -0.131
       0.059
       0.255
       0.407
       0.506
       0.576
       0.645
       0.719
       0.773
       0.775
       0.706
       0.579
       0.432
       0.303
       0.210
       0.144
       0.079
      -0.011
      -0.141
      -0.300
      -0.460
      -0.588
      -0.662
      -0.666
      -0.593
      -0.447
      -0.247
      -0.026
       0.184
       0.355
       0.473
       0.533
       0.535
       0.487
       0.398
       0.283
       0.174
       0.113
       0.135
       0.242
       0.395
       0.526
       0.573
       0.516
       0.384
       0.237
       0.126
       0.066
       0.027
      -0.044
      -0.188
      -0.411
      -0.678
      -0.938
      -1.159
      -1.333
      -1.466
      -1.550
      -1.559
      -1.464
      -1.253
      -0.948
      -0.602
      -0.277
      -0.018
       0.165
       0.298
       0.430
       0.611
       0.864
       1.171
       1.485
       1.750
       1.909
       1.931
       1.818
       1.608
       1.356
       1.102
       0.859
       0.620
       0.372
       0.122
      -0.113
      -0.319
      -0.499
      -0.678
      -0.875
      -1.086
      -1.284
      -1.434
      -1.514
      -1.525
      -1.490
      -1.438
      -1.390
      -1.346
      -1.290
      -1.205
      -1.079
      -0.909
      -0.703
      -0.475
      -0.246
      -0.037
       0.142
       0.288
       0.409
       0.512
       0.602
       0.683
       0.765
       0.868
       1.003
       1.158
       1.301
       1.391
       1.403
       1.338
       1.221
       1.078
       0.925
       0.762
       0.582
       0.391
       0.218
       0.100
       0.060
       0.090
       0.149
       0.180
       0.135
      -0.003
      -0.214
      -0.447
      -0.651
      -0.794
      -0.879
      -0.937
      -1.009
      -1.108
      -1.210
      -1.270
      -1.244
      -1.110
      -0.878
      -0.579
      -0.263
       0.025
       0.253
       0.411
       0.503
       0.547
       0.557
       0.545
       0.515
       0.477
       0.441
       0.413
       0.388
       0.353
       0.297
       0.222
       0.144
       0.086
       0.064
       0.071
       0.080
       0.066
       0.023
      -0.034
      -0.081
      -0.101
      -0.090
      -0.060
      -0.028
      -0.015
