Origin Time       26/02/2012 23:08:42 UTC
Lat.              29.6 N	
Long.             80.8 E	
Depth (Km)         10.0
Magnitude         4.3
 Region           Westren-nepal                                                    
 Above details taken from IMD 
    
Station Code      PTI
Station Lat.       29.407  N
Station Long.      79.931  E
Station Height(m) 1667.0
Site Class        A   Vs30 between 700 m/sec to 1400 m/sec * 
Record Time       26.02.2012 23:08:52.199 UTC
Sampling Rate     200. Hz
 Record Duration   80.220 Sec.
 Direction         N-S (N positive)
Max. Acceleration     -2.229 cm/sec**2
     
  * For reference see Site Classification link of website 
     
 Base Line Corrected and Low Pass Filtered (Cut Off at 35 Hz) Time History
 Acceleration data in cm/sec**2
    
[...]
       0.177
       0.096
       0.031
       0.007
       0.011
       0.014
      -0.005
      -0.044
      -0.082
      -0.102
      -0.102
      -0.094
      -0.097
      -0.118
      -0.153
      -0.195
      -0.237
      -0.276
      -0.300
      -0.293
      -0.246
      -0.162
      -0.055
       0.054
       0.147
       0.221
       0.286
       0.347
       0.400
       0.427
       0.408
       0.344
       0.252
       0.160
       0.092
       0.053
       0.035
       0.028
       0.029
       0.034
       0.036
       0.031
       0.014
      -0.017
      -0.064
      -0.119
      -0.169
      -0.199
      -0.201
      -0.179
      -0.150
      -0.138
      -0.155
      -0.195
      -0.241
      -0.275
      -0.294
      -0.302
      -0.295
      -0.263
      -0.198
      -0.105
       0.005
       0.115
       0.212
       0.288
       0.332
       0.338
       0.306
       0.247
       0.185
       0.137
       0.110
       0.105
       0.119
       0.146
       0.177
       0.201
       0.213
       0.214
       0.204
       0.182
       0.143
       0.075
      -0.029
      -0.165
      -0.309
      -0.427
      -0.487
      -0.475
      -0.400
      -0.293
      -0.197
      -0.141
      -0.130
      -0.146
      -0.167
      -0.176
      -0.168
      -0.147
      -0.117
      -0.077
      -0.027
       0.029
       0.081
       0.118
       0.138
       0.145
       0.146
       0.154
       0.184
       0.239
       0.305
       0.357
       0.378
       0.367
       0.338
       0.303
       0.264
       0.211
       0.134
       0.044
      -0.032
      -0.066
      -0.049
       0.006
       0.072
       0.123
       0.135
       0.101
       0.029
      -0.061
      -0.145
      -0.206
      -0.226
      -0.198
      -0.134
      -0.062
      -0.025
      -0.053
      -0.144
      -0.258
      -0.340
      -0.356
      -0.314
      -0.245
      -0.177
      -0.116
      -0.059
      -0.004
       0.045
       0.080
       0.100
       0.102
       0.087
       0.057
       0.021
      -0.006
      -0.013
      -0.005
      -0.003
      -0.033
      -0.098
      -0.178
      -0.239
      -0.251
      -0.204
      -0.114
      -0.014
       0.067
       0.120
       0.153
       0.177
       0.190
       0.181
       0.144
       0.087
       0.032
      -0.001
      -0.005
       0.015
       0.047
       0.083
       0.120
       0.154
       0.174
       0.177
       0.172
       0.177
       0.206
       0.264
       0.331
       0.378
       0.383
       0.343
       0.271
       0.180
       0.085
      -0.001
      -0.059
      -0.076
      -0.055
      -0.009
       0.044
       0.083
       0.097
       0.084
       0.049
      -0.001
      -0.058
      -0.113
      -0.154
      -0.174
      -0.172
      -0.148
      -0.108
      -0.065
      -0.035
      -0.027
      -0.044
      -0.075
      -0.104
      -0.120
      -0.118
      -0.113
      -0.126
      -0.170
      -0.234
      -0.290
      -0.309
      -0.278
      -0.209
      -0.134
      -0.088
      -0.090
      -0.137
      -0.208
      -0.277
      -0.319
      -0.317
      -0.263
      -0.152
       0.009
       0.192
       0.349
       0.430
       0.413
       0.324
       0.224
       0.168
       0.178
       0.240
       0.319
       0.397
       0.471
       0.540
       0.584
       0.574
       0.497
       0.374
       0.257
       0.189
       0.174
       0.173
       0.135
       0.034
      -0.113
      -0.260
      -0.370
      -0.432
      -0.462
      -0.485
      -0.511
      -0.531
      -0.528
      -0.490
      -0.428
      -0.370
      -0.347
      -0.368
      -0.413
      -0.440
      -0.412
      -0.325
      -0.205
      -0.092
      -0.010
       0.046
       0.098
       0.167
       0.261
       0.368
       0.467
       0.532
       0.550
       0.521
       0.455
       0.364
       0.260
       0.161
       0.084
       0.043
       0.040
       0.062
       0.084
       0.093
       0.094
       0.104
       0.136
       0.178
       0.206
       0.203
       0.168
       0.118
       0.075
       0.053
       0.058
       0.084
       0.123
       0.157
       0.163
       0.121
       0.030
      -0.085
      -0.187
      -0.250
      -0.272
      -0.271
      -0.264
      -0.255
      -0.231
      -0.177
      -0.099
      -0.023
       0.017
       0.006
      -0.049
      -0.122
      -0.186
      -0.223
      -0.240
      -0.250
      -0.262
      -0.271
      -0.264
      -0.239
      -0.212
      -0.212
      -0.256
      -0.328
      -0.388
      -0.395
      -0.344
      -0.265
      -0.197
      -0.154
      -0.116
      -0.052
       0.050
       0.178
       0.300
       0.386
       0.415
       0.389
       0.325
       0.254
       0.215
       0.232
       0.300
       0.384
       0.443
       0.460
       0.450
       0.445
       0.470
       0.520
       0.566
       0.578
       0.544
       0.478
       0.396
       0.307
       0.210
       0.105
       0.001
      -0.084
      -0.134
      -0.141
      -0.121
      -0.097
      -0.086
      -0.089
      -0.096
      -0.103
      -0.117
      -0.147
      -0.194
      -0.251
      -0.306
      -0.351
      -0.384
      -0.404
      -0.408
      -0.385
      -0.334
      -0.262
      -0.180
      -0.095
      -0.007
       0.074
       0.128
       0.132
       0.077
      -0.020
      -0.119
      -0.184
      -0.200
      -0.186
      -0.168
      -0.164
      -0.171
      -0.170
      -0.151
      -0.113
      -0.067
      -0.020
       0.030
       0.090
       0.160
       0.226
       0.270
       0.283
       0.274
       0.257
       0.242
       0.222
       0.185
       0.125
       0.059
       0.021
       0.041
       0.128
       0.266
       0.422
       0.564
       0.667
       0.723
       0.730
       0.692
       0.611
       0.495
       0.363
       0.235
       0.122
       0.023
      -0.073
      -0.181
      -0.307
      -0.446
      -0.587
      -0.709
      -0.790
      -0.810
      -0.758
      -0.636
      -0.467
      -0.281
      -0.115
      -0.009
       0.012
      -0.058
      -0.194
      -0.348
      -0.466
      -0.511
      -0.471
      -0.367
      -0.234
      -0.107
      -0.001
       0.089
       0.179
       0.276
       0.377
       0.463
       0.518
       0.540
       0.543
       0.546
       0.553
       0.546
       0.497
       0.389
       0.223
       0.027
      -0.164
      -0.315
      -0.409
      -0.439
      -0.409
      -0.337
      -0.252
      -0.192
      -0.188
      -0.255
      -0.384
      -0.542
      -0.683
      -0.766
      -0.768
      -0.692
      -0.559
      -0.401
      -0.253
      -0.140
      -0.066
      -0.022
       0.010
       0.041
       0.076
       0.121
       0.188
       0.290
       0.429
       0.584
       0.712
       0.771
       0.741
       0.638
       0.504
       0.399
       0.374
       0.456
       0.630
       0.847
       1.038
       1.140
       1.110
       0.949
       0.696
       0.410
       0.143
      -0.077
      -0.245
      -0.368
      -0.459
      -0.532
      -0.612
      -0.719
      -0.863
      -1.020
      -1.133
      -1.139
      -1.011
      -0.776
      -0.509
      -0.291
      -0.178
      -0.177
      -0.252
      -0.347
      -0.413
      -0.415
      -0.348
      -0.231
      -0.094
       0.041
       0.167
       0.286
       0.388
       0.457
       0.483
       0.483
       0.489
       0.533
       0.617
       0.705
       0.744
       0.694
       0.555
       0.367
       0.189
       0.068
       0.020
       0.026
       0.044
       0.037
      -0.006
      -0.069
      -0.123
      -0.150
      -0.146
      -0.117
      -0.081
      -0.054
      -0.051
      -0.074
      -0.114
      -0.148
      -0.156
      -0.135
      -0.110
      -0.123
      -0.203
      -0.351
      -0.529
      -0.681
      -0.751
      -0.714
      -0.576
      -0.370
      -0.134
       0.098
       0.297
       0.436
       0.500
       0.490
       0.428
       0.354
       0.311
       0.322
       0.379
       0.440
       0.466
       0.444
       0.393
       0.346
       0.323
       0.329
       0.351
       0.376
       0.388
       0.370
       0.301
       0.165
      -0.037
      -0.285
      -0.550
      -0.802
      -1.012
      -1.154
      -1.214
      -1.188
      -1.088
      -0.936
      -0.761
      -0.593
      -0.456
      -0.360
      -0.305
      -0.279
      -0.258
      -0.214
      -0.131
      -0.010
       0.134
       0.281
       0.412
       0.515
       0.594
       0.666
       0.746
       0.842
       0.942
       1.026
       1.077
       1.091
       1.079
       1.050
       0.998
       0.905
       0.755
       0.552
       0.325
       0.117
      -0.035
      -0.113
      -0.126
      -0.106
      -0.093
      -0.120
      -0.210
      -0.363
      -0.560
      -0.760
      -0.918
      -1.005
      -1.013
      -0.957
      -0.864
      -0.757
      -0.644
      -0.519
      -0.369
      -0.194
      -0.010
       0.152
       0.261
       0.300
       0.283
       0.251
       0.246
       0.289
       0.371
       0.468
       0.562
       0.645
       0.717
       0.772
       0.794
       0.766
       0.679
       0.544
       0.386
       0.234
       0.102
      -0.011
      -0.118
      -0.226
      -0.329
      -0.415
      -0.483
      -0.551
      -0.639
      -0.755
      -0.887
      -1.011
      -1.096
      -1.121
      -1.082
      -0.991
      -0.868
      -0.733
      -0.594
      -0.447
      -0.277
      -0.072
       0.167
       0.424
       0.674
       0.896
       1.067
       1.169
       1.191
       1.137
       1.032
       0.909
       0.799
       0.721
       0.668
       0.624
       0.575
       0.521
       0.463
       0.394
       0.290
       0.133
      -0.082
      -0.332
      -0.584
      -0.809
      -0.996
      -1.147
      -1.263
      -1.335
      -1.353
      -1.329
      -1.289
      -1.269
      -1.286
      -1.326
      -1.340
      -1.270
      -1.070
      -0.731
      -0.281
       0.223
       0.715
       1.140
       1.472
       1.710
       1.874
       1.986
       2.060
       2.097
       2.090
       2.024
       1.886
       1.667
       1.375
       1.039
       0.705
       0.425
       0.226
       0.095
      -0.009
      -0.125
      -0.270
      -0.434
      -0.597
      -0.745
      -0.882
      -1.019
      -1.164
      -1.311
      -1.449
      -1.570
      -1.665
      -1.722
      -1.716
      -1.626
      -1.446
      -1.188
      -0.883
      -0.560
      -0.242
       0.054
       0.303
       0.474
       0.552
       0.552
       0.517
       0.485
       0.466
       0.444
       0.397
       0.325
       0.256
       0.223
       0.241
       0.288
       0.319
       0.299
       0.217
       0.083
      -0.080
      -0.249
      -0.400
      -0.509
      -0.554
      -0.515
      -0.391
      -0.193
       0.055
       0.320
       0.570
       0.774
       0.912
       0.990
       1.030
       1.061
       1.100
       1.153
       1.207
       1.232
       1.186
       1.028
       0.741
       0.349
      -0.079
      -0.445
      -0.665
      -0.704
      -0.590
      -0.404
      -0.246
      -0.200
      -0.295
      -0.503
      -0.760
      -0.991
      -1.147
      -1.212
      -1.200
      -1.144
      -1.071
      -0.994
      -0.914
      -0.824
      -0.718
      -0.590
      -0.430
      -0.231
       0.000
       0.245
       0.471
       0.648
       0.766
       0.833
       0.871
       0.891
       0.886
       0.847
       0.783
       0.725
       0.710
       0.749
       0.814
       0.850
       0.814
       0.699
       0.527
       0.318
       0.077
      -0.194
      -0.473
      -0.710
      -0.844
      -0.842
      -0.718
      -0.540
      -0.389
      -0.318
      -0.332
      -0.394
      -0.458
      -0.497
      -0.507
      -0.485
      -0.409
      -0.247
       0.020
       0.359
       0.688
       0.920
       0.998
       0.918
       0.716
       0.446
       0.166
      -0.075
      -0.226
      -0.259
      -0.180
      -0.046
       0.056
       0.053
      -0.069
      -0.254
      -0.408
      -0.451
      -0.365
      -0.206
      -0.064
      -0.011
      -0.066
      -0.193
      -0.325
      -0.394
      -0.362
      -0.231
      -0.042
       0.139
       0.248
       0.244
       0.128
      -0.063
      -0.266
      -0.413
      -0.450
      -0.356
      -0.146
       0.125
       0.377
       0.544
       0.608
       0.611
       0.631
       0.732
       0.921
       1.145
       1.323
       1.399
       1.359
       1.221
       1.008
       0.740
       0.435
       0.110
      -0.219
      -0.531
      -0.812
      -1.047
      -1.223
      -1.323
      -1.337
      -1.275
      -1.165
      -1.039
      -0.921
      -0.829
      -0.785
      -0.822
      -0.968
      -1.218
      -1.516
      -1.755
      -1.817
      -1.626
      -1.195
      -0.614
      -0.009
       0.515
       0.907
       1.167
       1.317
       1.365
       1.317
       1.191
       1.035
       0.916
       0.889
       0.974
       1.146
       1.346
       1.506
       1.573
       1.527
       1.385
       1.192
       0.996
       0.836
       0.720
       0.627
       0.525
       0.381
       0.174
      -0.106
      -0.461
      -0.879
      -1.330
      -1.756
      -2.083
      -2.229
      -2.138
      -1.812
      -1.315
      -0.758
      -0.260
       0.104
       0.324
       0.447
       0.535
       0.615
       0.673
       0.672
       0.594
       0.465
       0.349
       0.316
       0.387
       0.526
       0.655
       0.717
       0.704
       0.656
       0.618
       0.599
       0.565
       0.464
       0.270
       0.002
      -0.299
      -0.597
      -0.884
      -1.163
      -1.423
      -1.625
      -1.701
      -1.597
      -1.301
      -0.863
      -0.376
       0.072
       0.434
       0.711
       0.939
       1.150
       1.345
       1.491
       1.540
       1.452
       1.217
       0.849
       0.396
      -0.076
      -0.496
      -0.804
      -0.960
      -0.942
      -0.754
      -0.430
      -0.037
       0.333
       0.585
       0.651
       0.509
       0.189
      -0.242
      -0.700
      -1.107
      -1.407
      -1.572
      -1.601
      -1.512
      -1.329
      -1.088
      -0.831
      -0.606
      -0.450
      -0.376
      -0.362
      -0.355
      -0.286
      -0.105
       0.186
       0.528
       0.833
       1.023
       1.065
       0.979
       0.820
       0.651
       0.530
       0.500
       0.581
       0.758
       0.981
       1.189
       1.348
       1.452
       1.503
       1.482
       1.354
       1.099
       0.744
       0.369
       0.067
      -0.110
      -0.177
      -0.201
      -0.249
      -0.354
      -0.500
      -0.647
      -0.752
      -0.800
      -0.805
      -0.802
      -0.811
      -0.829
      -0.830
      -0.797
      -0.739
      -0.695
      -0.706
      -0.781
      -0.880
      -0.936
      -0.899
      -0.771
      -0.602
      -0.456
      -0.369
      -0.327
      -0.283
      -0.195
      -0.055
       0.109
       0.256
       0.352
       0.393
       0.402
       0.431
       0.529
       0.709
       0.942
       1.171
       1.343
       1.437
       1.468
       1.467
       1.457
       1.432
       1.373
       1.258
       1.083
       0.860
       0.613
       0.377
       0.175
      -0.004
      -0.200
      -0.458
      -0.786
      -1.143
      -1.456
      -1.670
      -1.770
      -1.788
      -1.764
      -1.714
      -1.623
      -1.460
      -1.214
      -0.900
      -0.561
      -0.242
       0.017
       0.205
       0.336
       0.446
       0.572
       0.729
       0.898
       1.037
       1.114
       1.136
       1.151
       1.208
       1.315
       1.434
       1.498
       1.449
       1.274
       0.997
       0.665
       0.320
      -0.022
      -0.365
      -0.714
      -1.061
      -1.362
      -1.554
      -1.586
      -1.456
      -1.221
      -0.975
      -0.803
      -0.750
      -0.803
      -0.914
      -1.020
      -1.073
      -1.051
      -0.950
      -0.791
      -0.607
      -0.436
      -0.307
      -0.226
      -0.173
      -0.104
       0.030
       0.258
       0.561
       0.879
       1.142
       1.309
       1.395
       1.448
       1.521
       1.634
       1.763
       1.848
       1.828
       1.667
       1.377
       1.026
       0.708
       0.502
       0.426
       0.429
       0.426
       0.348
       0.177
      -0.058
      -0.311
      -0.542
      -0.735
      -0.896
      -1.046
      -1.196
      -1.341
      -1.453
      -1.500
      -1.472
      -1.396
      -1.321
      -1.286
      -1.296
      -1.316
      -1.299
      -1.210
      -1.051
      -0.847
      -0.634
      -0.434
      -0.244
      -0.055
       0.143
       0.344
       0.535
       0.700
       0.833
       0.955
       1.100
       1.288
       1.505
       1.697
       1.811
       1.817
       1.721
       1.546
       1.317
       1.053
       0.777
       0.526
       0.329
       0.189
       0.073
      -0.064
      -0.249
      -0.475
      -0.703
      -0.889
      -1.003
      -1.042
      -1.024
      -0.971
      -0.894
      -0.801
      -0.712
      -0.662
      -0.679
      -0.755
      -0.844
      -0.881
      -0.827
      -0.691
      -0.520
      -0.367
      -0.253
      -0.171
      -0.094
       0.002
       0.131
       0.295
       0.475
       0.629
       0.709
       0.678
       0.547
       0.375
       0.248
       0.226
       0.308
       0.445
       0.578
       0.670
       0.716
       0.730
       0.726
       0.713
       0.707
       0.730
       0.803
       0.910
       0.989
       0.956
       0.760
       0.415
       0.002
      -0.375
      -0.635
      -0.754
      -0.759
      -0.708
      -0.657
      -0.641
      -0.666
      -0.706
      -0.729
      -0.709
      -0.654
      -0.590
      -0.544
      -0.528
      -0.537
      -0.560
      -0.589
      -0.612
      -0.611
      -0.552
      -0.396
      -0.129
       0.217
       0.561
       0.804
       0.877
       0.785
       0.604
       0.439
       0.354
       0.344
       0.339
       0.267
       0.109
      -0.090
      -0.239
      -0.267
      -0.164
       0.010
       0.162
       0.214
       0.133
      -0.059
      -0.297
      -0.494
      -0.580
      -0.529
      -0.368
      -0.164
       0.011
       0.109
       0.130
       0.113
       0.108
       0.138
       0.189
       0.229
       0.243
       0.245
       0.262
       0.305
       0.353
       0.365
       0.315
       0.214
       0.099
       0.011
      -0.026
      -0.013
       0.038
       0.112
       0.191
       0.259
       0.295
       0.280
       0.208
       0.091
      -0.047
      -0.179
      -0.283
      -0.346
      -0.363
      -0.337
      -0.275
      -0.185
      -0.081
       0.019
       0.094
       0.128
       0.124
       0.096
       0.061
       0.028
      -0.019
      -0.106
      -0.248
      -0.419
      -0.558
      -0.590
      -0.478
      -0.242
       0.045
       0.296
