Origin Time       26/02/2012 23:08:42
Lat.              29.6 N	
Long.             80.8 E	
Depth (Km)         10.0
Magnitude         4.3
 Region           Westren-nepal                                                    
 Above details taken from IMD 
     
Station Code      PTI
Station Lat.       29.407  N
Station Long.      79.931  E
Station Height(m) 1667.0
Site Class        A   Vs30 between 700 m/sec to 1400 m/sec * 
Record Time       26.02.2012 23:08:52.199
Sampling Rate     200. Hz
 Record Duration   80.220 Sec.
 Direction         E-W (E positive)
Max. Acceleration      3.257 cm/sec**2
     
  * For reference see Site Classification link of website 
     
 Base Line Corrected and Low Pass Filtered (Cut Off at 35 Hz) Time History
 Acceleration data in cm/sec**2
    
[...]
       0.229
       0.195
       0.133
       0.054
      -0.020
      -0.068
      -0.080
      -0.065
      -0.042
      -0.029
      -0.034
      -0.057
      -0.090
      -0.118
      -0.136
      -0.146
      -0.159
      -0.179
      -0.203
      -0.216
      -0.201
      -0.147
      -0.061
       0.040
       0.131
       0.197
       0.231
       0.236
       0.220
       0.193
       0.159
       0.118
       0.072
       0.032
       0.013
       0.023
       0.056
       0.093
       0.112
       0.098
       0.058
       0.009
      -0.031
      -0.060
      -0.088
      -0.119
      -0.148
      -0.160
      -0.152
      -0.132
      -0.121
      -0.129
      -0.152
      -0.172
      -0.178
      -0.173
      -0.161
      -0.142
      -0.110
      -0.067
      -0.026
       0.004
       0.022
       0.044
       0.082
       0.136
       0.192
       0.230
       0.240
       0.229
       0.202
       0.163
       0.105
       0.031
      -0.048
      -0.112
      -0.146
      -0.152
      -0.142
      -0.131
      -0.123
      -0.110
      -0.087
      -0.057
      -0.028
      -0.002
       0.019
       0.034
       0.042
       0.039
       0.031
       0.027
       0.036
       0.057
       0.079
       0.082
       0.057
       0.012
      -0.029
      -0.047
      -0.038
      -0.015
       0.003
       0.004
      -0.012
      -0.034
      -0.050
      -0.052
      -0.041
      -0.021
      -0.002
       0.007
       0.002
      -0.010
      -0.015
      -0.005
       0.015
       0.040
       0.065
       0.088
       0.106
       0.113
       0.102
       0.072
       0.031
      -0.011
      -0.046
      -0.079
      -0.119
      -0.167
      -0.211
      -0.233
      -0.223
      -0.185
      -0.132
      -0.079
      -0.032
       0.008
       0.046
       0.079
       0.101
       0.106
       0.092
       0.069
       0.052
       0.057
       0.089
       0.138
       0.182
       0.201
       0.192
       0.162
       0.124
       0.088
       0.048
      -0.001
      -0.063
      -0.125
      -0.171
      -0.187
      -0.170
      -0.126
      -0.064
      -0.001
       0.047
       0.068
       0.065
       0.048
       0.026
      -0.003
      -0.046
      -0.105
      -0.164
      -0.194
      -0.167
      -0.084
       0.028
       0.127
       0.181
       0.188
       0.165
       0.135
       0.104
       0.062
      -0.006
      -0.093
      -0.175
      -0.224
      -0.227
      -0.193
      -0.136
      -0.076
      -0.026
       0.005
       0.015
       0.009
      -0.008
      -0.030
      -0.059
      -0.093
      -0.130
      -0.158
      -0.160
      -0.131
      -0.076
      -0.011
       0.054
       0.113
       0.168
       0.220
       0.265
       0.291
       0.292
       0.270
       0.245
       0.233
       0.236
       0.243
       0.231
       0.191
       0.131
       0.075
       0.041
       0.031
       0.024
      -0.002
      -0.048
      -0.098
      -0.131
      -0.142
      -0.147
      -0.167
      -0.211
      -0.264
      -0.301
      -0.308
      -0.286
      -0.247
      -0.201
      -0.161
      -0.135
      -0.131
      -0.147
      -0.170
      -0.185
      -0.178
      -0.151
      -0.113
      -0.069
      -0.016
       0.053
       0.136
       0.211
       0.254
       0.257
       0.239
       0.226
       0.238
       0.268
       0.289
       0.275
       0.220
       0.147
       0.084
       0.053
       0.058
       0.085
       0.110
       0.110
       0.081
       0.032
      -0.020
      -0.070
      -0.120
      -0.179
      -0.247
      -0.311
      -0.352
      -0.360
      -0.336
      -0.295
      -0.252
      -0.217
      -0.191
      -0.179
      -0.182
      -0.190
      -0.188
      -0.161
      -0.102
      -0.021
       0.064
       0.129
       0.160
       0.160
       0.143
       0.121
       0.102
       0.087
       0.079
       0.075
       0.075
       0.079
       0.087
       0.104
       0.133
       0.172
       0.207
       0.222
       0.211
       0.179
       0.142
       0.105
       0.065
       0.014
      -0.050
      -0.119
      -0.179
      -0.218
      -0.237
      -0.243
      -0.243
      -0.234
      -0.214
      -0.187
      -0.159
      -0.139
      -0.133
      -0.150
      -0.191
      -0.243
      -0.279
      -0.279
      -0.234
      -0.156
      -0.067
       0.010
       0.071
       0.124
       0.182
       0.245
       0.300
       0.332
       0.336
       0.325
       0.316
       0.314
       0.311
       0.296
       0.267
       0.241
       0.234
       0.246
       0.256
       0.239
       0.180
       0.090
      -0.012
      -0.106
      -0.189
      -0.263
      -0.328
      -0.383
      -0.423
      -0.446
      -0.447
      -0.413
      -0.334
      -0.219
      -0.100
      -0.017
       0.007
      -0.017
      -0.051
      -0.058
      -0.027
       0.027
       0.076
       0.114
       0.154
       0.214
       0.293
       0.363
       0.390
       0.356
       0.266
       0.146
       0.023
      -0.083
      -0.158
      -0.191
      -0.179
      -0.124
      -0.042
       0.051
       0.134
       0.185
       0.191
       0.150
       0.076
      -0.015
      -0.108
      -0.185
      -0.232
      -0.238
      -0.203
      -0.137
      -0.056
       0.023
       0.089
       0.136
       0.161
       0.163
       0.146
       0.124
       0.112
       0.119
       0.141
       0.170
       0.195
       0.205
       0.189
       0.141
       0.068
      -0.011
      -0.073
      -0.106
      -0.116
      -0.122
      -0.139
      -0.168
      -0.196
      -0.214
      -0.217
      -0.211
      -0.203
      -0.195
      -0.187
      -0.179
      -0.170
      -0.163
      -0.158
      -0.151
      -0.131
      -0.088
      -0.020
       0.064
       0.148
       0.217
       0.258
       0.269
       0.249
       0.205
       0.148
       0.094
       0.057
       0.038
       0.025
       0.008
      -0.017
      -0.039
      -0.046
      -0.031
       0.004
       0.044
       0.075
       0.088
       0.084
       0.068
       0.044
       0.010
      -0.042
      -0.118
      -0.219
      -0.331
      -0.432
      -0.505
      -0.542
      -0.542
      -0.508
      -0.446
      -0.364
      -0.272
      -0.186
      -0.127
      -0.110
      -0.135
      -0.182
      -0.222
      -0.228
      -0.189
      -0.102
       0.020
       0.158
       0.292
       0.404
       0.480
       0.517
       0.519
       0.498
       0.463
       0.431
       0.416
       0.434
       0.484
       0.548
       0.599
       0.612
       0.585
       0.528
       0.462
       0.392
       0.313
       0.217
       0.109
       0.002
      -0.090
      -0.168
      -0.238
      -0.305
      -0.369
      -0.421
      -0.455
      -0.470
      -0.479
      -0.495
      -0.521
      -0.550
      -0.575
      -0.593
      -0.597
      -0.577
      -0.522
      -0.433
      -0.331
      -0.240
      -0.173
      -0.128
      -0.085
      -0.032
       0.028
       0.085
       0.136
       0.188
       0.250
       0.326
       0.405
       0.475
       0.524
       0.546
       0.541
       0.513
       0.466
       0.407
       0.344
       0.294
       0.268
       0.263
       0.267
       0.261
       0.228
       0.161
       0.067
      -0.041
      -0.151
      -0.250
      -0.323
      -0.356
      -0.340
      -0.285
      -0.213
      -0.153
      -0.119
      -0.108
      -0.100
      -0.074
      -0.029
       0.020
       0.050
       0.049
       0.020
      -0.028
      -0.077
      -0.112
      -0.122
      -0.100
      -0.040
       0.058
       0.182
       0.309
       0.414
       0.479
       0.495
       0.464
       0.397
       0.311
       0.224
       0.149
       0.097
       0.070
       0.058
       0.039
      -0.003
      -0.074
      -0.164
      -0.258
      -0.344
      -0.416
      -0.474
      -0.520
      -0.557
      -0.589
      -0.624
      -0.669
      -0.728
      -0.795
      -0.854
      -0.883
      -0.863
      -0.787
      -0.660
      -0.499
      -0.325
      -0.154
       0.002
       0.142
       0.270
       0.392
       0.510
       0.616
       0.695
       0.735
       0.736
       0.709
       0.675
       0.653
       0.645
       0.638
       0.623
       0.600
       0.580
       0.569
       0.566
       0.558
       0.531
       0.476
       0.390
       0.275
       0.140
      -0.004
      -0.137
      -0.239
      -0.299
      -0.324
      -0.326
      -0.318
      -0.303
      -0.282
      -0.253
      -0.217
      -0.188
      -0.180
      -0.205
      -0.257
      -0.323
      -0.391
      -0.457
      -0.518
      -0.566
      -0.585
      -0.558
      -0.481
      -0.376
      -0.276
      -0.213
      -0.197
      -0.218
      -0.257
      -0.295
      -0.321
      -0.330
      -0.322
      -0.296
      -0.251
      -0.184
      -0.096
       0.002
       0.093
       0.163
       0.204
       0.217
       0.206
       0.181
       0.154
       0.144
       0.173
       0.256
       0.386
       0.530
       0.644
       0.690
       0.652
       0.546
       0.406
       0.273
       0.169
       0.098
       0.050
       0.011
      -0.027
      -0.070
      -0.119
      -0.174
      -0.235
      -0.287
      -0.309
      -0.278
      -0.186
      -0.042
       0.128
       0.292
       0.414
       0.466
       0.440
       0.353
       0.252
       0.195
       0.232
       0.375
       0.591
       0.827
       1.036
       1.187
       1.266
       1.266
       1.187
       1.046
       0.869
       0.684
       0.512
       0.361
       0.222
       0.080
      -0.083
      -0.281
      -0.516
      -0.773
      -1.021
      -1.226
      -1.371
      -1.458
      -1.503
      -1.521
      -1.525
      -1.527
      -1.539
      -1.576
      -1.642
      -1.730
      -1.811
      -1.849
      -1.806
      -1.657
      -1.399
      -1.057
      -0.678
      -0.321
      -0.023
       0.207
       0.385
       0.533
       0.661
       0.766
       0.843
       0.900
       0.963
       1.053
       1.172
       1.296
       1.389
       1.424
       1.401
       1.331
       1.228
       1.097
       0.937
       0.757
       0.582
       0.445
       0.360
       0.321
       0.310
       0.309
       0.302
       0.280
       0.235
       0.166
       0.082
       0.004
      -0.049
      -0.071
      -0.075
      -0.086
      -0.122
      -0.179
      -0.242
      -0.292
      -0.315
      -0.307
      -0.272
      -0.219
      -0.165
      -0.131
      -0.137
      -0.192
      -0.286
      -0.400
      -0.521
      -0.644
      -0.763
      -0.867
      -0.932
      -0.943
      -0.890
      -0.784
      -0.643
      -0.490
      -0.341
      -0.208
      -0.099
      -0.023
       0.015
       0.022
       0.014
       0.012
       0.037
       0.100
       0.192
       0.293
       0.378
       0.430
       0.438
       0.404
       0.345
       0.284
       0.240
       0.219
       0.209
       0.197
       0.188
       0.213
       0.307
       0.479
       0.692
       0.884
       0.994
       0.988
       0.873
       0.679
       0.461
       0.277
       0.175
       0.172
       0.248
       0.356
       0.447
       0.494
       0.498
       0.482
       0.456
       0.415
       0.345
       0.234
       0.083
      -0.100
      -0.302
      -0.513
      -0.725
      -0.924
      -1.087
      -1.189
      -1.218
      -1.184
      -1.120
      -1.067
      -1.054
      -1.086
      -1.138
      -1.176
      -1.177
      -1.142
      -1.079
      -0.991
      -0.867
      -0.695
      -0.470
      -0.203
       0.068
       0.297
       0.447
       0.503
       0.484
       0.434
       0.401
       0.412
       0.463
       0.530
       0.598
       0.668
       0.749
       0.831
       0.891
       0.905
       0.873
       0.829
       0.817
       0.863
       0.942
       0.993
       0.948
       0.775
       0.499
       0.183
      -0.099
      -0.301
      -0.415
      -0.466
      -0.483
      -0.482
      -0.469
      -0.455
      -0.460
      -0.498
      -0.570
      -0.655
      -0.725
      -0.752
      -0.725
      -0.642
      -0.513
      -0.361
      -0.214
      -0.094
      -0.003
       0.081
       0.187
       0.329
       0.500
       0.671
       0.814
       0.913
       0.970
       0.992
       0.984
       0.943
       0.875
       0.794
       0.713
       0.628
       0.519
       0.364
       0.157
      -0.093
      -0.360
      -0.625
      -0.875
      -1.107
      -1.315
      -1.490
      -1.621
      -1.706
      -1.747
      -1.749
      -1.718
      -1.655
      -1.558
      -1.423
      -1.244
      -1.027
      -0.784
      -0.527
      -0.262
       0.018
       0.323
       0.656
       1.005
       1.342
       1.647
       1.918
       2.166
       2.401
       2.615
       2.786
       2.883
       2.878
       2.752
       2.507
       2.161
       1.748
       1.310
       0.882
       0.480
       0.094
      -0.294
      -0.690
      -1.080
      -1.437
      -1.739
      -1.976
      -2.155
      -2.293
      -2.405
      -2.504
      -2.589
      -2.650
      -2.663
      -2.602
      -2.456
      -2.233
      -1.956
      -1.645
      -1.310
      -0.948
      -0.559
      -0.146
       0.285
       0.731
       1.199
       1.690
       2.182
       2.627
       2.971
       3.180
       3.257
       3.226
       3.111
       2.923
       2.660
       2.319
       1.907
       1.444
       0.964
       0.489
       0.025
      -0.435
      -0.891
      -1.333
      -1.737
      -2.078
      -2.339
      -2.511
      -2.596
      -2.602
      -2.547
      -2.461
      -2.372
      -2.294
      -2.222
      -2.130
      -1.987
      -1.768
      -1.467
      -1.103
      -0.707
      -0.305
       0.093
       0.490
       0.888
       1.278
       1.641
       1.959
       2.219
       2.415
       2.540
       2.574
       2.502
       2.329
       2.088
       1.830
       1.601
       1.424
       1.297
       1.201
       1.113
       1.012
       0.878
       0.690
       0.429
       0.088
      -0.320
      -0.770
      -1.236
      -1.692
      -2.113
      -2.460
      -2.684
      -2.745
      -2.637
      -2.407
      -2.123
      -1.839
      -1.566
      -1.285
      -0.977
      -0.647
      -0.327
      -0.052
       0.162
       0.331
       0.482
       0.632
       0.783
       0.927
       1.063
       1.191
       1.308
       1.399
       1.439
       1.399
       1.258
       1.021
       0.718
       0.407
       0.151
      -0.006
      -0.051
      -0.015
       0.044
       0.070
       0.029
      -0.083
      -0.252
      -0.461
      -0.695
      -0.943
      -1.182
      -1.369
      -1.453
      -1.400
      -1.216
      -0.941
      -0.624
      -0.305
      -0.001
       0.279
       0.530
       0.741
       0.904
       1.019
       1.095
       1.146
       1.185
       1.219
       1.236
       1.215
       1.142
       1.024
       0.886
       0.750
       0.616
       0.469
       0.296
       0.098
      -0.109
      -0.314
      -0.514
      -0.719
      -0.938
      -1.170
      -1.398
      -1.599
      -1.749
      -1.826
      -1.816
      -1.716
      -1.532
      -1.271
      -0.946
      -0.567
      -0.151
       0.290
       0.737
       1.167
       1.553
       1.862
       2.069
       2.155
       2.105
       1.923
       1.636
       1.303
       0.992
       0.756
       0.596
       0.458
       0.265
      -0.031
      -0.417
      -0.822
      -1.167
      -1.402
      -1.528
      -1.576
      -1.570
      -1.520
      -1.425
      -1.307
      -1.208
      -1.169
      -1.193
      -1.229
      -1.196
      -1.024
      -0.699
      -0.271
       0.175
       0.559
       0.844
       1.030
       1.144
       1.222
       1.299
       1.399
       1.515
       1.621
       1.679
       1.660
       1.556
       1.379
       1.150
       0.889
       0.613
       0.341
       0.095
      -0.110
      -0.285
      -0.463
      -0.683
      -0.971
      -1.319
      -1.679
      -1.983
      -2.173
      -2.230
      -2.180
      -2.070
      -1.948
      -1.844
      -1.760
      -1.664
      -1.509
      -1.245
      -0.845
      -0.312
       0.312
       0.957
       1.555
       2.056
       2.434
       2.672
       2.755
       2.678
       2.461
       2.156
       1.838
       1.581
       1.425
       1.362
       1.341
       1.297
       1.174
       0.949
       0.622
       0.210
      -0.263
      -0.767
      -1.262
      -1.700
      -2.042
      -2.259
      -2.334
      -2.260
      -2.050
      -1.747
      -1.415
      -1.117
      -0.887
      -0.717
      -0.575
      -0.427
      -0.260
      -0.086
       0.077
       0.213
       0.319
       0.399
       0.460
       0.519
       0.597
       0.709
       0.859
       1.027
       1.179
       1.283
       1.329
       1.333
       1.314
       1.269
       1.167
       0.972
       0.672
       0.298
      -0.093
      -0.444
      -0.731
      -0.951
      -1.112
      -1.213
      -1.254
      -1.247
      -1.219
      -1.197
      -1.195
      -1.204
      -1.191
      -1.113
      -0.945
      -0.693
      -0.402
      -0.130
       0.079
       0.218
       0.323
       0.444
       0.606
       0.791
       0.950
       1.043
       1.079
       1.103
       1.169
       1.294
       1.450
       1.594
       1.697
       1.755
       1.771
       1.735
       1.620
       1.393
       1.037
       0.566
       0.028
      -0.510
      -0.981
      -1.346
      -1.596
      -1.755
      -1.858
      -1.930
      -1.975
      -1.978
      -1.933
      -1.865
      -1.816
      -1.813
      -1.847
      -1.867
      -1.811
      -1.644
      -1.366
      -1.015
      -0.634
      -0.253
       0.114
       0.469
       0.809
       1.127
       1.401
       1.605
       1.732
       1.807
       1.875
       1.975
       2.108
       2.231
       2.287
       2.236
       2.071
       1.813
       1.486
       1.111
       0.713
       0.324
      -0.019
      -0.302
      -0.536
      -0.743
      -0.930
      -1.084
      -1.186
      -1.235
      -1.264
      -1.327
      -1.465
      -1.676
      -1.912
      -2.102
      -2.188
      -2.145
      -1.982
      -1.723
      -1.393
      -1.012
      -0.598
      -0.180
       0.215
       0.564
       0.852
       1.075
       1.230
       1.322
       1.362
       1.365
       1.351
       1.340
       1.344
       1.356
       1.363
       1.353
       1.328
       1.293
       1.250
       1.185
       1.071
       0.882
       0.607
       0.272
      -0.074
      -0.376
      -0.600
      -0.740
      -0.811
      -0.835
      -0.834
      -0.834
      -0.864
      -0.955
      -1.119
      -1.343
      -1.580
      -1.769
      -1.849
      -1.788
      -1.589
      -1.291
      -0.944
      -0.582
      -0.226
       0.104
       0.383
       0.594
       0.735
       0.821
       0.868
       0.887
       0.883
       0.855
       0.809
       0.758
       0.713
       0.679
       0.658
       0.650
       0.657
       0.678
       0.704
