Origin Time       11/11/2012 18:39:19 UTC
Lat.              29.2 N	
Long.             81.5 E	
Depth (Km)         10.0
Magnitude         5.0
 Region           Western-NEPAL                                                    
 Above details taken from IMD 
    
Station Code      PTI
Station Lat.       29.407  N
Station Long.      79.931  E
Station Height(m) 1667.0
Site Class        A   Vs30 between 700 m/sec to 1400 m/sec * 
Record Time       11.11.2012 18:39:35.874 UTC
Sampling Rate     200. Hz
 Record Duration   82.740 Sec.
 Direction         N-S (N positive)
Max. Acceleration      6.128 cm/sec**2
     
  * For reference see Site Classification link of website 
     
 Base Line Corrected and Low Pass Filtered (Cut Off at 35 Hz) Time History
 Acceleration data in cm/sec**2
    
[...]
       0.291
       0.283
       0.263
       0.223
       0.167
       0.107
       0.051
       0.007
      -0.022
      -0.035
      -0.035
      -0.025
      -0.010
       0.001
      -0.002
      -0.023
      -0.056
      -0.089
      -0.110
      -0.120
      -0.123
      -0.129
      -0.145
      -0.170
      -0.194
      -0.207
      -0.203
      -0.184
      -0.157
      -0.123
      -0.080
      -0.021
       0.056
       0.141
       0.219
       0.273
       0.301
       0.307
       0.300
       0.285
       0.267
       0.246
       0.221
       0.190
       0.150
       0.102
       0.042
      -0.029
      -0.113
      -0.210
      -0.320
      -0.436
      -0.547
      -0.633
      -0.682
      -0.686
      -0.655
      -0.613
      -0.585
      -0.580
      -0.588
      -0.582
      -0.536
      -0.439
      -0.299
      -0.134
       0.037
       0.199
       0.347
       0.476
       0.575
       0.631
       0.634
       0.588
       0.509
       0.428
       0.380
       0.382
       0.432
       0.506
       0.579
       0.634
       0.665
       0.672
       0.653
       0.603
       0.520
       0.410
       0.285
       0.155
       0.024
      -0.105
      -0.229
      -0.343
      -0.442
      -0.526
      -0.601
      -0.674
      -0.744
      -0.799
      -0.825
      -0.817
      -0.780
      -0.729
      -0.675
      -0.627
      -0.587
      -0.552
      -0.515
      -0.472
      -0.425
      -0.383
      -0.356
      -0.348
      -0.347
      -0.332
      -0.285
      -0.198
      -0.080
       0.057
       0.207
       0.363
       0.521
       0.670
       0.801
       0.910
       0.994
       1.053
       1.082
       1.073
       1.023
       0.939
       0.826
       0.687
       0.522
       0.330
       0.126
      -0.070
      -0.235
      -0.351
      -0.415
      -0.437
      -0.433
      -0.417
      -0.393
      -0.359
      -0.312
      -0.255
      -0.196
      -0.146
      -0.114
      -0.096
      -0.080
      -0.055
      -0.017
       0.019
       0.038
       0.025
      -0.018
      -0.072
      -0.111
      -0.120
      -0.097
      -0.054
      -0.004
       0.039
       0.070
       0.084
       0.088
       0.090
       0.098
       0.111
       0.125
       0.129
       0.116
       0.093
       0.072
       0.069
       0.084
       0.107
       0.116
       0.090
       0.022
      -0.073
      -0.161
      -0.211
      -0.207
      -0.155
      -0.073
       0.021
       0.106
       0.165
       0.184
       0.155
       0.082
      -0.012
      -0.095
      -0.140
      -0.136
      -0.096
      -0.048
      -0.026
      -0.054
      -0.134
      -0.250
      -0.379
      -0.501
      -0.603
      -0.673
      -0.704
      -0.693
      -0.641
      -0.554
      -0.444
      -0.330
      -0.228
      -0.155
      -0.119
      -0.115
      -0.124
      -0.122
      -0.093
      -0.041
       0.020
       0.073
       0.112
       0.143
       0.181
       0.234
       0.294
       0.348
       0.385
       0.411
       0.439
       0.481
       0.534
       0.582
       0.601
       0.578
       0.517
       0.433
       0.338
       0.236
       0.127
       0.014
      -0.094
      -0.183
      -0.238
      -0.252
      -0.234
      -0.204
      -0.185
      -0.188
      -0.205
      -0.216
      -0.202
      -0.153
      -0.083
      -0.013
       0.039
       0.070
       0.088
       0.104
       0.125
       0.149
       0.163
       0.151
       0.105
       0.032
      -0.048
      -0.108
      -0.126
      -0.102
      -0.053
      -0.002
       0.042
       0.089
       0.146
       0.209
       0.254
       0.253
       0.198
       0.109
       0.023
      -0.027
      -0.034
      -0.015
      -0.001
      -0.019
      -0.080
      -0.180
      -0.294
      -0.392
      -0.448
      -0.451
      -0.406
      -0.337
      -0.274
      -0.239
      -0.238
      -0.257
      -0.274
      -0.266
      -0.213
      -0.110
       0.035
       0.198
       0.352
       0.469
       0.533
       0.539
       0.499
       0.439
       0.387
       0.361
       0.361
       0.366
       0.349
       0.296
       0.214
       0.123
       0.045
      -0.011
      -0.047
      -0.074
      -0.104
      -0.145
      -0.192
      -0.239
      -0.281
      -0.321
      -0.363
      -0.416
      -0.487
      -0.582
      -0.687
      -0.776
      -0.815
      -0.784
      -0.684
      -0.537
      -0.373
      -0.212
      -0.062
       0.078
       0.202
       0.301
       0.368
       0.407
       0.428
       0.438
       0.439
       0.423
       0.383
       0.316
       0.231
       0.138
       0.046
      -0.035
      -0.093
      -0.111
      -0.079
      -0.001
       0.108
       0.218
       0.301
       0.336
       0.315
       0.247
       0.155
       0.070
       0.017
       0.003
       0.012
       0.015
      -0.014
      -0.091
      -0.212
      -0.360
      -0.507
      -0.629
      -0.714
      -0.760
      -0.770
      -0.747
      -0.693
      -0.610
      -0.501
      -0.367
      -0.209
      -0.026
       0.176
       0.377
       0.553
       0.684
       0.767
       0.810
       0.825
       0.814
       0.779
       0.720
       0.649
       0.587
       0.556
       0.561
       0.590
       0.620
       0.637
       0.641
       0.650
       0.684
       0.752
       0.846
       0.937
       0.995
       0.991
       0.911
       0.760
       0.557
       0.327
       0.086
      -0.163
      -0.422
      -0.687
      -0.949
      -1.191
      -1.392
      -1.536
      -1.617
      -1.645
      -1.637
      -1.612
      -1.579
      -1.529
      -1.443
      -1.300
      -1.091
      -0.826
      -0.523
      -0.204
       0.105
       0.371
       0.563
       0.662
       0.661
       0.577
       0.444
       0.307
       0.205
       0.155
       0.153
       0.174
       0.186
       0.167
       0.113
       0.044
      -0.006
      -0.010
       0.042
       0.143
       0.272
       0.410
       0.548
       0.683
       0.812
       0.922
       0.999
       1.038
       1.042
       1.019
       0.985
       0.952
       0.928
       0.921
       0.935
       0.977
       1.041
       1.107
       1.150
       1.141
       1.058
       0.890
       0.636
       0.309
      -0.071
      -0.474
      -0.867
      -1.222
      -1.521
      -1.771
      -1.992
      -2.201
      -2.406
      -2.596
      -2.748
      -2.830
      -2.816
      -2.690
      -2.449
      -2.115
      -1.719
      -1.299
      -0.879
      -0.469
      -0.070
       0.316
       0.683
       1.023
       1.327
       1.585
       1.793
       1.949
       2.048
       2.087
       2.066
       1.988
       1.856
       1.671
       1.437
       1.173
       0.908
       0.665
       0.455
       0.268
       0.079
      -0.131
      -0.366
      -0.613
      -0.851
      -1.063
      -1.233
      -1.340
      -1.365
      -1.300
      -1.154
      -0.947
      -0.708
      -0.471
      -0.273
      -0.143
      -0.096
      -0.126
      -0.214
      -0.334
      -0.460
      -0.566
      -0.621
      -0.593
      -0.471
      -0.272
      -0.039
       0.183
       0.365
       0.500
       0.593
       0.643
       0.636
       0.563
       0.430
       0.265
       0.091
      -0.074
      -0.226
      -0.352
      -0.434
      -0.449
      -0.387
      -0.254
      -0.071
       0.142
       0.377
       0.637
       0.919
       1.204
       1.452
       1.617
       1.668
       1.604
       1.447
       1.234
       0.994
       0.746
       0.504
       0.284
       0.104
      -0.026
      -0.116
      -0.189
      -0.282
      -0.418
      -0.600
      -0.812
      -1.027
      -1.222
      -1.374
      -1.462
      -1.460
      -1.351
      -1.130
      -0.816
      -0.443
      -0.049
       0.341
       0.715
       1.068
       1.393
       1.677
       1.896
       2.023
       2.035
       1.920
       1.676
       1.310
       0.842
       0.309
      -0.247
      -0.791
      -1.302
      -1.769
      -2.184
      -2.531
      -2.786
      -2.930
      -2.959
      -2.891
      -2.757
      -2.589
      -2.403
      -2.197
      -1.952
      -1.642
      -1.257
      -0.810
      -0.339
       0.115
       0.528
       0.894
       1.226
       1.543
       1.860
       2.173
       2.463
       2.702
       2.870
       2.964
       2.998
       2.998
       2.980
       2.940
       2.858
       2.717
       2.512
       2.250
       1.947
       1.617
       1.272
       0.919
       0.559
       0.186
      -0.213
      -0.640
      -1.086
      -1.525
      -1.931
      -2.292
      -2.608
      -2.887
      -3.127
      -3.324
      -3.462
      -3.520
      -3.480
      -3.338
      -3.101
      -2.787
      -2.415
      -2.013
      -1.608
      -1.224
      -0.872
      -0.548
      -0.229
       0.110
       0.478
       0.854
       1.193
       1.452
       1.609
       1.668
       1.656
       1.606
       1.552
       1.524
       1.542
       1.611
       1.721
       1.844
       1.949
       2.017
       2.036
       2.001
       1.903
       1.731
       1.479
       1.153
       0.784
       0.415
       0.089
      -0.170
      -0.361
      -0.492
      -0.580
      -0.640
      -0.694
      -0.759
      -0.854
      -0.991
      -1.171
      -1.384
      -1.619
      -1.865
      -2.111
      -2.347
      -2.562
      -2.752
      -2.915
      -3.045
      -3.118
      -3.091
      -2.912
      -2.538
      -1.965
      -1.240
      -0.448
       0.309
       0.943
       1.407
       1.704
       1.879
       1.991
       2.084
       2.176
       2.271
       2.362
       2.442
       2.508
       2.558
       2.596
       2.620
       2.623
       2.597
       2.531
       2.423
       2.275
       2.090
       1.862
       1.586
       1.259
       0.888
       0.481
       0.046
      -0.407
      -0.858
      -1.274
      -1.620
      -1.876
      -2.042
      -2.130
      -2.155
      -2.125
      -2.038
      -1.891
      -1.695
      -1.467
      -1.227
      -0.992
      -0.782
      -0.622
      -0.529
      -0.504
      -0.531
      -0.581
      -0.627
      -0.653
      -0.656
      -0.635
      -0.586
      -0.510
      -0.420
      -0.327
      -0.239
      -0.155
      -0.083
      -0.044
      -0.060
      -0.144
      -0.281
      -0.431
      -0.546
      -0.592
      -0.557
      -0.445
      -0.270
      -0.044
       0.226
       0.543
       0.918
       1.357
       1.846
       2.348
       2.811
       3.182
       3.428
       3.535
       3.511
       3.363
       3.094
       2.704
       2.208
       1.637
       1.033
       0.437
      -0.125
      -0.653
      -1.164
      -1.676
      -2.185
      -2.660
      -3.057
      -3.329
      -3.443
      -3.401
      -3.238
      -3.016
      -2.794
      -2.603
      -2.434
      -2.252
      -2.013
      -1.696
      -1.305
      -0.867
      -0.412
       0.030
       0.442
       0.817
       1.158
       1.466
       1.733
       1.946
       2.092
       2.169
       2.184
       2.161
       2.129
       2.110
       2.113
       2.128
       2.137
       2.119
       2.058
       1.948
       1.787
       1.565
       1.259
       0.849
       0.332
      -0.271
      -0.920
      -1.566
      -2.164
      -2.680
      -3.095
      -3.398
      -3.585
      -3.653
      -3.605
      -3.447
      -3.185
      -2.832
      -2.398
      -1.892
      -1.321
      -0.700
      -0.057
       0.570
       1.143
       1.628
       1.999
       2.250
       2.391
       2.444
       2.429
       2.362
       2.252
       2.100
       1.906
       1.677
       1.431
       1.193
       0.986
       0.817
       0.672
       0.522
       0.346
       0.149
      -0.043
      -0.199
      -0.312
      -0.400
      -0.494
      -0.623
      -0.799
      -1.019
      -1.276
      -1.563
      -1.871
      -2.172
      -2.430
      -2.610
      -2.700
      -2.700
      -2.617
      -2.446
      -2.174
      -1.785
      -1.275
      -0.672
      -0.035
       0.565
       1.078
       1.488
       1.813
       2.074
       2.286
       2.449
       2.566
       2.647
       2.705
       2.746
       2.766
       2.766
       2.749
       2.718
       2.666
       2.575
       2.432
       2.238
       2.000
       1.718
       1.384
       0.986
       0.531
       0.044
      -0.449
      -0.942
      -1.445
      -1.971
      -2.510
      -3.028
      -3.484
      -3.846
      -4.100
      -4.254
      -4.325
      -4.329
      -4.276
      -4.168
      -3.993
      -3.733
      -3.378
      -2.937
      -2.430
      -1.882
      -1.306
      -0.712
      -0.117
       0.459
       1.000
       1.510
       2.006
       2.504
       3.007
       3.492
       3.926
       4.277
       4.528
       4.670
       4.702
       4.630
       4.473
       4.259
       4.005
       3.708
       3.348
       2.902
       2.373
       1.798
       1.237
       0.737
       0.310
      -0.073
      -0.467
      -0.925
      -1.479
      -2.125
      -2.829
      -3.533
      -4.175
      -4.704
      -5.092
      -5.333
      -5.435
      -5.415
      -5.303
      -5.134
      -4.927
      -4.664
      -4.298
      -3.777
      -3.073
      -2.203
      -1.215
      -0.176
       0.855
       1.843
       2.773
       3.636
       4.410
       5.062
       5.561
       5.893
       6.072
       6.128
       6.086
       5.944
       5.677
       5.259
       4.682
       3.969
       3.165
       2.322
       1.482
       0.659
      -0.154
      -0.969
      -1.774
      -2.525
      -3.168
      -3.661
      -3.999
      -4.212
      -4.333
      -4.382
      -4.352
      -4.227
      -3.998
      -3.673
      -3.277
      -2.835
      -2.367
      -1.883
      -1.392
      -0.921
      -0.507
      -0.182
       0.046
       0.204
       0.335
       0.471
       0.618
       0.756
       0.864
       0.939
       0.985
       1.011
       1.027
       1.049
       1.102
       1.207
       1.357
       1.518
       1.636
       1.657
       1.561
       1.367
       1.119
       0.854
       0.588
       0.322
       0.058
      -0.196
      -0.433
      -0.646
      -0.830
      -0.974
      -1.057
      -1.048
      -0.917
      -0.656
      -0.288
       0.142
       0.579
       0.976
       1.294
       1.502
       1.582
       1.532
       1.374
       1.139
       0.844
       0.491
       0.081
      -0.368
      -0.812
      -1.199
      -1.481
      -1.624
      -1.628
      -1.524
      -1.378
      -1.257
      -1.201
      -1.194
      -1.181
      -1.098
      -0.914
      -0.652
      -0.364
      -0.104
       0.107
       0.274
       0.414
       0.542
       0.665
       0.790
       0.935
       1.118
       1.334
       1.536
       1.651
       1.622
       1.444
       1.169
       0.884
       0.660
       0.513
       0.402
       0.262
       0.048
      -0.236
      -0.545
      -0.824
      -1.032
      -1.161
      -1.235
      -1.281
      -1.324
      -1.378
      -1.444
      -1.511
      -1.546
      -1.507
      -1.368
      -1.136
      -0.854
      -0.572
      -0.327
      -0.124
       0.053
       0.215
       0.365
       0.497
       0.614
       0.727
       0.847
       0.977
       1.105
       1.211
       1.275
       1.285
       1.241
       1.155
       1.043
       0.923
       0.816
       0.742
       0.710
       0.716
       0.735
       0.720
       0.625
       0.421
       0.120
      -0.235
      -0.586
      -0.879
      -1.076
      -1.158
      -1.123
      -0.977
      -0.746
      -0.467
      -0.185
       0.067
       0.280
       0.459
       0.602
       0.698
       0.732
       0.702
       0.634
       0.571
       0.554
       0.584
       0.624
       0.612
       0.506
       0.302
       0.038
      -0.231
      -0.455
      -0.609
      -0.698
      -0.740
      -0.763
      -0.789
      -0.840
      -0.921
      -1.018
      -1.097
      -1.118
      -1.059
      -0.925
      -0.741
      -0.539
      -0.334
      -0.127
       0.083
       0.292
       0.488
       0.653
       0.765
       0.805
       0.766
       0.667
       0.549
       0.460
       0.439
       0.499
       0.630
       0.805
       0.991
       1.149
       1.237
       1.216
       1.066
       0.802
       0.466
       0.111
      -0.223
      -0.513
      -0.755
      -0.954
      -1.117
      -1.257
      -1.389
      -1.527
      -1.670
      -1.802
      -1.890
      -1.903
      -1.818
      -1.634
      -1.374
      -1.071
      -0.753
      -0.429
      -0.106
       0.200
       0.458
       0.634
       0.721
       0.747
       0.773
       0.859
       1.027
       1.256
       1.495
       1.694
       1.818
       1.858
       1.818
       1.712
       1.553
       1.352
       1.129
       0.905
       0.697
       0.509
       0.325
       0.129
      -0.091
      -0.329
      -0.559
      -0.753
      -0.898
      -0.999
      -1.068
      -1.113
      -1.131
      -1.107
      -1.025
      -0.877
      -0.675
      -0.454
      -0.253
      -0.095
       0.022
       0.119
       0.212
       0.306
       0.390
       0.447
       0.471
       0.464
       0.429
       0.365
       0.271
       0.152
       0.018
      -0.122
      -0.266
      -0.411
      -0.549
      -0.661
      -0.723
      -0.715
      -0.633
      -0.488
      -0.300
      -0.093
       0.103
       0.257
       0.347
       0.372
       0.350
       0.301
       0.239
       0.163
       0.062
      -0.073
      -0.233
      -0.392
      -0.518
      -0.583
      -0.573
      -0.493
      -0.359
      -0.196
      -0.022
       0.151
       0.318
       0.474
       0.607
       0.696
       0.720
       0.658
       0.515
       0.321
       0.116
      -0.067
      -0.216
      -0.341
      -0.456
      -0.562
      -0.642
      -0.671
      -0.630
      -0.515
      -0.333
      -0.104
       0.146
       0.381
       0.570
       0.687
       0.720
       0.668
       0.547
       0.383
       0.216
       0.095
       0.057
       0.112
       0.233
       0.382
       0.522
       0.634
       0.699
       0.695
       0.594
       0.376
       0.046
      -0.362
      -0.787
      -1.155
      -1.410
      -1.520
      -1.490
      -1.351
      -1.151
      -0.943
      -0.761
      -0.613
      -0.477
      -0.321
      -0.114
       0.149
       0.446
       0.739
       0.991
       1.172
       1.263
       1.253
       1.141
       0.942
       0.691
       0.440
       0.240
       0.120
       0.073
       0.068
       0.068
       0.041
      -0.024
      -0.126
      -0.246
      -0.366
      -0.476
      -0.575
      -0.656
      -0.702
      -0.688
      -0.593
      -0.419
      -0.204
      -0.010
       0.106
       0.123
       0.073
       0.019
       0.027
       0.138
       0.350
       0.627
       0.918
       1.173
       1.345
       1.390
       1.275
       0.996
       0.584
       0.102
      -0.381
      -0.809
      -1.147
      -1.376
      -1.485
      -1.468
      -1.331
      -1.101
      -0.818
      -0.526
      -0.267
      -0.072
       0.045
       0.091
