Origin Time       24/2/2010 19:20:52	
Lat.              28.6 N	
Long.             76.9 E	
Depth (Km)         17.0
Magnitude         2.5
 Region           Rohtak                                                           
 Above details taken from IMD 
     
Station Code      SHI
Station Lat.       28.665  N
Station Long.      77.123  E
Station Height(m)  262.0
Site Class        C   Vs30 between 200 m/sec to 375 m/sec *  
Record Time       24.02.2010 19:20:28.539
Sampling Rate     200. Hz
 Record Duration   80.285 Sec.
 Direction         E-W (E positive)
Max. Acceleration     -3.171 cm/sec**2
     
  * For reference see Site Classification link of website 
     
 Base Line Corrected and Low Pass Filtered (Cut Off at 35 Hz) Time History
 Acceleration data in cm/sec**2
    
[...]
       0.032
       0.076
       0.098
       0.095
       0.069
       0.032
      -0.005
      -0.032
      -0.040
      -0.029
      -0.002
       0.028
       0.046
       0.040
       0.012
      -0.023
      -0.045
      -0.038
      -0.003
       0.047
       0.091
       0.111
       0.098
       0.059
       0.008
      -0.037
      -0.064
      -0.066
      -0.047
      -0.017
       0.010
       0.024
       0.026
       0.023
       0.021
       0.022
       0.019
       0.009
      -0.010
      -0.032
      -0.046
      -0.043
      -0.017
       0.023
       0.057
       0.068
       0.048
       0.008
      -0.031
      -0.046
      -0.032
      -0.003
       0.019
       0.014
      -0.017
      -0.054
      -0.072
      -0.058
      -0.024
       0.009
       0.024
       0.016
      -0.004
      -0.024
      -0.033
      -0.034
      -0.031
      -0.023
      -0.008
       0.018
       0.045
       0.063
       0.066
       0.056
       0.033
      -0.005
      -0.053
      -0.096
      -0.111
      -0.091
      -0.045
       0.003
       0.034
       0.041
       0.030
       0.014
       0.003
       0.003
       0.010
       0.020
       0.025
       0.025
       0.017
       0.001
      -0.015
      -0.020
      -0.010
       0.008
       0.020
       0.017
      -0.001
      -0.027
      -0.052
      -0.064
      -0.054
      -0.026
       0.004
       0.017
       0.006
      -0.017
      -0.031
      -0.021
       0.012
       0.055
       0.093
       0.112
       0.100
       0.049
      -0.032
      -0.109
      -0.144
      -0.117
      -0.047
       0.022
       0.052
       0.036
      -0.002
      -0.024
      -0.010
       0.032
       0.071
       0.077
       0.037
      -0.032
      -0.094
      -0.111
      -0.071
       0.008
       0.086
       0.127
       0.117
       0.067
       0.003
      -0.052
      -0.083
      -0.084
      -0.061
      -0.028
      -0.004
      -0.001
      -0.016
      -0.035
      -0.037
      -0.013
       0.025
       0.054
       0.057
       0.031
      -0.009
      -0.046
      -0.065
      -0.060
      -0.040
      -0.022
      -0.014
      -0.014
      -0.010
       0.010
       0.046
       0.083
       0.097
       0.077
       0.027
      -0.035
      -0.084
      -0.104
      -0.090
      -0.048
       0.010
       0.067
       0.108
       0.116
       0.088
       0.036
      -0.017
      -0.051
      -0.062
      -0.060
      -0.051
      -0.033
       0.000
       0.044
       0.082
       0.090
       0.063
       0.011
      -0.043
      -0.080
      -0.090
      -0.072
      -0.037
      -0.001
       0.016
       0.006
      -0.025
      -0.053
      -0.052
      -0.008
       0.068
       0.144
       0.178
       0.142
       0.041
      -0.084
      -0.179
      -0.204
      -0.157
      -0.067
       0.030
       0.104
       0.140
       0.135
       0.099
       0.049
      -0.003
      -0.054
      -0.098
      -0.126
      -0.121
      -0.069
       0.027
       0.140
       0.225
       0.243
       0.185
       0.078
      -0.036
      -0.123
      -0.163
      -0.151
      -0.093
      -0.011
       0.063
       0.103
       0.100
       0.065
       0.017
      -0.023
      -0.043
      -0.039
      -0.020
      -0.001
       0.004
      -0.011
      -0.039
      -0.066
      -0.075
      -0.059
      -0.022
       0.024
       0.064
       0.087
       0.080
       0.039
      -0.027
      -0.099
      -0.153
      -0.164
      -0.117
      -0.019
       0.101
       0.195
       0.224
       0.179
       0.081
      -0.030
      -0.116
      -0.155
      -0.147
      -0.098
      -0.026
       0.042
       0.074
       0.056
       0.003
      -0.046
      -0.062
      -0.040
      -0.001
       0.035
       0.059
       0.074
       0.087
       0.092
       0.075
       0.028
      -0.040
      -0.100
      -0.122
      -0.098
      -0.036
       0.042
       0.111
       0.146
       0.125
       0.045
      -0.071
      -0.182
      -0.240
      -0.219
      -0.122
       0.019
       0.156
       0.243
       0.254
       0.184
       0.057
      -0.079
      -0.168
      -0.170
      -0.086
       0.041
       0.146
       0.177
       0.124
       0.023
      -0.072
      -0.121
      -0.113
      -0.065
      -0.005
       0.039
       0.053
       0.034
      -0.012
      -0.074
      -0.128
      -0.138
      -0.077
       0.040
       0.158
       0.214
       0.181
       0.081
      -0.039
      -0.138
      -0.186
      -0.168
      -0.085
       0.036
       0.145
       0.189
       0.142
       0.028
      -0.090
      -0.140
      -0.086
       0.041
       0.165
       0.208
       0.140
      -0.010
      -0.173
      -0.270
      -0.261
      -0.163
      -0.029
       0.090
       0.189
       0.282
       0.364
       0.382
       0.273
       0.029
      -0.269
      -0.493
      -0.542
      -0.401
      -0.140
       0.133
       0.330
       0.414
       0.399
       0.313
       0.175
      -0.002
      -0.186
      -0.313
      -0.322
      -0.204
      -0.027
       0.109
       0.132
       0.046
      -0.083
      -0.165
      -0.148
      -0.040
       0.104
       0.216
       0.245
       0.170
       0.007
      -0.183
      -0.310
      -0.290
      -0.110
       0.153
       0.363
       0.418
       0.304
       0.090
      -0.138
      -0.318
      -0.418
      -0.414
      -0.286
      -0.054
       0.204
       0.379
       0.406
       0.304
       0.152
       0.021
      -0.065
      -0.125
      -0.172
      -0.194
      -0.162
      -0.064
       0.076
       0.204
       0.268
       0.242
       0.136
      -0.014
      -0.155
      -0.237
      -0.229
      -0.141
      -0.028
       0.043
       0.039
      -0.013
      -0.050
      -0.024
       0.065
       0.172
       0.233
       0.211
       0.117
      -0.001
      -0.090
      -0.126
      -0.114
      -0.071
      -0.015
       0.035
       0.060
       0.050
       0.012
      -0.028
      -0.044
      -0.032
      -0.012
      -0.012
      -0.037
      -0.073
      -0.097
      -0.093
      -0.052
       0.024
       0.121
       0.209
       0.242
       0.193
       0.069
      -0.083
      -0.200
      -0.239
      -0.195
      -0.103
      -0.009
       0.061
       0.101
       0.115
       0.099
       0.052
      -0.016
      -0.077
      -0.098
      -0.073
      -0.021
       0.023
       0.039
       0.033
       0.029
       0.050
       0.092
       0.127
       0.114
       0.036
      -0.081
      -0.179
      -0.209
      -0.157
      -0.057
       0.035
       0.073
       0.054
       0.021
       0.030
       0.094
       0.169
       0.182
       0.100
      -0.045
      -0.172
      -0.210
      -0.139
       0.006
       0.163
       0.274
       0.294
       0.207
       0.042
      -0.129
      -0.236
      -0.260
      -0.238
      -0.214
      -0.180
      -0.079
       0.129
       0.401
       0.594
       0.552
       0.225
      -0.242
      -0.566
      -0.520
      -0.133
       0.302
       0.437
       0.153
      -0.337
      -0.651
      -0.527
      -0.019
       0.535
       0.754
       0.494
      -0.044
      -0.466
      -0.483
      -0.130
       0.278
       0.409
       0.167
      -0.241
      -0.475
      -0.313
       0.181
       0.693
       0.858
       0.521
      -0.139
      -0.721
      -0.881
      -0.570
      -0.050
       0.315
       0.316
       0.043
      -0.207
      -0.170
       0.155
       0.479
       0.473
       0.078
      -0.412
      -0.587
      -0.282
       0.277
       0.670
       0.616
       0.170
      -0.359
      -0.650
      -0.574
      -0.263
       0.009
       0.059
      -0.045
      -0.049
       0.225
       0.669
       0.941
       0.743
       0.090
      -0.665
      -1.067
      -0.894
      -0.328
       0.197
       0.355
       0.175
      -0.057
      -0.086
       0.119
       0.406
       0.574
       0.475
       0.115
      -0.298
      -0.463
      -0.254
       0.099
       0.201
      -0.111
      -0.574
      -0.748
      -0.436
       0.178
       0.730
       0.972
       0.858
       0.471
      -0.043
      -0.499
      -0.727
      -0.679
      -0.471
      -0.281
      -0.184
      -0.101
       0.099
       0.439
       0.760
       0.817
       0.480
      -0.114
      -0.607
      -0.689
      -0.361
       0.069
       0.278
       0.206
       0.022
      -0.102
      -0.136
      -0.122
      -0.067
       0.032
       0.124
       0.132
       0.057
      -0.007
       0.017
       0.090
       0.095
      -0.038
      -0.248
      -0.371
      -0.259
       0.109
       0.582
       0.903
       0.845
       0.356
      -0.376
      -0.992
      -1.138
      -0.712
       0.022
       0.591
       0.651
       0.256
      -0.199
      -0.303
       0.059
       0.616
       0.892
       0.545
      -0.348
      -1.278
      -1.625
      -1.104
       0.013
       1.081
       1.504
       1.102
       0.191
      -0.628
      -0.852
      -0.413
       0.279
       0.647
       0.409
      -0.205
      -0.684
      -0.675
      -0.230
       0.307
       0.584
       0.443
      -0.009
      -0.453
      -0.537
      -0.144
       0.456
       0.778
       0.521
      -0.178
      -0.851
      -1.035
      -0.567
       0.304
       1.041
       1.179
       0.671
      -0.078
      -0.587
      -0.692
      -0.571
      -0.437
      -0.307
      -0.095
       0.181
       0.385
       0.419
       0.335
       0.244
       0.184
       0.107
      -0.019
      -0.151
      -0.242
      -0.304
      -0.368
      -0.395
      -0.287
      -0.010
       0.326
       0.542
       0.522
       0.283
      -0.049
      -0.302
      -0.347
      -0.192
       0.012
       0.100
       0.060
       0.023
       0.063
       0.084
      -0.045
      -0.285
      -0.426
      -0.315
      -0.025
       0.221
       0.270
       0.152
       0.003
      -0.076
      -0.067
       0.004
       0.110
       0.216
       0.257
       0.163
      -0.063
      -0.314
      -0.454
      -0.435
      -0.309
      -0.127
       0.117
       0.398
       0.603
       0.625
       0.483
       0.258
      -0.027
      -0.382
      -0.686
      -0.719
      -0.406
       0.040
       0.302
       0.267
       0.092
      -0.009
       0.019
       0.075
       0.067
       0.024
       0.046
       0.172
       0.296
       0.262
       0.042
      -0.211
      -0.335
      -0.328
      -0.304
      -0.316
      -0.280
      -0.104
       0.183
       0.440
       0.518
       0.342
      -0.034
      -0.399
      -0.500
      -0.246
       0.174
       0.444
       0.390
       0.094
      -0.236
      -0.448
      -0.495
      -0.374
      -0.113
       0.202
       0.436
       0.500
       0.401
       0.218
       0.041
      -0.079
      -0.154
      -0.238
      -0.362
      -0.467
      -0.421
      -0.152
       0.241
       0.529
       0.518
       0.205
      -0.185
      -0.343
      -0.134
       0.238
       0.421
       0.274
      -0.001
      -0.128
      -0.068
      -0.017
      -0.133
      -0.367
      -0.556
      -0.602
      -0.489
      -0.194
       0.307
       0.887
       1.216
       0.994
       0.289
      -0.430
      -0.692
      -0.458
      -0.120
      -0.069
      -0.321
      -0.579
      -0.570
      -0.270
       0.157
       0.523
       0.679
       0.524
       0.107
      -0.308
      -0.394
      -0.078
       0.355
       0.514
       0.242
      -0.285
      -0.755
      -0.917
      -0.668
      -0.078
       0.594
       1.002
       0.941
       0.507
       0.015
      -0.285
      -0.390
      -0.459
      -0.553
      -0.534
      -0.250
       0.221
       0.594
       0.641
       0.396
       0.070
      -0.168
      -0.302
      -0.397
      -0.483
      -0.510
      -0.372
      -0.013
       0.459
       0.765
       0.669
       0.230
      -0.204
      -0.314
      -0.099
       0.170
       0.248
       0.126
      -0.042
      -0.150
      -0.209
      -0.246
      -0.219
      -0.078
       0.107
       0.157
      -0.032
      -0.324
      -0.409
      -0.107
       0.395
       0.681
       0.511
       0.067
      -0.251
      -0.257
      -0.123
      -0.105
      -0.230
      -0.297
      -0.145
       0.192
       0.545
       0.740
       0.625
       0.115
      -0.671
      -1.316
      -1.333
      -0.584
       0.514
       1.281
       1.282
       0.624
      -0.216
      -0.776
      -0.876
      -0.606
      -0.172
       0.228
       0.459
       0.486
       0.359
       0.162
      -0.031
      -0.152
      -0.144
      -0.003
       0.171
       0.215
       0.030
      -0.336
      -0.692
      -0.810
      -0.568
      -0.083
       0.317
       0.344
       0.045
      -0.179
       0.075
       0.813
       1.583
       1.790
       1.128
      -0.179
      -1.477
      -2.077
      -1.721
      -0.767
       0.090
       0.335
      -0.001
      -0.414
      -0.316
       0.483
       1.548
       2.058
       1.458
      -0.007
      -1.422
      -1.938
      -1.414
      -0.387
       0.472
       0.824
       0.729
       0.449
       0.227
       0.146
       0.103
      -0.038
      -0.255
      -0.342
      -0.125
       0.326
       0.731
       0.851
       0.710
       0.541
       0.545
       0.692
       0.725
       0.349
      -0.548
      -1.759
      -2.808
      -3.171
      -2.582
      -1.232
       0.295
       1.363
       1.677
       1.410
       0.959
       0.577
       0.240
      -0.200
      -0.761
      -1.231
      -1.258
      -0.581
       0.691
       1.978
       2.520
       1.924
       0.474
      -1.111
      -2.214
      -2.572
      -2.146
      -1.014
       0.500
       1.756
       2.128
       1.506
       0.422
      -0.418
      -0.690
      -0.551
      -0.289
      -0.042
       0.169
       0.296
       0.272
       0.122
      -0.048
      -0.135
      -0.087
       0.126
       0.465
       0.749
       0.732
       0.336
      -0.219
      -0.591
      -0.636
      -0.537
      -0.586
      -0.842
      -1.001
      -0.690
       0.092
       0.865
       1.073
       0.591
      -0.168
      -0.618
      -0.442
       0.269
       1.154
       1.755
       1.675
       0.796
      -0.544
      -1.683
      -2.072
      -1.641
      -0.730
       0.242
       0.993
       1.340
       1.167
       0.528
      -0.282
      -0.870
      -1.012
      -0.786
      -0.442
      -0.175
      -0.012
       0.114
       0.251
       0.391
       0.500
       0.550
       0.531
       0.455
       0.344
       0.181
      -0.078
      -0.433
      -0.748
      -0.801
      -0.454
       0.166
       0.678
       0.688
       0.113
      -0.671
      -1.042
      -0.617
       0.399
       1.333
       1.561
       0.985
       0.058
      -0.635
      -0.859
      -0.807
      -0.762
      -0.759
      -0.647
      -0.377
      -0.084
       0.142
       0.405
       0.812
       1.178
       1.093
       0.372
      -0.613
      -1.157
      -0.847
       0.038
       0.758
       0.760
       0.086
      -0.795
      -1.429
      -1.585
      -1.187
      -0.270
       0.877
       1.690
       1.677
       0.864
      -0.127
      -0.558
      -0.187
       0.539
       0.917
       0.631
      -0.027
      -0.533
      -0.665
      -0.644
      -0.782
      -1.060
      -1.125
      -0.680
       0.164
       0.960
       1.303
       1.113
       0.614
       0.126
      -0.105
      -0.006
       0.297
       0.561
       0.585
       0.296
      -0.277
      -1.006
      -1.618
      -1.766
      -1.297
      -0.458
       0.246
       0.490
       0.415
       0.468
       0.934
       1.595
       1.874
       1.358
       0.218
      -0.898
      -1.410
      -1.251
      -0.778
      -0.323
       0.065
       0.468
       0.838
       1.002
       0.850
       0.418
      -0.203
      -0.932
      -1.631
      -2.064
      -1.993
      -1.337
      -0.254
       0.869
       1.564
       1.557
       0.996
       0.362
       0.073
       0.148
       0.279
       0.200
      -0.064
      -0.278
      -0.235
       0.080
       0.477
       0.660
       0.412
      -0.206
      -0.820
      -0.984
      -0.559
       0.111
       0.447
       0.166
      -0.434
      -0.744
      -0.423
       0.308
       0.904
       0.994
       0.620
       0.104
      -0.241
      -0.297
      -0.171
      -0.091
      -0.213
      -0.469
      -0.609
      -0.415
       0.110
       0.735
       1.166
       1.206
       0.818
       0.128
      -0.621
      -1.150
      -1.270
      -0.965
      -0.380
       0.238
       0.624
       0.637
       0.361
       0.061
      -0.039
       0.040
       0.078
      -0.074
      -0.302
      -0.352
      -0.132
       0.171
       0.275
       0.097
      -0.188
      -0.336
      -0.257
      -0.029
       0.251
       0.504
       0.601
       0.388
      -0.118
      -0.631
      -0.806
      -0.579
      -0.215
       0.009
       0.064
       0.081
       0.080
      -0.066
      -0.390
      -0.674
      -0.610
      -0.139
       0.419
       0.631
       0.364
      -0.081
      -0.253
       0.032
       0.556
       0.937
       0.967
       0.729
       0.427
       0.187
      -0.001
      -0.214
      -0.509
      -0.847
      -1.063
      -0.947
      -0.441
       0.247
       0.769
       0.902
       0.691
       0.336
       0.001
      -0.237
      -0.332
      -0.266
      -0.105
      -0.003
      -0.103
      -0.397
      -0.701
      -0.773
      -0.509
      -0.034
       0.366
       0.451
       0.197
      -0.182
      -0.397
      -0.297
       0.040
       0.404
       0.609
       0.583
       0.380
       0.149
       0.060
       0.150
       0.241
       0.087
      -0.332
      -0.709
      -0.664
      -0.133
       0.531
       0.868
       0.691
       0.193
      -0.267
      -0.446
      -0.340
      -0.156
      -0.145
      -0.373
      -0.620
      -0.574
      -0.172
       0.302
       0.512
       0.414
       0.267
       0.298
       0.461
       0.530
       0.370
       0.066
      -0.176
      -0.223
      -0.093
       0.093
       0.206
       0.164
      -0.074
      -0.480
      -0.910
      -1.115
      -0.918
      -0.408
       0.098
       0.339
       0.351
       0.353
       0.457
       0.575
       0.589
       0.485
       0.291
      -0.005
      -0.379
      -0.675
      -0.715
      -0.504
      -0.241
      -0.097
      -0.058
      -0.011
       0.077
       0.148
       0.187
       0.265
       0.406
       0.474
       0.285
      -0.152
      -0.543
      -0.565
      -0.224
       0.125
       0.175
       0.040
       0.092
       0.438
       0.714
       0.500
      -0.133
      -0.658
      -0.654
      -0.230
       0.165
       0.243
       0.102
       0.019
       0.111
       0.259
       0.290
       0.169
      -0.020
      -0.204
      -0.349
      -0.390
      -0.258
      -0.036
       0.036
      -0.191
      -0.532
      -0.611
      -0.248
       0.355
       0.818
       0.898
       0.578
      -0.008
      -0.624
      -0.973
      -0.850
      -0.339
