Origin Time       24/2/2010 19:20:52	
Lat.              28.6 N	
Long.             76.9 E	
Depth (Km)         17.0
Magnitude         2.5
 Region           Rohtak                                                           
 Above details taken from IMD 
   
Station Code      SHI
Station Lat.       28.665
Station Long.      77.123
Station Height(m)  262.0
Site Class        C   Vs30 between 200 m/sec to 375 m/sec *  
Record Time       24.02.2010 19:20:28.539
Sampling Rate     200. Hz
 Record Duration   80.285 Sec.
 Direction         Vert. (Up positive)
Max. Acceleration     -2.852 cm/sec**2
     
  * For reference see Site Classification link of website 
     
 Base Line Corrected and Low Pass Filtered (Cut Off at 35 Hz) Time History
 Acceleration data in cm/sec**2
    
[...]
       0.060
       0.076
       0.065
       0.035
      -0.001
      -0.036
      -0.066
      -0.083
      -0.081
      -0.059
      -0.027
      -0.001
       0.005
      -0.005
      -0.018
      -0.014
       0.008
       0.038
       0.054
       0.045
       0.015
      -0.022
      -0.053
      -0.071
      -0.075
      -0.065
      -0.041
      -0.006
       0.035
       0.071
       0.090
       0.080
       0.037
      -0.034
      -0.113
      -0.171
      -0.181
      -0.133
      -0.042
       0.060
       0.133
       0.154
       0.122
       0.056
      -0.019
      -0.081
      -0.115
      -0.115
      -0.086
      -0.036
       0.019
       0.062
       0.082
       0.073
       0.040
      -0.004
      -0.047
      -0.076
      -0.085
      -0.075
      -0.049
      -0.013
       0.028
       0.065
       0.086
       0.086
       0.067
       0.039
       0.017
       0.008
       0.010
       0.011
      -0.001
      -0.028
      -0.064
      -0.094
      -0.102
      -0.075
      -0.016
       0.059
       0.121
       0.143
       0.117
       0.056
      -0.015
      -0.069
      -0.091
      -0.080
      -0.047
      -0.013
       0.002
      -0.012
      -0.044
      -0.074
      -0.080
      -0.057
      -0.018
       0.014
       0.023
       0.011
      -0.008
      -0.015
      -0.007
       0.005
       0.009
       0.001
      -0.010
      -0.010
       0.006
       0.033
       0.056
       0.062
       0.042
      -0.001
      -0.054
      -0.097
      -0.110
      -0.085
      -0.031
       0.035
       0.086
       0.109
       0.098
       0.064
       0.019
      -0.022
      -0.052
      -0.065
      -0.063
      -0.046
      -0.019
       0.012
       0.036
       0.047
       0.043
       0.029
       0.010
      -0.010
      -0.027
      -0.036
      -0.036
      -0.030
      -0.024
      -0.024
      -0.030
      -0.035
      -0.031
      -0.016
       0.006
       0.027
       0.041
       0.044
       0.031
       0.003
      -0.035
      -0.068
      -0.079
      -0.065
      -0.036
      -0.007
       0.011
       0.016
       0.015
       0.018
       0.031
       0.050
       0.061
       0.052
       0.017
      -0.035
      -0.083
      -0.100
      -0.073
      -0.013
       0.053
       0.092
       0.089
       0.051
       0.003
      -0.035
      -0.055
      -0.064
      -0.073
      -0.085
      -0.091
      -0.080
      -0.040
       0.023
       0.091
       0.138
       0.141
       0.095
       0.016
      -0.065
      -0.122
      -0.137
      -0.104
      -0.036
       0.044
       0.103
       0.118
       0.088
       0.032
      -0.023
      -0.054
      -0.051
      -0.025
       0.005
       0.023
       0.019
      -0.003
      -0.033
      -0.056
      -0.061
      -0.045
      -0.011
       0.032
       0.072
       0.096
       0.096
       0.068
       0.019
      -0.040
      -0.094
      -0.126
      -0.125
      -0.090
      -0.029
       0.038
       0.088
       0.105
       0.078
       0.016
      -0.058
      -0.116
      -0.133
      -0.103
      -0.041
       0.028
       0.080
       0.105
       0.105
       0.090
       0.067
       0.041
       0.015
      -0.010
      -0.033
      -0.053
      -0.062
      -0.050
      -0.020
       0.016
       0.037
       0.031
      -0.002
      -0.044
      -0.068
      -0.057
      -0.014
       0.040
       0.073
       0.065
       0.017
      -0.050
      -0.102
      -0.109
      -0.061
       0.024
       0.111
       0.160
       0.151
       0.086
      -0.012
      -0.116
      -0.199
      -0.242
      -0.229
      -0.161
      -0.053
       0.064
       0.158
       0.205
       0.196
       0.135
       0.036
      -0.075
      -0.165
      -0.204
      -0.177
      -0.090
       0.031
       0.144
       0.210
       0.207
       0.141
       0.039
      -0.058
      -0.113
      -0.113
      -0.070
      -0.011
       0.030
       0.040
       0.021
      -0.007
      -0.028
      -0.027
      -0.004
       0.034
       0.071
       0.087
       0.068
       0.014
      -0.057
      -0.118
      -0.144
      -0.125
      -0.066
       0.015
       0.094
       0.151
       0.168
       0.137
       0.059
      -0.050
      -0.156
      -0.218
      -0.202
      -0.103
       0.048
       0.194
       0.279
       0.270
       0.167
       0.007
      -0.154
      -0.259
      -0.276
      -0.204
      -0.081
       0.041
       0.115
       0.116
       0.054
      -0.039
      -0.119
      -0.150
      -0.117
      -0.034
       0.065
       0.140
       0.169
       0.148
       0.091
       0.020
      -0.045
      -0.090
      -0.111
      -0.106
      -0.077
      -0.030
       0.025
       0.068
       0.079
       0.045
      -0.024
      -0.100
      -0.145
      -0.134
      -0.064
       0.043
       0.151
       0.222
       0.232
       0.183
       0.100
       0.027
      -0.006
      -0.002
       0.009
      -0.003
      -0.042
      -0.089
      -0.116
      -0.115
      -0.095
      -0.066
      -0.032
       0.014
       0.067
       0.101
       0.086
       0.016
      -0.076
      -0.128
      -0.092
       0.032
       0.184
       0.280
       0.261
       0.126
      -0.067
      -0.243
      -0.337
      -0.324
      -0.218
      -0.060
       0.092
       0.188
       0.197
       0.119
      -0.009
      -0.128
      -0.178
      -0.130
       0.003
       0.164
       0.282
       0.301
       0.199
       0.006
      -0.209
      -0.367
      -0.407
      -0.313
      -0.109
       0.144
       0.362
       0.466
       0.409
       0.210
      -0.047
      -0.257
      -0.346
      -0.310
      -0.200
      -0.074
       0.035
       0.127
       0.202
       0.248
       0.243
       0.178
       0.073
      -0.028
      -0.082
      -0.069
      -0.007
       0.059
       0.083
       0.041
      -0.058
      -0.175
      -0.256
      -0.259
      -0.169
      -0.011
       0.161
       0.274
       0.272
       0.140
      -0.075
      -0.267
      -0.333
      -0.224
       0.020
       0.290
       0.461
       0.452
       0.262
      -0.036
      -0.324
      -0.494
      -0.494
      -0.341
      -0.109
       0.113
       0.255
       0.289
       0.227
       0.118
       0.022
      -0.023
      -0.014
       0.016
       0.027
       0.000
      -0.049
      -0.082
      -0.067
      -0.003
       0.074
       0.110
       0.070
      -0.032
      -0.137
      -0.180
      -0.132
      -0.022
       0.088
       0.139
       0.112
       0.028
      -0.064
      -0.116
      -0.101
      -0.019
       0.103
       0.213
       0.258
       0.205
       0.068
      -0.097
      -0.220
      -0.254
      -0.199
      -0.099
       0.002
       0.075
       0.119
       0.141
       0.142
       0.119
       0.075
       0.020
      -0.038
      -0.094
      -0.141
      -0.164
      -0.138
      -0.050
       0.077
       0.191
       0.235
       0.182
       0.051
      -0.104
      -0.224
      -0.266
      -0.226
      -0.130
      -0.023
       0.058
       0.098
       0.106
       0.099
       0.093
       0.092
       0.093
       0.089
       0.071
       0.034
      -0.014
      -0.052
      -0.058
      -0.018
       0.062
       0.152
       0.217
       0.221
       0.149
       0.005
      -0.182
      -0.358
      -0.462
      -0.448
      -0.316
      -0.119
       0.057
       0.142
       0.115
       0.017
      -0.082
      -0.121
      -0.074
       0.051
       0.214
       0.361
       0.438
       0.412
       0.284
       0.091
      -0.120
      -0.316
      -0.484
      -0.595
      -0.584
      -0.370
       0.046
       0.521
       0.804
       0.701
       0.245
      -0.292
      -0.579
      -0.475
      -0.122
       0.194
       0.279
       0.163
       0.033
       0.040
       0.169
       0.252
       0.135
      -0.168
      -0.458
      -0.518
      -0.276
       0.130
       0.452
       0.497
       0.243
      -0.165
      -0.519
      -0.667
      -0.565
      -0.272
       0.095
       0.423
       0.644
       0.750
       0.750
       0.642
       0.397
       0.015
      -0.433
      -0.792
      -0.897
      -0.693
      -0.299
       0.042
       0.131
      -0.033
      -0.225
      -0.171
       0.221
       0.753
       1.082
       0.992
       0.555
       0.043
      -0.320
      -0.529
      -0.733
      -1.015
      -1.240
      -1.127
      -0.520
       0.426
       1.298
       1.695
       1.473
       0.814
       0.083
      -0.426
      -0.662
      -0.781
      -0.937
      -1.096
      -1.062
      -0.679
       0.004
       0.748
       1.283
       1.432
       1.179
       0.653
       0.081
      -0.308
      -0.405
      -0.291
      -0.179
      -0.260
      -0.553
      -0.879
      -1.001
      -0.801
      -0.340
       0.214
       0.706
       1.055
       1.242
       1.248
       1.029
       0.547
      -0.136
      -0.826
      -1.263
      -1.264
      -0.838
      -0.188
       0.405
       0.729
       0.744
       0.550
       0.287
       0.028
      -0.230
      -0.503
      -0.745
      -0.844
      -0.691
      -0.266
       0.317
       0.840
       1.082
       0.940
       0.483
      -0.094
      -0.592
      -0.875
      -0.876
      -0.570
      -0.014
       0.601
       0.995
       0.953
       0.495
      -0.112
      -0.531
      -0.598
      -0.408
      -0.198
      -0.128
      -0.166
      -0.176
      -0.089
       0.016
       0.010
      -0.121
      -0.239
      -0.169
       0.156
       0.632
       1.039
       1.142
       0.808
       0.099
      -0.727
      -1.327
      -1.452
      -1.073
      -0.386
       0.308
       0.757
       0.875
       0.736
       0.481
       0.219
      -0.012
      -0.214
      -0.370
      -0.432
      -0.361
      -0.171
       0.067
       0.258
       0.311
       0.182
      -0.073
      -0.290
      -0.293
      -0.038
       0.327
       0.558
       0.495
       0.173
      -0.214
      -0.457
      -0.471
      -0.348
      -0.237
      -0.166
      -0.014
       0.313
       0.679
       0.779
       0.436
      -0.202
      -0.750
      -0.893
      -0.607
      -0.143
       0.212
       0.348
       0.354
       0.353
       0.365
       0.325
       0.186
      -0.018
      -0.201
      -0.281
      -0.228
      -0.089
       0.034
       0.062
      -0.009
      -0.125
      -0.232
      -0.292
      -0.259
      -0.097
       0.164
       0.401
       0.474
       0.331
       0.066
      -0.150
      -0.204
      -0.121
      -0.019
       0.016
      -0.012
      -0.052
      -0.080
      -0.103
      -0.111
      -0.073
       0.022
       0.130
       0.204
       0.250
       0.314
       0.407
       0.449
       0.321
      -0.018
      -0.462
      -0.817
      -0.912
      -0.700
      -0.297
       0.073
       0.249
       0.283
       0.369
       0.602
       0.844
       0.861
       0.559
       0.046
      -0.474
      -0.831
      -0.946
      -0.837
      -0.560
      -0.183
       0.196
       0.433
       0.417
       0.199
      -0.006
       0.007
       0.231
       0.459
       0.473
       0.231
      -0.120
      -0.381
      -0.455
      -0.406
      -0.359
      -0.349
      -0.270
      -0.001
       0.421
       0.780
       0.858
       0.630
       0.268
      -0.017
      -0.134
      -0.142
      -0.149
      -0.193
      -0.237
      -0.259
      -0.297
      -0.378
      -0.445
      -0.396
      -0.193
       0.078
       0.274
       0.329
       0.325
       0.395
       0.557
       0.652
       0.490
       0.059
      -0.426
      -0.696
      -0.650
      -0.410
      -0.202
      -0.162
      -0.210
      -0.129
       0.180
       0.548
       0.689
       0.508
       0.203
       0.058
       0.166
       0.352
       0.326
      -0.057
      -0.670
      -1.216
      -1.450
      -1.277
      -0.739
       0.034
       0.840
       1.452
       1.706
       1.564
       1.094
       0.429
      -0.294
      -0.943
      -1.385
      -1.491
      -1.180
      -0.510
       0.306
       0.958
       1.174
       0.875
       0.245
      -0.357
      -0.629
      -0.506
      -0.151
       0.204
       0.405
       0.412
       0.263
       0.036
      -0.185
      -0.344
      -0.410
      -0.351
      -0.129
       0.242
       0.642
       0.863
       0.715
       0.177
      -0.517
      -1.002
      -1.048
      -0.740
      -0.373
      -0.170
      -0.091
       0.077
       0.469
       0.955
       1.196
       0.928
       0.235
      -0.468
      -0.756
      -0.549
      -0.143
       0.095
       0.059
      -0.073
      -0.077
       0.077
       0.207
       0.120
      -0.173
      -0.445
      -0.459
      -0.176
       0.222
       0.486
       0.480
       0.241
      -0.089
      -0.351
      -0.438
      -0.308
      -0.007
       0.319
       0.477
       0.382
       0.154
       0.012
       0.057
       0.163
       0.108
      -0.200
      -0.635
      -0.949
      -0.955
      -0.647
      -0.200
       0.138
       0.190
      -0.040
      -0.384
      -0.621
      -0.579
      -0.182
       0.528
       1.381
       2.124
       2.504
       2.331
       1.534
       0.245
      -1.177
      -2.271
      -2.686
      -2.332
      -1.412
      -0.305
       0.637
       1.270
       1.668
       1.934
       2.011
       1.680
       0.773
      -0.599
      -1.993
      -2.852
      -2.850
      -2.102
      -1.058
      -0.167
       0.423
       0.868
       1.381
       1.968
       2.358
       2.184
       1.270
      -0.151
      -1.489
      -2.157
      -1.956
      -1.166
      -0.284
       0.312
       0.532
       0.531
       0.534
       0.639
       0.720
       0.559
       0.099
      -0.438
      -0.722
      -0.606
      -0.250
       0.029
       0.041
      -0.118
      -0.175
       0.031
       0.367
       0.507
       0.248
      -0.269
      -0.642
      -0.536
       0.020
       0.612
       0.733
       0.186
      -0.737
      -1.452
      -1.521
      -0.938
      -0.048
       0.752
       1.246
       1.392
       1.216
       0.758
       0.120
      -0.493
      -0.849
      -0.818
      -0.434
       0.153
       0.760
       1.206
       1.319
       0.953
       0.094
      -1.022
      -1.919
      -2.121
      -1.480
      -0.318
       0.781
       1.382
       1.437
       1.163
       0.754
       0.235
      -0.408
      -1.036
      -1.349
      -1.095
      -0.320
       0.581
       1.094
       0.924
       0.195
      -0.636
      -1.093
      -0.981
      -0.446
       0.220
       0.783
       1.118
       1.141
       0.829
       0.290
      -0.264
      -0.660
      -0.864
      -0.921
      -0.828
      -0.480
       0.200
       1.085
       1.782
       1.838
       1.098
      -0.119
      -1.239
      -1.841
      -1.870
      -1.509
      -0.941
      -0.258
       0.485
       1.173
       1.626
       1.699
       1.365
       0.732
      -0.019
      -0.698
      -1.164
      -1.370
      -1.343
      -1.104
      -0.626
       0.080
       0.849
       1.361
       1.331
       0.746
      -0.040
      -0.517
      -0.405
       0.120
       0.596
       0.674
       0.357
      -0.101
      -0.461
      -0.670
      -0.781
      -0.769
      -0.477
       0.168
       0.921
       1.291
       0.933
       0.004
      -0.892
      -1.173
      -0.735
      -0.012
       0.406
       0.252
      -0.248
      -0.629
      -0.595
      -0.208
       0.254
       0.559
       0.648
       0.595
       0.481
       0.332
       0.133
      -0.098
      -0.288
      -0.377
      -0.375
      -0.335
      -0.272
      -0.147
       0.060
       0.293
       0.448
       0.461
       0.348
       0.156
      -0.101
      -0.437
      -0.785
      -0.951
      -0.731
      -0.163
       0.419
       0.633
       0.399
      -0.004
      -0.200
      -0.056
       0.223
       0.314
       0.111
      -0.168
      -0.231
      -0.045
       0.140
       0.097
      -0.087
      -0.084
       0.322
       0.973
       1.412
       1.265
       0.550
      -0.357
      -1.056
      -1.402
      -1.479
      -1.386
      -1.088
      -0.489
       0.368
       1.188
       1.571
       1.326
       0.641
      -0.085
      -0.559
      -0.730
      -0.690
      -0.537
      -0.341
      -0.162
      -0.052
      -0.023
      -0.009
       0.116
       0.424
       0.803
       0.987
       0.794
       0.306
      -0.192
      -0.474
      -0.528
      -0.477
      -0.416
      -0.346
      -0.236
      -0.079
       0.082
       0.173
       0.130
      -0.032
      -0.209
      -0.279
      -0.200
      -0.022
       0.178
       0.354
       0.473
       0.478
       0.337
       0.116
      -0.036
      -0.019
       0.086
       0.050
      -0.294
      -0.839
      -1.224
      -1.099
      -0.427
       0.444
       1.022
       1.030
       0.577
       0.024
      -0.296
      -0.291
      -0.111
       0.011
      -0.025
      -0.133
      -0.152
      -0.014
       0.195
       0.307
       0.223
       0.002
      -0.172
      -0.136
       0.106
       0.349
       0.341
      -0.012
      -0.543
      -0.922
      -0.879
      -0.393
       0.292
       0.830
       1.013
       0.885
       0.639
       0.413
       0.181
      -0.155
      -0.588
      -0.940
      -0.993
      -0.692
      -0.211
       0.177
       0.312
       0.261
       0.212
       0.269
       0.360
       0.330
       0.093
      -0.287
      -0.618
      -0.699
      -0.450
       0.040
       0.559
       0.885
       0.894
       0.614
       0.180
      -0.262
      -0.609
      -0.795
      -0.783
      -0.609
      -0.388
      -0.216
      -0.073
       0.156
       0.534
       0.961
       1.210
       1.097
       0.618
      -0.029
      -0.586
      -0.901
      -0.983
      -0.911
      -0.723
      -0.405
       0.041
       0.523
       0.873
       0.950
       0.729
       0.302
      -0.183
      -0.587
      -0.828
      -0.908
      -0.861
      -0.678
      -0.312
       0.230
       0.813
       1.221
       1.293
       1.027
       0.569
       0.096
      -0.286
      -0.559
      -0.733
      -0.789
      -0.691
      -0.437
      -0.093
       0.241
       0.464
       0.525
       0.427
       0.214
      -0.063
      -0.341
      -0.532
      -0.544
      -0.343
      -0.001
       0.342
       0.548
       0.552
       0.372
       0.085
      -0.214
      -0.450
      -0.571
      -0.558
      -0.418
      -0.186
       0.091
       0.366
       0.598
       0.740
       0.741
       0.561
       0.222
      -0.163
      -0.447
      -0.570
      -0.595
      -0.597
      -0.546
      -0.359
      -0.027
       0.329
       0.547
       0.536
       0.338
       0.092
      -0.081
      -0.165
      -0.248
      -0.406
      -0.609
      -0.748
      -0.717
      -0.463
       0.024
       0.673
       1.297
       1.631
       1.508
       0.990
       0.316
      -0.285
      -0.729
      -1.034
      -1.201
      -1.173
      -0.907
      -0.457
       0.027
       0.369
       0.453
       0.305
       0.080
      -0.048
      -0.015
       0.108
