Origin Time       24/2/2010 19:20:52	 UTC
Lat.              28.6 N	
Long.             76.9 E	
Depth (Km)         17.0
Magnitude         2.5
 Region           Rohtak                                                           
 Above details taken from IMD 
    
Station Code      SHI
Station Lat.       28.665  N
Station Long.      77.123  E
Station Height(m)  262.0
Site Class        C   Vs30 between 200 m/sec to 375 m/sec *  
Record Time       24.02.2010 19:20:28.539 UTC
Sampling Rate     200. Hz
 Record Duration   80.285 Sec.
 Direction         N-S (N positive)
Max. Acceleration      2.088 cm/sec**2
     
  * For reference see Site Classification link of website 
     
 Base Line Corrected and Low Pass Filtered (Cut Off at 35 Hz) Time History
 Acceleration data in cm/sec**2
    
[...]
      -0.095
      -0.063
      -0.012
       0.043
       0.082
       0.091
       0.068
       0.024
      -0.023
      -0.058
      -0.076
      -0.073
      -0.050
      -0.011
       0.033
       0.062
       0.059
       0.030
      -0.008
      -0.033
      -0.036
      -0.028
      -0.025
      -0.035
      -0.054
      -0.065
      -0.056
      -0.029
       0.000
       0.016
       0.013
      -0.001
      -0.012
      -0.012
       0.001
       0.014
       0.018
       0.012
       0.003
       0.001
       0.008
       0.017
       0.024
       0.029
       0.033
       0.032
       0.026
       0.018
       0.015
       0.018
       0.020
       0.016
       0.004
      -0.013
      -0.024
      -0.023
      -0.010
       0.006
       0.016
       0.017
       0.012
       0.002
      -0.012
      -0.028
      -0.046
      -0.063
      -0.073
      -0.069
      -0.043
       0.000
       0.045
       0.075
       0.077
       0.052
       0.010
      -0.033
      -0.065
      -0.078
      -0.070
      -0.044
      -0.008
       0.028
       0.055
       0.069
       0.068
       0.048
       0.012
      -0.025
      -0.043
      -0.032
       0.001
       0.034
       0.048
       0.040
       0.021
       0.003
      -0.004
      -0.001
       0.009
       0.023
       0.040
       0.054
       0.055
       0.035
      -0.002
      -0.046
      -0.079
      -0.090
      -0.074
      -0.034
       0.018
       0.066
       0.097
       0.102
       0.084
       0.053
       0.018
      -0.010
      -0.029
      -0.033
      -0.026
      -0.016
      -0.007
       0.000
       0.009
       0.024
       0.036
       0.033
       0.008
      -0.034
      -0.077
      -0.105
      -0.107
      -0.079
      -0.027
       0.032
       0.077
       0.090
       0.069
       0.029
      -0.006
      -0.017
      -0.005
       0.014
       0.022
       0.006
      -0.031
      -0.071
      -0.090
      -0.074
      -0.027
       0.029
       0.072
       0.086
       0.073
       0.043
       0.007
      -0.024
      -0.042
      -0.050
      -0.051
      -0.042
      -0.017
       0.029
       0.088
       0.135
       0.147
       0.114
       0.047
      -0.032
      -0.098
      -0.138
      -0.145
      -0.113
      -0.046
       0.035
       0.096
       0.108
       0.064
      -0.015
      -0.091
      -0.130
      -0.124
      -0.084
      -0.033
       0.012
       0.048
       0.076
       0.089
       0.080
       0.049
       0.006
      -0.031
      -0.047
      -0.036
      -0.006
       0.025
       0.040
       0.036
       0.020
       0.001
      -0.019
      -0.031
      -0.025
       0.002
       0.043
       0.076
       0.082
       0.055
       0.007
      -0.042
      -0.075
      -0.078
      -0.049
       0.003
       0.055
       0.082
       0.068
       0.021
      -0.031
      -0.059
      -0.056
      -0.033
      -0.008
       0.007
       0.010
       0.002
      -0.013
      -0.028
      -0.032
      -0.020
       0.004
       0.020
       0.011
      -0.024
      -0.062
      -0.075
      -0.051
      -0.003
       0.042
       0.062
       0.051
       0.020
      -0.006
      -0.010
       0.009
       0.039
       0.066
       0.076
       0.064
       0.031
      -0.011
      -0.046
      -0.060
      -0.046
      -0.005
       0.044
       0.069
       0.044
      -0.027
      -0.110
      -0.163
      -0.164
      -0.115
      -0.036
       0.045
       0.102
       0.116
       0.082
       0.016
      -0.059
      -0.114
      -0.123
      -0.076
       0.015
       0.118
       0.191
       0.196
       0.117
      -0.027
      -0.187
      -0.298
      -0.313
      -0.222
      -0.064
       0.103
       0.223
       0.268
       0.232
       0.122
      -0.039
      -0.197
      -0.280
      -0.243
      -0.106
       0.059
       0.182
       0.233
       0.214
       0.143
       0.042
      -0.062
      -0.139
      -0.168
      -0.146
      -0.085
      -0.016
       0.030
       0.040
       0.031
       0.030
       0.048
       0.066
       0.059
       0.026
      -0.013
      -0.035
      -0.036
      -0.030
      -0.031
      -0.033
      -0.023
       0.008
       0.050
       0.086
       0.100
       0.090
       0.066
       0.030
      -0.020
      -0.089
      -0.164
      -0.211
      -0.193
      -0.093
       0.069
       0.243
       0.351
       0.321
       0.132
      -0.148
      -0.381
      -0.446
      -0.324
      -0.096
       0.128
       0.276
       0.326
       0.280
       0.155
      -0.007
      -0.148
      -0.217
      -0.204
      -0.137
      -0.062
      -0.006
       0.034
       0.080
       0.143
       0.196
       0.187
       0.084
      -0.084
      -0.237
      -0.305
      -0.271
      -0.164
      -0.025
       0.117
       0.237
       0.300
       0.263
       0.115
      -0.096
      -0.267
      -0.304
      -0.181
       0.032
       0.218
       0.288
       0.228
       0.089
      -0.059
      -0.165
      -0.211
      -0.202
      -0.148
      -0.060
       0.046
       0.136
       0.169
       0.125
       0.031
      -0.051
      -0.071
      -0.032
       0.021
       0.044
       0.033
       0.013
       0.009
       0.023
       0.041
       0.041
       0.014
      -0.026
      -0.056
      -0.059
      -0.040
      -0.017
      -0.010
      -0.025
      -0.050
      -0.065
      -0.055
      -0.021
       0.021
       0.060
       0.092
       0.109
       0.097
       0.043
      -0.040
      -0.114
      -0.138
      -0.096
      -0.003
       0.108
       0.197
       0.220
       0.155
       0.020
      -0.133
      -0.239
      -0.257
      -0.192
      -0.080
       0.031
       0.108
       0.138
       0.127
       0.089
       0.038
      -0.014
      -0.058
      -0.079
      -0.062
      -0.013
       0.042
       0.072
       0.067
       0.051
       0.051
       0.066
       0.069
       0.036
      -0.027
      -0.090
      -0.128
      -0.140
      -0.140
      -0.135
      -0.108
      -0.043
       0.049
       0.131
       0.166
       0.152
       0.112
       0.062
      -0.001
      -0.081
      -0.162
      -0.204
      -0.165
      -0.043
       0.110
       0.213
       0.219
       0.147
       0.055
      -0.021
      -0.079
      -0.126
      -0.142
      -0.096
       0.007
       0.112
       0.157
       0.108
      -0.013
      -0.136
      -0.192
      -0.158
      -0.076
      -0.001
       0.053
       0.101
       0.145
       0.150
       0.088
      -0.031
      -0.154
      -0.225
      -0.221
      -0.158
      -0.068
       0.024
       0.095
       0.119
       0.092
       0.034
      -0.029
      -0.094
      -0.152
      -0.172
      -0.115
       0.004
       0.109
       0.129
       0.070
       0.002
      -0.017
       0.000
       0.012
       0.015
       0.052
       0.157
       0.303
       0.403
       0.364
       0.167
      -0.111
      -0.352
      -0.484
      -0.504
      -0.437
      -0.289
      -0.058
       0.210
       0.415
       0.470
       0.375
       0.202
       0.038
      -0.069
      -0.116
      -0.133
      -0.150
      -0.168
      -0.150
      -0.063
       0.060
       0.128
       0.081
      -0.042
      -0.130
      -0.094
       0.057
       0.224
       0.285
       0.184
      -0.027
      -0.223
      -0.301
      -0.258
      -0.170
      -0.099
      -0.036
       0.051
       0.153
       0.219
       0.225
       0.206
       0.181
       0.097
      -0.095
      -0.325
      -0.434
      -0.336
      -0.106
       0.104
       0.209
       0.226
       0.201
       0.146
       0.075
       0.035
       0.067
       0.140
       0.162
       0.084
      -0.036
      -0.099
      -0.082
      -0.057
      -0.098
      -0.185
      -0.220
      -0.131
       0.045
       0.179
       0.181
       0.084
       0.007
       0.017
       0.058
       0.037
      -0.047
      -0.097
      -0.038
       0.085
       0.164
       0.150
       0.088
       0.032
      -0.013
      -0.077
      -0.173
      -0.273
      -0.326
      -0.281
      -0.127
       0.085
       0.275
       0.378
       0.366
       0.239
       0.026
      -0.198
      -0.331
      -0.307
      -0.153
       0.038
       0.169
       0.198
       0.143
       0.053
      -0.022
      -0.051
      -0.043
      -0.033
      -0.038
      -0.026
       0.038
       0.115
       0.109
      -0.009
      -0.145
      -0.184
      -0.119
      -0.044
      -0.010
       0.026
       0.126
       0.254
       0.309
       0.233
       0.054
      -0.139
      -0.245
      -0.204
      -0.058
       0.055
       0.037
      -0.068
      -0.133
      -0.095
      -0.008
       0.043
       0.030
      -0.014
      -0.034
       0.003
       0.094
       0.194
       0.236
       0.176
       0.042
      -0.088
      -0.159
      -0.186
      -0.205
      -0.192
      -0.074
       0.147
       0.326
       0.288
       0.021
      -0.283
      -0.409
      -0.298
      -0.053
       0.193
       0.352
       0.381
       0.269
       0.067
      -0.122
      -0.202
      -0.157
      -0.045
       0.059
       0.111
       0.106
       0.058
      -0.019
      -0.120
      -0.215
      -0.243
      -0.146
       0.064
       0.281
       0.378
       0.305
       0.127
      -0.044
      -0.145
      -0.190
      -0.222
      -0.245
      -0.222
      -0.103
       0.122
       0.375
       0.503
       0.397
       0.103
      -0.201
      -0.356
      -0.324
      -0.167
       0.002
       0.079
       0.044
      -0.005
       0.034
       0.121
       0.115
      -0.027
      -0.172
      -0.158
       0.009
       0.177
       0.232
       0.199
       0.161
       0.132
       0.060
      -0.086
      -0.251
      -0.334
      -0.270
      -0.097
       0.075
       0.155
       0.141
       0.091
       0.059
       0.065
       0.111
       0.176
       0.207
       0.159
       0.052
      -0.056
      -0.128
      -0.180
      -0.250
      -0.340
      -0.389
      -0.317
      -0.111
       0.143
       0.339
       0.436
       0.441
       0.359
       0.186
      -0.036
      -0.214
      -0.265
      -0.198
      -0.097
      -0.050
      -0.074
      -0.110
      -0.098
      -0.050
      -0.037
      -0.075
      -0.075
       0.045
       0.245
       0.380
       0.345
       0.173
       0.005
      -0.050
      -0.025
      -0.058
      -0.218
      -0.390
      -0.391
      -0.188
       0.062
       0.178
       0.131
       0.051
       0.076
       0.203
       0.303
       0.276
       0.146
       0.006
      -0.093
      -0.149
      -0.158
      -0.124
      -0.093
      -0.122
      -0.203
      -0.259
      -0.214
      -0.074
       0.077
       0.168
       0.217
       0.296
       0.397
       0.388
       0.143
      -0.272
      -0.600
      -0.611
      -0.323
       0.028
       0.224
       0.247
       0.221
       0.232
       0.237
       0.147
      -0.045
      -0.239
      -0.321
      -0.267
      -0.149
      -0.045
       0.024
       0.068
       0.095
       0.120
       0.169
       0.240
       0.270
       0.192
       0.018
      -0.157
      -0.242
      -0.224
      -0.167
      -0.139
      -0.154
      -0.162
      -0.090
       0.072
       0.238
       0.289
       0.203
       0.083
       0.048
       0.100
       0.127
       0.046
      -0.096
      -0.182
      -0.170
      -0.114
      -0.059
       0.027
       0.168
       0.271
       0.195
      -0.070
      -0.357
      -0.478
      -0.398
      -0.223
      -0.062
       0.070
       0.211
       0.359
       0.455
       0.434
       0.278
       0.033
      -0.222
      -0.419
      -0.515
      -0.464
      -0.218
       0.175
       0.519
       0.600
       0.399
       0.098
      -0.126
      -0.272
      -0.438
      -0.621
      -0.659
      -0.401
       0.092
       0.564
       0.797
       0.787
       0.649
       0.442
       0.141
      -0.224
      -0.508
      -0.574
      -0.441
      -0.261
      -0.173
      -0.196
      -0.256
      -0.279
      -0.229
      -0.090
       0.135
       0.398
       0.604
       0.657
       0.516
       0.243
      -0.012
      -0.143
      -0.190
      -0.280
      -0.451
      -0.596
      -0.588
      -0.395
      -0.081
       0.255
       0.503
       0.575
       0.472
       0.294
       0.157
       0.092
       0.029
      -0.128
      -0.400
      -0.677
      -0.791
      -0.668
      -0.411
      -0.220
      -0.210
      -0.315
      -0.373
      -0.292
      -0.110
       0.078
       0.234
       0.398
       0.622
       0.883
       1.042
       0.940
       0.545
       0.026
      -0.345
      -0.381
      -0.113
       0.226
       0.386
       0.310
       0.223
       0.442
       1.016
       1.564
       1.560
       0.854
      -0.117
      -0.732
      -0.775
      -0.595
      -0.656
      -1.040
      -1.420
      -1.455
      -1.117
      -0.638
      -0.233
       0.050
       0.260
       0.416
       0.513
       0.579
       0.671
       0.792
       0.844
       0.709
       0.372
      -0.047
      -0.385
      -0.545
      -0.561
      -0.555
      -0.606
      -0.637
      -0.496
      -0.176
       0.125
       0.208
       0.098
      -0.022
      -0.049
      -0.043
      -0.128
      -0.368
      -0.736
      -1.099
      -1.209
      -0.830
       0.049
       1.108
       1.883
       2.088
       1.796
       1.300
       0.817
       0.346
      -0.213
      -0.830
      -1.296
      -1.386
      -1.063
      -0.540
      -0.165
      -0.158
      -0.405
      -0.533
      -0.262
       0.314
       0.815
       0.962
       0.832
       0.729
       0.815
       0.905
       0.649
      -0.071
      -0.962
      -1.542
      -1.548
      -1.110
      -0.571
      -0.144
       0.236
       0.714
       1.204
       1.363
       0.956
       0.199
      -0.380
      -0.461
      -0.233
      -0.166
      -0.496
      -1.003
      -1.261
      -1.035
      -0.429
       0.261
       0.776
       1.002
       0.960
       0.751
       0.487
       0.227
      -0.048
      -0.377
      -0.720
      -0.930
      -0.860
      -0.499
      -0.006
       0.408
       0.627
       0.688
       0.696
       0.702
       0.643
       0.441
       0.127
      -0.150
      -0.242
      -0.123
       0.097
       0.244
       0.166
      -0.159
      -0.581
      -0.863
      -0.866
      -0.649
      -0.388
      -0.199
      -0.049
       0.184
       0.527
       0.803
       0.768
       0.389
      -0.053
      -0.244
      -0.167
      -0.100
      -0.283
      -0.652
      -0.900
      -0.769
      -0.270
       0.334
       0.748
       0.837
       0.665
       0.395
       0.175
       0.053
      -0.036
      -0.176
      -0.353
      -0.428
      -0.271
       0.099
       0.511
       0.758
       0.722
       0.462
       0.173
       0.009
      -0.087
      -0.322
      -0.772
      -1.205
      -1.269
      -0.836
      -0.135
       0.440
       0.631
       0.452
       0.125
      -0.083
      -0.029
       0.224
       0.443
       0.410
       0.120
      -0.196
      -0.258
       0.025
       0.432
       0.582
       0.263
      -0.340
      -0.762
      -0.674
      -0.173
       0.351
       0.601
       0.587
       0.492
       0.404
       0.258
      -0.007
      -0.318
      -0.531
      -0.586
      -0.524
      -0.385
      -0.170
       0.083
       0.257
       0.253
       0.117
       0.004
      -0.007
      -0.011
      -0.125
      -0.285
      -0.278
      -0.016
       0.317
       0.443
       0.289
       0.061
      -0.001
       0.118
       0.200
       0.053
      -0.252
      -0.444
      -0.338
      -0.042
       0.153
       0.067
      -0.211
      -0.445
      -0.481
      -0.335
      -0.124
       0.048
       0.124
       0.093
      -0.007
      -0.088
      -0.083
      -0.014
       0.028
      -0.010
      -0.058
       0.017
       0.253
       0.497
       0.507
       0.201
      -0.202
      -0.345
      -0.092
       0.318
       0.482
       0.223
      -0.234
      -0.477
      -0.290
       0.163
       0.533
       0.610
       0.454
       0.284
       0.275
       0.424
       0.562
       0.492
       0.147
      -0.365
      -0.830
      -1.048
      -0.939
      -0.593
      -0.199
       0.130
       0.442
       0.795
       1.046
       0.895
       0.207
      -0.753
      -1.471
      -1.605
      -1.232
      -0.673
      -0.134
       0.403
       0.959
       1.354
       1.316
       0.753
      -0.134
      -0.984
      -1.485
      -1.499
      -1.073
      -0.387
       0.321
       0.828
       1.005
       0.874
       0.592
       0.321
       0.118
      -0.050
      -0.198
      -0.260
      -0.144
       0.173
       0.586
       0.909
       0.975
       0.746
       0.330
      -0.079
      -0.336
      -0.438
      -0.500
      -0.619
      -0.752
      -0.746
      -0.505
      -0.125
       0.169
       0.243
       0.176
       0.156
       0.250
       0.337
       0.265
       0.038
      -0.201
      -0.330
      -0.338
      -0.267
      -0.132
       0.078
       0.344
       0.586
       0.695
       0.577
       0.226
      -0.231
      -0.595
      -0.745
      -0.702
      -0.548
      -0.341
      -0.124
       0.052
       0.162
       0.244
       0.352
       0.465
       0.502
       0.408
       0.211
       0.002
      -0.128
      -0.154
      -0.149
      -0.226
      -0.413
      -0.603
      -0.649
      -0.512
      -0.291
      -0.095
       0.075
       0.264
       0.434
       0.457
       0.292
       0.091
       0.083
       0.325
       0.620
       0.700
       0.486
       0.149
      -0.076
      -0.111
      -0.069
      -0.088
      -0.174
      -0.212
      -0.120
       0.045
       0.158
       0.152
       0.047
      -0.133
      -0.379
      -0.629
      -0.754
      -0.670
      -0.440
      -0.213
      -0.060
       0.073
       0.257
       0.457
       0.553
       0.472
       0.279
       0.110
       0.018
      -0.056
      -0.153
      -0.195
      -0.096
       0.080
       0.151
       0.035
      -0.150
      -0.237
      -0.198
      -0.133
      -0.110
      -0.086
       0.010
       0.181
       0.349
       0.424
       0.383
       0.296
       0.250
       0.254
       0.239
       0.163
       0.059
      -0.028
      -0.100
      -0.178
      -0.234
      -0.216
      -0.142
      -0.109
      -0.178
      -0.275
      -0.265
      -0.131
      -0.017
      -0.057
      -0.202
      -0.276
      -0.183
       0.003
       0.145
       0.195
       0.201
       0.205
       0.177
       0.070
      -0.096
      -0.213
      -0.184
      -0.015
       0.203
       0.375
       0.447
       0.411
       0.290
       0.121
      -0.090
      -0.371
      -0.691
      -0.888
      -0.764
      -0.306
       0.237
       0.545
       0.518
       0.326
       0.181
       0.108
      -0.027
      -0.297
      -0.588
      -0.690
      -0.483
      -0.042
       0.413
       0.670
       0.660
       0.476
       0.275
       0.153
       0.088
       0.006
      -0.110
      -0.175
      -0.101
