Origin Time       22/10/2009 19:51:25 UTC
Lat.              36.5°N	
Long.             71.0°E	
Depth (Km)        168.0
Magnitude         6.3
 Region           HINDUKUSH-REGION-AFGHANISTAN                                     
 Above details taken from IMD 
    
Station Code      RAM
Station Lat.       31.448  N
Station Long.      77.630  E
Station Height(m)  998.0
Site Class        A   Vs30 between 700 m/sec to 1400 m/sec * 
Record Time       22.10.2009 19:54:19.309 UTC
Sampling Rate     200. Hz
 Record Duration   83.750 Sec.
 Direction         N-S (N positive)
Max. Acceleration     -1.419 cm/sec**2
     
  * For reference see Site Classification link of website 
     
 Base Line Corrected and Low Pass Filtered (Cut Off at 35 Hz) Time History
 Acceleration data in cm/sec**2
    
[...]
       0.673
       0.605
       0.529
       0.454
       0.384
       0.320
       0.269
       0.244
       0.249
       0.273
       0.293
       0.295
       0.278
       0.247
       0.208
       0.160
       0.107
       0.052
      -0.004
      -0.067
      -0.144
      -0.238
      -0.344
      -0.451
      -0.552
      -0.646
      -0.733
      -0.812
      -0.880
      -0.934
      -0.965
      -0.964
      -0.925
      -0.849
      -0.750
      -0.644
      -0.537
      -0.431
      -0.322
      -0.210
      -0.101
       0.002
       0.097
       0.191
       0.292
       0.404
       0.526
       0.651
       0.773
       0.885
       0.981
       1.053
       1.097
       1.114
       1.110
       1.095
       1.068
       1.028
       0.969
       0.891
       0.801
       0.707
       0.616
       0.530
       0.447
       0.366
       0.291
       0.229
       0.185
       0.152
       0.119
       0.079
       0.036
      -0.003
      -0.035
      -0.070
      -0.118
      -0.177
      -0.234
      -0.273
      -0.294
      -0.313
      -0.341
      -0.382
      -0.424
      -0.460
      -0.485
      -0.503
      -0.519
      -0.532
      -0.540
      -0.536
      -0.517
      -0.485
      -0.439
      -0.380
      -0.309
      -0.227
      -0.138
      -0.043
       0.065
       0.189
       0.333
       0.490
       0.646
       0.788
       0.910
       1.011
       1.097
       1.174
       1.245
       1.304
       1.342
       1.349
       1.319
       1.254
       1.161
       1.048
       0.921
       0.780
       0.619
       0.437
       0.243
       0.053
      -0.118
      -0.267
      -0.400
      -0.521
      -0.623
      -0.695
      -0.732
      -0.749
      -0.768
      -0.806
      -0.857
      -0.904
      -0.925
      -0.914
      -0.872
      -0.808
      -0.731
      -0.642
      -0.541
      -0.419
      -0.276
      -0.123
       0.020
       0.137
       0.228
       0.304
       0.383
       0.474
       0.575
       0.683
       0.792
       0.902
       1.007
       1.095
       1.153
       1.170
       1.149
       1.095
       1.020
       0.927
       0.820
       0.702
       0.582
       0.470
       0.371
       0.284
       0.203
       0.131
       0.076
       0.044
       0.026
       0.000
      -0.052
      -0.130
      -0.214
      -0.289
      -0.359
      -0.443
      -0.547
      -0.663
      -0.774
      -0.869
      -0.949
      -1.017
      -1.074
      -1.117
      -1.149
      -1.174
      -1.199
      -1.218
      -1.225
      -1.210
      -1.175
      -1.124
      -1.061
      -0.980
      -0.867
      -0.712
      -0.518
      -0.302
      -0.085
       0.115
       0.294
       0.456
       0.605
       0.739
       0.851
       0.934
       0.984
       1.003
       0.992
       0.953
       0.885
       0.792
       0.680
       0.557
       0.438
       0.332
       0.244
       0.175
       0.118
       0.063
      -0.003
      -0.091
      -0.201
      -0.325
      -0.449
      -0.563
      -0.660
      -0.736
      -0.783
      -0.800
      -0.790
      -0.763
      -0.723
      -0.676
      -0.624
      -0.569
      -0.505
      -0.416
      -0.283
      -0.110
       0.074
       0.233
       0.344
       0.413
       0.462
       0.507
       0.544
       0.557
       0.533
       0.481
       0.425
       0.381
       0.348
       0.306
       0.233
       0.122
      -0.020
      -0.179
      -0.337
      -0.480
      -0.602
      -0.704
      -0.791
      -0.862
      -0.909
      -0.928
      -0.923
      -0.907
      -0.892
      -0.881
      -0.862
      -0.825
      -0.772
      -0.717
      -0.671
      -0.633
      -0.590
      -0.535
      -0.468
      -0.398
      -0.335
      -0.284
      -0.245
      -0.215
      -0.191
      -0.178
      -0.179
      -0.194
      -0.213
      -0.218
      -0.192
      -0.135
      -0.057
       0.026
       0.107
       0.187
       0.276
       0.380
       0.491
       0.596
       0.684
       0.755
       0.816
       0.870
       0.915
       0.950
       0.971
       0.975
       0.952
       0.891
       0.789
       0.652
       0.497
       0.334
       0.167
      -0.009
      -0.196
      -0.387
      -0.573
      -0.744
      -0.896
      -1.026
      -1.132
      -1.206
      -1.247
      -1.265
      -1.276
      -1.284
      -1.269
      -1.206
      -1.101
      -0.990
      -0.909
      -0.865
      -0.833
      -0.781
      -0.696
      -0.584
      -0.461
      -0.333
      -0.200
      -0.059
       0.085
       0.214
       0.310
       0.364
       0.392
       0.433
       0.521
       0.657
       0.812
       0.937
       1.004
       1.010
       0.979
       0.930
       0.874
       0.807
       0.724
       0.628
       0.528
       0.431
       0.345
       0.271
       0.205
       0.141
       0.074
      -0.001
      -0.087
      -0.183
      -0.282
      -0.376
      -0.461
      -0.538
      -0.605
      -0.660
      -0.700
      -0.723
      -0.734
      -0.742
      -0.756
      -0.780
      -0.810
      -0.838
      -0.858
      -0.871
      -0.883
      -0.901
      -0.928
      -0.958
      -0.981
      -0.992
      -0.984
      -0.954
      -0.893
      -0.790
      -0.639
      -0.447
      -0.231
      -0.017
       0.177
       0.343
       0.481
       0.594
       0.679
       0.726
       0.732
       0.704
       0.653
       0.587
       0.499
       0.384
       0.246
       0.098
      -0.043
      -0.159
      -0.243
      -0.290
      -0.300
      -0.273
      -0.218
      -0.147
      -0.074
      -0.015
       0.024
       0.042
       0.045
       0.038
       0.026
       0.014
       0.004
      -0.002
      -0.005
      -0.016
      -0.040
      -0.083
      -0.142
      -0.211
      -0.285
      -0.356
      -0.415
      -0.451
      -0.456
      -0.440
      -0.432
      -0.453
      -0.495
      -0.519
      -0.489
      -0.406
      -0.303
      -0.217
      -0.160
      -0.121
      -0.082
      -0.040
      -0.003
       0.020
       0.029
       0.026
       0.018
       0.005
      -0.014
      -0.036
      -0.059
      -0.080
      -0.100
      -0.123
      -0.146
      -0.162
      -0.161
      -0.140
      -0.108
      -0.088
      -0.095
      -0.128
      -0.169
      -0.195
      -0.195
      -0.176
      -0.155
      -0.144
      -0.146
      -0.155
      -0.159
      -0.145
      -0.102
      -0.029
       0.068
       0.169
       0.255
       0.316
       0.353
       0.367
       0.362
       0.339
       0.307
       0.282
       0.274
       0.284
       0.296
       0.293
       0.269
       0.232
       0.191
       0.143
       0.086
       0.025
      -0.030
      -0.066
      -0.084
      -0.090
      -0.096
      -0.111
      -0.139
      -0.178
      -0.219
      -0.257
      -0.288
      -0.309
      -0.317
      -0.309
      -0.285
      -0.248
      -0.202
      -0.154
      -0.117
      -0.107
      -0.128
      -0.171
      -0.218
      -0.254
      -0.279
      -0.301
      -0.322
      -0.331
      -0.317
      -0.278
      -0.228
      -0.181
      -0.147
      -0.125
      -0.115
      -0.118
      -0.140
      -0.180
      -0.229
      -0.279
      -0.325
      -0.364
      -0.390
      -0.388
      -0.341
      -0.246
      -0.114
       0.031
       0.170
       0.290
       0.390
       0.467
       0.520
       0.545
       0.540
       0.512
       0.472
       0.427
       0.378
       0.322
       0.266
       0.220
       0.191
       0.172
       0.148
       0.110
       0.059
       0.009
      -0.028
      -0.047
      -0.054
      -0.062
      -0.078
      -0.099
      -0.114
      -0.112
      -0.092
      -0.060
      -0.031
      -0.014
      -0.015
      -0.032
      -0.062
      -0.108
      -0.167
      -0.234
      -0.300
      -0.362
      -0.414
      -0.451
      -0.466
      -0.462
      -0.451
      -0.446
      -0.451
      -0.458
      -0.456
      -0.443
      -0.422
      -0.398
      -0.373
      -0.349
      -0.324
      -0.297
      -0.271
      -0.252
      -0.250
      -0.268
      -0.296
      -0.317
      -0.321
      -0.308
      -0.286
      -0.256
      -0.202
      -0.106
       0.029
       0.167
       0.260
       0.287
       0.276
       0.273
       0.306
       0.364
       0.419
       0.452
       0.467
       0.485
       0.520
       0.578
       0.647
       0.706
       0.734
       0.723
       0.679
       0.614
       0.539
       0.463
       0.395
       0.338
       0.292
       0.254
       0.224
       0.208
       0.209
       0.226
       0.251
       0.280
       0.315
       0.356
       0.394
       0.411
       0.396
       0.348
       0.283
       0.219
       0.171
       0.138
       0.113
       0.088
       0.060
       0.026
      -0.014
      -0.059
      -0.105
      -0.142
      -0.165
      -0.171
      -0.156
      -0.115
      -0.045
       0.043
       0.133
       0.207
       0.256
       0.288
       0.311
       0.330
       0.338
       0.328
       0.300
       0.260
       0.222
       0.196
       0.193
       0.215
       0.260
       0.318
       0.369
       0.398
       0.404
       0.403
       0.413
       0.442
       0.477
       0.497
       0.492
       0.466
       0.431
       0.394
       0.354
       0.308
       0.260
       0.220
       0.201
       0.213
       0.252
       0.294
       0.316
       0.303
       0.262
       0.207
       0.148
       0.090
       0.037
      -0.007
      -0.034
      -0.040
      -0.028
      -0.004
       0.030
       0.074
       0.125
       0.171
       0.198
       0.207
       0.218
       0.251
       0.307
       0.367
       0.410
       0.432
       0.444
       0.461
       0.486
       0.508
       0.512
       0.493
       0.460
       0.422
       0.384
       0.341
       0.285
       0.217
       0.147
       0.097
       0.087
       0.115
       0.156
       0.170
       0.129
       0.038
      -0.070
      -0.152
      -0.191
      -0.202
      -0.222
      -0.274
      -0.353
      -0.426
      -0.458
      -0.439
      -0.390
      -0.340
      -0.304
      -0.273
      -0.232
      -0.175
      -0.111
      -0.052
      -0.004
       0.030
       0.054
       0.065
       0.063
       0.054
       0.046
       0.044
       0.046
       0.038
       0.010
      -0.030
      -0.056
      -0.044
       0.012
       0.098
       0.195
       0.297
       0.407
       0.526
       0.640
       0.722
       0.758
       0.761
       0.761
       0.775
       0.800
       0.818
       0.813
       0.784
       0.741
       0.697
       0.660
       0.633
       0.610
       0.585
       0.546
       0.483
       0.388
       0.268
       0.144
       0.040
      -0.032
      -0.075
      -0.102
      -0.126
      -0.158
      -0.206
      -0.264
      -0.319
      -0.353
      -0.360
      -0.352
      -0.341
      -0.337
      -0.336
      -0.330
      -0.311
      -0.279
      -0.240
      -0.200
      -0.167
      -0.141
      -0.124
      -0.108
      -0.083
      -0.034
       0.050
       0.166
       0.302
       0.438
       0.561
       0.665
       0.747
       0.802
       0.819
       0.795
       0.737
       0.664
       0.597
       0.551
       0.522
       0.497
       0.463
       0.414
       0.355
       0.293
       0.232
       0.166
       0.096
       0.030
      -0.018
      -0.041
      -0.050
      -0.057
      -0.059
      -0.042
       0.003
       0.062
       0.108
       0.125
       0.125
       0.135
       0.169
       0.218
       0.256
       0.269
       0.267
       0.278
       0.321
       0.391
       0.455
       0.478
       0.447
       0.376
       0.287
       0.200
       0.134
       0.103
       0.113
       0.145
       0.169
       0.163
       0.128
       0.084
       0.052
       0.040
       0.044
       0.053
       0.065
       0.083
       0.115
       0.160
       0.210
       0.250
       0.270
       0.272
       0.266
       0.261
       0.256
       0.243
       0.216
       0.178
       0.145
       0.130
       0.137
       0.157
       0.175
       0.183
       0.187
       0.195
       0.209
       0.222
       0.225
       0.224
       0.237
       0.278
       0.347
       0.428
       0.503
       0.559
       0.595
       0.615
       0.629
       0.640
       0.647
       0.648
       0.637
       0.613
       0.576
       0.531
       0.485
       0.437
       0.382
       0.312
       0.224
       0.124
       0.024
      -0.064
      -0.137
      -0.195
      -0.239
      -0.274
      -0.302
      -0.330
      -0.367
      -0.423
      -0.499
      -0.589
      -0.677
      -0.751
      -0.809
      -0.855
      -0.886
      -0.889
      -0.848
      -0.760
      -0.650
      -0.556
      -0.501
      -0.473
      -0.439
      -0.372
      -0.275
      -0.169
      -0.078
      -0.005
       0.063
       0.142
       0.235
       0.328
       0.406
       0.463
       0.507
       0.548
       0.592
       0.639
       0.681
       0.711
       0.727
       0.734
       0.739
       0.740
       0.729
       0.695
       0.634
       0.555
       0.476
       0.410
       0.361
       0.329
       0.308
       0.290
       0.266
       0.227
       0.163
       0.063
      -0.076
      -0.252
      -0.452
      -0.653
      -0.829
      -0.962
      -1.051
      -1.116
      -1.178
      -1.246
      -1.318
      -1.382
      -1.419
      -1.417
      -1.374
      -1.302
      -1.220
      -1.139
      -1.064
      -0.991
      -0.914
      -0.827
      -0.728
      -0.622
      -0.510
      -0.387
      -0.247
      -0.084
       0.091
       0.260
       0.403
       0.511
       0.585
       0.630
       0.652
       0.659
       0.663
       0.681
       0.718
       0.767
       0.811
       0.835
       0.833
       0.802
       0.741
       0.649
       0.531
       0.402
       0.283
       0.194
       0.140
       0.101
       0.054
      -0.013
      -0.080
      -0.117
      -0.111
      -0.085
      -0.079
      -0.125
      -0.219
      -0.329
      -0.420
      -0.478
      -0.521
      -0.576
      -0.653
      -0.739
      -0.809
      -0.842
      -0.830
      -0.782
      -0.717
      -0.652
      -0.597
      -0.554
      -0.528
      -0.523
      -0.532
      -0.542
      -0.535
      -0.506
      -0.459
      -0.404
      -0.349
      -0.303
      -0.268
      -0.245
      -0.232
      -0.222
      -0.204
      -0.164
      -0.094
      -0.006
       0.074
       0.129
       0.162
       0.189
       0.216
       0.237
       0.242
       0.228
       0.200
       0.163
       0.121
       0.076
       0.029
      -0.015
      -0.053
      -0.080
      -0.098
      -0.110
      -0.118
      -0.114
      -0.091
      -0.046
       0.005
       0.035
       0.027
      -0.020
      -0.085
      -0.151
      -0.208
      -0.255
      -0.297
      -0.332
      -0.352
      -0.348
      -0.326
      -0.304
      -0.305
      -0.331
      -0.360
      -0.369
      -0.348
      -0.309
      -0.272
      -0.250
      -0.244
      -0.246
      -0.245
      -0.228
      -0.189
      -0.127
      -0.058
      -0.009
      -0.008
      -0.061
      -0.146
      -0.231
      -0.289
      -0.322
      -0.348
      -0.388
      -0.445
      -0.502
      -0.532
      -0.523
      -0.489
      -0.460
      -0.452
      -0.460
      -0.464
      -0.453
      -0.429
      -0.401
      -0.378
      -0.357
      -0.324
      -0.268
      -0.194
      -0.124
      -0.084
      -0.079
      -0.085
      -0.066
      -0.006
       0.082
       0.160
       0.202
       0.210
       0.218
       0.261
       0.347
       0.439
       0.487
       0.465
       0.398
       0.330
       0.286
       0.256
       0.211
       0.132
       0.025
      -0.090
      -0.192
      -0.270
      -0.325
      -0.361
      -0.387
      -0.410
      -0.435
      -0.460
      -0.480
      -0.486
      -0.478
      -0.463
      -0.451
      -0.439
      -0.420
      -0.388
      -0.348
      -0.315
      -0.298
      -0.299
      -0.308
      -0.310
      -0.296
      -0.267
      -0.228
      -0.189
      -0.156
      -0.133
      -0.121
      -0.119
      -0.126
      -0.134
      -0.134
      -0.116
      -0.081
      -0.041
      -0.014
      -0.004
      -0.009
      -0.015
      -0.012
       0.001
       0.020
       0.042
       0.073
       0.121
       0.188
       0.264
       0.329
       0.371
       0.387
       0.381
       0.359
       0.326
       0.286
       0.243
       0.194
       0.136
       0.064
      -0.020
      -0.112
      -0.210
      -0.313
      -0.420
      -0.524
      -0.614
      -0.683
      -0.736
      -0.780
      -0.817
      -0.843
      -0.849
      -0.831
      -0.795
      -0.750
      -0.707
      -0.671
      -0.642
      -0.617
      -0.592
      -0.565
      -0.531
      -0.481
      -0.408
      -0.306
      -0.177
      -0.039
       0.088
       0.188
       0.258
       0.305
       0.333
       0.336
       0.316
       0.281
       0.247
       0.227
       0.224
       0.235
       0.254
       0.279
       0.309
       0.341
       0.365
       0.371
       0.354
       0.321
       0.282
       0.241
       0.194
       0.139
       0.087
       0.053
       0.046
       0.059
       0.074
       0.078
       0.061
       0.031
      -0.002
      -0.028
      -0.049
      -0.076
      -0.123
      -0.195
      -0.285
      -0.382
      -0.467
      -0.527
      -0.556
      -0.554
      -0.527
      -0.487
      -0.447
      -0.420
      -0.413
      -0.428
      -0.459
      -0.498
      -0.532
      -0.556
      -0.565
      -0.562
      -0.551
      -0.542
      -0.540
      -0.542
      -0.534
      -0.502
      -0.442
      -0.366
      -0.292
      -0.229
      -0.175
      -0.118
      -0.059
      -0.011
       0.012
       0.010
      -0.003
      -0.013
      -0.018
      -0.023
      -0.033
      -0.044
      -0.046
      -0.032
      -0.002
       0.033
       0.065
       0.086
       0.097
       0.098
       0.094
       0.090
       0.094
       0.113
       0.145
       0.183
       0.214
       0.226
       0.219
       0.209
       0.216
       0.247
       0.287
       0.308
       0.287
       0.232
       0.169
       0.125
       0.106
       0.096
       0.073
       0.026
      -0.039
      -0.108
      -0.168
      -0.221
      -0.275
      -0.343
      -0.424
      -0.508
      -0.578
      -0.629
      -0.667
      -0.700
      -0.735
      -0.768
      -0.792
      -0.799
      -0.785
      -0.752
      -0.704
      -0.648
      -0.586
      -0.520
      -0.449
      -0.374
      -0.302
      -0.244
      -0.211
      -0.200
      -0.199
      -0.189
      -0.152
      -0.087
      -0.009
       0.065
       0.127
       0.184
       0.250
       0.325
       0.393
       0.439
       0.460
       0.474
       0.504
       0.560
       0.629
       0.678
       0.681
       0.642
       0.589
       0.549
       0.515
       0.453
       0.326
       0.138
      -0.063
      -0.219
      -0.303
      -0.334
      -0.350
      -0.380
      -0.427
      -0.474
      -0.507
      -0.520
      -0.522
      -0.524
