Origin Time       06/12/2009 04:33:15
Lat.              35.8°N	
Long.             77.3°E	
Depth (Km)         60.0
Magnitude         5.3
 Region           CHINA-INDIA(J&K)-BORDER                                          
 Above details taken from IMD 
   
Station Code      RAM
Station Lat.       31.448
Station Long.      77.630
Station Height(m)  998.0
Site Class        A   Vs30 between 700 m/sec to 1400 m/sec * 
Record Time       06.12.2009 04:34:59.659
Sampling Rate     200. Hz
 Record Duration   67.435 Sec.
 Direction         Vert. (Up positive)
Max. Acceleration     -2.152 cm/sec**2
     
  * For reference see Site Classification link of website 
     
 Base Line Corrected and Low Pass Filtered (Cut Off at 35 Hz) Time History
 Acceleration data in cm/sec**2
    
[...]
      -0.140
       0.052
       0.187
       0.227
       0.189
       0.133
       0.121
       0.175
       0.262
       0.322
       0.310
       0.215
       0.065
      -0.093
      -0.219
      -0.287
      -0.294
      -0.253
      -0.190
      -0.125
      -0.072
      -0.027
       0.018
       0.066
       0.109
       0.135
       0.143
       0.143
       0.145
       0.143
       0.111
       0.023
      -0.121
      -0.288
      -0.423
      -0.475
      -0.425
      -0.293
      -0.127
       0.016
       0.100
       0.124
       0.115
       0.109
       0.126
       0.164
       0.207
       0.234
       0.232
       0.197
       0.135
       0.062
       0.004
      -0.015
       0.009
       0.052
       0.073
       0.043
      -0.028
      -0.100
      -0.130
      -0.105
      -0.044
       0.018
       0.051
       0.039
      -0.022
      -0.123
      -0.235
      -0.308
      -0.290
      -0.161
       0.048
       0.267
       0.419
       0.464
       0.409
       0.296
       0.169
       0.054
      -0.038
      -0.102
      -0.133
      -0.134
      -0.121
      -0.121
      -0.150
      -0.199
      -0.231
      -0.209
      -0.119
       0.017
       0.154
       0.243
       0.241
       0.132
      -0.065
      -0.285
      -0.444
      -0.473
      -0.359
      -0.157
       0.040
       0.157
       0.173
       0.126
       0.080
       0.085
       0.151
       0.249
       0.329
       0.346
       0.282
       0.157
       0.024
      -0.056
      -0.038
       0.078
       0.241
       0.364
       0.364
       0.211
      -0.052
      -0.324
      -0.515
      -0.588
      -0.570
      -0.512
      -0.437
      -0.332
      -0.172
       0.044
       0.274
       0.448
       0.513
       0.463
       0.345
       0.228
       0.161
       0.148
       0.150
       0.114
       0.013
      -0.136
      -0.287
      -0.387
      -0.411
      -0.380
      -0.342
      -0.343
      -0.391
      -0.449
      -0.456
      -0.366
      -0.182
       0.043
       0.244
       0.372
       0.425
       0.429
       0.411
       0.382
       0.336
       0.264
       0.172
       0.084
       0.026
       0.012
       0.037
       0.079
       0.111
       0.120
       0.112
       0.107
       0.121
       0.149
       0.162
       0.121
       0.001
      -0.182
      -0.375
      -0.510
      -0.536
      -0.445
      -0.273
      -0.082
       0.072
       0.157
       0.169
       0.129
       0.061
      -0.013
      -0.077
      -0.113
      -0.109
      -0.069
      -0.021
      -0.004
      -0.046
      -0.139
      -0.239
      -0.298
      -0.280
      -0.184
      -0.039
       0.113
       0.234
       0.311
       0.353
       0.382
       0.411
       0.424
       0.383
       0.261
       0.065
      -0.145
      -0.284
      -0.289
      -0.154
       0.064
       0.281
       0.428
       0.474
       0.419
       0.281
       0.092
      -0.107
      -0.271
      -0.375
      -0.430
      -0.475
      -0.548
      -0.655
      -0.754
      -0.776
      -0.659
      -0.390
      -0.018
       0.363
       0.658
       0.814
       0.830
       0.737
       0.575
       0.374
       0.162
      -0.027
      -0.160
      -0.212
      -0.192
      -0.139
      -0.103
      -0.115
      -0.168
      -0.217
      -0.212
      -0.129
       0.020
       0.182
       0.290
       0.282
       0.142
      -0.088
      -0.325
      -0.483
      -0.524
      -0.473
      -0.390
      -0.329
      -0.305
      -0.290
      -0.243
      -0.139
       0.006
       0.145
       0.224
       0.221
       0.159
       0.098
       0.104
       0.219
       0.437
       0.706
       0.947
       1.089
       1.091
       0.947
       0.684
       0.349
      -0.004
      -0.318
      -0.551
      -0.692
      -0.756
      -0.768
      -0.745
      -0.679
      -0.554
      -0.368
      -0.145
       0.069
       0.224
       0.292
       0.275
       0.195
       0.073
      -0.089
      -0.291
      -0.519
      -0.729
      -0.860
      -0.859
      -0.713
      -0.458
      -0.162
       0.105
       0.304
       0.435
       0.524
       0.591
       0.643
       0.673
       0.684
       0.686
       0.688
       0.681
       0.633
       0.511
       0.306
       0.047
      -0.208
      -0.384
      -0.425
      -0.319
      -0.112
       0.096
       0.194
       0.117
      -0.120
      -0.420
      -0.655
      -0.730
      -0.624
      -0.394
      -0.138
       0.060
       0.161
       0.171
       0.119
       0.033
      -0.063
      -0.140
      -0.164
      -0.106
       0.033
       0.214
       0.368
       0.431
       0.373
       0.221
       0.037
      -0.110
      -0.184
      -0.184
      -0.143
      -0.098
      -0.075
      -0.075
      -0.081
      -0.069
      -0.025
       0.044
       0.107
       0.131
       0.095
       0.002
      -0.124
      -0.255
      -0.370
      -0.463
      -0.532
      -0.580
      -0.605
      -0.600
      -0.545
      -0.410
      -0.169
       0.176
       0.576
       0.942
       1.181
       1.239
       1.127
       0.909
       0.669
       0.471
       0.344
       0.274
       0.225
       0.151
       0.027
      -0.144
      -0.331
      -0.496
      -0.610
      -0.656
      -0.630
      -0.536
      -0.399
      -0.263
      -0.169
      -0.134
      -0.128
      -0.102
      -0.019
       0.104
       0.205
       0.215
       0.103
      -0.107
      -0.352
      -0.561
      -0.687
      -0.705
      -0.615
      -0.444
      -0.242
      -0.064
       0.057
       0.133
       0.211
       0.331
       0.492
       0.646
       0.729
       0.704
       0.587
       0.435
       0.310
       0.245
       0.233
       0.246
       0.259
       0.267
       0.280
       0.304
       0.328
       0.324
       0.257
       0.108
      -0.114
      -0.376
      -0.631
      -0.838
      -0.968
      -1.006
      -0.951
      -0.811
      -0.615
      -0.403
      -0.218
      -0.091
      -0.023
       0.013
       0.058
       0.144
       0.271
       0.407
       0.500
       0.510
       0.434
       0.307
       0.188
       0.126
       0.133
       0.183
       0.223
       0.209
       0.128
       0.009
      -0.099
      -0.158
      -0.162
      -0.137
      -0.124
      -0.149
      -0.209
      -0.280
      -0.332
      -0.342
      -0.299
      -0.210
      -0.109
      -0.038
      -0.021
      -0.048
      -0.076
      -0.052
       0.058
       0.248
       0.477
       0.691
       0.837
       0.883
       0.816
       0.644
       0.394
       0.112
      -0.149
      -0.337
      -0.416
      -0.381
      -0.257
      -0.095
       0.057
       0.170
       0.241
       0.280
       0.287
       0.250
       0.143
      -0.049
      -0.308
      -0.584
      -0.808
      -0.929
      -0.938
      -0.862
      -0.745
      -0.613
      -0.470
      -0.309
      -0.142
      -0.004
       0.066
       0.054
      -0.006
      -0.046
       0.009
       0.190
       0.465
       0.738
       0.900
       0.879
       0.687
       0.413
       0.172
       0.041
       0.030
       0.091
       0.166
       0.208
       0.197
       0.126
       0.003
      -0.136
      -0.238
      -0.254
      -0.170
      -0.016
       0.145
       0.255
       0.274
       0.193
       0.025
      -0.192
      -0.403
      -0.542
      -0.561
      -0.451
      -0.253
      -0.040
       0.116
       0.173
       0.143
       0.077
       0.044
       0.086
       0.203
       0.346
       0.439
       0.419
       0.262
      -0.003
      -0.307
      -0.570
      -0.725
      -0.732
      -0.596
      -0.367
      -0.133
       0.017
       0.038
      -0.043
      -0.140
      -0.144
       0.011
       0.314
       0.674
       0.962
       1.064
       0.928
       0.581
       0.118
      -0.343
      -0.703
      -0.919
      -1.004
      -0.996
      -0.922
      -0.785
      -0.577
      -0.309
      -0.015
       0.259
       0.479
       0.629
       0.703
       0.699
       0.618
       0.480
       0.326
       0.206
       0.159
       0.184
       0.243
       0.277
       0.238
       0.118
      -0.052
      -0.208
      -0.287
      -0.255
      -0.122
       0.055
       0.198
       0.240
       0.162
       0.003
      -0.152
      -0.213
      -0.142
       0.013
       0.138
       0.113
      -0.111
      -0.478
      -0.854
      -1.096
      -1.121
      -0.935
      -0.616
      -0.267
       0.031
       0.247
       0.392
       0.502
       0.604
       0.704
       0.782
       0.802
       0.737
       0.580
       0.352
       0.096
      -0.142
      -0.329
      -0.459
      -0.548
      -0.605
      -0.621
      -0.572
      -0.445
      -0.263
      -0.079
       0.060
       0.142
       0.192
       0.238
       0.283
       0.298
       0.251
       0.146
       0.041
       0.018
       0.133
       0.377
       0.672
       0.901
       0.962
       0.817
       0.505
       0.131
      -0.186
      -0.368
      -0.409
      -0.363
      -0.308
      -0.308
      -0.390
      -0.548
      -0.753
      -0.961
      -1.119
      -1.176
      -1.106
      -0.911
      -0.628
      -0.312
      -0.010
       0.256
       0.493
       0.723
       0.955
       1.170
       1.330
       1.394
       1.342
       1.180
       0.930
       0.621
       0.281
      -0.060
      -0.373
      -0.631
      -0.817
      -0.926
      -0.967
      -0.954
      -0.897
      -0.801
      -0.666
      -0.498
      -0.312
      -0.141
      -0.019
       0.030
       0.013
      -0.029
      -0.032
       0.074
       0.321
       0.687
       1.083
       1.385
       1.479
       1.310
       0.903
       0.349
      -0.225
      -0.701
      -0.997
      -1.087
      -1.015
      -0.879
      -0.779
      -0.758
      -0.770
      -0.706
      -0.477
      -0.079
       0.393
       0.806
       1.059
       1.126
       1.044
       0.869
       0.642
       0.379
       0.093
      -0.188
      -0.417
      -0.543
      -0.542
      -0.426
      -0.250
      -0.089
      -0.007
      -0.033
      -0.151
      -0.309
      -0.442
      -0.495
      -0.439
      -0.280
      -0.066
       0.131
       0.241
       0.228
       0.105
      -0.073
      -0.236
      -0.321
      -0.285
      -0.117
       0.161
       0.488
       0.772
       0.929
       0.923
       0.789
       0.608
       0.456
       0.366
       0.317
       0.256
       0.133
      -0.075
      -0.359
      -0.681
      -0.988
      -1.217
      -1.308
      -1.225
      -0.972
      -0.596
      -0.170
       0.233
       0.549
       0.738
       0.781
       0.684
       0.477
       0.212
      -0.049
      -0.253
      -0.378
      -0.429
      -0.427
      -0.382
      -0.293
      -0.151
       0.052
       0.305
       0.572
       0.797
       0.923
       0.904
       0.722
       0.399
      -0.007
      -0.414
      -0.738
      -0.926
      -0.960
      -0.852
      -0.621
      -0.286
       0.124
       0.563
       0.959
       1.238
       1.340
       1.240
       0.961
       0.562
       0.132
      -0.244
      -0.508
      -0.654
      -0.712
      -0.727
      -0.730
      -0.724
      -0.703
      -0.672
      -0.655
      -0.678
      -0.738
      -0.780
      -0.719
      -0.481
      -0.044
       0.534
       1.129
       1.601
       1.844
       1.819
       1.547
       1.090
       0.527
      -0.057
      -0.582
      -0.989
      -1.253
      -1.386
      -1.418
      -1.364
      -1.208
      -0.920
      -0.490
       0.047
       0.608
       1.084
       1.380
       1.449
       1.310
       1.037
       0.721
       0.426
       0.166
      -0.081
      -0.341
      -0.618
      -0.882
      -1.078
      -1.142
      -1.022
      -0.710
      -0.258
       0.231
       0.640
       0.890
       0.963
       0.900
       0.765
       0.612
       0.462
       0.303
       0.109
      -0.137
      -0.416
      -0.684
      -0.889
      -0.995
      -0.996
      -0.911
      -0.771
      -0.600
      -0.413
      -0.216
      -0.029
       0.116
       0.193
       0.211
       0.213
       0.246
       0.325
       0.422
       0.481
       0.465
       0.384
       0.282
       0.214
       0.202
       0.236
       0.289
       0.345
       0.411
       0.496
       0.591
       0.659
       0.644
       0.501
       0.220
      -0.166
      -0.573
      -0.897
      -1.041
      -0.968
      -0.719
      -0.408
      -0.161
      -0.054
      -0.082
      -0.175
      -0.242
      -0.222
      -0.106
       0.072
       0.253
       0.383
       0.423
       0.368
       0.245
       0.104
       0.001
      -0.030
       0.010
       0.086
       0.138
       0.119
       0.013
      -0.149
      -0.305
      -0.392
      -0.376
      -0.266
      -0.119
      -0.012
      -0.012
      -0.141
      -0.358
      -0.576
      -0.697
      -0.649
      -0.413
      -0.023
       0.442
       0.877
       1.183
       1.297
       1.216
       0.992
       0.699
       0.397
       0.109
      -0.167
      -0.439
      -0.705
      -0.955
      -1.161
      -1.277
      -1.237
      -0.996
      -0.560
      -0.003
       0.552
       0.989
       1.247
       1.336
       1.322
       1.284
       1.268
       1.267
       1.225
       1.072
       0.753
       0.260
      -0.355
      -0.994
      -1.547
      -1.933
      -2.126
      -2.152
      -2.054
      -1.865
      -1.586
      -1.202
      -0.704
      -0.126
       0.450
       0.920
       1.207
       1.291
       1.211
       1.037
       0.841
       0.679
       0.571
       0.496
       0.399
       0.226
      -0.026
      -0.292
      -0.463
      -0.448
      -0.226
       0.141
       0.525
       0.783
       0.811
       0.581
       0.157
      -0.334
      -0.747
      -0.979
      -0.998
      -0.851
      -0.624
      -0.403
      -0.228
      -0.088
       0.054
       0.235
       0.464
       0.719
       0.954
       1.118
       1.178
       1.129
       0.985
       0.759
       0.457
       0.089
      -0.316
      -0.701
      -1.004
      -1.180
      -1.211
      -1.101
      -0.879
      -0.594
      -0.315
      -0.107
      -0.009
      -0.016
      -0.082
      -0.145
      -0.160
      -0.115
      -0.035
       0.035
       0.065
       0.043
      -0.024
      -0.114
      -0.188
      -0.198
      -0.107
       0.078
       0.297
       0.462
       0.507
       0.425
       0.273
       0.132
       0.062
       0.068
       0.112
       0.145
       0.141
       0.108
       0.068
       0.040
       0.029
       0.041
       0.091
       0.202
       0.385
       0.618
       0.840
       0.974
       0.960
       0.778
       0.456
       0.039
      -0.423
      -0.888
      -1.302
      -1.592
      -1.680
      -1.511
      -1.098
      -0.528
       0.055
       0.509
       0.744
       0.767
       0.672
       0.590
       0.615
       0.743
       0.872
       0.862
       0.615
       0.142
      -0.431
      -0.924
      -1.200
      -1.228
      -1.085
      -0.885
      -0.713
      -0.587
      -0.481
      -0.367
      -0.229
      -0.066
       0.127
       0.362
       0.654
       0.999
       1.356
       1.647
       1.772
       1.660
       1.298
       0.753
       0.144
      -0.397
      -0.783
      -1.002
      -1.111
      -1.184
      -1.262
      -1.321
      -1.309
      -1.189
      -0.966
      -0.671
      -0.331
       0.049
       0.464
       0.877
       1.208
       1.365
       1.300
       1.049
       0.721
       0.435
       0.258
       0.186
       0.174
       0.188
       0.217
       0.261
       0.299
       0.304
       0.261
       0.186
       0.107
       0.035
      -0.043
      -0.164
      -0.351
      -0.603
      -0.887
      -1.153
      -1.349
      -1.431
      -1.376
      -1.193
      -0.929
      -0.650
      -0.413
      -0.233
      -0.080
       0.089
       0.304
       0.564
       0.844
       1.102
       1.282
       1.331
       1.223
       0.992
       0.724
       0.515
       0.414
       0.395
       0.383
       0.296
       0.091
      -0.209
      -0.519
      -0.717
      -0.708
      -0.474
      -0.101
       0.254
       0.441
       0.395
       0.164
      -0.130
      -0.360
      -0.452
      -0.409
      -0.303
      -0.230
      -0.270
      -0.433
      -0.656
      -0.825
      -0.844
      -0.694
      -0.441
      -0.196
      -0.039
       0.023
       0.050
       0.113
       0.253
       0.459
       0.687
       0.882
       1.001
       1.016
       0.912
       0.695
       0.410
       0.145
      -0.004
       0.014
       0.166
       0.347
       0.449
       0.413
       0.260
       0.060
      -0.128
      -0.286
      -0.437
      -0.615
      -0.824
      -1.040
      -1.214
      -1.298
      -1.259
      -1.099
      -0.861
      -0.603
      -0.368
      -0.154
       0.075
       0.361
       0.712
       1.088
       1.407
       1.591
       1.596
       1.427
       1.123
       0.723
       0.265
      -0.206
      -0.614
      -0.872
      -0.929
      -0.804
      -0.587
      -0.393
      -0.303
      -0.325
      -0.391
      -0.406
      -0.317
      -0.147
       0.009
       0.050
      -0.058
      -0.256
      -0.421
      -0.435
      -0.249
       0.096
       0.489
       0.800
       0.938
       0.885
       0.696
       0.466
       0.277
       0.161
       0.097
       0.041
      -0.042
      -0.150
      -0.244
      -0.262
      -0.154
       0.075
       0.355
       0.571
       0.625
       0.483
       0.189
      -0.162
      -0.483
      -0.714
      -0.828
      -0.814
      -0.676
      -0.445
      -0.189
       0.001
       0.044
      -0.078
      -0.301
      -0.505
      -0.575
      -0.470
      -0.254
      -0.051
       0.029
      -0.039
      -0.188
      -0.302
      -0.293
      -0.144
       0.104
       0.390
       0.668
       0.915
       1.110
       1.220
       1.211
       1.060
       0.781
       0.424
       0.057
      -0.255
      -0.475
      -0.599
      -0.644
      -0.623
      -0.535
      -0.375
      -0.160
       0.060
       0.215
       0.263
       0.216
       0.128
       0.055
       0.021
       0.012
      -0.001
      -0.041
      -0.116
      -0.213
      -0.298
      -0.325
      -0.259
      -0.104
       0.082
       0.214
       0.218
       0.072
      -0.189
      -0.479
      -0.695
      -0.752
      -0.620
      -0.330
       0.037
       0.388
       0.649
       0.778
       0.762
       0.614
       0.373
       0.104
      -0.114
      -0.229
      -0.236
      -0.186
      -0.143
      -0.147
      -0.180
      -0.194
      -0.146
      -0.044
       0.058
       0.091
       0.020
      -0.130
      -0.291
      -0.380
      -0.340
      -0.155
       0.134
       0.442
       0.668
       0.751
       0.709
       0.620
       0.568
       0.572
       0.569
       0.456
       0.166
      -0.272
      -0.736
      -1.077
      -1.195
      -1.082
      -0.809
      -0.479
      -0.175
       0.058
       0.213
       0.305
       0.352
       0.366
       0.351
       0.314
       0.259
