Origin Time       21/10/2008 15:09:06
Lat.              31.5 N 
Long.             77.3 E 
Depth (Km)         10.0
Magnitude         4.5
 Region           KULLU-HIMACHAL-PRADESH                                           
 Above details taken from IMD 
   
Station Code      RAM
Station Lat.       31.448
Station Long.      77.630
Station Height(m)  998.0
Site Class        A   Vs30 between 700 m/sec to 1400 m/sec * 
Record Time       21.10.2008 15:09:04.344
Sampling Rate     200. Hz
 Record Duration   30.010 Sec.
 Direction         Vert. (Up positive)
Max. Acceleration     -7.553 cm/sec**2
     
  * For reference see Site Classification link of website 
     
 Base Line Corrected and Low Pass Filtered (Cut Off at 35 Hz) Time History
 Acceleration data in cm/sec**2
    
[...]
       0.045
       0.043
       0.025
       0.004
      -0.008
      -0.010
      -0.003
       0.013
       0.039
       0.067
       0.080
       0.062
       0.018
      -0.032
      -0.062
      -0.063
      -0.045
      -0.028
      -0.018
      -0.007
       0.019
       0.061
       0.101
       0.120
       0.112
       0.093
       0.080
       0.081
       0.081
       0.069
       0.047
       0.031
       0.034
       0.052
       0.073
       0.081
       0.067
       0.035
       0.006
      -0.003
       0.010
       0.030
       0.042
       0.041
       0.035
       0.032
       0.033
       0.030
       0.020
       0.005
      -0.012
      -0.027
      -0.035
      -0.030
      -0.011
       0.010
       0.021
       0.018
       0.008
      -0.001
      -0.014
      -0.041
      -0.084
      -0.126
      -0.145
      -0.134
      -0.108
      -0.086
      -0.072
      -0.060
      -0.045
      -0.038
      -0.049
      -0.076
      -0.099
      -0.101
      -0.078
      -0.039
      -0.001
       0.018
       0.005
      -0.039
      -0.100
      -0.156
      -0.187
      -0.178
      -0.122
      -0.014
       0.141
       0.327
       0.513
       0.658
       0.716
       0.658
       0.487
       0.238
      -0.036
      -0.289
      -0.500
      -0.663
      -0.780
      -0.855
      -0.899
      -0.927
      -0.952
      -0.971
      -0.960
      -0.887
      -0.726
      -0.470
      -0.136
       0.241
       0.611
       0.935
       1.189
       1.373
       1.496
       1.572
       1.606
       1.588
       1.491
       1.288
       0.961
       0.518
      -0.014
      -0.590
      -1.144
      -1.597
      -1.872
      -1.921
      -1.746
      -1.402
      -0.974
      -0.543
      -0.166
       0.130
       0.342
       0.488
       0.602
       0.721
       0.861
       0.991
       1.031
       0.875
       0.453
      -0.216
      -0.999
      -1.685
      -2.065
      -2.015
      -1.548
      -0.808
      -0.015
       0.609
       0.925
       0.935
       0.786
       0.706
       0.871
       1.299
       1.811
       2.122
       1.990
       1.351
       0.344
      -0.775
      -1.744
      -2.377
      -2.577
      -2.343
      -1.773
      -1.064
      -0.452
      -0.107
      -0.054
      -0.164
      -0.231
      -0.095
       0.275
       0.769
       1.212
       1.461
       1.451
       1.201
       0.786
       0.328
      -0.023
      -0.140
      -0.001
       0.281
       0.504
       0.489
       0.184
      -0.319
      -0.844
      -1.214
      -1.319
      -1.137
      -0.731
      -0.235
       0.184
       0.382
       0.311
       0.052
      -0.207
      -0.257
       0.013
       0.532
       1.045
       1.231
       0.899
       0.118
      -0.806
      -1.497
      -1.709
      -1.414
      -0.755
       0.067
       0.860
       1.442
       1.651
       1.424
       0.862
       0.203
      -0.307
      -0.534
      -0.477
      -0.209
       0.168
       0.519
       0.681
       0.510
      -0.011
      -0.692
      -1.194
      -1.223
      -0.744
      -0.049
       0.404
       0.286
      -0.399
      -1.339
      -2.123
      -2.448
      -2.204
      -1.448
      -0.340
       0.886
       1.950
       2.577
       2.594
       2.036
       1.176
       0.446
       0.213
       0.554
       1.167
       1.506
       1.101
      -0.155
      -1.917
      -3.525
      -4.304
      -3.875
      -2.365
      -0.365
       1.354
       2.263
       2.339
       1.989
       1.718
       1.784
       2.079
       2.275
       2.060
       1.316
       0.180
      -1.016
      -1.893
      -2.212
      -2.016
      -1.593
      -1.273
      -1.172
      -1.128
      -0.893
      -0.416
       0.051
       0.164
      -0.187
      -0.747
      -1.084
      -0.908
      -0.250
       0.627
       1.433
       1.965
       2.103
       1.790
       1.097
       0.283
      -0.296
      -0.416
      -0.155
       0.170
       0.254
       0.021
      -0.369
      -0.678
      -0.749
      -0.538
      -0.088
       0.497
       1.047
       1.380
       1.401
       1.161
       0.800
       0.411
      -0.033
      -0.608
      -1.279
      -1.846
      -2.050
      -1.775
      -1.156
      -0.502
      -0.099
      -0.049
      -0.238
      -0.447
      -0.483
      -0.263
       0.150
       0.572
       0.765
       0.576
       0.073
      -0.416
      -0.448
       0.251
       1.548
       2.886
       3.586
       3.247
       1.993
       0.372
      -0.966
      -1.605
      -1.509
      -0.968
      -0.422
      -0.247
      -0.569
      -1.192
      -1.709
      -1.746
      -1.190
      -0.248
       0.685
       1.256
       1.353
       1.139
       0.918
       0.893
       0.997
       0.939
       0.447
      -0.451
      -1.358
      -1.737
      -1.304
      -0.287
       0.669
       0.891
       0.153
      -1.133
      -2.152
      -2.228
      -1.292
       0.079
       1.072
       1.179
       0.464
      -0.598
      -1.492
      -1.927
      -1.850
      -1.326
      -0.448
       0.647
       1.755
       2.635
       3.113
       3.168
       2.910
       2.477
       1.921
       1.216
       0.367
      -0.504
      -1.215
      -1.676
      -1.944
      -2.127
      -2.211
      -2.053
      -1.549
      -0.822
      -0.201
       0.019
      -0.189
      -0.574
      -0.834
      -0.832
      -0.614
      -0.265
       0.219
       0.893
       1.731
       2.524
       2.965
       2.845
       2.225
       1.424
       0.802
       0.517
       0.447
       0.331
      -0.005
      -0.545
      -1.163
      -1.747
      -2.223
      -2.484
      -2.354
      -1.699
      -0.607
       0.559
       1.329
       1.422
       0.913
       0.154
      -0.461
      -0.696
      -0.534
      -0.119
       0.342
       0.673
       0.786
       0.704
       0.505
       0.237
      -0.096
      -0.453
      -0.664
      -0.492
       0.170
       1.128
       1.947
       2.207
       1.765
       0.808
      -0.293
      -1.175
      -1.587
      -1.416
      -0.699
       0.340
       1.300
       1.748
       1.464
       0.626
      -0.270
      -0.741
      -0.651
      -0.256
       0.037
      -0.038
      -0.505
      -1.251
      -2.135
      -2.967
      -3.442
      -3.218
      -2.173
      -0.595
       0.942
       1.947
       2.316
       2.286
       2.151
       2.003
       1.732
       1.236
       0.603
       0.070
      -0.176
      -0.177
      -0.157
      -0.322
      -0.678
      -1.025
      -1.097
      -0.715
       0.114
       1.181
       2.123
       2.554
       2.209
       1.080
      -0.529
      -2.085
      -3.054
      -3.149
      -2.457
      -1.367
      -0.360
       0.232
       0.380
       0.314
       0.323
       0.536
       0.867
       1.146
       1.266
       1.226
       1.042
       0.659
      -0.007
      -0.944
      -1.942
      -2.642
      -2.723
      -2.091
      -0.938
       0.360
       1.413
       1.962
       1.948
       1.491
       0.827
       0.237
      -0.042
       0.090
       0.528
       1.015
       1.297
       1.263
       0.968
       0.550
       0.161
      -0.054
       0.021
       0.380
       0.806
       0.935
       0.475
      -0.581
      -1.919
      -3.066
      -3.595
      -3.274
      -2.141
      -0.516
       1.086
       2.177
       2.536
       2.306
       1.849
       1.481
       1.291
       1.168
       0.953
       0.573
       0.024
      -0.704
      -1.621
      -2.618
      -3.382
      -3.504
      -2.725
      -1.121
       0.899
       2.730
       3.765
       3.596
       2.213
       0.106
      -1.860
      -2.825
      -2.391
      -0.858
       0.947
       2.146
       2.279
       1.466
       0.214
      -0.925
      -1.604
      -1.736
      -1.434
      -0.919
      -0.455
      -0.276
      -0.470
      -0.896
      -1.209
      -1.049
      -0.253
       1.029
       2.403
       3.417
       3.728
       3.188
       1.860
       0.029
      -1.813
      -3.045
      -3.138
      -1.975
      -0.052
       1.670
       2.285
       1.496
      -0.215
      -1.915
      -2.776
      -2.478
      -1.251
       0.337
       1.645
       2.191
       1.800
       0.682
      -0.650
      -1.622
      -1.868
      -1.362
      -0.363
       0.756
       1.632
       1.975
       1.612
       0.574
      -0.838
      -2.095
      -2.646
      -2.202
      -0.908
       0.723
       2.078
       2.755
       2.697
       2.133
       1.412
       0.847
       0.620
       0.744
       1.071
       1.351
       1.321
       0.808
      -0.199
      -1.526
      -2.830
      -3.656
      -3.578
      -2.433
      -0.502
       1.550
       3.007
       3.465
       2.963
       1.843
       0.518
      -0.661
      -1.446
      -1.740
      -1.617
      -1.286
      -0.977
      -0.855
      -0.996
      -1.377
      -1.839
      -2.088
      -1.794
      -0.773
       0.843
       2.586
       3.807
       3.982
       3.003
       1.299
      -0.346
      -1.211
      -1.032
      -0.123
       0.855
       1.310
       1.030
       0.242
      -0.556
      -0.883
      -0.529
       0.301
       1.087
       1.291
       0.711
      -0.399
      -1.521
      -2.233
      -2.434
      -2.293
      -2.015
      -1.661
      -1.158
      -0.464
       0.314
       0.946
       1.225
       1.081
       0.610
       0.023
      -0.421
      -0.506
      -0.167
       0.450
       1.038
       1.285
       1.045
       0.434
      -0.230
      -0.589
      -0.423
       0.249
       1.149
       1.851
       1.993
       1.502
       0.648
      -0.136
      -0.548
      -0.580
      -0.432
      -0.290
      -0.182
      -0.035
       0.155
       0.258
       0.101
      -0.358
      -0.945
      -1.345
      -1.303
      -0.797
      -0.064
       0.542
       0.756
       0.531
       0.012
      -0.593
      -1.122
      -1.462
      -1.494
      -1.123
      -0.382
       0.518
       1.294
       1.788
       2.017
       2.064
       1.940
       1.618
       1.157
       0.717
       0.418
       0.203
      -0.088
      -0.520
      -0.979
      -1.275
      -1.317
      -1.169
      -0.963
      -0.812
      -0.784
      -0.913
      -1.196
      -1.560
      -1.889
      -2.093
      -2.132
      -1.937
      -1.356
      -0.256
       1.265
       2.812
       3.880
       4.155
       3.665
       2.682
       1.514
       0.384
      -0.566
      -1.225
      -1.509
      -1.391
      -0.918
      -0.190
       0.662
       1.474
       2.036
       2.127
       1.623
       0.590
      -0.694
      -1.816
      -2.393
      -2.258
      -1.539
      -0.564
       0.350
       1.035
       1.420
       1.423
       0.973
       0.178
      -0.599
      -0.924
      -0.632
       0.004
       0.457
       0.334
      -0.353
      -1.244
      -1.917
      -2.156
      -2.010
      -1.646
      -1.187
      -0.656
      -0.030
       0.677
       1.379
       1.949
       2.265
       2.242
       1.838
       1.067
       0.053
      -0.937
      -1.568
      -1.601
      -1.027
      -0.056
       1.019
       1.946
       2.543
       2.656
       2.152
       0.992
      -0.655
      -2.368
      -3.571
      -3.788
      -2.914
      -1.323
       0.311
       1.366
       1.583
       1.148
       0.549
       0.312
       0.736
       1.743
       2.894
       3.585
       3.331
       2.017
      -0.045
      -2.261
      -4.002
      -4.814
      -4.528
      -3.288
      -1.511
       0.238
       1.461
       1.920
       1.673
       0.973
       0.119
      -0.604
      -0.967
      -0.865
      -0.409
       0.091
       0.320
       0.239
       0.204
       0.717
       1.967
       3.516
       4.477
       4.087
       2.243
      -0.396
      -2.797
      -4.114
      -4.076
      -3.010
      -1.598
      -0.518
      -0.140
      -0.396
      -0.894
      -1.198
      -1.079
      -0.582
       0.085
       0.703
       1.125
       1.297
       1.247
       1.066
       0.868
       0.750
       0.777
       0.990
       1.448
       2.200
       3.173
       4.023
       4.153
       3.034
       0.645
      -2.336
      -4.851
      -6.049
      -5.703
      -4.185
      -2.153
      -0.204
       1.294
       2.200
       2.509
       2.275
       1.572
       0.522
      -0.651
      -1.638
      -2.163
      -2.124
      -1.621
      -0.842
       0.060
       0.992
       1.845
       2.460
       2.686
       2.483
       1.931
       1.133
       0.123
      -1.064
      -2.223
      -2.945
      -2.860
      -1.971
      -0.718
       0.369
       1.125
       1.857
       2.942
       4.319
       5.408
       5.527
       4.409
       2.340
      -0.089
      -2.339
      -4.074
      -5.132
      -5.466
      -5.123
      -4.239
      -3.001
      -1.606
      -0.246
       0.899
       1.719
       2.251
       2.686
       3.222
       3.809
       4.035
       3.347
       1.517
      -1.021
      -3.324
      -4.493
      -4.217
      -2.875
      -1.188
       0.253
       1.200
       1.677
       1.795
       1.664
       1.418
       1.224
       1.214
       1.423
       1.818
       2.359
       2.988
       3.550
       3.770
       3.365
       2.230
       0.559
      -1.208
      -2.568
      -3.182
      -3.020
      -2.384
      -1.801
      -1.805
      -2.686
      -4.316
      -6.153
      -7.447
      -7.553
      -6.190
      -3.558
      -0.282
       2.795
       4.907
       5.642
       5.072
       3.676
       2.130
       1.038
       0.731
       1.198
       2.150
       3.176
       3.889
       4.008
       3.418
       2.210
       0.686
      -0.725
      -1.637
      -1.905
      -1.731
      -1.578
      -1.893
      -2.800
      -3.972
      -4.798
      -4.738
      -3.610
      -1.661
       0.564
       2.409
       3.300
       2.949
       1.508
      -0.445
      -2.181
      -3.190
      -3.380
      -2.961
      -2.135
      -0.920
       0.734
       2.652
       4.311
       5.060
       4.534
       2.928
       0.920
      -0.689
      -1.344
      -0.921
       0.302
       1.806
       3.015
       3.470
       2.977
       1.670
      -0.042
      -1.630
      -2.634
      -2.817
      -2.236
      -1.250
      -0.460
      -0.513
      -1.771
      -3.989
      -6.247
      -7.316
      -6.297
      -3.190
       0.996
       4.686
       6.501
       5.904
       3.392
       0.174
      -2.440
      -3.573
      -3.034
      -1.242
       1.039
       3.013
       4.095
       4.009
       2.766
       0.612
      -1.980
      -4.322
      -5.653
      -5.413
      -3.530
      -0.532
       2.619
       4.897
       5.635
       4.810
       3.046
       1.296
       0.315
       0.251
       0.615
       0.702
       0.132
      -0.878
      -1.718
      -1.877
      -1.337
      -0.582
      -0.249
      -0.689
      -1.744
      -2.863
      -3.444
      -3.146
      -2.003
      -0.310
       1.561
       3.294
       4.639
       5.363
       5.256
       4.237
       2.492
       0.493
      -1.173
      -2.093
      -2.235
      -1.911
      -1.523
      -1.277
      -1.081
      -0.677
       0.082
       1.037
       1.722
       1.623
       0.540
      -1.181
      -2.775
      -3.497
      -3.058
      -1.751
      -0.191
       1.071
       1.778
       1.948
       1.733
       1.299
       0.787
       0.300
      -0.075
      -0.260
      -0.216
      -0.013
       0.126
      -0.090
      -0.851
      -2.082
      -3.411
      -4.299
      -4.304
      -3.320
      -1.646
       0.162
       1.569
       2.296
       2.399
       2.174
       1.958
       1.956
       2.177
       2.500
       2.812
       3.090
       3.361
       3.581
       3.576
       3.114
       2.085
       0.634
      -0.859
      -1.985
      -2.557
      -2.717
      -2.789
      -3.003
      -3.307
      -3.428
      -3.101
      -2.277
      -1.157
      -0.064
       0.712
       1.008
       0.824
       0.343
      -0.124
      -0.287
      -0.045
       0.454
       0.930
       1.210
       1.363
       1.617
       2.103
       2.683
       3.033
       2.923
       2.442
       1.919
       1.606
       1.404
       0.923
      -0.159
      -1.760
      -3.373
      -4.372
      -4.388
      -3.483
      -2.053
      -0.586
       0.545
       1.170
       1.306
       1.100
       0.756
       0.442
       0.218
       0.011
      -0.311
      -0.825
      -1.481
      -2.143
      -2.683
      -3.022
      -3.077
      -2.722
      -1.863
      -0.570
       0.861
       2.023
       2.637
       2.734
       2.621
       2.636
       2.855
       3.000
       2.635
       1.527
      -0.101
      -1.628
      -2.382
      -2.030
      -0.736
       0.956
       2.405
       3.133
       2.964
       2.032
       0.689
      -0.669
      -1.770
      -2.531
      -2.962
      -3.025
      -2.628
      -1.756
      -0.599
       0.502
       1.262
       1.609
       1.633
       1.394
       0.811
      -0.227
      -1.633
      -3.043
      -3.998
      -4.238
      -3.836
      -3.050
      -2.060
      -0.848
       0.699
       2.571
       4.524
       6.123
       6.917
       6.611
       5.190
       2.963
       0.495
      -1.604
      -2.928
      -3.430
      -3.341
      -2.959
      -2.478
      -1.984
      -1.553
      -1.282
      -1.205
      -1.206
      -1.077
      -0.687
      -0.132
       0.308
       0.380
       0.063
      -0.406
      -0.699
      -0.613
      -0.172
       0.437
       1.001
       1.354
       1.385
       1.024
       0.295
      -0.624
      -1.437
      -1.871
      -1.838
      -1.463
      -0.953
      -0.413
       0.200
       0.961
       1.815
       2.554
       2.944
       2.868
       2.389
       1.701
       1.026
       0.516
       0.191
      -0.060
      -0.385
      -0.839
      -1.309
      -1.571
      -1.418
      -0.787
       0.210
       1.312
       2.145
       2.283
       1.399
      -0.517
      -2.988
      -5.164
      -6.204
      -5.708
      -3.905
      -1.472
       0.841
       2.529
       3.427
       3.608
       3.236
       2.509
       1.665
       0.974
       0.652
       0.730
       1.013
       1.187
       1.014
       0.487
      -0.174
      -0.682
      -0.891
      -0.877
      -0.864
      -1.048
      -1.461
      -1.955
      -2.289
      -2.269
      -1.854
      -1.164
      -0.377
       0.390
       1.116
       1.794
       2.338
       2.594
       2.462
       2.010
       1.447
       1.002
       0.783
       0.733
       0.667
       0.358
      -0.349
      -1.423
      -2.587
      -3.364
      -3.297
      -2.220
      -0.419
       1.452
       2.676
       2.843
       2.039
       0.736
      -0.521
      -1.390
      -1.781
      -1.724
      -1.245
      -0.390
       0.688
       1.707
       2.381
       2.582
       2.386
       1.991
       1.574
       1.222
       0.924
       0.587
       0.080
      -0.685
      -1.637
      -2.521
      -3.019
      -2.956
      -2.443
      -1.803
      -1.339
      -1.126
      -1.006
      -0.759
      -0.285
       0.332
       0.903
       1.248
