Origin Time       1/5/2013 06:57:12	  UTC
Lat.              33.1 N	
Long.             75.8 E	
Depth (Km)         15.0
Magnitude         5.8
 Region           JK-HP-Border                                                     
 Above details taken from IMD 
    
Station Code      RAM
Station Lat.       31.448  N
Station Long.      77.630  E
Station Height(m)  998.0
Site Class        A   Vs30 between 700 m/sec to 1400 m/sec * 
Record Time       01.05.2013 06:57:34.804 UTC
Sampling Rate     200. Hz
 Record Duration  116.450 Sec.
 Direction         N-S (N positive)
Max. Acceleration     12.342 cm/sec**2
     
  * For reference see Site Classification link of website 
     
 Base Line Corrected and Low Pass Filtered (Cut Off at 35 Hz) Time History
 Acceleration data in cm/sec**2
    
[...]
       0.577
       0.773
       0.966
       1.130
       1.244
       1.291
       1.250
       1.100
       0.832
       0.468
       0.048
      -0.395
      -0.857
      -1.360
      -1.918
      -2.509
      -3.064
      -3.496
      -3.738
      -3.769
      -3.608
      -3.294
      -2.862
      -2.337
      -1.743
      -1.103
      -0.445
       0.200
       0.805
       1.352
       1.833
       2.234
       2.528
       2.680
       2.662
       2.485
       2.203
       1.900
       1.655
       1.511
       1.459
       1.462
       1.488
       1.533
       1.623
       1.779
       1.990
       2.209
       2.368
       2.415
       2.326
       2.107
       1.781
       1.378
       0.928
       0.457
      -0.007
      -0.435
      -0.799
      -1.088
      -1.318
      -1.532
      -1.765
      -2.015
      -2.245
      -2.414
      -2.517
      -2.578
      -2.626
      -2.669
      -2.698
      -2.713
      -2.735
      -2.793
      -2.891
      -2.985
      -3.004
      -2.888
      -2.629
      -2.263
      -1.841
      -1.396
      -0.942
      -0.488
      -0.052
       0.345
       0.701
       1.046
       1.430
       1.903
       2.492
       3.188
       3.937
       4.654
       5.245
       5.640
       5.806
       5.753
       5.522
       5.163
       4.711
       4.181
       3.572
       2.874
       2.076
       1.174
       0.195
      -0.797
      -1.702
      -2.423
      -2.909
      -3.175
      -3.289
      -3.322
      -3.324
      -3.318
      -3.314
      -3.321
      -3.338
      -3.348
      -3.316
      -3.209
      -3.013
      -2.741
      -2.426
      -2.102
      -1.785
      -1.470
      -1.142
      -0.791
      -0.430
      -0.091
       0.188
       0.384
       0.495
       0.526
       0.492
       0.417
       0.340
       0.311
       0.374
       0.539
       0.776
       1.029
       1.257
       1.449
       1.620
       1.790
       1.973
       2.174
       2.400
       2.651
       2.910
       3.140
       3.288
       3.308
       3.167
       2.847
       2.343
       1.656
       0.808
      -0.152
      -1.144
      -2.073
      -2.858
      -3.458
      -3.874
      -4.124
      -4.225
      -4.188
      -4.031
      -3.786
      -3.496
      -3.207
      -2.958
      -2.775
      -2.668
      -2.621
      -2.590
      -2.511
      -2.321
      -1.981
      -1.491
      -0.882
      -0.196
       0.523
       1.237
       1.906
       2.492
       2.971
       3.337
       3.607
       3.806
       3.959
       4.085
       4.187
       4.264
       4.308
       4.308
       4.255
       4.143
       3.980
       3.791
       3.602
       3.426
       3.247
       3.028
       2.721
       2.285
       1.706
       1.001
       0.213
      -0.600
      -1.377
      -2.063
      -2.616
      -3.013
      -3.264
      -3.421
      -3.557
      -3.735
      -3.972
      -4.230
      -4.454
      -4.609
      -4.701
      -4.760
      -4.797
      -4.788
      -4.677
      -4.425
      -4.034
      -3.558
      -3.066
      -2.605
      -2.190
      -1.819
      -1.496
      -1.236
      -1.045
      -0.905
      -0.769
      -0.583
      -0.308
       0.064
       0.506
       0.961
       1.373
       1.714
       1.998
       2.273
       2.587
       2.970
       3.410
       3.863
       4.264
       4.551
       4.684
       4.652
       4.469
       4.170
       3.812
       3.463
       3.177
       2.972
       2.831
       2.729
       2.657
       2.636
       2.700
       2.863
       3.102
       3.347
       3.516
       3.535
       3.358
       2.963
       2.346
       1.533
       0.579
      -0.423
      -1.378
      -2.212
      -2.902
      -3.474
      -3.978
      -4.456
      -4.920
      -5.345
      -5.691
      -5.922
      -6.018
      -5.978
      -5.811
      -5.532
      -5.152
      -4.674
      -4.104
      -3.452
      -2.747
      -2.032
      -1.362
      -0.794
      -0.371
      -0.116
      -0.020
      -0.050
      -0.154
      -0.272
      -0.344
      -0.304
      -0.100
       0.288
       0.830
       1.459
       2.100
       2.702
       3.246
       3.728
       4.139
       4.441
       4.588
       4.551
       4.337
       3.987
       3.557
       3.095
       2.628
       2.159
       1.669
       1.121
       0.478
      -0.287
      -1.168
      -2.105
      -2.990
      -3.700
      -4.145
      -4.299
      -4.191
      -3.869
      -3.377
      -2.758
      -2.062
      -1.355
      -0.698
      -0.132
       0.324
       0.669
       0.923
       1.128
       1.343
       1.621
       1.982
       2.413
       2.871
       3.304
       3.662
       3.900
       3.988
       3.906
       3.638
       3.178
       2.543
       1.789
       1.008
       0.297
      -0.275
      -0.679
      -0.903
      -0.931
      -0.735
      -0.309
       0.305
       1.015
       1.701
       2.248
       2.569
       2.614
       2.372
       1.869
       1.155
       0.280
      -0.724
      -1.827
      -2.986
      -4.139
      -5.221
      -6.186
      -7.007
      -7.661
      -8.121
      -8.373
      -8.423
      -8.306
      -8.062
      -7.725
      -7.311
      -6.821
      -6.249
      -5.578
      -4.791
      -3.877
      -2.861
      -1.807
      -0.799
       0.114
       0.952
       1.787
       2.691
       3.677
       4.700
       5.698
       6.639
       7.526
       8.364
       9.132
       9.780
      10.258
      10.539
      10.613
      10.465
      10.064
       9.385
       8.438
       7.288
       6.026
       4.739
       3.481
       2.287
       1.186
       0.210
      -0.620
      -1.309
      -1.881
      -2.362
      -2.760
      -3.067
      -3.280
      -3.416
      -3.513
      -3.603
      -3.696
      -3.772
      -3.806
      -3.801
      -3.792
      -3.828
      -3.936
      -4.108
      -4.304
      -4.479
      -4.593
      -4.615
      -4.533
      -4.361
      -4.145
      -3.954
      -3.854
      -3.870
      -3.970
      -4.075
      -4.088
      -3.941
      -3.624
      -3.186
      -2.702
      -2.231
      -1.793
      -1.379
      -0.969
      -0.550
      -0.115
       0.348
       0.857
       1.438
       2.113
       2.892
       3.759
       4.661
       5.519
       6.248
       6.795
       7.152
       7.349
       7.426
       7.392
       7.225
       6.893
       6.382
       5.713
       4.924
       4.060
       3.170
       2.315
       1.557
       0.944
       0.491
       0.191
       0.024
      -0.037
      -0.030
      -0.003
      -0.008
      -0.084
      -0.247
      -0.475
      -0.727
      -0.956
      -1.145
      -1.308
      -1.477
      -1.667
      -1.861
      -2.017
      -2.097
      -2.093
      -2.030
      -1.955
      -1.924
      -1.989
      -2.189
      -2.547
      -3.056
      -3.670
      -4.317
      -4.917
      -5.418
      -5.802
      -6.082
      -6.269
      -6.355
      -6.316
      -6.139
      -5.841
      -5.469
      -5.068
      -4.651
      -4.190
      -3.635
      -2.951
      -2.149
      -1.279
      -0.404
       0.442
       1.261
       2.075
       2.893
       3.693
       4.425
       5.035
       5.492
       5.808
       6.019
       6.159
       6.233
       6.223
       6.106
       5.873
       5.536
       5.136
       4.732
       4.396
       4.188
       4.126
       4.176
       4.269
       4.332
       4.316
       4.198
       3.972
       3.638
       3.204
       2.693
       2.141
       1.586
       1.045
       0.515
      -0.011
      -0.518
      -0.967
      -1.323
      -1.581
      -1.773
      -1.949
      -2.160
      -2.451
      -2.856
      -3.400
      -4.082
      -4.857
      -5.634
      -6.302
      -6.780
      -7.047
      -7.148
      -7.144
      -7.076
      -6.952
      -6.766
      -6.534
      -6.283
      -6.028
      -5.733
      -5.329
      -4.766
      -4.046
      -3.226
      -2.372
      -1.517
      -0.653
       0.244
       1.183
       2.145
       3.087
       3.959
       4.700
       5.249
       5.564
       5.657
       5.599
       5.490
       5.407
       5.378
       5.385
       5.403
       5.412
       5.405
       5.374
       5.312
       5.213
       5.074
       4.879
       4.593
       4.180
       3.633
       2.999
       2.367
       1.830
       1.444
       1.214
       1.101
       1.049
       1.004
       0.932
       0.817
       0.661
       0.476
       0.281
       0.095
      -0.073
      -0.230
      -0.403
      -0.624
      -0.923
      -1.319
      -1.824
      -2.447
      -3.179
      -3.992
      -4.834
      -5.648
      -6.385
      -7.003
      -7.469
      -7.757
      -7.858
      -7.779
      -7.543
      -7.191
      -6.776
      -6.350
      -5.949
      -5.580
      -5.231
      -4.878
      -4.495
      -4.045
      -3.481
      -2.757
      -1.842
      -0.732
       0.550
       1.961
       3.440
       4.916
       6.325
       7.624
       8.781
       9.758
      10.490
      10.901
      10.945
      10.627
       9.996
       9.106
       7.999
       6.715
       5.322
       3.918
       2.609
       1.461
       0.497
      -0.291
      -0.906
      -1.337
      -1.581
      -1.660
      -1.616
      -1.490
      -1.309
      -1.097
      -0.888
      -0.727
      -0.654
      -0.680
      -0.804
      -1.025
      -1.367
      -1.856
      -2.496
      -3.248
      -4.045
      -4.822
      -5.531
      -6.135
      -6.583
      -6.801
      -6.711
      -6.272
      -5.502
      -4.490
      -3.368
      -2.272
      -1.297
      -0.468
       0.241
       0.872
       1.442
       1.937
       2.331
       2.624
       2.835
       2.986
       3.074
       3.077
       2.982
       2.818
       2.650
       2.542
       2.515
       2.533
       2.536
       2.483
       2.383
       2.265
       2.147
       2.014
       1.841
       1.630
       1.423
       1.277
       1.213
       1.188
       1.105
       0.864
       0.414
      -0.237
      -1.036
      -1.921
      -2.828
      -3.705
      -4.509
      -5.206
      -5.764
      -6.142
      -6.275
      -6.083
      -5.500
      -4.519
      -3.224
      -1.782
      -0.404
       0.732
       1.535
       2.015
       2.254
       2.354
       2.408
       2.494
       2.671
       2.968
       3.356
       3.749
       4.030
       4.118
       4.005
       3.745
       3.411
       3.039
       2.613
       2.104
       1.511
       0.880
       0.273
      -0.271
      -0.757
      -1.208
      -1.626
      -1.979
      -2.220
      -2.330
      -2.321
      -2.217
      -2.026
      -1.745
      -1.382
      -0.978
      -0.588
      -0.247
       0.053
       0.341
       0.629
       0.895
       1.111
       1.270
       1.403
       1.542
       1.681
       1.771
       1.762
       1.646
       1.475
       1.318
       1.207
       1.106
       0.932
       0.608
       0.108
      -0.533
      -1.239
      -1.926
      -2.524
      -2.992
      -3.314
      -3.506
      -3.600
      -3.628
      -3.599
      -3.491
      -3.267
      -2.917
      -2.487
      -2.075
      -1.785
      -1.683
      -1.762
      -1.961
      -2.191
      -2.367
      -2.420
      -2.290
      -1.926
      -1.293
      -0.390
       0.742
       2.020
       3.338
       4.593
       5.704
       6.603
       7.229
       7.527
       7.479
       7.125
       6.559
       5.896
       5.231
       4.608
       4.029
       3.466
       2.888
       2.274
       1.615
       0.920
       0.213
      -0.473
      -1.124
      -1.754
      -2.403
      -3.090
      -3.778
      -4.380
      -4.809
      -5.022
      -5.031
      -4.886
      -4.645
      -4.368
      -4.124
      -3.989
      -4.017
      -4.205
      -4.488
      -4.765
      -4.945
      -4.970
      -4.827
      -4.521
      -4.056
      -3.428
      -2.635
      -1.697
      -0.658
       0.419
       1.474
       2.463
       3.358
       4.149
       4.834
       5.415
       5.896
       6.274
       6.547
       6.715
       6.781
       6.740
       6.575
       6.268
       5.828
       5.304
       4.762
       4.245
       3.741
       3.186
       2.518
       1.721
       0.839
      -0.061
      -0.925
      -1.731
      -2.482
      -3.185
      -3.843
      -4.464
      -5.063
      -5.649
      -6.202
      -6.674
      -7.007
      -7.167
      -7.162
      -7.024
      -6.779
      -6.431
      -5.968
      -5.383
      -4.690
      -3.913
      -3.083
      -2.236
      -1.413
      -0.651
       0.048
       0.726
       1.453
       2.283
       3.220
       4.232
       5.277
       6.330
       7.376
       8.378
       9.267
       9.967
      10.420
      10.605
      10.519
      10.146
       9.450
       8.409
       7.057
       5.499
       3.876
       2.307
       0.854
      -0.480
      -1.724
      -2.914
      -4.076
      -5.217
      -6.313
      -7.321
      -8.187
      -8.872
      -9.362
      -9.666
      -9.802
      -9.786
      -9.628
      -9.338
      -8.920
      -8.362
      -7.633
      -6.711
      -5.622
      -4.454
      -3.326
      -2.337
      -1.530
      -0.902
      -0.429
      -0.097
       0.098
       0.162
       0.122
       0.044
       0.010
       0.094
       0.331
       0.715
       1.220
       1.838
       2.592
       3.529
       4.685
       6.041
       7.507
       8.939
      10.194
      11.179
      11.861
      12.246
      12.342
      12.148
      11.656
      10.872
       9.826
       8.578
       7.202
       5.770
       4.328
       2.890
       1.452
       0.017
      -1.395
      -2.745
      -3.997
      -5.125
      -6.129
      -7.034
      -7.876
      -8.671
      -9.389
      -9.960
     -10.303
     -10.366
     -10.139
      -9.656
      -8.979
      -8.183
      -7.340
      -6.500
      -5.688
      -4.912
      -4.181
      -3.495
      -2.843
      -2.211
      -1.598
      -1.022
      -0.503
      -0.039
       0.398
       0.821
       1.206
       1.492
       1.624
       1.610
       1.522
       1.462
       1.499
       1.640
       1.852
       2.106
       2.410
       2.788
       3.244
       3.737
       4.201
       4.583
       4.872
       5.102
       5.322
       5.569
       5.834
       6.057
       6.147
       6.015
       5.617
       4.973
       4.159
       3.280
       2.441
       1.716
       1.137
       0.695
       0.349
       0.045
      -0.259
      -0.582
      -0.904
      -1.179
      -1.347
      -1.364
      -1.228
      -0.976
      -0.675
      -0.389
      -0.158
       0.012
       0.123
       0.168
       0.128
      -0.010
      -0.246
      -0.569
      -0.968
      -1.439
      -1.987
      -2.611
      -3.297
      -4.006
      -4.685
      -5.284
      -5.780
      -6.189
      -6.543
      -6.845
      -7.051
      -7.090
      -6.923
      -6.570
      -6.099
      -5.576
      -5.023
      -4.420
      -3.733
      -2.935
      -2.030
      -1.046
      -0.039
       0.924
       1.775
       2.455
       2.915
       3.122
       3.076
       2.818
       2.428
       2.001
       1.620
       1.346
       1.224
       1.296
       1.601
       2.160
       2.946
       3.871
       4.815
       5.672
       6.387
       6.952
       7.377
       7.661
       7.794
       7.778
       7.634
       7.395
       7.091
       6.743
       6.371
       5.993
       5.610
       5.203
       4.731
       4.156
       3.455
       2.629
       1.698
       0.690
      -0.360
      -1.419
      -2.470
      -3.521
      -4.595
      -5.705
      -6.830
      -7.908
      -8.862
      -9.621
     -10.147
     -10.439
     -10.537
     -10.502
     -10.378
     -10.165
      -9.816
      -9.271
      -8.512
      -7.586
      -6.595
      -5.646
      -4.804
      -4.063
      -3.355
      -2.590
      -1.699
      -0.660
       0.494
       1.699
       2.876
       3.961
       4.909
       5.692
       6.291
       6.696
       6.897
       6.892
       6.690
       6.331
       5.886
       5.449
       5.104
       4.886
       4.770
       4.699
       4.623
       4.526
       4.413
       4.290
       4.161
       4.036
       3.934
       3.866
       3.797
       3.640
       3.281
       2.648
       1.744
       0.649
      -0.529
      -1.687
      -2.736
      -3.597
      -4.193
      -4.484
      -4.492
      -4.300
      -4.000
      -3.638
      -3.197
      -2.644
      -1.987
      -1.288
      -0.627
      -0.054
       0.416
       0.770
       0.976
       1.006
       0.874
       0.646
       0.391
       0.137
      -0.125
      -0.403
      -0.667
      -0.870
      -0.992
      -1.073
      -1.179
      -1.365
      -1.645
      -2.008
      -2.437
      -2.908
      -3.377
      -3.787
      -4.096
      -4.306
      -4.465
      -4.618
      -4.752
      -4.783
      -4.602
      -4.151
      -3.467
      -2.646
      -1.783
      -0.923
      -0.074
       0.752
       1.513
       2.158
       2.658
       3.013
       3.238
       3.339
       3.309
       3.152
       2.885
       2.543
       2.172
       1.825
       1.560
       1.418
       1.407
       1.488
       1.598
       1.700
       1.813
       2.001
       2.320
       2.775
       3.311
       3.851
       4.341
       4.770
       5.149
       5.476
       5.717
       5.831
       5.794
       5.615
       5.311
       4.883
       4.311
       3.573
       2.667
       1.616
       0.460
      -0.744
      -1.937
      -3.063
      -4.087
      -5.003
      -5.813
      -6.499
      -7.017
      -7.317
      -7.386
      -7.254
      -6.968
      -6.557
      -6.021
      -5.369
      -4.658
      -3.998
      -3.507
      -3.247
      -3.194
      -3.262
      -3.367
      -3.472
      -3.588
      -3.726
      -3.859
      -3.912
      -3.794
      -3.446
      -2.854
      -2.044
      -1.054
       0.064
       1.230
       2.327
       3.224
       3.813
       4.047
       3.941
       3.553
       2.970
       2.301
       1.673
       1.219
       1.042
       1.196
       1.678
       2.440
       3.402
       4.467
       5.539
       6.532
       7.383
       8.036
       8.440
       8.555
       8.380
       7.971
       7.435
       6.881
       6.372
       5.904
       5.421
       4.866
       4.203
       3.417
       2.485
       1.375
       0.060
      -1.434
      -3.023
      -4.586
      -6.018
      -7.257
      -8.277
      -9.058
      -9.579
      -9.832
      -9.841
      -9.646
      -9.275
      -8.713
      -7.933
      -6.946
      -5.839
      -4.759
      -3.856
      -3.212
      -2.811
      -2.562
      -2.352
      -2.097
      -1.765
      -1.353
      -0.868
      -0.326
       0.237
       0.750
       1.144
       1.383
       1.493
       1.541
       1.594
       1.704
       1.890
       2.152
       2.466
       2.800
       3.123
       3.413
       3.654
       3.829
       3.932
       3.969
       3.967
       3.963
       3.993
       4.080
       4.224
       4.402
       4.574
       4.693
       4.725
       4.656
       4.484
       4.209
       3.830
       3.344
       2.745
       2.030
       1.210
       0.331
      -0.529
      -1.279
      -1.841
