Origin Time       21/9/2009 9:43:47	 
Lat.              30.9 N	
Long.             79.1 E	
Depth (Km)         13.0
Magnitude         4.7
 Region           UTTARKASHI-UTTARAKHAND                                           
 Above details taken from IMD 
     
Station Code      RAM
Station Lat.       31.448  N
Station Long.      77.630  E
Station Height(m)  998.0
Site Class        A   Vs30 between 700 m/sec to 1400 m/sec * 
Record Time       21.09.2009 09:44:18.454
Sampling Rate     200. Hz
 Record Duration   74.415 Sec.
 Direction         E-W (E positive)
Max. Acceleration     -5.658 cm/sec**2
     
  * For reference see Site Classification link of website 
     
 Base Line Corrected and Low Pass Filtered (Cut Off at 35 Hz) Time History
 Acceleration data in cm/sec**2
    
[...]
       0.626
       0.572
       0.452
       0.301
       0.158
       0.048
      -0.033
      -0.098
      -0.155
      -0.201
      -0.228
      -0.240
      -0.243
      -0.237
      -0.210
      -0.155
      -0.086
      -0.028
      -0.002
      -0.005
      -0.010
       0.017
       0.089
       0.190
       0.279
       0.321
       0.306
       0.255
       0.199
       0.158
       0.135
       0.111
       0.063
      -0.029
      -0.166
      -0.329
      -0.485
      -0.602
      -0.668
      -0.695
      -0.707
      -0.719
      -0.724
      -0.696
      -0.611
      -0.464
      -0.275
      -0.080
       0.090
       0.221
       0.316
       0.388
       0.443
       0.478
       0.486
       0.467
       0.441
       0.437
       0.472
       0.539
       0.603
       0.629
       0.601
       0.525
       0.425
       0.325
       0.237
       0.160
       0.082
      -0.004
      -0.097
      -0.189
      -0.281
      -0.375
      -0.465
      -0.533
      -0.553
      -0.505
      -0.390
      -0.231
      -0.064
       0.086
       0.205
       0.295
       0.357
       0.381
       0.349
       0.254
       0.103
      -0.083
      -0.285
      -0.492
      -0.700
      -0.908
      -1.110
      -1.293
      -1.437
      -1.508
      -1.468
      -1.297
      -1.008
      -0.649
      -0.277
       0.071
       0.389
       0.690
       0.982
       1.253
       1.479
       1.637
       1.716
       1.705
       1.595
       1.384
       1.100
       0.793
       0.513
       0.276
       0.062
      -0.150
      -0.360
      -0.543
      -0.671
      -0.737
      -0.757
      -0.753
      -0.734
      -0.686
      -0.589
      -0.436
      -0.246
      -0.060
       0.087
       0.182
       0.235
       0.256
       0.247
       0.206
       0.138
       0.051
      -0.052
      -0.171
      -0.306
      -0.455
      -0.611
      -0.768
      -0.908
      -1.000
      -1.016
      -0.948
      -0.820
      -0.674
      -0.545
      -0.436
      -0.317
      -0.148
       0.084
       0.343
       0.564
       0.694
       0.735
       0.737
       0.758
       0.822
       0.903
       0.950
       0.917
       0.789
       0.591
       0.374
       0.193
       0.086
       0.062
       0.101
       0.166
       0.215
       0.214
       0.146
       0.030
      -0.087
      -0.156
      -0.168
      -0.164
      -0.198
      -0.293
      -0.416
      -0.512
      -0.537
      -0.488
      -0.391
      -0.280
      -0.175
      -0.084
      -0.003
       0.070
       0.135
       0.178
       0.183
       0.141
       0.056
      -0.054
      -0.170
      -0.281
      -0.382
      -0.468
      -0.524
      -0.532
      -0.485
      -0.400
      -0.309
      -0.245
      -0.224
      -0.234
      -0.250
      -0.248
      -0.222
      -0.195
      -0.194
      -0.223
      -0.254
      -0.242
      -0.161
      -0.026
       0.120
       0.245
       0.340
       0.412
       0.465
       0.485
       0.455
       0.375
       0.267
       0.166
       0.097
       0.073
       0.101
       0.185
       0.326
       0.508
       0.694
       0.837
       0.902
       0.879
       0.783
       0.644
       0.490
       0.338
       0.204
       0.103
       0.039
       0.002
      -0.034
      -0.100
      -0.211
      -0.363
      -0.534
      -0.696
      -0.826
      -0.919
      -0.980
      -1.022
      -1.055
      -1.076
      -1.072
      -1.026
      -0.934
      -0.806
      -0.656
      -0.494
      -0.320
      -0.141
       0.025
       0.155
       0.231
       0.256
       0.249
       0.233
       0.213
       0.179
       0.114
       0.011
      -0.112
      -0.210
      -0.227
      -0.138
       0.033
       0.219
       0.346
       0.371
       0.306
       0.198
       0.108
       0.083
       0.142
       0.272
       0.435
       0.587
       0.707
       0.803
       0.898
       0.994
       1.056
       1.033
       0.899
       0.674
       0.410
       0.163
      -0.036
      -0.184
      -0.293
      -0.382
      -0.469
      -0.569
      -0.688
      -0.814
      -0.916
      -0.954
      -0.915
      -0.824
      -0.736
      -0.695
      -0.708
      -0.742
      -0.750
      -0.693
      -0.560
      -0.360
      -0.125
       0.115
       0.339
       0.538
       0.698
       0.798
       0.813
       0.743
       0.626
       0.517
       0.459
       0.460
       0.495
       0.528
       0.537
       0.510
       0.435
       0.301
       0.103
      -0.135
      -0.366
      -0.538
      -0.634
      -0.688
      -0.758
      -0.871
      -0.997
      -1.068
      -1.034
      -0.906
      -0.744
      -0.612
      -0.523
      -0.440
      -0.314
      -0.124
       0.105
       0.323
       0.492
       0.588
       0.606
       0.556
       0.467
       0.383
       0.344
       0.361
       0.413
       0.457
       0.456
       0.390
       0.257
       0.081
      -0.097
      -0.238
      -0.328
      -0.378
      -0.402
      -0.397
      -0.337
      -0.202
      -0.003
       0.227
       0.445
       0.621
       0.735
       0.773
       0.728
       0.618
       0.482
       0.364
       0.289
       0.252
       0.223
       0.162
       0.046
      -0.129
      -0.342
      -0.556
      -0.734
      -0.855
      -0.917
      -0.942
      -0.959
      -0.989
      -1.028
      -1.046
      -1.004
      -0.875
      -0.668
      -0.427
      -0.205
      -0.041
       0.060
       0.112
       0.148
       0.199
       0.285
       0.400
       0.513
       0.597
       0.644
       0.673
       0.710
       0.761
       0.805
       0.803
       0.733
       0.609
       0.485
       0.411
       0.407
       0.444
       0.472
       0.451
       0.365
       0.223
       0.053
      -0.108
      -0.232
      -0.315
      -0.374
      -0.432
      -0.491
      -0.527
      -0.515
      -0.446
      -0.347
      -0.253
      -0.189
      -0.157
      -0.139
      -0.129
      -0.135
      -0.168
      -0.220
      -0.265
      -0.283
      -0.282
      -0.291
      -0.327
      -0.371
      -0.377
      -0.315
      -0.202
      -0.093
      -0.051
      -0.108
      -0.249
      -0.428
      -0.591
      -0.701
      -0.740
      -0.708
      -0.614
      -0.463
      -0.263
      -0.025
       0.236
       0.500
       0.746
       0.957
       1.116
       1.209
       1.219
       1.131
       0.957
       0.742
       0.551
       0.430
       0.377
       0.343
       0.270
       0.130
      -0.056
      -0.232
      -0.346
      -0.377
      -0.345
      -0.302
      -0.301
      -0.360
      -0.452
      -0.515
      -0.493
      -0.379
      -0.217
      -0.074
       0.007
       0.026
       0.012
       0.006
       0.045
       0.146
       0.304
       0.480
       0.622
       0.692
       0.690
       0.648
       0.605
       0.592
       0.612
       0.643
       0.645
       0.578
       0.422
       0.181
      -0.122
      -0.452
      -0.769
      -1.034
      -1.217
      -1.307
      -1.333
      -1.347
      -1.396
      -1.487
      -1.576
      -1.605
      -1.540
      -1.390
      -1.201
      -1.020
      -0.857
      -0.686
      -0.463
      -0.167
       0.177
       0.508
       0.764
       0.926
       1.029
       1.124
       1.231
       1.314
       1.316
       1.208
       1.015
       0.792
       0.581
       0.392
       0.215
       0.054
      -0.069
      -0.124
      -0.093
       0.025
       0.215
       0.455
       0.717
       0.977
       1.218
       1.427
       1.598
       1.723
       1.794
       1.806
       1.753
       1.639
       1.471
       1.253
       0.985
       0.661
       0.278
      -0.154
      -0.619
      -1.088
      -1.527
      -1.894
      -2.152
      -2.288
      -2.326
      -2.313
      -2.292
      -2.272
      -2.232
      -2.148
      -2.025
      -1.893
      -1.781
      -1.687
      -1.578
      -1.421
      -1.211
      -0.974
      -0.753
      -0.579
      -0.456
      -0.364
      -0.276
      -0.170
      -0.036
       0.122
       0.303
       0.504
       0.720
       0.940
       1.143
       1.312
       1.440
       1.534
       1.607
       1.672
       1.731
       1.787
       1.844
       1.910
       1.986
       2.067
       2.134
       2.164
       2.128
       2.000
       1.768
       1.440
       1.046
       0.637
       0.267
      -0.032
      -0.260
      -0.447
      -0.628
      -0.825
      -1.042
      -1.270
      -1.492
      -1.690
      -1.849
      -1.956
      -1.995
      -1.944
      -1.783
      -1.517
      -1.183
      -0.833
      -0.505
      -0.206
       0.084
       0.378
       0.655
       0.867
       0.973
       0.962
       0.861
       0.709
       0.529
       0.321
       0.072
      -0.230
      -0.589
      -0.995
      -1.422
      -1.829
      -2.164
      -2.387
      -2.493
      -2.516
      -2.500
      -2.464
      -2.384
      -2.207
      -1.886
      -1.404
      -0.782
      -0.067
       0.680
       1.397
       2.025
       2.518
       2.857
       3.051
       3.119
       3.073
       2.909
       2.625
       2.239
       1.794
       1.343
       0.932
       0.590
       0.322
       0.117
      -0.046
      -0.188
      -0.315
      -0.426
      -0.518
      -0.587
      -0.621
      -0.589
      -0.460
      -0.226
       0.085
       0.433
       0.783
       1.114
       1.409
       1.639
       1.770
       1.774
       1.650
       1.416
       1.104
       0.736
       0.321
      -0.129
      -0.577
      -0.964
      -1.233
      -1.365
      -1.391
      -1.377
      -1.392
      -1.481
      -1.646
      -1.849
      -2.036
      -2.181
      -2.291
      -2.388
      -2.474
      -2.524
      -2.506
      -2.405
      -2.243
      -2.055
      -1.872
      -1.700
      -1.517
      -1.278
      -0.929
      -0.434
       0.214
       0.975
       1.773
       2.513
       3.113
       3.531
       3.770
       3.863
       3.845
       3.727
       3.505
       3.173
       2.743
       2.253
       1.751
       1.279
       0.863
       0.513
       0.233
       0.024
      -0.120
      -0.213
      -0.265
      -0.293
      -0.324
      -0.398
      -0.554
      -0.804
      -1.120
      -1.445
      -1.728
      -1.948
      -2.102
      -2.198
      -2.242
      -2.244
      -2.222
      -2.184
      -2.120
      -1.993
      -1.756
      -1.385
      -0.905
      -0.395
       0.053
       0.376
       0.571
       0.676
       0.725
       0.717
       0.622
       0.422
       0.146
      -0.131
      -0.327
      -0.394
      -0.331
      -0.157
       0.115
       0.479
       0.922
       1.403
       1.856
       2.202
       2.373
       2.331
       2.087
       1.707
       1.282
       0.902
       0.628
       0.475
       0.429
       0.456
       0.524
       0.614
       0.716
       0.817
       0.891
       0.897
       0.793
       0.561
       0.212
      -0.217
      -0.674
      -1.111
      -1.493
      -1.799
      -2.026
      -2.166
      -2.209
      -2.149
      -2.009
      -1.848
      -1.742
      -1.741
      -1.836
      -1.965
      -2.061
      -2.082
      -2.017
      -1.855
      -1.579
      -1.182
      -0.710
      -0.260
       0.070
       0.242
       0.294
       0.303
       0.327
       0.379
       0.448
       0.534
       0.658
       0.860
       1.168
       1.582
       2.060
       2.533
       2.934
       3.224
       3.412
       3.534
       3.625
       3.692
       3.715
       3.665
       3.520
       3.276
       2.934
       2.505
       1.999
       1.426
       0.791
       0.100
      -0.619
      -1.301
      -1.858
      -2.211
      -2.324
      -2.218
      -1.968
      -1.680
      -1.450
      -1.326
      -1.301
      -1.337
      -1.416
      -1.557
      -1.797
      -2.147
      -2.564
      -2.970
      -3.279
      -3.443
      -3.463
      -3.373
      -3.205
      -2.972
      -2.674
      -2.317
      -1.924
      -1.529
      -1.168
      -0.880
      -0.698
      -0.631
      -0.654
      -0.706
      -0.705
      -0.582
      -0.305
       0.114
       0.626
       1.172
       1.702
       2.193
       2.642
       3.054
       3.435
       3.777
       4.065
       4.280
       4.407
       4.442
       4.398
       4.295
       4.153
       3.979
       3.757
       3.470
       3.109
       2.689
       2.243
       1.804
       1.389
       0.996
       0.626
       0.292
       0.014
      -0.207
      -0.415
      -0.681
      -1.071
      -1.604
      -2.239
      -2.894
      -3.496
      -3.999
      -4.397
      -4.700
      -4.914
      -5.032
      -5.044
      -4.955
      -4.782
      -4.540
      -4.232
      -3.848
      -3.380
      -2.841
      -2.262
      -1.681
      -1.135
      -0.649
      -0.225
       0.156
       0.526
       0.910
       1.321
       1.753
       2.177
       2.548
       2.815
       2.925
       2.843
       2.559
       2.120
       1.630
       1.231
       1.044
       1.110
       1.377
       1.738
       2.098
       2.414
       2.691
       2.942
       3.152
       3.280
       3.295
       3.213
       3.088
       2.973
       2.877
       2.762
       2.568
       2.248
       1.786
       1.199
       0.520
      -0.215
      -0.979
      -1.748
      -2.489
      -3.152
      -3.686
      -4.073
      -4.349
      -4.592
      -4.869
      -5.188
      -5.486
      -5.658
      -5.614
      -5.308
      -4.742
      -3.955
      -3.004
      -1.958
      -0.892
       0.125
       1.047
       1.861
       2.572
       3.177
       3.645
       3.930
       4.006
       3.888
       3.620
       3.255
       2.837
       2.402
       1.972
       1.550
       1.122
       0.679
       0.237
      -0.163
      -0.482
      -0.712
      -0.871
      -0.983
      -1.061
      -1.098
      -1.075
      -0.980
      -0.828
      -0.666
      -0.551
      -0.522
      -0.579
      -0.680
      -0.771
      -0.812
      -0.794
      -0.734
      -0.651
      -0.551
      -0.429
      -0.288
      -0.153
      -0.059
      -0.025
      -0.031
      -0.023
       0.052
       0.210
       0.418
       0.615
       0.750
       0.809
       0.815
       0.811
       0.835
       0.905
       1.015
       1.141
       1.250
       1.304
       1.275
       1.155
       0.963
       0.742
       0.533
       0.361
       0.233
       0.145
       0.092
       0.075
       0.097
       0.163
       0.273
       0.412
       0.547
       0.638
       0.655
       0.596
       0.488
       0.367
       0.240
       0.081
      -0.155
      -0.491
      -0.901
      -1.319
      -1.667
      -1.897
      -2.014
      -2.067
      -2.111
      -2.174
      -2.249
      -2.300
      -2.287
      -2.174
      -1.942
      -1.596
      -1.169
      -0.713
      -0.267
       0.165
       0.608
       1.086
       1.581
       2.034
       2.374
       2.553
       2.559
       2.414
       2.160
       1.853
       1.552
       1.304
       1.122
       0.979
       0.830
       0.649
       0.460
       0.317
       0.258
       0.266
       0.290
       0.284
       0.244
       0.196
       0.163
       0.147
       0.124
       0.065
      -0.055
      -0.238
      -0.456
      -0.669
      -0.844
      -0.972
      -1.062
      -1.121
      -1.144
      -1.121
      -1.050
      -0.951
      -0.858
      -0.796
      -0.762
      -0.719
      -0.622
      -0.465
      -0.289
      -0.158
      -0.115
      -0.168
      -0.302
      -0.511
      -0.796
      -1.153
      -1.558
      -1.966
      -2.320
      -2.560
      -2.641
      -2.539
      -2.247
      -1.772
      -1.130
      -0.366
       0.434
       1.152
       1.681
       1.972
       2.051
       2.000
       1.899
       1.798
       1.704
       1.609
       1.515
       1.450
       1.458
       1.565
       1.755
       1.966
       2.113
       2.125
       1.967
       1.671
       1.317
       0.997
       0.752
       0.551
       0.326
       0.037
      -0.295
      -0.605
      -0.830
      -0.941
      -0.948
      -0.880
      -0.762
      -0.598
      -0.385
      -0.122
       0.164
       0.423
       0.605
       0.683
       0.658
       0.553
       0.393
       0.206
       0.026
      -0.114
      -0.198
      -0.246
      -0.315
      -0.486
      -0.824
      -1.348
      -2.010
      -2.705
      -3.318
      -3.758
      -3.978
      -3.963
      -3.716
      -3.257
      -2.630
      -1.899
      -1.129
      -0.369
       0.354
       1.010
       1.557
       1.943
       2.132
       2.132
       1.996
       1.793
       1.586
       1.414
       1.300
       1.257
       1.282
       1.348
       1.397
       1.371
       1.244
       1.046
       0.850
       0.726
       0.705
       0.772
       0.891
       1.046
       1.247
       1.519
       1.866
       2.246
       2.582
       2.793
       2.826
       2.660
       2.297
       1.748
       1.031
       0.190
      -0.702
      -1.544
      -2.245
      -2.756
      -3.089
      -3.300
      -3.449
      -3.555
      -3.599
      -3.562
      -3.466
      -3.384
      -3.388
      -3.492
      -3.621
      -3.642
      -3.440
      -2.977
      -2.315
      -1.575
      -0.867
      -0.247
       0.289
       0.764
       1.183
       1.520
       1.743
       1.841
       1.833
       1.755
       1.649
       1.558
       1.525
       1.574
       1.689
       1.824
       1.933
       2.002
       2.051
       2.113
       2.200
       2.292
       2.347
       2.320
       2.193
       1.987
       1.764
       1.601
       1.560
       1.661
       1.856
       2.045
       2.112
       1.974
       1.622
       1.117
       0.544
      -0.043
      -0.634
      -1.242
      -1.862
      -2.455
      -2.964
      -3.338
      -3.563
      -3.669
      -3.716
      -3.753
      -3.797
      -3.829
      -3.815
      -3.728
      -3.550
      -3.276
      -2.905
      -2.441
      -1.890
      -1.277
      -0.656
      -0.099
       0.345
       0.688
       0.997
       1.335
       1.711
       2.077
       2.365
       2.545
       2.636
       2.675
       2.681
       2.648
       2.545
       2.335
       2.001
       1.559
       1.061
       0.572
       0.140
      -0.218
      -0.499
      -0.682
      -0.729
      -0.610
      -0.338
       0.022
       0.396
       0.741
       1.064
       1.395
       1.729
       2.007
       2.148
       2.103
       1.886
       1.544
       1.118
       0.613
       0.019
      -0.652
      -1.349
      -1.997
      -2.523
      -2.880
      -3.051
      -3.058
      -2.960
      -2.837
      -2.746
      -2.697
      -2.638
      -2.487
      -2.177
      -1.699
      -1.102
      -0.473
       0.113
       0.618
       1.044
       1.414
       1.740
       1.997
       2.130
       2.092
       1.876
       1.541
       1.177
       0.862
       0.626
       0.458
       0.335
       0.250
       0.209
       0.215
       0.258
       0.320
       0.392
       0.472
       0.545
       0.578
       0.543
       0.447
       0.338
       0.285
       0.316
       0.398
       0.454
       0.412
       0.263
       0.058
