Origin Time       02/10/2012 08:34:52
Lat.              32.3 N 
Long.             76.3 E 
Depth (Km)         10.0
Magnitude         4.9
 Region           Chamba-DISTT.-HIMACHAL                                           
 Above details taken from IMD 
   
Station Code      RAM
Station Lat.       31.448
Station Long.      77.630
Station Height(m)  998.0
Site Class        A   Vs30 between 700 m/sec to 1400 m/sec * 
Record Time       02.10.2012 08:35:04.544
Sampling Rate     200. Hz
 Record Duration   80.005 Sec.
 Direction         Vert. (Up positive)
Max. Acceleration      1.325 cm/sec**2
     
  * For reference see Site Classification link of website 
     
 Base Line Corrected and Low Pass Filtered (Cut Off at 35 Hz) Time History
 Acceleration data in cm/sec**2
    
[...]
      -0.195
      -0.183
      -0.132
      -0.042
       0.079
       0.204
       0.300
       0.344
       0.332
       0.274
       0.185
       0.085
       0.000
      -0.048
      -0.057
      -0.053
      -0.065
      -0.106
      -0.153
      -0.174
      -0.157
      -0.120
      -0.087
      -0.065
      -0.039
       0.005
       0.069
       0.139
       0.201
       0.244
       0.258
       0.233
       0.153
       0.017
      -0.147
      -0.288
      -0.358
      -0.340
      -0.261
      -0.163
      -0.084
      -0.031
       0.013
       0.077
       0.173
       0.284
       0.369
       0.392
       0.342
       0.239
       0.112
      -0.011
      -0.122
      -0.217
      -0.292
      -0.328
      -0.309
      -0.235
      -0.127
      -0.012
       0.083
       0.141
       0.163
       0.159
       0.149
       0.144
       0.146
       0.153
       0.156
       0.141
       0.093
       0.010
      -0.092
      -0.184
      -0.231
      -0.212
      -0.131
      -0.020
       0.079
       0.137
       0.148
       0.120
       0.072
       0.019
      -0.029
      -0.065
      -0.083
      -0.077
      -0.046
      -0.005
       0.023
       0.011
      -0.047
      -0.131
      -0.201
      -0.218
      -0.169
      -0.078
       0.016
       0.083
       0.113
       0.107
       0.083
       0.063
       0.065
       0.081
       0.086
       0.060
       0.013
      -0.022
      -0.014
       0.033
       0.086
       0.107
       0.082
       0.028
      -0.029
      -0.067
      -0.075
      -0.051
      -0.004
       0.046
       0.078
       0.082
       0.062
       0.023
      -0.028
      -0.080
      -0.114
      -0.111
      -0.071
      -0.022
       0.005
      -0.002
      -0.017
      -0.003
       0.053
       0.125
       0.169
       0.157
       0.094
       0.007
      -0.066
      -0.094
      -0.071
      -0.018
       0.027
       0.034
      -0.003
      -0.062
      -0.114
      -0.140
      -0.140
      -0.132
      -0.126
      -0.112
      -0.079
      -0.028
       0.020
       0.044
       0.042
       0.036
       0.051
       0.102
       0.176
       0.250
       0.306
       0.337
       0.337
       0.297
       0.211
       0.086
      -0.054
      -0.179
      -0.262
      -0.289
      -0.262
      -0.201
      -0.132
      -0.070
      -0.017
       0.030
       0.064
       0.067
       0.029
      -0.039
      -0.092
      -0.089
      -0.025
       0.057
       0.104
       0.092
       0.042
      -0.002
      -0.012
       0.012
       0.040
       0.042
       0.007
      -0.047
      -0.092
      -0.116
      -0.124
      -0.129
      -0.137
      -0.139
      -0.119
      -0.071
      -0.011
       0.030
       0.029
      -0.005
      -0.041
      -0.050
      -0.018
       0.048
       0.131
       0.212
       0.273
       0.312
       0.340
       0.371
       0.407
       0.434
       0.424
       0.355
       0.237
       0.104
      -0.015
      -0.113
      -0.212
      -0.332
      -0.464
      -0.577
      -0.636
      -0.624
      -0.558
      -0.462
      -0.345
      -0.204
      -0.036
       0.133
       0.268
       0.338
       0.335
       0.272
       0.168
       0.042
      -0.093
      -0.222
      -0.326
      -0.386
      -0.381
      -0.299
      -0.146
       0.050
       0.243
       0.387
       0.463
       0.486
       0.477
       0.447
       0.386
       0.291
       0.176
       0.072
       0.000
      -0.044
      -0.077
      -0.117
      -0.156
      -0.174
      -0.154
      -0.105
      -0.054
      -0.023
      -0.025
      -0.049
      -0.076
      -0.088
      -0.087
      -0.094
      -0.130
      -0.198
      -0.282
      -0.348
      -0.367
      -0.324
      -0.221
      -0.080
       0.072
       0.211
       0.321
       0.385
       0.394
       0.342
       0.237
       0.103
      -0.022
      -0.102
      -0.125
      -0.112
      -0.094
      -0.093
      -0.106
      -0.116
      -0.100
      -0.047
       0.034
       0.127
       0.216
       0.292
       0.350
       0.379
       0.365
       0.303
       0.200
       0.066
      -0.087
      -0.247
      -0.396
      -0.508
      -0.559
      -0.537
      -0.449
      -0.321
      -0.179
      -0.042
       0.076
       0.161
       0.204
       0.206
       0.166
       0.078
      -0.058
      -0.215
      -0.346
      -0.399
      -0.354
      -0.226
      -0.061
       0.100
       0.236
       0.341
       0.409
       0.433
       0.402
       0.319
       0.192
       0.034
      -0.132
      -0.276
      -0.370
      -0.402
      -0.379
      -0.319
      -0.241
      -0.155
      -0.062
       0.032
       0.115
       0.168
       0.182
       0.159
       0.113
       0.063
       0.032
       0.033
       0.067
       0.120
       0.182
       0.247
       0.309
       0.350
       0.349
       0.296
       0.204
       0.103
       0.027
       0.007
       0.054
       0.156
       0.282
       0.399
       0.486
       0.537
       0.561
       0.560
       0.528
       0.453
       0.327
       0.157
      -0.040
      -0.242
      -0.423
      -0.554
      -0.615
      -0.599
      -0.507
      -0.357
      -0.177
      -0.008
       0.118
       0.185
       0.196
       0.162
       0.093
      -0.008
      -0.147
      -0.322
      -0.516
      -0.687
      -0.791
      -0.799
      -0.712
      -0.557
      -0.379
      -0.219
      -0.104
      -0.044
      -0.031
      -0.044
      -0.058
      -0.058
      -0.047
      -0.040
      -0.039
      -0.027
       0.024
       0.123
       0.245
       0.343
       0.377
       0.339
       0.260
       0.188
       0.159
       0.167
       0.179
       0.168
       0.134
       0.104
       0.108
       0.154
       0.217
       0.260
       0.263
       0.231
       0.181
       0.122
       0.058
      -0.003
      -0.046
      -0.053
      -0.016
       0.060
       0.146
       0.211
       0.230
       0.208
       0.164
       0.123
       0.092
       0.062
       0.015
      -0.059
      -0.156
      -0.266
      -0.383
      -0.504
      -0.615
      -0.688
      -0.695
      -0.625
      -0.496
      -0.348
      -0.219
      -0.129
      -0.070
      -0.023
       0.028
       0.087
       0.155
       0.233
       0.319
       0.402
       0.464
       0.481
       0.430
       0.304
       0.121
      -0.069
      -0.219
      -0.305
      -0.341
      -0.358
      -0.379
      -0.404
      -0.412
      -0.378
      -0.293
      -0.167
      -0.017
       0.130
       0.239
       0.269
       0.198
       0.038
      -0.170
      -0.365
      -0.499
      -0.542
      -0.486
      -0.338
      -0.110
       0.180
       0.493
       0.778
       0.986
       1.096
       1.118
       1.080
       1.009
       0.911
       0.775
       0.590
       0.364
       0.126
      -0.096
      -0.288
      -0.443
      -0.551
      -0.608
      -0.616
      -0.587
      -0.530
      -0.456
      -0.376
      -0.301
      -0.237
      -0.182
      -0.134
      -0.092
      -0.071
      -0.086
      -0.141
      -0.222
      -0.312
      -0.404
      -0.501
      -0.592
      -0.651
      -0.655
      -0.606
      -0.532
      -0.457
      -0.381
      -0.281
      -0.133
       0.076
       0.335
       0.616
       0.878
       1.072
       1.159
       1.128
       1.005
       0.833
       0.654
       0.494
       0.368
       0.292
       0.265
       0.273
       0.289
       0.306
       0.336
       0.396
       0.475
       0.530
       0.510
       0.392
       0.200
      -0.020
      -0.235
      -0.435
      -0.616
      -0.765
      -0.861
      -0.893
      -0.861
      -0.778
      -0.668
      -0.566
      -0.507
      -0.498
      -0.517
      -0.521
      -0.479
      -0.398
      -0.316
      -0.269
      -0.258
      -0.252
      -0.223
      -0.166
      -0.086
       0.010
       0.126
       0.256
       0.374
       0.444
       0.439
       0.360
       0.243
       0.127
       0.039
      -0.021
      -0.062
      -0.092
      -0.114
      -0.132
      -0.146
      -0.151
      -0.136
      -0.091
      -0.010
       0.107
       0.255
       0.431
       0.631
       0.839
       1.028
       1.163
       1.218
       1.179
       1.040
       0.805
       0.494
       0.147
      -0.197
      -0.509
      -0.781
      -1.009
      -1.178
      -1.254
      -1.200
      -1.006
      -0.703
      -0.350
       0.002
       0.326
       0.616
       0.862
       1.049
       1.156
       1.159
       1.045
       0.810
       0.468
       0.055
      -0.368
      -0.731
      -0.986
      -1.126
      -1.176
      -1.166
      -1.104
      -0.988
      -0.827
      -0.647
      -0.482
      -0.349
      -0.243
      -0.141
      -0.017
       0.132
       0.280
       0.389
       0.423
       0.382
       0.302
       0.233
       0.212
       0.227
       0.239
       0.217
       0.167
       0.122
       0.111
       0.139
       0.177
       0.183
       0.122
      -0.005
      -0.159
      -0.287
      -0.349
      -0.352
      -0.335
      -0.348
      -0.406
      -0.480
      -0.518
      -0.482
      -0.364
      -0.176
       0.058
       0.315
       0.572
       0.801
       0.966
       1.027
       0.956
       0.762
       0.486
       0.185
      -0.097
      -0.330
      -0.498
      -0.586
      -0.582
      -0.484
      -0.306
      -0.080
       0.148
       0.334
       0.446
       0.477
       0.443
       0.378
       0.307
       0.227
       0.115
      -0.045
      -0.244
      -0.440
      -0.585
      -0.642
      -0.604
      -0.493
      -0.347
      -0.205
      -0.093
      -0.029
      -0.009
      -0.020
      -0.052
      -0.102
      -0.165
      -0.225
      -0.258
      -0.252
      -0.213
      -0.156
      -0.094
      -0.039
       0.004
       0.036
       0.059
       0.081
       0.106
       0.137
       0.177
       0.222
       0.261
       0.283
       0.280
       0.243
       0.171
       0.077
      -0.012
      -0.062
      -0.052
       0.017
       0.115
       0.203
       0.258
       0.288
       0.323
       0.388
       0.492
       0.625
       0.763
       0.862
       0.871
       0.765
       0.556
       0.290
       0.018
      -0.229
      -0.449
      -0.648
      -0.813
      -0.911
      -0.909
      -0.805
      -0.625
      -0.404
      -0.172
       0.051
       0.239
       0.366
       0.412
       0.371
       0.250
       0.062
      -0.173
      -0.424
      -0.648
      -0.802
      -0.867
      -0.859
      -0.807
      -0.723
      -0.597
      -0.416
      -0.187
       0.063
       0.293
       0.463
       0.550
       0.544
       0.459
       0.327
       0.186
       0.070
      -0.007
      -0.046
      -0.059
      -0.049
      -0.016
       0.045
       0.134
       0.248
       0.374
       0.488
       0.569
       0.606
       0.597
       0.544
       0.444
       0.296
       0.109
      -0.104
      -0.326
      -0.534
      -0.697
      -0.780
      -0.751
      -0.605
      -0.371
      -0.107
       0.129
       0.300
       0.397
       0.426
       0.399
       0.327
       0.220
       0.087
      -0.052
      -0.177
      -0.271
      -0.328
      -0.349
      -0.330
      -0.266
      -0.161
      -0.034
       0.092
       0.185
       0.219
       0.179
       0.077
      -0.058
      -0.186
      -0.275
      -0.303
      -0.259
      -0.141
       0.046
       0.280
       0.516
       0.697
       0.774
       0.734
       0.594
       0.398
       0.188
      -0.004
      -0.170
      -0.322
      -0.466
      -0.594
      -0.682
      -0.708
      -0.666
      -0.573
      -0.462
      -0.366
      -0.300
      -0.248
      -0.189
      -0.118
      -0.047
       0.010
       0.055
       0.101
       0.159
       0.223
       0.268
       0.275
       0.252
       0.235
       0.261
       0.338
       0.443
       0.531
       0.568
       0.540
       0.460
       0.350
       0.224
       0.090
      -0.040
      -0.144
      -0.200
      -0.207
      -0.186
      -0.164
      -0.155
      -0.155
      -0.155
      -0.153
      -0.157
      -0.176
      -0.208
      -0.238
      -0.251
      -0.246
      -0.230
      -0.214
      -0.201
      -0.193
      -0.195
      -0.213
      -0.253
      -0.319
      -0.400
      -0.464
      -0.475
      -0.415
      -0.295
      -0.151
      -0.014
       0.104
       0.211
       0.310
       0.382
       0.393
       0.327
       0.206
       0.091
       0.042
       0.079
       0.178
       0.290
       0.371
       0.405
       0.404
       0.390
       0.380
       0.383
       0.400
       0.435
       0.484
       0.529
       0.538
       0.477
       0.327
       0.101
      -0.153
      -0.372
      -0.513
      -0.568
      -0.561
      -0.531
      -0.506
      -0.493
      -0.483
      -0.471
      -0.460
      -0.455
      -0.451
      -0.434
      -0.399
      -0.352
      -0.310
      -0.288
      -0.285
      -0.277
      -0.228
      -0.123
       0.022
       0.167
       0.273
       0.330
       0.355
       0.382
       0.436
       0.513
       0.581
       0.599
       0.551
       0.448
       0.321
       0.186
       0.040
      -0.131
      -0.325
      -0.508
      -0.633
      -0.664
      -0.603
      -0.479
      -0.324
      -0.150
       0.048
       0.281
       0.549
       0.831
       1.083
       1.258
       1.325
       1.269
       1.098
       0.836
       0.522
       0.194
      -0.112
      -0.370
      -0.573
      -0.728
      -0.851
      -0.948
      -1.008
      -1.019
      -0.985
      -0.919
      -0.827
      -0.699
      -0.516
      -0.276
      -0.014
       0.214
       0.355
       0.399
       0.378
       0.335
       0.293
       0.254
       0.211
       0.161
       0.110
       0.068
       0.050
       0.055
       0.065
       0.058
       0.028
      -0.013
      -0.048
      -0.071
      -0.097
      -0.140
      -0.200
      -0.261
      -0.295
      -0.288
      -0.241
      -0.170
      -0.088
      -0.003
       0.088
       0.189
       0.301
       0.411
       0.491
       0.507
       0.436
       0.274
       0.043
      -0.213
      -0.442
      -0.607
      -0.692
      -0.688
      -0.596
      -0.422
      -0.196
       0.032
       0.212
       0.319
       0.360
       0.370
       0.382
       0.414
       0.459
       0.505
       0.542
       0.566
       0.579
       0.582
       0.575
       0.538
       0.441
       0.266
       0.033
      -0.201
      -0.373
      -0.440
      -0.397
      -0.278
      -0.137
      -0.031
       0.011
      -0.001
      -0.035
      -0.059
      -0.065
      -0.060
      -0.053
      -0.037
       0.000
       0.054
       0.097
       0.104
       0.072
       0.024
      -0.010
      -0.017
      -0.003
       0.005
      -0.023
      -0.109
      -0.246
      -0.398
      -0.515
      -0.565
      -0.555
      -0.519
      -0.493
      -0.476
      -0.440
      -0.359
      -0.238
      -0.102
       0.026
       0.136
       0.225
       0.288
       0.324
       0.335
       0.332
       0.325
       0.312
       0.278
       0.206
       0.102
      -0.009
      -0.097
      -0.148
      -0.161
      -0.141
      -0.099
      -0.046
       0.014
       0.090
       0.192
       0.320
       0.455
       0.568
       0.638
       0.663
       0.646
       0.585
       0.463
       0.269
       0.025
      -0.216
      -0.395
      -0.491
      -0.517
      -0.506
      -0.485
      -0.460
      -0.423
      -0.363
      -0.273
      -0.169
      -0.085
      -0.061
      -0.123
      -0.260
      -0.418
      -0.530
      -0.546
      -0.455
      -0.281
      -0.070
       0.133
       0.288
       0.379
       0.414
       0.414
       0.399
       0.372
       0.322
       0.236
       0.112
      -0.027
      -0.142
      -0.204
      -0.207
      -0.171
      -0.123
      -0.080
      -0.042
      -0.001
       0.049
       0.098
       0.128
       0.129
       0.117
       0.116
       0.145
       0.199
       0.259
       0.305
       0.332
       0.357
       0.401
       0.468
       0.527
       0.525
       0.424
       0.222
      -0.038
      -0.289
      -0.475
      -0.577
      -0.612
      -0.612
      -0.599
      -0.575
      -0.529
      -0.458
      -0.369
      -0.279
      -0.207
      -0.170
      -0.177
      -0.229
      -0.311
      -0.388
      -0.417
      -0.368
      -0.238
      -0.055
       0.143
       0.315
       0.425
       0.457
       0.420
       0.351
       0.303
       0.319
       0.408
       0.526
       0.599
       0.568
       0.421
       0.197
      -0.042
      -0.235
      -0.350
      -0.382
      -0.348
      -0.271
      -0.168
      -0.059
       0.040
       0.113
       0.149
       0.145
       0.099
       0.024
      -0.063
      -0.141
      -0.198
      -0.233
      -0.252
      -0.269
      -0.295
      -0.327
      -0.349
      -0.343
      -0.301
      -0.221
      -0.105
       0.035
       0.185
       0.319
       0.412
       0.447
       0.427
       0.376
       0.326
       0.293
       0.276
       0.255
       0.212
       0.130
       0.002
      -0.162
      -0.335
      -0.477
      -0.551
      -0.534
      -0.430
      -0.268
      -0.089
       0.074
       0.209
       0.326
       0.444
       0.581
       0.737
       0.880
       0.961
       0.942
       0.809
       0.574
       0.263
      -0.092
      -0.452
      -0.775
      -1.023
      -1.170
      -1.210
      -1.161
      -1.053
      -0.906
      -0.731
      -0.532
      -0.314
      -0.083
       0.150
       0.364
       0.535
       0.639
       0.672
       0.643
       0.568
       0.466
       0.359
       0.264
       0.193
       0.149
       0.136
       0.152
       0.193
       0.248
       0.301
       0.334
       0.340
       0.325
       0.295
       0.241
       0.155
       0.039
      -0.084
      -0.188
      -0.264
      -0.320
      -0.373
      -0.424
      -0.461
      -0.469
      -0.440
      -0.382
      -0.310
      -0.238
      -0.182
      -0.159
      -0.176
      -0.219
      -0.251
      -0.239
      -0.173
      -0.068
       0.034
       0.088
       0.064
      -0.022
      -0.112
      -0.138
      -0.066
       0.077
       0.232
       0.352
       0.429
       0.497
       0.584
       0.685
       0.762
       0.787
       0.756
       0.680
       0.563
       0.396
       0.175
      -0.079
      -0.324
      -0.510
      -0.606
      -0.613
      -0.557
      -0.469
      -0.376
      -0.290
      -0.212
      -0.142
      -0.085
      -0.051
      -0.044
      -0.058
      -0.077
      -0.093
      -0.110
      -0.130
      -0.151
      -0.159
      -0.132
      -0.054
       0.078
       0.240
       0.383
       0.459
       0.439
       0.330
       0.164
      -0.020
      -0.190
      -0.327
      -0.413
      -0.426
      -0.358
      -0.227
      -0.075
       0.053
       0.138
       0.180
       0.195
       0.207
       0.231
       0.273
       0.320
       0.358
       0.382
       0.399
       0.414
       0.418
       0.382
       0.274
       0.088
      -0.141
