Origin Time       02/10/2012 08:34:52
Lat.              32.3 N 
Long.             76.3 E 
Depth (Km)         10.0
Magnitude         4.9
 Region           Chamba-DISTT.-HIMACHAL                                           
 Above details taken from IMD 
     
Station Code      RAM
Station Lat.       31.448  N
Station Long.      77.630  E
Station Height(m)  998.0
Site Class        A   Vs30 between 700 m/sec to 1400 m/sec * 
Record Time       02.10.2012 08:35:04.544
Sampling Rate     200. Hz
 Record Duration   80.005 Sec.
 Direction         E-W (E positive)
Max. Acceleration      2.456 cm/sec**2
     
  * For reference see Site Classification link of website 
     
 Base Line Corrected and Low Pass Filtered (Cut Off at 35 Hz) Time History
 Acceleration data in cm/sec**2
    
[...]
      -0.180
      -0.191
      -0.184
      -0.167
      -0.147
      -0.132
      -0.124
      -0.120
      -0.113
      -0.099
      -0.079
      -0.061
      -0.052
      -0.055
      -0.057
      -0.047
      -0.016
       0.036
       0.099
       0.158
       0.202
       0.225
       0.232
       0.233
       0.234
       0.232
       0.217
       0.185
       0.140
       0.090
       0.042
      -0.002
      -0.042
      -0.074
      -0.094
      -0.100
      -0.097
      -0.091
      -0.089
      -0.088
      -0.085
      -0.075
      -0.056
      -0.031
      -0.006
       0.007
       0.004
      -0.012
      -0.029
      -0.038
      -0.039
      -0.038
      -0.042
      -0.051
      -0.058
      -0.057
      -0.048
      -0.038
      -0.032
      -0.030
      -0.033
      -0.036
      -0.038
      -0.035
      -0.023
      -0.003
       0.020
       0.041
       0.059
       0.074
       0.082
       0.077
       0.055
       0.023
      -0.005
      -0.016
      -0.011
      -0.002
      -0.001
      -0.005
      -0.004
       0.008
       0.029
       0.049
       0.057
       0.046
       0.015
      -0.035
      -0.089
      -0.129
      -0.142
      -0.124
      -0.086
      -0.047
      -0.016
       0.004
       0.020
       0.038
       0.060
       0.086
       0.113
       0.135
       0.143
       0.132
       0.108
       0.085
       0.072
       0.066
       0.052
       0.022
      -0.017
      -0.051
      -0.073
      -0.088
      -0.102
      -0.116
      -0.122
      -0.118
      -0.110
      -0.106
      -0.110
      -0.121
      -0.134
      -0.141
      -0.131
      -0.099
      -0.048
       0.007
       0.048
       0.073
       0.091
       0.113
       0.135
       0.144
       0.129
       0.093
       0.055
       0.034
       0.033
       0.043
       0.048
       0.039
       0.013
      -0.026
      -0.070
      -0.114
      -0.152
      -0.181
      -0.197
      -0.197
      -0.182
      -0.151
      -0.106
      -0.051
       0.007
       0.064
       0.120
       0.173
       0.218
       0.245
       0.245
       0.221
       0.184
       0.150
       0.130
       0.130
       0.147
       0.170
       0.183
       0.170
       0.129
       0.070
       0.010
      -0.039
      -0.076
      -0.106
      -0.131
      -0.150
      -0.159
      -0.157
      -0.147
      -0.132
      -0.115
      -0.098
      -0.087
      -0.086
      -0.095
      -0.107
      -0.112
      -0.107
      -0.090
      -0.064
      -0.031
       0.002
       0.024
       0.028
       0.010
      -0.019
      -0.045
      -0.058
      -0.052
      -0.031
      -0.005
       0.021
       0.041
       0.049
       0.045
       0.032
       0.018
       0.006
      -0.008
      -0.032
      -0.070
      -0.108
      -0.129
      -0.122
      -0.093
      -0.057
      -0.028
      -0.009
       0.007
       0.029
       0.054
       0.076
       0.086
       0.084
       0.077
       0.078
       0.091
       0.116
       0.147
       0.176
       0.194
       0.193
       0.168
       0.124
       0.071
       0.019
      -0.023
      -0.055
      -0.077
      -0.095
      -0.106
      -0.109
      -0.098
      -0.073
      -0.039
      -0.005
       0.022
       0.041
       0.053
       0.060
       0.060
       0.057
       0.054
       0.057
       0.064
       0.069
       0.060
       0.035
      -0.004
      -0.045
      -0.081
      -0.107
      -0.125
      -0.142
      -0.163
      -0.189
      -0.217
      -0.237
      -0.239
      -0.219
      -0.186
      -0.152
      -0.129
      -0.115
      -0.103
      -0.084
      -0.052
      -0.003
       0.060
       0.129
       0.191
       0.232
       0.241
       0.221
       0.183
       0.144
       0.112
       0.083
       0.053
       0.023
      -0.003
      -0.019
      -0.021
      -0.015
      -0.006
       0.000
       0.003
       0.008
       0.014
       0.016
       0.008
      -0.013
      -0.038
      -0.057
      -0.066
      -0.063
      -0.056
      -0.055
      -0.061
      -0.070
      -0.074
      -0.067
      -0.050
      -0.028
      -0.006
       0.012
       0.023
       0.025
       0.022
       0.018
       0.019
       0.026
       0.033
       0.025
      -0.002
      -0.045
      -0.088
      -0.118
      -0.127
      -0.111
      -0.074
      -0.024
       0.028
       0.065
       0.081
       0.079
       0.071
       0.069
       0.077
       0.089
       0.095
       0.090
       0.070
       0.037
       0.005
      -0.014
      -0.010
       0.013
       0.040
       0.054
       0.048
       0.025
      -0.006
      -0.037
      -0.069
      -0.102
      -0.136
      -0.165
      -0.185
      -0.194
      -0.192
      -0.181
      -0.160
      -0.130
      -0.090
      -0.044
       0.003
       0.045
       0.081
       0.110
       0.131
       0.141
       0.140
       0.127
       0.104
       0.073
       0.038
      -0.001
      -0.041
      -0.074
      -0.092
      -0.089
      -0.064
      -0.023
       0.025
       0.069
       0.101
       0.116
       0.113
       0.095
       0.061
       0.014
      -0.036
      -0.070
      -0.071
      -0.032
       0.034
       0.099
       0.136
       0.139
       0.119
       0.096
       0.078
       0.063
       0.044
       0.019
      -0.012
      -0.045
      -0.078
      -0.106
      -0.130
      -0.147
      -0.153
      -0.141
      -0.108
      -0.063
      -0.022
      -0.002
      -0.009
      -0.041
      -0.083
      -0.115
      -0.123
      -0.098
      -0.043
       0.030
       0.096
       0.135
       0.136
       0.102
       0.045
      -0.022
      -0.084
      -0.130
      -0.148
      -0.131
      -0.071
       0.031
       0.159
       0.283
       0.370
       0.396
       0.355
       0.262
       0.146
       0.037
      -0.050
      -0.118
      -0.173
      -0.218
      -0.251
      -0.263
      -0.250
      -0.213
      -0.160
      -0.103
      -0.056
      -0.032
      -0.034
      -0.057
      -0.084
      -0.099
      -0.092
      -0.071
      -0.052
      -0.051
      -0.074
      -0.109
      -0.135
      -0.131
      -0.096
      -0.043
       0.008
       0.043
       0.066
       0.089
       0.124
       0.173
       0.223
       0.256
       0.257
       0.223
       0.167
       0.108
       0.068
       0.061
       0.089
       0.134
       0.168
       0.168
       0.131
       0.076
       0.028
       0.001
      -0.008
      -0.017
      -0.037
      -0.062
      -0.079
      -0.080
      -0.068
      -0.055
      -0.046
      -0.038
      -0.025
      -0.011
      -0.005
      -0.018
      -0.045
      -0.073
      -0.089
      -0.090
      -0.081
      -0.070
      -0.060
      -0.052
      -0.041
      -0.023
       0.004
       0.034
       0.059
       0.068
       0.058
       0.033
      -0.002
      -0.039
      -0.077
      -0.116
      -0.151
      -0.178
      -0.193
      -0.204
      -0.213
      -0.222
      -0.223
      -0.209
      -0.174
      -0.116
      -0.041
       0.039
       0.106
       0.150
       0.167
       0.169
       0.171
       0.181
       0.197
       0.208
       0.210
       0.201
       0.186
       0.167
       0.149
       0.133
       0.117
       0.094
       0.058
       0.006
      -0.058
      -0.124
      -0.177
      -0.208
      -0.214
      -0.199
      -0.169
      -0.129
      -0.084
      -0.038
       0.005
       0.043
       0.073
       0.087
       0.075
       0.036
      -0.016
      -0.057
      -0.067
      -0.047
      -0.014
       0.007
       0.002
      -0.021
      -0.046
      -0.059
      -0.057
      -0.049
      -0.043
      -0.043
      -0.043
      -0.035
      -0.016
       0.015
       0.053
       0.094
       0.133
       0.162
       0.176
       0.173
       0.160
       0.151
       0.152
       0.165
       0.179
       0.183
       0.165
       0.123
       0.056
      -0.031
      -0.131
      -0.231
      -0.316
      -0.372
      -0.396
      -0.392
      -0.367
      -0.325
      -0.264
      -0.188
      -0.109
      -0.046
      -0.012
      -0.013
      -0.035
      -0.058
      -0.058
      -0.025
       0.035
       0.108
       0.174
       0.220
       0.243
       0.249
       0.248
       0.241
       0.223
       0.188
       0.135
       0.066
      -0.012
      -0.091
      -0.159
      -0.203
      -0.216
      -0.200
      -0.165
      -0.114
      -0.047
       0.042
       0.150
       0.265
       0.371
       0.455
       0.510
       0.540
       0.541
       0.509
       0.437
       0.327
       0.191
       0.053
      -0.069
      -0.159
      -0.220
      -0.263
      -0.299
      -0.331
      -0.355
      -0.360
      -0.345
      -0.317
      -0.292
      -0.283
      -0.297
      -0.329
      -0.362
      -0.378
      -0.366
      -0.324
      -0.258
      -0.175
      -0.079
       0.030
       0.149
       0.266
       0.368
       0.445
       0.490
       0.500
       0.478
       0.431
       0.368
       0.302
       0.240
       0.187
       0.139
       0.092
       0.041
      -0.014
      -0.076
      -0.143
      -0.210
      -0.271
      -0.321
      -0.357
      -0.378
      -0.378
      -0.352
      -0.297
      -0.216
      -0.126
      -0.044
       0.016
       0.051
       0.067
       0.073
       0.077
       0.077
       0.069
       0.049
       0.014
      -0.032
      -0.089
      -0.152
      -0.213
      -0.261
      -0.287
      -0.288
      -0.273
      -0.251
      -0.227
      -0.194
      -0.143
      -0.074
       0.002
       0.075
       0.138
       0.194
       0.245
       0.289
       0.325
       0.347
       0.353
       0.340
       0.310
       0.271
       0.232
       0.203
       0.182
       0.165
       0.142
       0.110
       0.070
       0.030
      -0.005
      -0.026
      -0.027
       0.001
       0.058
       0.133
       0.202
       0.246
       0.252
       0.219
       0.156
       0.080
       0.006
      -0.049
      -0.078
      -0.077
      -0.054
      -0.021
       0.010
       0.033
       0.042
       0.033
       0.007
      -0.032
      -0.078
      -0.126
      -0.172
      -0.214
      -0.250
      -0.279
      -0.304
      -0.331
      -0.367
      -0.413
      -0.467
      -0.519
      -0.561
      -0.588
      -0.598
      -0.596
      -0.586
      -0.577
      -0.571
      -0.563
      -0.543
      -0.503
      -0.440
      -0.357
      -0.258
      -0.145
      -0.020
       0.113
       0.246
       0.367
       0.463
       0.529
       0.564
       0.570
       0.548
       0.505
       0.449
       0.397
       0.365
       0.361
       0.375
       0.387
       0.378
       0.341
       0.287
       0.240
       0.221
       0.239
       0.283
       0.332
       0.366
       0.382
       0.388
       0.399
       0.424
       0.461
       0.502
       0.536
       0.555
       0.560
       0.557
       0.549
       0.535
       0.510
       0.463
       0.383
       0.259
       0.092
      -0.108
      -0.321
      -0.519
      -0.677
      -0.783
      -0.840
      -0.864
      -0.868
      -0.857
      -0.830
      -0.783
      -0.720
      -0.651
      -0.587
      -0.533
      -0.489
      -0.458
      -0.449
      -0.465
      -0.499
      -0.536
      -0.564
      -0.578
      -0.586
      -0.594
      -0.604
      -0.608
      -0.587
      -0.529
      -0.431
      -0.303
      -0.161
      -0.015
       0.130
       0.279
       0.435
       0.597
       0.755
       0.900
       1.026
       1.130
       1.207
       1.251
       1.257
       1.231
       1.188
       1.151
       1.131
       1.127
       1.122
       1.094
       1.029
       0.920
       0.769
       0.581
       0.366
       0.138
      -0.087
      -0.290
      -0.457
      -0.583
      -0.670
      -0.719
      -0.729
      -0.700
      -0.639
      -0.563
      -0.490
      -0.432
      -0.391
      -0.358
      -0.324
      -0.284
      -0.237
      -0.190
      -0.148
      -0.120
      -0.119
      -0.153
      -0.226
      -0.335
      -0.467
      -0.599
      -0.706
      -0.769
      -0.784
      -0.760
      -0.707
      -0.632
      -0.539
      -0.431
      -0.318
      -0.211
      -0.120
      -0.049
       0.000
       0.023
       0.015
      -0.028
      -0.101
      -0.183
      -0.245
      -0.255
      -0.189
      -0.048
       0.143
       0.344
       0.514
       0.632
       0.692
       0.703
       0.678
       0.628
       0.563
       0.493
       0.426
       0.364
       0.309
       0.262
       0.224
       0.197
       0.180
       0.175
       0.186
       0.217
       0.266
       0.325
       0.383
       0.430
       0.468
       0.502
       0.533
       0.551
       0.551
       0.539
       0.526
       0.521
       0.513
       0.484
       0.420
       0.321
       0.197
       0.064
      -0.068
      -0.195
      -0.317
      -0.437
      -0.558
      -0.679
      -0.792
      -0.884
      -0.942
      -0.962
      -0.952
      -0.926
      -0.900
      -0.884
      -0.882
      -0.890
      -0.906
      -0.920
      -0.922
      -0.899
      -0.844
      -0.763
      -0.675
      -0.597
      -0.543
      -0.518
      -0.526
      -0.562
      -0.614
      -0.661
      -0.679
      -0.646
      -0.556
      -0.408
      -0.203
       0.063
       0.391
       0.774
       1.186
       1.591
       1.952
       2.233
       2.405
       2.456
       2.396
       2.249
       2.043
       1.801
       1.535
       1.256
       0.982
       0.737
       0.541
       0.401
       0.311
       0.257
       0.225
       0.201
       0.173
       0.132
       0.072
      -0.003
      -0.091
      -0.190
      -0.300
      -0.422
      -0.555
      -0.692
      -0.833
      -0.978
      -1.126
      -1.267
      -1.377
      -1.431
      -1.413
      -1.325
      -1.191
      -1.041
      -0.905
      -0.795
      -0.718
      -0.672
      -0.658
      -0.673
      -0.713
      -0.765
      -0.812
      -0.845
      -0.860
      -0.859
      -0.846
      -0.814
      -0.752
      -0.654
      -0.521
      -0.367
      -0.203
      -0.032
       0.156
       0.369
       0.607
       0.856
       1.096
       1.306
       1.475
       1.601
       1.690
       1.750
       1.793
       1.818
       1.817
       1.777
       1.692
       1.566
       1.410
       1.238
       1.056
       0.868
       0.679
       0.499
       0.337
       0.198
       0.081
      -0.017
      -0.096
      -0.157
      -0.196
      -0.214
      -0.215
      -0.212
      -0.216
      -0.234
      -0.267
      -0.319
      -0.398
      -0.512
      -0.666
      -0.860
      -1.080
      -1.308
      -1.515
      -1.673
      -1.764
      -1.777
      -1.714
      -1.583
      -1.391
      -1.145
      -0.848
      -0.513
      -0.162
       0.176
       0.465
       0.674
       0.775
       0.752
       0.606
       0.362
       0.063
      -0.236
      -0.479
      -0.630
      -0.673
      -0.611
      -0.463
      -0.253
      -0.013
       0.228
       0.443
       0.616
       0.752
       0.866
       0.975
       1.085
       1.187
       1.263
       1.302
       1.298
       1.256
       1.184
       1.083
       0.956
       0.811
       0.661
       0.517
       0.378
       0.233
       0.072
      -0.100
      -0.266
      -0.404
      -0.503
      -0.562
      -0.589
      -0.600
      -0.607
      -0.612
      -0.608
      -0.582
      -0.527
      -0.451
      -0.377
      -0.332
      -0.328
      -0.359
      -0.406
      -0.453
      -0.499
      -0.559
      -0.647
      -0.764
      -0.892
      -1.004
      -1.077
      -1.098
      -1.061
      -0.962
      -0.796
      -0.559
      -0.262
       0.072
       0.397
       0.667
       0.847
       0.931
       0.932
       0.880
       0.808
       0.737
       0.678
       0.635
       0.606
       0.588
       0.572
       0.541
       0.478
       0.373
       0.233
       0.077
      -0.067
      -0.174
      -0.226
      -0.220
      -0.165
      -0.080
       0.013
       0.095
       0.157
       0.204
       0.244
       0.289
       0.340
       0.389
       0.420
       0.418
       0.375
       0.294
       0.184
       0.059
      -0.062
      -0.157
      -0.213
      -0.229
      -0.224
      -0.223
      -0.251
      -0.318
      -0.409
      -0.497
      -0.556
      -0.573
      -0.552
      -0.503
      -0.436
      -0.366
      -0.302
      -0.255
      -0.229
      -0.219
      -0.218
      -0.221
      -0.225
      -0.231
      -0.238
      -0.245
      -0.255
      -0.266
      -0.266
      -0.240
      -0.174
      -0.069
       0.058
       0.179
       0.270
       0.325
       0.353
       0.375
       0.406
       0.440
       0.460
       0.453
       0.413
       0.354
       0.293
       0.246
       0.219
       0.210
       0.217
       0.240
       0.279
       0.333
       0.399
       0.470
       0.537
       0.587
       0.614
       0.613
       0.584
       0.534
       0.474
       0.422
       0.392
       0.381
       0.373
       0.345
       0.279
       0.173
       0.040
      -0.106
      -0.261
      -0.429
      -0.608
      -0.790
      -0.959
      -1.096
      -1.187
      -1.223
      -1.193
      -1.087
      -0.907
      -0.673
      -0.420
      -0.190
      -0.016
       0.089
       0.129
       0.122
       0.091
       0.058
       0.035
       0.025
       0.028
       0.038
       0.045
       0.040
       0.017
      -0.028
      -0.088
      -0.150
      -0.195
      -0.207
      -0.179
      -0.116
      -0.036
       0.041
       0.096
       0.120
       0.113
       0.080
       0.034
      -0.010
      -0.033
      -0.019
       0.041
       0.145
       0.278
       0.422
       0.555
       0.654
       0.704
       0.704
       0.666
       0.613
       0.570
       0.549
       0.546
       0.541
       0.519
       0.471
       0.400
       0.317
       0.227
       0.132
       0.031
      -0.072
      -0.168
      -0.247
      -0.307
      -0.347
      -0.375
      -0.398
      -0.427
      -0.464
      -0.508
      -0.553
      -0.594
      -0.635
      -0.675
      -0.707
      -0.719
      -0.693
      -0.627
      -0.532
      -0.431
      -0.345
      -0.279
      -0.225
      -0.171
      -0.112
      -0.049
       0.008
       0.056
       0.096
       0.132
       0.156
       0.154
       0.109
       0.020
      -0.094
      -0.206
      -0.289
      -0.327
      -0.319
      -0.267
      -0.174
      -0.037
       0.141
       0.349
       0.565
       0.761
       0.915
       1.012
       1.052
       1.042
       0.997
       0.935
       0.867
       0.802
       0.738
       0.670
       0.601
       0.541
       0.503
       0.487
       0.466
       0.402
       0.261
       0.040
      -0.236
      -0.521
      -0.776
      -0.974
      -1.108
      -1.182
      -1.207
      -1.193
      -1.150
      -1.081
      -0.986
      -0.862
      -0.715
      -0.557
      -0.411
      -0.292
      -0.205
      -0.141
      -0.084
      -0.027
       0.026
       0.063
       0.078
       0.070
       0.046
       0.013
      -0.024
      -0.062
      -0.103
