Origin Time       29/10/2009 17:44:30
Lat.              36.4°N	
Long.             70.8°E	
Depth (Km)        190.0
Magnitude         6.0
 Region           HINDUKUSH-REGION-AFGHANISTAN                                     
 Above details taken from IMD 
     
Station Code      RAM
Station Lat.       31.448  N
Station Long.      77.630  E
Station Height(m)  998.0
Site Class        A   Vs30 between 700 m/sec to 1400 m/sec * 
Record Time       29.10.2009 17:47:30.684
Sampling Rate     200. Hz
 Record Duration   65.155 Sec.
 Direction         E-W (E positive)
Max. Acceleration      1.968 cm/sec**2
     
  * For reference see Site Classification link of website 
     
 Base Line Corrected and Low Pass Filtered (Cut Off at 35 Hz) Time History
 Acceleration data in cm/sec**2
    
[...]
      -0.176
      -0.179
      -0.167
      -0.143
      -0.114
      -0.082
      -0.048
      -0.009
       0.036
       0.082
       0.119
       0.141
       0.145
       0.135
       0.119
       0.100
       0.080
       0.058
       0.032
      -0.001
      -0.038
      -0.079
      -0.119
      -0.152
      -0.174
      -0.181
      -0.170
      -0.140
      -0.096
      -0.044
       0.005
       0.043
       0.062
       0.062
       0.047
       0.024
      -0.002
      -0.026
      -0.048
      -0.066
      -0.080
      -0.090
      -0.098
      -0.105
      -0.114
      -0.123
      -0.132
      -0.138
      -0.138
      -0.131
      -0.116
      -0.099
      -0.083
      -0.070
      -0.058
      -0.042
      -0.017
       0.016
       0.054
       0.091
       0.125
       0.155
       0.179
       0.199
       0.214
       0.224
       0.228
       0.229
       0.226
       0.220
       0.211
       0.200
       0.195
       0.197
       0.209
       0.226
       0.240
       0.242
       0.228
       0.194
       0.146
       0.090
       0.033
      -0.024
      -0.082
      -0.136
      -0.182
      -0.213
      -0.229
      -0.230
      -0.220
      -0.199
      -0.168
      -0.125
      -0.068
      -0.001
       0.071
       0.141
       0.207
       0.271
       0.331
       0.382
       0.417
       0.430
       0.423
       0.401
       0.366
       0.317
       0.250
       0.163
       0.056
      -0.069
      -0.207
      -0.346
      -0.474
      -0.581
      -0.661
      -0.714
      -0.746
      -0.763
      -0.767
      -0.753
      -0.716
      -0.659
      -0.590
      -0.519
      -0.449
      -0.377
      -0.298
      -0.211
      -0.120
      -0.033
       0.050
       0.128
       0.203
       0.275
       0.340
       0.401
       0.464
       0.532
       0.608
       0.684
       0.752
       0.805
       0.841
       0.863
       0.876
       0.887
       0.893
       0.883
       0.847
       0.781
       0.693
       0.597
       0.505
       0.419
       0.334
       0.247
       0.159
       0.076
       0.005
      -0.047
      -0.082
      -0.105
      -0.126
      -0.148
      -0.170
      -0.187
      -0.197
      -0.201
      -0.209
      -0.228
      -0.261
      -0.306
      -0.359
      -0.415
      -0.475
      -0.537
      -0.598
      -0.653
      -0.697
      -0.729
      -0.750
      -0.760
      -0.757
      -0.737
      -0.700
      -0.648
      -0.583
      -0.509
      -0.430
      -0.350
      -0.273
      -0.201
      -0.134
      -0.072
      -0.014
       0.036
       0.079
       0.115
       0.148
       0.181
       0.215
       0.252
       0.290
       0.331
       0.374
       0.422
       0.478
       0.546
       0.625
       0.709
       0.787
       0.849
       0.889
       0.907
       0.907
       0.896
       0.877
       0.851
       0.811
       0.754
       0.675
       0.574
       0.458
       0.336
       0.216
       0.100
      -0.013
      -0.126
      -0.238
      -0.346
      -0.446
      -0.533
      -0.602
      -0.650
      -0.675
      -0.679
      -0.666
      -0.642
      -0.608
      -0.565
      -0.515
      -0.462
      -0.413
      -0.370
      -0.333
      -0.304
      -0.280
      -0.260
      -0.238
      -0.210
      -0.176
      -0.140
      -0.103
      -0.062
      -0.014
       0.041
       0.097
       0.146
       0.185
       0.217
       0.249
       0.289
       0.339
       0.396
       0.451
       0.494
       0.518
       0.523
       0.514
       0.494
       0.466
       0.431
       0.388
       0.336
       0.273
       0.198
       0.115
       0.035
      -0.035
      -0.087
      -0.124
      -0.154
      -0.186
      -0.220
      -0.255
      -0.286
      -0.316
      -0.349
      -0.390
      -0.434
      -0.473
      -0.500
      -0.514
      -0.519
      -0.518
      -0.509
      -0.492
      -0.464
      -0.430
      -0.396
      -0.367
      -0.344
      -0.321
      -0.295
      -0.261
      -0.221
      -0.179
      -0.140
      -0.108
      -0.080
      -0.054
      -0.030
      -0.007
       0.014
       0.034
       0.052
       0.066
       0.080
       0.097
       0.121
       0.152
       0.185
       0.213
       0.231
       0.235
       0.226
       0.212
       0.204
       0.210
       0.233
       0.269
       0.309
       0.349
       0.387
       0.425
       0.465
       0.505
       0.544
       0.577
       0.597
       0.595
       0.567
       0.511
       0.436
       0.345
       0.237
       0.108
      -0.044
      -0.209
      -0.371
      -0.512
      -0.620
      -0.695
      -0.745
      -0.777
      -0.790
      -0.782
      -0.749
      -0.694
      -0.624
      -0.545
      -0.460
      -0.373
      -0.288
      -0.211
      -0.147
      -0.096
      -0.051
      -0.003
       0.052
       0.112
       0.174
       0.229
       0.276
       0.316
       0.350
       0.378
       0.390
       0.379
       0.339
       0.269
       0.173
       0.054
      -0.083
      -0.228
      -0.364
      -0.475
      -0.548
      -0.577
      -0.561
      -0.510
      -0.435
      -0.346
      -0.245
      -0.134
      -0.014
       0.112
       0.235
       0.353
       0.463
       0.567
       0.662
       0.747
       0.816
       0.868
       0.902
       0.918
       0.914
       0.885
       0.831
       0.757
       0.666
       0.562
       0.444
       0.313
       0.172
       0.026
      -0.119
      -0.259
      -0.392
      -0.510
      -0.605
      -0.669
      -0.697
      -0.690
      -0.649
      -0.579
      -0.486
      -0.377
      -0.259
      -0.136
      -0.015
       0.097
       0.192
       0.263
       0.308
       0.327
       0.319
       0.284
       0.224
       0.141
       0.044
      -0.057
      -0.152
      -0.231
      -0.286
      -0.316
      -0.321
      -0.307
      -0.282
      -0.248
      -0.208
      -0.160
      -0.103
      -0.039
       0.025
       0.085
       0.142
       0.196
       0.251
       0.306
       0.363
       0.419
       0.471
       0.512
       0.537
       0.544
       0.536
       0.516
       0.481
       0.431
       0.369
       0.302
       0.236
       0.169
       0.100
       0.024
      -0.056
      -0.138
      -0.217
      -0.296
      -0.379
      -0.465
      -0.552
      -0.634
      -0.708
      -0.769
      -0.810
      -0.824
      -0.811
      -0.771
      -0.712
      -0.640
      -0.559
      -0.470
      -0.375
      -0.276
      -0.172
      -0.062
       0.050
       0.159
       0.254
       0.327
       0.374
       0.399
       0.411
       0.418
       0.427
       0.440
       0.453
       0.457
       0.450
       0.428
       0.396
       0.358
       0.319
       0.280
       0.245
       0.215
       0.192
       0.182
       0.186
       0.201
       0.222
       0.245
       0.268
       0.288
       0.303
       0.310
       0.311
       0.307
       0.300
       0.285
       0.257
       0.213
       0.149
       0.060
      -0.053
      -0.189
      -0.339
      -0.494
      -0.647
      -0.792
      -0.924
      -1.040
      -1.136
      -1.206
      -1.241
      -1.234
      -1.181
      -1.086
      -0.959
      -0.813
      -0.658
      -0.503
      -0.352
      -0.210
      -0.082
       0.030
       0.122
       0.194
       0.246
       0.284
       0.316
       0.351
       0.394
       0.443
       0.495
       0.540
       0.573
       0.590
       0.590
       0.573
       0.541
       0.492
       0.428
       0.349
       0.256
       0.155
       0.050
      -0.050
      -0.139
      -0.210
      -0.263
      -0.296
      -0.309
      -0.301
      -0.277
      -0.240
      -0.198
      -0.153
      -0.106
      -0.059
      -0.014
       0.026
       0.062
       0.102
       0.150
       0.204
       0.256
       0.296
       0.313
       0.305
       0.274
       0.225
       0.162
       0.086
      -0.007
      -0.113
      -0.230
      -0.347
      -0.457
      -0.556
      -0.645
      -0.727
      -0.798
      -0.852
      -0.877
      -0.863
      -0.803
      -0.700
      -0.564
      -0.412
      -0.256
      -0.106
       0.036
       0.173
       0.305
       0.432
       0.545
       0.637
       0.710
       0.769
       0.825
       0.880
       0.927
       0.957
       0.966
       0.961
       0.953
       0.950
       0.951
       0.948
       0.936
       0.909
       0.867
       0.808
       0.731
       0.638
       0.528
       0.409
       0.289
       0.171
       0.055
      -0.059
      -0.170
      -0.271
      -0.356
      -0.422
      -0.477
      -0.531
      -0.594
      -0.668
      -0.749
      -0.834
      -0.917
      -0.995
      -1.066
      -1.130
      -1.184
      -1.226
      -1.252
      -1.259
      -1.246
      -1.206
      -1.138
      -1.045
      -0.934
      -0.814
      -0.692
      -0.569
      -0.442
      -0.308
      -0.170
      -0.030
       0.103
       0.222
       0.325
       0.412
       0.489
       0.560
       0.626
       0.687
       0.743
       0.795
       0.844
       0.889
       0.933
       0.974
       1.013
       1.050
       1.079
       1.090
       1.071
       1.015
       0.930
       0.834
       0.740
       0.650
       0.558
       0.459
       0.358
       0.266
       0.190
       0.129
       0.070
      -0.004
      -0.101
      -0.223
      -0.359
      -0.494
      -0.608
      -0.691
      -0.743
      -0.770
      -0.777
      -0.764
      -0.728
      -0.668
      -0.595
      -0.521
      -0.458
      -0.411
      -0.375
      -0.345
      -0.313
      -0.279
      -0.245
      -0.215
      -0.194
      -0.181
      -0.166
      -0.141
      -0.098
      -0.039
       0.024
       0.077
       0.113
       0.128
       0.126
       0.114
       0.100
       0.089
       0.090
       0.108
       0.143
       0.194
       0.253
       0.314
       0.371
       0.417
       0.452
       0.475
       0.489
       0.494
       0.488
       0.465
       0.426
       0.373
       0.310
       0.239
       0.158
       0.062
      -0.049
      -0.167
      -0.278
      -0.370
      -0.440
      -0.492
      -0.536
      -0.575
      -0.608
      -0.629
      -0.635
      -0.624
      -0.599
      -0.560
      -0.506
      -0.436
      -0.351
      -0.256
      -0.157
      -0.057
       0.048
       0.162
       0.283
       0.404
       0.518
       0.619
       0.707
       0.785
       0.850
       0.901
       0.933
       0.947
       0.946
       0.932
       0.900
       0.842
       0.754
       0.639
       0.512
       0.387
       0.271
       0.161
       0.054
      -0.056
      -0.170
      -0.287
      -0.407
      -0.522
      -0.625
      -0.706
      -0.759
      -0.782
      -0.778
      -0.751
      -0.706
      -0.650
      -0.586
      -0.522
      -0.462
      -0.412
      -0.371
      -0.340
      -0.309
      -0.271
      -0.223
      -0.171
      -0.124
      -0.086
      -0.061
      -0.050
      -0.056
      -0.075
      -0.095
      -0.103
      -0.095
      -0.075
      -0.051
      -0.030
      -0.012
       0.013
       0.050
       0.098
       0.144
       0.183
       0.217
       0.263
       0.334
       0.430
       0.541
       0.651
       0.745
       0.816
       0.867
       0.902
       0.921
       0.922
       0.899
       0.848
       0.768
       0.661
       0.531
       0.383
       0.221
       0.049
      -0.128
      -0.309
      -0.490
      -0.668
      -0.835
      -0.987
      -1.122
      -1.238
      -1.330
      -1.396
      -1.435
      -1.449
      -1.439
      -1.404
      -1.341
      -1.249
      -1.135
      -1.008
      -0.879
      -0.753
      -0.625
      -0.491
      -0.350
      -0.204
      -0.060
       0.075
       0.195
       0.299
       0.390
       0.479
       0.571
       0.667
       0.763
       0.850
       0.922
       0.978
       1.013
       1.032
       1.039
       1.045
       1.061
       1.091
       1.132
       1.173
       1.205
       1.220
       1.215
       1.185
       1.124
       1.027
       0.900
       0.754
       0.603
       0.454
       0.305
       0.146
      -0.030
      -0.223
      -0.426
      -0.628
      -0.818
      -0.986
      -1.124
      -1.233
      -1.314
      -1.373
      -1.410
      -1.427
      -1.423
      -1.401
      -1.364
      -1.319
      -1.269
      -1.215
      -1.158
      -1.096
      -1.026
      -0.944
      -0.843
      -0.721
      -0.578
      -0.420
      -0.248
      -0.067
       0.121
       0.315
       0.513
       0.716
       0.920
       1.117
       1.294
       1.444
       1.564
       1.659
       1.730
       1.776
       1.794
       1.788
       1.768
       1.740
       1.704
       1.655
       1.580
       1.466
       1.307
       1.101
       0.860
       0.596
       0.326
       0.065
      -0.172
      -0.379
      -0.561
      -0.724
      -0.868
      -0.983
      -1.063
      -1.109
      -1.134
      -1.154
      -1.184
      -1.234
      -1.305
      -1.390
      -1.477
      -1.555
      -1.614
      -1.651
      -1.664
      -1.650
      -1.605
      -1.520
      -1.392
      -1.224
      -1.027
      -0.817
      -0.610
      -0.413
      -0.225
      -0.044
       0.132
       0.302
       0.465
       0.620
       0.767
       0.912
       1.057
       1.203
       1.349
       1.492
       1.629
       1.756
       1.864
       1.938
       1.968
       1.950
       1.889
       1.797
       1.682
       1.551
       1.403
       1.237
       1.052
       0.856
       0.655
       0.454
       0.254
       0.055
      -0.140
      -0.321
      -0.478
      -0.609
      -0.720
      -0.821
      -0.923
      -1.037
      -1.166
      -1.306
      -1.445
      -1.565
      -1.650
      -1.692
      -1.695
      -1.671
      -1.632
      -1.582
      -1.514
      -1.418
      -1.293
      -1.150
      -1.007
      -0.882
      -0.784
      -0.705
      -0.630
      -0.543
      -0.435
      -0.307
      -0.162
      -0.006
       0.158
       0.332
       0.514
       0.703
       0.895
       1.086
       1.268
       1.430
       1.559
       1.643
       1.676
       1.660
       1.602
       1.507
       1.382
       1.236
       1.075
       0.905
       0.736
       0.578
       0.445
       0.338
       0.255
       0.189
       0.131
       0.080
       0.032
      -0.011
      -0.050
      -0.087
      -0.127
      -0.176
      -0.238
      -0.317
      -0.408
      -0.507
      -0.612
      -0.723
      -0.836
      -0.948
      -1.048
      -1.130
      -1.190
      -1.232
      -1.259
      -1.275
      -1.280
      -1.273
      -1.248
      -1.197
      -1.115
      -0.999
      -0.850
      -0.675
      -0.484
      -0.287
      -0.092
       0.094
       0.268
       0.421
       0.549
       0.648
       0.719
       0.767
       0.798
       0.817
       0.828
       0.834
       0.838
       0.842
       0.846
       0.850
       0.849
       0.841
       0.826
       0.807
       0.786
       0.763
       0.734
       0.694
       0.640
       0.574
       0.503
       0.432
       0.360
       0.280
       0.181
       0.059
      -0.085
      -0.242
      -0.406
      -0.570
      -0.726
      -0.859
      -0.955
      -1.005
      -1.014
      -0.999
      -0.975
      -0.951
      -0.923
      -0.883
      -0.828
      -0.759
      -0.678
      -0.584
      -0.478
      -0.356
      -0.221
      -0.080
       0.054
       0.170
       0.260
       0.320
       0.352
       0.363
       0.356
       0.332
       0.292
       0.240
       0.187
       0.149
       0.136
       0.153
       0.195
       0.254
       0.321
       0.384
       0.430
       0.449
       0.435
       0.395
       0.341
       0.285
       0.235
       0.197
       0.170
       0.152
       0.138
       0.123
       0.111
       0.108
       0.121
       0.152
       0.197
       0.249
       0.304
       0.353
       0.386
       0.392
       0.363
       0.305
       0.234
       0.170
       0.123
       0.091
       0.065
       0.035
       0.002
      -0.029
      -0.051
      -0.064
      -0.068
      -0.066
      -0.058
      -0.043
      -0.028
      -0.016
      -0.011
      -0.011
      -0.012
      -0.009
      -0.003
       0.001
      -0.008
      -0.036
      -0.084
      -0.149
      -0.221
      -0.290
      -0.352
      -0.408
      -0.461
      -0.510
      -0.547
      -0.560
      -0.541
      -0.495
      -0.430
      -0.358
      -0.282
      -0.201
      -0.112
      -0.018
       0.072
       0.149
       0.205
       0.239
       0.257
       0.269
       0.277
       0.281
       0.272
       0.246
       0.203
       0.153
       0.106
       0.071
       0.046
       0.027
       0.009
      -0.010
      -0.030
      -0.047
      -0.055
      -0.042
      -0.003
       0.057
       0.123
       0.173
       0.194
       0.183
       0.149
       0.110
       0.086
       0.087
       0.116
       0.168
       0.233
       0.300
       0.364
       0.426
       0.491
       0.559
       0.622
       0.664
       0.668
       0.631
       0.556
       0.457
       0.344
       0.220
       0.089
      -0.045
      -0.173
      -0.288
      -0.383
      -0.457
      -0.514
      -0.562
      -0.603
      -0.637
      -0.667
      -0.697
      -0.738
      -0.792
      -0.853
      -0.901
      -0.914
      -0.883
      -0.816
      -0.728
      -0.629
      -0.519
      -0.393
      -0.248
      -0.092
       0.056
       0.182
       0.275
       0.338
       0.382
       0.422
       0.470
       0.527
       0.592
       0.658
       0.721
       0.778
       0.824
       0.859
       0.879
       0.886
       0.878
       0.853
       0.807
       0.736
       0.640
       0.527
       0.403
       0.274
       0.140
      -0.001
      -0.154
      -0.321
      -0.506
      -0.703
      -0.901
      -1.087
      -1.245
      -1.366
      -1.446
      -1.484
      -1.481
      -1.440
      -1.364
      -1.254
      -1.110
      -0.935
      -0.733
      -0.510
      -0.273
      -0.031
       0.208
       0.429
       0.619
       0.768
       0.869
       0.922
       0.933
       0.913
       0.872
       0.817
       0.746
       0.653
       0.535
       0.399
       0.259
       0.130
       0.026
      -0.046
      -0.083
      -0.092
      -0.078
      -0.049
      -0.010
       0.034
       0.073
       0.098
       0.110
       0.115
       0.124
       0.146
       0.181
       0.220
       0.253
       0.267
       0.254
       0.214
       0.151
       0.068
      -0.032
      -0.144
      -0.258
      -0.361
      -0.443
      -0.499
      -0.532
      -0.544
      -0.536
      -0.512
      -0.476
      -0.433
      -0.386
      -0.335
      -0.280
      -0.231
      -0.199
      -0.196
      -0.223
      -0.271
      -0.328
      -0.386
      -0.442
      -0.496
      -0.546
      -0.586
      -0.604
      -0.590
      -0.538
      -0.451
      -0.339
      -0.211
      -0.075
       0.063
       0.196
       0.320
       0.434
       0.542
       0.646
       0.739
       0.807
       0.844
       0.853
       0.846
       0.837
       0.833
       0.836
