Origin Time       22/10/2009 19:51:25
Lat.              36.5°N	
Long.             71.0°E	
Depth (Km)        168.0
Magnitude         6.3
 Region           HINDUKUSH-REGION-AFGHANISTAN                                     
 Above details taken from IMD 
     
Station Code      RAM
Station Lat.       31.448  N
Station Long.      77.630  E
Station Height(m)  998.0
Site Class        A   Vs30 between 700 m/sec to 1400 m/sec * 
Record Time       22.10.2009 19:54:19.309
Sampling Rate     200. Hz
 Record Duration   83.750 Sec.
 Direction         E-W (E positive)
Max. Acceleration     -4.700 cm/sec**2
     
  * For reference see Site Classification link of website 
     
 Base Line Corrected and Low Pass Filtered (Cut Off at 35 Hz) Time History
 Acceleration data in cm/sec**2
    
[...]
      -0.451
      -0.492
      -0.503
      -0.481
      -0.425
      -0.342
      -0.246
      -0.154
      -0.082
      -0.037
      -0.018
      -0.016
      -0.022
      -0.030
      -0.035
      -0.033
      -0.018
       0.015
       0.067
       0.136
       0.215
       0.289
       0.345
       0.373
       0.377
       0.363
       0.336
       0.297
       0.251
       0.203
       0.162
       0.125
       0.086
       0.040
      -0.014
      -0.066
      -0.102
      -0.115
      -0.107
      -0.091
      -0.084
      -0.094
      -0.122
      -0.155
      -0.183
      -0.201
      -0.209
      -0.209
      -0.199
      -0.176
      -0.137
      -0.082
      -0.009
       0.080
       0.182
       0.284
       0.365
       0.407
       0.403
       0.366
       0.318
       0.273
       0.228
       0.171
       0.095
       0.003
      -0.087
      -0.160
      -0.208
      -0.238
      -0.265
      -0.300
      -0.349
      -0.406
      -0.462
      -0.506
      -0.529
      -0.528
      -0.506
      -0.478
      -0.456
      -0.445
      -0.437
      -0.415
      -0.366
      -0.290
      -0.203
      -0.122
      -0.055
       0.007
       0.076
       0.159
       0.248
       0.327
       0.382
       0.407
       0.408
       0.393
       0.369
       0.341
       0.313
       0.287
       0.269
       0.262
       0.266
       0.271
       0.269
       0.258
       0.246
       0.248
       0.269
       0.306
       0.351
       0.390
       0.416
       0.424
       0.411
       0.371
       0.299
       0.194
       0.068
      -0.052
      -0.139
      -0.182
      -0.195
      -0.201
      -0.224
      -0.269
      -0.325
      -0.379
      -0.425
      -0.473
      -0.535
      -0.617
      -0.706
      -0.783
      -0.833
      -0.851
      -0.840
      -0.800
      -0.728
      -0.626
      -0.501
      -0.371
      -0.248
      -0.144
      -0.057
       0.015
       0.079
       0.137
       0.188
       0.232
       0.268
       0.299
       0.325
       0.347
       0.367
       0.388
       0.412
       0.442
       0.474
       0.507
       0.540
       0.567
       0.585
       0.595
       0.600
       0.604
       0.609
       0.607
       0.591
       0.554
       0.500
       0.433
       0.358
       0.282
       0.213
       0.159
       0.126
       0.105
       0.078
       0.028
      -0.053
      -0.161
      -0.282
      -0.407
      -0.523
      -0.621
      -0.693
      -0.740
      -0.768
      -0.789
      -0.807
      -0.824
      -0.836
      -0.839
      -0.830
      -0.809
      -0.775
      -0.726
      -0.660
      -0.570
      -0.456
      -0.321
      -0.181
      -0.053
       0.046
       0.114
       0.157
       0.190
       0.225
       0.268
       0.317
       0.366
       0.412
       0.451
       0.488
       0.526
       0.569
       0.609
       0.633
       0.629
       0.590
       0.523
       0.442
       0.364
       0.300
       0.257
       0.236
       0.232
       0.235
       0.232
       0.220
       0.201
       0.186
       0.181
       0.186
       0.195
       0.199
       0.191
       0.172
       0.143
       0.106
       0.064
       0.019
      -0.031
      -0.088
      -0.158
      -0.249
      -0.358
      -0.474
      -0.578
      -0.653
      -0.690
      -0.695
      -0.675
      -0.635
      -0.579
      -0.517
      -0.462
      -0.428
      -0.419
      -0.433
      -0.455
      -0.464
      -0.444
      -0.388
      -0.303
      -0.208
      -0.122
      -0.062
      -0.033
      -0.032
      -0.046
      -0.065
      -0.094
      -0.142
      -0.211
      -0.292
      -0.360
      -0.391
      -0.373
      -0.311
      -0.225
      -0.137
      -0.066
      -0.020
       0.006
       0.023
       0.048
       0.088
       0.144
       0.217
       0.305
       0.407
       0.515
       0.613
       0.685
       0.721
       0.727
       0.719
       0.709
       0.700
       0.689
       0.674
       0.657
       0.644
       0.633
       0.618
       0.589
       0.541
       0.474
       0.392
       0.304
       0.217
       0.137
       0.065
      -0.007
      -0.091
      -0.196
      -0.315
      -0.431
      -0.534
      -0.621
      -0.698
      -0.768
      -0.822
      -0.849
      -0.845
      -0.817
      -0.785
      -0.766
      -0.764
      -0.767
      -0.755
      -0.717
      -0.659
      -0.592
      -0.523
      -0.447
      -0.363
      -0.274
      -0.193
      -0.132
      -0.089
      -0.056
      -0.025
       0.004
       0.031
       0.057
       0.082
       0.096
       0.090
       0.058
       0.011
      -0.037
      -0.071
      -0.086
      -0.078
      -0.045
       0.019
       0.115
       0.234
       0.362
       0.486
       0.607
       0.730
       0.854
       0.965
       1.043
       1.075
       1.067
       1.038
       1.006
       0.979
       0.954
       0.922
       0.868
       0.780
       0.654
       0.498
       0.322
       0.142
      -0.033
      -0.196
      -0.338
      -0.454
      -0.536
      -0.584
      -0.605
      -0.614
      -0.621
      -0.624
      -0.608
      -0.559
      -0.473
      -0.358
      -0.231
      -0.112
      -0.016
       0.046
       0.069
       0.053
       0.004
      -0.068
      -0.157
      -0.256
      -0.362
      -0.471
      -0.574
      -0.661
      -0.723
      -0.758
      -0.764
      -0.740
      -0.678
      -0.577
      -0.444
      -0.296
      -0.157
      -0.043
       0.043
       0.112
       0.180
       0.256
       0.336
       0.401
       0.438
       0.444
       0.429
       0.402
       0.369
       0.334
       0.304
       0.287
       0.288
       0.304
       0.329
       0.365
       0.415
       0.475
       0.531
       0.569
       0.580
       0.566
       0.535
       0.498
       0.464
       0.435
       0.408
       0.385
       0.368
       0.359
       0.355
       0.349
       0.333
       0.309
       0.278
       0.240
       0.188
       0.116
       0.026
      -0.070
      -0.162
      -0.246
      -0.325
      -0.402
      -0.476
      -0.542
      -0.594
      -0.631
      -0.656
      -0.672
      -0.685
      -0.697
      -0.707
      -0.710
      -0.696
      -0.658
      -0.601
      -0.535
      -0.470
      -0.403
      -0.328
      -0.244
      -0.159
      -0.082
      -0.017
       0.042
       0.100
       0.159
       0.215
       0.264
       0.302
       0.328
       0.345
       0.361
       0.389
       0.440
       0.511
       0.591
       0.663
       0.718
       0.755
       0.780
       0.797
       0.808
       0.812
       0.809
       0.794
       0.764
       0.712
       0.626
       0.500
       0.337
       0.148
      -0.048
      -0.237
      -0.408
      -0.558
      -0.688
      -0.807
      -0.919
      -1.024
      -1.113
      -1.176
      -1.210
      -1.219
      -1.206
      -1.167
      -1.096
      -0.996
      -0.878
      -0.755
      -0.634
      -0.517
      -0.409
      -0.316
      -0.235
      -0.157
      -0.066
       0.044
       0.166
       0.287
       0.393
       0.479
       0.548
       0.610
       0.670
       0.731
       0.792
       0.849
       0.894
       0.919
       0.916
       0.890
       0.857
       0.843
       0.865
       0.919
       0.981
       1.016
       1.009
       0.961
       0.888
       0.799
       0.694
       0.569
       0.426
       0.272
       0.111
      -0.058
      -0.241
      -0.435
      -0.626
      -0.790
      -0.915
      -1.001
      -1.060
      -1.105
      -1.143
      -1.166
      -1.173
      -1.164
      -1.144
      -1.113
      -1.066
      -1.001
      -0.927
      -0.856
      -0.793
      -0.736
      -0.672
      -0.588
      -0.478
      -0.344
      -0.201
      -0.069
       0.043
       0.134
       0.215
       0.300
       0.397
       0.506
       0.618
       0.726
       0.827
       0.928
       1.042
       1.169
       1.303
       1.428
       1.534
       1.622
       1.701
       1.777
       1.850
       1.911
       1.952
       1.966
       1.944
       1.871
       1.736
       1.531
       1.261
       0.937
       0.571
       0.180
      -0.214
      -0.584
      -0.908
      -1.181
      -1.409
      -1.601
      -1.752
      -1.850
      -1.879
      -1.843
      -1.755
      -1.640
      -1.514
      -1.382
      -1.243
      -1.092
      -0.924
      -0.739
      -0.546
      -0.357
      -0.190
      -0.061
       0.019
       0.050
       0.045
       0.025
       0.014
       0.030
       0.079
       0.153
       0.236
       0.311
       0.366
       0.406
       0.446
       0.507
       0.597
       0.710
       0.821
       0.907
       0.952
       0.951
       0.913
       0.856
       0.801
       0.764
       0.749
       0.742
       0.720
       0.667
       0.580
       0.468
       0.349
       0.233
       0.125
       0.022
      -0.077
      -0.170
      -0.253
      -0.324
      -0.384
      -0.438
      -0.485
      -0.522
      -0.541
      -0.532
      -0.487
      -0.402
      -0.280
      -0.134
       0.018
       0.155
       0.260
       0.323
       0.335
       0.290
       0.189
       0.038
      -0.150
      -0.357
      -0.562
      -0.737
      -0.859
      -0.912
      -0.895
      -0.815
      -0.685
      -0.509
      -0.294
      -0.053
       0.191
       0.410
       0.587
       0.723
       0.832
       0.926
       1.006
       1.066
       1.098
       1.098
       1.063
       0.987
       0.857
       0.670
       0.430
       0.150
      -0.159
      -0.491
      -0.841
      -1.195
      -1.527
      -1.810
      -2.025
      -2.170
      -2.258
      -2.305
      -2.324
      -2.319
      -2.289
      -2.224
      -2.111
      -1.940
      -1.702
      -1.400
      -1.044
      -0.650
      -0.240
       0.160
       0.522
       0.826
       1.066
       1.252
       1.396
       1.505
       1.582
       1.624
       1.632
       1.612
       1.574
       1.535
       1.509
       1.510
       1.541
       1.594
       1.653
       1.704
       1.741
       1.765
       1.780
       1.774
       1.732
       1.640
       1.502
       1.337
       1.169
       1.013
       0.869
       0.726
       0.577
       0.415
       0.242
       0.056
      -0.147
      -0.375
      -0.637
      -0.933
      -1.251
      -1.563
      -1.837
      -2.051
      -2.202
      -2.300
      -2.361
      -2.388
      -2.378
      -2.329
      -2.250
      -2.164
      -2.090
      -2.025
      -1.953
      -1.854
      -1.729
      -1.590
      -1.457
      -1.334
      -1.215
      -1.085
      -0.931
      -0.741
      -0.507
      -0.227
       0.095
       0.442
       0.794
       1.133
       1.450
       1.746
       2.024
       2.283
       2.513
       2.694
       2.813
       2.870
       2.872
       2.831
       2.750
       2.632
       2.478
       2.297
       2.103
       1.911
       1.726
       1.542
       1.343
       1.119
       0.866
       0.591
       0.304
       0.014
      -0.267
      -0.523
      -0.739
      -0.905
      -1.029
      -1.126
      -1.214
      -1.304
      -1.399
      -1.497
      -1.599
      -1.713
      -1.850
      -2.007
      -2.170
      -2.303
      -2.367
      -2.337
      -2.213
      -2.020
      -1.785
      -1.519
      -1.221
      -0.885
      -0.522
      -0.158
       0.174
       0.445
       0.643
       0.765
       0.814
       0.798
       0.733
       0.644
       0.559
       0.495
       0.456
       0.434
       0.428
       0.452
       0.524
       0.652
       0.827
       1.023
       1.222
       1.417
       1.606
       1.790
       1.963
       2.117
       2.245
       2.341
       2.397
       2.399
       2.335
       2.200
       1.999
       1.743
       1.444
       1.113
       0.756
       0.372
      -0.043
      -0.495
      -0.975
      -1.462
      -1.926
      -2.336
      -2.663
      -2.889
      -3.009
      -3.033
      -2.987
      -2.902
      -2.800
      -2.689
      -2.569
      -2.437
      -2.293
      -2.139
      -1.978
      -1.815
      -1.654
      -1.491
      -1.315
      -1.108
      -0.859
      -0.564
      -0.228
       0.140
       0.531
       0.933
       1.329
       1.711
       2.080
       2.445
       2.809
       3.163
       3.485
       3.747
       3.921
       3.987
       3.940
       3.791
       3.560
       3.265
       2.918
       2.531
       2.119
       1.704
       1.303
       0.925
       0.574
       0.245
      -0.067
      -0.367
      -0.660
      -0.947
      -1.226
      -1.492
      -1.741
      -1.969
      -2.176
      -2.363
      -2.525
      -2.657
      -2.763
      -2.855
      -2.949
      -3.054
      -3.162
      -3.249
      -3.292
      -3.274
      -3.188
      -3.033
      -2.811
      -2.534
      -2.217
      -1.873
      -1.505
      -1.114
      -0.705
      -0.291
       0.114
       0.506
       0.891
       1.280
       1.684
       2.107
       2.547
       2.992
       3.425
       3.826
       4.169
       4.429
       4.576
       4.595
       4.485
       4.271
       3.993
       3.693
       3.400
       3.131
       2.882
       2.644
       2.404
       2.153
       1.881
       1.580
       1.246
       0.875
       0.469
       0.028
      -0.442
      -0.928
      -1.417
      -1.902
      -2.384
      -2.865
      -3.337
      -3.780
      -4.159
      -4.445
      -4.623
      -4.700
      -4.689
      -4.602
      -4.438
      -4.192
      -3.866
      -3.476
      -3.052
      -2.625
      -2.216
      -1.834
      -1.477
      -1.138
      -0.816
      -0.509
      -0.216
       0.069
       0.354
       0.648
       0.950
       1.245
       1.516
       1.751
       1.949
       2.122
       2.278
       2.420
       2.543
       2.641
       2.711
       2.749
       2.754
       2.726
       2.670
       2.602
       2.539
       2.495
       2.472
       2.465
       2.462
       2.448
       2.404
       2.313
       2.157
       1.921
       1.593
       1.166
       0.646
       0.055
      -0.568
      -1.174
      -1.718
      -2.168
      -2.513
      -2.758
      -2.919
      -3.013
      -3.052
      -3.044
      -2.989
      -2.889
      -2.745
      -2.570
      -2.380
      -2.195
      -2.030
      -1.885
      -1.748
      -1.604
      -1.452
      -1.297
      -1.144
      -0.987
      -0.810
      -0.599
      -0.351
      -0.074
       0.219
       0.519
       0.813
       1.089
       1.335
       1.540
       1.701
       1.814
       1.874
       1.880
       1.840
       1.772
       1.696
       1.633
       1.591
       1.568
       1.551
       1.525
       1.482
       1.427
       1.370
       1.323
       1.283
       1.243
       1.194
       1.131
       1.047
       0.929
       0.763
       0.544
       0.292
       0.040
      -0.180
      -0.359
      -0.512
      -0.662
      -0.825
      -1.000
      -1.182
      -1.363
      -1.540
      -1.711
      -1.869
      -2.008
      -2.125
      -2.222
      -2.294
      -2.329
      -2.314
      -2.242
      -2.124
      -1.975
      -1.808
      -1.627
      -1.428
      -1.204
      -0.951
      -0.671
      -0.371
      -0.057
       0.268
       0.600
       0.937
       1.273
       1.593
       1.881
       2.110
       2.262
       2.331
       2.338
       2.322
       2.315
       2.328
       2.349
       2.349
       2.305
       2.201
       2.034
       1.819
       1.580
       1.345
       1.132
       0.936
       0.738
       0.514
       0.249
      -0.059
      -0.404
      -0.771
      -1.135
      -1.469
      -1.750
      -1.968
      -2.124
      -2.221
      -2.254
      -2.210
      -2.078
      -1.854
      -1.555
      -1.209
      -0.854
      -0.521
      -0.226
       0.031
       0.257
       0.460
       0.642
       0.796
       0.910
       0.973
       0.981
       0.946
       0.885
       0.818
       0.751
       0.676
       0.574
       0.435
       0.260
       0.058
      -0.153
      -0.361
      -0.553
      -0.722
      -0.859
      -0.953
      -0.997
      -0.985
      -0.909
      -0.771
      -0.582
      -0.363
      -0.145
       0.043
       0.179
       0.255
       0.278
       0.270
       0.261
       0.274
       0.315
       0.376
       0.433
       0.454
       0.412
       0.295
       0.113
      -0.109
      -0.332
      -0.519
      -0.635
      -0.657
      -0.577
      -0.401
      -0.149
       0.155
       0.486
       0.818
       1.131
       1.403
       1.624
       1.788
       1.899
       1.962
       1.980
       1.953
       1.875
       1.730
       1.505
       1.197
       0.825
       0.429
       0.054
      -0.271
      -0.541
      -0.776
      -0.996
      -1.206
      -1.398
      -1.564
      -1.704
      -1.824
      -1.920
      -1.981
      -1.994
      -1.951
      -1.859
      -1.726
      -1.558
      -1.346
      -1.072
      -0.721
      -0.301
       0.157
       0.601
       0.978
       1.253
       1.421
       1.502
       1.527
       1.521
       1.492
       1.434
       1.341
       1.216
       1.075
       0.936
       0.793
       0.626
       0.419
       0.187
      -0.027
      -0.171
      -0.221
      -0.195
      -0.137
      -0.089
      -0.070
      -0.078
      -0.100
      -0.133
      -0.182
      -0.253
      -0.343
      -0.442
      -0.542
      -0.641
      -0.741
      -0.845
      -0.947
      -1.028
      -1.066
      -1.041
      -0.951
      -0.812
      -0.650
      -0.494
      -0.367
      -0.277
      -0.224
      -0.202
      -0.204
      -0.218
      -0.225
      -0.208
      -0.161
      -0.097
      -0.033
       0.017
       0.059
       0.111
       0.187
       0.292
       0.418
       0.552
       0.683
       0.804
       0.913
       1.008
       1.092
       1.162
       1.219
       1.264
       1.304
       1.353
       1.426
       1.527
       1.643
       1.745
       1.799
       1.779
       1.672
       1.470
       1.176
       0.804
       0.384
      -0.045
      -0.447
      -0.805
      -1.120
      -1.398
      -1.640
      -1.842
      -1.998
      -2.109
      -2.184
      -2.229
      -2.247
      -2.238
      -2.199
      -2.128
      -2.020
      -1.871
      -1.680
      -1.458
      -1.220
      -0.982
      -0.748
      -0.516
      -0.285
      -0.060
       0.147
       0.317
       0.439
       0.513
       0.545
       0.552
       0.552
       0.567
       0.617
       0.713
       0.843
       0.977
       1.073
       1.101
       1.053
       0.946
       0.811
       0.671
       0.539
       0.417
       0.312
       0.238
       0.220
       0.281
       0.427
       0.648
       0.911
       1.175
       1.399
       1.563
       1.669
       1.724
       1.731
       1.683
       1.568
       1.381
       1.117
       0.778
       0.366
      -0.113
      -0.643
      -1.202
      -1.759
      -2.277
      -2.716
      -3.043
      -3.243
      -3.322
      -3.300
      -3.202
      -3.045
      -2.837
      -2.590
      -2.325
      -2.071
      -1.853
      -1.674
      -1.513
      -1.338
      -1.120
      -0.842
      -0.498
      -0.085
       0.395
       0.926
