Origin Time       21/9/2009 9:43:47	 
Lat.              30.9 N	
Long.             79.1 E	
Depth (Km)         13.0
Magnitude         4.7
 Region           UTTARKASHI-UTTARAKHAND                                           
 Above details taken from IMD 
   
Station Code      RAM
Station Lat.       31.448
Station Long.      77.630
Station Height(m)  998.0
Site Class        A   Vs30 between 700 m/sec to 1400 m/sec * 
Record Time       21.09.2009 09:44:18.454
Sampling Rate     200. Hz
 Record Duration   74.415 Sec.
 Direction         Vert. (Up positive)
Max. Acceleration      3.604 cm/sec**2
     
  * For reference see Site Classification link of website 
     
 Base Line Corrected and Low Pass Filtered (Cut Off at 35 Hz) Time History
 Acceleration data in cm/sec**2
    
[...]
       0.744
       0.595
       0.409
       0.193
      -0.023
      -0.184
      -0.237
      -0.154
       0.039
       0.271
       0.448
       0.495
       0.389
       0.170
      -0.089
      -0.314
      -0.470
      -0.566
      -0.640
      -0.717
      -0.789
      -0.817
      -0.760
      -0.609
      -0.393
      -0.170
       0.007
       0.113
       0.148
       0.125
       0.062
      -0.015
      -0.077
      -0.093
      -0.045
       0.056
       0.186
       0.318
       0.435
       0.522
       0.553
       0.501
       0.365
       0.182
       0.010
      -0.104
      -0.155
      -0.173
      -0.181
      -0.176
      -0.129
      -0.023
       0.121
       0.263
       0.365
       0.414
       0.407
       0.339
       0.209
       0.033
      -0.138
      -0.245
      -0.257
      -0.198
      -0.128
      -0.094
      -0.109
      -0.158
      -0.221
      -0.279
      -0.314
      -0.301
      -0.219
      -0.072
       0.113
       0.288
       0.403
       0.426
       0.348
       0.192
       0.009
      -0.131
      -0.175
      -0.118
      -0.010
       0.083
       0.116
       0.090
       0.025
      -0.057
      -0.153
      -0.256
      -0.350
      -0.413
      -0.436
      -0.424
      -0.381
      -0.298
      -0.162
       0.018
       0.203
       0.341
       0.403
       0.398
       0.359
       0.323
       0.312
       0.331
       0.373
       0.413
       0.415
       0.342
       0.182
      -0.034
      -0.242
      -0.383
      -0.446
      -0.478
      -0.542
      -0.666
      -0.813
      -0.911
      -0.897
      -0.742
      -0.464
      -0.119
       0.219
       0.495
       0.699
       0.859
       1.002
       1.122
       1.175
       1.109
       0.902
       0.562
       0.124
      -0.345
      -0.756
      -1.015
      -1.077
      -0.965
      -0.759
      -0.535
      -0.315
      -0.086
       0.155
       0.375
       0.519
       0.560
       0.509
       0.408
       0.292
       0.186
       0.107
       0.074
       0.087
       0.115
       0.105
       0.022
      -0.122
      -0.280
      -0.411
      -0.507
      -0.578
      -0.611
      -0.582
      -0.480
      -0.343
      -0.231
      -0.185
      -0.191
      -0.197
      -0.145
      -0.001
       0.230
       0.511
       0.773
       0.935
       0.931
       0.747
       0.436
       0.091
      -0.202
      -0.392
      -0.468
      -0.431
      -0.294
      -0.087
       0.138
       0.326
       0.441
       0.477
       0.448
       0.371
       0.248
       0.076
      -0.141
      -0.380
      -0.604
      -0.774
      -0.870
      -0.901
      -0.880
      -0.812
      -0.678
      -0.458
      -0.158
       0.174
       0.472
       0.690
       0.827
       0.910
       0.962
       0.975
       0.925
       0.802
       0.624
       0.421
       0.210
      -0.013
      -0.253
      -0.503
      -0.739
      -0.932
      -1.051
      -1.070
      -0.973
      -0.772
      -0.524
      -0.303
      -0.159
      -0.077
       0.005
       0.142
       0.336
       0.533
       0.659
       0.662
       0.530
       0.292
       0.008
      -0.249
      -0.405
      -0.410
      -0.269
      -0.046
       0.177
       0.342
       0.442
       0.495
       0.517
       0.503
       0.452
       0.389
       0.348
       0.328
       0.288
       0.168
      -0.046
      -0.305
      -0.520
      -0.624
      -0.607
      -0.508
      -0.388
      -0.295
      -0.250
      -0.247
      -0.265
      -0.278
      -0.270
      -0.236
      -0.173
      -0.073
       0.078
       0.285
       0.521
       0.724
       0.828
       0.803
       0.668
       0.478
       0.281
       0.091
      -0.104
      -0.321
      -0.564
      -0.806
      -1.002
      -1.095
      -1.043
      -0.843
      -0.543
      -0.229
       0.008
       0.115
       0.106
       0.056
       0.055
       0.161
       0.373
       0.633
       0.864
       1.006
       1.035
       0.960
       0.802
       0.580
       0.308
       0.006
      -0.283
      -0.502
      -0.602
      -0.579
      -0.477
      -0.364
      -0.287
      -0.246
      -0.197
      -0.090
       0.092
       0.318
       0.523
       0.639
       0.626
       0.481
       0.235
      -0.060
      -0.348
      -0.574
      -0.704
      -0.728
      -0.669
      -0.571
      -0.483
      -0.440
      -0.433
      -0.419
      -0.347
      -0.189
       0.033
       0.257
       0.406
       0.436
       0.355
       0.216
       0.085
       0.007
      -0.010
       0.019
       0.074
       0.143
       0.226
       0.322
       0.423
       0.514
       0.577
       0.594
       0.548
       0.429
       0.243
       0.005
      -0.259
      -0.516
      -0.724
      -0.837
      -0.822
      -0.670
      -0.414
      -0.115
       0.148
       0.311
       0.338
       0.240
       0.066
      -0.099
      -0.170
      -0.101
       0.086
       0.309
       0.466
       0.488
       0.363
       0.127
      -0.150
      -0.386
      -0.509
      -0.487
      -0.353
      -0.200
      -0.126
      -0.178
      -0.319
      -0.455
      -0.491
      -0.383
      -0.154
       0.123
       0.355
       0.474
       0.468
       0.395
       0.348
       0.393
       0.523
       0.661
       0.713
       0.636
       0.449
       0.212
      -0.028
      -0.245
      -0.431
      -0.572
      -0.648
      -0.655
      -0.615
      -0.556
      -0.491
      -0.414
      -0.318
      -0.215
      -0.114
      -0.001
       0.147
       0.332
       0.510
       0.618
       0.613
       0.505
       0.341
       0.168
       0.014
      -0.113
      -0.207
      -0.263
      -0.283
      -0.287
      -0.289
      -0.282
      -0.231
      -0.106
       0.087
       0.300
       0.470
       0.550
       0.529
       0.421
       0.249
       0.032
      -0.206
      -0.431
      -0.595
      -0.650
      -0.575
      -0.394
      -0.168
       0.036
       0.174
       0.250
       0.299
       0.365
       0.466
       0.578
       0.637
       0.572
       0.358
       0.042
      -0.268
      -0.464
      -0.498
      -0.397
      -0.243
      -0.119
      -0.076
      -0.122
      -0.231
      -0.347
      -0.399
      -0.339
      -0.169
       0.059
       0.282
       0.456
       0.565
       0.599
       0.544
       0.400
       0.205
       0.023
      -0.106
      -0.189
      -0.265
      -0.356
      -0.443
      -0.485
      -0.452
      -0.349
      -0.200
      -0.028
       0.151
       0.327
       0.469
       0.534
       0.481
       0.297
       0.025
      -0.241
      -0.397
      -0.384
      -0.227
      -0.029
       0.095
       0.078
      -0.058
      -0.226
      -0.328
      -0.321
      -0.229
      -0.121
      -0.060
      -0.060
      -0.081
      -0.061
       0.039
       0.191
       0.320
       0.352
       0.281
       0.176
       0.133
       0.199
       0.340
       0.471
       0.512
       0.435
       0.256
       0.018
      -0.232
      -0.451
      -0.610
      -0.701
      -0.745
      -0.765
      -0.767
      -0.733
      -0.630
      -0.444
      -0.187
       0.099
       0.366
       0.585
       0.754
       0.887
       0.988
       1.048
       1.049
       0.987
       0.881
       0.764
       0.659
       0.559
       0.425
       0.214
      -0.085
      -0.434
      -0.763
      -1.012
      -1.166
      -1.249
      -1.294
      -1.314
      -1.295
      -1.217
      -1.064
      -0.835
      -0.540
      -0.208
       0.125
       0.415
       0.636
       0.795
       0.920
       1.034
       1.126
       1.152
       1.071
       0.871
       0.580
       0.242
      -0.085
      -0.340
      -0.469
      -0.460
      -0.373
      -0.309
      -0.348
      -0.488
      -0.646
      -0.717
      -0.649
      -0.468
      -0.252
      -0.080
       0.016
       0.052
       0.069
       0.113
       0.206
       0.343
       0.487
       0.587
       0.608
       0.559
       0.496
       0.479
       0.531
       0.610
       0.646
       0.589
       0.431
       0.203
      -0.059
      -0.326
      -0.587
      -0.832
      -1.046
      -1.192
      -1.230
      -1.126
      -0.879
      -0.530
      -0.147
       0.203
       0.475
       0.654
       0.743
       0.751
       0.683
       0.541
       0.324
       0.049
      -0.233
      -0.443
      -0.505
      -0.400
      -0.181
       0.051
       0.213
       0.287
       0.320
       0.378
       0.487
       0.618
       0.696
       0.642
       0.419
       0.060
      -0.329
      -0.622
      -0.737
      -0.692
      -0.588
      -0.544
      -0.610
      -0.743
      -0.840
      -0.810
      -0.621
      -0.311
       0.030
       0.314
       0.490
       0.571
       0.608
       0.659
       0.743
       0.833
       0.877
       0.826
       0.666
       0.418
       0.128
      -0.154
      -0.388
      -0.555
      -0.650
      -0.680
      -0.651
      -0.574
      -0.457
      -0.315
      -0.170
      -0.046
       0.029
       0.040
      -0.012
      -0.103
      -0.193
      -0.248
      -0.253
      -0.208
      -0.118
       0.021
       0.214
       0.461
       0.741
       1.006
       1.189
       1.221
       1.070
       0.768
       0.400
       0.066
      -0.168
      -0.299
      -0.386
      -0.514
      -0.746
      -1.081
      -1.446
      -1.719
      -1.782
      -1.575
      -1.124
      -0.540
       0.032
       0.467
       0.710
       0.783
       0.762
       0.733
       0.753
       0.837
       0.955
       1.060
       1.116
       1.111
       1.057
       0.964
       0.825
       0.623
       0.357
       0.050
      -0.254
      -0.523
      -0.758
      -0.988
      -1.229
      -1.449
      -1.576
      -1.548
      -1.358
      -1.071
      -0.768
      -0.501
      -0.273
      -0.068
       0.112
       0.240
       0.299
       0.309
       0.329
       0.421
       0.609
       0.869
       1.147
       1.391
       1.558
       1.608
       1.499
       1.203
       0.735
       0.173
      -0.369
      -0.786
      -1.026
      -1.102
      -1.066
      -0.974
      -0.859
      -0.716
      -0.513
      -0.222
       0.137
       0.480
       0.692
       0.696
       0.503
       0.194
      -0.127
      -0.387
      -0.559
      -0.650
      -0.681
      -0.661
      -0.577
      -0.395
      -0.099
       0.272
       0.622
       0.841
       0.867
       0.727
       0.515
       0.331
       0.230
       0.207
       0.212
       0.167
      -0.008
      -0.342
      -0.785
      -1.215
      -1.494
      -1.553
      -1.427
      -1.208
      -0.966
      -0.712
      -0.417
      -0.070
       0.301
       0.656
       0.973
       1.261
       1.529
       1.752
       1.871
       1.829
       1.620
       1.302
       0.955
       0.630
       0.325
       0.015
      -0.309
      -0.614
      -0.841
      -0.931
      -0.851
      -0.611
      -0.267
       0.071
       0.279
       0.278
       0.100
      -0.134
      -0.294
      -0.334
      -0.315
      -0.339
      -0.461
      -0.656
      -0.852
      -0.993
      -1.062
      -1.069
      -1.023
      -0.921
      -0.755
      -0.527
      -0.260
       0.000
       0.196
       0.282
       0.263
       0.210
       0.230
       0.401
       0.715
       1.075
       1.358
       1.491
       1.487
       1.407
       1.291
       1.135
       0.920
       0.664
       0.427
       0.263
       0.173
       0.107
       0.000
      -0.186
      -0.446
      -0.743
      -1.029
      -1.259
      -1.395
      -1.414
      -1.312
      -1.108
      -0.850
      -0.601
      -0.414
      -0.309
      -0.270
      -0.257
      -0.233
      -0.189
      -0.138
      -0.108
      -0.117
      -0.169
      -0.239
      -0.278
      -0.222
      -0.020
       0.332
       0.772
       1.193
       1.485
       1.587
       1.504
       1.286
       0.994
       0.673
       0.350
       0.038
      -0.258
      -0.545
      -0.832
      -1.105
      -1.319
      -1.420
      -1.374
      -1.192
      -0.917
      -0.589
      -0.228
       0.161
       0.559
       0.933
       1.255
       1.525
       1.755
       1.935
       2.014
       1.927
       1.637
       1.181
       0.661
       0.194
      -0.143
      -0.345
      -0.472
      -0.609
      -0.827
      -1.140
      -1.508
      -1.856
      -2.122
      -2.274
      -2.305
      -2.210
      -1.990
      -1.674
      -1.327
      -1.034
      -0.846
      -0.751
      -0.676
      -0.529
      -0.250
       0.166
       0.676
       1.214
       1.714
       2.120
       2.400
       2.544
       2.565
       2.481
       2.299
       2.016
       1.639
       1.199
       0.737
       0.296
      -0.084
      -0.356
      -0.472
      -0.400
      -0.168
       0.125
       0.333
       0.336
       0.098
      -0.317
      -0.787
      -1.192
      -1.464
      -1.605
      -1.669
      -1.729
      -1.841
      -2.012
      -2.195
      -2.300
      -2.231
      -1.921
      -1.355
      -0.581
       0.293
       1.120
       1.755
       2.117
       2.229
       2.202
       2.165
       2.179
       2.194
       2.086
       1.727
       1.064
       0.150
      -0.874
      -1.825
      -2.540
      -2.916
      -2.927
      -2.616
      -2.073
      -1.403
      -0.695
       0.002
       0.681
       1.360
       2.050
       2.722
       3.284
       3.604
       3.569
       3.164
       2.495
       1.740
       1.045
       0.454
      -0.085
      -0.645
      -1.247
      -1.840
      -2.336
      -2.664
      -2.803
      -2.767
      -2.593
      -2.320
      -1.999
      -1.682
      -1.405
      -1.178
      -0.982
      -0.780
      -0.536
      -0.237
       0.108
       0.467
       0.803
       1.066
       1.204
       1.179
       0.992
       0.695
       0.376
       0.127
       0.015
       0.063
       0.253
       0.533
       0.832
       1.073
       1.197
       1.189
       1.089
       0.963
       0.857
       0.782
       0.734
       0.718
       0.735
       0.765
       0.752
       0.630
       0.364
      -0.021
      -0.455
      -0.866
      -1.213
      -1.481
      -1.651
      -1.676
      -1.502
      -1.101
      -0.510
       0.175
       0.823
       1.316
       1.587
       1.649
       1.584
       1.487
       1.403
       1.299
       1.079
       0.653
      -0.002
      -0.816
      -1.661
      -2.409
      -2.968
      -3.290
      -3.354
      -3.159
      -2.740
      -2.177
      -1.581
      -1.042
      -0.594
      -0.216
       0.134
       0.482
       0.816
       1.094
       1.268
       1.301
       1.192
       0.985
       0.766
       0.632
       0.652
       0.831
       1.108
       1.386
       1.578
       1.630
       1.544
       1.374
       1.205
       1.111
       1.113
       1.160
       1.157
       1.018
       0.714
       0.280
      -0.214
      -0.692
      -1.087
      -1.344
      -1.448
      -1.436
      -1.388
      -1.375
      -1.411
      -1.439
      -1.376
      -1.175
      -0.867
      -0.550
      -0.327
      -0.241
      -0.249
      -0.255
      -0.183
      -0.037
       0.110
       0.181
       0.160
       0.105
       0.111
       0.241
       0.497
       0.820
       1.111
       1.265
       1.204
       0.915
       0.470
      -0.005
      -0.393
      -0.646
      -0.798
      -0.923
      -1.070
      -1.236
      -1.377
      -1.435
      -1.370
      -1.175
      -0.880
      -0.531
      -0.170
       0.180
       0.514
       0.830
       1.114
       1.329
       1.439
       1.427
       1.317
       1.163
       1.029
       0.948
       0.914
       0.890
       0.839
       0.754
       0.664
       0.608
       0.604
       0.634
       0.653
       0.608
       0.467
       0.232
      -0.058
      -0.340
      -0.555
      -0.672
      -0.708
      -0.728
      -0.802
      -0.967
      -1.202
      -1.433
      -1.569
      -1.538
      -1.316
      -0.940
      -0.498
      -0.096
       0.189
       0.341
       0.405
       0.455
       0.547
       0.682
       0.796
       0.799
       0.628
       0.281
      -0.182
      -0.660
      -1.042
      -1.231
      -1.171
      -0.881
      -0.454
      -0.026
       0.290
       0.462
       0.541
       0.617
       0.755
       0.958
       1.180
       1.358
       1.443
       1.424
       1.320
       1.181
       1.061
       0.985
       0.927
       0.818
       0.586
       0.209
      -0.261
      -0.736
      -1.124
      -1.371
      -1.469
      -1.460
      -1.421
      -1.427
      -1.511
      -1.631
      -1.683
      -1.569
      -1.265
      -0.848
      -0.448
      -0.164
      -0.008
       0.085
       0.205
       0.407
       0.684
       0.972
       1.181
       1.232
       1.085
       0.762
       0.350
      -0.036
      -0.292
      -0.369
      -0.270
      -0.039
       0.266
       0.582
       0.852
       1.038
       1.119
       1.102
       1.005
       0.851
       0.652
       0.411
       0.125
      -0.209
      -0.568
      -0.914
      -1.206
      -1.428
      -1.581
      -1.655
      -1.616
      -1.426
      -1.083
      -0.649
      -0.231
       0.083
       0.267
       0.354
       0.384
       0.364
       0.274
       0.102
      -0.116
      -0.307
      -0.405
      -0.383
      -0.261
      -0.074
       0.143
       0.347
       0.493
       0.552
       0.534
       0.484
       0.446
       0.433
       0.434
       0.434
       0.433
       0.437
       0.460
       0.523
       0.659
       0.881
       1.138
       1.311
       1.270
       0.959
       0.443
      -0.133
      -0.640
      -1.026
      -1.306
      -1.505
      -1.627
      -1.666
      -1.632
      -1.553
      -1.450
      -1.309
      -1.089
      -0.761
      -0.334
       0.140
       0.594
       0.955
       1.155
       1.134
       0.878
       0.455
       0.008
      -0.301
      -0.383
      -0.258
      -0.033
       0.175
       0.306
       0.369
       0.402
       0.436
       0.466
       0.473
       0.447
       0.401
       0.361
       0.344
       0.345
       0.345
       0.335
       0.337
       0.396
       0.548
       0.793
       1.076
       1.304
       1.380
       1.246
       0.911
       0.455
      -0.005
      -0.361
      -0.551
      -0.571
      -0.470
      -0.330
      -0.232
      -0.231
      -0.337
      -0.518
      -0.718
      -0.876
      -0.956
      -0.969
      -0.974
      -1.048
      -1.236
      -1.516
      -1.812
      -2.044
      -2.164
      -2.149
      -1.972
      -1.606
      -1.055
      -0.373
       0.350
       1.035
       1.642
       2.165
       2.590
       2.889
       3.035
       3.031
       2.896
       2.641
       2.246
       1.700
       1.036
       0.350
      -0.244
      -0.670
      -0.920
      -1.038
      -1.085
      -1.108
      -1.135
      -1.153
      -1.094
      -0.864
      -0.417
       0.177
       0.743
       1.089
       1.120
       0.883
       0.525
       0.196
      -0.032
      -0.171
      -0.278
      -0.409
      -0.592
      -0.817
      -1.031
      -1.147
      -1.085
      -0.834
