Origin Time       29/10/2009 17:44:30 UTC
Lat.              36.4°N	
Long.             70.8°E	
Depth (Km)        190.0
Magnitude         6.0
 Region           HINDUKUSH-REGION-AFGHANISTAN                                     
 Above details taken from IMD 
    
Station Code      RAM
Station Lat.       31.448  N
Station Long.      77.630  E
Station Height(m)  998.0
Site Class        A   Vs30 between 700 m/sec to 1400 m/sec * 
Record Time       29.10.2009 17:47:30.684 UTC
Sampling Rate     200. Hz
 Record Duration   65.155 Sec.
 Direction         N-S (N positive)
Max. Acceleration     -2.388 cm/sec**2
     
  * For reference see Site Classification link of website 
     
 Base Line Corrected and Low Pass Filtered (Cut Off at 35 Hz) Time History
 Acceleration data in cm/sec**2
    
[...]
      -0.229
      -0.222
      -0.224
      -0.235
      -0.257
      -0.288
      -0.327
      -0.368
      -0.405
      -0.434
      -0.452
      -0.459
      -0.451
      -0.424
      -0.377
      -0.315
      -0.245
      -0.173
      -0.097
      -0.012
       0.086
       0.192
       0.298
       0.400
       0.499
       0.592
       0.674
       0.732
       0.761
       0.768
       0.764
       0.755
       0.742
       0.721
       0.690
       0.652
       0.609
       0.563
       0.515
       0.466
       0.418
       0.373
       0.328
       0.281
       0.227
       0.166
       0.101
       0.037
      -0.022
      -0.079
      -0.139
      -0.208
      -0.283
      -0.355
      -0.418
      -0.470
      -0.512
      -0.549
      -0.589
      -0.635
      -0.689
      -0.745
      -0.793
      -0.824
      -0.833
      -0.823
      -0.794
      -0.747
      -0.684
      -0.607
      -0.520
      -0.425
      -0.324
      -0.219
      -0.118
      -0.026
       0.051
       0.113
       0.160
       0.191
       0.210
       0.222
       0.235
       0.253
       0.272
       0.290
       0.304
       0.320
       0.345
       0.383
       0.434
       0.492
       0.555
       0.621
       0.692
       0.766
       0.837
       0.897
       0.940
       0.965
       0.969
       0.951
       0.910
       0.848
       0.773
       0.688
       0.596
       0.496
       0.392
       0.287
       0.186
       0.093
       0.010
      -0.058
      -0.112
      -0.156
      -0.202
      -0.257
      -0.320
      -0.382
      -0.437
      -0.479
      -0.510
      -0.531
      -0.548
      -0.563
      -0.582
      -0.610
      -0.649
      -0.698
      -0.753
      -0.811
      -0.866
      -0.914
      -0.952
      -0.979
      -0.996
      -0.998
      -0.985
      -0.955
      -0.905
      -0.832
      -0.733
      -0.612
      -0.481
      -0.355
      -0.247
      -0.159
      -0.089
      -0.033
       0.015
       0.055
       0.089
       0.114
       0.134
       0.156
       0.186
       0.225
       0.271
       0.320
       0.374
       0.436
       0.511
       0.598
       0.691
       0.778
       0.852
       0.908
       0.942
       0.949
       0.928
       0.880
       0.814
       0.740
       0.665
       0.593
       0.521
       0.446
       0.365
       0.283
       0.213
       0.163
       0.137
       0.129
       0.133
       0.143
       0.158
       0.176
       0.191
       0.197
       0.188
       0.160
       0.113
       0.051
      -0.020
      -0.096
      -0.177
      -0.260
      -0.340
      -0.412
      -0.477
      -0.538
      -0.598
      -0.658
      -0.714
      -0.763
      -0.798
      -0.816
      -0.819
      -0.810
      -0.794
      -0.775
      -0.748
      -0.709
      -0.660
      -0.608
      -0.561
      -0.522
      -0.486
      -0.447
      -0.401
      -0.351
      -0.304
      -0.263
      -0.229
      -0.201
      -0.175
      -0.150
      -0.123
      -0.087
      -0.037
       0.031
       0.115
       0.209
       0.303
       0.393
       0.475
       0.552
       0.625
       0.697
       0.766
       0.829
       0.877
       0.906
       0.909
       0.886
       0.837
       0.761
       0.657
       0.532
       0.397
       0.263
       0.142
       0.036
      -0.052
      -0.125
      -0.181
      -0.223
      -0.253
      -0.274
      -0.291
      -0.303
      -0.311
      -0.314
      -0.309
      -0.294
      -0.271
      -0.247
      -0.233
      -0.233
      -0.249
      -0.276
      -0.306
      -0.334
      -0.356
      -0.370
      -0.377
      -0.376
      -0.366
      -0.349
      -0.328
      -0.307
      -0.290
      -0.276
      -0.260
      -0.234
      -0.196
      -0.150
      -0.104
      -0.067
      -0.043
      -0.030
      -0.022
      -0.018
      -0.018
      -0.021
      -0.024
      -0.019
      -0.002
       0.026
       0.056
       0.085
       0.110
       0.134
       0.164
       0.202
       0.249
       0.303
       0.360
       0.419
       0.480
       0.544
       0.604
       0.653
       0.681
       0.684
       0.665
       0.631
       0.591
       0.548
       0.507
       0.468
       0.430
       0.391
       0.348
       0.302
       0.252
       0.201
       0.152
       0.108
       0.069
       0.034
       0.003
      -0.022
      -0.037
      -0.044
      -0.049
      -0.060
      -0.079
      -0.105
      -0.135
      -0.171
      -0.212
      -0.260
      -0.316
      -0.377
      -0.440
      -0.503
      -0.564
      -0.621
      -0.673
      -0.715
      -0.742
      -0.752
      -0.745
      -0.724
      -0.690
      -0.643
      -0.585
      -0.523
      -0.464
      -0.412
      -0.363
      -0.313
      -0.256
      -0.191
      -0.125
      -0.061
      -0.005
       0.041
       0.079
       0.110
       0.138
       0.169
       0.207
       0.258
       0.324
       0.404
       0.491
       0.574
       0.645
       0.699
       0.736
       0.756
       0.759
       0.749
       0.727
       0.698
       0.661
       0.615
       0.563
       0.505
       0.446
       0.389
       0.334
       0.279
       0.224
       0.174
       0.135
       0.111
       0.097
       0.084
       0.062
       0.032
      -0.001
      -0.029
      -0.056
      -0.087
      -0.130
      -0.185
      -0.247
      -0.315
      -0.388
      -0.470
      -0.559
      -0.654
      -0.747
      -0.832
      -0.902
      -0.950
      -0.974
      -0.975
      -0.955
      -0.917
      -0.868
      -0.812
      -0.752
      -0.685
      -0.608
      -0.521
      -0.427
      -0.331
      -0.236
      -0.139
      -0.034
       0.080
       0.204
       0.336
       0.474
       0.614
       0.747
       0.864
       0.957
       1.021
       1.056
       1.061
       1.040
       0.996
       0.940
       0.880
       0.819
       0.752
       0.672
       0.573
       0.458
       0.336
       0.217
       0.105
      -0.002
      -0.105
      -0.202
      -0.290
      -0.365
      -0.425
      -0.471
      -0.502
      -0.515
      -0.505
      -0.472
      -0.419
      -0.357
      -0.295
      -0.238
      -0.187
      -0.134
      -0.076
      -0.008
       0.064
       0.134
       0.195
       0.244
       0.279
       0.301
       0.310
       0.306
       0.289
       0.260
       0.218
       0.168
       0.112
       0.053
      -0.011
      -0.085
      -0.166
      -0.248
      -0.321
      -0.382
      -0.433
      -0.482
      -0.536
      -0.591
      -0.634
      -0.653
      -0.643
      -0.610
      -0.565
      -0.514
      -0.452
      -0.368
      -0.259
      -0.133
      -0.003
       0.120
       0.231
       0.336
       0.435
       0.525
       0.600
       0.655
       0.688
       0.698
       0.684
       0.646
       0.585
       0.502
       0.399
       0.282
       0.160
       0.043
      -0.060
      -0.145
      -0.217
      -0.280
      -0.336
      -0.378
      -0.402
      -0.405
      -0.389
      -0.357
      -0.312
      -0.254
      -0.187
      -0.117
      -0.051
       0.006
       0.056
       0.102
       0.143
       0.178
       0.201
       0.206
       0.191
       0.151
       0.086
      -0.001
      -0.100
      -0.201
      -0.293
      -0.373
      -0.438
      -0.486
      -0.514
      -0.522
      -0.515
      -0.498
      -0.468
      -0.421
      -0.350
      -0.258
      -0.154
      -0.046
       0.059
       0.166
       0.281
       0.407
       0.534
       0.646
       0.733
       0.789
       0.822
       0.836
       0.836
       0.820
       0.785
       0.732
       0.664
       0.587
       0.506
       0.422
       0.334
       0.239
       0.134
       0.017
      -0.107
      -0.233
      -0.353
      -0.464
      -0.564
      -0.658
      -0.746
      -0.830
      -0.907
      -0.977
      -1.038
      -1.089
      -1.124
      -1.137
      -1.123
      -1.077
      -0.998
      -0.888
      -0.753
      -0.601
      -0.437
      -0.269
      -0.099
       0.063
       0.211
       0.331
       0.416
       0.466
       0.485
       0.479
       0.451
       0.400
       0.334
       0.264
       0.205
       0.169
       0.162
       0.184
       0.234
       0.309
       0.407
       0.525
       0.658
       0.797
       0.932
       1.052
       1.151
       1.226
       1.284
       1.328
       1.353
       1.353
       1.320
       1.253
       1.161
       1.055
       0.946
       0.836
       0.722
       0.598
       0.458
       0.301
       0.128
      -0.057
      -0.246
      -0.430
      -0.605
      -0.769
      -0.924
      -1.070
      -1.206
      -1.331
      -1.444
      -1.540
      -1.616
      -1.668
      -1.694
      -1.692
      -1.660
      -1.601
      -1.516
      -1.406
      -1.272
      -1.119
      -0.953
      -0.786
      -0.623
      -0.468
      -0.316
      -0.164
      -0.012
       0.139
       0.283
       0.418
       0.540
       0.647
       0.740
       0.826
       0.909
       0.990
       1.062
       1.119
       1.154
       1.168
       1.167
       1.157
       1.141
       1.120
       1.089
       1.047
       0.994
       0.932
       0.860
       0.777
       0.682
       0.574
       0.450
       0.306
       0.141
      -0.032
      -0.198
      -0.342
      -0.461
      -0.560
      -0.650
      -0.736
      -0.817
      -0.894
      -0.972
      -1.056
      -1.151
      -1.255
      -1.362
      -1.463
      -1.552
      -1.618
      -1.655
      -1.655
      -1.612
      -1.523
      -1.391
      -1.224
      -1.035
      -0.837
      -0.636
      -0.432
      -0.227
      -0.026
       0.165
       0.340
       0.502
       0.654
       0.793
       0.916
       1.020
       1.105
       1.172
       1.225
       1.269
       1.303
       1.327
       1.337
       1.329
       1.299
       1.245
       1.164
       1.058
       0.934
       0.800
       0.663
       0.530
       0.401
       0.275
       0.150
       0.028
      -0.087
      -0.191
      -0.278
      -0.344
      -0.387
      -0.406
      -0.400
      -0.373
      -0.330
      -0.278
      -0.225
      -0.175
      -0.130
      -0.088
      -0.048
      -0.013
       0.006
       0.000
      -0.039
      -0.105
      -0.185
      -0.268
      -0.349
      -0.430
      -0.513
      -0.599
      -0.687
      -0.773
      -0.851
      -0.913
      -0.949
      -0.955
      -0.926
      -0.859
      -0.753
      -0.613
      -0.449
      -0.274
      -0.103
       0.053
       0.186
       0.295
       0.385
       0.462
       0.534
       0.605
       0.677
       0.746
       0.807
       0.850
       0.867
       0.855
       0.820
       0.772
       0.722
       0.676
       0.634
       0.595
       0.557
       0.521
       0.486
       0.449
       0.405
       0.351
       0.284
       0.205
       0.118
       0.028
      -0.060
      -0.144
      -0.227
      -0.309
      -0.385
      -0.445
      -0.481
      -0.491
      -0.478
      -0.452
      -0.425
      -0.408
      -0.411
      -0.437
      -0.482
      -0.539
      -0.599
      -0.653
      -0.698
      -0.735
      -0.769
      -0.800
      -0.826
      -0.840
      -0.836
      -0.815
      -0.779
      -0.730
      -0.667
      -0.587
      -0.488
      -0.371
      -0.241
      -0.104
       0.038
       0.189
       0.362
       0.563
       0.788
       1.019
       1.230
       1.401
       1.523
       1.600
       1.634
       1.629
       1.585
       1.505
       1.394
       1.254
       1.091
       0.906
       0.702
       0.485
       0.259
       0.032
      -0.190
      -0.400
      -0.593
      -0.768
      -0.927
      -1.068
      -1.189
      -1.284
      -1.345
      -1.365
      -1.344
      -1.289
      -1.212
      -1.119
      -1.012
      -0.890
      -0.759
      -0.630
      -0.517
      -0.427
      -0.357
      -0.296
      -0.238
      -0.176
      -0.110
      -0.040
       0.037
       0.124
       0.220
       0.318
       0.413
       0.499
       0.579
       0.657
       0.737
       0.816
       0.889
       0.952
       1.001
       1.029
       1.028
       1.000
       0.954
       0.899
       0.838
       0.771
       0.698
       0.627
       0.566
       0.526
       0.508
       0.507
       0.516
       0.523
       0.523
       0.512
       0.487
       0.447
       0.390
       0.311
       0.208
       0.085
      -0.051
      -0.191
      -0.335
      -0.483
      -0.635
      -0.786
      -0.930
      -1.059
      -1.172
      -1.269
      -1.354
      -1.424
      -1.477
      -1.509
      -1.521
      -1.521
      -1.511
      -1.494
      -1.463
      -1.413
      -1.336
      -1.232
      -1.101
      -0.946
      -0.777
      -0.608
      -0.453
      -0.319
      -0.205
      -0.099
       0.011
       0.135
       0.272
       0.421
       0.582
       0.752
       0.927
       1.088
       1.217
       1.303
       1.350
       1.370
       1.376
       1.377
       1.374
       1.372
       1.376
       1.392
       1.418
       1.442
       1.450
       1.434
       1.392
       1.331
       1.259
       1.182
       1.103
       1.020
       0.932
       0.834
       0.720
       0.587
       0.430
       0.245
       0.029
      -0.214
      -0.478
      -0.751
      -1.019
      -1.267
      -1.482
      -1.660
      -1.806
      -1.934
      -2.052
      -2.162
      -2.258
      -2.331
      -2.375
      -2.388
      -2.371
      -2.318
      -2.224
      -2.086
      -1.911
      -1.710
      -1.494
      -1.264
      -1.013
      -0.738
      -0.446
      -0.151
       0.135
       0.406
       0.663
       0.905
       1.128
       1.323
       1.483
       1.608
       1.704
       1.781
       1.841
       1.878
       1.883
       1.849
       1.783
       1.692
       1.584
       1.463
       1.332
       1.197
       1.067
       0.946
       0.834
       0.727
       0.618
       0.505
       0.389
       0.272
       0.158
       0.055
      -0.029
      -0.091
      -0.133
      -0.162
      -0.186
      -0.212
      -0.245
      -0.288
      -0.347
      -0.425
      -0.522
      -0.634
      -0.754
      -0.874
      -0.987
      -1.086
      -1.165
      -1.215
      -1.228
      -1.204
      -1.158
      -1.111
      -1.073
      -1.043
      -1.008
      -0.955
      -0.882
      -0.795
      -0.699
      -0.599
      -0.493
      -0.375
      -0.240
      -0.081
       0.101
       0.303
       0.513
       0.715
       0.894
       1.039
       1.145
       1.216
       1.253
       1.261
       1.243
       1.205
       1.152
       1.090
       1.018
       0.932
       0.830
       0.717
       0.600
       0.489
       0.384
       0.276
       0.155
       0.019
      -0.126
      -0.265
      -0.386
      -0.483
      -0.557
      -0.608
      -0.636
      -0.643
      -0.630
      -0.597
      -0.543
      -0.463
      -0.358
      -0.232
      -0.096
       0.040
       0.169
       0.284
       0.381
       0.453
       0.498
       0.517
       0.512
       0.490
       0.455
       0.416
       0.374
       0.328
       0.268
       0.187
       0.088
      -0.023
      -0.139
      -0.256
      -0.377
      -0.498
      -0.614
      -0.711
      -0.783
      -0.829
      -0.855
      -0.867
      -0.866
      -0.850
      -0.817
      -0.768
      -0.706
      -0.635
      -0.561
      -0.488
      -0.419
      -0.349
      -0.275
      -0.194
      -0.111
      -0.036
       0.028
       0.085
       0.141
       0.198
       0.255
       0.315
       0.384
       0.473
       0.590
       0.731
       0.877
       1.005
       1.098
       1.156
       1.187
       1.197
       1.185
       1.150
       1.091
       1.018
       0.944
       0.880
       0.827
       0.783
       0.743
       0.704
       0.665
       0.619
       0.557
       0.469
       0.354
       0.220
       0.078
      -0.063
      -0.204
      -0.355
      -0.527
      -0.720
      -0.924
      -1.120
      -1.292
      -1.436
      -1.554
      -1.648
      -1.719
      -1.766
      -1.794
      -1.808
      -1.808
      -1.791
      -1.748
      -1.667
      -1.540
      -1.362
      -1.138
      -0.885
      -0.622
      -0.362
      -0.110
       0.132
       0.356
       0.549
       0.698
       0.803
       0.871
       0.910
       0.922
       0.901
       0.847
       0.771
       0.693
       0.633
       0.604
       0.607
       0.633
       0.673
       0.717
       0.758
       0.789
       0.807
       0.809
       0.797
       0.768
       0.720
       0.654
       0.577
       0.494
       0.400
       0.287
       0.152
       0.009
      -0.124
      -0.237
      -0.328
      -0.403
      -0.465
      -0.509
      -0.534
      -0.541
      -0.534
      -0.521
      -0.510
      -0.505
      -0.507
      -0.511
      -0.511
      -0.506
      -0.500
      -0.497
      -0.492
      -0.479
      -0.449
      -0.402
      -0.346
      -0.287
      -0.229
      -0.174
      -0.120
      -0.069
      -0.022
       0.024
       0.076
       0.141
       0.221
       0.305
       0.378
       0.427
       0.446
       0.438
       0.408
       0.359
       0.299
       0.238
       0.191
       0.162
       0.145
       0.128
       0.101
       0.065
       0.030
       0.007
      -0.001
       0.003
       0.017
       0.045
       0.089
       0.157
       0.247
       0.349
       0.447
       0.526
       0.577
       0.595
       0.582
       0.543
       0.484
       0.414
       0.336
       0.253
       0.166
       0.079
      -0.004
      -0.076
      -0.134
      -0.179
      -0.216
      -0.254
      -0.295
      -0.337
      -0.375
      -0.411
      -0.454
      -0.512
      -0.582
      -0.651
      -0.706
      -0.744
      -0.766
      -0.775
      -0.769
      -0.744
      -0.701
      -0.646
      -0.591
      -0.548
      -0.519
      -0.500
      -0.479
      -0.449
      -0.406
      -0.352
      -0.286
      -0.203
      -0.100
       0.021
       0.155
       0.292
       0.421
       0.534
       0.626
       0.698
       0.752
       0.796
       0.834
       0.867
       0.891
       0.903
       0.901
       0.886
       0.859
       0.819
       0.761
       0.679
       0.574
       0.452
       0.325
       0.207
       0.106
       0.024
      -0.045
      -0.106
      -0.156
      -0.191
      -0.211
      -0.225
      -0.241
      -0.265
      -0.292
      -0.313
      -0.327
      -0.338
      -0.357
      -0.391
      -0.436
      -0.478
      -0.499
      -0.488
      -0.447
      -0.387
      -0.320
      -0.253
      -0.187
      -0.120
      -0.051
       0.018
       0.086
       0.150
       0.206
       0.249
       0.277
       0.291
       0.295
       0.292
       0.277
       0.248
       0.212
       0.179
       0.158
       0.145
       0.129
       0.106
       0.086
       0.079
       0.087
       0.100
       0.104
       0.094
       0.072
       0.037
      -0.015
      -0.086
      -0.163
      -0.226
      -0.255
      -0.246
      -0.200
      -0.125
      -0.025
       0.095
       0.223
       0.344
       0.445
       0.519
       0.563
       0.575
       0.553
       0.497
