Origin Time       02/10/2012 08:34:52 UTC
Lat.              32.3 N 
Long.             76.3 E 
Depth (Km)         10.0
Magnitude         4.9
 Region           Chamba-DISTT.-HIMACHAL                                           
 Above details taken from IMD 
    
Station Code      RAM
Station Lat.       31.448  N
Station Long.      77.630  E
Station Height(m)  998.0
Site Class        A   Vs30 between 700 m/sec to 1400 m/sec * 
Record Time       02.10.2012 08:35:04.544 UTC
Sampling Rate     200. Hz
 Record Duration   80.005 Sec.
 Direction         N-S (N positive)
Max. Acceleration      3.081 cm/sec**2
     
  * For reference see Site Classification link of website 
     
 Base Line Corrected and Low Pass Filtered (Cut Off at 35 Hz) Time History
 Acceleration data in cm/sec**2
    
[...]
      -0.106
      -0.126
      -0.145
      -0.168
      -0.195
      -0.219
      -0.232
      -0.228
      -0.207
      -0.175
      -0.134
      -0.084
      -0.027
       0.031
       0.080
       0.113
       0.124
       0.117
       0.098
       0.074
       0.053
       0.041
       0.038
       0.040
       0.042
       0.042
       0.046
       0.059
       0.084
       0.115
       0.145
       0.169
       0.185
       0.192
       0.188
       0.170
       0.135
       0.088
       0.039
      -0.003
      -0.032
      -0.049
      -0.057
      -0.061
      -0.069
      -0.084
      -0.104
      -0.124
      -0.137
      -0.142
      -0.143
      -0.141
      -0.133
      -0.116
      -0.088
      -0.051
      -0.009
       0.031
       0.064
       0.082
       0.087
       0.083
       0.079
       0.077
       0.070
       0.049
       0.015
      -0.023
      -0.048
      -0.058
      -0.055
      -0.050
      -0.045
      -0.039
      -0.030
      -0.019
      -0.008
       0.001
       0.011
       0.025
       0.039
       0.048
       0.049
       0.042
       0.035
       0.031
       0.031
       0.032
       0.031
       0.031
       0.037
       0.049
       0.059
       0.058
       0.036
      -0.008
      -0.062
      -0.108
      -0.130
      -0.126
      -0.105
      -0.085
      -0.072
      -0.060
      -0.034
       0.011
       0.067
       0.112
       0.131
       0.119
       0.087
       0.054
       0.031
       0.020
       0.015
       0.011
       0.007
       0.004
       0.003
       0.006
       0.012
       0.017
       0.015
       0.003
      -0.019
      -0.045
      -0.061
      -0.056
      -0.026
       0.021
       0.069
       0.102
       0.112
       0.102
       0.078
       0.050
       0.025
       0.008
       0.000
       0.001
       0.002
      -0.007
      -0.032
      -0.070
      -0.107
      -0.128
      -0.126
      -0.112
      -0.100
      -0.100
      -0.110
      -0.124
      -0.132
      -0.130
      -0.119
      -0.102
      -0.083
      -0.064
      -0.043
      -0.019
       0.010
       0.045
       0.084
       0.125
       0.164
       0.192
       0.202
       0.189
       0.155
       0.113
       0.079
       0.062
       0.056
       0.048
       0.024
      -0.018
      -0.063
      -0.092
      -0.087
      -0.047
       0.013
       0.070
       0.104
       0.107
       0.085
       0.050
       0.012
      -0.024
      -0.053
      -0.068
      -0.059
      -0.023
       0.027
       0.074
       0.103
       0.114
       0.114
       0.110
       0.100
       0.076
       0.038
      -0.009
      -0.054
      -0.086
      -0.100
      -0.099
      -0.088
      -0.078
      -0.073
      -0.075
      -0.077
      -0.073
      -0.065
      -0.060
      -0.069
      -0.096
      -0.132
      -0.161
      -0.165
      -0.140
      -0.093
      -0.042
       0.001
       0.030
       0.050
       0.064
       0.076
       0.085
       0.094
       0.104
       0.113
       0.116
       0.109
       0.090
       0.067
       0.050
       0.044
       0.048
       0.054
       0.055
       0.050
       0.041
       0.032
       0.026
       0.021
       0.019
       0.021
       0.025
       0.025
       0.010
      -0.022
      -0.066
      -0.104
      -0.121
      -0.114
      -0.094
      -0.078
      -0.075
      -0.087
      -0.102
      -0.109
      -0.103
      -0.085
      -0.061
      -0.032
       0.002
       0.047
       0.100
       0.158
       0.211
       0.246
       0.253
       0.227
       0.173
       0.106
       0.043
      -0.002
      -0.024
      -0.026
      -0.018
      -0.013
      -0.016
      -0.031
      -0.058
      -0.092
      -0.123
      -0.139
      -0.133
      -0.105
      -0.069
      -0.037
      -0.014
       0.004
       0.023
       0.049
       0.078
       0.100
       0.110
       0.106
       0.090
       0.068
       0.039
       0.004
      -0.036
      -0.076
      -0.110
      -0.130
      -0.134
      -0.122
      -0.096
      -0.059
      -0.016
       0.028
       0.066
       0.093
       0.103
       0.095
       0.072
       0.044
       0.020
       0.006
      -0.004
      -0.017
      -0.040
      -0.073
      -0.104
      -0.119
      -0.111
      -0.083
      -0.045
      -0.008
       0.022
       0.046
       0.068
       0.089
       0.111
       0.136
       0.162
       0.186
       0.203
       0.203
       0.186
       0.155
       0.122
       0.095
       0.079
       0.070
       0.059
       0.039
       0.004
      -0.046
      -0.103
      -0.156
      -0.194
      -0.212
      -0.213
      -0.206
      -0.201
      -0.202
      -0.209
      -0.216
      -0.217
      -0.207
      -0.183
      -0.143
      -0.087
      -0.021
       0.047
       0.104
       0.145
       0.168
       0.181
       0.193
       0.210
       0.231
       0.244
       0.237
       0.208
       0.163
       0.112
       0.063
       0.020
      -0.017
      -0.045
      -0.058
      -0.054
      -0.036
      -0.014
       0.002
       0.007
       0.001
      -0.011
      -0.026
      -0.041
      -0.051
      -0.052
      -0.040
      -0.019
       0.004
       0.023
       0.038
       0.056
       0.078
       0.094
       0.087
       0.042
      -0.034
      -0.113
      -0.166
      -0.178
      -0.158
      -0.125
      -0.093
      -0.071
      -0.059
      -0.055
      -0.056
      -0.059
      -0.059
      -0.050
      -0.029
       0.000
       0.025
       0.042
       0.051
       0.053
       0.051
       0.041
       0.023
       0.004
      -0.007
      -0.001
       0.021
       0.055
       0.094
       0.135
       0.175
       0.205
       0.217
       0.205
       0.167
       0.111
       0.049
      -0.010
      -0.059
      -0.099
      -0.133
      -0.163
      -0.188
      -0.201
      -0.193
      -0.157
      -0.099
      -0.031
       0.029
       0.072
       0.097
       0.109
       0.113
       0.106
       0.082
       0.041
      -0.009
      -0.049
      -0.065
      -0.051
      -0.015
       0.027
       0.054
       0.055
       0.033
       0.002
      -0.024
      -0.041
      -0.051
      -0.061
      -0.071
      -0.078
      -0.081
      -0.077
      -0.069
      -0.058
      -0.047
      -0.034
      -0.019
       0.001
       0.023
       0.045
       0.069
       0.093
       0.110
       0.113
       0.098
       0.071
       0.042
       0.020
       0.003
      -0.011
      -0.023
      -0.025
      -0.012
       0.019
       0.058
       0.090
       0.112
       0.130
       0.152
       0.182
       0.214
       0.239
       0.248
       0.238
       0.204
       0.146
       0.067
      -0.025
      -0.121
      -0.211
      -0.282
      -0.323
      -0.330
      -0.304
      -0.258
      -0.202
      -0.144
      -0.086
      -0.029
       0.028
       0.079
       0.114
       0.124
       0.106
       0.067
       0.020
      -0.027
      -0.070
      -0.112
      -0.154
      -0.195
      -0.224
      -0.231
      -0.212
      -0.166
      -0.095
      -0.011
       0.072
       0.134
       0.163
       0.155
       0.122
       0.084
       0.061
       0.064
       0.093
       0.135
       0.175
       0.203
       0.216
       0.213
       0.201
       0.185
       0.166
       0.143
       0.115
       0.084
       0.054
       0.032
       0.015
       0.001
      -0.017
      -0.042
      -0.073
      -0.104
      -0.127
      -0.138
      -0.140
      -0.137
      -0.135
      -0.132
      -0.124
      -0.110
      -0.090
      -0.064
      -0.027
       0.023
       0.084
       0.139
       0.173
       0.174
       0.146
       0.104
       0.066
       0.041
       0.026
       0.015
       0.000
      -0.019
      -0.035
      -0.039
      -0.024
       0.009
       0.055
       0.106
       0.156
       0.199
       0.227
       0.232
       0.214
       0.177
       0.132
       0.089
       0.050
       0.013
      -0.028
      -0.075
      -0.125
      -0.168
      -0.197
      -0.212
      -0.222
      -0.236
      -0.259
      -0.285
      -0.304
      -0.307
      -0.287
      -0.244
      -0.181
      -0.106
      -0.033
       0.024
       0.058
       0.069
       0.065
       0.051
       0.033
       0.014
      -0.003
      -0.011
      -0.003
       0.023
       0.065
       0.118
       0.175
       0.222
       0.246
       0.233
       0.183
       0.113
       0.052
       0.026
       0.046
       0.100
       0.159
       0.192
       0.186
       0.146
       0.092
       0.044
       0.011
      -0.012
      -0.033
      -0.054
      -0.074
      -0.086
      -0.090
      -0.095
      -0.112
      -0.141
      -0.173
      -0.193
      -0.194
      -0.181
      -0.160
      -0.134
      -0.099
      -0.054
      -0.009
       0.016
       0.001
      -0.057
      -0.134
      -0.196
      -0.216
      -0.188
      -0.126
      -0.050
       0.023
       0.085
       0.133
       0.167
       0.196
       0.227
       0.262
       0.297
       0.322
       0.334
       0.337
       0.334
       0.324
       0.296
       0.242
       0.170
       0.098
       0.044
       0.014
       0.002
       0.000
       0.000
       0.001
      -0.007
      -0.035
      -0.087
      -0.153
      -0.210
      -0.240
      -0.239
      -0.222
      -0.208
      -0.209
      -0.226
      -0.250
      -0.268
      -0.277
      -0.278
      -0.276
      -0.271
      -0.254
      -0.215
      -0.141
      -0.034
       0.091
       0.210
       0.303
       0.360
       0.384
       0.383
       0.364
       0.332
       0.293
       0.254
       0.224
       0.206
       0.198
       0.193
       0.184
       0.170
       0.155
       0.152
       0.166
       0.198
       0.238
       0.270
       0.279
       0.261
       0.218
       0.162
       0.103
       0.046
      -0.015
      -0.084
      -0.162
      -0.242
      -0.312
      -0.362
      -0.385
      -0.376
      -0.337
      -0.276
      -0.206
      -0.147
      -0.107
      -0.083
      -0.064
      -0.039
      -0.010
       0.012
       0.014
      -0.008
      -0.047
      -0.092
      -0.133
      -0.166
      -0.191
      -0.207
      -0.211
      -0.201
      -0.176
      -0.138
      -0.091
      -0.043
      -0.001
       0.024
       0.023
      -0.008
      -0.068
      -0.149
      -0.231
      -0.290
      -0.308
      -0.275
      -0.198
      -0.099
      -0.001
       0.079
       0.133
       0.158
       0.160
       0.137
       0.088
       0.008
      -0.100
      -0.227
      -0.353
      -0.459
      -0.527
      -0.544
      -0.508
      -0.426
      -0.314
      -0.190
      -0.069
       0.042
       0.142
       0.231
       0.310
       0.379
       0.444
       0.511
       0.588
       0.665
       0.727
       0.754
       0.740
       0.693
       0.627
       0.557
       0.491
       0.432
       0.381
       0.340
       0.309
       0.278
       0.235
       0.171
       0.083
      -0.020
      -0.128
      -0.231
      -0.320
      -0.389
      -0.431
      -0.451
      -0.461
      -0.471
      -0.485
      -0.495
      -0.492
      -0.474
      -0.453
      -0.446
      -0.468
      -0.515
      -0.570
      -0.614
      -0.637
      -0.639
      -0.626
      -0.604
      -0.577
      -0.540
      -0.484
      -0.402
      -0.293
      -0.163
      -0.018
       0.135
       0.286
       0.430
       0.558
       0.660
       0.730
       0.763
       0.761
       0.733
       0.695
       0.667
       0.666
       0.693
       0.733
       0.764
       0.765
       0.727
       0.653
       0.555
       0.446
       0.345
       0.271
       0.236
       0.242
       0.272
       0.299
       0.305
       0.283
       0.235
       0.168
       0.084
      -0.016
      -0.133
      -0.260
      -0.388
      -0.507
      -0.613
      -0.706
      -0.788
      -0.857
      -0.904
      -0.917
      -0.884
      -0.801
      -0.673
      -0.515
      -0.341
      -0.160
       0.018
       0.178
       0.301
       0.366
       0.360
       0.290
       0.175
       0.040
      -0.096
      -0.220
      -0.326
      -0.407
      -0.454
      -0.463
      -0.432
      -0.362
      -0.259
      -0.125
       0.031
       0.199
       0.358
       0.488
       0.573
       0.611
       0.603
       0.555
       0.471
       0.356
       0.224
       0.098
      -0.001
      -0.062
      -0.087
      -0.091
      -0.086
      -0.088
      -0.102
      -0.126
      -0.150
      -0.154
      -0.121
      -0.046
       0.065
       0.196
       0.335
       0.474
       0.605
       0.720
       0.806
       0.853
       0.861
       0.838
       0.796
       0.745
       0.695
       0.651
       0.616
       0.591
       0.568
       0.538
       0.492
       0.433
       0.366
       0.300
       0.237
       0.176
       0.108
       0.025
      -0.086
      -0.234
      -0.423
      -0.645
      -0.886
      -1.126
      -1.345
      -1.530
      -1.679
      -1.800
      -1.897
      -1.962
      -1.985
      -1.960
      -1.891
      -1.787
      -1.659
      -1.513
      -1.352
      -1.177
      -0.992
      -0.810
      -0.648
      -0.523
      -0.447
      -0.419
      -0.423
      -0.429
      -0.403
      -0.315
      -0.148
       0.100
       0.417
       0.783
       1.177
       1.580
       1.974
       2.337
       2.645
       2.876
       3.020
       3.081
       3.075
       3.022
       2.935
       2.818
       2.663
       2.460
       2.205
       1.903
       1.562
       1.194
       0.816
       0.446
       0.102
      -0.213
      -0.505
      -0.786
      -1.060
      -1.314
      -1.534
      -1.709
      -1.841
      -1.935
      -1.996
      -2.024
      -2.024
      -2.007
      -1.992
      -1.992
      -2.014
      -2.057
      -2.117
      -2.179
      -2.220
      -2.212
      -2.138
      -1.996
      -1.800
      -1.573
      -1.331
      -1.081
      -0.823
      -0.551
      -0.263
       0.041
       0.355
       0.670
       0.969
       1.231
       1.436
       1.574
       1.649
       1.672
       1.659
       1.621
       1.566
       1.503
       1.443
       1.398
       1.371
       1.357
       1.341
       1.307
       1.248
       1.165
       1.070
       0.971
       0.878
       0.790
       0.701
       0.603
       0.491
       0.370
       0.248
       0.136
       0.040
      -0.036
      -0.092
      -0.132
      -0.169
      -0.221
      -0.296
      -0.390
      -0.482
      -0.546
      -0.565
      -0.533
      -0.458
      -0.353
      -0.230
      -0.100
       0.030
       0.156
       0.271
       0.364
       0.422
       0.433
       0.394
       0.308
       0.178
       0.009
      -0.193
      -0.419
      -0.654
      -0.877
      -1.071
      -1.223
      -1.333
      -1.412
      -1.477
      -1.537
      -1.592
      -1.634
      -1.649
      -1.628
      -1.569
      -1.476
      -1.350
      -1.191
      -0.990
      -0.752
      -0.496
      -0.252
      -0.053
       0.086
       0.168
       0.207
       0.226
       0.243
       0.269
       0.308
       0.362
       0.431
       0.523
       0.644
       0.799
       0.982
       1.180
       1.382
       1.585
       1.792
       2.010
       2.238
       2.461
       2.654
       2.787
       2.836
       2.791
       2.651
       2.423
       2.115
       1.742
       1.324
       0.887
       0.452
       0.033
      -0.364
      -0.729
      -1.053
      -1.321
      -1.525
      -1.670
      -1.764
      -1.821
      -1.844
      -1.835
      -1.794
      -1.729
      -1.654
      -1.576
      -1.495
      -1.405
      -1.303
      -1.194
      -1.092
      -1.012
      -0.967
      -0.960
      -0.984
      -1.020
      -1.047
      -1.048
      -1.013
      -0.941
      -0.835
      -0.695
      -0.526
      -0.335
      -0.135
       0.056
       0.225
       0.368
       0.495
       0.617
       0.741
       0.866
       0.978
       1.065
       1.117
       1.139
       1.139
       1.127
       1.111
       1.096
       1.077
       1.045
       0.989
       0.906
       0.808
       0.717
       0.653
       0.626
       0.632
       0.658
       0.686
       0.702
       0.695
       0.666
       0.619
       0.559
       0.489
       0.402
       0.286
       0.131
      -0.063
      -0.283
      -0.507
      -0.713
      -0.883
      -1.009
      -1.088
      -1.125
      -1.124
      -1.094
      -1.048
      -0.995
      -0.939
      -0.877
      -0.802
      -0.706
      -0.587
      -0.447
      -0.294
      -0.140
       0.008
       0.139
       0.250
       0.336
       0.389
       0.395
       0.338
       0.211
       0.026
      -0.186
      -0.387
      -0.545
      -0.647
      -0.693
      -0.694
      -0.660
      -0.604
      -0.537
      -0.461
      -0.372
      -0.263
      -0.132
       0.015
       0.164
       0.303
       0.426
       0.535
       0.642
       0.761
       0.903
       1.063
       1.226
       1.369
       1.465
       1.495
       1.452
       1.346
       1.200
       1.042
       0.892
       0.763
       0.658
       0.578
       0.513
       0.444
       0.352
       0.226
       0.070
      -0.101
      -0.273
      -0.435
      -0.585
      -0.728
      -0.872
      -1.022
      -1.173
      -1.308
      -1.407
      -1.451
      -1.435
      -1.369
      -1.274
      -1.176
      -1.097
      -1.048
      -1.031
      -1.038
      -1.058
      -1.076
      -1.074
      -1.036
      -0.949
      -0.806
      -0.609
      -0.371
      -0.112
       0.138
       0.346
       0.487
       0.550
       0.545
       0.495
       0.431
       0.390
       0.407
       0.504
       0.673
       0.884
       1.095
       1.276
       1.412
       1.494
       1.514
       1.467
       1.354
       1.193
       1.014
       0.849
       0.715
       0.615
       0.550
       0.521
       0.536
       0.591
       0.672
       0.752
       0.806
       0.811
       0.760
       0.657
       0.509
       0.323
       0.106
      -0.133
      -0.381
      -0.620
      -0.833
      -1.009
      -1.144
      -1.243
      -1.319
      -1.383
      -1.436
      -1.467
      -1.461
      -1.409
      -1.315
      -1.199
      -1.083
      -0.989
      -0.924
      -0.884
      -0.853
      -0.807
      -0.728
      -0.604
      -0.436
      -0.233
      -0.011
       0.205
       0.392
       0.532
       0.618
       0.654
       0.650
       0.619
       0.578
       0.541
       0.524
       0.538
       0.589
       0.674
       0.775
       0.867
       0.924
       0.932
       0.898
       0.843
       0.789
       0.743
       0.693
       0.625
       0.534
       0.429
       0.324
       0.223
       0.125
       0.029
      -0.063
      -0.140
      -0.194
      -0.226
      -0.245
      -0.266
      -0.295
      -0.324
      -0.343
      -0.338
      -0.305
      -0.246
      -0.169
      -0.083
       0.002
       0.078
       0.128
       0.128
       0.055
      -0.095
      -0.305
      -0.544
      -0.781
      -0.988
      -1.147
      -1.242
      -1.260
      -1.195
      -1.053
      -0.860
      -0.653
      -0.468
