Origin Time       06/12/2009 04:33:15
Lat.              35.8°N	
Long.             77.3°E	
Depth (Km)         60.0
Magnitude         5.3
 Region           CHINA-INDIA(J&K)-BORDER                                          
 Above details taken from IMD 
     
Station Code      RAM
Station Lat.       31.448  N
Station Long.      77.630  E
Station Height(m)  998.0
Site Class        A   Vs30 between 700 m/sec to 1400 m/sec * 
Record Time       06.12.2009 04:34:59.659
Sampling Rate     200. Hz
 Record Duration   67.435 Sec.
 Direction         E-W (E positive)
Max. Acceleration      2.470 cm/sec**2
     
  * For reference see Site Classification link of website 
     
 Base Line Corrected and Low Pass Filtered (Cut Off at 35 Hz) Time History
 Acceleration data in cm/sec**2
    
[...]
       0.159
       0.155
       0.147
       0.171
       0.238
       0.327
       0.395
       0.411
       0.375
       0.321
       0.284
       0.276
       0.284
       0.281
       0.244
       0.166
       0.051
      -0.081
      -0.209
      -0.312
      -0.377
      -0.399
      -0.376
      -0.312
      -0.216
      -0.111
      -0.026
       0.018
       0.022
       0.004
      -0.013
      -0.020
      -0.015
       0.000
       0.030
       0.074
       0.118
       0.135
       0.105
       0.030
      -0.067
      -0.157
      -0.221
      -0.252
      -0.247
      -0.206
      -0.134
      -0.042
       0.047
       0.114
       0.148
       0.153
       0.138
       0.112
       0.082
       0.057
       0.044
       0.042
       0.042
       0.039
       0.034
       0.028
       0.019
       0.000
      -0.029
      -0.056
      -0.058
      -0.021
       0.047
       0.118
       0.163
       0.166
       0.130
       0.075
       0.026
       0.000
      -0.008
      -0.016
      -0.041
      -0.082
      -0.121
      -0.136
      -0.116
      -0.073
      -0.029
       0.000
       0.008
       0.003
      -0.002
       0.000
       0.013
       0.033
       0.060
       0.089
       0.114
       0.127
       0.123
       0.103
       0.074
       0.045
       0.016
      -0.018
      -0.066
      -0.126
      -0.188
      -0.234
      -0.249
      -0.225
      -0.167
      -0.091
      -0.013
       0.047
       0.074
       0.061
       0.013
      -0.046
      -0.084
      -0.078
      -0.017
       0.086
       0.203
       0.294
       0.327
       0.290
       0.199
       0.086
      -0.020
      -0.102
      -0.155
      -0.188
      -0.216
      -0.251
      -0.285
      -0.300
      -0.276
      -0.211
      -0.120
      -0.024
       0.061
       0.127
       0.173
       0.199
       0.206
       0.197
       0.182
       0.169
       0.161
       0.151
       0.131
       0.100
       0.069
       0.056
       0.071
       0.101
       0.117
       0.095
       0.028
      -0.067
      -0.166
      -0.242
      -0.278
      -0.276
      -0.246
      -0.205
      -0.156
      -0.089
       0.010
       0.135
       0.254
       0.319
       0.297
       0.196
       0.066
      -0.036
      -0.081
      -0.080
      -0.072
      -0.086
      -0.121
      -0.160
      -0.192
      -0.222
      -0.263
      -0.316
      -0.362
      -0.374
      -0.339
      -0.264
      -0.169
      -0.076
       0.007
       0.082
       0.158
       0.232
       0.290
       0.319
       0.320
       0.312
       0.317
       0.335
       0.348
       0.334
       0.285
       0.211
       0.131
       0.051
      -0.031
      -0.118
      -0.202
      -0.261
      -0.278
      -0.246
      -0.174
      -0.084
      -0.004
       0.035
       0.021
      -0.034
      -0.100
      -0.144
      -0.151
      -0.124
      -0.079
      -0.030
       0.008
       0.024
       0.021
       0.014
       0.025
       0.068
       0.140
       0.216
       0.261
       0.248
       0.175
       0.067
      -0.039
      -0.115
      -0.157
      -0.181
      -0.210
      -0.257
      -0.317
      -0.365
      -0.371
      -0.319
      -0.225
      -0.123
      -0.052
      -0.025
      -0.034
      -0.055
      -0.068
      -0.060
      -0.025
       0.040
       0.128
       0.224
       0.310
       0.369
       0.398
       0.401
       0.384
       0.350
       0.300
       0.233
       0.158
       0.091
       0.049
       0.032
       0.026
       0.008
      -0.033
      -0.088
      -0.141
      -0.179
      -0.196
      -0.192
      -0.163
      -0.100
       0.007
       0.156
       0.324
       0.467
       0.540
       0.512
       0.385
       0.191
      -0.017
      -0.193
      -0.319
      -0.410
      -0.493
      -0.580
      -0.647
      -0.653
      -0.574
      -0.424
      -0.252
      -0.113
      -0.037
      -0.015
      -0.018
      -0.017
       0.002
       0.034
       0.069
       0.102
       0.139
       0.183
       0.228
       0.260
       0.268
       0.258
       0.245
       0.242
       0.239
       0.214
       0.154
       0.073
       0.004
      -0.023
      -0.002
       0.049
       0.095
       0.108
       0.082
       0.033
      -0.016
      -0.048
      -0.058
      -0.051
      -0.036
      -0.019
      -0.004
       0.010
       0.022
       0.032
       0.036
       0.035
       0.034
       0.043
       0.066
       0.091
       0.096
       0.058
      -0.033
      -0.160
      -0.285
      -0.375
      -0.416
      -0.427
      -0.442
      -0.477
      -0.520
      -0.532
      -0.483
      -0.369
      -0.215
      -0.056
       0.086
       0.203
       0.299
       0.382
       0.457
       0.532
       0.605
       0.658
       0.654
       0.566
       0.398
       0.192
       0.011
      -0.102
      -0.133
      -0.102
      -0.043
       0.008
       0.019
      -0.025
      -0.122
      -0.240
      -0.336
      -0.377
      -0.360
      -0.310
      -0.256
      -0.212
      -0.167
      -0.095
       0.031
       0.213
       0.420
       0.597
       0.692
       0.685
       0.597
       0.473
       0.360
       0.277
       0.219
       0.158
       0.063
      -0.082
      -0.266
      -0.452
      -0.597
      -0.673
      -0.684
      -0.654
      -0.613
      -0.574
      -0.529
      -0.464
      -0.368
      -0.244
      -0.097
       0.071
       0.254
       0.432
       0.565
       0.614
       0.564
       0.442
       0.306
       0.211
       0.180
       0.197
       0.228
       0.253
       0.272
       0.297
       0.329
       0.346
       0.317
       0.230
       0.101
      -0.043
      -0.177
      -0.292
      -0.378
      -0.421
      -0.400
      -0.309
      -0.172
      -0.037
       0.047
       0.063
       0.033
       0.006
       0.016
       0.063
       0.114
       0.135
       0.111
       0.052
      -0.028
      -0.118
      -0.218
      -0.326
      -0.433
      -0.522
      -0.572
      -0.564
      -0.485
      -0.344
      -0.176
      -0.034
       0.040
       0.042
       0.000
      -0.044
      -0.061
      -0.046
      -0.003
       0.067
       0.168
       0.298
       0.447
       0.593
       0.716
       0.804
       0.856
       0.865
       0.818
       0.702
       0.520
       0.298
       0.078
      -0.102
      -0.223
      -0.289
      -0.317
      -0.330
      -0.345
      -0.365
      -0.378
      -0.369
      -0.336
      -0.301
      -0.291
      -0.318
      -0.360
      -0.367
      -0.299
      -0.155
       0.016
       0.147
       0.197
       0.173
       0.116
       0.061
       0.011
      -0.053
      -0.141
      -0.244
      -0.336
      -0.400
      -0.434
      -0.447
      -0.443
      -0.418
      -0.359
      -0.249
      -0.087
       0.110
       0.309
       0.482
       0.614
       0.703
       0.745
       0.729
       0.641
       0.482
       0.270
       0.048
      -0.131
      -0.222
      -0.206
      -0.097
       0.072
       0.273
       0.483
       0.678
       0.817
       0.860
       0.785
       0.607
       0.372
       0.129
      -0.085
      -0.251
      -0.366
      -0.430
      -0.450
      -0.433
      -0.389
      -0.331
      -0.281
      -0.266
      -0.310
      -0.420
      -0.577
      -0.734
      -0.843
      -0.878
      -0.846
      -0.775
      -0.688
      -0.588
      -0.456
      -0.282
      -0.074
       0.132
       0.291
       0.369
       0.357
       0.273
       0.151
       0.032
      -0.047
      -0.057
       0.011
       0.147
       0.322
       0.500
       0.641
       0.714
       0.708
       0.639
       0.549
       0.487
       0.492
       0.570
       0.692
       0.804
       0.853
       0.809
       0.676
       0.478
       0.247
       0.006
      -0.232
      -0.455
      -0.640
      -0.755
      -0.778
      -0.711
      -0.589
      -0.457
      -0.357
      -0.308
      -0.313
      -0.364
      -0.449
      -0.543
      -0.614
      -0.630
      -0.574
      -0.455
      -0.293
      -0.110
       0.078
       0.256
       0.400
       0.484
       0.493
       0.434
       0.332
       0.214
       0.097
      -0.018
      -0.136
      -0.257
      -0.370
      -0.457
      -0.495
      -0.467
      -0.372
      -0.225
      -0.058
       0.088
       0.180
       0.211
       0.207
       0.217
       0.282
       0.418
       0.603
       0.798
       0.968
       1.091
       1.164
       1.194
       1.185
       1.131
       1.013
       0.812
       0.530
       0.188
      -0.179
      -0.535
      -0.850
      -1.094
      -1.240
      -1.273
      -1.203
      -1.072
      -0.933
      -0.830
      -0.780
      -0.765
      -0.741
      -0.662
      -0.496
      -0.245
       0.042
       0.278
       0.380
       0.309
       0.097
      -0.170
      -0.398
      -0.525
      -0.549
      -0.511
      -0.466
      -0.447
      -0.447
      -0.431
      -0.364
      -0.235
      -0.067
       0.101
       0.241
       0.356
       0.479
       0.646
       0.874
       1.141
       1.402
       1.599
       1.696
       1.689
       1.611
       1.501
       1.381
       1.237
       1.036
       0.753
       0.393
      -0.005
      -0.378
      -0.669
      -0.842
      -0.895
      -0.859
      -0.781
      -0.709
      -0.671
      -0.668
      -0.678
      -0.678
      -0.659
      -0.628
      -0.602
      -0.592
      -0.595
      -0.593
      -0.567
      -0.499
      -0.388
      -0.249
      -0.110
      -0.004
       0.042
       0.026
      -0.038
      -0.124
      -0.215
      -0.306
      -0.397
      -0.485
      -0.563
      -0.623
      -0.660
      -0.668
      -0.638
      -0.555
      -0.410
      -0.206
       0.037
       0.290
       0.525
       0.725
       0.887
       1.008
       1.085
       1.118
       1.121
       1.116
       1.116
       1.109
       1.061
       0.942
       0.747
       0.507
       0.279
       0.119
       0.046
       0.033
       0.024
      -0.023
      -0.114
      -0.213
      -0.277
      -0.281
      -0.227
      -0.140
      -0.044
       0.036
       0.072
       0.039
      -0.080
      -0.276
      -0.508
      -0.720
      -0.864
      -0.925
      -0.909
      -0.827
      -0.685
      -0.491
      -0.272
      -0.079
       0.043
       0.074
       0.032
      -0.045
      -0.127
      -0.199
      -0.270
      -0.341
      -0.400
      -0.419
      -0.369
      -0.236
      -0.033
       0.198
       0.393
       0.492
       0.479
       0.396
       0.318
       0.311
       0.391
       0.526
       0.663
       0.757
       0.783
       0.733
       0.614
       0.441
       0.233
       0.004
      -0.236
      -0.474
      -0.690
      -0.853
      -0.928
      -0.889
      -0.729
      -0.462
      -0.126
       0.228
       0.545
       0.780
       0.905
       0.922
       0.859
       0.754
       0.629
       0.478
       0.281
       0.034
      -0.234
      -0.471
      -0.631
      -0.700
      -0.700
      -0.670
      -0.650
      -0.665
      -0.718
      -0.785
      -0.829
      -0.811
      -0.710
      -0.528
      -0.283
      -0.008
       0.258
       0.486
       0.663
       0.790
       0.870
       0.902
       0.888
       0.831
       0.737
       0.610
       0.453
       0.273
       0.084
      -0.101
      -0.269
      -0.404
      -0.489
      -0.503
      -0.433
      -0.280
      -0.071
       0.144
       0.303
       0.355
       0.290
       0.151
       0.014
      -0.045
      -0.002
       0.109
       0.215
       0.249
       0.175
      -0.002
      -0.248
      -0.511
      -0.734
      -0.864
      -0.867
      -0.751
      -0.555
      -0.339
      -0.160
      -0.055
      -0.040
      -0.106
      -0.209
      -0.289
      -0.293
      -0.216
      -0.105
      -0.016
       0.038
       0.094
       0.210
       0.400
       0.622
       0.806
       0.910
       0.950
       0.973
       1.016
       1.073
       1.108
       1.082
       0.988
       0.843
       0.671
       0.478
       0.255
      -0.014
      -0.337
      -0.707
      -1.095
      -1.447
      -1.693
      -1.772
      -1.658
      -1.374
      -0.986
      -0.573
      -0.191
       0.135
       0.408
       0.637
       0.824
       0.950
       0.971
       0.830
       0.497
      -0.004
      -0.576
      -1.086
      -1.420
      -1.536
      -1.470
      -1.303
      -1.121
      -0.974
      -0.868
      -0.774
      -0.648
      -0.459
      -0.209
       0.071
       0.329
       0.527
       0.669
       0.800
       0.973
       1.217
       1.516
       1.825
       2.086
       2.256
       2.300
       2.196
       1.931
       1.508
       0.967
       0.390
      -0.112
      -0.450
      -0.598
      -0.596
      -0.530
      -0.478
      -0.484
      -0.542
      -0.611
      -0.648
      -0.636
      -0.597
      -0.571
      -0.588
      -0.649
      -0.724
      -0.769
      -0.753
      -0.670
      -0.530
      -0.348
      -0.142
       0.065
       0.232
       0.305
       0.242
       0.035
      -0.282
      -0.652
      -1.010
      -1.305
      -1.499
      -1.571
      -1.518
      -1.354
      -1.103
      -0.797
      -0.468
      -0.145
       0.140
       0.352
       0.467
       0.488
       0.461
       0.465
       0.581
       0.845
       1.236
       1.677
       2.077
       2.358
       2.470
       2.394
       2.137
       1.736
       1.258
       0.771
       0.323
      -0.079
      -0.454
      -0.812
      -1.126
      -1.338
      -1.388
      -1.249
      -0.946
      -0.551
      -0.153
       0.164
       0.354
       0.422
       0.422
       0.426
       0.470
       0.530
       0.536
       0.423
       0.176
      -0.164
      -0.526
      -0.847
      -1.089
      -1.242
      -1.314
      -1.327
      -1.314
      -1.309
      -1.335
      -1.396
      -1.484
      -1.586
      -1.684
      -1.745
      -1.714
      -1.529
      -1.152
      -0.608
       0.023
       0.629
       1.114
       1.433
       1.599
       1.664
       1.686
       1.702
       1.717
       1.712
       1.659
       1.542
       1.371
       1.190
       1.054
       1.006
       1.047
       1.134
       1.189
       1.131
       0.923
       0.605
       0.282
       0.066
       0.008
       0.069
       0.160
       0.204
       0.168
       0.054
      -0.133
      -0.389
      -0.695
      -1.001
      -1.246
      -1.396
      -1.468
      -1.503
      -1.517
      -1.483
      -1.359
      -1.143
      -0.886
      -0.662
      -0.521
      -0.474
      -0.508
      -0.608
      -0.762
      -0.948
      -1.123
      -1.237
      -1.245
      -1.127
      -0.887
      -0.545
      -0.132
       0.311
       0.742
       1.117
       1.400
       1.570
       1.628
       1.593
       1.495
       1.360
       1.205
       1.046
       0.902
       0.792
       0.727
       0.693
       0.661
       0.597
       0.489
       0.353
       0.227
       0.141
       0.109
       0.131
       0.200
       0.296
       0.376
       0.385
       0.289
       0.107
      -0.090
      -0.220
      -0.249
      -0.200
      -0.128
      -0.074
      -0.054
      -0.072
      -0.139
      -0.266
      -0.443
      -0.631
      -0.782
      -0.871
      -0.916
      -0.966
      -1.064
      -1.216
      -1.392
      -1.544
      -1.645
      -1.687
      -1.673
      -1.584
      -1.390
      -1.069
      -0.642
      -0.161
       0.310
       0.731
       1.094
       1.401
       1.641
       1.779
       1.775
       1.613
       1.327
       0.983
       0.661
       0.413
       0.259
       0.187
       0.167
       0.168
       0.167
       0.152
       0.121
       0.077
       0.019
      -0.055
      -0.138
      -0.198
      -0.182
      -0.046
       0.213
       0.539
       0.839
       1.029
       1.078
       1.012
       0.891
       0.768
       0.671
       0.603
       0.545
       0.475
       0.369
       0.210
      -0.003
      -0.255
      -0.518
      -0.769
      -1.005
      -1.234
      -1.471
      -1.711
      -1.921
      -2.043
      -2.026
      -1.853
      -1.555
      -1.192
      -0.824
      -0.494
      -0.226
      -0.033
       0.079
       0.125
       0.133
       0.134
       0.148
       0.174
       0.196
       0.211
       0.239
       0.321
       0.473
       0.661
       0.814
       0.869
       0.821
       0.723
       0.642
       0.614
       0.626
       0.635
       0.600
       0.511
       0.392
       0.288
       0.238
       0.262
       0.356
       0.500
       0.676
       0.869
       1.063
       1.232
       1.342
       1.360
       1.271
       1.080
       0.804
       0.460
       0.053
      -0.405
      -0.883
      -1.329
      -1.693
      -1.952
      -2.115
      -2.208
      -2.245
      -2.211
      -2.073
      -1.804
      -1.413
      -0.953
      -0.506
      -0.145
       0.104
       0.269
       0.404
       0.555
       0.730
       0.903
       1.029
       1.066
       0.998
       0.843
       0.629
       0.380
       0.106
      -0.179
      -0.441
      -0.620
      -0.665
      -0.557
      -0.326
      -0.041
       0.219
       0.402
       0.505
       0.568
       0.646
       0.763
       0.902
       1.019
       1.075
       1.060
       0.996
       0.915
       0.848
       0.805
       0.769
       0.696
       0.532
       0.238
      -0.181
      -0.669
      -1.128
      -1.457
      -1.594
      -1.548
      -1.388
      -1.191
      -1.001
      -0.821
      -0.640
      -0.460
      -0.301
      -0.188
      -0.126
      -0.093
      -0.053
       0.028
       0.162
       0.332
       0.497
       0.614
       0.645
       0.576
       0.414
       0.190
      -0.052
      -0.275
      -0.459
      -0.600
      -0.686
      -0.697
      -0.614
      -0.451
      -0.259
      -0.104
      -0.025
      -0.014
      -0.012
       0.063
       0.276
       0.625
       1.017
       1.313
       1.405
       1.297
       1.092
       0.922
       0.861
       0.885
       0.902
       0.821
       0.614
       0.326
       0.039
      -0.186
      -0.338
      -0.449
      -0.560
      -0.694
      -0.847
      -0.995
      -1.103
      -1.136
      -1.075
      -0.931
      -0.744
      -0.558
      -0.409
      -0.319
      -0.296
      -0.325
      -0.368
      -0.376
      -0.315
      -0.186
      -0.032
       0.088
       0.126
       0.073
      -0.035
      -0.145
      -0.214
      -0.228
      -0.197
      -0.139
      -0.065
       0.029
       0.161
       0.347
       0.591
       0.865
       1.119
       1.307
       1.417
       1.473
       1.502
       1.504
       1.442
       1.280
       1.009
       0.658
       0.270
      -0.116
      -0.463
      -0.730
      -0.887
      -0.940
      -0.938
      -0.946
      -0.994
      -1.057
      -1.074
      -0.999
      -0.829
      -0.603
      -0.372
      -0.171
      -0.015
       0.089
       0.137
       0.135
       0.100
       0.056
       0.014
      -0.041
      -0.144
      -0.322
      -0.561
      -0.807
      -0.991
      -1.066
      -1.027
      -0.908
