Origin Time       22/10/2009 19:51:25
Lat.              36.5°N	
Long.             71.0°E	
Depth (Km)        168.0
Magnitude         6.3
 Region           HINDUKUSH-REGION-AFGHANISTAN                                     
 Above details taken from IMD 
   
Station Code      RAM
Station Lat.       31.448
Station Long.      77.630
Station Height(m)  998.0
Site Class        A   Vs30 between 700 m/sec to 1400 m/sec * 
Record Time       22.10.2009 19:54:19.309
Sampling Rate     200. Hz
 Record Duration   83.750 Sec.
 Direction         Vert. (Up positive)
Max. Acceleration     -3.160 cm/sec**2
     
  * For reference see Site Classification link of website 
     
 Base Line Corrected and Low Pass Filtered (Cut Off at 35 Hz) Time History
 Acceleration data in cm/sec**2
    
[...]
       0.377
       0.324
       0.232
       0.109
      -0.032
      -0.180
      -0.319
      -0.436
      -0.523
      -0.576
      -0.597
      -0.588
      -0.549
      -0.485
      -0.403
      -0.308
      -0.202
      -0.082
       0.049
       0.178
       0.285
       0.350
       0.366
       0.331
       0.253
       0.147
       0.038
      -0.044
      -0.076
      -0.052
       0.013
       0.092
       0.165
       0.222
       0.265
       0.291
       0.295
       0.273
       0.228
       0.175
       0.133
       0.115
       0.127
       0.165
       0.216
       0.258
       0.266
       0.227
       0.153
       0.071
       0.016
       0.003
       0.024
       0.053
       0.061
       0.028
      -0.046
      -0.147
      -0.250
      -0.331
      -0.377
      -0.385
      -0.370
      -0.350
      -0.339
      -0.344
      -0.363
      -0.390
      -0.420
      -0.444
      -0.450
      -0.427
      -0.368
      -0.266
      -0.121
       0.060
       0.263
       0.463
       0.635
       0.761
       0.826
       0.829
       0.779
       0.691
       0.589
       0.490
       0.413
       0.364
       0.339
       0.330
       0.327
       0.320
       0.308
       0.288
       0.266
       0.245
       0.223
       0.185
       0.113
      -0.005
      -0.161
      -0.336
      -0.499
      -0.625
      -0.698
      -0.719
      -0.705
      -0.683
      -0.682
      -0.719
      -0.792
      -0.877
      -0.931
      -0.916
      -0.810
      -0.624
      -0.392
      -0.158
       0.052
       0.225
       0.362
       0.462
       0.516
       0.520
       0.476
       0.401
       0.317
       0.244
       0.187
       0.143
       0.100
       0.054
       0.010
      -0.014
      -0.002
       0.059
       0.164
       0.297
       0.435
       0.562
       0.675
       0.778
       0.879
       0.981
       1.068
       1.112
       1.084
       0.965
       0.756
       0.478
       0.165
      -0.148
      -0.431
      -0.670
      -0.863
      -1.009
      -1.102
      -1.132
      -1.097
      -1.014
      -0.910
      -0.812
      -0.729
      -0.657
      -0.586
      -0.516
      -0.461
      -0.443
      -0.473
      -0.546
      -0.645
      -0.747
      -0.832
      -0.879
      -0.870
      -0.794
      -0.652
      -0.456
      -0.221
       0.030
       0.279
       0.507
       0.700
       0.843
       0.925
       0.941
       0.901
       0.829
       0.752
       0.690
       0.652
       0.638
       0.645
       0.672
       0.714
       0.769
       0.830
       0.891
       0.943
       0.969
       0.945
       0.845
       0.652
       0.375
       0.043
      -0.299
      -0.606
      -0.847
      -1.010
      -1.103
      -1.145
      -1.153
      -1.134
      -1.079
      -0.974
      -0.814
      -0.612
      -0.394
      -0.183
       0.006
       0.172
       0.309
       0.407
       0.450
       0.430
       0.360
       0.264
       0.172
       0.097
       0.034
      -0.031
      -0.106
      -0.185
      -0.254
      -0.298
      -0.306
      -0.280
      -0.226
      -0.155
      -0.080
      -0.003
       0.074
       0.156
       0.247
       0.347
       0.458
       0.577
       0.698
       0.809
       0.893
       0.932
       0.908
       0.812
       0.649
       0.438
       0.208
      -0.008
      -0.192
      -0.336
      -0.445
      -0.522
      -0.565
      -0.572
      -0.543
      -0.487
      -0.416
      -0.344
      -0.282
      -0.239
      -0.219
      -0.221
      -0.236
      -0.250
      -0.250
      -0.242
      -0.242
      -0.269
      -0.328
      -0.407
      -0.479
      -0.521
      -0.515
      -0.453
      -0.337
      -0.179
       0.000
       0.176
       0.326
       0.436
       0.504
       0.544
       0.572
       0.612
       0.676
       0.766
       0.867
       0.957
       1.015
       1.033
       1.010
       0.952
       0.865
       0.756
       0.639
       0.530
       0.436
       0.353
       0.271
       0.182
       0.088
      -0.009
      -0.106
      -0.207
      -0.314
      -0.423
      -0.522
      -0.602
      -0.658
      -0.689
      -0.695
      -0.677
      -0.643
      -0.610
      -0.601
      -0.632
      -0.703
      -0.797
      -0.880
      -0.920
      -0.900
      -0.822
      -0.704
      -0.566
      -0.426
      -0.300
      -0.197
      -0.126
      -0.088
      -0.078
      -0.087
      -0.103
      -0.119
      -0.129
      -0.131
      -0.125
      -0.108
      -0.079
      -0.029
       0.053
       0.176
       0.344
       0.547
       0.762
       0.957
       1.093
       1.137
       1.072
       0.912
       0.699
       0.488
       0.317
       0.201
       0.135
       0.111
       0.122
       0.160
       0.212
       0.263
       0.306
       0.340
       0.363
       0.361
       0.313
       0.199
       0.014
      -0.228
      -0.502
      -0.784
      -1.053
      -1.294
      -1.487
      -1.608
      -1.638
      -1.565
      -1.397
      -1.159
      -0.897
      -0.664
      -0.495
      -0.379
      -0.267
      -0.095
       0.169
       0.505
       0.849
       1.130
       1.304
       1.366
       1.334
       1.233
       1.078
       0.872
       0.618
       0.322
       0.003
      -0.306
      -0.567
      -0.744
      -0.823
      -0.813
      -0.743
      -0.650
      -0.560
      -0.481
      -0.401
      -0.301
      -0.172
      -0.026
       0.106
       0.189
       0.201
       0.143
       0.038
      -0.085
      -0.196
      -0.270
      -0.291
      -0.250
      -0.156
      -0.034
       0.079
       0.154
       0.177
       0.160
       0.129
       0.104
       0.091
       0.087
       0.091
       0.114
       0.172
       0.272
       0.405
       0.549
       0.679
       0.772
       0.810
       0.782
       0.689
       0.540
       0.355
       0.151
      -0.052
      -0.244
      -0.410
      -0.535
      -0.605
      -0.618
      -0.580
      -0.503
      -0.396
      -0.260
      -0.094
       0.094
       0.277
       0.427
       0.521
       0.552
       0.519
       0.421
       0.257
       0.030
      -0.242
      -0.529
      -0.790
      -0.983
      -1.069
      -1.024
      -0.851
      -0.582
      -0.274
       0.014
       0.243
       0.406
       0.524
       0.622
       0.710
       0.773
       0.780
       0.701
       0.528
       0.288
       0.030
      -0.193
      -0.351
      -0.444
      -0.492
      -0.514
      -0.507
      -0.456
      -0.344
      -0.171
       0.045
       0.282
       0.520
       0.746
       0.941
       1.076
       1.115
       1.032
       0.819
       0.497
       0.104
      -0.315
      -0.718
      -1.068
      -1.335
      -1.495
      -1.533
      -1.440
      -1.217
      -0.875
      -0.442
       0.040
       0.513
       0.917
       1.203
       1.345
       1.338
       1.196
       0.950
       0.647
       0.340
       0.075
      -0.114
      -0.220
      -0.256
      -0.257
      -0.265
      -0.304
      -0.369
      -0.423
      -0.429
      -0.368
      -0.254
      -0.117
       0.008
       0.101
       0.167
       0.223
       0.290
       0.365
       0.421
       0.419
       0.327
       0.145
      -0.099
      -0.360
      -0.597
      -0.782
      -0.902
      -0.956
      -0.954
      -0.909
      -0.835
      -0.743
      -0.639
      -0.525
      -0.398
      -0.261
      -0.133
      -0.042
      -0.011
      -0.046
      -0.125
      -0.213
      -0.277
      -0.303
      -0.291
      -0.252
      -0.195
      -0.120
      -0.021
       0.105
       0.251
       0.403
       0.542
       0.658
       0.749
       0.819
       0.867
       0.887
       0.877
       0.845
       0.814
       0.806
       0.830
       0.872
       0.908
       0.917
       0.891
       0.830
       0.737
       0.611
       0.454
       0.265
       0.046
      -0.203
      -0.482
      -0.785
      -1.093
      -1.374
      -1.584
      -1.693
      -1.697
      -1.621
      -1.505
      -1.382
      -1.263
      -1.142
      -0.999
      -0.817
      -0.581
      -0.289
       0.048
       0.405
       0.759
       1.090
       1.393
       1.662
       1.888
       2.061
       2.169
       2.207
       2.173
       2.068
       1.893
       1.649
       1.342
       0.991
       0.623
       0.260
      -0.088
      -0.418
      -0.726
      -1.003
      -1.242
      -1.448
      -1.631
      -1.798
      -1.934
      -2.003
      -1.970
      -1.823
      -1.577
      -1.273
      -0.954
      -0.659
      -0.419
      -0.254
      -0.166
      -0.136
      -0.133
      -0.133
      -0.131
      -0.139
      -0.175
      -0.237
      -0.303
      -0.336
      -0.306
      -0.204
      -0.043
       0.156
       0.374
       0.598
       0.819
       1.028
       1.212
       1.358
       1.453
       1.487
       1.455
       1.366
       1.241
       1.111
       1.001
       0.913
       0.829
       0.729
       0.601
       0.455
       0.305
       0.156
       0.002
      -0.165
      -0.345
      -0.526
      -0.682
      -0.788
      -0.823
      -0.776
      -0.651
      -0.465
      -0.245
      -0.026
       0.161
       0.286
       0.326
       0.270
       0.123
      -0.089
      -0.323
      -0.531
      -0.671
      -0.725
      -0.699
      -0.623
      -0.542
      -0.502
      -0.529
      -0.621
      -0.750
      -0.866
      -0.919
      -0.882
      -0.755
      -0.568
      -0.366
      -0.198
      -0.100
      -0.079
      -0.103
      -0.112
      -0.053
       0.092
       0.294
       0.501
       0.657
       0.733
       0.726
       0.656
       0.557
       0.464
       0.408
       0.406
       0.460
       0.556
       0.672
       0.784
       0.872
       0.914
       0.887
       0.779
       0.594
       0.356
       0.093
      -0.170
      -0.422
      -0.664
      -0.895
      -1.101
      -1.251
      -1.299
      -1.207
      -0.963
      -0.598
      -0.176
       0.225
       0.539
       0.737
       0.825
       0.832
       0.784
       0.686
       0.529
       0.298
       0.003
      -0.317
      -0.605
      -0.803
      -0.879
      -0.832
      -0.681
      -0.449
      -0.162
       0.147
       0.430
       0.628
       0.693
       0.609
       0.399
       0.118
      -0.163
      -0.389
      -0.532
      -0.600
      -0.623
      -0.626
      -0.610
      -0.550
      -0.415
      -0.194
       0.085
       0.367
       0.595
       0.727
       0.749
       0.663
       0.489
       0.254
      -0.011
      -0.274
      -0.512
      -0.706
      -0.842
      -0.915
      -0.938
      -0.929
      -0.904
      -0.855
      -0.762
      -0.606
      -0.389
      -0.137
       0.111
       0.322
       0.480
       0.596
       0.688
       0.767
       0.820
       0.819
       0.734
       0.562
       0.327
       0.075
      -0.148
      -0.312
      -0.408
      -0.441
      -0.413
      -0.318
      -0.147
       0.099
       0.403
       0.723
       0.999
       1.173
       1.209
       1.107
       0.902
       0.642
       0.358
       0.055
      -0.275
      -0.624
      -0.957
      -1.223
      -1.382
      -1.419
      -1.346
      -1.182
      -0.946
      -0.660
      -0.357
      -0.080
       0.131
       0.263
       0.326
       0.344
       0.336
       0.308
       0.257
       0.185
       0.098
       0.007
      -0.075
      -0.134
      -0.158
      -0.140
      -0.084
      -0.007
       0.075
       0.147
       0.206
       0.257
       0.310
       0.365
       0.413
       0.439
       0.422
       0.356
       0.254
       0.142
       0.047
      -0.020
      -0.070
      -0.119
      -0.172
      -0.204
      -0.178
      -0.066
       0.134
       0.399
       0.696
       0.984
       1.221
       1.364
       1.376
       1.245
       0.984
       0.627
       0.215
      -0.215
      -0.630
      -0.993
      -1.266
      -1.422
      -1.458
      -1.394
      -1.265
      -1.109
      -0.956
      -0.828
      -0.733
      -0.668
      -0.624
      -0.586
      -0.538
      -0.460
      -0.332
      -0.153
       0.056
       0.251
       0.388
       0.449
       0.447
       0.424
       0.422
       0.459
       0.526
       0.592
       0.628
       0.622
       0.584
       0.533
       0.488
       0.459
       0.453
       0.474
       0.525
       0.610
       0.727
       0.869
       1.024
       1.175
       1.312
       1.429
       1.513
       1.547
       1.504
       1.365
       1.118
       0.772
       0.355
      -0.090
      -0.519
      -0.898
      -1.212
      -1.458
      -1.633
      -1.732
      -1.746
      -1.669
      -1.510
      -1.286
      -1.023
      -0.748
      -0.492
      -0.288
      -0.162
      -0.125
      -0.171
      -0.282
      -0.434
      -0.605
      -0.764
      -0.877
      -0.902
      -0.811
      -0.603
      -0.314
      -0.011
       0.243
       0.410
       0.483
       0.483
       0.434
       0.360
       0.284
       0.228
       0.214
       0.263
       0.376
       0.537
       0.720
       0.912
       1.119
       1.357
       1.621
       1.879
       2.077
       2.163
       2.112
       1.928
       1.647
       1.326
       1.021
       0.767
       0.565
       0.391
       0.210
      -0.002
      -0.251
      -0.532
      -0.841
      -1.177
      -1.542
      -1.930
      -2.314
      -2.657
      -2.925
      -3.094
      -3.160
      -3.128
      -2.999
      -2.770
      -2.429
      -1.968
      -1.398
      -0.755
      -0.098
       0.499
       0.965
       1.245
       1.306
       1.156
       0.854
       0.500
       0.208
       0.057
       0.078
       0.256
       0.551
       0.915
       1.294
       1.631
       1.882
       2.029
       2.086
       2.079
       2.030
       1.938
       1.795
       1.593
       1.335
       1.033
       0.703
       0.363
       0.037
      -0.244
      -0.462
      -0.630
      -0.792
      -1.001
      -1.274
      -1.576
      -1.836
      -1.996
      -2.038
      -1.991
      -1.896
      -1.785
      -1.664
      -1.526
      -1.354
      -1.136
      -0.865
      -0.547
      -0.201
       0.146
       0.460
       0.708
       0.865
       0.910
       0.836
       0.655
       0.415
       0.191
       0.055
       0.047
       0.149
       0.308
       0.459
       0.559
       0.597
       0.593
       0.582
       0.601
       0.670
       0.784
       0.911
       1.013
       1.065
       1.068
       1.045
       1.024
       1.021
       1.038
       1.071
       1.114
       1.150
       1.142
       1.042
       0.809
       0.437
      -0.028
      -0.509
      -0.929
      -1.246
      -1.464
      -1.614
      -1.726
      -1.813
      -1.868
      -1.873
      -1.806
      -1.653
      -1.407
      -1.078
      -0.697
      -0.306
       0.058
       0.372
       0.637
       0.861
       1.044
       1.175
       1.231
       1.196
       1.070
       0.871
       0.630
       0.378
       0.146
      -0.039
      -0.155
      -0.184
      -0.127
      -0.003
       0.154
       0.305
       0.419
       0.481
       0.494
       0.467
       0.412
       0.332
       0.219
       0.062
      -0.145
      -0.396
      -0.666
      -0.914
      -1.094
      -1.168
      -1.126
      -0.988
      -0.803
      -0.623
      -0.479
      -0.375
      -0.301
      -0.249
      -0.216
      -0.201
      -0.196
      -0.186
      -0.160
      -0.120
      -0.082
      -0.069
      -0.097
      -0.157
      -0.224
      -0.257
      -0.218
      -0.085
       0.135
       0.408
       0.684
       0.923
       1.110
       1.263
       1.410
       1.571
       1.741
       1.890
       1.983
       1.989
       1.889
       1.674
       1.356
       0.966
       0.552
       0.165
      -0.155
      -0.389
      -0.537
      -0.616
      -0.648
      -0.655
      -0.655
      -0.661
      -0.687
      -0.742
      -0.841
      -0.998
      -1.223
      -1.508
      -1.822
      -2.117
      -2.345
      -2.464
      -2.448
      -2.291
      -2.009
      -1.643
      -1.244
      -0.855
      -0.480
      -0.096
       0.327
       0.778
       1.201
       1.510
       1.643
       1.589
       1.395
       1.134
       0.877
       0.677
       0.550
       0.487
       0.455
       0.422
       0.378
       0.339
       0.341
       0.416
       0.569
       0.765
       0.934
       1.002
       0.922
       0.704
       0.413
       0.142
      -0.030
      -0.078
      -0.035
       0.026
       0.036
      -0.035
      -0.165
      -0.292
      -0.351
      -0.296
      -0.128
       0.108
       0.336
       0.479
       0.485
       0.343
       0.073
      -0.289
      -0.702
      -1.111
      -1.449
      -1.651
      -1.679
      -1.547
      -1.314
      -1.046
      -0.782
      -0.525
      -0.253
       0.052
       0.387
       0.723
       1.017
       1.218
       1.281
       1.184
       0.945
       0.622
       0.303
       0.068
      -0.041
      -0.042
       0.006
       0.040
       0.023
      -0.049
      -0.163
      -0.299
      -0.433
      -0.530
      -0.552
      -0.470
      -0.282
      -0.018
       0.274
       0.542
       0.741
       0.837
       0.813
       0.674
       0.444
       0.161
      -0.132
      -0.399
      -0.614
      -0.752
      -0.797
      -0.743
      -0.607
      -0.423
      -0.222
      -0.021
       0.175
       0.363
       0.535
       0.682
       0.791
       0.851
       0.846
       0.763
       0.602
       0.386
       0.150
      -0.074
      -0.270
      -0.437
      -0.572
      -0.663
      -0.699
      -0.680
      -0.624
      -0.550
      -0.475
      -0.412
      -0.376
      -0.380
      -0.428
      -0.506
      -0.586
      -0.638
      -0.631
      -0.540
      -0.352
      -0.080
       0.231
       0.517
       0.727
       0.839
       0.862
       0.813
       0.700
       0.523
       0.296
       0.058
      -0.132
      -0.218
      -0.182
      -0.059
       0.082
       0.181
       0.218
       0.217
       0.222
       0.261
       0.335
       0.420
       0.480
       0.488
       0.434
       0.326
       0.179
       0.013
      -0.163
      -0.346
      -0.532
      -0.705
      -0.835
      -0.882
      -0.820
      -0.652
      -0.420
      -0.181
       0.024
       0.181
       0.306
       0.419
       0.527
       0.626
       0.706
       0.749
       0.738
       0.652
       0.482
       0.245
      -0.018
      -0.247
      -0.383
      -0.395
      -0.295
      -0.133
       0.017
       0.098
       0.094
       0.036
      -0.021
      -0.031
       0.014
       0.091
       0.176
       0.271
       0.400
       0.576
       0.767
       0.903
       0.904
       0.729
       0.398
      -0.016
      -0.426
      -0.768
      -1.016
      -1.184
      -1.294
      -1.353
      -1.338
      -1.211
      -0.952
      -0.577
      -0.153
       0.233
       0.505
       0.632
       0.639
       0.585
       0.529
       0.503
       0.500
       0.491
       0.441
       0.334
       0.175
      -0.012
      -0.198
      -0.350
      -0.436
      -0.427
      -0.305
      -0.075
       0.233
