Origin Time       21/10/2008 15:09:06
Lat.              31.5 N 
Long.             77.3 E 
Depth (Km)         10.0
Magnitude         4.5
 Region           KULLU-HIMACHAL-PRADESH                                           
 Above details taken from IMD 
     
Station Code      RAM
Station Lat.       31.448  N
Station Long.      77.630  E
Station Height(m)  998.0
Site Class        A   Vs30 between 700 m/sec to 1400 m/sec * 
Record Time       21.10.2008 15:09:04.344
Sampling Rate     200. Hz
 Record Duration   30.010 Sec.
 Direction         E-W (E positive)
Max. Acceleration      8.782 cm/sec**2
     
  * For reference see Site Classification link of website 
     
 Base Line Corrected and Low Pass Filtered (Cut Off at 35 Hz) Time History
 Acceleration data in cm/sec**2
    
[...]
       0.007
       0.002
      -0.003
      -0.005
      -0.002
       0.004
       0.009
       0.008
       0.001
      -0.008
      -0.012
      -0.011
      -0.004
       0.004
       0.011
       0.015
       0.015
       0.010
       0.006
       0.002
      -0.002
      -0.007
      -0.010
      -0.009
      -0.002
       0.004
       0.002
      -0.009
      -0.022
      -0.026
      -0.018
      -0.003
       0.010
       0.014
       0.009
       0.002
      -0.003
      -0.006
      -0.007
      -0.005
      -0.001
       0.004
       0.006
       0.002
      -0.007
      -0.016
      -0.020
      -0.018
      -0.013
      -0.011
      -0.012
      -0.012
      -0.010
      -0.005
      -0.001
       0.002
       0.001
      -0.004
      -0.010
      -0.017
      -0.023
      -0.028
      -0.031
      -0.030
      -0.026
      -0.019
      -0.014
      -0.013
      -0.019
      -0.032
      -0.047
      -0.057
      -0.055
      -0.044
      -0.030
      -0.022
      -0.024
      -0.038
      -0.061
      -0.085
      -0.102
      -0.105
      -0.092
      -0.069
      -0.044
      -0.025
      -0.012
      -0.004
       0.005
       0.016
       0.031
       0.047
       0.061
       0.069
       0.070
       0.060
       0.038
       0.007
      -0.031
      -0.067
      -0.098
      -0.118
      -0.126
      -0.117
      -0.092
      -0.050
      -0.002
       0.041
       0.072
       0.087
       0.095
       0.106
       0.132
       0.182
       0.261
       0.368
       0.491
       0.605
       0.680
       0.682
       0.590
       0.401
       0.134
      -0.170
      -0.461
      -0.689
      -0.822
      -0.846
      -0.771
      -0.622
      -0.432
      -0.238
      -0.068
       0.063
       0.152
       0.211
       0.264
       0.339
       0.454
       0.609
       0.779
       0.922
       1.004
       1.014
       0.958
       0.841
       0.647
       0.354
      -0.029
      -0.454
      -0.846
      -1.147
      -1.335
      -1.410
      -1.366
      -1.181
      -0.856
      -0.449
      -0.072
       0.154
       0.175
       0.036
      -0.152
      -0.283
      -0.312
      -0.248
      -0.112
       0.092
       0.355
       0.621
       0.772
       0.694
       0.360
      -0.125
      -0.593
      -0.907
      -1.028
      -0.988
      -0.818
      -0.522
      -0.111
       0.343
       0.705
       0.850
       0.746
       0.474
       0.177
      -0.034
      -0.127
      -0.127
      -0.068
       0.039
       0.193
       0.381
       0.577
       0.748
       0.861
       0.893
       0.844
       0.740
       0.601
       0.417
       0.163
      -0.150
      -0.430
      -0.548
      -0.443
      -0.194
       0.030
       0.110
       0.065
      -0.009
      -0.066
      -0.152
      -0.314
      -0.496
      -0.551
      -0.385
      -0.053
       0.290
       0.528
       0.654
       0.699
       0.623
       0.330
      -0.193
      -0.798
      -1.243
      -1.365
      -1.163
      -0.734
      -0.169
       0.452
       0.996
       1.292
       1.235
       0.898
       0.485
       0.177
       0.006
      -0.110
      -0.250
      -0.409
      -0.543
      -0.625
      -0.646
      -0.581
      -0.402
      -0.142
       0.068
       0.078
      -0.144
      -0.455
      -0.637
      -0.576
      -0.354
      -0.157
      -0.096
      -0.114
      -0.065
       0.115
       0.323
       0.366
       0.125
      -0.335
      -0.805
      -1.060
      -0.991
      -0.638
      -0.152
       0.305
       0.637
       0.841
       0.962
       1.010
       0.933
       0.660
       0.212
      -0.262
      -0.561
      -0.575
      -0.341
       0.016
       0.378
       0.675
       0.876
       0.999
       1.115
       1.281
       1.434
       1.385
       0.987
       0.340
      -0.215
      -0.363
      -0.085
       0.337
       0.598
       0.609
       0.471
       0.264
      -0.064
      -0.574
      -1.184
      -1.703
      -2.012
      -2.153
      -2.187
      -2.036
      -1.521
      -0.601
       0.457
       1.204
       1.342
       0.947
       0.389
       0.008
      -0.111
      -0.090
      -0.042
       0.051
       0.258
       0.538
       0.698
       0.540
       0.051
      -0.538
      -0.934
      -1.021
      -0.944
      -0.945
      -1.132
      -1.386
      -1.448
      -1.107
      -0.325
       0.727
       1.729
       2.344
       2.361
       1.814
       0.988
       0.273
      -0.058
       0.007
       0.273
       0.531
       0.700
       0.808
       0.867
       0.801
       0.518
       0.021
      -0.553
      -1.040
      -1.371
      -1.578
      -1.704
      -1.721
      -1.573
      -1.262
      -0.861
      -0.445
      -0.042
       0.352
       0.724
       1.044
       1.297
       1.476
       1.553
       1.468
       1.187
       0.773
       0.395
       0.223
       0.305
       0.538
       0.749
       0.796
       0.622
       0.258
      -0.207
      -0.666
      -1.043
      -1.302
      -1.409
      -1.297
      -0.902
      -0.264
       0.410
       0.846
       0.900
       0.662
       0.354
       0.108
      -0.135
      -0.487
      -0.915
      -1.210
      -1.155
      -0.717
      -0.058
       0.593
       1.067
       1.260
       1.103
       0.568
      -0.265
      -1.199
      -1.981
      -2.401
      -2.336
      -1.789
      -0.936
      -0.102
       0.406
       0.513
       0.432
       0.469
       0.760
       1.184
       1.497
       1.527
       1.261
       0.784
       0.190
      -0.421
      -0.916
      -1.150
      -1.063
      -0.744
      -0.341
       0.080
       0.554
       1.072
       1.461
       1.469
       1.014
       0.321
      -0.205
      -0.272
       0.092
       0.587
       0.887
       0.872
       0.662
       0.457
       0.342
       0.220
      -0.059
      -0.537
      -1.069
      -1.416
      -1.396
      -0.993
      -0.363
       0.243
       0.592
       0.581
       0.292
      -0.068
      -0.329
      -0.480
      -0.623
      -0.803
      -0.906
      -0.755
      -0.323
       0.165
       0.392
       0.247
      -0.031
      -0.063
       0.296
       0.778
       0.928
       0.532
      -0.170
      -0.680
      -0.679
      -0.277
       0.125
       0.210
      -0.009
      -0.257
      -0.282
      -0.048
       0.291
       0.560
       0.682
       0.688
       0.668
       0.688
       0.723
       0.659
       0.398
      -0.002
      -0.304
      -0.292
       0.005
       0.273
       0.182
      -0.308
      -0.882
      -1.130
      -0.889
      -0.355
       0.102
       0.252
       0.141
      -0.040
      -0.185
      -0.368
      -0.692
      -1.083
      -1.271
      -1.023
      -0.398
       0.260
       0.591
       0.505
       0.186
      -0.118
      -0.287
      -0.323
      -0.253
      -0.090
       0.128
       0.325
       0.443
       0.489
       0.492
       0.449
       0.342
       0.217
       0.207
       0.433
       0.847
       1.209
       1.264
       0.948
       0.413
      -0.145
      -0.629
      -1.008
      -1.196
      -1.062
      -0.578
       0.079
       0.614
       0.838
       0.795
       0.665
       0.562
       0.447
       0.219
      -0.140
      -0.537
      -0.846
      -1.002
      -1.010
      -0.908
      -0.726
      -0.478
      -0.173
       0.171
       0.541
       0.913
       1.232
       1.393
       1.300
       0.952
       0.475
       0.029
      -0.312
      -0.591
      -0.873
      -1.126
      -1.230
      -1.090
      -0.745
      -0.363
      -0.143
      -0.187
      -0.439
      -0.702
      -0.735
      -0.386
       0.302
       1.085
       1.639
       1.741
       1.401
       0.836
       0.301
      -0.076
      -0.317
      -0.494
      -0.624
      -0.694
      -0.724
      -0.783
      -0.907
      -1.040
      -1.078
      -0.957
      -0.698
      -0.400
      -0.182
      -0.127
      -0.227
      -0.368
      -0.389
      -0.194
       0.183
       0.607
       0.969
       1.279
       1.633
       2.062
       2.434
       2.519
       2.192
       1.551
       0.821
       0.147
      -0.497
      -1.149
      -1.659
      -1.726
      -1.200
      -0.345
       0.287
       0.283
      -0.284
      -0.952
      -1.280
      -1.185
      -0.909
      -0.734
      -0.744
      -0.809
      -0.711
      -0.302
       0.401
       1.207
       1.871
       2.238
       2.297
       2.089
       1.583
       0.704
      -0.488
      -1.666
      -2.350
      -2.237
      -1.453
      -0.497
       0.101
       0.114
      -0.300
      -0.766
      -0.970
      -0.844
      -0.570
      -0.411
      -0.460
      -0.538
      -0.328
       0.313
       1.184
       1.865
       2.045
       1.735
       1.190
       0.649
       0.163
      -0.331
      -0.831
      -1.182
      -1.194
      -0.842
      -0.340
       0.001
       0.018
      -0.161
      -0.202
       0.150
       0.807
       1.349
       1.327
       0.651
      -0.331
      -1.123
      -1.468
      -1.451
      -1.264
      -0.929
      -0.290
       0.711
       1.817
       2.553
       2.600
       2.058
       1.321
       0.703
       0.196
      -0.399
      -1.169
      -1.932
      -2.371
      -2.283
      -1.744
      -1.051
      -0.527
      -0.313
      -0.317
      -0.325
      -0.171
       0.163
       0.541
       0.783
       0.797
       0.654
       0.507
       0.451
       0.455
       0.445
       0.419
       0.456
       0.606
       0.786
       0.814
       0.533
      -0.055
      -0.758
      -1.283
      -1.412
      -1.143
      -0.705
      -0.403
      -0.415
      -0.681
      -0.983
      -1.123
      -1.057
      -0.870
      -0.659
      -0.449
      -0.198
       0.158
       0.689
       1.439
       2.360
       3.265
       3.866
       3.908
       3.278
       2.061
       0.517
      -0.997
      -2.132
      -2.668
      -2.568
      -1.967
      -1.103
      -0.238
       0.402
       0.701
       0.678
       0.444
       0.111
      -0.262
      -0.624
      -0.890
      -0.962
      -0.793
      -0.422
       0.042
       0.452
       0.662
       0.584
       0.238
      -0.243
      -0.686
      -0.965
      -1.044
      -0.968
      -0.835
      -0.773
      -0.875
      -1.119
      -1.350
      -1.375
      -1.134
      -0.765
      -0.481
      -0.355
      -0.221
       0.189
       0.974
       1.927
       2.689
       3.043
       3.053
       2.917
       2.718
       2.357
       1.720
       0.879
       0.085
      -0.429
      -0.622
      -0.636
      -0.634
      -0.697
      -0.841
      -1.059
      -1.299
      -1.449
      -1.409
      -1.192
      -0.909
      -0.658
      -0.459
      -0.302
      -0.210
      -0.213
      -0.285
      -0.324
      -0.213
       0.116
       0.662
       1.356
       2.077
       2.676
       3.035
       3.123
       2.976
       2.614
       1.957
       0.907
      -0.471
      -1.856
      -2.814
      -3.086
      -2.737
      -2.041
      -1.251
      -0.512
       0.059
       0.297
       0.075
      -0.555
      -1.339
      -1.977
      -2.318
      -2.434
      -2.524
      -2.728
      -2.973
      -2.973
      -2.388
      -1.073
       0.747
       2.526
       3.679
       3.924
       3.432
       2.645
       1.930
       1.339
       0.699
      -0.100
      -0.899
      -1.342
      -1.157
      -0.391
       0.599
       1.372
       1.666
       1.487
       1.005
       0.386
      -0.296
      -1.015
      -1.715
      -2.258
      -2.463
      -2.207
      -1.503
      -0.482
       0.696
       1.930
       3.154
       4.230
       4.887
       4.806
       3.857
       2.277
       0.610
      -0.620
      -1.228
      -1.394
      -1.369
      -1.186
      -0.704
       0.082
       0.839
       1.053
       0.411
      -0.944
      -2.493
      -3.643
      -4.037
      -3.669
      -2.821
      -1.883
      -1.194
      -0.941
      -1.111
      -1.473
      -1.665
      -1.386
      -0.594
       0.448
       1.324
       1.695
       1.447
       0.695
      -0.271
      -1.038
      -1.179
      -0.434
       1.108
       2.984
       4.568
       5.341
       5.074
       3.865
       2.074
       0.190
      -1.374
      -2.436
      -3.029
      -3.227
      -3.006
      -2.286
      -1.106
       0.249
       1.307
       1.621
       1.021
      -0.281
      -1.800
      -3.029
      -3.653
      -3.598
      -2.971
      -1.993
      -0.958
      -0.176
       0.176
       0.185
       0.187
       0.557
       1.448
       2.671
       3.808
       4.470
       4.540
       4.228
       3.916
       3.860
       3.986
       3.921
       3.267
       1.896
       0.047
      -1.798
      -3.146
      -3.684
      -3.401
      -2.642
      -1.986
      -1.958
      -2.708
      -3.915
      -4.976
      -5.327
      -4.692
      -3.174
      -1.234
       0.454
       1.286
       1.057
       0.146
      -0.658
      -0.612
       0.531
       2.394
       4.241
       5.429
       5.708
       5.220
       4.265
       3.083
       1.808
       0.573
      -0.426
      -1.034
      -1.309
      -1.555
      -2.099
      -2.998
      -3.921
      -4.339
      -3.890
      -2.640
      -1.067
       0.228
       0.863
       0.823
       0.341
      -0.353
      -1.168
      -2.047
      -2.729
      -2.687
      -1.378
       1.288
       4.667
       7.553
       8.782
       7.880
       5.321
       2.230
      -0.271
      -1.613
      -1.895
      -1.603
      -1.254
      -1.208
      -1.666
      -2.673
      -4.064
      -5.426
      -6.204
      -5.957
      -4.631
      -2.637
      -0.639
       0.822
       1.585
       1.845
       1.933
       2.099
       2.451
       3.004
       3.724
       4.504
       5.117
       5.229
       4.531
       2.937
       0.716
      -1.567
      -3.277
      -4.004
      -3.714
      -2.704
      -1.420
      -0.294
       0.344
       0.322
      -0.313
      -1.301
      -2.288
      -2.986
      -3.234
      -2.955
      -2.110
      -0.766
       0.821
       2.265
       3.261
       3.778
       4.027
       4.244
       4.491
       4.606
       4.337
       3.509
       2.146
       0.488
      -1.101
      -2.289
      -2.927
      -3.097
      -3.056
      -3.105
      -3.469
      -4.200
      -5.140
      -5.955
      -6.247
      -5.733
      -4.385
      -2.410
      -0.102
       2.299
       4.605
       6.565
       7.814
       7.978
       6.910
       4.849
       2.364
       0.106
      -1.468
      -2.190
      -2.103
      -1.318
       0.030
       1.699
       3.246
       4.085
       3.733
       2.109
      -0.358
      -2.886
      -4.674
      -5.244
      -4.660
      -3.516
      -2.624
      -2.523
      -3.118
      -3.766
      -3.770
      -2.879
      -1.402
       0.104
       1.247
       1.959
       2.353
       2.472
       2.217
       1.528
       0.635
       0.062
       0.278
       1.304
       2.638
       3.604
       3.794
       3.240
       2.259
       1.183
       0.194
      -0.685
      -1.505
      -2.297
      -3.012
      -3.526
      -3.709
      -3.511
      -2.979
      -2.195
      -1.209
      -0.075
       1.049
       1.892
       2.225
       2.050
       1.615
       1.235
       1.105
       1.255
       1.616
       2.090
       2.557
       2.873
       2.907
       2.600
       1.998
       1.209
       0.321
      -0.651
      -1.721
      -2.826
      -3.768
      -4.273
      -4.155
      -3.471
      -2.547
      -1.819
      -1.581
      -1.811
      -2.165
      -2.162
      -1.449
      -0.030
       1.714
       3.231
       4.113
       4.256
       3.800
       2.987
       2.079
       1.311
       0.829
       0.615
       0.494
       0.241
      -0.269
      -0.949
      -1.515
      -1.650
      -1.248
      -0.543
       0.010
       0.037
      -0.538
      -1.490
      -2.493
      -3.303
      -3.833
      -4.076
      -3.972
      -3.349
      -2.037
      -0.087
       2.111
       3.961
       4.994
       5.163
       4.847
       4.540
       4.475
       4.493
       4.273
       3.678
       2.878
       2.116
       1.425
       0.588
      -0.609
      -2.091
      -3.471
      -4.307
      -4.408
      -3.935
      -3.230
      -2.551
      -1.975
      -1.483
      -1.108
      -0.949
      -1.083
      -1.469
      -1.945
      -2.286
      -2.290
      -1.864
      -1.064
      -0.077
       0.866
       1.591
       2.030
       2.234
       2.330
       2.444
       2.606
       2.683
       2.430
       1.655
       0.392
      -1.071
      -2.322
      -3.027
      -3.070
      -2.554
      -1.686
      -0.650
       0.443
       1.495
       2.347
       2.822
       2.846
       2.538
       2.120
       1.745
       1.419
       1.108
       0.839
       0.666
       0.537
       0.296
      -0.138
      -0.634
      -0.949
      -0.978
      -0.872
      -0.881
      -1.094
      -1.336
      -1.333
      -0.986
      -0.493
      -0.211
      -0.371
      -0.909
      -1.556
      -2.068
      -2.366
      -2.491
      -2.471
      -2.288
      -1.929
      -1.436
      -0.839
      -0.081
       0.942
       2.219
       3.501
       4.384
       4.555
       3.994
       2.947
       1.718
       0.497
      -0.650
      -1.661
      -2.417
      -2.808
      -2.826
      -2.556
      -2.078
      -1.415
      -0.599
       0.205
       0.723
       0.768
       0.426
       0.029
      -0.087
       0.184
       0.704
       1.238
       1.600
       1.678
       1.428
       0.913
       0.363
       0.107
       0.355
       1.008
       1.706
       2.116
       2.159
       2.004
       1.847
       1.737
       1.592
       1.308
       0.837
       0.178
      -0.646
      -1.581
      -2.498
      -3.220
      -3.616
      -3.676
      -3.494
      -3.168
      -2.726
      -2.163
      -1.522
      -0.916
      -0.441
      -0.086
       0.261
       0.691
       1.135
       1.365
       1.178
       0.606
      -0.038
      -0.381
      -0.297
      -0.018
       0.083
      -0.139
      -0.459
      -0.498
      -0.090
       0.573
       1.121
       1.299
       1.115
       0.739
       0.336
      -0.034
      -0.369
      -0.644
      -0.771
      -0.657
      -0.267
       0.340
       1.033
       1.663
       2.094
       2.245
       2.116
       1.784
       1.343
       0.834
       0.238
      -0.431
      -1.050
      -1.437
      -1.506
      -1.366
      -1.241
      -1.275
      -1.424
      -1.520
      -1.405
      -1.010
      -0.331
       0.587
       1.625
       2.549
       3.073
       3.017
       2.462
       1.758
       1.321
       1.375
       1.818
       2.313
       2.494
       2.132
       1.185
      -0.225
      -1.867
      -3.445
      -4.667
      -5.329
      -5.378
      -4.911
      -4.105
      -3.124
      -2.083
      -1.075
      -0.206
       0.406
       0.713
       0.795
       0.852
       1.072
       1.474
       1.856
       1.936
       1.591
       0.990
       0.500
       0.412
       0.724
       1.134
       1.262
       0.935
       0.322
      -0.198
      -0.333
      -0.098
