Origin Time       29/10/2009 17:44:30
Lat.              36.4°N	
Long.             70.8°E	
Depth (Km)        190.0
Magnitude         6.0
 Region           HINDUKUSH-REGION-AFGHANISTAN                                     
 Above details taken from IMD 
   
Station Code      RAM
Station Lat.       31.448
Station Long.      77.630
Station Height(m)  998.0
Site Class        A   Vs30 between 700 m/sec to 1400 m/sec * 
Record Time       29.10.2009 17:47:30.684
Sampling Rate     200. Hz
 Record Duration   65.155 Sec.
 Direction         Vert. (Up positive)
Max. Acceleration     -0.900 cm/sec**2
     
  * For reference see Site Classification link of website 
     
 Base Line Corrected and Low Pass Filtered (Cut Off at 35 Hz) Time History
 Acceleration data in cm/sec**2
    
[...]
      -0.425
      -0.443
      -0.408
      -0.330
      -0.224
      -0.109
       0.004
       0.113
       0.222
       0.331
       0.432
       0.516
       0.573
       0.598
       0.595
       0.568
       0.522
       0.460
       0.381
       0.287
       0.181
       0.071
      -0.033
      -0.122
      -0.190
      -0.238
      -0.273
      -0.302
      -0.330
      -0.359
      -0.387
      -0.408
      -0.417
      -0.408
      -0.382
      -0.341
      -0.289
      -0.224
      -0.145
      -0.047
       0.063
       0.174
       0.266
       0.322
       0.333
       0.304
       0.246
       0.169
       0.078
      -0.022
      -0.124
      -0.221
      -0.304
      -0.367
      -0.401
      -0.404
      -0.374
      -0.319
      -0.246
      -0.164
      -0.075
       0.022
       0.122
       0.215
       0.291
       0.343
       0.369
       0.376
       0.370
       0.355
       0.333
       0.302
       0.261
       0.208
       0.144
       0.071
      -0.006
      -0.087
      -0.170
      -0.251
      -0.325
      -0.380
      -0.410
      -0.410
      -0.384
      -0.335
      -0.268
      -0.187
      -0.099
      -0.014
       0.057
       0.101
       0.109
       0.077
       0.013
      -0.072
      -0.162
      -0.247
      -0.314
      -0.352
      -0.353
      -0.313
      -0.236
      -0.133
      -0.015
       0.104
       0.212
       0.302
       0.371
       0.417
       0.438
       0.434
       0.406
       0.355
       0.284
       0.192
       0.078
      -0.048
      -0.171
      -0.270
      -0.338
      -0.378
      -0.396
      -0.398
      -0.380
      -0.340
      -0.280
      -0.203
      -0.112
      -0.008
       0.103
       0.209
       0.293
       0.343
       0.363
       0.369
       0.384
       0.422
       0.483
       0.559
       0.630
       0.671
       0.660
       0.587
       0.462
       0.311
       0.164
       0.037
      -0.062
      -0.139
      -0.195
      -0.230
      -0.243
      -0.241
      -0.236
      -0.234
      -0.232
      -0.223
      -0.201
      -0.175
      -0.160
      -0.169
      -0.209
      -0.272
      -0.339
      -0.389
      -0.405
      -0.387
      -0.349
      -0.310
      -0.281
      -0.260
      -0.237
      -0.210
      -0.181
      -0.158
      -0.140
      -0.118
      -0.083
      -0.032
       0.029
       0.090
       0.153
       0.225
       0.316
       0.419
       0.515
       0.582
       0.603
       0.571
       0.489
       0.364
       0.210
       0.049
      -0.093
      -0.203
      -0.279
      -0.328
      -0.355
      -0.361
      -0.343
      -0.304
      -0.253
      -0.198
      -0.142
      -0.083
      -0.018
       0.053
       0.127
       0.201
       0.274
       0.344
       0.402
       0.440
       0.452
       0.440
       0.410
       0.370
       0.321
       0.264
       0.204
       0.151
       0.117
       0.105
       0.109
       0.116
       0.115
       0.102
       0.079
       0.048
       0.005
      -0.053
      -0.125
      -0.205
      -0.282
      -0.352
      -0.417
      -0.477
      -0.530
      -0.567
      -0.586
      -0.586
      -0.572
      -0.539
      -0.476
      -0.374
      -0.232
      -0.065
       0.108
       0.273
       0.422
       0.549
       0.656
       0.740
       0.804
       0.845
       0.858
       0.834
       0.766
       0.653
       0.502
       0.329
       0.150
      -0.024
      -0.183
      -0.328
      -0.456
      -0.563
      -0.640
      -0.677
      -0.672
      -0.629
      -0.558
      -0.465
      -0.357
      -0.239
      -0.122
      -0.014
       0.083
       0.167
       0.233
       0.270
       0.268
       0.221
       0.137
       0.028
      -0.088
      -0.194
      -0.276
      -0.322
      -0.332
      -0.317
      -0.294
      -0.273
      -0.249
      -0.203
      -0.129
      -0.035
       0.052
       0.109
       0.127
       0.117
       0.095
       0.082
       0.093
       0.136
       0.208
       0.296
       0.380
       0.443
       0.477
       0.478
       0.446
       0.376
       0.271
       0.146
       0.023
      -0.082
      -0.167
      -0.242
      -0.315
      -0.377
      -0.408
      -0.401
      -0.362
      -0.312
      -0.261
      -0.210
      -0.160
      -0.117
      -0.094
      -0.101
      -0.130
      -0.166
      -0.192
      -0.201
      -0.192
      -0.163
      -0.114
      -0.045
       0.037
       0.116
       0.180
       0.224
       0.249
       0.260
       0.255
       0.233
       0.199
       0.158
       0.118
       0.077
       0.035
      -0.003
      -0.033
      -0.046
      -0.044
      -0.034
      -0.026
      -0.032
      -0.060
      -0.104
      -0.151
      -0.184
      -0.194
      -0.193
      -0.204
      -0.245
      -0.318
      -0.406
      -0.479
      -0.515
      -0.502
      -0.447
      -0.362
      -0.256
      -0.136
      -0.007
       0.130
       0.268
       0.391
       0.477
       0.516
       0.512
       0.482
       0.442
       0.396
       0.341
       0.279
       0.229
       0.205
       0.209
       0.227
       0.243
       0.251
       0.260
       0.282
       0.318
       0.354
       0.367
       0.342
       0.279
       0.197
       0.121
       0.070
       0.048
       0.044
       0.042
       0.032
       0.008
      -0.032
      -0.093
      -0.177
      -0.285
      -0.402
      -0.499
      -0.548
      -0.537
      -0.482
      -0.414
      -0.362
      -0.337
      -0.335
      -0.345
      -0.363
      -0.392
      -0.436
      -0.495
      -0.560
      -0.619
      -0.658
      -0.667
      -0.635
      -0.560
      -0.442
      -0.290
      -0.115
       0.072
       0.254
       0.419
       0.551
       0.643
       0.694
       0.708
       0.689
       0.639
       0.565
       0.480
       0.412
       0.389
       0.423
       0.502
       0.589
       0.647
       0.653
       0.607
       0.517
       0.402
       0.273
       0.140
       0.001
      -0.151
      -0.311
      -0.465
      -0.589
      -0.667
      -0.698
      -0.693
      -0.666
      -0.629
      -0.596
      -0.574
      -0.558
      -0.533
      -0.482
      -0.401
      -0.306
      -0.219
      -0.156
      -0.119
      -0.094
      -0.068
      -0.030
       0.021
       0.086
       0.165
       0.254
       0.341
       0.412
       0.452
       0.461
       0.452
       0.440
       0.433
       0.426
       0.407
       0.367
       0.306
       0.235
       0.170
       0.119
       0.084
       0.058
       0.035
       0.014
       0.004
       0.011
       0.034
       0.063
       0.083
       0.081
       0.054
       0.007
      -0.049
      -0.102
      -0.145
      -0.174
      -0.194
      -0.209
      -0.227
      -0.256
      -0.301
      -0.361
      -0.422
      -0.461
      -0.455
      -0.391
      -0.274
      -0.125
       0.027
       0.156
       0.252
       0.316
       0.358
       0.381
       0.384
       0.361
       0.318
       0.269
       0.237
       0.236
       0.268
       0.322
       0.376
       0.412
       0.418
       0.394
       0.344
       0.274
       0.188
       0.095
       0.004
      -0.074
      -0.134
      -0.176
      -0.200
      -0.206
      -0.196
      -0.173
      -0.139
      -0.099
      -0.052
       0.006
       0.072
       0.137
       0.183
       0.188
       0.136
       0.026
      -0.128
      -0.294
      -0.442
      -0.552
      -0.616
      -0.636
      -0.621
      -0.577
      -0.508
      -0.413
      -0.294
      -0.161
      -0.031
       0.084
       0.181
       0.264
       0.341
       0.407
       0.455
       0.479
       0.477
       0.454
       0.416
       0.362
       0.295
       0.215
       0.121
       0.016
      -0.100
      -0.217
      -0.319
      -0.392
      -0.431
      -0.439
      -0.432
      -0.427
      -0.432
      -0.443
      -0.446
      -0.424
      -0.369
      -0.280
      -0.170
      -0.053
       0.051
       0.132
       0.187
       0.222
       0.243
       0.255
       0.251
       0.229
       0.185
       0.126
       0.059
      -0.003
      -0.044
      -0.052
      -0.019
       0.047
       0.125
       0.192
       0.231
       0.242
       0.230
       0.200
       0.148
       0.069
      -0.030
      -0.133
      -0.218
      -0.267
      -0.281
      -0.274
      -0.261
      -0.249
      -0.233
      -0.207
      -0.166
      -0.109
      -0.037
       0.046
       0.134
       0.221
       0.301
       0.370
       0.423
       0.456
       0.460
       0.429
       0.369
       0.292
       0.217
       0.158
       0.119
       0.095
       0.077
       0.057
       0.032
       0.002
      -0.035
      -0.079
      -0.132
      -0.187
      -0.234
      -0.262
      -0.263
      -0.239
      -0.201
      -0.168
      -0.165
      -0.205
      -0.281
      -0.369
      -0.439
      -0.468
      -0.453
      -0.396
      -0.309
      -0.205
      -0.099
      -0.005
       0.067
       0.113
       0.134
       0.133
       0.113
       0.079
       0.042
       0.015
       0.006
       0.016
       0.041
       0.076
       0.120
       0.181
       0.266
       0.372
       0.482
       0.570
       0.614
       0.603
       0.539
       0.432
       0.301
       0.164
       0.037
      -0.072
      -0.165
      -0.242
      -0.305
      -0.352
      -0.380
      -0.385
      -0.364
      -0.313
      -0.233
      -0.133
      -0.026
       0.069
       0.132
       0.148
       0.116
       0.053
      -0.021
      -0.084
      -0.131
      -0.165
      -0.193
      -0.216
      -0.228
      -0.220
      -0.182
      -0.110
      -0.012
       0.100
       0.214
       0.326
       0.434
       0.534
       0.617
       0.672
       0.688
       0.663
       0.603
       0.516
       0.411
       0.295
       0.168
       0.033
      -0.100
      -0.212
      -0.283
      -0.303
      -0.278
      -0.226
      -0.172
      -0.134
      -0.120
      -0.129
      -0.153
      -0.185
      -0.220
      -0.252
      -0.274
      -0.279
      -0.264
      -0.235
      -0.201
      -0.174
      -0.161
      -0.162
      -0.177
      -0.202
      -0.236
      -0.276
      -0.316
      -0.346
      -0.356
      -0.337
      -0.281
      -0.187
      -0.060
       0.090
       0.245
       0.385
       0.493
       0.560
       0.589
       0.588
       0.563
       0.512
       0.431
       0.319
       0.187
       0.060
      -0.037
      -0.084
      -0.082
      -0.047
      -0.001
       0.039
       0.069
       0.095
       0.115
       0.123
       0.104
       0.045
      -0.054
      -0.179
      -0.310
      -0.426
      -0.516
      -0.575
      -0.602
      -0.601
      -0.576
      -0.528
      -0.461
      -0.378
      -0.286
      -0.192
      -0.099
      -0.007
       0.088
       0.184
       0.277
       0.362
       0.435
       0.494
       0.539
       0.568
       0.572
       0.541
       0.470
       0.361
       0.229
       0.091
      -0.040
      -0.160
      -0.266
      -0.358
      -0.430
      -0.477
      -0.492
      -0.472
      -0.415
      -0.323
      -0.206
      -0.083
       0.029
       0.118
       0.179
       0.215
       0.226
       0.213
       0.179
       0.132
       0.088
       0.058
       0.045
       0.040
       0.032
       0.017
      -0.003
      -0.020
      -0.032
      -0.042
      -0.060
      -0.092
      -0.139
      -0.189
      -0.226
      -0.234
      -0.202
      -0.128
      -0.017
       0.115
       0.250
       0.371
       0.464
       0.525
       0.557
       0.563
       0.546
       0.506
       0.447
       0.378
       0.310
       0.259
       0.236
       0.244
       0.268
       0.280
       0.254
       0.177
       0.061
      -0.065
      -0.175
      -0.257
      -0.311
      -0.343
      -0.361
      -0.372
      -0.378
      -0.383
      -0.387
      -0.392
      -0.400
      -0.416
      -0.437
      -0.454
      -0.458
      -0.443
      -0.414
      -0.385
      -0.366
      -0.359
      -0.351
      -0.326
      -0.278
      -0.210
      -0.133
      -0.058
       0.014
       0.086
       0.166
       0.262
       0.374
       0.494
       0.603
       0.674
       0.688
       0.639
       0.544
       0.430
       0.322
       0.232
       0.163
       0.111
       0.067
       0.026
      -0.016
      -0.062
      -0.115
      -0.172
      -0.227
      -0.270
      -0.289
      -0.280
      -0.246
      -0.200
      -0.156
      -0.126
      -0.116
      -0.124
      -0.140
      -0.155
      -0.161
      -0.150
      -0.124
      -0.093
      -0.074
      -0.075
      -0.090
      -0.102
      -0.094
      -0.059
      -0.011
       0.027
       0.035
       0.004
      -0.056
      -0.125
      -0.183
      -0.215
      -0.216
      -0.192
      -0.154
      -0.113
      -0.076
      -0.048
      -0.027
      -0.008
       0.018
       0.056
       0.106
       0.161
       0.213
       0.255
       0.286
       0.307
       0.317
       0.312
       0.288
       0.241
       0.175
       0.098
       0.026
      -0.028
      -0.050
      -0.033
       0.024
       0.111
       0.205
       0.283
       0.328
       0.340
       0.326
       0.297
       0.257
       0.209
       0.146
       0.065
      -0.033
      -0.139
      -0.247
      -0.353
      -0.457
      -0.559
      -0.655
      -0.739
      -0.807
      -0.861
      -0.895
      -0.900
      -0.858
      -0.756
      -0.595
      -0.391
      -0.173
       0.029
       0.198
       0.331
       0.433
       0.503
       0.541
       0.543
       0.515
       0.467
       0.411
       0.355
       0.303
       0.261
       0.236
       0.233
       0.254
       0.287
       0.318
       0.335
       0.329
       0.300
       0.253
       0.192
       0.126
       0.059
      -0.010
      -0.085
      -0.168
      -0.253
      -0.326
      -0.371
      -0.378
      -0.346
      -0.279
      -0.186
      -0.082
       0.016
       0.089
       0.125
       0.124
       0.100
       0.073
       0.054
       0.043
       0.029
      -0.003
      -0.060
      -0.146
      -0.255
      -0.375
      -0.487
      -0.562
      -0.578
      -0.524
      -0.412
      -0.272
      -0.137
      -0.032
       0.036
       0.081
       0.122
       0.169
       0.220
       0.262
       0.278
       0.262
       0.221
       0.171
       0.128
       0.106
       0.106
       0.122
       0.141
       0.149
       0.138
       0.108
       0.066
       0.025
       0.002
       0.011
       0.058
       0.133
       0.207
       0.248
       0.229
       0.147
       0.024
      -0.109
      -0.217
      -0.275
      -0.276
      -0.231
      -0.161
      -0.087
      -0.021
       0.041
       0.107
       0.181
       0.249
       0.288
       0.277
       0.215
       0.119
       0.013
      -0.078
      -0.135
      -0.146
      -0.111
      -0.040
       0.042
       0.109
       0.144
       0.141
       0.108
       0.055
      -0.007
      -0.065
      -0.104
      -0.113
      -0.096
      -0.070
      -0.052
      -0.047
      -0.051
      -0.050
      -0.038
      -0.016
       0.012
       0.038
       0.052
       0.046
       0.012
      -0.042
      -0.101
      -0.148
      -0.180
      -0.207
      -0.237
      -0.269
      -0.285
      -0.263
      -0.199
      -0.102
       0.006
       0.106
       0.181
       0.221
       0.225
       0.200
       0.168
       0.146
       0.139
       0.137
       0.124
       0.091
       0.042
      -0.001
      -0.020
      -0.004
       0.044
       0.104
       0.157
       0.186
       0.185
       0.162
       0.139
       0.137
       0.164
       0.208
       0.244
       0.251
       0.223
       0.166
       0.088
      -0.012
      -0.134
      -0.270
      -0.400
      -0.498
      -0.543
      -0.530
      -0.466
      -0.369
      -0.258
      -0.148
      -0.051
       0.025
       0.076
       0.097
       0.091
       0.062
       0.025
      -0.008
      -0.032
      -0.050
      -0.071
      -0.094
      -0.106
      -0.087
      -0.026
       0.071
       0.180
       0.275
       0.342
       0.381
       0.395
       0.387
       0.355
       0.298
       0.224
       0.146
       0.076
       0.023
      -0.012
      -0.027
      -0.021
       0.006
       0.047
       0.086
       0.101
       0.072
      -0.003
      -0.112
      -0.238
      -0.363
      -0.476
      -0.567
      -0.621
      -0.627
      -0.589
      -0.525
      -0.451
      -0.373
      -0.284
      -0.174
      -0.040
       0.112
       0.270
       0.415
       0.533
       0.609
       0.640
       0.630
       0.583
       0.503
       0.387
       0.233
       0.049
      -0.146
      -0.319
      -0.438
      -0.483
      -0.454
      -0.372
      -0.264
      -0.157
      -0.070
      -0.013
       0.018
       0.036
       0.052
       0.070
       0.083
       0.083
       0.070
       0.044
       0.006
      -0.046
      -0.113
      -0.185
      -0.252
      -0.300
      -0.319
      -0.301
      -0.239
      -0.136
       0.001
       0.150
       0.288
       0.392
       0.451
       0.469
       0.458
       0.435
       0.406
       0.369
       0.316
       0.238
       0.138
       0.027
      -0.080
      -0.168
      -0.234
      -0.284
      -0.333
      -0.391
      -0.457
      -0.519
      -0.559
      -0.561
      -0.522
      -0.450
      -0.363
      -0.276
      -0.203
      -0.151
      -0.122
      -0.108
      -0.093
      -0.062
      -0.003
       0.082
       0.177
       0.265
       0.331
       0.366
       0.374
       0.360
       0.337
       0.317
       0.304
       0.292
       0.266
       0.213
       0.136
       0.056
       0.001
      -0.011
       0.019
       0.067
       0.102
       0.099
       0.055
      -0.016
      -0.087
      -0.133
      -0.141
      -0.123
      -0.099
      -0.097
      -0.130
      -0.196
      -0.275
      -0.343
      -0.380
      -0.380
      -0.346
      -0.286
      -0.208
      -0.119
      -0.029
       0.054
       0.122
       0.164
       0.168
       0.128
       0.045
      -0.063
      -0.163
      -0.224
      -0.228
      -0.177
      -0.090
       0.013
       0.118
       0.217
       0.304
       0.375
       0.428
       0.466
       0.492
       0.506
       0.505
       0.482
       0.434
       0.362
       0.275
       0.185
       0.104
       0.039
      -0.015
      -0.069
      -0.131
      -0.197
      -0.251
      -0.279
      -0.275
      -0.247
      -0.209
      -0.178
      -0.156
      -0.139
      -0.118
      -0.090
      -0.061
      -0.036
      -0.019
      -0.009
      -0.003
      -0.002
      -0.012
      -0.036
      -0.079
      -0.137
      -0.210
      -0.293
      -0.373
      -0.430
      -0.444
      -0.404
      -0.316
      -0.195
      -0.059
       0.082
       0.219
       0.341
       0.437
       0.499
       0.527
       0.526
       0.507
       0.477
       0.446
       0.418
       0.390
       0.353
       0.296
       0.216
       0.119
       0.020
      -0.071
      -0.155
      -0.240
      -0.332
      -0.425
      -0.500
      -0.539
      -0.537
