Origin Time       06/12/2009 04:33:15 UTC
Lat.              35.8°N	
Long.             77.3°E	
Depth (Km)         60.0
Magnitude         5.3
 Region           CHINA-INDIA(J&K)-BORDER                                          
 Above details taken from IMD 
    
Station Code      RAM
Station Lat.       31.448  N
Station Long.      77.630  E
Station Height(m)  998.0
Site Class        A   Vs30 between 700 m/sec to 1400 m/sec * 
Record Time       06.12.2009 04:34:59.659 UTC
Sampling Rate     200. Hz
 Record Duration   67.435 Sec.
 Direction         N-S (N positive)
Max. Acceleration     -2.395 cm/sec**2
     
  * For reference see Site Classification link of website 
     
 Base Line Corrected and Low Pass Filtered (Cut Off at 35 Hz) Time History
 Acceleration data in cm/sec**2
    
[...]
      -0.156
      -0.048
       0.001
      -0.002
      -0.037
      -0.080
      -0.112
      -0.115
      -0.074
       0.015
       0.129
       0.230
       0.289
       0.308
       0.313
       0.330
       0.362
       0.397
       0.413
       0.400
       0.362
       0.310
       0.263
       0.230
       0.215
       0.216
       0.235
       0.275
       0.333
       0.394
       0.437
       0.451
       0.444
       0.437
       0.435
       0.421
       0.369
       0.273
       0.163
       0.078
       0.022
      -0.039
      -0.151
      -0.321
      -0.502
      -0.627
      -0.650
      -0.576
      -0.446
      -0.306
      -0.185
      -0.095
      -0.049
      -0.057
      -0.122
      -0.221
      -0.314
      -0.369
      -0.383
      -0.379
      -0.382
      -0.400
      -0.426
      -0.443
      -0.441
      -0.415
      -0.360
      -0.286
      -0.214
      -0.171
      -0.171
      -0.197
      -0.213
      -0.187
      -0.111
       0.000
       0.121
       0.233
       0.334
       0.432
       0.535
       0.640
       0.728
       0.772
       0.751
       0.664
       0.522
       0.337
       0.122
      -0.105
      -0.307
      -0.431
      -0.430
      -0.292
      -0.051
       0.230
       0.493
       0.704
       0.852
       0.927
       0.917
       0.806
       0.598
       0.321
       0.028
      -0.229
      -0.418
      -0.537
      -0.613
      -0.679
      -0.756
      -0.844
      -0.920
      -0.949
      -0.895
      -0.738
      -0.491
      -0.198
       0.078
       0.284
       0.393
       0.412
       0.372
       0.313
       0.269
       0.252
       0.241
       0.198
       0.097
      -0.051
      -0.204
      -0.314
      -0.364
      -0.373
      -0.386
      -0.440
      -0.554
      -0.712
      -0.872
      -0.970
      -0.943
      -0.749
      -0.391
       0.078
       0.561
       0.956
       1.191
       1.265
       1.239
       1.201
       1.204
       1.235
       1.230
       1.123
       0.894
       0.577
       0.235
      -0.065
      -0.285
      -0.412
      -0.447
      -0.407
      -0.319
      -0.226
      -0.171
      -0.176
      -0.233
      -0.308
      -0.367
      -0.397
      -0.404
      -0.408
      -0.423
      -0.453
      -0.493
      -0.542
      -0.599
      -0.660
      -0.705
      -0.700
      -0.607
      -0.410
      -0.137
       0.143
       0.347
       0.423
       0.382
       0.288
       0.219
       0.219
       0.276
       0.341
       0.359
       0.305
       0.199
       0.087
       0.005
      -0.049
      -0.104
      -0.180
      -0.258
      -0.286
      -0.221
      -0.054
       0.183
       0.441
       0.672
       0.845
       0.939
       0.939
       0.840
       0.655
       0.417
       0.177
      -0.017
      -0.144
      -0.219
      -0.278
      -0.359
      -0.479
      -0.632
      -0.796
      -0.938
      -1.011
      -0.979
      -0.833
      -0.609
      -0.365
      -0.149
       0.028
       0.182
       0.330
       0.470
       0.581
       0.635
       0.610
       0.493
       0.279
      -0.020
      -0.367
      -0.700
      -0.951
      -1.073
      -1.059
      -0.935
      -0.735
      -0.483
      -0.199
       0.095
       0.364
       0.584
       0.750
       0.880
       0.990
       1.082
       1.143
       1.158
       1.123
       1.052
       0.963
       0.868
       0.768
       0.656
       0.532
       0.399
       0.256
       0.095
      -0.092
      -0.300
      -0.494
      -0.630
      -0.681
      -0.656
      -0.583
      -0.495
      -0.406
      -0.319
      -0.244
      -0.202
      -0.221
      -0.315
      -0.479
      -0.686
      -0.898
      -1.069
      -1.154
      -1.117
      -0.952
      -0.689
      -0.390
      -0.120
       0.081
       0.198
       0.235
       0.197
       0.094
      -0.042
      -0.157
      -0.207
      -0.189
      -0.144
      -0.119
      -0.126
      -0.124
      -0.060
       0.092
       0.318
       0.576
       0.825
       1.037
       1.193
       1.278
       1.282
       1.205
       1.067
       0.912
       0.788
       0.720
       0.698
       0.685
       0.638
       0.532
       0.365
       0.150
      -0.087
      -0.316
      -0.511
      -0.664
      -0.788
      -0.895
      -0.986
      -1.047
      -1.061
      -1.017
      -0.910
      -0.736
      -0.504
      -0.244
       0.002
       0.199
       0.323
       0.358
       0.283
       0.090
      -0.193
      -0.498
      -0.747
      -0.888
      -0.915
      -0.856
      -0.750
      -0.631
      -0.518
      -0.419
      -0.333
      -0.253
      -0.165
      -0.053
       0.097
       0.280
       0.469
       0.625
       0.718
       0.753
       0.762
       0.785
       0.835
       0.892
       0.924
       0.914
       0.883
       0.870
       0.894
       0.937
       0.942
       0.855
       0.652
       0.352
       0.015
      -0.288
      -0.491
      -0.565
      -0.528
      -0.439
      -0.369
      -0.365
      -0.432
      -0.545
      -0.665
      -0.757
      -0.788
      -0.737
      -0.605
      -0.416
      -0.218
      -0.055
       0.041
       0.063
       0.012
      -0.098
      -0.250
      -0.422
      -0.595
      -0.752
      -0.877
      -0.953
      -0.962
      -0.888
      -0.718
      -0.450
      -0.098
       0.287
       0.635
       0.876
       0.984
       0.989
       0.951
       0.920
       0.909
       0.895
       0.855
       0.782
       0.686
       0.585
       0.484
       0.378
       0.257
       0.116
      -0.038
      -0.186
      -0.310
      -0.395
      -0.443
      -0.460
      -0.450
      -0.411
      -0.343
      -0.258
      -0.182
      -0.143
      -0.144
      -0.160
      -0.150
      -0.082
       0.055
       0.244
       0.444
       0.609
       0.701
       0.702
       0.605
       0.413
       0.138
      -0.184
      -0.495
      -0.736
      -0.874
      -0.924
      -0.926
      -0.907
      -0.860
      -0.755
      -0.569
      -0.320
      -0.066
       0.126
       0.208
       0.174
       0.056
      -0.088
      -0.197
      -0.231
      -0.183
      -0.076
       0.061
       0.202
       0.337
       0.454
       0.539
       0.576
       0.548
       0.451
       0.298
       0.125
      -0.017
      -0.085
      -0.061
       0.046
       0.213
       0.413
       0.614
       0.773
       0.838
       0.771
       0.585
       0.342
       0.122
      -0.017
      -0.062
      -0.039
       0.013
       0.054
       0.059
       0.023
      -0.038
      -0.100
      -0.156
      -0.220
      -0.314
      -0.437
      -0.560
      -0.635
      -0.632
      -0.558
      -0.443
      -0.321
      -0.205
      -0.104
      -0.035
      -0.023
      -0.085
      -0.205
      -0.345
      -0.465
      -0.551
      -0.618
      -0.686
      -0.760
      -0.819
      -0.827
      -0.753
      -0.589
      -0.352
      -0.069
       0.229
       0.510
       0.736
       0.861
       0.853
       0.720
       0.519
       0.335
       0.236
       0.241
       0.322
       0.428
       0.522
       0.593
       0.659
       0.754
       0.900
       1.087
       1.266
       1.370
       1.348
       1.187
       0.917
       0.602
       0.311
       0.098
      -0.027
      -0.112
      -0.235
      -0.461
      -0.794
      -1.173
      -1.498
      -1.674
      -1.652
      -1.444
      -1.121
      -0.781
      -0.502
      -0.319
      -0.231
      -0.221
      -0.270
      -0.340
      -0.375
      -0.323
      -0.172
       0.022
       0.170
       0.204
       0.124
      -0.017
      -0.157
      -0.276
      -0.385
      -0.493
      -0.564
      -0.537
      -0.372
      -0.094
       0.214
       0.457
       0.595
       0.650
       0.681
       0.721
       0.750
       0.716
       0.580
       0.356
       0.114
      -0.063
      -0.117
      -0.039
       0.140
       0.365
       0.586
       0.773
       0.916
       1.018
       1.081
       1.095
       1.041
       0.911
       0.720
       0.503
       0.296
       0.107
      -0.077
      -0.279
      -0.501
      -0.710
      -0.864
      -0.935
      -0.932
      -0.891
      -0.852
      -0.838
      -0.849
      -0.881
      -0.942
      -1.048
      -1.203
      -1.381
      -1.518
      -1.534
      -1.377
      -1.059
      -0.658
      -0.278
       0.002
       0.169
       0.263
       0.337
       0.424
       0.518
       0.604
       0.680
       0.767
       0.891
       1.060
       1.250
       1.419
       1.520
       1.514
       1.384
       1.139
       0.823
       0.501
       0.228
       0.022
      -0.135
      -0.274
      -0.407
      -0.513
      -0.544
      -0.458
      -0.244
       0.065
       0.411
       0.740
       1.024
       1.243
       1.369
       1.356
       1.162
       0.779
       0.259
      -0.303
      -0.802
      -1.171
      -1.398
      -1.514
      -1.555
      -1.549
      -1.519
      -1.482
      -1.444
      -1.377
      -1.234
      -0.985
      -0.656
      -0.322
      -0.060
       0.099
       0.176
       0.216
       0.255
       0.314
       0.400
       0.509
       0.619
       0.681
       0.630
       0.426
       0.090
      -0.283
      -0.571
      -0.683
      -0.613
      -0.428
      -0.212
      -0.015
       0.168
       0.363
       0.575
       0.782
       0.948
       1.060
       1.130
       1.178
       1.207
       1.194
       1.109
       0.938
       0.695
       0.415
       0.140
      -0.093
      -0.266
      -0.377
      -0.436
      -0.454
      -0.436
      -0.388
      -0.331
      -0.294
      -0.304
      -0.370
      -0.482
      -0.622
      -0.772
      -0.910
      -1.009
      -1.037
      -0.973
      -0.814
      -0.577
      -0.290
       0.010
       0.284
       0.508
       0.678
       0.808
       0.897
       0.920
       0.835
       0.624
       0.320
       0.007
      -0.217
      -0.292
      -0.219
      -0.060
       0.090
       0.142
       0.052
      -0.159
      -0.408
      -0.592
      -0.637
      -0.535
      -0.330
      -0.082
       0.164
       0.383
       0.549
       0.629
       0.603
       0.477
       0.294
       0.104
      -0.057
      -0.179
      -0.266
      -0.327
      -0.366
      -0.393
      -0.420
      -0.455
      -0.495
      -0.529
      -0.536
      -0.499
      -0.406
      -0.262
      -0.084
       0.106
       0.285
       0.432
       0.528
       0.560
       0.542
       0.517
       0.538
       0.625
       0.742
       0.799
       0.703
       0.412
      -0.030
      -0.503
      -0.875
      -1.055
      -1.017
      -0.784
      -0.411
       0.025
       0.428
       0.709
       0.829
       0.824
       0.777
       0.749
       0.740
       0.693
       0.550
       0.303
      -0.007
      -0.325
      -0.616
      -0.868
      -1.065
      -1.161
      -1.105
      -0.887
      -0.563
      -0.228
       0.036
       0.205
       0.295
       0.322
       0.270
       0.115
      -0.128
      -0.377
      -0.518
      -0.478
      -0.280
      -0.022
       0.189
       0.307
       0.350
       0.352
       0.314
       0.212
       0.037
      -0.170
      -0.333
      -0.387
      -0.335
      -0.238
      -0.166
      -0.140
      -0.130
      -0.093
      -0.016
       0.081
       0.176
       0.266
       0.356
       0.432
       0.457
       0.410
       0.315
       0.226
       0.192
       0.225
       0.304
       0.402
       0.503
       0.596
       0.665
       0.687
       0.643
       0.530
       0.361
       0.150
      -0.090
      -0.346
      -0.602
      -0.836
      -1.027
      -1.163
      -1.238
      -1.241
      -1.158
      -0.970
      -0.681
      -0.330
       0.023
       0.331
       0.583
       0.806
       1.021
       1.202
       1.275
       1.160
       0.839
       0.390
      -0.043
      -0.331
      -0.429
      -0.388
      -0.313
      -0.296
      -0.382
      -0.561
      -0.790
      -1.017
      -1.189
      -1.268
      -1.228
      -1.067
      -0.802
      -0.466
      -0.108
       0.220
       0.479
       0.662
       0.788
       0.881
       0.949
       0.975
       0.938
       0.833
       0.684
       0.536
       0.437
       0.412
       0.448
       0.498
       0.510
       0.457
       0.339
       0.181
       0.020
      -0.095
      -0.123
      -0.058
       0.060
       0.164
       0.207
       0.193
       0.166
       0.167
       0.197
       0.226
       0.218
       0.153
       0.030
      -0.149
      -0.386
      -0.668
      -0.965
      -1.219
      -1.373
      -1.391
      -1.280
      -1.084
      -0.855
      -0.631
      -0.435
      -0.284
      -0.197
      -0.182
      -0.216
      -0.255
      -0.252
      -0.184
      -0.058
       0.097
       0.245
       0.356
       0.412
       0.405
       0.333
       0.209
       0.071
      -0.017
       0.001
       0.132
       0.316
       0.468
       0.539
       0.550
       0.560
       0.616
       0.712
       0.795
       0.810
       0.731
       0.575
       0.387
       0.216
       0.096
       0.041
       0.047
       0.097
       0.174
       0.265
       0.369
       0.489
       0.620
       0.738
       0.813
       0.819
       0.758
       0.647
       0.509
       0.351
       0.164
      -0.070
      -0.370
      -0.746
      -1.182
      -1.626
      -2.007
      -2.270
      -2.395
      -2.384
      -2.239
      -1.961
      -1.568
      -1.120
      -0.702
      -0.384
      -0.181
      -0.058
       0.040
       0.152
       0.290
       0.454
       0.644
       0.864
       1.089
       1.255
       1.282
       1.132
       0.849
       0.544
       0.319
       0.217
       0.204
       0.220
       0.225
       0.220
       0.232
       0.292
       0.410
       0.566
       0.720
       0.821
       0.832
       0.752
       0.617
       0.480
       0.379
       0.316
       0.264
       0.194
       0.107
       0.029
      -0.010
      -0.014
      -0.022
      -0.083
      -0.215
      -0.384
      -0.530
      -0.606
      -0.612
      -0.585
      -0.568
      -0.565
      -0.541
      -0.454
      -0.290
      -0.086
       0.089
       0.157
       0.074
      -0.152
      -0.454
      -0.741
      -0.955
      -1.097
      -1.210
      -1.323
      -1.416
      -1.425
      -1.296
      -1.022
      -0.653
      -0.260
       0.097
       0.395
       0.645
       0.883
       1.141
       1.420
       1.681
       1.851
       1.870
       1.714
       1.404
       0.987
       0.522
       0.081
      -0.256
      -0.413
      -0.353
      -0.110
       0.215
       0.494
       0.640
       0.640
       0.547
       0.420
       0.282
       0.116
      -0.101
      -0.358
      -0.601
      -0.758
      -0.784
      -0.691
      -0.548
      -0.432
      -0.389
      -0.406
      -0.429
      -0.404
      -0.314
      -0.196
      -0.117
      -0.133
      -0.240
      -0.372
      -0.446
      -0.419
      -0.318
      -0.209
      -0.144
      -0.128
      -0.129
      -0.113
      -0.076
      -0.035
      -0.008
       0.007
       0.027
       0.066
       0.127
       0.199
       0.283
       0.385
       0.505
       0.621
       0.690
       0.677
       0.584
       0.444
       0.300
       0.177
       0.088
       0.037
       0.027
       0.055
       0.088
       0.071
      -0.043
      -0.248
      -0.477
      -0.634
      -0.656
      -0.554
      -0.393
      -0.240
      -0.123
      -0.031
       0.055
       0.127
       0.153
       0.109
       0.003
      -0.123
      -0.220
      -0.254
      -0.222
      -0.133
       0.004
       0.179
       0.363
       0.501
       0.531
       0.426
       0.222
       0.005
      -0.144
      -0.199
      -0.192
      -0.178
      -0.186
      -0.210
      -0.227
      -0.227
      -0.212
      -0.178
      -0.114
      -0.007
       0.129
       0.253
       0.319
       0.317
       0.283
       0.273
       0.322
       0.412
       0.484
       0.473
       0.355
       0.153
      -0.079
      -0.294
      -0.468
      -0.591
      -0.651
      -0.630
      -0.524
      -0.355
      -0.168
      -0.010
       0.094
       0.146
       0.163
       0.162
       0.154
       0.146
       0.149
       0.170
       0.210
       0.261
       0.301
       0.295
       0.198
      -0.019
      -0.343
      -0.712
      -1.022
      -1.174
      -1.112
      -0.856
      -0.486
      -0.102
       0.217
       0.430
       0.536
       0.553
       0.508
       0.430
       0.347
       0.284
       0.264
       0.297
       0.374
       0.464
       0.516
       0.488
       0.369
       0.191
       0.015
      -0.103
      -0.138
      -0.104
      -0.037
       0.033
       0.090
       0.123
       0.120
       0.074
      -0.002
      -0.073
      -0.105
      -0.095
      -0.090
      -0.156
      -0.339
      -0.619
      -0.906
      -1.086
      -1.070
      -0.841
      -0.460
      -0.035
       0.331
       0.578
       0.695
       0.699
       0.602
       0.405
       0.125
      -0.188
      -0.461
      -0.627
      -0.658
      -0.564
      -0.390
      -0.198
      -0.054
      -0.005
      -0.060
      -0.195
      -0.357
      -0.489
      -0.531
      -0.429
      -0.159
       0.237
       0.650
       0.942
       1.022
       0.891
       0.643
       0.403
       0.263
       0.253
       0.337
       0.447
       0.524
       0.546
       0.537
       0.547
       0.611
       0.725
       0.840
       0.890
       0.823
       0.631
       0.354
       0.056
      -0.194
      -0.355
      -0.418
      -0.408
      -0.366
      -0.342
      -0.379
      -0.500
      -0.692
      -0.909
      -1.096
      -1.213
      -1.262
      -1.270
      -1.267
      -1.262
      -1.239
      -1.170
      -1.026
      -0.791
      -0.469
      -0.085
       0.311
       0.654
       0.879
       0.941
       0.825
       0.551
       0.174
      -0.214
      -0.508
      -0.623
      -0.530
      -0.270
       0.070
       0.405
       0.688
       0.903
       1.048
       1.111
       1.083
       0.976
       0.830
       0.689
       0.577
       0.489
       0.402
       0.298
       0.185
       0.092
       0.051
       0.071
       0.131
       0.196
       0.242
       0.274
       0.301
       0.311
       0.266
       0.130
      -0.078
      -0.287
      -0.424
      -0.467
      -0.463
      -0.476
      -0.535
      -0.617
      -0.678
      -0.701
      -0.707
      -0.732
      -0.783
      -0.825
      -0.796
      -0.644
      -0.372
      -0.044
       0.236
       0.373
       0.335
       0.171
      -0.020
      -0.152
      -0.196
      -0.182
      -0.154
      -0.141
      -0.141
      -0.143
      -0.139
      -0.126
      -0.097
      -0.035
       0.078
       0.253
       0.474
       0.702
       0.883
       0.975
       0.971
       0.899
       0.803
       0.724
       0.676
       0.648
       0.614
       0.545
       0.423
       0.250
       0.041
      -0.198
      -0.475
      -0.796
      -1.128
      -1.389
      -1.479
      -1.350
      -1.045
      -0.671
      -0.330
      -0.068
