Origin Time       1/5/2013 06:57:12	 
Lat.              33.1 N	
Long.             75.8 E	
Depth (Km)         15.0
Magnitude         5.8
 Region           JK-HP-Border                                                     
 Above details taken from IMD 
     
Station Code      RAM
Station Lat.       31.448  N
Station Long.      77.630  E
Station Height(m)  998.0
Site Class        A   Vs30 between 700 m/sec to 1400 m/sec * 
Record Time       01.05.2013 06:57:34.804
Sampling Rate     200. Hz
 Record Duration  116.450 Sec.
 Direction         E-W (E positive)
Max. Acceleration     13.781 cm/sec**2
     
  * For reference see Site Classification link of website 
     
 Base Line Corrected and Low Pass Filtered (Cut Off at 35 Hz) Time History
 Acceleration data in cm/sec**2
    
[...]
      -1.304
      -1.443
      -1.554
      -1.629
      -1.662
      -1.655
      -1.629
      -1.622
      -1.661
      -1.744
      -1.824
      -1.836
      -1.732
      -1.500
      -1.167
      -0.781
      -0.393
      -0.045
       0.222
       0.374
       0.395
       0.306
       0.165
       0.051
       0.028
       0.131
       0.360
       0.686
       1.055
       1.394
       1.628
       1.704
       1.620
       1.425
       1.207
       1.047
       0.992
       1.040
       1.160
       1.309
       1.458
       1.592
       1.711
       1.815
       1.901
       1.965
       2.001
       1.999
       1.949
       1.847
       1.691
       1.486
       1.243
       0.970
       0.665
       0.305
      -0.139
      -0.675
      -1.270
      -1.843
      -2.305
      -2.592
      -2.691
      -2.646
      -2.525
      -2.400
      -2.323
      -2.317
      -2.371
      -2.450
      -2.514
      -2.526
      -2.462
      -2.314
      -2.086
      -1.789
      -1.433
      -1.023
      -0.564
      -0.069
       0.433
       0.906
       1.313
       1.625
       1.828
       1.926
       1.937
       1.885
       1.790
       1.666
       1.525
       1.377
       1.241
       1.143
       1.108
       1.142
       1.227
       1.328
       1.411
       1.464
       1.496
       1.526
       1.558
       1.567
       1.514
       1.360
       1.093
       0.733
       0.314
      -0.130
      -0.583
      -1.049
      -1.538
      -2.048
      -2.559
      -3.036
      -3.447
      -3.763
      -3.960
      -4.022
      -3.940
      -3.722
      -3.394
      -2.990
      -2.540
      -2.057
      -1.535
      -0.956
      -0.324
       0.324
       0.920
       1.391
       1.699
       1.846
       1.871
       1.819
       1.727
       1.620
       1.517
       1.437
       1.397
       1.410
       1.475
       1.570
       1.660
       1.716
       1.722
       1.676
       1.597
       1.525
       1.516
       1.611
       1.816
       2.088
       2.360
       2.568
       2.676
       2.681
       2.597
       2.432
       2.185
       1.852
       1.428
       0.920
       0.334
      -0.313
      -0.995
      -1.676
      -2.324
      -2.915
      -3.437
      -3.893
      -4.287
      -4.615
      -4.863
      -5.011
      -5.052
      -4.993
      -4.848
      -4.623
      -4.307
      -3.876
      -3.316
      -2.650
      -1.926
      -1.191
      -0.468
       0.253
       0.989
       1.741
       2.476
       3.138
       3.670
       4.043
       4.254
       4.314
       4.221
       3.962
       3.531
       2.944
       2.243
       1.486
       0.735
       0.055
      -0.490
      -0.842
      -0.954
      -0.812
      -0.437
       0.107
       0.726
       1.316
       1.796
       2.131
       2.333
       2.444
       2.494
       2.468
       2.310
       1.958
       1.389
       0.647
      -0.179
      -0.998
      -1.763
      -2.469
      -3.127
      -3.730
      -4.241
      -4.612
      -4.799
      -4.783
      -4.564
      -4.161
      -3.613
      -2.971
      -2.295
      -1.627
      -0.978
      -0.328
       0.356
       1.089
       1.841
       2.555
       3.168
       3.641
       3.951
       4.082
       4.020
       3.778
       3.404
       2.963
       2.507
       2.059
       1.625
       1.213
       0.838
       0.514
       0.236
      -0.029
      -0.317
      -0.637
      -0.955
      -1.212
      -1.361
      -1.394
      -1.345
      -1.251
      -1.136
      -1.003
      -0.848
      -0.680
      -0.512
      -0.358
      -0.232
      -0.149
      -0.119
      -0.147
      -0.230
      -0.361
      -0.535
      -0.746
      -0.985
      -1.238
      -1.478
      -1.671
      -1.792
      -1.845
      -1.867
      -1.901
      -1.963
      -2.017
      -1.993
      -1.833
      -1.523
      -1.097
      -0.601
      -0.061
       0.523
       1.145
       1.775
       2.360
       2.854
       3.242
       3.537
       3.758
       3.902
       3.947
       3.870
       3.670
       3.371
       2.997
       2.557
       2.048
       1.476
       0.867
       0.264
      -0.294
      -0.791
      -1.235
      -1.642
      -2.018
      -2.360
      -2.669
      -2.954
      -3.226
      -3.485
      -3.710
      -3.868
      -3.923
      -3.845
      -3.610
      -3.211
      -2.657
      -1.984
      -1.247
      -0.509
       0.177
       0.769
       1.233
       1.547
       1.705
       1.721
       1.629
       1.466
       1.275
       1.093
       0.962
       0.914
       0.957
       1.056
       1.139
       1.128
       0.978
       0.701
       0.363
       0.057
      -0.128
      -0.131
       0.067
       0.440
       0.928
       1.448
       1.923
       2.306
       2.587
       2.783
       2.915
       2.993
       3.011
       2.955
       2.812
       2.573
       2.235
       1.797
       1.260
       0.629
      -0.087
      -0.877
      -1.723
      -2.592
      -3.434
      -4.201
      -4.862
      -5.406
      -5.825
      -6.102
      -6.208
      -6.126
      -5.859
      -5.443
      -4.930
      -4.372
      -3.810
      -3.261
      -2.709
      -2.114
      -1.427
      -0.628
       0.258
       1.175
       2.058
       2.867
       3.589
       4.222
       4.747
       5.108
       5.234
       5.078
       4.658
       4.056
       3.386
       2.752
       2.222
       1.826
       1.565
       1.411
       1.317
       1.236
       1.155
       1.102
       1.120
       1.227
       1.395
       1.569
       1.714
       1.853
       2.043
       2.326
       2.680
       3.023
       3.269
       3.373
       3.340
       3.198
       2.956
       2.599
       2.103
       1.446
       0.621
      -0.371
      -1.520
      -2.800
      -4.153
      -5.488
      -6.695
      -7.683
      -8.402
      -8.857
      -9.086
      -9.133
      -9.034
      -8.799
      -8.416
      -7.870
      -7.153
      -6.280
      -5.288
      -4.236
      -3.190
      -2.208
      -1.316
      -0.507
       0.258
       1.026
       1.842
       2.732
       3.692
       4.693
       5.691
       6.634
       7.466
       8.137
       8.616
       8.905
       9.033
       9.038
       8.944
       8.763
       8.496
       8.129
       7.630
       6.963
       6.107
       5.099
       4.027
       3.003
       2.114
       1.385
       0.785
       0.260
      -0.234
      -0.711
      -1.175
      -1.644
      -2.151
      -2.731
      -3.405
      -4.176
      -5.038
      -5.974
      -6.950
      -7.900
      -8.736
      -9.363
      -9.705
      -9.722
      -9.429
      -8.887
      -8.175
      -7.362
      -6.487
      -5.578
      -4.662
      -3.776
      -2.951
      -2.201
      -1.522
      -0.896
      -0.295
       0.316
       0.962
       1.630
       2.272
       2.838
       3.305
       3.682
       3.980
       4.203
       4.358
       4.461
       4.539
       4.607
       4.665
       4.711
       4.770
       4.889
       5.097
       5.386
       5.715
       6.047
       6.362
       6.643
       6.862
       6.980
       6.965
       6.800
       6.476
       5.974
       5.273
       4.369
       3.283
       2.063
       0.770
      -0.537
      -1.813
      -3.041
      -4.227
      -5.381
      -6.485
      -7.493
      -8.344
      -8.999
      -9.457
      -9.722
      -9.778
      -9.592
      -9.146
      -8.482
      -7.702
      -6.932
      -6.258
      -5.695
      -5.204
      -4.741
      -4.289
      -3.852
      -3.417
      -2.942
      -2.388
      -1.748
      -1.053
      -0.338
       0.387
       1.137
       1.910
       2.664
       3.330
       3.865
       4.279
       4.619
       4.930
       5.231
       5.522
       5.809
       6.100
       6.392
       6.653
       6.832
       6.887
       6.807
       6.602
       6.282
       5.842
       5.285
       4.643
       3.976
       3.345
       2.777
       2.257
       1.760
       1.285
       0.872
       0.587
       0.476
       0.522
       0.646
       0.735
       0.700
       0.504
       0.159
      -0.306
      -0.875
      -1.546
      -2.323
      -3.207
      -4.195
      -5.272
      -6.400
      -7.515
      -8.536
      -9.385
      -9.991
     -10.304
     -10.306
     -10.012
      -9.463
      -8.712
      -7.803
      -6.773
      -5.643
      -4.427
      -3.142
      -1.817
      -0.492
       0.802
       2.065
       3.314
       4.557
       5.768
       6.885
       7.840
       8.596
       9.153
       9.515
       9.650
       9.490
       8.980
       8.131
       7.042
       5.859
       4.708
       3.665
       2.764
       2.022
       1.455
       1.053
       0.767
       0.525
       0.266
      -0.021
      -0.300
      -0.516
      -0.645
      -0.714
      -0.788
      -0.930
      -1.169
      -1.496
      -1.876
      -2.266
      -2.619
      -2.893
      -3.052
      -3.088
      -3.022
      -2.900
      -2.778
      -2.702
      -2.690
      -2.731
      -2.787
      -2.802
      -2.721
      -2.509
      -2.162
      -1.702
      -1.160
      -0.577
      -0.007
       0.484
       0.828
       0.979
       0.935
       0.754
       0.536
       0.383
       0.348
       0.420
       0.550
       0.692
       0.824
       0.938
       1.019
       1.041
       0.981
       0.845
       0.661
       0.457
       0.242
       0.006
      -0.251
      -0.504
      -0.708
      -0.834
      -0.892
      -0.936
      -1.030
      -1.206
      -1.459
      -1.762
      -2.082
      -2.394
      -2.669
      -2.879
      -2.999
      -3.012
      -2.904
      -2.667
      -2.294
      -1.782
      -1.134
      -0.370
       0.480
       1.391
       2.343
       3.318
       4.276
       5.161
       5.914
       6.496
       6.889
       7.078
       7.047
       6.784
       6.295
       5.621
       4.830
       4.006
       3.230
       2.564
       2.031
       1.606
       1.216
       0.765
       0.172
      -0.595
      -1.507
      -2.489
      -3.441
      -4.275
      -4.927
      -5.360
      -5.572
      -5.581
      -5.433
      -5.187
      -4.903
      -4.629
      -4.388
      -4.179
      -3.998
      -3.838
      -3.699
      -3.573
      -3.448
      -3.309
      -3.136
      -2.913
      -2.626
      -2.272
      -1.871
      -1.458
      -1.072
      -0.733
      -0.424
      -0.100
       0.286
       0.754
       1.276
       1.799
       2.279
       2.699
       3.067
       3.400
       3.713
       4.013
       4.302
       4.586
       4.859
       5.103
       5.291
       5.409
       5.458
       5.448
       5.385
       5.257
       5.047
       4.739
       4.331
       3.828
       3.239
       2.566
       1.810
       0.974
       0.079
      -0.844
      -1.746
      -2.566
      -3.233
      -3.687
      -3.912
      -3.934
      -3.814
      -3.611
      -3.365
      -3.095
      -2.799
      -2.460
      -2.062
      -1.615
      -1.176
      -0.848
      -0.738
      -0.907
      -1.330
      -1.913
      -2.538
      -3.096
      -3.505
      -3.702
      -3.645
      -3.324
      -2.766
      -2.048
      -1.267
      -0.516
       0.143
       0.670
       1.051
       1.288
       1.404
       1.435
       1.414
       1.372
       1.334
       1.321
       1.334
       1.338
       1.273
       1.085
       0.760
       0.346
      -0.081
      -0.448
      -0.708
      -0.835
      -0.825
      -0.700
      -0.509
      -0.319
      -0.193
      -0.168
      -0.237
      -0.357
      -0.461
      -0.484
      -0.381
      -0.130
       0.272
       0.811
       1.455
       2.148
       2.822
       3.411
       3.878
       4.211
       4.417
       4.492
       4.418
       4.165
       3.711
       3.060
       2.257
       1.384
       0.546
      -0.176
      -0.755
      -1.233
      -1.689
      -2.191
      -2.750
      -3.317
      -3.804
      -4.126
      -4.225
      -4.075
      -3.688
      -3.110
      -2.414
      -1.681
      -0.991
      -0.422
      -0.040
       0.132
       0.135
       0.075
       0.075
       0.218
       0.512
       0.905
       1.323
       1.705
       2.006
       2.186
       2.205
       2.035
       1.666
       1.115
       0.421
      -0.358
      -1.139
      -1.832
      -2.354
      -2.656
      -2.746
      -2.678
      -2.527
      -2.351
      -2.187
      -2.059
      -1.995
      -2.018
      -2.130
      -2.304
      -2.492
      -2.654
      -2.770
      -2.830
      -2.817
      -2.707
      -2.479
      -2.131
      -1.672
      -1.107
      -0.426
       0.385
       1.326
       2.360
       3.415
       4.397
       5.227
       5.874
       6.361
       6.736
       7.039
       7.291
       7.498
       7.663
       7.782
       7.831
       7.766
       7.540
       7.122
       6.516
       5.751
       4.856
       3.855
       2.771
       1.651
       0.563
      -0.437
      -1.339
      -2.186
      -3.042
      -3.946
      -4.880
      -5.789
      -6.615
      -7.331
      -7.938
      -8.449
      -8.874
      -9.221
      -9.507
      -9.754
      -9.972
     -10.152
     -10.254
     -10.227
     -10.029
      -9.647
      -9.087
      -8.361
      -7.476
      -6.433
      -5.248
      -3.965
      -2.637
      -1.298
       0.062
       1.475
       2.947
       4.439
       5.885
       7.233
       8.466
       9.602
      10.660
      11.637
      12.495
      13.172
      13.612
      13.781
      13.678
      13.326
      12.771
      12.063
      11.235
      10.291
       9.204
       7.941
       6.484
       4.853
       3.108
       1.337
      -0.371
      -1.956
      -3.394
      -4.681
      -5.823
      -6.811
      -7.635
      -8.287
      -8.770
      -9.095
      -9.272
      -9.316
      -9.251
      -9.106
      -8.900
      -8.631
      -8.290
      -7.866
      -7.369
      -6.828
      -6.289
      -5.795
      -5.365
      -4.984
      -4.602
      -4.153
      -3.575
      -2.831
      -1.916
      -0.864
       0.264
       1.386
       2.419
       3.298
       3.997
       4.530
       4.929
       5.228
       5.441
       5.565
       5.583
       5.478
       5.256
       4.941
       4.573
       4.183
       3.789
       3.392
       2.989
       2.577
       2.155
       1.704
       1.190
       0.585
      -0.100
      -0.800
      -1.418
      -1.875
      -2.129
      -2.176
      -2.027
      -1.696
      -1.202
      -0.589
       0.072
       0.694
       1.204
       1.571
       1.799
       1.912
       1.932
       1.888
       1.821
       1.794
       1.861
       2.041
       2.302
       2.578
       2.801
       2.918
       2.882
       2.663
       2.253
       1.685
       1.019
       0.324
      -0.346
      -0.957
      -1.493
      -1.947
      -2.334
      -2.693
      -3.085
      -3.569
      -4.176
      -4.894
      -5.672
      -6.440
      -7.129
      -7.685
      -8.082
      -8.304
      -8.334
      -8.147
      -7.708
      -6.984
      -5.958
      -4.651
      -3.131
      -1.504
       0.129
       1.710
       3.237
       4.732
       6.193
       7.562
       8.732
       9.591
      10.070
      10.164
       9.912
       9.369
       8.581
       7.592
       6.450
       5.202
       3.892
       2.561
       1.253
       0.020
      -1.095
      -2.065
      -2.876
      -3.513
      -3.946
      -4.152
      -4.144
      -3.970
      -3.695
      -3.360
      -2.972
      -2.508
      -1.950
      -1.314
      -0.651
      -0.023
       0.523
       0.964
       1.283
       1.454
       1.448
       1.251
       0.886
       0.412
      -0.091
      -0.545
      -0.900
      -1.135
      -1.256
      -1.290
      -1.267
      -1.206
      -1.107
      -0.953
      -0.729
      -0.425
      -0.036
       0.429
       0.934
       1.412
       1.801
       2.077
       2.261
       2.396
       2.502
       2.557
       2.518
       2.347
       2.027
       1.551
       0.910
       0.093
      -0.891
      -1.999
      -3.156
      -4.263
      -5.217
      -5.930
      -6.355
      -6.497
      -6.406
      -6.147
      -5.768
      -5.285
      -4.676
      -3.905
      -2.947
      -1.813
      -0.557
       0.737
       1.987
       3.150
       4.229
       5.249
       6.211
       7.078
       7.778
       8.239
       8.412
       8.286
       7.886
       7.254
       6.424
       5.406
       4.196
       2.802
       1.270
      -0.312
      -1.818
      -3.128
      -4.148
      -4.840
      -5.211
      -5.298
      -5.142
      -4.770
      -4.204
      -3.482
      -2.665
      -1.824
      -1.008
      -0.234
       0.496
       1.173
       1.770
       2.251
       2.582
       2.730
       2.665
       2.355
       1.789
       1.000
       0.081
      -0.843
      -1.658
      -2.306
      -2.782
      -3.107
      -3.284
      -3.289
      -3.101
      -2.731
      -2.234
      -1.686
      -1.154
      -0.678
      -0.272
       0.076
       0.403
       0.766
       1.224
       1.810
       2.508
       3.245
       3.901
       4.350
       4.508
       4.364
       3.969
       3.397
       2.707
       1.926
       1.054
       0.080
      -1.012
      -2.226
      -3.536
      -4.870
      -6.129
      -7.210
      -8.039
      -8.569
      -8.764
      -8.592
      -8.042
      -7.151
      -5.999
      -4.689
      -3.313
      -1.931
      -0.583
       0.690
       1.837
       2.803
       3.562
       4.127
       4.536
       4.831
       5.049
       5.225
       5.393
       5.574
       5.764
       5.930
       6.021
       5.997
       5.841
       5.551
       5.126
       4.567
       3.894
       3.156
       2.417
       1.734
       1.145
       0.673
       0.344
       0.175
       0.149
       0.199
       0.220
       0.125
      -0.109
      -0.433
      -0.773
      -1.070
      -1.314
      -1.533
      -1.780
      -2.099
      -2.512
      -3.010
      -3.561
      -4.128
      -4.675
      -5.161
      -5.529
      -5.706
      -5.631
      -5.288
      -4.732
      -4.067
      -3.409
      -2.843
      -2.408
      -2.102
      -1.899
      -1.759
      -1.631
      -1.458
      -1.195
      -0.827
      -0.375
       0.122
       0.634
       1.144
       1.629
       2.061
       2.412
       2.676
       2.877
       3.059
       3.266
       3.516
       3.792
       4.053
       4.248
       4.330
       4.255
       3.985
       3.499
       2.810
       1.986
       1.134
       0.369
      -0.220
      -0.587
      -0.717
      -0.618
      -0.322
       0.103
       0.554
       0.923
       1.141
       1.201
       1.143
       1.008
       0.812
       0.546
       0.223
      -0.099
      -0.339
      -0.447
      -0.428
      -0.323
      -0.171
       0.004
       0.176
       0.295
       0.306
       0.178
      -0.065
      -0.361
      -0.656
      -0.926
      -1.188
      -1.469
      -1.796
      -2.180
      -2.606
      -3.026
      -3.381
      -3.614
      -3.701
      -3.652
      -3.504
      -3.287
      -2.990
      -2.564
      -1.956
      -1.165
      -0.263
       0.628
       1.387
       1.940
       2.279
       2.445
       2.494
       2.463
       2.358
       2.166
