Origin Time       1/5/2013 06:57:12	 
Lat.              33.1 N	
Long.             75.8 E	
Depth (Km)         15.0
Magnitude         5.8
 Region           JK-HP-Border                                                     
 Above details taken from IMD 
   
Station Code      RAM
Station Lat.       31.448
Station Long.      77.630
Station Height(m)  998.0
Site Class        A   Vs30 between 700 m/sec to 1400 m/sec * 
Record Time       01.05.2013 06:57:34.804
Sampling Rate     200. Hz
 Record Duration  116.450 Sec.
 Direction         Vert. (Up positive)
Max. Acceleration      8.259 cm/sec**2
     
  * For reference see Site Classification link of website 
     
 Base Line Corrected and Low Pass Filtered (Cut Off at 35 Hz) Time History
 Acceleration data in cm/sec**2
    
[...]
       0.121
       0.272
       0.282
       0.176
       0.006
      -0.180
      -0.339
      -0.423
      -0.375
      -0.159
       0.187
       0.532
       0.711
       0.637
       0.352
      -0.019
      -0.379
      -0.717
      -1.059
      -1.379
      -1.564
      -1.488
      -1.127
      -0.607
      -0.093
       0.343
       0.762
       1.251
       1.783
       2.191
       2.284
       2.008
       1.502
       1.003
       0.685
       0.569
       0.555
       0.528
       0.430
       0.267
       0.075
      -0.094
      -0.192
      -0.196
      -0.141
      -0.120
      -0.236
      -0.537
      -0.959
      -1.342
      -1.514
      -1.395
      -1.035
      -0.563
      -0.101
       0.292
       0.606
       0.829
       0.908
       0.770
       0.396
      -0.138
      -0.678
      -1.086
      -1.313
      -1.409
      -1.466
      -1.544
      -1.632
      -1.652
      -1.512
      -1.151
      -0.577
       0.134
       0.845
       1.397
       1.665
       1.628
       1.384
       1.099
       0.913
       0.869
       0.886
       0.825
       0.597
       0.241
      -0.101
      -0.298
      -0.332
      -0.288
      -0.265
      -0.290
      -0.315
      -0.299
      -0.274
      -0.320
      -0.460
      -0.591
      -0.536
      -0.195
       0.365
       0.943
       1.351
       1.524
       1.528
       1.468
       1.397
       1.300
       1.152
       0.975
       0.844
       0.819
       0.892
       0.984
       0.996
       0.877
       0.636
       0.321
      -0.042
      -0.472
      -1.003
      -1.641
      -2.325
      -2.959
      -3.462
      -3.807
      -4.025
      -4.159
      -4.198
      -4.055
      -3.614
      -2.824
      -1.747
      -0.534
       0.637
       1.629
       2.379
       2.885
       3.174
       3.265
       3.169
       2.911
       2.539
       2.120
       1.732
       1.435
       1.254
       1.159
       1.071
       0.907
       0.625
       0.253
      -0.122
      -0.401
      -0.528
      -0.517
      -0.428
      -0.308
      -0.158
       0.055
       0.358
       0.736
       1.121
       1.417
       1.562
       1.569
       1.514
       1.471
       1.460
       1.432
       1.303
       1.002
       0.522
      -0.079
      -0.709
      -1.295
      -1.828
      -2.361
      -2.964
      -3.652
      -4.338
      -4.849
      -5.029
      -4.837
      -4.356
      -3.724
      -3.032
      -2.280
      -1.420
      -0.431
       0.629
       1.647
       2.524
       3.204
       3.650
       3.803
       3.597
       3.023
       2.175
       1.227
       0.373
      -0.258
      -0.632
      -0.788
      -0.774
      -0.608
      -0.295
       0.137
       0.635
       1.138
       1.603
       1.995
       2.273
       2.403
       2.383
       2.243
       2.017
       1.724
       1.361
       0.945
       0.539
       0.244
       0.136
       0.199
       0.333
       0.428
       0.425
       0.331
       0.185
       0.009
      -0.199
      -0.448
      -0.721
      -0.996
      -1.285
      -1.641
      -2.106
      -2.644
      -3.137
      -3.474
      -3.641
      -3.737
      -3.888
      -4.144
      -4.423
      -4.572
      -4.470
      -4.097
      -3.506
      -2.748
      -1.833
      -0.761
       0.438
       1.689
       2.898
       3.983
       4.875
       5.493
       5.727
       5.491
       4.810
       3.855
       2.846
       1.940
       1.175
       0.532
      -0.005
      -0.435
      -0.758
      -0.980
      -1.089
      -1.045
      -0.802
      -0.357
       0.213
       0.772
       1.203
       1.483
       1.679
       1.876
       2.086
       2.223
       2.162
       1.836
       1.297
       0.683
       0.121
      -0.357
      -0.813
      -1.337
      -1.968
      -2.661
      -3.299
      -3.757
      -3.945
      -3.840
      -3.471
      -2.909
      -2.262
      -1.674
      -1.266
      -1.076
      -1.037
      -1.016
      -0.905
      -0.674
      -0.383
      -0.114
       0.105
       0.333
       0.658
       1.104
       1.596
       2.009
       2.261
       2.365
       2.404
       2.470
       2.605
       2.799
       2.998
       3.127
       3.089
       2.791
       2.196
       1.371
       0.462
      -0.379
      -1.073
      -1.613
      -2.025
      -2.310
      -2.431
      -2.344
      -2.047
      -1.599
      -1.083
      -0.559
      -0.048
       0.446
       0.915
       1.341
       1.686
       1.898
       1.910
       1.670
       1.179
       0.536
      -0.079
      -0.480
      -0.582
      -0.445
      -0.218
      -0.042
       0.032
       0.037
       0.036
       0.052
       0.056
       0.001
      -0.133
      -0.327
      -0.568
      -0.876
      -1.283
      -1.771
      -2.244
      -2.580
      -2.714
      -2.696
      -2.655
      -2.704
      -2.833
      -2.910
      -2.765
      -2.328
      -1.675
      -0.960
      -0.303
       0.293
       0.911
       1.618
       2.388
       3.102
       3.642
       3.967
       4.118
       4.145
       4.046
       3.767
       3.263
       2.565
       1.792
       1.083
       0.511
       0.054
      -0.343
      -0.690
      -0.919
      -0.946
      -0.742
      -0.374
       0.029
       0.340
       0.487
       0.462
       0.301
       0.057
      -0.227
      -0.537
      -0.905
      -1.382
      -1.973
      -2.577
      -3.004
      -3.069
      -2.706
      -2.004
      -1.165
      -0.407
       0.126
       0.385
       0.386
       0.183
      -0.122
      -0.375
      -0.414
      -0.156
       0.347
       0.934
       1.440
       1.773
       1.931
       1.945
       1.824
       1.554
       1.149
       0.677
       0.229
      -0.156
      -0.511
      -0.908
      -1.380
      -1.886
      -2.327
      -2.590
      -2.605
      -2.378
      -1.978
      -1.501
      -1.042
      -0.679
      -0.457
      -0.376
      -0.390
      -0.419
      -0.376
      -0.185
       0.181
       0.687
       1.260
       1.827
       2.344
       2.788
       3.136
       3.331
       3.275
       2.882
       2.137
       1.117
      -0.065
      -1.303
      -2.489
      -3.482
      -4.137
      -4.368
      -4.192
      -3.709
      -3.041
      -2.266
      -1.392
      -0.399
       0.685
       1.759
       2.691
       3.387
       3.808
       3.938
       3.777
       3.368
       2.817
       2.255
       1.757
       1.306
       0.830
       0.294
      -0.227
      -0.583
      -0.657
      -0.474
      -0.196
      -0.013
      -0.016
      -0.160
      -0.324
      -0.414
      -0.421
      -0.398
      -0.401
      -0.466
      -0.632
      -0.943
      -1.409
      -1.964
      -2.497
      -2.929
      -3.263
      -3.562
      -3.865
      -4.124
      -4.204
      -3.962
      -3.330
      -2.343
      -1.111
       0.232
       1.556
       2.748
       3.728
       4.446
       4.870
       4.985
       4.821
       4.476
       4.086
       3.762
       3.525
       3.302
       2.973
       2.446
       1.720
       0.899
       0.146
      -0.400
      -0.683
      -0.742
      -0.663
      -0.533
      -0.419
      -0.394
      -0.542
      -0.913
      -1.449
      -1.981
      -2.330
      -2.432
      -2.373
      -2.297
      -2.267
      -2.208
      -1.992
      -1.574
      -1.058
      -0.604
      -0.283
      -0.026
       0.248
       0.493
       0.527
       0.202
      -0.434
      -1.135
      -1.642
      -1.860
      -1.884
      -1.864
      -1.845
      -1.759
      -1.531
      -1.182
      -0.799
      -0.421
       0.002
       0.554
       1.238
       1.957
       2.590
       3.106
       3.575
       4.054
       4.470
       4.645
       4.458
       3.966
       3.366
       2.830
       2.373
       1.888
       1.292
       0.638
       0.095
      -0.208
      -0.289
      -0.291
      -0.325
      -0.375
      -0.343
      -0.180
       0.057
       0.257
       0.359
       0.373
       0.311
       0.112
      -0.328
      -1.044
      -1.923
      -2.749
      -3.358
      -3.743
      -4.030
      -4.341
      -4.680
      -4.935
      -4.961
      -4.701
      -4.218
      -3.645
      -3.085
      -2.562
      -2.036
      -1.464
      -0.825
      -0.130
       0.567
       1.156
       1.505
       1.528
       1.248
       0.811
       0.420
       0.241
       0.320
       0.601
       0.994
       1.448
       1.950
       2.489
       3.025
       3.506
       3.910
       4.269
       4.633
       5.006
       5.298
       5.365
       5.101
       4.502
       3.647
       2.642
       1.578
       0.529
      -0.432
      -1.234
      -1.827
      -2.189
      -2.336
      -2.296
      -2.096
      -1.762
      -1.347
      -0.952
      -0.702
      -0.675
      -0.851
      -1.122
      -1.361
      -1.489
      -1.518
      -1.522
      -1.591
      -1.774
      -2.072
      -2.442
      -2.830
      -3.190
      -3.501
      -3.754
      -3.917
      -3.935
      -3.766
      -3.409
      -2.922
      -2.395
      -1.902
      -1.446
      -0.942
      -0.268
       0.635
       1.701
       2.759
       3.630
       4.216
       4.529
       4.647
       4.635
       4.505
       4.250
       3.903
       3.538
       3.202
       2.869
       2.467
       1.970
       1.447
       1.020
       0.747
       0.572
       0.364
       0.038
      -0.367
      -0.734
      -0.967
      -1.063
      -1.079
      -1.062
      -1.012
      -0.903
      -0.715
      -0.458
      -0.175
       0.070
       0.216
       0.219
       0.061
      -0.232
      -0.604
      -0.995
      -1.387
      -1.811
      -2.293
      -2.795
      -3.203
      -3.385
      -3.282
      -2.964
      -2.584
      -2.278
      -2.064
      -1.853
      -1.544
      -1.115
      -0.621
      -0.116
       0.404
       0.992
       1.676
       2.403
       3.049
       3.508
       3.752
       3.831
       3.798
       3.652
       3.347
       2.858
       2.230
       1.572
       0.982
       0.478
       0.003
      -0.503
      -1.026
      -1.484
      -1.790
      -1.899
      -1.809
      -1.561
      -1.230
      -0.920
      -0.716
      -0.646
      -0.690
      -0.809
      -0.970
      -1.138
      -1.265
      -1.307
      -1.250
      -1.123
      -0.968
      -0.803
      -0.599
      -0.315
       0.033
       0.349
       0.520
       0.502
       0.359
       0.207
       0.125
       0.106
       0.084
       0.009
      -0.116
      -0.255
      -0.389
      -0.531
      -0.690
      -0.825
      -0.866
      -0.754
      -0.475
      -0.069
       0.397
       0.853
       1.248
       1.561
       1.805
       2.018
       2.253
       2.540
       2.855
       3.113
       3.201
       3.007
       2.445
       1.474
       0.107
      -1.555
      -3.315
      -4.903
      -6.062
      -6.639
      -6.629
      -6.133
      -5.273
      -4.153
      -2.854
      -1.458
      -0.038
       1.341
       2.625
       3.765
       4.712
       5.408
       5.773
       5.741
       5.307
       4.557
       3.635
       2.669
       1.712
       0.753
      -0.224
      -1.184
      -2.030
      -2.649
      -2.978
      -3.019
      -2.819
      -2.434
      -1.933
      -1.413
      -0.976
      -0.689
      -0.548
      -0.482
      -0.404
      -0.264
      -0.079
       0.107
       0.256
       0.353
       0.378
       0.310
       0.155
      -0.020
      -0.104
      -0.001
       0.302
       0.697
       1.007
       1.086
       0.918
       0.628
       0.395
       0.319
       0.347
       0.304
       0.016
      -0.551
      -1.242
      -1.801
      -2.035
      -1.928
      -1.592
      -1.111
      -0.441
       0.534
       1.821
       3.196
       4.279
       4.758
       4.569
       3.871
       2.881
       1.725
       0.441
      -0.908
      -2.170
      -3.141
      -3.678
      -3.780
      -3.570
      -3.189
      -2.701
      -2.092
      -1.356
      -0.561
       0.169
       0.744
       1.166
       1.517
       1.869
       2.200
       2.387
       2.285
       1.824
       1.041
       0.049
      -1.032
      -2.112
      -3.130
      -4.017
      -4.656
      -4.888
      -4.588
      -3.757
      -2.559
      -1.243
      -0.011
       1.060
       1.998
       2.849
       3.605
       4.205
       4.594
       4.764
       4.735
       4.512
       4.077
       3.436
       2.667
       1.905
       1.259
       0.730
       0.216
      -0.364
      -0.934
      -1.268
      -1.165
      -0.658
      -0.044
       0.313
       0.239
      -0.173
      -0.696
      -1.174
      -1.611
      -2.092
      -2.639
      -3.143
      -3.445
      -3.453
      -3.184
      -2.708
      -2.088
      -1.393
      -0.729
      -0.227
       0.031
       0.099
       0.161
       0.410
       0.903
       1.507
       2.011
       2.289
       2.366
       2.331
       2.223
       1.998
       1.624
       1.188
       0.899
       0.964
       1.413
       2.024
       2.444
       2.413
       1.910
       1.110
       0.222
      -0.637
      -1.447
      -2.193
      -2.805
      -3.196
      -3.362
      -3.421
      -3.518
      -3.690
      -3.846
      -3.860
      -3.706
      -3.474
      -3.290
      -3.208
      -3.177
      -3.095
      -2.904
      -2.622
      -2.285
      -1.857
      -1.204
      -0.187
       1.217
       2.858
       4.484
       5.879
       6.949
       7.705
       8.157
       8.259
       7.949
       7.242
       6.254
       5.148
       4.054
       3.053
       2.183
       1.442
       0.790
       0.166
      -0.486
      -1.187
      -1.896
      -2.503
      -2.886
      -2.998
      -2.930
      -2.864
      -2.958
      -3.240
      -3.603
      -3.875
      -3.917
      -3.671
      -3.152
      -2.422
      -1.591
      -0.825
      -0.325
      -0.238
      -0.577
      -1.196
      -1.857
      -2.357
      -2.634
      -2.785
      -2.966
      -3.265
      -3.631
      -3.907
      -3.925
      -3.579
      -2.861
      -1.843
      -0.640
       0.631
       1.880
       3.044
       4.066
       4.882
       5.423
       5.655
       5.633
       5.497
       5.389
       5.352
       5.317
       5.188
       4.932
       4.581
       4.163
       3.652
       2.987
       2.143
       1.184
       0.231
      -0.624
      -1.381
      -2.074
      -2.691
      -3.142
      -3.348
      -3.313
      -3.128
      -2.886
      -2.619
      -2.307
      -1.959
      -1.677
      -1.615
      -1.859
      -2.337
      -2.849
      -3.197
      -3.288
      -3.128
      -2.754
      -2.199
      -1.515
      -0.791
      -0.133
       0.413
       0.884
       1.343
       1.770
       2.030
       1.962
       1.510
       0.775
      -0.060
      -0.837
      -1.464
      -1.884
      -2.027
      -1.828
      -1.277
      -0.458
       0.495
       1.473
       2.421
       3.301
       4.039
       4.543
       4.782
       4.810
       4.698
       4.456
       4.030
       3.371
       2.505
       1.540
       0.616
      -0.175
      -0.829
      -1.415
      -1.998
      -2.579
      -3.089
      -3.430
      -3.510
      -3.282
      -2.765
      -2.076
      -1.417
      -1.019
      -1.025
      -1.400
      -1.930
      -2.359
      -2.553
      -2.565
      -2.551
      -2.612
      -2.707
      -2.693
      -2.456
      -2.000
      -1.440
      -0.893
      -0.380
       0.178
       0.872
       1.717
       2.625
       3.453
       4.075
       4.439
       4.563
       4.495
       4.258
       3.861
       3.322
       2.680
       1.976
       1.236
       0.501
      -0.144
      -0.583
      -0.732
      -0.612
      -0.361
      -0.155
      -0.103
      -0.184
      -0.291
      -0.342
      -0.352
      -0.417
      -0.635
      -1.014
      -1.445
      -1.753
      -1.784
      -1.470
      -0.839
      -0.008
       0.818
       1.400
       1.585
       1.411
       1.073
       0.762
       0.522
       0.258
      -0.132
      -0.662
      -1.276
      -1.933
      -2.654
      -3.463
      -4.291
      -4.960
      -5.281
      -5.187
      -4.752
      -4.118
      -3.383
      -2.580
      -1.734
      -0.908
      -0.188
       0.394
       0.906
       1.447
       2.052
       2.644
       3.114
       3.418
       3.603
       3.754
       3.918
       4.084
       4.200
       4.205
       4.061
       3.768
       3.366
       2.911
       2.469
       2.104
       1.854
       1.711
       1.631
       1.575
       1.519
       1.440
       1.297
       1.032
       0.605
       0.030
      -0.606
      -1.165
      -1.539
      -1.724
      -1.821
      -1.955
      -2.170
      -2.392
      -2.505
      -2.462
      -2.365
      -2.408
      -2.738
      -3.330
      -3.992
      -4.500
      -4.738
      -4.736
      -4.603
      -4.439
      -4.273
      -4.047
      -3.663
      -3.041
      -2.151
      -1.001
       0.362
       1.839
       3.283
       4.540
       5.510
       6.150
       6.448
       6.398
       6.011
       5.358
       4.578
       3.808
       3.118
       2.503
       1.959
       1.523
       1.230
       1.031
       0.789
       0.384
      -0.179
      -0.760
      -1.192
      -1.422
      -1.561
      -1.784
      -2.165
      -2.596
      -2.879
      -2.900
      -2.705
      -2.421
      -2.135
      -1.852
      -1.558
      -1.285
      -1.115
      -1.108
      -1.225
      -1.341
      -1.338
      -1.180
      -0.908
      -0.577
      -0.204
       0.210
       0.639
       1.023
       1.296
       1.448
       1.549
       1.704
       1.986
       2.391
       2.857
       3.298
       3.622
       3.735
       3.577
       3.157
       2.572
       1.961
       1.428
       0.985
       0.555
       0.037
      -0.608
      -1.299
      -1.864
      -2.152
      -2.127
      -1.894
      -1.629
      -1.474
      -1.461
      -1.517
      -1.527
      -1.410
      -1.147
      -0.792
      -0.463
      -0.292
      -0.364
      -0.681
      -1.167
      -1.691
      -2.091
      -2.210
      -1.979
      -1.473
      -0.896
      -0.464
      -0.286
      -0.322
      -0.437
      -0.514
      -0.520
      -0.490
      -0.440
      -0.321
      -0.075
       0.283
       0.642
       0.880
       0.974
       1.027
       1.180
       1.485
       1.865
       2.195
       2.422
       2.591
       2.752
       2.869
       2.834
       2.587
       2.201
       1.839
       1.613
       1.491
       1.330
       1.019
       0.587
       0.159
      -0.179
      -0.475
      -0.847
      -1.347
      -1.916
      -2.455
      -2.935
      -3.382
      -3.765
      -3.929
      -3.681
      -2.975
      -1.992
      -1.033
      -0.313
       0.144
       0.421
       0.556
       0.496
       0.187
      -0.304
      -0.781
      -1.047
      -1.048
      -0.894
      -0.732
      -0.612
      -0.466
      -0.222
       0.114
       0.474
       0.801
       1.082
       1.306
       1.437
       1.441
       1.330
       1.154
       0.960
       0.754
       0.527
       0.310
       0.193
       0.264
       0.528
       0.891
       1.235
       1.498
       1.682
       1.794
       1.797
       1.654
       1.401
