Origin Time       29/08/2013 10:13:21 UTC
Lat.              31.4 N	
Long.             76.1 E	
Depth (Km)         10.0
Magnitude         4.7
 Region           HIMACHAL-PUNJAB-(HOSHIARPUR)-BORDER                              
 Above details taken from IMD 
    
Station Code      RAM
Station Lat.       31.448  N
Station Long.      77.630  E
Station Height(m)  998.0
Site Class        A   Vs30 between 700 m/sec to 1400 m/sec * 
Record Time       29.08.2013 10:12:05.914 UTC
Sampling Rate     200. Hz
 Record Duration   84.055 Sec.
 Direction         N-S (N positive)
Max. Acceleration      4.785 cm/sec**2
     
  * For reference see Site Classification link of website 
     
 Base Line Corrected and Low Pass Filtered (Cut Off at 35 Hz) Time History
 Acceleration data in cm/sec**2
    
[...]
       0.532
       0.511
       0.465
       0.423
       0.406
       0.406
       0.398
       0.348
       0.241
       0.085
      -0.089
      -0.240
      -0.331
      -0.337
      -0.260
      -0.120
       0.052
       0.221
       0.354
       0.425
       0.422
       0.357
       0.260
       0.162
       0.074
      -0.009
      -0.097
      -0.190
      -0.273
      -0.335
      -0.380
      -0.427
      -0.486
      -0.546
      -0.584
      -0.584
      -0.549
      -0.493
      -0.424
      -0.335
      -0.208
      -0.034
       0.171
       0.359
       0.474
       0.477
       0.374
       0.212
       0.052
      -0.060
      -0.121
      -0.155
      -0.186
      -0.218
      -0.230
      -0.201
      -0.125
      -0.020
       0.089
       0.178
       0.244
       0.300
       0.356
       0.411
       0.450
       0.459
       0.434
       0.385
       0.327
       0.276
       0.242
       0.235
       0.253
       0.282
       0.291
       0.244
       0.128
      -0.042
      -0.226
      -0.384
      -0.489
      -0.533
      -0.518
      -0.454
      -0.359
      -0.256
      -0.171
      -0.128
      -0.133
      -0.172
      -0.220
      -0.263
      -0.297
      -0.318
      -0.312
      -0.261
      -0.163
      -0.045
       0.053
       0.106
       0.116
       0.107
       0.107
       0.135
       0.194
       0.273
       0.352
       0.405
       0.422
       0.405
       0.358
       0.278
       0.155
      -0.009
      -0.183
      -0.318
      -0.375
      -0.346
      -0.256
      -0.146
      -0.048
       0.019
       0.060
       0.087
       0.110
       0.131
       0.141
       0.134
       0.108
       0.074
       0.054
       0.068
       0.118
       0.184
       0.225
       0.211
       0.136
       0.020
      -0.108
      -0.230
      -0.333
      -0.402
      -0.410
      -0.334
      -0.171
       0.046
       0.257
       0.400
       0.441
       0.388
       0.289
       0.197
       0.135
       0.090
       0.026
      -0.082
      -0.226
      -0.379
      -0.512
      -0.607
      -0.655
      -0.651
      -0.599
      -0.520
      -0.438
      -0.365
      -0.288
      -0.181
      -0.026
       0.162
       0.343
       0.476
       0.545
       0.567
       0.572
       0.588
       0.618
       0.642
       0.627
       0.553
       0.423
       0.261
       0.091
      -0.080
      -0.252
      -0.412
      -0.527
      -0.561
      -0.507
      -0.395
      -0.273
      -0.175
      -0.093
       0.004
       0.142
       0.314
       0.491
       0.641
       0.747
       0.800
       0.793
       0.715
       0.559
       0.334
       0.071
      -0.189
      -0.409
      -0.574
      -0.691
      -0.776
      -0.838
      -0.868
      -0.843
      -0.747
      -0.582
      -0.373
      -0.155
       0.043
       0.201
       0.308
       0.364
       0.372
       0.339
       0.270
       0.169
       0.042
      -0.093
      -0.212
      -0.285
      -0.297
      -0.261
      -0.216
      -0.208
      -0.249
      -0.311
      -0.346
      -0.327
      -0.267
      -0.197
      -0.122
      -0.013
       0.154
       0.358
       0.539
       0.636
       0.630
       0.546
       0.426
       0.304
       0.201
       0.128
       0.083
       0.048
      -0.006
      -0.102
      -0.237
      -0.380
      -0.488
      -0.532
      -0.506
      -0.430
      -0.328
      -0.225
      -0.134
      -0.060
      -0.004
       0.037
       0.069
       0.102
       0.148
       0.218
       0.314
       0.426
       0.535
       0.619
       0.658
       0.642
       0.568
       0.445
       0.292
       0.142
       0.025
      -0.038
      -0.052
      -0.042
      -0.044
      -0.081
      -0.161
      -0.268
      -0.371
      -0.438
      -0.439
      -0.358
      -0.205
      -0.018
       0.149
       0.251
       0.275
       0.237
       0.159
       0.057
      -0.067
      -0.207
      -0.348
      -0.470
      -0.555
      -0.594
      -0.583
      -0.525
      -0.427
      -0.305
      -0.173
      -0.040
       0.090
       0.211
       0.307
       0.363
       0.370
       0.335
       0.279
       0.229
       0.208
       0.218
       0.236
       0.222
       0.140
      -0.014
      -0.209
      -0.385
      -0.489
      -0.495
      -0.407
      -0.247
      -0.048
       0.153
       0.306
       0.368
       0.333
       0.240
       0.155
       0.123
       0.132
       0.123
       0.043
      -0.110
      -0.282
      -0.395
      -0.405
      -0.321
      -0.183
      -0.040
       0.074
       0.134
       0.130
       0.064
      -0.029
      -0.092
      -0.075
       0.039
       0.230
       0.453
       0.667
       0.843
       0.957
       0.985
       0.915
       0.754
       0.529
       0.275
       0.013
      -0.252
      -0.515
      -0.746
      -0.887
      -0.883
      -0.720
      -0.447
      -0.148
       0.102
       0.273
       0.376
       0.429
       0.428
       0.351
       0.182
      -0.052
      -0.297
      -0.494
      -0.612
      -0.645
      -0.605
      -0.507
      -0.369
      -0.216
      -0.069
       0.061
       0.169
       0.253
       0.303
       0.304
       0.251
       0.156
       0.047
      -0.050
      -0.122
      -0.169
      -0.198
      -0.213
      -0.210
      -0.175
      -0.095
       0.020
       0.132
       0.197
       0.193
       0.136
       0.061
      -0.003
      -0.041
      -0.052
      -0.033
       0.014
       0.076
       0.123
       0.121
       0.050
      -0.085
      -0.255
      -0.422
      -0.560
      -0.665
      -0.743
      -0.801
      -0.823
      -0.775
      -0.626
      -0.368
      -0.021
       0.375
       0.773
       1.125
       1.388
       1.536
       1.568
       1.506
       1.388
       1.248
       1.095
       0.917
       0.691
       0.413
       0.110
      -0.173
      -0.399
      -0.560
      -0.679
      -0.780
      -0.867
      -0.922
      -0.918
      -0.842
      -0.703
      -0.515
      -0.293
      -0.051
       0.181
       0.356
       0.425
       0.363
       0.184
      -0.067
      -0.338
      -0.601
      -0.851
      -1.088
      -1.298
      -1.448
      -1.510
      -1.475
      -1.355
      -1.163
      -0.902
      -0.570
      -0.171
       0.277
       0.741
       1.179
       1.550
       1.826
       1.993
       2.055
       2.024
       1.905
       1.698
       1.408
       1.059
       0.695
       0.365
       0.096
      -0.105
      -0.238
      -0.299
      -0.280
      -0.190
      -0.069
       0.026
       0.043
      -0.033
      -0.190
      -0.404
      -0.650
      -0.909
      -1.155
      -1.358
      -1.490
      -1.536
      -1.501
      -1.417
      -1.321
      -1.226
      -1.101
      -0.886
      -0.548
      -0.118
       0.320
       0.676
       0.907
       1.017
       1.033
       0.972
       0.840
       0.651
       0.442
       0.268
       0.171
       0.153
       0.166
       0.153
       0.080
      -0.039
      -0.161
      -0.248
      -0.292
      -0.312
      -0.319
      -0.292
      -0.191
       0.019
       0.344
       0.751
       1.188
       1.592
       1.910
       2.099
       2.133
       1.997
       1.687
       1.222
       0.659
       0.088
      -0.406
      -0.790
      -1.099
      -1.391
      -1.696
      -1.982
      -2.179
      -2.233
      -2.142
      -1.945
      -1.682
      -1.363
      -0.979
      -0.541
      -0.097
       0.278
       0.529
       0.649
       0.685
       0.692
       0.691
       0.654
       0.531
       0.294
      -0.042
      -0.422
      -0.773
      -1.037
      -1.170
      -1.145
      -0.940
      -0.541
       0.040
       0.753
       1.506
       2.194
       2.736
       3.089
       3.243
       3.196
       2.932
       2.437
       1.725
       0.859
      -0.056
      -0.911
      -1.625
      -2.160
      -2.515
      -2.707
      -2.762
      -2.712
      -2.586
      -2.392
      -2.121
      -1.760
      -1.315
      -0.819
      -0.314
       0.177
       0.654
       1.123
       1.568
       1.947
       2.214
       2.346
       2.346
       2.230
       1.999
       1.645
       1.173
       0.614
       0.036
      -0.490
      -0.906
      -1.181
      -1.311
      -1.306
      -1.184
      -0.967
      -0.693
      -0.417
      -0.193
      -0.058
      -0.011
      -0.024
      -0.064
      -0.106
      -0.143
      -0.175
      -0.209
      -0.252
      -0.301
      -0.346
      -0.372
      -0.374
      -0.360
      -0.337
      -0.298
      -0.217
      -0.065
       0.172
       0.483
       0.829
       1.154
       1.413
       1.586
       1.684
       1.729
       1.721
       1.625
       1.394
       1.009
       0.494
      -0.109
      -0.779
      -1.522
      -2.337
      -3.176
      -3.940
      -4.509
      -4.774
      -4.660
      -4.135
      -3.222
      -2.008
      -0.640
       0.708
       1.894
       2.839
       3.537
       4.022
       4.324
       4.457
       4.416
       4.191
       3.779
       3.186
       2.445
       1.607
       0.743
      -0.079
      -0.796
      -1.363
      -1.762
      -2.003
      -2.122
      -2.154
      -2.115
      -1.997
      -1.790
      -1.508
      -1.197
      -0.913
      -0.709
      -0.620
      -0.664
      -0.836
      -1.098
      -1.375
      -1.581
      -1.654
      -1.587
      -1.419
      -1.213
      -1.017
      -0.846
      -0.682
      -0.480
      -0.189
       0.232
       0.795
       1.461
       2.157
       2.797
       3.320
       3.697
       3.926
       4.009
       3.944
       3.729
       3.361
       2.843
       2.175
       1.368
       0.452
      -0.516
      -1.456
      -2.281
      -2.913
      -3.301
      -3.425
      -3.303
      -2.989
      -2.573
      -2.152
      -1.793
      -1.508
      -1.266
      -1.033
      -0.798
      -0.569
      -0.354
      -0.160
      -0.006
       0.072
       0.035
      -0.120
      -0.348
      -0.574
      -0.729
      -0.775
      -0.710
      -0.554
      -0.331
      -0.061
       0.238
       0.546
       0.837
       1.082
       1.266
       1.388
       1.461
       1.500
       1.510
       1.485
       1.411
       1.280
       1.095
       0.867
       0.619
       0.383
       0.196
       0.085
       0.068
       0.144
       0.298
       0.491
       0.665
       0.768
       0.788
       0.752
       0.712
       0.700
       0.718
       0.747
       0.766
       0.767
       0.746
       0.685
       0.548
       0.278
      -0.176
      -0.822
      -1.605
      -2.412
      -3.109
      -3.599
      -3.844
      -3.862
      -3.691
      -3.366
      -2.904
      -2.330
      -1.691
      -1.052
      -0.461
       0.074
       0.602
       1.187
       1.868
       2.620
       3.356
       3.970
       4.373
       4.517
       4.404
       4.077
       3.612
       3.098
       2.611
       2.180
       1.779
       1.347
       0.833
       0.233
      -0.395
      -0.963
      -1.395
      -1.656
      -1.755
      -1.718
      -1.583
      -1.395
      -1.215
      -1.112
      -1.147
      -1.349
      -1.701
      -2.142
      -2.586
      -2.949
      -3.180
      -3.269
      -3.249
      -3.165
      -3.058
      -2.945
      -2.813
      -2.628
      -2.341
      -1.918
      -1.357
      -0.697
       0.003
       0.686
       1.325
       1.921
       2.486
       3.012
       3.468
       3.799
       3.957
       3.908
       3.651
       3.217
       2.661
       2.054
       1.461
       0.924
       0.457
       0.062
      -0.266
      -0.523
      -0.713
      -0.846
      -0.932
      -0.969
      -0.924
      -0.757
      -0.452
      -0.041
       0.404
       0.804
       1.090
       1.209
       1.122
       0.822
       0.349
      -0.209
      -0.749
      -1.190
      -1.500
      -1.690
      -1.782
      -1.787
      -1.698
      -1.514
      -1.264
      -1.009
      -0.813
      -0.704
      -0.659
      -0.630
      -0.576
      -0.485
      -0.371
      -0.249
      -0.124
       0.013
       0.188
       0.428
       0.751
       1.151
       1.602
       2.063
       2.484
       2.821
       3.030
       3.084
       2.973
       2.714
       2.331
       1.850
       1.289
       0.670
       0.029
      -0.578
      -1.090
      -1.466
      -1.705
      -1.844
      -1.929
      -1.993
      -2.037
      -2.047
      -2.017
      -1.963
      -1.914
      -1.894
      -1.901
      -1.910
      -1.892
      -1.832
      -1.727
      -1.581
      -1.386
      -1.134
      -0.835
      -0.529
      -0.269
      -0.089
       0.016
       0.092
       0.192
       0.349
       0.568
       0.832
       1.119
       1.426
       1.754
       2.098
       2.427
       2.688
       2.833
       2.850
       2.771
       2.656
       2.554
       2.480
       2.403
       2.270
       2.035
       1.685
       1.252
       0.793
       0.360
      -0.009
      -0.286
      -0.448
      -0.493
      -0.474
      -0.505
      -0.723
      -1.203
      -1.903
      -2.673
      -3.333
      -3.758
      -3.918
      -3.850
      -3.613
      -3.272
      -2.905
      -2.604
      -2.448
      -2.455
      -2.557
      -2.636
      -2.577
      -2.323
      -1.889
      -1.338
      -0.749
      -0.184
       0.334
       0.827
       1.351
       1.956
       2.648
       3.374
       4.040
       4.541
       4.785
       4.729
       4.400
       3.898
       3.358
       2.894
       2.560
       2.361
       2.268
       2.247
       2.258
       2.251
       2.170
       1.964
       1.610
       1.111
       0.498
      -0.185
      -0.899
      -1.608
      -2.277
      -2.861
      -3.308
      -3.569
      -3.617
      -3.464
      -3.169
      -2.820
      -2.510
      -2.307
      -2.218
      -2.191
      -2.149
      -2.039
      -1.866
      -1.672
      -1.482
      -1.278
      -1.004
      -0.619
      -0.128
       0.421
       0.967
       1.457
       1.836
       2.039
       1.988
       1.634
       1.008
       0.236
      -0.510
      -1.078
      -1.387
      -1.422
      -1.205
      -0.775
      -0.190
       0.474
       1.144
       1.765
       2.305
       2.746
       3.073
       3.267
       3.314
       3.206
       2.938
       2.497
       1.874
       1.081
       0.171
      -0.764
      -1.614
      -2.287
      -2.729
      -2.920
      -2.855
      -2.538
      -1.993
      -1.289
      -0.533
       0.151
       0.672
       0.989
       1.109
       1.071
       0.928
       0.744
       0.576
       0.458
       0.386
       0.326
       0.234
       0.083
      -0.125
      -0.379
      -0.668
      -0.993
      -1.365
      -1.795
      -2.274
      -2.759
      -3.162
      -3.372
      -3.288
      -2.869
      -2.138
      -1.172
      -0.073
       1.051
       2.080
       2.883
       3.337
       3.369
       2.999
       2.344
       1.582
       0.890
       0.401
       0.165
       0.153
       0.284
       0.473
       0.673
       0.880
       1.098
       1.303
       1.446
       1.476
       1.373
       1.154
       0.857
       0.524
       0.187
      -0.121
      -0.370
      -0.546
      -0.667
      -0.785
      -0.961
      -1.230
      -1.572
      -1.917
      -2.172
      -2.255
      -2.123
      -1.792
      -1.323
      -0.806
      -0.321
       0.086
       0.400
       0.630
       0.784
       0.861
       0.860
       0.788
       0.662
       0.493
       0.282
       0.021
      -0.284
      -0.601
      -0.864
      -0.986
      -0.894
      -0.566
      -0.056
       0.529
       1.072
       1.487
       1.724
       1.769
       1.626
       1.321
       0.901
       0.431
      -0.016
      -0.381
      -0.628
      -0.752
      -0.776
      -0.747
      -0.719
      -0.730
      -0.787
      -0.875
      -0.972
      -1.061
      -1.129
      -1.159
      -1.139
      -1.067
      -0.945
      -0.762
      -0.501
      -0.163
       0.217
       0.572
       0.827
       0.936
       0.882
       0.679
       0.358
      -0.031
      -0.424
      -0.750
      -0.936
      -0.929
      -0.707
      -0.296
       0.234
       0.790
       1.287
       1.670
       1.918
       2.034
       2.048
       2.005
       1.954
       1.911
       1.844
       1.695
       1.428
       1.054
       0.623
       0.188
      -0.225
      -0.612
      -0.969
      -1.275
      -1.490
      -1.582
      -1.548
      -1.411
      -1.211
      -0.982
      -0.738
      -0.478
      -0.201
       0.086
       0.358
       0.580
       0.726
       0.790
       0.777
       0.686
       0.509
       0.247
      -0.069
      -0.379
      -0.632
      -0.809
      -0.934
      -1.049
      -1.181
      -1.327
      -1.455
      -1.524
      -1.505
      -1.390
      -1.194
      -0.931
      -0.608
      -0.221
       0.230
       0.726
       1.225
       1.668
       1.999
       2.164
       2.110
       1.797
       1.216
       0.416
      -0.498
      -1.385
      -2.112
      -2.577
      -2.721
      -2.521
      -1.995
      -1.209
      -0.277
       0.652
       1.434
       1.954
       2.157
       2.051
       1.712
       1.259
       0.822
       0.501
       0.337
       0.312
       0.377
       0.474
       0.567
       0.638
       0.682
       0.687
       0.635
       0.506
       0.281
      -0.039
      -0.433
      -0.856
      -1.246
      -1.536
      -1.671
      -1.627
      -1.429
      -1.150
      -0.884
      -0.713
      -0.665
      -0.712
      -0.793
      -0.849
      -0.843
      -0.763
      -0.622
      -0.443
      -0.254
      -0.069
       0.118
       0.316
       0.530
       0.753
       0.975
       1.181
       1.343
       1.427
       1.417
       1.340
       1.263
       1.252
       1.331
       1.466
       1.582
       1.593
       1.429
       1.062
       0.516
      -0.129
      -0.764
      -1.286
      -1.635
      -1.802
      -1.817
      -1.723
      -1.565
      -1.381
      -1.205
      -1.043
      -0.875
      -0.664
      -0.388
      -0.069
       0.226
       0.410
       0.435
       0.322
       0.148
       0.001
      -0.071
      -0.068
      -0.012
       0.091
       0.246
       0.439
       0.616
       0.709
       0.679
       0.544
       0.364
       0.198
       0.092
       0.065
       0.124
       0.259
       0.444
       0.635
       0.777
       0.827
       0.774
       0.644
       0.485
       0.341
       0.233
       0.166
       0.140
       0.162
       0.237
       0.365
       0.527
       0.688
       0.798
       0.800
       0.651
       0.334
      -0.127
      -0.678
      -1.263
      -1.835
      -2.356
      -2.786
      -3.074
      -3.172
      -3.042
      -2.685
      -2.140
      -1.482
      -0.804
      -0.190
       0.307
       0.672
       0.920
       1.087
       1.209
       1.314
       1.414
       1.507
       1.586
       1.646
       1.673
       1.648
       1.554
       1.397
       1.211
       1.037
       0.895
       0.774
       0.645
       0.492
       0.332
       0.211
       0.176
       0.243
       0.380
       0.533
       0.657
       0.726
       0.714
