Origin Time       29/08/2013 10:13:21
Lat.              31.4 N	
Long.             76.1 E	
Depth (Km)         10.0
Magnitude         4.7
 Region           HIMACHAL-PUNJAB-(HOSHIARPUR)-BORDER                              
 Above details taken from IMD 
     
Station Code      RAM
Station Lat.       31.448  N
Station Long.      77.630  E
Station Height(m)  998.0
Site Class        A   Vs30 between 700 m/sec to 1400 m/sec * 
Record Time       29.08.2013 10:12:05.914
Sampling Rate     200. Hz
 Record Duration   84.055 Sec.
 Direction         E-W (E positive)
Max. Acceleration      3.886 cm/sec**2
     
  * For reference see Site Classification link of website 
     
 Base Line Corrected and Low Pass Filtered (Cut Off at 35 Hz) Time History
 Acceleration data in cm/sec**2
    
[...]
       0.000
       0.025
       0.029
      -0.006
      -0.080
      -0.171
      -0.251
      -0.303
      -0.327
      -0.336
      -0.340
      -0.346
      -0.346
      -0.332
      -0.298
      -0.244
      -0.170
      -0.075
       0.036
       0.145
       0.230
       0.278
       0.293
       0.295
       0.306
       0.336
       0.379
       0.419
       0.438
       0.425
       0.377
       0.299
       0.203
       0.097
      -0.025
      -0.175
      -0.360
      -0.559
      -0.725
      -0.801
      -0.758
      -0.604
      -0.383
      -0.144
       0.080
       0.272
       0.419
       0.497
       0.494
       0.421
       0.325
       0.263
       0.271
       0.346
       0.459
       0.573
       0.663
       0.706
       0.681
       0.569
       0.377
       0.141
      -0.087
      -0.260
      -0.360
      -0.396
      -0.386
      -0.349
      -0.296
      -0.238
      -0.185
      -0.145
      -0.117
      -0.104
      -0.115
      -0.161
      -0.242
      -0.338
      -0.420
      -0.462
      -0.452
      -0.397
      -0.315
      -0.230
      -0.164
      -0.135
      -0.148
      -0.186
      -0.215
      -0.209
      -0.158
      -0.078
       0.008
       0.089
       0.169
       0.255
       0.338
       0.396
       0.421
       0.421
       0.417
       0.420
       0.421
       0.404
       0.360
       0.296
       0.219
       0.130
       0.029
      -0.083
      -0.193
      -0.287
      -0.354
      -0.395
      -0.413
      -0.403
      -0.345
      -0.219
      -0.030
       0.180
       0.345
       0.412
       0.373
       0.260
       0.131
       0.032
      -0.012
      -0.001
       0.048
       0.109
       0.156
       0.172
       0.161
       0.138
       0.111
       0.078
       0.030
      -0.038
      -0.122
      -0.212
      -0.289
      -0.332
      -0.323
      -0.266
      -0.185
      -0.114
      -0.078
      -0.072
      -0.073
      -0.055
      -0.015
       0.030
       0.059
       0.059
       0.027
      -0.028
      -0.095
      -0.162
      -0.215
      -0.238
      -0.209
      -0.112
       0.057
       0.271
       0.479
       0.621
       0.653
       0.566
       0.394
       0.194
       0.031
      -0.050
      -0.050
      -0.005
       0.038
       0.046
       0.016
      -0.037
      -0.093
      -0.135
      -0.154
      -0.145
      -0.123
      -0.120
      -0.167
      -0.265
      -0.370
      -0.417
      -0.363
      -0.214
      -0.021
       0.155
       0.275
       0.332
       0.345
       0.334
       0.314
       0.285
       0.240
       0.175
       0.092
      -0.001
      -0.103
      -0.218
      -0.339
      -0.439
      -0.485
      -0.464
      -0.395
      -0.313
      -0.230
      -0.124
       0.027
       0.205
       0.350
       0.406
       0.369
       0.273
       0.146
      -0.016
      -0.214
      -0.411
      -0.545
      -0.570
      -0.496
      -0.371
      -0.237
      -0.105
       0.036
       0.192
       0.351
       0.504
       0.640
       0.753
       0.826
       0.842
       0.796
       0.706
       0.597
       0.489
       0.390
       0.295
       0.194
       0.075
      -0.063
      -0.201
      -0.308
      -0.361
      -0.364
      -0.346
      -0.344
      -0.377
      -0.443
      -0.525
      -0.599
      -0.641
      -0.631
      -0.557
      -0.425
      -0.256
      -0.085
       0.053
       0.129
       0.133
       0.078
      -0.009
      -0.099
      -0.176
      -0.232
      -0.265
      -0.265
      -0.218
      -0.114
       0.045
       0.236
       0.418
       0.547
       0.588
       0.546
       0.459
       0.389
       0.379
       0.437
       0.530
       0.616
       0.665
       0.668
       0.629
       0.552
       0.441
       0.303
       0.146
      -0.026
      -0.212
      -0.404
      -0.575
      -0.685
      -0.700
      -0.621
      -0.489
      -0.360
      -0.272
      -0.223
      -0.176
      -0.102
      -0.003
       0.083
       0.117
       0.087
       0.019
      -0.049
      -0.101
      -0.151
      -0.226
      -0.336
      -0.455
      -0.531
      -0.520
      -0.412
      -0.236
      -0.046
       0.116
       0.236
       0.323
       0.397
       0.465
       0.516
       0.521
       0.463
       0.354
       0.240
       0.175
       0.187
       0.256
       0.323
       0.326
       0.239
       0.087
      -0.085
      -0.239
      -0.361
      -0.453
      -0.515
      -0.544
      -0.528
      -0.461
      -0.343
      -0.184
       0.003
       0.202
       0.395
       0.561
       0.678
       0.727
       0.703
       0.612
       0.470
       0.291
       0.079
      -0.165
      -0.420
      -0.642
      -0.774
      -0.791
      -0.716
      -0.612
      -0.540
      -0.518
      -0.521
      -0.513
      -0.477
      -0.425
      -0.371
      -0.316
      -0.235
      -0.104
       0.087
       0.316
       0.546
       0.740
       0.877
       0.949
       0.944
       0.846
       0.647
       0.360
       0.027
      -0.297
      -0.556
      -0.709
      -0.733
      -0.629
      -0.424
      -0.168
       0.090
       0.322
       0.524
       0.716
       0.907
       1.081
       1.199
       1.222
       1.140
       0.982
       0.796
       0.617
       0.453
       0.290
       0.122
      -0.042
      -0.190
      -0.325
      -0.459
      -0.605
      -0.760
      -0.914
      -1.057
      -1.182
      -1.285
      -1.351
      -1.361
      -1.308
      -1.197
      -1.048
      -0.876
      -0.679
      -0.445
      -0.165
       0.158
       0.498
       0.804
       1.008
       1.041
       0.874
       0.546
       0.162
      -0.152
      -0.310
      -0.293
      -0.139
       0.095
       0.361
       0.629
       0.874
       1.071
       1.197
       1.239
       1.199
       1.088
       0.923
       0.717
       0.488
       0.259
       0.055
      -0.109
      -0.227
      -0.299
      -0.324
      -0.307
      -0.258
      -0.200
      -0.161
      -0.165
      -0.234
      -0.379
      -0.601
      -0.885
      -1.190
      -1.456
      -1.618
      -1.619
      -1.431
      -1.060
      -0.562
      -0.023
       0.458
       0.806
       0.992
       1.026
       0.934
       0.738
       0.456
       0.116
      -0.229
      -0.513
      -0.681
      -0.714
      -0.637
      -0.496
      -0.331
      -0.160
       0.016
       0.196
       0.375
       0.547
       0.715
       0.887
       1.065
       1.238
       1.384
       1.478
       1.501
       1.449
       1.336
       1.184
       1.016
       0.838
       0.645
       0.424
       0.171
      -0.104
      -0.382
      -0.655
      -0.934
      -1.239
      -1.571
      -1.892
      -2.128
      -2.212
      -2.116
      -1.866
      -1.522
      -1.158
      -0.839
      -0.611
      -0.490
      -0.460
      -0.479
      -0.499
      -0.479
      -0.390
      -0.221
       0.018
       0.297
       0.568
       0.791
       0.950
       1.054
       1.124
       1.184
       1.257
       1.371
       1.541
       1.758
       1.976
       2.130
       2.160
       2.041
       1.777
       1.391
       0.904
       0.341
      -0.254
      -0.814
      -1.262
      -1.544
      -1.657
      -1.643
      -1.569
      -1.491
      -1.425
      -1.356
      -1.249
      -1.068
      -0.779
      -0.374
       0.115
       0.605
       0.997
       1.212
       1.228
       1.074
       0.807
       0.485
       0.150
      -0.175
      -0.484
      -0.777
      -1.045
      -1.265
      -1.414
      -1.481
      -1.473
      -1.402
      -1.266
      -1.053
      -0.759
      -0.404
      -0.025
       0.340
       0.672
       0.957
       1.186
       1.336
       1.384
       1.317
       1.160
       0.963
       0.786
       0.663
       0.582
       0.503
       0.387
       0.228
       0.052
      -0.101
      -0.200
      -0.222
      -0.156
      -0.007
       0.195
       0.408
       0.602
       0.774
       0.937
       1.096
       1.224
       1.278
       1.230
       1.085
       0.870
       0.603
       0.269
      -0.169
      -0.740
      -1.426
      -2.151
      -2.813
      -3.320
      -3.627
      -3.728
      -3.627
      -3.329
      -2.842
      -2.198
      -1.468
      -0.732
      -0.055
       0.530
       1.015
       1.411
       1.734
       2.000
       2.215
       2.374
       2.463
       2.471
       2.390
       2.227
       2.006
       1.748
       1.467
       1.159
       0.832
       0.516
       0.251
       0.067
      -0.031
      -0.045
       0.032
       0.200
       0.419
       0.606
       0.662
       0.530
       0.219
      -0.206
      -0.675
      -1.128
      -1.523
      -1.824
      -1.998
      -2.036
      -1.963
      -1.833
      -1.699
      -1.578
      -1.450
      -1.281
      -1.051
      -0.768
      -0.456
      -0.140
       0.165
       0.452
       0.711
       0.929
       1.089
       1.185
       1.234
       1.269
       1.316
       1.373
       1.400
       1.336
       1.133
       0.781
       0.304
      -0.238
      -0.764
      -1.189
      -1.438
      -1.476
      -1.313
      -1.002
      -0.622
      -0.250
       0.062
       0.297
       0.460
       0.564
       0.620
       0.640
       0.638
       0.632
       0.627
       0.614
       0.577
       0.507
       0.414
       0.308
       0.196
       0.072
      -0.061
      -0.186
      -0.272
      -0.300
      -0.276
      -0.225
      -0.172
      -0.130
      -0.099
      -0.074
      -0.055
      -0.051
      -0.086
      -0.177
      -0.319
      -0.497
      -0.699
      -0.932
      -1.200
      -1.468
      -1.651
      -1.646
      -1.380
      -0.856
      -0.154
       0.596
       1.258
       1.734
       1.989
       2.047
       1.964
       1.791
       1.565
       1.307
       1.039
       0.791
       0.586
       0.433
       0.325
       0.256
       0.220
       0.211
       0.201
       0.142
      -0.005
      -0.244
      -0.540
      -0.849
      -1.153
      -1.458
      -1.769
      -2.064
      -2.291
      -2.395
      -2.333
      -2.087
      -1.671
      -1.143
      -0.598
      -0.139
       0.160
       0.283
       0.264
       0.161
       0.030
      -0.077
      -0.108
      -0.015
       0.228
       0.604
       1.058
       1.522
       1.938
       2.264
       2.466
       2.508
       2.361
       2.025
       1.539
       0.979
       0.425
      -0.063
      -0.463
      -0.782
      -1.041
      -1.253
      -1.417
      -1.521
      -1.552
      -1.499
      -1.367
      -1.176
      -0.958
      -0.761
      -0.635
      -0.613
      -0.691
      -0.817
      -0.898
      -0.837
      -0.577
      -0.124
       0.463
       1.103
       1.729
       2.282
       2.702
       2.931
       2.939
       2.749
       2.429
       2.051
       1.655
       1.228
       0.737
       0.167
      -0.459
      -1.072
      -1.586
      -1.926
      -2.051
      -1.964
      -1.701
      -1.318
      -0.884
      -0.471
      -0.140
       0.079
       0.199
       0.255
       0.276
       0.264
       0.201
       0.070
      -0.119
      -0.325
      -0.495
      -0.584
      -0.575
      -0.484
      -0.352
      -0.239
      -0.200
      -0.267
      -0.426
      -0.623
      -0.778
      -0.820
      -0.708
      -0.444
      -0.071
       0.327
       0.644
       0.779
       0.686
       0.404
       0.047
      -0.259
      -0.427
      -0.435
      -0.290
      -0.017
       0.345
       0.729
       1.053
       1.255
       1.317
       1.263
       1.128
       0.941
       0.725
       0.504
       0.307
       0.157
       0.071
       0.043
       0.046
       0.027
      -0.072
      -0.275
      -0.544
      -0.786
      -0.893
      -0.809
      -0.557
      -0.240
       0.004
       0.052
      -0.159
      -0.612
      -1.217
      -1.845
      -2.375
      -2.709
      -2.784
      -2.564
      -2.052
      -1.299
      -0.402
       0.514
       1.327
       1.945
       2.317
       2.429
       2.296
       1.948
       1.434
       0.829
       0.228
      -0.274
      -0.609
      -0.759
      -0.744
      -0.598
      -0.350
      -0.019
       0.375
       0.798
       1.205
       1.551
       1.810
       1.971
       2.023
       1.942
       1.703
       1.311
       0.822
       0.329
      -0.085
      -0.386
      -0.610
      -0.822
      -1.080
      -1.396
      -1.738
      -2.044
      -2.240
      -2.247
      -2.005
      -1.492
      -0.756
       0.084
       0.874
       1.469
       1.789
       1.832
       1.651
       1.327
       0.925
       0.489
       0.045
      -0.387
      -0.785
      -1.144
      -1.476
      -1.810
      -2.150
      -2.450
      -2.620
      -2.567
      -2.255
      -1.720
      -1.047
      -0.332
       0.342
       0.915
       1.355
       1.658
       1.852
       1.979
       2.077
       2.165
       2.237
       2.270
       2.240
       2.128
       1.927
       1.640
       1.286
       0.895
       0.501
       0.130
      -0.205
      -0.496
      -0.738
      -0.930
      -1.081
      -1.200
      -1.291
      -1.334
      -1.299
      -1.160
      -0.929
      -0.663
      -0.465
      -0.444
      -0.671
      -1.131
      -1.711
      -2.240
      -2.550
      -2.538
      -2.178
      -1.517
      -0.641
       0.349
       1.361
       2.306
       3.097
       3.647
       3.886
       3.794
       3.416
       2.842
       2.164
       1.442
       0.709
       0.001
      -0.636
      -1.168
      -1.601
      -1.965
      -2.268
      -2.463
      -2.481
      -2.297
      -1.979
      -1.658
      -1.448
      -1.376
      -1.375
      -1.322
      -1.108
      -0.686
      -0.075
       0.640
       1.335
       1.877
       2.165
       2.164
       1.910
       1.485
       0.990
       0.512
       0.110
      -0.194
      -0.403
      -0.527
      -0.570
      -0.529
      -0.415
      -0.256
      -0.092
       0.041
       0.133
       0.197
       0.257
       0.342
       0.474
       0.651
       0.840
       0.983
       1.017
       0.908
       0.660
       0.312
      -0.078
      -0.458
      -0.781
      -1.014
      -1.137
      -1.143
      -1.044
      -0.869
      -0.653
      -0.430
      -0.230
      -0.077
       0.013
       0.042
       0.035
       0.039
       0.096
       0.217
       0.380
       0.547
       0.688
       0.798
       0.891
       0.979
       1.060
       1.101
       1.059
       0.890
       0.578
       0.152
      -0.316
      -0.729
      -1.002
      -1.096
      -1.025
      -0.848
      -0.640
      -0.464
      -0.355
      -0.317
      -0.343
      -0.422
      -0.542
      -0.679
      -0.800
      -0.869
      -0.874
      -0.814
      -0.686
      -0.467
      -0.134
       0.293
       0.733
       1.064
       1.176
       1.023
       0.640
       0.125
      -0.396
      -0.806
      -1.017
      -0.986
      -0.717
      -0.256
       0.316
       0.908
       1.440
       1.852
       2.102
       2.163
       2.018
       1.675
       1.176
       0.597
       0.029
      -0.442
      -0.750
      -0.857
      -0.757
      -0.475
      -0.054
       0.441
       0.932
       1.319
       1.506
       1.428
       1.082
       0.531
      -0.125
      -0.780
      -1.344
      -1.755
      -1.988
      -2.050
      -1.974
      -1.800
      -1.566
      -1.305
      -1.054
      -0.854
      -0.738
      -0.708
      -0.728
      -0.746
      -0.733
      -0.700
      -0.669
      -0.632
      -0.538
      -0.317
       0.054
       0.533
       1.033
       1.479
       1.847
       2.150
       2.397
       2.558
       2.567
       2.361
       1.929
       1.326
       0.642
      -0.023
      -0.585
      -0.974
      -1.157
      -1.146
      -1.002
      -0.810
      -0.645
      -0.547
      -0.523
      -0.554
      -0.611
      -0.670
      -0.709
      -0.710
      -0.646
      -0.492
      -0.235
       0.100
       0.464
       0.800
       1.072
       1.259
       1.344
       1.315
       1.172
       0.947
       0.693
       0.463
       0.283
       0.146
       0.018
      -0.130
      -0.308
      -0.491
      -0.640
      -0.732
      -0.774
      -0.796
      -0.829
      -0.876
      -0.924
      -0.949
      -0.944
      -0.915
      -0.873
      -0.825
      -0.766
      -0.682
      -0.560
      -0.402
      -0.235
      -0.098
      -0.021
      -0.004
      -0.021
      -0.031
      -0.007
       0.063
       0.178
       0.333
       0.530
       0.764
       1.011
       1.228
       1.374
       1.434
       1.418
       1.340
       1.197
       0.973
       0.670
       0.341
       0.076
      -0.048
      -0.008
       0.148
       0.325
       0.417
       0.338
       0.045
      -0.432
      -0.988
      -1.466
      -1.724
      -1.687
      -1.379
      -0.896
      -0.357
       0.138
       0.529
       0.792
       0.933
       0.969
       0.914
       0.773
       0.546
       0.244
      -0.100
      -0.432
      -0.707
      -0.911
      -1.069
      -1.212
      -1.344
      -1.420
      -1.364
      -1.120
      -0.700
      -0.195
       0.270
       0.587
       0.712
       0.658
       0.472
       0.205
      -0.096
      -0.380
      -0.591
      -0.676
      -0.613
      -0.425
      -0.173
       0.073
       0.267
       0.404
       0.513
       0.640
       0.830
       1.103
       1.443
       1.796
       2.074
       2.192
       2.101
       1.813
       1.398
       0.955
       0.561
       0.248
       0.007
      -0.188
      -0.363
      -0.533
      -0.709
      -0.884
      -1.040
      -1.161
      -1.249
      -1.334
      -1.453
      -1.629
      -1.847
      -2.065
      -2.226
      -2.279
      -2.199
      -1.985
      -1.663
      -1.270
      -0.842
      -0.411
      -0.003
       0.359
       0.662
       0.907
       1.107
       1.272
       1.405
       1.501
       1.565
       1.609
       1.642
       1.651
       1.603
       1.471
       1.260
       1.007
       0.762
       0.567
       0.443
       0.388
       0.392
       0.440
       0.518
       0.609
       0.696
       0.774
       0.842
       0.898
       0.919
       0.860
       0.680
       0.369
      -0.037
      -0.475
      -0.889
      -1.245
      -1.536
      -1.768
      -1.955
      -2.103
      -2.199
      -2.197
      -2.041
      -1.711
      -1.255
      -0.781
      -0.400
      -0.173
      -0.086
      -0.075
      -0.069
      -0.034
       0.021
       0.065
       0.081
       0.089
       0.138
       0.275
       0.506
       0.781
       1.024
       1.169
       1.192
       1.116
       0.989
       0.861
       0.760
       0.690
       0.637
       0.573
       0.463
       0.273
       0.000
      -0.328
      -0.648
      -0.893
      -1.004
      -0.954
      -0.752
      -0.436
      -0.066
       0.299
       0.613
       0.843
       0.960
       0.932
       0.746
       0.434
       0.068
      -0.263
      -0.499
      -0.615
      -0.623
      -0.554
      -0.453
      -0.359
      -0.293
      -0.253
      -0.237
      -0.254
      -0.329
      -0.477
      -0.690
