Origin Time       29/08/2013 10:13:21
Lat.              31.4 N	
Long.             76.1 E	
Depth (Km)         10.0
Magnitude         4.7
 Region           HIMACHAL-PUNJAB-(HOSHIARPUR)-BORDER                              
 Above details taken from IMD 
   
Station Code      RAM
Station Lat.       31.448
Station Long.      77.630
Station Height(m)  998.0
Site Class        A   Vs30 between 700 m/sec to 1400 m/sec * 
Record Time       29.08.2013 10:12:05.914
Sampling Rate     200. Hz
 Record Duration   84.055 Sec.
 Direction         Vert. (Up positive)
Max. Acceleration     -4.868 cm/sec**2
     
  * For reference see Site Classification link of website 
     
 Base Line Corrected and Low Pass Filtered (Cut Off at 35 Hz) Time History
 Acceleration data in cm/sec**2
    
[...]
       0.482
       0.530
       0.634
       0.755
       0.851
       0.874
       0.775
       0.526
       0.159
      -0.231
      -0.526
      -0.667
      -0.688
      -0.676
      -0.690
      -0.696
      -0.601
      -0.341
       0.039
       0.398
       0.587
       0.555
       0.381
       0.211
       0.146
       0.165
       0.152
       0.011
      -0.241
      -0.474
      -0.553
      -0.449
      -0.256
      -0.105
      -0.062
      -0.094
      -0.112
      -0.039
       0.144
       0.395
       0.628
       0.764
       0.759
       0.622
       0.391
       0.101
      -0.235
      -0.592
      -0.911
      -1.105
      -1.102
      -0.899
      -0.570
      -0.232
       0.012
       0.133
       0.176
       0.218
       0.299
       0.390
       0.424
       0.371
       0.281
       0.231
       0.244
       0.262
       0.208
       0.064
      -0.101
      -0.199
      -0.195
      -0.128
      -0.068
      -0.045
      -0.022
       0.070
       0.260
       0.497
       0.670
       0.689
       0.553
       0.343
       0.139
      -0.042
      -0.237
      -0.454
      -0.623
      -0.643
      -0.492
      -0.266
      -0.117
      -0.128
      -0.250
      -0.360
      -0.357
      -0.227
      -0.034
       0.128
       0.193
       0.153
       0.056
      -0.027
      -0.048
      -0.001
       0.091
       0.203
       0.312
       0.384
       0.369
       0.241
       0.035
      -0.153
      -0.233
      -0.189
      -0.090
      -0.024
      -0.033
      -0.097
      -0.174
      -0.240
      -0.280
      -0.277
      -0.211
      -0.079
       0.090
       0.243
       0.343
       0.401
       0.462
       0.559
       0.660
       0.680
       0.535
       0.218
      -0.176
      -0.501
      -0.652
      -0.633
      -0.539
      -0.470
      -0.453
      -0.446
      -0.388
      -0.242
      -0.010
       0.280
       0.564
       0.744
       0.731
       0.506
       0.155
      -0.159
      -0.289
      -0.197
       0.010
       0.139
       0.045
      -0.257
      -0.593
      -0.748
      -0.631
      -0.332
      -0.044
       0.092
       0.084
       0.047
       0.085
       0.207
       0.336
       0.390
       0.354
       0.282
       0.243
       0.262
       0.311
       0.351
       0.361
       0.341
       0.283
       0.157
      -0.059
      -0.335
      -0.569
      -0.652
      -0.549
      -0.331
      -0.130
      -0.051
      -0.100
      -0.203
      -0.260
      -0.227
      -0.135
      -0.061
      -0.060
      -0.125
      -0.187
      -0.171
      -0.051
       0.136
       0.325
       0.472
       0.567
       0.614
       0.608
       0.535
       0.399
       0.229
       0.060
      -0.091
      -0.229
      -0.356
      -0.451
      -0.479
      -0.423
      -0.308
      -0.187
      -0.097
      -0.039
       0.007
       0.059
       0.118
       0.173
       0.208
       0.212
       0.178
       0.104
      -0.003
      -0.124
      -0.229
      -0.277
      -0.236
      -0.101
       0.086
       0.260
       0.377
       0.440
       0.475
       0.482
       0.414
       0.225
      -0.064
      -0.350
      -0.509
      -0.477
      -0.289
      -0.057
       0.102
       0.130
       0.046
      -0.076
      -0.160
      -0.172
      -0.126
      -0.047
       0.049
       0.142
       0.195
       0.182
       0.120
       0.072
       0.087
       0.152
       0.183
       0.092
      -0.155
      -0.501
      -0.827
      -1.004
      -0.967
      -0.751
      -0.461
      -0.191
       0.050
       0.319
       0.648
       0.978
       1.187
       1.196
       1.030
       0.785
       0.545
       0.335
       0.135
      -0.071
      -0.283
      -0.497
      -0.717
      -0.941
      -1.128
      -1.205
      -1.100
      -0.800
      -0.382
       0.012
       0.250
       0.302
       0.266
       0.290
       0.456
       0.707
       0.896
       0.899
       0.711
       0.424
       0.142
      -0.088
      -0.266
      -0.389
      -0.430
      -0.366
      -0.225
      -0.088
      -0.037
      -0.104
      -0.235
      -0.330
      -0.303
      -0.137
       0.105
       0.324
       0.459
       0.514
       0.532
       0.537
       0.494
       0.338
       0.031
      -0.383
      -0.781
      -1.024
      -1.021
      -0.776
      -0.389
      -0.009
       0.241
       0.334
       0.345
       0.387
       0.510
       0.666
       0.754
       0.708
       0.546
       0.342
       0.164
       0.028
      -0.105
      -0.290
      -0.551
      -0.841
      -1.040
      -1.017
      -0.724
      -0.264
       0.160
       0.384
       0.398
       0.342
       0.361
       0.460
       0.500
       0.330
      -0.055
      -0.509
      -0.849
      -0.971
      -0.869
      -0.599
      -0.249
       0.077
       0.294
       0.382
       0.383
       0.358
       0.348
       0.363
       0.399
       0.445
       0.471
       0.443
       0.362
       0.284
       0.277
       0.340
       0.386
       0.314
       0.108
      -0.146
      -0.334
      -0.402
      -0.384
      -0.358
      -0.385
      -0.462
      -0.537
      -0.547
      -0.473
      -0.360
      -0.285
      -0.287
      -0.338
      -0.369
      -0.333
      -0.243
      -0.143
      -0.052
       0.055
       0.222
       0.450
       0.678
       0.819
       0.811
       0.657
       0.420
       0.188
       0.023
      -0.064
      -0.104
      -0.126
      -0.134
      -0.112
      -0.062
      -0.016
      -0.012
      -0.057
      -0.115
      -0.130
      -0.075
       0.032
       0.138
       0.195
       0.190
       0.132
       0.033
      -0.111
      -0.295
      -0.483
      -0.606
      -0.601
      -0.454
      -0.215
       0.042
       0.260
       0.427
       0.549
       0.612
       0.568
       0.378
       0.057
      -0.303
      -0.581
      -0.683
      -0.609
      -0.448
      -0.317
      -0.274
      -0.283
      -0.259
      -0.148
       0.024
       0.186
       0.280
       0.311
       0.332
       0.400
       0.539
       0.718
       0.872
       0.919
       0.806
       0.531
       0.156
      -0.225
      -0.540
      -0.758
      -0.875
      -0.882
      -0.755
      -0.499
      -0.178
       0.096
       0.238
       0.264
       0.278
       0.379
       0.568
       0.732
       0.725
       0.485
       0.078
      -0.341
      -0.641
      -0.795
      -0.875
      -0.972
      -1.106
      -1.203
      -1.150
      -0.875
      -0.405
       0.152
       0.676
       1.081
       1.333
       1.427
       1.369
       1.190
       0.948
       0.706
       0.490
       0.271
      -0.005
      -0.346
      -0.693
      -0.954
      -1.077
      -1.089
      -1.060
      -1.046
      -1.033
      -0.951
      -0.732
      -0.364
       0.095
       0.569
       1.014
       1.401
       1.662
       1.671
       1.324
       0.663
      -0.094
      -0.664
      -0.877
      -0.781
      -0.584
      -0.485
      -0.534
      -0.625
      -0.600
      -0.394
      -0.092
       0.136
       0.165
       0.014
      -0.182
      -0.287
      -0.266
      -0.176
      -0.079
       0.025
       0.186
       0.425
       0.685
       0.867
       0.902
       0.797
       0.614
       0.421
       0.259
       0.125
      -0.016
      -0.201
      -0.443
      -0.709
      -0.924
      -1.011
      -0.934
      -0.725
      -0.457
      -0.204
      -0.010
       0.116
       0.182
       0.205
       0.185
       0.097
      -0.083
      -0.320
      -0.501
      -0.480
      -0.180
       0.334
       0.876
       1.251
       1.371
       1.295
       1.165
       1.076
       0.997
       0.799
       0.359
      -0.309
      -1.030
      -1.568
      -1.778
      -1.689
      -1.449
      -1.200
      -0.981
      -0.738
      -0.399
       0.033
       0.470
       0.791
       0.925
       0.894
       0.791
       0.701
       0.637
       0.545
       0.369
       0.128
      -0.086
      -0.171
      -0.114
       0.000
       0.059
       0.016
      -0.095
      -0.214
      -0.305
      -0.358
      -0.371
      -0.321
      -0.178
       0.066
       0.379
       0.693
       0.932
       1.037
       0.991
       0.811
       0.509
       0.077
      -0.484
      -1.107
      -1.645
      -1.939
      -1.925
      -1.693
      -1.419
      -1.240
      -1.163
      -1.080
      -0.860
      -0.451
       0.082
       0.600
       0.992
       1.260
       1.508
       1.843
       2.256
       2.589
       2.640
       2.316
       1.708
       1.028
       0.451
       0.015
      -0.344
      -0.675
      -0.931
      -1.001
      -0.821
      -0.456
      -0.084
       0.101
       0.000
      -0.336
      -0.740
      -1.046
      -1.192
      -1.241
      -1.298
      -1.409
      -1.535
      -1.616
      -1.637
      -1.611
      -1.523
      -1.301
      -0.882
      -0.305
       0.286
       0.726
       0.952
       1.034
       1.112
       1.278
       1.518
       1.736
       1.852
       1.878
       1.898
       1.976
       2.083
       2.101
       1.922
       1.538
       1.025
       0.446
      -0.223
      -1.042
      -1.975
      -2.817
      -3.260
      -3.080
      -2.279
      -1.095
       0.126
       1.088
       1.653
       1.854
       1.803
       1.576
       1.165
       0.521
      -0.347
      -1.328
      -2.250
      -2.979
      -3.454
      -3.658
      -3.575
      -3.206
      -2.604
      -1.844
      -0.980
      -0.025
       0.991
       1.984
       2.826
       3.416
       3.728
       3.808
       3.721
       3.492
       3.098
       2.501
       1.711
       0.840
       0.075
      -0.422
      -0.633
      -0.709
      -0.854
      -1.177
      -1.621
      -2.038
      -2.316
      -2.441
      -2.461
      -2.401
      -2.219
      -1.837
      -1.225
      -0.452
       0.315
       0.893
       1.185
       1.231
       1.160
       1.100
       1.105
       1.153
       1.181
       1.125
       0.950
       0.666
       0.336
       0.052
      -0.111
      -0.155
      -0.165
      -0.253
      -0.470
      -0.753
      -0.966
      -0.986
      -0.776
      -0.401
       0.025
       0.408
       0.703
       0.896
       0.971
       0.900
       0.670
       0.308
      -0.131
      -0.579
      -0.975
      -1.262
      -1.398
      -1.377
      -1.240
      -1.051
      -0.849
      -0.613
      -0.276
       0.193
       0.712
       1.095
       1.157
       0.865
       0.382
      -0.029
      -0.175
      -0.040
       0.250
       0.548
       0.787
       0.988
       1.198
       1.408
       1.539
       1.498
       1.264
       0.919
       0.593
       0.363
       0.207
       0.050
      -0.149
      -0.364
      -0.543
      -0.678
      -0.819
      -1.031
      -1.347
      -1.733
      -2.118
      -2.436
      -2.659
      -2.776
      -2.747
      -2.498
      -1.967
      -1.189
      -0.324
       0.425
       0.953
       1.334
       1.731
       2.220
       2.689
       2.897
       2.674
       2.054
       1.258
       0.547
       0.077
      -0.145
      -0.214
      -0.242
      -0.284
      -0.325
      -0.310
      -0.201
       0.003
       0.278
       0.608
       0.975
       1.319
       1.531
       1.512
       1.245
       0.808
       0.311
      -0.181
      -0.645
      -1.062
      -1.383
      -1.575
      -1.675
      -1.786
      -2.000
      -2.319
      -2.645
      -2.838
      -2.780
      -2.425
      -1.807
      -1.023
      -0.171
       0.700
       1.578
       2.411
       3.050
       3.306
       3.095
       2.515
       1.784
       1.087
       0.484
      -0.047
      -0.498
      -0.778
      -0.768
      -0.442
       0.086
       0.600
       0.902
       0.910
       0.689
       0.403
       0.213
       0.183
       0.254
       0.311
       0.280
       0.179
       0.079
       0.021
      -0.020
      -0.105
      -0.263
      -0.468
      -0.669
      -0.834
      -0.985
      -1.175
      -1.455
      -1.829
      -2.229
      -2.521
      -2.552
      -2.220
      -1.525
      -0.568
       0.505
       1.560
       2.500
       3.230
       3.642
       3.640
       3.209
       2.441
       1.502
       0.560
      -0.271
      -0.960
      -1.537
      -2.049
      -2.496
      -2.789
      -2.790
      -2.399
      -1.648
      -0.710
       0.163
       0.761
       1.010
       1.000
       0.924
       0.952
       1.118
       1.306
       1.345
       1.137
       0.729
       0.263
      -0.142
      -0.458
      -0.730
      -0.996
      -1.240
      -1.412
      -1.468
      -1.409
      -1.256
      -1.023
      -0.694
      -0.250
       0.290
       0.843
       1.288
       1.524
       1.530
       1.372
       1.149
       0.917
       0.655
       0.306
      -0.132
      -0.560
      -0.821
      -0.806
      -0.534
      -0.141
       0.207
       0.387
       0.345
       0.084
      -0.346
      -0.843
      -1.270
      -1.497
      -1.450
      -1.155
      -0.730
      -0.332
      -0.071
       0.056
       0.157
       0.354
       0.667
       0.979
       1.100
       0.908
       0.457
      -0.029
      -0.279
      -0.139
       0.328
       0.910
       1.406
       1.768
       2.075
       2.377
       2.581
       2.507
       2.052
       1.303
       0.460
      -0.336
      -1.093
      -1.915
      -2.855
      -3.817
      -4.575
      -4.868
      -4.537
      -3.600
      -2.247
      -0.733
       0.730
       2.008
       2.992
       3.549
       3.568
       3.056
       2.182
       1.204
       0.333
      -0.338
      -0.805
      -1.078
      -1.153
      -1.035
      -0.767
      -0.428
      -0.100
       0.147
       0.260
       0.206
      -0.018
      -0.374
      -0.759
      -1.024
      -1.028
      -0.707
      -0.115
       0.608
       1.308
       1.877
       2.271
       2.479
       2.479
       2.237
       1.740
       1.035
       0.221
      -0.587
      -1.313
      -1.942
      -2.490
      -2.947
      -3.241
      -3.262
      -2.942
      -2.302
      -1.441
      -0.484
       0.464
       1.312
       1.975
       2.382
       2.495
       2.319
       1.904
       1.322
       0.657
      -0.016
      -0.617
      -1.055
      -1.231
      -1.087
      -0.650
      -0.049
       0.523
       0.893
       0.962
       0.717
       0.200
      -0.508
      -1.288
      -1.973
      -2.385
      -2.408
      -2.057
      -1.480
      -0.861
      -0.304
       0.219
       0.810
       1.529
       2.306
       2.961
       3.294
       3.198
       2.703
       1.938
       1.050
       0.164
      -0.618
      -1.206
      -1.540
      -1.617
      -1.496
      -1.265
      -0.999
      -0.736
      -0.474
      -0.209
       0.036
       0.194
       0.184
      -0.042
      -0.442
      -0.892
      -1.233
      -1.349
      -1.201
      -0.821
      -0.276
       0.333
       0.869
       1.189
       1.223
       1.037
       0.803
       0.687
       0.757
       0.967
       1.200
       1.309
       1.157
       0.679
      -0.070
      -0.915
      -1.656
      -2.157
      -2.353
      -2.204
      -1.680
      -0.828
       0.167
       1.021
       1.494
       1.534
       1.284
       0.991
       0.868
       0.996
       1.298
       1.588
       1.684
       1.527
       1.206
       0.878
       0.636
       0.450
       0.221
      -0.114
      -0.528
      -0.949
      -1.328
      -1.663
      -1.966
      -2.235
      -2.458
      -2.634
      -2.776
      -2.872
      -2.866
      -2.675
      -2.241
      -1.579
      -0.758
       0.136
       1.035
       1.883
       2.611
       3.129
       3.363
       3.318
       3.093
       2.821
       2.578
       2.332
       1.966
       1.375
       0.549
      -0.413
      -1.359
      -2.164
      -2.766
      -3.147
      -3.303
      -3.244
      -3.006
      -2.643
      -2.196
      -1.644
      -0.924
       0.006
       1.080
       2.109
       2.855
       3.160
       3.048
       2.704
       2.332
       2.024
       1.726
       1.344
       0.862
       0.376
      -0.003
      -0.266
      -0.532
      -0.945
      -1.533
      -2.163
      -2.623
      -2.776
      -2.646
      -2.365
      -2.052
      -1.717
      -1.281
      -0.676
       0.059
       0.795
       1.402
       1.859
       2.244
       2.611
       2.884
       2.876
       2.435
       1.583
       0.517
      -0.512
      -1.346
      -1.973
      -2.462
      -2.860
      -3.117
      -3.097
      -2.663
      -1.788
      -0.624
       0.543
       1.438
       1.937
       2.083
       2.018
       1.868
       1.698
       1.525
       1.357
       1.222
       1.154
       1.170
       1.240
       1.301
       1.284
       1.159
       0.934
       0.625
       0.225
      -0.296
      -0.948
      -1.676
      -2.350
      -2.804
      -2.905
      -2.612
      -2.005
      -1.268
      -0.621
      -0.252
      -0.239
      -0.529
      -0.963
      -1.349
      -1.543
      -1.507
      -1.295
      -0.971
      -0.551
      -0.009
       0.643
       1.304
       1.830
       2.159
       2.371
       2.626
       3.001
       3.384
       3.521
       3.197
       2.396
       1.318
       0.245
      -0.633
      -1.295
      -1.838
      -2.336
      -2.742
      -2.911
      -2.726
      -2.221
      -1.575
      -0.980
      -0.491
      -0.021
       0.524
       1.113
       1.603
       1.872
       1.912
       1.789
       1.551
       1.178
       0.650
       0.020
      -0.581
      -1.030
      -1.291
      -1.419
      -1.494
      -1.554
      -1.570
      -1.483
      -1.268
      -0.954
      -0.599
      -0.227
       0.200
       0.722
       1.289
       1.725
       1.842
       1.611
       1.224
       0.945
       0.896
       0.966
       0.930
       0.659
       0.219
      -0.193
      -0.412
      -0.410
      -0.290
      -0.182
      -0.150
      -0.174
      -0.209
      -0.260
      -0.375
      -0.573
      -0.768
      -0.803
      -0.574
      -0.132
       0.340
       0.661
       0.759
       0.683
       0.522
       0.323
       0.074
      -0.250
      -0.635
      -1.001
      -1.241
      -1.283
      -1.133
      -0.864
      -0.554
      -0.252
       0.021
       0.227
       0.290
       0.141
      -0.218
      -0.674
      -1.035
      -1.116
      -0.835
      -0.255
       0.447
       1.069
       1.479
       1.650
       1.633
       1.505
       1.321
       1.110
       0.893
       0.684
       0.483
       0.272
       0.027
      -0.259
      -0.562
      -0.839
      -1.038
      -1.128
      -1.116
      -1.048
      -0.990
      -0.975
      -0.963
      -0.854
      -0.561
      -0.080
       0.474
       0.910
       1.059
       0.864
       0.405
      -0.141
      -0.594
      -0.837
      -0.840
      -0.635
      -0.272
       0.191
       0.668
       1.053
       1.256
       1.264
       1.156
       1.040
       0.968
       0.903
       0.747
       0.423
      -0.058
      -0.578
      -0.965
      -1.074
      -0.866
      -0.443
      -0.002
       0.274
       0.319
       0.217
       0.125
       0.162
