Origin Time       21/10/2008 15:09:06 UTC
Lat.              31.5 N 
Long.             77.3 E 
Depth (Km)         10.0
Magnitude         4.5
 Region           KULLU-HIMACHAL-PRADESH                                           
 Above details taken from IMD 
    
Station Code      RAM
Station Lat.       31.448  N
Station Long.      77.630  E
Station Height(m)  998.0
Site Class        A   Vs30 between 700 m/sec to 1400 m/sec * 
Record Time       21.10.2008 15:09:04.344 UTC
Sampling Rate     200. Hz
 Record Duration   30.010 Sec.
 Direction         N-S (N positive)
Max. Acceleration      7.441 cm/sec**2
     
  * For reference see Site Classification link of website 
     
 Base Line Corrected and Low Pass Filtered (Cut Off at 35 Hz) Time History
 Acceleration data in cm/sec**2
    
[...]
      -0.012
      -0.002
       0.009
       0.015
       0.011
       0.001
      -0.010
      -0.014
      -0.012
      -0.008
      -0.006
      -0.004
       0.000
       0.007
       0.014
       0.017
       0.015
       0.012
       0.013
       0.017
       0.018
       0.011
      -0.002
      -0.015
      -0.023
      -0.024
      -0.020
      -0.018
      -0.019
      -0.020
      -0.014
      -0.002
       0.010
       0.017
       0.017
       0.015
       0.014
       0.013
       0.009
       0.000
      -0.009
      -0.013
      -0.012
      -0.008
      -0.008
      -0.012
      -0.017
      -0.021
      -0.019
      -0.014
      -0.008
      -0.002
       0.003
       0.005
       0.004
       0.000
      -0.005
      -0.007
      -0.006
      -0.001
       0.003
       0.005
       0.003
      -0.003
      -0.009
      -0.013
      -0.014
      -0.011
      -0.009
      -0.008
      -0.007
      -0.006
      -0.005
      -0.005
      -0.009
      -0.015
      -0.020
      -0.019
      -0.010
       0.002
       0.011
       0.014
       0.011
       0.005
       0.000
      -0.002
      -0.001
       0.002
       0.002
      -0.002
      -0.010
      -0.017
      -0.019
      -0.015
      -0.007
      -0.003
      -0.003
      -0.006
      -0.006
      -0.004
       0.001
       0.007
       0.009
       0.008
       0.003
      -0.004
      -0.010
      -0.014
      -0.015
      -0.013
      -0.008
      -0.004
      -0.004
      -0.008
      -0.014
      -0.017
      -0.015
      -0.008
       0.000
       0.007
       0.010
       0.008
       0.000
      -0.010
      -0.016
      -0.014
      -0.008
       0.000
       0.003
       0.000
      -0.006
      -0.011
      -0.013
      -0.008
       0.001
       0.010
       0.016
       0.017
       0.012
       0.006
       0.000
      -0.004
      -0.008
      -0.009
      -0.007
      -0.002
       0.005
       0.010
       0.010
       0.006
       0.000
      -0.007
      -0.011
      -0.012
      -0.010
      -0.006
      -0.003
      -0.001
       0.000
       0.000
      -0.001
      -0.003
      -0.009
      -0.015
      -0.018
      -0.012
      -0.002
       0.006
       0.003
      -0.011
      -0.025
      -0.030
      -0.022
      -0.007
       0.005
       0.009
       0.009
       0.011
       0.015
       0.014
       0.004
      -0.012
      -0.027
      -0.031
      -0.024
      -0.014
      -0.007
      -0.006
      -0.006
      -0.004
      -0.002
      -0.002
      -0.004
      -0.008
      -0.008
      -0.004
       0.000
       0.001
      -0.003
      -0.009
      -0.014
      -0.014
      -0.011
      -0.006
       0.003
       0.013
       0.023
       0.029
       0.029
       0.024
       0.020
       0.019
       0.023
       0.028
       0.032
       0.032
       0.030
       0.031
       0.037
       0.046
       0.054
       0.054
       0.042
       0.018
      -0.017
      -0.054
      -0.080
      -0.082
      -0.055
      -0.004
       0.057
       0.109
       0.136
       0.131
       0.098
       0.045
      -0.018
      -0.082
      -0.138
      -0.177
      -0.192
      -0.176
      -0.135
      -0.085
      -0.049
      -0.045
      -0.079
      -0.140
      -0.210
      -0.266
      -0.294
      -0.277
      -0.200
      -0.057
       0.142
       0.359
       0.547
       0.662
       0.685
       0.623
       0.500
       0.348
       0.192
       0.056
      -0.051
      -0.131
      -0.200
      -0.280
      -0.385
      -0.510
      -0.639
      -0.747
      -0.812
      -0.811
      -0.732
      -0.571
      -0.347
      -0.101
       0.117
       0.277
       0.385
       0.470
       0.555
       0.631
       0.672
       0.659
       0.592
       0.480
       0.322
       0.111
      -0.134
      -0.347
      -0.439
      -0.362
      -0.158
       0.055
       0.156
       0.093
      -0.092
      -0.300
      -0.440
      -0.450
      -0.298
       0.025
       0.477
       0.940
       1.247
       1.259
       0.948
       0.420
      -0.145
      -0.586
      -0.815
      -0.821
      -0.638
      -0.323
       0.036
       0.311
       0.385
       0.215
      -0.128
      -0.495
      -0.754
      -0.853
      -0.808
      -0.658
      -0.432
      -0.163
       0.094
       0.266
       0.316
       0.261
       0.163
       0.070
      -0.008
      -0.068
      -0.085
      -0.010
       0.181
       0.457
       0.743
       0.959
       1.045
       0.972
       0.749
       0.433
       0.112
      -0.158
      -0.397
      -0.667
      -0.978
      -1.245
      -1.346
      -1.234
      -0.978
      -0.671
      -0.335
       0.078
       0.560
       0.961
       1.069
       0.813
       0.361
       0.004
      -0.071
       0.101
       0.350
       0.539
       0.633
       0.634
       0.509
       0.210
      -0.240
      -0.708
      -1.020
      -1.087
      -0.960
      -0.766
      -0.602
      -0.481
      -0.372
      -0.261
      -0.164
      -0.089
      -0.020
       0.068
       0.177
       0.298
       0.431
       0.580
       0.727
       0.821
       0.821
       0.737
       0.626
       0.544
       0.512
       0.524
       0.559
       0.576
       0.509
       0.293
      -0.076
      -0.509
      -0.870
      -1.043
      -0.974
      -0.662
      -0.177
       0.307
       0.538
       0.346
      -0.169
      -0.649
      -0.744
      -0.426
      -0.003
       0.188
       0.102
      -0.033
      -0.021
       0.072
       0.027
      -0.223
      -0.492
      -0.562
      -0.465
      -0.465
      -0.728
      -1.073
      -1.104
      -0.625
       0.133
       0.723
       0.908
       0.832
       0.779
       0.826
       0.782
       0.476
       0.024
      -0.234
      -0.054
       0.458
       0.928
       1.025
       0.695
       0.150
      -0.324
      -0.557
      -0.545
      -0.394
      -0.234
      -0.166
      -0.222
      -0.345
      -0.407
      -0.300
      -0.042
       0.215
       0.308
       0.212
       0.058
       0.000
       0.051
       0.064
      -0.110
      -0.436
      -0.671
      -0.579
      -0.175
       0.231
       0.295
      -0.050
      -0.519
      -0.738
      -0.579
      -0.251
      -0.075
      -0.170
      -0.353
      -0.305
       0.142
       0.864
       1.537
       1.835
       1.604
       0.893
      -0.086
      -1.024
      -1.590
      -1.539
      -0.854
       0.181
       1.086
       1.452
       1.196
       0.600
       0.071
      -0.187
      -0.298
      -0.512
      -0.890
      -1.204
      -1.164
      -0.727
      -0.160
       0.222
       0.359
       0.447
       0.663
       0.938
       1.035
       0.810
       0.365
      -0.054
      -0.279
      -0.323
      -0.319
      -0.378
      -0.517
      -0.656
      -0.667
      -0.445
       0.015
       0.571
       0.977
       1.020
       0.663
       0.086
      -0.447
      -0.763
      -0.860
      -0.838
      -0.758
      -0.603
      -0.333
       0.018
       0.317
       0.414
       0.254
      -0.065
      -0.353
      -0.453
      -0.326
      -0.047
       0.276
       0.572
       0.814
       0.973
       0.987
       0.809
       0.472
       0.103
      -0.160
      -0.265
      -0.243
      -0.115
       0.161
       0.606
       1.091
       1.341
       1.123
       0.463
      -0.333
      -0.900
      -1.076
      -0.977
      -0.853
      -0.886
      -1.108
      -1.453
      -1.832
      -2.154
      -2.282
      -2.017
      -1.194
       0.133
       1.599
       2.675
       2.992
       2.587
       1.855
       1.237
       0.939
       0.870
       0.791
       0.519
       0.023
      -0.589
      -1.147
      -1.488
      -1.523
      -1.278
      -0.892
      -0.547
      -0.377
      -0.410
      -0.566
      -0.703
      -0.670
      -0.347
       0.307
       1.202
       2.085
       2.612
       2.509
       1.753
       0.618
      -0.461
      -1.122
      -1.236
      -0.901
      -0.344
       0.190
       0.520
       0.585
       0.447
       0.216
      -0.071
      -0.483
      -1.074
      -1.715
      -2.083
      -1.882
      -1.127
      -0.211
       0.342
       0.258
      -0.288
      -0.825
      -0.943
      -0.558
       0.105
       0.740
       1.163
       1.330
       1.248
       0.916
       0.390
      -0.129
      -0.333
       0.016
       0.888
       1.936
       2.656
       2.654
       1.873
       0.626
      -0.569
      -1.271
      -1.339
      -0.975
      -0.543
      -0.314
      -0.326
      -0.453
      -0.582
      -0.711
      -0.886
      -1.080
      -1.166
      -1.039
      -0.727
      -0.364
      -0.059
       0.187
       0.408
       0.557
       0.519
       0.272
       0.003
      -0.009
       0.342
       0.848
       1.135
       0.964
       0.397
      -0.298
      -0.867
      -1.200
      -1.291
      -1.157
      -0.830
      -0.411
      -0.059
       0.100
       0.064
      -0.066
      -0.186
      -0.252
      -0.219
       0.009
       0.508
       1.177
       1.716
       1.832
       1.495
       0.952
       0.482
       0.128
      -0.290
      -0.904
      -1.567
      -1.917
      -1.696
      -1.011
      -0.267
       0.153
       0.174
       0.024
       0.000
       0.226
       0.603
       0.939
       1.100
       1.068
       0.914
       0.727
       0.550
       0.341
       0.011
      -0.471
      -0.982
      -1.262
      -1.086
      -0.454
       0.374
       1.026
       1.250
       1.043
       0.606
       0.206
       0.024
       0.088
       0.277
       0.397
       0.304
      -0.014
      -0.441
      -0.836
      -1.113
      -1.245
      -1.199
      -0.924
      -0.420
       0.186
       0.665
       0.816
       0.603
       0.179
      -0.226
      -0.457
      -0.499
      -0.422
      -0.306
      -0.217
      -0.214
      -0.311
      -0.423
      -0.403
      -0.192
       0.105
       0.316
       0.386
       0.406
       0.462
       0.495
       0.364
       0.041
      -0.333
      -0.580
      -0.648
      -0.589
      -0.425
      -0.100
       0.414
       1.009
       1.468
       1.618
       1.444
       1.059
       0.601
       0.163
      -0.208
      -0.495
      -0.702
      -0.829
      -0.837
      -0.674
      -0.342
       0.065
       0.409
       0.619
       0.731
       0.806
       0.813
       0.621
       0.124
      -0.616
      -1.365
      -1.842
      -1.871
      -1.465
      -0.794
      -0.070
       0.546
       0.960
       1.109
       0.950
       0.531
       0.034
      -0.298
      -0.332
      -0.138
       0.090
       0.215
       0.254
       0.296
       0.366
       0.383
       0.250
      -0.003
      -0.204
      -0.173
       0.108
       0.447
       0.592
       0.433
       0.087
      -0.208
      -0.286
      -0.182
      -0.096
      -0.237
      -0.658
      -1.200
      -1.580
      -1.570
      -1.155
      -0.549
      -0.042
       0.212
       0.282
       0.352
       0.507
       0.628
       0.509
       0.089
      -0.426
      -0.705
      -0.585
      -0.226
       0.042
       0.037
      -0.099
      -0.067
       0.247
       0.607
       0.626
       0.141
      -0.579
      -1.016
      -0.821
      -0.121
       0.569
       0.763
       0.393
      -0.145
      -0.321
       0.111
       0.940
       1.693
       1.999
       1.846
       1.525
       1.337
       1.333
       1.301
       1.002
       0.411
      -0.265
      -0.775
      -1.014
      -1.055
      -1.034
      -1.052
      -1.136
      -1.246
      -1.288
      -1.169
      -0.884
      -0.564
      -0.396
      -0.471
      -0.698
      -0.884
      -0.877
      -0.649
      -0.263
       0.194
       0.627
       0.913
       0.943
       0.720
       0.394
       0.152
       0.067
       0.071
       0.081
       0.131
       0.338
       0.769
       1.352
       1.921
       2.314
       2.422
       2.188
       1.598
       0.681
      -0.485
      -1.760
      -2.909
      -3.609
      -3.572
      -2.773
      -1.566
      -0.502
       0.057
       0.192
       0.279
       0.584
       1.014
       1.259
       1.129
       0.735
       0.357
       0.197
       0.259
       0.446
       0.679
       0.930
       1.166
       1.324
       1.341
       1.173
       0.791
       0.190
      -0.569
      -1.339
      -1.952
      -2.325
      -2.482
      -2.488
      -2.359
      -2.067
      -1.604
      -1.007
      -0.309
       0.489
       1.354
       2.127
       2.566
       2.516
       2.055
       1.442
       0.907
       0.493
       0.089
      -0.399
      -0.924
      -1.316
      -1.398
      -1.088
      -0.442
       0.357
       1.056
       1.450
       1.504
       1.373
       1.265
       1.248
       1.217
       1.029
       0.667
       0.252
      -0.071
      -0.252
      -0.366
      -0.579
      -1.032
      -1.712
      -2.386
      -2.700
      -2.407
      -1.556
      -0.467
       0.485
       1.116
       1.469
       1.668
       1.719
       1.508
       0.973
       0.277
      -0.240
      -0.288
       0.172
       0.928
       1.663
       2.114
       2.124
       1.642
       0.737
      -0.374
      -1.388
      -2.084
      -2.464
      -2.701
      -2.942
      -3.177
      -3.310
      -3.342
      -3.435
      -3.761
      -4.277
      -4.639
      -4.352
      -3.065
      -0.798
       2.016
       4.705
       6.634
       7.441
       7.143
       6.066
       4.670
       3.348
       2.297
       1.535
       1.009
       0.700
       0.608
       0.646
       0.593
       0.210
      -0.571
      -1.595
      -2.653
      -3.666
      -4.649
      -5.482
      -5.781
      -5.096
      -3.321
      -0.939
       1.181
       2.320
       2.352
       1.752
       1.204
       1.125
       1.470
       1.862
       1.918
       1.511
       0.817
       0.150
      -0.264
      -0.390
      -0.302
      -0.033
       0.452
       1.140
       1.850
       2.308
       2.376
       2.188
       2.012
       1.949
       1.786
       1.196
       0.053
      -1.432
      -2.872
      -3.959
      -4.567
      -4.681
      -4.292
      -3.392
      -2.065
      -0.565
       0.714
       1.386
       1.276
       0.549
      -0.333
      -0.833
      -0.662
       0.047
       0.864
       1.405
       1.596
       1.590
       1.448
       0.952
      -0.189
      -1.929
      -3.704
      -4.725
      -4.536
      -3.326
      -1.760
      -0.495
       0.168
       0.297
       0.128
      -0.089
      -0.116
       0.249
       1.107
       2.381
       3.819
       5.050
       5.657
       5.289
       3.847
       1.656
      -0.544
      -1.895
      -1.859
      -0.525
       1.422
       3.042
       3.577
       2.770
       0.933
      -1.234
      -2.983
      -3.847
      -3.777
      -3.039
      -1.966
      -0.744
       0.605
       2.060
       3.421
       4.327
       4.470
       3.855
       2.842
       1.927
       1.405
       1.197
       0.963
       0.409
      -0.492
      -1.528
      -2.489
      -3.343
      -4.172
      -4.959
      -5.499
      -5.554
      -5.087
      -4.323
      -3.574
      -3.008
      -2.567
      -2.085
      -1.460
      -0.723
       0.045
       0.832
       1.729
       2.841
       4.142
       5.396
       6.224
       6.296
       5.539
       4.205
       2.726
       1.432
       0.358
      -0.692
      -1.875
      -3.097
      -4.050
      -4.475
      -4.391
      -4.048
      -3.681
      -3.317
      -2.814
      -2.067
      -1.156
      -0.307
       0.284
       0.599
       0.795
       1.071
       1.522
       2.108
       2.716
       3.228
       3.522
       3.423
       2.749
       1.478
      -0.075
      -1.273
      -1.462
      -0.385
       1.597
       3.680
       5.065
       5.365
       4.690
       3.423
       1.938
       0.476
      -0.799
      -1.729
      -2.179
      -2.122
      -1.709
      -1.254
      -1.126
      -1.594
      -2.662
      -4.003
      -5.059
      -5.298
      -4.489
      -2.820
      -0.813
       0.914
       1.893
       1.960
       1.279
       0.243
      -0.711
      -1.279
      -1.385
      -1.146
      -0.734
      -0.239
       0.351
       1.048
       1.729
       2.100
       1.822
       0.727
      -1.017
      -2.947
      -4.536
      -5.450
      -5.649
      -5.269
      -4.429
      -3.140
      -1.375
       0.771
       2.992
       4.850
       5.974
       6.251
       5.870
       5.173
       4.439
       3.742
       3.005
       2.170
       1.320
       0.646
       0.298
       0.259
       0.328
       0.235
      -0.205
      -0.984
      -1.920
      -2.756
      -3.254
      -3.229
      -2.577
      -1.344
       0.219
       1.716
       2.794
       3.309
       3.348
       3.084
       2.630
       2.038
       1.398
       0.886
       0.641
       0.574
       0.361
      -0.325
      -1.502
      -2.804
      -3.742
      -4.091
      -4.050
      -4.044
      -4.335
      -4.772
      -4.881
      -4.220
      -2.727
      -0.808
       0.895
       1.866
       1.969
       1.453
       0.771
       0.359
       0.462
       1.049
       1.855
       2.540
       2.875
       2.840
       2.529
       1.977
       1.113
      -0.091
      -1.414
      -2.413
      -2.710
      -2.322
      -1.695
      -1.384
      -1.656
      -2.332
      -2.958
      -3.106
      -2.565
      -1.346
       0.392
       2.395
       4.354
       5.964
       6.986
       7.285
       6.827
       5.673
       4.017
       2.201
       0.644
      -0.327
      -0.654
      -0.604
      -0.624
      -1.077
      -2.016
      -3.163
      -4.090
      -4.464
      -4.192
      -3.394
      -2.272
      -1.012
       0.218
       1.208
       1.707
       1.542
       0.763
      -0.318
      -1.254
      -1.689
      -1.509
      -0.859
      -0.011
       0.782
       1.397
       1.862
       2.291
       2.742
       3.085
       2.999
       2.163
       0.554
      -1.416
      -3.052
      -3.751
      -3.363
      -2.279
      -1.196
      -0.713
      -1.027
      -1.918
      -2.993
      -3.954
      -4.667
      -5.031
      -4.856
      -3.945
      -2.310
      -0.279
       1.660
       3.151
       4.135
       4.783
       5.286
       5.704
       5.955
       5.886
       5.377
       4.408
       3.098
       1.699
       0.525
      -0.201
      -0.491
      -0.609
      -0.877
      -1.421
      -2.087
      -2.624
      -2.953
      -3.221
      -3.583
      -3.945
      -3.951
      -3.279
      -1.953
      -0.382
       0.925
       1.693
       2.002
       2.147
       2.396
       2.843
       3.415
       3.958
       4.320
       4.379
       4.060
       3.352
       2.337
       1.180
       0.077
      -0.813
      -1.410
      -1.713
      -1.803
      -1.858
      -2.099
      -2.656
      -3.446
      -4.194
      -4.635
      -4.731
      -4.671
      -4.647
      -4.605
      -4.245
      -3.282
      -1.734
       0.053
       1.629
       2.685
       3.134
       3.065
       2.656
       2.102
       1.539
       0.965
       0.275
      -0.589
      -1.485
      -2.101
      -2.157
