Origin Time       21/9/2009 9:43:47	  UTC
Lat.              30.9 N	
Long.             79.1 E	
Depth (Km)         13.0
Magnitude         4.7
 Region           UTTARKASHI-UTTARAKHAND                                           
 Above details taken from IMD 
    
Station Code      RAM
Station Lat.       31.448  N
Station Long.      77.630  E
Station Height(m)  998.0
Site Class        A   Vs30 between 700 m/sec to 1400 m/sec * 
Record Time       21.09.2009 09:44:18.454 UTC
Sampling Rate     200. Hz
 Record Duration   74.415 Sec.
 Direction         N-S (N positive)
Max. Acceleration      1.470 cm/sec**2
     
  * For reference see Site Classification link of website 
     
 Base Line Corrected and Low Pass Filtered (Cut Off at 35 Hz) Time History
 Acceleration data in cm/sec**2
    
[...]
      -0.006
      -0.015
      -0.024
      -0.050
      -0.106
      -0.183
      -0.253
      -0.281
      -0.252
      -0.182
      -0.109
      -0.064
      -0.048
      -0.037
      -0.003
       0.065
       0.152
       0.231
       0.281
       0.305
       0.324
       0.358
       0.414
       0.474
       0.513
       0.516
       0.479
       0.411
       0.324
       0.229
       0.138
       0.060
      -0.004
      -0.058
      -0.107
      -0.153
      -0.189
      -0.209
      -0.214
      -0.210
      -0.204
      -0.193
      -0.173
      -0.146
      -0.117
      -0.091
      -0.068
      -0.044
      -0.013
       0.017
       0.030
       0.015
      -0.028
      -0.084
      -0.139
      -0.180
      -0.200
      -0.195
      -0.165
      -0.114
      -0.054
       0.005
       0.055
       0.097
       0.137
       0.180
       0.225
       0.265
       0.294
       0.315
       0.335
       0.359
       0.382
       0.389
       0.365
       0.304
       0.216
       0.126
       0.059
       0.027
       0.020
       0.019
       0.011
      -0.006
      -0.018
      -0.018
      -0.004
       0.019
       0.051
       0.092
       0.137
       0.169
       0.169
       0.125
       0.047
      -0.043
      -0.117
      -0.162
      -0.173
      -0.158
      -0.127
      -0.086
      -0.037
       0.013
       0.056
       0.083
       0.094
       0.097
       0.104
       0.122
       0.148
       0.168
       0.170
       0.150
       0.114
       0.071
       0.027
      -0.017
      -0.055
      -0.081
      -0.080
      -0.049
       0.005
       0.062
       0.101
       0.116
       0.113
       0.110
       0.118
       0.133
       0.147
       0.152
       0.149
       0.148
       0.158
       0.186
       0.225
       0.265
       0.291
       0.295
       0.279
       0.251
       0.222
       0.202
       0.201
       0.228
       0.278
       0.336
       0.374
       0.374
       0.337
       0.282
       0.227
       0.178
       0.127
       0.070
       0.014
      -0.025
      -0.040
      -0.034
      -0.018
      -0.001
       0.013
       0.028
       0.047
       0.074
       0.110
       0.146
       0.169
       0.166
       0.135
       0.085
       0.029
      -0.022
      -0.055
      -0.062
      -0.041
       0.000
       0.040
       0.057
       0.037
      -0.013
      -0.070
      -0.108
      -0.115
      -0.092
      -0.051
      -0.004
       0.033
       0.049
       0.038
       0.009
      -0.016
      -0.017
       0.010
       0.049
       0.076
       0.077
       0.058
       0.037
       0.032
       0.046
       0.071
       0.099
       0.130
       0.171
       0.225
       0.289
       0.352
       0.404
       0.432
       0.431
       0.395
       0.322
       0.223
       0.117
       0.027
      -0.030
      -0.053
      -0.049
      -0.034
      -0.019
      -0.013
      -0.024
      -0.056
      -0.101
      -0.148
      -0.187
      -0.214
      -0.230
      -0.239
      -0.239
      -0.223
      -0.181
      -0.106
       0.000
       0.122
       0.239
       0.333
       0.400
       0.441
       0.459
       0.453
       0.425
       0.381
       0.331
       0.281
       0.229
       0.172
       0.115
       0.068
       0.033
       0.007
      -0.014
      -0.032
      -0.042
      -0.038
      -0.024
      -0.005
       0.004
      -0.007
      -0.037
      -0.073
      -0.098
      -0.097
      -0.069
      -0.026
       0.014
       0.038
       0.047
       0.055
       0.072
       0.103
       0.143
       0.188
       0.234
       0.275
       0.298
       0.297
       0.278
       0.254
       0.228
       0.191
       0.136
       0.070
       0.018
      -0.006
      -0.012
      -0.024
      -0.054
      -0.091
      -0.110
      -0.099
      -0.063
      -0.018
       0.025
       0.064
       0.101
       0.135
       0.165
       0.184
       0.186
       0.167
       0.132
       0.094
       0.061
       0.035
       0.011
      -0.017
      -0.046
      -0.074
      -0.100
      -0.130
      -0.165
      -0.201
      -0.227
      -0.233
      -0.216
      -0.176
      -0.120
      -0.056
       0.009
       0.070
       0.130
       0.191
       0.248
       0.293
       0.312
       0.300
       0.257
       0.199
       0.144
       0.103
       0.080
       0.066
       0.052
       0.034
       0.020
       0.015
       0.020
       0.030
       0.037
       0.035
       0.022
       0.002
      -0.019
      -0.038
      -0.052
      -0.060
      -0.061
      -0.053
      -0.034
      -0.004
       0.034
       0.077
       0.118
       0.154
       0.182
       0.201
       0.209
       0.203
       0.179
       0.135
       0.075
       0.010
      -0.049
      -0.092
      -0.120
      -0.133
      -0.130
      -0.106
      -0.061
      -0.012
       0.012
      -0.007
      -0.062
      -0.121
      -0.145
      -0.117
      -0.047
       0.038
       0.112
       0.159
       0.179
       0.179
       0.164
       0.132
       0.082
       0.011
      -0.071
      -0.145
      -0.192
      -0.202
      -0.178
      -0.134
      -0.081
      -0.030
       0.012
       0.037
       0.045
       0.047
       0.057
       0.084
       0.122
       0.152
       0.160
       0.143
       0.115
       0.092
       0.092
       0.121
       0.171
       0.223
       0.254
       0.249
       0.213
       0.163
       0.120
       0.087
       0.061
       0.036
       0.013
      -0.001
      -0.002
       0.009
       0.029
       0.058
       0.092
       0.123
       0.141
       0.139
       0.125
       0.112
       0.108
       0.108
       0.097
       0.062
      -0.002
      -0.089
      -0.188
      -0.291
      -0.392
      -0.485
      -0.564
      -0.618
      -0.641
      -0.637
      -0.613
      -0.574
      -0.520
      -0.454
      -0.381
      -0.307
      -0.239
      -0.181
      -0.134
      -0.093
      -0.048
       0.017
       0.112
       0.235
       0.370
       0.494
       0.589
       0.642
       0.648
       0.609
       0.534
       0.435
       0.325
       0.211
       0.096
      -0.022
      -0.140
      -0.244
      -0.323
      -0.371
      -0.390
      -0.387
      -0.364
      -0.318
      -0.246
      -0.149
      -0.034
       0.085
       0.198
       0.297
       0.388
       0.479
       0.574
       0.665
       0.735
       0.772
       0.774
       0.750
       0.713
       0.669
       0.606
       0.500
       0.334
       0.107
      -0.156
      -0.418
      -0.646
      -0.823
      -0.947
      -1.019
      -1.044
      -1.027
      -0.974
      -0.899
      -0.814
      -0.731
      -0.652
      -0.571
      -0.477
      -0.362
      -0.228
      -0.084
       0.059
       0.193
       0.313
       0.410
       0.480
       0.521
       0.542
       0.552
       0.555
       0.545
       0.514
       0.462
       0.399
       0.331
       0.254
       0.161
       0.049
      -0.067
      -0.167
      -0.238
      -0.283
      -0.313
      -0.333
      -0.335
      -0.304
      -0.238
      -0.147
      -0.048
       0.049
       0.145
       0.247
       0.354
       0.460
       0.560
       0.656
       0.749
       0.831
       0.882
       0.873
       0.791
       0.648
       0.475
       0.301
       0.142
      -0.003
      -0.140
      -0.267
      -0.380
      -0.470
      -0.531
      -0.561
      -0.558
      -0.522
      -0.450
      -0.345
      -0.226
      -0.124
      -0.069
      -0.068
      -0.097
      -0.121
      -0.114
      -0.076
      -0.028
       0.004
       0.012
       0.003
      -0.008
      -0.020
      -0.039
      -0.072
      -0.109
      -0.136
      -0.149
      -0.160
      -0.187
      -0.233
      -0.283
      -0.323
      -0.350
      -0.382
      -0.432
      -0.499
      -0.565
      -0.605
      -0.605
      -0.568
      -0.506
      -0.433
      -0.356
      -0.276
      -0.184
      -0.064
       0.092
       0.277
       0.471
       0.644
       0.775
       0.857
       0.892
       0.892
       0.870
       0.839
       0.801
       0.756
       0.702
       0.637
       0.562
       0.476
       0.369
       0.234
       0.071
      -0.108
      -0.282
      -0.430
      -0.534
      -0.587
      -0.589
      -0.546
      -0.471
      -0.388
      -0.328
      -0.316
      -0.356
      -0.431
      -0.512
      -0.582
      -0.636
      -0.676
      -0.704
      -0.709
      -0.682
      -0.617
      -0.522
      -0.411
      -0.298
      -0.188
      -0.081
       0.026
       0.129
       0.214
       0.265
       0.269
       0.224
       0.140
       0.032
      -0.078
      -0.168
      -0.225
      -0.249
      -0.248
      -0.237
      -0.220
      -0.189
      -0.121
       0.003
       0.178
       0.375
       0.549
       0.665
       0.715
       0.716
       0.690
       0.653
       0.610
       0.555
       0.478
       0.377
       0.257
       0.137
       0.040
      -0.022
      -0.047
      -0.049
      -0.045
      -0.048
      -0.071
      -0.123
      -0.212
      -0.332
      -0.463
      -0.579
      -0.662
      -0.709
      -0.732
      -0.744
      -0.753
      -0.761
      -0.761
      -0.737
      -0.672
      -0.560
      -0.411
      -0.247
      -0.093
       0.034
       0.133
       0.209
       0.265
       0.301
       0.316
       0.313
       0.303
       0.298
       0.297
       0.295
       0.282
       0.249
       0.200
       0.141
       0.087
       0.044
       0.009
      -0.028
      -0.081
      -0.143
      -0.193
      -0.207
      -0.178
      -0.126
      -0.080
      -0.058
      -0.060
      -0.069
      -0.071
      -0.074
      -0.095
      -0.144
      -0.216
      -0.292
      -0.357
      -0.406
      -0.439
      -0.455
      -0.454
      -0.435
      -0.403
      -0.360
      -0.302
      -0.221
      -0.113
       0.009
       0.123
       0.207
       0.252
       0.260
       0.241
       0.205
       0.160
       0.118
       0.088
       0.073
       0.067
       0.062
       0.055
       0.050
       0.053
       0.062
       0.067
       0.057
       0.027
      -0.019
      -0.069
      -0.114
      -0.149
      -0.172
      -0.183
      -0.189
      -0.195
      -0.204
      -0.209
      -0.198
      -0.155
      -0.080
       0.010
       0.088
       0.129
       0.129
       0.108
       0.088
       0.081
       0.077
       0.060
       0.020
      -0.042
      -0.115
      -0.185
      -0.239
      -0.264
      -0.249
      -0.189
      -0.093
       0.014
       0.102
       0.148
       0.152
       0.134
       0.115
       0.101
       0.080
       0.035
      -0.038
      -0.127
      -0.214
      -0.285
      -0.340
      -0.382
      -0.405
      -0.396
      -0.349
      -0.275
      -0.199
      -0.143
      -0.118
      -0.123
      -0.153
      -0.199
      -0.251
      -0.300
      -0.347
      -0.396
      -0.450
      -0.505
      -0.550
      -0.577
      -0.579
      -0.555
      -0.496
      -0.395
      -0.248
      -0.065
       0.125
       0.286
       0.388
       0.423
       0.409
       0.378
       0.358
       0.358
       0.373
       0.386
       0.388
       0.378
       0.365
       0.352
       0.339
       0.316
       0.278
       0.224
       0.161
       0.093
       0.017
      -0.077
      -0.202
      -0.364
      -0.544
      -0.707
      -0.812
      -0.839
      -0.801
      -0.740
      -0.694
      -0.683
      -0.700
      -0.723
      -0.740
      -0.738
      -0.705
      -0.620
      -0.470
      -0.263
      -0.032
       0.180
       0.337
       0.426
       0.449
       0.428
       0.387
       0.357
       0.358
       0.395
       0.451
       0.500
       0.513
       0.473
       0.373
       0.225
       0.054
      -0.107
      -0.228
      -0.293
      -0.303
      -0.278
      -0.240
      -0.209
      -0.185
      -0.154
      -0.101
      -0.018
       0.089
       0.206
       0.317
       0.408
       0.473
       0.509
       0.518
       0.504
       0.471
       0.424
       0.363
       0.282
       0.170
       0.019
      -0.169
      -0.376
      -0.578
      -0.754
      -0.892
      -0.996
      -1.077
      -1.147
      -1.207
      -1.244
      -1.232
      -1.153
      -1.005
      -0.808
      -0.592
      -0.376
      -0.163
       0.052
       0.273
       0.492
       0.696
       0.880
       1.050
       1.209
       1.348
       1.443
       1.470
       1.417
       1.285
       1.085
       0.827
       0.522
       0.193
      -0.130
      -0.417
      -0.655
      -0.848
      -1.005
      -1.130
      -1.217
      -1.258
      -1.251
      -1.203
      -1.125
      -1.021
      -0.892
      -0.745
      -0.592
      -0.452
      -0.333
      -0.230
      -0.128
      -0.015
       0.107
       0.226
       0.323
       0.380
       0.391
       0.362
       0.306
       0.239
       0.172
       0.108
       0.053
       0.017
       0.012
       0.046
       0.113
       0.198
       0.283
       0.354
       0.406
       0.444
       0.477
       0.517
       0.577
       0.665
       0.782
       0.914
       1.034
       1.112
       1.121
       1.051
       0.905
       0.701
       0.470
       0.248
       0.060
      -0.088
      -0.204
      -0.305
      -0.401
      -0.506
      -0.631
      -0.781
      -0.944
      -1.098
      -1.222
      -1.313
      -1.382
      -1.436
      -1.467
      -1.459
      -1.404
      -1.312
      -1.196
      -1.052
      -0.861
      -0.609
      -0.313
      -0.012
       0.249
       0.451
       0.593
       0.686
       0.734
       0.737
       0.703
       0.653
       0.611
       0.595
       0.600
       0.610
       0.610
       0.598
       0.581
       0.572
       0.572
       0.575
       0.566
       0.530
       0.462
       0.362
       0.243
       0.114
      -0.015
      -0.135
      -0.235
      -0.304
      -0.340
      -0.352
      -0.350
      -0.345
      -0.335
      -0.310
      -0.260
      -0.189
      -0.114
      -0.062
      -0.048
      -0.064
      -0.094
      -0.123
      -0.152
      -0.191
      -0.248
      -0.315
      -0.375
      -0.412
      -0.424
      -0.422
      -0.421
      -0.430
      -0.443
      -0.443
      -0.421
      -0.382
      -0.345
      -0.323
      -0.316
      -0.311
      -0.302
      -0.289
      -0.277
      -0.265
      -0.247
      -0.214
      -0.164
      -0.098
      -0.027
       0.032
       0.066
       0.070
       0.053
       0.033
       0.021
       0.013
      -0.001
      -0.026
      -0.053
      -0.062
      -0.037
       0.027
       0.119
       0.216
       0.295
       0.349
       0.389
       0.436
       0.507
       0.593
       0.662
       0.681
       0.634
       0.536
       0.425
       0.336
       0.284
       0.262
       0.253
       0.241
       0.212
       0.157
       0.073
      -0.037
      -0.165
      -0.300
      -0.435
      -0.566
      -0.686
      -0.782
      -0.840
      -0.853
      -0.826
      -0.778
      -0.722
      -0.661
      -0.582
      -0.472
      -0.326
      -0.159
       0.001
       0.122
       0.182
       0.176
       0.110
       0.004
      -0.119
      -0.234
      -0.320
      -0.374
      -0.398
      -0.403
      -0.392
      -0.364
      -0.317
      -0.255
      -0.184
      -0.115
      -0.054
      -0.015
      -0.007
      -0.029
      -0.066
      -0.092
      -0.093
      -0.069
      -0.034
       0.008
       0.066
       0.147
       0.241
       0.321
       0.364
       0.362
       0.329
       0.296
       0.292
       0.329
       0.398
       0.477
       0.548
       0.605
       0.655
       0.703
       0.740
       0.749
       0.714
       0.628
       0.498
       0.332
       0.138
      -0.078
      -0.306
      -0.523
      -0.704
      -0.827
      -0.889
      -0.901
      -0.876
      -0.820
      -0.734
      -0.618
      -0.480
      -0.340
      -0.218
      -0.134
      -0.093
      -0.088
      -0.098
      -0.098
      -0.079
      -0.046
      -0.023
      -0.032
      -0.068
      -0.102
      -0.091
      -0.013
       0.117
       0.252
       0.342
       0.360
       0.304
       0.191
       0.050
      -0.089
      -0.196
      -0.253
      -0.265
      -0.253
      -0.235
      -0.215
      -0.180
      -0.114
      -0.016
       0.102
       0.221
       0.323
       0.396
       0.437
       0.448
       0.436
       0.411
       0.384
       0.364
       0.356
       0.358
       0.368
       0.377
       0.376
       0.351
       0.281
       0.160
       0.000
      -0.164
      -0.297
      -0.379
      -0.417
      -0.425
      -0.410
      -0.366
      -0.286
      -0.174
      -0.051
       0.055
       0.130
       0.171
       0.194
       0.219
       0.258
       0.315
       0.375
       0.416
       0.419
       0.383
       0.316
       0.230
       0.123
      -0.006
      -0.153
      -0.294
      -0.409
      -0.500
      -0.587
      -0.699
      -0.844
      -1.002
      -1.134
      -1.200
      -1.182
      -1.085
      -0.931
      -0.755
      -0.587
      -0.447
      -0.334
      -0.231
      -0.113
       0.033
       0.200
       0.361
       0.493
       0.586
       0.649
       0.696
       0.734
       0.767
       0.796
       0.825
       0.855
       0.871
       0.853
       0.788
       0.686
       0.574
       0.480
       0.410
       0.353
       0.291
       0.208
       0.098
      -0.033
      -0.177
      -0.311
      -0.404
      -0.425
      -0.357
      -0.214
      -0.038
       0.118
       0.215
       0.237
       0.193
       0.105
       0.001
      -0.098
      -0.186
      -0.270
      -0.367
      -0.486
      -0.619
      -0.742
      -0.835
      -0.882
      -0.886
      -0.854
      -0.794
      -0.713
      -0.618
      -0.514
      -0.408
      -0.302
      -0.197
      -0.091
       0.023
       0.153
       0.310
       0.489
       0.660
       0.779
       0.811
       0.758
       0.653
       0.541
       0.449
       0.380
       0.320
       0.251
       0.163
       0.054
      -0.066
      -0.181
      -0.274
      -0.332
      -0.349
      -0.325
      -0.267
      -0.185
      -0.096
      -0.018
       0.037
       0.069
       0.086
       0.094
       0.093
       0.078
       0.040
      -0.028
      -0.125
      -0.230
      -0.313
      -0.348
      -0.332
      -0.286
      -0.232
      -0.185
      -0.146
      -0.110
      -0.073
      -0.022
       0.060
       0.190
       0.357
       0.519
       0.626
       0.649
       0.599
       0.508
       0.409
       0.323
       0.257
       0.218
       0.209
       0.220
       0.234
       0.233
       0.209
       0.172
       0.130
       0.085
       0.033
      -0.031
      -0.100
      -0.156
      -0.186
      -0.196
      -0.213
      -0.270
      -0.381
      -0.536
      -0.705
      -0.858
      -0.972
      -1.039
      -1.054
      -1.018
      -0.939
      -0.829
      -0.704
      -0.574
      -0.447
      -0.328
      -0.225
      -0.149
      -0.102
      -0.077
      -0.054
      -0.011
       0.061
       0.157
       0.266
       0.373
       0.464
       0.534
