Origin Time       18/9/2011 12:40:47	
Lat.              27.6 N	
Long.             88.2 E	
Depth (Km)         10.0
Magnitude         6.8
 Region           India(Sikkim)-Nepar-Border                                       
 Above details taken from IMD 
   
Station Code      RAX
Station Lat.       26.982
Station Long.      84.843
Station Height(m)   50.0
Site Class        C   Vs30 between 200 m/sec to 375 m/sec *  
Record Time       18.09.2011 12:42:02.729
Sampling Rate     200. Hz
 Record Duration  124.725 Sec.
 Direction         Vert. (Up positive)
Max. Acceleration    -12.856 cm/sec**2
     
  * For reference see Site Classification link of website 
     
 Base Line Corrected and Low Pass Filtered (Cut Off at 35 Hz) Time History
 Acceleration data in cm/sec**2
    
[...]
      -9.168
      -9.551
      -9.321
      -8.336
      -6.696
      -4.771
      -3.062
      -1.975
      -1.639
      -1.860
      -2.211
      -2.213
      -1.551
      -0.226
       1.451
       3.047
       4.243
       4.957
       5.287
       5.375
       5.336
       5.300
       5.461
       5.988
       6.834
       7.635
       7.858
       7.156
       5.638
       3.823
       2.312
       1.430
       1.115
       1.080
       1.069
       0.990
       0.860
       0.677
       0.365
      -0.171
      -0.934
      -1.794
      -2.546
      -3.022
      -3.161
      -3.004
      -2.651
      -2.216
      -1.780
      -1.363
      -0.915
      -0.366
       0.266
       0.824
       1.093
       0.981
       0.642
       0.394
       0.511
       1.046
       1.831
       2.586
       3.048
       3.032
       2.461
       1.412
       0.144
      -0.971
      -1.603
      -1.634
      -1.191
      -0.551
       0.004
       0.287
       0.223
      -0.180
      -0.840
      -1.586
      -2.171
      -2.339
      -1.953
      -1.088
      -0.019
       0.891
       1.348
       1.223
       0.571
      -0.420
      -1.475
      -2.298
      -2.669
      -2.551
      -2.122
      -1.656
      -1.326
      -1.092
      -0.783
      -0.282
       0.356
       0.974
       1.474
       1.895
       2.321
       2.723
       2.881
       2.503
       1.439
      -0.164
      -1.874
      -3.137
      -3.496
      -2.782
      -1.192
       0.798
       2.626
       3.863
       4.317
       4.013
       3.083
       1.708
       0.145
      -1.243
      -2.078
      -2.150
      -1.563
      -0.673
       0.124
       0.608
       0.802
       0.863
       0.937
       1.068
       1.200
       1.230
       1.057
       0.618
      -0.086
      -0.992
      -2.004
      -3.007
      -3.844
      -4.275
      -4.046
      -3.061
      -1.567
      -0.121
       0.681
       0.534
      -0.418
      -1.707
      -2.806
      -3.347
      -3.188
      -2.379
      -1.138
       0.166
       1.098
       1.344
       0.861
      -0.122
      -1.251
      -2.197
      -2.741
      -2.793
      -2.413
      -1.788
      -1.143
      -0.615
      -0.203
       0.156
       0.451
       0.567
       0.411
       0.085
      -0.090
       0.240
       1.204
       2.587
       3.927
       4.762
       4.852
       4.270
       3.327
       2.392
       1.692
       1.226
       0.823
       0.287
      -0.468
      -1.403
      -2.421
      -3.404
      -4.166
      -4.422
      -3.881
      -2.478
      -0.564
       1.156
       1.989
       1.673
       0.544
      -0.713
      -1.508
      -1.648
      -1.304
      -0.763
      -0.233
       0.181
       0.409
       0.389
       0.100
      -0.420
      -1.090
      -1.807
      -2.437
      -2.817
      -2.832
      -2.505
      -2.017
      -1.592
      -1.357
      -1.309
      -1.386
      -1.523
      -1.612
      -1.448
      -0.793
       0.424
       1.956
       3.294
       3.912
       3.554
       2.353
       0.766
      -0.624
      -1.348
      -1.237
      -0.478
       0.499
       1.272
       1.647
       1.711
       1.701
       1.835
       2.229
       2.921
       3.908
       5.106
       6.297
       7.145
       7.354
       6.851
       5.860
       4.793
       4.035
       3.772
       3.935
       4.262
       4.408
       4.087
       3.186
       1.811
       0.236
      -1.223
      -2.316
      -2.920
      -3.059
      -2.926
      -2.859
      -3.214
      -4.120
      -5.336
      -6.349
      -6.701
      -6.262
      -5.261
      -4.073
      -3.017
      -2.308
      -2.096
      -2.399
      -2.969
      -3.286
      -2.817
      -1.391
       0.637
       2.596
       3.908
       4.354
       4.058
       3.281
       2.283
       1.318
       0.644
       0.443
       0.686
       1.089
       1.219
       0.692
      -0.660
      -2.676
      -4.857
      -6.501
      -6.991
      -6.127
      -4.275
      -2.193
      -0.635
      -0.017
      -0.336
      -1.283
      -2.400
      -3.212
      -3.370
      -2.810
      -1.824
      -0.922
      -0.528
      -0.705
      -1.150
      -1.427
      -1.251
      -0.598
       0.387
       1.534
       2.697
       3.716
       4.396
       4.578
       4.229
       3.446
       2.366
       1.084
      -0.321
      -1.690
      -2.741
      -3.165
      -2.828
      -1.912
      -0.859
      -0.155
      -0.085
      -0.627
      -1.496
      -2.298
      -2.702
      -2.562
      -1.951
      -1.091
      -0.218
       0.536
       1.168
       1.752
       2.357
       3.015
       3.725
       4.448
       5.073
       5.414
       5.283
       4.600
       3.467
       2.158
       1.039
       0.442
       0.530
       1.221
       2.226
       3.215
       3.968
       4.411
       4.529
       4.288
       3.653
       2.647
       1.369
      -0.033
      -1.395
      -2.537
      -3.307
      -3.654
      -3.669
      -3.502
      -3.221
      -2.791
      -2.226
      -1.725
      -1.585
      -1.920
      -2.496
      -2.873
      -2.757
      -2.203
      -1.488
      -0.840
      -0.305
       0.159
       0.546
       0.810
       0.980
       1.188
       1.538
       1.943
       2.117
       1.762
       0.807
      -0.505
      -1.760
      -2.620
      -2.987
      -2.959
      -2.666
      -2.173
      -1.525
      -0.853
      -0.380
      -0.279
      -0.520
      -0.881
      -1.113
      -1.123
      -0.999
      -0.897
      -0.905
      -1.005
      -1.118
      -1.148
      -1.019
      -0.702
      -0.240
       0.254
       0.645
       0.813
       0.675
       0.224
      -0.397
      -0.890
      -0.921
      -0.321
       0.791
       2.051
       3.040
       3.478
       3.286
       2.517
       1.291
      -0.216
      -1.749
      -3.011
      -3.766
      -3.952
      -3.703
      -3.260
      -2.801
      -2.334
      -1.746
      -0.982
      -0.174
       0.413
       0.589
       0.397
       0.081
      -0.089
       0.033
       0.447
       1.061
       1.728
       2.240
       2.376
       2.020
       1.282
       0.486
       0.014
       0.131
       0.886
       2.095
       3.368
       4.232
       4.374
       3.863
       3.173
       2.929
       3.524
       4.900
       6.621
       8.125
       8.917
       8.642
       7.136
       4.537
       1.371
      -1.556
      -3.477
      -4.017
      -3.344
      -2.042
      -0.824
      -0.255
      -0.568
      -1.629
      -3.036
      -4.322
      -5.156
      -5.461
      -5.386
      -5.180
      -5.073
      -5.232
      -5.739
      -6.551
      -7.441
      -8.024
      -7.895
      -6.816
      -4.806
      -2.123
       0.807
       3.486
       5.461
       6.480
       6.605
       6.184
       5.672
       5.422
       5.572
       6.058
       6.684
       7.156
       7.136
       6.381
       4.923
       3.119
       1.457
       0.253
      -0.524
      -1.144
      -1.851
      -2.699
      -3.597
      -4.462
      -5.288
      -6.084
      -6.778
      -7.218
      -7.255
      -6.836
      -6.026
      -4.948
      -3.724
      -2.430
      -1.106
       0.190
       1.332
       2.128
       2.448
       2.370
       2.215
       2.374
       3.063
       4.175
       5.345
       6.158
       6.348
       5.858
       4.793
       3.380
       1.978
       1.033
       0.914
       1.663
       2.895
       3.942
       4.193
       3.396
       1.750
      -0.261
      -2.141
      -3.606
      -4.625
      -5.314
      -5.795
      -6.117
      -6.261
      -6.173
      -5.778
      -4.995
      -3.773
      -2.153
      -0.295
       1.570
       3.232
       4.545
       5.403
       5.683
       5.277
       4.195
       2.638
       0.956
      -0.502
      -1.494
      -1.917
      -1.796
      -1.278
      -0.623
      -0.123
       0.038
      -0.139
      -0.515
      -0.929
      -1.275
      -1.474
      -1.459
      -1.234
      -0.953
      -0.860
      -1.092
      -1.528
      -1.871
      -1.876
      -1.500
      -0.877
      -0.185
       0.419
       0.799
       0.845
       0.539
       0.031
      -0.406
      -0.510
      -0.172
       0.531
       1.394
       2.202
       2.835
       3.285
       3.562
       3.551
       2.995
       1.676
      -0.304
      -2.433
      -4.019
      -4.601
      -4.214
      -3.312
      -2.437
      -1.936
      -1.873
      -2.110
      -2.422
      -2.570
      -2.387
      -1.833
      -1.005
      -0.075
       0.753
       1.273
       1.335
       0.957
       0.382
      -0.036
      -0.061
       0.272
       0.724
       1.056
       1.164
       1.045
       0.728
       0.302
      -0.012
       0.081
       0.739
       1.802
       2.851
       3.474
       3.497
       3.017
       2.253
       1.394
       0.530
      -0.317
      -1.139
      -1.879
      -2.418
      -2.582
      -2.217
      -1.261
       0.202
       1.941
       3.588
       4.714
       5.002
       4.458
       3.448
       2.463
       1.787
       1.392
       1.124
       0.935
       0.886
       0.931
       0.798
       0.177
      -0.922
      -2.047
      -2.592
      -2.246
      -1.193
       0.083
       1.156
       1.834
       2.111
       2.071
       1.866
       1.727
       1.866
       2.330
       2.932
       3.374
       3.452
       3.176
       2.711
       2.204
       1.676
       1.061
       0.326
      -0.432
      -1.028
      -1.334
      -1.412
      -1.484
      -1.756
      -2.237
      -2.747
      -3.106
      -3.288
      -3.377
      -3.413
      -3.335
      -3.094
      -2.765
      -2.517
      -2.455
      -2.525
      -2.585
      -2.541
      -2.393
      -2.148
      -1.752
      -1.149
      -0.388
       0.382
       1.042
       1.614
       2.223
       2.944
       3.710
       4.363
       4.748
       4.762
       4.335
       3.425
       2.072
       0.436
      -1.246
      -2.766
      -4.013
      -4.968
      -5.665
      -6.170
      -6.560
      -6.872
      -7.030
      -6.848
      -6.149
      -4.917
      -3.350
      -1.769
      -0.451
       0.480
       1.068
       1.461
       1.863
       2.509
       3.589
       5.119
       6.863
       8.404
       9.348
       9.510
       8.939
       7.823
       6.368
       4.783
       3.313
       2.235
       1.730
       1.708
       1.795
       1.556
       0.804
      -0.284
      -1.348
      -2.128
      -2.605
      -2.911
      -3.148
      -3.320
      -3.417
      -3.525
      -3.813
      -4.395
      -5.217
      -6.063
      -6.681
      -6.901
      -6.686
      -6.093
      -5.207
      -4.096
      -2.819
      -1.482
      -0.291
       0.517
       0.837
       0.801
       0.723
       0.898
       1.430
       2.217
       3.079
       3.870
       4.472
       4.720
       4.417
       3.484
       2.086
       0.595
      -0.586
      -1.209
      -1.262
      -0.938
      -0.523
      -0.245
      -0.174
      -0.229
      -0.299
      -0.372
      -0.568
      -1.046
      -1.871
      -2.957
      -4.124
      -5.191
      -6.028
      -6.544
      -6.669
      -6.374
      -5.718
      -4.840
      -3.876
      -2.875
      -1.771
      -0.459
       1.111
       2.888
       4.743
       6.516
       8.026
       9.072
       9.471
       9.154
       8.233
       6.953
       5.575
       4.274
       3.131
       2.173
       1.364
       0.576
      -0.388
      -1.655
      -3.141
      -4.552
      -5.571
      -6.058
      -6.063
      -5.683
      -4.945
      -3.846
      -2.491
      -1.142
      -0.121
       0.362
       0.318
      -0.041
      -0.396
      -0.456
      -0.075
       0.668
       1.485
       2.031
       2.100
       1.737
       1.187
       0.741
       0.598
       0.821
       1.353
       2.056
       2.761
       3.311
       3.601
       3.600
       3.367
       3.053
       2.842
       2.834
       2.958
       3.013
       2.832
       2.417
       1.904
       1.380
       0.753
      -0.139
      -1.287
      -2.393
      -3.040
      -2.994
      -2.340
      -1.337
      -0.159
       1.178
       2.652
       4.024
       4.864
       4.793
       3.750
       2.023
       0.051
      -1.787
      -3.263
      -4.294
      -4.944
      -5.423
      -6.021
      -6.925
      -8.066
      -9.107
      -9.610
      -9.247
      -7.957
      -5.991
      -3.848
      -2.086
      -1.070
      -0.781
      -0.865
      -0.872
      -0.515
       0.273
       1.449
       2.956
       4.655
       6.206
       7.122
       7.023
       5.898
       4.118
       2.215
       0.616
      -0.467
      -0.967
      -0.886
      -0.330
       0.414
       0.925
       0.849
       0.111
      -1.039
      -2.166
      -2.855
      -2.845
      -2.093
      -0.800
       0.593
       1.510
       1.477
       0.392
      -1.358
      -3.080
      -4.134
      -4.244
      -3.557
      -2.478
      -1.441
      -0.750
      -0.528
      -0.709
      -1.065
      -1.259
      -0.980
      -0.107
       1.190
       2.534
       3.552
       4.069
       4.146
       3.957
       3.669
       3.418
       3.393
       3.835
       4.887
       6.394
       7.887
       8.814
       8.853
       8.054
       6.719
       5.178
       3.638
       2.158
       0.702
      -0.790
      -2.343
      -3.927
      -5.501
      -7.060
      -8.638
     -10.222
     -11.651
     -12.620
     -12.856
     -12.303
     -11.158
      -9.710
      -8.166
      -6.627
      -5.177
      -3.921
      -2.890
      -1.928
      -0.752
       0.828
       2.721
       4.568
       5.968
       6.708
       6.845
       6.581
       6.096
       5.475
       4.786
       4.183
       3.918
       4.186
       4.945
       5.899
       6.690
       7.102
       7.112
       6.751
       5.989
       4.780
       3.205
       1.530
       0.063
      -1.073
      -2.021
      -3.051
      -4.331
      -5.823
      -7.329
      -8.605
      -9.429
      -9.638
      -9.152
      -8.004
      -6.331
      -4.334
      -2.246
      -0.311
       1.242
       2.256
       2.733
       2.842
       2.840
       2.952
       3.270
       3.727
       4.116
       4.166
       3.655
       2.510
       0.838
      -1.102
      -2.952
      -4.320
      -4.871
      -4.464
      -3.270
      -1.728
      -0.348
       0.509
       0.698
       0.227
      -0.784
      -2.051
      -3.114
      -3.507
      -3.044
      -1.961
      -0.747
       0.187
       0.694
       0.827
       0.677
       0.319
      -0.115
      -0.400
      -0.318
       0.211
       1.099
       2.176
       3.288
       4.312
       5.118
       5.585
       5.648
       5.338
       4.737
       3.906
       2.900
       1.848
       0.984
       0.529
       0.529
       0.794
       1.029
       1.035
       0.797
       0.394
      -0.145
      -0.880
      -1.821
      -2.789
      -3.449
      -3.549
      -3.142
      -2.579
      -2.242
      -2.255
      -2.440
      -2.536
      -2.436
      -2.214
      -1.961
      -1.643
      -1.142
      -0.396
       0.510
       1.358
       1.870
       1.786
       0.959
      -0.537
      -2.375
      -4.081
      -5.237
      -5.660
      -5.425
      -4.783
      -4.052
      -3.534
      -3.437
      -3.750
      -4.173
      -4.200
      -3.383
      -1.597
       0.850
       3.360
       5.317
       6.339
       6.409
       5.858
       5.226
       5.027
       5.507
       6.528
       7.640
       8.302
       8.113
       6.947
       4.945
       2.434
      -0.167
      -2.410
      -3.874
      -4.266
      -3.573
      -2.165
      -0.711
       0.125
       0.043
      -0.770
      -1.849
      -2.797
      -3.491
      -4.012
      -4.453
      -4.802
      -4.964
      -4.850
      -4.435
      -3.765
      -2.911
      -1.907
      -0.711
       0.742
       2.423
       4.132
       5.575
       6.532
       6.974
       6.994
       6.662
       5.973
       4.949
       3.754
       2.685
       2.042
       1.977
       2.424
       3.104
       3.606
       3.555
       2.803
       1.525
       0.079
      -1.249
      -2.408
      -3.472
      -4.428
      -5.113
      -5.388
      -5.319
      -5.160
      -5.122
      -5.182
      -5.107
      -4.659
      -3.794
      -2.707
      -1.725
      -1.131
      -1.009
      -1.187
      -1.328
      -1.115
      -0.440
       0.541
       1.516
       2.214
       2.568
       2.731
       2.962
       3.435
       4.127
       4.846
       5.366
       5.547
       5.333
       4.655
       3.407
       1.589
      -0.517
      -2.370
      -3.458
      -3.629
      -3.144
      -2.425
      -1.732
      -1.074
      -0.381
       0.316
       0.900
       1.319
       1.682
       2.182
       2.929
       3.859
       4.750
       5.302
       5.236
       4.406
       2.895
       1.013
      -0.835
      -2.334
      -3.348
      -3.877
      -3.995
      -3.849
      -3.660
      -3.642
      -3.859
      -4.167
      -4.337
      -4.235
      -3.888
      -3.386
      -2.758
      -1.957
      -0.943
       0.248
       1.518
       2.766
       3.892
       4.779
       5.304
       5.414
       5.179
       4.770
       4.365
       4.080
       3.957
       3.996
       4.141
       4.254
       4.136
       3.640
       2.774
       1.701
       0.616
      -0.374
      -1.285
      -2.193
      -3.138
      -4.079
      -4.906
      -5.496
      -5.737
      -5.541
      -4.860
      -3.731
      -2.316
      -0.880
       0.288
       1.006
       1.301
       1.412
       1.671
       2.309
       3.294
       4.328
       5.020
       5.123
       4.670
       3.920
       3.192
       2.694
       2.454
       2.338
       2.120
       1.579
       0.601
      -0.776
      -2.408
      -4.149
      -5.912
      -7.601
      -9.007
      -9.822
      -9.825
      -9.101
      -8.050
      -7.137
      -6.572
      -6.198
      -5.632
      -4.541
      -2.811
      -0.563
       1.908
       4.199
       5.882
       6.652
       6.499
       5.767
       5.001
       4.670
       4.942
       5.647
       6.414
       6.861
       6.743
       6.020
       4.842
       3.462
       2.116
       0.939
      -0.064
      -0.963
      -1.832
      -2.709
      -3.587
      -4.418
      -5.104
      -5.520
      -5.562
      -5.218
      -4.589
      -3.839
      -3.091
      -2.366
      -1.611
      -0.814
      -0.089
       0.362
       0.421
       0.192
      -0.025
       0.071
       0.587
       1.371
       2.107
       2.465
       2.239
       1.414
       0.165
      -1.224
      -2.483
      -3.460
      -4.128
      -4.517
      -4.641
      -4.485
      -4.024
      -3.251
      -2.184
      -0.873
       0.592
       2.100
       3.537
       4.791
       5.723
       6.170
       6.050
       5.493
       4.887
       4.683
       5.085
       5.857
       6.442
       6.294
       5.170
       3.219
       0.872
      -1.331
      -2.909
      -3.611
      -3.535
      -3.098
      -2.814
      -2.993
      -3.609
      -4.401
      -5.105
      -5.571
      -5.746
      -5.582
      -5.034
      -4.107
      -2.891
      -1.561
