Origin Time       18/9/2011 12:40:47	 UTC
Lat.              27.6 N	
Long.             88.2 E	
Depth (Km)         10.0
Magnitude         6.8
 Region           India(Sikkim)-Nepar-Border                                       
 Above details taken from IMD 
    
Station Code      RAX
Station Lat.       26.982  N
Station Long.      84.843  E
Station Height(m)   50.0
Site Class        C   Vs30 between 200 m/sec to 375 m/sec *  
Record Time       18.09.2011 12:42:02.729 UTC
Sampling Rate     200. Hz
 Record Duration  124.725 Sec.
 Direction         N-S (N positive)
Max. Acceleration     27.938 cm/sec**2
     
  * For reference see Site Classification link of website 
     
 Base Line Corrected and Low Pass Filtered (Cut Off at 35 Hz) Time History
 Acceleration data in cm/sec**2
    
[...]
      -6.291
      -6.021
      -5.826
      -5.632
      -5.324
      -4.796
      -3.986
      -2.904
      -1.613
      -0.202
       1.254
       2.710
       4.140
       5.518
       6.803
       7.954
       8.941
       9.773
      10.488
      11.139
      11.748
      12.299
      12.742
      13.024
      13.105
      12.953
      12.542
      11.854
      10.904
       9.748
       8.475
       7.178
       5.938
       4.803
       3.789
       2.882
       2.054
       1.276
       0.522
      -0.243
      -1.065
      -1.981
      -2.983
      -4.010
      -4.961
      -5.738
      -6.275
      -6.544
      -6.538
      -6.256
      -5.692
      -4.850
      -3.765
      -2.504
      -1.155
       0.198
       1.483
       2.643
       3.642
       4.476
       5.172
       5.775
       6.321
       6.822
       7.260
       7.602
       7.817
       7.897
       7.860
       7.738
       7.565
       7.360
       7.132
       6.890
       6.644
       6.402
       6.166
       5.927
       5.674
       5.399
       5.091
       4.733
       4.296
       3.754
       3.092
       2.294
       1.348
       0.240
      -1.029
      -2.421
      -3.870
      -5.303
      -6.664
      -7.914
      -9.021
      -9.945
     -10.651
     -11.125
     -11.385
     -11.471
     -11.423
     -11.271
     -11.045
     -10.776
     -10.491
     -10.208
      -9.930
      -9.655
      -9.379
      -9.097
      -8.794
      -8.450
      -8.040
      -7.550
      -6.979
      -6.344
      -5.665
      -4.956
      -4.224
      -3.485
      -2.781
      -2.185
      -1.763
      -1.538
      -1.469
      -1.462
      -1.408
      -1.231
      -0.920
      -0.525
      -0.123
       0.227
       0.509
       0.746
       0.978
       1.239
       1.542
       1.878
       2.230
       2.583
       2.929
       3.266
       3.578
       3.832
       3.986
       4.005
       3.866
       3.553
       3.060
       2.402
       1.624
       0.800
       0.017
      -0.637
      -1.081
      -1.246
      -1.082
      -0.571
       0.259
       1.329
       2.524
       3.727
       4.855
       5.877
       6.801
       7.651
       8.440
       9.170
       9.837
      10.431
      10.930
      11.305
      11.525
      11.558
      11.370
      10.932
      10.237
       9.309
       8.203
       6.984
       5.712
       4.444
       3.230
       2.122
       1.155
       0.342
      -0.331
      -0.886
      -1.340
      -1.701
      -1.977
      -2.181
      -2.336
      -2.471
      -2.613
      -2.767
      -2.915
      -3.011
      -2.998
      -2.829
      -2.492
      -2.013
      -1.448
      -0.872
      -0.369
      -0.027
       0.075
      -0.118
      -0.618
      -1.397
      -2.378
      -3.461
      -4.546
      -5.577
      -6.552
      -7.502
      -8.442
      -9.353
     -10.188
     -10.906
     -11.497
     -11.980
     -12.387
     -12.744
     -13.049
     -13.275
     -13.377
     -13.312
     -13.058
     -12.624
     -12.039
     -11.331
     -10.516
      -9.599
      -8.573
      -7.426
      -6.131
      -4.658
      -2.980
      -1.088
       0.988
       3.172
       5.349
       7.401
       9.235
      10.808
      12.124
      13.197
      14.018
      14.532
      14.651
      14.303
      13.468
      12.181
      10.513
       8.537
       6.330
       3.978
       1.582
      -0.752
      -2.923
      -4.834
      -6.397
      -7.533
      -8.188
      -8.337
      -7.989
      -7.179
      -5.954
      -4.365
      -2.472
      -0.344
       1.924
       4.225
       6.452
       8.528
      10.413
      12.096
      13.582
      14.883
      16.001
      16.929
      17.642
      18.109
      18.300
      18.202
      17.830
      17.233
      16.487
      15.677
      14.862
      14.046
      13.188
      12.235
      11.166
      10.014
       8.854
       7.760
       6.773
       5.891
       5.077
       4.288
       3.496
       2.687
       1.853
       0.979
       0.044
      -0.958
      -2.005
      -3.051
      -4.054
      -4.991
      -5.846
      -6.590
      -7.170
      -7.528
      -7.635
      -7.509
      -7.209
      -6.806
      -6.374
      -5.984
      -5.702
      -5.581
      -5.640
      -5.858
      -6.185
      -6.566
      -6.971
      -7.419
      -7.966
      -8.669
      -9.554
     -10.604
     -11.783
     -13.060
     -14.409
     -15.789
     -17.146
     -18.416
     -19.546
     -20.489
     -21.191
     -21.594
     -21.640
     -21.292
     -20.550
     -19.444
     -18.030
     -16.369
     -14.516
     -12.532
     -10.496
      -8.509
      -6.674
      -5.083
      -3.805
      -2.889
      -2.343
      -2.131
      -2.169
      -2.355
      -2.605
      -2.879
      -3.167
      -3.469
      -3.780
      -4.093
      -4.402
      -4.678
      -4.862
      -4.855
      -4.551
      -3.879
      -2.820
      -1.409
       0.291
       2.210
       4.274
       6.393
       8.465
      10.389
      12.090
      13.538
      14.744
      15.730
      16.506
      17.062
      17.382
      17.460
      17.308
      16.945
      16.390
      15.655
      14.752
      13.699
      12.515
      11.217
       9.814
       8.317
       6.749
       5.145
       3.540
       1.959
       0.432
      -0.994
      -2.263
      -3.327
      -4.166
      -4.787
      -5.217
      -5.482
      -5.603
      -5.580
      -5.393
      -5.006
      -4.382
      -3.500
      -2.367
      -1.020
       0.473
       2.028
       3.567
       5.029
       6.376
       7.574
       8.571
       9.291
       9.644
       9.557
       9.000
       7.992
       6.584
       4.845
       2.847
       0.664
      -1.617
      -3.881
      -5.995
      -7.840
      -9.348
     -10.533
     -11.482
     -12.312
     -13.121
     -13.956
     -14.812
     -15.636
     -16.345
     -16.847
     -17.069
     -16.972
     -16.547
     -15.799
     -14.731
     -13.358
     -11.710
      -9.839
      -7.802
      -5.661
      -3.480
      -1.331
       0.717
       2.610
       4.313
       5.806
       7.082
       8.148
       9.008
       9.658
      10.083
      10.277
      10.274
      10.142
       9.947
       9.720
       9.466
       9.196
       8.949
       8.787
       8.766
       8.909
       9.196
       9.579
      10.012
      10.465
      10.923
      11.367
      11.743
      11.973
      11.974
      11.682
      11.066
      10.117
       8.851
       7.321
       5.620
       3.862
       2.146
       0.540
      -0.898
      -2.098
      -2.977
      -3.464
      -3.527
      -3.181
      -2.472
      -1.467
      -0.253
       1.077
       2.437
       3.751
       4.964
       6.029
       6.905
       7.554
       7.940
       8.030
       7.807
       7.273
       6.447
       5.349
       3.988
       2.358
       0.458
      -1.703
      -4.096
      -6.676
      -9.373
     -12.090
     -14.707
     -17.099
     -19.155
     -20.797
     -21.985
     -22.724
     -23.045
     -22.984
     -22.554
     -21.748
     -20.553
     -18.982
     -17.083
     -14.918
     -12.540
      -9.997
      -7.341
      -4.643
      -1.985
       0.552
       2.888
       4.949
       6.677
       8.033
       9.001
       9.575
       9.755
       9.542
       8.956
       8.040
       6.861
       5.494
       4.008
       2.465
       0.915
      -0.598
      -2.023
      -3.301
      -4.369
      -5.181
      -5.725
      -6.020
      -6.086
      -5.915
      -5.475
      -4.742
      -3.736
      -2.536
      -1.250
       0.014
       1.183
       2.225
       3.138
       3.947
       4.697
       5.439
       6.197
       6.945
       7.609
       8.097
       8.351
       8.363
       8.161
       7.778
       7.228
       6.510
       5.633
       4.616
       3.485
       2.257
       0.936
      -0.471
      -1.933
      -3.389
      -4.778
      -6.060
      -7.243
      -8.354
      -9.413
     -10.393
     -11.233
     -11.857
     -12.201
     -12.225
     -11.905
     -11.230
     -10.210
      -8.880
      -7.295
      -5.517
      -3.618
      -1.679
       0.194
       1.881
       3.276
       4.330
       5.063
       5.553
       5.896
       6.167
       6.403
       6.596
       6.715
       6.722
       6.585
       6.296
       5.868
       5.335
       4.728
       4.057
       3.290
       2.377
       1.272
      -0.040
      -1.540
      -3.188
      -4.931
      -6.705
      -8.435
     -10.038
     -11.428
     -12.519
     -13.230
     -13.503
     -13.318
     -12.695
     -11.679
     -10.324
      -8.684
      -6.820
      -4.802
      -2.719
      -0.663
       1.281
       3.042
       4.564
       5.788
       6.656
       7.118
       7.159
       6.811
       6.146
       5.254
       4.224
       3.145
       2.103
       1.189
       0.491
       0.073
      -0.039
       0.135
       0.558
       1.197
       2.053
       3.150
       4.504
       6.083
       7.809
       9.588
      11.356
      13.092
      14.795
      16.448
      18.006
      19.412
      20.623
      21.603
      22.321
      22.743
      22.841
      22.606
      22.032
      21.114
      19.835
      18.182
      16.158
      13.787
      11.116
       8.205
       5.121
       1.937
      -1.271
      -4.419
      -7.424
     -10.220
     -12.772
     -15.059
     -17.035
     -18.604
     -19.645
     -20.089
     -19.963
     -19.376
     -18.441
     -17.222
     -15.753
     -14.095
     -12.344
     -10.589
      -8.855
      -7.104
      -5.301
      -3.478
      -1.751
      -0.257
       0.924
       1.812
       2.517
       3.174
       3.885
       4.698
       5.624
       6.663
       7.800
       8.982
      10.111
      11.057
      11.701
      11.962
      11.809
      11.267
      10.411
       9.355
       8.227
       7.139
       6.157
       5.302
       4.566
       3.936
       3.399
       2.940
       2.538
       2.163
       1.783
       1.373
       0.919
       0.429
      -0.076
      -0.576
      -1.060
      -1.529
      -1.968
      -2.337
      -2.580
      -2.656
      -2.554
      -2.290
      -1.891
      -1.394
      -0.850
      -0.317
       0.159
       0.566
       0.906
       1.162
       1.284
       1.214
       0.922
       0.407
      -0.337
      -1.343
      -2.661
      -4.309
      -6.243
      -8.353
     -10.506
     -12.590
     -14.530
     -16.280
     -17.784
     -18.962
     -19.734
     -20.062
     -19.968
     -19.519
     -18.782
     -17.787
     -16.514
     -14.923
     -12.981
     -10.696
      -8.124
      -5.371
      -2.578
       0.119
       2.629
       4.926
       7.025
       8.938
      10.649
      12.121
      13.322
      14.248
      14.902
      15.272
      15.320
      15.007
      14.320
      13.272
      11.896
      10.231
       8.314
       6.182
       3.865
       1.404
      -1.136
      -3.655
      -6.039
      -8.181
      -9.993
     -11.396
     -12.310
     -12.659
     -12.400
     -11.541
     -10.140
      -8.293
      -6.117
      -3.745
      -1.309
       1.075
       3.317
       5.351
       7.129
       8.613
       9.776
      10.593
      11.039
      11.093
      10.744
      10.011
       8.942
       7.610
       6.083
       4.415
       2.650
       0.834
      -0.984
      -2.754
      -4.433
      -5.983
      -7.382
      -8.615
      -9.677
     -10.559
     -11.242
     -11.711
     -11.973
     -12.064
     -12.046
     -11.981
     -11.911
     -11.840
     -11.742
     -11.578
     -11.312
     -10.918
     -10.379
      -9.686
      -8.831
      -7.806
      -6.606
      -5.239
      -3.731
      -2.127
      -0.483
       1.151
       2.742
       4.271
       5.725
       7.093
       8.358
       9.495
      10.478
      11.284
      11.896
      12.300
      12.484
      12.442
      12.180
      11.718
      11.079
      10.284
       9.359
       8.352
       7.330
       6.359
       5.480
       4.717
       4.078
       3.575
       3.218
       3.009
       2.936
       2.977
       3.111
       3.341
       3.696
       4.218
       4.929
       5.797
       6.739
       7.649
       8.439
       9.066
       9.510
       9.757
       9.792
       9.606
       9.205
       8.603
       7.810
       6.813
       5.582
       4.082
       2.299
       0.261
      -1.951
      -4.213
      -6.375
      -8.284
      -9.801
     -10.799
     -11.185
     -10.912
      -9.993
      -8.506
      -6.566
      -4.306
      -1.863
       0.631
       3.047
       5.272
       7.214
       8.801
       9.974
      10.680
      10.860
      10.462
       9.461
       7.878
       5.784
       3.300
       0.577
      -2.213
      -4.909
      -7.372
      -9.508
     -11.256
     -12.576
     -13.438
     -13.844
     -13.847
     -13.546
     -13.046
     -12.415
     -11.687
     -10.894
     -10.105
      -9.412
      -8.895
      -8.588
      -8.488
      -8.571
      -8.809
      -9.171
      -9.612
     -10.059
     -10.413
     -10.571
     -10.461
     -10.061
      -9.408
      -8.577
      -7.662
      -6.748
      -5.908
      -5.196
      -4.649
      -4.279
      -4.078
      -4.011
      -4.032
      -4.084
      -4.101
      -4.008
      -3.720
      -3.167
      -2.308
      -1.145
       0.300
       2.018
       4.024
       6.338
       8.944
      11.766
      14.667
      17.501
      20.153
      22.555
      24.648
      26.339
      27.487
      27.938
      27.594
      26.459
      24.634
      22.263
      19.489
      16.433
      13.206
       9.905
       6.605
       3.353
       0.183
      -2.853
      -5.691
      -8.285
     -10.641
     -12.799
     -14.794
     -16.605
     -18.152
     -19.332
     -20.079
     -20.391
     -20.317
     -19.929
     -19.279
     -18.390
     -17.263
     -15.912
     -14.389
     -12.782
     -11.194
      -9.716
      -8.403
      -7.282
      -6.367
      -5.667
      -5.191
      -4.928
      -4.842
      -4.870
      -4.960
      -5.092
      -5.264
      -5.470
      -5.673
      -5.811
      -5.814
      -5.626
      -5.214
      -4.577
      -3.744
      -2.764
      -1.689
      -0.564
       0.563
       1.616
       2.477
       3.020
       3.159
       2.876
       2.207
       1.202
      -0.081
      -1.560
      -3.132
      -4.690
      -6.140
      -7.409
      -8.429
      -9.137
      -9.474
      -9.403
      -8.909
      -8.004
      -6.718
      -5.099
      -3.206
      -1.121
       1.048
       3.164
       5.071
       6.639
       7.798
       8.543
       8.903
       8.909
       8.590
       7.997
       7.217
       6.352
       5.488
       4.672
       3.918
       3.231
       2.631
       2.129
       1.713
       1.335
       0.943
       0.517
       0.078
      -0.322
      -0.647
      -0.906
      -1.145
      -1.415
      -1.742
      -2.130
      -2.585
      -3.115
      -3.721
      -4.377
      -5.033
      -5.643
      -6.172
      -6.575
      -6.783
      -6.713
      -6.305
      -5.563
      -4.550
      -3.357
      -2.075
      -0.774
       0.485
       1.634
       2.585
       3.235
       3.494
       3.317
       2.731
       1.842
       0.799
      -0.248
      -1.191
      -1.976
      -2.598
      -3.074
      -3.424
      -3.651
      -3.733
      -3.638
      -3.352
      -2.891
      -2.302
      -1.623
      -0.863
      -0.011
       0.933
       1.942
       2.969
       3.961
       4.862
       5.613
       6.164
       6.491
       6.595
       6.488
       6.176
       5.662
       4.957
       4.085
       3.081
       1.990
       0.882
      -0.147
      -0.989
      -1.562
      -1.835
      -1.820
      -1.549
      -1.064
      -0.414
       0.340
       1.138
       1.938
       2.727
       3.519
       4.349
       5.248
       6.231
       7.265
       8.280
       9.194
       9.947
      10.509
      10.871
      11.035
      11.020
      10.873
      10.659
      10.446
      10.270
      10.123
       9.955
       9.701
       9.320
       8.819
       8.244
       7.642
       7.036
       6.428
       5.824
       5.248
       4.734
       4.304
       3.962
       3.710
       3.559
       3.537
       3.665
       3.950
       4.379
       4.935
       5.607
       6.380
       7.225
       8.079
       8.855
       9.452
       9.777
       9.775
       9.432
       8.770
       7.815
       6.571
       5.023
       3.170
       1.050
      -1.249
      -3.608
      -5.910
      -8.058
      -9.986
     -11.639
     -12.965
     -13.902
     -14.389
     -14.389
     -13.910
     -13.012
     -11.788
     -10.340
      -8.746
      -7.050
      -5.281
      -3.466
      -1.651
       0.105
       1.743
       3.214
       4.498
       5.601
       6.536
       7.308
       7.911
       8.333
       8.571
       8.621
       8.478
       8.133
       7.586
       6.851
       5.944
       4.877
       3.661
       2.330
       0.950
      -0.384
      -1.579
      -2.553
      -3.244
      -3.619
      -3.672
      -3.427
      -2.927
      -2.230
      -1.406
      -0.549
       0.245
       0.896
       1.360
       1.621
       1.677
       1.532
       1.197
       0.695
       0.071
      -0.605
      -1.243
      -1.746
      -2.047
      -2.125
      -1.994
      -1.674
      -1.156
      -0.417
       0.554
       1.730
       3.053
       4.447
       5.833
       7.143
       8.325
       9.341
      10.157
      10.729
      11.018
      11.002
      10.695
      10.138
       9.383
       8.481
       7.489
       6.484
       5.552
       4.762
       4.145
       3.699
       3.411
       3.297
       3.413
       3.843
       4.643
       5.791
       7.184
       8.680
      10.153
      11.526
      12.754
      13.786
      14.543
      14.928
      14.861
      14.305
      13.273
      11.817
      10.022
       7.997
       5.876
       3.793
       1.858
       0.146
      -1.305
      -2.471
      -3.333
      -3.875
      -4.080
      -3.938
      -3.446
      -2.617
      -1.497
      -0.156
       1.321
       2.847
       4.340
       5.725
       6.941
       7.934
       8.633
       8.949
       8.788
       8.095
       6.885
       5.233
       3.244
       1.020
      -1.340
      -3.729
      -6.029
      -8.132
      -9.965
     -11.503
     -12.761
     -13.771
     -14.566
     -15.152
     -15.502
     -15.558
     -15.264
     -14.585
     -13.525
     -12.126
     -10.454
      -8.601
      -6.669
      -4.770
      -3.007
      -1.475
      -0.247
       0.621
       1.105
       1.216
       1.000
       0.530
      -0.106
      -0.827
      -1.571
      -2.317
      -3.077
      -3.873
      -4.703
      -5.526
      -6.274
      -6.891
      -7.352
      -7.656
      -7.809
      -7.801
      -7.613
      -7.234
      -6.676
      -5.973
      -5.167
      -4.287
      -3.345
      -2.349
      -1.313
      -0.259
       0.788
       1.804
       2.758
       3.617
       4.356
       4.974
       5.485
       5.908
       6.252
       6.524
       6.746
       6.963
       7.218
       7.514
       7.800
       7.994
       8.025
       7.863
       7.516
       6.994
       6.280
       5.346
       4.182
       2.826
