Origin Time       18/9/2011 12:40:47	
Lat.              27.6 N	
Long.             88.2 E	
Depth (Km)         10.0
Magnitude         6.8
 Region           India(Sikkim)-Nepar-Border                                       
 Above details taken from IMD 
     
Station Code      RAX
Station Lat.       26.982  N
Station Long.      84.843  E
Station Height(m)   50.0
Site Class        C   Vs30 between 200 m/sec to 375 m/sec *  
Record Time       18.09.2011 12:42:02.729
Sampling Rate     200. Hz
 Record Duration  124.725 Sec.
 Direction         E-W (E positive)
Max. Acceleration     21.034 cm/sec**2
     
  * For reference see Site Classification link of website 
     
 Base Line Corrected and Low Pass Filtered (Cut Off at 35 Hz) Time History
 Acceleration data in cm/sec**2
    
[...]
       5.064
       4.335
       3.474
       2.478
       1.405
       0.331
      -0.677
      -1.574
      -2.313
      -2.838
      -3.103
      -3.108
      -2.910
      -2.591
      -2.211
      -1.784
      -1.301
      -0.766
      -0.214
       0.291
       0.696
       0.971
       1.113
       1.130
       1.029
       0.823
       0.546
       0.241
      -0.053
      -0.330
      -0.618
      -0.963
      -1.380
      -1.826
      -2.221
      -2.501
      -2.663
      -2.769
      -2.896
      -3.091
      -3.349
      -3.637
      -3.920
      -4.179
      -4.400
      -4.561
      -4.629
      -4.575
      -4.397
      -4.126
      -3.804
      -3.460
      -3.089
      -2.665
      -2.168
      -1.602
      -1.002
      -0.410
       0.152
       0.693
       1.241
       1.813
       2.401
       2.975
       3.506
       3.987
       4.436
       4.880
       5.330
       5.761
       6.119
       6.344
       6.385
       6.211
       5.798
       5.125
       4.187
       3.012
       1.675
       0.277
      -1.106
      -2.452
      -3.798
      -5.190
      -6.630
      -8.060
      -9.387
     -10.534
     -11.467
     -12.181
     -12.661
     -12.875
     -12.787
     -12.390
     -11.714
     -10.807
      -9.696
      -8.372
      -6.810
      -5.005
      -3.004
      -0.897
       1.209
       3.236
       5.159
       6.988
       8.741
      10.412
      11.962
      13.331
      14.469
      15.346
      15.961
      16.336
      16.505
      16.487
      16.287
      15.904
      15.348
      14.643
      13.821
      12.900
      11.883
      10.772
       9.582
       8.350
       7.113
       5.886
       4.655
       3.389
       2.068
       0.699
      -0.677
      -1.994
      -3.185
      -4.194
      -4.982
      -5.531
      -5.844
      -5.937
      -5.835
      -5.566
      -5.155
      -4.624
      -3.986
      -3.239
      -2.378
      -1.410
      -0.377
       0.652
       1.597
       2.399
       3.035
       3.505
       3.805
       3.918
       3.837
       3.593
       3.258
       2.914
       2.604
       2.306
       1.957
       1.509
       0.969
       0.392
      -0.162
      -0.667
      -1.132
      -1.573
      -1.986
      -2.341
      -2.610
      -2.793
      -2.936
      -3.097
      -3.314
      -3.571
      -3.808
      -3.945
      -3.927
      -3.751
      -3.457
      -3.107
      -2.751
      -2.421
      -2.145
      -1.970
      -1.959
      -2.151
      -2.525
      -2.995
      -3.466
      -3.886
      -4.273
      -4.671
      -5.105
      -5.540
      -5.894
      -6.075
      -6.023
      -5.733
      -5.242
      -4.603
      -3.854
      -3.023
      -2.142
      -1.266
      -0.463
       0.219
       0.773
       1.235
       1.642
       1.998
       2.264
       2.395
       2.382
       2.278
       2.180
       2.171
       2.277
       2.447
       2.599
       2.664
       2.613
       2.442
       2.139
       1.682
       1.072
       0.360
      -0.352
      -0.937
      -1.291
      -1.357
      -1.133
      -0.656
       0.012
       0.794
       1.595
       2.320
       2.893
       3.287
       3.510
       3.580
       3.492
       3.235
       2.811
       2.257
       1.623
       0.949
       0.254
      -0.454
      -1.152
      -1.790
      -2.299
      -2.627
      -2.761
      -2.723
      -2.549
      -2.254
      -1.820
      -1.216
      -0.436
       0.469
       1.411
       2.302
       3.105
       3.835
       4.531
       5.211
       5.843
       6.352
       6.653
       6.691
       6.457
       5.977
       5.286
       4.401
       3.318
       2.036
       0.567
      -1.054
      -2.777
      -4.538
      -6.250
      -7.802
      -9.073
      -9.950
     -10.362
     -10.292
      -9.777
      -8.903
      -7.777
      -6.501
      -5.155
      -3.804
      -2.513
      -1.362
      -0.437
       0.199
       0.524
       0.565
       0.370
      -0.014
      -0.562
      -1.246
      -2.019
      -2.809
      -3.532
      -4.115
      -4.500
      -4.644
      -4.520
      -4.129
      -3.510
      -2.724
      -1.827
      -0.863
       0.130
       1.101
       1.988
       2.738
       3.326
       3.752
       4.046
       4.266
       4.491
       4.802
       5.250
       5.839
       6.523
       7.239
       7.922
       8.512
       8.945
       9.158
       9.093
       8.723
       8.063
       7.162
       6.067
       4.802
       3.371
       1.780
       0.068
      -1.694
      -3.425
      -5.049
      -6.506
      -7.748
      -8.737
      -9.449
      -9.870
     -10.001
      -9.856
      -9.473
      -8.907
      -8.211
      -7.415
      -6.531
      -5.571
      -4.566
      -3.556
      -2.555
      -1.531
      -0.430
       0.777
       2.056
       3.324
       4.488
       5.493
       6.328
       7.011
       7.553
       7.947
       8.173
       8.219
       8.097
       7.844
       7.515
       7.156
       6.794
       6.429
       6.050
       5.654
       5.249
       4.819
       4.313
       3.655
       2.805
       1.802
       0.747
      -0.255
      -1.154
      -1.959
      -2.707
      -3.418
      -4.081
      -4.666
      -5.136
      -5.464
      -5.634
      -5.656
      -5.554
      -5.364
      -5.125
      -4.871
      -4.630
      -4.431
      -4.306
      -4.286
      -4.386
      -4.594
      -4.869
      -5.155
      -5.403
      -5.571
      -5.626
      -5.538
      -5.292
      -4.907
      -4.438
      -3.962
      -3.542
      -3.212
      -2.966
      -2.781
      -2.644
      -2.565
      -2.566
      -2.662
      -2.844
      -3.078
      -3.315
      -3.489
      -3.523
      -3.336
      -2.873
      -2.123
      -1.136
       0.007
       1.214
       2.411
       3.543
       4.568
       5.456
       6.192
       6.776
       7.221
       7.551
       7.787
       7.944
       8.020
       8.003
       7.879
       7.648
       7.329
       6.959
       6.576
       6.212
       5.875
       5.555
       5.227
       4.861
       4.435
       3.947
       3.413
       2.860
       2.307
       1.753
       1.180
       0.560
      -0.136
      -0.938
      -1.871
      -2.946
      -4.143
      -5.401
      -6.635
      -7.760
      -8.719
      -9.490
     -10.073
     -10.478
     -10.712
     -10.782
     -10.690
     -10.432
     -10.000
      -9.390
      -8.613
      -7.693
      -6.657
      -5.518
      -4.277
      -2.937
      -1.525
      -0.099
       1.265
       2.504
       3.588
       4.514
       5.293
       5.926
       6.400
       6.694
       6.804
       6.745
       6.541
       6.214
       5.774
       5.240
       4.646
       4.056
       3.540
       3.157
       2.940
       2.898
       3.026
       3.312
       3.742
       4.292
       4.923
       5.587
       6.242
       6.872
       7.484
       8.085
       8.650
       9.113
       9.390
       9.416
       9.179
       8.731
       8.163
       7.568
       7.005
       6.480
       5.957
       5.396
       4.782
       4.139
       3.510
       2.925
       2.388
       1.882
       1.395
       0.925
       0.476
       0.046
      -0.375
      -0.796
      -1.203
      -1.553
      -1.787
      -1.859
      -1.764
      -1.544
      -1.268
      -0.995
      -0.761
      -0.583
      -0.464
      -0.403
      -0.394
      -0.428
      -0.498
      -0.598
      -0.721
      -0.853
      -0.975
      -1.082
      -1.184
      -1.298
      -1.434
      -1.595
      -1.777
      -1.975
      -2.174
      -2.357
      -2.506
      -2.620
      -2.722
      -2.858
      -3.084
      -3.454
      -3.992
      -4.695
      -5.531
      -6.457
      -7.426
      -8.387
      -9.292
     -10.103
     -10.790
     -11.332
     -11.702
     -11.871
     -11.819
     -11.546
     -11.083
     -10.478
      -9.792
      -9.079
      -8.387
      -7.736
      -7.120
      -6.503
      -5.848
      -5.138
      -4.381
      -3.596
      -2.789
      -1.950
      -1.080
      -0.222
       0.552
       1.169
       1.604
       1.890
       2.081
       2.209
       2.256
       2.174
       1.920
       1.497
       0.951
       0.349
      -0.263
      -0.880
      -1.523
      -2.193
      -2.847
      -3.411
      -3.817
      -4.039
      -4.090
      -4.005
      -3.811
      -3.525
      -3.152
      -2.693
      -2.149
      -1.520
      -0.810
      -0.033
       0.780
       1.581
       2.314
       2.934
       3.410
       3.729
       3.889
       3.890
       3.736
       3.416
       2.904
       2.170
       1.215
       0.099
      -1.070
      -2.172
      -3.122
      -3.886
      -4.462
      -4.851
      -5.028
      -4.959
      -4.610
      -3.967
      -3.037
      -1.853
      -0.474
       1.016
       2.527
       3.983
       5.337
       6.564
       7.656
       8.604
       9.386
       9.969
      10.306
      10.364
      10.149
       9.718
       9.157
       8.535
       7.881
       7.195
       6.484
       5.788
       5.160
       4.633
       4.187
       3.764
       3.295
       2.739
       2.085
       1.343
       0.521
      -0.377
      -1.336
      -2.330
      -3.321
      -4.282
      -5.184
      -5.995
      -6.661
      -7.103
      -7.236
      -7.001
      -6.399
      -5.513
      -4.481
      -3.452
      -2.536
      -1.777
      -1.173
      -0.705
      -0.356
      -0.127
      -0.020
      -0.026
      -0.120
      -0.266
      -0.437
      -0.621
      -0.820
      -1.024
      -1.198
      -1.291
      -1.271
      -1.149
      -0.981
      -0.842
      -0.786
      -0.828
      -0.960
      -1.171
      -1.455
      -1.801
      -2.184
      -2.570
      -2.935
      -3.276
      -3.606
      -3.931
      -4.245
      -4.522
      -4.729
      -4.833
      -4.817
      -4.691
      -4.497
      -4.284
      -4.076
      -3.850
      -3.556
      -3.144
      -2.606
      -1.977
      -1.316
      -0.688
      -0.149
       0.258
       0.508
       0.611
       0.612
       0.578
       0.569
       0.609
       0.684
       0.768
       0.846
       0.929
       1.034
       1.178
       1.367
       1.607
       1.904
       2.248
       2.595
       2.869
       2.992
       2.907
       2.601
       2.095
       1.423
       0.619
      -0.295
      -1.307
      -2.397
      -3.529
      -4.649
      -5.695
      -6.614
      -7.366
      -7.918
      -8.246
      -8.339
      -8.211
      -7.905
      -7.472
      -6.939
      -6.295
      -5.508
      -4.562
      -3.473
      -2.286
      -1.051
       0.193
       1.428
       2.658
       3.896
       5.147
       6.396
       7.611
       8.754
       9.806
      10.780
      11.709
      12.623
      13.525
      14.375
      15.097
      15.618
      15.898
      15.943
      15.781
      15.442
      14.938
      14.278
      13.483
      12.589
      11.641
      10.679
       9.737
       8.850
       8.061
       7.422
       6.986
       6.787
       6.820
       7.034
       7.354
       7.723
       8.120
       8.556
       9.033
       9.517
       9.930
      10.174
      10.162
       9.844
       9.211
       8.287
       7.109
       5.726
       4.197
       2.594
       1.001
      -0.508
      -1.884
      -3.104
      -4.165
      -5.059
      -5.774
      -6.287
      -6.573
      -6.617
      -6.445
      -6.120
      -5.726
      -5.327
      -4.941
      -4.549
      -4.143
      -3.744
      -3.398
      -3.141
      -2.983
      -2.916
      -2.943
      -3.090
      -3.393
      -3.878
      -4.545
      -5.373
      -6.322
      -7.337
      -8.356
      -9.313
     -10.133
     -10.734
     -11.034
     -10.965
     -10.497
      -9.651
      -8.499
      -7.141
      -5.668
      -4.131
      -2.545
      -0.923
       0.681
       2.163
       3.392
       4.269
       4.751
       4.838
       4.544
       3.892
       2.922
       1.713
       0.374
      -0.972
      -2.221
      -3.300
      -4.164
      -4.791
      -5.172
      -5.305
      -5.199
      -4.873
      -4.363
      -3.709
      -2.957
      -2.152
      -1.342
      -0.581
       0.068
       0.549
       0.836
       0.938
       0.885
       0.720
       0.483
       0.219
      -0.019
      -0.183
      -0.252
      -0.241
      -0.198
      -0.170
      -0.172
      -0.177
      -0.138
      -0.018
       0.183
       0.437
       0.705
       0.954
       1.145
       1.242
       1.227
       1.130
       1.030
       1.032
       1.212
       1.577
       2.065
       2.564
       2.971
       3.224
       3.323
       3.309
       3.219
       3.064
       2.835
       2.541
       2.220
       1.913
       1.631
       1.346
       1.022
       0.648
       0.236
      -0.210
      -0.729
      -1.403
      -2.317
      -3.516
      -4.977
      -6.622
      -8.346
     -10.041
     -11.616
     -12.995
     -14.116
     -14.935
     -15.428
     -15.605
     -15.502
     -15.168
     -14.637
     -13.924
     -13.022
     -11.925
     -10.634
      -9.162
      -7.528
      -5.767
      -3.941
      -2.150
      -0.526
       0.802
       1.748
       2.299
       2.504
       2.447
       2.218
       1.892
       1.545
       1.260
       1.129
       1.243
       1.667
       2.412
       3.426
       4.621
       5.925
       7.316
       8.808
      10.411
      12.096
      13.800
      15.450
      16.979
      18.335
      19.469
      20.330
      20.865
      21.034
      20.815
      20.212
      19.251
      17.978
      16.435
      14.660
      12.683
      10.545
       8.303
       6.033
       3.815
       1.725
      -0.176
      -1.832
      -3.206
      -4.280
      -5.058
      -5.557
      -5.801
      -5.819
      -5.652
      -5.353
      -4.986
      -4.611
      -4.269
      -3.971
      -3.694
      -3.404
      -3.074
      -2.695
      -2.269
      -1.794
      -1.251
      -0.622
       0.105
       0.928
       1.838
       2.818
       3.837
       4.847
       5.792
       6.613
       7.260
       7.689
       7.858
       7.732
       7.289
       6.534
       5.485
       4.177
       2.662
       1.017
      -0.661
      -2.282
      -3.796
      -5.202
      -6.528
      -7.781
      -8.918
      -9.855
     -10.528
     -10.938
     -11.160
     -11.283
     -11.352
     -11.341
     -11.183
     -10.839
     -10.333
      -9.753
      -9.197
      -8.733
      -8.372
      -8.079
      -7.807
      -7.527
      -7.244
      -6.986
      -6.769
      -6.591
      -6.438
      -6.300
      -6.180
      -6.070
      -5.941
      -5.740
      -5.423
      -4.983
      -4.458
      -3.898
      -3.322
      -2.697
      -1.962
      -1.076
      -0.046
       1.072
       2.212
       3.316
       4.349
       5.286
       6.110
       6.818
       7.435
       8.000
       8.542
       9.049
       9.454
       9.669
       9.627
       9.321
       8.797
       8.121
       7.339
       6.463
       5.485
       4.401
       3.231
       2.021
       0.829
      -0.278
      -1.241
      -2.023
      -2.612
      -3.026
      -3.295
      -3.455
      -3.537
      -3.572
      -3.592
      -3.629
      -3.713
      -3.864
      -4.090
      -4.388
      -4.747
      -5.140
      -5.520
      -5.818
      -5.948
      -5.838
      -5.458
      -4.834
      -4.034
      -3.126
      -2.126
      -0.998
       0.306
       1.806
       3.472
       5.260
       7.138
       9.094
      11.094
      13.045
      14.812
      16.269
      17.355
      18.084
      18.491
      18.586
      18.349
      17.768
      16.869
      15.722
      14.404
      12.979
      11.481
       9.928
       8.328
       6.693
       5.045
       3.433
       1.928
       0.626
      -0.386
      -1.044
      -1.326
      -1.250
      -0.869
      -0.272
       0.417
       1.049
       1.484
       1.627
       1.449
       0.958
       0.175
      -0.887
      -2.197
      -3.698
      -5.309
      -6.943
      -8.528
     -10.001
     -11.316
     -12.436
     -13.341
     -14.020
     -14.472
     -14.719
     -14.813
     -14.828
     -14.825
     -14.833
     -14.837
     -14.810
     -14.730
     -14.591
     -14.389
     -14.107
     -13.708
     -13.148
     -12.397
     -11.451
     -10.324
      -9.028
      -7.564
      -5.934
      -4.158
      -2.288
      -0.401
       1.416
       3.094
       4.599
       5.925
       7.090
       8.104
       8.960
       9.641
      10.132
      10.437
      10.580
      10.585
      10.467
      10.225
       9.855
       9.378
       8.840
       8.292
       7.764
       7.243
       6.696
       6.090
       5.408
       4.655
       3.853
       3.038
       2.242
       1.485
       0.765
       0.083
      -0.539
      -1.039
      -1.350
      -1.433
      -1.302
      -1.006
      -0.597
      -0.109
       0.434
       1.003
       1.552
       2.040
       2.440
       2.744
       2.936
       2.976
       2.803
       2.370
       1.668
       0.740
      -0.346
      -1.528
      -2.766
      -4.043
      -5.340
      -6.622
      -7.847
      -8.983
     -10.017
     -10.951
     -11.775
     -12.470
     -13.015
     -13.412
     -13.677
     -13.834
     -13.885
     -13.810
     -13.574
     -13.155
     -12.560
     -11.825
     -10.986
     -10.057
      -9.024
      -7.858
      -6.532
      -5.031
      -3.361
      -1.557
       0.307
       2.127
       3.793
       5.217
       6.348
       7.170
       7.687
       7.903
       7.811
       7.392
       6.636
       5.568
       4.252
       2.772
       1.216
      -0.331
      -1.783
      -3.056
      -4.068
      -4.744
      -5.013
      -4.825
      -4.166
      -3.070
      -1.610
       0.135
       2.101
       4.240
       6.504
       8.827
      11.117
      13.274
      15.199
      16.814
      18.052
      18.859
      19.192
      19.037
      18.425
      17.425
      16.119
      14.569
      12.829
      10.963
       9.070
       7.265
       5.646
       4.267
       3.133
       2.237
       1.585
       1.205
       1.123
       1.321
       1.728
       2.232
       2.726
       3.133
       3.407
       3.529
       3.514
       3.418
       3.334
       3.358
       3.559
       3.952
       4.508
       5.166
       5.852
       6.484
       6.989
       7.304
       7.392
       7.244
       6.875
       6.306
       5.545
       4.572
       3.357
       1.901
       0.267
      -1.422
      -3.029
      -4.456
      -5.670
      -6.701
      -7.607
      -8.432
      -9.180
      -9.816
     -10.281
     -10.537
     -10.599
     -10.537
     -10.450
     -10.421
     -10.483
     -10.628
     -10.831
     -11.077
     -11.371
     -11.728
     -12.150
     -12.604
     -13.026
     -13.337
     -13.465
     -13.355
     -12.966
     -12.262
     -11.226
      -9.874
      -8.264
      -6.482
      -4.622
      -2.797
      -1.133
       0.247
       1.256
       1.861
       2.066
       1.886
       1.348
       0.487
      -0.636
      -1.935
      -3.303
      -4.633
      -5.832
      -6.831
      -7.581
      -8.023
      -8.078
      -7.658
      -6.721
      -5.297
      -3.486
      -1.419
       0.768
       2.948
       5.010
       6.875
