Origin Time       25/11/2007 23:12:20 UTC
Lat.              28.6 N 
Long.             77.0 E 
Depth (Km)         20.3
Magnitude         4.3
 Region           DELHI-HARYANA-BORDER-REGION                                      
 Above details taken from IMD 
    
Station Code      REW
Station Lat.       28.184  N
Station Long.      76.610  E
Station Height(m)  246.0
Site Class        C   Vs30 between 200 m/sec to 375 m/sec *  
Record Time       25.11.2007 23:12:26.524 UTC
Sampling Rate     200. Hz
 Record Duration   33.530 Sec.
 Direction         N-S (N positive)
Max. Acceleration     12.013 cm/sec**2
     
  * For reference see Site Classification link of website 
     
 Base Line Corrected and Low Pass Filtered (Cut Off at 35 Hz) Time History
 Acceleration data in cm/sec**2
    
[...]
      -0.542
      -0.135
       0.283
       0.567
       0.650
       0.571
       0.438
       0.359
       0.376
       0.445
       0.476
       0.404
       0.226
       0.004
      -0.170
      -0.218
      -0.121
       0.058
       0.202
       0.206
       0.043
      -0.222
      -0.460
      -0.553
      -0.470
      -0.289
      -0.145
      -0.109
      -0.134
      -0.100
       0.068
       0.331
       0.570
       0.675
       0.616
       0.454
       0.281
       0.152
       0.050
      -0.081
      -0.273
      -0.488
      -0.627
      -0.595
      -0.382
      -0.083
       0.144
       0.178
       0.022
      -0.198
      -0.321
      -0.251
      -0.014
       0.267
       0.439
       0.404
       0.165
      -0.173
      -0.468
      -0.615
      -0.589
      -0.443
      -0.265
      -0.130
      -0.052
       0.019
       0.151
       0.371
       0.628
       0.808
       0.791
       0.534
       0.115
      -0.291
      -0.505
      -0.452
      -0.209
       0.050
       0.164
       0.089
      -0.092
      -0.235
      -0.248
      -0.143
      -0.007
       0.087
       0.133
       0.177
       0.248
       0.315
       0.323
       0.257
       0.165
       0.122
       0.148
       0.193
       0.185
       0.108
       0.018
      -0.013
       0.034
       0.110
       0.140
       0.082
      -0.038
      -0.154
      -0.222
      -0.246
      -0.247
      -0.216
      -0.121
       0.041
       0.214
       0.312
       0.290
       0.167
       0.018
      -0.076
      -0.082
      -0.033
      -0.005
      -0.054
      -0.165
      -0.272
      -0.323
      -0.328
      -0.348
      -0.432
      -0.569
      -0.688
      -0.708
      -0.603
      -0.422
      -0.249
      -0.142
      -0.091
      -0.052
       0.014
       0.109
       0.210
       0.288
       0.328
       0.337
       0.334
       0.339
       0.361
       0.390
       0.413
       0.418
       0.387
       0.298
       0.138
      -0.075
      -0.296
      -0.467
      -0.537
      -0.489
      -0.357
      -0.212
      -0.111
      -0.062
      -0.016
       0.076
       0.211
       0.322
       0.332
       0.231
       0.093
       0.027
       0.094
       0.249
       0.365
       0.319
       0.085
      -0.227
      -0.435
      -0.407
      -0.156
       0.166
       0.369
       0.355
       0.159
      -0.086
      -0.242
      -0.231
      -0.056
       0.215
       0.479
       0.620
       0.554
       0.276
      -0.114
      -0.452
      -0.591
      -0.486
      -0.224
       0.034
       0.151
       0.098
      -0.028
      -0.084
       0.009
       0.208
       0.391
       0.451
       0.378
       0.236
       0.105
       0.018
      -0.054
      -0.166
      -0.353
      -0.593
      -0.807
      -0.910
      -0.859
      -0.675
      -0.433
      -0.218
      -0.098
      -0.097
      -0.185
      -0.286
      -0.300
      -0.154
       0.144
       0.476
       0.678
       0.652
       0.441
       0.196
       0.064
       0.092
       0.212
       0.300
       0.261
       0.089
      -0.131
      -0.286
      -0.308
      -0.207
      -0.059
       0.061
       0.123
       0.155
       0.203
       0.291
       0.400
       0.484
       0.501
       0.437
       0.319
       0.204
       0.143
       0.142
       0.154
       0.122
       0.031
      -0.085
      -0.173
      -0.195
      -0.133
       0.014
       0.213
       0.396
       0.480
       0.423
       0.236
      -0.020
      -0.275
      -0.474
      -0.584
      -0.589
      -0.502
      -0.364
      -0.244
      -0.200
      -0.240
      -0.318
      -0.364
      -0.336
      -0.247
      -0.153
      -0.101
      -0.089
      -0.075
      -0.028
       0.028
       0.035
      -0.041
      -0.177
      -0.309
      -0.365
      -0.293
      -0.090
       0.184
       0.428
       0.566
       0.577
       0.505
       0.416
       0.369
       0.388
       0.454
       0.518
       0.526
       0.456
       0.312
       0.120
      -0.084
      -0.267
      -0.408
      -0.503
      -0.557
      -0.580
      -0.586
      -0.592
      -0.595
      -0.564
      -0.459
      -0.260
       0.024
       0.353
       0.649
       0.807
       0.751
       0.497
       0.167
      -0.069
      -0.092
       0.090
       0.338
       0.458
       0.335
       0.018
      -0.315
      -0.495
      -0.471
      -0.319
      -0.155
      -0.057
      -0.037
      -0.068
      -0.132
      -0.225
      -0.322
      -0.358
      -0.257
      -0.010
       0.294
       0.523
       0.605
       0.567
       0.496
       0.457
       0.448
       0.409
       0.288
       0.089
      -0.121
      -0.271
      -0.345
      -0.393
      -0.479
      -0.614
      -0.731
      -0.741
      -0.610
      -0.397
      -0.209
      -0.121
      -0.128
      -0.166
      -0.172
      -0.124
      -0.032
       0.087
       0.235
       0.410
       0.582
       0.694
       0.693
       0.572
       0.371
       0.152
      -0.035
      -0.160
      -0.211
      -0.192
      -0.118
      -0.019
       0.054
       0.045
      -0.068
      -0.247
      -0.402
      -0.457
      -0.394
      -0.253
      -0.101
       0.015
       0.083
       0.122
       0.164
       0.227
       0.308
       0.386
       0.446
       0.486
       0.507
       0.505
       0.470
       0.408
       0.345
       0.306
       0.298
       0.282
       0.191
      -0.019
      -0.308
      -0.555
      -0.642
      -0.560
      -0.422
      -0.374
      -0.477
      -0.668
      -0.814
      -0.821
      -0.691
      -0.498
      -0.314
      -0.151
       0.013
       0.187
       0.357
       0.517
       0.683
       0.866
       1.037
       1.140
       1.121
       0.967
       0.717
       0.444
       0.204
       0.000
      -0.206
      -0.434
      -0.653
      -0.794
      -0.814
      -0.737
      -0.648
      -0.622
      -0.678
      -0.773
      -0.848
      -0.863
      -0.788
      -0.596
      -0.283
       0.096
       0.434
       0.636
       0.682
       0.622
       0.529
       0.443
       0.368
       0.290
       0.206
       0.129
       0.075
       0.038
      -0.011
      -0.102
      -0.243
      -0.401
      -0.524
      -0.574
      -0.567
      -0.555
      -0.571
      -0.575
      -0.481
      -0.247
       0.071
       0.353
       0.499
       0.504
       0.449
       0.435
       0.505
       0.617
       0.709
       0.756
       0.779
       0.800
       0.807
       0.762
       0.642
       0.454
       0.224
      -0.021
      -0.257
      -0.453
      -0.578
      -0.624
      -0.612
      -0.574
      -0.531
      -0.471
      -0.366
      -0.207
      -0.033
       0.100
       0.152
       0.131
       0.072
       0.016
      -0.011
      -0.017
      -0.039
      -0.121
      -0.283
      -0.487
      -0.650
      -0.685
      -0.548
      -0.268
       0.065
       0.342
       0.486
       0.478
       0.350
       0.183
       0.074
       0.100
       0.273
       0.517
       0.710
       0.755
       0.628
       0.377
       0.089
      -0.144
      -0.262
      -0.252
      -0.155
      -0.035
       0.062
       0.118
       0.149
       0.174
       0.188
       0.162
       0.070
      -0.067
      -0.185
      -0.223
      -0.171
      -0.064
       0.042
       0.101
       0.086
       0.000
      -0.114
      -0.181
      -0.134
       0.030
       0.225
       0.329
       0.269
       0.059
      -0.232
      -0.529
      -0.776
      -0.946
      -1.035
      -1.049
      -0.986
      -0.830
      -0.574
      -0.248
       0.063
       0.263
       0.300
       0.211
       0.089
       0.017
       0.017
       0.038
       0.006
      -0.109
      -0.264
      -0.364
      -0.336
      -0.180
       0.041
       0.257
       0.449
       0.646
       0.874
       1.098
       1.231
       1.189
       0.953
       0.595
       0.241
       0.018
      -0.027
       0.045
       0.110
       0.071
      -0.070
      -0.232
      -0.327
      -0.319
      -0.230
      -0.115
      -0.028
       0.003
      -0.005
      -0.011
       0.013
       0.046
       0.038
      -0.044
      -0.176
      -0.295
      -0.347
      -0.322
      -0.236
      -0.116
       0.018
       0.129
       0.163
       0.064
      -0.189
      -0.534
      -0.821
      -0.878
      -0.626
      -0.160
       0.290
       0.517
       0.488
       0.350
       0.279
       0.320
       0.369
       0.307
       0.140
       0.011
       0.071
       0.340
       0.662
       0.812
       0.666
       0.297
      -0.086
      -0.302
      -0.319
      -0.249
      -0.241
      -0.364
      -0.574
      -0.761
      -0.830
      -0.756
      -0.592
      -0.431
      -0.335
      -0.292
      -0.243
      -0.159
      -0.068
      -0.011
       0.018
       0.069
       0.186
       0.353
       0.499
       0.545
       0.466
       0.322
       0.211
       0.195
       0.259
       0.334
       0.347
       0.273
       0.150
       0.067
       0.090
       0.201
       0.299
       0.273
       0.092
      -0.169
      -0.370
      -0.383
      -0.159
       0.240
       0.643
       0.855
       0.765
       0.420
      -0.004
      -0.306
      -0.374
      -0.224
       0.023
       0.226
       0.301
       0.262
       0.185
       0.156
       0.201
       0.262
       0.232
       0.023
      -0.356
      -0.793
      -1.122
      -1.214
      -1.059
      -0.773
      -0.528
      -0.447
      -0.547
      -0.744
      -0.900
      -0.887
      -0.636
      -0.178
       0.354
       0.765
       0.892
       0.692
       0.284
      -0.113
      -0.304
      -0.237
      -0.030
       0.116
       0.048
      -0.228
      -0.556
      -0.734
      -0.672
      -0.442
      -0.218
      -0.124
      -0.143
      -0.141
       0.014
       0.339
       0.712
       0.979
       1.087
       1.122
       1.219
       1.427
       1.662
       1.790
       1.740
       1.556
       1.335
       1.126
       0.888
       0.548
       0.091
      -0.410
      -0.844
      -1.145
      -1.317
      -1.406
      -1.439
      -1.395
      -1.226
      -0.923
      -0.553
      -0.230
      -0.032
       0.053
       0.101
       0.169
       0.253
       0.320
       0.371
       0.454
       0.609
       0.795
       0.897
       0.817
       0.570
       0.290
       0.134
       0.154
       0.259
       0.293
       0.155
      -0.132
      -0.458
      -0.714
      -0.858
      -0.906
      -0.895
      -0.856
      -0.810
      -0.777
      -0.767
      -0.749
      -0.676
      -0.535
      -0.372
      -0.246
      -0.168
      -0.105
      -0.020
       0.109
       0.305
       0.577
       0.909
       1.251
       1.528
       1.667
       1.622
       1.411
       1.111
       0.823
       0.613
       0.478
       0.347
       0.126
      -0.237
      -0.686
      -1.058
      -1.169
      -0.925
      -0.391
       0.230
       0.718
       0.948
       0.948
       0.862
       0.840
       0.928
       1.038
       1.021
       0.763
       0.267
      -0.348
      -0.894
      -1.209
      -1.226
      -1.007
      -0.678
      -0.345
      -0.037
       0.272
       0.592
       0.865
       0.985
       0.874
       0.548
       0.100
      -0.375
      -0.823
      -1.211
      -1.496
      -1.633
      -1.622
      -1.533
      -1.470
      -1.521
      -1.704
      -1.951
      -2.138
      -2.146
      -1.923
      -1.510
      -1.018
      -0.572
      -0.268
      -0.145
      -0.171
      -0.262
      -0.310
      -0.214
       0.086
       0.586
       1.199
       1.802
       2.299
       2.655
       2.875
       2.989
       3.051
       3.140
       3.305
       3.504
       3.595
       3.401
       2.796
       1.747
       0.311
      -1.399
      -3.223
      -4.962
      -6.402
      -7.348
      -7.675
      -7.345
      -6.419
      -5.055
      -3.470
      -1.866
      -0.352
       1.066
       2.420
       3.701
       4.832
       5.680
       6.126
       6.131
       5.774
       5.197
       4.521
       3.771
       2.876
       1.726
       0.261
      -1.468
      -3.315
      -5.095
      -6.618
      -7.680
      -8.090
      -7.750
      -6.719
      -5.182
      -3.361
      -1.451
       0.384
       1.981
       3.182
       3.863
       3.984
       3.602
       2.827
       1.741
       0.400
      -1.037
      -2.188
      -2.555
      -1.866
      -0.366
       1.256
       2.291
       2.432
       1.877
       1.100
       0.529
       0.388
       0.735
       1.572
       2.874
       4.492
       6.084
       7.202
       7.477
       6.764
       5.150
       2.893
       0.360
      -2.021
      -3.854
      -4.890
      -5.113
      -4.729
      -4.059
      -3.395
      -2.901
      -2.599
      -2.435
      -2.334
      -2.242
      -2.147
      -2.083
      -2.089
      -2.152
      -2.191
      -2.101
      -1.816
      -1.333
      -0.685
       0.079
       0.924
       1.821
       2.717
       3.477
       3.897
       3.809
       3.216
       2.329
       1.466
       0.890
       0.690
       0.754
       0.831
       0.648
       0.042
      -0.960
      -2.150
      -3.225
      -3.916
      -4.107
      -3.872
      -3.407
      -2.910
      -2.492
      -2.128
      -1.646
      -0.769
       0.762
       3.018
       5.772
       8.529
      10.714
      11.912
      12.013
      11.162
       9.566
       7.359
       4.632
       1.555
      -1.571
      -4.392
      -6.644
      -8.238
      -9.235
      -9.756
      -9.898
      -9.678
      -9.028
      -7.810
      -5.873
      -3.193
      -0.041
       2.950
       4.979
       5.488
       4.529
       2.788
       1.232
       0.591
       1.014
       2.101
       3.239
       3.961
       4.095
       3.689
       2.892
       1.917
       1.035
       0.471
       0.240
       0.043
      -0.604
      -2.054
      -4.202
      -6.423
      -7.855
      -7.863
      -6.363
      -3.840
      -1.057
       1.326
       3.024
       4.140
       4.938
       5.544
       5.787
       5.303
       3.818
       1.417
      -1.403
      -3.946
      -5.660
      -6.398
      -6.448
      -6.300
      -6.309
      -6.474
      -6.457
      -5.808
      -4.266
      -1.960
       0.607
       2.789
       4.119
       4.527
       4.311
       3.913
       3.672
       3.726
       4.080
       4.736
       5.711
       6.943
       8.169
       8.945
       8.823
       7.576
       5.325
       2.483
      -0.415
      -2.916
      -4.766
      -5.921
      -6.477
      -6.609
      -6.544
      -6.514
      -6.650
      -6.858
      -6.782
      -5.930
      -3.944
      -0.894
       2.613
       5.632
       7.346
       7.485
       6.414
       4.819
       3.259
       1.953
       0.910
       0.176
      -0.112
       0.072
       0.463
       0.601
       0.180
      -0.672
      -1.477
      -1.833
      -1.804
      -1.938
      -2.814
      -4.471
      -6.199
      -6.932
      -5.996
      -3.651
      -0.995
       0.722
       0.900
      -0.043
      -0.968
      -0.788
       0.837
       3.325
       5.584
       6.674
       6.261
       4.660
       2.546
       0.616
      -0.626
      -0.944
      -0.413
       0.579
       1.425
       1.568
       0.828
      -0.449
      -1.588
      -2.012
      -1.606
      -0.765
      -0.111
      -0.091
      -0.704
      -1.558
      -2.185
      -2.378
      -2.301
      -2.296
      -2.548
      -2.873
      -2.794
      -1.884
      -0.125
       1.993
       3.737
       4.577
       4.497
       3.921
       3.336
       2.909
       2.402
       1.427
      -0.202
      -2.250
      -4.112
      -5.072
      -4.644
      -2.853
      -0.282
       2.194
       3.844
       4.421
       4.180
       3.637
       3.238
       3.145
       3.210
       3.092
       2.465
       1.214
      -0.483
      -2.248
      -3.702
      -4.642
      -5.115
      -5.367
      -5.688
      -6.208
      -6.758
      -6.934
      -6.341
      -4.868
      -2.764
      -0.453
       1.742
       3.694
       5.320
       6.422
       6.741
       6.242
       5.296
       4.514
       4.310
       4.560
       4.686
       4.101
       2.672
       0.820
      -0.811
      -1.819
      -2.243
      -2.370
      -2.382
      -2.214
      -1.731
      -0.984
      -0.246
       0.217
       0.367
       0.405
       0.558
       0.874
       1.167
       1.187
       0.859
       0.400
       0.152
       0.228
       0.311
      -0.173
      -1.583
      -3.675
      -5.648
      -6.622
      -6.217
      -4.804
      -3.213
      -2.140
      -1.717
      -1.547
      -1.101
      -0.109
       1.316
       2.823
       4.052
       4.788
       4.974
       4.640
       3.836
       2.658
       1.347
       0.289
      -0.157
       0.062
       0.601
       0.925
       0.698
       0.012
      -0.747
      -1.289
      -1.659
      -2.119
      -2.782
      -3.395
      -3.464
      -2.622
      -0.940
       1.035
       2.557
       3.101
       2.655
       1.682
       0.760
       0.193
      -0.106
      -0.411
      -0.855
      -1.298
      -1.483
      -1.335
      -1.102
      -1.183
      -1.770
      -2.631
      -3.251
      -3.204
      -2.460
      -1.388
      -0.460
       0.116
       0.559
       1.295
       2.526
       3.952
       4.919
       4.901
       3.937
       2.638
       1.754
       1.638
       2.020
       2.217
       1.642
       0.255
      -1.354
      -2.331
      -2.138
      -0.899
       0.702
       1.860
       2.119
       1.556
       0.618
      -0.207
      -0.645
      -0.700
      -0.576
      -0.556
      -0.871
      -1.568
      -2.426
      -3.016
      -2.921
      -2.026
      -0.679
       0.418
       0.630
      -0.177
      -1.479
      -2.383
      -2.198
      -0.896
       0.828
       1.962
       1.792
       0.302
      -1.889
      -3.949
      -5.299
      -5.798
      -5.608
      -4.923
      -3.818
      -2.306
      -0.468
       1.502
       3.386
       5.029
       6.317
       7.111
       7.269
       6.795
       5.946
       5.102
       4.484
       3.948
       3.089
       1.566
      -0.585
      -2.886
      -4.677
      -5.518
      -5.447
      -4.880
      -4.267
      -3.764
      -3.195
      -2.309
      -1.100
       0.089
       0.813
       0.895
       0.604
       0.449
       0.764
       1.432
       1.995
       2.079
       1.757
       1.514
       1.817
       2.679
       3.629
       4.103
       3.878
       3.176
       2.409
       1.831
       1.375
       0.791
      -0.055
      -1.001
      -1.681
      -1.815
      -1.430
      -0.845
      -0.451
      -0.487
      -0.936
      -1.578
      -2.125
      -2.380
      -2.312
      -2.014
      -1.597
      -1.124
      -0.641
      -0.228
       0.016
       0.032
      -0.135
      -0.361
      -0.521
      -0.572
      -0.541
      -0.467
      -0.364
      -0.256
      -0.219
      -0.366
      -0.791
      -1.497
      -2.357
      -3.127
      -3.506
      -3.270
      -2.396
      -1.093
       0.317
       1.562
       2.530
       3.253
