Origin Time       25/11/2007 23:12:20
Lat.              28.6 N 
Long.             77.0 E 
Depth (Km)         20.3
Magnitude         4.3
 Region           DELHI-HARYANA-BORDER-REGION                                      
 Above details taken from IMD 
   
Station Code      REW
Station Lat.       28.184
Station Long.      76.610
Station Height(m)  246.0
Site Class        C   Vs30 between 200 m/sec to 375 m/sec *  
Record Time       25.11.2007 23:12:26.524
Sampling Rate     200. Hz
 Record Duration   33.530 Sec.
 Direction         Vert. (Up positive)
Max. Acceleration    -12.246 cm/sec**2
     
  * For reference see Site Classification link of website 
     
 Base Line Corrected and Low Pass Filtered (Cut Off at 35 Hz) Time History
 Acceleration data in cm/sec**2
    
[...]
       0.452
       0.630
       0.949
       1.107
       0.839
       0.155
      -0.607
      -0.972
      -0.671
       0.120
       0.861
       1.046
       0.583
      -0.149
      -0.602
      -0.466
       0.120
       0.679
       0.752
       0.227
      -0.589
      -1.211
      -1.334
      -1.029
      -0.637
      -0.473
      -0.579
      -0.729
      -0.654
      -0.261
       0.321
       0.869
       1.224
       1.325
       1.170
       0.792
       0.285
      -0.190
      -0.492
      -0.605
      -0.645
      -0.743
      -0.908
      -1.007
      -0.877
      -0.491
       0.001
       0.364
       0.441
       0.263
       0.035
       0.012
       0.325
       0.845
       1.242
       1.216
       0.735
       0.082
      -0.358
      -0.390
      -0.151
       0.040
      -0.028
      -0.275
      -0.435
      -0.327
      -0.020
       0.248
       0.289
       0.104
      -0.144
      -0.262
      -0.132
       0.231
       0.668
       0.945
       0.895
       0.550
       0.144
      -0.052
       0.072
       0.375
       0.564
       0.414
      -0.047
      -0.555
      -0.833
      -0.805
      -0.609
      -0.436
      -0.388
      -0.469
      -0.627
      -0.768
      -0.772
      -0.571
      -0.197
       0.232
       0.586
       0.775
       0.759
       0.564
       0.297
       0.103
       0.054
       0.069
      -0.020
      -0.303
      -0.678
      -0.909
      -0.811
      -0.421
       0.003
       0.170
       0.000
      -0.291
      -0.349
       0.018
       0.666
       1.227
       1.385
       1.091
       0.555
       0.072
      -0.181
      -0.250
      -0.313
      -0.495
      -0.744
      -0.912
      -0.912
      -0.779
      -0.579
      -0.320
       0.012
       0.357
       0.563
       0.499
       0.183
      -0.161
      -0.228
       0.147
       0.793
       1.259
       1.125
       0.357
      -0.606
      -1.154
      -0.934
      -0.091
       0.843
       1.297
       1.014
       0.213
      -0.546
      -0.731
      -0.217
       0.610
       1.106
       0.843
      -0.070
      -1.069
      -1.548
      -1.282
      -0.549
       0.121
       0.337
       0.082
      -0.330
      -0.508
      -0.262
       0.274
       0.749
       0.849
       0.535
       0.071
      -0.184
      -0.090
       0.157
       0.211
      -0.090
      -0.572
      -0.902
      -0.896
      -0.649
      -0.412
      -0.367
      -0.508
      -0.661
      -0.608
      -0.223
       0.436
       1.155
       1.688
       1.894
       1.779
       1.435
       0.946
       0.370
      -0.217
      -0.697
      -0.977
      -1.086
      -1.151
      -1.257
      -1.350
      -1.298
      -1.019
      -0.513
       0.181
       0.990
       1.768
       2.312
       2.469
       2.227
       1.706
       1.061
       0.411
      -0.165
      -0.632
      -1.009
      -1.353
      -1.683
      -1.913
      -1.902
      -1.578
      -1.021
      -0.411
       0.101
       0.456
       0.669
       0.766
       0.762
       0.686
       0.574
       0.429
       0.215
      -0.099
      -0.483
      -0.863
      -1.162
      -1.335
      -1.366
      -1.266
      -1.055
      -0.740
      -0.319
       0.167
       0.610
       0.899
       1.013
       1.051
       1.135
       1.294
       1.444
       1.468
       1.310
       0.987
       0.548
       0.053
      -0.416
      -0.746
      -0.858
      -0.769
      -0.576
      -0.384
      -0.255
      -0.213
      -0.242
      -0.292
      -0.315
      -0.305
      -0.284
      -0.233
      -0.077
       0.229
       0.612
       0.908
       0.982
       0.828
       0.569
       0.362
       0.285
       0.285
       0.215
      -0.044
      -0.488
      -0.988
      -1.371
      -1.501
      -1.336
      -0.950
      -0.511
      -0.212
      -0.153
      -0.285
      -0.438
      -0.421
      -0.143
       0.312
       0.719
       0.878
       0.785
       0.632
       0.632
       0.829
       1.065
       1.125
       0.939
       0.650
       0.482
       0.502
       0.517
       0.222
      -0.515
      -1.502
      -2.318
      -2.579
      -2.190
      -1.403
      -0.645
      -0.201
      -0.006
       0.261
       0.842
       1.636
       2.279
       2.451
       2.121
       1.523
       0.958
       0.592
       0.386
       0.168
      -0.210
      -0.746
      -1.297
      -1.701
      -1.895
      -1.927
      -1.863
      -1.712
      -1.419
      -0.913
      -0.160
       0.777
       1.699
       2.304
       2.338
       1.774
       0.862
      -0.002
      -0.513
      -0.625
      -0.547
      -0.586
      -0.916
      -1.436
      -1.837
      -1.843
      -1.421
      -0.773
      -0.161
       0.291
       0.644
       1.035
       1.503
       1.909
       2.027
       1.744
       1.189
       0.648
       0.325
       0.181
      -0.014
      -0.422
      -0.926
      -1.164
      -0.844
      -0.052
       0.743
       1.034
       0.680
       0.010
      -0.441
      -0.348
       0.180
       0.709
       0.824
       0.411
      -0.276
      -0.799
      -0.840
      -0.429
       0.079
       0.278
       0.025
      -0.475
      -0.862
      -0.899
      -0.609
      -0.218
       0.009
      -0.070
      -0.414
      -0.839
      -1.147
      -1.223
      -1.078
      -0.835
      -0.649
      -0.595
      -0.576
      -0.397
       0.054
       0.672
       1.201
       1.417
       1.290
       0.996
       0.797
       0.877
       1.240
       1.715
       2.040
       1.990
       1.500
       0.715
      -0.074
      -0.592
      -0.729
      -0.586
      -0.410
      -0.426
      -0.676
      -0.975
      -1.065
      -0.860
      -0.558
      -0.465
      -0.689
      -0.992
      -0.988
      -0.504
       0.225
       0.708
       0.582
      -0.084
      -0.805
      -1.030
      -0.556
       0.295
       0.890
       0.759
      -0.017
      -0.837
      -1.027
      -0.386
       0.637
       1.286
       1.078
       0.157
      -0.816
      -1.132
      -0.513
       0.690
       1.740
       2.015
       1.436
       0.500
      -0.111
      -0.037
       0.498
       0.886
       0.638
      -0.204
      -1.100
      -1.451
      -1.062
      -0.286
       0.251
       0.117
      -0.611
      -1.402
      -1.669
      -1.209
      -0.341
       0.366
       0.546
       0.295
       0.031
       0.100
       0.509
       0.975
       1.201
       1.101
       0.824
       0.579
       0.445
       0.321
       0.048
      -0.437
      -1.056
      -1.669
      -2.155
      -2.417
      -2.361
      -1.936
      -1.205
      -0.342
       0.480
       1.195
       1.835
       2.389
       2.725
       2.663
       2.147
       1.364
       0.682
       0.410
       0.545
       0.732
       0.509
      -0.308
      -1.435
      -2.277
      -2.345
      -1.631
      -0.629
       0.042
       0.103
      -0.226
      -0.476
      -0.322
       0.218
       0.852
       1.224
       1.123
       0.614
       0.024
      -0.280
      -0.170
       0.134
       0.277
       0.087
      -0.307
      -0.660
      -0.867
      -1.000
      -1.153
      -1.310
      -1.354
      -1.150
      -0.629
       0.143
       0.947
       1.507
       1.658
       1.435
       1.020
       0.614
       0.341
       0.208
       0.116
      -0.087
      -0.484
      -0.971
      -1.284
      -1.205
      -0.780
      -0.302
      -0.064
      -0.111
      -0.228
      -0.134
       0.315
       1.042
       1.785
       2.222
       2.152
       1.649
       1.030
       0.613
       0.452
       0.317
      -0.037
      -0.591
      -1.055
      -1.129
      -0.761
      -0.201
       0.162
       0.048
      -0.519
      -1.197
      -1.555
      -1.394
      -0.893
      -0.438
      -0.302
      -0.462
      -0.695
      -0.772
      -0.593
      -0.188
       0.306
       0.698
       0.844
       0.767
       0.645
       0.658
       0.830
       1.037
       1.112
       0.927
       0.407
      -0.400
      -1.263
      -1.835
      -1.888
      -1.506
      -1.024
      -0.752
      -0.740
      -0.791
      -0.677
      -0.349
       0.070
       0.433
       0.694
       0.901
       1.110
       1.317
       1.461
       1.488
       1.421
       1.349
       1.300
       1.134
       0.615
      -0.345
      -1.502
      -2.367
      -2.533
      -1.966
      -1.021
      -0.177
       0.277
       0.398
       0.510
       0.937
       1.739
       2.640
       3.243
       3.311
       2.854
       2.022
       0.982
      -0.079
      -0.969
      -1.570
      -1.904
      -2.085
      -2.208
      -2.274
      -2.197
      -1.868
      -1.245
      -0.408
       0.485
       1.266
       1.777
       1.873
       1.496
       0.771
      -0.013
      -0.588
      -0.873
      -0.977
      -1.077
      -1.286
      -1.588
      -1.819
      -1.742
      -1.223
      -0.374
       0.488
       1.069
       1.298
       1.317
       1.294
       1.246
       1.047
       0.605
       0.036
      -0.363
      -0.358
      -0.006
       0.358
       0.366
      -0.110
      -0.861
      -1.494
      -1.720
      -1.554
      -1.267
      -1.142
      -1.264
      -1.482
      -1.534
      -1.228
      -0.582
       0.171
       0.748
       1.028
       1.115
       1.211
       1.417
       1.650
       1.725
       1.511
       1.034
       0.475
       0.052
      -0.100
       0.011
       0.252
       0.457
       0.531
       0.540
       0.671
       1.072
       1.676
       2.182
       2.234
       1.676
       0.690
      -0.308
      -0.935
      -1.087
      -0.946
      -0.746
      -0.543
      -0.214
       0.331
       0.962
       1.401
       1.460
       1.189
       0.776
       0.362
      -0.015
      -0.339
      -0.572
      -0.715
      -0.855
      -1.083
      -1.378
      -1.633
      -1.788
      -1.883
      -1.938
      -1.861
      -1.541
      -1.049
      -0.653
      -0.576
      -0.749
      -0.843
      -0.581
      -0.008
       0.540
       0.730
       0.516
       0.176
       0.100
       0.477
       1.131
       1.634
       1.628
       1.083
       0.269
      -0.493
      -1.055
      -1.437
      -1.685
      -1.797
      -1.780
      -1.721
      -1.723
      -1.771
      -1.677
      -1.207
      -0.259
       1.015
       2.236
       2.969
       3.038
       2.723
       2.553
       2.777
       3.068
       2.837
       1.852
       0.495
      -0.584
      -1.025
      -0.998
      -0.980
      -1.323
      -1.952
      -2.412
      -2.203
      -1.184
       0.252
       1.393
       1.684
       1.122
       0.229
      -0.360
      -0.368
      -0.036
       0.131
      -0.207
      -0.974
      -1.801
      -2.322
      -2.378
      -2.016
      -1.424
      -0.888
      -0.678
      -0.848
      -1.113
      -1.026
      -0.377
       0.564
       1.218
       1.170
       0.538
      -0.102
      -0.175
       0.436
       1.312
       1.825
       1.628
       0.941
       0.425
       0.665
       1.656
       2.726
       3.036
       2.252
       0.828
      -0.344
      -0.604
       0.016
       0.886
       1.275
       0.874
      -0.044
      -0.895
      -1.220
      -0.931
      -0.257
       0.444
       0.847
       0.761
       0.179
      -0.733
      -1.712
      -2.474
      -2.785
      -2.592
      -2.152
      -1.935
      -2.257
      -2.942
      -3.371
      -2.921
      -1.432
       0.672
       2.655
       3.908
       4.271
       4.072
       3.867
       4.030
       4.460
       4.646
       4.043
       2.492
       0.319
      -1.905
      -3.682
      -4.736
      -5.001
      -4.587
      -3.768
      -2.868
      -2.100
      -1.459
      -0.776
       0.124
       1.272
       2.497
       3.509
       4.090
       4.254
       4.196
       4.056
       3.713
       2.853
       1.324
      -0.539
      -2.020
      -2.545
      -2.174
      -1.517
      -1.182
      -1.329
      -1.728
      -2.097
      -2.292
      -2.240
      -1.852
      -1.105
      -0.188
       0.492
       0.514
      -0.249
      -1.480
      -2.564
      -2.974
      -2.577
      -1.618
      -0.449
       0.686
       1.615
       2.141
       2.145
       1.770
       1.399
       1.351
       1.611
       1.860
       1.728
       1.028
      -0.158
      -1.515
      -2.602
      -3.043
      -2.707
      -1.775
      -0.632
       0.365
       1.071
       1.549
       1.863
       1.895
       1.410
       0.374
      -0.791
      -1.385
      -0.971
       0.169
       1.171
       1.303
       0.660
       0.186
       0.919
       3.084
       5.805
       7.665
       7.648
       5.778
       3.052
       0.745
      -0.430
      -0.759
      -1.246
      -2.816
      -5.605
      -8.820
     -11.218
     -11.807
     -10.377
      -7.574
      -4.479
      -1.917
       0.002
       1.721
       3.638
       5.640
       7.171
       7.655
       6.872
       5.020
       2.565
       0.044
      -2.057
      -3.401
      -3.934
      -3.961
      -3.999
      -4.409
      -5.073
      -5.405
      -4.740
      -2.869
      -0.331
       1.855
       2.933
       3.010
       2.937
       3.502
       4.736
       5.980
       6.612
       6.677
       6.799
       7.497
       8.571
       9.129
       8.261
       5.790
       2.425
      -0.782
      -3.202
      -4.952
      -6.568
      -8.422
     -10.375
     -11.867
     -12.246
     -11.131
      -8.626
      -5.322
      -2.017
       0.697
       2.734
       4.423
       6.066
       7.519
       8.209
       7.596
       5.648
       2.892
       0.030
      -2.493
      -4.608
      -6.437
      -8.006
      -9.063
      -9.119
      -7.716
      -4.803
      -0.986
       2.587
       4.775
       5.161
       4.417
       3.906
       4.683
       6.628
       8.457
       8.660
       6.669
       3.356
       0.485
      -0.484
       0.603
       2.496
       3.393
       2.158
      -0.921
      -4.355
      -6.477
      -6.545
      -5.188
      -3.860
      -3.734
      -4.850
      -6.122
      -6.185
      -4.412
      -1.333
       1.796
       3.896
       4.727
       4.843
       4.956
       5.288
       5.419
       4.695
       2.790
      -0.066
      -3.286
      -6.260
      -8.522
      -9.716
      -9.570
      -8.013
      -5.322
      -2.091
       1.042
       3.715
       5.946
       7.903
       9.609
      10.842
      11.314
      10.902
       9.704
       7.907
       5.636
       2.971
       0.057
      -2.876
      -5.600
      -7.936
      -9.652
     -10.417
      -9.985
      -8.499
      -6.507
      -4.560
      -2.775
      -0.852
       1.425
       3.742
       5.334
       5.570
       4.557
       3.228
       2.745
       3.607
       5.193
       6.152
       5.363
       2.684
      -0.973
      -4.231
      -6.039
      -6.209
      -5.407
      -4.581
      -4.270
      -4.311
      -4.134
      -3.324
      -1.934
      -0.359
       1.011
       1.996
       2.578
       2.757
       2.526
       1.994
       1.469
       1.327
       1.695
       2.227
       2.229
       1.145
      -0.903
      -3.016
      -4.073
      -3.612
      -2.243
      -1.099
      -0.790
      -0.907
      -0.563
       0.648
       2.286
       3.587
       4.218
       4.448
       4.654
       4.808
       4.514
       3.503
       1.977
       0.446
      -0.702
      -1.467
      -2.155
      -3.081
      -4.271
      -5.331
      -5.660
      -4.946
      -3.534
      -2.225
      -1.621
      -1.621
      -1.589
      -1.000
       0.094
       1.154
       1.613
       1.265
       0.342
      -0.675
      -1.367
      -1.602
      -1.482
      -1.135
      -0.606
       0.023
       0.537
       0.716
       0.603
       0.557
       1.027
       2.217
       3.921
       5.593
       6.632
       6.695
       5.857
       4.480
       2.916
       1.310
      -0.323
      -1.835
      -2.864
      -3.109
      -2.767
      -2.547
      -3.065
      -4.136
      -4.782
      -4.147
      -2.456
      -0.966
      -0.831
      -1.957
      -2.985
      -2.407
       0.198
       3.818
       6.674
       7.356
       5.674
       2.754
       0.295
      -0.566
       0.066
       1.132
       1.574
       1.097
       0.157
      -0.651
      -1.175
      -1.744
      -2.674
      -3.787
      -4.429
      -4.038
      -2.717
      -1.239
      -0.447
      -0.560
      -1.006
      -0.901
       0.215
       2.000
       3.583
       4.243
       3.902
       3.016
       2.055
       1.107
      -0.026
      -1.439
      -2.883
      -3.887
      -4.094
      -3.525
      -2.563
      -1.677
      -1.118
      -0.833
      -0.598
      -0.195
       0.501
       1.494
       2.632
       3.620
       4.146
       4.044
       3.373
       2.347
       1.210
       0.158
      -0.710
      -1.394
      -1.968
      -2.509
      -3.029
      -3.430
      -3.520
      -3.101
      -2.091
      -0.624
       0.953
       2.212
       2.875
       2.957
       2.678
       2.183
       1.426
       0.385
      -0.602
      -0.890
      -0.053
       1.555
       2.860
       2.851
       1.461
      -0.264
      -0.907
       0.246
       2.625
       4.694
       4.941
       2.891
      -0.549
      -3.679
      -5.094
      -4.510
      -2.825
      -1.449
      -1.402
      -2.702
      -4.430
      -5.398
      -4.967
      -3.425
      -1.701
      -0.654
      -0.487
      -0.688
      -0.516
       0.394
       1.768
       2.947
       3.400
       3.107
       2.552
       2.342
       2.737
       3.455
       3.895
       3.600
       2.587
       1.339
       0.486
       0.390
       0.913
       1.519
       1.633
       1.012
      -0.100
      -1.091
      -1.319
      -0.504
       0.988
       2.218
       2.210
       0.689
      -1.601
      -3.401
      -3.924
      -3.435
      -2.904
      -3.126
      -4.121
      -5.222
      -5.656
      -5.102
      -3.833
      -2.439
      -1.374
      -0.715
      -0.279
       0.040
       0.094
      -0.314
      -1.042
      -1.519
      -1.157
       0.111
       1.739
       3.011
       3.564
       3.555
       3.444
       3.611
       4.063
       4.441
       4.364
       3.807
       3.117
       2.645
       2.429
       2.238
       1.846
       1.212
       0.426
      -0.420
      -1.283
      -2.141
      -2.924
      -3.468
      -3.542
      -3.023
      -2.105
      -1.326
      -1.252
      -1.987
      -2.960
      -3.266
      -2.351
      -0.473
       1.476
       2.635
       2.732
       2.112
       1.307
       0.590
      -0.134
      -1.069
      -2.189
      -3.136
      -3.488
      -3.152
      -2.480
      -1.979
      -1.885
      -1.956
      -1.673
      -0.671
       0.924
       2.536
       3.533
       3.695
       3.354
       3.069
       3.139
       3.413
       3.523
       3.266
       2.776
       2.342
       2.068
       1.690
       0.751
      -0.919
      -2.832
      -4.010
      -3.669
      -1.877
       0.429
       2.102
       2.576
       2.154
       1.640
       1.674
       2.287
       2.938
       2.925
       1.875
       0.032
      -1.882
      -3.189
