Origin Time       25/11/2007 23:12:20
Lat.              28.6 N 
Long.             77.0 E 
Depth (Km)         20.3
Magnitude         4.3
 Region           DELHI-HARYANA-BORDER-REGION                                      
 Above details taken from IMD 
     
Station Code      REW
Station Lat.       28.184  N
Station Long.      76.610  E
Station Height(m)  246.0
Site Class        C   Vs30 between 200 m/sec to 375 m/sec *  
Record Time       25.11.2007 23:12:26.524
Sampling Rate     200. Hz
 Record Duration   33.530 Sec.
 Direction         E-W (E positive)
Max. Acceleration     18.572 cm/sec**2
     
  * For reference see Site Classification link of website 
     
 Base Line Corrected and Low Pass Filtered (Cut Off at 35 Hz) Time History
 Acceleration data in cm/sec**2
    
[...]
      -0.445
      -0.402
      -0.261
      -0.059
       0.138
       0.286
       0.378
       0.424
       0.431
       0.392
       0.297
       0.147
      -0.041
      -0.228
      -0.372
      -0.448
      -0.457
      -0.416
      -0.338
      -0.234
      -0.126
      -0.041
       0.001
       0.006
      -0.001
       0.003
       0.026
       0.063
       0.103
       0.143
       0.184
       0.221
       0.245
       0.248
       0.222
       0.162
       0.066
      -0.061
      -0.207
      -0.349
      -0.449
      -0.462
      -0.341
      -0.076
       0.277
       0.595
       0.745
       0.682
       0.492
       0.346
       0.367
       0.541
       0.723
       0.746
       0.532
       0.127
      -0.343
      -0.746
      -1.001
      -1.090
      -1.035
      -0.891
      -0.723
      -0.587
      -0.490
      -0.392
      -0.235
       0.014
       0.329
       0.638
       0.860
       0.941
       0.884
       0.745
       0.594
       0.485
       0.425
       0.377
       0.282
       0.083
      -0.227
      -0.582
      -0.860
      -0.941
      -0.774
      -0.404
       0.040
       0.409
       0.600
       0.606
       0.494
       0.354
       0.239
       0.158
       0.085
      -0.030
      -0.234
      -0.530
      -0.849
      -1.075
      -1.117
      -0.964
      -0.687
      -0.393
      -0.162
      -0.012
       0.097
       0.225
       0.395
       0.581
       0.732
       0.809
       0.801
       0.726
       0.612
       0.483
       0.338
       0.146
      -0.114
      -0.418
      -0.691
      -0.846
      -0.833
      -0.662
      -0.387
      -0.076
       0.199
       0.374
       0.405
       0.293
       0.097
      -0.082
      -0.147
      -0.061
       0.142
       0.364
       0.494
       0.468
       0.307
       0.107
      -0.023
      -0.032
       0.055
       0.159
       0.191
       0.095
      -0.119
      -0.364
      -0.508
      -0.452
      -0.189
       0.182
       0.508
       0.661
       0.605
       0.403
       0.169
      -0.016
      -0.142
      -0.250
      -0.362
      -0.440
      -0.407
      -0.228
       0.035
       0.252
       0.314
       0.211
       0.024
      -0.153
      -0.272
      -0.338
      -0.359
      -0.327
      -0.232
      -0.088
       0.051
       0.123
       0.100
       0.015
      -0.054
      -0.037
       0.074
       0.225
       0.342
       0.397
       0.423
       0.471
       0.546
       0.584
       0.489
       0.222
      -0.149
      -0.484
      -0.659
      -0.641
      -0.500
      -0.357
      -0.304
      -0.350
      -0.428
      -0.447
      -0.362
      -0.209
      -0.074
      -0.029
      -0.067
      -0.107
      -0.067
       0.078
       0.274
       0.439
       0.512
       0.480
       0.359
       0.176
      -0.032
      -0.224
      -0.359
      -0.406
      -0.349
      -0.203
      -0.013
       0.162
       0.297
       0.411
       0.538
       0.681
       0.788
       0.791
       0.658
       0.424
       0.171
      -0.024
      -0.144
      -0.225
      -0.308
      -0.392
      -0.440
      -0.428
      -0.372
      -0.315
      -0.285
      -0.285
      -0.303
      -0.323
      -0.332
      -0.317
      -0.266
      -0.175
      -0.051
       0.082
       0.181
       0.205
       0.147
       0.045
      -0.033
      -0.028
       0.074
       0.229
       0.354
       0.379
       0.302
       0.195
       0.141
       0.163
       0.204
       0.189
       0.090
      -0.055
      -0.188
      -0.278
      -0.333
      -0.375
      -0.408
      -0.414
      -0.372
      -0.285
      -0.173
      -0.062
       0.035
       0.116
       0.176
       0.198
       0.168
       0.090
      -0.006
      -0.068
      -0.044
       0.104
       0.365
       0.661
       0.873
       0.891
       0.677
       0.289
      -0.146
      -0.496
      -0.679
      -0.695
      -0.600
      -0.467
      -0.338
      -0.225
      -0.124
      -0.039
       0.008
      -0.003
      -0.064
      -0.128
      -0.144
      -0.093
      -0.005
       0.080
       0.148
       0.217
       0.302
       0.385
       0.421
       0.384
       0.286
       0.168
       0.069
       0.014
       0.009
       0.044
       0.081
       0.067
      -0.031
      -0.194
      -0.361
      -0.470
      -0.496
      -0.450
      -0.341
      -0.165
       0.075
       0.339
       0.556
       0.656
       0.619
       0.481
       0.316
       0.204
       0.185
       0.229
       0.244
       0.139
      -0.097
      -0.379
      -0.594
      -0.685
      -0.683
      -0.665
      -0.686
      -0.743
      -0.780
      -0.716
      -0.484
      -0.070
       0.447
       0.926
       1.223
       1.269
       1.086
       0.767
       0.418
       0.120
      -0.101
      -0.271
      -0.441
      -0.627
      -0.769
      -0.760
      -0.529
      -0.107
       0.375
       0.766
       0.966
       0.953
       0.769
       0.498
       0.220
      -0.025
      -0.248
      -0.471
      -0.682
      -0.821
      -0.822
      -0.672
      -0.424
      -0.167
       0.026
       0.126
       0.149
       0.132
       0.107
       0.087
       0.068
       0.052
       0.053
       0.088
       0.143
       0.177
       0.142
       0.032
      -0.106
      -0.202
      -0.207
      -0.131
      -0.031
       0.027
       0.008
      -0.080
      -0.213
      -0.372
      -0.535
      -0.657
      -0.677
      -0.551
      -0.296
       0.020
       0.320
       0.568
       0.777
       0.971
       1.136
       1.204
       1.101
       0.817
       0.433
       0.075
      -0.183
      -0.370
      -0.587
      -0.909
      -1.291
      -1.571
      -1.563
      -1.197
      -0.563
       0.150
       0.764
       1.180
       1.370
       1.347
       1.156
       0.874
       0.592
       0.375
       0.219
       0.061
      -0.159
      -0.438
      -0.691
      -0.807
      -0.718
      -0.433
      -0.030
       0.376
       0.656
       0.710
       0.506
       0.108
      -0.334
      -0.646
      -0.716
      -0.556
      -0.299
      -0.112
      -0.092
      -0.219
      -0.387
      -0.495
      -0.508
      -0.455
      -0.376
      -0.286
      -0.168
      -0.006
       0.188
       0.371
       0.489
       0.510
       0.440
       0.306
       0.147
      -0.015
      -0.166
      -0.296
      -0.399
      -0.469
      -0.508
      -0.522
      -0.516
      -0.480
      -0.385
      -0.207
       0.048
       0.325
       0.551
       0.676
       0.706
       0.684
       0.670
       0.700
       0.767
       0.820
       0.791
       0.636
       0.370
       0.070
      -0.171
      -0.286
      -0.279
      -0.222
      -0.212
      -0.305
      -0.473
      -0.622
      -0.653
      -0.532
      -0.317
      -0.126
      -0.054
      -0.103
      -0.177
      -0.154
       0.011
       0.255
       0.456
       0.524
       0.455
       0.308
       0.159
       0.064
       0.052
       0.124
       0.251
       0.380
       0.451
       0.415
       0.255
       0.002
      -0.282
      -0.533
      -0.707
      -0.792
      -0.793
      -0.722
      -0.598
      -0.434
      -0.235
      -0.014
       0.210
       0.415
       0.589
       0.722
       0.792
       0.780
       0.694
       0.572
       0.459
       0.375
       0.305
       0.230
       0.141
       0.040
      -0.082
      -0.233
      -0.398
      -0.529
      -0.578
      -0.540
      -0.458
      -0.393
      -0.385
      -0.446
      -0.557
      -0.687
      -0.798
      -0.851
      -0.826
      -0.722
      -0.564
      -0.390
      -0.235
      -0.112
      -0.009
       0.101
       0.230
       0.365
       0.476
       0.531
       0.511
       0.408
       0.230
       0.004
      -0.212
      -0.350
      -0.363
      -0.257
      -0.087
       0.094
       0.261
       0.403
       0.499
       0.524
       0.480
       0.414
       0.393
       0.441
       0.521
       0.565
       0.538
       0.459
       0.372
       0.310
       0.270
       0.231
       0.170
       0.074
      -0.051
      -0.171
      -0.234
      -0.189
      -0.023
       0.217
       0.434
       0.524
       0.437
       0.218
      -0.016
      -0.159
      -0.184
      -0.159
      -0.174
      -0.250
      -0.329
      -0.343
      -0.293
      -0.258
      -0.328
      -0.509
      -0.706
      -0.795
      -0.710
      -0.481
      -0.199
       0.047
       0.203
       0.246
       0.165
      -0.046
      -0.370
      -0.739
      -1.037
      -1.135
      -0.952
      -0.505
       0.085
       0.643
       1.014
       1.120
       0.994
       0.762
       0.586
       0.569
       0.704
       0.888
       1.000
       0.963
       0.756
       0.403
      -0.048
      -0.527
      -0.949
      -1.213
      -1.224
      -0.938
      -0.413
       0.179
       0.618
       0.744
       0.546
       0.155
      -0.236
      -0.473
      -0.500
      -0.372
      -0.215
      -0.146
      -0.194
      -0.295
      -0.349
      -0.297
      -0.154
       0.022
       0.172
       0.279
       0.367
       0.474
       0.610
       0.727
       0.739
       0.578
       0.250
      -0.158
      -0.523
      -0.739
      -0.746
      -0.533
      -0.147
       0.299
       0.652
       0.786
       0.668
       0.370
       0.016
      -0.270
      -0.404
      -0.345
      -0.118
       0.166
       0.347
       0.309
       0.059
      -0.273
      -0.508
      -0.513
      -0.263
       0.131
       0.482
       0.635
       0.566
       0.379
       0.201
       0.077
      -0.044
      -0.219
      -0.427
      -0.564
      -0.529
      -0.310
      -0.009
       0.224
       0.291
       0.202
       0.039
      -0.130
      -0.297
      -0.480
      -0.656
      -0.743
      -0.671
      -0.456
      -0.204
      -0.037
      -0.008
      -0.073
      -0.139
      -0.124
      -0.009
       0.161
       0.314
       0.392
       0.394
       0.362
       0.345
       0.350
       0.356
       0.356
       0.377
       0.461
       0.611
       0.784
       0.909
       0.914
       0.751
       0.415
      -0.030
      -0.460
      -0.750
      -0.847
      -0.795
      -0.691
      -0.610
      -0.577
      -0.579
      -0.587
      -0.559
      -0.444
      -0.209
       0.122
       0.451
       0.641
       0.595
       0.333
      -0.018
      -0.313
      -0.483
      -0.548
      -0.555
      -0.521
      -0.426
      -0.256
      -0.046
       0.131
       0.219
       0.235
       0.254
       0.338
       0.477
       0.601
       0.641
       0.567
       0.392
       0.144
      -0.141
      -0.415
      -0.629
      -0.740
      -0.718
      -0.551
      -0.255
       0.117
       0.497
       0.824
       1.052
       1.135
       1.040
       0.775
       0.408
       0.046
      -0.211
      -0.316
      -0.281
      -0.156
      -0.013
       0.057
      -0.032
      -0.323
      -0.750
      -1.144
      -1.316
      -1.183
      -0.833
      -0.460
      -0.218
      -0.121
      -0.063
       0.058
       0.240
       0.395
       0.436
       0.370
       0.278
       0.243
       0.276
       0.308
       0.256
       0.097
      -0.111
      -0.269
      -0.298
      -0.191
      -0.005
       0.174
       0.292
       0.343
       0.360
       0.372
       0.381
       0.362
       0.291
       0.172
       0.054
       0.009
       0.078
       0.217
       0.297
       0.180
      -0.171
      -0.635
      -0.994
      -1.075
      -0.863
      -0.507
      -0.218
      -0.128
      -0.227
      -0.378
      -0.411
      -0.222
       0.172
       0.667
       1.131
       1.453
       1.550
       1.379
       0.966
       0.432
      -0.053
      -0.352
      -0.438
      -0.384
      -0.299
      -0.251
      -0.238
      -0.200
      -0.066
       0.187
       0.495
       0.722
       0.754
       0.592
       0.360
       0.206
       0.184
       0.228
       0.223
       0.095
      -0.149
      -0.443
      -0.699
      -0.826
      -0.762
      -0.515
      -0.176
       0.123
       0.281
       0.272
       0.133
      -0.068
      -0.268
      -0.435
      -0.570
      -0.678
      -0.753
      -0.790
      -0.806
      -0.816
      -0.789
      -0.647
      -0.342
       0.071
       0.448
       0.639
       0.579
       0.306
      -0.088
      -0.512
      -0.907
      -1.235
      -1.492
      -1.704
      -1.907
      -2.084
      -2.141
      -1.944
      -1.443
      -0.757
      -0.141
       0.171
       0.122
      -0.141
      -0.371
      -0.397
      -0.217
       0.027
       0.171
       0.158
       0.049
      -0.055
      -0.121
      -0.192
      -0.314
      -0.466
      -0.557
      -0.489
      -0.223
       0.215
       0.750
       1.291
       1.743
       2.038
       2.170
       2.205
       2.244
       2.352
       2.522
       2.695
       2.819
       2.882
       2.891
       2.825
       2.615
       2.192
       1.552
       0.790
       0.066
      -0.475
      -0.761
      -0.801
      -0.645
      -0.354
       0.014
       0.403
       0.761
       1.019
       1.078
       0.822
       0.152
      -0.977
      -2.520
      -4.336
      -6.206
      -7.899
      -9.236
     -10.117
     -10.472
     -10.208
      -9.212
      -7.433
      -4.952
      -1.970
       1.293
       4.689
       8.141
      11.539
      14.636
      17.045
      18.404
      18.572
      17.702
      16.110
      14.021
      11.426
       8.166
       4.169
      -0.386
      -5.087
      -9.466
     -13.136
     -15.816
     -17.288
     -17.396
     -16.107
     -13.579
     -10.150
      -6.254
      -2.337
       1.193
       3.991
       5.812
       6.568
       6.366
       5.497
       4.343
       3.227
       2.278
       1.443
       0.643
      -0.071
      -0.526
      -0.601
      -0.378
      -0.091
       0.066
       0.072
       0.016
      -0.062
      -0.263
      -0.739
      -1.508
      -2.350
      -2.905
      -2.924
      -2.458
      -1.803
      -1.260
      -0.911
      -0.612
      -0.140
       0.645
       1.757
       3.138
       4.717
       6.391
       7.964
       9.113
       9.480
       8.836
       7.197
       4.784
       1.878
      -1.294
      -4.542
      -7.632
     -10.265
     -12.157
     -13.163
     -13.336
     -12.857
     -11.908
     -10.579
      -8.879
      -6.822
      -4.512
      -2.132
       0.140
       2.206
       4.040
       5.596
       6.754
       7.379
       7.441
       7.071
       6.466
       5.729
       4.794
       3.517
       1.858
      -0.014
      -1.764
      -3.074
      -3.819
      -4.094
      -4.080
      -3.839
      -3.242
      -2.096
      -0.378
       1.650
       3.559
       5.021
       5.989
       6.642
       7.142
       7.447
       7.320
       6.524
       5.009
       2.983
       0.835
      -1.014
      -2.287
      -2.946
      -3.169
      -3.227
      -3.336
      -3.588
      -3.969
      -4.425
      -4.898
      -5.303
      -5.491
      -5.268
      -4.491
      -3.175
      -1.537
       0.073
       1.304
       1.935
       1.932
       1.427
       0.654
      -0.140
      -0.777
      -1.195
      -1.443
      -1.613
      -1.729
      -1.678
      -1.245
      -0.286
       1.066
       2.360
       3.011
       2.643
       1.338
      -0.389
      -1.908
      -2.857
      -3.282
      -3.440
      -3.467
      -3.231
      -2.466
      -1.043
       0.898
       3.044
       5.142
       7.122
       9.019
      10.789
      12.202
      12.911
      12.636
      11.316
       9.126
       6.359
       3.262
      -0.062
      -3.621
      -7.380
     -11.076
     -14.130
     -15.774
     -15.375
     -12.783
      -8.489
      -3.471
       1.196
       4.755
       6.964
       7.991
       8.126
       7.545
       6.258
       4.266
       1.768
      -0.758
      -2.686
      -3.506
      -3.079
      -1.707
       0.030
       1.551
       2.522
       2.923
       2.930
       2.726
       2.373
       1.789
       0.802
      -0.744
      -2.880
      -5.426
      -8.002
     -10.167
     -11.582
     -12.106
     -11.755
     -10.606
      -8.768
      -6.412
      -3.784
      -1.124
       1.451
       3.967
       6.482
       8.907
      10.950
      12.259
      12.640
      12.141
      10.915
       9.041
       6.518
       3.457
       0.260
      -2.480
      -4.309
      -5.181
      -5.401
      -5.312
      -5.014
      -4.374
      -3.278
      -1.870
      -0.558
       0.241
       0.409
       0.219
       0.123
       0.390
       0.917
       1.358
       1.451
       1.223
       0.910
       0.702
       0.582
       0.392
       0.054
      -0.272
      -0.256
       0.331
       1.374
       2.418
       2.935
       2.650
       1.684
       0.431
      -0.687
      -1.414
      -1.701
      -1.632
      -1.337
      -0.943
      -0.538
      -0.191
       0.036
       0.103
       0.079
       0.199
       0.745
       1.776
       2.910
       3.421
       2.654
       0.472
      -2.590
      -5.589
      -7.656
      -8.419
      -8.102
      -7.295
      -6.516
      -5.869
      -5.034
      -3.610
      -1.543
       0.719
       2.492
       3.309
       3.191
       2.534
       1.800
       1.292
       1.111
       1.232
       1.566
       1.973
       2.277
       2.288
       1.872
       1.048
       0.043
      -0.784
      -1.149
      -1.045
      -0.731
      -0.536
      -0.626
      -0.936
      -1.247
      -1.323
      -1.008
      -0.277
       0.750
       1.805
       2.548
       2.720
       2.352
       1.840
       1.767
       2.519
       3.979
       5.534
       6.419
       6.167
       4.859
       3.003
       1.188
      -0.230
      -1.203
      -1.845
      -2.227
      -2.287
      -1.891
      -0.988
       0.257
       1.459
       2.148
       1.971
       0.845
      -1.020
      -3.223
      -5.301
      -6.847
      -7.614
      -7.603
      -7.044
      -6.233
      -5.309
      -4.172
      -2.625
      -0.620
       1.609
       3.635
       5.090
       5.854
       6.053
       5.882
       5.412
       4.566
       3.280
       1.701
       0.247
      -0.562
      -0.411
       0.576
       1.852
       2.763
       2.933
       2.430
       1.617
       0.817
       0.108
      -0.662
      -1.685
      -2.997
      -4.403
      -5.546
      -6.093
      -5.900
      -5.054
      -3.786
      -2.343
      -0.901
       0.469
       1.773
       3.047
       4.286
       5.397
       6.224
       6.642
       6.659
       6.400
       5.962
       5.241
       3.939
       1.806
      -1.042
      -3.999
      -6.194
      -6.933
      -6.066
      -4.049
      -1.707
       0.144
       0.986
       0.726
      -0.357
      -1.750
      -2.881
      -3.324
      -2.962
      -2.049
      -1.112
      -0.691
      -1.045
      -1.998
      -3.036
      -3.622
      -3.482
      -2.686
      -1.515
      -0.260
       0.872
       1.755
       2.311
       2.535
       2.516
       2.392
       2.237
       2.025
       1.692
       1.252
       0.825
       0.548
       0.482
       0.605
       0.905
       1.415
