Origin Time       11/11/2013 20:11:30 UTC
Lat.              28.4 N	
Long.             77.2 E	
Depth (Km)         10.0
Magnitude         3.3
 Region           DELHI                                                            
 Above details taken from IMD 
    
Station Code      RGD
Station Lat.       28.665  N
Station Long.      77.123  E
Station Height(m)  262.0
Site Class        C   Vs30 between 200 m/sec to 375 m/sec *  
Record Time       28.03.2094 20:11:07.979 UTC
Sampling Rate     200. Hz
 Record Duration   88.100 Sec.
 Direction         N-S (N positive)
Max. Acceleration     -7.619 cm/sec**2
     
  * For reference see Site Classification link of website 
     
 Base Line Corrected and Low Pass Filtered (Cut Off at 35 Hz) Time History
 Acceleration data in cm/sec**2
    
[...]
       0.008
       0.013
       0.009
      -0.007
      -0.030
      -0.054
      -0.071
      -0.077
      -0.068
      -0.046
      -0.016
       0.015
       0.040
       0.056
       0.062
       0.056
       0.039
       0.011
      -0.021
      -0.046
      -0.058
      -0.053
      -0.037
      -0.017
       0.004
       0.024
       0.041
       0.052
       0.051
       0.037
       0.016
      -0.004
      -0.020
      -0.027
      -0.028
      -0.023
      -0.013
       0.001
       0.017
       0.035
       0.049
       0.050
       0.034
       0.007
      -0.015
      -0.021
      -0.014
      -0.007
      -0.012
      -0.027
      -0.037
      -0.034
      -0.019
      -0.008
      -0.009
      -0.019
      -0.024
      -0.015
       0.003
       0.018
       0.023
       0.019
       0.012
       0.005
      -0.004
      -0.014
      -0.022
      -0.024
      -0.017
      -0.006
       0.003
       0.006
       0.005
       0.002
      -0.003
      -0.009
      -0.016
      -0.017
      -0.009
       0.009
       0.030
       0.042
       0.038
       0.023
       0.008
       0.004
       0.007
       0.006
      -0.006
      -0.023
      -0.034
      -0.027
      -0.007
       0.016
       0.031
       0.034
       0.026
       0.016
       0.011
       0.013
       0.020
       0.023
       0.020
       0.011
       0.001
      -0.002
       0.001
       0.005
       0.004
      -0.007
      -0.026
      -0.044
      -0.049
      -0.032
       0.000
       0.030
       0.037
       0.019
      -0.012
      -0.032
      -0.029
      -0.010
       0.007
       0.008
      -0.004
      -0.015
      -0.013
      -0.001
       0.007
       0.000
      -0.024
      -0.054
      -0.067
      -0.050
      -0.009
       0.029
       0.045
       0.036
       0.019
       0.015
       0.024
       0.033
       0.029
       0.005
      -0.026
      -0.046
      -0.046
      -0.027
      -0.004
       0.011
       0.011
       0.002
      -0.008
      -0.010
      -0.003
       0.010
       0.025
       0.037
       0.043
       0.040
       0.030
       0.016
       0.001
      -0.013
      -0.025
      -0.037
      -0.049
      -0.054
      -0.044
      -0.020
       0.004
       0.012
      -0.001
      -0.025
      -0.044
      -0.049
      -0.042
      -0.030
      -0.016
       0.000
       0.017
       0.034
       0.047
       0.052
       0.046
       0.031
       0.011
      -0.007
      -0.018
      -0.021
      -0.016
      -0.004
       0.008
       0.015
       0.011
       0.001
      -0.009
      -0.010
      -0.004
      -0.001
      -0.006
      -0.019
      -0.030
      -0.032
      -0.026
      -0.019
      -0.020
      -0.028
      -0.036
      -0.035
      -0.022
      -0.004
       0.010
       0.013
       0.007
      -0.001
      -0.007
      -0.012
      -0.015
      -0.015
      -0.009
       0.002
       0.015
       0.020
       0.014
      -0.003
      -0.022
      -0.034
      -0.036
      -0.029
      -0.019
      -0.009
      -0.002
       0.001
      -0.001
      -0.006
      -0.011
      -0.010
      -0.005
      -0.003
      -0.008
      -0.018
      -0.023
      -0.015
       0.001
       0.016
       0.019
       0.007
      -0.009
      -0.021
      -0.022
      -0.015
      -0.006
       0.000
       0.001
      -0.001
      -0.005
      -0.009
      -0.008
      -0.001
       0.012
       0.027
       0.042
       0.055
       0.063
       0.063
       0.049
       0.024
      -0.005
      -0.028
      -0.038
      -0.036
      -0.025
      -0.009
       0.006
       0.017
       0.019
       0.011
      -0.007
      -0.030
      -0.052
      -0.067
      -0.073
      -0.069
      -0.057
      -0.036
      -0.005
       0.028
       0.053
       0.058
       0.044
       0.019
      -0.002
      -0.015
      -0.024
      -0.034
      -0.046
      -0.049
      -0.037
      -0.012
       0.016
       0.036
       0.042
       0.033
       0.016
      -0.001
      -0.012
      -0.015
      -0.012
      -0.007
      -0.002
       0.001
       0.002
       0.005
       0.010
       0.015
       0.016
       0.011
      -0.001
      -0.014
      -0.021
      -0.019
      -0.011
      -0.008
      -0.016
      -0.031
      -0.037
      -0.026
      -0.002
       0.022
       0.031
       0.023
       0.010
       0.005
       0.016
       0.035
       0.044
       0.028
      -0.008
      -0.040
      -0.043
      -0.022
      -0.011
      -0.041
      -0.096
      -0.112
      -0.031
       0.122
       0.225
       0.151
      -0.095
      -0.336
      -0.347
      -0.077
       0.260
       0.353
       0.106
      -0.226
      -0.283
      -0.002
       0.273
       0.162
      -0.281
      -0.558
      -0.254
       0.452
       0.893
       0.589
      -0.203
      -0.720
      -0.510
       0.072
       0.305
      -0.029
      -0.392
      -0.189
       0.428
       0.679
       0.104
      -0.779
      -0.970
      -0.127
       0.974
       1.242
       0.436
      -0.613
      -0.925
      -0.379
       0.290
       0.397
       0.043
      -0.128
       0.210
       0.628
       0.454
      -0.359
      -1.035
      -0.756
       0.387
       1.364
       1.195
      -0.026
      -1.214
      -1.376
      -0.530
       0.482
       0.927
       0.755
       0.333
      -0.081
      -0.430
      -0.625
      -0.504
      -0.097
       0.279
       0.332
       0.124
      -0.035
      -0.002
       0.049
      -0.094
      -0.359
      -0.487
      -0.383
      -0.230
      -0.201
      -0.197
      -0.003
       0.337
       0.470
       0.165
      -0.286
      -0.307
       0.250
       0.774
       0.482
      -0.627
      -1.568
      -1.296
       0.189
       1.780
       2.324
       1.626
       0.366
      -0.727
      -1.387
      -1.599
      -1.306
      -0.587
       0.084
       0.161
      -0.294
      -0.509
       0.192
       1.535
       2.439
       2.047
       0.539
      -1.065
      -1.822
      -1.572
      -0.872
      -0.355
      -0.197
      -0.091
       0.328
       1.048
       1.629
       1.554
       0.675
      -0.606
      -1.597
      -1.807
      -1.251
      -0.340
       0.479
       0.972
       1.098
       0.888
       0.436
      -0.060
      -0.373
      -0.430
      -0.407
      -0.553
      -0.898
      -1.158
      -0.970
      -0.216
       0.852
       1.762
       2.063
       1.540
       0.336
      -1.057
      -2.023
      -2.159
      -1.489
      -0.392
       0.671
       1.372
       1.574
       1.293
       0.688
       0.043
      -0.354
      -0.417
      -0.369
      -0.563
      -1.105
      -1.605
      -1.409
      -0.220
       1.452
       2.552
       2.357
       1.140
      -0.085
      -0.564
      -0.491
      -0.624
      -1.264
      -1.832
      -1.523
      -0.263
       1.177
       1.967
       1.935
       1.439
       0.759
      -0.109
      -1.058
      -1.602
      -1.315
      -0.475
       0.076
      -0.132
      -0.584
      -0.361
       0.707
       1.724
       1.686
       0.587
      -0.604
      -1.019
      -0.731
      -0.462
      -0.627
      -0.887
      -0.671
       0.057
       0.733
       0.874
       0.613
       0.436
       0.516
       0.506
       0.008
      -0.864
      -1.485
      -1.275
      -0.276
       0.825
       1.285
       0.955
       0.352
       0.054
       0.094
       0.024
      -0.480
      -1.183
      -1.488
      -1.030
      -0.036
       0.871
       1.224
       1.054
       0.715
       0.457
       0.243
      -0.061
      -0.427
      -0.666
      -0.628
      -0.351
      -0.042
       0.078
      -0.045
      -0.213
      -0.150
       0.195
       0.539
       0.541
       0.161
      -0.304
      -0.538
      -0.486
      -0.298
      -0.082
       0.180
       0.501
       0.755
       0.753
       0.416
      -0.144
      -0.701
      -1.044
      -1.054
      -0.725
      -0.155
       0.486
       1.002
       1.226
       1.071
       0.560
      -0.161
      -0.841
      -1.204
      -1.109
      -0.659
      -0.119
       0.323
       0.680
       1.028
       1.269
       1.151
       0.555
      -0.283
      -0.921
      -1.099
      -0.929
      -0.687
      -0.490
      -0.237
       0.143
       0.516
       0.662
       0.542
       0.358
       0.294
       0.270
       0.036
      -0.469
      -0.932
      -0.917
      -0.313
       0.488
       0.919
       0.731
       0.159
      -0.349
      -0.537
      -0.465
      -0.340
      -0.276
      -0.219
      -0.024
       0.396
       0.943
       1.300
       1.109
       0.294
      -0.731
      -1.307
      -1.098
      -0.429
       0.034
      -0.041
      -0.322
      -0.200
       0.509
       1.297
       1.450
       0.765
      -0.262
      -0.955
      -1.069
      -0.841
      -0.565
      -0.281
       0.083
       0.419
       0.470
       0.188
      -0.079
       0.056
       0.513
       0.755
       0.401
      -0.279
      -0.616
      -0.301
       0.249
       0.354
      -0.145
      -0.710
      -0.714
      -0.110
       0.562
       0.751
       0.403
      -0.078
      -0.275
      -0.132
       0.082
       0.096
      -0.123
      -0.393
      -0.501
      -0.357
      -0.053
       0.201
       0.215
      -0.016
      -0.282
      -0.315
      -0.030
       0.386
       0.618
       0.492
       0.131
      -0.150
      -0.119
       0.167
       0.399
       0.285
      -0.196
      -0.762
      -1.050
      -0.876
      -0.355
       0.181
       0.408
       0.255
      -0.028
      -0.074
       0.234
       0.629
       0.723
       0.397
      -0.115
      -0.473
      -0.527
      -0.348
      -0.082
       0.161
       0.291
       0.215
      -0.079
      -0.414
      -0.485
      -0.116
       0.522
       0.977
       0.879
       0.285
      -0.330
      -0.508
      -0.274
      -0.119
      -0.440
      -1.011
      -1.127
      -0.328
       1.041
       2.041
       1.938
       0.822
      -0.508
      -1.241
      -1.141
      -0.579
      -0.100
      -0.013
      -0.275
      -0.600
      -0.637
      -0.171
       0.691
       1.481
       1.616
       0.851
      -0.425
      -1.356
      -1.279
      -0.353
       0.494
       0.414
      -0.474
      -1.165
      -0.809
       0.373
       1.335
       1.294
       0.423
      -0.497
      -0.896
      -0.753
      -0.308
       0.250
       0.724
       0.798
       0.264
      -0.602
      -1.092
      -0.684
       0.377
       1.201
       1.046
       0.002
      -1.070
      -1.286
      -0.489
       0.668
       1.319
       1.074
       0.217
      -0.646
      -1.075
      -0.989
      -0.558
      -0.015
       0.411
       0.537
       0.362
       0.147
       0.240
       0.674
       1.003
       0.692
      -0.258
      -1.159
      -1.245
      -0.438
       0.537
       0.820
       0.206
      -0.707
      -1.098
      -0.656
       0.210
       0.799
       0.724
       0.168
      -0.329
      -0.328
       0.164
       0.698
       0.773
       0.302
      -0.305
      -0.555
      -0.341
       0.003
       0.078
      -0.194
      -0.543
      -0.662
      -0.474
      -0.119
       0.213
       0.381
       0.364
       0.323
       0.514
       0.977
       1.328
       1.024
      -0.071
      -1.404
      -2.115
      -1.763
      -0.701
       0.263
       0.572
       0.314
      -0.023
      -0.072
       0.164
       0.440
       0.510
       0.264
      -0.178
      -0.463
      -0.228
       0.540
       1.392
       1.740
       1.285
       0.170
      -1.149
      -2.103
      -2.261
      -1.641
      -0.811
      -0.514
      -0.971
      -1.550
      -1.256
       0.286
       2.340
       3.619
       3.400
       2.075
       0.646
      -0.179
      -0.393
      -0.381
      -0.441
      -0.655
      -1.023
      -1.500
      -1.852
      -1.698
      -0.901
       0.126
       0.691
       0.506
       0.023
      -0.001
       0.701
       1.620
       1.991
       1.523
       0.586
      -0.192
      -0.362
       0.210
       1.363
       2.599
       3.145
       2.341
       0.224
      -2.288
      -3.981
      -4.297
      -3.713
      -3.157
      -3.029
      -2.823
      -1.717
       0.463
       2.844
       4.115
       3.645
       2.067
       0.685
       0.230
       0.274
      -0.052
      -0.878
      -1.403
      -0.893
       0.378
       1.483
       2.024
       2.587
       3.737
       4.802
       4.166
       1.072
      -3.146
      -6.025
      -6.234
      -4.693
      -3.407
      -3.383
      -3.815
      -3.159
      -0.751
       2.618
       5.432
       6.509
       5.527
       3.029
       0.250
      -1.297
      -0.719
       1.376
       3.050
       2.538
      -0.169
      -3.252
      -4.688
      -4.012
      -2.502
      -1.714
      -1.946
      -2.147
      -1.198
       0.839
       2.735
       3.228
       2.120
       0.393
      -0.645
      -0.360
       0.827
       1.869
       1.918
       0.934
      -0.351
      -1.091
      -1.063
      -0.800
      -0.966
      -1.620
      -2.150
      -1.927
      -0.964
       0.062
       0.402
      -0.098
      -0.798
      -0.760
       0.390
       1.931
       2.510
       1.375
      -0.716
      -2.018
      -1.417
       0.460
       1.878
       1.800
       0.948
       0.955
       2.452
       4.127
       3.854
       0.774
      -3.739
      -7.130
      -7.619
      -5.319
      -1.833
       1.009
       2.253
       2.158
       1.705
       1.675
       1.975
       1.823
       0.685
      -0.952
      -1.828
      -1.020
       1.173
       3.419
       4.382
       3.617
       1.689
      -0.392
      -1.846
      -2.442
      -2.415
      -2.130
      -1.727
      -1.031
       0.108
       1.360
       1.968
       1.415
       0.064
      -1.023
      -1.029
      -0.169
       0.570
       0.506
      -0.020
      -0.119
       0.530
       1.222
       0.974
      -0.372
      -1.882
      -2.372
      -1.471
       0.151
       1.478
       1.930
       1.516
       0.527
      -0.648
      -1.495
      -1.502
      -0.579
       0.645
       1.154
       0.381
      -1.205
      -2.432
      -2.421
      -1.299
       0.077
       1.005
       1.435
       1.618
       1.540
       0.952
      -0.115
      -1.097
      -1.330
      -0.676
       0.366
       1.149
       1.400
       1.240
       0.851
       0.296
      -0.340
      -0.845
      -1.070
      -1.146
      -1.315
      -1.519
      -1.295
      -0.255
       1.343
       2.603
       2.660
       1.405
      -0.401
      -1.704
      -1.932
      -1.297
      -0.428
       0.268
       0.827
       1.408
       1.876
       1.807
       0.895
      -0.637
      -2.056
      -2.664
      -2.418
      -1.923
      -1.701
      -1.563
      -0.902
       0.357
       1.384
       1.281
       0.260
      -0.351
       0.527
       2.450
       3.765
       3.236
       1.251
      -0.610
      -1.108
      -0.372
       0.483
       0.523
      -0.287
      -1.310
      -1.919
      -1.904
      -1.405
      -0.646
       0.185
       0.935
       1.478
       1.729
       1.637
       1.152
       0.268
      -0.824
      -1.634
      -1.613
      -0.662
       0.583
       1.158
       0.635
      -0.406
      -0.861
      -0.148
       1.201
       1.994
       1.459
      -0.065
      -1.466
      -1.862
      -1.301
      -0.540
      -0.237
      -0.414
      -0.658
      -0.678
      -0.543
      -0.438
      -0.370
      -0.222
      -0.017
       0.023
      -0.195
      -0.347
       0.067
       1.080
       1.993
       1.956
       0.893
      -0.293
      -0.576
       0.151
       0.991
       0.989
       0.071
      -0.974
      -1.357
      -1.010
      -0.461
      -0.148
      -0.017
       0.192
       0.442
       0.378
      -0.178
      -0.874
      -1.117
      -0.711
      -0.077
       0.225
       0.126
       0.101
       0.578
       1.388
       1.900
       1.666
       0.841
      -0.021
      -0.501
      -0.605
      -0.599
      -0.668
      -0.773
      -0.778
      -0.620
      -0.317
       0.103
       0.588
       0.963
       0.938
       0.322
      -0.703
      -1.551
      -1.607
      -0.740
       0.493
       1.196
       0.822
      -0.360
      -1.424
      -1.525
      -0.609
       0.595
       1.299
       1.361
       1.266
       1.466
       1.882
       2.041
       1.579
       0.531
      -0.797
      -2.042
      -2.796
      -2.613
      -1.326
       0.515
       1.767
       1.563
       0.148
      -1.297
      -1.767
      -1.317
      -0.788
      -0.749
      -0.878
      -0.418
       0.873
       2.339
       2.976
       2.343
       0.926
      -0.305
      -0.719
      -0.470
      -0.263
      -0.674
      -1.637
      -2.487
      -2.517
      -1.567
      -0.138
       1.049
       1.579
       1.480
       0.980
       0.286
      -0.407
      -0.828
      -0.743
      -0.174
       0.552
       1.037
       1.107
       0.898
       0.682
       0.588
       0.475
       0.093
      -0.580
      -1.209
      -1.374
      -1.009
      -0.484
      -0.209
      -0.240
      -0.315
      -0.194
       0.104
       0.375
       0.455
       0.358
       0.229
       0.215
       0.373
       0.628
       0.778
       0.599
       0.063
      -0.528
      -0.712
      -0.302
       0.361
       0.671
       0.357
      -0.216
      -0.431
      -0.118
       0.258
       0.145
      -0.450
      -0.971
      -0.945
      -0.475
      -0.060
       0.008
      -0.032
       0.259
       0.945
       1.570
       1.607
       0.967
       0.053
      -0.625
      -0.831
      -0.626
      -0.168
       0.389
       0.823
       0.825
       0.254
      -0.572
      -1.006
      -0.656
       0.185
       0.791
       0.724
       0.219
      -0.157
      -0.155
      -0.015
      -0.061
      -0.268
      -0.353
      -0.204
      -0.063
      -0.218
      -0.585
      -0.754
      -0.476
       0.001
       0.187
      -0.092
      -0.495
      -0.573
      -0.289
      -0.032
      -0.118
      -0.394
      -0.414
       0.040
       0.711
       1.137
       1.087
       0.689
       0.215
      -0.153
      -0.325
      -0.250
       0.008
       0.190
       0.024
      -0.433
      -0.759
      -0.604
      -0.114
       0.189
      -0.032
      -0.593
      -1.039
      -1.104
      -0.832
      -0.330
       0.363
       1.109
       1.582
       1.530
       1.117
       0.838
       1.014
       1.397
       1.375
       0.612
      -0.568
      -1.478
      -1.706
      -1.406
      -0.979
      -0.589
      -0.114
       0.489
       0.960
       0.959
       0.466
      -0.146
      -0.437
      -0.273
       0.085
       0.224
      -0.069
      -0.590
      -0.848
      -0.496
       0.301
       0.937
       0.877
       0.144
      -0.673
      -0.937
      -0.516
       0.172
       0.624
       0.709
       0.633
       0.577
       0.479
       0.183
      -0.317
      -0.825
      -1.110
      -1.078
      -0.820
      -0.543
      -0.397
      -0.327
      -0.102
       0.437
       1.141
       1.572
       1.317
       0.365
      -0.790
