Origin Time       11/11/2013 19:11:18 UTC
Lat.              28.5 N	
Long.             77.2 E	
Depth (Km)         10.0
Magnitude         3.1
 Region           DELHI                                                            
 Above details taken from IMD 
    
Station Code      RGD
Station Lat.       28.665  N
Station Long.      77.123  E
Station Height(m)  262.0
Site Class        C   Vs30 between 200 m/sec to 375 m/sec *  
Record Time       28.03.2094 19:10:55.719 UTC
Sampling Rate     200. Hz
 Record Duration   82.760 Sec.
 Direction         N-S (N positive)
Max. Acceleration     -3.413 cm/sec**2
     
  * For reference see Site Classification link of website 
     
 Base Line Corrected and Low Pass Filtered (Cut Off at 35 Hz) Time History
 Acceleration data in cm/sec**2
    
[...]
       0.016
       0.020
       0.025
       0.032
       0.039
       0.044
       0.043
       0.039
       0.033
       0.024
       0.010
      -0.004
      -0.013
      -0.012
      -0.004
       0.006
       0.011
       0.007
      -0.003
      -0.012
      -0.014
      -0.010
      -0.006
      -0.007
      -0.013
      -0.018
      -0.016
      -0.006
       0.007
       0.014
       0.012
       0.004
      -0.002
      -0.001
       0.003
       0.004
      -0.001
      -0.008
      -0.009
      -0.003
       0.009
       0.018
       0.020
       0.014
       0.006
       0.000
       0.000
       0.007
       0.016
       0.022
       0.025
       0.028
       0.032
       0.037
       0.036
       0.031
       0.023
       0.019
       0.018
       0.016
       0.008
      -0.007
      -0.022
      -0.030
      -0.027
      -0.018
      -0.006
       0.006
       0.016
       0.023
       0.028
       0.029
       0.025
       0.015
       0.001
      -0.013
      -0.019
      -0.014
      -0.003
       0.009
       0.017
       0.023
       0.027
       0.029
       0.025
       0.014
      -0.003
      -0.016
      -0.021
      -0.021
      -0.018
      -0.019
      -0.022
      -0.027
      -0.031
      -0.033
      -0.033
      -0.030
      -0.024
      -0.016
      -0.009
      -0.005
      -0.003
      -0.002
       0.001
       0.005
       0.009
       0.009
       0.007
       0.004
       0.001
      -0.001
       0.001
       0.005
       0.007
       0.004
      -0.003
      -0.011
      -0.015
      -0.014
      -0.010
      -0.001
       0.012
       0.026
       0.036
       0.041
       0.042
       0.045
       0.046
       0.045
       0.038
       0.028
       0.016
       0.002
      -0.009
      -0.013
      -0.004
       0.011
       0.023
       0.025
       0.015
       0.001
      -0.014
      -0.025
      -0.033
      -0.035
      -0.029
      -0.017
      -0.006
      -0.001
      -0.003
      -0.011
      -0.017
      -0.018
      -0.014
      -0.008
      -0.005
      -0.007
      -0.013
      -0.018
      -0.020
      -0.020
      -0.018
      -0.017
      -0.013
      -0.005
       0.004
       0.014
       0.022
       0.027
       0.029
       0.026
       0.018
       0.007
      -0.005
      -0.012
      -0.011
      -0.005
       0.001
       0.006
       0.013
       0.026
       0.040
       0.047
       0.038
       0.013
      -0.013
      -0.025
      -0.019
      -0.001
       0.017
       0.030
       0.038
       0.045
       0.050
       0.049
       0.038
       0.020
      -0.003
      -0.022
      -0.033
      -0.034
      -0.030
      -0.025
      -0.022
      -0.020
      -0.021
      -0.021
      -0.017
      -0.008
       0.006
       0.020
       0.029
       0.027
       0.014
      -0.003
      -0.018
      -0.023
      -0.022
      -0.019
      -0.019
      -0.023
      -0.027
      -0.028
      -0.021
      -0.007
       0.008
       0.015
       0.008
      -0.010
      -0.027
      -0.032
      -0.019
       0.005
       0.025
       0.032
       0.025
       0.016
       0.013
       0.020
       0.031
       0.035
       0.025
       0.006
      -0.011
      -0.019
      -0.014
       0.000
       0.018
       0.033
       0.038
       0.028
       0.006
      -0.017
      -0.029
      -0.026
      -0.012
      -0.001
       0.000
      -0.011
      -0.026
      -0.035
      -0.033
      -0.023
      -0.014
      -0.010
      -0.008
      -0.003
       0.004
       0.006
       0.000
      -0.013
      -0.023
      -0.021
      -0.010
       0.000
       0.000
      -0.007
      -0.015
      -0.017
      -0.014
      -0.007
      -0.002
       0.000
       0.000
      -0.002
      -0.006
      -0.008
      -0.006
       0.002
       0.012
       0.015
       0.007
      -0.009
      -0.024
      -0.029
      -0.022
      -0.005
       0.013
       0.025
       0.027
       0.020
       0.007
      -0.008
      -0.020
      -0.028
      -0.029
      -0.027
      -0.018
      -0.003
       0.017
       0.034
       0.040
       0.034
       0.022
       0.013
       0.009
       0.007
      -0.001
      -0.013
      -0.023
      -0.022
      -0.010
       0.009
       0.022
       0.020
       0.005
      -0.015
      -0.025
      -0.022
      -0.012
      -0.006
      -0.008
      -0.014
      -0.015
      -0.009
       0.003
       0.018
       0.030
       0.038
       0.036
       0.024
       0.005
      -0.012
      -0.020
      -0.018
      -0.009
       0.004
       0.015
       0.019
       0.013
       0.000
      -0.011
      -0.012
      -0.003
       0.008
       0.015
       0.015
       0.010
       0.007
       0.008
       0.011
       0.014
       0.012
       0.007
       0.001
      -0.001
       0.001
       0.006
       0.008
       0.006
       0.003
       0.002
       0.003
       0.001
      -0.004
      -0.009
      -0.008
       0.002
       0.013
       0.022
       0.027
       0.031
       0.039
       0.053
       0.067
       0.075
       0.069
       0.051
       0.030
       0.013
       0.005
       0.006
       0.008
       0.006
       0.002
      -0.002
      -0.004
      -0.006
      -0.007
      -0.009
      -0.009
      -0.007
      -0.004
      -0.002
      -0.003
      -0.007
      -0.015
      -0.026
      -0.033
      -0.030
      -0.019
      -0.011
      -0.015
      -0.028
      -0.030
      -0.004
       0.039
       0.069
       0.059
       0.026
       0.007
       0.020
       0.032
      -0.002
      -0.082
      -0.141
      -0.110
       0.004
       0.113
       0.135
       0.079
       0.025
       0.036
       0.088
       0.107
       0.055
      -0.027
      -0.073
      -0.064
      -0.040
      -0.039
      -0.049
      -0.044
      -0.020
       0.008
       0.042
       0.088
       0.114
       0.072
      -0.024
      -0.081
      -0.022
       0.109
       0.181
       0.131
       0.039
       0.026
       0.093
       0.120
       0.020
      -0.143
      -0.226
      -0.180
      -0.092
      -0.053
      -0.045
       0.011
       0.131
       0.243
       0.270
       0.194
       0.038
      -0.160
      -0.323
      -0.358
      -0.236
      -0.061
       0.014
      -0.040
      -0.063
       0.115
       0.427
       0.574
       0.330
      -0.181
      -0.560
      -0.530
      -0.225
      -0.025
      -0.131
      -0.354
      -0.368
      -0.100
       0.226
       0.387
       0.397
       0.400
       0.424
       0.340
       0.086
      -0.175
      -0.211
      -0.007
       0.185
       0.137
      -0.087
      -0.210
      -0.087
       0.122
       0.133
      -0.132
      -0.459
      -0.577
      -0.427
      -0.150
       0.112
       0.324
       0.480
       0.525
       0.420
       0.237
       0.116
       0.110
       0.100
      -0.079
      -0.417
      -0.683
      -0.628
      -0.235
       0.248
       0.527
       0.483
       0.226
      -0.034
      -0.155
      -0.148
      -0.125
      -0.169
      -0.233
      -0.186
       0.023
       0.279
       0.390
       0.276
       0.059
      -0.064
      -0.030
       0.030
      -0.043
      -0.238
      -0.379
      -0.323
      -0.096
       0.151
       0.287
       0.277
       0.176
       0.050
      -0.065
      -0.165
      -0.239
      -0.261
      -0.203
      -0.066
       0.112
       0.254
       0.286
       0.188
       0.027
      -0.083
      -0.073
       0.019
       0.080
       0.041
      -0.049
      -0.077
      -0.011
       0.049
      -0.005
      -0.133
      -0.169
      -0.020
       0.201
       0.270
       0.105
      -0.128
      -0.177
       0.016
       0.245
       0.275
       0.106
      -0.048
      -0.038
       0.033
      -0.043
      -0.284
      -0.474
      -0.394
      -0.084
       0.193
       0.224
       0.065
      -0.025
       0.110
       0.333
       0.358
       0.086
      -0.253
      -0.343
      -0.121
       0.175
       0.275
       0.144
      -0.032
      -0.087
      -0.037
      -0.018
      -0.106
      -0.233
      -0.281
      -0.212
      -0.081
       0.058
       0.213
       0.370
       0.426
       0.275
      -0.038
      -0.302
      -0.326
      -0.125
       0.097
       0.155
       0.067
       0.000
       0.068
       0.188
       0.183
      -0.002
      -0.229
      -0.318
      -0.236
      -0.099
      -0.018
       0.008
       0.048
       0.110
       0.124
       0.032
      -0.119
      -0.206
      -0.139
       0.038
       0.166
       0.115
      -0.070
      -0.180
      -0.045
       0.262
       0.460
       0.338
      -0.025
      -0.329
      -0.344
      -0.130
       0.050
       0.004
      -0.198
      -0.316
      -0.199
       0.073
       0.284
       0.295
       0.150
      -0.014
      -0.116
      -0.172
      -0.201
      -0.163
      -0.031
       0.112
       0.133
       0.008
      -0.114
      -0.065
       0.145
       0.315
       0.253
      -0.014
      -0.251
      -0.253
      -0.050
       0.135
       0.138
       0.017
      -0.040
       0.048
       0.163
       0.134
      -0.055
      -0.249
      -0.312
      -0.263
      -0.227
      -0.255
      -0.245
      -0.057
       0.303
       0.640
       0.724
       0.486
       0.072
      -0.276
      -0.402
      -0.320
      -0.156
      -0.037
      -0.011
      -0.045
      -0.058
       0.012
       0.137
       0.208
       0.136
      -0.040
      -0.191
      -0.210
      -0.102
       0.045
       0.143
       0.162
       0.120
       0.047
      -0.026
      -0.072
      -0.089
      -0.100
      -0.129
      -0.157
      -0.144
      -0.073
       0.039
       0.160
       0.266
       0.334
       0.325
       0.193
      -0.051
      -0.308
      -0.430
      -0.341
      -0.119
       0.060
       0.064
      -0.079
      -0.204
      -0.160
       0.044
       0.252
       0.323
       0.251
       0.127
       0.017
      -0.076
      -0.144
      -0.128
       0.000
       0.142
       0.133
      -0.068
      -0.299
      -0.342
      -0.156
       0.079
       0.167
       0.108
       0.058
       0.107
       0.166
       0.111
      -0.020
      -0.067
       0.035
       0.144
       0.088
      -0.103
      -0.210
      -0.096
       0.096
       0.095
      -0.156
      -0.380
      -0.259
       0.184
       0.560
       0.514
       0.092
      -0.313
      -0.368
      -0.108
       0.142
       0.111
      -0.169
      -0.432
      -0.442
      -0.206
       0.085
       0.267
       0.322
       0.313
       0.260
       0.153
       0.032
      -0.011
       0.039
       0.064
      -0.052
      -0.241
      -0.287
      -0.078
       0.232
       0.362
       0.194
      -0.113
      -0.307
      -0.299
      -0.181
      -0.058
       0.063
       0.176
       0.209
       0.118
       0.010
       0.052
       0.231
       0.312
       0.095
      -0.317
      -0.593
      -0.509
      -0.179
       0.101
       0.172
       0.134
       0.159
       0.244
       0.220
       0.012
      -0.190
      -0.126
       0.183
       0.379
       0.154
      -0.361
      -0.698
      -0.551
      -0.110
       0.171
       0.075
      -0.164
      -0.158
       0.176
       0.534
       0.561
       0.230
      -0.154
      -0.292
      -0.173
      -0.009
       0.047
       0.034
       0.060
       0.125
       0.129
       0.019
      -0.120
      -0.154
      -0.059
       0.038
      -0.007
      -0.179
      -0.286
      -0.154
       0.179
       0.467
       0.469
       0.177
      -0.176
      -0.322
      -0.193
       0.039
       0.140
       0.053
      -0.061
      -0.024
       0.149
       0.254
       0.114
      -0.229
      -0.530
      -0.546
      -0.250
       0.126
       0.297
       0.188
      -0.009
      -0.058
       0.077
       0.207
       0.131
      -0.141
      -0.388
      -0.388
      -0.135
       0.149
       0.225
       0.069
      -0.122
      -0.157
      -0.055
       0.013
      -0.030
      -0.069
       0.028
       0.180
       0.157
      -0.115
      -0.380
      -0.287
       0.165
       0.550
       0.481
       0.108
      -0.011
       0.409
       0.956
       0.942
       0.197
      -0.691
      -1.001
      -0.653
      -0.240
      -0.291
      -0.626
      -0.589
       0.119
       1.008
       1.298
       0.746
      -0.118
      -0.595
      -0.512
      -0.287
      -0.359
      -0.683
      -0.817
      -0.444
       0.284
       0.893
       1.029
       0.739
       0.362
       0.156
       0.069
      -0.132
      -0.525
      -0.876
      -0.854
      -0.402
       0.161
       0.453
       0.437
       0.442
       0.758
       1.249
       1.439
       1.003
       0.139
      -0.597
      -0.837
      -0.755
      -0.821
      -1.234
      -1.661
      -1.573
      -0.822
       0.153
       0.740
       0.759
       0.584
       0.649
       0.915
       0.911
       0.325
      -0.547
      -1.059
      -0.909
      -0.460
      -0.269
      -0.373
      -0.212
       0.666
       1.941
       2.723
       2.426
       1.344
       0.296
      -0.247
      -0.535
      -1.056
      -1.810
      -2.243
      -1.880
      -0.907
      -0.008
       0.319
       0.168
      -0.035
      -0.042
       0.038
       0.035
       0.014
       0.212
       0.697
       1.228
       1.506
       1.503
       1.381
       1.135
       0.472
      -0.821
      -2.399
      -3.413
      -3.171
      -1.792
      -0.160
       0.863
       1.146
       1.198
       1.432
       1.642
       1.286
       0.208
      -1.018
      -1.569
      -1.179
      -0.369
       0.151
       0.235
       0.318
       0.755
       1.299
       1.366
       0.733
      -0.189
      -0.837
      -1.097
      -1.285
      -1.570
      -1.647
      -1.136
      -0.163
       0.642
       0.815
       0.564
       0.503
       0.911
       1.397
       1.336
       0.564
      -0.460
      -1.105
      -1.107
      -0.665
      -0.119
       0.333
       0.647
       0.787
       0.709
       0.448
       0.129
      -0.155
      -0.432
      -0.765
      -1.102
      -1.283
      -1.220
      -1.006
      -0.809
      -0.650
      -0.341
       0.325
       1.330
       2.372
       3.026
       2.947
       2.028
       0.511
      -1.041
      -2.009
      -2.104
      -1.543
      -0.832
      -0.346
      -0.095
       0.157
       0.586
       1.103
       1.434
       1.352
       0.859
       0.172
      -0.426
      -0.740
      -0.737
      -0.526
      -0.271
      -0.095
      -0.044
      -0.117
      -0.288
      -0.470
      -0.531
      -0.393
      -0.119
       0.170
       0.438
       0.742
       1.069
       1.233
       1.021
       0.416
      -0.326
      -0.859
      -1.003
      -0.878
      -0.783
      -0.887
      -1.015
      -0.782
      -0.030
       0.894
       1.388
       1.156
       0.495
      -0.027
      -0.130
      -0.059
      -0.238
      -0.755
      -1.216
      -1.122
      -0.389
       0.515
       0.947
       0.657
       0.003
      -0.405
      -0.279
       0.116
       0.295
       0.100
      -0.120
       0.097
       0.750
       1.277
       1.081
       0.155
      -0.884
      -1.400
      -1.334
      -1.128
      -1.082
      -0.928
      -0.163
       1.198
       2.395
       2.585
       1.696
       0.508
      -0.140
      -0.161
      -0.178
      -0.711
      -1.520
      -1.842
      -1.263
      -0.227
       0.415
       0.298
      -0.141
      -0.232
       0.160
       0.553
       0.456
      -0.057
      -0.462
      -0.389
       0.016
       0.323
       0.324
       0.226
       0.358
       0.746
       1.043
       0.878
       0.241
      -0.508
      -0.977
      -1.014
      -0.711
      -0.247
       0.205
       0.474
       0.450
       0.199
      -0.015
       0.027
       0.245
       0.315
       0.036
      -0.423
      -0.679
      -0.522
      -0.120
       0.191
       0.263
       0.240
       0.300
       0.398
       0.361
       0.191
       0.106
       0.223
       0.333
       0.125
      -0.418
      -0.942
      -1.088
      -0.851
      -0.521
      -0.319
      -0.187
       0.020
       0.254
       0.300
       0.087
      -0.127
       0.000
       0.481
       0.931
       0.955
       0.563
       0.138
       0.019
       0.170
       0.290
       0.164
      -0.154
      -0.476
      -0.670
      -0.686
      -0.498
      -0.141
       0.215
       0.338
       0.159
      -0.104
      -0.128
       0.162
       0.481
       0.462
       0.051
      -0.398
      -0.450
      -0.030
       0.471
       0.550
       0.063
      -0.654
      -1.091
      -0.972
      -0.416
       0.226
       0.644
       0.744
       0.638
       0.504
       0.437
       0.403
       0.294
       0.047
      -0.278
      -0.517
      -0.527
      -0.318
      -0.054
       0.083
       0.056
       0.003
       0.091
       0.322
       0.506
       0.441
       0.118
      -0.275
      -0.521
      -0.525
      -0.320
      -0.002
       0.339
       0.633
       0.826
       0.860
       0.695
       0.350
      -0.080
      -0.463
      -0.713
      -0.818
      -0.831
      -0.824
      -0.834
      -0.821
      -0.681
      -0.345
       0.133
       0.586
       0.856
       0.900
       0.784
       0.618
       0.496
       0.453
       0.438
       0.332
       0.033
      -0.435
      -0.892
      -1.093
      -0.927
      -0.538
      -0.226
      -0.181
      -0.296
      -0.265
       0.086
       0.577
       0.819
       0.603
       0.132
      -0.194
      -0.192
      -0.033
       0.016
      -0.071
      -0.100
       0.057
       0.277
       0.356
       0.275
       0.210
       0.281
       0.374
       0.276
      -0.067
      -0.471
      -0.683
      -0.584
      -0.235
       0.205
       0.572
       0.735
       0.632
       0.308
      -0.077
      -0.345
      -0.437
      -0.456
      -0.550
      -0.728
      -0.815
      -0.614
      -0.114
       0.476
       0.905
       1.072
       1.024
       0.813
       0.444
      -0.031
      -0.435
      -0.581
      -0.462
      -0.283
      -0.247
      -0.352
      -0.402
      -0.236
       0.090
       0.348
       0.368
       0.193
       0.017
      -0.035
      -0.022
      -0.088
      -0.261
      -0.394
      -0.303
       0.052
       0.524
       0.886
       0.973
       0.754
       0.328
      -0.145
      -0.522
      -0.734
      -0.777
      -0.662
      -0.403
      -0.051
       0.287
       0.492
       0.530
       0.475
       0.447
       0.472
       0.446
       0.245
      -0.104
      -0.415
      -0.510
      -0.406
      -0.280
      -0.269
      -0.331
      -0.307
      -0.108
       0.187
       0.395
       0.395
       0.227
       0.044
      -0.046
      -0.071
      -0.136
      -0.273
      -0.370
      -0.271
       0.053
       0.426
       0.582
       0.405
       0.051
      -0.186
      -0.155
       0.015
       0.064
      -0.109
      -0.342
      -0.387
      -0.187
       0.061
       0.111
      -0.062
      -0.260
      -0.295
      -0.182
      -0.069
       0.003
       0.146
       0.423
       0.664
       0.593
