Origin Time       11/11/2013 22:10:42
Lat.              28.4 N	
Long.             77.2 E	
Depth (Km)         11.0
Magnitude         2.8
 Region           DELHI                                                            
 Above details taken from IMD 
   
Station Code      RGD
Station Lat.       28.665
Station Long.      77.123
Station Height(m)  262.0
Site Class        C   Vs30 between 200 m/sec to 375 m/sec *  
Record Time       28.03.2094 22:10:22.439
Sampling Rate     200. Hz
 Record Duration   80.860 Sec.
 Direction         Vert. (Up positive)
Max. Acceleration     -2.261 cm/sec**2
     
  * For reference see Site Classification link of website 
     
 Base Line Corrected and Low Pass Filtered (Cut Off at 35 Hz) Time History
 Acceleration data in cm/sec**2
    
[...]
       0.009
       0.008
       0.012
       0.018
       0.016
       0.004
      -0.014
      -0.028
      -0.032
      -0.030
      -0.029
      -0.032
      -0.040
      -0.046
      -0.043
      -0.030
      -0.012
       0.005
       0.018
       0.028
       0.036
       0.043
       0.045
       0.042
       0.030
       0.013
      -0.004
      -0.012
      -0.010
      -0.001
       0.010
       0.017
       0.020
       0.016
       0.005
      -0.011
      -0.025
      -0.032
      -0.033
      -0.032
      -0.032
      -0.035
      -0.040
      -0.043
      -0.044
      -0.041
      -0.035
      -0.030
      -0.027
      -0.029
      -0.032
      -0.033
      -0.027
      -0.013
       0.004
       0.018
       0.025
       0.024
       0.017
       0.008
       0.003
       0.005
       0.013
       0.024
       0.033
       0.038
       0.036
       0.026
       0.009
      -0.009
      -0.024
      -0.031
      -0.032
      -0.027
      -0.014
       0.005
       0.026
       0.046
       0.058
       0.061
       0.055
       0.043
       0.030
       0.017
       0.005
      -0.006
      -0.014
      -0.015
      -0.009
      -0.002
       0.001
      -0.004
      -0.015
      -0.026
      -0.031
      -0.032
      -0.030
      -0.026
      -0.019
      -0.008
       0.003
       0.011
       0.014
       0.014
       0.015
       0.017
       0.018
       0.011
      -0.003
      -0.017
      -0.023
      -0.017
      -0.002
       0.014
       0.023
       0.024
       0.017
       0.007
      -0.005
      -0.016
      -0.026
      -0.036
      -0.043
      -0.042
      -0.035
      -0.024
      -0.015
      -0.014
      -0.020
      -0.026
      -0.027
      -0.020
      -0.008
       0.004
       0.013
       0.018
       0.020
       0.021
       0.021
       0.021
       0.019
       0.017
       0.016
       0.014
       0.010
       0.002
      -0.008
      -0.017
      -0.022
      -0.022
      -0.016
      -0.005
       0.005
       0.012
       0.012
       0.003
      -0.009
      -0.016
      -0.013
       0.003
       0.027
       0.054
       0.075
       0.081
       0.071
       0.051
       0.029
       0.011
      -0.003
      -0.014
      -0.020
      -0.018
      -0.008
       0.006
       0.019
       0.026
       0.023
       0.013
      -0.001
      -0.015
      -0.024
      -0.028
      -0.027
      -0.021
      -0.012
       0.003
       0.019
       0.031
       0.031
       0.019
      -0.003
      -0.025
      -0.040
      -0.044
      -0.042
      -0.035
      -0.028
      -0.019
      -0.011
      -0.005
      -0.005
      -0.011
      -0.021
      -0.028
      -0.029
      -0.025
      -0.020
      -0.016
      -0.014
      -0.011
      -0.010
      -0.010
      -0.011
      -0.011
      -0.007
       0.002
       0.012
       0.023
       0.030
       0.030
       0.024
       0.012
      -0.003
      -0.015
      -0.024
      -0.030
      -0.032
      -0.031
      -0.025
      -0.014
       0.001
       0.014
       0.021
       0.020
       0.015
       0.010
       0.011
       0.021
       0.037
       0.054
       0.065
       0.067
       0.061
       0.053
       0.047
       0.041
       0.034
       0.023
       0.008
      -0.008
      -0.024
      -0.038
      -0.048
      -0.050
      -0.048
      -0.045
      -0.047
      -0.052
      -0.056
      -0.052
      -0.037
      -0.016
       0.002
       0.011
       0.008
       0.000
      -0.007
      -0.011
      -0.013
      -0.018
      -0.029
      -0.047
      -0.066
      -0.078
      -0.077
      -0.059
      -0.029
       0.007
       0.041
       0.066
       0.078
       0.075
       0.060
       0.039
       0.018
       0.004
      -0.001
       0.002
       0.007
       0.010
       0.007
      -0.003
      -0.014
      -0.024
      -0.028
      -0.023
      -0.012
       0.003
       0.017
       0.025
       0.027
       0.025
       0.024
       0.022
       0.019
       0.015
       0.015
       0.024
       0.037
       0.047
       0.046
       0.030
       0.005
      -0.020
      -0.041
      -0.057
      -0.071
      -0.082
      -0.084
      -0.074
      -0.051
      -0.024
      -0.001
       0.010
       0.008
      -0.001
      -0.009
      -0.010
       0.001
       0.027
       0.061
       0.093
       0.112
       0.109
       0.080
       0.029
      -0.036
      -0.095
      -0.128
      -0.122
      -0.084
      -0.035
      -0.005
      -0.008
      -0.033
      -0.053
      -0.044
      -0.007
       0.044
       0.091
       0.125
       0.137
       0.111
       0.046
      -0.033
      -0.088
      -0.103
      -0.088
      -0.067
      -0.061
      -0.073
      -0.083
      -0.056
       0.018
       0.110
       0.166
       0.154
       0.087
       0.008
      -0.041
      -0.042
      -0.020
      -0.011
      -0.038
      -0.086
      -0.125
      -0.134
      -0.108
      -0.054
       0.022
       0.110
       0.189
       0.231
       0.215
       0.148
       0.057
      -0.033
      -0.109
      -0.163
      -0.185
      -0.164
      -0.104
      -0.021
       0.059
       0.117
       0.138
       0.119
       0.068
       0.010
      -0.035
      -0.061
      -0.070
      -0.066
      -0.043
      -0.001
       0.044
       0.068
       0.060
       0.034
       0.013
       0.003
      -0.009
      -0.036
      -0.074
      -0.113
      -0.153
      -0.190
      -0.207
      -0.175
      -0.072
       0.080
       0.223
       0.301
       0.296
       0.227
       0.126
       0.022
      -0.075
      -0.161
      -0.235
      -0.284
      -0.288
      -0.243
      -0.178
      -0.137
      -0.138
      -0.145
      -0.098
       0.028
       0.192
       0.332
       0.431
       0.515
       0.572
       0.532
       0.356
       0.105
      -0.126
      -0.314
      -0.499
      -0.687
      -0.808
      -0.758
      -0.497
      -0.106
       0.252
       0.445
       0.471
       0.415
       0.348
       0.272
       0.170
       0.045
      -0.088
      -0.209
      -0.298
      -0.328
      -0.288
      -0.182
      -0.013
       0.208
       0.444
       0.615
       0.631
       0.466
       0.201
      -0.033
      -0.177
      -0.288
      -0.440
      -0.602
      -0.641
      -0.458
      -0.104
       0.241
       0.409
       0.367
       0.233
       0.145
       0.149
       0.185
       0.168
       0.072
      -0.063
      -0.149
      -0.116
       0.016
       0.128
       0.088
      -0.140
      -0.440
      -0.615
      -0.533
      -0.238
       0.076
       0.233
       0.223
       0.188
       0.249
       0.384
       0.459
       0.367
       0.122
      -0.163
      -0.376
      -0.471
      -0.462
      -0.378
      -0.239
      -0.067
       0.105
       0.233
       0.286
       0.273
       0.241
       0.234
       0.236
       0.176
       0.008
      -0.185
      -0.246
      -0.124
       0.046
       0.088
      -0.010
      -0.094
      -0.038
       0.100
       0.138
      -0.027
      -0.295
      -0.437
      -0.305
       0.039
       0.355
       0.422
       0.210
      -0.092
      -0.239
      -0.129
       0.113
       0.243
       0.129
      -0.112
      -0.238
      -0.140
       0.054
       0.141
       0.057
      -0.092
      -0.173
      -0.147
      -0.065
       0.010
       0.058
       0.073
       0.050
      -0.003
      -0.046
      -0.032
       0.056
       0.168
       0.218
       0.151
       0.002
      -0.111
      -0.087
       0.050
       0.146
       0.048
      -0.225
      -0.461
      -0.458
      -0.224
       0.039
       0.156
       0.123
       0.059
       0.055
       0.109
       0.174
       0.209
       0.188
       0.106
       0.008
      -0.028
       0.023
       0.099
       0.124
       0.102
       0.093
       0.110
       0.103
       0.038
      -0.029
      -0.014
       0.064
       0.057
      -0.154
      -0.472
      -0.630
      -0.453
      -0.048
       0.312
       0.469
       0.482
       0.477
       0.476
       0.384
       0.112
      -0.323
      -0.776
      -1.054
      -1.010
      -0.647
      -0.141
       0.280
       0.500
       0.560
       0.559
       0.550
       0.529
       0.453
       0.270
      -0.042
      -0.419
      -0.712
      -0.770
      -0.575
      -0.277
      -0.076
      -0.049
      -0.114
      -0.125
       0.005
       0.260
       0.535
       0.691
       0.643
       0.424
       0.166
      -0.005
      -0.081
      -0.165
      -0.335
      -0.523
      -0.564
      -0.364
      -0.006
       0.315
       0.436
       0.321
       0.078
      -0.114
      -0.125
       0.032
       0.211
       0.255
       0.114
      -0.116
      -0.287
      -0.311
      -0.215
      -0.084
       0.025
       0.093
       0.115
       0.100
       0.123
       0.263
       0.470
       0.533
       0.286
      -0.180
      -0.544
      -0.554
      -0.259
       0.041
       0.084
      -0.127
      -0.351
      -0.375
      -0.215
      -0.050
       0.005
      -0.006
       0.027
       0.149
       0.308
       0.421
       0.439
       0.355
       0.179
      -0.057
      -0.290
      -0.440
      -0.455
      -0.351
      -0.213
      -0.122
      -0.065
       0.043
       0.237
       0.418
       0.426
       0.218
      -0.063
      -0.211
      -0.144
       0.028
       0.114
       0.028
      -0.143
      -0.238
      -0.169
       0.012
       0.192
       0.290
       0.296
       0.237
       0.141
       0.023
      -0.098
      -0.173
      -0.146
      -0.018
       0.116
       0.126
      -0.021
      -0.196
      -0.214
      -0.016
       0.241
       0.319
       0.133
      -0.162
      -0.311
      -0.212
      -0.003
       0.084
      -0.040
      -0.244
      -0.304
      -0.135
       0.125
       0.249
       0.138
      -0.082
      -0.185
      -0.053
       0.212
       0.387
       0.339
       0.145
      -0.021
      -0.090
      -0.157
      -0.322
      -0.530
      -0.611
      -0.454
      -0.120
       0.226
       0.455
       0.551
       0.559
       0.505
       0.368
       0.133
      -0.152
      -0.389
      -0.490
      -0.420
      -0.210
       0.027
       0.154
       0.115
       0.011
       0.004
       0.150
       0.344
       0.420
       0.311
       0.079
      -0.160
      -0.325
      -0.391
      -0.369
      -0.271
      -0.104
       0.122
       0.357
       0.502
       0.461
       0.234
      -0.046
      -0.222
      -0.253
      -0.233
      -0.260
      -0.326
      -0.335
      -0.228
      -0.063
       0.047
       0.051
       0.002
      -0.004
       0.082
       0.234
       0.364
       0.381
       0.253
       0.024
      -0.192
      -0.263
      -0.150
       0.026
       0.081
      -0.045
      -0.222
      -0.268
      -0.137
       0.041
       0.111
       0.052
      -0.029
      -0.034
       0.040
       0.153
       0.281
       0.389
       0.409
       0.286
       0.059
      -0.174
      -0.358
      -0.518
      -0.656
      -0.656
      -0.389
       0.085
       0.509
       0.653
       0.531
       0.346
       0.246
       0.180
       0.020
      -0.236
      -0.429
      -0.415
      -0.231
      -0.053
      -0.004
      -0.042
      -0.032
       0.084
       0.210
       0.180
      -0.061
      -0.364
      -0.465
      -0.212
       0.274
       0.667
       0.699
       0.384
      -0.019
      -0.261
      -0.293
      -0.236
      -0.229
      -0.333
      -0.494
      -0.551
      -0.345
       0.119
       0.614
       0.863
       0.776
       0.508
       0.284
       0.180
       0.099
      -0.072
      -0.338
      -0.616
      -0.806
      -0.812
      -0.577
      -0.127
       0.402
       0.802
       0.898
       0.681
       0.298
      -0.072
      -0.324
      -0.418
      -0.363
      -0.243
      -0.190
      -0.245
      -0.286
      -0.149
       0.171
       0.469
       0.517
       0.292
      -0.002
      -0.137
      -0.069
       0.042
      -0.008
      -0.271
      -0.585
      -0.687
      -0.434
       0.055
       0.467
       0.559
       0.381
       0.227
       0.308
       0.484
       0.416
      -0.018
      -0.542
      -0.753
      -0.526
      -0.114
       0.113
       0.021
      -0.187
      -0.214
       0.023
       0.327
       0.450
       0.331
       0.110
      -0.026
       0.004
       0.114
       0.124
      -0.102
      -0.521
      -0.909
      -1.002
      -0.675
      -0.017
       0.706
       1.167
       1.171
       0.831
       0.506
       0.450
       0.518
       0.302
      -0.397
      -1.299
      -1.862
      -1.745
      -1.020
      -0.053
       0.752
       1.151
       1.134
       0.895
       0.677
       0.584
       0.521
       0.351
       0.100
      -0.069
      -0.095
      -0.142
      -0.407
      -0.865
      -1.262
      -1.358
      -1.093
      -0.545
       0.174
       0.924
       1.480
       1.573
       1.087
       0.239
      -0.497
      -0.751
      -0.581
      -0.357
      -0.338
      -0.406
      -0.274
       0.126
       0.523
       0.600
       0.324
      -0.060
      -0.282
      -0.223
       0.073
       0.462
       0.746
       0.731
       0.319
      -0.409
      -1.200
      -1.757
      -1.869
      -1.461
      -0.611
       0.426
       1.295
       1.750
       1.820
       1.736
       1.633
       1.350
       0.620
      -0.529
      -1.663
      -2.261
      -2.132
      -1.500
      -0.757
      -0.180
       0.153
       0.312
       0.449
       0.717
       1.117
       1.413
       1.290
       0.662
      -0.182
      -0.802
      -0.967
      -0.794
      -0.555
      -0.403
      -0.310
      -0.193
      -0.006
       0.270
       0.610
       0.867
       0.810
       0.330
      -0.377
      -0.897
      -0.934
      -0.556
      -0.119
       0.056
      -0.066
      -0.251
      -0.222
       0.119
       0.622
       1.007
       1.064
       0.815
       0.466
       0.176
      -0.099
      -0.471
      -0.866
      -1.025
      -0.826
      -0.479
      -0.315
      -0.388
      -0.391
      -0.018
       0.622
       1.066
       1.010
       0.671
       0.498
       0.585
       0.548
       0.037
      -0.764
      -1.277
      -1.140
      -0.557
      -0.019
       0.202
       0.222
       0.275
       0.418
       0.535
       0.524
       0.387
       0.136
      -0.261
      -0.762
      -1.136
      -1.087
      -0.570
       0.120
       0.626
       0.842
       0.837
       0.616
       0.159
      -0.314
      -0.395
       0.068
       0.681
       0.826
       0.298
      -0.470
      -0.862
      -0.707
      -0.379
      -0.310
      -0.491
      -0.529
      -0.153
       0.444
       0.806
       0.688
       0.272
      -0.047
      -0.033
       0.224
       0.446
       0.420
       0.168
      -0.105
      -0.215
      -0.170
      -0.158
      -0.334
      -0.618
      -0.763
      -0.610
      -0.235
       0.154
       0.418
       0.559
       0.638
       0.685
       0.663
       0.501
       0.158
      -0.318
      -0.782
      -1.057
      -1.054
      -0.810
      -0.413
       0.055
       0.495
       0.797
       0.908
       0.840
       0.636
       0.337
      -0.011
      -0.342
      -0.556
      -0.583
      -0.466
      -0.333
      -0.251
      -0.142
       0.088
       0.374
       0.514
       0.401
       0.194
       0.168
       0.364
       0.490
       0.236
      -0.336
      -0.816
      -0.870
      -0.545
      -0.133
       0.157
       0.300
       0.306
       0.124
      -0.225
      -0.534
      -0.545
      -0.223
       0.203
       0.473
       0.532
       0.505
       0.503
       0.506
       0.409
       0.168
      -0.135
      -0.350
      -0.376
      -0.245
      -0.107
      -0.122
      -0.323
      -0.551
      -0.562
      -0.246
       0.241
       0.586
       0.626
       0.483
       0.389
       0.429
       0.495
       0.437
       0.197
      -0.162
      -0.522
      -0.783
      -0.880
      -0.776
      -0.508
      -0.230
      -0.124
      -0.214
      -0.308
      -0.166
       0.250
       0.724
       0.993
       0.960
       0.717
       0.401
       0.088
      -0.193
      -0.400
      -0.491
      -0.498
      -0.507
      -0.538
      -0.501
      -0.308
       0.011
       0.323
       0.497
       0.492
       0.369
       0.228
       0.130
       0.068
      -0.004
      -0.130
      -0.327
      -0.551
      -0.680
      -0.568
      -0.158
       0.406
       0.831
       0.875
       0.555
       0.134
      -0.095
      -0.037
       0.146
       0.215
       0.072
      -0.179
      -0.371
      -0.418
      -0.340
      -0.202
      -0.071
      -0.010
      -0.049
      -0.137
      -0.161
      -0.039
       0.183
       0.334
       0.254
      -0.050
      -0.373
      -0.463
      -0.213
       0.245
       0.626
       0.684
       0.376
      -0.108
      -0.496
      -0.637
      -0.566
      -0.396
      -0.196
       0.023
       0.258
       0.486
       0.660
       0.703
       0.549
       0.217
      -0.178
      -0.490
      -0.630
      -0.612
      -0.520
      -0.402
      -0.224
       0.072
       0.467
       0.819
       0.927
       0.689
       0.221
      -0.212
      -0.392
      -0.306
      -0.137
      -0.091
      -0.219
      -0.396
      -0.465
      -0.375
      -0.190
      -0.010
       0.112
       0.195
       0.271
       0.329
       0.307
       0.159
      -0.081
      -0.310
      -0.425
      -0.390
      -0.243
      -0.051
       0.132
       0.277
       0.358
       0.322
       0.148
      -0.074
      -0.168
      -0.052
       0.163
       0.267
       0.155
      -0.078
      -0.236
      -0.202
      -0.043
       0.060
      -0.011
      -0.196
      -0.306
      -0.213
       0.023
       0.216
       0.257
       0.206
       0.185
       0.223
       0.223
       0.069
      -0.238
      -0.521
      -0.565
      -0.340
      -0.069
       0.013
      -0.083
      -0.119
       0.083
       0.408
       0.560
       0.377
      -0.006
      -0.312
      -0.375
      -0.241
      -0.076
       0.015
       0.071
       0.182
       0.349
       0.484
       0.507
       0.393
       0.158
      -0.172
      -0.538
      -0.830
      -0.923
      -0.760
      -0.412
      -0.016
       0.322
       0.574
       0.753
       0.849
       0.800
       0.562
       0.181
      -0.213
      -0.491
      -0.586
      -0.513
      -0.362
      -0.256
      -0.254
      -0.299
      -0.278
      -0.143
       0.051
       0.227
       0.360
       0.465
       0.530
       0.493
       0.311
       0.022
      -0.261
      -0.431
      -0.440
      -0.309
      -0.096
       0.126
       0.287
       0.346
       0.314
       0.234
       0.131
      -0.021
      -0.252
      -0.526
      -0.726
      -0.738
      -0.541
      -0.222
       0.089
       0.290
       0.345
       0.297
       0.256
       0.314
       0.458
       0.552
       0.448
       0.131
      -0.222
      -0.379
      -0.276
      -0.085
      -0.042
      -0.196
      -0.362
      -0.325
      -0.066
       0.235
       0.396
       0.356
       0.162
