Origin Time       05/3/2012 07:41:05	 UTC
Lat.              28.7 N	
Long.             76.6 E	
Depth (Km)         14.0
Magnitude         4.9
 Region           Haryana-Delhi-Border-Region                                      
 Above details taken from IMD 
    
Station Code      RGD
Station Lat.       28.665  N
Station Long.      77.123  E
Station Height(m)  262.0
Site Class        C   Vs30 between 200 m/sec to 375 m/sec *  
Record Time       05.03.2012 07:40:51.074 UTC
Sampling Rate     200. Hz
 Record Duration   89.835 Sec.
 Direction         N-S (N positive)
Max. Acceleration      8.170 cm/sec**2
     
  * For reference see Site Classification link of website 
     
 Base Line Corrected and Low Pass Filtered (Cut Off at 35 Hz) Time History
 Acceleration data in cm/sec**2
    
[...]
      -0.505
      -0.576
      -0.594
      -0.528
      -0.374
      -0.183
      -0.032
       0.023
      -0.020
      -0.135
      -0.298
      -0.499
      -0.699
      -0.817
      -0.770
      -0.547
      -0.227
       0.080
       0.312
       0.471
       0.565
       0.565
       0.434
       0.195
      -0.044
      -0.159
      -0.091
       0.119
       0.372
       0.567
       0.633
       0.537
       0.286
      -0.061
      -0.398
      -0.622
      -0.683
      -0.601
      -0.438
      -0.252
      -0.075
       0.077
       0.187
       0.245
       0.269
       0.294
       0.343
       0.404
       0.436
       0.408
       0.314
       0.176
       0.022
      -0.133
      -0.300
      -0.500
      -0.726
      -0.910
      -0.953
      -0.802
      -0.508
      -0.200
       0.007
       0.094
       0.135
       0.233
       0.439
       0.723
       0.991
       1.143
       1.115
       0.886
       0.477
      -0.047
      -0.573
      -0.965
      -1.117
      -1.018
      -0.752
      -0.433
      -0.139
       0.107
       0.303
       0.436
       0.492
       0.487
       0.460
       0.439
       0.421
       0.382
       0.329
       0.308
       0.369
       0.501
       0.633
       0.681
       0.619
       0.489
       0.352
       0.225
       0.079
      -0.106
      -0.295
      -0.412
      -0.396
      -0.255
      -0.046
       0.163
       0.331
       0.444
       0.499
       0.495
       0.433
       0.322
       0.174
      -0.003
      -0.207
      -0.415
      -0.559
      -0.550
      -0.345
      -0.012
       0.305
       0.488
       0.534
       0.536
       0.576
       0.637
       0.616
       0.424
       0.077
      -0.312
      -0.618
      -0.798
      -0.893
      -0.964
      -1.006
      -0.946
      -0.714
      -0.330
       0.077
       0.355
       0.434
       0.351
       0.201
       0.063
      -0.038
      -0.118
      -0.203
      -0.300
      -0.400
      -0.491
      -0.566
      -0.634
      -0.703
      -0.757
      -0.743
      -0.605
      -0.324
       0.066
       0.501
       0.906
       1.197
       1.293
       1.166
       0.876
       0.555
       0.323
       0.234
       0.280
       0.433
       0.666
       0.920
       1.088
       1.061
       0.816
       0.451
       0.103
      -0.158
      -0.345
      -0.482
      -0.544
      -0.471
      -0.236
       0.116
       0.483
       0.770
       0.928
       0.947
       0.833
       0.619
       0.372
       0.170
       0.051
      -0.006
      -0.050
      -0.090
      -0.083
       0.005
       0.123
       0.140
      -0.040
      -0.366
      -0.673
      -0.827
      -0.834
      -0.798
      -0.784
      -0.745
      -0.582
      -0.261
       0.139
       0.476
       0.653
       0.668
       0.594
       0.532
       0.551
       0.667
       0.833
       0.966
       0.982
       0.841
       0.569
       0.216
      -0.201
      -0.710
      -1.318
      -1.937
      -2.380
      -2.461
      -2.112
      -1.431
      -0.612
       0.160
       0.780
       1.215
       1.454
       1.458
       1.186
       0.666
       0.058
      -0.395
      -0.526
      -0.367
      -0.114
       0.052
       0.110
       0.149
       0.212
       0.198
      -0.040
      -0.511
      -1.014
      -1.273
      -1.165
      -0.813
      -0.461
      -0.270
      -0.237
      -0.274
      -0.330
      -0.415
      -0.531
      -0.613
      -0.581
      -0.424
      -0.210
      -0.016
       0.132
       0.237
       0.276
       0.177
      -0.131
      -0.644
      -1.237
      -1.700
      -1.842
      -1.588
      -1.010
      -0.268
       0.475
       1.114
       1.588
       1.831
       1.764
       1.348
       0.668
      -0.078
      -0.678
      -1.004
      -1.031
      -0.788
      -0.343
       0.194
       0.659
       0.893
       0.834
       0.551
       0.187
      -0.143
      -0.404
      -0.601
      -0.708
      -0.662
      -0.426
      -0.043
       0.375
       0.711
       0.886
       0.867
       0.666
       0.349
       0.024
      -0.193
      -0.240
      -0.129
       0.080
       0.331
       0.579
       0.755
       0.766
       0.551
       0.155
      -0.278
      -0.587
      -0.706
      -0.676
      -0.572
      -0.422
      -0.202
       0.089
       0.394
       0.638
       0.792
       0.879
       0.926
       0.926
       0.860
       0.728
       0.556
       0.375
       0.195
       0.008
      -0.199
      -0.414
      -0.601
      -0.714
      -0.730
      -0.675
      -0.607
      -0.571
      -0.556
      -0.494
      -0.312
       0.006
       0.398
       0.764
       1.020
       1.127
       1.090
       0.920
       0.611
       0.171
      -0.334
      -0.783
      -1.076
      -1.193
      -1.180
      -1.086
      -0.926
      -0.696
      -0.423
      -0.175
      -0.011
       0.049
      -0.004
      -0.198
      -0.541
      -0.950
      -1.254
      -1.297
      -1.071
      -0.728
      -0.461
      -0.343
      -0.284
      -0.147
       0.095
       0.337
       0.460
       0.459
       0.432
       0.459
       0.515
       0.515
       0.426
       0.300
       0.192
       0.080
      -0.116
      -0.417
      -0.716
      -0.832
      -0.648
      -0.201
       0.322
       0.693
       0.781
       0.642
       0.460
       0.384
       0.399
       0.358
       0.159
      -0.135
      -0.342
      -0.337
      -0.178
      -0.054
      -0.096
      -0.244
      -0.312
      -0.178
       0.061
       0.174
       0.013
      -0.328
      -0.599
      -0.636
      -0.498
      -0.379
      -0.384
      -0.420
      -0.310
       0.007
       0.390
       0.613
       0.551
       0.261
      -0.081
      -0.301
      -0.309
      -0.116
       0.180
       0.462
       0.656
       0.784
       0.941
       1.196
       1.490
       1.651
       1.540
       1.189
       0.784
       0.506
       0.383
       0.285
       0.067
      -0.295
      -0.674
      -0.903
      -0.898
      -0.698
      -0.397
      -0.069
       0.249
       0.549
       0.832
       1.095
       1.296
       1.363
       1.261
       1.065
       0.928
       0.935
       0.981
       0.832
       0.346
      -0.355
      -0.957
      -1.214
      -1.138
      -0.939
      -0.796
      -0.709
      -0.560
      -0.284
       0.032
       0.218
       0.178
      -0.051
      -0.336
      -0.549
      -0.617
      -0.532
      -0.326
      -0.053
       0.217
       0.410
       0.459
       0.321
      -0.003
      -0.457
      -0.919
      -1.225
      -1.229
      -0.890
      -0.324
       0.249
       0.640
       0.805
       0.843
       0.884
       0.965
       1.008
       0.910
       0.658
       0.348
       0.104
       0.004
       0.031
       0.062
      -0.093
      -0.565
      -1.294
      -2.005
      -2.367
      -2.221
      -1.697
      -1.094
      -0.649
      -0.408
      -0.298
      -0.265
      -0.322
      -0.461
      -0.574
      -0.501
      -0.200
       0.177
       0.383
       0.285
      -0.039
      -0.389
      -0.629
      -0.768
      -0.884
      -0.996
      -1.007
      -0.795
      -0.332
       0.285
       0.896
       1.353
       1.563
       1.500
       1.220
       0.834
       0.440
       0.066
      -0.307
      -0.679
      -0.987
      -1.150
      -1.152
      -1.039
      -0.835
      -0.486
       0.078
       0.802
       1.457
       1.761
       1.589
       1.058
       0.430
      -0.092
      -0.473
      -0.780
      -1.047
      -1.235
      -1.293
      -1.209
      -0.992
      -0.651
      -0.246
       0.074
       0.172
       0.077
       0.019
       0.227
       0.686
       1.109
       1.197
       0.915
       0.498
       0.188
       0.018
      -0.151
      -0.403
      -0.646
      -0.698
      -0.480
      -0.091
       0.281
       0.518
       0.628
       0.662
       0.617
       0.444
       0.158
      -0.132
      -0.314
      -0.373
      -0.386
      -0.428
      -0.515
      -0.628
      -0.746
      -0.834
      -0.832
      -0.707
      -0.528
      -0.425
      -0.446
      -0.471
      -0.309
       0.102
       0.600
       0.923
       0.920
       0.663
       0.367
       0.205
       0.201
       0.264
       0.291
       0.240
       0.138
       0.052
       0.053
       0.161
       0.318
       0.415
       0.371
       0.206
       0.042
       0.034
       0.256
       0.651
       1.067
       1.355
       1.461
       1.444
       1.413
       1.431
       1.455
       1.374
       1.120
       0.749
       0.402
       0.187
       0.085
      -0.009
      -0.146
      -0.252
      -0.206
       0.006
       0.251
       0.364
       0.314
       0.262
       0.423
       0.858
       1.385
       1.713
       1.694
       1.438
       1.214
       1.223
       1.437
       1.623
       1.511
       0.977
       0.122
      -0.808
      -1.580
      -2.114
      -2.494
      -2.843
      -3.173
      -3.343
      -3.163
      -2.544
      -1.577
      -0.493
       0.454
       1.096
       1.398
       1.404
       1.170
       0.735
       0.168
      -0.399
      -0.813
      -1.004
      -1.042
      -1.084
      -1.250
      -1.543
      -1.866
      -2.113
      -2.231
      -2.220
      -2.099
      -1.884
      -1.585
      -1.214
      -0.804
      -0.430
      -0.199
      -0.174
      -0.307
      -0.428
      -0.354
      -0.027
       0.418
       0.752
       0.831
       0.719
       0.594
       0.552
       0.510
       0.333
       0.022
      -0.242
      -0.247
       0.069
       0.569
       1.025
       1.259
       1.232
       1.018
       0.763
       0.626
       0.717
       1.035
       1.463
       1.862
       2.180
       2.460
       2.735
       2.924
       2.865
       2.464
       1.794
       1.059
       0.447
       0.032
      -0.220
      -0.363
      -0.405
      -0.312
      -0.060
       0.323
       0.751
       1.126
       1.371
       1.465
       1.451
       1.405
       1.372
       1.305
       1.082
       0.605
      -0.071
      -0.713
      -1.048
      -0.973
      -0.656
      -0.414
      -0.461
      -0.760
      -1.107
      -1.353
      -1.544
      -1.831
      -2.264
      -2.689
      -2.842
      -2.574
      -1.995
      -1.397
      -1.026
      -0.898
      -0.840
      -0.686
      -0.419
      -0.150
      -0.008
      -0.068
      -0.339
      -0.787
      -1.347
      -1.944
      -2.507
      -2.960
      -3.197
      -3.105
      -2.616
      -1.784
      -0.804
       0.062
       0.613
       0.789
       0.646
       0.274
      -0.260
      -0.877
      -1.435
      -1.725
      -1.560
      -0.891
       0.115
       1.145
       1.909
       2.312
       2.454
       2.476
       2.428
       2.251
       1.882
       1.358
       0.837
       0.494
       0.389
       0.452
       0.588
       0.766
       1.016
       1.370
       1.856
       2.494
       3.251
       3.988
       4.478
       4.559
       4.284
       3.879
       3.472
       2.871
       1.698
      -0.207
      -2.500
      -4.487
      -5.584
      -5.678
      -5.077
      -4.142
      -2.993
      -1.533
       0.268
       2.172
       3.735
       4.542
       4.439
       3.590
       2.358
       1.112
       0.095
      -0.593
      -0.935
      -0.931
      -0.571
       0.108
       0.918
       1.490
       1.410
       0.483
      -1.096
      -2.815
      -4.143
      -4.845
      -5.054
      -5.028
      -4.839
      -4.288
      -3.126
      -1.359
       0.659
       2.375
       3.314
       3.289
       2.464
       1.237
       0.035
      -0.887
      -1.503
      -1.916
      -2.212
      -2.393
      -2.446
      -2.449
      -2.559
      -2.859
      -3.227
      -3.394
      -3.153
      -2.491
      -1.523
      -0.371
       0.877
       2.102
       3.104
       3.637
       3.518
       2.724
       1.421
      -0.088
      -1.453
      -2.385
      -2.727
      -2.495
      -1.857
      -1.085
      -0.446
      -0.081
       0.050
       0.106
       0.250
       0.569
       1.067
       1.718
       2.482
       3.270
       3.896
       4.136
       3.875
       3.188
       2.276
       1.336
       0.514
      -0.047
      -0.171
       0.255
       1.143
       2.191
       3.059
       3.564
       3.693
       3.431
       2.655
       1.264
      -0.555
      -2.273
      -3.299
      -3.395
      -2.805
      -1.992
      -1.282
      -0.748
      -0.385
      -0.264
      -0.477
      -0.967
      -1.498
      -1.813
      -1.795
      -1.462
      -0.890
      -0.186
       0.466
       0.842
       0.801
       0.380
      -0.264
      -1.005
      -1.818
      -2.672
      -3.383
      -3.657
      -3.336
      -2.567
      -1.683
      -0.911
      -0.234
       0.468
       1.226
       1.958
       2.619
       3.293
       4.065
       4.819
       5.227
       4.998
       4.129
       2.874
       1.462
      -0.089
      -1.840
      -3.662
      -5.159
      -5.922
      -5.865
      -5.280
      -4.547
      -3.787
      -2.813
      -1.419
       0.300
       1.942
       3.086
       3.597
       3.673
       3.662
       3.810
       4.135
       4.429
       4.380
       3.747
       2.501
       0.856
      -0.849
      -2.342
      -3.502
      -4.276
      -4.534
      -4.029
      -2.543
      -0.121
       2.804
       5.535
       7.429
       8.170
       7.812
       6.643
       5.046
       3.414
       2.095
       1.299
       1.020
       1.051
       1.084
       0.839
       0.169
      -0.882
      -2.111
      -3.267
      -4.207
      -4.952
      -5.567
      -6.003
      -6.084
      -5.681
      -4.868
      -3.887
      -2.969
      -2.179
      -1.426
      -0.585
       0.375
       1.358
       2.204
       2.787
       3.073
       3.107
       2.931
       2.513
       1.782
       0.758
      -0.341
      -1.181
      -1.546
      -1.520
      -1.406
      -1.468
      -1.753
      -2.130
      -2.471
      -2.744
      -2.981
      -3.184
      -3.318
      -3.356
      -3.298
      -3.135
      -2.839
      -2.413
      -1.943
      -1.560
      -1.340
      -1.220
      -1.071
      -0.860
      -0.691
      -0.635
      -0.563
      -0.212
       0.535
       1.455
       2.110
       2.211
       1.850
       1.353
       0.945
       0.591
       0.169
      -0.274
      -0.466
      -0.107
       0.874
       2.225
       3.519
       4.431
       4.913
       5.151
       5.329
       5.418
       5.161
       4.283
       2.743
       0.842
      -0.897
      -2.010
      -2.319
      -1.939
      -1.125
      -0.127
       0.870
       1.725
       2.289
       2.371
       1.786
       0.488
      -1.296
      -3.030
      -4.047
      -3.885
      -2.555
      -0.516
       1.642
       3.522
       5.002
       6.052
       6.552
       6.308
       5.251
       3.611
       1.856
       0.447
      -0.439
      -0.949
      -1.361
      -1.835
      -2.342
      -2.755
      -2.979
      -3.016
      -2.961
      -2.937
      -2.975
      -2.924
      -2.513
      -1.576
      -0.299
       0.779
       1.089
       0.436
      -0.870
      -2.251
      -3.264
      -3.839
      -4.190
      -4.523
      -4.819
      -4.875
      -4.519
      -3.781
      -2.885
      -2.093
      -1.541
      -1.161
      -0.744
      -0.103
       0.784
       1.767
       2.645
       3.281
       3.608
       3.574
       3.120
       2.255
       1.138
       0.046
      -0.784
      -1.285
      -1.550
      -1.683
      -1.676
      -1.443
      -0.949
      -0.299
       0.312
       0.733
       0.934
       0.962
       0.872
       0.723
       0.629
       0.733
       1.084
       1.562
       1.955
       2.111
       1.992
       1.616
       0.995
       0.159
      -0.756
      -1.492
      -1.786
      -1.544
      -0.910
      -0.156
       0.519
       1.075
       1.553
       1.916
       1.993
       1.576
       0.612
      -0.699
      -1.971
      -2.828
      -3.059
      -2.673
      -1.858
      -0.884
       0.004
       0.669
       1.072
       1.220
       1.144
       0.903
       0.580
       0.215
      -0.201
      -0.638
      -0.947
      -0.946
      -0.601
      -0.124
       0.163
       0.105
      -0.128
      -0.194
       0.076
       0.484
       0.683
       0.554
       0.340
       0.362
       0.653
       0.899
       0.751
       0.180
      -0.492
      -0.904
      -0.954
      -0.810
      -0.659
      -0.550
      -0.452
      -0.380
      -0.390
      -0.471
      -0.479
      -0.215
       0.414
       1.297
       2.173
       2.804
       3.088
       3.049
       2.763
       2.305
       1.719
       1.027
       0.288
      -0.359
      -0.753
      -0.841
      -0.735
      -0.614
      -0.546
      -0.409
      -0.033
       0.557
       1.061
       1.120
       0.618
      -0.198
      -0.913
      -1.262
      -1.245
      -0.972
      -0.462
       0.364
       1.489
       2.645
       3.381
       3.346
       2.515
       1.191
      -0.227
      -1.454
      -2.359
      -2.905
      -3.099
      -2.991
      -2.648
      -2.141
      -1.553
      -1.020
      -0.744
      -0.912
      -1.505
      -2.189
      -2.437
      -1.879
      -0.586
       0.951
       2.146
       2.684
       2.609
       2.135
       1.403
       0.435
      -0.711
      -1.812
      -2.544
      -2.679
      -2.225
      -1.388
      -0.446
       0.383
       0.973
       1.261
       1.216
       0.852
       0.265
      -0.373
      -0.890
      -1.196
      -1.292
      -1.200
      -0.916
      -0.453
       0.077
       0.492
       0.687
       0.735
       0.786
       0.868
       0.813
       0.437
      -0.220
      -0.860
      -1.141
      -0.941
      -0.414
       0.189
       0.727
       1.216
       1.703
       2.129
       2.335
       2.189
       1.686
       0.941
       0.132
      -0.549
      -0.936
      -0.955
      -0.666
      -0.194
       0.378
       1.011
       1.590
       1.869
       1.609
       0.813
      -0.215
      -1.037
      -1.347
      -1.114
      -0.502
       0.305
       1.163
       1.876
       2.140
       1.677
       0.475
      -1.138
      -2.680
      -3.805
      -4.427
      -4.601
      -4.319
      -3.467
      -1.994
      -0.076
       1.920
       3.622
       4.799
       5.350
       5.234
       4.444
       3.069
       1.352
      -0.344
      -1.682
      -2.474
      -2.686
      -2.381
      -1.672
      -0.748
       0.107
       0.571
       0.415
      -0.349
      -1.433
      -2.374
      -2.744
      -2.340
      -1.255
       0.195
       1.646
       2.804
       3.478
       3.555
       2.989
       1.814
       0.172
      -1.654
      -3.277
      -4.326
      -4.588
      -4.101
      -3.134
      -2.061
      -1.165
      -0.499
       0.078
       0.702
       1.289
       1.529
       1.145
       0.218
      -0.759
      -1.202
      -0.857
       0.042
       1.019
       1.731
       2.120
       2.282
       2.261
       2.004
       1.470
       0.709
      -0.136
      -0.906
      -1.460
      -1.690
      -1.533
      -1.042
