Origin Time       05/3/2012 07:41:05	
Lat.              28.7 N	
Long.             76.6 E	
Depth (Km)         14.0
Magnitude         4.9
 Region           Haryana-Delhi-Border-Region                                      
 Above details taken from IMD 
   
Station Code      RGD
Station Lat.       28.665
Station Long.      77.123
Station Height(m)  262.0
Site Class        C   Vs30 between 200 m/sec to 375 m/sec *  
Record Time       05.03.2012 07:40:51.074
Sampling Rate     200. Hz
 Record Duration   89.835 Sec.
 Direction         Vert. (Up positive)
Max. Acceleration      8.890 cm/sec**2
     
  * For reference see Site Classification link of website 
     
 Base Line Corrected and Low Pass Filtered (Cut Off at 35 Hz) Time History
 Acceleration data in cm/sec**2
    
[...]
      -0.219
       0.071
       0.189
       0.076
      -0.228
      -0.579
      -0.781
      -0.683
      -0.268
       0.320
       0.843
       1.106
       1.066
       0.843
       0.624
       0.537
       0.570
       0.607
       0.516
       0.246
      -0.154
      -0.567
      -0.879
      -1.014
      -0.932
      -0.625
      -0.139
       0.405
       0.840
       1.030
       0.920
       0.544
      -0.015
      -0.652
      -1.244
      -1.661
      -1.801
      -1.627
      -1.188
      -0.603
      -0.025
       0.416
       0.660
       0.753
       0.817
       0.960
       1.185
       1.370
       1.344
       1.002
       0.368
      -0.420
      -1.158
      -1.634
      -1.679
      -1.236
      -0.403
       0.566
       1.350
       1.690
       1.524
       1.019
       0.476
       0.145
       0.087
       0.168
       0.205
       0.111
      -0.069
      -0.249
      -0.402
      -0.568
      -0.760
      -0.876
      -0.742
      -0.255
       0.480
       1.174
       1.519
       1.376
       0.838
       0.137
      -0.511
      -1.002
      -1.323
      -1.462
      -1.364
      -0.980
      -0.365
       0.308
       0.822
       1.033
       0.927
       0.609
       0.238
      -0.032
      -0.099
       0.048
       0.310
       0.501
       0.442
       0.068
      -0.514
      -1.079
      -1.408
      -1.400
      -1.087
      -0.579
       0.005
       0.552
       0.950
       1.077
       0.836
       0.239
      -0.540
      -1.200
      -1.468
      -1.264
      -0.740
      -0.161
       0.277
       0.537
       0.682
       0.763
       0.759
       0.641
       0.456
       0.336
       0.393
       0.614
       0.844
       0.882
       0.618
       0.116
      -0.418
      -0.745
      -0.712
      -0.309
       0.339
       1.034
       1.576
       1.822
       1.699
       1.192
       0.344
      -0.706
      -1.717
      -2.404
      -2.562
      -2.178
      -1.438
      -0.623
       0.050
       0.500
       0.759
       0.893
       0.955
       0.984
       0.986
       0.947
       0.853
       0.711
       0.528
       0.275
      -0.101
      -0.589
      -1.042
      -1.219
      -0.949
      -0.292
       0.454
       0.934
       0.958
       0.599
       0.088
      -0.363
      -0.663
      -0.802
      -0.757
      -0.481
       0.003
       0.526
       0.826
       0.711
       0.200
      -0.459
      -0.928
      -0.958
      -0.521
       0.196
       0.894
       1.306
       1.282
       0.808
      -0.012
      -0.974
      -1.788
      -2.141
      -1.810
      -0.790
       0.660
       2.101
       3.092
       3.341
       2.776
       1.548
      -0.021
      -1.504
      -2.485
      -2.694
      -2.112
      -0.980
       0.309
       1.375
       1.963
       1.976
       1.462
       0.604
      -0.313
      -1.019
      -1.407
      -1.569
      -1.657
      -1.682
      -1.492
      -0.953
      -0.145
       0.634
       1.066
       1.043
       0.724
       0.384
       0.218
       0.237
       0.314
       0.299
       0.115
      -0.209
      -0.563
      -0.814
      -0.867
      -0.697
      -0.332
       0.179
       0.762
       1.314
       1.712
       1.860
       1.717
       1.280
       0.565
      -0.370
      -1.378
      -2.222
      -2.693
      -2.742
      -2.499
      -2.136
      -1.699
      -1.102
      -0.273
       0.712
       1.638
       2.297
       2.595
       2.525
       2.082
       1.253
       0.105
      -1.147
      -2.196
      -2.777
      -2.773
      -2.221
      -1.259
      -0.095
       1.012
       1.784
       2.009
       1.638
       0.819
      -0.169
      -1.035
      -1.559
      -1.609
      -1.134
      -0.173
       1.112
       2.420
       3.362
       3.612
       3.082
       2.000
       0.792
      -0.158
      -0.707
      -0.975
      -1.190
      -1.510
      -1.937
      -2.349
      -2.592
      -2.543
      -2.137
      -1.370
      -0.322
       0.823
       1.798
       2.348
       2.368
       1.958
       1.334
       0.685
       0.097
      -0.387
      -0.692
      -0.725
      -0.474
      -0.062
       0.310
       0.487
       0.448
       0.299
       0.169
       0.096
      -0.011
      -0.284
      -0.753
      -1.281
      -1.646
      -1.707
      -1.505
      -1.173
      -0.761
      -0.149
       0.808
       2.050
       3.215
       3.804
       3.501
       2.376
       0.830
      -0.667
      -1.830
      -2.602
      -3.019
      -3.065
      -2.681
      -1.884
      -0.854
       0.149
       0.955
       1.567
       2.046
       2.344
       2.287
       1.727
       0.724
      -0.433
      -1.382
      -1.902
      -2.030
      -1.973
      -1.909
      -1.826
      -1.550
      -0.929
      -0.009
       0.940
       1.572
       1.685
       1.364
       0.905
       0.598
       0.525
       0.542
       0.433
       0.097
      -0.364
      -0.708
      -0.724
      -0.378
       0.162
       0.652
       0.933
       1.016
       1.022
       1.021
       0.938
       0.606
      -0.043
      -0.839
      -1.433
      -1.530
      -1.092
      -0.338
       0.430
       1.015
       1.352
       1.408
       1.104
       0.366
      -0.729
      -1.868
      -2.615
      -2.647
      -1.956
      -0.841
       0.284
       1.119
       1.595
       1.808
       1.879
       1.843
       1.660
       1.291
       0.762
       0.175
      -0.330
      -0.638
      -0.722
      -0.648
      -0.502
      -0.297
       0.046
       0.606
       1.332
       2.003
       2.334
       2.152
       1.487
       0.526
      -0.497
      -1.380
      -1.961
      -2.125
      -1.824
      -1.112
      -0.163
       0.730
       1.236
       1.138
       0.510
      -0.256
      -0.649
      -0.382
       0.385
       1.133
       1.346
       0.871
      -0.017
      -0.861
      -1.362
      -1.506
      -1.439
      -1.257
      -0.934
      -0.413
       0.261
       0.929
       1.399
       1.532
       1.260
       0.580
      -0.431
      -1.572
      -2.527
      -2.968
      -2.726
      -1.893
      -0.782
       0.237
       0.915
       1.221
       1.328
       1.480
       1.813
       2.228
       2.431
       2.120
       1.197
      -0.144
      -1.521
      -2.569
      -3.127
      -3.257
      -3.119
      -2.793
      -2.230
      -1.356
      -0.236
       0.871
       1.632
       1.834
       1.504
       0.873
       0.259
      -0.071
       0.007
       0.421
       0.931
       1.220
       1.024
       0.234
      -1.041
      -2.444
      -3.427
      -3.452
      -2.298
      -0.266
       1.901
       3.405
       3.811
       3.217
       2.077
       0.868
      -0.153
      -0.940
      -1.489
      -1.715
      -1.494
      -0.806
       0.177
       1.145
       1.799
       1.982
       1.720
       1.186
       0.624
       0.263
       0.219
       0.426
       0.639
       0.572
       0.073
      -0.773
      -1.684
      -2.299
      -2.329
      -1.682
      -0.525
       0.765
       1.793
       2.344
       2.441
       2.212
       1.732
       1.015
       0.157
      -0.593
      -0.964
      -0.879
      -0.531
      -0.233
      -0.183
      -0.341
      -0.493
      -0.426
      -0.054
       0.564
       1.271
       1.836
       2.016
       1.684
       0.959
       0.178
      -0.318
      -0.420
      -0.277
      -0.107
       0.004
       0.111
       0.256
       0.330
       0.137
      -0.407
      -1.127
      -1.656
      -1.664
      -1.089
      -0.201
       0.558
       0.851
       0.637
       0.142
      -0.361
      -0.731
      -0.964
      -1.066
      -0.968
      -0.612
      -0.108
       0.226
       0.055
      -0.660
      -1.532
      -1.966
      -1.574
      -0.465
       0.837
       1.764
       2.040
       1.747
       1.148
       0.459
      -0.244
      -0.989
      -1.784
      -2.517
      -2.937
      -2.768
      -1.928
      -0.678
       0.445
       0.952
       0.731
       0.119
      -0.375
      -0.458
      -0.235
      -0.060
      -0.236
      -0.797
      -1.484
      -1.897
      -1.709
      -0.848
       0.441
       1.712
       2.537
       2.680
       2.134
       1.056
      -0.286
      -1.539
      -2.334
      -2.445
      -1.940
      -1.132
      -0.327
       0.422
       1.287
       2.393
       3.560
       4.350
       4.380
       3.608
       2.340
       0.983
      -0.229
      -1.305
      -2.334
      -3.250
      -3.761
      -3.524
      -2.435
      -0.757
       1.003
       2.384
       3.171
       3.382
       3.122
       2.466
       1.482
       0.347
      -0.613
      -1.038
      -0.753
       0.111
       1.184
       2.084
       2.595
       2.694
       2.443
       1.897
       1.094
       0.092
      -1.021
      -2.154
      -3.218
      -4.099
      -4.638
      -4.662
      -4.062
      -2.871
      -1.276
       0.440
       1.986
       3.114
       3.639
       3.456
       2.564
       1.121
      -0.524
      -1.891
      -2.583
      -2.529
      -2.038
      -1.558
      -1.344
      -1.325
      -1.266
      -1.038
      -0.710
      -0.420
      -0.192
       0.104
       0.576
       1.124
       1.422
       1.130
       0.157
      -1.205
      -2.390
      -2.877
      -2.500
      -1.533
      -0.482
       0.256
       0.583
       0.614
       0.461
       0.130
      -0.385
      -0.959
      -1.319
      -1.222
      -0.647
       0.158
       0.839
       1.152
       1.070
       0.734
       0.339
       0.058
       0.001
       0.193
       0.564
       1.007
       1.422
       1.718
       1.765
       1.416
       0.627
      -0.431
      -1.391
      -1.848
      -1.535
      -0.456
       1.105
       2.664
       3.738
       4.029
       3.519
       2.410
       1.020
      -0.293
      -1.184
      -1.395
      -0.873
       0.141
       1.151
       1.624
       1.262
       0.156
      -1.286
      -2.558
      -3.268
      -3.239
      -2.496
      -1.201
       0.376
       1.872
       2.851
       2.947
       2.065
       0.510
      -1.117
      -2.224
      -2.535
      -2.187
      -1.570
      -1.039
      -0.709
      -0.458
      -0.095
       0.447
       1.078
       1.666
       2.176
       2.702
       3.323
       3.924
       4.147
       3.554
       1.940
      -0.437
      -2.895
      -4.664
      -5.296
      -4.861
      -3.771
      -2.412
      -0.911
       0.763
       2.507
       3.918
       4.446
       3.786
       2.193
       0.392
      -0.896
      -1.445
      -1.590
      -1.851
      -2.458
      -3.158
      -3.406
      -2.751
      -1.171
       0.878
       2.725
       3.899
       4.351
       4.330
       4.024
       3.324
       1.924
      -0.301
      -3.003
      -5.440
      -6.857
      -6.879
      -5.605
      -3.418
      -0.717
       2.172
       4.915
       7.053
       8.046
       7.469
       5.272
       1.933
      -1.642
      -4.494
      -6.081
      -6.480
      -6.175
      -5.589
      -4.772
      -3.482
      -1.554
       0.788
       2.978
       4.448
       4.943
       4.598
       3.802
       2.989
       2.425
       2.074
       1.601
       0.609
      -1.018
      -2.899
      -4.292
      -4.529
      -3.462
      -1.570
       0.363
       1.731
       2.373
       2.424
       1.994
       1.009
      -0.627
      -2.744
      -4.769
      -5.921
      -5.603
      -3.748
      -0.908
       2.005
       4.138
       5.060
       4.841
       3.848
       2.433
       0.786
      -0.985
      -2.666
      -3.895
      -4.334
      -3.903
      -2.864
      -1.651
      -0.590
       0.301
       1.280
       2.607
       4.245
       5.754
       6.525
       6.187
       4.862
       3.064
       1.317
      -0.153
      -1.438
      -2.693
      -3.891
      -4.802
      -5.155
      -4.801
      -3.791
      -2.399
      -1.071
      -0.246
      -0.101
      -0.437
      -0.856
      -1.099
      -1.208
      -1.378
      -1.661
      -1.842
      -1.593
      -0.758
       0.513
       1.867
       2.962
       3.594
       3.667
       3.131
       1.997
       0.397
      -1.380
      -2.934
      -3.855
      -3.866
      -2.955
      -1.410
       0.325
       1.899
       3.207
       4.283
       5.057
       5.255
       4.607
       3.166
       1.390
      -0.144
      -1.136
      -1.690
      -2.078
      -2.386
      -2.434
      -1.998
      -1.071
       0.139
       1.394
       2.529
       3.355
       3.582
       2.962
       1.525
      -0.337
      -2.056
      -3.155
      -3.412
      -2.871
      -1.798
      -0.601
       0.301
       0.673
       0.582
       0.320
       0.179
       0.260
       0.492
       0.772
       1.073
       1.420
       1.798
       2.111
       2.242
       2.134
       1.835
       1.456
       1.080
       0.686
       0.134
      -0.754
      -2.033
      -3.491
      -4.666
      -5.078
      -4.522
      -3.196
      -1.527
       0.095
       1.456
       2.412
       2.766
       2.328
       1.127
      -0.468
      -1.909
      -2.759
      -2.884
      -2.412
      -1.610
      -0.761
      -0.087
       0.327
       0.578
       0.882
       1.434
       2.258
       3.148
       3.724
       3.595
       2.539
       0.601
      -1.931
      -4.604
      -6.866
      -8.113
      -7.831
      -5.828
      -2.421
       1.616
       5.323
       7.899
       8.890
       8.186
       5.932
       2.520
      -1.358
      -4.755
      -6.754
      -6.868
      -5.280
      -2.724
      -0.072
       2.094
       3.635
       4.657
       5.183
       5.036
       4.068
       2.464
       0.759
      -0.513
      -1.195
      -1.552
      -1.936
      -2.413
      -2.666
      -2.242
      -0.918
       1.088
       3.181
       4.664
       5.075
       4.386
       2.966
       1.299
      -0.346
      -2.034
      -3.929
      -5.880
      -7.254
      -7.275
      -5.631
      -2.810
       0.190
       2.502
       3.851
       4.465
       4.651
       4.465
       3.733
       2.313
       0.363
      -1.610
      -2.979
      -3.387
      -3.003
      -2.410
      -2.143
      -2.244
      -2.252
      -1.656
      -0.398
       1.057
       2.107
       2.465
       2.259
       1.772
       1.138
       0.317
      -0.692
      -1.672
      -2.250
      -2.097
      -1.115
       0.461
       2.102
       3.189
       3.315
       2.507
       1.151
      -0.322
      -1.706
      -3.003
      -4.195
      -5.066
      -5.306
      -4.771
      -3.611
      -2.127
      -0.515
       1.206
       3.009
       4.634
       5.561
       5.283
       3.683
       1.245
      -1.127
      -2.577
      -2.753
      -1.935
      -0.767
       0.191
       0.775
       1.172
       1.581
       1.928
       1.892
       1.240
       0.140
      -0.863
      -1.214
      -0.749
       0.203
       1.081
       1.494
       1.431
       1.159
       0.933
       0.790
       0.580
       0.152
      -0.484
      -1.124
      -1.469
      -1.320
      -0.765
      -0.203
      -0.112
      -0.691
      -1.681
      -2.524
      -2.730
      -2.172
      -1.092
       0.110
       1.136
       1.885
       2.352
       2.479
       2.144
       1.289
       0.046
      -1.268
      -2.272
      -2.691
      -2.475
      -1.796
      -0.935
      -0.144
       0.448
       0.823
       1.030
       1.122
       1.154
       1.217
       1.447
       1.927
       2.528
       2.865
       2.496
       1.243
      -0.595
      -2.329
      -3.229
      -2.909
      -1.510
       0.406
       2.164
       3.247
       3.437
       2.807
       1.627
       0.247
      -1.016
      -1.966
      -2.566
      -2.905
      -3.100
      -3.171
      -2.994
      -2.396
      -1.362
      -0.177
       0.659
       0.769
       0.203
      -0.591
      -1.135
      -1.269
      -1.152
      -0.985
      -0.781
      -0.424
       0.135
       0.777
       1.332
       1.763
       2.198
       2.736
       3.232
       3.351
       2.891
       2.009
       1.089
       0.407
      -0.034
      -0.362
      -0.606
      -0.661
      -0.436
      -0.011
       0.375
       0.492
       0.306
      -0.016
      -0.263
      -0.358
      -0.384
      -0.471
      -0.629
      -0.711
      -0.545
      -0.145
       0.250
       0.378
       0.229
       0.054
       0.053
       0.066
      -0.357
      -1.467
      -2.896
      -3.795
      -3.484
      -2.033
      -0.211
       1.136
       1.681
       1.694
       1.621
       1.652
       1.678
       1.575
       1.434
       1.465
       1.715
       1.938
       1.788
       1.128
       0.165
      -0.702
      -1.161
      -1.132
      -0.710
      -0.019
       0.846
       1.750
       2.453
       2.687
       2.317
       1.401
       0.119
      -1.329
      -2.749
      -3.933
      -4.649
      -4.687
      -3.966
      -2.620
      -0.999
       0.458
       1.396
       1.647
       1.261
       0.488
      -0.287
      -0.697
      -0.594
      -0.164
       0.198
       0.204
      -0.070
      -0.230
       0.080
       0.835
       1.624
       2.009
       1.918
       1.691
       1.726
       2.026
       2.111
       1.414
      -0.176
      -2.123
      -3.584
      -3.970
      -3.248
      -1.835
      -0.272
       1.027
       1.841
       2.084
       1.737
       0.847
      -0.429
      -1.783
      -2.826
      -3.233
      -2.891
      -1.921
      -0.594
       0.786
       1.958
       2.716
       2.887
       2.369
       1.245
      -0.157
      -1.366
      -2.028
      -2.089
      -1.757
      -1.307
      -0.964
      -0.886
      -1.159
      -1.667
      -2.030
      -1.798
      -0.840
       0.452
       1.408
       1.571
       0.974
      -0.018
      -1.041
      -1.871
      -2.311
      -2.076
      -0.916
       1.116
       3.531
       5.590
       6.672
       6.545
       5.386
       3.616
       1.701
       0.012
      -1.260
      -2.098
      -2.608
      -2.927
      -3.146
      -3.250
      -3.120
      -2.602
      -1.624
      -0.283
       1.149
       2.340
       3.037
       3.145
       2.682
       1.694
       0.263
      -1.371
      -2.743
      -3.310
      -2.777
      -1.341
       0.368
       1.648
       2.118
       1.848
       1.204
       0.566
       0.150
       0.010
       0.130
       0.477
       0.989
       1.540
       1.947
       2.041
       1.776
       1.283
       0.810
       0.594
       0.736
       1.140
       1.529
       1.534
       0.875
      -0.462
      -2.168
      -3.751
      -4.770
      -5.022
      -4.575
      -3.687
      -2.677
      -1.816
      -1.240
      -0.922
      -0.719
      -0.471
      -0.078
       0.482
       1.184
       1.959
       2.659
       3.051
       2.905
       2.181
       1.136
       0.213
      -0.240
      -0.194
       0.084
       0.250
       0.120
      -0.260
      -0.717
      -1.118
      -1.462
      -1.839
      -2.297
      -2.708
      -2.741
      -2.002
      -0.331
       1.935
       4.013
       5.095
       4.860
       3.644
       2.130
       0.820
      -0.251
      -1.345
      -2.591
      -3.723
