Origin Time       11/11/2013 20:11:30
Lat.              28.4 N	
Long.             77.2 E	
Depth (Km)         10.0
Magnitude         3.3
 Region           DELHI                                                            
 Above details taken from IMD 
   
Station Code      RGD
Station Lat.       28.665
Station Long.      77.123
Station Height(m)  262.0
Site Class        C   Vs30 between 200 m/sec to 375 m/sec *  
Record Time       28.03.2094 20:11:07.979
Sampling Rate     200. Hz
 Record Duration   88.100 Sec.
 Direction         Vert. (Up positive)
Max. Acceleration     -7.670 cm/sec**2
     
  * For reference see Site Classification link of website 
     
 Base Line Corrected and Low Pass Filtered (Cut Off at 35 Hz) Time History
 Acceleration data in cm/sec**2
    
[...]
       0.071
       0.083
       0.074
       0.053
       0.027
       0.003
      -0.015
      -0.026
      -0.028
      -0.025
      -0.022
      -0.024
      -0.033
      -0.041
      -0.040
      -0.024
       0.005
       0.039
       0.069
       0.088
       0.096
       0.093
       0.082
       0.068
       0.057
       0.049
       0.044
       0.035
       0.020
       0.001
      -0.019
      -0.034
      -0.041
      -0.039
      -0.024
       0.005
       0.041
       0.070
       0.074
       0.048
       0.001
      -0.049
      -0.084
      -0.098
      -0.092
      -0.073
      -0.048
      -0.023
      -0.004
       0.006
       0.009
       0.007
      -0.001
      -0.018
      -0.048
      -0.084
      -0.109
      -0.109
      -0.080
      -0.028
       0.031
       0.081
       0.110
       0.114
       0.095
       0.062
       0.023
      -0.016
      -0.048
      -0.066
      -0.065
      -0.046
      -0.014
       0.019
       0.043
       0.054
       0.055
       0.051
       0.046
       0.038
       0.026
       0.013
       0.002
      -0.002
      -0.001
       0.005
       0.010
       0.011
       0.005
      -0.005
      -0.017
      -0.026
      -0.033
      -0.039
      -0.043
      -0.042
      -0.033
      -0.017
       0.001
       0.014
       0.022
       0.024
       0.022
       0.017
       0.013
       0.012
       0.016
       0.023
       0.025
       0.019
       0.004
      -0.012
      -0.023
      -0.026
      -0.024
      -0.022
      -0.021
      -0.016
      -0.003
       0.016
       0.032
       0.035
       0.024
       0.010
       0.003
       0.010
       0.024
       0.037
       0.040
       0.032
       0.015
      -0.006
      -0.024
      -0.033
      -0.031
      -0.025
      -0.020
      -0.017
      -0.014
      -0.004
       0.014
       0.035
       0.050
       0.056
       0.054
       0.048
       0.038
       0.024
       0.006
      -0.013
      -0.025
      -0.028
      -0.025
      -0.026
      -0.036
      -0.054
      -0.074
      -0.087
      -0.089
      -0.079
      -0.054
      -0.020
       0.017
       0.046
       0.060
       0.057
       0.043
       0.025
       0.012
       0.003
      -0.004
      -0.013
      -0.021
      -0.022
      -0.012
       0.004
       0.017
       0.017
       0.005
      -0.011
      -0.024
      -0.027
      -0.021
      -0.005
       0.017
       0.043
       0.066
       0.083
       0.086
       0.076
       0.054
       0.028
       0.001
      -0.023
      -0.042
      -0.053
      -0.056
      -0.052
      -0.043
      -0.033
      -0.022
      -0.011
      -0.001
       0.007
       0.008
      -0.001
      -0.019
      -0.037
      -0.046
      -0.037
      -0.014
       0.011
       0.026
       0.026
       0.014
      -0.001
      -0.012
      -0.015
      -0.013
      -0.008
      -0.001
       0.007
       0.017
       0.025
       0.029
       0.023
       0.010
      -0.005
      -0.017
      -0.024
      -0.029
      -0.032
      -0.031
      -0.022
      -0.005
       0.015
       0.029
       0.028
       0.013
      -0.014
      -0.043
      -0.063
      -0.068
      -0.053
      -0.025
       0.007
       0.035
       0.053
       0.060
       0.056
       0.046
       0.033
       0.020
       0.010
       0.006
       0.004
       0.003
       0.002
       0.003
       0.004
       0.002
      -0.007
      -0.020
      -0.030
      -0.032
      -0.021
      -0.004
       0.012
       0.022
       0.025
       0.022
       0.015
       0.006
      -0.006
      -0.020
      -0.036
      -0.046
      -0.045
      -0.032
      -0.013
       0.004
       0.012
       0.008
      -0.005
      -0.018
      -0.027
      -0.026
      -0.017
      -0.008
      -0.006
      -0.016
      -0.031
      -0.041
      -0.037
      -0.019
       0.004
       0.023
       0.038
       0.054
       0.077
       0.104
       0.123
       0.122
       0.099
       0.063
       0.026
      -0.005
      -0.025
      -0.035
      -0.039
      -0.039
      -0.036
      -0.031
      -0.025
      -0.020
      -0.015
      -0.011
      -0.003
       0.009
       0.025
       0.038
       0.040
       0.028
       0.005
      -0.022
      -0.042
      -0.051
      -0.050
      -0.041
      -0.026
      -0.011
       0.002
       0.009
       0.007
      -0.003
      -0.021
      -0.043
      -0.062
      -0.071
      -0.064
      -0.042
      -0.010
       0.022
       0.043
       0.051
       0.048
       0.043
       0.041
       0.040
       0.038
       0.033
       0.025
       0.020
       0.022
       0.029
       0.036
       0.036
       0.028
       0.017
       0.007
       0.001
      -0.003
      -0.007
      -0.010
      -0.011
      -0.013
      -0.016
      -0.023
      -0.033
      -0.041
      -0.041
      -0.029
      -0.008
       0.017
       0.039
       0.054
       0.061
       0.059
       0.046
       0.027
       0.008
      -0.006
      -0.015
      -0.021
      -0.028
      -0.035
      -0.037
      -0.029
      -0.010
       0.016
       0.041
       0.054
       0.052
       0.038
       0.020
       0.006
      -0.002
       0.000
       0.010
       0.028
       0.050
       0.073
       0.091
       0.101
       0.104
       0.104
       0.100
       0.093
       0.081
       0.070
       0.068
       0.077
       0.088
       0.089
       0.066
       0.012
      -0.076
      -0.194
      -0.317
      -0.405
      -0.413
      -0.322
      -0.156
       0.031
       0.193
       0.317
       0.405
       0.424
       0.294
      -0.048
      -0.536
      -0.920
      -0.884
      -0.315
       0.481
       0.887
       0.433
      -0.733
      -1.814
      -1.937
      -0.889
       0.687
       1.853
       2.135
       1.708
       0.955
       0.059
      -0.885
      -1.544
      -1.438
      -0.408
       1.063
       2.097
       2.009
       0.802
      -0.812
      -1.881
      -1.850
      -0.929
       0.095
       0.489
       0.136
      -0.479
      -0.780
      -0.551
       0.065
       0.797
       1.348
       1.402
       0.780
      -0.300
      -1.211
      -1.355
      -0.668
       0.335
       1.028
       1.145
       0.831
       0.369
      -0.054
      -0.404
      -0.765
      -1.243
      -1.714
      -1.657
      -0.503
       1.600
       3.486
       3.770
       2.126
      -0.339
      -2.068
      -2.377
      -1.788
      -1.197
      -0.937
      -0.668
      -0.001
       0.979
       1.826
       2.183
       1.994
       1.370
       0.431
      -0.650
      -1.562
      -1.989
      -1.904
      -1.623
      -1.438
      -1.229
      -0.563
       0.739
       2.229
       3.138
       3.016
       2.041
       0.726
      -0.540
      -1.589
      -2.266
      -2.380
      -1.929
      -1.206
      -0.531
       0.061
       0.751
       1.532
       2.020
       1.790
       0.843
      -0.332
      -1.126
      -1.193
      -0.579
       0.334
       1.004
       1.000
       0.303
      -0.628
      -1.149
      -0.920
      -0.166
       0.531
       0.705
       0.331
      -0.256
      -0.671
      -0.705
      -0.353
       0.224
       0.703
       0.728
       0.167
      -0.708
      -1.380
      -1.427
      -0.743
       0.431
       1.565
       2.001
       1.355
      -0.032
      -1.162
      -1.196
      -0.282
       0.552
       0.438
      -0.464
      -1.198
      -1.021
      -0.030
       1.075
       1.640
       1.486
       0.914
       0.418
       0.287
       0.372
       0.213
      -0.488
      -1.500
      -2.213
      -2.161
      -1.373
      -0.246
       0.836
       1.659
       2.067
       1.892
       1.123
       0.071
      -0.789
      -1.189
      -1.215
      -1.074
      -0.815
      -0.406
       0.004
       0.133
      -0.039
      -0.125
       0.271
       1.055
       1.647
       1.554
       0.860
       0.062
      -0.499
      -0.870
      -1.148
      -1.181
      -0.780
      -0.118
       0.327
       0.297
       0.068
       0.113
       0.562
       1.094
       1.300
       1.018
       0.340
      -0.511
      -1.254
      -1.604
      -1.421
      -0.853
      -0.255
       0.101
       0.240
       0.381
       0.620
       0.798
       0.723
       0.434
       0.155
       0.039
       0.050
       0.065
       0.001
      -0.143
      -0.280
      -0.295
      -0.152
       0.045
       0.162
       0.182
       0.175
       0.145
      -0.011
      -0.351
      -0.744
      -0.906
      -0.605
       0.094
       0.789
       1.059
       0.857
       0.484
       0.188
      -0.112
      -0.609
      -1.217
      -1.548
      -1.291
      -0.501
       0.515
       1.446
       2.046
       2.099
       1.488
       0.356
      -0.871
      -1.707
      -1.902
      -1.522
      -0.823
      -0.092
       0.442
       0.686
       0.712
       0.661
       0.585
       0.423
       0.138
      -0.148
      -0.243
      -0.108
       0.057
       0.039
      -0.134
      -0.218
      -0.069
       0.166
       0.233
       0.108
       0.005
       0.057
       0.118
      -0.022
      -0.318
      -0.456
      -0.192
       0.346
       0.748
       0.689
       0.178
      -0.501
      -1.016
      -1.159
      -0.902
      -0.367
       0.244
       0.751
       1.083
       1.272
       1.334
       1.165
       0.608
      -0.302
      -1.208
      -1.658
      -1.496
      -0.998
      -0.578
      -0.370
      -0.149
       0.317
       0.928
       1.353
       1.397
       1.146
       0.767
       0.303
      -0.278
      -0.869
      -1.197
      -1.088
      -0.698
      -0.373
      -0.309
      -0.372
      -0.257
       0.188
       0.774
       1.112
       0.987
       0.562
       0.192
       0.038
      -0.075
      -0.387
      -0.875
      -1.241
      -1.205
      -0.772
      -0.191
       0.289
       0.596
       0.757
       0.782
       0.681
       0.532
       0.419
       0.315
       0.122
      -0.187
      -0.522
      -0.769
      -0.883
      -0.837
      -0.548
       0.039
       0.765
       1.272
       1.289
       0.880
       0.360
      -0.005
      -0.210
      -0.415
      -0.678
      -0.820
      -0.628
      -0.181
       0.137
       0.009
      -0.452
      -0.759
      -0.487
       0.326
       1.200
       1.606
       1.359
       0.686
      -0.002
      -0.420
      -0.560
      -0.621
      -0.790
      -1.043
      -1.127
      -0.782
      -0.032
       0.759
       1.158
       1.000
       0.514
       0.100
      -0.030
      -0.017
      -0.127
      -0.413
      -0.639
      -0.538
      -0.111
       0.313
       0.335
      -0.145
      -0.749
      -0.869
      -0.182
       1.000
       1.916
       1.947
       1.078
      -0.155
      -1.114
      -1.471
      -1.293
      -0.880
      -0.565
      -0.546
      -0.747
      -0.805
      -0.340
       0.667
       1.765
       2.333
       2.015
       0.953
      -0.287
      -1.038
      -0.981
      -0.401
       0.031
      -0.153
      -0.802
      -1.277
      -1.003
       0.049
       1.322
       2.030
       1.658
       0.307
      -1.297
      -2.183
      -1.765
      -0.328
       1.069
       1.391
       0.514
      -0.660
      -1.053
      -0.370
       0.758
       1.453
       1.290
       0.429
      -0.629
      -1.297
      -1.154
      -0.258
       0.773
       1.184
       0.700
      -0.275
      -1.047
      -1.211
      -0.837
      -0.226
       0.354
       0.743
       0.900
       0.889
       0.808
       0.668
       0.362
      -0.147
      -0.639
      -0.763
      -0.416
       0.100
       0.320
      -0.003
      -0.704
      -1.342
      -1.509
      -1.062
      -0.159
       0.832
       1.499
       1.582
       1.100
       0.348
      -0.277
      -0.529
      -0.438
      -0.184
       0.080
       0.267
       0.343
       0.376
       0.467
       0.569
       0.385
      -0.390
      -1.620
      -2.581
      -2.491
      -1.271
       0.307
       1.338
       1.565
       1.414
       1.382
       1.505
       1.409
       0.745
      -0.476
      -1.819
      -2.614
      -2.361
      -1.154
       0.245
       0.919
       0.583
      -0.103
      -0.210
       0.436
       1.090
       0.985
       0.200
      -0.441
      -0.251
       0.611
       1.301
       1.110
       0.096
      -1.051
      -1.587
      -1.181
      -0.061
       1.114
       1.655
       1.347
       0.628
       0.161
       0.158
       0.221
      -0.108
      -0.811
      -1.520
      -1.932
      -1.932
      -1.488
      -0.716
      -0.021
       0.070
      -0.606
      -1.515
      -1.709
      -0.611
       1.438
       3.404
       4.374
       4.175
       3.270
       2.157
       0.972
      -0.407
      -2.067
      -3.870
      -5.401
      -6.050
      -5.278
      -3.012
       0.087
       2.820
       4.177
       4.091
       3.440
       3.215
       3.623
       3.956
       3.284
       1.301
      -1.413
      -3.820
      -5.076
      -4.937
      -3.795
      -2.381
      -1.254
      -0.438
       0.456
       1.699
       3.041
       3.817
       3.463
       2.004
       0.074
      -1.479
      -1.997
      -1.251
       0.374
       1.882
       2.181
       0.901
      -1.218
      -2.886
      -3.268
      -2.453
      -1.030
       0.546
       2.095
       3.437
       4.200
       3.907
       2.257
      -0.608
      -3.979
      -6.720
      -7.670
      -6.232
      -2.800
       1.333
       4.647
       6.192
       5.882
       4.257
       2.118
       0.253
      -0.834
      -1.079
      -0.787
      -0.405
      -0.317
      -0.702
      -1.474
      -2.380
      -3.205
      -3.847
      -4.094
      -3.461
      -1.538
       1.418
       4.389
       6.251
       6.558
       5.645
       3.998
       1.712
      -1.267
      -4.434
      -6.589
      -6.647
      -4.575
      -1.459
       1.322
       2.976
       3.504
       3.304
       2.715
       1.854
       0.716
      -0.603
      -1.733
      -2.150
      -1.635
      -0.609
       0.123
       0.103
      -0.356
      -0.579
      -0.305
       0.131
       0.389
       0.568
       0.883
       1.124
       0.790
      -0.211
      -1.222
      -1.383
      -0.484
       0.803
       1.547
       1.311
       0.341
      -0.805
      -1.670
      -1.995
      -1.632
      -0.596
       0.751
       1.767
       1.989
       1.517
       0.836
       0.312
      -0.057
      -0.439
      -0.845
      -1.050
      -0.805
      -0.094
       0.777
       1.284
       0.963
      -0.232
      -1.763
      -2.769
      -2.645
      -1.466
       0.111
       1.393
       2.133
       2.528
       2.780
       2.734
       1.998
       0.430
      -1.564
      -3.233
      -3.952
      -3.543
      -2.299
      -0.769
       0.556
       1.484
       2.106
       2.577
       2.879
       2.756
       1.946
       0.539
      -0.957
      -1.961
      -2.185
      -1.717
      -0.897
      -0.154
       0.192
       0.081
      -0.326
      -0.771
      -1.026
      -0.995
      -0.696
      -0.151
       0.606
       1.409
       1.994
       2.162
       1.854
       1.117
       0.112
      -0.858
      -1.451
      -1.528
      -1.305
      -1.142
      -1.121
      -0.982
      -0.536
       0.019
       0.322
       0.286
       0.211
       0.460
       1.009
       1.393
       1.173
       0.411
      -0.402
      -0.797
      -0.627
      -0.053
       0.615
       1.074
       1.182
       1.017
       0.730
       0.289
      -0.517
      -1.662
      -2.524
      -2.265
      -0.712
       1.266
       2.390
       2.003
       0.513
      -1.107
      -2.177
      -2.611
      -2.516
      -1.801
      -0.351
       1.556
       3.243
       4.091
       3.918
       2.928
       1.446
      -0.210
      -1.732
      -2.843
      -3.323
      -3.024
      -1.947
      -0.376
       1.076
       1.722
       1.313
       0.312
      -0.443
      -0.438
       0.177
       0.873
       1.268
       1.341
       1.217
       0.906
       0.357
      -0.358
      -1.020
      -1.406
      -1.387
      -0.951
      -0.253
       0.361
       0.497
      -0.001
      -0.886
      -1.663
      -1.934
      -1.609
      -0.860
       0.053
       0.938
       1.723
       2.376
       2.826
       2.971
       2.713
       1.980
       0.810
      -0.554
      -1.704
      -2.312
      -2.391
      -2.269
      -2.254
      -2.331
      -2.198
      -1.586
      -0.549
       0.567
       1.400
       1.838
       2.026
       2.112
       2.015
       1.522
       0.637
      -0.296
      -0.884
      -1.047
      -1.061
      -1.237
      -1.573
      -1.712
      -1.270
      -0.195
       1.164
       2.268
       2.692
       2.324
       1.355
       0.134
      -0.988
      -1.768
      -2.126
      -2.087
      -1.662
      -0.809
       0.448
       1.874
       2.981
       3.207
       2.288
       0.544
      -1.250
      -2.340
      -2.420
      -1.704
      -0.717
      -0.018
       0.058
      -0.393
      -0.861
      -0.808
      -0.152
       0.607
       0.824
       0.357
      -0.218
      -0.122
       0.839
       2.058
       2.653
       2.183
       0.911
      -0.462
      -1.276
      -1.254
      -0.616
       0.044
       0.119
      -0.521
      -1.331
      -1.502
      -0.721
       0.469
       1.136
       0.817
      -0.059
      -0.612
      -0.351
       0.401
       0.887
       0.638
      -0.206
      -1.117
      -1.567
      -1.244
      -0.164
       1.258
       2.370
       2.653
       2.014
       0.731
      -0.796
      -2.189
      -3.080
      -3.179
      -2.471
      -1.309
      -0.178
       0.664
       1.271
       1.755
       2.035
       1.909
       1.341
       0.589
      -0.009
      -0.314
      -0.438
      -0.523
      -0.559
      -0.428
      -0.083
       0.345
       0.589
       0.435
      -0.063
      -0.565
      -0.730
      -0.546
      -0.292
      -0.173
      -0.083
       0.189
       0.608
       0.851
       0.661
       0.155
      -0.268
      -0.281
       0.110
       0.559
       0.615
       0.074
      -0.772
      -1.284
      -1.013
      -0.149
       0.618
       0.744
       0.338
       0.040
       0.324
       0.927
       1.060
       0.235
      -1.178
      -2.253
      -2.281
      -1.266
       0.203
       1.461
       2.149
       2.227
       1.792
       0.946
      -0.180
      -1.343
      -2.172
      -2.319
      -1.696
      -0.580
       0.551
       1.329
       1.642
       1.534
       1.072
       0.364
      -0.419
      -1.105
      -1.570
      -1.730
      -1.507
      -0.840
       0.202
       1.299
       1.973
       1.949
       1.419
       0.848
       0.490
       0.162
      -0.446
      -1.285
      -1.898
      -1.849
      -1.162
      -0.285
       0.341
       0.626
       0.780
       1.014
       1.314
       1.498
       1.413
       1.053
       0.473
      -0.302
      -1.211
      -2.034
      -2.489
      -2.443
      -1.975
      -1.218
      -0.235
       0.874
       1.799
       2.128
       1.725
       0.925
       0.234
      -0.103
      -0.204
      -0.296
      -0.434
