Origin Time       11/11/2013 20:11:30
Lat.              28.4 N	
Long.             77.2 E	
Depth (Km)         10.0
Magnitude         3.3
 Region           DELHI                                                            
 Above details taken from IMD 
     
Station Code      RGD
Station Lat.       28.665  N
Station Long.      77.123  E
Station Height(m)  262.0
Site Class        C   Vs30 between 200 m/sec to 375 m/sec *  
Record Time       28.03.2094 20:11:07.979
Sampling Rate     200. Hz
 Record Duration   88.100 Sec.
 Direction         E-W (E positive)
Max. Acceleration    -10.648 cm/sec**2
     
  * For reference see Site Classification link of website 
     
 Base Line Corrected and Low Pass Filtered (Cut Off at 35 Hz) Time History
 Acceleration data in cm/sec**2
    
[...]
      -0.012
      -0.025
      -0.026
      -0.016
       0.000
       0.015
       0.019
       0.011
      -0.009
      -0.031
      -0.047
      -0.051
      -0.040
      -0.018
       0.010
       0.035
       0.049
       0.049
       0.040
       0.030
       0.025
       0.021
       0.008
      -0.015
      -0.043
      -0.063
      -0.063
      -0.042
      -0.007
       0.029
       0.054
       0.058
       0.043
       0.012
      -0.022
      -0.052
      -0.066
      -0.058
      -0.027
       0.020
       0.064
       0.090
       0.090
       0.068
       0.037
       0.009
      -0.011
      -0.024
      -0.033
      -0.039
      -0.044
      -0.045
      -0.040
      -0.028
      -0.009
       0.015
       0.038
       0.052
       0.051
       0.036
       0.011
      -0.014
      -0.027
      -0.026
      -0.016
      -0.007
      -0.010
      -0.024
      -0.041
      -0.046
      -0.031
       0.000
       0.032
       0.050
       0.046
       0.030
       0.019
       0.024
       0.035
       0.033
       0.007
      -0.034
      -0.062
      -0.059
      -0.025
       0.013
       0.031
       0.026
       0.014
       0.018
       0.038
       0.060
       0.064
       0.046
       0.018
      -0.004
      -0.010
       0.001
       0.016
       0.021
       0.006
      -0.025
      -0.059
      -0.075
      -0.063
      -0.026
       0.019
       0.051
       0.059
       0.046
       0.028
       0.017
       0.016
       0.013
       0.001
      -0.021
      -0.042
      -0.050
      -0.040
      -0.023
      -0.013
      -0.019
      -0.036
      -0.048
      -0.045
      -0.026
      -0.001
       0.017
       0.026
       0.032
       0.040
       0.050
       0.055
       0.051
       0.040
       0.025
       0.010
      -0.005
      -0.016
      -0.018
      -0.009
       0.007
       0.023
       0.031
       0.029
       0.016
      -0.001
      -0.017
      -0.028
      -0.037
      -0.044
      -0.047
      -0.041
      -0.025
       0.000
       0.027
       0.043
       0.043
       0.026
       0.004
      -0.011
      -0.012
      -0.002
       0.008
       0.009
      -0.001
      -0.013
      -0.016
      -0.004
       0.014
       0.026
       0.024
       0.011
      -0.003
      -0.008
      -0.002
       0.008
       0.012
       0.005
      -0.008
      -0.016
      -0.008
       0.017
       0.052
       0.081
       0.089
       0.072
       0.042
       0.015
       0.000
      -0.004
      -0.010
      -0.024
      -0.045
      -0.064
      -0.067
      -0.054
      -0.031
      -0.010
      -0.001
      -0.003
      -0.012
      -0.017
      -0.014
       0.000
       0.021
       0.042
       0.053
       0.046
       0.024
      -0.004
      -0.026
      -0.036
      -0.041
      -0.048
      -0.060
      -0.062
      -0.043
      -0.001
       0.047
       0.076
       0.071
       0.038
       0.000
      -0.020
      -0.015
       0.005
       0.020
       0.021
       0.012
       0.007
       0.010
       0.014
       0.010
      -0.004
      -0.017
      -0.014
       0.005
       0.029
       0.041
       0.038
       0.027
       0.019
       0.018
       0.018
       0.014
       0.007
       0.004
       0.008
       0.018
       0.027
       0.026
       0.014
      -0.001
      -0.009
      -0.005
       0.008
       0.022
       0.031
       0.030
       0.022
       0.010
      -0.002
      -0.012
      -0.023
      -0.036
      -0.050
      -0.058
      -0.050
      -0.023
       0.017
       0.054
       0.069
       0.057
       0.028
       0.000
      -0.015
      -0.018
      -0.018
      -0.022
      -0.027
      -0.028
      -0.019
      -0.007
      -0.002
      -0.007
      -0.019
      -0.027
      -0.025
      -0.012
       0.003
       0.012
       0.011
       0.002
      -0.006
      -0.003
       0.019
       0.052
       0.078
       0.080
       0.055
       0.018
      -0.007
      -0.008
       0.010
       0.024
       0.014
      -0.019
      -0.056
      -0.075
      -0.065
      -0.032
       0.007
       0.038
       0.057
       0.062
       0.054
       0.039
       0.024
       0.014
       0.008
       0.004
      -0.005
      -0.016
      -0.022
      -0.021
      -0.013
      -0.005
      -0.001
      -0.001
       0.002
       0.011
       0.022
       0.027
       0.024
       0.017
       0.016
       0.027
       0.043
       0.053
       0.047
       0.029
       0.009
      -0.002
      -0.007
      -0.013
      -0.027
      -0.048
      -0.072
      -0.096
      -0.114
      -0.105
      -0.048
       0.054
       0.161
       0.209
       0.164
       0.059
      -0.025
      -0.036
      -0.016
      -0.073
      -0.261
      -0.460
      -0.418
       0.021
       0.664
       0.979
       0.501
      -0.638
      -1.589
      -1.388
       0.104
       1.840
       2.358
       1.130
      -0.846
      -1.934
      -1.425
      -0.155
       0.504
       0.144
      -0.359
      -0.015
       1.023
       1.566
       0.748
      -0.910
      -1.920
      -1.329
       0.278
       1.354
       0.993
      -0.146
      -0.624
       0.129
       1.149
       1.046
      -0.352
      -1.741
      -1.775
      -0.515
       0.769
       1.098
       0.720
       0.439
       0.408
       0.016
      -1.006
      -1.800
      -1.128
       1.101
       3.287
       3.383
       0.812
      -2.755
      -4.562
      -2.990
       0.979
       4.341
       4.416
       1.097
      -2.992
      -4.716
      -3.088
       0.084
       2.095
       1.814
       0.377
      -0.319
       0.438
       1.671
       1.889
       0.595
      -1.295
      -2.356
      -1.905
      -0.486
       0.721
       0.898
       0.093
      -1.009
      -1.627
      -1.237
       0.246
       2.288
       3.718
       3.303
       0.786
      -2.553
      -4.600
      -4.013
      -1.291
       1.661
       3.076
       2.551
       1.050
      -0.088
      -0.191
       0.390
       0.702
       0.036
      -1.436
      -2.716
      -2.753
      -1.311
       0.820
       2.435
       2.743
       1.767
       0.164
      -1.179
      -1.565
      -0.861
       0.345
       1.084
       0.779
      -0.201
      -0.841
      -0.464
       0.561
       1.176
       0.708
      -0.455
      -1.297
      -1.201
      -0.457
       0.205
       0.418
       0.427
       0.575
       0.739
       0.430
      -0.511
      -1.428
      -1.288
       0.206
       1.959
       2.213
       0.236
      -2.668
      -4.038
      -2.396
       1.340
       4.522
       4.902
       2.338
      -1.275
      -3.577
      -3.451
      -1.644
       0.067
       0.455
      -0.161
      -0.403
       0.628
       2.315
       3.117
       2.171
       0.158
      -1.457
      -1.888
      -1.544
      -1.234
      -1.169
      -0.947
      -0.307
       0.444
       0.852
       0.926
       1.060
       1.370
       1.367
       0.499
      -1.035
      -2.220
      -2.125
      -0.824
       0.670
       1.371
       1.158
       0.643
       0.379
       0.355
       0.237
      -0.118
      -0.539
      -0.821
      -0.924
      -0.845
      -0.488
       0.202
       0.990
       1.385
       1.056
       0.210
      -0.483
      -0.466
       0.144
       0.569
       0.101
      -1.100
      -1.976
      -1.509
       0.234
       2.028
       2.549
       1.534
      -0.102
      -1.229
      -1.460
      -1.187
      -0.880
      -0.566
      -0.012
       0.754
       1.298
       1.196
       0.544
      -0.057
      -0.096
       0.250
       0.237
      -0.615
      -1.834
      -2.290
      -1.292
       0.653
       2.230
       2.471
       1.522
       0.316
      -0.414
      -0.725
      -1.123
      -1.735
      -2.016
      -1.320
       0.319
       2.061
       2.920
       2.503
       1.172
      -0.359
      -1.464
      -1.799
      -1.341
      -0.418
       0.377
       0.543
       0.084
      -0.472
      -0.566
      -0.122
       0.433
       0.641
       0.433
       0.090
      -0.127
      -0.255
      -0.524
      -0.996
      -1.347
      -1.060
       0.063
       1.548
       2.469
       2.142
       0.726
      -0.862
      -1.684
      -1.501
      -0.815
      -0.251
       0.054
       0.411
       1.023
       1.580
       1.500
       0.558
      -0.767
      -1.618
      -1.463
      -0.534
       0.413
       0.781
       0.604
       0.375
       0.446
       0.634
       0.427
      -0.412
      -1.466
      -1.910
      -1.212
       0.317
       1.659
       1.868
       0.879
      -0.407
      -0.904
      -0.344
       0.495
       0.584
      -0.280
      -1.264
      -1.386
      -0.523
       0.530
       0.949
       0.660
       0.212
       0.023
      -0.033
      -0.242
      -0.473
      -0.251
       0.535
       1.207
       0.850
      -0.622
      -2.087
      -2.151
      -0.557
       1.438
       2.229
       1.380
      -0.104
      -0.949
      -0.858
      -0.497
      -0.462
      -0.589
      -0.341
       0.351
       0.907
       0.798
       0.207
      -0.165
       0.075
       0.540
       0.497
      -0.266
      -1.089
      -1.057
       0.009
       1.245
       1.543
       0.673
      -0.492
      -0.892
      -0.371
       0.239
       0.112
      -0.630
      -1.073
      -0.559
       0.536
       1.130
       0.530
      -0.809
      -1.633
      -1.044
       0.624
       2.037
       2.013
       0.548
      -1.208
      -1.962
      -1.354
      -0.140
       0.583
       0.365
      -0.281
      -0.415
       0.444
       1.823
       2.577
       1.784
      -0.376
      -2.543
      -3.146
      -1.740
       0.499
       1.734
       1.114
      -0.464
      -1.278
      -0.528
       0.861
       1.244
       0.014
      -1.707
      -2.135
      -0.584
       1.806
       3.047
       2.091
      -0.231
      -1.986
      -1.862
      -0.211
       1.444
       1.815
       0.787
      -0.759
      -1.776
      -1.685
      -0.530
       1.105
       2.287
       2.147
       0.521
      -1.709
      -3.055
      -2.492
      -0.324
       1.886
       2.407
       0.748
      -1.736
      -2.770
      -1.097
       2.210
       4.429
       3.474
      -0.250
      -4.096
      -5.308
      -3.134
       0.786
       3.833
       4.271
       2.217
      -0.692
      -2.467
      -2.049
      -0.003
       1.857
       1.838
      -0.216
      -2.678
      -3.407
      -1.545
       1.689
       3.901
       3.391
       0.478
      -2.742
      -3.998
      -2.538
       0.401
       2.662
       2.838
       1.171
      -0.885
      -1.881
      -1.320
       0.213
       1.589
       1.873
       0.887
      -0.667
      -1.692
      -1.513
      -0.395
       0.743
       1.124
       0.693
      -0.008
      -0.391
      -0.259
       0.153
       0.449
       0.379
      -0.033
      -0.563
      -0.931
      -0.922
      -0.485
       0.182
       0.673
       0.634
       0.134
      -0.273
      -0.025
       0.788
       1.308
       0.621
      -1.240
      -2.994
      -2.985
      -0.640
       2.748
       4.771
       3.764
       0.272
      -3.222
      -4.249
      -2.381
       0.513
       1.984
       1.121
      -0.845
      -1.871
      -1.022
       0.806
       1.877
       1.287
      -0.221
      -1.008
      -0.140
       1.632
       2.492
       1.291
      -1.234
      -3.028
      -2.651
      -0.687
       0.836
       0.467
      -1.254
      -2.357
      -1.358
       1.347
       3.828
       4.255
       2.331
      -0.560
      -2.411
      -2.042
       0.041
       2.018
       2.210
       0.476
      -1.723
      -2.713
      -2.097
      -0.887
      -0.309
      -0.657
      -1.280
      -1.359
      -0.528
       1.086
       3.032
       4.575
       4.811
       3.202
       0.299
      -2.203
      -2.587
      -0.699
       1.578
       1.781
      -0.878
      -4.597
      -6.417
      -4.760
      -0.731
       2.923
       4.104
       2.814
       0.707
      -0.469
      -0.089
       1.185
       2.053
       1.520
      -0.332
      -2.280
      -2.802
      -1.335
       1.092
       2.555
       1.805
      -0.603
      -2.676
      -2.625
      -0.446
       1.938
       2.195
      -0.414
      -4.237
      -6.402
      -5.034
      -0.678
       4.165
       6.881
       6.384
       3.436
      -0.161
      -2.608
      -2.871
      -1.093
       1.435
       2.995
       2.597
       0.684
      -1.327
      -2.302
      -2.267
      -2.103
      -2.409
      -2.724
      -1.915
       0.584
       3.885
       6.074
       5.676
       2.813
      -0.991
      -4.021
      -5.342
      -4.826
      -2.679
       0.644
       4.141
       6.328
       6.091
       3.614
       0.294
      -2.392
      -3.906
      -4.559
      -4.652
      -3.968
      -2.133
       0.668
       3.421
       4.762
       3.897
       1.313
      -1.392
      -2.628
      -2.015
      -0.539
       0.538
       0.849
       0.926
       1.104
       0.786
      -0.858
      -3.501
      -5.362
      -4.589
      -0.980
       3.680
       6.886
       7.078
       4.434
       0.508
      -2.826
      -4.405
      -4.191
      -2.896
      -1.262
       0.229
       1.093
       0.732
      -0.951
      -2.906
      -3.427
      -1.705
       1.212
       3.380
       3.919
       3.689
       3.806
       3.822
       1.949
      -2.644
      -8.045
     -10.648
      -8.314
      -2.443
       3.238
       5.973
       5.989
       5.380
       5.425
       5.335
       3.575
       0.049
      -3.349
      -4.349
      -2.420
       0.671
       2.327
       1.225
      -1.772
      -4.555
      -5.519
      -4.547
      -2.597
      -0.577
       1.273
       3.038
       4.415
       4.636
       3.223
       0.742
      -1.406
      -2.120
      -1.505
      -0.599
      -0.247
      -0.356
      -0.268
       0.317
       0.973
       1.102
       0.655
       0.201
       0.342
       1.171
       2.221
       2.752
       2.109
       0.074
      -2.819
      -5.265
      -5.807
      -3.905
      -0.571
       2.213
       2.995
       1.976
       0.697
       0.563
       1.554
       2.358
       1.747
      -0.163
      -1.976
      -2.245
      -0.674
       1.671
       3.175
       2.770
       0.593
      -2.132
      -3.866
      -3.729
      -2.038
       0.025
       1.363
       1.688
       1.434
       1.121
       0.880
       0.530
      -0.061
      -0.844
      -1.749
      -2.759
      -3.682
      -3.955
      -2.918
      -0.468
       2.535
       4.667
       4.922
       3.415
       1.167
      -0.716
      -1.705
      -1.890
      -1.595
      -0.999
      -0.044
       1.318
       2.693
       3.129
       1.702
      -1.466
      -4.799
      -6.214
      -4.798
      -1.619
       1.248
       2.555
       2.744
       3.010
       3.715
       3.984
       2.881
       0.676
      -1.319
      -2.089
      -1.774
      -1.168
      -0.645
       0.100
       1.262
       2.149
       1.543
      -0.964
      -4.065
      -5.460
      -3.808
      -0.103
       2.984
       3.374
       1.385
      -0.690
      -0.813
       0.987
       2.947
       3.441
       2.352
       0.727
      -0.482
      -1.117
      -1.483
      -1.776
      -1.959
      -1.979
      -1.821
      -1.367
      -0.428
       0.941
       2.208
       2.579
       1.547
      -0.648
      -2.973
      -4.055
      -2.996
      -0.110
       3.050
       4.585
       3.529
       0.569
      -2.396
      -3.562
      -2.450
      -0.138
       1.657
       1.910
       0.983
       0.110
       0.149
       0.773
       0.940
       0.146
      -0.939
      -1.216
      -0.428
       0.504
       0.478
      -0.586
      -1.668
      -1.723
      -0.680
       0.660
       1.563
       2.002
       2.359
       2.660
       2.342
       0.892
      -1.343
      -3.165
      -3.493
      -2.317
      -0.648
       0.485
       0.887
       1.066
       1.389
       1.612
       1.287
       0.422
      -0.492
      -1.085
      -1.468
      -1.848
      -1.939
      -1.077
       0.936
       3.190
       4.119
       2.794
      -0.101
      -2.639
      -3.187
      -1.767
       0.048
       0.629
      -0.208
      -1.159
      -0.874
       0.573
       1.723
       1.237
      -0.683
      -2.423
      -2.468
      -0.735
       1.500
       2.776
       2.486
       1.037
      -0.592
      -1.370
      -0.725
       0.982
       2.397
       1.999
      -0.527
      -3.622
      -4.868
      -3.106
       0.343
       2.730
       2.364
       0.113
      -1.555
      -0.967
       1.331
       3.339
       3.531
       1.972
      -0.154
      -1.716
      -2.280
      -1.948
      -0.993
       0.201
       1.081
       1.138
       0.349
      -0.661
      -1.097
      -0.727
      -0.139
      -0.160
      -0.962
      -1.746
      -1.397
       0.417
       2.716
       3.844
       2.817
       0.203
      -2.298
      -3.230
      -2.483
      -1.172
      -0.494
      -0.661
      -0.884
      -0.334
       0.886
       1.769
       1.427
       0.099
      -0.954
      -0.673
       0.714
       1.892
       1.758
       0.426
      -1.009
      -1.547
      -1.068
      -0.205
       0.360
       0.486
       0.581
       1.065
       1.773
       1.944
       0.984
      -0.702
      -1.822
      -1.402
       0.096
       1.071
       0.352
      -1.529
      -2.764
      -2.026
       0.209
       2.133
       2.340
       1.074
      -0.205
      -0.312
       0.635
       1.526
       1.421
       0.385
      -0.712
      -1.120
      -0.895
      -0.710
      -1.070
      -1.796
      -2.249
      -1.964
      -1.016
       0.153
       1.126
       1.702
       1.837
       1.586
       1.126
       0.701
       0.429
       0.224
       0.005
      -0.076
       0.239
       0.829
       0.985
      -0.026
      -2.029
      -3.705
      -3.587
      -1.467
       1.253
       2.740
       2.329
       0.959
       0.093
       0.277
       0.793
       0.620
      -0.408
      -1.463
      -1.646
      -0.867
       0.216
       0.940
       1.151
       1.008
       0.598
      -0.048
      -0.664
      -0.811
      -0.367
       0.195
       0.238
      -0.329
      -0.959
      -1.112
      -0.870
      -0.772
      -1.098
      -1.443
      -1.076
       0.295
       2.139
       3.463
       3.558
       2.474
       0.903
      -0.369
      -1.011
      -1.267
      -1.542
      -1.830
      -1.636
      -0.575
       0.935
       1.750
       0.999
      -0.934
      -2.540
      -2.473
      -0.812
       0.971
       1.384
       0.294
      -1.014
      -1.149
       0.017
       1.255
       1.237
      -0.138
      -1.644
      -1.855
      -0.375
       1.886
       3.501
       3.601
       2.378
       0.728
      -0.524
      -1.124
      -1.273
      -1.187
      -0.897
      -0.444
      -0.071
      -0.012
      -0.128
       0.046
       0.721
       1.389
       1.142
      -0.376
      -2.344
      -3.225
      -2.067
       0.498
       2.595
       2.644
       0.796
      -1.103
      -1.120
       0.971
       3.389
       3.947
       2.079
