Origin Time       11/11/2013 19:11:18
Lat.              28.5 N	
Long.             77.2 E	
Depth (Km)         10.0
Magnitude         3.1
 Region           DELHI                                                            
 Above details taken from IMD 
   
Station Code      RGD
Station Lat.       28.665
Station Long.      77.123
Station Height(m)  262.0
Site Class        C   Vs30 between 200 m/sec to 375 m/sec *  
Record Time       28.03.2094 19:10:55.719
Sampling Rate     200. Hz
 Record Duration   82.760 Sec.
 Direction         Vert. (Up positive)
Max. Acceleration      3.704 cm/sec**2
     
  * For reference see Site Classification link of website 
     
 Base Line Corrected and Low Pass Filtered (Cut Off at 35 Hz) Time History
 Acceleration data in cm/sec**2
    
[...]
      -0.018
      -0.026
      -0.031
      -0.032
      -0.026
      -0.015
      -0.005
       0.001
       0.001
      -0.003
      -0.006
      -0.007
      -0.008
      -0.012
      -0.020
      -0.028
      -0.029
      -0.021
      -0.009
      -0.001
       0.000
      -0.003
      -0.004
       0.001
       0.011
       0.023
       0.033
       0.039
       0.044
       0.047
       0.048
       0.047
       0.041
       0.032
       0.022
       0.013
       0.006
       0.000
      -0.007
      -0.016
      -0.023
      -0.026
      -0.024
      -0.019
      -0.019
      -0.025
      -0.033
      -0.035
      -0.028
      -0.014
       0.001
       0.012
       0.015
       0.014
       0.015
       0.020
       0.028
       0.034
       0.034
       0.027
       0.017
       0.006
      -0.005
      -0.019
      -0.034
      -0.045
      -0.047
      -0.037
      -0.021
      -0.006
       0.003
       0.007
       0.013
       0.023
       0.032
       0.036
       0.032
       0.025
       0.019
       0.017
       0.020
       0.023
       0.021
       0.013
       0.000
      -0.015
      -0.030
      -0.040
      -0.041
      -0.031
      -0.016
      -0.002
       0.007
       0.012
       0.014
       0.011
       0.001
      -0.014
      -0.029
      -0.036
      -0.030
      -0.014
       0.004
       0.016
       0.019
       0.015
       0.005
      -0.009
      -0.027
      -0.041
      -0.044
      -0.036
      -0.020
      -0.005
       0.002
       0.001
      -0.007
      -0.019
      -0.032
      -0.045
      -0.055
      -0.057
      -0.046
      -0.022
       0.009
       0.036
       0.052
       0.054
       0.045
       0.032
       0.020
       0.015
       0.015
       0.017
       0.015
       0.007
      -0.001
      -0.001
       0.009
       0.022
       0.031
       0.028
       0.015
      -0.001
      -0.015
      -0.022
      -0.023
      -0.019
      -0.010
      -0.002
       0.003
       0.003
      -0.003
      -0.013
      -0.023
      -0.029
      -0.029
      -0.024
      -0.019
      -0.017
      -0.019
      -0.021
      -0.021
      -0.021
      -0.021
      -0.024
      -0.028
      -0.031
      -0.033
      -0.034
      -0.036
      -0.036
      -0.031
      -0.020
      -0.004
       0.011
       0.019
       0.018
       0.010
       0.000
      -0.005
      -0.002
       0.008
       0.020
       0.028
       0.030
       0.027
       0.023
       0.019
       0.014
       0.008
      -0.001
      -0.010
      -0.015
      -0.012
      -0.002
       0.010
       0.019
       0.022
       0.019
       0.013
       0.004
      -0.004
      -0.012
      -0.018
      -0.023
      -0.024
      -0.020
      -0.013
      -0.002
       0.008
       0.015
       0.017
       0.013
       0.007
      -0.001
      -0.007
      -0.012
      -0.019
      -0.026
      -0.033
      -0.035
      -0.031
      -0.025
      -0.021
      -0.021
      -0.023
      -0.027
      -0.031
      -0.032
      -0.030
      -0.027
      -0.022
      -0.016
      -0.009
       0.001
       0.017
       0.035
       0.052
       0.064
       0.071
       0.071
       0.063
       0.048
       0.032
       0.023
       0.023
       0.025
       0.020
      -0.001
      -0.032
      -0.062
      -0.080
      -0.080
      -0.066
      -0.042
      -0.019
      -0.001
       0.008
       0.005
      -0.007
      -0.021
      -0.032
      -0.033
      -0.020
       0.001
       0.026
       0.048
       0.060
       0.062
       0.056
       0.043
       0.026
       0.005
      -0.017
      -0.034
      -0.041
      -0.036
      -0.023
      -0.009
       0.000
       0.003
       0.004
       0.002
      -0.003
      -0.013
      -0.027
      -0.037
      -0.038
      -0.025
      -0.007
       0.007
       0.009
       0.003
      -0.005
      -0.011
      -0.013
      -0.017
      -0.026
      -0.036
      -0.045
      -0.048
      -0.046
      -0.042
      -0.037
      -0.028
      -0.016
       0.001
       0.018
       0.034
       0.049
       0.062
       0.074
       0.081
       0.081
       0.070
       0.050
       0.026
       0.004
      -0.012
      -0.021
      -0.023
      -0.018
      -0.009
       0.000
       0.004
      -0.001
      -0.014
      -0.031
      -0.041
      -0.042
      -0.032
      -0.017
      -0.001
       0.008
       0.008
      -0.001
      -0.012
      -0.020
      -0.023
      -0.025
      -0.031
      -0.039
      -0.045
      -0.042
      -0.028
      -0.008
       0.011
       0.022
       0.022
       0.012
      -0.003
      -0.014
      -0.012
       0.001
       0.016
       0.023
       0.021
       0.013
       0.007
       0.005
       0.007
       0.010
       0.014
       0.017
       0.018
       0.013
       0.000
      -0.019
      -0.041
      -0.060
      -0.071
      -0.071
      -0.061
      -0.043
      -0.020
       0.006
       0.030
       0.048
       0.057
       0.060
       0.059
       0.056
       0.049
       0.040
       0.031
       0.028
       0.030
       0.032
       0.025
       0.007
      -0.017
      -0.038
      -0.044
      -0.035
      -0.020
      -0.008
      -0.003
      -0.001
       0.001
       0.001
      -0.004
      -0.019
      -0.038
      -0.054
      -0.060
      -0.053
      -0.037
      -0.020
      -0.007
      -0.001
      -0.003
      -0.010
      -0.019
      -0.029
      -0.037
      -0.043
      -0.045
      -0.041
      -0.030
      -0.013
       0.006
       0.022
       0.034
       0.043
       0.051
       0.061
       0.073
       0.083
       0.088
       0.086
       0.083
       0.083
       0.084
       0.079
       0.065
       0.044
       0.020
      -0.007
      -0.044
      -0.095
      -0.154
      -0.211
      -0.250
      -0.261
      -0.239
      -0.177
      -0.073
       0.064
       0.206
       0.313
       0.351
       0.309
       0.212
       0.099
      -0.006
      -0.121
      -0.281
      -0.474
      -0.622
      -0.621
      -0.440
      -0.158
       0.100
       0.270
       0.375
       0.454
       0.500
       0.473
       0.363
       0.213
       0.087
       0.026
       0.044
       0.112
       0.139
       0.006
      -0.306
      -0.638
      -0.772
      -0.658
      -0.462
      -0.361
      -0.330
      -0.193
       0.134
       0.524
       0.761
       0.743
       0.532
       0.256
       0.015
      -0.138
      -0.194
      -0.213
      -0.290
      -0.435
      -0.490
      -0.259
       0.242
       0.732
       0.905
       0.720
       0.391
       0.126
      -0.071
      -0.304
      -0.579
      -0.778
      -0.802
      -0.675
      -0.463
      -0.159
       0.295
       0.853
       1.274
       1.287
       0.847
       0.203
      -0.307
      -0.516
      -0.501
      -0.437
      -0.405
      -0.354
      -0.215
      -0.007
       0.162
       0.171
      -0.032
      -0.374
      -0.674
      -0.729
      -0.449
       0.078
       0.593
       0.814
       0.640
       0.256
      -0.020
      -0.024
       0.121
       0.182
       0.080
      -0.071
      -0.150
      -0.160
      -0.166
      -0.164
      -0.095
       0.022
       0.069
      -0.019
      -0.132
      -0.108
       0.064
       0.245
       0.312
       0.276
       0.225
       0.192
       0.118
      -0.035
      -0.202
      -0.282
      -0.251
      -0.171
      -0.106
      -0.078
      -0.094
      -0.174
      -0.311
      -0.422
      -0.386
      -0.152
       0.203
       0.523
       0.669
       0.603
       0.383
       0.115
      -0.124
      -0.308
      -0.435
      -0.489
      -0.427
      -0.209
       0.127
       0.431
       0.530
       0.378
       0.100
      -0.121
      -0.180
      -0.098
       0.023
       0.092
       0.095
       0.077
       0.070
       0.062
       0.024
      -0.054
      -0.131
      -0.152
      -0.104
      -0.038
       0.006
       0.057
       0.165
       0.289
       0.292
       0.082
      -0.264
      -0.545
      -0.603
      -0.426
      -0.127
       0.168
       0.391
       0.523
       0.553
       0.466
       0.275
       0.018
      -0.236
      -0.398
      -0.376
      -0.148
       0.172
       0.385
       0.358
       0.132
      -0.139
      -0.339
      -0.436
      -0.423
      -0.274
       0.007
       0.340
       0.586
       0.611
       0.373
      -0.032
      -0.418
      -0.625
      -0.605
      -0.402
      -0.086
       0.254
       0.498
       0.533
       0.326
      -0.044
      -0.419
      -0.619
      -0.538
      -0.223
       0.134
       0.348
       0.386
       0.365
       0.382
       0.403
       0.317
       0.083
      -0.202
      -0.371
      -0.321
      -0.095
       0.157
       0.280
       0.193
      -0.086
      -0.440
      -0.689
      -0.693
      -0.459
      -0.135
       0.131
       0.325
       0.540
       0.807
       0.995
       0.906
       0.476
      -0.147
      -0.722
      -1.059
      -1.076
      -0.790
      -0.308
       0.181
       0.490
       0.553
       0.447
       0.313
       0.240
       0.202
       0.118
      -0.045
      -0.221
      -0.314
      -0.298
      -0.238
      -0.220
      -0.251
      -0.235
      -0.071
       0.235
       0.567
       0.791
       0.834
       0.690
       0.387
      -0.021
      -0.444
      -0.763
      -0.870
      -0.732
      -0.435
      -0.157
      -0.031
      -0.033
      -0.029
       0.074
       0.245
       0.394
       0.471
       0.482
       0.435
       0.333
       0.204
       0.096
       0.018
      -0.084
      -0.257
      -0.473
      -0.656
      -0.754
      -0.748
      -0.613
      -0.317
       0.126
       0.595
       0.901
       0.923
       0.704
       0.393
       0.107
      -0.124
      -0.302
      -0.408
      -0.424
      -0.385
      -0.361
      -0.362
      -0.307
      -0.124
       0.135
       0.335
       0.405
       0.396
       0.376
       0.321
       0.152
      -0.144
      -0.448
      -0.600
      -0.525
      -0.278
       0.032
       0.302
       0.441
       0.389
       0.180
      -0.048
      -0.143
      -0.039
       0.190
       0.377
       0.360
       0.098
      -0.301
      -0.636
      -0.736
      -0.558
      -0.209
       0.154
       0.439
       0.618
       0.665
       0.544
       0.287
       0.016
      -0.136
      -0.144
      -0.091
      -0.079
      -0.147
      -0.272
      -0.423
      -0.563
      -0.612
      -0.474
      -0.156
       0.191
       0.385
       0.394
       0.365
       0.444
       0.572
       0.545
       0.248
      -0.196
      -0.551
      -0.668
      -0.567
      -0.358
      -0.134
       0.066
       0.238
       0.380
       0.468
       0.466
       0.344
       0.116
      -0.157
      -0.383
      -0.484
      -0.430
      -0.258
      -0.056
       0.084
       0.099
       0.004
      -0.095
      -0.071
       0.110
       0.362
       0.558
       0.612
       0.493
       0.217
      -0.131
      -0.392
      -0.439
      -0.319
      -0.237
      -0.329
      -0.497
      -0.504
      -0.228
       0.205
       0.556
       0.688
       0.636
       0.484
       0.258
      -0.039
      -0.337
      -0.505
      -0.480
      -0.351
      -0.272
      -0.257
      -0.138
       0.221
       0.704
       1.000
       0.884
       0.420
      -0.119
      -0.499
      -0.680
      -0.738
      -0.713
      -0.581
      -0.342
      -0.080
       0.104
       0.207
       0.329
       0.534
       0.736
       0.773
       0.582
       0.238
      -0.146
      -0.507
      -0.816
      -1.015
      -1.017
      -0.761
      -0.291
       0.261
       0.767
       1.147
       1.346
       1.283
       0.882
       0.180
      -0.636
      -1.324
      -1.714
      -1.744
      -1.389
      -0.666
       0.272
       1.115
       1.573
       1.579
       1.284
       0.884
       0.456
      -0.020
      -0.526
      -0.912
      -0.987
      -0.719
      -0.307
      -0.024
       0.012
      -0.109
      -0.231
      -0.274
      -0.234
      -0.085
       0.236
       0.698
       1.092
       1.154
       0.778
       0.124
      -0.520
      -0.973
      -1.216
      -1.235
      -0.936
      -0.292
       0.496
       1.077
       1.181
       0.793
       0.149
      -0.401
      -0.617
      -0.521
      -0.332
      -0.233
      -0.184
       0.004
       0.382
       0.704
       0.632
       0.114
      -0.492
      -0.715
      -0.399
       0.169
       0.545
       0.554
       0.380
       0.268
       0.228
       0.104
      -0.165
      -0.441
      -0.551
      -0.474
      -0.321
      -0.166
       0.004
       0.177
       0.229
       0.023
      -0.415
      -0.842
      -0.978
      -0.713
      -0.149
       0.508
       1.026
       1.210
       1.049
       0.777
       0.629
       0.529
       0.172
      -0.548
      -1.290
      -1.534
      -1.116
      -0.413
       0.050
       0.096
      -0.020
       0.031
       0.330
       0.707
       0.970
       1.088
       1.121
       1.053
       0.764
       0.212
      -0.435
      -0.894
      -0.993
      -0.824
      -0.655
      -0.660
      -0.742
      -0.666
      -0.348
       0.031
       0.233
       0.257
       0.388
       0.887
       1.602
       2.000
       1.638
       0.603
      -0.581
      -1.445
      -1.926
      -2.218
      -2.383
      -2.171
      -1.271
       0.292
       2.052
       3.355
       3.704
       2.969
       1.435
      -0.320
      -1.707
      -2.389
      -2.396
      -2.009
      -1.511
      -0.994
      -0.399
       0.303
       1.001
       1.486
       1.601
       1.347
       0.865
       0.363
       0.040
       0.011
       0.205
       0.359
       0.174
      -0.462
      -1.344
      -2.048
      -2.209
      -1.773
      -0.970
      -0.067
       0.795
       1.557
       2.121
       2.327
       2.020
       1.185
       0.052
      -0.970
      -1.525
      -1.507
      -1.078
      -0.558
      -0.241
      -0.215
      -0.348
      -0.447
      -0.379
      -0.068
       0.509
       1.246
       1.852
       1.989
       1.528
       0.673
      -0.197
      -0.829
      -1.217
      -1.458
      -1.561
      -1.451
      -1.116
      -0.620
       0.013
       0.777
       1.517
       1.878
       1.581
       0.759
      -0.068
      -0.450
      -0.412
      -0.365
      -0.642
      -1.158
      -1.536
      -1.477
      -0.992
      -0.307
       0.383
       0.991
       1.448
       1.655
       1.566
       1.266
       0.905
       0.577
       0.260
      -0.116
      -0.576
      -1.056
      -1.426
      -1.532
      -1.270
      -0.680
       0.015
       0.507
       0.611
       0.397
       0.104
      -0.082
      -0.121
      -0.020
       0.225
       0.554
       0.818
       0.888
       0.740
       0.411
      -0.079
      -0.709
      -1.370
      -1.818
      -1.782
      -1.166
      -0.149
       0.878
       1.513
       1.540
       1.031
       0.302
      -0.257
      -0.400
      -0.175
       0.132
       0.248
       0.132
      -0.040
      -0.100
      -0.034
       0.051
       0.069
       0.046
       0.082
       0.241
       0.474
       0.654
       0.648
       0.371
      -0.165
      -0.823
      -1.358
      -1.527
      -1.247
      -0.646
       0.048
       0.664
       1.114
       1.303
       1.133
       0.611
      -0.074
      -0.629
      -0.837
      -0.683
      -0.343
      -0.045
       0.081
       0.081
       0.090
       0.171
       0.245
       0.203
       0.082
       0.052
       0.188
       0.345
       0.334
       0.184
       0.119
       0.259
       0.415
       0.253
      -0.307
      -0.920
      -1.106
      -0.707
      -0.054
       0.321
       0.137
      -0.399
      -0.790
      -0.693
      -0.205
       0.257
       0.386
       0.271
       0.252
       0.537
       0.986
       1.217
       0.934
       0.215
      -0.488
      -0.711
      -0.382
       0.115
       0.299
       0.030
      -0.412
      -0.646
      -0.546
      -0.263
       0.023
       0.279
       0.543
       0.768
       0.835
       0.668
       0.296
      -0.172
      -0.609
      -0.917
      -1.022
      -0.880
      -0.523
      -0.073
       0.330
       0.582
       0.623
       0.466
       0.210
      -0.031
      -0.206
      -0.331
      -0.434
      -0.494
      -0.414
      -0.116
       0.314
       0.653
       0.755
       0.668
       0.526
       0.389
       0.239
       0.080
      -0.053
      -0.164
      -0.334
      -0.618
      -0.929
      -1.079
      -0.925
      -0.520
      -0.070
       0.270
       0.534
       0.817
       1.060
       1.051
       0.652
      -0.009
      -0.597
      -0.843
      -0.741
      -0.489
      -0.296
      -0.243
      -0.285
      -0.303
      -0.178
       0.137
       0.548
       0.842
       0.842
       0.577
       0.266
       0.112
       0.122
       0.126
      -0.009
      -0.232
      -0.376
      -0.353
      -0.236
      -0.154
      -0.140
      -0.089
       0.107
       0.397
       0.562
       0.428
       0.045
      -0.353
      -0.560
      -0.553
      -0.455
      -0.367
      -0.252
      -0.013
       0.334
       0.612
       0.628
       0.356
      -0.048
      -0.373
      -0.494
      -0.413
      -0.221
      -0.023
       0.131
       0.268
       0.453
       0.716
       0.966
       0.984
       0.581
      -0.184
      -0.990
      -1.469
      -1.463
      -1.069
      -0.511
       0.044
       0.557
       1.040
       1.421
       1.523
       1.196
       0.493
      -0.309
      -0.875
      -1.041
      -0.886
      -0.635
      -0.464
      -0.375
      -0.238
       0.047
       0.430
       0.736
       0.789
       0.544
       0.115
      -0.290
      -0.500
      -0.498
      -0.425
      -0.425
      -0.459
      -0.330
       0.063
       0.557
       0.846
       0.773
       0.475
       0.229
       0.176
       0.215
       0.161
      -0.041
      -0.291
      -0.452
      -0.441
      -0.279
      -0.077
       0.028
      -0.022
      -0.170
      -0.303
      -0.364
      -0.366
      -0.302
      -0.093
       0.312
       0.774
       1.012
       0.839
       0.356
      -0.117
      -0.315
      -0.261
      -0.204
      -0.339
      -0.597
      -0.713
      -0.497
      -0.050
       0.314
       0.368
       0.172
      -0.024
      -0.039
       0.091
       0.193
       0.172
       0.109
       0.136
       0.268
       0.396
       0.388
       0.184
      -0.159
      -0.497
      -0.674
      -0.615
      -0.370
      -0.074
       0.150
       0.275
       0.346
       0.411
       0.462
       0.431
       0.242
      -0.102
      -0.494
      -0.797
      -0.925
      -0.853
      -0.572
      -0.082
       0.550
       1.158
       1.529
       1.529
       1.167
       0.551
      -0.173
      -0.845
      -1.308
      -1.476
      -1.380
      -1.109
      -0.725
      -0.238
       0.327
       0.868
       1.226
       1.288
       1.077
       0.727
       0.374
       0.049
      -0.294
      -0.681
      -1.034
      -1.216
      -1.128
      -0.784
      -0.299
       0.181
       0.541
       0.723
