Origin Time       11/11/2013 22:10:42
Lat.              28.4 N	
Long.             77.2 E	
Depth (Km)         11.0
Magnitude         2.8
 Region           DELHI                                                            
 Above details taken from IMD 
     
Station Code      RGD
Station Lat.       28.665  N
Station Long.      77.123  E
Station Height(m)  262.0
Site Class        C   Vs30 between 200 m/sec to 375 m/sec *  
Record Time       28.03.2094 22:10:22.439
Sampling Rate     200. Hz
 Record Duration   80.860 Sec.
 Direction         E-W (E positive)
Max. Acceleration      3.013 cm/sec**2
     
  * For reference see Site Classification link of website 
     
 Base Line Corrected and Low Pass Filtered (Cut Off at 35 Hz) Time History
 Acceleration data in cm/sec**2
    
[...]
      -0.007
      -0.014
      -0.013
      -0.006
       0.004
       0.011
       0.012
       0.004
      -0.009
      -0.020
      -0.024
      -0.020
      -0.016
      -0.015
      -0.016
      -0.014
      -0.006
       0.006
       0.016
       0.023
       0.024
       0.021
       0.018
       0.021
       0.028
       0.032
       0.027
       0.013
      -0.007
      -0.025
      -0.037
      -0.039
      -0.035
      -0.030
      -0.028
      -0.029
      -0.029
      -0.028
      -0.023
      -0.012
       0.003
       0.019
       0.030
       0.035
       0.035
       0.033
       0.032
       0.029
       0.021
       0.009
      -0.006
      -0.019
      -0.027
      -0.027
      -0.019
      -0.005
       0.009
       0.023
       0.034
       0.041
       0.042
       0.036
       0.027
       0.020
       0.020
       0.023
       0.019
       0.004
      -0.020
      -0.042
      -0.052
      -0.048
      -0.038
      -0.032
      -0.031
      -0.032
      -0.030
      -0.024
      -0.016
      -0.009
      -0.003
       0.003
       0.009
       0.013
       0.009
       0.000
      -0.008
      -0.011
      -0.011
      -0.014
      -0.024
      -0.038
      -0.049
      -0.054
      -0.051
      -0.041
      -0.027
      -0.011
       0.007
       0.025
       0.042
       0.056
       0.067
       0.078
       0.089
       0.102
       0.111
       0.110
       0.098
       0.079
       0.059
       0.038
       0.016
      -0.006
      -0.021
      -0.021
      -0.005
       0.017
       0.033
       0.037
       0.031
       0.022
       0.016
       0.015
       0.019
       0.028
       0.041
       0.054
       0.062
       0.062
       0.053
       0.034
       0.012
      -0.006
      -0.013
      -0.008
       0.000
       0.001
      -0.007
      -0.016
      -0.017
      -0.003
       0.015
       0.027
       0.029
       0.025
       0.025
       0.032
       0.043
       0.050
       0.046
       0.035
       0.023
       0.021
       0.030
       0.043
       0.046
       0.035
       0.018
       0.007
       0.010
       0.022
       0.031
       0.029
       0.018
       0.009
       0.008
       0.013
       0.019
       0.018
       0.011
       0.003
       0.003
       0.019
       0.046
       0.071
       0.080
       0.069
       0.048
       0.032
       0.033
       0.049
       0.064
       0.064
       0.044
       0.019
       0.002
       0.003
       0.016
       0.031
       0.038
       0.037
       0.033
       0.033
       0.038
       0.040
       0.035
       0.021
       0.005
      -0.005
      -0.004
       0.007
       0.021
       0.032
       0.037
       0.038
       0.035
       0.030
       0.026
       0.027
       0.036
       0.051
       0.064
       0.067
       0.057
       0.041
       0.028
       0.021
       0.021
       0.026
       0.032
       0.038
       0.042
       0.039
       0.027
       0.010
      -0.005
      -0.011
      -0.005
       0.013
       0.033
       0.048
       0.051
       0.046
       0.041
       0.040
       0.036
       0.018
      -0.017
      -0.055
      -0.077
      -0.073
      -0.048
      -0.018
       0.006
       0.022
       0.029
       0.027
       0.018
       0.005
      -0.004
      -0.005
      -0.003
      -0.003
      -0.004
      -0.001
       0.003
       0.004
      -0.006
      -0.023
      -0.035
      -0.031
      -0.011
       0.015
       0.034
       0.039
       0.034
       0.026
       0.022
       0.025
       0.033
       0.041
       0.044
       0.041
       0.035
       0.028
       0.016
      -0.005
      -0.033
      -0.058
      -0.069
      -0.066
      -0.055
      -0.044
      -0.037
      -0.028
      -0.013
       0.007
       0.026
       0.039
       0.044
       0.044
       0.039
       0.029
       0.014
       0.000
      -0.009
      -0.015
      -0.023
      -0.035
      -0.047
      -0.056
      -0.059
      -0.058
      -0.054
      -0.047
      -0.035
      -0.016
       0.007
       0.029
       0.047
       0.055
       0.048
       0.030
       0.014
       0.011
       0.021
       0.032
       0.027
       0.000
      -0.039
      -0.071
      -0.082
      -0.068
      -0.036
      -0.002
       0.023
       0.031
       0.027
       0.017
       0.009
       0.002
      -0.010
      -0.026
      -0.036
      -0.025
       0.008
       0.043
       0.052
       0.026
      -0.016
      -0.037
      -0.015
       0.031
       0.055
       0.031
      -0.023
      -0.061
      -0.061
      -0.043
      -0.038
      -0.048
      -0.045
      -0.005
       0.056
       0.096
       0.091
       0.055
       0.028
       0.034
       0.053
       0.045
      -0.006
      -0.061
      -0.068
      -0.017
       0.036
       0.029
      -0.050
      -0.144
      -0.179
      -0.126
      -0.018
       0.083
       0.131
       0.119
       0.070
       0.016
      -0.022
      -0.038
      -0.028
       0.000
       0.028
       0.025
      -0.020
      -0.075
      -0.084
      -0.026
       0.055
       0.085
       0.032
      -0.066
      -0.136
      -0.141
      -0.090
      -0.023
       0.029
       0.055
       0.057
       0.045
       0.031
       0.022
       0.017
       0.010
       0.007
       0.019
       0.039
       0.037
      -0.015
      -0.099
      -0.157
      -0.142
      -0.063
       0.022
       0.068
       0.078
       0.085
       0.093
       0.068
      -0.016
      -0.126
      -0.184
      -0.146
      -0.053
       0.002
      -0.027
      -0.087
      -0.077
       0.041
       0.183
       0.209
       0.072
      -0.118
      -0.176
      -0.031
       0.189
       0.278
       0.153
      -0.067
      -0.201
      -0.200
      -0.172
      -0.214
      -0.272
      -0.217
      -0.038
       0.120
       0.128
       0.051
       0.075
       0.276
       0.492
       0.476
       0.171
      -0.192
      -0.315
      -0.145
       0.064
       0.034
      -0.234
      -0.464
      -0.414
      -0.130
       0.128
       0.179
       0.099
       0.089
       0.215
       0.332
       0.266
       0.035
      -0.152
      -0.132
       0.028
       0.104
      -0.026
      -0.236
      -0.282
      -0.077
       0.190
       0.226
      -0.065
      -0.468
      -0.650
      -0.458
      -0.037
       0.320
       0.420
       0.282
       0.065
      -0.070
      -0.045
       0.116
       0.284
       0.270
      -0.024
      -0.451
      -0.663
      -0.420
       0.125
       0.488
       0.304
      -0.272
      -0.673
      -0.469
       0.185
       0.690
       0.603
       0.064
      -0.386
      -0.365
       0.013
       0.348
       0.398
       0.251
       0.108
       0.016
      -0.116
      -0.297
      -0.364
      -0.170
       0.176
       0.346
       0.117
      -0.345
      -0.580
      -0.270
       0.395
       0.827
       0.582
      -0.168
      -0.736
      -0.578
       0.143
       0.694
       0.520
      -0.172
      -0.628
      -0.347
       0.395
       0.826
       0.460
      -0.424
      -1.060
      -0.920
      -0.176
       0.497
       0.554
       0.044
      -0.486
      -0.518
      -0.019
       0.563
       0.721
       0.338
      -0.253
      -0.587
      -0.449
       0.000
       0.405
       0.500
       0.282
      -0.038
      -0.230
      -0.220
      -0.085
       0.069
       0.188
       0.230
       0.120
      -0.156
      -0.415
      -0.369
       0.061
       0.547
       0.607
       0.122
      -0.461
      -0.558
      -0.080
       0.436
       0.394
      -0.201
      -0.733
      -0.621
       0.071
       0.709
       0.726
       0.145
      -0.493
      -0.661
      -0.294
       0.218
       0.432
       0.244
      -0.079
      -0.200
      -0.036
       0.212
       0.322
       0.278
       0.205
       0.142
      -0.036
      -0.395
      -0.729
      -0.683
      -0.147
       0.515
       0.745
       0.335
      -0.324
      -0.602
      -0.251
       0.346
       0.557
       0.132
      -0.539
      -0.790
      -0.303
       0.582
       1.145
       0.923
       0.124
      -0.564
      -0.608
      -0.110
       0.331
       0.238
      -0.302
      -0.787
      -0.827
      -0.449
       0.030
       0.331
       0.380
       0.262
       0.114
       0.046
       0.098
       0.235
       0.369
       0.398
       0.240
      -0.112
      -0.510
      -0.662
      -0.359
       0.240
       0.621
       0.360
      -0.400
      -0.993
      -0.844
      -0.035
       0.766
       0.931
       0.425
      -0.226
      -0.442
      -0.087
       0.473
       0.716
       0.400
      -0.254
      -0.760
      -0.769
      -0.333
       0.166
       0.350
       0.150
      -0.187
      -0.344
      -0.203
       0.106
       0.339
       0.324
       0.053
      -0.324
      -0.545
      -0.378
       0.178
       0.769
       0.885
       0.307
      -0.600
      -1.118
      -0.803
       0.082
       0.790
       0.790
       0.235
      -0.251
      -0.226
       0.181
       0.503
       0.452
       0.127
      -0.207
      -0.409
      -0.493
      -0.454
      -0.232
       0.134
       0.411
       0.362
       0.034
      -0.226
      -0.120
       0.248
       0.449
       0.177
      -0.380
      -0.686
      -0.397
       0.254
       0.655
       0.437
      -0.136
      -0.445
      -0.168
       0.389
       0.637
       0.318
      -0.260
      -0.577
      -0.422
      -0.053
       0.128
      -0.004
      -0.208
      -0.187
       0.071
       0.277
       0.177
      -0.129
      -0.272
      -0.045
       0.301
       0.297
      -0.182
      -0.689
      -0.640
       0.012
       0.665
       0.667
       0.003
      -0.667
      -0.664
       0.054
       0.858
       1.050
       0.480
      -0.360
      -0.794
      -0.545
       0.075
       0.493
       0.393
      -0.045
      -0.375
      -0.325
      -0.021
       0.200
       0.142
      -0.057
      -0.107
       0.117
       0.427
       0.514
       0.270
      -0.113
      -0.353
      -0.364
      -0.297
      -0.304
      -0.333
      -0.202
       0.125
       0.414
       0.377
       0.007
      -0.347
      -0.294
       0.191
       0.699
       0.749
       0.255
      -0.377
      -0.649
      -0.445
      -0.091
       0.038
      -0.092
      -0.205
      -0.081
       0.194
       0.369
       0.315
       0.127
      -0.033
      -0.104
      -0.128
      -0.158
      -0.197
      -0.196
      -0.096
       0.097
       0.258
       0.210
      -0.102
      -0.495
      -0.639
      -0.335
       0.276
       0.797
       0.893
       0.546
       0.031
      -0.328
      -0.376
      -0.169
       0.133
       0.372
       0.419
       0.204
      -0.204
      -0.557
      -0.605
      -0.349
      -0.073
      -0.042
      -0.198
      -0.213
       0.116
       0.581
       0.738
       0.372
      -0.239
      -0.588
      -0.416
       0.068
       0.433
       0.428
       0.155
      -0.090
      -0.113
       0.029
       0.110
      -0.017
      -0.265
      -0.391
      -0.246
       0.053
       0.242
       0.168
      -0.072
      -0.256
      -0.266
      -0.164
      -0.069
      -0.009
       0.068
       0.187
       0.282
       0.271
       0.154
       0.025
      -0.002
       0.112
       0.278
       0.328
       0.152
      -0.174
      -0.426
      -0.420
      -0.188
       0.053
       0.092
      -0.095
      -0.332
      -0.367
      -0.064
       0.466
       0.883
       0.834
       0.278
      -0.419
      -0.774
      -0.606
      -0.154
       0.199
       0.256
       0.067
      -0.205
      -0.401
      -0.375
      -0.063
       0.391
       0.634
       0.387
      -0.246
      -0.795
      -0.816
      -0.291
       0.364
       0.679
       0.523
       0.147
      -0.093
      -0.039
       0.186
       0.324
       0.192
      -0.179
      -0.545
      -0.608
      -0.250
       0.307
       0.603
       0.305
      -0.433
      -0.988
      -0.756
       0.264
       1.365
       1.668
       0.878
      -0.432
      -1.299
      -1.196
      -0.447
       0.136
       0.050
      -0.452
      -0.667
      -0.194
       0.620
       1.009
       0.578
      -0.251
      -0.629
      -0.142
       0.750
       1.185
       0.789
       0.014
      -0.436
      -0.395
      -0.314
      -0.606
      -1.080
      -1.174
      -0.636
       0.174
       0.710
       0.816
       0.766
       0.766
       0.643
       0.171
      -0.416
      -0.497
       0.189
       1.042
       1.089
       0.065
      -1.165
      -1.409
      -0.398
       0.895
       1.202
       0.214
      -1.127
      -1.533
      -0.588
       0.861
       1.467
       0.621
      -0.968
      -1.897
      -1.346
       0.180
       1.364
       1.331
       0.398
      -0.391
      -0.355
       0.256
       0.692
       0.529
      -0.034
      -0.556
      -0.838
      -0.941
      -0.879
      -0.517
       0.139
       0.677
       0.575
      -0.149
      -0.749
      -0.445
       0.665
       1.598
       1.469
       0.435
      -0.459
      -0.353
       0.562
       1.268
       0.924
      -0.391
      -1.836
      -2.554
      -2.234
      -1.091
       0.432
       1.832
       2.535
       2.063
       0.460
      -1.440
      -2.385
      -1.653
       0.218
       1.700
       1.518
      -0.165
      -1.776
      -1.698
       0.211
       2.401
       3.013
       1.579
      -0.589
      -1.690
      -1.089
       0.246
       0.844
       0.139
      -1.184
      -2.040
      -1.933
      -1.136
      -0.147
       0.787
       1.594
       2.055
       1.799
       0.717
      -0.700
      -1.605
      -1.479
      -0.590
       0.245
       0.398
      -0.045
      -0.458
      -0.297
       0.442
       1.298
       1.745
       1.514
       0.702
      -0.282
      -0.898
      -0.837
      -0.377
      -0.241
      -0.889
      -1.884
      -2.173
      -1.143
       0.646
       1.911
       1.833
       0.723
      -0.451
      -0.999
      -0.881
      -0.365
       0.319
       0.918
       1.042
       0.469
      -0.405
      -0.718
      -0.028
       0.975
       1.006
      -0.367
      -1.964
      -2.026
      -0.116
       2.222
       2.906
       1.407
      -0.755
      -1.654
      -0.946
      -0.030
      -0.281
      -1.390
      -1.745
      -0.394
       1.703
       2.609
       1.501
      -0.421
      -1.215
      -0.239
       1.243
       1.478
       0.099
      -1.520
      -1.745
      -0.420
       0.955
       0.790
      -0.894
      -2.401
      -2.050
       0.111
       2.311
       2.794
       1.481
      -0.114
      -0.514
       0.302
       1.106
       0.844
      -0.334
      -1.431
      -1.746
      -1.443
      -1.070
      -0.800
      -0.341
       0.474
       1.276
       1.468
       0.882
      -0.004
      -0.537
      -0.468
      -0.036
       0.393
       0.645
       0.704
       0.551
       0.177
      -0.257
      -0.430
      -0.167
       0.266
       0.309
      -0.310
      -1.185
      -1.524
      -0.914
       0.237
       1.064
       1.051
       0.445
      -0.099
      -0.174
       0.057
       0.105
      -0.330
      -1.034
      -1.427
      -1.077
      -0.120
       0.805
       1.087
       0.686
       0.151
       0.074
       0.486
       0.839
       0.611
      -0.099
      -0.669
      -0.643
      -0.232
      -0.028
      -0.283
      -0.619
      -0.536
      -0.064
       0.263
       0.069
      -0.374
      -0.434
       0.171
       1.047
       1.503
       1.181
       0.329
      -0.450
      -0.664
      -0.245
       0.439
       0.836
       0.591
      -0.196
      -1.022
      -1.338
      -0.931
      -0.059
       0.734
       0.967
       0.529
      -0.228
      -0.715
      -0.541
       0.139
       0.721
       0.662
      -0.005
      -0.669
      -0.711
      -0.111
       0.521
       0.552
      -0.035
      -0.633
      -0.628
       0.001
       0.696
       0.886
       0.491
      -0.124
      -0.579
      -0.749
      -0.655
      -0.305
       0.219
       0.612
       0.517
      -0.071
      -0.663
      -0.697
      -0.115
       0.549
       0.692
       0.226
      -0.392
      -0.649
      -0.422
       0.066
       0.573
       0.986
       1.194
       1.005
       0.340
      -0.523
      -1.032
      -0.827
      -0.133
       0.383
       0.231
      -0.423
      -0.911
      -0.713
       0.060
       0.771
       0.822
       0.139
      -0.776
      -1.213
      -0.744
       0.465
       1.706
       2.168
       1.500
       0.108
      -1.124
      -1.508
      -1.062
      -0.398
      -0.120
      -0.312
      -0.573
      -0.491
      -0.036
       0.455
       0.639
       0.477
       0.227
       0.177
       0.396
       0.698
       0.824
       0.642
       0.215
      -0.280
      -0.680
      -0.884
      -0.858
      -0.636
      -0.327
      -0.074
       0.046
       0.093
       0.214
       0.480
       0.792
       0.921
       0.693
       0.136
      -0.506
      -0.925
      -0.965
      -0.728
      -0.468
      -0.357
      -0.334
      -0.175
       0.264
       0.850
       1.210
       1.007
       0.262
      -0.569
      -0.882
      -0.454
       0.282
       0.554
      -0.009
      -0.929
      -1.261
      -0.491
       0.905
       1.848
       1.638
       0.568
      -0.400
      -0.549
      -0.013
       0.473
       0.346
      -0.288
      -0.863
      -0.968
      -0.686
      -0.382
      -0.243
      -0.134
       0.112
       0.385
       0.384
       0.039
      -0.293
      -0.160
       0.430
       0.915
       0.740
      -0.001
      -0.610
      -0.510
       0.126
       0.579
       0.365
      -0.260
      -0.624
      -0.391
       0.078
       0.147
      -0.370
      -0.963
      -0.946
      -0.198
       0.675
       0.930
       0.421
      -0.275
      -0.463
      -0.012
       0.558
       0.656
       0.243
      -0.138
       0.024
       0.636
       1.061
       0.771
      -0.110
      -0.930
      -1.149
      -0.805
      -0.362
      -0.178
      -0.186
      -0.105
       0.168
       0.434
       0.479
       0.356
       0.305
       0.400
       0.405
       0.058
      -0.528
      -0.877
      -0.625
       0.046
       0.524
       0.374
      -0.211
      -0.616
      -0.440
       0.118
       0.519
       0.454
       0.111
      -0.100
      -0.011
       0.174
       0.173
      -0.027
      -0.157
      -0.006
       0.277
       0.284
      -0.188
      -0.816
      -0.984
      -0.399
       0.538
       1.055
       0.734
      -0.099
      -0.700
      -0.602
       0.035
       0.660
       0.831
       0.501
      -0.048
      -0.461
      -0.523
      -0.257
       0.098
       0.246
       0.055
      -0.316
      -0.531
      -0.371
       0.065
       0.442
       0.490
       0.242
      -0.019
      -0.023
       0.251
       0.564
       0.604
       0.221
      -0.450
      -1.022
      -1.096
      -0.576
       0.177
       0.595
       0.406
      -0.076
      -0.253
       0.101
       0.544
       0.427
      -0.354
      -1.144
      -1.170
      -0.337
       0.675
