Origin Time       05/3/2012 07:41:05	
Lat.              28.7 N	
Long.             76.6 E	
Depth (Km)         14.0
Magnitude         4.9
 Region           Haryana-Delhi-Border-Region                                      
 Above details taken from IMD 
     
Station Code      RGD
Station Lat.       28.665  N
Station Long.      77.123  E
Station Height(m)  262.0
Site Class        C   Vs30 between 200 m/sec to 375 m/sec *  
Record Time       05.03.2012 07:40:51.074
Sampling Rate     200. Hz
 Record Duration   89.835 Sec.
 Direction         E-W (E positive)
Max. Acceleration     -8.032 cm/sec**2
     
  * For reference see Site Classification link of website 
     
 Base Line Corrected and Low Pass Filtered (Cut Off at 35 Hz) Time History
 Acceleration data in cm/sec**2
    
[...]
       0.190
      -0.156
      -0.284
      -0.178
      -0.003
       0.020
      -0.182
      -0.449
      -0.531
      -0.348
      -0.097
      -0.074
      -0.386
      -0.838
      -1.115
      -1.083
      -0.875
      -0.713
      -0.663
      -0.591
      -0.350
       0.038
       0.382
       0.507
       0.403
       0.203
       0.047
      -0.040
      -0.124
      -0.269
      -0.466
      -0.653
      -0.773
      -0.791
      -0.689
      -0.481
      -0.239
      -0.080
      -0.088
      -0.230
      -0.360
      -0.339
      -0.158
       0.044
       0.096
      -0.037
      -0.203
      -0.192
       0.069
       0.449
       0.736
       0.807
       0.702
       0.557
       0.483
       0.500
       0.561
       0.602
       0.577
       0.448
       0.173
      -0.254
      -0.744
      -1.121
      -1.227
      -1.031
      -0.632
      -0.168
       0.268
       0.626
       0.871
       0.968
       0.910
       0.726
       0.471
       0.213
       0.007
      -0.126
      -0.207
      -0.272
      -0.332
      -0.361
      -0.317
      -0.181
       0.030
       0.265
       0.462
       0.569
       0.566
       0.472
       0.335
       0.190
       0.047
      -0.101
      -0.227
      -0.263
      -0.157
       0.040
       0.155
       0.009
      -0.398
      -0.817
      -0.906
      -0.512
       0.166
       0.713
       0.810
       0.464
      -0.057
      -0.457
      -0.599
      -0.502
      -0.236
       0.115
       0.417
       0.494
       0.272
      -0.093
      -0.270
      -0.027
       0.524
       0.977
       0.946
       0.393
      -0.349
      -0.866
      -0.985
      -0.853
      -0.724
      -0.715
      -0.745
      -0.679
      -0.465
      -0.149
       0.205
       0.547
       0.819
       0.960
       0.969
       0.931
       0.944
       0.985
       0.883
       0.461
      -0.265
      -1.019
      -1.427
      -1.289
      -0.747
      -0.197
      -0.004
      -0.258
      -0.731
      -1.059
      -0.976
      -0.461
       0.276
       0.914
       1.181
       0.984
       0.450
      -0.152
      -0.549
      -0.601
      -0.341
       0.081
       0.500
       0.797
       0.895
       0.759
       0.404
      -0.077
      -0.531
      -0.812
      -0.843
      -0.637
      -0.300
       0.000
       0.105
      -0.048
      -0.379
      -0.704
      -0.848
      -0.740
      -0.423
      -0.002
       0.418
       0.747
       0.912
       0.865
       0.639
       0.352
       0.146
       0.082
       0.107
       0.112
       0.034
      -0.102
      -0.221
      -0.271
      -0.253
      -0.197
      -0.114
       0.002
       0.120
       0.159
       0.045
      -0.175
      -0.331
      -0.273
      -0.023
       0.203
       0.183
      -0.116
      -0.500
      -0.723
      -0.689
      -0.502
      -0.322
      -0.192
      -0.033
       0.216
       0.487
       0.630
       0.569
       0.390
       0.274
       0.357
       0.640
       0.983
       1.182
       1.082
       0.676
       0.125
      -0.333
      -0.530
      -0.467
      -0.279
      -0.119
      -0.042
       0.001
       0.088
       0.252
       0.465
       0.673
       0.822
       0.863
       0.762
       0.533
       0.259
       0.049
      -0.054
      -0.123
      -0.257
      -0.449
      -0.563
      -0.486
      -0.289
      -0.175
      -0.249
      -0.381
      -0.337
      -0.062
       0.222
       0.221
      -0.131
      -0.587
      -0.818
      -0.682
      -0.283
       0.181
       0.569
       0.815
       0.885
       0.785
       0.589
       0.412
       0.309
       0.234
       0.113
      -0.059
      -0.215
      -0.333
      -0.509
      -0.870
      -1.384
      -1.790
      -1.786
      -1.318
      -0.652
      -0.141
       0.068
       0.078
       0.032
      -0.050
      -0.195
      -0.276
      -0.022
       0.712
       1.693
       2.384
       2.356
       1.639
       0.685
      -0.025
      -0.336
      -0.433
      -0.561
      -0.770
      -0.933
      -0.941
      -0.827
      -0.711
      -0.664
      -0.668
      -0.679
      -0.677
      -0.621
      -0.405
       0.072
       0.763
       1.427
       1.774
       1.683
       1.297
       0.890
       0.632
       0.477
       0.249
      -0.146
      -0.592
      -0.857
      -0.833
      -0.700
      -0.778
      -1.178
      -1.610
      -1.613
      -1.007
      -0.089
       0.635
       0.907
       0.892
       0.923
       1.139
       1.382
       1.417
       1.183
       0.807
       0.424
       0.053
      -0.319
      -0.597
      -0.610
      -0.311
       0.094
       0.299
       0.172
      -0.147
      -0.434
      -0.641
      -0.919
      -1.390
      -1.938
      -2.232
      -1.980
      -1.165
      -0.079
       0.859
       1.345
       1.353
       1.106
       0.894
       0.871
       0.977
       1.050
       0.979
       0.756
       0.410
      -0.018
      -0.415
      -0.568
      -0.311
       0.255
       0.748
       0.798
       0.383
      -0.142
      -0.391
      -0.309
      -0.177
      -0.262
      -0.499
      -0.569
      -0.276
       0.194
       0.435
       0.237
      -0.198
      -0.472
      -0.379
      -0.084
       0.069
      -0.113
      -0.519
      -0.869
      -0.956
      -0.796
      -0.582
      -0.518
      -0.674
      -0.949
      -1.136
      -1.039
      -0.585
       0.127
       0.848
       1.299
       1.322
       0.955
       0.376
      -0.211
      -0.651
      -0.846
      -0.770
      -0.511
      -0.232
      -0.049
       0.063
       0.202
       0.387
       0.515
       0.496
       0.395
       0.396
       0.599
       0.871
       0.889
       0.398
      -0.522
      -1.402
      -1.657
      -1.032
       0.151
       1.167
       1.427
       0.903
       0.099
      -0.410
      -0.433
      -0.226
      -0.157
      -0.347
      -0.609
      -0.696
      -0.559
      -0.363
      -0.283
      -0.304
      -0.240
       0.074
       0.623
       1.227
       1.676
       1.804
       1.491
       0.674
      -0.506
      -1.614
      -2.081
      -1.633
      -0.590
       0.325
       0.573
       0.222
      -0.178
      -0.123
       0.422
       1.082
       1.458
       1.435
       1.147
       0.739
       0.257
      -0.247
      -0.618
      -0.717
      -0.631
      -0.663
      -1.018
      -1.511
      -1.660
      -1.124
      -0.067
       0.932
       1.336
       1.066
       0.517
       0.194
       0.304
       0.633
       0.761
       0.436
      -0.196
      -0.672
      -0.578
       0.085
       0.845
       1.118
       0.685
      -0.134
      -0.755
      -0.812
      -0.409
       0.047
       0.260
       0.300
       0.467
       0.932
       1.539
       1.945
       1.940
       1.602
       1.160
       0.755
       0.350
      -0.150
      -0.758
      -1.375
      -1.882
      -2.185
      -2.181
      -1.751
      -0.873
       0.245
       1.212
       1.700
       1.657
       1.271
       0.738
       0.105
      -0.657
      -1.450
      -2.008
      -2.083
      -1.671
      -1.022
      -0.428
      -0.024
       0.226
       0.379
       0.420
       0.292
       0.013
      -0.283
      -0.410
      -0.266
       0.080
       0.410
       0.489
       0.209
      -0.335
      -0.905
      -1.263
      -1.304
      -1.091
      -0.776
      -0.488
      -0.276
      -0.140
      -0.071
      -0.030
       0.081
       0.378
       0.855
       1.300
       1.383
       0.920
       0.069
      -0.728
      -1.065
      -0.876
      -0.462
      -0.200
      -0.205
      -0.246
       0.014
       0.681
       1.492
       1.992
       1.858
       1.137
       0.222
      -0.417
      -0.530
      -0.229
       0.131
       0.209
      -0.097
      -0.583
      -0.876
      -0.681
      -0.021
       0.732
       1.094
       0.843
       0.206
      -0.320
      -0.376
      -0.007
       0.416
       0.512
       0.162
      -0.442
      -0.951
      -1.074
      -0.742
      -0.127
       0.495
       0.954
       1.261
       1.490
       1.597
       1.403
       0.795
      -0.063
      -0.761
      -0.920
      -0.510
       0.112
       0.475
       0.375
      -0.007
      -0.319
      -0.360
      -0.194
      -0.001
       0.115
       0.162
       0.157
       0.087
      -0.025
      -0.082
      -0.013
       0.084
      -0.026
      -0.458
      -0.995
      -1.198
      -0.776
       0.138
       1.083
       1.613
       1.576
       1.147
       0.672
       0.462
       0.614
       0.918
       0.952
       0.376
      -0.734
      -1.856
      -2.391
      -2.172
      -1.605
      -1.285
      -1.430
      -1.692
      -1.517
      -0.680
       0.505
       1.453
       1.728
       1.249
       0.256
      -0.769
      -1.223
      -0.667
       0.745
       2.149
       2.497
       1.405
      -0.485
      -2.051
      -2.643
      -2.518
      -2.356
      -2.429
      -2.326
      -1.470
       0.164
       1.895
       2.887
       2.794
       1.920
       0.840
      -0.033
      -0.570
      -0.779
      -0.710
      -0.528
      -0.531
      -0.937
      -1.607
      -2.056
      -1.829
      -0.891
       0.345
       1.357
       1.830
       1.722
       1.156
       0.328
      -0.502
      -1.083
      -1.303
      -1.256
      -1.160
      -1.182
      -1.306
      -1.334
      -1.011
      -0.198
       0.967
       2.044
       2.502
       2.103
       1.142
       0.281
       0.018
       0.248
       0.338
      -0.284
      -1.573
      -2.838
      -3.279
      -2.594
      -1.173
       0.224
       0.981
       0.960
       0.491
       0.100
       0.170
       0.729
       1.486
       2.078
       2.321
       2.267
       2.031
       1.649
       1.141
       0.660
       0.454
       0.593
       0.803
       0.685
       0.162
      -0.348
      -0.328
       0.263
       0.856
       0.791
       0.002
      -0.842
      -0.912
       0.004
       1.275
       1.945
       1.524
       0.312
      -0.949
      -1.685
      -1.794
      -1.499
      -1.048
      -0.573
      -0.113
       0.328
       0.775
       1.263
       1.765
       2.152
       2.270
       2.064
       1.651
       1.221
       0.861
       0.454
      -0.209
      -1.175
      -2.171
      -2.752
      -2.660
      -2.058
      -1.398
      -1.051
      -1.053
      -1.184
      -1.215
      -1.088
      -0.870
      -0.636
      -0.427
      -0.284
      -0.241
      -0.270
      -0.266
      -0.155
       0.017
       0.161
       0.305
       0.598
       1.096
       1.592
       1.728
       1.330
       0.601
      -0.084
      -0.556
      -0.991
      -1.647
      -2.495
      -3.161
      -3.259
      -2.753
      -1.999
      -1.426
      -1.228
      -1.301
      -1.409
      -1.354
      -1.020
      -0.349
       0.634
       1.741
       2.628
       2.980
       2.757
       2.238
       1.791
       1.559
       1.399
       1.095
       0.646
       0.313
       0.398
       0.938
       1.598
       1.887
       1.553
       0.799
       0.096
      -0.218
      -0.163
       0.048
       0.294
       0.628
       1.115
       1.674
       2.100
       2.190
       1.847
       1.133
       0.265
      -0.465
      -0.855
      -0.905
      -0.762
      -0.541
      -0.234
       0.195
       0.641
       0.842
       0.583
      -0.061
      -0.702
      -0.923
      -0.635
      -0.150
       0.104
      -0.026
      -0.319
      -0.441
      -0.303
      -0.128
      -0.182
      -0.456
      -0.668
      -0.595
      -0.377
      -0.456
      -1.174
      -2.404
      -3.539
      -3.859
      -2.990
      -1.156
       0.939
       2.510
       3.112
       2.830
       2.134
       1.519
       1.160
       0.830
       0.160
      -0.952
      -2.117
      -2.690
      -2.302
      -1.238
      -0.252
       0.070
      -0.162
      -0.232
       0.524
       2.078
       3.671
       4.390
       3.891
       2.666
       1.625
       1.341
       1.623
       1.783
       1.326
       0.401
      -0.365
      -0.399
       0.422
       1.728
       2.846
       3.102
       2.169
       0.333
      -1.591
      -2.784
      -3.018
      -2.772
      -2.696
      -2.936
      -2.978
      -2.205
      -0.585
       1.213
       2.406
       2.757
       2.651
       2.546
       2.426
       1.808
       0.258
      -2.138
      -4.775
      -6.905
      -8.019
      -7.978
      -6.958
      -5.323
      -3.511
      -1.899
      -0.658
       0.290
       1.139
       1.971
       2.618
       2.782
       2.316
       1.428
       0.600
       0.252
       0.414
       0.683
       0.576
      -0.014
      -0.652
      -0.688
       0.174
       1.524
       2.458
       2.236
       0.876
      -0.826
      -1.906
      -1.974
      -1.449
      -1.115
      -1.416
      -2.095
      -2.425
      -1.794
      -0.192
       1.718
       2.995
       3.052
       2.107
       1.092
       1.007
       2.122
       3.680
       4.406
       3.466
       1.085
      -1.646
      -3.578
      -4.222
      -3.865
      -3.119
      -2.384
      -1.649
      -0.716
       0.412
       1.384
       1.723
       1.247
       0.283
      -0.501
      -0.534
       0.301
       1.629
       2.866
       3.585
       3.697
       3.391
       2.930
       2.436
       1.737
       0.430
      -1.766
      -4.557
      -6.989
      -8.032
      -7.397
      -5.794
      -4.295
      -3.367
      -2.539
      -0.996
       1.521
       4.409
       6.711
       7.827
       7.747
       6.750
       5.078
       2.952
       0.750
      -1.041
      -2.110
      -2.478
      -2.323
      -1.711
      -0.612
       0.837
       2.190
       2.917
       2.768
       1.912
       0.747
      -0.359
      -1.206
      -1.766
      -2.177
      -2.684
      -3.454
      -4.331
      -4.814
      -4.409
      -3.080
      -1.345
       0.115
       0.937
       1.189
       1.076
       0.718
       0.276
       0.163
       0.874
       2.465
       4.278
       5.325
       5.015
       3.504
       1.377
      -0.887
      -3.067
      -4.896
      -5.846
      -5.443
      -3.811
      -1.781
      -0.289
       0.385
       0.753
       1.466
       2.540
       3.290
       3.009
       1.691
       0.038
      -1.222
      -1.967
      -2.619
      -3.519
      -4.426
      -4.660
      -3.719
      -1.775
       0.386
       1.865
       2.192
       1.507
       0.381
      -0.528
      -0.743
      -0.112
       1.135
       2.428
       3.074
       2.652
       1.332
      -0.233
      -1.400
      -1.991
      -2.234
      -2.306
      -2.016
      -1.039
       0.574
       2.224
       3.151
       3.017
       2.104
       0.968
      -0.068
      -1.059
      -2.124
      -3.066
      -3.384
      -2.732
      -1.342
       0.065
       0.863
       1.032
       1.068
       1.411
       1.965
       2.227
       1.855
       1.093
       0.583
       0.773
       1.526
       2.303
       2.712
       2.838
       3.072
       3.641
       4.321
       4.562
       3.916
       2.398
       0.521
      -1.025
      -1.797
      -1.774
      -1.200
      -0.305
       0.805
       2.047
       3.224
       4.007
       4.013
       2.927
       0.673
      -2.382
      -5.345
      -7.080
      -6.863
      -4.978
      -2.665
      -1.235
      -0.988
      -0.948
       0.188
       2.677
       5.313
       6.439
       5.446
       3.241
       1.300
       0.331
      -0.119
      -0.906
      -2.324
      -3.850
      -4.666
      -4.323
      -3.005
      -1.364
      -0.120
       0.311
       0.022
      -0.491
      -0.713
      -0.505
      -0.192
      -0.272
      -0.983
      -2.088
      -3.013
      -3.203
      -2.435
      -0.929
       0.749
       1.943
       2.202
       1.516
       0.307
      -0.836
      -1.495
      -1.566
      -1.148
      -0.404
       0.454
       1.129
       1.327
       0.962
       0.252
      -0.438
      -0.861
      -0.986
      -0.853
      -0.402
       0.440
       1.490
       2.204
       1.992
       0.745
      -0.928
      -2.040
      -1.912
      -0.667
       0.884
       1.841
       1.821
       1.128
       0.439
       0.276
       0.646
       1.052
       0.862
      -0.210
      -1.812
      -3.125
      -3.434
      -2.698
      -1.645
      -1.218
      -1.799
      -2.858
      -3.370
      -2.680
      -1.068
       0.496
       1.184
       1.000
       0.747
       1.313
       2.881
       4.679
       5.484
       4.530
       2.140
      -0.434
      -1.881
      -1.754
      -0.713
       0.069
      -0.189
      -1.352
      -2.579
      -3.009
      -2.359
      -1.017
       0.326
       1.140
       1.282
       0.966
       0.624
       0.694
       1.380
       2.482
       3.492
       3.942
       3.713
       3.055
       2.281
       1.451
       0.357
      -1.162
      -2.873
      -4.160
      -4.388
      -3.336
      -1.334
       0.923
       2.713
       3.559
       3.355
       2.357
       1.049
      -0.085
      -0.806
      -1.184
      -1.405
      -1.467
      -1.109
      -0.116
       1.287
       2.419
       2.626
       1.826
       0.587
      -0.349
      -0.675
      -0.714
      -1.079
      -2.090
      -3.456
      -4.476
      -4.599
      -3.865
      -2.806
      -1.891
      -1.081
       0.029
       1.602
       3.199
       4.093
       3.956
       3.176
       2.453
       2.117
       1.885
       1.328
       0.503
      -0.034
       0.087
       0.458
       0.200
      -1.078
      -2.748
      -3.726
      -3.523
      -2.623
      -1.838
      -1.438
      -1.033
      -0.247
       0.687
       1.146
       0.888
       0.437
       0.573
       1.477
       2.471
       2.681
       1.914
       0.838
       0.276
       0.343
       0.303
      -0.692
      -2.690
      -4.740
      -5.620
      -4.830
      -2.969
      -1.196
      -0.316
      -0.331
      -0.743
      -1.153
      -1.497
      -1.778
      -1.740
      -0.974
       0.594
       2.378
       3.430
       3.186
       1.965
       0.711
       0.181
       0.336
       0.488
       0.031
      -0.998
      -2.041
      -2.619
      -2.732
      -2.670
      -2.518
      -1.990
      -0.811
       0.807
       2.204
       2.829
       2.708
       2.340
       2.167
       2.224
       2.282
       2.248
       2.309
       2.657
       3.123
       3.201
       2.524
       1.299
       0.160
      -0.464
      -0.796
      -1.433
      -2.620
      -3.856
      -4.297
      -3.542
      -1.980
      -0.353
       0.978
       2.267
       3.881
       5.611
       6.532
       5.655
       2.811
      -1.032
      -4.334
      -5.946
      -5.677
      -4.097
      -1.960
       0.167
       1.895
       2.970
       3.390
       3.499
       3.709
       4.045
       4.029
       3.151
       1.453
      -0.396
      -1.666
      -2.202
      -2.458
      -2.922
      -3.528
      -3.725
      -3.135
      -2.066
      -1.299
      -1.354
      -2.019
      -2.595
      -2.529
      -1.784
      -0.679
       0.471
       1.535
       2.485
       3.265
       3.724
