Origin Time       11/11/2013 19:11:18
Lat.              28.5 N	
Long.             77.2 E	
Depth (Km)         10.0
Magnitude         3.1
 Region           DELHI                                                            
 Above details taken from IMD 
     
Station Code      RGD
Station Lat.       28.665  N
Station Long.      77.123  E
Station Height(m)  262.0
Site Class        C   Vs30 between 200 m/sec to 375 m/sec *  
Record Time       28.03.2094 19:10:55.719
Sampling Rate     200. Hz
 Record Duration   82.760 Sec.
 Direction         E-W (E positive)
Max. Acceleration     -2.982 cm/sec**2
     
  * For reference see Site Classification link of website 
     
 Base Line Corrected and Low Pass Filtered (Cut Off at 35 Hz) Time History
 Acceleration data in cm/sec**2
    
[...]
      -0.023
      -0.026
      -0.035
      -0.042
      -0.033
      -0.009
       0.019
       0.038
       0.040
       0.031
       0.020
       0.012
       0.011
       0.013
       0.017
       0.022
       0.026
       0.026
       0.019
       0.006
      -0.012
      -0.026
      -0.027
      -0.013
       0.014
       0.039
       0.049
       0.042
       0.025
       0.011
       0.007
       0.008
       0.007
      -0.002
      -0.014
      -0.022
      -0.023
      -0.021
      -0.024
      -0.033
      -0.043
      -0.047
      -0.045
      -0.040
      -0.038
      -0.038
      -0.038
      -0.033
      -0.024
      -0.011
       0.003
       0.016
       0.026
       0.031
       0.032
       0.027
       0.017
       0.005
      -0.006
      -0.011
      -0.008
      -0.001
       0.005
       0.007
       0.006
       0.007
       0.010
       0.011
       0.004
      -0.007
      -0.016
      -0.016
      -0.010
      -0.007
      -0.012
      -0.019
      -0.020
      -0.009
       0.008
       0.020
       0.018
       0.005
      -0.009
      -0.010
       0.006
       0.030
       0.047
       0.048
       0.034
       0.013
      -0.006
      -0.016
      -0.019
      -0.016
      -0.011
      -0.009
      -0.006
      -0.003
       0.002
       0.008
       0.014
       0.017
       0.015
       0.009
      -0.001
      -0.009
      -0.014
      -0.012
      -0.006
       0.001
       0.004
       0.000
      -0.011
      -0.022
      -0.028
      -0.026
      -0.018
      -0.010
      -0.008
      -0.010
      -0.011
      -0.009
       0.001
       0.014
       0.024
       0.027
       0.021
       0.012
       0.007
       0.011
       0.023
       0.032
       0.032
       0.022
       0.007
      -0.005
      -0.010
      -0.007
       0.000
       0.008
       0.015
       0.019
       0.016
       0.005
      -0.012
      -0.027
      -0.032
      -0.024
      -0.012
      -0.005
      -0.006
      -0.010
      -0.010
      -0.004
       0.003
       0.005
       0.000
      -0.007
      -0.011
      -0.010
      -0.008
      -0.007
      -0.010
      -0.016
      -0.020
      -0.020
      -0.016
      -0.012
      -0.014
      -0.024
      -0.039
      -0.052
      -0.052
      -0.039
      -0.015
       0.011
       0.033
       0.049
       0.054
       0.046
       0.025
      -0.001
      -0.021
      -0.027
      -0.019
      -0.005
       0.006
       0.014
       0.022
       0.033
       0.045
       0.048
       0.035
       0.007
      -0.027
      -0.049
      -0.052
      -0.038
      -0.019
      -0.007
      -0.001
       0.005
       0.016
       0.025
       0.024
       0.010
      -0.009
      -0.022
      -0.025
      -0.018
      -0.010
      -0.005
      -0.005
      -0.007
      -0.008
      -0.006
      -0.004
       0.000
       0.005
       0.010
       0.013
       0.008
      -0.004
      -0.021
      -0.037
      -0.051
      -0.063
      -0.073
      -0.076
      -0.065
      -0.038
      -0.003
       0.030
       0.047
       0.047
       0.034
       0.011
      -0.017
      -0.048
      -0.073
      -0.079
      -0.061
      -0.025
       0.012
       0.035
       0.037
       0.021
      -0.004
      -0.028
      -0.044
      -0.050
      -0.047
      -0.034
      -0.012
       0.017
       0.045
       0.065
       0.066
       0.050
       0.020
      -0.014
      -0.046
      -0.069
      -0.073
      -0.053
      -0.013
       0.033
       0.065
       0.073
       0.057
       0.027
      -0.007
      -0.032
      -0.041
      -0.032
      -0.013
       0.002
       0.003
      -0.012
      -0.033
      -0.045
      -0.046
      -0.041
      -0.041
      -0.045
      -0.042
      -0.023
       0.008
       0.036
       0.049
       0.046
       0.037
       0.030
       0.026
       0.022
       0.015
       0.005
      -0.009
      -0.027
      -0.043
      -0.052
      -0.047
      -0.030
      -0.007
       0.006
       0.003
      -0.013
      -0.029
      -0.031
      -0.015
       0.004
       0.010
      -0.002
      -0.020
      -0.028
      -0.021
      -0.009
      -0.006
      -0.014
      -0.021
      -0.018
      -0.009
      -0.002
      -0.004
      -0.008
      -0.006
       0.000
       0.007
       0.006
      -0.003
      -0.014
      -0.021
      -0.018
      -0.007
       0.004
       0.006
      -0.003
      -0.019
      -0.030
      -0.029
      -0.014
       0.008
       0.027
       0.035
       0.029
       0.012
      -0.006
      -0.015
      -0.011
       0.002
       0.013
       0.013
       0.004
      -0.008
      -0.011
      -0.001
       0.015
       0.026
       0.026
       0.017
       0.006
      -0.001
      -0.003
      -0.002
       0.000
      -0.002
      -0.008
      -0.016
      -0.022
      -0.021
      -0.015
      -0.008
      -0.008
      -0.015
      -0.024
      -0.023
      -0.008
       0.018
       0.041
       0.045
       0.027
       0.001
      -0.017
      -0.015
       0.002
       0.019
       0.027
       0.024
       0.017
       0.008
      -0.001
      -0.011
      -0.018
      -0.018
      -0.013
      -0.007
      -0.009
      -0.020
      -0.030
      -0.031
      -0.021
      -0.003
       0.017
       0.042
       0.074
       0.098
       0.092
       0.041
      -0.041
      -0.116
      -0.142
      -0.113
      -0.064
      -0.048
      -0.083
      -0.116
      -0.062
       0.106
       0.297
       0.361
       0.234
       0.016
      -0.118
      -0.091
       0.002
       0.005
      -0.124
      -0.275
      -0.298
      -0.146
       0.091
       0.253
       0.220
       0.003
      -0.229
      -0.252
       0.002
       0.334
       0.436
       0.221
      -0.055
      -0.067
       0.202
       0.410
       0.234
      -0.263
      -0.685
      -0.691
      -0.313
       0.106
       0.236
       0.029
      -0.263
      -0.309
       0.032
       0.581
       0.951
       0.857
       0.350
      -0.216
      -0.498
      -0.439
      -0.258
      -0.183
      -0.243
      -0.301
      -0.242
      -0.085
       0.082
       0.209
       0.291
       0.279
       0.071
      -0.348
      -0.749
      -0.743
      -0.160
       0.660
       1.067
       0.703
      -0.092
      -0.562
      -0.288
       0.363
       0.602
       0.045
      -0.864
      -1.294
      -0.832
       0.157
       0.921
       0.992
       0.481
      -0.152
      -0.500
      -0.418
      -0.016
       0.430
       0.610
       0.390
      -0.056
      -0.360
      -0.289
       0.039
       0.297
       0.272
       0.019
      -0.260
      -0.395
      -0.321
      -0.078
       0.181
       0.249
       0.036
      -0.278
      -0.360
      -0.060
       0.407
       0.642
       0.439
      -0.047
      -0.470
      -0.594
      -0.413
      -0.070
       0.281
       0.516
       0.547
       0.374
       0.105
      -0.107
      -0.201
      -0.253
      -0.380
      -0.576
      -0.677
      -0.519
      -0.135
       0.226
       0.335
       0.221
       0.154
       0.333
       0.639
       0.717
       0.324
      -0.396
      -0.985
      -1.028
      -0.472
       0.343
       0.936
       1.008
       0.596
       0.000
      -0.451
      -0.607
      -0.544
      -0.415
      -0.290
      -0.129
       0.094
       0.299
       0.366
       0.284
       0.189
       0.203
       0.266
       0.189
      -0.084
      -0.346
      -0.325
      -0.025
       0.235
       0.156
      -0.198
      -0.452
      -0.314
       0.109
       0.410
       0.293
      -0.133
      -0.463
      -0.387
       0.020
       0.387
       0.416
       0.163
      -0.049
       0.013
       0.231
       0.281
       0.032
      -0.274
      -0.303
      -0.032
       0.197
       0.069
      -0.352
      -0.685
      -0.625
      -0.224
       0.218
       0.483
       0.586
       0.633
       0.598
       0.341
      -0.160
      -0.635
      -0.696
      -0.217
       0.475
       0.841
       0.586
      -0.091
      -0.683
      -0.816
      -0.534
      -0.196
      -0.099
      -0.203
      -0.227
       0.023
       0.429
       0.674
       0.551
       0.140
      -0.284
      -0.473
      -0.351
       0.010
       0.458
       0.789
       0.797
       0.405
      -0.199
      -0.638
      -0.646
      -0.315
      -0.023
      -0.078
      -0.411
      -0.642
      -0.445
       0.134
       0.728
       0.969
       0.761
       0.295
      -0.142
      -0.350
      -0.294
      -0.081
       0.125
       0.190
       0.080
      -0.126
      -0.275
      -0.260
      -0.123
      -0.038
      -0.130
      -0.315
      -0.354
      -0.120
       0.232
       0.390
       0.218
      -0.088
      -0.196
       0.013
       0.345
       0.503
       0.376
       0.088
      -0.167
      -0.288
      -0.281
      -0.181
      -0.006
       0.193
       0.303
       0.216
      -0.025
      -0.226
      -0.219
      -0.052
       0.058
      -0.043
      -0.262
      -0.346
      -0.144
       0.234
       0.513
       0.510
       0.276
       0.009
      -0.133
      -0.138
      -0.097
      -0.088
      -0.122
      -0.164
      -0.184
      -0.178
      -0.144
      -0.066
       0.061
       0.195
       0.252
       0.170
      -0.022
      -0.204
      -0.244
      -0.092
       0.171
       0.388
       0.443
       0.324
       0.101
      -0.142
      -0.327
      -0.388
      -0.302
      -0.131
       0.011
       0.056
       0.043
       0.047
       0.066
       0.020
      -0.128
      -0.284
      -0.303
      -0.138
       0.105
       0.262
       0.241
       0.086
      -0.056
      -0.063
       0.050
       0.144
       0.119
       0.048
       0.103
       0.318
       0.475
       0.299
      -0.213
      -0.711
      -0.796
      -0.401
       0.161
       0.488
       0.408
       0.048
      -0.322
      -0.466
      -0.293
       0.112
       0.509
       0.620
       0.333
      -0.176
      -0.561
      -0.622
      -0.480
      -0.399
      -0.425
      -0.304
       0.202
       0.926
       1.335
       1.009
       0.100
      -0.738
      -0.914
      -0.409
       0.248
       0.498
       0.231
      -0.211
      -0.423
      -0.308
      -0.069
       0.058
       0.026
      -0.056
      -0.081
      -0.024
       0.082
       0.183
       0.217
       0.119
      -0.124
      -0.416
      -0.583
      -0.501
      -0.187
       0.219
       0.547
       0.666
       0.530
       0.234
       0.004
       0.044
       0.318
       0.516
       0.318
      -0.261
      -0.830
      -0.953
      -0.557
       0.006
       0.295
       0.177
      -0.105
      -0.231
      -0.117
       0.076
       0.195
       0.256
       0.333
       0.344
       0.094
      -0.410
      -0.799
      -0.646
       0.040
       0.727
       0.863
       0.437
      -0.037
      -0.111
       0.121
       0.199
      -0.107
      -0.516
      -0.593
      -0.287
       0.015
      -0.040
      -0.342
      -0.463
      -0.182
       0.264
       0.472
       0.361
       0.236
       0.381
       0.656
       0.623
       0.073
      -0.672
      -1.047
      -0.814
      -0.286
       0.029
      -0.064
      -0.282
      -0.189
       0.335
       0.936
       1.109
       0.680
      -0.011
      -0.422
      -0.325
      -0.007
       0.053
      -0.299
      -0.720
      -0.752
      -0.317
       0.215
       0.432
       0.281
       0.061
       0.063
       0.269
       0.429
       0.356
       0.095
      -0.181
      -0.384
      -0.539
      -0.641
      -0.574
      -0.242
       0.235
       0.567
       0.577
       0.396
       0.307
       0.366
       0.297
      -0.173
      -0.898
      -1.340
      -1.051
      -0.115
       0.877
       1.274
       0.863
       0.049
      -0.464
      -0.283
       0.289
       0.525
       0.023
      -0.793
      -1.025
      -0.258
       0.883
       1.271
       0.430
      -0.905
      -1.483
      -0.777
       0.539
       1.373
       1.326
       0.893
       0.646
       0.497
      -0.061
      -1.111
      -2.004
      -2.022
      -1.219
      -0.391
      -0.161
      -0.275
       0.038
       1.056
       2.092
       2.137
       0.948
      -0.589
      -1.229
      -0.564
       0.549
       0.789
      -0.286
      -1.713
      -2.028
      -0.767
       0.994
       1.695
       0.845
      -0.537
      -1.018
      -0.200
       0.982
       1.315
       0.543
      -0.491
      -0.803
      -0.264
       0.393
       0.446
      -0.042
      -0.391
      -0.163
       0.316
       0.377
      -0.153
      -0.735
      -0.791
      -0.449
      -0.387
      -0.900
      -1.348
      -0.798
       0.778
       2.181
       2.093
       0.498
      -1.161
      -1.390
      -0.142
       1.194
       1.312
       0.344
      -0.417
      -0.028
       1.067
       1.541
       0.609
      -1.174
      -2.461
      -2.357
      -1.087
       0.404
       1.341
       1.585
       1.385
       0.909
       0.160
      -0.710
      -1.285
      -1.227
      -0.692
      -0.220
      -0.146
      -0.197
       0.190
       1.126
       1.946
       1.763
       0.394
      -1.293
      -2.049
      -1.320
       0.249
       1.397
       1.324
       0.286
      -0.781
      -1.124
      -0.727
      -0.126
       0.191
       0.204
       0.249
       0.587
       1.101
       1.348
       0.882
      -0.369
      -1.928
      -2.982
      -2.920
      -1.767
      -0.141
       1.236
       2.031
       2.360
       2.435
       2.229
       1.537
       0.336
      -0.996
      -1.901
      -2.083
      -1.743
      -1.367
      -1.287
      -1.426
      -1.427
      -0.992
      -0.115
       0.925
       1.750
       2.114
       2.028
       1.700
       1.331
       0.913
       0.241
      -0.820
      -2.028
      -2.780
      -2.553
      -1.403
       0.005
       0.927
       1.165
       1.150
       1.394
       1.887
       2.081
       1.516
       0.373
      -0.657
      -1.059
      -0.970
      -0.943
      -1.272
      -1.653
      -1.517
      -0.677
       0.409
       1.008
       0.752
      -0.049
      -0.674
      -0.564
       0.268
       1.273
       1.768
       1.400
       0.367
      -0.733
      -1.295
      -1.086
      -0.381
       0.265
       0.490
       0.407
       0.423
       0.760
       1.162
       1.112
       0.354
      -0.789
      -1.606
      -1.556
      -0.716
       0.264
       0.657
       0.215
      -0.650
      -1.190
      -0.907
       0.054
       1.028
       1.388
       1.022
       0.339
      -0.152
      -0.227
       0.000
       0.247
       0.260
      -0.049
      -0.529
      -0.835
      -0.676
      -0.093
       0.519
       0.738
       0.502
       0.135
      -0.036
      -0.050
      -0.214
      -0.646
      -0.985
      -0.718
       0.195
       1.092
       1.138
       0.134
      -1.204
      -1.784
      -1.059
       0.461
       1.577
       1.383
       0.071
      -1.189
      -1.266
      -0.117
       1.158
       1.375
       0.425
      -0.686
      -0.954
      -0.421
       0.034
      -0.159
      -0.568
      -0.371
       0.507
       1.141
       0.628
      -0.749
      -1.618
      -0.936
       0.775
       1.798
       0.968
      -1.017
      -2.173
      -1.206
       1.141
       2.771
       2.270
       0.222
      -1.448
      -1.357
       0.137
       1.460
       1.401
       0.155
      -1.059
      -1.285
      -0.661
      -0.082
      -0.168
      -0.682
      -0.928
      -0.567
       0.076
       0.456
       0.425
       0.289
       0.359
       0.585
       0.687
       0.514
       0.176
      -0.135
      -0.362
      -0.572
      -0.796
      -0.934
      -0.833
      -0.428
       0.190
       0.796
       1.138
       1.081
       0.695
       0.199
      -0.220
      -0.537
      -0.841
      -1.129
      -1.197
      -0.790
       0.083
       1.021
       1.477
       1.182
       0.381
      -0.342
      -0.492
      -0.045
       0.549
       0.727
       0.275
      -0.505
      -1.057
      -1.007
      -0.425
       0.248
       0.535
       0.270
      -0.270
      -0.571
      -0.298
       0.390
       0.931
       0.828
       0.118
      -0.611
      -0.715
      -0.070
       0.820
       1.275
       1.013
       0.329
      -0.242
      -0.423
      -0.375
      -0.432
      -0.676
      -0.818
      -0.511
       0.226
       0.938
       1.098
       0.581
      -0.221
      -0.745
      -0.723
      -0.352
      -0.030
       0.039
      -0.021
       0.021
       0.190
       0.286
       0.138
      -0.158
      -0.330
      -0.228
       0.002
       0.081
      -0.108
      -0.417
      -0.606
      -0.568
      -0.384
      -0.178
       0.023
       0.265
       0.557
       0.821
       0.964
       0.956
       0.808
       0.518
       0.100
      -0.326
      -0.543
      -0.422
      -0.105
       0.078
      -0.065
      -0.377
      -0.506
      -0.278
       0.093
       0.204
      -0.121
      -0.617
      -0.815
      -0.486
       0.143
       0.615
       0.660
       0.392
       0.144
       0.164
       0.425
       0.664
       0.592
       0.134
      -0.492
      -0.911
      -0.892
      -0.555
      -0.269
      -0.276
      -0.425
      -0.313
       0.241
       0.916
       1.154
       0.756
       0.151
      -0.032
       0.324
       0.654
       0.315
      -0.668
      -1.552
      -1.605
      -0.835
       0.046
       0.356
       0.075
      -0.252
      -0.142
       0.330
       0.650
       0.416
      -0.216
      -0.658
      -0.459
       0.226
       0.767
       0.683
       0.120
      -0.321
      -0.225
       0.209
       0.410
       0.100
      -0.354
      -0.286
       0.528
       1.514
       1.737
       0.760
      -0.858
      -1.965
      -1.795
      -0.630
       0.499
       0.781
       0.310
      -0.162
      -0.052
       0.508
       0.899
       0.676
      -0.043
      -0.749
      -0.998
      -0.714
      -0.167
       0.287
       0.445
       0.348
       0.185
       0.122
       0.196
       0.299
       0.256
      -0.061
      -0.603
      -1.115
      -1.286
      -0.990
      -0.389
       0.221
       0.653
       0.912
       1.068
       1.103
       0.932
       0.526
       0.008
      -0.420
      -0.616
      -0.583
      -0.446
      -0.333
      -0.270
      -0.151
       0.152
       0.617
       1.009
       1.020
       0.527
      -0.270
      -0.966
      -1.222
      -0.971
      -0.427
       0.084
       0.339
       0.326
       0.197
       0.128
       0.195
       0.322
       0.355
       0.197
      -0.080
      -0.275
      -0.259
      -0.134
      -0.155
      -0.447
      -0.809
      -0.870
      -0.475
       0.129
       0.555
       0.683
       0.744
       0.966
       1.221
       1.107
       0.413
      -0.557
      -1.202
      -1.189
      -0.757
      -0.411
      -0.362
      -0.345
      -0.021
       0.550
       0.931
       0.805
       0.316
      -0.127
      -0.337
      -0.500
      -0.819
      -1.114
      -0.945
      -0.168
       0.737
       1.039
       0.501
      -0.323
      -0.602
      -0.060
