Origin Time       25/11/2007 23:12:20
Lat.              28.6 N 
Long.             77.0 E 
Depth (Km)         20.3
Magnitude         4.3
 Region           DELHI-HARYANA-BORDER-REGION                                      
 Above details taken from IMD 
   
Station Code      NDI
Station Lat.       28.683
Station Long.      77.217
Station Height(m)  200.0
Site Class        A   Vs30 between 700 m/sec to 1400 m/sec * 
Record Time       25.11.2007 23:12:18.725
Sampling Rate     200. Hz
 Record Duration  125.015 Sec.
 Direction         Vert. (Up positive)
Max. Acceleration     -3.995 cm/sec**2
     
  * For reference see Site Classification link of website 
     
 Base Line Corrected and Low Pass Filtered (Cut Off at 35 Hz) Time History
 Acceleration data in cm/sec**2
    
[...]
       0.001
       0.004
       0.005
       0.003
       0.002
       0.001
       0.001
       0.000
      -0.001
       0.000
       0.002
       0.003
       0.002
      -0.001
      -0.003
      -0.002
       0.002
       0.006
       0.007
       0.006
       0.004
       0.006
       0.011
       0.019
       0.023
       0.020
       0.012
       0.002
      -0.004
      -0.002
       0.004
       0.012
       0.015
       0.012
       0.006
       0.003
       0.003
       0.007
       0.013
       0.018
       0.022
       0.024
       0.024
       0.022
       0.021
       0.019
       0.017
       0.015
       0.013
       0.011
       0.009
       0.006
       0.003
       0.003
       0.006
       0.007
       0.006
       0.002
      -0.003
      -0.007
      -0.009
      -0.007
      -0.001
       0.009
       0.019
       0.026
       0.027
       0.021
       0.013
       0.008
       0.010
       0.017
       0.023
       0.024
       0.019
       0.011
       0.006
       0.005
       0.006
       0.008
       0.007
       0.004
       0.001
       0.001
       0.005
       0.012
       0.015
       0.012
       0.004
      -0.001
       0.002
       0.011
       0.019
       0.020
       0.018
       0.018
       0.025
       0.034
       0.042
       0.047
       0.051
       0.055
       0.062
       0.083
       0.131
       0.211
       0.296
       0.324
       0.245
       0.062
      -0.136
      -0.228
      -0.156
       0.014
       0.114
       0.012
      -0.279
      -0.583
      -0.691
      -0.522
      -0.192
       0.074
       0.117
      -0.030
      -0.174
      -0.139
       0.081
       0.321
       0.402
       0.267
       0.003
      -0.218
      -0.246
      -0.074
       0.139
       0.215
       0.125
      -0.008
      -0.079
      -0.094
      -0.081
       0.005
       0.206
       0.399
       0.370
       0.079
      -0.233
      -0.293
      -0.080
       0.198
       0.327
       0.204
      -0.155
      -0.567
      -0.704
      -0.351
       0.291
       0.678
       0.430
      -0.265
      -0.841
      -0.887
      -0.421
       0.242
       0.733
       0.789
       0.380
      -0.219
      -0.606
      -0.584
      -0.300
      -0.034
       0.057
      -0.014
      -0.160
      -0.268
      -0.200
       0.102
       0.514
       0.784
       0.736
       0.396
      -0.036
      -0.343
      -0.423
      -0.312
      -0.106
       0.064
       0.051
      -0.191
      -0.460
      -0.413
       0.050
       0.604
       0.812
       0.596
       0.263
       0.107
       0.124
       0.110
      -0.054
      -0.274
      -0.391
      -0.352
      -0.215
      -0.067
       0.007
      -0.070
      -0.269
      -0.405
      -0.273
       0.168
       0.743
       1.133
       1.048
       0.476
      -0.259
      -0.747
      -0.771
      -0.371
       0.173
       0.417
       0.043
      -0.801
      -1.513
      -1.475
      -0.566
       0.694
       1.499
       1.372
       0.504
      -0.435
      -0.802
      -0.415
       0.334
       0.804
       0.607
      -0.137
      -0.917
      -1.166
      -0.642
       0.343
       1.083
       1.024
       0.274
      -0.498
      -0.736
      -0.514
      -0.288
      -0.274
      -0.251
       0.040
       0.498
       0.781
       0.717
       0.442
       0.173
      -0.050
      -0.336
      -0.692
      -0.877
      -0.596
       0.113
       0.776
       0.863
       0.304
      -0.438
      -0.768
      -0.410
       0.421
       1.151
       1.236
       0.591
      -0.317
      -0.869
      -0.789
      -0.303
       0.112
       0.135
      -0.155
      -0.404
      -0.361
      -0.082
       0.203
       0.351
       0.353
       0.209
      -0.133
      -0.612
      -0.894
      -0.588
       0.284
       1.164
       1.455
       1.066
       0.385
      -0.178
      -0.469
      -0.547
      -0.534
      -0.539
      -0.602
      -0.660
      -0.570
      -0.228
       0.281
       0.694
       0.742
       0.348
      -0.269
      -0.723
      -0.764
      -0.436
       0.048
       0.496
       0.783
       0.818
       0.572
       0.164
      -0.135
      -0.124
       0.097
       0.195
      -0.047
      -0.490
      -0.770
      -0.645
      -0.218
       0.175
       0.275
       0.121
      -0.030
       0.018
       0.223
       0.389
       0.352
       0.091
      -0.259
      -0.470
      -0.407
      -0.125
       0.247
       0.609
       0.800
       0.598
      -0.013
      -0.670
      -0.885
      -0.532
       0.003
       0.224
       0.041
      -0.215
      -0.223
      -0.006
       0.118
      -0.102
      -0.509
      -0.639
      -0.250
       0.352
       0.653
       0.488
       0.160
       0.038
       0.168
       0.280
       0.134
      -0.178
      -0.311
      -0.093
       0.203
       0.185
      -0.119
      -0.281
      -0.054
       0.276
       0.216
      -0.332
      -0.921
      -0.963
      -0.234
       0.901
       1.651
       1.399
       0.307
      -0.745
      -0.953
      -0.336
       0.380
       0.590
       0.344
       0.034
      -0.183
      -0.406
      -0.608
      -0.572
      -0.217
       0.232
       0.472
       0.412
       0.170
      -0.080
      -0.178
      -0.063
       0.115
       0.061
      -0.353
      -0.805
      -0.722
       0.104
       1.141
       1.534
       0.894
      -0.362
      -1.351
      -1.435
      -0.722
       0.066
       0.277
      -0.076
      -0.394
      -0.171
       0.438
       0.781
       0.443
      -0.262
      -0.632
      -0.321
       0.331
       0.696
       0.481
      -0.071
      -0.470
      -0.416
      -0.040
       0.242
       0.139
      -0.203
      -0.351
      -0.048
       0.534
       0.955
       0.850
       0.238
      -0.463
      -0.828
      -0.810
      -0.600
      -0.272
       0.191
       0.585
       0.513
      -0.112
      -0.737
      -0.640
       0.228
       1.086
       1.135
       0.367
      -0.542
      -0.945
      -0.660
       0.091
       0.875
       1.207
       0.805
      -0.142
      -0.989
      -1.084
      -0.356
       0.532
       0.769
       0.188
      -0.605
      -0.870
      -0.445
       0.206
       0.520
       0.318
      -0.190
      -0.641
      -0.702
      -0.254
       0.425
       0.818
       0.604
      -0.106
      -0.887
      -1.232
      -0.827
       0.223
       1.374
       1.935
       1.533
       0.414
      -0.720
      -1.235
      -0.985
      -0.326
       0.223
       0.350
       0.104
      -0.251
      -0.524
      -0.694
      -0.757
      -0.601
      -0.163
       0.413
       0.881
       1.085
       0.989
       0.592
      -0.035
      -0.630
      -0.865
      -0.678
      -0.305
       0.075
       0.444
       0.643
       0.311
      -0.607
      -1.500
      -1.527
      -0.453
       1.051
       1.978
       1.819
       0.876
      -0.106
      -0.527
      -0.300
       0.130
       0.160
      -0.359
      -0.872
      -0.676
       0.238
       1.100
       1.157
       0.401
      -0.505
      -0.935
      -0.846
      -0.603
      -0.418
      -0.112
       0.496
       1.086
       0.987
      -0.042
      -1.337
      -1.853
      -1.164
       0.109
       0.905
       0.751
       0.147
      -0.115
       0.153
       0.458
       0.342
      -0.094
      -0.419
      -0.417
      -0.198
       0.126
       0.576
       1.044
       1.173
       0.708
      -0.131
      -0.818
      -1.022
      -0.816
      -0.465
      -0.156
       0.084
       0.302
       0.470
       0.446
       0.151
      -0.244
      -0.388
      -0.107
       0.288
       0.266
      -0.220
      -0.525
      -0.099
       0.711
       1.011
       0.472
      -0.312
      -0.641
      -0.474
      -0.225
      -0.085
       0.130
       0.471
       0.508
      -0.203
      -1.359
      -1.968
      -1.331
       0.176
       1.377
       1.380
       0.391
      -0.557
      -0.700
      -0.237
       0.146
       0.182
       0.156
       0.292
       0.408
       0.260
      -0.029
      -0.069
       0.332
       0.886
       1.063
       0.600
      -0.236
      -0.892
      -0.978
      -0.477
       0.277
       0.746
       0.512
      -0.288
      -0.922
      -0.725
       0.117
       0.672
       0.301
      -0.575
      -0.964
      -0.429
       0.478
       0.891
       0.480
      -0.341
      -0.897
      -0.859
      -0.446
      -0.063
       0.161
       0.422
       0.853
       1.176
       0.868
      -0.206
      -1.406
      -1.794
      -1.012
       0.401
       1.465
       1.481
       0.546
      -0.574
      -1.145
      -1.014
      -0.480
       0.169
       0.817
       1.308
       1.284
       0.492
      -0.699
      -1.360
      -0.851
       0.402
       1.209
       0.772
      -0.568
      -1.681
      -1.642
      -0.482
       0.894
       1.510
       1.088
       0.101
      -0.743
      -1.010
      -0.701
      -0.139
       0.285
       0.370
       0.255
       0.270
       0.515
       0.689
       0.453
      -0.113
      -0.571
      -0.594
      -0.257
       0.138
       0.405
       0.570
       0.624
       0.334
      -0.418
      -1.167
      -1.147
      -0.209
       0.827
       0.974
       0.156
      -0.748
      -0.890
      -0.268
       0.474
       0.764
       0.514
       0.020
      -0.366
      -0.427
      -0.125
       0.314
       0.456
       0.096
      -0.451
      -0.683
      -0.458
      -0.064
       0.207
       0.340
       0.393
       0.278
      -0.011
      -0.189
      -0.012
       0.338
       0.507
       0.508
       0.635
       0.836
       0.577
      -0.420
      -1.586
      -1.981
      -1.309
      -0.215
       0.455
       0.468
       0.206
       0.001
      -0.237
      -0.610
      -0.735
      -0.086
       1.128
       1.865
       1.265
      -0.346
      -1.696
      -1.796
      -0.776
       0.459
       1.117
       1.025
       0.514
       0.035
      -0.190
      -0.272
      -0.426
      -0.562
      -0.279
       0.567
       1.417
       1.472
       0.651
      -0.212
      -0.362
       0.027
       0.279
       0.115
      -0.205
      -0.341
      -0.127
       0.379
       0.835
       0.723
      -0.197
      -1.466
      -2.169
      -1.762
      -0.610
       0.395
       0.645
       0.172
      -0.596
      -1.156
      -1.145
      -0.599
       0.000
       0.132
      -0.268
      -0.798
      -1.057
      -1.003
      -0.828
      -0.613
      -0.238
       0.337
       0.771
       0.545
      -0.379
      -1.216
      -0.999
       0.372
       1.917
       2.479
       1.764
       0.540
      -0.069
       0.506
       1.851
       2.894
       2.793
       1.614
       0.159
      -0.694
      -0.471
       0.660
       1.904
       2.327
       1.607
       0.353
      -0.452
      -0.456
      -0.198
      -0.272
      -0.606
      -0.832
      -0.925
      -1.067
      -1.167
      -0.983
      -0.638
      -0.576
      -0.899
      -1.145
      -0.919
      -0.431
      -0.099
       0.097
       0.440
       0.773
       0.488
      -0.603
      -1.673
      -1.460
       0.370
       2.476
       2.841
       0.791
      -2.150
      -3.595
      -2.441
       0.279
       2.462
       2.677
       1.098
      -0.802
      -1.335
       0.082
       2.266
       3.200
       1.947
      -0.496
      -2.292
      -2.424
      -1.276
      -0.037
       0.254
      -0.656
      -2.145
      -3.043
      -2.369
      -0.319
       1.516
       1.505
      -0.411
      -2.675
      -3.557
      -2.502
      -0.384
       1.341
       1.839
       1.432
       1.053
       1.225
       1.677
       1.919
       1.841
       1.514
       0.796
      -0.404
      -1.571
      -1.759
      -0.505
       1.514
       2.887
       2.646
       1.039
      -0.930
      -2.474
      -3.209
      -2.730
      -0.841
       1.634
       2.922
       1.858
      -0.732
      -2.630
      -2.333
      -0.457
       1.056
       0.989
      -0.098
      -0.804
      -0.434
       0.547
       1.256
       1.285
       0.899
       0.579
       0.493
       0.432
       0.214
       0.040
       0.261
       0.889
       1.510
       1.554
       0.673
      -0.859
      -2.097
      -2.090
      -0.771
       0.743
       0.934
      -0.596
      -2.390
      -2.439
      -0.366
       2.070
       2.707
       0.983
      -1.749
      -3.537
      -3.310
      -1.498
       0.437
       1.201
       0.646
      -0.333
      -0.704
      -0.089
       1.119
       2.269
       2.886
       2.591
       1.169
      -0.904
      -2.464
      -2.688
      -1.915
      -1.169
      -0.961
      -0.730
       0.412
       2.347
       3.594
       2.670
      -0.155
      -2.788
      -3.234
      -1.524
       0.425
       0.921
       0.170
      -0.399
      -0.100
       0.380
       0.269
      -0.071
       0.321
       1.423
       1.888
       0.686
      -1.349
      -2.261
      -1.166
       0.804
       1.924
       1.696
       0.848
       0.076
      -0.473
      -0.698
      -0.356
       0.467
       1.131
       1.052
       0.371
      -0.222
      -0.220
       0.237
       0.584
       0.449
       0.021
      -0.213
       0.015
       0.545
       0.998
       1.132
       0.947
       0.485
      -0.230
      -0.966
      -1.212
      -0.573
       0.712
       1.681
       1.284
      -0.639
      -2.953
      -3.995
      -3.014
      -0.903
       0.631
       0.659
      -0.238
      -0.736
      -0.140
       0.996
       1.452
       0.531
      -1.261
      -2.657
      -2.754
      -1.727
      -0.496
       0.250
       0.627
       1.092
       1.574
       1.479
       0.617
      -0.292
      -0.311
       0.660
       1.669
       1.649
       0.583
      -0.370
      -0.093
       1.261
       2.402
       2.174
       0.577
      -1.276
      -2.086
      -1.426
      -0.061
       0.792
       0.566
      -0.298
      -0.958
      -0.934
      -0.363
       0.253
       0.493
       0.279
      -0.188
      -0.649
      -0.868
      -0.638
      -0.018
       0.447
       0.109
      -1.013
      -2.080
      -2.195
      -1.242
       0.044
       0.702
       0.336
      -0.464
      -0.609
       0.336
       1.661
       2.345
       2.144
       1.632
       1.352
       1.221
       0.856
       0.256
      -0.152
      -0.144
      -0.072
      -0.474
      -1.423
      -2.346
      -2.519
      -1.746
      -0.563
       0.230
       0.255
      -0.152
      -0.368
      -0.189
       0.061
       0.115
       0.163
       0.507
       1.051
       1.358
       1.215
       0.878
       0.642
       0.400
      -0.099
      -0.722
      -0.938
      -0.328
       0.853
       1.636
       1.077
      -0.721
      -2.476
      -2.856
      -1.699
       0.054
       1.463
       2.247
       2.474
       2.118
       1.136
      -0.227
      -1.446
      -2.047
      -1.842
      -0.918
       0.395
       1.464
       1.463
       0.027
      -1.999
      -3.018
      -2.320
      -0.746
       0.478
       0.898
       0.762
       0.416
      -0.008
      -0.559
      -1.221
      -1.664
      -1.332
       0.015
       1.743
       2.622
       1.912
       0.101
      -1.414
      -1.420
       0.064
       1.718
       2.100
       0.956
      -0.671
      -1.511
      -1.162
      -0.247
       0.392
       0.504
       0.399
       0.380
       0.489
       0.602
       0.505
       0.078
      -0.439
      -0.611
      -0.296
       0.265
       0.798
       1.214
       1.497
       1.426
       0.617
      -0.880
      -2.137
      -1.970
      -0.160
       2.064
       2.904
       1.588
      -0.832
      -2.391
      -1.985
      -0.212
       1.389
       1.706
       0.758
      -0.599
      -1.465
      -1.496
      -0.947
      -0.333
      -0.061
      -0.184
      -0.469
      -0.740
      -1.018
      -1.260
      -1.160
      -0.343
       1.140
       2.516
       2.797
       1.752
       0.138
      -1.075
      -1.460
      -1.172
      -0.601
      -0.073
       0.247
       0.316
       0.108
      -0.344
      -0.768
      -0.737
      -0.119
       0.729
       1.312
       1.384
       0.988
       0.345
      -0.240
      -0.501
      -0.366
      -0.028
       0.131
      -0.181
      -0.821
      -1.209
      -0.818
       0.234
       1.115
       1.063
       0.227
      -0.549
      -0.717
      -0.453
      -0.159
       0.077
       0.324
       0.436
       0.206
      -0.185
      -0.293
      -0.049
       0.087
      -0.247
      -0.764
      -0.873
      -0.416
       0.203
       0.571
       0.656
       0.593
       0.396
       0.055
      -0.258
      -0.288
      -0.003
       0.247
       0.014
      -0.657
      -1.046
      -0.455
       0.879
       1.827
       1.452
       0.008
      -1.288
      -1.489
      -0.776
      -0.017
       0.304
       0.392
       0.533
       0.686
       0.691
       0.509
       0.238
       0.094
       0.204
       0.341
       0.063
      -0.803
      -1.861
      -2.340
      -1.735
      -0.330
       0.970
       1.361
       0.762
      -0.111
      -0.331
       0.397
       1.442
       1.825
       1.121
      -0.201
      -1.257
      -1.409
      -0.625
       0.521
       1.247
       1.188
       0.586
      -0.105
      -0.534
      -0.528
      -0.213
       0.036
      -0.040
      -0.305
      -0.310
       0.296
       1.262
       1.753
       1.144
      -0.290
      -1.663
      -2.326
      -2.201
      -1.428
      -0.124
       1.302
       1.896
       0.819
      -1.487
      -3.218
      -2.746
      -0.218
       2.539
       3.615
       2.469
       0.075
      -2.010
      -2.685
      -1.823
      -0.234
       0.858
       0.719
      -0.300
      -1.176
      -1.241
      -0.631
       0.133
       0.687
       0.965
       1.091
       1.206
       1.292
       1.189
       0.861
       0.545
       0.495
       0.602
       0.423
      -0.277
      -1.121
      -1.501
      -1.308
      -1.036
      -1.135
      -1.418
      -1.270
      -0.431
       0.665
       1.364
       1.380
       0.933
       0.509
       0.454
       0.668
       0.734
       0.412
      -0.099
      -0.416
      -0.367
      -0.069
       0.255
       0.455
       0.493
       0.387
       0.188
      -0.046
      -0.270
      -0.426
      -0.407
      -0.175
       0.090
       0.119
      -0.125
      -0.437
      -0.650
      -0.751
      -0.688
      -0.320
       0.303
       0.834
       0.968
       0.745
       0.411
       0.113
      -0.169
      -0.398
      -0.326
       0.253
       1.088
       1.513
       1.060
       0.017
      -0.770
      -0.743
      -0.199
       0.056
      -0.394
      -1.085
      -1.150
      -0.342
       0.552
       0.508
      -0.517
      -1.448
      -1.300
      -0.275
       0.599
       0.666
       0.145
      -0.416
      -0.746
      -0.804
      -0.511
       0.153
       0.919
       1.366
       1.327
       1.000
       0.688
       0.549
       0.500
       0.247
      -0.452
      -1.423
      -2.000
      -1.506
       0.075
       1.864
       2.607
       1.662
      -0.356
