Origin Time       25/11/2007 23:12:20 UTC
Lat.              28.6 N 
Long.             77.0 E 
Depth (Km)         20.3
Magnitude         4.3
 Region           DELHI-HARYANA-BORDER-REGION                                      
 Above details taken from IMD 
    
Station Code      NDI
Station Lat.       28.683  N
Station Long.      77.217  E
Station Height(m)  200.0
Site Class        A   Vs30 between 700 m/sec to 1400 m/sec * 
Record Time       25.11.2007 23:12:18.725 UTC
Sampling Rate     200. Hz
 Record Duration  125.015 Sec.
 Direction         N-S (N positive)
Max. Acceleration      8.175 cm/sec**2
     
  * For reference see Site Classification link of website 
     
 Base Line Corrected and Low Pass Filtered (Cut Off at 35 Hz) Time History
 Acceleration data in cm/sec**2
    
[...]
      -0.004
      -0.004
      -0.003
      -0.003
      -0.003
      -0.004
      -0.004
      -0.002
       0.001
       0.003
       0.002
       0.000
      -0.003
      -0.004
      -0.002
       0.001
       0.004
       0.004
       0.002
       0.000
       0.000
       0.002
       0.004
       0.003
       0.001
      -0.002
      -0.004
      -0.004
      -0.004
      -0.004
      -0.004
      -0.003
      -0.003
      -0.001
      -0.001
      -0.001
      -0.002
      -0.003
      -0.003
      -0.001
       0.001
       0.004
       0.005
       0.006
       0.006
       0.004
       0.001
      -0.002
      -0.003
      -0.003
      -0.003
      -0.003
      -0.002
       0.000
       0.003
       0.005
       0.004
       0.002
       0.000
      -0.002
      -0.001
      -0.001
       0.000
      -0.001
      -0.002
      -0.002
      -0.002
      -0.001
      -0.001
       0.001
       0.002
       0.004
       0.003
       0.001
      -0.002
      -0.002
      -0.001
       0.000
       0.000
      -0.001
      -0.003
      -0.003
      -0.001
       0.003
       0.005
       0.004
       0.001
      -0.002
      -0.003
      -0.002
       0.000
      -0.001
      -0.004
      -0.007
      -0.007
      -0.004
      -0.002
      -0.003
      -0.005
      -0.007
      -0.006
      -0.002
       0.002
       0.002
      -0.001
      -0.004
      -0.006
      -0.007
      -0.007
      -0.005
      -0.002
       0.001
       0.002
      -0.001
      -0.004
      -0.005
      -0.002
       0.002
       0.004
       0.004
       0.002
       0.001
       0.001
       0.001
      -0.001
      -0.003
      -0.003
      -0.001
       0.003
       0.006
       0.004
      -0.001
      -0.005
      -0.006
      -0.004
      -0.002
      -0.001
      -0.002
      -0.004
      -0.004
      -0.001
       0.004
       0.007
       0.008
       0.006
       0.003
      -0.001
      -0.001
       0.000
       0.001
       0.000
      -0.001
      -0.002
       0.000
       0.002
       0.004
       0.003
       0.000
      -0.002
      -0.002
      -0.001
       0.000
       0.000
      -0.001
      -0.001
      -0.001
       0.000
       0.002
       0.003
       0.003
       0.003
       0.002
       0.000
      -0.001
      -0.003
      -0.005
      -0.006
      -0.005
      -0.003
       0.001
       0.003
       0.002
      -0.002
      -0.005
      -0.003
       0.001
       0.004
       0.004
       0.002
       0.000
      -0.001
      -0.001
      -0.002
      -0.004
      -0.005
      -0.003
       0.002
       0.006
       0.006
       0.004
       0.001
      -0.001
      -0.004
      -0.006
      -0.008
      -0.006
      -0.001
       0.003
       0.004
       0.002
      -0.002
      -0.005
      -0.004
      -0.002
       0.000
      -0.001
      -0.004
      -0.005
      -0.003
       0.002
       0.004
       0.001
      -0.006
      -0.011
      -0.011
      -0.006
      -0.001
       0.000
      -0.003
      -0.006
      -0.008
      -0.007
      -0.005
      -0.003
      -0.001
       0.000
      -0.001
      -0.002
      -0.004
      -0.004
      -0.004
      -0.004
      -0.004
      -0.004
      -0.004
      -0.004
      -0.005
      -0.005
      -0.004
      -0.002
       0.000
       0.001
       0.000
       0.000
       0.000
       0.001
       0.001
       0.000
      -0.003
      -0.007
      -0.010
      -0.007
       0.001
       0.004
      -0.013
      -0.058
      -0.118
      -0.158
      -0.142
      -0.069
       0.009
       0.026
      -0.050
      -0.165
      -0.213
      -0.118
       0.090
       0.274
       0.299
       0.146
      -0.057
      -0.132
      -0.001
       0.233
       0.368
       0.271
       0.004
      -0.228
      -0.251
      -0.071
       0.145
       0.216
       0.094
      -0.097
      -0.171
      -0.051
       0.155
       0.246
       0.131
      -0.084
      -0.197
      -0.119
       0.048
       0.122
       0.039
      -0.104
      -0.170
      -0.120
      -0.035
      -0.031
      -0.142
      -0.269
      -0.247
      -0.025
       0.234
       0.262
      -0.027
      -0.386
      -0.426
      -0.029
       0.491
       0.661
       0.323
      -0.208
      -0.447
      -0.199
       0.296
       0.599
       0.471
       0.052
      -0.300
      -0.331
      -0.073
       0.236
       0.372
       0.295
       0.116
      -0.034
      -0.108
      -0.136
      -0.159
      -0.185
      -0.188
      -0.144
      -0.056
       0.026
       0.035
      -0.038
      -0.093
      -0.024
       0.144
       0.232
       0.084
      -0.239
      -0.474
      -0.414
      -0.122
       0.123
       0.112
      -0.093
      -0.245
      -0.194
      -0.016
       0.112
       0.107
       0.035
       0.018
       0.127
       0.305
       0.395
       0.275
      -0.042
      -0.400
      -0.587
      -0.458
      -0.076
       0.268
       0.288
      -0.016
      -0.352
      -0.396
      -0.061
       0.428
       0.709
       0.592
       0.209
      -0.139
      -0.244
      -0.110
       0.103
       0.221
       0.171
      -0.008
      -0.223
      -0.382
      -0.416
      -0.313
      -0.121
       0.088
       0.241
       0.281
       0.199
       0.069
       0.004
       0.026
       0.026
      -0.080
      -0.176
      -0.038
       0.357
       0.681
       0.546
      -0.039
      -0.592
      -0.601
      -0.058
       0.490
       0.438
      -0.269
      -1.025
      -1.102
      -0.344
       0.646
       1.048
       0.597
      -0.179
      -0.497
      -0.097
       0.518
       0.612
       0.007
      -0.701
      -0.764
      -0.082
       0.660
       0.693
      -0.035
      -0.783
      -0.796
      -0.108
       0.523
       0.474
      -0.097
      -0.500
      -0.305
       0.234
       0.527
       0.311
      -0.112
      -0.286
      -0.119
       0.097
       0.093
      -0.098
      -0.269
      -0.299
      -0.234
      -0.171
      -0.135
      -0.071
       0.062
       0.232
       0.353
       0.359
       0.267
       0.175
       0.157
       0.172
       0.092
      -0.130
      -0.344
      -0.312
       0.018
       0.386
       0.438
       0.101
      -0.311
      -0.412
      -0.163
       0.071
      -0.089
      -0.563
      -0.824
      -0.449
       0.375
       0.999
       0.951
       0.376
      -0.174
      -0.300
      -0.068
       0.172
       0.173
      -0.024
      -0.214
      -0.248
      -0.112
       0.083
       0.175
       0.065
      -0.185
      -0.417
      -0.518
      -0.464
      -0.268
       0.045
       0.395
       0.635
       0.624
       0.367
       0.055
      -0.092
      -0.024
       0.113
       0.160
       0.106
       0.054
       0.057
       0.042
      -0.093
      -0.319
      -0.454
      -0.332
       0.010
       0.323
       0.355
       0.080
      -0.286
      -0.459
      -0.303
       0.091
       0.464
       0.525
       0.147
      -0.457
      -0.802
      -0.531
       0.217
       0.866
       0.897
       0.296
      -0.455
      -0.803
      -0.537
       0.100
       0.617
       0.609
       0.040
      -0.695
      -1.030
      -0.703
      -0.028
       0.395
       0.277
      -0.123
      -0.342
      -0.211
       0.052
       0.158
       0.065
      -0.020
       0.109
       0.420
       0.646
       0.542
       0.157
      -0.202
      -0.276
      -0.104
       0.046
      -0.028
      -0.275
      -0.483
      -0.510
      -0.371
      -0.162
       0.028
       0.167
       0.254
       0.292
       0.308
       0.352
       0.437
       0.494
       0.442
       0.278
       0.066
      -0.135
      -0.294
      -0.374
      -0.314
      -0.097
       0.158
       0.234
       0.005
      -0.393
      -0.633
      -0.492
      -0.056
       0.343
       0.425
       0.200
      -0.070
      -0.127
       0.035
       0.185
       0.134
      -0.025
      -0.063
       0.059
       0.154
       0.100
       0.027
       0.138
       0.398
       0.485
       0.132
      -0.511
      -0.939
      -0.774
      -0.141
       0.457
       0.605
       0.321
      -0.037
      -0.149
      -0.018
       0.115
       0.053
      -0.170
      -0.358
      -0.347
      -0.117
       0.195
       0.356
       0.186
      -0.244
      -0.587
      -0.509
      -0.047
       0.405
       0.503
       0.251
      -0.095
      -0.295
      -0.272
      -0.070
       0.229
       0.493
       0.523
       0.212
      -0.268
      -0.548
      -0.404
       0.015
       0.340
       0.327
       0.040
      -0.267
      -0.389
      -0.325
      -0.236
      -0.212
      -0.136
       0.156
       0.598
       0.859
       0.658
       0.075
      -0.493
      -0.676
      -0.423
       0.028
       0.389
       0.511
       0.370
       0.013
      -0.397
      -0.579
      -0.363
       0.094
       0.455
       0.518
       0.357
       0.167
       0.044
      -0.080
      -0.282
      -0.475
      -0.457
      -0.131
       0.337
       0.587
       0.376
      -0.154
      -0.530
      -0.375
       0.175
       0.552
       0.323
      -0.350
      -0.835
      -0.638
       0.088
       0.657
       0.519
      -0.182
      -0.755
      -0.678
      -0.100
       0.414
       0.526
       0.362
       0.197
       0.091
      -0.051
      -0.205
      -0.187
       0.041
       0.194
      -0.021
      -0.453
      -0.592
      -0.171
       0.446
       0.624
       0.181
      -0.371
      -0.390
       0.185
       0.755
       0.697
       0.014
      -0.684
      -0.806
      -0.326
       0.274
       0.494
       0.244
      -0.151
      -0.308
      -0.121
       0.219
       0.415
       0.263
      -0.227
      -0.790
      -0.983
      -0.494
       0.468
       1.189
       1.045
       0.130
      -0.776
      -0.917
      -0.259
       0.515
       0.696
       0.201
      -0.436
      -0.666
      -0.401
       0.074
       0.466
       0.646
       0.568
       0.231
      -0.200
      -0.388
      -0.109
       0.461
       0.852
       0.754
       0.311
      -0.063
      -0.162
      -0.144
      -0.232
      -0.380
      -0.357
      -0.088
       0.190
       0.161
      -0.211
      -0.607
      -0.680
      -0.402
      -0.044
       0.148
       0.143
       0.045
      -0.034
      -0.003
       0.131
       0.175
      -0.101
      -0.641
      -1.008
      -0.749
       0.090
       0.875
       0.933
       0.206
      -0.660
      -0.928
      -0.433
       0.359
       0.876
       0.920
       0.635
       0.198
      -0.269
      -0.565
      -0.430
       0.148
       0.744
       0.804
       0.232
      -0.452
      -0.652
      -0.270
       0.335
       0.783
       0.926
       0.773
       0.340
      -0.368
      -1.187
      -1.710
      -1.502
      -0.521
       0.685
       1.266
       0.738
      -0.516
      -1.473
      -1.334
      -0.223
       0.964
       1.367
       0.865
       0.095
      -0.197
       0.133
       0.532
       0.410
      -0.198
      -0.689
      -0.575
       0.014
       0.507
       0.469
      -0.025
      -0.544
      -0.699
      -0.402
       0.124
       0.488
       0.408
      -0.067
      -0.546
      -0.586
      -0.083
       0.570
       0.803
       0.435
      -0.101
      -0.219
       0.167
       0.564
       0.501
       0.089
      -0.132
       0.113
       0.478
       0.395
      -0.274
      -1.069
      -1.401
      -1.071
      -0.351
       0.300
       0.546
       0.353
       0.022
      -0.044
       0.295
       0.761
       0.862
       0.362
      -0.422
      -0.827
      -0.433
       0.495
       1.118
       0.712
      -0.619
      -1.897
      -2.075
      -0.990
       0.453
       1.074
       0.473
      -0.639
      -1.155
      -0.643
       0.337
       0.903
       0.713
       0.171
      -0.081
       0.244
       0.890
       1.258
       0.845
      -0.259
      -1.267
      -1.305
      -0.246
       1.070
       1.556
       0.883
      -0.274
      -0.942
      -0.740
      -0.066
       0.433
       0.455
       0.153
      -0.136
      -0.173
       0.034
       0.238
       0.190
      -0.097
      -0.330
      -0.210
       0.266
       0.736
       0.734
       0.108
      -0.753
      -1.189
      -0.917
      -0.379
      -0.248
      -0.625
      -0.899
      -0.452
       0.607
       1.460
       1.356
       0.355
      -0.692
      -0.928
      -0.225
       0.807
       1.379
       1.093
       0.153
      -0.833
      -1.279
      -0.998
      -0.310
       0.134
      -0.209
      -1.275
      -2.327
      -2.565
      -1.923
      -1.180
      -1.182
      -1.976
      -2.767
      -2.760
      -1.985
      -1.257
      -1.308
      -1.991
      -2.427
      -1.900
      -0.551
       0.816
       1.562
       1.754
       1.904
       2.402
       3.302
       4.493
       5.828
       7.030
       7.557
       6.857
       5.030
       3.076
       2.146
       2.463
       3.084
       2.750
       0.981
      -1.489
      -3.307
      -3.579
      -2.479
      -0.961
      -0.070
      -0.422
      -1.962
      -3.885
      -4.868
      -3.781
      -0.698
       2.661
       3.847
       1.644
      -2.535
      -5.321
      -4.083
       0.572
       4.966
       5.313
       0.949
      -4.943
      -7.805
      -5.456
      -0.015
       3.757
       2.457
      -2.964
      -7.852
      -7.766
      -2.288
       4.666
       8.175
       6.241
       1.042
      -3.148
      -3.355
      -0.009
       3.644
       4.216
       0.955
      -3.507
      -5.343
      -2.984
       1.483
       4.489
       4.315
       2.091
      -0.112
      -1.510
      -2.691
      -3.930
      -4.198
      -2.193
       1.869
       5.806
       7.022
       4.664
       0.350
      -3.150
      -3.989
      -2.309
       0.257
       1.855
       1.441
      -0.741
      -3.168
      -3.688
      -1.060
       3.545
       6.870
       6.176
       1.881
      -2.604
      -3.949
      -1.782
       1.493
       3.348
       3.212
       2.089
       0.896
      -0.291
      -1.671
      -3.110
      -4.232
      -4.701
      -4.254
      -2.847
      -1.008
       0.251
       0.250
      -0.707
      -1.681
      -1.975
      -1.559
      -0.789
       0.157
       1.449
       3.035
       4.080
       3.496
       1.257
      -1.074
      -1.490
       0.523
       3.229
       4.077
       2.022
      -1.523
      -3.876
      -3.299
      -0.407
       2.414
       3.045
       1.321
      -1.118
      -2.502
      -2.377
      -1.492
      -0.684
      -0.223
      -0.018
       0.061
       0.240
       0.947
       2.397
       3.964
       4.319
       2.550
      -0.812
      -3.961
      -5.120
      -3.916
      -1.630
      -0.036
       0.075
      -0.662
      -0.983
      -0.074
       1.840
       3.538
       3.486
       1.019
      -2.670
      -4.892
      -3.528
       0.704
       4.323
       4.051
      -0.031
      -4.469
      -5.674
      -3.065
       0.965
       3.706
       4.361
       3.938
       3.589
       3.391
       2.658
       1.099
      -0.666
      -1.701
      -1.634
      -0.848
       0.007
       0.448
       0.232
      -0.535
      -1.232
      -1.073
      -0.067
       0.551
      -0.561
      -3.104
      -5.040
      -4.676
      -2.548
      -0.744
      -0.426
      -0.574
       0.471
       2.620
       3.821
       2.414
      -0.681
      -2.525
      -1.051
       2.706
       5.381
       4.405
       0.448
      -3.194
      -3.649
      -1.056
       1.775
       2.231
       0.353
      -1.597
      -1.738
      -0.400
       0.600
       0.114
      -1.177
      -1.644
      -0.512
       1.316
       2.185
       1.435
       0.176
       0.163
       1.777
       3.320
       2.690
      -0.196
      -3.024
      -3.387
      -1.306
       0.837
       0.878
      -0.898
      -2.257
      -1.460
       1.110
       3.539
       4.115
       2.510
      -0.191
      -2.308
      -2.601
      -1.006
       1.253
       2.376
       1.319
      -1.272
      -3.510
      -3.835
      -2.319
      -0.509
       0.001
      -0.997
      -2.187
      -2.021
      -0.180
       2.193
       3.542
       3.109
       1.341
      -0.592
      -1.605
      -1.243
       0.173
       1.732
       2.422
       1.669
      -0.418
      -3.093
      -5.211
      -5.691
      -4.141
      -1.316
       1.132
       1.807
       0.858
      -0.010
       0.832
       3.107
       4.648
       3.553
       0.376
      -2.129
      -1.651
       1.347
       4.077
       4.222
       2.130
       0.115
      -0.213
       0.513
       0.519
      -0.962
      -2.975
      -4.068
      -3.787
      -2.780
      -1.729
      -0.682
       0.517
       1.516
       1.594
       0.608
      -0.454
      -0.281
       1.380
       3.381
       4.200
       3.135
       0.670
      -1.960
      -3.532
      -3.504
      -2.232
      -0.630
       0.438
       0.645
       0.314
       0.096
       0.383
       0.917
       1.019
       0.360
      -0.520
      -0.577
       0.779
       2.986
       4.460
       3.740
       0.929
      -2.132
      -3.470
      -2.721
      -1.225
      -0.520
      -0.902
      -1.530
      -1.684
      -1.488
      -1.354
      -1.242
      -0.841
      -0.261
      -0.111
      -0.687
      -1.301
      -0.813
       1.096
       3.329
       4.195
       2.937
       0.556
      -1.002
      -0.669
       0.753
       1.506
       0.782
      -0.464
      -0.710
       0.196
       0.723
      -0.435
      -2.543
      -3.556
      -2.515
      -0.615
       0.232
      -0.438
      -1.179
      -0.348
       1.943
       3.796
       3.371
       0.610
      -2.705
      -4.386
      -3.426
      -0.607
       2.202
       3.498
       3.151
       2.141
       1.375
       0.873
       0.153
      -0.802
      -1.318
      -0.802
       0.473
       1.479
       1.297
      -0.045
      -1.591
      -2.323
      -2.040
      -1.393
      -1.097
      -1.165
      -0.975
      -0.074
       1.195
       1.923
       1.542
       0.511
      -0.039
       0.536
       1.657
       2.076
       1.182
      -0.289
      -0.922
      -0.057
       1.464
       2.047
       0.896
      -1.184
      -2.546
      -2.275
      -0.941
       0.151
       0.331
       0.070
       0.157
       0.599
       0.654
      -0.071
      -0.969
      -1.076
      -0.205
       0.763
       0.774
      -0.259
      -1.363
      -1.561
      -0.840
      -0.028
       0.170
      -0.056
       0.093
       0.969
       1.938
       2.073
       1.188
      -0.064
      -0.969
      -1.303
      -1.138
      -0.554
       0.199
       0.530
      -0.045
      -1.256
      -2.159
      -2.063
      -1.272
      -0.735
      -0.934
      -1.328
      -1.041
       0.052
       1.196
       1.690
       1.686
       1.875
       2.489
       2.839
       2.089
       0.402
      -1.026
      -1.233
      -0.525
      -0.019
      -0.344
      -1.017
      -1.088
      -0.235
       0.890
       1.431
       1.214
       0.732
       0.510
       0.665
       0.947
       0.999
       0.618
      -0.134
      -1.016
      -1.764
