Origin Time       25/11/2007 23:12:20
Lat.              28.6 N 
Long.             77.0 E 
Depth (Km)         20.3
Magnitude         4.3
 Region           DELHI-HARYANA-BORDER-REGION                                      
 Above details taken from IMD 
     
Station Code      NDI
Station Lat.       28.683  N
Station Long.      77.217  E
Station Height(m)  200.0
Site Class        A   Vs30 between 700 m/sec to 1400 m/sec * 
Record Time       25.11.2007 23:12:18.725
Sampling Rate     200. Hz
 Record Duration  125.015 Sec.
 Direction         E-W (E positive)
Max. Acceleration     -8.732 cm/sec**2
     
  * For reference see Site Classification link of website 
     
 Base Line Corrected and Low Pass Filtered (Cut Off at 35 Hz) Time History
 Acceleration data in cm/sec**2
    
[...]
       0.002
       0.006
       0.005
      -0.002
      -0.010
      -0.015
      -0.013
      -0.006
       0.003
       0.008
       0.009
       0.006
       0.002
       0.000
       0.000
       0.000
      -0.001
      -0.002
      -0.002
      -0.001
       0.000
       0.000
       0.001
       0.004
       0.007
       0.009
       0.008
       0.004
       0.001
       0.000
       0.001
       0.001
       0.000
      -0.003
      -0.004
      -0.001
       0.003
       0.004
       0.003
      -0.001
      -0.002
      -0.001
       0.002
       0.005
       0.006
       0.008
       0.010
       0.010
       0.009
       0.006
       0.004
       0.003
       0.003
       0.003
       0.000
      -0.002
      -0.005
      -0.005
      -0.002
       0.000
       0.001
      -0.001
      -0.003
      -0.004
       0.000
       0.007
       0.011
       0.008
       0.000
      -0.011
      -0.016
      -0.013
      -0.005
       0.001
       0.004
       0.003
       0.001
       0.000
       0.001
       0.002
       0.004
       0.004
       0.004
       0.003
       0.002
       0.001
       0.001
       0.002
       0.004
       0.004
       0.002
      -0.001
      -0.005
      -0.007
      -0.005
      -0.001
       0.005
       0.008
       0.008
       0.005
       0.003
       0.000
      -0.002
      -0.005
      -0.006
      -0.006
      -0.005
      -0.003
      -0.001
       0.001
       0.003
       0.005
       0.005
       0.003
      -0.002
      -0.006
      -0.007
      -0.004
       0.001
       0.006
       0.009
       0.010
       0.010
       0.007
       0.003
      -0.002
      -0.004
      -0.004
      -0.003
      -0.001
      -0.001
      -0.002
      -0.002
      -0.001
       0.002
       0.004
       0.006
       0.006
       0.006
       0.006
       0.005
       0.005
       0.004
       0.003
       0.003
       0.003
       0.003
       0.002
       0.000
      -0.001
       0.000
       0.002
       0.003
       0.003
       0.000
      -0.003
      -0.006
      -0.006
      -0.004
      -0.001
       0.000
       0.000
      -0.001
      -0.001
       0.001
       0.002
       0.001
       0.000
      -0.001
       0.001
       0.005
       0.009
       0.010
       0.008
       0.003
      -0.001
      -0.004
      -0.007
      -0.011
      -0.014
      -0.013
      -0.008
       0.000
       0.004
       0.002
      -0.004
      -0.010
      -0.012
      -0.009
      -0.006
      -0.004
      -0.003
      -0.002
      -0.001
      -0.003
      -0.006
      -0.012
      -0.015
      -0.014
      -0.009
       0.000
       0.007
       0.009
       0.008
       0.005
       0.003
       0.002
       0.002
       0.002
       0.002
       0.003
       0.003
       0.001
      -0.003
      -0.005
      -0.006
      -0.004
      -0.001
       0.000
       0.000
      -0.001
       0.000
       0.001
       0.001
       0.001
       0.000
      -0.002
      -0.006
      -0.008
      -0.007
      -0.003
       0.001
       0.005
       0.006
       0.004
      -0.003
      -0.009
      -0.003
       0.021
       0.060
       0.093
       0.095
       0.063
       0.014
      -0.019
      -0.015
       0.019
       0.050
       0.041
      -0.019
      -0.100
      -0.149
      -0.131
      -0.067
      -0.016
      -0.028
      -0.092
      -0.143
      -0.119
      -0.019
       0.090
       0.132
       0.086
       0.009
      -0.027
       0.007
       0.081
       0.138
       0.133
       0.069
       0.001
      -0.006
       0.051
       0.096
       0.054
      -0.047
      -0.107
      -0.070
       0.008
       0.039
       0.013
      -0.017
      -0.020
      -0.005
       0.023
       0.068
       0.091
       0.036
      -0.078
      -0.132
      -0.056
       0.061
       0.066
      -0.062
      -0.182
      -0.166
      -0.035
       0.094
       0.141
       0.107
       0.038
      -0.014
      -0.014
       0.011
      -0.014
      -0.108
      -0.179
      -0.116
       0.057
       0.190
       0.175
       0.052
      -0.053
      -0.061
       0.023
       0.141
       0.216
       0.181
       0.036
      -0.125
      -0.187
      -0.121
      -0.012
       0.034
       0.005
      -0.021
       0.007
       0.053
       0.055
       0.021
       0.019
       0.067
       0.094
       0.037
      -0.067
      -0.117
      -0.066
       0.020
       0.051
       0.025
       0.004
       0.010
      -0.001
      -0.048
      -0.065
       0.003
       0.105
       0.134
       0.053
      -0.062
      -0.111
      -0.063
       0.031
       0.104
       0.118
       0.066
      -0.029
      -0.127
      -0.191
      -0.211
      -0.193
      -0.135
      -0.035
       0.085
       0.170
       0.166
       0.064
      -0.083
      -0.181
      -0.151
       0.007
       0.198
       0.294
       0.242
       0.094
      -0.036
      -0.057
       0.052
       0.230
       0.355
       0.286
      -0.042
      -0.500
      -0.771
      -0.583
      -0.007
       0.529
       0.611
       0.224
      -0.256
      -0.426
      -0.200
       0.167
       0.334
       0.180
      -0.127
      -0.322
      -0.279
      -0.071
       0.167
       0.330
       0.352
       0.213
      -0.002
      -0.131
      -0.089
       0.031
       0.063
      -0.036
      -0.139
      -0.116
       0.003
       0.084
       0.076
       0.085
       0.199
       0.316
       0.246
      -0.023
      -0.249
      -0.197
       0.072
       0.256
       0.144
      -0.146
      -0.320
      -0.251
      -0.086
      -0.003
       0.014
       0.068
       0.126
       0.027
      -0.258
      -0.502
      -0.422
      -0.005
       0.433
       0.537
       0.246
      -0.164
      -0.362
      -0.260
      -0.019
       0.164
       0.192
       0.071
      -0.114
      -0.210
      -0.096
       0.174
       0.377
       0.349
       0.158
       0.002
      -0.040
      -0.051
      -0.116
      -0.198
      -0.216
      -0.165
      -0.097
      -0.026
       0.075
       0.185
       0.227
       0.155
       0.008
      -0.122
      -0.169
      -0.132
      -0.067
      -0.044
      -0.102
      -0.194
      -0.180
       0.036
       0.361
       0.555
       0.479
       0.247
       0.083
       0.036
      -0.055
      -0.314
      -0.612
      -0.674
      -0.383
       0.056
       0.308
       0.243
       0.036
      -0.059
       0.023
       0.132
       0.120
       0.015
      -0.026
       0.098
       0.314
       0.427
       0.317
       0.065
      -0.116
      -0.129
      -0.092
      -0.159
      -0.283
      -0.275
      -0.077
       0.130
       0.170
       0.107
       0.147
       0.344
       0.507
       0.392
      -0.038
      -0.552
      -0.800
      -0.578
      -0.023
       0.454
       0.510
       0.189
      -0.155
      -0.265
      -0.233
      -0.286
      -0.427
      -0.411
      -0.079
       0.415
       0.753
       0.752
       0.458
       0.044
      -0.285
      -0.362
      -0.192
      -0.002
      -0.019
      -0.186
      -0.261
      -0.181
      -0.134
      -0.212
      -0.213
       0.054
       0.427
       0.547
       0.305
      -0.031
      -0.134
       0.035
       0.237
       0.231
      -0.013
      -0.313
      -0.420
      -0.217
       0.158
       0.400
       0.306
      -0.044
      -0.367
      -0.429
      -0.234
       0.015
       0.121
       0.079
       0.042
       0.154
       0.386
       0.552
       0.482
       0.197
      -0.103
      -0.246
      -0.256
      -0.304
      -0.464
      -0.590
      -0.460
      -0.039
       0.417
       0.565
       0.293
      -0.162
      -0.451
      -0.434
      -0.257
      -0.112
      -0.024
       0.102
       0.270
       0.359
       0.317
       0.284
       0.415
       0.599
       0.512
       0.011
      -0.590
      -0.790
      -0.445
       0.078
       0.327
       0.222
       0.015
      -0.098
      -0.168
      -0.289
      -0.382
      -0.286
       0.007
       0.319
       0.458
       0.364
       0.107
      -0.171
      -0.309
      -0.207
       0.056
       0.246
       0.196
      -0.031
      -0.226
      -0.251
      -0.113
       0.107
       0.320
       0.441
       0.413
       0.269
       0.122
       0.034
      -0.076
      -0.319
      -0.629
      -0.763
      -0.548
      -0.093
       0.287
       0.365
       0.201
       0.030
      -0.005
       0.023
      -0.018
      -0.093
      -0.035
       0.207
       0.435
       0.397
       0.050
      -0.399
      -0.670
      -0.593
      -0.195
       0.312
       0.656
       0.703
       0.544
       0.321
       0.051
      -0.286
      -0.562
      -0.578
      -0.326
      -0.026
       0.153
       0.267
       0.418
       0.510
       0.343
      -0.081
      -0.475
      -0.526
      -0.194
       0.277
       0.580
       0.543
       0.175
      -0.352
      -0.747
      -0.739
      -0.310
       0.230
       0.477
       0.280
      -0.152
      -0.456
      -0.444
      -0.249
      -0.157
      -0.281
      -0.394
      -0.125
       0.598
       1.332
       1.461
       0.802
      -0.198
      -0.873
      -0.878
      -0.368
       0.234
       0.545
       0.421
      -0.019
      -0.498
      -0.755
      -0.693
      -0.396
      -0.033
       0.251
       0.391
       0.377
       0.254
       0.096
      -0.047
      -0.193
      -0.326
      -0.297
       0.012
       0.403
       0.455
       0.049
      -0.394
      -0.409
      -0.053
       0.238
       0.249
       0.153
       0.129
       0.102
      -0.020
      -0.106
       0.036
       0.364
       0.610
       0.545
       0.170
      -0.331
      -0.722
      -0.834
      -0.646
      -0.283
       0.096
       0.385
       0.506
       0.391
       0.036
      -0.424
      -0.725
      -0.618
      -0.115
       0.433
       0.637
       0.473
       0.267
       0.256
       0.309
       0.188
      -0.070
      -0.209
      -0.107
       0.107
       0.255
       0.249
       0.048
      -0.336
      -0.716
      -0.791
      -0.484
      -0.091
       0.054
      -0.025
      -0.037
       0.140
       0.291
       0.167
      -0.158
      -0.340
      -0.165
       0.218
       0.480
       0.440
       0.177
      -0.076
      -0.129
       0.004
       0.134
       0.109
       0.005
       0.033
       0.240
       0.403
       0.308
       0.047
      -0.088
       0.059
       0.344
       0.453
       0.202
      -0.243
      -0.494
      -0.363
      -0.118
      -0.155
      -0.443
      -0.520
      -0.134
       0.334
       0.284
      -0.330
      -0.878
      -0.734
       0.053
       0.823
       0.971
       0.481
      -0.134
      -0.356
      -0.123
       0.174
       0.152
      -0.147
      -0.335
      -0.163
       0.178
       0.318
       0.150
      -0.094
      -0.182
      -0.124
      -0.040
       0.067
       0.252
       0.428
       0.399
       0.111
      -0.248
      -0.439
      -0.412
      -0.287
      -0.156
      -0.010
       0.145
       0.208
       0.086
      -0.168
      -0.374
      -0.366
      -0.103
       0.312
       0.689
       0.820
       0.603
       0.157
      -0.214
      -0.289
      -0.150
      -0.040
      -0.030
       0.043
       0.283
       0.550
       0.627
       0.448
       0.107
      -0.232
      -0.370
      -0.181
       0.212
       0.424
       0.168
      -0.373
      -0.676
      -0.457
      -0.005
       0.168
      -0.108
      -0.544
      -0.799
      -0.842
      -0.827
      -0.732
      -0.352
       0.309
       0.852
       0.827
       0.227
      -0.472
      -0.773
      -0.571
      -0.123
       0.282
       0.550
       0.717
       0.736
       0.469
      -0.093
      -0.669
      -0.820
      -0.299
       0.648
       1.345
       1.190
       0.246
      -0.707
      -0.885
      -0.288
       0.390
       0.606
       0.474
       0.383
       0.384
       0.203
      -0.271
      -0.754
      -0.899
      -0.664
      -0.273
       0.078
       0.293
       0.260
      -0.099
      -0.601
      -0.838
      -0.554
       0.072
       0.580
       0.654
       0.370
       0.081
       0.056
       0.240
       0.366
       0.302
       0.220
       0.382
       0.797
       1.185
       1.279
       1.103
       0.906
       0.880
       0.930
       0.779
       0.390
       0.210
       0.727
       1.710
       2.160
       1.298
      -0.499
      -1.968
      -2.195
      -1.407
      -0.575
      -0.440
      -1.005
      -1.785
      -2.357
      -2.609
      -2.597
      -2.335
      -1.869
      -1.478
      -1.522
      -1.984
      -2.358
      -2.195
      -1.633
      -1.187
      -1.133
      -1.258
      -1.105
      -0.311
       1.107
       2.569
       3.109
       2.076
      -0.137
      -2.085
      -2.190
       0.087
       3.654
       6.252
       5.914
       2.586
      -1.502
      -3.319
      -1.451
       2.599
       5.543
       5.072
       1.775
      -1.532
      -2.356
      -0.562
       1.801
       2.444
       0.705
      -2.058
      -3.606
      -2.667
      -0.206
       1.203
      -0.222
      -3.483
      -5.621
      -4.759
      -1.912
       0.486
       1.320
       1.485
       2.193
       3.431
       4.323
       4.400
       3.920
       3.176
       2.196
       1.345
       1.553
       3.121
       4.508
       3.330
      -0.985
      -6.083
      -8.732
      -7.679
      -4.243
      -0.696
       1.292
       1.123
      -0.644
      -2.443
      -2.760
      -1.600
      -0.477
      -0.533
      -0.992
      -0.094
       2.451
       4.595
       4.005
       0.732
      -2.723
      -3.955
      -2.824
      -1.061
      -0.165
       0.002
       0.589
       2.043
       3.402
       3.390
       1.929
       0.339
       0.028
       1.043
       1.996
       1.482
      -0.480
      -2.393
      -2.576
      -0.656
       1.933
       2.976
       1.440
      -1.407
      -3.119
      -2.510
      -0.735
       0.251
      -0.025
      -0.337
       0.376
       1.596
       1.857
       0.366
      -2.112
      -3.776
      -3.276
      -0.996
       1.130
       1.389
      -0.009
      -1.256
      -1.009
       0.271
       1.264
       1.556
       1.768
       2.106
       1.649
      -0.410
      -3.205
      -4.585
      -3.374
      -0.789
       0.899
       0.942
       0.648
       1.309
       2.458
       2.734
       1.830
       0.686
      -0.030
      -0.617
      -1.325
      -1.561
      -0.669
       0.971
       2.127
       1.826
       0.075
      -2.208
      -3.676
      -3.301
      -1.178
       1.386
       2.945
       3.216
       3.062
       3.126
       2.822
       1.099
      -1.850
      -4.195
      -4.112
      -1.676
       1.148
       2.405
       1.866
       0.796
       0.275
       0.127
      -0.456
      -1.637
      -2.651
      -2.681
      -1.694
      -0.347
       0.650
       0.956
       0.626
      -0.023
      -0.590
      -0.829
      -0.815
      -0.796
      -0.818
      -0.581
       0.206
       1.300
       1.889
       1.280
      -0.306
      -1.730
      -1.881
      -0.696
       0.770
       1.346
       0.818
       0.043
       0.008
       0.802
       1.496
       1.060
      -0.559
      -2.204
      -2.382
      -0.553
       2.275
       4.201
       3.887
       1.568
      -1.185
      -2.656
      -2.085
       0.045
       2.419
       3.578
       2.737
       0.408
      -1.867
      -2.761
      -2.191
      -1.071
      -0.330
      -0.345
      -0.992
      -1.790
      -2.055
      -1.384
      -0.242
       0.246
      -0.563
      -2.022
      -2.824
      -2.351
      -1.126
      -0.039
       0.509
       0.657
       0.652
       0.735
       1.260
       2.442
       3.817
       4.328
       3.306
       1.295
      -0.353
      -0.761
      -0.262
       0.182
       0.111
      -0.093
       0.133
       0.817
       1.464
       1.562
       1.021
       0.212
      -0.391
      -0.672
      -0.921
      -1.319
      -1.530
      -1.094
      -0.198
       0.300
      -0.210
      -1.348
      -2.108
      -1.904
      -1.083
      -0.374
       0.001
       0.439
       1.280
       2.248
       2.681
       2.204
       1.131
       0.201
      -0.075
       0.212
       0.505
       0.221
      -0.799
      -2.058
      -2.711
      -2.371
      -1.611
      -1.346
      -1.615
      -1.359
       0.247
       2.472
       3.535
       2.466
       0.131
      -1.642
      -1.732
      -0.505
       0.825
       1.384
       1.129
       0.480
      -0.134
      -0.408
      -0.289
      -0.085
      -0.185
      -0.647
      -1.218
      -1.663
      -1.807
      -1.411
      -0.427
       0.668
       1.161
       0.842
       0.165
      -0.401
      -0.924
      -1.747
      -2.745
      -3.039
      -1.656
       1.308
       4.231
       5.025
       3.040
      -0.116
      -1.966
      -1.520
      -0.040
       0.596
      -0.001
      -0.560
       0.125
       1.710
       2.699
       2.111
       0.491
      -0.761
      -0.905
      -0.508
      -0.563
      -1.202
      -1.522
      -0.679
       1.066
       2.520
       2.640
       1.328
      -0.641
      -2.209
      -2.699
      -2.240
      -1.543
      -1.102
      -0.739
      -0.074
       0.725
       0.944
       0.132
      -1.187
      -1.813
      -1.005
       0.734
       2.190
       2.641
       2.279
       1.568
       0.632
      -0.545
      -1.637
      -2.016
      -1.280
       0.325
       1.891
       2.319
       1.218
      -0.507
      -1.374
      -0.836
       0.225
       0.728
       0.719
       1.066
       1.966
       2.316
       0.893
      -2.000
      -4.432
      -4.580
      -2.388
       0.571
       2.594
       3.005
       2.215
       1.114
       0.383
       0.060
      -0.298
      -0.871
      -1.065
      -0.038
       2.141
       4.059
       3.951
       1.261
      -2.745
      -5.849
      -6.386
      -4.186
      -0.515
       2.723
       4.056
       3.299
       1.496
      -0.100
      -0.980
      -1.284
      -1.114
      -0.452
       0.313
       0.442
      -0.154
      -0.496
       0.244
       1.419
       1.525
       0.074
      -1.724
      -2.273
      -1.184
       0.532
       1.552
       1.300
       0.153
      -1.039
      -1.582
      -1.284
      -0.457
       0.298
       0.426
      -0.139
      -0.740
      -0.490
       0.691
       1.738
       1.461
      -0.138
      -1.770
      -2.106
      -1.018
       0.423
       1.054
       0.656
      -0.049
      -0.304
      -0.074
       0.158
       0.172
       0.244
       0.546
       0.688
       0.195
      -0.790
      -1.647
      -1.997
      -1.925
      -1.569
      -0.842
       0.267
       1.319
       1.601
       0.845
      -0.317
      -0.869
      -0.453
       0.328
       0.792
       0.989
       1.318
       1.655
       1.431
       0.563
      -0.251
      -0.360
       0.099
       0.504
       0.453
      -0.114
      -1.108
      -2.155
      -2.471
      -1.453
       0.487
       2.101
       2.543
       2.136
       1.638
       1.100
      -0.031
      -1.774
