Origin Time       20/06/2011 06:27:18
Lat.              30.5 N	
Long.             79.4 E	
Depth (Km)         12.0
Magnitude         4.6
 Region           Chamoli-Uttarakhand                                              
 Above details taken from IMD 
     
Station Code      RIS
Station Lat.       30.116  N
Station Long.      78.281  E
Station Height(m)  406.0
Site Class        C   Vs30 between 200 m/sec to 375 m/sec *  
Record Time       20.06.2011 06:27:37.604
Sampling Rate     200. Hz
 Record Duration   66.990 Sec.
 Direction         E-W (E positive)
Max. Acceleration      5.470 cm/sec**2
     
  * For reference see Site Classification link of website 
     
 Base Line Corrected and Low Pass Filtered (Cut Off at 35 Hz) Time History
 Acceleration data in cm/sec**2
    
[...]
       0.179
       0.209
       0.226
       0.231
       0.228
       0.231
       0.248
       0.280
       0.318
       0.345
       0.346
       0.313
       0.250
       0.168
       0.082
       0.009
      -0.040
      -0.054
      -0.034
       0.013
       0.070
       0.113
       0.121
       0.083
       0.000
      -0.108
      -0.212
      -0.287
      -0.321
      -0.316
      -0.290
      -0.259
      -0.234
      -0.219
      -0.215
      -0.218
      -0.224
      -0.226
      -0.217
      -0.201
      -0.185
      -0.173
      -0.165
      -0.157
      -0.143
      -0.123
      -0.102
      -0.087
      -0.078
      -0.073
      -0.064
      -0.051
      -0.043
      -0.053
      -0.083
      -0.126
      -0.168
      -0.198
      -0.211
      -0.211
      -0.202
      -0.181
      -0.143
      -0.080
       0.008
       0.115
       0.221
       0.296
       0.317
       0.277
       0.197
       0.115
       0.071
       0.088
       0.167
       0.281
       0.397
       0.483
       0.523
       0.517
       0.477
       0.420
       0.359
       0.307
       0.274
       0.268
       0.294
       0.345
       0.401
       0.435
       0.426
       0.370
       0.275
       0.161
       0.050
      -0.043
      -0.112
      -0.162
      -0.202
      -0.240
      -0.281
      -0.325
      -0.372
      -0.419
      -0.459
      -0.484
      -0.488
      -0.469
      -0.433
      -0.388
      -0.336
      -0.275
      -0.205
      -0.131
      -0.065
      -0.019
       0.000
      -0.005
      -0.026
      -0.055
      -0.081
      -0.094
      -0.088
      -0.066
      -0.041
      -0.024
      -0.020
      -0.025
      -0.028
      -0.017
       0.018
       0.074
       0.141
       0.205
       0.253
       0.276
       0.268
       0.229
       0.165
       0.095
       0.039
       0.016
       0.032
       0.076
       0.127
       0.162
       0.168
       0.140
       0.084
       0.008
      -0.072
      -0.137
      -0.167
      -0.154
      -0.108
      -0.054
      -0.020
      -0.022
      -0.059
      -0.121
      -0.196
      -0.268
      -0.318
      -0.332
      -0.304
      -0.242
      -0.165
      -0.094
      -0.044
      -0.018
      -0.011
      -0.011
      -0.009
       0.000
       0.014
       0.024
       0.017
      -0.012
      -0.057
      -0.099
      -0.116
      -0.094
      -0.035
       0.039
       0.101
       0.131
       0.128
       0.101
       0.060
       0.014
      -0.033
      -0.077
      -0.115
      -0.144
      -0.170
      -0.201
      -0.246
      -0.303
      -0.361
      -0.400
      -0.404
      -0.368
      -0.299
      -0.213
      -0.133
      -0.081
      -0.066
      -0.088
      -0.133
      -0.176
      -0.189
      -0.148
      -0.045
       0.108
       0.282
       0.440
       0.551
       0.597
       0.580
       0.521
       0.447
       0.386
       0.347
       0.327
       0.312
       0.289
       0.257
       0.221
       0.194
       0.182
       0.188
       0.206
       0.228
       0.245
       0.255
       0.263
       0.278
       0.301
       0.320
       0.312
       0.257
       0.159
       0.046
      -0.045
      -0.089
      -0.090
      -0.070
      -0.058
      -0.073
      -0.111
      -0.152
      -0.176
      -0.176
      -0.163
      -0.158
      -0.182
      -0.235
      -0.300
      -0.347
      -0.353
      -0.316
      -0.254
      -0.191
      -0.141
      -0.108
      -0.087
      -0.081
      -0.098
      -0.149
      -0.229
      -0.317
      -0.380
      -0.395
      -0.361
      -0.298
      -0.237
      -0.204
      -0.207
      -0.238
      -0.275
      -0.302
      -0.308
      -0.292
      -0.256
      -0.202
      -0.132
      -0.053
       0.029
       0.106
       0.176
       0.242
       0.301
       0.348
       0.377
       0.394
       0.407
       0.426
       0.447
       0.462
       0.462
       0.449
       0.434
       0.430
       0.440
       0.458
       0.473
       0.476
       0.462
       0.431
       0.386
       0.329
       0.264
       0.197
       0.133
       0.070
       0.003
      -0.072
      -0.156
      -0.234
      -0.293
      -0.320
      -0.314
      -0.287
      -0.258
      -0.245
      -0.255
      -0.284
      -0.320
      -0.351
      -0.371
      -0.377
      -0.371
      -0.358
      -0.338
      -0.313
      -0.282
      -0.243
      -0.191
      -0.120
      -0.035
       0.052
       0.122
       0.162
       0.168
       0.141
       0.088
       0.018
      -0.060
      -0.129
      -0.176
      -0.185
      -0.156
      -0.103
      -0.049
      -0.014
      -0.004
      -0.010
      -0.016
      -0.012
       0.007
       0.040
       0.087
       0.151
       0.237
       0.347
       0.482
       0.629
       0.769
       0.873
       0.915
       0.889
       0.809
       0.703
       0.592
       0.487
       0.384
       0.278
       0.171
       0.071
      -0.016
      -0.089
      -0.155
      -0.219
      -0.282
      -0.344
      -0.402
      -0.458
      -0.519
      -0.593
      -0.680
      -0.766
      -0.834
      -0.869
      -0.866
      -0.835
      -0.788
      -0.743
      -0.706
      -0.674
      -0.638
      -0.594
      -0.540
      -0.478
      -0.413
      -0.348
      -0.283
      -0.217
      -0.148
      -0.074
       0.006
       0.095
       0.194
       0.304
       0.423
       0.544
       0.655
       0.743
       0.795
       0.805
       0.773
       0.713
       0.642
       0.578
       0.525
       0.473
       0.410
       0.333
       0.252
       0.181
       0.128
       0.095
       0.077
       0.068
       0.056
       0.030
      -0.019
      -0.088
      -0.161
      -0.214
      -0.232
      -0.213
      -0.170
      -0.121
      -0.082
      -0.059
      -0.050
      -0.044
      -0.034
      -0.022
      -0.021
      -0.050
      -0.116
      -0.209
      -0.302
      -0.367
      -0.391
      -0.375
      -0.338
      -0.299
      -0.268
      -0.249
      -0.233
      -0.211
      -0.173
      -0.115
      -0.040
       0.050
       0.146
       0.243
       0.334
       0.409
       0.456
       0.463
       0.431
       0.380
       0.336
       0.318
       0.328
       0.355
       0.384
       0.409
       0.421
       0.408
       0.355
       0.254
       0.114
      -0.042
      -0.192
      -0.322
      -0.427
      -0.501
      -0.538
      -0.536
      -0.499
      -0.447
      -0.398
      -0.366
      -0.350
      -0.343
      -0.339
      -0.336
      -0.330
      -0.316
      -0.287
      -0.239
      -0.179
      -0.115
      -0.058
      -0.016
       0.014
       0.037
       0.058
       0.076
       0.087
       0.085
       0.066
       0.030
      -0.016
      -0.060
      -0.086
      -0.086
      -0.062
      -0.026
       0.007
       0.029
       0.048
       0.074
       0.114
       0.160
       0.205
       0.245
       0.280
       0.310
       0.333
       0.342
       0.337
       0.322
       0.310
       0.309
       0.323
       0.342
       0.356
       0.354
       0.337
       0.310
       0.283
       0.261
       0.247
       0.238
       0.228
       0.214
       0.190
       0.154
       0.109
       0.058
       0.000
      -0.070
      -0.157
      -0.253
      -0.344
      -0.416
      -0.458
      -0.473
      -0.468
      -0.450
      -0.426
      -0.401
      -0.383
      -0.383
      -0.404
      -0.442
      -0.485
      -0.520
      -0.533
      -0.515
      -0.464
      -0.394
      -0.324
      -0.272
      -0.243
      -0.230
      -0.216
      -0.192
      -0.156
      -0.115
      -0.073
      -0.020
       0.057
       0.164
       0.293
       0.422
       0.524
       0.580
       0.592
       0.578
       0.566
       0.573
       0.601
       0.633
       0.653
       0.653
       0.633
       0.602
       0.565
       0.520
       0.461
       0.383
       0.292
       0.204
       0.136
       0.102
       0.102
       0.126
       0.157
       0.187
       0.216
       0.246
       0.274
       0.294
       0.300
       0.295
       0.285
       0.272
       0.257
       0.235
       0.210
       0.185
       0.164
       0.146
       0.123
       0.089
       0.044
      -0.003
      -0.032
      -0.030
       0.003
       0.052
       0.098
       0.127
       0.134
       0.122
       0.095
       0.056
       0.006
      -0.048
      -0.094
      -0.119
      -0.114
      -0.087
      -0.059
      -0.056
      -0.105
      -0.208
      -0.346
      -0.484
      -0.594
      -0.661
      -0.694
      -0.705
      -0.703
      -0.688
      -0.650
      -0.587
      -0.512
      -0.444
      -0.403
      -0.399
      -0.431
      -0.491
      -0.568
      -0.651
      -0.739
      -0.833
      -0.933
      -1.030
      -1.114
      -1.174
      -1.214
      -1.243
      -1.270
      -1.297
      -1.320
      -1.335
      -1.343
      -1.347
      -1.339
      -1.309
      -1.247
      -1.149
      -1.015
      -0.850
      -0.659
      -0.444
      -0.203
       0.067
       0.361
       0.666
       0.959
       1.220
       1.437
       1.612
       1.763
       1.910
       2.070
       2.247
       2.435
       2.626
       2.809
       2.977
       3.116
       3.210
       3.241
       3.195
       3.074
       2.899
       2.700
       2.503
       2.324
       2.163
       2.008
       1.845
       1.658
       1.436
       1.163
       0.829
       0.437
       0.007
      -0.426
      -0.834
      -1.203
      -1.542
      -1.870
      -2.190
      -2.491
      -2.748
      -2.939
      -3.061
      -3.126
      -3.154
      -3.162
      -3.158
      -3.137
      -3.089
      -3.011
      -2.911
      -2.803
      -2.694
      -2.575
      -2.426
      -2.228
      -1.981
      -1.704
      -1.427
      -1.179
      -0.974
      -0.819
      -0.713
      -0.649
      -0.613
      -0.588
      -0.558
      -0.517
      -0.458
      -0.378
      -0.275
      -0.149
      -0.009
       0.131
       0.253
       0.341
       0.386
       0.393
       0.378
       0.374
       0.405
       0.484
       0.592
       0.699
       0.776
       0.810
       0.813
       0.809
       0.821
       0.858
       0.914
       0.971
       1.017
       1.052
       1.089
       1.149
       1.240
       1.358
       1.486
       1.607
       1.719
       1.833
       1.969
       2.139
       2.340
       2.550
       2.742
       2.896
       3.003
       3.061
       3.073
       3.044
       2.982
       2.897
       2.795
       2.680
       2.557
       2.426
       2.286
       2.127
       1.935
       1.695
       1.401
       1.056
       0.680
       0.295
      -0.077
      -0.419
      -0.722
      -0.986
      -1.222
      -1.453
      -1.698
      -1.967
      -2.254
      -2.542
      -2.808
      -3.038
      -3.226
      -3.373
      -3.476
      -3.527
      -3.513
      -3.430
      -3.288
      -3.113
      -2.936
      -2.781
      -2.652
      -2.535
      -2.415
      -2.280
      -2.135
      -1.983
      -1.826
      -1.653
      -1.449
      -1.203
      -0.922
      -0.629
      -0.359
      -0.141
       0.008
       0.093
       0.132
       0.149
       0.163
       0.191
       0.241
       0.314
       0.392
       0.453
       0.478
       0.468
       0.440
       0.417
       0.420
       0.456
       0.525
       0.616
       0.709
       0.785
       0.827
       0.832
       0.818
       0.808
       0.819
       0.853
       0.898
       0.941
       0.967
       0.966
       0.934
       0.874
       0.803
       0.748
       0.733
       0.769
       0.850
       0.963
       1.100
       1.259
       1.441
       1.647
       1.868
       2.094
       2.315
       2.524
       2.714
       2.870
       2.971
       3.000
       2.957
       2.861
       2.744
       2.628
       2.515
       2.387
       2.214
       1.977
       1.676
       1.334
       0.983
       0.640
       0.304
      -0.047
      -0.434
      -0.859
      -1.304
      -1.738
      -2.139
      -2.497
      -2.814
      -3.091
      -3.319
      -3.479
      -3.548
      -3.514
      -3.383
      -3.177
      -2.930
      -2.670
      -2.415
      -2.164
      -1.902
      -1.612
      -1.289
      -0.937
      -0.576
      -0.235
       0.063
       0.302
       0.481
       0.602
       0.671
       0.700
       0.699
       0.669
       0.600
       0.478
       0.301
       0.088
      -0.123
      -0.297
      -0.418
      -0.493
      -0.543
      -0.593
      -0.657
      -0.744
      -0.851
      -0.964
      -1.069
      -1.156
      -1.229
      -1.295
      -1.350
      -1.383
      -1.380
      -1.333
      -1.249
      -1.142
      -1.026
      -0.900
      -0.760
      -0.601
      -0.427
      -0.247
      -0.073
       0.083
       0.212
       0.306
       0.360
       0.365
       0.313
       0.212
       0.079
      -0.064
      -0.209
      -0.371
      -0.572
      -0.824
      -1.118
      -1.425
      -1.717
      -1.980
      -2.213
      -2.413
      -2.567
      -2.655
      -2.666
      -2.598
      -2.461
      -2.267
      -2.020
      -1.716
      -1.343
      -0.896
      -0.382
       0.176
       0.755
       1.337
       1.905
       2.445
       2.941
       3.378
       3.749
       4.056
       4.311
       4.530
       4.722
       4.887
       5.023
       5.129
       5.213
       5.284
       5.351
       5.411
       5.456
       5.470
       5.435
       5.332
       5.155
       4.919
       4.650
       4.366
       4.065
       3.728
       3.339
       2.891
       2.392
       1.853
       1.285
       0.694
       0.087
      -0.524
      -1.119
      -1.675
      -2.173
      -2.604
      -2.958
      -3.222
      -3.385
      -3.439
      -3.399
      -3.291
      -3.144
      -2.978
      -2.802
      -2.623
      -2.444
      -2.268
      -2.099
      -1.946
      -1.816
      -1.704
      -1.604
      -1.515
      -1.458
      -1.464
      -1.549
      -1.702
      -1.883
      -2.050
      -2.183
      -2.286
      -2.372
      -2.449
      -2.509
      -2.540
      -2.530
      -2.477
      -2.387
      -2.275
      -2.156
      -2.044
      -1.942
      -1.851
      -1.767
      -1.699
      -1.659
      -1.661
      -1.703
      -1.766
      -1.825
      -1.866
      -1.887
      -1.897
      -1.905
      -1.917
      -1.920
      -1.895
      -1.824
      -1.708
      -1.563
      -1.411
      -1.262
      -1.112
      -0.943
      -0.737
      -0.488
      -0.204
       0.096
       0.391
       0.665
       0.904
       1.105
       1.269
       1.398
       1.499
       1.588
       1.682
       1.797
       1.938
       2.099
       2.266
       2.421
       2.549
       2.643
       2.699
       2.721
       2.719
       2.707
       2.698
       2.697
       2.704
       2.716
       2.729
       2.744
       2.752
       2.740
       2.691
       2.590
       2.432
       2.223
       1.989
       1.765
       1.592
       1.489
       1.454
       1.459
       1.475
       1.481
       1.477
       1.474
       1.475
       1.468
       1.429
       1.347
       1.233
       1.118
       1.031
       0.978
       0.943
       0.898
       0.821
       0.703
       0.544
       0.349
       0.121
      -0.136
      -0.419
      -0.715
      -1.005
      -1.268
      -1.492
      -1.679
      -1.834
      -1.957
      -2.048
      -2.100
      -2.112
      -2.090
      -2.054
      -2.034
      -2.060
      -2.152
      -2.314
      -2.534
      -2.801
      -3.104
      -3.432
      -3.764
      -4.068
      -4.304
      -4.450
      -4.508
      -4.500
      -4.448
      -4.353
      -4.191
      -3.925
      -3.522
      -2.970
      -2.279
      -1.481
      -0.625
       0.235
       1.052
       1.795
       2.448
       3.004
       3.461
       3.823
       4.105
       4.329
       4.517
       4.669
       4.765
       4.777
       4.693
       4.526
       4.304
       4.052
       3.769
       3.444
       3.065
       2.641
       2.194
       1.745
       1.304
       0.861
       0.403
      -0.083
      -0.590
      -1.091
      -1.547
      -1.923
      -2.199
      -2.388
      -2.526
      -2.644
      -2.752
      -2.833
      -2.866
      -2.840
      -2.765
      -2.661
      -2.540
      -2.402
      -2.239
      -2.040
      -1.799
      -1.519
      -1.221
      -0.941
      -0.714
      -0.555
      -0.453
      -0.379
      -0.309
      -0.229
      -0.139
      -0.042
       0.062
       0.179
       0.320
       0.491
       0.688
       0.904
       1.136
       1.388
       1.668
       1.977
       2.308
       2.644
       2.964
       3.243
       3.461
       3.604
       3.670
       3.676
       3.646
       3.598
       3.530
       3.423
       3.255
       3.012
       2.696
       2.322
       1.906
       1.461
       0.994
       0.514
       0.032
      -0.453
      -0.948
      -1.465
      -2.002
      -2.537
      -3.034
      -3.457
      -3.788
      -4.021
      -4.162
      -4.215
      -4.180
      -4.063
      -3.885
      -3.682
      -3.493
      -3.339
      -3.217
      -3.096
      -2.943
      -2.735
      -2.468
      -2.149
      -1.790
      -1.398
      -0.982
      -0.553
      -0.130
       0.254
       0.571
       0.801
       0.945
       1.012
       1.021
       0.994
       0.952
       0.917
       0.913
       0.957
       1.057
       1.201
       1.356
       1.482
       1.544
       1.524
       1.427
       1.280
       1.128
       1.019
       0.990
       1.053
       1.194
       1.388
       1.606
       1.828
       2.045
       2.244
       2.413
       2.534
       2.593
       2.582
       2.497
       2.335
       2.087
       1.744
       1.314
       0.820
       0.293
      -0.241
      -0.774
      -1.304
      -1.822
      -2.315
      -2.768
      -3.174
      -3.529
      -3.827
      -4.049
      -4.161
      -4.135
      -3.966
      -3.679
      -3.319
      -2.929
      -2.529
      -2.119
      -1.687
      -1.232
      -0.765
      -0.305
       0.126
       0.513
       0.840
       1.095
       1.276
       1.381
       1.414
       1.376
       1.264
       1.081
       0.840
       0.565
       0.288
       0.034
      -0.186
      -0.360
      -0.472
      -0.495
      -0.402
      -0.182
       0.164
       0.616
       1.153
       1.742
       2.350
       2.934
       3.450
       3.860
       4.139
       4.280
       4.288
       4.173
       3.947
       3.617
       3.195
       2.697
       2.152
       1.587
       1.026
       0.482
      -0.042
      -0.545
      -1.024
      -1.475
      -1.890
      -2.257
      -2.562
      -2.790
      -2.937
      -3.004
      -2.999
      -2.929
      -2.801
      -2.624
      -2.417
      -2.210
      -2.029
      -1.882
      -1.749
      -1.595
      -1.386
      -1.105
      -0.764
      -0.386
       0.000
       0.367
       0.700
       0.992
       1.245
       1.457
       1.619
       1.713
       1.717
       1.619
       1.422
       1.147
       0.835
       0.524
       0.245
       0.007
      -0.195
      -0.372
      -0.534
      -0.684
      -0.821
      -0.937
      -1.027
      -1.086
