Origin Time       20/06/2011 06:27:18
Lat.              30.5 N	
Long.             79.4 E	
Depth (Km)         12.0
Magnitude         4.6
 Region           Chamoli-Uttarakhand                                              
 Above details taken from IMD 
   
Station Code      RIS
Station Lat.       30.116
Station Long.      78.281
Station Height(m)  406.0
Site Class        C   Vs30 between 200 m/sec to 375 m/sec *  
Record Time       20.06.2011 06:27:37.604
Sampling Rate     200. Hz
 Record Duration   66.990 Sec.
 Direction         Vert. (Up positive)
Max. Acceleration     -2.964 cm/sec**2
     
  * For reference see Site Classification link of website 
     
 Base Line Corrected and Low Pass Filtered (Cut Off at 35 Hz) Time History
 Acceleration data in cm/sec**2
    
[...]
      -0.036
       0.001
       0.057
       0.094
       0.084
       0.022
      -0.078
      -0.194
      -0.306
      -0.401
      -0.469
      -0.492
      -0.462
      -0.386
      -0.291
      -0.208
      -0.158
      -0.137
      -0.131
      -0.130
      -0.139
      -0.166
      -0.217
      -0.280
      -0.335
      -0.357
      -0.329
      -0.244
      -0.112
       0.042
       0.195
       0.326
       0.421
       0.464
       0.432
       0.310
       0.104
      -0.150
      -0.393
      -0.561
      -0.607
      -0.522
      -0.338
      -0.115
       0.095
       0.262
       0.388
       0.489
       0.571
       0.628
       0.645
       0.607
       0.508
       0.348
       0.137
      -0.101
      -0.324
      -0.483
      -0.545
      -0.498
      -0.369
      -0.206
      -0.060
       0.038
       0.086
       0.109
       0.132
       0.165
       0.201
       0.225
       0.232
       0.224
       0.203
       0.157
       0.079
      -0.027
      -0.143
      -0.247
      -0.320
      -0.347
      -0.323
      -0.253
      -0.150
      -0.028
       0.103
       0.242
       0.385
       0.509
       0.582
       0.578
       0.496
       0.363
       0.207
       0.051
      -0.087
      -0.180
      -0.193
      -0.099
       0.101
       0.364
       0.623
       0.801
       0.843
       0.735
       0.504
       0.209
      -0.091
      -0.352
      -0.559
      -0.711
      -0.808
      -0.850
      -0.831
      -0.746
      -0.593
      -0.381
      -0.127
       0.148
       0.419
       0.655
       0.824
       0.893
       0.850
       0.710
       0.513
       0.302
       0.100
      -0.090
      -0.274
      -0.440
      -0.563
      -0.616
      -0.600
      -0.550
      -0.519
      -0.548
      -0.638
      -0.742
      -0.790
      -0.720
      -0.508
      -0.179
       0.210
       0.599
       0.937
       1.190
       1.322
       1.306
       1.134
       0.834
       0.464
       0.097
      -0.207
      -0.419
      -0.540
      -0.595
      -0.614
      -0.620
      -0.627
      -0.629
      -0.611
      -0.555
      -0.447
      -0.296
      -0.128
       0.014
       0.087
       0.070
      -0.026
      -0.161
      -0.288
      -0.371
      -0.404
      -0.400
      -0.378
      -0.347
      -0.300
      -0.219
      -0.091
       0.071
       0.231
       0.338
       0.351
       0.254
       0.071
      -0.151
      -0.361
      -0.520
      -0.614
      -0.636
      -0.583
      -0.441
      -0.203
       0.120
       0.486
       0.843
       1.137
       1.334
       1.410
       1.355
       1.167
       0.871
       0.518
       0.176
      -0.097
      -0.274
      -0.361
      -0.382
      -0.363
      -0.317
      -0.248
      -0.154
      -0.039
       0.083
       0.193
       0.272
       0.309
       0.308
       0.282
       0.245
       0.198
       0.134
       0.049
      -0.050
      -0.146
      -0.231
      -0.306
      -0.375
      -0.430
      -0.453
      -0.432
      -0.368
      -0.277
      -0.175
      -0.072
       0.029
       0.126
       0.211
       0.274
       0.305
       0.287
       0.210
       0.079
      -0.087
      -0.257
      -0.400
      -0.485
      -0.487
      -0.400
      -0.245
      -0.068
       0.084
       0.188
       0.257
       0.325
       0.422
       0.543
       0.648
       0.677
       0.580
       0.349
       0.022
      -0.322
      -0.598
      -0.748
      -0.753
      -0.630
      -0.415
      -0.151
       0.117
       0.349
       0.518
       0.612
       0.621
       0.530
       0.328
       0.025
      -0.327
      -0.653
      -0.883
      -0.981
      -0.944
      -0.794
      -0.561
      -0.283
      -0.006
       0.222
       0.363
       0.400
       0.342
       0.220
       0.073
      -0.070
      -0.196
      -0.303
      -0.387
      -0.437
      -0.442
      -0.395
      -0.301
      -0.176
      -0.049
       0.044
       0.074
       0.034
      -0.054
      -0.149
      -0.213
      -0.219
      -0.156
      -0.023
       0.162
       0.358
       0.513
       0.584
       0.573
       0.514
       0.458
       0.434
       0.442
       0.454
       0.437
       0.367
       0.247
       0.112
       0.020
       0.021
       0.123
       0.291
       0.463
       0.592
       0.662
       0.680
       0.654
       0.580
       0.448
       0.257
       0.023
      -0.218
      -0.428
      -0.576
      -0.644
      -0.628
      -0.532
      -0.367
      -0.154
       0.074
       0.268
       0.384
       0.397
       0.311
       0.152
      -0.053
      -0.279
      -0.503
      -0.700
      -0.846
      -0.925
      -0.931
      -0.863
      -0.723
      -0.515
      -0.259
       0.012
       0.269
       0.489
       0.655
       0.743
       0.727
       0.601
       0.399
       0.184
       0.019
      -0.063
      -0.075
      -0.059
      -0.053
      -0.075
      -0.112
      -0.136
      -0.118
      -0.053
       0.030
       0.083
       0.063
      -0.042
      -0.214
      -0.420
      -0.628
      -0.818
      -0.968
      -1.058
      -1.075
      -1.010
      -0.857
      -0.608
      -0.257
       0.173
       0.623
       1.007
       1.240
       1.270
       1.096
       0.771
       0.384
       0.029
      -0.228
      -0.376
      -0.450
      -0.490
      -0.510
      -0.495
      -0.425
      -0.300
      -0.150
      -0.025
       0.028
      -0.016
      -0.138
      -0.276
      -0.349
      -0.295
      -0.097
       0.211
       0.565
       0.900
       1.170
       1.354
       1.452
       1.474
       1.427
       1.315
       1.140
       0.908
       0.647
       0.399
       0.207
       0.084
       0.006
      -0.069
      -0.175
      -0.317
      -0.473
      -0.617
      -0.722
      -0.764
      -0.729
      -0.621
      -0.465
      -0.297
      -0.147
      -0.026
       0.065
       0.127
       0.162
       0.172
       0.164
       0.138
       0.089
       0.016
      -0.077
      -0.181
      -0.292
      -0.418
      -0.568
      -0.736
      -0.892
      -0.991
      -0.991
      -0.863
      -0.612
      -0.271
       0.102
       0.451
       0.736
       0.944
       1.081
       1.162
       1.200
       1.202
       1.159
       1.041
       0.811
       0.454
       0.001
      -0.475
      -0.890
      -1.185
      -1.341
      -1.372
      -1.301
      -1.148
      -0.930
      -0.662
      -0.368
      -0.089
       0.126
       0.237
       0.236
       0.160
       0.077
       0.053
       0.123
       0.279
       0.481
       0.671
       0.803
       0.854
       0.822
       0.715
       0.536
       0.285
      -0.026
      -0.364
      -0.678
      -0.921
      -1.066
      -1.108
      -1.056
      -0.917
      -0.700
      -0.422
      -0.108
       0.207
       0.487
       0.709
       0.865
       0.961
       1.003
       0.984
       0.882
       0.677
       0.383
       0.039
      -0.302
      -0.611
      -0.876
      -1.091
      -1.230
      -1.258
      -1.147
      -0.893
      -0.524
      -0.092
       0.339
       0.714
       1.006
       1.216
       1.357
       1.434
       1.443
       1.388
       1.293
       1.193
       1.104
       1.008
       0.865
       0.639
       0.325
      -0.048
      -0.429
      -0.761
      -1.003
      -1.140
      -1.188
      -1.180
      -1.135
      -1.051
      -0.910
      -0.703
      -0.445
      -0.167
       0.099
       0.330
       0.511
       0.628
       0.667
       0.624
       0.512
       0.360
       0.210
       0.099
       0.040
       0.015
      -0.019
      -0.102
      -0.246
      -0.423
      -0.585
      -0.692
      -0.737
      -0.733
      -0.692
      -0.612
      -0.481
      -0.294
      -0.071
       0.151
       0.336
       0.465
       0.544
       0.595
       0.635
       0.651
       0.605
       0.465
       0.226
      -0.076
      -0.395
      -0.704
      -1.000
      -1.290
      -1.558
      -1.751
      -1.796
      -1.641
      -1.291
      -0.815
      -0.319
       0.109
       0.436
       0.696
       0.944
       1.213
       1.476
       1.672
       1.739
       1.648
       1.400
       1.015
       0.515
      -0.063
      -0.660
      -1.194
      -1.587
      -1.788
      -1.790
      -1.629
      -1.366
      -1.070
      -0.794
      -0.563
      -0.376
      -0.217
      -0.076
       0.047
       0.150
       0.233
       0.301
       0.350
       0.364
       0.331
       0.255
       0.163
       0.089
       0.051
       0.042
       0.040
       0.030
       0.015
       0.019
       0.061
       0.141
       0.238
       0.319
       0.369
       0.409
       0.487
       0.651
       0.909
       1.213
       1.469
       1.582
       1.495
       1.216
       0.817
       0.403
       0.067
      -0.152
      -0.276
      -0.356
      -0.436
      -0.525
      -0.604
      -0.643
      -0.626
      -0.543
      -0.396
      -0.200
       0.014
       0.204
       0.338
       0.400
       0.389
       0.306
       0.155
      -0.046
      -0.268
      -0.475
      -0.636
      -0.727
      -0.731
      -0.649
      -0.512
      -0.378
      -0.304
      -0.320
      -0.410
      -0.531
      -0.636
      -0.690
      -0.678
      -0.606
      -0.499
      -0.383
      -0.270
      -0.148
      -0.004
       0.157
       0.298
       0.377
       0.381
       0.335
       0.281
       0.251
       0.254
       0.285
       0.337
       0.395
       0.439
       0.448
       0.406
       0.307
       0.149
      -0.060
      -0.300
      -0.535
      -0.727
      -0.847
      -0.877
      -0.806
      -0.628
      -0.356
      -0.039
       0.239
       0.393
       0.379
       0.213
      -0.036
      -0.275
      -0.429
      -0.468
      -0.406
      -0.278
      -0.106
       0.116
       0.406
       0.753
       1.099
       1.354
       1.435
       1.320
       1.053
       0.729
       0.455
       0.304
       0.310
       0.459
       0.711
       1.004
       1.271
       1.446
       1.476
       1.342
       1.064
       0.698
       0.313
      -0.037
      -0.321
      -0.534
      -0.678
      -0.747
      -0.733
      -0.647
      -0.517
      -0.385
      -0.279
      -0.205
      -0.146
      -0.083
      -0.009
       0.065
       0.112
       0.110
       0.059
      -0.009
      -0.048
      -0.026
       0.046
       0.119
       0.137
       0.073
      -0.059
      -0.224
      -0.388
      -0.528
      -0.632
      -0.690
      -0.706
      -0.696
      -0.677
      -0.649
      -0.596
      -0.496
      -0.345
      -0.154
       0.050
       0.229
       0.343
       0.353
       0.247
       0.044
      -0.206
      -0.443
      -0.619
      -0.704
      -0.684
      -0.564
      -0.366
      -0.136
       0.079
       0.246
       0.356
       0.411
       0.410
       0.354
       0.248
       0.109
      -0.047
      -0.202
      -0.333
      -0.406
      -0.389
      -0.267
      -0.057
       0.201
       0.463
       0.689
       0.844
       0.907
       0.878
       0.777
       0.631
       0.454
       0.248
       0.018
      -0.207
      -0.381
      -0.467
      -0.467
      -0.419
      -0.369
      -0.342
      -0.336
      -0.332
      -0.318
      -0.297
      -0.282
      -0.277
      -0.276
      -0.264
      -0.218
      -0.120
       0.046
       0.283
       0.578
       0.898
       1.190
       1.391
       1.448
       1.341
       1.095
       0.781
       0.485
       0.277
       0.187
       0.199
       0.264
       0.328
       0.353
       0.334
       0.298
       0.274
       0.274
       0.283
       0.271
       0.219
       0.124
       0.011
      -0.084
      -0.131
      -0.124
      -0.077
      -0.014
       0.048
       0.101
       0.153
       0.221
       0.328
       0.487
       0.680
       0.847
       0.901
       0.774
       0.455
       0.016
      -0.426
      -0.761
      -0.940
      -0.980
      -0.946
      -0.903
      -0.883
      -0.881
      -0.876
      -0.863
      -0.862
      -0.903
      -1.001
      -1.139
      -1.278
      -1.385
      -1.450
      -1.494
      -1.550
      -1.638
      -1.750
      -1.852
      -1.905
      -1.885
      -1.787
      -1.625
      -1.425
      -1.210
      -0.995
      -0.786
      -0.586
      -0.405
      -0.254
      -0.137
      -0.042
       0.045
       0.130
       0.198
       0.229
       0.220
       0.197
       0.203
       0.266
       0.382
       0.514
       0.621
       0.686
       0.726
       0.768
       0.832
       0.906
       0.956
       0.942
       0.846
       0.689
       0.528
       0.423
       0.404
       0.449
       0.493
       0.469
       0.341
       0.133
      -0.087
      -0.238
      -0.268
      -0.174
       0.013
       0.243
       0.471
       0.656
       0.767
       0.794
       0.765
       0.738
       0.771
       0.884
       1.045
       1.193
       1.267
       1.239
       1.122
       0.967
       0.844
       0.803
       0.865
       1.022
       1.257
       1.556
       1.893
       2.213
       2.435
       2.487
       2.343
       2.039
       1.646
       1.237
       0.854
       0.510
       0.204
      -0.063
      -0.275
      -0.400
      -0.411
      -0.311
      -0.144
       0.022
       0.126
       0.136
       0.044
      -0.147
      -0.435
      -0.813
      -1.263
      -1.750
      -2.226
      -2.632
      -2.899
      -2.964
      -2.800
      -2.436
      -1.953
      -1.450
      -1.011
      -0.704
      -0.573
      -0.628
      -0.822
      -1.061
      -1.244
      -1.310
      -1.263
      -1.147
      -1.016
      -0.905
      -0.823
      -0.759
      -0.691
      -0.598
      -0.469
      -0.315
      -0.158
      -0.009
       0.139
       0.281
       0.391
       0.425
       0.357
       0.204
       0.018
      -0.152
      -0.286
      -0.393
      -0.490
      -0.586
      -0.673
      -0.747
      -0.812
      -0.878
      -0.951
      -1.024
      -1.071
      -1.063
      -0.973
      -0.800
      -0.570
      -0.322
      -0.083
       0.139
       0.355
       0.568
       0.765
       0.935
       1.085
       1.241
       1.416
       1.595
       1.739
       1.801
       1.751
       1.597
       1.377
       1.151
       0.973
       0.866
       0.824
       0.829
       0.871
       0.955
       1.080
       1.225
       1.362
       1.462
       1.506
       1.483
       1.397
       1.264
       1.103
       0.920
       0.703
       0.433
       0.112
      -0.230
      -0.546
      -0.796
      -0.955
      -1.010
      -0.945
      -0.754
      -0.453
      -0.099
       0.222
       0.421
       0.445
       0.301
       0.052
      -0.212
      -0.413
      -0.510
      -0.498
      -0.390
      -0.195
       0.074
       0.386
       0.679
       0.882
       0.942
       0.845
       0.616
       0.302
      -0.051
      -0.402
      -0.724
      -0.998
      -1.203
      -1.309
      -1.285
      -1.123
      -0.854
      -0.545
      -0.263
      -0.040
       0.147
       0.335
       0.530
       0.689
       0.739
       0.630
       0.366
       0.009
      -0.357
      -0.660
      -0.856
      -0.944
      -0.948
      -0.901
      -0.818
      -0.695
      -0.511
      -0.255
       0.061
       0.407
       0.739
       1.014
       1.197
       1.267
       1.222
       1.069
       0.825
       0.509
       0.155
      -0.194
      -0.497
      -0.727
      -0.877
      -0.956
      -0.978
      -0.959
      -0.917
      -0.857
      -0.776
      -0.670
      -0.549
      -0.436
      -0.358
      -0.331
      -0.357
      -0.423
      -0.514
      -0.617
      -0.726
      -0.832
      -0.920
      -0.970
      -0.959
      -0.872
      -0.706
      -0.467
      -0.176
       0.129
       0.390
       0.550
       0.582
       0.504
       0.372
       0.255
       0.220
       0.307
       0.528
       0.853
       1.222
       1.568
       1.850
       2.055
       2.192
       2.270
       2.283
       2.206
       2.016
       1.703
       1.289
       0.826
       0.381
       0.006
      -0.277
      -0.473
      -0.597
      -0.662
      -0.669
      -0.616
      -0.505
      -0.357
      -0.209
      -0.109
      -0.096
      -0.180
      -0.333
      -0.503
      -0.644
      -0.740
      -0.809
      -0.882
      -0.989
      -1.142
      -1.337
      -1.541
      -1.698
      -1.741
      -1.631
      -1.387
      -1.082
      -0.810
      -0.640
      -0.593
      -0.641
      -0.726
      -0.789
      -0.790
      -0.719
      -0.597
      -0.453
      -0.311
      -0.190
      -0.103
      -0.065
      -0.081
      -0.138
      -0.214
      -0.289
      -0.347
      -0.374
      -0.356
      -0.287
      -0.173
      -0.031
       0.122
       0.283
       0.451
       0.616
       0.766
       0.889
       0.983
       1.058
       1.125
       1.185
       1.225
       1.218
       1.136
       0.970
       0.741
       0.496
       0.285
       0.135
       0.041
      -0.023
      -0.078
      -0.131
      -0.172
      -0.178
      -0.135
      -0.044
       0.073
       0.190
       0.285
       0.354
       0.400
       0.424
       0.413
       0.356
       0.248
       0.105
      -0.044
      -0.173
      -0.264
      -0.311
      -0.312
      -0.269
      -0.186
      -0.068
       0.078
       0.247
       0.430
       0.624
       0.827
       1.028
       1.191
       1.257
       1.180
       0.962
       0.660
       0.344
       0.059
      -0.193
      -0.427
      -0.650
      -0.853
      -1.018
      -1.118
      -1.136
      -1.074
      -0.961
      -0.836
      -0.718
      -0.592
      -0.427
      -0.219
       0.004
       0.190
       0.300
       0.319
       0.260
       0.151
       0.030
      -0.071
      -0.144
      -0.212
      -0.310
      -0.458
      -0.641
      -0.830
      -0.991
      -1.108
      -1.168
      -1.160
      -1.077
      -0.923
      -0.714
      -0.463
      -0.168
       0.178
       0.578
       1.010
       1.425
       1.764
       1.974
       2.030
       1.951
       1.784
       1.578
       1.356
       1.114
       0.845
       0.577
       0.361
       0.242
       0.227
       0.278
       0.340
       0.370
       0.349
       0.287
       0.202
       0.111
       0.016
      -0.090
      -0.215
      -0.363
      -0.525
      -0.693
      -0.864
      -1.030
      -1.175
      -1.274
      -1.312
      -1.300
      -1.265
      -1.224
      -1.170
      -1.079
      -0.924
      -0.695
      -0.403
      -0.087
       0.191
       0.366
       0.401
       0.307
       0.140
      -0.034
      -0.158
      -0.203
      -0.161
      -0.049
       0.105
       0.271
       0.436
       0.601
       0.769
       0.927
       1.049
       1.116
       1.116
       1.046
       0.903
       0.695
       0.461
       0.264
       0.159
       0.161
       0.238
       0.324
       0.365
       0.342
       0.282
       0.231
       0.233
       0.297
       0.393
       0.475
       0.509
       0.479
       0.386
       0.227
       0.004
      -0.270
      -0.563
      -0.835
      -1.062
      -1.239
      -1.375
      -1.469
      -1.495
