Origin Time       20/06/2011 06:27:18 UTC
Lat.              30.5 N	
Long.             79.4 E	
Depth (Km)         12.0
Magnitude         4.6
 Region           Chamoli-Uttarakhand                                              
 Above details taken from IMD 
    
Station Code      RIS
Station Lat.       30.116  N
Station Long.      78.281  E
Station Height(m)  406.0
Site Class        C   Vs30 between 200 m/sec to 375 m/sec *  
Record Time       20.06.2011 06:27:37.604 UTC
Sampling Rate     200. Hz
 Record Duration   66.990 Sec.
 Direction         N-S (N positive)
Max. Acceleration      5.781 cm/sec**2
     
  * For reference see Site Classification link of website 
     
 Base Line Corrected and Low Pass Filtered (Cut Off at 35 Hz) Time History
 Acceleration data in cm/sec**2
    
[...]
       0.385
       0.293
       0.196
       0.108
       0.033
      -0.027
      -0.073
      -0.106
      -0.124
      -0.128
      -0.118
      -0.096
      -0.063
      -0.024
       0.016
       0.048
       0.064
       0.063
       0.049
       0.028
       0.008
      -0.009
      -0.020
      -0.026
      -0.032
      -0.041
      -0.057
      -0.079
      -0.105
      -0.132
      -0.158
      -0.186
      -0.215
      -0.241
      -0.254
      -0.244
      -0.209
      -0.161
      -0.123
      -0.111
      -0.125
      -0.146
      -0.145
      -0.109
      -0.045
       0.028
       0.087
       0.123
       0.135
       0.131
       0.118
       0.107
       0.103
       0.104
       0.100
       0.076
       0.028
      -0.031
      -0.077
      -0.094
      -0.077
      -0.035
       0.020
       0.072
       0.111
       0.128
       0.121
       0.095
       0.059
       0.021
      -0.016
      -0.050
      -0.081
      -0.111
      -0.136
      -0.153
      -0.154
      -0.133
      -0.094
      -0.054
      -0.027
      -0.019
      -0.021
      -0.017
       0.008
       0.058
       0.129
       0.212
       0.302
       0.396
       0.486
       0.561
       0.608
       0.620
       0.598
       0.551
       0.494
       0.434
       0.371
       0.294
       0.198
       0.089
      -0.024
      -0.127
      -0.208
      -0.260
      -0.285
      -0.295
      -0.305
      -0.326
      -0.354
      -0.368
      -0.352
      -0.301
      -0.231
      -0.162
      -0.108
      -0.066
      -0.033
      -0.010
      -0.003
      -0.018
      -0.052
      -0.093
      -0.130
      -0.156
      -0.171
      -0.184
      -0.200
      -0.218
      -0.227
      -0.209
      -0.159
      -0.088
      -0.018
       0.037
       0.075
       0.107
       0.139
       0.171
       0.196
       0.212
       0.214
       0.199
       0.164
       0.110
       0.046
      -0.016
      -0.065
      -0.098
      -0.119
      -0.134
      -0.146
      -0.153
      -0.154
      -0.154
      -0.166
      -0.202
      -0.264
      -0.333
      -0.379
      -0.378
      -0.324
      -0.232
      -0.134
      -0.057
      -0.010
       0.023
       0.062
       0.122
       0.198
       0.273
       0.328
       0.352
       0.342
       0.306
       0.257
       0.212
       0.187
       0.184
       0.191
       0.197
       0.196
       0.192
       0.187
       0.179
       0.157
       0.115
       0.052
      -0.025
      -0.104
      -0.171
      -0.215
      -0.235
      -0.233
      -0.224
      -0.222
      -0.233
      -0.257
      -0.281
      -0.291
      -0.279
      -0.246
      -0.202
      -0.155
      -0.113
      -0.082
      -0.068
      -0.074
      -0.095
      -0.117
      -0.128
      -0.130
      -0.137
      -0.164
      -0.211
      -0.255
      -0.270
      -0.248
      -0.201
      -0.155
      -0.127
      -0.119
      -0.121
      -0.121
      -0.112
      -0.092
      -0.058
      -0.007
       0.058
       0.134
       0.213
       0.287
       0.349
       0.398
       0.431
       0.452
       0.462
       0.466
       0.460
       0.444
       0.413
       0.367
       0.306
       0.235
       0.168
       0.116
       0.086
       0.076
       0.078
       0.082
       0.083
       0.076
       0.057
       0.026
      -0.007
      -0.028
      -0.026
       0.000
       0.043
       0.093
       0.138
       0.164
       0.154
       0.104
       0.023
      -0.069
      -0.156
      -0.222
      -0.260
      -0.262
      -0.230
      -0.177
      -0.126
      -0.093
      -0.085
      -0.091
      -0.097
      -0.090
      -0.071
      -0.054
      -0.052
      -0.069
      -0.098
      -0.123
      -0.136
      -0.135
      -0.129
      -0.116
      -0.090
      -0.041
       0.032
       0.118
       0.193
       0.243
       0.264
       0.271
       0.279
       0.299
       0.330
       0.367
       0.404
       0.433
       0.447
       0.441
       0.416
       0.378
       0.334
       0.296
       0.265
       0.241
       0.214
       0.175
       0.117
       0.043
      -0.036
      -0.109
      -0.166
      -0.207
      -0.239
      -0.274
      -0.323
      -0.387
      -0.461
      -0.530
      -0.578
      -0.600
      -0.601
      -0.591
      -0.581
      -0.573
      -0.562
      -0.542
      -0.511
      -0.476
      -0.445
      -0.422
      -0.396
      -0.349
      -0.261
      -0.131
       0.021
       0.160
       0.256
       0.299
       0.303
       0.290
       0.280
       0.287
       0.309
       0.340
       0.369
       0.387
       0.392
       0.391
       0.393
       0.404
       0.417
       0.415
       0.385
       0.328
       0.254
       0.178
       0.104
       0.029
      -0.054
      -0.140
      -0.219
      -0.280
      -0.314
      -0.319
      -0.303
      -0.275
      -0.251
      -0.240
      -0.238
      -0.236
      -0.233
      -0.239
      -0.264
      -0.305
      -0.342
      -0.356
      -0.340
      -0.309
      -0.281
      -0.268
      -0.264
      -0.255
      -0.229
      -0.189
      -0.150
      -0.124
      -0.115
      -0.113
      -0.100
      -0.066
      -0.008
       0.069
       0.154
       0.241
       0.324
       0.400
       0.467
       0.523
       0.567
       0.598
       0.621
       0.640
       0.659
       0.669
       0.655
       0.604
       0.515
       0.399
       0.270
       0.141
       0.014
      -0.113
      -0.238
      -0.358
      -0.464
      -0.547
      -0.597
      -0.603
      -0.563
      -0.484
      -0.380
      -0.267
      -0.159
      -0.067
      -0.001
       0.033
       0.036
       0.014
      -0.019
      -0.044
      -0.045
      -0.016
       0.035
       0.092
       0.146
       0.197
       0.246
       0.293
       0.331
       0.355
       0.367
       0.373
       0.371
       0.355
       0.319
       0.269
       0.220
       0.185
       0.166
       0.157
       0.150
       0.136
       0.110
       0.074
       0.034
      -0.007
      -0.049
      -0.103
      -0.182
      -0.283
      -0.386
      -0.464
      -0.499
      -0.499
      -0.485
      -0.478
      -0.485
      -0.500
      -0.511
      -0.508
      -0.482
      -0.424
      -0.326
      -0.187
      -0.026
       0.124
       0.229
       0.270
       0.255
       0.208
       0.158
       0.119
       0.096
       0.086
       0.087
       0.095
       0.101
       0.094
       0.069
       0.032
      -0.006
      -0.035
      -0.054
      -0.066
      -0.071
      -0.061
      -0.025
       0.039
       0.124
       0.212
       0.286
       0.337
       0.367
       0.382
       0.392
       0.401
       0.400
       0.374
       0.311
       0.220
       0.123
       0.044
      -0.012
      -0.058
      -0.112
      -0.177
      -0.247
      -0.312
      -0.370
      -0.425
      -0.474
      -0.508
      -0.518
      -0.503
      -0.466
      -0.413
      -0.348
      -0.272
      -0.191
      -0.111
      -0.040
       0.015
       0.050
       0.063
       0.059
       0.047
       0.036
       0.032
       0.034
       0.032
       0.021
       0.004
      -0.006
       0.003
       0.035
       0.081
       0.126
       0.157
       0.169
       0.170
       0.168
       0.166
       0.155
       0.125
       0.069
      -0.012
      -0.107
      -0.199
      -0.268
      -0.302
      -0.304
      -0.286
      -0.262
      -0.234
      -0.193
      -0.135
      -0.063
       0.012
       0.078
       0.129
       0.161
       0.171
       0.161
       0.140
       0.125
       0.128
       0.154
       0.195
       0.237
       0.267
       0.282
       0.286
       0.290
       0.295
       0.293
       0.273
       0.224
       0.150
       0.066
      -0.004
      -0.042
      -0.045
      -0.030
      -0.019
      -0.028
      -0.059
      -0.098
      -0.121
      -0.114
      -0.069
       0.004
       0.092
       0.179
       0.253
       0.309
       0.350
       0.388
       0.437
       0.503
       0.576
       0.638
       0.671
       0.671
       0.648
       0.615
       0.575
       0.522
       0.445
       0.345
       0.232
       0.125
       0.039
      -0.016
      -0.038
      -0.032
      -0.016
      -0.008
      -0.024
      -0.063
      -0.114
      -0.164
      -0.206
      -0.239
      -0.268
      -0.290
      -0.305
      -0.314
      -0.318
      -0.316
      -0.300
      -0.267
      -0.220
      -0.172
      -0.137
      -0.124
      -0.133
      -0.156
      -0.190
      -0.232
      -0.283
      -0.345
      -0.412
      -0.471
      -0.505
      -0.505
      -0.467
      -0.399
      -0.311
      -0.216
      -0.133
      -0.080
      -0.065
      -0.083
      -0.114
      -0.140
      -0.161
      -0.191
      -0.247
      -0.330
      -0.422
      -0.495
      -0.529
      -0.523
      -0.487
      -0.446
      -0.420
      -0.415
      -0.415
      -0.392
      -0.331
      -0.236
      -0.129
      -0.039
       0.023
       0.060
       0.085
       0.107
       0.128
       0.136
       0.122
       0.085
       0.038
       0.007
       0.010
       0.050
       0.117
       0.196
       0.282
       0.373
       0.466
       0.555
       0.628
       0.679
       0.712
       0.737
       0.766
       0.799
       0.831
       0.852
       0.860
       0.860
       0.859
       0.859
       0.853
       0.837
       0.810
       0.777
       0.742
       0.709
       0.677
       0.644
       0.609
       0.571
       0.531
       0.487
       0.444
       0.406
       0.377
       0.357
       0.342
       0.325
       0.299
       0.259
       0.200
       0.118
       0.010
      -0.122
      -0.275
      -0.447
      -0.638
      -0.844
      -1.056
      -1.259
      -1.436
      -1.568
      -1.641
      -1.653
      -1.618
      -1.565
      -1.528
      -1.524
      -1.550
      -1.591
      -1.637
      -1.688
      -1.751
      -1.830
      -1.918
      -1.998
      -2.058
      -2.095
      -2.114
      -2.123
      -2.117
      -2.081
      -1.998
      -1.857
      -1.658
      -1.413
      -1.132
      -0.826
      -0.501
      -0.168
       0.163
       0.480
       0.780
       1.063
       1.341
       1.618
       1.889
       2.137
       2.346
       2.506
       2.625
       2.718
       2.800
       2.882
       2.966
       3.042
       3.100
       3.126
       3.109
       3.043
       2.923
       2.754
       2.549
       2.328
       2.112
       1.917
       1.751
       1.610
       1.491
       1.391
       1.311
       1.248
       1.193
       1.138
       1.071
       0.985
       0.870
       0.715
       0.514
       0.274
       0.012
      -0.251
      -0.496
      -0.714
      -0.897
      -1.046
      -1.170
      -1.284
      -1.402
      -1.526
      -1.650
      -1.761
      -1.853
      -1.931
      -2.005
      -2.080
      -2.155
      -2.215
      -2.245
      -2.237
      -2.202
      -2.162
      -2.141
      -2.150
      -2.185
      -2.226
      -2.252
      -2.253
      -2.227
      -2.185
      -2.143
      -2.109
      -2.079
      -2.042
      -1.989
      -1.920
      -1.842
      -1.759
      -1.670
      -1.570
      -1.460
      -1.347
      -1.233
      -1.116
      -0.991
      -0.859
      -0.721
      -0.576
      -0.414
      -0.219
       0.019
       0.293
       0.586
       0.883
       1.169
       1.442
       1.703
       1.962
       2.221
       2.474
       2.697
       2.860
       2.950
       2.975
       2.963
       2.939
       2.912
       2.866
       2.773
       2.615
       2.393
       2.129
       1.853
       1.584
       1.325
       1.067
       0.804
       0.541
       0.295
       0.090
      -0.052
      -0.121
      -0.122
      -0.076
      -0.018
       0.027
       0.051
       0.066
       0.094
       0.146
       0.222
       0.314
       0.414
       0.521
       0.637
       0.765
       0.905
       1.052
       1.196
       1.324
       1.425
       1.486
       1.498
       1.464
       1.400
       1.325
       1.256
       1.200
       1.158
       1.117
       1.060
       0.966
       0.827
       0.648
       0.449
       0.245
       0.043
      -0.159
      -0.362
      -0.563
      -0.751
      -0.922
      -1.086
      -1.257
      -1.455
      -1.692
      -1.966
      -2.262
      -2.556
      -2.825
      -3.054
      -3.237
      -3.375
      -3.473
      -3.537
      -3.567
      -3.557
      -3.495
      -3.375
      -3.204
      -2.999
      -2.782
      -2.570
      -2.368
      -2.170
      -1.973
      -1.774
      -1.572
      -1.361
      -1.136
      -0.897
      -0.648
      -0.394
      -0.134
       0.142
       0.444
       0.784
       1.166
       1.588
       2.042
       2.513
       2.991
       3.464
       3.926
       4.364
       4.753
       5.063
       5.271
       5.367
       5.356
       5.244
       5.035
       4.726
       4.309
       3.780
       3.143
       2.422
       1.659
       0.897
       0.157
      -0.562
      -1.279
      -1.999
      -2.705
      -3.363
      -3.933
      -4.398
      -4.762
      -5.052
      -5.291
      -5.484
      -5.611
      -5.634
      -5.519
      -5.258
      -4.867
      -4.379
      -3.824
      -3.213
      -2.547
      -1.821
      -1.045
      -0.244
       0.550
       1.310
       2.029
       2.715
       3.377
       4.014
       4.602
       5.099
       5.468
       5.691
       5.781
       5.774
       5.702
       5.579
       5.399
       5.146
       4.809
       4.386
       3.883
       3.310
       2.678
       1.995
       1.275
       0.537
      -0.197
      -0.911
      -1.603
      -2.274
      -2.921
      -3.529
      -4.076
      -4.545
      -4.927
      -5.223
      -5.436
      -5.569
      -5.619
      -5.578
      -5.435
      -5.191
      -4.865
      -4.495
      -4.119
      -3.758
      -3.408
      -3.044
      -2.650
      -2.234
      -1.820
      -1.432
      -1.077
      -0.738
      -0.395
      -0.031
       0.347
       0.725
       1.092
       1.451
       1.815
       2.196
       2.588
       2.970
       3.320
       3.621
       3.877
       4.095
       4.281
       4.428
       4.529
       4.577
       4.577
       4.533
       4.453
       4.340
       4.196
       4.019
       3.806
       3.551
       3.246
       2.881
       2.442
       1.925
       1.343
       0.724
       0.100
      -0.504
      -1.078
      -1.619
      -2.128
      -2.599
      -3.016
      -3.352
      -3.578
      -3.681
      -3.664
      -3.545
      -3.346
      -3.076
      -2.739
      -2.337
      -1.879
      -1.389
      -0.891
      -0.401
       0.079
       0.549
       0.997
       1.400
       1.733
       1.983
       2.149
       2.239
       2.260
       2.211
       2.083
       1.865
       1.561
       1.188
       0.780
       0.364
      -0.051
      -0.475
      -0.917
      -1.367
      -1.796
      -2.180
      -2.505
      -2.768
      -2.960
      -3.064
      -3.072
      -2.996
      -2.864
      -2.702
      -2.521
      -2.322
      -2.108
      -1.888
      -1.681
      -1.504
      -1.368
      -1.264
      -1.175
      -1.083
      -0.983
      -0.888
      -0.814
      -0.764
      -0.719
      -0.651
      -0.540
      -0.387
      -0.209
      -0.029
       0.132
       0.255
       0.328
       0.349
       0.329
       0.283
       0.220
       0.131
      -0.001
      -0.185
      -0.413
      -0.660
      -0.893
      -1.089
      -1.234
      -1.325
      -1.352
      -1.300
      -1.145
      -0.874
      -0.496
      -0.043
       0.445
       0.936
       1.414
       1.868
       2.285
       2.646
       2.943
       3.183
       3.388
       3.581
       3.773
       3.964
       4.145
       4.303
       4.423
       4.488
       4.482
       4.396
       4.229
       3.988
       3.688
       3.347
       2.977
       2.588
       2.184
       1.767
       1.347
       0.937
       0.549
       0.189
      -0.147
      -0.467
      -0.777
      -1.089
      -1.413
      -1.765
      -2.151
      -2.564
      -2.986
      -3.402
      -3.806
      -4.190
      -4.535
      -4.809
      -4.986
      -5.048
      -4.994
      -4.827
      -4.555
      -4.189
      -3.742
      -3.231
      -2.673
      -2.086
      -1.481
      -0.862
      -0.233
       0.390
       0.984
       1.524
       2.002
       2.428
       2.817
       3.176
       3.491
       3.736
       3.890
       3.945
       3.913
       3.814
       3.670
       3.493
       3.285
       3.047
       2.790
       2.530
       2.280
       2.029
       1.749
       1.410
       0.998
       0.523
       0.012
      -0.507
      -1.009
      -1.477
      -1.899
      -2.265
      -2.565
      -2.791
      -2.936
      -3.004
      -3.001
      -2.927
      -2.775
      -2.534
      -2.206
      -1.811
      -1.390
      -0.989
      -0.652
      -0.410
      -0.280
      -0.254
      -0.309
      -0.409
      -0.528
      -0.652
      -0.778
      -0.906
      -1.031
      -1.152
      -1.271
      -1.395
      -1.534
      -1.684
      -1.825
      -1.929
      -1.973
      -1.947
      -1.859
      -1.718
      -1.531
      -1.297
      -1.011
      -0.663
      -0.245
       0.245
       0.790
       1.365
       1.943
       2.508
       3.045
       3.533
       3.943
       4.244
       4.416
       4.452
       4.363
       4.158
       3.839
       3.398
       2.839
       2.184
       1.483
       0.788
       0.145
      -0.422
      -0.902
      -1.293
      -1.597
      -1.814
      -1.941
      -1.965
      -1.891
      -1.745
      -1.580
      -1.448
      -1.373
      -1.340
      -1.311
      -1.248
      -1.138
      -0.991
      -0.835
      -0.689
      -0.549
      -0.393
      -0.204
       0.018
       0.248
       0.453
       0.609
       0.710
       0.765
       0.788
       0.786
       0.752
       0.664
       0.499
       0.250
      -0.066
      -0.413
      -0.756
      -1.068
      -1.330
      -1.527
      -1.661
      -1.741
      -1.785
      -1.802
      -1.784
      -1.707
      -1.542
      -1.265
      -0.878
      -0.405
       0.113
       0.628
       1.108
       1.538
       1.922
       2.268
       2.581
       2.855
       3.083
       3.258
       3.380
       3.459
       3.499
       3.489
       3.406
       3.220
       2.919
       2.519
       2.060
       1.577
       1.085
       0.573
       0.026
      -0.558
      -1.156
      -1.736
      -2.262
      -2.700
      -3.020
      -3.197
      -3.233
      -3.152
      -2.989
      -2.773
      -2.518
      -2.233
      -1.930
      -1.631
      -1.362
      -1.141
      -0.972
      -0.847
      -0.758
      -0.706
      -0.704
      -0.762
      -0.865
      -0.977
      -1.048
      -1.047
      -0.973
      -0.845
      -0.686
      -0.515
      -0.346
      -0.195
      -0.073
       0.017
       0.076
       0.110
       0.124
       0.124
       0.109
       0.078
       0.033
      -0.008
      -0.009
       0.063
       0.222
       0.446
       0.691
       0.915
       1.094
       1.223
       1.304
       1.338
       1.318
       1.244
       1.122
       0.965
       0.785
