Origin Time       07/05/2006 16:1:0  
Lat.              28.7 N 
Long.             76.6 E 
Depth (Km)         20.2
Magnitude         4.1
 Region           JHAJJAR-HARYANA                                                  
 Above details taken from IMD 
     
Station Code      ROH
Station Lat.       28.896  N
Station Long.      76.593  E
Station Height(m)  225.0
Site Class        C   Vs30 between 200 m/sec to 375 m/sec *  
Record Time       07.05.2006 16:00:53.059
Sampling Rate     200. Hz
 Record Duration   34.865 Sec.
 Direction         E-W (E positive)
Max. Acceleration      8.300 cm/sec**2
     
  * For reference see Site Classification link of website 
     
 Base Line Corrected and Low Pass Filtered (Cut Off at 35 Hz) Time History
 Acceleration data in cm/sec**2
    
[...]
       0.000
      -0.008
      -0.010
      -0.007
      -0.002
       0.004
       0.008
       0.010
       0.009
       0.004
      -0.001
      -0.008
      -0.012
      -0.011
      -0.005
      -0.001
      -0.004
      -0.013
      -0.019
      -0.018
      -0.008
       0.007
       0.019
       0.019
       0.008
      -0.002
      -0.003
       0.004
       0.009
       0.009
       0.003
      -0.001
      -0.002
       0.001
       0.003
       0.002
       0.000
       0.002
       0.011
       0.021
       0.025
       0.019
       0.010
       0.004
       0.002
       0.003
       0.004
       0.003
       0.000
       0.000
       0.006
       0.013
       0.017
       0.017
       0.013
       0.008
       0.001
      -0.004
      -0.009
      -0.013
      -0.018
      -0.018
      -0.011
       0.000
       0.010
       0.013
       0.008
       0.000
      -0.007
      -0.008
      -0.005
      -0.003
      -0.005
      -0.009
      -0.009
      -0.007
      -0.006
      -0.009
      -0.010
      -0.008
      -0.003
       0.003
       0.006
       0.005
       0.001
      -0.004
      -0.007
      -0.005
      -0.001
       0.005
       0.013
       0.020
       0.022
       0.019
       0.012
       0.006
       0.001
      -0.002
      -0.004
      -0.005
      -0.005
      -0.004
       0.001
       0.009
       0.013
       0.009
       0.000
      -0.011
      -0.021
      -0.028
      -0.029
      -0.020
      -0.007
       0.005
       0.009
       0.006
      -0.002
      -0.012
      -0.018
      -0.016
      -0.007
       0.004
       0.011
       0.013
       0.010
       0.005
       0.001
      -0.004
      -0.011
      -0.019
      -0.020
      -0.011
       0.003
       0.012
       0.011
       0.000
      -0.015
      -0.027
      -0.029
      -0.019
      -0.004
       0.005
       0.003
      -0.005
      -0.014
      -0.017
      -0.013
      -0.007
      -0.003
      -0.004
      -0.008
      -0.012
      -0.013
      -0.010
      -0.005
       0.000
       0.003
       0.003
       0.002
       0.004
       0.007
       0.009
       0.007
       0.001
      -0.006
      -0.013
      -0.017
      -0.017
      -0.018
      -0.024
      -0.035
      -0.039
      -0.028
      -0.005
       0.020
       0.033
       0.023
      -0.006
      -0.036
      -0.044
      -0.024
       0.013
       0.044
       0.049
       0.018
      -0.038
      -0.088
      -0.097
      -0.049
       0.039
       0.122
       0.151
       0.107
       0.019
      -0.050
      -0.058
      -0.020
       0.001
      -0.037
      -0.106
      -0.132
      -0.073
       0.033
       0.101
       0.078
      -0.011
      -0.088
      -0.102
      -0.068
      -0.041
      -0.053
      -0.080
      -0.073
      -0.016
       0.048
       0.063
       0.013
      -0.051
      -0.069
      -0.042
      -0.036
      -0.090
      -0.138
      -0.061
       0.169
       0.423
       0.522
       0.409
       0.181
      -0.032
      -0.191
      -0.333
      -0.467
      -0.511
      -0.370
      -0.061
       0.264
       0.415
       0.321
       0.075
      -0.154
      -0.260
      -0.241
      -0.159
      -0.071
      -0.008
       0.014
      -0.010
      -0.063
      -0.097
      -0.061
       0.055
       0.205
       0.312
       0.326
       0.261
       0.174
       0.110
       0.067
       0.001
      -0.103
      -0.199
      -0.220
      -0.165
      -0.126
      -0.185
      -0.304
      -0.332
      -0.158
       0.154
       0.383
       0.344
       0.060
      -0.246
      -0.336
      -0.161
       0.112
       0.260
       0.195
       0.016
      -0.109
      -0.097
       0.006
       0.110
       0.177
       0.240
       0.325
       0.394
       0.362
       0.182
      -0.099
      -0.361
      -0.490
      -0.446
      -0.263
      -0.015
       0.201
       0.276
       0.144
      -0.132
      -0.347
      -0.289
       0.061
       0.474
       0.632
       0.385
      -0.126
      -0.581
      -0.740
      -0.611
      -0.372
      -0.168
       0.007
       0.227
       0.489
       0.683
       0.704
       0.563
       0.361
       0.164
      -0.070
      -0.401
      -0.760
      -0.955
      -0.846
      -0.497
      -0.135
       0.058
       0.088
       0.083
       0.134
       0.215
       0.223
       0.078
      -0.192
      -0.420
      -0.392
      -0.036
       0.469
       0.801
       0.748
       0.367
      -0.077
      -0.317
      -0.233
       0.108
       0.526
       0.828
       0.911
       0.786
       0.543
       0.278
       0.047
      -0.135
      -0.265
      -0.339
      -0.363
      -0.382
      -0.482
      -0.732
      -1.086
      -1.359
      -1.328
      -0.904
      -0.206
       0.509
       0.997
       1.130
       0.926
       0.533
       0.161
      -0.037
      -0.063
      -0.038
      -0.045
      -0.026
       0.149
       0.488
       0.790
       0.780
       0.356
      -0.295
      -0.834
      -1.037
      -0.935
      -0.724
      -0.569
      -0.483
      -0.370
      -0.170
       0.050
       0.156
       0.109
       0.036
       0.114
       0.376
       0.660
       0.761
       0.599
       0.239
      -0.211
      -0.676
      -1.056
      -1.163
      -0.801
       0.013
       0.921
       1.414
       1.235
       0.600
       0.009
      -0.202
      -0.097
       0.035
       0.033
      -0.001
       0.105
       0.338
       0.483
       0.343
      -0.057
      -0.497
      -0.754
      -0.780
      -0.703
      -0.676
      -0.712
      -0.698
      -0.539
      -0.249
       0.100
       0.466
       0.784
       0.885
       0.575
      -0.113
      -0.805
      -1.028
      -0.617
       0.120
       0.667
       0.729
       0.439
       0.184
       0.239
       0.538
       0.759
       0.619
       0.128
      -0.413
      -0.661
      -0.496
      -0.083
       0.300
       0.478
       0.449
       0.300
       0.110
      -0.064
      -0.152
      -0.091
       0.072
       0.152
      -0.035
      -0.466
      -0.874
      -0.960
      -0.639
      -0.079
       0.479
       0.892
       1.116
       1.120
       0.880
       0.438
      -0.092
      -0.587
      -0.954
      -1.101
      -0.937
      -0.455
       0.164
       0.587
       0.553
       0.096
      -0.443
      -0.663
      -0.393
       0.188
       0.675
       0.700
       0.185
      -0.560
      -1.005
      -0.778
       0.028
       0.880
       1.213
       0.857
       0.108
      -0.558
      -0.848
      -0.776
      -0.542
      -0.353
      -0.293
      -0.299
      -0.215
       0.083
       0.548
       0.932
       0.941
       0.506
      -0.085
      -0.361
      -0.073
       0.542
       0.909
       0.601
      -0.266
      -1.098
      -1.298
      -0.744
       0.133
       0.711
       0.657
       0.127
      -0.423
      -0.625
      -0.438
      -0.101
       0.098
       0.034
      -0.193
      -0.347
      -0.225
       0.194
       0.714
       1.047
       1.016
       0.675
       0.247
      -0.073
      -0.260
      -0.443
      -0.742
      -1.115
      -1.357
      -1.266
      -0.803
      -0.109
       0.617
       1.251
       1.739
       2.024
       2.004
       1.618
       0.936
       0.116
      -0.705
      -1.461
      -2.076
      -2.392
      -2.243
      -1.610
      -0.699
       0.158
       0.689
       0.823
       0.699
       0.572
       0.673
       1.044
       1.462
       1.553
       1.063
       0.091
      -0.942
      -1.561
      -1.544
      -1.003
      -0.243
       0.432
       0.808
       0.764
       0.292
      -0.437
      -1.084
      -1.330
      -1.107
      -0.619
      -0.135
       0.238
       0.567
       0.912
       1.175
       1.170
       0.832
       0.336
      -0.027
      -0.099
       0.023
       0.105
       0.011
      -0.198
      -0.384
      -0.489
      -0.544
      -0.555
      -0.460
      -0.213
       0.137
       0.510
       0.879
       1.204
       1.300
       0.903
      -0.015
      -1.047
      -1.586
      -1.330
      -0.548
       0.165
       0.413
       0.270
       0.097
       0.143
       0.319
       0.333
       0.005
      -0.524
      -0.882
      -0.757
      -0.145
       0.656
       1.278
       1.514
       1.363
       0.915
       0.260
      -0.479
      -1.097
      -1.350
      -1.108
      -0.497
       0.133
       0.431
       0.316
       0.041
      -0.048
       0.135
       0.322
       0.172
      -0.331
      -0.806
      -0.818
      -0.289
       0.436
       0.907
       0.943
       0.691
       0.364
       0.004
      -0.486
      -1.103
      -1.601
      -1.652
      -1.163
      -0.411
       0.164
       0.312
       0.145
       0.008
       0.184
       0.683
       1.265
       1.636
       1.635
       1.294
       0.760
       0.201
      -0.268
      -0.606
      -0.823
      -0.937
      -0.966
      -0.948
      -0.936
      -0.961
      -1.000
      -0.977
      -0.804
      -0.417
       0.206
       1.030
       1.929
       2.657
       2.925
       2.580
       1.748
       0.776
      -0.045
      -0.673
      -1.222
      -1.686
      -1.843
      -1.472
      -0.658
       0.196
       0.682
       0.726
       0.599
       0.602
       0.766
       0.839
       0.555
      -0.096
      -0.841
      -1.351
      -1.470
      -1.265
      -0.882
      -0.430
      -0.018
       0.181
       0.021
      -0.417
      -0.782
      -0.735
      -0.283
       0.185
       0.265
      -0.089
      -0.567
      -0.859
      -0.936
      -0.942
      -0.869
      -0.474
       0.406
       1.519
       2.292
       2.301
       1.638
       0.793
       0.209
      -0.023
      -0.067
      -0.069
      -0.043
       0.018
       0.038
      -0.072
      -0.292
      -0.502
      -0.630
      -0.734
      -0.904
      -1.080
      -1.001
      -0.426
       0.549
       1.435
       1.692
       1.212
       0.427
      -0.102
      -0.218
      -0.242
      -0.522
      -0.950
      -1.008
      -0.316
       0.887
       1.844
       1.890
       1.011
      -0.142
      -0.805
      -0.708
      -0.233
      -0.010
      -0.320
      -0.869
      -1.127
      -0.865
      -0.353
      -0.028
      -0.028
      -0.088
       0.113
       0.569
       0.935
       0.887
       0.450
      -0.040
      -0.272
      -0.225
      -0.106
      -0.088
      -0.151
      -0.192
      -0.209
      -0.318
      -0.578
      -0.845
      -0.866
      -0.510
       0.098
       0.683
       1.017
       1.032
       0.790
       0.397
      -0.069
      -0.555
      -0.973
      -1.179
      -1.070
      -0.729
      -0.370
      -0.121
       0.131
       0.578
       1.172
       1.559
       1.380
       0.639
      -0.241
      -0.728
      -0.546
       0.196
       1.138
       1.914
       2.306
       2.241
       1.712
       0.725
      -0.643
      -2.158
      -3.428
      -4.056
      -3.832
      -2.827
      -1.354
       0.134
       1.190
       1.550
       1.288
       0.792
       0.511
       0.638
       1.006
       1.269
       1.213
       0.917
       0.674
       0.736
       1.099
       1.497
       1.590
       1.211
       0.464
      -0.369
      -1.030
      -1.402
      -1.462
      -1.186
      -0.573
       0.176
       0.583
       0.153
      -1.156
      -2.683
      -3.370
      -2.481
      -0.171
       2.546
       4.441
       4.804
       3.803
       2.259
       1.072
       0.663
       0.774
       0.744
       0.053
      -1.256
      -2.628
      -3.449
      -3.526
      -3.159
      -2.790
      -2.569
      -2.262
      -1.574
      -0.539
       0.433
       0.895
       0.763
       0.378
       0.213
       0.510
       1.142
       1.737
       1.920
       1.516
       0.653
      -0.292
      -0.885
      -0.902
      -0.489
      -0.020
       0.288
       0.633
       1.434
       2.811
       4.286
       5.016
       4.367
       2.331
      -0.529
      -3.433
      -5.747
      -7.145
      -7.584
      -7.183
      -6.105
      -4.545
      -2.802
      -1.311
      -0.497
      -0.491
      -0.959
      -1.240
      -0.767
       0.530
       2.161
       3.404
       3.750
       3.183
       2.152
       1.333
       1.304
       2.237
       3.742
       5.022
       5.292
       4.256
       2.260
       0.028
      -1.833
      -3.167
      -4.206
      -5.206
      -6.078
      -6.311
      -5.259
      -2.643
       1.082
       4.779
       7.144
       7.419
       5.849
       3.546
       1.825
       1.456
       2.358
       3.837
       5.099
       5.605
       5.140
       3.754
       1.719
      -0.507
      -2.421
      -3.721
      -4.463
      -4.933
      -5.304
      -5.419
      -4.974
      -3.939
      -2.782
      -2.203
      -2.606
      -3.739
      -4.795
      -4.890
      -3.593
      -1.155
       1.667
       4.010
       5.273
       5.314
       4.438
       3.196
       2.125
       1.558
       1.559
       1.965
       2.466
       2.729
       2.499
       1.670
       0.306
      -1.356
      -2.933
      -3.966
      -4.097
      -3.287
      -1.904
      -0.558
       0.235
       0.282
      -0.356
      -1.531
      -3.027
      -4.433
      -5.162
      -4.747
      -3.175
      -0.955
       1.154
       2.525
       2.912
       2.521
       1.929
       1.846
       2.756
       4.591
       6.702
       8.172
       8.300
       6.942
       4.553
       1.940
      -0.087
      -1.018
      -0.820
       0.046
       0.814
       0.813
      -0.127
      -1.565
      -2.777
      -3.267
      -3.039
      -2.461
      -1.957
      -1.842
      -2.333
      -3.531
      -5.248
      -6.882
      -7.599
      -6.821
      -4.693
      -2.081
      -0.033
       0.906
       0.947
       0.759
       0.937
       1.679
       2.766
       3.715
       4.016
       3.403
       2.045
       0.506
      -0.555
      -0.739
      -0.081
       1.017
       2.027
       2.557
       2.538
       2.203
       1.882
       1.738
       1.674
       1.458
       0.948
       0.216
      -0.518
      -1.060
      -1.385
      -1.666
      -2.182
      -3.135
      -4.437
      -5.621
      -5.999
      -5.038
      -2.757
       0.168
       2.684
       3.901
       3.579
       2.241
       0.816
       0.052
       0.101
       0.551
       0.808
       0.540
      -0.147
      -0.849
      -1.174
      -0.965
      -0.320
       0.563
       1.533
       2.543
       3.612
       4.731
       5.769
       6.428
       6.352
       5.366
       3.652
       1.665
      -0.157
      -1.606
      -2.684
      -3.421
      -3.775
      -3.717
      -3.386
      -3.096
      -3.132
      -3.523
      -4.019
      -4.314
      -4.285
      -4.015
      -3.642
      -3.200
      -2.636
      -1.933
      -1.181
      -0.498
       0.115
       0.808
       1.751
       2.932
       4.081
       4.812
       4.850
       4.153
       2.874
       1.263
      -0.370
      -1.680
      -2.397
      -2.453
      -2.016
      -1.390
      -0.884
      -0.715
      -0.962
      -1.536
      -2.198
      -2.661
      -2.726
      -2.343
      -1.536
      -0.298
       1.372
       3.314
       5.135
       6.363
       6.700
       6.118
       4.756
       2.839
       0.720
      -1.101
      -2.190
      -2.497
      -2.417
      -2.440
      -2.703
      -2.906
      -2.667
      -1.924
      -1.006
      -0.355
      -0.214
      -0.511
      -0.954
      -1.211
      -1.059
      -0.455
       0.463
       1.446
       2.274
       2.883
       3.377
       3.928
       4.634
       5.392
       5.866
       5.596
       4.267
       1.983
      -0.699
      -3.023
      -4.450
      -4.923
      -4.818
      -4.608
      -4.517
      -4.416
      -4.037
      -3.255
      -2.189
      -1.054
       0.020
       1.040
       2.053
       3.004
       3.685
       3.830
       3.309
       2.300
       1.241
       0.578
       0.466
       0.660
       0.694
       0.195
      -0.864
      -2.141
      -3.126
      -3.434
      -2.958
      -1.823
      -0.264
       1.404
       2.768
       3.418
       3.193
       2.366
       1.484
       0.953
       0.714
       0.356
      -0.466
      -1.685
      -2.846
      -3.425
      -3.149
      -2.113
      -0.691
       0.637
       1.449
       1.532
       1.006
       0.293
      -0.094
       0.164
       1.021
       2.115
       2.939
       3.044
       2.227
       0.641
      -1.257
      -2.928
      -4.008
      -4.402
      -4.188
      -3.431
      -2.144
      -0.413
       1.453
       2.977
       3.772
       3.765
       3.207
       2.468
       1.784
       1.148
       0.377
      -0.696
      -2.051
      -3.436
      -4.512
      -5.072
      -5.143
      -4.867
      -4.290
      -3.297
      -1.797
       0.027
       1.663
       2.553
       2.516
       1.935
       1.491
       1.645
       2.305
       2.956
       3.100
       2.588
       1.620
       0.523
      -0.437
      -1.099
      -1.393
      -1.354
      -1.141
      -0.998
      -1.172
      -1.808
      -2.863
      -4.041
      -4.842
      -4.766
      -3.590
      -1.548
       0.764
       2.685
       3.780
       3.968
       3.498
       2.830
       2.449
       2.624
       3.231
       3.794
       3.774
       2.907
       1.362
      -0.353
      -1.637
      -2.059
      -1.536
      -0.362
       0.923
       1.746
       1.707
       0.723
      -0.892
      -2.505
      -3.444
      -3.372
      -2.478
      -1.320
      -0.434
      -0.048
      -0.083
      -0.367
      -0.774
      -1.154
      -1.230
      -0.669
       0.652
       2.449
       4.111
       5.030
       4.944
       4.052
       2.832
       1.719
       0.863
       0.135
      -0.674
      -1.650
      -2.686
      -3.556
      -4.045
      -4.048
      -3.602
      -2.863
      -2.024
      -1.208
      -0.421
       0.356
       1.026
       1.341
       1.072
       0.257
      -0.710
      -1.271
      -1.073
      -0.234
       0.717
       1.214
       1.061
       0.553
       0.225
       0.437
       1.133
       1.918
       2.355
       2.218
       1.551
       0.546
      -0.564
      -1.508
      -1.967
      -1.704
      -0.811
       0.212
       0.733
       0.464
      -0.285
      -0.821
      -0.581
       0.488
       1.928
       3.099
       3.544
       3.191
       2.333
       1.409
       0.736
       0.360
       0.116
      -0.192
      -0.662
      -1.317
      -2.173
      -3.212
      -4.265
      -4.953
      -4.849
      -3.798
      -2.093
      -0.316
       1.062
       1.935
       2.468
       2.807
       2.893
       2.536
       1.650
       0.428
      -0.728
      -1.450
      -1.630
      -1.413
      -0.997
      -0.450
       0.287
       1.212
       2.105
       2.610
       2.466
       1.695
       0.563
      -0.598
      -1.543
      -2.141
      -2.339
      -2.164
      -1.717
      -1.123
      -0.451
       0.302
       1.127
       1.915
       2.465
       2.584
       2.198
       1.361
       0.186
      -1.179
      -2.515
      -3.516
      -3.888
      -3.536
      -2.622
      -1.439
