Origin Time       19/11/2012 06:25:21 UTC
Lat.              28.7 N 
Long.             76.6 E 
Depth (Km)          5.0
Magnitude         3.5
 Region           ROHTAK-HARYANA                                                   
 Above details taken from IMD 
    
Station Code      ROH
Station Lat.       28.896  N
Station Long.      76.593  E
Station Height(m)  225.0
Site Class        C   Vs30 between 200 m/sec to 375 m/sec *  
Record Time       19.11.2012 06:24:09.554 UTC
Sampling Rate     200. Hz
 Record Duration  131.110 Sec.
 Direction         N-S (N positive)
Max. Acceleration    -11.786 cm/sec**2
     
  * For reference see Site Classification link of website 
     
 Base Line Corrected and Low Pass Filtered (Cut Off at 35 Hz) Time History
 Acceleration data in cm/sec**2
    
[...]
       0.000
       0.003
       0.009
       0.010
      -0.002
      -0.022
      -0.038
      -0.044
      -0.035
      -0.018
       0.002
       0.018
       0.025
       0.023
       0.015
       0.005
       0.000
       0.000
       0.004
       0.009
       0.011
       0.009
       0.000
      -0.012
      -0.023
      -0.029
      -0.027
      -0.020
      -0.012
      -0.008
      -0.007
      -0.008
      -0.007
      -0.006
      -0.005
       0.000
       0.009
       0.019
       0.022
       0.014
      -0.004
      -0.019
      -0.023
      -0.017
      -0.008
      -0.003
       0.000
       0.006
       0.016
       0.025
       0.028
       0.024
       0.015
       0.006
      -0.004
      -0.010
      -0.008
       0.003
       0.023
       0.038
       0.038
       0.022
       0.000
      -0.013
      -0.011
       0.000
       0.006
       0.003
      -0.007
      -0.015
      -0.015
      -0.010
      -0.006
      -0.006
      -0.009
      -0.009
      -0.002
       0.012
       0.028
       0.036
       0.031
       0.018
       0.003
      -0.004
      -0.001
       0.008
       0.014
       0.013
       0.006
      -0.002
      -0.005
      -0.005
      -0.005
      -0.007
      -0.008
      -0.003
       0.008
       0.020
       0.026
       0.020
       0.007
      -0.003
      -0.006
      -0.005
      -0.005
      -0.008
      -0.011
      -0.011
      -0.009
      -0.006
      -0.001
       0.009
       0.022
       0.033
       0.033
       0.017
      -0.009
      -0.030
      -0.036
      -0.027
      -0.013
      -0.010
      -0.025
      -0.046
      -0.050
      -0.027
       0.008
       0.019
      -0.015
      -0.078
      -0.119
      -0.095
      -0.013
       0.072
       0.095
       0.045
      -0.021
      -0.023
       0.055
       0.145
       0.153
       0.047
      -0.096
      -0.153
      -0.062
       0.122
       0.262
       0.250
       0.101
      -0.062
      -0.111
      -0.031
       0.071
       0.079
      -0.016
      -0.122
      -0.156
      -0.122
      -0.081
      -0.062
      -0.040
       0.014
       0.068
       0.065
      -0.001
      -0.057
      -0.025
       0.098
       0.227
       0.271
       0.210
       0.092
      -0.020
      -0.095
      -0.126
      -0.114
      -0.060
       0.005
       0.031
      -0.004
      -0.085
      -0.197
      -0.333
      -0.451
      -0.426
      -0.154
       0.290
       0.633
       0.630
       0.306
      -0.059
      -0.208
      -0.147
      -0.076
      -0.113
      -0.134
       0.047
       0.400
       0.640
       0.498
       0.009
      -0.476
      -0.582
      -0.203
       0.423
       0.869
       0.787
       0.123
      -0.808
      -1.463
      -1.377
      -0.473
       0.817
       1.767
       1.798
       0.867
      -0.489
      -1.496
      -1.642
      -0.970
       0.030
       0.783
       0.943
       0.462
      -0.456
      -1.379
      -1.736
      -1.143
       0.190
       1.459
       1.818
       1.069
      -0.166
      -0.948
      -0.738
       0.245
       1.237
       1.497
       0.801
      -0.421
      -1.396
      -1.543
      -0.867
       0.109
       0.781
       0.897
       0.638
       0.363
       0.270
       0.269
       0.105
      -0.351
      -0.898
      -1.107
      -0.714
       0.080
       0.731
       0.823
       0.423
      -0.045
      -0.223
      -0.094
       0.153
       0.412
       0.697
       0.907
       0.714
      -0.146
      -1.445
      -2.421
      -2.300
      -0.944
       0.939
       2.258
       2.285
       1.104
      -0.539
      -1.785
      -2.149
      -1.670
      -0.722
       0.248
       0.886
       0.985
       0.544
      -0.185
      -0.783
      -0.895
      -0.451
       0.296
       0.956
       1.252
       1.143
       0.769
       0.337
       0.046
       0.029
       0.256
       0.475
       0.367
      -0.132
      -0.657
      -0.660
       0.072
       1.105
       1.619
       1.102
      -0.156
      -1.268
      -1.499
      -0.852
       0.009
       0.352
      -0.074
      -0.916
      -1.512
      -1.330
      -0.302
       1.120
       2.193
       2.313
       1.384
      -0.081
      -1.252
      -1.490
      -0.786
       0.175
       0.469
      -0.318
      -1.636
      -2.296
      -1.425
       0.730
       2.907
       3.741
       2.747
       0.599
      -1.418
      -2.316
      -2.000
      -1.163
      -0.618
      -0.628
      -0.791
      -0.550
       0.184
       0.912
       1.063
       0.560
      -0.135
      -0.517
      -0.487
      -0.318
      -0.244
      -0.180
       0.174
       0.962
       1.896
       2.354
       1.849
       0.489
      -0.984
      -1.702
      -1.362
      -0.467
       0.131
       0.010
      -0.463
      -0.574
      -0.057
       0.605
       0.678
      -0.040
      -0.970
      -1.254
      -0.551
       0.606
       1.202
       0.623
      -0.712
      -1.594
      -1.047
       0.719
       2.398
       2.724
       1.596
       0.103
      -0.561
      -0.177
       0.473
       0.529
      -0.122
      -0.923
      -1.366
      -1.487
      -1.622
      -1.866
      -1.921
      -1.489
      -0.664
       0.168
       0.794
       1.404
       2.249
       3.115
       3.296
       2.267
       0.367
      -1.332
      -1.981
      -1.768
      -1.643
      -2.180
      -2.803
      -2.284
      -0.073
       2.902
       4.791
       4.285
       1.656
      -1.470
      -3.321
      -3.121
      -1.376
       0.657
       1.811
       1.623
       0.472
      -0.772
      -1.342
      -1.052
      -0.331
       0.189
       0.202
      -0.040
      -0.006
       0.544
       1.235
       1.349
       0.516
      -0.836
      -1.754
      -1.575
      -0.513
       0.564
       0.939
       0.613
       0.099
      -0.216
      -0.396
      -0.662
      -0.926
      -0.764
       0.117
       1.431
       2.390
       2.300
       1.164
      -0.270
      -1.086
      -0.929
      -0.266
       0.096
      -0.232
      -0.904
      -1.269
      -1.026
      -0.426
       0.103
       0.379
       0.495
       0.555
       0.516
       0.309
       0.044
       0.008
       0.397
       1.051
       1.499
       1.326
       0.531
      -0.489
      -1.287
      -1.683
      -1.742
      -1.503
      -0.846
       0.275
       1.492
       2.093
       1.566
       0.098
      -1.527
      -2.509
      -2.524
      -1.739
      -0.510
       0.812
       1.864
       2.249
       1.736
       0.567
      -0.515
      -0.748
      -0.006
       1.003
       1.298
       0.464
      -0.997
      -2.130
      -2.295
      -1.520
      -0.240
       1.127
       2.284
       2.871
       2.427
       0.742
      -1.693
      -3.723
      -4.237
      -2.981
      -0.718
       1.388
       2.542
       2.605
       1.861
       0.715
      -0.415
      -1.152
      -1.322
      -1.084
      -0.779
      -0.544
      -0.105
       0.903
       2.358
       3.487
       3.419
       1.978
      -0.083
      -1.655
      -2.109
      -1.613
      -0.747
       0.076
       0.761
       1.252
       1.298
       0.640
      -0.605
      -1.868
      -2.511
      -2.305
      -1.494
      -0.429
       0.754
       2.032
       3.124
       3.394
       2.296
       0.000
      -2.468
      -3.802
      -3.293
      -1.297
       1.016
       2.419
       2.332
       1.034
      -0.631
      -1.788
      -1.980
      -1.365
      -0.548
      -0.119
      -0.172
      -0.275
       0.053
       0.806
       1.475
       1.538
       0.964
       0.215
      -0.187
      -0.093
       0.236
       0.410
       0.191
      -0.401
      -1.101
      -1.474
      -1.124
      -0.026
       1.299
       2.054
       1.753
       0.645
      -0.476
      -0.945
      -0.754
      -0.431
      -0.438
      -0.732
      -0.906
      -0.665
      -0.114
       0.372
       0.465
       0.076
      -0.638
      -1.370
      -1.756
      -1.511
      -0.591
       0.724
       1.951
       2.671
       2.745
       2.297
       1.539
       0.640
      -0.238
      -0.876
      -1.055
      -0.751
      -0.250
       0.023
      -0.168
      -0.669
      -1.073
      -1.054
      -0.653
      -0.266
      -0.326
      -0.880
      -1.503
      -1.661
      -1.191
      -0.361
       0.497
       1.324
       2.224
       3.100
       3.523
       3.038
       1.618
      -0.211
      -1.701
      -2.333
      -2.009
      -0.956
       0.419
       1.588
       2.007
       1.384
      -0.039
      -1.533
      -2.351
      -2.285
      -1.795
      -1.501
      -1.526
      -1.377
      -0.534
       0.888
       2.136
       2.511
       2.051
       1.485
       1.469
       1.871
       1.887
       0.885
      -0.864
      -2.345
      -2.703
      -1.991
      -1.051
      -0.720
      -1.133
      -1.723
      -1.789
      -1.075
       0.093
       1.125
       1.645
       1.732
       1.747
       1.879
       1.892
       1.348
       0.096
      -1.486
      -2.756
      -3.285
      -3.059
      -2.299
      -1.202
       0.034
       1.034
       1.323
       0.730
      -0.327
      -1.061
      -0.919
       0.035
       1.294
       2.382
       3.135
       3.575
       3.607
       2.955
       1.451
      -0.599
      -2.390
      -3.050
      -2.214
      -0.278
       1.824
       3.133
       3.075
       1.601
      -0.855
      -3.458
      -5.142
      -5.004
      -2.822
       0.694
       4.194
       6.346
       6.441
       4.631
       1.732
      -1.241
      -3.551
      -4.953
      -5.580
      -5.621
      -5.076
      -3.803
      -1.762
       0.762
       3.184
       4.871
       5.435
       4.861
       3.446
       1.662
       0.025
      -1.040
      -1.400
      -1.348
      -1.425
      -1.946
      -2.592
      -2.612
      -1.599
      -0.112
       0.622
      -0.201
      -2.089
      -3.539
      -3.283
      -1.382
       0.828
       1.844
       1.172
      -0.425
      -1.682
      -1.816
      -0.907
       0.472
       1.849
       3.078
       4.072
       4.493
       3.860
       2.066
      -0.246
      -1.975
      -2.383
      -1.693
      -0.817
      -0.458
      -0.481
      -0.170
       0.927
       2.400
       3.155
       2.245
      -0.310
      -3.356
      -5.213
      -4.623
      -1.440
       3.278
       7.701
       9.979
       9.040
       5.136
      -0.145
      -4.548
      -6.267
      -4.941
      -1.856
       0.913
       1.862
       0.925
      -0.844
      -2.356
      -3.276
      -3.870
      -4.320
      -4.387
      -3.726
      -2.391
      -0.909
       0.084
       0.249
      -0.311
      -1.088
      -1.314
      -0.320
       1.930
       4.547
       6.091
       5.466
       2.642
      -1.337
      -4.958
      -6.911
      -6.476
      -3.647
       0.857
       5.701
       9.258
      10.155
       7.943
       3.496
      -1.256
      -4.365
      -5.026
      -3.965
      -2.698
      -2.277
      -2.574
      -2.668
      -1.859
      -0.327
       1.150
       1.994
       2.281
       2.461
       2.798
       3.145
       3.221
       2.973
       2.609
       2.276
       1.811
       0.923
      -0.358
      -1.519
      -1.986
      -1.774
      -1.678
      -2.661
      -4.925
      -7.508
      -8.829
      -7.796
      -4.614
      -0.730
       2.068
       2.788
       1.871
       0.856
       1.246
       3.370
       6.128
       7.835
       7.476
       5.337
       2.567
       0.224
      -1.290
      -2.044
      -2.130
      -1.594
      -0.761
      -0.358
      -1.032
      -2.672
      -4.278
      -4.659
      -3.369
      -1.049
       1.122
       2.306
       2.442
       1.979
       1.347
       0.718
       0.134
      -0.287
      -0.305
       0.237
       1.126
       1.698
       1.188
      -0.634
      -3.084
      -4.850
      -4.821
      -2.823
       0.317
       3.382
       5.527
       6.510
       6.315
       4.749
       1.592
      -2.777
      -7.027
      -9.400
      -8.848
      -5.779
      -1.713
       1.858
       4.371
       6.134
       7.519
       8.247
       7.469
       4.563
      -0.076
      -4.994
      -8.467
      -9.457
      -8.002
      -4.829
      -0.761
       3.468
       6.945
       8.456
       7.011
       2.742
      -2.687
      -6.756
      -7.497
      -4.666
       0.129
       4.383
       6.090
       4.731
       1.324
      -2.353
      -4.744
      -5.095
      -3.472
      -0.498
       2.882
       5.538
       6.388
       4.834
       1.190
      -3.279
      -6.900
      -8.450
      -7.772
      -5.684
      -3.250
      -1.022
       1.124
       3.474
       5.841
       7.449
       7.447
       5.599
       2.580
      -0.371
      -2.231
      -2.815
      -2.741
      -2.765
      -3.053
      -3.077
      -2.264
      -0.767
       0.476
       0.543
      -0.545
      -1.683
      -1.566
       0.180
       2.666
       4.495
       4.849
       3.909
       2.384
       0.819
      -0.613
      -1.780
      -2.302
      -1.751
      -0.173
       1.691
       2.820
       2.611
       1.222
      -0.683
      -2.470
      -3.819
      -4.635
      -4.829
      -4.271
      -2.961
      -1.199
       0.478
       1.618
       2.182
       2.594
       3.457
       5.107
       7.301
       9.206
       9.731
       8.053
       4.084
      -1.337
      -6.695
     -10.448
     -11.786
     -11.026
      -9.297
      -7.638
      -6.216
      -4.337
      -1.254
       2.957
       7.231
      10.169
      10.899
       9.459
       6.534
       2.935
      -0.714
      -3.951
      -6.277
      -7.108
      -6.021
      -3.186
       0.414
       3.325
       4.431
       3.631
       1.827
       0.258
      -0.266
       0.269
       1.203
       1.619
       0.833
      -1.214
      -3.866
      -6.088
      -6.997
      -6.207
      -3.809
      -0.222
       3.793
       7.060
       8.295
       6.869
       3.473
      -0.072
      -1.933
      -1.475
       0.405
       2.032
       2.091
       0.328
      -2.481
      -5.030
      -6.097
      -5.087
      -2.340
       0.957
       3.311
       3.706
       2.166
      -0.227
      -1.909
      -1.686
       0.570
       3.777
       6.151
       6.173
       3.493
      -0.782
      -4.606
      -6.097
      -4.631
      -1.257
       1.933
       3.099
       1.732
      -1.211
      -4.086
      -5.576
      -5.263
      -3.543
      -1.160
       1.215
       3.093
       4.091
       3.954
       2.757
       1.043
      -0.367
      -0.833
      -0.331
       0.476
       0.631
      -0.457
      -2.553
      -4.647
      -5.532
      -4.525
      -1.870
       1.432
       4.244
       5.909
       6.417
       6.089
       5.161
       3.672
       1.677
      -0.495
      -2.232
      -2.907
      -2.237
      -0.521
       1.429
       2.658
       2.540
       1.079
      -1.147
      -3.323
      -4.784
      -5.229
      -4.719
      -3.526
      -1.950
      -0.175
       1.723
       3.627
       5.194
       5.877
       5.205
       3.131
       0.187
      -2.658
      -4.401
      -4.476
      -3.088
      -1.189
      -0.003
      -0.310
      -1.934
      -3.809
      -4.630
      -3.674
      -1.256
       1.483
       3.274
       3.411
       2.024
      -0.141
      -2.171
      -3.323
      -3.135
      -1.418
       1.636
       5.242
       8.044
       8.668
       6.585
       2.622
      -1.440
      -3.971
      -4.466
      -3.627
      -2.618
      -2.190
      -2.370
      -2.777
      -3.086
      -3.211
      -3.194
      -3.047
      -2.692
      -1.968
      -0.716
       1.032
       2.900
       4.255
       4.592
       3.942
       2.942
       2.417
       2.771
       3.687
       4.398
       4.298
       3.366
       2.073
       0.921
       0.050
      -0.783
      -1.897
      -3.334
      -4.727
      -5.465
      -5.065
      -3.519
      -1.409
       0.353
       1.040
       0.541
      -0.616
      -1.649
      -1.983
      -1.474
      -0.357
       0.958
       2.075
       2.746
       2.937
       2.777
       2.390
       1.730
       0.611
      -1.013
      -2.762
      -3.872
      -3.636
      -1.944
       0.541
       2.723
       3.699
       3.239
       1.837
       0.333
      -0.595
      -0.736
      -0.303
       0.299
       0.659
       0.469
      -0.323
      -1.322
      -1.771
      -1.061
       0.634
       2.246
       2.479
       0.800
      -2.093
      -4.724
      -5.830
      -5.091
      -3.117
      -0.875
       0.879
       1.822
       1.982
       1.626
       1.186
       1.109
       1.601
       2.418
       2.953
       2.595
       1.147
      -0.995
      -2.995
      -3.972
      -3.456
      -1.662
       0.597
       2.358
       3.033
       2.657
       1.727
       0.838
       0.430
       0.747
       1.828
       3.410
       4.849
       5.281
       4.085
       1.333
      -2.136
      -5.108
      -6.595
      -6.274
      -4.530
      -2.197
      -0.158
       0.986
       1.089
       0.461
      -0.335
      -0.814
      -0.852
      -0.685
      -0.637
      -0.821
      -1.072
      -1.114
      -0.751
       0.029
       1.052
       2.011
       2.620
       2.787
       2.648
       2.397
       2.064
       1.454
       0.315
      -1.388
      -3.317
      -4.814
      -5.189
      -4.108
      -1.866
       0.666
       2.477
       2.982
       2.298
       1.039
      -0.165
      -0.974
      -1.313
      -1.220
      -0.788
      -0.174
       0.454
       1.043
       1.667
       2.375
       3.033
       3.357
       3.111
       2.284
       1.084
      -0.213
      -1.407
      -2.383
      -3.023
      -3.163
      -2.688
      -1.690
      -0.502
       0.484
       1.068
       1.315
       1.367
       1.214
       0.701
      -0.205
      -1.212
      -1.829
      -1.754
      -1.129
      -0.438
      -0.140
      -0.357
      -0.874
      -1.368
      -1.640
      -1.660
      -1.460
      -1.070
      -0.553
      -0.046
       0.309
       0.505
       0.686
       1.008
       1.468
       1.876
       2.002
       1.753
       1.232
       0.654
       0.213
       0.013
       0.076
       0.363
       0.758
       1.058
       1.026
       0.550
      -0.239
      -0.988
      -1.349
      -1.209
      -0.715
      -0.067
       0.675
       1.564
       2.534
       3.226
       3.127
       1.947
      -0.067
      -2.199
      -3.693
      -4.184
      -3.800
      -2.948
      -2.068
      -1.485
      -1.274
      -1.173
      -0.693
       0.490
       2.161
       3.592
       4.030
       3.255
       1.759
       0.388
      -0.251
      -0.137
       0.285
       0.537
       0.459
       0.228
       0.100
       0.149
       0.254
       0.288
       0.287
       0.390
       0.654
       0.944
       1.022
       0.719
       0.043
      -0.818
      -1.576
      -1.984
      -2.014
      -1.917
      -2.057
      -2.576
      -3.205
      -3.448
      -3.025
      -2.153
      -1.369
      -1.062
      -1.129
      -1.057
      -0.316
       1.238
       3.239
       4.989
       5.804
       5.344
       3.785
