Origin Time       07/05/2006 16:1:0  
Lat.              28.7 N 
Long.             76.6 E 
Depth (Km)         20.2
Magnitude         4.1
 Region           JHAJJAR-HARYANA                                                  
 Above details taken from IMD 
   
Station Code      ROH
Station Lat.       28.896
Station Long.      76.593
Station Height(m)  225.0
Site Class        C   Vs30 between 200 m/sec to 375 m/sec *  
Record Time       07.05.2006 16:00:53.059
Sampling Rate     200. Hz
 Record Duration   34.865 Sec.
 Direction         Vert. (Up positive)
Max. Acceleration     18.683 cm/sec**2
     
  * For reference see Site Classification link of website 
     
 Base Line Corrected and Low Pass Filtered (Cut Off at 35 Hz) Time History
 Acceleration data in cm/sec**2
    
[...]
       0.010
       0.018
       0.021
       0.017
       0.012
       0.009
       0.006
       0.000
      -0.012
      -0.024
      -0.031
      -0.028
      -0.017
      -0.006
       0.001
       0.002
       0.001
       0.004
       0.010
       0.012
       0.005
      -0.009
      -0.023
      -0.028
      -0.023
      -0.016
      -0.014
      -0.018
      -0.019
      -0.011
       0.004
       0.016
       0.015
       0.004
      -0.009
      -0.015
      -0.014
      -0.009
      -0.008
      -0.010
      -0.013
      -0.012
      -0.008
      -0.004
      -0.004
      -0.012
      -0.023
      -0.028
      -0.024
      -0.010
       0.004
       0.010
       0.004
      -0.006
      -0.011
      -0.007
       0.000
       0.003
       0.002
       0.001
       0.005
       0.013
       0.019
       0.016
       0.008
       0.005
       0.011
       0.022
       0.029
       0.022
       0.004
      -0.015
      -0.023
      -0.018
      -0.009
      -0.005
      -0.009
      -0.014
      -0.012
      -0.001
       0.011
       0.016
       0.008
      -0.008
      -0.021
      -0.025
      -0.019
      -0.009
      -0.004
      -0.003
      -0.006
      -0.010
      -0.014
      -0.019
      -0.025
      -0.028
      -0.027
      -0.022
      -0.016
      -0.013
      -0.010
      -0.006
       0.003
       0.012
       0.017
       0.014
       0.005
      -0.005
      -0.009
      -0.006
       0.000
       0.004
       0.004
       0.001
      -0.001
       0.000
       0.003
       0.005
       0.001
      -0.005
      -0.010
      -0.009
      -0.005
      -0.003
      -0.010
      -0.021
      -0.028
      -0.023
      -0.009
       0.006
       0.015
       0.017
       0.017
       0.020
       0.023
       0.019
       0.006
      -0.011
      -0.021
      -0.020
      -0.011
      -0.005
      -0.005
      -0.008
      -0.006
       0.003
       0.013
       0.018
       0.014
       0.005
      -0.003
      -0.004
       0.003
       0.014
       0.021
       0.018
       0.008
      -0.005
      -0.013
      -0.015
      -0.015
      -0.020
      -0.030
      -0.042
      -0.046
      -0.037
      -0.019
       0.001
       0.016
       0.021
       0.022
       0.023
       0.025
       0.026
       0.022
       0.013
       0.000
      -0.012
      -0.025
      -0.040
      -0.056
      -0.067
      -0.066
      -0.050
      -0.025
      -0.002
       0.013
       0.022
       0.029
       0.036
       0.040
       0.039
       0.032
       0.023
       0.015
       0.009
       0.003
      -0.002
      -0.005
      -0.005
      -0.001
       0.006
       0.012
       0.016
       0.019
       0.019
       0.019
       0.016
       0.008
      -0.007
      -0.023
      -0.029
      -0.023
      -0.010
      -0.002
      -0.009
      -0.023
      -0.030
      -0.021
      -0.002
       0.016
       0.021
       0.016
       0.008
       0.005
       0.007
       0.011
       0.010
       0.004
      -0.003
      -0.006
      -0.003
       0.006
       0.016
       0.022
       0.023
       0.021
       0.017
       0.013
       0.008
       0.001
      -0.005
      -0.008
      -0.008
      -0.009
      -0.012
      -0.017
      -0.020
      -0.018
      -0.007
       0.007
       0.020
       0.024
       0.019
       0.010
       0.002
      -0.002
      -0.003
      -0.006
      -0.012
      -0.022
      -0.032
      -0.038
      -0.037
      -0.030
      -0.016
       0.000
       0.018
       0.033
       0.039
       0.030
       0.009
      -0.013
      -0.028
      -0.031
      -0.024
      -0.016
      -0.015
      -0.020
      -0.027
      -0.027
      -0.018
      -0.002
       0.010
       0.013
       0.007
      -0.004
      -0.016
      -0.026
      -0.032
      -0.029
      -0.012
       0.012
       0.030
       0.031
       0.015
      -0.006
      -0.019
      -0.020
      -0.013
      -0.004
       0.003
       0.006
       0.003
      -0.003
      -0.008
      -0.009
      -0.005
       0.002
       0.008
       0.011
       0.009
       0.002
      -0.008
      -0.016
      -0.015
      -0.006
       0.006
       0.010
       0.001
      -0.016
      -0.028
      -0.026
      -0.014
      -0.004
      -0.008
      -0.021
      -0.032
      -0.033
      -0.025
      -0.017
      -0.016
      -0.020
      -0.019
      -0.008
       0.008
       0.020
       0.020
       0.010
       0.000
      -0.001
       0.006
       0.015
       0.019
       0.015
       0.008
       0.006
       0.010
       0.016
       0.015
       0.007
      -0.003
      -0.007
      -0.002
       0.009
       0.018
       0.019
       0.009
      -0.010
      -0.031
      -0.047
      -0.059
      -0.073
      -0.097
      -0.135
      -0.178
      -0.208
      -0.207
      -0.164
      -0.077
       0.039
       0.138
       0.152
       0.027
      -0.210
      -0.431
      -0.460
      -0.217
       0.166
       0.393
       0.224
      -0.291
      -0.790
      -0.850
      -0.348
       0.404
       0.889
       0.827
       0.407
       0.100
       0.210
       0.586
       0.790
       0.530
      -0.044
      -0.489
      -0.479
      -0.075
       0.400
       0.679
       0.736
       0.671
       0.519
       0.216
      -0.228
      -0.600
      -0.606
      -0.172
       0.389
       0.587
       0.200
      -0.471
      -0.853
      -0.639
      -0.105
       0.139
      -0.273
      -1.119
      -1.812
      -1.911
      -1.408
      -0.589
       0.280
       1.070
       1.685
       1.977
       1.827
       1.279
       0.550
      -0.092
      -0.464
      -0.525
      -0.379
      -0.243
      -0.324
      -0.641
      -0.935
      -0.816
      -0.113
       0.855
       1.404
       1.007
      -0.201
      -1.410
      -1.716
      -0.862
       0.520
       1.429
       1.339
       0.579
      -0.042
       0.007
       0.528
       0.818
       0.364
      -0.630
      -1.376
      -1.233
      -0.369
       0.343
       0.166
      -0.696
      -1.171
      -0.309
       1.702
       3.495
       3.603
       1.728
      -0.950
      -2.720
      -2.706
      -1.485
      -0.443
      -0.531
      -1.499
      -2.233
      -1.813
      -0.311
       1.319
       2.093
       1.765
       0.896
       0.267
       0.219
       0.449
       0.373
      -0.303
      -1.256
      -1.760
      -1.302
      -0.082
       1.046
       1.198
       0.178
      -1.308
      -2.137
      -1.607
       0.077
       2.001
       3.225
       3.329
       2.495
       1.217
      -0.015
      -0.849
      -1.076
      -0.707
      -0.112
       0.070
      -0.607
      -1.860
      -2.660
      -1.978
       0.219
       2.661
       3.610
       2.254
      -0.550
      -2.881
      -3.231
      -1.614
       0.543
       1.557
       0.734
      -1.154
      -2.455
      -1.857
       0.590
       3.392
       4.660
       3.527
       0.812
      -1.687
      -2.624
      -2.034
      -1.030
      -0.665
      -1.058
      -1.511
      -1.338
      -0.536
       0.314
       0.712
       0.733
       0.866
       1.395
       2.006
       2.047
       1.243
       0.117
      -0.408
       0.118
       1.177
       1.661
       0.766
      -1.325
      -3.488
      -4.407
      -3.505
      -1.380
       0.572
       1.127
       0.133
      -1.324
      -1.662
      -0.008
       2.997
       5.470
       5.583
       2.978
      -0.871
      -3.741
      -4.299
      -2.910
      -1.019
       0.156
       0.421
       0.354
       0.500
       0.869
       1.106
       0.987
       0.689
       0.586
       0.789
       0.967
       0.668
      -0.192
      -1.240
      -2.018
      -2.305
      -2.057
      -1.243
       0.050
       1.356
       1.923
       1.314
      -0.049
      -1.039
      -0.705
       0.852
       2.425
       2.597
       0.896
      -1.780
      -3.835
      -4.114
      -2.611
      -0.309
       1.574
       2.333
       2.050
       1.372
       0.983
       1.140
       1.543
       1.657
       1.224
       0.495
      -0.041
      -0.168
      -0.169
      -0.554
      -1.504
      -2.518
      -2.654
      -1.346
       0.838
       2.353
       1.876
      -0.438
      -2.874
      -3.443
      -1.480
       1.790
       4.151
       3.977
       1.329
      -2.115
      -4.162
      -3.484
      -0.437
       3.115
       4.885
       3.540
      -0.431
      -4.933
      -7.448
      -6.503
      -2.538
       2.355
       5.703
       6.113
       3.968
       0.982
      -0.957
      -0.846
       0.985
       3.133
       3.864
       2.061
      -1.974
      -6.401
      -8.768
      -7.595
      -3.457
       1.360
       4.448
       4.894
       3.619
       2.290
       1.910
       2.304
       2.609
       2.102
       0.686
      -1.147
      -2.728
      -3.639
      -3.884
      -3.686
      -3.121
      -1.942
       0.095
       2.625
       4.498
       4.506
       2.508
      -0.174
      -1.628
      -0.883
       1.257
       2.816
       2.199
      -0.573
      -3.848
      -5.517
      -4.534
      -1.715
       0.810
       1.164
      -0.796
      -3.229
      -3.601
      -0.679
       4.330
       8.474
       9.186
       6.166
       1.530
      -1.889
      -2.634
      -1.497
      -0.615
      -1.669
      -4.592
      -7.622
      -8.484
      -5.909
      -0.597
       5.021
       8.221
       7.741
       4.602
       1.264
      -0.263
       0.166
       1.030
       0.667
      -1.279
      -3.712
      -5.158
      -4.936
      -3.384
      -1.187
       1.259
       3.726
       5.615
       5.897
       3.910
       0.265
      -3.192
      -4.594
      -3.478
      -1.152
       0.385
       0.033
      -1.614
      -2.844
      -2.193
       0.476
       3.891
       6.256
       6.413
       4.492
       1.661
      -0.820
      -2.467
      -3.663
      -4.895
      -6.014
      -6.316
      -5.345
      -3.463
      -1.546
      -0.106
       1.215
       3.157
       5.863
       8.465
       9.678
       8.738
       5.816
       1.718
      -2.560
      -6.004
      -7.633
      -6.894
      -4.259
      -1.287
       0.304
      -0.025
      -1.148
      -1.260
       0.517
       3.376
       5.552
       5.688
       3.662
       0.434
      -2.654
      -4.540
      -4.825
      -3.819
      -2.279
      -0.914
      -0.027
       0.427
       0.543
       0.341
      -0.014
      -0.012
       0.925
       2.687
       4.067
       3.464
       0.469
      -3.184
      -4.629
      -2.333
       2.262
       5.724
       5.504
       2.007
      -2.000
      -3.876
      -3.101
      -1.204
      -0.125
      -0.642
      -2.011
      -2.805
      -2.111
      -0.198
       1.760
       2.621
       2.118
       0.958
       0.156
       0.200
       0.721
       0.862
       0.050
      -1.446
      -2.617
      -2.438
      -0.663
       1.894
       3.795
       3.799
       1.542
      -2.217
      -5.824
      -7.430
      -5.961
      -1.853
       3.061
       6.561
       7.273
       5.273
       1.811
      -1.396
      -2.851
      -1.858
       1.023
       3.972
       4.744
       2.142
      -2.882
      -7.582
      -9.182
      -6.791
      -2.006
       2.264
       3.790
       2.322
      -0.523
      -2.417
      -1.677
       1.821
       6.535
      10.003
      10.077
       6.090
      -0.619
      -7.192
     -10.676
      -9.669
      -5.177
      -0.036
       2.822
       2.255
      -0.358
      -2.206
      -1.285
       1.990
       5.146
       5.722
       3.290
      -0.319
      -2.710
      -2.921
      -1.858
      -0.948
      -0.591
      -0.042
       1.281
       2.699
       2.752
       0.795
      -2.022
      -3.533
      -2.387
       0.735
       3.568
       3.946
       1.421
      -2.351
      -4.710
      -3.847
      -0.152
       3.945
       5.658
       3.863
      -0.077
      -3.428
      -4.266
      -2.900
      -1.317
      -1.188
      -2.285
      -2.786
      -1.151
       2.245
       5.338
       6.185
       4.574
       1.964
       0.037
      -0.635
      -0.658
      -0.887
      -1.596
      -2.445
      -2.921
      -2.620
      -1.282
       1.065
       3.765
       5.567
       5.407
       3.351
       0.634
      -1.396
      -2.433
      -3.227
      -4.378
      -5.248
      -4.360
      -1.076
       3.181
       5.628
       4.354
       0.121
      -4.028
      -5.153
      -2.742
       1.026
       3.223
       2.573
       0.242
      -1.447
      -1.058
       0.936
       2.770
       2.877
       0.991
      -1.891
      -4.409
      -5.763
      -5.945
      -5.256
      -3.737
      -1.217
       2.055
       4.986
       6.144
       4.910
       2.158
      -0.315
      -1.185
      -0.515
       0.535
       0.809
       0.018
      -1.223
      -2.017
      -1.854
      -0.862
       0.360
       1.141
       1.116
       0.422
      -0.394
      -0.742
      -0.410
       0.305
       0.901
       1.146
       1.240
       1.484
       1.820
       1.754
       0.812
      -0.913
      -2.711
      -3.769
      -3.735
      -2.856
      -1.665
      -0.575
       0.295
       1.055
       1.932
       3.178
       4.886
       6.717
       7.822
       7.205
       4.383
      -0.144
      -5.004
      -8.578
      -9.793
      -8.629
      -6.118
      -3.795
      -2.824
      -3.175
      -3.422
      -1.546
       3.513
      10.648
      16.799
      18.683
      14.853
       6.597
      -2.856
     -10.118
     -13.191
     -12.106
      -8.624
      -5.275
      -4.079
      -5.466
      -7.963
      -8.950
      -6.197
       0.618
       9.334
      16.168
      17.714
      13.009
       4.373
      -3.692
      -7.064
      -4.549
       1.247
       5.452
       4.098
      -3.031
     -11.859
     -16.464
     -13.146
      -3.238
       7.590
      13.203
      11.128
       3.952
      -2.785
      -4.478
      -0.431
       5.905
       9.397
       6.744
      -1.246
     -10.123
     -14.708
     -12.491
      -5.163
       2.743
       7.022
       6.381
       2.702
      -0.801
      -1.815
       0.047
       3.585
       6.913
       8.240
       6.512
       2.024
      -3.382
      -7.075
      -7.204
      -4.025
       0.147
       2.530
       1.855
      -0.823
      -3.073
      -2.918
      -0.113
       3.854
       6.798
       7.072
       4.376
      -0.111
      -4.289
      -6.208
      -5.206
      -2.327
       0.361
       1.173
      -0.065
      -1.988
      -2.769
      -1.498
       1.170
       3.495
       3.829
       1.712
      -1.804
      -4.805
      -5.744
      -4.412
      -2.017
      -0.328
      -0.481
      -2.225
      -4.091
      -4.322
      -1.999
       2.316
       6.802
       9.404
       9.090
       6.495
       3.465
       1.797
       2.066
       3.340
       3.908
       2.520
      -0.695
      -4.231
      -6.158
      -5.391
      -2.417
       1.031
       3.109
       2.998
       1.280
      -0.672
      -1.791
      -2.059
      -2.340
      -3.479
      -5.473
      -7.463
      -8.456
      -7.988
      -6.103
      -2.997
       1.028
       5.240
       8.464
       9.790
       9.394
       8.495
       8.275
       8.711
       8.467
       6.003
       0.990
      -5.187
     -10.243
     -12.451
     -11.609
      -8.896
      -5.909
      -3.669
      -2.160
      -0.571
       1.928
       5.337
       8.500
       9.674
       7.712
       3.066
      -2.228
      -5.756
      -6.310
      -4.605
      -2.590
      -1.895
      -2.625
      -3.401
      -2.563
       0.487
       4.866
       8.866
      10.990
      10.615
       8.050
       4.228
       0.317
      -2.700
      -4.402
      -5.081
      -5.462
      -6.027
      -6.507
      -6.126
      -4.458
      -1.960
       0.406
       1.998
       2.802
       2.988
       2.448
       0.976
      -1.155
      -3.075
      -3.894
      -3.352
      -1.805
       0.259
       2.514
       4.591
       5.848
       5.635
       3.885
       1.407
      -0.547
      -1.175
      -0.723
      -0.253
      -0.752
      -2.322
      -4.097
      -4.907
      -4.108
      -2.023
       0.248
       1.507
       1.238
       0.014
      -0.838
      -0.182
       2.015
       4.555
       5.824
       4.978
       2.546
      -0.040
      -1.576
      -1.893
      -1.697
      -1.777
      -2.430
      -3.516
      -4.759
      -5.810
      -6.125
      -5.081
      -2.458
       1.107
       4.222
       5.563
       4.863
       3.205
       2.205
       2.673
       3.933
       4.464
       3.313
       0.953
      -1.208
      -2.127
      -1.937
      -1.542
      -1.554
      -1.725
      -1.404
      -0.440
       0.512
       0.587
      -0.423
      -1.826
      -2.601
      -2.248
      -1.168
      -0.302
      -0.372
      -1.329
      -2.390
      -2.617
      -1.580
       0.390
       2.508
       4.110
       5.027
       5.505
       5.871
       6.234
       6.396
       5.959
       4.512
       1.847
      -1.865
      -6.012
      -9.673
     -11.942
     -12.272
     -10.630
      -7.416
      -3.281
       1.047
       4.938
       7.976
       9.955
      10.748
      10.239
       8.390
       5.411
       1.864
      -1.476
      -3.988
      -5.556
      -6.542
      -7.349
      -7.969
      -7.931
      -6.748
      -4.473
      -1.852
       0.123
       0.955
       1.104
       1.713
       3.677
       6.702
       9.186
       9.207
       5.987
       0.670
      -4.274
      -6.621
      -5.765
      -2.905
      -0.057
       1.285
       0.906
      -0.257
      -0.832
       0.163
       2.727
       5.721
       7.328
       6.108
       2.115
      -2.810
      -6.097
      -6.256
      -3.995
      -1.618
      -1.179
      -2.941
      -5.358
      -6.406
      -5.041
      -1.748
       1.955
       4.464
       4.879
       3.344
       0.921
      -0.978
      -1.386
      -0.391
       0.953
       1.420
       0.552
      -1.010
      -2.037
      -1.640
       0.091
       2.132
       3.247
       2.865
       1.518
       0.450
       0.662
       2.148
       3.955
       4.965
       4.696
       3.461
       1.915
       0.511
      -0.695
      -1.838
      -2.902
      -3.569
      -3.454
      -2.574
      -1.559
      -1.242
      -1.924
      -3.029
      -3.546
      -2.907
      -1.521
      -0.485
      -0.698
      -2.107
      -3.703
      -4.266
      -3.231
      -0.978
       1.589
       3.696
       5.019
       5.573
       5.497
       5.021
       4.506
       4.281
       4.304
       4.012
       2.688
       0.148
      -2.852
      -4.964
      -5.194
      -3.664
      -1.530
      -0.112
       0.018
      -0.687
      -1.265
      -1.027
      -0.008
       1.153
       1.700
       1.239
      -0.050
      -1.558
      -2.651
      -3.032
      -2.811
      -2.331
      -1.975
      -2.018
      -2.461
      -2.864
      -2.461
      -0.648
       2.414
       5.614
       7.432
       6.891
       4.220
       0.733
      -1.976
      -2.968
      -2.421
      -1.352
      -0.805
      -1.088
      -1.655
      -1.638
      -0.535
       1.463
       3.655
       5.234
       5.658
