Origin Time       19/11/2012 06:25:21
Lat.              28.7 N 
Long.             76.6 E 
Depth (Km)          5.0
Magnitude         3.5
 Region           ROHTAK-HARYANA                                                   
 Above details taken from IMD 
     
Station Code      ROH
Station Lat.       28.896  N
Station Long.      76.593  E
Station Height(m)  225.0
Site Class        C   Vs30 between 200 m/sec to 375 m/sec *  
Record Time       19.11.2012 06:24:09.554
Sampling Rate     200. Hz
 Record Duration  131.110 Sec.
 Direction         E-W (E positive)
Max. Acceleration     10.920 cm/sec**2
     
  * For reference see Site Classification link of website 
     
 Base Line Corrected and Low Pass Filtered (Cut Off at 35 Hz) Time History
 Acceleration data in cm/sec**2
    
[...]
       0.012
       0.025
       0.026
       0.015
       0.002
      -0.003
       0.003
       0.011
       0.013
       0.008
       0.000
      -0.005
      -0.003
       0.001
       0.000
      -0.006
      -0.012
      -0.011
      -0.002
       0.003
       0.002
      -0.002
      -0.003
       0.000
       0.007
       0.012
       0.014
       0.014
       0.015
       0.017
       0.021
       0.021
       0.016
       0.009
       0.001
      -0.004
      -0.001
       0.012
       0.028
       0.035
       0.031
       0.022
       0.014
       0.010
       0.008
       0.003
      -0.004
      -0.014
      -0.019
      -0.019
      -0.015
      -0.013
      -0.014
      -0.014
      -0.010
       0.000
       0.012
       0.020
       0.017
       0.003
      -0.015
      -0.024
      -0.018
      -0.001
       0.017
       0.027
       0.025
       0.013
      -0.001
      -0.011
      -0.012
      -0.004
       0.008
       0.020
       0.025
       0.020
       0.008
      -0.002
      -0.007
      -0.005
       0.002
       0.008
       0.007
      -0.002
      -0.013
      -0.016
      -0.007
       0.008
       0.021
       0.025
       0.017
       0.002
      -0.008
      -0.008
      -0.003
      -0.002
      -0.009
      -0.022
      -0.034
      -0.037
      -0.026
      -0.003
       0.022
       0.035
       0.032
       0.016
      -0.002
      -0.014
      -0.014
      -0.005
       0.002
      -0.001
      -0.012
      -0.021
      -0.019
      -0.010
       0.000
       0.003
      -0.003
      -0.011
      -0.013
      -0.005
       0.008
       0.015
       0.011
      -0.002
      -0.020
      -0.035
      -0.039
      -0.029
      -0.011
       0.006
       0.019
       0.028
       0.033
       0.034
       0.028
       0.015
      -0.002
      -0.016
      -0.017
      -0.007
       0.006
       0.013
       0.009
       0.000
      -0.009
      -0.012
      -0.009
      -0.003
       0.000
      -0.003
      -0.011
      -0.020
      -0.028
      -0.036
      -0.045
      -0.054
      -0.065
      -0.078
      -0.090
      -0.093
      -0.080
      -0.050
      -0.005
       0.048
       0.109
       0.176
       0.250
       0.316
       0.344
       0.308
       0.207
       0.077
      -0.040
      -0.118
      -0.176
      -0.248
      -0.350
      -0.448
      -0.471
      -0.372
      -0.173
       0.047
       0.204
       0.272
       0.301
       0.358
       0.454
       0.518
       0.456
       0.238
      -0.065
      -0.333
      -0.478
      -0.485
      -0.405
      -0.308
      -0.222
      -0.120
       0.041
       0.249
       0.435
       0.525
       0.499
       0.374
       0.171
      -0.076
      -0.303
      -0.425
      -0.420
      -0.358
      -0.339
      -0.379
      -0.375
      -0.207
       0.127
       0.466
       0.606
       0.480
       0.212
       0.005
      -0.050
      -0.021
      -0.024
      -0.090
      -0.147
      -0.124
      -0.011
       0.148
       0.279
       0.300
       0.174
      -0.028
      -0.152
      -0.127
      -0.100
      -0.314
      -0.801
      -1.209
      -1.062
      -0.239
       0.813
       1.407
       1.196
       0.452
      -0.210
      -0.357
      -0.050
       0.267
       0.148
      -0.523
      -1.453
      -2.133
      -2.155
      -1.462
      -0.389
       0.550
       1.004
       1.010
       0.915
       1.045
       1.442
       1.854
       1.963
       1.625
       0.931
       0.086
      -0.741
      -1.422
      -1.786
      -1.636
      -0.957
      -0.085
       0.467
       0.465
       0.207
       0.243
       0.818
       1.601
       1.960
       1.497
       0.358
      -0.878
      -1.585
      -1.457
      -0.666
       0.267
       0.834
       0.885
       0.663
       0.502
       0.504
       0.497
       0.272
      -0.177
      -0.645
      -0.928
      -1.000
      -1.007
      -1.062
      -1.077
      -0.827
      -0.226
       0.460
       0.754
       0.385
      -0.404
      -1.028
      -1.093
      -0.747
      -0.509
      -0.718
      -1.177
      -1.320
      -0.747
       0.390
       1.487
       1.971
       1.726
       1.108
       0.581
       0.352
       0.271
       0.050
      -0.465
      -1.153
      -1.699
      -1.822
      -1.480
      -0.877
      -0.288
       0.134
       0.408
       0.638
       0.907
       1.235
       1.578
       1.825
       1.832
       1.506
       0.864
       0.022
      -0.827
      -1.429
      -1.518
      -0.949
       0.136
       1.249
       1.748
       1.260
       0.052
      -1.049
      -1.234
      -0.368
       0.862
       1.479
       0.985
      -0.250
      -1.288
      -1.333
      -0.318
       1.045
       1.770
       1.272
      -0.238
      -1.903
      -2.792
      -2.499
      -1.313
       0.059
       0.949
       1.083
       0.703
       0.413
       0.738
       1.627
       2.363
       2.090
       0.574
      -1.529
      -3.155
      -3.620
      -2.997
      -1.876
      -0.822
      -0.019
       0.700
       1.511
       2.272
       2.537
       1.979
       0.836
      -0.170
      -0.466
      -0.167
       0.071
      -0.231
      -0.865
      -1.169
      -0.732
       0.143
       0.654
       0.189
      -1.092
      -2.295
      -2.465
      -1.367
       0.248
       1.177
       0.755
      -0.515
      -1.321
      -0.672
       1.187
       2.944
       3.354
       2.309
       0.845
       0.129
       0.417
       0.945
       0.787
      -0.215
      -1.326
      -1.680
      -1.144
      -0.418
      -0.270
      -0.686
      -0.843
       0.007
       1.634
       2.896
       2.772
       1.289
      -0.572
      -1.845
      -2.350
      -2.549
      -2.827
      -3.051
      -2.815
      -1.964
      -0.790
       0.298
       1.196
       2.101
       3.064
       3.668
       3.318
       1.920
       0.201
      -0.829
      -0.803
      -0.349
      -0.441
      -1.319
      -2.133
      -1.759
      -0.035
       1.857
       2.332
       0.832
      -1.600
      -3.149
      -2.711
      -0.709
       1.383
       2.268
       1.709
       0.470
      -0.438
      -0.491
       0.130
       0.835
       1.088
       0.718
      -0.041
      -0.740
      -0.982
      -0.665
      -0.039
       0.469
       0.592
       0.425
       0.273
       0.270
       0.222
      -0.122
      -0.687
      -1.085
      -1.038
      -0.698
      -0.455
      -0.468
      -0.501
      -0.237
       0.340
       0.898
       1.051
       0.679
       0.019
      -0.500
      -0.548
      -0.123
       0.471
       0.896
       1.035
       1.007
       0.946
       0.821
       0.502
      -0.036
      -0.613
      -0.965
      -0.944
      -0.643
      -0.318
      -0.171
      -0.171
      -0.120
       0.113
       0.427
       0.600
       0.531
       0.330
       0.161
       0.038
      -0.140
      -0.375
      -0.487
      -0.315
       0.044
       0.272
       0.152
      -0.210
      -0.503
      -0.525
      -0.343
      -0.152
      -0.025
       0.166
       0.527
       0.886
       0.850
       0.180
      -0.897
      -1.809
      -2.106
      -1.796
      -1.210
      -0.619
      -0.041
       0.585
       1.182
       1.555
       1.590
       1.344
       0.886
       0.161
      -0.882
      -1.994
      -2.586
      -2.134
      -0.732
       0.834
       1.680
       1.561
       0.970
       0.561
       0.550
       0.678
       0.591
       0.171
      -0.475
      -1.148
      -1.589
      -1.471
      -0.605
       0.744
       1.841
       1.963
       1.021
      -0.272
      -0.945
      -0.533
       0.622
       1.743
       2.229
       1.948
       1.098
      -0.045
      -1.178
      -1.890
      -1.773
      -0.764
       0.638
       1.647
       1.799
       1.329
       0.898
       0.896
       0.998
       0.472
      -1.023
      -2.926
      -4.105
      -3.766
      -2.124
      -0.200
       1.016
       1.277
       1.048
       0.895
       0.948
       0.905
       0.446
      -0.404
      -1.271
      -1.697
      -1.468
      -0.760
      -0.018
       0.364
       0.320
       0.127
       0.113
       0.342
       0.568
       0.525
       0.227
      -0.082
      -0.270
      -0.532
      -1.121
      -1.871
      -2.114
      -1.261
       0.496
       2.154
       2.726
       2.104
       1.055
       0.357
       0.083
      -0.208
      -0.717
      -1.050
      -0.689
       0.344
       1.422
       1.875
       1.541
       0.767
       0.013
      -0.460
      -0.609
      -0.499
      -0.256
      -0.051
      -0.025
      -0.198
      -0.501
      -0.889
      -1.358
      -1.811
      -1.968
      -1.522
      -0.454
       0.798
       1.587
       1.602
       1.184
       1.024
       1.466
       2.107
       2.124
       1.045
      -0.746
      -2.259
      -2.704
      -2.128
      -1.314
      -1.009
      -1.204
      -1.227
      -0.577
       0.441
       1.001
       0.693
       0.056
       0.070
       1.100
       2.441
       2.959
       2.153
       0.586
      -0.666
      -0.935
      -0.403
       0.225
       0.370
      -0.053
      -0.707
      -1.105
      -0.828
       0.269
       1.870
       3.197
       3.405
       2.185
       0.084
      -1.807
      -2.591
      -2.158
      -1.210
      -0.707
      -1.138
      -2.172
      -2.939
      -2.710
      -1.407
       0.443
       2.193
       3.504
       4.349
       4.737
       4.533
       3.559
       1.855
      -0.174
      -1.903
      -2.856
      -3.026
      -2.874
      -2.930
      -3.291
      -3.517
      -3.027
      -1.622
       0.354
       2.266
       3.523
       3.752
       2.852
       1.043
      -1.143
      -3.056
      -4.236
      -4.586
      -4.254
      -3.381
      -2.031
      -0.366
       1.185
       2.031
       1.804
       0.723
      -0.446
      -0.858
      -0.130
       1.486
       3.335
       4.746
       5.267
       4.747
       3.358
       1.581
       0.061
      -0.744
      -0.917
      -1.068
      -1.850
      -3.384
      -5.143
      -6.404
      -6.777
      -6.295
      -5.101
      -3.218
      -0.704
       2.087
       4.564
       6.256
       7.063
       7.138
       6.603
       5.423
       3.562
       1.212
      -1.144
      -2.900
      -3.594
      -3.171
      -2.067
      -0.986
      -0.461
      -0.512
      -0.709
      -0.592
      -0.149
       0.070
      -0.628
      -2.398
      -4.506
      -5.705
      -5.088
      -2.701
       0.572
       3.652
       5.790
       6.689
       6.368
       5.073
       3.234
       1.346
      -0.257
      -1.549
      -2.703
      -3.796
      -4.616
      -4.777
      -4.015
      -2.390
      -0.288
       1.732
       3.155
       3.743
       3.673
       3.406
       3.296
       3.241
       2.716
       1.294
      -0.799
      -2.682
      -3.460
      -2.895
      -1.491
       0.020
       1.231
       2.121
       2.683
       2.632
       1.615
      -0.234
      -2.049
      -2.746
      -1.940
      -0.351
       0.773
       0.698
      -0.298
      -1.384
      -2.016
      -2.280
      -2.512
      -2.741
      -2.577
      -1.635
       0.006
       1.693
       2.487
       1.682
      -0.605
      -3.142
      -4.064
      -2.166
       1.918
       5.830
       7.095
       4.994
       1.084
      -2.078
      -2.859
      -1.526
       0.358
       1.366
       1.189
       0.485
      -0.036
      -0.307
      -0.742
      -1.512
      -2.156
      -2.002
      -0.945
       0.280
       0.681
      -0.110
      -1.502
      -2.488
      -2.508
      -1.787
      -0.911
      -0.160
       0.695
       1.984
       3.583
       4.828
       5.007
       3.991
       2.384
       1.077
       0.591
       0.753
       0.889
       0.362
      -0.964
      -2.616
      -3.806
      -3.865
      -2.582
      -0.295
       2.248
       4.172
       4.790
       3.858
       1.692
      -0.908
      -3.000
      -3.945
      -3.706
      -2.772
      -1.808
      -1.300
      -1.394
      -1.914
      -2.432
      -2.418
      -1.475
       0.386
       2.631
       4.361
       4.759
       3.581
       1.382
      -0.784
      -2.045
      -2.304
      -2.206
      -2.504
      -3.342
      -4.119
      -4.043
      -2.843
      -0.929
       1.125
       3.134
       5.236
       7.229
       8.118
       6.566
       2.082
      -4.053
      -9.123
     -10.543
      -7.581
      -1.901
       3.489
       6.146
       5.569
       3.126
       0.755
      -0.432
      -0.539
      -0.219
       0.179
       0.770
       1.599
       2.220
       1.981
       0.750
      -0.752
      -1.427
      -0.699
       0.972
       2.406
       2.495
       0.856
      -2.065
      -5.298
      -7.776
      -8.688
      -7.712
      -5.097
      -1.522
       2.191
       5.305
       7.231
       7.564
       6.261
       3.853
       1.384
      -0.078
      -0.121
       0.634
       0.871
      -0.449
      -3.158
      -5.832
      -6.786
      -5.327
      -2.158
       1.319
       4.030
       5.592
       5.875
       4.561
       1.445
      -2.757
      -6.144
      -6.578
      -3.312
       2.080
       6.519
       7.503
       4.809
       0.426
      -3.100
      -4.421
      -3.908
      -2.846
      -2.248
      -2.282
      -2.491
      -2.296
      -1.287
       0.746
       3.742
       7.168
       9.968
      10.920
       9.304
       5.379
       0.294
      -4.482
      -7.830
      -9.371
      -9.428
      -8.631
      -7.429
      -5.831
      -3.580
      -0.605
       2.620
       5.187
       6.290
       5.782
       4.270
       2.673
       1.610
       1.123
       0.856
       0.393
      -0.523
      -1.882
      -3.323
      -4.149
      -3.660
      -1.725
       0.879
       2.838
       3.216
       2.138
       0.584
      -0.457
      -0.626
      -0.158
       0.545
       1.157
       1.403
       1.048
       0.077
      -1.155
      -2.036
      -2.058
      -1.140
       0.349
       1.859
       2.950
       3.333
       2.758
       1.077
      -1.458
      -3.990
      -5.351
      -4.808
      -2.640
      -0.006
       1.868
       2.478
       2.173
       1.611
       1.188
       0.960
       0.947
       1.264
       1.889
       2.413
       2.207
       0.938
      -1.111
      -3.236
      -4.807
      -5.557
      -5.478
      -4.565
      -2.742
      -0.086
       2.918
       5.448
       6.782
       6.716
       5.538
       3.612
       1.052
      -2.094
      -5.391
      -7.935
      -8.876
      -8.021
      -5.879
      -3.131
      -0.204
       2.635
       4.927
       6.017
       5.528
       3.850
       2.052
       1.168
       1.452
       2.254
       2.617
       2.034
       0.762
      -0.466
      -1.025
      -0.845
      -0.409
      -0.329
      -0.819
      -1.500
      -1.743
      -1.248
      -0.331
       0.356
       0.407
      -0.013
      -0.405
      -0.460
      -0.338
      -0.428
      -0.889
      -1.462
      -1.698
      -1.336
      -0.433
       0.808
       2.249
       3.780
       5.099
       5.605
       4.680
       2.232
      -0.987
      -3.697
      -4.892
      -4.477
      -3.171
      -1.811
      -0.752
       0.153
       1.089
       1.922
       2.314
       2.079
       1.288
       0.057
      -1.590
      -3.516
      -5.200
      -5.851
      -4.961
      -2.805
      -0.385
       1.217
       1.561
       1.054
       0.491
       0.378
       0.616
       0.805
       0.806
       0.972
       1.760
       3.093
       4.177
       4.080
       2.577
       0.416
      -1.270
      -1.856
      -1.598
      -1.223
      -1.210
      -1.441
      -1.493
      -1.208
      -0.894
      -0.925
      -1.217
      -1.199
      -0.391
       1.022
       2.264
       2.670
       2.358
       2.150
       2.717
       3.718
       3.867
       2.053
      -1.471
      -4.990
      -6.505
      -5.241
      -2.226
       0.491
       1.334
       0.221
      -1.587
      -2.538
      -1.863
       0.074
       2.199
       3.447
       3.280
       1.829
      -0.236
      -1.977
      -2.578
      -1.769
      -0.034
       1.653
       2.452
       2.179
       1.301
       0.483
       0.103
       0.110
       0.232
       0.279
       0.246
       0.158
      -0.096
      -0.704
      -1.664
      -2.637
      -3.095
      -2.685
      -1.510
      -0.113
       0.835
       0.949
       0.366
      -0.383
      -0.773
      -0.663
      -0.337
      -0.187
      -0.328
      -0.464
      -0.142
       0.823
       2.127
       3.141
       3.344
       2.709
       1.779
       1.313
       1.697
       2.558
       2.938
       1.979
      -0.356
      -3.095
      -4.790
      -4.466
      -2.320
       0.353
       2.012
       1.887
       0.415
      -1.202
      -1.939
      -1.635
      -0.946
      -0.674
      -1.064
      -1.663
      -1.798
      -1.223
      -0.307
       0.382
       0.636
       0.753
       1.151
       1.868
       2.489
       2.553
       1.992
       1.151
       0.416
      -0.118
      -0.617
      -1.196
      -1.670
      -1.657
      -0.911
       0.396
       1.747
       2.615
       2.772
       2.340
       1.604
       0.792
      -0.045
      -0.985
      -2.051
      -3.055
      -3.615
      -3.416
      -2.496
      -1.288
      -0.305
       0.261
       0.666
       1.290
       2.171
       2.851
       2.729
       1.617
      -0.047
      -1.502
      -2.176
      -1.969
      -1.157
      -0.121
       0.823
       1.435
       1.549
       1.121
       0.273
      -0.790
      -1.934
      -3.120
      -4.216
      -4.781
      -4.192
      -2.156
       0.819
       3.523
       4.778
       4.271
       2.789
       1.603
       1.500
       2.250
       2.912
       2.666
       1.469
       0.056
      -0.647
      -0.224
       0.906
       1.730
       1.308
      -0.567
      -3.206
      -5.489
      -6.583
      -6.324
      -5.036
      -3.085
      -0.691
       1.874
       4.059
       5.196
       4.973
       3.737
       2.271
       1.200
       0.588
       0.067
      -0.670
      -1.532
      -2.116
      -2.096
      -1.547
      -0.904
      -0.620
      -0.830
      -1.299
      -1.634
      -1.561
      -1.065
      -0.368
       0.234
       0.572
       0.734
       1.007
       1.623
       2.460
       2.993
       2.603
       1.088
      -1.049
      -2.800
      -3.269
      -2.269
      -0.426
       1.278
       2.140
       2.041
       1.308
       0.388
      -0.373
      -0.800
      -0.894
      -0.823
      -0.842
      -1.124
      -1.611
      -2.036
      -2.131
      -1.852
      -1.372
      -0.852
      -0.247
       0.631
       1.843
       3.150
       4.141
       4.498
       4.169
       3.341
       2.302
       1.325
       0.597
       0.161
      -0.125
      -0.512
      -1.170
      -2.007
      -2.680
      -2.856
      -2.516
      -2.015
      -1.809
      -2.062
      -2.499
      -2.632
      -2.138
      -1.084
       0.157
       1.175
       1.760
       1.961
       1.975
       2.001
       2.169
       2.537
       3.074
       3.613
