Origin Time       07/05/2006 16:1:0   UTC
Lat.              28.7 N 
Long.             76.6 E 
Depth (Km)         20.2
Magnitude         4.1
 Region           JHAJJAR-HARYANA                                                  
 Above details taken from IMD 
    
Station Code      ROH
Station Lat.       28.896  N
Station Long.      76.593  E
Station Height(m)  225.0
Site Class        C   Vs30 between 200 m/sec to 375 m/sec *  
Record Time       07.05.2006 16:00:53.059 UTC
Sampling Rate     200. Hz
 Record Duration   34.865 Sec.
 Direction         N-S (N positive)
Max. Acceleration     12.064 cm/sec**2
     
  * For reference see Site Classification link of website 
     
 Base Line Corrected and Low Pass Filtered (Cut Off at 35 Hz) Time History
 Acceleration data in cm/sec**2
    
[...]
       0.026
       0.018
       0.002
      -0.017
      -0.031
      -0.033
      -0.024
      -0.010
       0.001
       0.005
       0.004
       0.000
      -0.004
      -0.006
      -0.006
      -0.004
      -0.001
       0.000
      -0.001
      -0.002
      -0.003
      -0.003
      -0.001
       0.004
       0.010
       0.012
       0.006
      -0.007
      -0.020
      -0.027
      -0.024
      -0.012
       0.003
       0.014
       0.021
       0.021
       0.015
       0.005
      -0.008
      -0.017
      -0.019
      -0.014
      -0.002
       0.011
       0.021
       0.025
       0.020
       0.010
       0.003
       0.002
       0.008
       0.015
       0.018
       0.016
       0.011
       0.006
       0.003
       0.003
       0.004
       0.005
       0.005
       0.005
       0.004
       0.003
       0.004
       0.007
       0.010
       0.011
       0.009
       0.005
       0.003
       0.003
       0.003
       0.003
       0.002
       0.002
       0.004
       0.009
       0.016
       0.022
       0.022
       0.018
       0.012
       0.008
       0.008
       0.009
       0.009
       0.007
       0.006
       0.007
       0.009
       0.009
       0.006
       0.000
      -0.008
      -0.016
      -0.022
      -0.024
      -0.021
      -0.013
      -0.006
      -0.003
      -0.004
      -0.003
       0.002
       0.010
       0.016
       0.014
       0.006
      -0.004
      -0.011
      -0.012
      -0.012
      -0.011
      -0.010
      -0.006
      -0.002
       0.002
       0.003
       0.002
      -0.001
      -0.003
      -0.003
      -0.001
       0.000
      -0.002
      -0.006
      -0.010
      -0.013
      -0.015
      -0.017
      -0.020
      -0.019
      -0.013
       0.000
       0.013
       0.016
       0.008
      -0.008
      -0.024
      -0.031
      -0.027
      -0.014
      -0.003
       0.000
      -0.004
      -0.011
      -0.015
      -0.014
      -0.010
      -0.007
      -0.004
      -0.004
      -0.003
      -0.003
      -0.003
      -0.003
      -0.001
       0.001
       0.003
       0.004
       0.006
       0.012
       0.020
       0.027
       0.024
       0.012
      -0.004
      -0.014
      -0.013
      -0.007
      -0.001
      -0.001
      -0.005
      -0.009
      -0.015
      -0.020
      -0.023
      -0.021
      -0.014
      -0.005
      -0.001
       0.000
       0.000
       0.001
       0.004
       0.005
       0.001
      -0.004
      -0.006
      -0.005
      -0.003
      -0.003
      -0.005
      -0.006
      -0.006
      -0.004
      -0.002
       0.001
       0.001
      -0.003
      -0.012
      -0.022
      -0.030
      -0.030
      -0.024
      -0.014
      -0.007
      -0.005
      -0.009
      -0.014
      -0.014
      -0.011
      -0.006
      -0.004
      -0.006
      -0.010
      -0.013
      -0.014
      -0.013
      -0.013
      -0.014
      -0.016
      -0.019
      -0.022
      -0.025
      -0.026
      -0.024
      -0.018
      -0.010
      -0.004
      -0.004
      -0.006
      -0.008
      -0.008
      -0.007
      -0.008
      -0.011
      -0.015
      -0.017
      -0.016
      -0.012
      -0.008
      -0.001
       0.006
       0.012
       0.015
       0.013
       0.007
       0.001
      -0.003
      -0.004
      -0.003
      -0.003
      -0.001
       0.003
       0.008
       0.013
       0.014
       0.010
       0.004
      -0.002
      -0.005
      -0.005
      -0.004
      -0.003
      -0.004
      -0.009
      -0.014
      -0.019
      -0.021
      -0.018
      -0.010
       0.000
       0.008
       0.012
       0.009
       0.001
      -0.010
      -0.021
      -0.031
      -0.037
      -0.037
      -0.032
      -0.023
      -0.014
      -0.006
       0.000
       0.004
       0.007
       0.009
       0.010
       0.010
       0.006
      -0.002
      -0.010
      -0.014
      -0.011
      -0.008
      -0.008
      -0.011
      -0.012
      -0.006
       0.005
       0.015
       0.019
       0.016
       0.007
      -0.001
      -0.007
      -0.011
      -0.015
      -0.020
      -0.023
      -0.022
      -0.014
      -0.001
       0.010
       0.016
       0.014
       0.007
      -0.002
      -0.007
      -0.007
      -0.006
      -0.006
      -0.010
      -0.016
      -0.021
      -0.025
      -0.032
      -0.041
      -0.048
      -0.048
      -0.033
       0.006
       0.066
       0.123
       0.137
       0.072
      -0.062
      -0.204
      -0.262
      -0.180
       0.012
       0.205
       0.273
       0.164
      -0.053
      -0.238
      -0.278
      -0.156
       0.050
       0.230
       0.309
       0.277
       0.165
       0.017
      -0.131
      -0.251
      -0.320
      -0.317
      -0.223
      -0.038
       0.206
       0.432
       0.545
       0.476
       0.220
      -0.151
      -0.504
      -0.688
      -0.608
      -0.279
       0.162
       0.526
       0.670
       0.560
       0.268
      -0.084
      -0.374
      -0.526
      -0.525
      -0.419
      -0.276
      -0.123
       0.066
       0.318
       0.592
       0.784
       0.785
       0.561
       0.160
      -0.317
      -0.764
      -1.064
      -1.087
      -0.745
      -0.096
       0.608
       1.030
       0.970
       0.510
      -0.049
      -0.407
      -0.450
      -0.277
      -0.083
      -0.005
      -0.054
      -0.141
      -0.158
      -0.041
       0.179
       0.383
       0.439
       0.302
       0.046
      -0.204
      -0.371
      -0.452
      -0.471
      -0.406
      -0.201
       0.139
       0.458
       0.520
       0.209
      -0.318
      -0.698
      -0.620
      -0.092
       0.505
       0.687
       0.243
      -0.566
      -1.199
      -1.246
      -0.718
       0.018
       0.552
       0.713
       0.597
       0.395
       0.221
       0.077
      -0.062
      -0.159
      -0.128
       0.066
       0.332
       0.480
       0.371
       0.048
      -0.263
      -0.315
      -0.017
       0.488
       0.907
       0.970
       0.585
      -0.087
      -0.680
      -0.811
      -0.312
       0.623
       1.511
       1.839
       1.346
       0.196
      -1.084
      -1.886
      -1.862
      -1.105
      -0.067
       0.725
       0.971
       0.736
       0.337
       0.084
       0.063
       0.111
      -0.030
      -0.499
      -1.179
      -1.722
      -1.769
      -1.230
      -0.380
       0.334
       0.636
       0.607
       0.536
       0.618
       0.770
       0.739
       0.382
      -0.166
      -0.582
      -0.622
      -0.319
       0.072
       0.308
       0.340
       0.284
       0.262
       0.282
       0.259
       0.134
      -0.055
      -0.192
      -0.197
      -0.097
      -0.018
      -0.081
      -0.303
      -0.552
      -0.626
      -0.416
      -0.039
       0.192
      -0.028
      -0.713
      -1.453
      -1.604
      -0.769
       0.808
       2.313
       2.919
       2.365
       1.111
      -0.039
      -0.514
      -0.336
      -0.003
      -0.032
      -0.552
      -1.258
      -1.695
      -1.572
      -0.896
       0.118
       1.161
       1.921
       2.139
       1.698
       0.705
      -0.515
      -1.544
      -2.040
      -1.868
      -1.128
      -0.127
       0.695
       0.935
       0.465
      -0.408
      -1.048
      -0.873
       0.225
       1.735
       2.795
       2.726
       1.444
      -0.490
      -2.201
      -2.971
      -2.582
      -1.386
      -0.044
       0.878
       1.202
       1.128
       0.970
       0.887
       0.802
       0.526
      -0.016
      -0.682
      -1.209
      -1.429
      -1.370
      -1.145
      -0.779
      -0.176
       0.715
       1.675
       2.204
       1.825
       0.527
      -1.077
      -2.092
      -1.925
      -0.672
       0.956
       2.070
       2.101
       1.101
      -0.305
      -1.264
      -1.191
      -0.135
       1.189
       1.821
       1.222
      -0.293
      -1.744
      -2.190
      -1.413
      -0.037
       0.982
       1.062
       0.326
      -0.626
      -1.193
      -1.089
      -0.368
       0.678
       1.599
       1.888
       1.226
      -0.255
      -1.914
      -2.926
      -2.804
      -1.700
      -0.259
       0.818
       1.144
       0.770
       0.082
      -0.401
      -0.275
       0.532
       1.663
       2.473
       2.401
       1.319
      -0.395
      -2.096
      -3.200
      -3.393
      -2.672
      -1.284
       0.360
       1.788
       2.625
       2.765
       2.421
       1.939
       1.507
       1.038
       0.334
      -0.658
      -1.710
      -2.417
      -2.462
      -1.844
      -0.916
      -0.175
       0.057
      -0.164
      -0.453
      -0.377
       0.232
       1.129
       1.834
       1.998
       1.672
       1.225
       0.997
       0.973
       0.783
       0.043
      -1.226
      -2.474
      -2.962
      -2.299
      -0.755
       0.890
       1.841
       1.779
       1.026
       0.268
       0.047
       0.412
       0.951
       1.146
       0.749
      -0.089
      -0.982
      -1.580
      -1.737
      -1.492
      -0.969
      -0.304
       0.346
       0.789
       0.827
       0.373
      -0.412
      -1.103
      -1.224
      -0.595
       0.446
       1.214
       1.151
       0.253
      -0.888
      -1.489
      -1.133
      -0.069
       0.951
       1.216
       0.567
      -0.525
      -1.355
      -1.506
      -1.060
      -0.383
       0.219
       0.641
       0.862
       0.804
       0.386
      -0.297
      -0.885
      -0.938
      -0.282
       0.808
       1.777
       2.179
       1.915
       1.212
       0.440
      -0.072
      -0.187
      -0.053
      -0.064
      -0.589
      -1.616
      -2.600
      -2.749
      -1.601
       0.566
       2.824
       4.130
       3.906
       2.295
       0.000
      -2.126
      -3.437
      -3.660
      -2.893
      -1.552
      -0.194
       0.743
       1.144
       1.169
       1.054
       0.975
       1.052
       1.351
       1.783
       2.005
       1.554
       0.238
      -1.539
      -2.911
      -3.151
      -2.225
      -0.780
       0.395
       0.929
       1.016
       1.110
       1.476
       1.945
       2.026
       1.276
      -0.334
      -2.310
      -3.855
      -4.292
      -3.433
      -1.646
       0.407
       2.131
       3.195
       3.481
       2.938
       1.576
      -0.400
      -2.453
      -3.816
      -3.857
      -2.482
      -0.291
       1.684
       2.543
       2.026
       0.653
      -0.608
      -0.915
      -0.057
       1.393
       2.410
       2.194
       0.756
      -1.041
      -2.097
      -1.852
      -0.607
       0.783
       1.483
       1.093
      -0.245
      -1.954
      -3.221
      -3.283
      -1.808
       0.824
       3.557
       5.124
       4.705
       2.417
      -0.687
      -3.118
      -3.728
      -2.368
       0.003
       1.904
       2.256
       1.040
      -0.761
      -1.841
      -1.399
       0.403
       2.562
       3.819
       3.353
       1.242
      -1.541
      -3.642
      -4.089
      -2.829
      -0.662
       1.299
       2.247
       2.006
       0.942
      -0.403
      -1.638
      -2.573
      -3.070
      -2.961
      -2.150
      -0.785
       0.694
       1.761
       2.138
       1.978
       1.691
       1.550
       1.446
       1.012
      -0.004
      -1.405
      -2.546
      -2.720
      -1.696
       0.038
       1.570
       2.184
       1.812
       0.975
       0.286
      -0.030
      -0.193
      -0.510
      -1.010
      -1.416
      -1.417
      -0.929
      -0.146
       0.597
       1.011
       1.004
       0.735
       0.531
       0.665
       1.126
       1.563
       1.507
       0.739
      -0.481
      -1.547
      -1.911
      -1.458
      -0.553
       0.278
       0.742
       0.901
       0.947
       0.915
       0.661
       0.107
      -0.543
      -0.907
      -0.774
      -0.336
      -0.026
      -0.109
      -0.412
      -0.457
       0.081
       1.008
       1.670
       1.410
       0.077
      -1.811
      -3.345
      -3.726
      -2.674
      -0.554
       1.828
       3.617
       4.281
       3.758
       2.340
       0.471
      -1.398
      -2.859
      -3.608
      -3.534
      -2.753
      -1.541
      -0.197
       1.022
       1.888
       2.210
       1.928
       1.212
       0.383
      -0.291
      -0.739
      -1.017
      -1.141
      -1.026
      -0.614
      -0.048
       0.353
       0.322
      -0.132
      -0.730
      -1.131
      -1.165
      -0.878
      -0.385
       0.278
       1.156
       2.217
       3.200
       3.680
       3.324
       2.141
       0.535
      -0.891
      -1.662
      -1.676
      -1.220
      -0.732
      -0.485
      -0.439
      -0.319
       0.121
       0.851
       1.522
       1.708
       1.240
       0.362
      -0.462
      -0.876
      -0.832
      -0.546
      -0.315
      -0.359
      -0.782
      -1.571
      -2.560
      -3.409
      -3.717
      -3.264
      -2.178
      -0.856
       0.307
       1.185
       1.914
       2.642
       3.234
       3.228
       2.094
      -0.361
      -3.690
      -6.807
      -8.376
      -7.467
      -4.123
       0.540
       4.805
       7.144
       6.900
       4.529
       1.342
      -1.138
      -1.914
      -1.006
       0.607
       1.614
       1.181
      -0.587
      -2.774
      -4.249
      -4.360
      -3.333
      -2.096
      -1.583
      -1.961
      -2.405
      -1.637
       1.121
       5.447
       9.749
      12.064
      11.196
       7.511
       2.823
      -0.660
      -1.686
      -0.669
       0.772
       1.074
      -0.196
      -2.229
      -3.708
      -3.714
      -2.172
       0.292
       2.774
       4.473
       4.899
       3.993
       2.172
       0.209
      -1.105
      -1.357
      -0.717
       0.177
       0.568
      -0.042
      -1.643
      -3.696
      -5.332
      -5.747
      -4.654
      -2.534
      -0.417
       0.732
       0.618
      -0.273
      -1.153
      -1.584
      -1.727
      -1.985
      -2.405
      -2.479
      -1.556
       0.507
       3.123
       5.396
       6.783
       7.338
       7.365
       6.903
       5.622
       3.221
      -0.125
      -3.730
      -6.768
      -8.634
      -9.078
      -8.187
      -6.367
      -4.257
      -2.469
      -1.264
      -0.430
       0.479
       1.710
       3.051
       3.971
       4.056
       3.336
       2.267
       1.426
       1.154
       1.332
       1.425
       0.848
      -0.559
      -2.327
      -3.666
      -4.054
      -3.567
      -2.675
      -1.767
      -0.910
       0.010
       1.053
       2.176
       3.318
       4.467
       5.614
       6.657
       7.288
       6.997
       5.292
       2.107
      -1.923
      -5.585
      -7.637
      -7.452
      -5.336
      -2.343
       0.263
       1.574
       1.375
       0.133
      -1.332
      -2.337
      -2.685
      -2.602
      -2.381
      -2.102
      -1.703
      -1.269
      -1.135
      -1.618
      -2.633
      -3.597
      -3.791
      -2.871
      -1.063
       1.093
       3.166
       5.016
       6.637
       7.924
       8.578
       8.228
       6.680
       4.110
       1.054
      -1.817
      -3.937
      -4.933
      -4.647
      -3.221
      -1.215
       0.469
       1.019
       0.266
      -1.138
      -2.223
      -2.522
      -2.421
      -2.695
      -3.695
      -4.997
      -5.812
      -5.697
      -4.889
      -3.979
      -3.331
      -2.823
      -2.086
      -0.866
       0.848
       2.893
       4.973
       6.681
       7.665
       7.937
       7.968
       8.361
       9.243
       9.959
       9.424
       6.934
       2.764
      -1.886
      -5.511
      -7.040
      -6.297
      -4.031
      -1.511
       0.109
       0.346
      -0.457
      -1.487
      -2.095
      -2.232
      -2.324
      -2.734
      -3.398
      -3.983
      -4.321
      -4.517
      -4.590
      -4.168
      -2.725
      -0.203
       2.690
       4.912
       5.850
       5.656
       4.871
       3.789
       2.255
       0.059
      -2.516
      -4.602
      -5.231
      -3.981
      -1.259
       1.938
       4.541
       5.828
       5.582
       4.091
       2.049
       0.273
      -0.739
      -1.173
      -1.811
      -3.420
      -6.009
      -8.558
      -9.517
      -7.787
      -3.487
       2.030
       6.900
       9.685
       9.926
       8.115
       5.286
       2.532
       0.614
      -0.288
      -0.606
      -1.122
      -2.438
      -4.479
      -6.426
      -7.205
      -6.238
      -3.829
      -0.892
       1.730
       3.701
       5.066
       5.850
       5.897
       5.113
       3.754
       2.376
       1.455
       1.054
       0.845
       0.449
      -0.267
      -1.125
      -1.796
      -2.019
      -1.766
      -1.289
      -1.009
      -1.286
      -2.178
      -3.321
      -4.013
      -3.579
      -1.854
       0.572
       2.627
       3.402
       2.682
       0.980
      -0.867
      -2.180
      -2.695
      -2.514
      -1.916
      -1.212
      -0.666
      -0.408
      -0.352
      -0.238
       0.162
       0.812
       1.400
       1.593
       1.362
       1.081
       1.272
       2.134
       3.254
       3.791
       3.057
       1.088
      -1.289
      -2.961
      -3.293
      -2.565
      -1.744
      -1.742
      -2.713
      -3.940
      -4.360
      -3.316
      -0.983
       1.768
       3.902
       4.771
       4.363
       3.152
       1.730
       0.500
      -0.427
      -1.133
      -1.735
      -2.259
      -2.569
      -2.382
      -1.409
       0.381
       2.580
       4.453
       5.364
       5.150
       4.141
       2.815
       1.430
      -0.041
      -1.684
      -3.354
      -4.611
      -4.952
      -4.178
      -2.585
      -0.805
       0.584
       1.371
       1.736
       1.997
       2.324
       2.661
       2.866
       2.882
       2.711
       2.230
       1.128
      -0.829
      -3.402
      -5.788
      -7.062
      -6.820
      -5.458
      -3.853
      -2.743
      -2.313
      -2.219
      -1.926
      -1.101
       0.177
       1.477
       2.274
       2.237
       1.388
       0.114
      -0.950
      -1.150
      -0.104
       2.040
       4.575
       6.502
       7.008
       5.883
       3.613
       1.111
      -0.741
      -1.486
      -1.241
      -0.540
       0.060
       0.333
       0.476
       0.881
       1.759
       2.891
       3.686
       3.536
       2.216
       0.030
      -2.410
      -4.573
      -6.236
      -7.398
      -8.060
      -8.142
      -7.587
      -6.484
      -5.017
      -3.300
      -1.278
       1.172
       3.988
       6.731
       8.656
       9.067
       7.726
       5.043
       1.914
      -0.667
      -1.999
      -1.897
      -0.670
       1.085
       2.739
       3.819
       4.100
       3.615
       2.581
       1.284
      -0.028
      -1.215
      -2.231
      -3.051
      -3.596
      -3.748
      -3.419
      -2.593
      -1.299
       0.417
       2.410
       4.323
       5.601
       5.749
       4.630
       2.556
       0.070
      -2.365
      -4.515
      -6.293
      -7.592
      -8.233
      -8.063
      -7.086
      -5.488
      -3.536
      -1.492
       0.422
       2.039
       3.292
       4.184
       4.671
