Origin Time       19/11/2012 06:25:21
Lat.              28.7 N 
Long.             76.6 E 
Depth (Km)          5.0
Magnitude         3.5
 Region           ROHTAK-HARYANA                                                   
 Above details taken from IMD 
   
Station Code      ROH
Station Lat.       28.896
Station Long.      76.593
Station Height(m)  225.0
Site Class        C   Vs30 between 200 m/sec to 375 m/sec *  
Record Time       19.11.2012 06:24:09.554
Sampling Rate     200. Hz
 Record Duration  131.110 Sec.
 Direction         Vert. (Up positive)
Max. Acceleration    -55.539 cm/sec**2
     
  * For reference see Site Classification link of website 
     
 Base Line Corrected and Low Pass Filtered (Cut Off at 35 Hz) Time History
 Acceleration data in cm/sec**2
    
[...]
       0.049
       0.022
      -0.013
      -0.039
      -0.043
      -0.028
      -0.007
       0.010
       0.018
       0.020
       0.019
       0.015
       0.013
       0.017
       0.032
       0.052
       0.062
       0.048
       0.018
      -0.007
      -0.011
      -0.001
       0.002
      -0.010
      -0.031
      -0.041
      -0.032
      -0.008
       0.016
       0.029
       0.027
       0.012
      -0.005
      -0.014
      -0.005
       0.017
       0.037
       0.038
       0.016
      -0.010
      -0.022
      -0.011
       0.004
       0.003
      -0.020
      -0.045
      -0.041
      -0.003
       0.044
       0.066
       0.050
       0.016
      -0.005
      -0.004
       0.001
      -0.010
      -0.036
      -0.050
      -0.035
      -0.002
       0.019
       0.013
      -0.010
      -0.027
      -0.028
      -0.022
      -0.019
      -0.014
       0.003
       0.032
       0.052
       0.042
       0.003
      -0.035
      -0.044
      -0.022
       0.007
       0.017
       0.001
      -0.023
      -0.036
      -0.031
      -0.018
      -0.010
      -0.005
       0.005
       0.019
       0.024
       0.011
      -0.011
      -0.025
      -0.018
       0.001
       0.012
       0.008
       0.000
       0.003
       0.014
       0.015
      -0.003
      -0.027
      -0.034
      -0.017
       0.009
       0.019
       0.007
      -0.010
      -0.013
       0.004
       0.021
       0.022
       0.008
      -0.009
      -0.022
      -0.032
      -0.043
      -0.044
      -0.029
      -0.001
       0.023
       0.029
       0.022
       0.015
       0.012
       0.009
      -0.003
      -0.018
      -0.021
      -0.002
       0.028
       0.048
       0.042
       0.016
      -0.006
      -0.007
       0.009
       0.020
       0.012
      -0.007
      -0.016
      -0.005
       0.015
       0.019
      -0.003
      -0.037
      -0.059
      -0.058
      -0.040
      -0.017
       0.005
       0.023
       0.032
       0.027
       0.010
      -0.007
      -0.011
       0.000
       0.015
       0.021
       0.014
      -0.002
      -0.019
      -0.031
      -0.030
      -0.016
       0.009
       0.030
       0.037
       0.025
       0.002
      -0.019
      -0.030
      -0.033
      -0.027
      -0.013
       0.011
       0.038
       0.057
       0.057
       0.042
       0.029
       0.026
       0.029
       0.020
      -0.008
      -0.045
      -0.071
      -0.071
      -0.048
      -0.020
      -0.001
       0.008
       0.014
       0.020
       0.027
       0.033
       0.035
       0.031
       0.021
       0.010
       0.001
      -0.006
      -0.013
      -0.019
      -0.020
      -0.013
      -0.005
      -0.002
      -0.006
      -0.011
      -0.004
       0.017
       0.044
       0.059
       0.054
       0.029
      -0.001
      -0.025
      -0.036
      -0.035
      -0.026
      -0.012
       0.001
       0.008
       0.006
       0.004
       0.010
       0.025
       0.037
       0.034
       0.017
       0.000
      -0.006
       0.001
       0.013
       0.020
       0.021
       0.015
       0.005
      -0.008
      -0.019
      -0.024
      -0.019
      -0.012
      -0.006
      -0.006
      -0.007
      -0.004
       0.005
       0.014
       0.018
       0.018
       0.018
       0.021
       0.024
       0.018
       0.002
      -0.017
      -0.021
       0.000
       0.037
       0.065
       0.065
       0.035
      -0.002
      -0.022
      -0.016
       0.003
       0.013
       0.003
      -0.021
      -0.043
      -0.047
      -0.032
      -0.006
       0.018
       0.027
       0.020
       0.003
      -0.010
      -0.010
      -0.001
       0.008
       0.011
       0.008
       0.005
       0.007
       0.015
       0.022
       0.025
       0.021
       0.014
       0.010
       0.014
       0.023
       0.031
       0.032
       0.021
      -0.002
      -0.026
      -0.039
      -0.032
      -0.006
       0.027
       0.046
       0.040
       0.015
      -0.012
      -0.021
      -0.012
       0.001
       0.003
      -0.008
      -0.018
      -0.015
       0.000
       0.017
       0.027
       0.030
       0.032
       0.030
       0.016
      -0.008
      -0.028
      -0.030
      -0.015
       0.005
       0.015
       0.012
       0.004
       0.000
       0.001
       0.007
       0.015
       0.026
       0.037
       0.043
       0.044
       0.041
       0.032
       0.014
      -0.014
      -0.038
      -0.042
      -0.018
       0.022
       0.046
       0.034
      -0.002
      -0.031
      -0.025
       0.007
       0.034
       0.027
      -0.003
      -0.028
      -0.024
       0.000
       0.020
       0.017
       0.000
      -0.007
       0.007
       0.033
       0.047
       0.035
       0.004
      -0.026
      -0.036
      -0.026
      -0.005
       0.014
       0.023
       0.022
       0.017
       0.012
       0.012
       0.015
       0.016
       0.010
      -0.005
      -0.023
      -0.033
      -0.031
      -0.021
      -0.013
      -0.010
      -0.006
       0.006
       0.020
       0.023
       0.010
      -0.006
      -0.005
       0.017
       0.041
       0.043
       0.018
      -0.014
      -0.028
      -0.017
       0.003
       0.011
       0.004
      -0.005
      -0.005
       0.001
       0.003
      -0.001
       0.001
       0.019
       0.045
       0.058
       0.042
       0.003
      -0.036
      -0.052
      -0.043
      -0.022
       0.000
       0.019
       0.033
       0.036
       0.022
      -0.003
      -0.022
      -0.021
       0.001
       0.028
       0.049
       0.057
       0.054
       0.040
       0.016
      -0.011
      -0.030
      -0.032
      -0.019
      -0.004
       0.002
      -0.001
      -0.004
       0.003
       0.022
       0.042
       0.053
       0.052
       0.040
       0.021
      -0.001
      -0.021
      -0.033
      -0.037
      -0.039
      -0.044
      -0.048
      -0.043
      -0.020
       0.011
       0.038
       0.052
       0.051
       0.039
       0.014
      -0.021
      -0.053
      -0.064
      -0.044
      -0.005
       0.022
       0.018
      -0.007
      -0.025
      -0.012
       0.027
       0.064
       0.076
       0.062
       0.034
       0.004
      -0.027
      -0.058
      -0.079
      -0.076
      -0.043
       0.007
       0.050
       0.070
       0.066
       0.051
       0.036
       0.022
       0.002
      -0.020
      -0.033
      -0.029
      -0.012
       0.004
       0.010
       0.007
       0.006
       0.009
       0.013
       0.007
      -0.009
      -0.026
      -0.031
      -0.020
       0.002
       0.024
       0.036
       0.036
       0.027
       0.021
       0.024
       0.035
       0.041
       0.027
      -0.005
      -0.040
      -0.059
      -0.051
      -0.021
       0.013
       0.038
       0.049
       0.046
       0.035
       0.022
       0.011
       0.004
       0.003
       0.005
       0.003
      -0.010
      -0.029
      -0.045
      -0.046
      -0.031
      -0.007
       0.016
       0.033
       0.040
       0.039
       0.031
       0.023
       0.024
       0.032
       0.035
       0.019
      -0.011
      -0.036
      -0.033
      -0.001
       0.036
       0.050
       0.031
      -0.007
      -0.036
      -0.042
      -0.032
      -0.020
      -0.012
      -0.007
       0.004
       0.024
       0.044
       0.054
       0.049
       0.032
       0.011
      -0.003
      -0.008
      -0.005
       0.000
       0.000
      -0.004
      -0.007
      -0.005
       0.003
       0.009
       0.005
      -0.007
      -0.020
      -0.025
      -0.023
      -0.022
      -0.026
      -0.034
      -0.034
      -0.017
       0.012
       0.038
       0.047
       0.036
       0.013
      -0.008
      -0.019
      -0.016
      -0.001
       0.019
       0.033
       0.037
       0.033
       0.028
       0.028
       0.033
       0.034
       0.024
      -0.002
      -0.036
      -0.068
      -0.085
      -0.078
      -0.045
       0.005
       0.053
       0.074
       0.059
       0.018
      -0.020
      -0.030
      -0.014
       0.010
       0.022
       0.018
       0.010
       0.009
       0.011
       0.007
      -0.003
      -0.012
      -0.011
      -0.002
       0.002
      -0.003
      -0.012
      -0.015
      -0.007
       0.004
       0.009
      -0.001
      -0.019
      -0.037
      -0.041
      -0.028
       0.000
       0.028
       0.043
       0.037
       0.015
      -0.011
      -0.028
      -0.028
      -0.010
       0.016
       0.040
       0.048
       0.037
       0.008
      -0.023
      -0.038
      -0.025
       0.007
       0.035
       0.035
       0.005
      -0.033
      -0.048
      -0.031
       0.002
       0.024
       0.018
      -0.006
      -0.024
      -0.016
       0.017
       0.054
       0.069
       0.051
       0.011
      -0.029
      -0.049
      -0.047
      -0.033
      -0.017
      -0.001
       0.017
       0.034
       0.042
       0.037
       0.026
       0.021
       0.025
       0.029
       0.023
       0.006
      -0.010
      -0.019
      -0.020
      -0.017
      -0.010
       0.005
       0.027
       0.045
       0.050
       0.039
       0.019
       0.000
      -0.011
      -0.013
      -0.010
      -0.003
       0.006
       0.017
       0.033
       0.051
       0.065
       0.066
       0.048
       0.016
      -0.017
      -0.034
      -0.036
      -0.033
      -0.036
      -0.039
      -0.031
      -0.002
       0.037
       0.065
       0.065
       0.038
       0.006
      -0.011
      -0.007
       0.003
       0.005
      -0.002
      -0.014
      -0.027
      -0.039
      -0.048
      -0.045
      -0.030
      -0.008
       0.013
       0.031
       0.052
       0.078
       0.099
       0.098
       0.064
       0.006
      -0.049
      -0.074
      -0.064
      -0.035
      -0.005
       0.020
       0.041
       0.063
       0.082
       0.090
       0.083
       0.060
       0.027
      -0.005
      -0.026
      -0.033
      -0.033
      -0.039
      -0.053
      -0.069
      -0.071
      -0.050
      -0.011
       0.028
       0.046
       0.037
       0.015
       0.000
      -0.001
       0.008
       0.024
       0.043
       0.055
       0.047
       0.012
      -0.038
      -0.074
      -0.074
      -0.040
       0.000
       0.021
       0.018
       0.010
       0.017
       0.037
       0.052
       0.049
       0.030
       0.017
       0.019
       0.030
       0.033
       0.019
      -0.004
      -0.022
      -0.028
      -0.024
      -0.017
      -0.008
       0.003
       0.019
       0.031
       0.032
       0.022
       0.012
       0.016
       0.029
       0.038
       0.030
       0.008
      -0.012
      -0.018
      -0.015
      -0.016
      -0.025
      -0.029
      -0.016
       0.010
       0.031
       0.034
       0.024
       0.017
       0.019
       0.024
       0.022
       0.015
       0.008
       0.009
       0.013
       0.012
      -0.001
      -0.015
      -0.019
      -0.007
       0.012
       0.019
       0.008
      -0.010
      -0.020
      -0.016
      -0.005
       0.001
       0.002
       0.007
       0.024
       0.048
       0.064
       0.066
       0.051
       0.025
      -0.007
      -0.038
      -0.064
      -0.079
      -0.079
      -0.066
      -0.037
       0.010
       0.062
       0.097
       0.096
       0.068
       0.038
       0.015
      -0.010
      -0.049
      -0.097
      -0.130
      -0.124
      -0.083
      -0.033
       0.000
       0.011
       0.022
       0.049
       0.085
       0.105
       0.096
       0.072
       0.056
       0.054
       0.051
       0.028
      -0.016
      -0.060
      -0.084
      -0.080
      -0.060
      -0.037
      -0.014
       0.012
       0.041
       0.064
       0.070
       0.055
       0.030
       0.003
      -0.017
      -0.034
      -0.049
      -0.060
      -0.063
      -0.055
      -0.033
       0.003
       0.050
       0.094
       0.113
       0.097
       0.058
       0.021
       0.005
       0.006
       0.006
      -0.002
      -0.011
      -0.010
       0.002
       0.014
       0.019
       0.017
       0.014
       0.012
       0.008
       0.002
       0.005
       0.023
       0.054
       0.077
       0.075
       0.051
       0.020
      -0.003
      -0.020
      -0.044
      -0.081
      -0.119
      -0.136
      -0.114
      -0.045
       0.054
       0.151
       0.208
       0.201
       0.139
       0.052
      -0.023
      -0.069
      -0.092
      -0.107
      -0.118
      -0.111
      -0.078
      -0.030
       0.005
       0.016
       0.018
       0.036
       0.074
       0.115
       0.132
       0.111
       0.055
      -0.014
      -0.070
      -0.100
      -0.105
      -0.087
      -0.048
       0.008
       0.068
       0.107
       0.112
       0.090
       0.056
       0.024
      -0.001
      -0.018
      -0.025
      -0.023
      -0.019
      -0.020
      -0.026
      -0.027
      -0.013
       0.010
       0.016
      -0.010
      -0.054
      -0.076
      -0.045
       0.032
       0.106
       0.124
       0.066
      -0.025
      -0.058
       0.032
       0.183
       0.199
      -0.062
      -0.456
      -0.533
       0.046
       0.936
       1.094
      -0.234
      -2.187
      -2.335
       0.940
       5.443
       5.434
      -2.756
     -13.887
     -14.677
       3.533
      30.383
      39.442
      13.756
     -30.761
     -55.539
     -37.486
       6.827
      38.576
      35.698
       9.970
     -12.386
     -17.861
     -10.879
      -1.089
       6.106
       8.894
       6.628
       0.491
      -5.766
      -7.662
      -3.614
       3.076
       6.761
       4.534
      -1.256
      -5.349
      -4.384
       0.237
       3.997
       3.671
       0.097
      -3.056
      -2.938
      -0.016
       2.675
       2.585
       0.045
      -2.287
      -2.203
      -0.031
       1.910
       1.768
      -0.087
      -1.683
      -1.520
       0.080
       1.482
       1.415
       0.099
      -1.140
      -1.198
      -0.160
       0.913
       1.058
       0.261
      -0.656
      -0.874
      -0.292
       0.484
       0.743
       0.289
      -0.408
      -0.686
      -0.313
       0.347
       0.690
       0.400
      -0.252
      -0.644
      -0.399
       0.238
       0.639
       0.404
      -0.240
      -0.650
      -0.396
       0.291
       0.728
       0.465
      -0.236
      -0.670
      -0.407
       0.269
       0.656
       0.354
      -0.317
      -0.666
      -0.345
       0.303
       0.613
       0.293
      -0.284
      -0.510
      -0.187
       0.317
       0.485
       0.159
      -0.321
      -0.467
      -0.154
       0.277
       0.407
       0.148
      -0.199
      -0.292
      -0.082
       0.179
       0.236
       0.071
      -0.123
      -0.162
      -0.047
       0.071
       0.074
      -0.006
      -0.069
      -0.058
       0.010
       0.075
       0.084
       0.041
       0.012
       0.033
       0.072
       0.078
       0.034
      -0.037
      -0.089
      -0.079
      -0.012
       0.058
       0.076
       0.030
      -0.042
      -0.062
       0.006
       0.109
       0.140
       0.052
      -0.082
      -0.133
      -0.054
       0.065
       0.094
       0.008
      -0.093
      -0.094
       0.015
       0.119
       0.102
      -0.024
      -0.119
      -0.073
       0.072
       0.165
       0.107
      -0.043
      -0.131
      -0.068
       0.081
       0.159
       0.082
      -0.066
      -0.122
      -0.025
       0.122
       0.156
       0.029
      -0.141
      -0.188
      -0.070
       0.094
       0.147
       0.060
      -0.050
      -0.049
       0.062
       0.163
       0.139
      -0.001
      -0.141
      -0.174
      -0.093
       0.017
       0.062
       0.024
      -0.034
      -0.036
       0.027
       0.089
       0.074
      -0.018
      -0.110
      -0.122
      -0.044
       0.050
       0.081
       0.032
      -0.036
      -0.052
      -0.003
       0.055
       0.060
       0.008
      -0.044
      -0.036
       0.033
       0.097
       0.094
       0.031
      -0.025
      -0.019
       0.035
       0.066
       0.030
      -0.051
      -0.104
      -0.086
      -0.015
       0.044
       0.041
      -0.014
      -0.057
      -0.035
       0.045
       0.113
       0.104
       0.013
      -0.094
      -0.130
      -0.063
       0.043
       0.084
       0.020
      -0.082
      -0.112
      -0.022
       0.111
       0.161
       0.075
      -0.070
      -0.141
      -0.077
       0.051
       0.114
       0.062
      -0.030
      -0.057
      -0.003
       0.067
       0.082
       0.032
      -0.028
      -0.047
      -0.026
      -0.001
      -0.002
      -0.025
      -0.043
      -0.032
       0.010
       0.070
       0.119
       0.127
       0.089
       0.030
      -0.011
      -0.013
       0.004
       0.005
      -0.024
      -0.057
      -0.054
      -0.011
       0.035
       0.050
       0.044
       0.047
       0.069
       0.084
       0.057
      -0.015
      -0.082
      -0.084
      -0.014
       0.064
       0.072
       0.000
      -0.084
      -0.102
      -0.044
       0.034
       0.066
       0.035
      -0.016
      -0.036
      -0.010
       0.032
       0.051
       0.037
       0.020
       0.029
       0.056
       0.059
       0.015
      -0.054
      -0.092
      -0.068
      -0.007
       0.035
       0.035
       0.013
       0.007
       0.032
       0.074
       0.097
       0.080
       0.033
      -0.009
      -0.019
      -0.002
       0.018
       0.016
      -0.007
      -0.033
      -0.043
      -0.038
      -0.038
      -0.053
      -0.067
      -0.049
       0.011
       0.079
       0.108
       0.075
       0.011
      -0.029
      -0.013
       0.037
       0.068
       0.046
      -0.009
      -0.052
      -0.052
      -0.023
       0.004
       0.009
      -0.005
      -0.016
      -0.015
      -0.006
       0.001
       0.004
       0.011
       0.023
       0.026
       0.006
      -0.031
      -0.056
      -0.048
      -0.009
       0.039
       0.074
       0.085
       0.075
       0.056
       0.038
       0.032
       0.032
       0.030
       0.016
      -0.007
      -0.029
      -0.041
      -0.044
      -0.042
      -0.038
      -0.023
       0.006
       0.045
       0.079
       0.094
       0.087
       0.063
       0.035
       0.010
      -0.008
      -0.019
      -0.026
      -0.028
      -0.024
      -0.021
      -0.025
      -0.035
      -0.039
      -0.021
       0.019
       0.061
       0.074
       0.051
       0.011
      -0.015
      -0.014
      -0.004
      -0.009
      -0.036
      -0.062
      -0.060
      -0.022
       0.025
       0.050
       0.043
       0.024
       0.017
       0.029
       0.037
       0.022
      -0.015
      -0.048
      -0.052
      -0.024
       0.015
       0.039
       0.037
       0.018
      -0.004
      -0.017
      -0.016
      -0.007
       0.005
       0.015
       0.021
       0.023
       0.024
       0.025
       0.022
       0.010
      -0.009
      -0.023
      -0.020
       0.002
       0.029
       0.039
       0.021
      -0.013
      -0.036
      -0.029
       0.002
