Origin Time       31/03/2006 11:25:39
Lat.              28.7 N 
Long.             76.8 E 
Depth (Km)         22.0
Magnitude         3.4
 Region           JHAJJAR-HARYANA                                                  
 Above details taken from IMD 
   
Station Code      ROH
Station Lat.       28.896
Station Long.      76.593
Station Height(m)  225.0
Site Class        C   Vs30 between 200 m/sec to 375 m/sec *  
Record Time       31.03.2006 11:25:26.529
Sampling Rate     200. Hz
 Record Duration   29.995 Sec.
 Direction         Vert. (Up positive)
Max. Acceleration     -9.368 cm/sec**2
     
  * For reference see Site Classification link of website 
     
 Base Line Corrected and Low Pass Filtered (Cut Off at 35 Hz) Time History
 Acceleration data in cm/sec**2
    
[...]
      -0.030
      -0.022
      -0.003
       0.013
       0.015
       0.000
      -0.024
      -0.043
      -0.046
      -0.034
      -0.016
      -0.002
       0.004
       0.010
       0.020
       0.032
       0.036
       0.027
       0.006
      -0.018
      -0.037
      -0.047
      -0.045
      -0.031
      -0.011
       0.004
       0.007
       0.001
       0.001
       0.012
       0.029
       0.036
       0.024
       0.001
      -0.019
      -0.025
      -0.021
      -0.023
      -0.036
      -0.049
      -0.042
      -0.010
       0.034
       0.066
       0.072
       0.058
       0.038
       0.022
       0.013
       0.002
      -0.016
      -0.039
      -0.057
      -0.058
      -0.041
      -0.016
       0.005
       0.019
       0.031
       0.046
       0.061
       0.066
       0.054
       0.030
       0.006
      -0.005
      -0.006
      -0.008
      -0.019
      -0.029
      -0.025
      -0.002
       0.026
       0.040
       0.037
       0.027
       0.019
       0.013
       0.001
      -0.019
      -0.036
      -0.039
      -0.024
       0.001
       0.024
       0.036
       0.039
       0.035
       0.028
       0.019
       0.010
       0.005
       0.007
       0.012
       0.010
      -0.005
      -0.028
      -0.042
      -0.033
      -0.003
       0.031
       0.048
       0.037
       0.004
      -0.029
      -0.044
      -0.034
      -0.011
       0.009
       0.020
       0.027
       0.033
       0.029
       0.008
      -0.023
      -0.043
      -0.034
      -0.001
       0.034
       0.049
       0.041
       0.019
       0.002
      -0.002
       0.010
       0.029
       0.042
       0.039
       0.020
      -0.002
      -0.013
      -0.010
      -0.001
       0.004
       0.005
       0.008
       0.017
       0.027
       0.031
       0.030
       0.024
       0.011
      -0.008
      -0.028
      -0.039
      -0.033
      -0.013
       0.009
       0.022
       0.022
       0.013
       0.006
       0.007
       0.012
       0.010
       0.003
      -0.001
       0.006
       0.018
       0.019
       0.002
      -0.021
      -0.028
      -0.011
       0.016
       0.031
       0.025
       0.006
      -0.010
      -0.014
      -0.009
      -0.002
       0.002
       0.001
       0.001
       0.010
       0.030
       0.054
       0.068
       0.058
       0.021
      -0.029
      -0.067
      -0.073
      -0.047
      -0.007
       0.023
       0.036
       0.038
       0.039
       0.043
       0.045
       0.039
       0.024
       0.007
      -0.007
      -0.012
      -0.012
      -0.011
      -0.013
      -0.017
      -0.016
      -0.002
       0.024
       0.045
       0.042
       0.009
      -0.035
      -0.062
      -0.052
      -0.018
       0.017
       0.031
       0.026
       0.016
       0.019
       0.037
       0.053
       0.046
       0.008
      -0.043
      -0.072
      -0.055
      -0.007
       0.038
       0.057
       0.054
       0.047
       0.047
       0.045
       0.029
       0.005
      -0.013
      -0.018
      -0.018
      -0.016
      -0.009
       0.008
       0.027
       0.032
       0.021
       0.005
      -0.005
      -0.015
      -0.033
      -0.052
      -0.053
      -0.029
       0.005
       0.020
       0.010
      -0.008
      -0.011
       0.009
       0.035
       0.048
       0.039
       0.011
      -0.030
      -0.072
      -0.096
      -0.082
      -0.031
       0.034
       0.077
       0.079
       0.049
       0.014
      -0.004
      -0.005
       0.000
      -0.003
      -0.017
      -0.038
      -0.049
      -0.036
      -0.001
       0.034
       0.047
       0.031
       0.007
      -0.001
       0.013
       0.033
       0.038
       0.022
      -0.002
      -0.025
      -0.042
      -0.057
      -0.064
      -0.050
      -0.009
       0.048
       0.091
       0.099
       0.070
       0.023
      -0.012
      -0.018
      -0.001
       0.012
       0.004
      -0.024
      -0.050
      -0.061
      -0.055
      -0.041
      -0.021
       0.004
       0.028
       0.039
       0.030
       0.009
      -0.008
      -0.012
      -0.004
       0.005
       0.008
       0.003
      -0.008
      -0.019
      -0.020
      -0.009
       0.007
       0.019
       0.020
       0.014
       0.007
       0.000
      -0.007
      -0.013
      -0.016
      -0.023
      -0.034
      -0.043
      -0.039
      -0.017
       0.011
       0.025
       0.017
       0.002
      -0.003
       0.011
       0.032
       0.042
       0.033
       0.006
      -0.025
      -0.048
      -0.053
      -0.040
      -0.019
       0.001
       0.014
       0.021
       0.026
       0.025
       0.017
       0.003
      -0.010
      -0.011
      -0.003
       0.007
       0.014
       0.013
       0.003
      -0.017
      -0.040
      -0.054
      -0.047
      -0.022
       0.004
       0.017
       0.019
       0.020
       0.031
       0.044
       0.049
       0.039
       0.021
       0.006
       0.001
       0.006
       0.015
       0.020
       0.016
       0.005
      -0.006
      -0.008
       0.001
       0.017
       0.027
       0.028
       0.022
       0.016
       0.015
       0.020
       0.026
       0.024
       0.013
      -0.001
      -0.008
      -0.001
       0.013
       0.023
       0.016
      -0.003
      -0.019
      -0.021
      -0.012
      -0.005
      -0.009
      -0.021
      -0.026
      -0.014
       0.007
       0.018
       0.006
      -0.022
      -0.046
      -0.045
      -0.016
       0.024
       0.057
       0.068
       0.058
       0.037
       0.019
       0.014
       0.021
       0.026
       0.019
       0.002
      -0.013
      -0.018
      -0.014
      -0.007
       0.001
       0.015
       0.036
       0.053
       0.052
       0.026
      -0.013
      -0.046
      -0.056
      -0.042
      -0.013
       0.015
       0.033
       0.034
       0.023
       0.010
       0.007
       0.015
       0.024
       0.020
       0.000
      -0.024
      -0.037
      -0.030
      -0.007
       0.020
       0.038
       0.041
       0.029
       0.007
      -0.021
      -0.044
      -0.050
      -0.034
      -0.004
       0.024
       0.033
       0.019
      -0.007
      -0.027
      -0.023
       0.004
       0.039
       0.058
       0.048
       0.018
      -0.010
      -0.016
       0.003
       0.032
       0.052
       0.056
       0.051
       0.045
       0.036
       0.022
       0.010
       0.009
       0.018
       0.028
       0.029
       0.020
       0.004
      -0.010
      -0.014
      -0.006
       0.008
       0.019
       0.019
       0.004
      -0.019
      -0.039
      -0.040
      -0.017
       0.017
       0.041
       0.040
       0.018
      -0.008
      -0.022
      -0.020
      -0.009
       0.001
       0.009
       0.015
       0.019
       0.019
       0.012
       0.003
      -0.004
      -0.005
      -0.006
      -0.008
      -0.009
      -0.004
       0.010
       0.026
       0.033
       0.028
       0.017
       0.013
       0.021
       0.030
       0.028
       0.010
      -0.015
      -0.027
      -0.016
       0.018
       0.058
       0.084
       0.083
       0.055
       0.016
      -0.014
      -0.020
      -0.004
       0.018
       0.027
       0.012
      -0.019
      -0.045
      -0.046
      -0.017
       0.024
       0.055
       0.061
       0.045
       0.018
      -0.007
      -0.024
      -0.032
      -0.031
      -0.023
      -0.015
      -0.013
      -0.017
      -0.018
      -0.008
       0.013
       0.032
       0.042
       0.041
       0.035
       0.028
       0.020
       0.010
       0.001
      -0.002
       0.001
       0.008
       0.015
       0.021
       0.027
       0.032
       0.030
       0.017
      -0.007
      -0.033
      -0.048
      -0.040
      -0.014
       0.018
       0.038
       0.034
       0.012
      -0.008
      -0.009
       0.015
       0.045
       0.057
       0.037
       0.000
      -0.029
      -0.035
      -0.021
       0.001
       0.017
       0.021
       0.011
      -0.007
      -0.018
      -0.010
       0.018
       0.047
       0.058
       0.044
       0.016
      -0.007
      -0.015
      -0.008
       0.005
       0.012
       0.005
      -0.013
      -0.032
      -0.038
      -0.021
       0.013
       0.047
       0.064
       0.059
       0.043
       0.028
       0.021
       0.021
       0.021
       0.013
      -0.001
      -0.012
      -0.011
       0.005
       0.032
       0.064
       0.106
       0.170
       0.261
       0.365
       0.441
       0.431
       0.289
       0.029
      -0.265
      -0.461
      -0.465
      -0.299
      -0.106
      -0.053
      -0.193
      -0.407
      -0.496
      -0.344
      -0.022
       0.274
       0.385
       0.303
       0.137
      -0.007
      -0.094
      -0.133
      -0.120
      -0.032
       0.115
       0.245
       0.269
       0.166
       0.005
      -0.127
      -0.199
      -0.248
      -0.315
      -0.390
      -0.412
      -0.325
      -0.134
       0.098
       0.294
       0.409
       0.447
       0.431
       0.386
       0.345
       0.361
       0.470
       0.625
       0.681
       0.509
       0.139
      -0.216
      -0.340
      -0.239
      -0.161
      -0.345
      -0.763
      -1.128
      -1.160
      -0.822
      -0.326
       0.073
       0.270
       0.338
       0.411
       0.543
       0.657
       0.605
       0.301
      -0.163
      -0.529
      -0.541
      -0.167
       0.331
       0.578
       0.393
      -0.047
      -0.382
      -0.396
      -0.207
      -0.110
      -0.269
      -0.564
      -0.743
      -0.697
      -0.535
      -0.380
      -0.163
       0.315
       1.088
       1.849
       2.114
       1.628
       0.642
      -0.255
      -0.608
      -0.445
      -0.170
      -0.162
      -0.464
      -0.827
      -0.990
      -0.868
      -0.511
       0.028
       0.672
       1.236
       1.453
       1.196
       0.664
       0.244
       0.114
      -0.006
      -0.561
      -1.561
      -2.339
      -2.091
      -0.721
       0.909
       1.677
       1.213
       0.181
      -0.425
      -0.240
       0.245
       0.320
      -0.206
      -0.907
      -1.252
      -1.103
      -0.712
      -0.326
       0.101
       0.793
       1.799
       2.788
       3.187
       2.557
       0.910
      -1.216
      -2.982
      -3.665
      -3.060
      -1.586
      -0.027
       0.969
       1.253
       1.121
       0.943
       0.865
       0.811
       0.652
       0.331
      -0.124
      -0.593
      -0.869
      -0.786
      -0.413
      -0.063
       0.000
      -0.147
      -0.166
       0.141
       0.573
       0.697
       0.281
      -0.462
      -1.002
      -0.889
      -0.110
       0.860
       1.374
       1.091
       0.252
      -0.489
      -0.598
      -0.117
       0.385
       0.334
      -0.326
      -1.075
      -1.271
      -0.697
       0.247
       0.842
       0.600
      -0.332
      -1.247
      -1.381
      -0.480
       0.985
       2.120
       2.221
       1.248
      -0.190
      -1.294
      -1.592
      -1.099
      -0.135
       0.886
       1.506
       1.306
       0.205
      -1.232
      -1.984
      -1.339
       0.397
       1.989
       2.204
       0.824
      -1.150
      -2.307
      -1.931
      -0.472
       0.964
       1.534
       1.202
       0.524
       0.043
      -0.118
      -0.150
      -0.195
      -0.175
       0.018
       0.264
       0.254
      -0.167
      -0.762
      -1.068
      -0.804
      -0.106
       0.615
       1.005
       0.982
       0.693
       0.328
      -0.013
      -0.309
      -0.542
      -0.678
      -0.742
      -0.836
      -0.984
      -0.967
      -0.432
       0.670
       1.756
       1.898
       0.664
      -1.268
      -2.482
      -1.982
      -0.076
       1.877
       2.607
       1.879
       0.506
      -0.425
      -0.365
       0.421
       1.181
       1.244
       0.417
      -0.969
      -2.283
      -2.906
      -2.518
      -1.259
       0.286
       1.333
       1.346
       0.422
      -0.712
      -1.208
      -0.762
       0.171
       0.845
       0.954
       0.877
       1.193
       2.004
       2.787
       2.906
       2.194
       0.987
      -0.318
      -1.595
      -2.869
      -3.972
      -4.464
      -3.989
      -2.704
      -1.259
      -0.262
       0.284
       1.002
       2.509
       4.673
       6.450
       6.547
       4.382
       0.572
      -3.404
      -6.050
      -6.600
      -5.254
      -2.913
      -0.668
       0.714
       1.129
       1.139
       1.509
       2.537
       3.750
       4.307
       3.693
       2.042
      -0.129
      -2.333
      -4.168
      -5.114
      -4.600
      -2.572
       0.057
       1.812
       1.803
       0.555
      -0.395
       0.139
       1.928
       3.569
       3.755
       2.344
       0.320
      -1.137
      -1.531
      -1.205
      -0.837
      -0.832
      -1.077
      -1.179
      -0.891
      -0.329
       0.189
       0.450
       0.462
       0.297
      -0.104
      -0.863
      -1.853
      -2.563
      -2.421
      -1.323
       0.247
       1.685
       2.778
       3.644
       4.242
       4.128
       2.872
       0.673
      -1.599
      -3.071
      -3.565
      -3.573
      -3.498
      -3.016
      -1.378
       1.530
       4.516
       5.793
       4.580
       2.000
       0.165
       0.150
       0.866
       0.079
      -3.228
      -7.440
      -9.368
      -7.035
      -1.671
       3.104
       4.326
       2.227
      -0.182
      -0.108
       2.345
       4.421
       3.557
      -0.078
      -3.817
      -5.083
      -3.627
      -1.324
      -0.048
       0.006
      -0.012
       0.723
       1.720
       1.888
       1.016
       0.227
       0.828
       2.810
       4.661
       4.789
       3.109
       1.083
       0.161
       0.257
      -0.040
      -1.756
      -4.186
      -5.460
      -4.412
      -1.725
       0.865
       2.318
       3.041
       3.947
       5.060
       5.342
       3.875
       1.016
      -1.808
      -3.424
      -3.963
      -4.501
      -5.682
      -6.747
      -6.095
      -2.981
       1.316
       4.211
       3.932
       1.108
      -1.679
      -2.052
       0.204
       3.076
       4.136
       2.598
      -0.120
      -1.699
      -0.898
       1.496
       3.497
       3.638
       1.983
      -0.302
      -2.101
      -3.010
      -3.133
      -2.641
      -1.711
      -0.708
      -0.129
      -0.196
      -0.594
      -0.695
      -0.044
       1.304
       2.818
       3.812
       3.876
       3.113
       1.989
       0.928
       0.039
      -0.787
      -1.598
      -2.294
      -2.808
      -3.250
      -3.766
      -4.214
      -4.075
      -2.798
      -0.346
       2.573
       4.822
       5.518
       4.588
       2.818
       1.329
       0.784
       0.876
       0.560
      -1.038
      -3.714
      -6.075
      -6.472
      -4.313
      -0.658
       2.502
       3.713
       2.998
       1.543
       0.574
       0.513
       0.968
       1.236
       0.798
      -0.421
      -1.976
      -3.025
      -2.753
      -0.947
       1.720
       3.989
       4.741
       3.656
       1.381
      -0.857
      -1.981
      -1.669
      -0.459
       0.656
       0.822
      -0.252
      -2.190
      -4.100
      -4.864
      -3.640
      -0.520
       3.128
       5.283
       4.732
       2.176
      -0.240
      -0.721
       0.659
       2.107
       1.762
      -0.690
      -3.807
      -5.569
      -4.826
      -1.968
       1.453
       3.681
       3.695
       1.682
      -1.106
      -3.043
      -3.034
      -1.168
       1.351
       3.025
       3.060
       1.781
       0.249
      -0.508
      -0.075
       1.218
       2.514
       2.849
       1.679
      -0.662
      -2.957
      -3.777
      -2.439
       0.481
       3.451
       4.876
       3.979
       1.225
      -1.931
      -3.883
      -3.922
      -2.724
      -1.796
      -2.213
      -3.710
      -4.929
      -4.565
      -2.395
       0.647
       3.241
       4.528
       4.410
       3.314
       1.849
       0.628
       0.160
       0.626
       1.615
       2.218
       1.618
      -0.213
      -2.416
      -3.902
      -4.149
      -3.410
      -2.247
      -1.029
       0.127
       1.059
       1.472
       1.229
       0.666
       0.476
       1.170
       2.569
       3.787
       3.816
       2.316
      -0.035
      -1.985
      -2.603
      -1.833
      -0.309
       1.255
       2.446
       3.039
       2.749
       1.338
      -0.965
      -3.278
      -4.503
      -4.135
      -2.731
      -1.517
      -1.354
      -1.966
      -2.204
      -1.155
       0.965
       3.013
       3.973
       3.742
       2.940
       2.102
       1.219
       0.061
      -1.259
      -2.250
      -2.565
      -2.420
      -2.336
      -2.492
      -2.421
      -1.474
       0.389
       2.350
       3.387
       3.240
       2.672
       2.675
       3.384
       3.851
       2.954
       0.577
      -2.148
      -3.758
      -3.660
      -2.508
      -1.460
      -1.095
      -1.036
      -0.558
       0.524
       1.632
       2.060
       1.712
       1.111
       0.710
       0.374
      -0.319
      -1.342
      -2.019
      -1.741
      -0.840
      -0.550
      -1.859
      -4.291
      -5.951
      -5.035
      -1.512
       2.615
       4.811
       4.004
       1.329
      -0.947
      -1.298
       0.030
       1.581
       2.133
       1.650
       1.023
       1.050
       1.723
       2.401
       2.528
       2.120
       1.570
       1.076
       0.401
      -0.734
      -2.117
      -3.061
      -3.036
      -2.258
      -1.548
      -1.571
      -2.210
      -2.652
      -2.092
      -0.403
       1.754
       3.404
       3.911
       3.326
       2.206
       1.114
       0.254
      -0.505
      -1.313
      -2.101
      -2.647
      -2.793
      -2.526
      -1.855
      -0.709
       0.899
       2.632
       3.865
       4.064
       3.168
       1.612
      -0.025
      -1.358
      -2.267
      -2.713
      -2.590
      -1.819
      -0.591
       0.575
       1.130
       0.958
       0.512
       0.421
       0.929
       1.679
       2.042
       1.612
       0.457
      -1.002
      -2.253
      -2.922
      -2.903
      -2.355
      -1.569
      -0.751
       0.090
       1.084
       2.290
       3.493
       4.172
       3.759
       2.111
      -0.195
      -2.127
      -2.892
      -2.459
      -1.425
      -0.407
       0.410
       1.131
       1.690
       1.684
       0.797
      -0.647
      -1.702
      -1.557
      -0.352
       0.795
       0.692
      -0.835
      -2.674
      -3.244
      -1.758
       1.135
       3.804
       4.811
       3.823
       1.654
      -0.468
      -1.711
      -1.983
      -1.719
      -1.418
      -1.318
      -1.348
      -1.290
      -0.979
      -0.424
       0.201
       0.710
       1.053
       1.318
       1.579
       1.740
       1.554
       0.815
      -0.410
      -1.713
      -2.505
      -2.391
      -1.510
      -0.531
      -0.143
      -0.419
      -0.726
      -0.368
       0.658
       1.590
       1.636
       0.765
      -0.240
      -0.494
       0.234
