Origin Time       31/03/2006 11:25:39 UTC
Lat.              28.7 N 
Long.             76.8 E 
Depth (Km)         22.0
Magnitude         3.4
 Region           JHAJJAR-HARYANA                                                  
 Above details taken from IMD 
    
Station Code      ROH
Station Lat.       28.896  N
Station Long.      76.593  E
Station Height(m)  225.0
Site Class        C   Vs30 between 200 m/sec to 375 m/sec *  
Record Time       31.03.2006 11:25:26.529 UTC
Sampling Rate     200. Hz
 Record Duration   29.995 Sec.
 Direction         N-S (N positive)
Max. Acceleration     -4.779 cm/sec**2
     
  * For reference see Site Classification link of website 
     
 Base Line Corrected and Low Pass Filtered (Cut Off at 35 Hz) Time History
 Acceleration data in cm/sec**2
    
[...]
      -0.029
      -0.014
       0.006
       0.021
       0.021
       0.004
      -0.022
      -0.042
      -0.048
      -0.038
      -0.019
       0.001
       0.018
       0.026
       0.022
       0.005
      -0.016
      -0.029
      -0.029
      -0.018
      -0.006
       0.002
       0.003
       0.000
      -0.004
      -0.007
      -0.006
      -0.001
       0.003
      -0.001
      -0.012
      -0.023
      -0.026
      -0.019
      -0.006
       0.003
       0.008
       0.007
       0.003
      -0.003
      -0.006
      -0.002
       0.003
       0.002
      -0.008
      -0.019
      -0.021
      -0.014
      -0.005
      -0.004
      -0.013
      -0.025
      -0.029
      -0.021
      -0.007
       0.007
       0.013
       0.010
       0.002
      -0.006
      -0.011
      -0.011
      -0.009
      -0.008
      -0.008
      -0.006
      -0.001
       0.004
       0.004
      -0.002
      -0.008
      -0.009
      -0.004
       0.003
       0.007
       0.005
      -0.001
      -0.006
      -0.008
      -0.006
      -0.002
       0.003
       0.007
       0.011
       0.013
       0.012
       0.009
       0.006
       0.008
       0.015
       0.023
       0.025
       0.016
      -0.002
      -0.018
      -0.025
      -0.020
      -0.008
       0.005
       0.013
       0.011
      -0.001
      -0.015
      -0.022
      -0.020
      -0.014
      -0.013
      -0.019
      -0.025
      -0.019
      -0.001
       0.020
       0.029
       0.022
       0.009
       0.001
       0.005
       0.015
       0.023
       0.023
       0.016
       0.008
       0.001
      -0.002
      -0.005
      -0.007
      -0.008
      -0.005
       0.002
       0.009
       0.012
       0.009
       0.001
      -0.009
      -0.015
      -0.013
      -0.002
       0.013
       0.024
       0.025
       0.016
       0.004
      -0.005
      -0.008
      -0.009
      -0.011
      -0.013
      -0.011
      -0.006
      -0.001
       0.002
       0.004
       0.004
       0.005
       0.005
       0.000
      -0.006
      -0.011
      -0.010
      -0.003
       0.006
       0.011
       0.009
       0.002
      -0.003
      -0.004
       0.001
       0.007
       0.011
       0.009
       0.000
      -0.011
      -0.017
      -0.017
      -0.011
      -0.004
      -0.001
      -0.003
      -0.007
      -0.006
       0.000
       0.007
       0.011
       0.009
       0.001
      -0.017
      -0.045
      -0.075
      -0.086
      -0.057
       0.008
       0.069
       0.078
       0.010
      -0.101
      -0.177
      -0.152
      -0.022
       0.137
       0.221
       0.180
       0.045
      -0.096
      -0.165
      -0.137
      -0.043
       0.072
       0.159
       0.182
       0.120
      -0.007
      -0.137
      -0.197
      -0.155
      -0.042
       0.076
       0.147
       0.157
       0.112
       0.028
      -0.074
      -0.153
      -0.167
      -0.100
       0.019
       0.132
       0.189
       0.175
       0.113
       0.038
      -0.024
      -0.070
      -0.112
      -0.148
      -0.151
      -0.086
       0.038
       0.147
       0.155
       0.048
      -0.083
      -0.131
      -0.069
       0.035
       0.088
       0.058
      -0.017
      -0.065
      -0.043
       0.034
       0.115
       0.145
       0.103
       0.018
      -0.042
      -0.030
       0.026
       0.041
      -0.043
      -0.170
      -0.214
      -0.106
       0.084
       0.204
       0.173
       0.043
      -0.079
      -0.138
      -0.154
      -0.145
      -0.086
       0.047
       0.197
       0.243
       0.111
      -0.129
      -0.295
      -0.249
      -0.034
       0.158
       0.162
      -0.004
      -0.184
      -0.253
      -0.215
      -0.143
      -0.074
       0.020
       0.156
       0.268
       0.244
       0.042
      -0.232
      -0.380
      -0.279
       0.004
       0.261
       0.338
       0.265
       0.194
       0.193
       0.153
      -0.068
      -0.415
      -0.607
      -0.380
       0.219
       0.821
       1.020
       0.699
       0.090
      -0.437
      -0.658
      -0.583
      -0.354
      -0.088
       0.158
       0.331
       0.365
       0.240
       0.032
      -0.133
      -0.181
      -0.118
       0.000
       0.102
       0.103
      -0.070
      -0.399
      -0.717
      -0.787
      -0.478
       0.120
       0.753
       1.156
       1.150
       0.677
      -0.144
      -0.983
      -1.409
      -1.173
      -0.406
       0.456
       0.982
       1.016
       0.699
       0.273
      -0.108
      -0.409
      -0.606
      -0.613
      -0.341
       0.158
       0.641
       0.818
       0.586
       0.132
      -0.220
      -0.295
      -0.202
      -0.180
      -0.330
      -0.515
      -0.490
      -0.134
       0.432
       0.916
       1.021
       0.622
      -0.141
      -0.904
      -1.269
      -1.053
      -0.404
       0.309
       0.753
       0.821
       0.637
       0.391
       0.183
       0.003
      -0.181
      -0.358
      -0.512
      -0.669
      -0.840
      -0.895
      -0.609
       0.087
       0.901
       1.314
       0.996
       0.112
      -0.782
      -1.150
      -0.829
      -0.078
       0.657
       1.038
       1.000
       0.712
       0.401
       0.189
       0.058
      -0.067
      -0.220
      -0.382
      -0.520
      -0.604
      -0.604
      -0.494
      -0.299
      -0.097
       0.047
       0.133
       0.193
       0.229
       0.225
       0.220
       0.298
       0.489
       0.696
       0.745
       0.504
      -0.027
      -0.693
      -1.225
      -1.340
      -0.924
      -0.162
       0.534
       0.812
       0.664
       0.413
       0.382
       0.577
       0.686
       0.393
      -0.301
      -1.046
      -1.386
      -1.101
      -0.360
       0.407
       0.823
       0.793
       0.495
       0.181
      -0.016
      -0.131
      -0.259
      -0.413
      -0.475
      -0.313
       0.068
       0.498
       0.764
       0.748
       0.460
       0.004
      -0.458
      -0.747
      -0.749
      -0.484
      -0.099
       0.223
       0.358
       0.255
      -0.069
      -0.503
      -0.818
      -0.752
      -0.214
       0.570
       1.145
       1.139
       0.553
      -0.213
      -0.640
      -0.450
       0.207
       0.866
       1.059
       0.613
      -0.257
      -1.110
      -1.542
      -1.377
      -0.697
       0.213
       0.932
       1.051
       0.451
      -0.499
      -1.086
      -0.786
       0.262
       1.316
       1.618
       0.994
      -0.088
      -0.972
      -1.277
      -0.991
      -0.283
       0.595
       1.257
       1.263
       0.474
      -0.659
      -1.334
      -1.058
      -0.116
       0.678
       0.702
       0.023
      -0.770
      -1.116
      -0.871
      -0.241
       0.481
       1.055
       1.291
       1.072
       0.460
      -0.270
      -0.756
      -0.758
      -0.290
       0.375
       0.850
       0.852
       0.380
      -0.287
      -0.784
      -0.915
      -0.739
      -0.465
      -0.237
      -0.038
       0.203
       0.435
       0.478
       0.253
      -0.039
      -0.069
       0.241
       0.540
       0.368
      -0.335
      -1.083
      -1.275
      -0.773
       0.002
       0.532
       0.706
       0.810
       1.044
       1.151
       0.612
      -0.694
      -2.083
      -2.448
      -1.229
       0.934
       2.556
       2.463
       0.759
      -1.276
      -2.244
      -1.698
      -0.311
       0.870
       1.289
       1.100
       0.719
       0.354
      -0.063
      -0.571
      -0.963
      -0.883
      -0.186
       0.814
       1.490
       1.391
       0.603
      -0.348
      -0.951
      -1.052
      -0.789
      -0.306
       0.336
       0.964
       1.152
       0.511
      -0.782
      -1.853
      -1.749
      -0.344
       1.384
       2.099
       1.227
      -0.568
      -1.976
      -2.093
      -1.027
       0.356
       1.180
       1.138
       0.527
      -0.164
      -0.644
      -0.893
      -0.963
      -0.812
      -0.404
       0.108
       0.407
       0.290
      -0.098
      -0.346
      -0.106
       0.616
       1.437
       1.850
       1.589
       0.834
       0.072
      -0.302
      -0.286
      -0.205
      -0.326
      -0.582
      -0.694
      -0.518
      -0.215
      -0.041
      -0.012
       0.145
       0.667
       1.430
       1.989
       1.969
       1.390
       0.622
       0.082
      -0.051
       0.124
       0.390
       0.592
       0.674
       0.623
       0.411
       0.043
      -0.396
      -0.776
      -0.997
      -1.021
      -0.844
      -0.513
      -0.196
      -0.149
      -0.550
      -1.338
      -2.245
      -3.003
      -3.488
      -3.679
      -3.507
      -2.877
      -1.869
      -0.853
      -0.262
      -0.190
      -0.270
      -0.006
       0.768
       1.742
       2.438
       2.640
       2.513
       2.353
       2.254
       2.074
       1.653
       1.001
       0.246
      -0.506
      -1.216
      -1.819
      -2.166
      -2.095
      -1.557
      -0.661
       0.430
       1.589
       2.684
       3.441
       3.505
       2.769
       1.658
       0.937
       1.089
       1.871
       2.500
       2.301
       1.218
      -0.245
      -1.515
      -2.356
      -2.849
      -3.092
      -3.045
      -2.709
      -2.301
      -2.087
      -2.017
      -1.670
      -0.679
       0.791
       2.059
       2.432
       1.710
       0.280
      -1.161
      -1.944
      -1.658
      -0.309
       1.582
       3.086
       3.280
       1.812
      -0.763
      -3.221
      -4.406
      -3.934
      -2.275
      -0.228
       1.595
       2.830
       3.205
       2.639
       1.537
       0.733
       0.893
       1.905
       2.927
       3.043
       1.901
      -0.119
      -2.160
      -3.327
      -3.126
      -1.774
      -0.132
       0.806
       0.586
      -0.368
      -1.064
      -0.699
       0.709
       2.335
       3.195
       2.867
       1.678
       0.264
      -1.008
      -2.197
      -3.424
      -4.444
      -4.680
      -3.701
      -1.675
       0.632
       2.243
       2.461
       1.204
      -0.896
      -2.752
      -3.395
      -2.536
      -0.707
       1.157
       2.337
       2.665
       2.377
       1.780
       1.067
       0.380
      -0.101
      -0.186
       0.145
       0.613
       0.766
       0.358
      -0.339
      -0.660
      -0.104
       1.184
       2.466
       2.965
       2.419
       1.172
      -0.204
      -1.333
      -2.145
      -2.656
      -2.756
      -2.224
      -0.976
       0.656
       1.923
       2.061
       0.850
      -1.152
      -2.955
      -3.758
      -3.351
      -2.024
      -0.225
       1.672
       3.340
       4.385
       4.394
       3.179
       1.015
      -1.404
      -3.300
      -4.210
      -4.123
      -3.276
      -1.871
      -0.026
       2.026
       3.800
       4.754
       4.652
       3.739
       2.513
       1.368
       0.439
      -0.274
      -0.768
      -1.055
      -1.241
      -1.462
      -1.733
      -1.927
      -1.934
      -1.821
      -1.803
      -2.063
      -2.574
      -3.096
      -3.315
      -3.024
      -2.210
      -1.035
       0.284
       1.577
       2.729
       3.575
       3.872
       3.493
       2.683
       2.034
       2.048
       2.683
       3.328
       3.254
       2.159
       0.382
      -1.322
      -2.301
      -2.448
      -2.222
      -2.186
      -2.468
      -2.662
      -2.253
      -1.135
       0.281
       1.440
       2.071
       2.227
       1.992
       1.265
      -0.053
      -1.683
      -2.890
      -2.929
      -1.683
       0.137
       1.485
       1.784
       1.310
       0.830
       0.862
       1.269
       1.519
       1.241
       0.492
      -0.409
      -1.188
      -1.735
      -2.044
      -2.115
      -1.967
      -1.727
      -1.622
      -1.810
      -2.158
      -2.250
      -1.717
      -0.584
       0.685
       1.537
       1.764
       1.615
       1.493
       1.517
       1.425
       0.941
       0.217
      -0.150
       0.379
       1.735
       3.198
       3.890
       3.389
       1.967
       0.354
      -0.720
      -0.909
      -0.400
       0.230
       0.396
      -0.124
      -1.097
      -2.052
      -2.587
      -2.528
      -1.913
      -0.919
       0.194
       1.134
       1.645
       1.601
       1.059
       0.280
      -0.340
      -0.438
       0.083
       0.914
       1.482
       1.349
       0.546
      -0.479
      -1.262
      -1.695
      -1.996
      -2.362
      -2.681
      -2.616
      -1.979
      -0.979
      -0.078
       0.411
       0.572
       0.710
       0.976
       1.202
       1.108
       0.637
       0.048
      -0.275
      -0.100
       0.518
       1.274
       1.793
       1.857
       1.550
       1.168
       0.932
       0.752
       0.291
      -0.684
      -2.001
      -3.131
      -3.581
      -3.258
      -2.496
      -1.763
      -1.338
      -1.189
      -1.049
      -0.583
       0.392
       1.712
       2.863
       3.267
       2.725
       1.612
       0.617
       0.215
       0.345
       0.561
       0.483
       0.107
      -0.272
      -0.369
      -0.146
       0.220
       0.542
       0.783
       1.033
       1.359
       1.684
       1.795
       1.445
       0.493
      -0.937
      -2.359
      -3.042
      -2.411
      -0.506
       1.887
       3.621
       3.827
       2.378
      -0.125
      -2.702
      -4.432
      -4.779
      -3.758
      -1.911
      -0.065
       1.079
       1.289
       0.837
       0.197
      -0.312
      -0.637
      -0.835
      -0.891
      -0.698
      -0.164
       0.704
       1.792
       2.891
       3.710
       3.951
       3.466
       2.401
       1.142
       0.068
      -0.670
      -1.124
      -1.347
      -1.285
      -0.916
      -0.421
      -0.141
      -0.314
      -0.869
      -1.493
      -1.889
      -1.947
      -1.693
      -1.167
      -0.420
       0.393
       0.993
       1.151
       0.864
       0.349
      -0.146
      -0.482
      -0.616
      -0.529
      -0.208
       0.311
       0.908
       1.388
       1.533
       1.194
       0.412
      -0.537
      -1.261
      -1.507
      -1.370
      -1.233
      -1.463
      -2.093
      -2.789
      -3.112
      -2.846
      -2.112
      -1.236
      -0.501
       0.002
       0.380
       0.829
       1.468
       2.205
       2.761
       2.872
       2.511
       1.930
       1.451
       1.219
       1.151
       1.090
       0.953
       0.715
       0.312
      -0.319
      -1.074
      -1.601
      -1.494
      -0.634
       0.597
       1.487
       1.465
       0.549
      -0.613
      -1.199
      -0.818
       0.211
       1.135
       1.344
       0.771
      -0.156
      -0.892
      -1.146
      -1.004
      -0.786
      -0.798
      -1.163
      -1.779
      -2.380
      -2.621
      -2.196
      -1.019
       0.629
       2.141
       2.902
       2.675
       1.756
       0.755
       0.180
       0.143
       0.375
       0.513
       0.395
       0.160
       0.087
       0.341
       0.831
       1.290
       1.502
       1.450
       1.242
       0.930
       0.450
      -0.234
      -0.981
      -1.515
      -1.645
      -1.416
      -1.036
      -0.693
      -0.454
      -0.317
      -0.278
      -0.348
      -0.503
      -0.684
      -0.811
      -0.805
      -0.571
      -0.036
       0.723
       1.406
       1.625
       1.215
       0.425
      -0.212
      -0.266
       0.263
       0.914
       1.102
       0.535
      -0.571
      -1.666
      -2.246
      -2.168
      -1.664
      -1.105
      -0.710
      -0.428
      -0.054
       0.534
       1.235
       1.809
       2.089
       2.088
       1.910
       1.571
       0.971
       0.065
      -0.962
      -1.735
      -1.944
      -1.593
      -1.008
      -0.573
      -0.462
      -0.609
      -0.884
      -1.238
      -1.658
      -2.037
      -2.154
      -1.851
      -1.222
      -0.592
      -0.229
      -0.069
       0.248
       1.019
       2.128
       3.043
       3.215
       2.532
       1.443
       0.633
       0.506
       0.915
       1.363
       1.478
       1.321
       1.231
       1.415
       1.696
       1.700
       1.247
       0.547
       0.008
      -0.142
      -0.027
       0.044
      -0.144
      -0.591
      -1.172
      -1.784
      -2.383
      -2.919
      -3.260
      -3.216
      -2.658
      -1.675
      -0.592
       0.211
       0.559
       0.589
       0.605
       0.824
       1.214
       1.555
       1.618
       1.317
       0.737
       0.073
      -0.461
      -0.704
      -0.609
      -0.266
       0.143
       0.436
       0.516
       0.370
       0.022
      -0.487
      -1.075
      -1.576
      -1.765
      -1.461
      -0.664
       0.395
       1.344
       1.878
       1.910
       1.574
       1.105
       0.690
       0.400
       0.191
      -0.032
      -0.331
      -0.674
      -0.955
      -1.063
      -0.941
      -0.604
      -0.136
       0.322
       0.609
       0.612
       0.322
      -0.159
      -0.661
      -1.035
      -1.210
      -1.208
      -1.125
      -1.082
      -1.135
      -1.203
      -1.095
      -0.641
       0.166
       1.132
       1.951
       2.367
       2.283
       1.797
       1.118
       0.453
      -0.074
      -0.436
      -0.659
      -0.779
      -0.819
      -0.785
      -0.669
      -0.453
      -0.110
       0.356
       0.876
       1.321
       1.569
       1.563
       1.332
       0.952
       0.536
       0.208
       0.072
       0.152
       0.366
       0.555
       0.544
       0.209
      -0.447
      -1.248
      -1.895
      -2.121
      -1.863
      -1.297
      -0.723
      -0.373
      -0.297
      -0.387
      -0.485
      -0.474
      -0.331
      -0.114
       0.104
       0.310
       0.549
       0.828
       1.055
       1.084
       0.856
       0.497
       0.251
       0.283
       0.531
       0.760
       0.778
       0.578
       0.275
      -0.020
      -0.241
      -0.334
      -0.262
      -0.085
       0.029
      -0.082
      -0.415
      -0.775
      -0.920
      -0.762
      -0.415
      -0.060
       0.203
       0.386
       0.524
       0.609
       0.598
       0.493
       0.347
       0.198
       0.013
      -0.261
      -0.571
      -0.722
      -0.529
      -0.037
       0.403
       0.348
      -0.371
      -1.430
      -2.145
      -1.908
      -0.617
       1.225
       2.801
       3.457
       3.024
       1.823
       0.406
      -0.778
      -1.580
      -2.105
      -2.470
      -2.624
      -2.405
      -1.769
      -0.925
      -0.229
       0.071
       0.006
      -0.171
      -0.204
      -0.007
       0.343
       0.709
       0.966
       1.007
       0.776
       0.341
      -0.075
      -0.191
       0.140
       0.803
       1.475
       1.839
       1.796
       1.491
       1.165
       0.975
       0.909
       0.834
       0.619
       0.227
      -0.252
      -0.642
      -0.757
      -0.503
       0.014
       0.483
       0.536
      -0.007
      -1.014
      -2.113
      -2.893
      -3.061
      -2.533
      -1.460
      -0.224
       0.690
       0.935
       0.542
      -0.082
      -0.428
      -0.239
