Origin Time       31/03/2006 11:25:39
Lat.              28.7 N 
Long.             76.8 E 
Depth (Km)         22.0
Magnitude         3.4
 Region           JHAJJAR-HARYANA                                                  
 Above details taken from IMD 
     
Station Code      ROH
Station Lat.       28.896  N
Station Long.      76.593  E
Station Height(m)  225.0
Site Class        C   Vs30 between 200 m/sec to 375 m/sec *  
Record Time       31.03.2006 11:25:26.529
Sampling Rate     200. Hz
 Record Duration   29.995 Sec.
 Direction         E-W (E positive)
Max. Acceleration      4.799 cm/sec**2
     
  * For reference see Site Classification link of website 
     
 Base Line Corrected and Low Pass Filtered (Cut Off at 35 Hz) Time History
 Acceleration data in cm/sec**2
    
[...]
       0.002
       0.002
      -0.003
      -0.009
      -0.013
      -0.010
      -0.004
       0.000
      -0.004
      -0.015
      -0.023
      -0.023
      -0.018
      -0.013
      -0.013
      -0.015
      -0.014
      -0.007
       0.005
       0.015
       0.013
      -0.003
      -0.024
      -0.037
      -0.037
      -0.026
      -0.009
       0.008
       0.017
       0.015
       0.011
       0.010
       0.014
       0.016
       0.014
       0.012
       0.010
       0.007
      -0.001
      -0.015
      -0.028
      -0.034
      -0.023
       0.000
       0.023
       0.032
       0.022
       0.002
      -0.017
      -0.029
      -0.029
      -0.019
      -0.006
       0.000
      -0.004
      -0.014
      -0.022
      -0.024
      -0.017
      -0.002
       0.013
       0.020
       0.013
      -0.003
      -0.023
      -0.036
      -0.035
      -0.019
       0.003
       0.016
       0.014
       0.006
       0.004
       0.011
       0.019
       0.023
       0.021
       0.014
       0.004
      -0.004
      -0.004
       0.003
       0.014
       0.021
       0.019
       0.004
      -0.022
      -0.044
      -0.048
      -0.032
      -0.007
       0.014
       0.022
       0.020
       0.014
       0.009
       0.008
       0.006
       0.002
      -0.001
      -0.003
      -0.007
      -0.013
      -0.019
      -0.016
      -0.003
       0.016
       0.030
       0.030
       0.015
      -0.007
      -0.020
      -0.013
       0.007
       0.021
       0.016
      -0.003
      -0.022
      -0.026
      -0.018
      -0.004
       0.004
       0.003
      -0.005
      -0.013
      -0.018
      -0.019
      -0.015
      -0.003
       0.013
       0.024
       0.018
       0.000
      -0.020
      -0.029
      -0.023
      -0.006
       0.013
       0.023
       0.023
       0.017
       0.015
       0.017
       0.020
       0.017
       0.010
      -0.001
      -0.009
      -0.010
      -0.006
      -0.003
      -0.008
      -0.015
      -0.017
      -0.006
       0.011
       0.028
       0.038
       0.034
       0.016
      -0.011
      -0.037
      -0.047
      -0.037
      -0.013
       0.012
       0.023
       0.012
      -0.009
      -0.023
      -0.019
      -0.003
       0.007
       0.005
      -0.004
      -0.011
      -0.009
       0.000
       0.011
       0.017
       0.016
       0.014
       0.012
       0.009
       0.002
      -0.004
      -0.008
      -0.009
      -0.010
      -0.010
      -0.008
      -0.005
      -0.003
      -0.006
      -0.011
      -0.018
      -0.024
      -0.025
      -0.021
      -0.015
      -0.009
      -0.004
       0.000
       0.001
      -0.001
      -0.002
       0.002
       0.011
       0.019
       0.021
       0.016
       0.007
      -0.002
      -0.008
      -0.009
      -0.006
      -0.001
       0.005
       0.010
       0.009
       0.000
      -0.014
      -0.024
      -0.023
      -0.015
      -0.007
       0.000
       0.003
       0.001
      -0.008
      -0.017
      -0.020
      -0.016
      -0.006
       0.003
       0.006
      -0.002
      -0.019
      -0.031
      -0.028
      -0.012
       0.005
       0.009
      -0.003
      -0.023
      -0.036
      -0.034
      -0.017
       0.004
       0.017
       0.017
       0.007
      -0.007
      -0.018
      -0.019
      -0.008
       0.006
       0.012
       0.007
      -0.003
      -0.005
       0.001
       0.008
       0.002
      -0.022
      -0.056
      -0.072
      -0.050
       0.009
       0.070
       0.085
       0.034
      -0.056
      -0.117
      -0.092
       0.014
       0.125
       0.156
       0.081
      -0.040
      -0.120
      -0.111
      -0.034
       0.055
       0.107
       0.107
       0.062
      -0.007
      -0.076
      -0.118
      -0.114
      -0.065
       0.003
       0.056
       0.073
       0.058
       0.028
      -0.003
      -0.027
      -0.040
      -0.032
       0.009
       0.072
       0.121
       0.117
       0.052
      -0.030
      -0.074
      -0.060
      -0.023
      -0.011
      -0.030
      -0.045
      -0.033
      -0.014
      -0.032
      -0.096
      -0.164
      -0.171
      -0.088
       0.053
       0.174
       0.216
       0.171
       0.086
       0.015
      -0.011
       0.003
       0.030
       0.041
       0.025
       0.003
       0.014
       0.065
       0.106
       0.066
      -0.075
      -0.245
      -0.327
      -0.258
      -0.081
       0.083
       0.149
       0.124
       0.076
       0.050
       0.035
       0.006
      -0.027
      -0.026
       0.028
       0.102
       0.141
       0.122
       0.067
       0.007
      -0.052
      -0.125
      -0.202
      -0.239
      -0.201
      -0.116
      -0.053
      -0.046
      -0.038
       0.060
       0.248
       0.392
       0.324
       0.019
      -0.334
      -0.470
      -0.279
       0.080
       0.321
       0.291
       0.096
      -0.033
       0.012
       0.118
       0.099
      -0.077
      -0.242
      -0.207
       0.034
       0.293
       0.371
       0.231
       0.006
      -0.138
      -0.117
       0.047
       0.259
       0.390
       0.319
       0.031
      -0.332
      -0.539
      -0.447
      -0.112
       0.271
       0.527
       0.599
       0.510
       0.293
      -0.029
      -0.395
      -0.680
      -0.744
      -0.530
      -0.121
       0.297
       0.534
       0.488
       0.185
      -0.220
      -0.512
      -0.531
      -0.265
       0.127
       0.414
       0.445
       0.238
      -0.064
      -0.332
      -0.527
      -0.659
      -0.697
      -0.580
      -0.305
       0.018
       0.235
       0.274
       0.194
       0.129
       0.175
       0.304
       0.379
       0.259
      -0.071
      -0.448
      -0.617
      -0.403
       0.144
       0.756
       1.102
       0.996
       0.522
      -0.020
      -0.321
      -0.279
      -0.059
       0.081
       0.032
      -0.086
      -0.092
       0.032
       0.118
       0.018
      -0.205
      -0.338
      -0.253
      -0.040
       0.107
       0.113
       0.090
       0.197
       0.424
       0.567
       0.432
       0.055
      -0.313
      -0.451
      -0.370
      -0.289
      -0.397
      -0.662
      -0.867
      -0.803
      -0.455
      -0.010
       0.290
       0.333
       0.203
       0.087
       0.105
       0.226
       0.332
       0.364
       0.367
       0.397
       0.392
       0.200
      -0.243
      -0.758
      -0.990
      -0.679
       0.099
       0.952
       1.445
       1.392
       0.921
       0.311
      -0.202
      -0.496
      -0.541
      -0.379
      -0.147
      -0.035
      -0.152
      -0.393
      -0.486
      -0.229
       0.300
       0.780
       0.928
       0.728
       0.412
       0.194
       0.061
      -0.166
      -0.570
      -0.984
      -1.128
      -0.888
      -0.428
      -0.014
       0.233
       0.375
       0.491
       0.540
       0.429
       0.183
      -0.033
      -0.084
      -0.050
      -0.164
      -0.551
      -1.032
      -1.232
      -0.899
      -0.141
       0.634
       1.017
       0.877
       0.401
      -0.081
      -0.332
      -0.320
      -0.162
       0.015
       0.171
       0.322
       0.448
       0.452
       0.259
      -0.056
      -0.272
      -0.183
       0.208
       0.656
       0.821
       0.511
      -0.176
      -0.883
      -1.192
      -0.896
      -0.168
       0.510
       0.670
       0.245
      -0.348
      -0.553
      -0.174
       0.444
       0.736
       0.423
      -0.268
      -0.846
      -0.957
      -0.573
       0.088
       0.738
       1.114
       1.040
       0.519
      -0.180
      -0.616
      -0.489
       0.086
       0.623
       0.652
       0.115
      -0.596
      -0.986
      -0.864
      -0.441
      -0.072
       0.075
       0.096
       0.165
       0.319
       0.438
       0.378
       0.108
      -0.245
      -0.480
      -0.452
      -0.183
       0.142
       0.304
       0.200
      -0.094
      -0.371
      -0.405
      -0.062
       0.596
       1.265
       1.499
       0.997
      -0.100
      -1.205
      -1.653
      -1.200
      -0.240
       0.482
       0.453
      -0.186
      -0.768
      -0.695
       0.023
       0.805
       1.073
       0.784
       0.398
       0.326
       0.473
       0.354
      -0.319
      -1.194
      -1.497
      -0.761
       0.634
       1.675
       1.559
       0.398
      -0.861
      -1.256
      -0.599
       0.489
       1.225
       1.315
       0.991
       0.551
      -0.001
      -0.803
      -1.711
      -2.183
      -1.701
      -0.340
       1.135
       1.824
       1.410
       0.381
      -0.450
      -0.637
      -0.342
       0.025
       0.284
       0.517
       0.695
       0.469
      -0.481
      -1.853
      -2.672
      -2.045
      -0.079
       2.017
       2.880
       2.131
       0.598
      -0.524
      -0.692
      -0.275
       0.020
      -0.175
      -0.701
      -1.199
      -1.468
      -1.502
      -1.293
      -0.741
       0.169
       1.182
       1.844
       1.837
       1.234
       0.440
      -0.119
      -0.293
      -0.247
      -0.252
      -0.405
      -0.545
      -0.426
      -0.009
       0.443
       0.583
       0.328
      -0.045
      -0.174
       0.016
       0.237
       0.152
      -0.260
      -0.665
      -0.678
      -0.188
       0.557
       1.112
       1.103
       0.484
      -0.388
      -0.947
      -0.794
       0.008
       0.951
       1.402
       1.023
       0.003
      -1.042
      -1.491
      -1.166
      -0.468
      -0.032
      -0.179
      -0.645
      -0.831
      -0.357
       0.563
       1.276
       1.206
       0.303
      -0.937
      -1.828
      -1.908
      -1.140
       0.135
       1.384
       2.116
       2.102
       1.481
       0.618
      -0.182
      -0.846
      -1.421
      -1.858
      -2.000
      -1.799
      -1.452
      -1.226
      -1.149
      -0.959
      -0.417
       0.351
       0.873
       0.712
      -0.177
      -1.433
      -2.563
      -3.220
      -3.276
      -2.756
      -1.781
      -0.578
       0.566
       1.435
       1.981
       2.266
       2.321
       2.111
       1.649
       1.081
       0.607
       0.314
       0.116
      -0.120
      -0.364
      -0.351
       0.227
       1.382
       2.640
       3.263
       2.787
       1.466
       0.199
      -0.094
       0.803
       2.195
       2.985
       2.511
       1.012
      -0.591
      -1.361
      -0.912
       0.475
       2.102
       3.198
       3.216
       2.051
       0.105
      -1.886
      -3.211
      -3.494
      -2.757
      -1.286
       0.477
       1.958
       2.584
       2.128
       0.987
      -0.019
      -0.282
       0.113
       0.563
       0.567
       0.142
      -0.343
      -0.617
      -0.749
      -0.984
      -1.415
      -1.847
      -1.941
      -1.461
      -0.433
       0.832
       1.846
       2.186
       1.810
       1.180
       0.985
       1.561
       2.514
       2.933
       2.097
       0.087
      -2.212
      -3.707
      -3.800
      -2.675
      -1.051
       0.313
       0.955
       0.744
      -0.201
      -1.534
      -2.695
      -3.112
      -2.575
      -1.451
      -0.463
      -0.148
      -0.476
      -0.953
      -1.112
      -0.896
      -0.620
      -0.629
      -1.026
      -1.669
      -2.349
      -2.902
      -3.192
      -3.055
      -2.331
      -1.013
       0.638
       2.143
       3.028
       3.105
       2.562
       1.782
       1.047
       0.417
      -0.099
      -0.363
      -0.174
       0.469
       1.252
       1.735
       1.684
       1.199
       0.553
      -0.020
      -0.389
      -0.425
       0.024
       1.014
       2.326
       3.463
       3.884
       3.313
       1.897
       0.076
      -1.670
      -3.000
      -3.714
      -3.719
      -3.057
      -1.975
      -0.864
      -0.081
       0.235
       0.218
       0.143
       0.192
       0.294
       0.166
      -0.419
      -1.350
      -2.145
      -2.246
      -1.414
       0.089
       1.684
       2.830
       3.292
       3.144
       2.616
       1.945
       1.331
       0.939
       0.852
       0.985
       1.098
       0.970
       0.594
       0.183
      -0.037
      -0.023
       0.085
       0.127
       0.035
      -0.218
      -0.724
      -1.593
      -2.750
      -3.786
      -4.081
      -3.195
      -1.256
       0.978
       2.503
       2.665
       1.579
       0.018
      -1.158
      -1.570
      -1.415
      -1.075
      -0.694
      -0.161
       0.571
       1.225
       1.356
       0.744
      -0.346
      -1.286
      -1.491
      -0.792
       0.469
       1.670
       2.281
       2.141
       1.480
       0.707
       0.151
      -0.082
      -0.081
      -0.006
       0.002
      -0.136
      -0.426
      -0.767
      -0.963
      -0.828
      -0.355
       0.209
       0.470
       0.131
      -0.782
      -1.907
      -2.760
      -3.011
      -2.630
      -1.809
      -0.811
       0.141
       0.883
       1.316
       1.430
       1.310
       1.070
       0.773
       0.409
      -0.049
      -0.586
      -1.124
      -1.522
      -1.574
      -1.054
       0.134
       1.791
       3.396
       4.339
       4.294
       3.461
       2.428
       1.718
       1.401
       1.113
       0.425
      -0.769
      -2.160
      -3.263
      -3.726
      -3.467
      -2.582
      -1.205
       0.526
       2.373
       3.943
       4.799
       4.701
       3.773
       2.458
       1.250
       0.415
      -0.111
      -0.577
      -1.204
      -2.074
      -3.126
      -4.152
      -4.770
      -4.521
      -3.153
      -0.911
       1.444
       2.999
       3.228
       2.286
       0.842
      -0.399
      -1.066
      -1.161
      -0.837
      -0.226
       0.545
       1.240
       1.490
       0.972
      -0.314
      -1.879
      -2.929
      -2.851
      -1.662
      -0.026
       1.184
       1.456
       0.881
      -0.016
      -0.696
      -0.940
      -0.924
      -1.027
      -1.493
      -2.207
      -2.744
      -2.671
      -1.851
      -0.514
       0.928
       2.122
       2.868
       3.056
       2.620
       1.613
       0.306
      -0.845
      -1.429
      -1.358
      -0.929
      -0.589
      -0.585
      -0.828
      -1.062
      -1.142
      -1.131
      -1.139
      -1.124
      -0.881
      -0.255
       0.653
       1.497
       1.917
       1.772
       1.190
       0.466
      -0.099
      -0.328
      -0.230
       0.010
       0.143
       0.026
      -0.253
      -0.419
      -0.207
       0.411
       1.166
       1.651
       1.603
       1.078
       0.400
      -0.071
      -0.168
      -0.003
       0.105
      -0.145
      -0.801
      -1.555
      -1.907
      -1.518
      -0.489
       0.679
       1.435
       1.557
       1.237
       0.865
       0.733
       0.914
       1.312
       1.773
       2.135
       2.228
       1.905
       1.137
       0.103
      -0.836
      -1.299
      -1.099
      -0.390
       0.397
       0.799
       0.615
       0.026
      -0.557
      -0.791
      -0.610
      -0.197
       0.192
       0.391
       0.349
       0.082
      -0.353
      -0.847
      -1.242
      -1.406
      -1.313
      -1.055
      -0.765
      -0.537
      -0.391
      -0.285
      -0.136
       0.143
       0.572
       1.038
       1.332
       1.264
       0.776
      -0.037
      -0.982
      -1.821
      -2.303
      -2.223
      -1.522
      -0.362
       0.896
       1.827
       2.130
       1.769
       1.003
       0.234
      -0.226
      -0.332
      -0.281
      -0.311
      -0.514
      -0.795
      -0.954
      -0.819
      -0.367
       0.237
       0.717
       0.859
       0.675
       0.386
       0.246
       0.341
       0.547
       0.655
       0.544
       0.251
      -0.096
      -0.402
      -0.658
      -0.888
      -1.076
      -1.168
      -1.157
      -1.122
      -1.149
      -1.217
      -1.198
      -0.978
      -0.576
      -0.142
       0.165
       0.300
       0.357
       0.480
       0.724
       0.992
       1.123
       1.031
       0.782
       0.523
       0.342
       0.207
       0.006
      -0.324
      -0.706
      -0.948
      -0.887
      -0.502
       0.098
       0.790
       1.504
       2.176
       2.656
       2.730
       2.260
       1.310
       0.123
      -1.024
      -1.955
      -2.619
      -3.020
      -3.140
      -2.937
      -2.413
      -1.669
      -0.872
      -0.155
       0.438
       0.912
       1.244
       1.368
       1.251
       0.964
       0.683
       0.576
       0.698
       0.963
       1.232
       1.427
       1.549
       1.620
       1.625
       1.533
       1.367
       1.205
       1.104
       1.009
       0.779
       0.298
      -0.411
      -1.183
      -1.818
      -2.202
      -2.339
      -2.316
      -2.244
      -2.196
      -2.166
      -2.054
      -1.730
      -1.147
      -0.398
       0.324
       0.838
       1.067
       1.046
       0.888
       0.705
       0.549
       0.372
       0.074
      -0.404
      -0.989
      -1.482
      -1.660
      -1.420
      -0.853
      -0.178
       0.427
       0.952
       1.518
       2.186
       2.818
       3.127
       2.900
       2.159
       1.133
       0.096
      -0.749
      -1.274
      -1.386
      -1.061
      -0.418
       0.269
       0.689
       0.675
       0.301
      -0.191
      -0.576
      -0.778
      -0.863
      -0.935
      -1.041
      -1.144
      -1.155
      -1.001
      -0.694
      -0.338
      -0.060
       0.091
       0.170
       0.271
       0.415
       0.515
       0.466
       0.259
       0.031
      -0.035
       0.146
       0.484
       0.788
       0.909
       0.834
       0.644
       0.414
       0.143
      -0.197
      -0.584
      -0.922
      -1.111
      -1.112
      -0.955
      -0.677
      -0.287
       0.209
       0.766
       1.276
       1.608
       1.664
       1.439
       1.055
       0.726
       0.640
       0.821
       1.080
       1.120
       0.745
       0.022
      -0.726
      -1.140
      -1.074
      -0.679
      -0.266
      -0.086
      -0.205
      -0.524
      -0.871
      -1.100
      -1.160
      -1.110
      -1.068
      -1.112
      -1.206
      -1.223
      -1.053
      -0.687
      -0.236
       0.149
       0.372
       0.445
       0.470
       0.538
       0.647
       0.696
       0.596
       0.363
       0.116
      -0.027
      -0.047
      -0.005
       0.054
       0.152
       0.317
       0.491
       0.552
       0.433
       0.222
       0.087
       0.115
       0.213
       0.186
      -0.079
      -0.521
      -0.961
      -1.255
      -1.365
      -1.317
      -1.113
      -0.733
      -0.204
       0.343
       0.738
       0.884
       0.794
       0.534
       0.170
      -0.223
      -0.544
      -0.714
      -0.755
      -0.781
      -0.884
      -1.009
      -0.977
      -0.648
      -0.081
       0.489
       0.839
       0.940
       0.945
       1.038
       1.272
       1.559
       1.765
       1.802
       1.659
       1.385
       1.053
       0.748
       0.545
       0.481
       0.491
       0.406
       0.035
      -0.668
      -1.517
      -2.163
      -2.319
