Origin Time       18/01/2011 20:23:27
Lat.              28.9 N	
Long.             64.0 E	
Depth (Km)          5.0
Magnitude         7.4
 Region           Southwestern-Pakistan                                            
 Above details taken from IMD 
   
Station Code      Roo
Station Lat.       29.866
Station Long.      77.901
Station Height(m)  243.0
Site Class        C   Vs30 between 200 m/sec to 375 m/sec *  
Record Time       18.01.2011 20:27:54.384
Sampling Rate     200. Hz
 Record Duration  246.660 Sec.
 Direction         Vert. (Up positive)
Max. Acceleration      0.736 cm/sec**2
     
  * For reference see Site Classification link of website 
     
 Base Line Corrected and Low Pass Filtered (Cut Off at 35 Hz) Time History
 Acceleration data in cm/sec**2
    
[...]
      -0.098
      -0.094
      -0.081
      -0.061
      -0.036
      -0.008
       0.022
       0.050
       0.076
       0.097
       0.115
       0.129
       0.140
       0.150
       0.161
       0.175
       0.189
       0.197
       0.198
       0.192
       0.180
       0.164
       0.145
       0.121
       0.094
       0.066
       0.037
       0.008
      -0.021
      -0.051
      -0.078
      -0.100
      -0.118
      -0.131
      -0.142
      -0.152
      -0.163
      -0.172
      -0.179
      -0.185
      -0.191
      -0.196
      -0.203
      -0.212
      -0.222
      -0.232
      -0.237
      -0.236
      -0.231
      -0.225
      -0.219
      -0.212
      -0.201
      -0.185
      -0.167
      -0.147
      -0.127
      -0.105
      -0.082
      -0.056
      -0.027
       0.001
       0.027
       0.052
       0.076
       0.102
       0.129
       0.154
       0.176
       0.193
       0.203
       0.206
       0.199
       0.185
       0.167
       0.145
       0.118
       0.088
       0.054
       0.020
      -0.015
      -0.049
      -0.083
      -0.114
      -0.142
      -0.167
      -0.187
      -0.201
      -0.208
      -0.205
      -0.193
      -0.176
      -0.157
      -0.138
      -0.120
      -0.101
      -0.082
      -0.061
      -0.040
      -0.023
      -0.011
      -0.003
       0.005
       0.015
       0.026
       0.035
       0.040
       0.039
       0.034
       0.027
       0.020
       0.010
      -0.003
      -0.021
      -0.044
      -0.070
      -0.098
      -0.124
      -0.146
      -0.165
      -0.183
      -0.198
      -0.211
      -0.217
      -0.219
      -0.216
      -0.210
      -0.202
      -0.189
      -0.175
      -0.161
      -0.149
      -0.140
      -0.131
      -0.120
      -0.108
      -0.096
      -0.083
      -0.068
      -0.049
      -0.027
      -0.002
       0.025
       0.054
       0.084
       0.113
       0.139
       0.163
       0.183
       0.201
       0.217
       0.228
       0.234
       0.236
       0.235
       0.236
       0.239
       0.238
       0.230
       0.214
       0.192
       0.164
       0.130
       0.092
       0.050
       0.007
      -0.038
      -0.083
      -0.130
      -0.176
      -0.219
      -0.258
      -0.292
      -0.322
      -0.345
      -0.360
      -0.365
      -0.361
      -0.351
      -0.338
      -0.322
      -0.303
      -0.280
      -0.253
      -0.221
      -0.181
      -0.131
      -0.072
      -0.010
       0.049
       0.098
       0.136
       0.161
       0.177
       0.184
       0.186
       0.183
       0.181
       0.180
       0.183
       0.192
       0.206
       0.226
       0.249
       0.275
       0.299
       0.318
       0.329
       0.329
       0.315
       0.286
       0.247
       0.201
       0.154
       0.109
       0.069
       0.036
       0.011
      -0.003
      -0.008
      -0.006
       0.001
       0.007
       0.011
       0.012
       0.013
       0.016
       0.022
       0.031
       0.044
       0.061
       0.080
       0.098
       0.115
       0.132
       0.150
       0.166
       0.179
       0.189
       0.198
       0.210
       0.221
       0.230
       0.233
       0.231
       0.228
       0.225
       0.222
       0.218
       0.213
       0.208
       0.206
       0.206
       0.206
       0.203
       0.199
       0.193
       0.188
       0.182
       0.175
       0.164
       0.148
       0.130
       0.111
       0.094
       0.078
       0.066
       0.063
       0.074
       0.097
       0.126
       0.153
       0.169
       0.176
       0.177
       0.178
       0.179
       0.179
       0.178
       0.179
       0.187
       0.206
       0.234
       0.268
       0.300
       0.321
       0.326
       0.314
       0.287
       0.252
       0.214
       0.175
       0.139
       0.108
       0.084
       0.065
       0.049
       0.036
       0.025
       0.017
       0.015
       0.019
       0.030
       0.048
       0.071
       0.097
       0.122
       0.139
       0.145
       0.140
       0.125
       0.102
       0.069
       0.025
      -0.026
      -0.072
      -0.103
      -0.116
      -0.111
      -0.092
      -0.059
      -0.014
       0.038
       0.090
       0.136
       0.173
       0.200
       0.217
       0.222
       0.217
       0.206
       0.198
       0.198
       0.205
       0.217
       0.232
       0.249
       0.264
       0.274
       0.272
       0.253
       0.219
       0.176
       0.130
       0.082
       0.030
      -0.025
      -0.081
      -0.133
      -0.174
      -0.204
      -0.227
      -0.245
      -0.261
      -0.270
      -0.271
      -0.264
      -0.251
      -0.237
      -0.225
      -0.216
      -0.209
      -0.203
      -0.195
      -0.185
      -0.174
      -0.165
      -0.161
      -0.164
      -0.173
      -0.189
      -0.207
      -0.226
      -0.243
      -0.257
      -0.263
      -0.261
      -0.253
      -0.245
      -0.242
      -0.247
      -0.256
      -0.265
      -0.275
      -0.286
      -0.302
      -0.317
      -0.327
      -0.330
      -0.327
      -0.323
      -0.321
      -0.319
      -0.316
      -0.312
      -0.311
      -0.317
      -0.332
      -0.358
      -0.394
      -0.434
      -0.472
      -0.501
      -0.518
      -0.522
      -0.515
      -0.496
      -0.468
      -0.431
      -0.387
      -0.338
      -0.285
      -0.233
      -0.185
      -0.143
      -0.106
      -0.075
      -0.053
      -0.042
      -0.044
      -0.057
      -0.077
      -0.103
      -0.131
      -0.160
      -0.186
      -0.206
      -0.219
      -0.227
      -0.232
      -0.237
      -0.245
      -0.255
      -0.267
      -0.280
      -0.293
      -0.306
      -0.320
      -0.335
      -0.349
      -0.361
      -0.368
      -0.369
      -0.365
      -0.354
      -0.337
      -0.313
      -0.283
      -0.250
      -0.217
      -0.186
      -0.159
      -0.137
      -0.119
      -0.106
      -0.100
      -0.101
      -0.106
      -0.111
      -0.112
      -0.109
      -0.097
      -0.077
      -0.049
      -0.015
       0.022
       0.058
       0.092
       0.117
       0.129
       0.126
       0.105
       0.070
       0.027
      -0.021
      -0.069
      -0.112
      -0.150
      -0.181
      -0.209
      -0.235
      -0.260
      -0.284
      -0.307
      -0.328
      -0.351
      -0.377
      -0.408
      -0.444
      -0.476
      -0.499
      -0.508
      -0.505
      -0.493
      -0.477
      -0.457
      -0.431
      -0.397
      -0.359
      -0.316
      -0.273
      -0.230
      -0.190
      -0.154
      -0.121
      -0.092
      -0.064
      -0.040
      -0.020
      -0.005
       0.003
       0.006
       0.004
       0.002
       0.003
       0.005
       0.006
       0.003
      -0.004
      -0.009
      -0.008
      -0.003
       0.000
      -0.005
      -0.020
      -0.039
      -0.054
      -0.060
      -0.059
      -0.054
      -0.050
      -0.045
      -0.038
      -0.025
      -0.010
       0.006
       0.017
       0.023
       0.025
       0.025
       0.024
       0.024
       0.024
       0.023
       0.017
       0.009
       0.001
      -0.004
      -0.003
       0.002
       0.010
       0.019
       0.031
       0.042
       0.052
       0.060
       0.069
       0.080
       0.093
       0.105
       0.114
       0.120
       0.126
       0.134
       0.140
       0.141
       0.137
       0.132
       0.133
       0.143
       0.159
       0.180
       0.203
       0.227
       0.253
       0.278
       0.302
       0.325
       0.349
       0.375
       0.405
       0.438
       0.472
       0.505
       0.539
       0.572
       0.602
       0.625
       0.641
       0.652
       0.659
       0.664
       0.666
       0.663
       0.656
       0.645
       0.629
       0.610
       0.589
       0.571
       0.556
       0.544
       0.532
       0.516
       0.496
       0.471
       0.445
       0.421
       0.400
       0.379
       0.354
       0.327
       0.302
       0.287
       0.285
       0.295
       0.310
       0.328
       0.349
       0.375
       0.407
       0.439
       0.465
       0.482
       0.491
       0.495
       0.500
       0.506
       0.514
       0.522
       0.526
       0.527
       0.526
       0.524
       0.520
       0.515
       0.503
       0.480
       0.441
       0.385
       0.322
       0.260
       0.207
       0.163
       0.127
       0.099
       0.084
       0.088
       0.112
       0.153
       0.202
       0.254
       0.303
       0.349
       0.387
       0.415
       0.428
       0.423
       0.400
       0.361
       0.314
       0.269
       0.230
       0.198
       0.170
       0.145
       0.125
       0.112
       0.103
       0.093
       0.079
       0.062
       0.049
       0.044
       0.047
       0.054
       0.062
       0.068
       0.072
       0.077
       0.082
       0.085
       0.085
       0.080
       0.072
       0.063
       0.051
       0.034
       0.010
      -0.022
      -0.060
      -0.102
      -0.146
      -0.184
      -0.214
      -0.232
      -0.242
      -0.247
      -0.252
      -0.257
      -0.259
      -0.255
      -0.243
      -0.228
      -0.212
      -0.197
      -0.178
      -0.153
      -0.120
      -0.086
      -0.058
      -0.042
      -0.034
      -0.032
      -0.032
      -0.035
      -0.045
      -0.061
      -0.082
      -0.105
      -0.126
      -0.141
      -0.149
      -0.149
      -0.146
      -0.145
      -0.146
      -0.149
      -0.146
      -0.136
      -0.117
      -0.093
      -0.068
      -0.043
      -0.022
      -0.004
       0.012
       0.025
       0.028
       0.016
      -0.012
      -0.051
      -0.098
      -0.147
      -0.191
      -0.225
      -0.245
      -0.252
      -0.253
      -0.255
      -0.257
      -0.259
      -0.260
      -0.266
      -0.285
      -0.319
      -0.360
      -0.394
      -0.409
      -0.405
      -0.385
      -0.358
      -0.328
      -0.293
      -0.252
      -0.208
      -0.163
      -0.121
      -0.083
      -0.049
      -0.018
       0.009
       0.032
       0.053
       0.075
       0.100
       0.125
       0.147
       0.160
       0.157
       0.137
       0.099
       0.050
      -0.004
      -0.063
      -0.127
      -0.194
      -0.261
      -0.321
      -0.369
      -0.402
      -0.423
      -0.434
      -0.438
      -0.432
      -0.414
      -0.383
      -0.341
      -0.293
      -0.244
      -0.200
      -0.165
      -0.141
      -0.124
      -0.114
      -0.109
      -0.111
      -0.124
      -0.149
      -0.184
      -0.225
      -0.266
      -0.306
      -0.344
      -0.383
      -0.420
      -0.452
      -0.476
      -0.491
      -0.498
      -0.497
      -0.487
      -0.472
      -0.455
      -0.441
      -0.428
      -0.414
      -0.394
      -0.371
      -0.347
      -0.325
      -0.303
      -0.278
      -0.249
      -0.221
      -0.202
      -0.198
      -0.210
      -0.235
      -0.265
      -0.297
      -0.328
      -0.356
      -0.377
      -0.389
      -0.394
      -0.391
      -0.382
      -0.366
      -0.345
      -0.319
      -0.290
      -0.261
      -0.235
      -0.211
      -0.188
      -0.167
      -0.148
      -0.132
      -0.120
      -0.109
      -0.097
      -0.083
      -0.067
      -0.047
      -0.023
       0.002
       0.023
       0.037
       0.041
       0.036
       0.023
       0.005
      -0.018
      -0.047
      -0.077
      -0.102
      -0.119
      -0.126
      -0.130
      -0.132
      -0.131
      -0.127
      -0.117
      -0.102
      -0.085
      -0.064
      -0.042
      -0.020
      -0.004
       0.006
       0.009
       0.007
       0.001
      -0.012
      -0.032
      -0.057
      -0.087
      -0.120
      -0.155
      -0.189
      -0.222
      -0.251
      -0.276
      -0.294
      -0.303
      -0.302
      -0.287
      -0.260
      -0.223
      -0.181
      -0.138
      -0.095
      -0.052
      -0.009
       0.029
       0.060
       0.085
       0.107
       0.129
       0.150
       0.167
       0.180
       0.191
       0.204
       0.218
       0.228
       0.228
       0.218
       0.202
       0.183
       0.160
       0.131
       0.094
       0.058
       0.031
       0.021
       0.027
       0.048
       0.077
       0.114
       0.156
       0.200
       0.243
       0.282
       0.315
       0.343
       0.367
       0.386
       0.399
       0.407
       0.410
       0.412
       0.411
       0.407
       0.397
       0.379
       0.353
       0.323
       0.296
       0.279
       0.273
       0.275
       0.279
       0.285
       0.293
       0.308
       0.332
       0.364
       0.397
       0.424
       0.440
       0.447
       0.448
       0.444
       0.437
       0.428
       0.420
       0.412
       0.401
       0.384
       0.362
       0.337
       0.310
       0.281
       0.248
       0.213
       0.180
       0.150
       0.127
       0.111
       0.102
       0.094
       0.086
       0.075
       0.065
       0.057
       0.055
       0.056
       0.059
       0.064
       0.070
       0.073
       0.070
       0.060
       0.048
       0.041
       0.045
       0.057
       0.075
       0.094
       0.116
       0.139
       0.163
       0.182
       0.193
       0.195
       0.192
       0.188
       0.189
       0.198
       0.218
       0.248
       0.289
       0.340
       0.398
       0.461
       0.521
       0.574
       0.621
       0.662
       0.697
       0.721
       0.734
       0.736
       0.730
       0.717
       0.698
       0.673
       0.643
       0.611
       0.582
       0.555
       0.531
       0.505
       0.477
       0.444
       0.407
       0.370
       0.332
       0.294
       0.255
       0.212
       0.167
       0.121
       0.077
       0.039
       0.008
      -0.017
      -0.034
      -0.042
      -0.040
      -0.031
      -0.017
      -0.004
       0.005
       0.010
       0.015
       0.022
       0.031
       0.038
       0.035
       0.024
       0.007
      -0.011
      -0.025
      -0.033
      -0.029
      -0.013
       0.016
       0.055
       0.102
       0.156
       0.212
       0.266
       0.312
       0.345
       0.362
       0.362
       0.343
       0.307
       0.260
       0.209
       0.158
       0.107
       0.054
      -0.001
      -0.054
      -0.102
      -0.143
      -0.179
      -0.209
      -0.234
      -0.254
      -0.271
      -0.287
      -0.307
      -0.334
      -0.367
      -0.405
      -0.444
      -0.482
      -0.518
      -0.547
      -0.566
      -0.571
      -0.563
      -0.546
      -0.519
      -0.482
      -0.435
      -0.383
      -0.332
      -0.287
      -0.248
      -0.207
      -0.161
      -0.108
      -0.052
       0.000
       0.047
       0.086
       0.119
       0.145
       0.162
       0.165
       0.151
       0.122
       0.084
       0.046
       0.013
      -0.015
      -0.043
      -0.075
      -0.113
      -0.159
      -0.212
      -0.271
      -0.334
      -0.396
      -0.454
      -0.504
      -0.542
      -0.565
      -0.570
      -0.560
      -0.538
      -0.514
      -0.496
      -0.488
      -0.487
      -0.492
      -0.498
      -0.502
      -0.500
      -0.490
      -0.470
      -0.442
      -0.409
      -0.373
      -0.334
      -0.296
      -0.258
      -0.223
      -0.190
      -0.159
      -0.130
      -0.100
      -0.070
      -0.036
       0.000
       0.039
       0.076
       0.107
       0.132
       0.148
       0.155
       0.152
       0.138
       0.114
       0.082
       0.043
       0.000
      -0.045
      -0.091
      -0.138
      -0.186
      -0.236
      -0.286
      -0.332
      -0.368
      -0.393
      -0.410
      -0.421
      -0.426
      -0.425
      -0.417
      -0.402
      -0.384
      -0.367
      -0.355
      -0.347
      -0.340
      -0.331
      -0.318
      -0.302
      -0.284
      -0.265
      -0.247
      -0.233
      -0.222
      -0.212
      -0.204
      -0.198
      -0.195
      -0.193
      -0.192
      -0.194
      -0.196
      -0.199
      -0.202
      -0.208
      -0.218
      -0.233
      -0.249
      -0.263
      -0.273
      -0.279
      -0.278
      -0.269
      -0.251
      -0.226
      -0.197
      -0.164
      -0.127
      -0.087
      -0.046
      -0.006
       0.029
       0.059
       0.082
       0.097
       0.106
       0.109
       0.109
       0.104
       0.091
       0.068
       0.040
       0.012
      -0.012
      -0.032
      -0.054
      -0.079
      -0.106
      -0.132
      -0.158
      -0.183
      -0.209
      -0.233
      -0.255
      -0.273
      -0.288
      -0.298
      -0.303
      -0.302
      -0.293
      -0.277
      -0.255
      -0.230
      -0.204
      -0.177
      -0.149
      -0.121
      -0.096
      -0.079
      -0.074
      -0.079
      -0.087
      -0.090
      -0.087
      -0.081
      -0.075
      -0.068
      -0.056
      -0.034
      -0.004
       0.029
       0.059
       0.082
       0.098
       0.108
       0.115
       0.120
       0.125
       0.131
       0.138
       0.146
       0.153
       0.157
       0.159
       0.158
       0.153
       0.144
       0.130
       0.112
       0.093
       0.078
       0.069
       0.069
       0.076
       0.085
       0.093
       0.096
       0.097
       0.096
       0.097
       0.102
       0.110
       0.121
       0.133
       0.145
       0.158
       0.175
       0.200
       0.232
       0.266
       0.296
       0.317
       0.332
       0.343
       0.351
       0.354
       0.353
       0.351
       0.354
       0.367
       0.393
       0.427
       0.466
       0.504
       0.535
       0.555
       0.561
       0.554
       0.537
       0.509
       0.477
       0.445
       0.423
       0.415
       0.421
       0.438
       0.461
       0.484
       0.503
       0.514
       0.511
       0.496
       0.473
       0.448
       0.424
       0.400
       0.377
       0.356
       0.342
       0.341
       0.350
       0.363
       0.372
       0.373
       0.369
       0.363
       0.361
       0.364
       0.372
       0.382
       0.394
       0.410
       0.428
       0.448
       0.466
       0.479
       0.488
       0.497
       0.509
       0.522
       0.535
       0.544
       0.551
       0.556
       0.560
       0.560
       0.553
       0.537
       0.512
       0.483
       0.453
       0.424
       0.395
       0.367
       0.342
       0.321
       0.303
       0.285
       0.264
       0.239
       0.212
       0.189
       0.173
       0.166
       0.165
       0.164
       0.162
       0.160
       0.163
       0.173
       0.188
       0.200
       0.201
       0.190
       0.169
       0.145
       0.120
       0.097
       0.077
       0.062
       0.052
       0.047
       0.043
       0.035
       0.019
      -0.007
      -0.042
      -0.081
      -0.121
      -0.161
      -0.198
      -0.229
      -0.252
      -0.262
      -0.259
      -0.247
      -0.232
      -0.217
      -0.204
      -0.197
      -0.197
      -0.206
      -0.220
      -0.235
      -0.245
      -0.250
      -0.251
      -0.254
      -0.259
      -0.266
      -0.267
      -0.259
      -0.241
      -0.216
      -0.192
      -0.173
      -0.160
      -0.147
      -0.131
      -0.110
      -0.087
