Origin Time       1/5/2013 06:57:12	  UTC
Lat.              33.1 N	
Long.             75.8 E	
Depth (Km)         15.0
Magnitude         5.8
 Region           JK-HP-Border                                                     
 Above details taken from IMD 
    
Station Code      ROO
Station Lat.       29.866  N
Station Long.      77.901  E
Station Height(m)  262.0
Site Class        C   Vs30 between 200 m/sec to 375 m/sec *  
Record Time       01.05.2013 06:58:28.419 UTC
Sampling Rate     200. Hz
 Record Duration  159.035 Sec.
 Direction         N-S (N positive)
Max. Acceleration      1.584 cm/sec**2
     
  * For reference see Site Classification link of website 
     
 Base Line Corrected and Low Pass Filtered (Cut Off at 35 Hz) Time History
 Acceleration data in cm/sec**2
    
[...]
       0.023
       0.055
       0.090
       0.125
       0.153
       0.175
       0.190
       0.202
       0.208
       0.208
       0.200
       0.188
       0.177
       0.168
       0.164
       0.161
       0.160
       0.159
       0.160
       0.163
       0.169
       0.182
       0.204
       0.235
       0.273
       0.312
       0.348
       0.376
       0.396
       0.407
       0.411
       0.404
       0.389
       0.372
       0.357
       0.347
       0.335
       0.311
       0.276
       0.238
       0.207
       0.189
       0.183
       0.183
       0.184
       0.179
       0.165
       0.141
       0.113
       0.085
       0.057
       0.027
      -0.005
      -0.037
      -0.064
      -0.084
      -0.097
      -0.108
      -0.122
      -0.144
      -0.171
      -0.197
      -0.215
      -0.228
      -0.240
      -0.256
      -0.275
      -0.290
      -0.296
      -0.293
      -0.284
      -0.271
      -0.256
      -0.230
      -0.188
      -0.130
      -0.065
      -0.005
       0.044
       0.081
       0.114
       0.149
       0.188
       0.226
       0.257
       0.276
       0.286
       0.295
       0.312
       0.334
       0.355
       0.366
       0.367
       0.362
       0.355
       0.342
       0.321
       0.287
       0.237
       0.175
       0.108
       0.046
      -0.008
      -0.057
      -0.106
      -0.157
      -0.204
      -0.243
      -0.276
      -0.309
      -0.343
      -0.377
      -0.403
      -0.413
      -0.402
      -0.373
      -0.339
      -0.311
      -0.294
      -0.286
      -0.282
      -0.279
      -0.275
      -0.272
      -0.270
      -0.263
      -0.244
      -0.207
      -0.160
      -0.115
      -0.082
      -0.063
      -0.052
      -0.045
      -0.045
      -0.058
      -0.091
      -0.147
      -0.216
      -0.287
      -0.347
      -0.394
      -0.433
      -0.465
      -0.482
      -0.478
      -0.450
      -0.402
      -0.344
      -0.283
      -0.225
      -0.167
      -0.105
      -0.033
       0.049
       0.136
       0.214
       0.275
       0.323
       0.364
       0.404
       0.439
       0.465
       0.478
       0.485
       0.493
       0.506
       0.523
       0.537
       0.542
       0.536
       0.524
       0.511
       0.499
       0.482
       0.452
       0.401
       0.328
       0.238
       0.137
       0.028
      -0.088
      -0.212
      -0.341
      -0.470
      -0.591
      -0.701
      -0.801
      -0.884
      -0.945
      -0.980
      -0.993
      -0.991
      -0.977
      -0.950
      -0.910
      -0.859
      -0.796
      -0.719
      -0.622
      -0.505
      -0.370
      -0.225
      -0.081
       0.055
       0.178
       0.288
       0.386
       0.471
       0.546
       0.616
       0.683
       0.743
       0.789
       0.817
       0.826
       0.820
       0.800
       0.767
       0.723
       0.670
       0.609
       0.538
       0.460
       0.373
       0.281
       0.192
       0.115
       0.059
       0.022
       0.000
      -0.014
      -0.025
      -0.036
      -0.048
      -0.058
      -0.067
      -0.072
      -0.074
      -0.075
      -0.077
      -0.083
      -0.099
      -0.126
      -0.163
      -0.201
      -0.233
      -0.255
      -0.268
      -0.275
      -0.278
      -0.279
      -0.284
      -0.296
      -0.320
      -0.357
      -0.403
      -0.450
      -0.487
      -0.507
      -0.516
      -0.525
      -0.537
      -0.553
      -0.566
      -0.570
      -0.558
      -0.528
      -0.477
      -0.409
      -0.327
      -0.234
      -0.131
      -0.018
       0.100
       0.215
       0.319
       0.407
       0.482
       0.551
       0.619
       0.683
       0.736
       0.768
       0.773
       0.752
       0.710
       0.649
       0.574
       0.487
       0.393
       0.297
       0.202
       0.107
       0.010
      -0.090
      -0.191
      -0.286
      -0.367
      -0.431
      -0.476
      -0.503
      -0.509
      -0.495
      -0.460
      -0.406
      -0.339
      -0.261
      -0.180
      -0.096
      -0.010
       0.085
       0.191
       0.302
       0.401
       0.472
       0.512
       0.525
       0.522
       0.503
       0.465
       0.403
       0.323
       0.239
       0.167
       0.115
       0.078
       0.044
       0.005
      -0.037
      -0.075
      -0.106
      -0.130
      -0.150
      -0.167
      -0.179
      -0.182
      -0.177
      -0.164
      -0.148
      -0.133
      -0.121
      -0.107
      -0.086
      -0.055
      -0.020
       0.015
       0.045
       0.068
       0.082
       0.091
       0.101
       0.116
       0.139
       0.166
       0.196
       0.224
       0.250
       0.272
       0.289
       0.299
       0.301
       0.301
       0.305
       0.317
       0.325
       0.314
       0.274
       0.213
       0.149
       0.095
       0.054
       0.023
      -0.004
      -0.027
      -0.049
      -0.072
      -0.098
      -0.128
      -0.161
      -0.191
      -0.211
      -0.220
      -0.217
      -0.206
      -0.191
      -0.173
      -0.154
      -0.138
      -0.124
      -0.114
      -0.111
      -0.113
      -0.118
      -0.118
      -0.109
      -0.092
      -0.073
      -0.056
      -0.044
      -0.039
      -0.038
      -0.039
      -0.038
      -0.029
      -0.013
       0.009
       0.026
       0.031
       0.020
      -0.001
      -0.025
      -0.048
      -0.070
      -0.092
      -0.116
      -0.140
      -0.161
      -0.176
      -0.186
      -0.193
      -0.200
      -0.209
      -0.216
      -0.219
      -0.214
      -0.203
      -0.190
      -0.182
      -0.180
      -0.182
      -0.183
      -0.182
      -0.178
      -0.173
      -0.165
      -0.155
      -0.144
      -0.135
      -0.134
      -0.144
      -0.162
      -0.180
      -0.189
      -0.189
      -0.188
      -0.190
      -0.193
      -0.184
      -0.153
      -0.102
      -0.039
       0.028
       0.098
       0.170
       0.245
       0.319
       0.387
       0.444
       0.489
       0.529
       0.567
       0.599
       0.616
       0.613
       0.592
       0.560
       0.523
       0.482
       0.432
       0.369
       0.292
       0.200
       0.102
       0.003
      -0.092
      -0.180
      -0.257
      -0.319
      -0.370
      -0.413
      -0.453
      -0.485
      -0.501
      -0.493
      -0.461
      -0.414
      -0.365
      -0.321
      -0.277
      -0.226
      -0.162
      -0.087
      -0.006
       0.080
       0.172
       0.262
       0.337
       0.384
       0.400
       0.395
       0.378
       0.355
       0.322
       0.275
       0.215
       0.147
       0.079
       0.016
      -0.045
      -0.111
      -0.189
      -0.278
      -0.368
      -0.447
      -0.510
      -0.554
      -0.582
      -0.597
      -0.596
      -0.577
      -0.537
      -0.475
      -0.395
      -0.309
      -0.225
      -0.151
      -0.088
      -0.034
       0.014
       0.055
       0.084
       0.095
       0.087
       0.066
       0.043
       0.021
      -0.002
      -0.029
      -0.060
      -0.085
      -0.098
      -0.094
      -0.077
      -0.052
      -0.027
      -0.001
       0.026
       0.056
       0.089
       0.125
       0.162
       0.203
       0.248
       0.297
       0.343
       0.378
       0.394
       0.390
       0.372
       0.351
       0.332
       0.312
       0.285
       0.246
       0.195
       0.140
       0.087
       0.033
      -0.026
      -0.100
      -0.187
      -0.281
      -0.373
      -0.453
      -0.514
      -0.555
      -0.576
      -0.583
      -0.576
      -0.554
      -0.518
      -0.470
      -0.420
      -0.371
      -0.328
      -0.290
      -0.252
      -0.214
      -0.177
      -0.144
      -0.119
      -0.099
      -0.079
      -0.055
      -0.022
       0.021
       0.072
       0.123
       0.160
       0.179
       0.179
       0.168
       0.147
       0.116
       0.076
       0.030
      -0.018
      -0.060
      -0.094
      -0.117
      -0.135
      -0.150
      -0.160
      -0.158
      -0.136
      -0.093
      -0.033
       0.036
       0.111
       0.191
       0.272
       0.350
       0.422
       0.480
       0.524
       0.555
       0.574
       0.581
       0.569
       0.538
       0.490
       0.432
       0.369
       0.300
       0.224
       0.144
       0.065
      -0.010
      -0.080
      -0.142
      -0.196
      -0.239
      -0.271
      -0.290
      -0.297
      -0.287
      -0.258
      -0.208
      -0.144
      -0.076
      -0.014
       0.038
       0.085
       0.134
       0.189
       0.244
       0.290
       0.324
       0.350
       0.373
       0.394
       0.408
       0.405
       0.382
       0.342
       0.293
       0.242
       0.189
       0.134
       0.078
       0.030
      -0.003
      -0.018
      -0.018
      -0.010
       0.003
       0.019
       0.037
       0.060
       0.087
       0.114
       0.133
       0.136
       0.120
       0.095
       0.069
       0.051
       0.043
       0.043
       0.049
       0.060
       0.081
       0.114
       0.159
       0.209
       0.256
       0.300
       0.343
       0.389
       0.435
       0.471
       0.485
       0.474
       0.440
       0.392
       0.335
       0.268
       0.186
       0.087
      -0.024
      -0.137
      -0.243
      -0.346
      -0.448
      -0.551
      -0.647
      -0.722
      -0.769
      -0.787
      -0.781
      -0.756
      -0.718
      -0.669
      -0.611
      -0.542
      -0.464
      -0.380
      -0.293
      -0.205
      -0.119
      -0.035
       0.046
       0.124
       0.195
       0.255
       0.302
       0.342
       0.381
       0.419
       0.451
       0.468
       0.463
       0.439
       0.407
       0.377
       0.346
       0.304
       0.237
       0.140
       0.022
      -0.106
      -0.235
      -0.364
      -0.491
      -0.608
      -0.710
      -0.789
      -0.843
      -0.872
      -0.878
      -0.867
      -0.844
      -0.811
      -0.759
      -0.680
      -0.570
      -0.438
      -0.300
      -0.171
      -0.057
       0.047
       0.153
       0.268
       0.387
       0.502
       0.611
       0.713
       0.808
       0.893
       0.965
       1.017
       1.045
       1.045
       1.020
       0.974
       0.911
       0.833
       0.736
       0.618
       0.479
       0.324
       0.162
       0.003
      -0.140
      -0.260
      -0.356
      -0.426
      -0.470
      -0.487
      -0.478
      -0.449
      -0.408
      -0.364
      -0.318
      -0.266
      -0.199
      -0.116
      -0.028
       0.050
       0.106
       0.141
       0.167
       0.190
       0.206
       0.205
       0.183
       0.149
       0.113
       0.081
       0.042
      -0.016
      -0.103
      -0.215
      -0.338
      -0.460
      -0.573
      -0.684
      -0.796
      -0.903
      -0.987
      -1.030
      -1.029
      -0.992
      -0.934
      -0.859
      -0.767
      -0.653
      -0.516
      -0.366
      -0.218
      -0.083
       0.039
       0.153
       0.266
       0.382
       0.502
       0.625
       0.743
       0.848
       0.939
       1.017
       1.085
       1.137
       1.168
       1.176
       1.166
       1.149
       1.130
       1.110
       1.077
       1.017
       0.922
       0.799
       0.664
       0.524
       0.378
       0.218
       0.046
      -0.125
      -0.280
      -0.410
      -0.516
      -0.602
      -0.668
      -0.711
      -0.729
      -0.722
      -0.696
      -0.660
      -0.622
      -0.587
      -0.550
      -0.511
      -0.471
      -0.434
      -0.402
      -0.369
      -0.328
      -0.272
      -0.205
      -0.135
      -0.075
      -0.034
      -0.012
      -0.001
       0.011
       0.034
       0.068
       0.107
       0.143
       0.172
       0.193
       0.208
       0.221
       0.234
       0.245
       0.254
       0.265
       0.281
       0.303
       0.330
       0.359
       0.389
       0.420
       0.451
       0.479
       0.501
       0.512
       0.510
       0.496
       0.473
       0.443
       0.406
       0.367
       0.326
       0.283
       0.234
       0.170
       0.090
      -0.003
      -0.101
      -0.202
      -0.309
      -0.421
      -0.531
      -0.626
      -0.697
      -0.745
      -0.779
      -0.809
      -0.838
      -0.861
      -0.869
      -0.860
      -0.840
      -0.811
      -0.776
      -0.729
      -0.668
      -0.598
      -0.524
      -0.452
      -0.385
      -0.325
      -0.268
      -0.210
      -0.148
      -0.088
      -0.039
      -0.005
       0.019
       0.041
       0.064
       0.084
       0.092
       0.086
       0.069
       0.045
       0.020
      -0.005
      -0.031
      -0.058
      -0.086
      -0.111
      -0.124
      -0.121
      -0.102
      -0.071
      -0.034
       0.008
       0.057
       0.119
       0.197
       0.289
       0.385
       0.477
       0.564
       0.654
       0.753
       0.859
       0.960
       1.043
       1.102
       1.135
       1.143
       1.124
       1.067
       0.966
       0.825
       0.660
       0.484
       0.301
       0.107
      -0.100
      -0.317
      -0.536
      -0.750
      -0.949
      -1.120
      -1.257
      -1.353
      -1.412
      -1.435
      -1.426
      -1.384
      -1.307
      -1.191
      -1.039
      -0.862
      -0.671
      -0.474
      -0.269
      -0.051
       0.179
       0.413
       0.642
       0.856
       1.053
       1.229
       1.377
       1.488
       1.557
       1.584
       1.576
       1.540
       1.483
       1.403
       1.300
       1.174
       1.033
       0.885
       0.737
       0.593
       0.455
       0.327
       0.217
       0.128
       0.064
       0.021
      -0.008
      -0.028
      -0.043
      -0.054
      -0.060
      -0.061
      -0.058
      -0.061
      -0.076
      -0.110
      -0.161
      -0.220
      -0.277
      -0.325
      -0.368
      -0.409
      -0.445
      -0.466
      -0.463
      -0.435
      -0.392
      -0.348
      -0.307
      -0.269
      -0.233
      -0.197
      -0.163
      -0.137
      -0.122
      -0.121
      -0.132
      -0.154
      -0.191
      -0.241
      -0.302
      -0.368
      -0.431
      -0.487
      -0.533
      -0.570
      -0.600
      -0.621
      -0.626
      -0.611
      -0.576
      -0.524
      -0.458
      -0.378
      -0.282
      -0.170
      -0.044
       0.094
       0.240
       0.389
       0.529
       0.651
       0.751
       0.825
       0.873
       0.891
       0.877
       0.832
       0.760
       0.666
       0.560
       0.446
       0.322
       0.190
       0.052
      -0.083
      -0.209
      -0.323
      -0.418
      -0.489
      -0.531
      -0.544
      -0.535
      -0.513
      -0.479
      -0.430
      -0.363
      -0.277
      -0.176
      -0.061
       0.062
       0.191
       0.315
       0.423
       0.504
       0.550
       0.564
       0.556
       0.533
       0.500
       0.453
       0.391
       0.320
       0.252
       0.196
       0.155
       0.118
       0.070
       0.004
      -0.072
      -0.142
      -0.196
      -0.235
      -0.267
      -0.297
      -0.322
      -0.336
      -0.342
      -0.343
      -0.348
      -0.360
      -0.378
      -0.401
      -0.424
      -0.445
      -0.463
      -0.477
      -0.484
      -0.479
      -0.460
      -0.426
      -0.384
      -0.340
      -0.300
      -0.264
      -0.230
      -0.196
      -0.161
      -0.133
      -0.118
      -0.119
      -0.130
      -0.138
      -0.128
      -0.102
      -0.068
      -0.040
      -0.023
      -0.014
      -0.003
       0.013
       0.030
       0.041
       0.042
       0.036
       0.029
       0.021
       0.008
      -0.018
      -0.056
      -0.102
      -0.148
      -0.193
      -0.235
      -0.275
      -0.308
      -0.326
      -0.323
      -0.291
      -0.234
      -0.154
      -0.059
       0.045
       0.147
       0.235
       0.301
       0.349
       0.383
       0.406
       0.415
       0.405
       0.377
       0.337
       0.292
       0.243
       0.187
       0.117
       0.034
      -0.056
      -0.141
      -0.213
      -0.270
      -0.316
      -0.351
      -0.372
      -0.377
      -0.366
      -0.341
      -0.302
      -0.242
      -0.160
      -0.062
       0.040
       0.131
       0.199
       0.242
       0.264
       0.273
       0.269
       0.248
       0.207
       0.148
       0.075
      -0.008
      -0.093
      -0.177
      -0.255
      -0.326
      -0.393
      -0.457
      -0.513
      -0.555
      -0.575
      -0.569
      -0.537
      -0.488
      -0.427
      -0.357
      -0.278
      -0.187
      -0.090
       0.009
       0.105
       0.200
       0.293
       0.385
       0.470
       0.544
       0.604
       0.651
       0.687
       0.712
       0.724
       0.715
       0.680
       0.615
       0.521
       0.407
       0.281
       0.149
       0.015
      -0.118
      -0.250
      -0.378
      -0.498
      -0.604
      -0.689
      -0.748
      -0.784
      -0.795
      -0.783
      -0.749
      -0.694
      -0.624
      -0.547
      -0.469
      -0.394
      -0.322
      -0.246
      -0.165
      -0.083
      -0.007
       0.057
       0.111
       0.157
       0.197
       0.230
       0.255
       0.271
       0.284
       0.303
       0.336
       0.390
       0.458
       0.529
       0.586
       0.622
       0.637
       0.635
       0.619
       0.587
       0.533
       0.451
       0.340
       0.208
       0.063
      -0.091
      -0.254
      -0.423
      -0.585
      -0.725
      -0.835
      -0.915
      -0.968
      -1.001
      -1.017
      -1.013
      -0.984
      -0.927
      -0.846
      -0.750
      -0.645
      -0.532
      -0.406
      -0.265
      -0.116
       0.028
       0.156
       0.263
       0.349
       0.419
       0.474
       0.517
       0.545
       0.556
       0.549
       0.525
       0.485
       0.429
       0.357
       0.267
       0.160
       0.046
      -0.064
      -0.156
      -0.225
      -0.270
      -0.295
      -0.299
      -0.282
      -0.243
      -0.186
      -0.119
      -0.049
       0.022
       0.088
       0.148
       0.202
       0.247
       0.280
       0.299
       0.311
       0.322
       0.338
       0.357
       0.374
       0.385
       0.389
       0.389
       0.392
       0.404
       0.433
       0.476
       0.528
       0.580
       0.626
       0.662
       0.687
       0.697
       0.690
       0.664
       0.620
       0.559
       0.482
       0.392
       0.295
       0.195
       0.099
       0.013
      -0.060
      -0.118
      -0.159
      -0.185
      -0.201
      -0.214
      -0.228
      -0.241
      -0.249
      -0.250
      -0.246
      -0.241
      -0.236
      -0.227
      -0.208
      -0.174
      -0.128
      -0.078
      -0.031
       0.011
       0.047
       0.078
       0.098
       0.102
       0.092
       0.078
       0.064
       0.052
       0.038
       0.017
      -0.011
      -0.042
      -0.071
      -0.095
      -0.105
      -0.094
      -0.062
      -0.015
       0.037
       0.086
       0.127
       0.157
       0.171
       0.166
       0.138
       0.084
       0.006
      -0.087
      -0.189
      -0.299
      -0.418
      -0.544
      -0.670
      -0.787
