Origin Time       1/5/2013 06:57:12	 
Lat.              33.1 N	
Long.             75.8 E	
Depth (Km)         15.0
Magnitude         5.8
 Region           JK-HP-Border                                                     
 Above details taken from IMD 
   
Station Code      ROO
Station Lat.       29.866
Station Long.      77.901
Station Height(m)  262.0
Site Class        C   Vs30 between 200 m/sec to 375 m/sec *  
Record Time       01.05.2013 06:58:28.419
Sampling Rate     200. Hz
 Record Duration  159.035 Sec.
 Direction         Vert. (Up positive)
Max. Acceleration     -0.736 cm/sec**2
     
  * For reference see Site Classification link of website 
     
 Base Line Corrected and Low Pass Filtered (Cut Off at 35 Hz) Time History
 Acceleration data in cm/sec**2
    
[...]
       0.262
       0.246
       0.239
       0.248
       0.266
       0.279
       0.274
       0.246
       0.204
       0.161
       0.127
       0.102
       0.080
       0.057
       0.037
       0.024
       0.017
       0.008
      -0.013
      -0.054
      -0.114
      -0.184
      -0.254
      -0.318
      -0.370
      -0.410
      -0.434
      -0.434
      -0.402
      -0.337
      -0.253
      -0.170
      -0.106
      -0.068
      -0.050
      -0.041
      -0.024
       0.006
       0.040
       0.068
       0.088
       0.109
       0.138
       0.168
       0.182
       0.173
       0.149
       0.126
       0.118
       0.126
       0.140
       0.150
       0.155
       0.160
       0.172
       0.182
       0.171
       0.121
       0.041
      -0.045
      -0.109
      -0.142
      -0.152
      -0.152
      -0.150
      -0.145
      -0.126
      -0.089
      -0.037
       0.015
       0.054
       0.078
       0.094
       0.114
       0.141
       0.168
       0.180
       0.169
       0.140
       0.108
       0.082
       0.059
       0.029
      -0.014
      -0.066
      -0.106
      -0.119
      -0.104
      -0.077
      -0.058
      -0.061
      -0.077
      -0.085
      -0.068
      -0.028
       0.018
       0.045
       0.045
       0.033
       0.028
       0.041
       0.058
       0.060
       0.031
      -0.027
      -0.097
      -0.155
      -0.184
      -0.182
      -0.156
      -0.113
      -0.055
       0.016
       0.092
       0.155
       0.192
       0.203
       0.198
       0.190
       0.190
       0.202
       0.223
       0.248
       0.269
       0.283
       0.292
       0.295
       0.287
       0.264
       0.226
       0.177
       0.118
       0.058
       0.003
      -0.042
      -0.082
      -0.126
      -0.182
      -0.247
      -0.313
      -0.369
      -0.403
      -0.410
      -0.393
      -0.365
      -0.333
      -0.300
      -0.264
      -0.220
      -0.172
      -0.131
      -0.115
      -0.137
      -0.189
      -0.247
      -0.283
      -0.290
      -0.280
      -0.271
      -0.266
      -0.255
      -0.220
      -0.155
      -0.073
       0.002
       0.047
       0.059
       0.058
       0.071
       0.109
       0.161
       0.208
       0.240
       0.260
       0.281
       0.303
       0.313
       0.292
       0.238
       0.173
       0.128
       0.121
       0.147
       0.179
       0.194
       0.182
       0.158
       0.138
       0.127
       0.108
       0.057
      -0.030
      -0.132
      -0.214
      -0.250
      -0.238
      -0.207
      -0.190
      -0.196
      -0.210
      -0.208
      -0.184
      -0.157
      -0.147
      -0.152
      -0.148
      -0.106
      -0.016
       0.104
       0.219
       0.298
       0.338
       0.361
       0.392
       0.425
       0.433
       0.392
       0.308
       0.213
       0.144
       0.118
       0.118
       0.111
       0.067
      -0.009
      -0.088
      -0.141
      -0.170
      -0.198
      -0.248
      -0.314
      -0.371
      -0.391
      -0.361
      -0.295
      -0.223
      -0.176
      -0.160
      -0.154
      -0.125
      -0.062
       0.020
       0.095
       0.144
       0.167
       0.182
       0.203
       0.230
       0.246
       0.235
       0.197
       0.145
       0.103
       0.087
       0.093
       0.104
       0.097
       0.063
       0.004
      -0.073
      -0.158
      -0.245
      -0.332
      -0.416
      -0.486
      -0.528
      -0.528
      -0.483
      -0.406
      -0.317
      -0.232
      -0.159
      -0.104
      -0.065
      -0.042
      -0.034
      -0.039
      -0.047
      -0.040
      -0.009
       0.046
       0.110
       0.167
       0.211
       0.243
       0.275
       0.309
       0.343
       0.363
       0.357
       0.328
       0.294
       0.273
       0.272
       0.279
       0.275
       0.248
       0.202
       0.154
       0.119
       0.103
       0.094
       0.078
       0.047
       0.009
      -0.030
      -0.069
      -0.114
      -0.168
      -0.229
      -0.284
      -0.320
      -0.331
      -0.325
      -0.321
      -0.334
      -0.361
      -0.380
      -0.371
      -0.329
      -0.266
      -0.201
      -0.144
      -0.084
      -0.004
       0.103
       0.220
       0.314
       0.360
       0.351
       0.306
       0.253
       0.214
       0.194
       0.181
       0.160
       0.129
       0.097
       0.068
       0.037
      -0.005
      -0.059
      -0.115
      -0.154
      -0.157
      -0.122
      -0.061
       0.006
       0.066
       0.120
       0.169
       0.211
       0.238
       0.242
       0.222
       0.184
       0.141
       0.109
       0.094
       0.085
       0.066
       0.030
      -0.020
      -0.069
      -0.108
      -0.135
      -0.154
      -0.175
      -0.207
      -0.241
      -0.261
      -0.257
      -0.242
      -0.236
      -0.248
      -0.262
      -0.253
      -0.205
      -0.122
      -0.022
       0.071
       0.141
       0.184
       0.208
       0.211
       0.189
       0.134
       0.050
      -0.046
      -0.135
      -0.200
      -0.233
      -0.236
      -0.222
      -0.208
      -0.198
      -0.188
      -0.169
      -0.139
      -0.103
      -0.068
      -0.036
      -0.011
       0.011
       0.034
       0.065
       0.106
       0.148
       0.183
       0.207
       0.225
       0.243
       0.264
       0.282
       0.290
       0.282
       0.261
       0.228
       0.185
       0.135
       0.078
       0.023
      -0.022
      -0.049
      -0.056
      -0.044
      -0.018
       0.018
       0.062
       0.111
       0.159
       0.199
       0.224
       0.229
       0.212
       0.176
       0.133
       0.098
       0.074
       0.056
       0.038
       0.022
       0.010
       0.003
      -0.006
      -0.023
      -0.056
      -0.113
      -0.191
      -0.277
      -0.355
      -0.412
      -0.446
      -0.457
      -0.446
      -0.413
      -0.364
      -0.311
      -0.261
      -0.218
      -0.174
      -0.118
      -0.042
       0.056
       0.162
       0.261
       0.340
       0.400
       0.440
       0.457
       0.443
       0.387
       0.290
       0.160
       0.021
      -0.098
      -0.172
      -0.195
      -0.179
      -0.144
      -0.108
      -0.077
      -0.050
      -0.023
       0.012
       0.057
       0.106
       0.154
       0.198
       0.242
       0.288
       0.329
       0.351
       0.343
       0.306
       0.253
       0.199
       0.155
       0.122
       0.091
       0.053
       0.011
      -0.023
      -0.043
      -0.060
      -0.094
      -0.159
      -0.253
      -0.358
      -0.444
      -0.491
      -0.495
      -0.476
      -0.458
      -0.450
      -0.442
      -0.416
      -0.367
      -0.308
      -0.258
      -0.226
      -0.203
      -0.166
      -0.097
       0.002
       0.107
       0.181
       0.204
       0.182
       0.144
       0.107
       0.073
       0.032
      -0.018
      -0.068
      -0.093
      -0.071
      -0.002
       0.093
       0.182
       0.250
       0.306
       0.364
       0.431
       0.492
       0.531
       0.536
       0.513
       0.481
       0.457
       0.441
       0.415
       0.363
       0.292
       0.226
       0.184
       0.164
       0.146
       0.106
       0.038
      -0.043
      -0.120
      -0.182
      -0.237
      -0.296
      -0.368
      -0.448
      -0.525
      -0.584
      -0.612
      -0.609
      -0.584
      -0.549
      -0.507
      -0.452
      -0.369
      -0.253
      -0.111
       0.034
       0.157
       0.244
       0.306
       0.359
       0.414
       0.467
       0.510
       0.537
       0.553
       0.565
       0.576
       0.584
       0.587
       0.578
       0.551
       0.502
       0.435
       0.355
       0.267
       0.173
       0.077
      -0.017
      -0.109
      -0.196
      -0.274
      -0.339
      -0.393
      -0.442
      -0.481
      -0.499
      -0.485
      -0.439
      -0.368
      -0.280
      -0.189
      -0.110
      -0.054
      -0.021
      -0.005
      -0.005
      -0.023
      -0.056
      -0.098
      -0.141
      -0.179
      -0.203
      -0.206
      -0.191
      -0.170
      -0.159
      -0.172
      -0.210
      -0.264
      -0.321
      -0.367
      -0.393
      -0.398
      -0.383
      -0.346
      -0.282
      -0.193
      -0.092
       0.003
       0.082
       0.145
       0.200
       0.254
       0.310
       0.365
       0.414
       0.450
       0.467
       0.465
       0.445
       0.410
       0.364
       0.311
       0.254
       0.197
       0.146
       0.109
       0.086
       0.074
       0.067
       0.059
       0.050
       0.037
       0.021
       0.004
      -0.006
      -0.003
       0.013
       0.034
       0.054
       0.071
       0.089
       0.106
       0.118
       0.119
       0.108
       0.093
       0.085
       0.086
       0.088
       0.078
       0.044
      -0.019
      -0.099
      -0.174
      -0.227
      -0.255
      -0.269
      -0.280
      -0.292
      -0.295
      -0.277
      -0.232
      -0.168
      -0.110
      -0.077
      -0.070
      -0.070
      -0.059
      -0.034
      -0.009
       0.001
      -0.009
      -0.029
      -0.044
      -0.047
      -0.045
      -0.052
      -0.072
      -0.093
      -0.093
      -0.059
       0.001
       0.067
       0.120
       0.163
       0.209
       0.271
       0.342
       0.398
       0.414
       0.382
       0.312
       0.228
       0.155
       0.102
       0.063
       0.024
      -0.025
      -0.082
      -0.135
      -0.168
      -0.178
      -0.178
      -0.190
      -0.221
      -0.260
      -0.282
      -0.274
      -0.239
      -0.197
      -0.163
      -0.141
      -0.123
      -0.102
      -0.079
      -0.063
      -0.064
      -0.081
      -0.097
      -0.098
      -0.076
      -0.039
       0.003
       0.046
       0.092
       0.145
       0.206
       0.268
       0.316
       0.330
       0.300
       0.236
       0.160
       0.093
       0.046
       0.018
       0.002
      -0.009
      -0.015
      -0.013
       0.001
       0.021
       0.027
       0.004
      -0.042
      -0.090
      -0.123
      -0.130
      -0.116
      -0.090
      -0.060
      -0.026
       0.022
       0.088
       0.163
       0.224
       0.256
       0.257
       0.242
       0.225
       0.214
       0.205
       0.183
       0.139
       0.075
       0.007
      -0.048
      -0.083
      -0.099
      -0.104
      -0.107
      -0.111
      -0.117
      -0.120
      -0.115
      -0.099
      -0.072
      -0.034
       0.012
       0.060
       0.098
       0.114
       0.101
       0.065
       0.019
      -0.022
      -0.056
      -0.089
      -0.130
      -0.176
      -0.211
      -0.218
      -0.192
      -0.140
      -0.083
      -0.042
      -0.026
      -0.023
      -0.012
       0.017
       0.054
       0.082
       0.095
       0.106
       0.127
       0.162
       0.203
       0.231
       0.233
       0.210
       0.175
       0.142
       0.111
       0.072
       0.014
      -0.054
      -0.115
      -0.150
      -0.153
      -0.128
      -0.089
      -0.059
      -0.047
      -0.046
      -0.043
      -0.032
      -0.019
      -0.022
      -0.047
      -0.089
      -0.129
      -0.151
      -0.150
      -0.136
      -0.124
      -0.122
      -0.119
      -0.090
      -0.020
       0.085
       0.203
       0.307
       0.381
       0.420
       0.431
       0.426
       0.410
       0.381
       0.336
       0.280
       0.226
       0.185
       0.153
       0.121
       0.080
       0.030
      -0.025
      -0.081
      -0.139
      -0.208
      -0.297
      -0.405
      -0.514
      -0.597
      -0.638
      -0.640
      -0.625
      -0.613
      -0.608
      -0.598
      -0.568
      -0.508
      -0.418
      -0.313
      -0.212
      -0.122
      -0.038
       0.054
       0.162
       0.279
       0.388
       0.472
       0.523
       0.546
       0.553
       0.550
       0.531
       0.488
       0.419
       0.338
       0.258
       0.193
       0.145
       0.113
       0.093
       0.078
       0.063
       0.048
       0.040
       0.044
       0.056
       0.072
       0.092
       0.120
       0.157
       0.198
       0.234
       0.258
       0.267
       0.262
       0.245
       0.220
       0.185
       0.138
       0.077
       0.005
      -0.066
      -0.122
      -0.156
      -0.173
      -0.182
      -0.194
      -0.213
      -0.234
      -0.250
      -0.255
      -0.246
      -0.226
      -0.202
      -0.177
      -0.152
      -0.125
      -0.101
      -0.084
      -0.074
      -0.070
      -0.072
      -0.081
      -0.095
      -0.111
      -0.128
      -0.148
      -0.166
      -0.180
      -0.190
      -0.205
      -0.239
      -0.293
      -0.350
      -0.386
      -0.387
      -0.352
      -0.298
      -0.241
      -0.181
      -0.105
      -0.003
       0.112
       0.207
       0.255
       0.252
       0.219
       0.183
       0.162
       0.153
       0.139
       0.107
       0.061
       0.020
       0.009
       0.033
       0.075
       0.114
       0.141
       0.163
       0.199
       0.266
       0.367
       0.487
       0.595
       0.665
       0.688
       0.673
       0.632
       0.575
       0.503
       0.414
       0.310
       0.198
       0.094
       0.012
      -0.052
      -0.119
      -0.207
      -0.316
      -0.428
      -0.527
      -0.606
      -0.667
      -0.713
      -0.736
      -0.731
      -0.694
      -0.633
      -0.566
      -0.510
      -0.471
      -0.439
      -0.397
      -0.335
      -0.248
      -0.142
      -0.023
       0.096
       0.204
       0.293
       0.355
       0.389
       0.396
       0.383
       0.352
       0.309
       0.261
       0.223
       0.203
       0.200
       0.199
       0.183
       0.144
       0.086
       0.020
      -0.046
      -0.109
      -0.170
      -0.230
      -0.283
      -0.321
      -0.339
      -0.336
      -0.316
      -0.283
      -0.243
      -0.203
      -0.163
      -0.122
      -0.077
      -0.030
       0.022
       0.078
       0.137
       0.194
       0.240
       0.271
       0.292
       0.310
       0.330
       0.353
       0.374
       0.384
       0.371
       0.339
       0.301
       0.275
       0.265
       0.259
       0.241
       0.200
       0.139
       0.076
       0.028
       0.001
      -0.018
      -0.046
      -0.082
      -0.107
      -0.100
      -0.057
       0.005
       0.065
       0.105
       0.118
       0.112
       0.101
       0.093
       0.080
       0.049
      -0.007
      -0.077
      -0.143
      -0.188
      -0.208
      -0.202
      -0.178
      -0.150
      -0.131
      -0.125
      -0.126
      -0.128
      -0.126
      -0.124
      -0.127
      -0.139
      -0.155
      -0.169
      -0.173
      -0.170
      -0.168
      -0.170
      -0.171
      -0.159
      -0.132
      -0.096
      -0.062
      -0.038
      -0.028
      -0.033
      -0.051
      -0.079
      -0.110
      -0.138
      -0.158
      -0.170
      -0.172
      -0.163
      -0.142
      -0.112
      -0.079
      -0.047
      -0.019
       0.006
       0.029
       0.055
       0.084
       0.116
       0.151
       0.189
       0.224
       0.249
       0.259
       0.256
       0.246
       0.232
       0.213
       0.185
       0.150
       0.111
       0.075
       0.052
       0.046
       0.056
       0.077
       0.102
       0.131
       0.167
       0.209
       0.248
       0.270
       0.264
       0.230
       0.178
       0.123
       0.074
       0.034
       0.003
      -0.022
      -0.039
      -0.050
      -0.056
      -0.060
      -0.061
      -0.058
      -0.052
      -0.045
      -0.046
      -0.058
      -0.077
      -0.093
      -0.097
      -0.091
      -0.084
      -0.087
      -0.102
      -0.127
      -0.156
      -0.183
      -0.206
      -0.225
      -0.237
      -0.239
      -0.226
      -0.205
      -0.187
      -0.178
      -0.171
      -0.153
      -0.119
      -0.073
      -0.029
       0.001
       0.013
       0.014
       0.018
       0.038
       0.072
       0.110
       0.146
       0.184
       0.225
       0.266
       0.298
       0.313
       0.309
       0.280
       0.224
       0.144
       0.051
      -0.044
      -0.130
      -0.198
      -0.239
      -0.255
      -0.258
      -0.261
      -0.271
      -0.287
      -0.304
      -0.314
      -0.307
      -0.285
      -0.256
      -0.229
      -0.202
      -0.159
      -0.094
      -0.012
       0.066
       0.122
       0.152
       0.160
       0.162
       0.169
       0.179
       0.183
       0.177
       0.168
       0.166
       0.171
       0.168
       0.141
       0.087
       0.018
      -0.046
      -0.093
      -0.120
      -0.137
      -0.152
      -0.159
      -0.143
      -0.094
      -0.018
       0.069
       0.149
       0.213
       0.259
       0.289
       0.303
       0.298
       0.279
       0.254
       0.225
       0.192
       0.155
       0.112
       0.068
       0.022
      -0.032
      -0.099
      -0.180
      -0.277
      -0.383
      -0.487
      -0.576
      -0.638
      -0.666
      -0.660
      -0.625
      -0.570
      -0.508
      -0.445
      -0.379
      -0.307
      -0.228
      -0.148
      -0.074
      -0.016
       0.021
       0.037
       0.041
       0.043
       0.047
       0.053
       0.060
       0.066
       0.073
       0.085
       0.105
       0.136
       0.174
       0.207
       0.216
       0.192
       0.140
       0.075
       0.009
      -0.056
      -0.127
      -0.201
      -0.269
      -0.312
      -0.316
      -0.287
      -0.242
      -0.203
      -0.176
      -0.147
      -0.101
      -0.036
       0.035
       0.097
       0.152
       0.214
       0.294
       0.389
       0.479
       0.536
       0.541
       0.503
       0.452
       0.420
       0.412
       0.405
       0.378
       0.328
       0.275
       0.239
       0.225
       0.214
       0.177
       0.099
      -0.013
      -0.125
      -0.210
      -0.260
      -0.291
      -0.318
      -0.344
      -0.355
      -0.339
      -0.295
      -0.241
      -0.199
      -0.181
      -0.176
      -0.159
      -0.111
      -0.040
       0.032
       0.079
       0.099
       0.105
       0.116
       0.143
       0.177
       0.198
       0.189
       0.150
       0.094
       0.033
      -0.030
      -0.101
      -0.180
      -0.260
      -0.332
      -0.392
      -0.440
      -0.473
      -0.485
      -0.469
      -0.426
      -0.363
      -0.292
      -0.222
      -0.157
      -0.094
      -0.033
       0.024
       0.076
       0.123
       0.168
       0.221
       0.283
       0.346
       0.396
       0.427
       0.441
       0.447
       0.452
       0.453
       0.442
       0.413
       0.370
       0.323
       0.282
       0.248
       0.209
       0.155
       0.089
       0.027
      -0.013
      -0.026
      -0.017
       0.003
       0.027
       0.054
       0.086
       0.124
       0.158
       0.172
       0.156
       0.116
       0.073
       0.049
       0.049
       0.060
       0.067
       0.061
       0.049
       0.041
       0.046
       0.061
       0.073
       0.070
       0.056
       0.049
