Origin Time       29/08/2013 10:13:21 UTC
Lat.              31.4 N	
Long.             76.1 E	
Depth (Km)         10.0
Magnitude         4.7
 Region           HIMACHAL-PUNJAB-(HOSHIARPUR)-BORDER                              
 Above details taken from IMD 
    
Station Code      ROO
Station Lat.       29.866  N
Station Long.      77.901  E
Station Height(m)  243.0
Site Class        C   Vs30 between 200 m/sec to 375 m/sec *  
Record Time       29.08.2013 10:13:35.449 UTC
Sampling Rate     200. Hz
 Record Duration  123.385 Sec.
 Direction         N-S (N positive)
Max. Acceleration     -0.991 cm/sec**2
     
  * For reference see Site Classification link of website 
     
 Base Line Corrected and Low Pass Filtered (Cut Off at 35 Hz) Time History
 Acceleration data in cm/sec**2
    
[...]
      -0.138
      -0.134
      -0.130
      -0.126
      -0.116
      -0.098
      -0.071
      -0.031
       0.020
       0.077
       0.130
       0.166
       0.181
       0.181
       0.181
       0.191
       0.210
       0.226
       0.223
       0.197
       0.156
       0.116
       0.085
       0.062
       0.042
       0.020
      -0.004
      -0.025
      -0.040
      -0.047
      -0.044
      -0.029
      -0.002
       0.031
       0.059
       0.076
       0.076
       0.062
       0.042
       0.026
       0.019
       0.019
       0.018
       0.008
      -0.011
      -0.032
      -0.045
      -0.047
      -0.040
      -0.030
      -0.019
      -0.010
       0.002
       0.017
       0.032
       0.041
       0.036
       0.015
      -0.021
      -0.066
      -0.114
      -0.162
      -0.208
      -0.249
      -0.283
      -0.309
      -0.327
      -0.337
      -0.340
      -0.336
      -0.323
      -0.302
      -0.273
      -0.241
      -0.206
      -0.167
      -0.118
      -0.057
       0.016
       0.093
       0.166
       0.230
       0.280
       0.317
       0.337
       0.339
       0.319
       0.275
       0.207
       0.120
       0.025
      -0.069
      -0.152
      -0.218
      -0.264
      -0.290
      -0.297
      -0.284
      -0.246
      -0.179
      -0.087
       0.026
       0.151
       0.281
       0.407
       0.514
       0.589
       0.629
       0.639
       0.633
       0.616
       0.590
       0.552
       0.500
       0.437
       0.369
       0.298
       0.223
       0.145
       0.065
      -0.022
      -0.115
      -0.211
      -0.296
      -0.359
      -0.401
      -0.428
      -0.452
      -0.479
      -0.510
      -0.541
      -0.566
      -0.580
      -0.580
      -0.567
      -0.543
      -0.513
      -0.484
      -0.459
      -0.438
      -0.415
      -0.380
      -0.321
      -0.231
      -0.113
       0.021
       0.156
       0.281
       0.393
       0.492
       0.576
       0.641
       0.684
       0.701
       0.694
       0.671
       0.638
       0.603
       0.572
       0.549
       0.532
       0.518
       0.501
       0.477
       0.448
       0.417
       0.383
       0.344
       0.297
       0.236
       0.158
       0.066
      -0.037
      -0.141
      -0.240
      -0.330
      -0.412
      -0.484
      -0.545
      -0.592
      -0.626
      -0.648
      -0.653
      -0.635
      -0.595
      -0.537
      -0.470
      -0.403
      -0.343
      -0.291
      -0.248
      -0.207
      -0.167
      -0.132
      -0.109
      -0.098
      -0.097
      -0.097
      -0.091
      -0.078
      -0.059
      -0.036
      -0.014
       0.001
       0.005
      -0.001
      -0.014
      -0.037
      -0.071
      -0.115
      -0.162
      -0.198
      -0.210
      -0.190
      -0.142
      -0.076
       0.001
       0.082
       0.165
       0.252
       0.342
       0.429
       0.505
       0.562
       0.600
       0.617
       0.611
       0.580
       0.523
       0.449
       0.368
       0.291
       0.221
       0.157
       0.095
       0.036
      -0.012
      -0.047
      -0.074
      -0.106
      -0.153
      -0.215
      -0.278
      -0.331
      -0.372
      -0.406
      -0.439
      -0.469
      -0.485
      -0.482
      -0.458
      -0.421
      -0.383
      -0.351
      -0.328
      -0.310
      -0.292
      -0.274
      -0.258
      -0.247
      -0.237
      -0.220
      -0.192
      -0.157
      -0.118
      -0.077
      -0.028
       0.034
       0.108
       0.185
       0.251
       0.295
       0.319
       0.327
       0.329
       0.325
       0.310
       0.280
       0.236
       0.188
       0.143
       0.102
       0.061
       0.018
      -0.022
      -0.053
      -0.076
      -0.096
      -0.120
      -0.147
      -0.170
      -0.183
      -0.182
      -0.169
      -0.144
      -0.106
      -0.056
       0.001
       0.055
       0.101
       0.137
       0.166
       0.193
       0.220
       0.243
       0.257
       0.258
       0.246
       0.221
       0.188
       0.149
       0.114
       0.088
       0.080
       0.087
       0.105
       0.126
       0.143
       0.155
       0.164
       0.170
       0.170
       0.155
       0.121
       0.076
       0.037
       0.015
       0.015
       0.028
       0.045
       0.060
       0.073
       0.087
       0.104
       0.122
       0.139
       0.154
       0.164
       0.167
       0.159
       0.140
       0.110
       0.076
       0.041
       0.009
      -0.019
      -0.048
      -0.083
      -0.125
      -0.169
      -0.207
      -0.236
      -0.259
      -0.281
      -0.304
      -0.324
      -0.331
      -0.324
      -0.304
      -0.280
      -0.261
      -0.249
      -0.243
      -0.243
      -0.249
      -0.261
      -0.275
      -0.286
      -0.288
      -0.278
      -0.254
      -0.213
      -0.158
      -0.090
      -0.014
       0.066
       0.142
       0.209
       0.259
       0.289
       0.302
       0.302
       0.298
       0.297
       0.300
       0.305
       0.306
       0.305
       0.309
       0.320
       0.339
       0.355
       0.360
       0.350
       0.326
       0.292
       0.249
       0.195
       0.128
       0.050
      -0.033
      -0.112
      -0.184
      -0.249
      -0.305
      -0.350
      -0.375
      -0.374
      -0.345
      -0.294
      -0.233
      -0.171
      -0.112
      -0.054
       0.007
       0.073
       0.142
       0.212
       0.276
       0.327
       0.356
       0.357
       0.325
       0.265
       0.180
       0.076
      -0.043
      -0.171
      -0.302
      -0.427
      -0.530
      -0.603
      -0.641
      -0.651
      -0.638
      -0.609
      -0.561
      -0.498
      -0.425
      -0.346
      -0.266
      -0.182
      -0.095
      -0.009
       0.068
       0.133
       0.184
       0.227
       0.266
       0.299
       0.315
       0.307
       0.277
       0.237
       0.202
       0.182
       0.178
       0.188
       0.208
       0.241
       0.288
       0.349
       0.418
       0.486
       0.537
       0.560
       0.550
       0.506
       0.435
       0.338
       0.218
       0.080
      -0.065
      -0.205
      -0.330
      -0.438
      -0.529
      -0.600
      -0.641
      -0.647
      -0.615
      -0.554
      -0.478
      -0.401
      -0.335
      -0.287
      -0.256
      -0.236
      -0.222
      -0.213
      -0.209
      -0.209
      -0.208
      -0.203
      -0.191
      -0.174
      -0.154
      -0.132
      -0.108
      -0.079
      -0.044
      -0.006
       0.031
       0.064
       0.091
       0.115
       0.138
       0.160
       0.183
       0.212
       0.254
       0.314
       0.387
       0.466
       0.542
       0.605
       0.653
       0.688
       0.713
       0.730
       0.737
       0.730
       0.708
       0.672
       0.625
       0.564
       0.485
       0.386
       0.271
       0.149
       0.022
      -0.105
      -0.234
      -0.362
      -0.486
      -0.598
      -0.692
      -0.761
      -0.805
      -0.822
      -0.813
      -0.777
      -0.715
      -0.635
      -0.547
      -0.456
      -0.368
      -0.281
      -0.197
      -0.119
      -0.053
      -0.002
       0.038
       0.073
       0.108
       0.145
       0.180
       0.203
       0.208
       0.195
       0.174
       0.151
       0.129
       0.101
       0.063
       0.018
      -0.024
      -0.055
      -0.071
      -0.073
      -0.063
      -0.044
      -0.019
       0.005
       0.016
       0.008
      -0.021
      -0.062
      -0.105
      -0.140
      -0.163
      -0.178
      -0.186
      -0.190
      -0.188
      -0.174
      -0.148
      -0.110
      -0.065
      -0.016
       0.032
       0.078
       0.120
       0.161
       0.199
       0.237
       0.271
       0.303
       0.335
       0.370
       0.407
       0.439
       0.459
       0.463
       0.445
       0.406
       0.347
       0.271
       0.182
       0.083
      -0.018
      -0.113
      -0.196
      -0.266
      -0.326
      -0.379
      -0.424
      -0.455
      -0.466
      -0.456
      -0.432
      -0.402
      -0.375
      -0.354
      -0.332
      -0.298
      -0.242
      -0.165
      -0.076
       0.014
       0.100
       0.181
       0.264
       0.348
       0.432
       0.511
       0.582
       0.640
       0.677
       0.683
       0.657
       0.603
       0.529
       0.438
       0.333
       0.213
       0.080
      -0.062
      -0.204
      -0.335
      -0.447
      -0.535
      -0.598
      -0.638
      -0.660
      -0.668
      -0.664
      -0.651
      -0.628
      -0.595
      -0.554
      -0.509
      -0.470
      -0.443
      -0.432
      -0.432
      -0.432
      -0.425
      -0.407
      -0.381
      -0.347
      -0.309
      -0.263
      -0.206
      -0.133
      -0.042
       0.062
       0.175
       0.289
       0.395
       0.486
       0.556
       0.602
       0.622
       0.616
       0.586
       0.537
       0.473
       0.400
       0.329
       0.270
       0.228
       0.203
       0.189
       0.178
       0.169
       0.156
       0.139
       0.116
       0.092
       0.071
       0.060
       0.057
       0.060
       0.063
       0.065
       0.069
       0.078
       0.093
       0.113
       0.132
       0.141
       0.139
       0.124
       0.104
       0.084
       0.066
       0.049
       0.029
       0.004
      -0.027
      -0.064
      -0.100
      -0.132
      -0.154
      -0.170
      -0.188
      -0.211
      -0.236
      -0.254
      -0.257
      -0.248
      -0.232
      -0.215
      -0.198
      -0.176
      -0.150
      -0.127
      -0.115
      -0.120
      -0.134
      -0.145
      -0.145
      -0.133
      -0.115
      -0.097
      -0.081
      -0.062
      -0.034
       0.004
       0.049
       0.095
       0.140
       0.181
       0.210
       0.221
       0.211
       0.186
       0.157
       0.131
       0.110
       0.088
       0.063
       0.038
       0.016
      -0.001
      -0.015
      -0.030
      -0.043
      -0.050
      -0.049
      -0.043
      -0.038
      -0.036
      -0.039
      -0.046
      -0.056
      -0.072
      -0.092
      -0.114
      -0.134
      -0.150
      -0.163
      -0.175
      -0.187
      -0.196
      -0.194
      -0.176
      -0.144
      -0.101
      -0.055
      -0.013
       0.021
       0.044
       0.057
       0.067
       0.077
       0.086
       0.090
       0.085
       0.072
       0.051
       0.020
      -0.020
      -0.066
      -0.106
      -0.136
      -0.156
      -0.173
      -0.193
      -0.214
      -0.224
      -0.211
      -0.171
      -0.110
      -0.040
       0.032
       0.109
       0.195
       0.295
       0.404
       0.517
       0.625
       0.723
       0.800
       0.845
       0.852
       0.822
       0.763
       0.684
       0.590
       0.483
       0.361
       0.224
       0.072
      -0.088
      -0.244
      -0.388
      -0.513
      -0.620
      -0.708
      -0.779
      -0.830
      -0.863
      -0.876
      -0.868
      -0.833
      -0.773
      -0.693
      -0.599
      -0.499
      -0.396
      -0.292
      -0.189
      -0.090
       0.003
       0.083
       0.147
       0.192
       0.216
       0.226
       0.229
       0.237
       0.254
       0.278
       0.300
       0.313
       0.315
       0.310
       0.305
       0.307
       0.311
       0.311
       0.304
       0.290
       0.273
       0.254
       0.228
       0.191
       0.142
       0.083
       0.022
      -0.033
      -0.078
      -0.117
      -0.156
      -0.199
      -0.245
      -0.292
      -0.335
      -0.370
      -0.395
      -0.407
      -0.410
      -0.405
      -0.397
      -0.387
      -0.375
      -0.359
      -0.339
      -0.314
      -0.281
      -0.234
      -0.169
      -0.086
       0.008
       0.108
       0.207
       0.299
       0.380
       0.448
       0.498
       0.524
       0.522
       0.498
       0.462
       0.420
       0.373
       0.317
       0.254
       0.194
       0.142
       0.100
       0.064
       0.032
       0.008
      -0.002
       0.005
       0.028
       0.058
       0.089
       0.113
       0.129
       0.142
       0.163
       0.194
       0.229
       0.255
       0.264
       0.256
       0.236
       0.203
       0.153
       0.082
      -0.007
      -0.107
      -0.210
      -0.303
      -0.380
      -0.436
      -0.469
      -0.482
      -0.479
      -0.463
      -0.439
      -0.406
      -0.361
      -0.304
      -0.237
      -0.167
      -0.101
      -0.040
       0.015
       0.062
       0.098
       0.124
       0.147
       0.173
       0.203
       0.233
       0.257
       0.272
       0.284
       0.302
       0.327
       0.354
       0.368
       0.361
       0.334
       0.297
       0.262
       0.233
       0.206
       0.177
       0.143
       0.107
       0.066
       0.018
      -0.040
      -0.106
      -0.174
      -0.239
      -0.298
      -0.351
      -0.397
      -0.437
      -0.471
      -0.497
      -0.514
      -0.520
      -0.515
      -0.500
      -0.471
      -0.422
      -0.344
      -0.237
      -0.107
       0.032
       0.168
       0.291
       0.397
       0.486
       0.558
       0.614
       0.654
       0.678
       0.683
       0.665
       0.618
       0.539
       0.433
       0.310
       0.179
       0.049
      -0.081
      -0.209
      -0.337
      -0.465
      -0.592
      -0.714
      -0.823
      -0.910
      -0.967
      -0.991
      -0.981
      -0.936
      -0.856
      -0.742
      -0.600
      -0.440
      -0.271
      -0.104
       0.050
       0.184
       0.292
       0.380
       0.451
       0.506
       0.540
       0.549
       0.534
       0.501
       0.464
       0.433
       0.414
       0.404
       0.395
       0.384
       0.367
       0.345
       0.318
       0.285
       0.244
       0.196
       0.145
       0.096
       0.049
       0.003
      -0.047
      -0.103
      -0.163
      -0.221
      -0.276
      -0.327
      -0.377
      -0.422
      -0.453
      -0.461
      -0.438
      -0.389
      -0.326
      -0.258
      -0.191
      -0.125
      -0.055
       0.021
       0.101
       0.175
       0.236
       0.282
       0.316
       0.340
       0.351
       0.345
       0.324
       0.294
       0.258
       0.218
       0.171
       0.118
       0.058
      -0.006
      -0.075
      -0.149
      -0.224
      -0.296
      -0.357
      -0.403
      -0.433
      -0.450
      -0.453
      -0.442
      -0.415
      -0.370
      -0.307
      -0.231
      -0.149
      -0.063
       0.028
       0.128
       0.233
       0.329
       0.404
       0.448
       0.460
       0.442
       0.397
       0.330
       0.246
       0.156
       0.072
       0.003
      -0.048
      -0.088
      -0.126
      -0.164
      -0.196
      -0.212
      -0.209
      -0.192
      -0.171
      -0.155
      -0.149
      -0.152
      -0.162
      -0.183
      -0.220
      -0.274
      -0.335
      -0.388
      -0.423
      -0.435
      -0.421
      -0.377
      -0.299
      -0.189
      -0.059
       0.076
       0.202
       0.316
       0.420
       0.509
       0.575
       0.612
       0.620
       0.609
       0.584
       0.547
       0.493
       0.425
       0.352
       0.279
       0.204
       0.123
       0.030
      -0.071
      -0.167
      -0.246
      -0.303
      -0.345
      -0.380
      -0.410
      -0.429
      -0.429
      -0.407
      -0.367
      -0.311
      -0.243
      -0.167
      -0.082
       0.010
       0.104
       0.192
       0.268
       0.327
       0.372
       0.405
       0.425
       0.429
       0.417
       0.387
       0.343
       0.284
       0.211
       0.129
       0.047
      -0.021
      -0.065
      -0.085
      -0.084
      -0.065
      -0.030
       0.020
       0.082
       0.151
       0.223
       0.292
       0.357
       0.416
       0.467
       0.508
       0.532
       0.534
       0.518
       0.486
       0.445
       0.392
       0.327
       0.249
       0.163
       0.073
      -0.016
      -0.108
      -0.206
      -0.310
      -0.413
      -0.503
      -0.571
      -0.619
      -0.651
      -0.674
      -0.688
      -0.690
      -0.678
      -0.654
      -0.624
      -0.594
      -0.563
      -0.528
      -0.486
      -0.438
      -0.387
      -0.337
      -0.289
      -0.242
      -0.197
      -0.155
      -0.115
      -0.077
      -0.037
       0.010
       0.069
       0.135
       0.199
       0.252
       0.294
       0.327
       0.354
       0.376
       0.393
       0.408
       0.419
       0.420
       0.406
       0.372
       0.316
       0.238
       0.141
       0.031
      -0.085
      -0.199
      -0.308
      -0.407
      -0.492
      -0.561
      -0.611
      -0.638
      -0.639
      -0.611
      -0.558
      -0.487
      -0.403
      -0.308
      -0.199
      -0.078
       0.047
       0.162
       0.258
       0.336
       0.406
       0.473
       0.534
       0.576
       0.592
       0.583
       0.560
       0.533
       0.504
       0.460
       0.386
       0.282
       0.163
       0.049
      -0.043
      -0.110
      -0.159
      -0.193
      -0.217
      -0.233
      -0.244
      -0.247
      -0.239
      -0.215
      -0.173
      -0.114
      -0.044
       0.028
       0.097
       0.159
       0.214
       0.267
       0.316
       0.359
       0.390
       0.407
       0.408
       0.397
       0.379
       0.357
       0.339
       0.325
       0.309
       0.280
       0.231
       0.162
       0.082
       0.002
      -0.072
      -0.136
      -0.185
      -0.217
      -0.230
      -0.222
      -0.195
      -0.156
      -0.108
      -0.056
       0.002
       0.067
       0.139
       0.215
       0.288
       0.353
       0.403
       0.438
       0.458
       0.467
       0.465
       0.451
       0.424
       0.387
       0.345
       0.300
       0.251
       0.189
       0.114
       0.029
      -0.056
      -0.137
      -0.209
      -0.269
      -0.313
      -0.341
      -0.361
      -0.377
      -0.388
      -0.392
      -0.385
      -0.370
      -0.352
      -0.329
      -0.302
      -0.267
      -0.230
      -0.195
      -0.168
      -0.153
      -0.152
      -0.166
      -0.198
      -0.246
      -0.308
      -0.378
      -0.447
      -0.507
      -0.554
      -0.587
      -0.605
      -0.608
      -0.597
      -0.577
      -0.549
      -0.514
      -0.475
      -0.437
      -0.410
      -0.394
      -0.382
      -0.367
      -0.343
      -0.313
      -0.288
      -0.270
      -0.257
      -0.238
      -0.209
      -0.169
      -0.124
      -0.079
      -0.039
      -0.002
       0.033
       0.064
       0.088
       0.104
       0.110
       0.112
       0.111
       0.108
       0.098
       0.084
       0.067
       0.055
       0.049
       0.050
       0.055
       0.061
       0.068
       0.077
       0.092
       0.114
       0.145
       0.183
       0.227
       0.270
       0.305
       0.323
       0.319
       0.300
       0.278
       0.263
       0.258
       0.256
       0.250
       0.240
       0.232
       0.228
       0.229
       0.234
       0.240
       0.247
       0.254
       0.259
       0.256
       0.243
       0.219
       0.191
