Origin Time       03/5/2010 17:15:08	
Lat.              30.4 N	
Long.             78.4 E	
Depth (Km)          8.0
Magnitude         3.5
 Region           Uttarakhand                                                      
 Above details taken from IMD 
     
Station Code      Roo
Station Lat.       29.866  N
Station Long.      77.901  E
Station Height(m)  243.0
Site Class        C   Vs30 between 200 m/sec to 375 m/sec *  
Record Time       03.05.2010 17:13:50.604
Sampling Rate     200. Hz
 Record Duration   76.440 Sec.
 Direction         E-W (E positive)
Max. Acceleration     -0.577 cm/sec**2
     
  * For reference see Site Classification link of website 
     
 Base Line Corrected and Low Pass Filtered (Cut Off at 35 Hz) Time History
 Acceleration data in cm/sec**2
    
[...]
      -0.083
      -0.015
       0.051
       0.111
       0.164
       0.209
       0.241
       0.260
       0.266
       0.260
       0.246
       0.224
       0.193
       0.154
       0.106
       0.055
       0.010
      -0.024
      -0.045
      -0.057
      -0.062
      -0.064
      -0.062
      -0.057
      -0.053
      -0.053
      -0.058
      -0.065
      -0.071
      -0.072
      -0.066
      -0.053
      -0.034
      -0.010
       0.009
       0.020
       0.017
       0.004
      -0.015
      -0.040
      -0.067
      -0.096
      -0.118
      -0.127
      -0.116
      -0.089
      -0.053
      -0.014
       0.023
       0.061
       0.098
       0.130
       0.154
       0.166
       0.165
       0.153
       0.134
       0.105
       0.063
       0.007
      -0.062
      -0.136
      -0.205
      -0.259
      -0.296
      -0.315
      -0.318
      -0.305
      -0.277
      -0.236
      -0.189
      -0.140
      -0.090
      -0.037
       0.021
       0.084
       0.147
       0.204
       0.249
       0.282
       0.307
       0.324
       0.333
       0.331
       0.317
       0.288
       0.248
       0.197
       0.137
       0.069
      -0.004
      -0.078
      -0.148
      -0.210
      -0.259
      -0.293
      -0.311
      -0.318
      -0.317
      -0.308
      -0.290
      -0.260
      -0.215
      -0.151
      -0.070
       0.022
       0.111
       0.189
       0.250
       0.293
       0.317
       0.324
       0.312
       0.283
       0.238
       0.183
       0.125
       0.070
       0.021
      -0.023
      -0.066
      -0.108
      -0.142
      -0.165
      -0.174
      -0.173
      -0.165
      -0.149
      -0.124
      -0.088
      -0.047
      -0.010
       0.022
       0.050
       0.077
       0.103
       0.123
       0.132
       0.131
       0.124
       0.113
       0.098
       0.072
       0.035
      -0.008
      -0.052
      -0.091
      -0.124
      -0.153
      -0.182
      -0.210
      -0.235
      -0.248
      -0.241
      -0.214
      -0.173
      -0.127
      -0.081
      -0.034
       0.015
       0.066
       0.112
       0.144
       0.160
       0.161
       0.152
       0.137
       0.119
       0.094
       0.058
       0.010
      -0.045
      -0.101
      -0.152
      -0.198
      -0.238
      -0.269
      -0.289
      -0.294
      -0.281
      -0.251
      -0.205
      -0.150
      -0.092
      -0.037
       0.014
       0.066
       0.121
       0.178
       0.229
       0.267
       0.288
       0.290
       0.279
       0.258
       0.229
       0.192
       0.152
       0.114
       0.083
       0.062
       0.053
       0.051
       0.052
       0.051
       0.046
       0.035
       0.020
       0.003
      -0.015
      -0.035
      -0.057
      -0.082
      -0.108
      -0.132
      -0.149
      -0.158
      -0.163
      -0.167
      -0.172
      -0.174
      -0.170
      -0.161
      -0.153
      -0.148
      -0.145
      -0.142
      -0.132
      -0.116
      -0.093
      -0.067
      -0.040
      -0.015
       0.009
       0.030
       0.046
       0.053
       0.052
       0.047
       0.043
       0.049
       0.065
       0.089
       0.120
       0.152
       0.183
       0.207
       0.220
       0.219
       0.208
       0.188
       0.166
       0.145
       0.129
       0.120
       0.119
       0.122
       0.126
       0.124
       0.112
       0.092
       0.063
       0.026
      -0.020
      -0.072
      -0.128
      -0.187
      -0.251
      -0.320
      -0.387
      -0.442
      -0.474
      -0.477
      -0.453
      -0.406
      -0.337
      -0.249
      -0.149
      -0.044
       0.057
       0.149
       0.231
       0.304
       0.369
       0.427
       0.479
       0.518
       0.540
       0.536
       0.505
       0.447
       0.367
       0.272
       0.169
       0.060
      -0.053
      -0.167
      -0.273
      -0.362
      -0.426
      -0.466
      -0.481
      -0.472
      -0.435
      -0.371
      -0.286
      -0.188
      -0.082
       0.029
       0.139
       0.239
       0.315
       0.357
       0.363
       0.341
       0.300
       0.247
       0.187
       0.122
       0.058
      -0.003
      -0.059
      -0.114
      -0.167
      -0.216
      -0.252
      -0.268
      -0.269
      -0.264
      -0.261
      -0.263
      -0.268
      -0.273
      -0.276
      -0.274
      -0.261
      -0.232
      -0.188
      -0.130
      -0.062
       0.012
       0.088
       0.160
       0.222
       0.273
       0.314
       0.344
       0.360
       0.361
       0.345
       0.315
       0.274
       0.224
       0.166
       0.102
       0.038
      -0.016
      -0.052
      -0.067
      -0.064
      -0.047
      -0.017
       0.025
       0.077
       0.137
       0.198
       0.255
       0.301
       0.330
       0.336
       0.314
       0.264
       0.193
       0.111
       0.029
      -0.051
      -0.130
      -0.215
      -0.302
      -0.386
      -0.454
      -0.501
      -0.523
      -0.524
      -0.509
      -0.480
      -0.440
      -0.392
      -0.336
      -0.273
      -0.201
      -0.123
      -0.041
       0.040
       0.116
       0.187
       0.254
       0.317
       0.373
       0.419
       0.452
       0.476
       0.493
       0.503
       0.502
       0.486
       0.452
       0.401
       0.334
       0.253
       0.160
       0.062
      -0.035
      -0.124
      -0.200
      -0.263
      -0.315
      -0.358
      -0.391
      -0.407
      -0.403
      -0.382
      -0.350
      -0.310
      -0.264
      -0.211
      -0.154
      -0.101
      -0.057
      -0.022
       0.007
       0.036
       0.069
       0.106
       0.144
       0.176
       0.201
       0.215
       0.221
       0.216
       0.199
       0.166
       0.119
       0.064
       0.005
      -0.052
      -0.105
      -0.148
      -0.175
      -0.179
      -0.158
      -0.117
      -0.063
      -0.003
       0.063
       0.130
       0.192
       0.238
       0.263
       0.265
       0.250
       0.221
       0.180
       0.130
       0.073
       0.016
      -0.038
      -0.089
      -0.134
      -0.172
      -0.200
      -0.218
      -0.224
      -0.221
      -0.208
      -0.185
      -0.150
      -0.101
      -0.039
       0.029
       0.093
       0.147
       0.184
       0.203
       0.206
       0.194
       0.169
       0.132
       0.091
       0.053
       0.020
      -0.010
      -0.047
      -0.093
      -0.147
      -0.198
      -0.237
      -0.261
      -0.273
      -0.275
      -0.270
      -0.253
      -0.219
      -0.170
      -0.111
      -0.051
       0.004
       0.052
       0.095
       0.129
       0.149
       0.154
       0.149
       0.138
       0.124
       0.105
       0.078
       0.043
       0.006
      -0.028
      -0.055
      -0.075
      -0.087
      -0.090
      -0.087
      -0.080
      -0.070
      -0.059
      -0.048
      -0.036
      -0.022
      -0.006
       0.011
       0.027
       0.041
       0.057
       0.079
       0.105
       0.131
       0.150
       0.166
       0.183
       0.208
       0.240
       0.275
       0.306
       0.324
       0.327
       0.311
       0.275
       0.218
       0.144
       0.057
      -0.034
      -0.122
      -0.200
      -0.262
      -0.307
      -0.335
      -0.348
      -0.349
      -0.340
      -0.322
      -0.298
      -0.272
      -0.247
      -0.229
      -0.218
      -0.213
      -0.205
      -0.194
      -0.180
      -0.164
      -0.142
      -0.109
      -0.058
       0.007
       0.078
       0.144
       0.200
       0.244
       0.276
       0.294
       0.293
       0.272
       0.234
       0.190
       0.148
       0.112
       0.078
       0.041
       0.003
      -0.029
      -0.050
      -0.056
      -0.053
      -0.047
      -0.044
      -0.047
      -0.058
      -0.073
      -0.092
      -0.112
      -0.131
      -0.143
      -0.143
      -0.127
      -0.097
      -0.058
      -0.015
       0.029
       0.074
       0.121
       0.170
       0.220
       0.265
       0.302
       0.325
       0.328
       0.311
       0.279
       0.238
       0.191
       0.141
       0.088
       0.034
      -0.015
      -0.054
      -0.085
      -0.114
      -0.147
      -0.184
      -0.220
      -0.251
      -0.275
      -0.295
      -0.318
      -0.343
      -0.367
      -0.387
      -0.404
      -0.420
      -0.431
      -0.432
      -0.414
      -0.376
      -0.319
      -0.245
      -0.156
      -0.057
       0.050
       0.160
       0.265
       0.358
       0.433
       0.488
       0.525
       0.547
       0.556
       0.550
       0.527
       0.486
       0.432
       0.373
       0.316
       0.262
       0.209
       0.155
       0.104
       0.061
       0.024
      -0.013
      -0.059
      -0.113
      -0.169
      -0.219
      -0.260
      -0.292
      -0.315
      -0.328
      -0.330
      -0.319
      -0.297
      -0.265
      -0.224
      -0.179
      -0.136
      -0.099
      -0.069
      -0.044
      -0.020
       0.007
       0.035
       0.061
       0.079
       0.090
       0.098
       0.107
       0.120
       0.131
       0.135
       0.129
       0.109
       0.077
       0.037
      -0.006
      -0.044
      -0.074
      -0.098
      -0.118
      -0.138
      -0.152
      -0.154
      -0.139
      -0.107
      -0.066
      -0.026
       0.012
       0.050
       0.096
       0.151
       0.212
       0.268
       0.310
       0.333
       0.339
       0.332
       0.314
       0.284
       0.239
       0.177
       0.105
       0.034
      -0.028
      -0.080
      -0.123
      -0.161
      -0.194
      -0.220
      -0.235
      -0.238
      -0.230
      -0.211
      -0.182
      -0.144
      -0.096
      -0.044
       0.006
       0.047
       0.073
       0.081
       0.070
       0.046
       0.014
      -0.020
      -0.057
      -0.093
      -0.123
      -0.145
      -0.160
      -0.171
      -0.182
      -0.191
      -0.197
      -0.197
      -0.193
      -0.185
      -0.172
      -0.149
      -0.109
      -0.055
       0.009
       0.075
       0.139
       0.201
       0.261
       0.320
       0.373
       0.416
       0.445
       0.454
       0.442
       0.405
       0.345
       0.266
       0.176
       0.079
      -0.019
      -0.113
      -0.195
      -0.259
      -0.304
      -0.334
      -0.355
      -0.372
      -0.384
      -0.389
      -0.384
      -0.367
      -0.339
      -0.302
      -0.258
      -0.205
      -0.144
      -0.075
      -0.003
       0.064
       0.121
       0.164
       0.192
       0.204
       0.204
       0.194
       0.179
       0.158
       0.133
       0.101
       0.065
       0.028
      -0.005
      -0.032
      -0.055
      -0.074
      -0.089
      -0.095
      -0.088
      -0.069
      -0.043
      -0.014
       0.017
       0.054
       0.099
       0.150
       0.202
       0.251
       0.294
       0.327
       0.345
       0.342
       0.316
       0.267
       0.202
       0.126
       0.043
      -0.044
      -0.135
      -0.224
      -0.302
      -0.361
      -0.397
      -0.412
      -0.409
      -0.391
      -0.358
      -0.310
      -0.248
      -0.179
      -0.108
      -0.044
       0.010
       0.054
       0.092
       0.126
       0.155
       0.173
       0.179
       0.173
       0.156
       0.132
       0.104
       0.076
       0.053
       0.037
       0.028
       0.023
       0.019
       0.014
       0.008
       0.004
       0.003
       0.007
       0.014
       0.020
       0.022
       0.023
       0.026
       0.031
       0.032
       0.020
      -0.005
      -0.038
      -0.071
      -0.092
      -0.099
      -0.091
      -0.077
      -0.062
      -0.049
      -0.036
      -0.022
      -0.010
       0.000
       0.003
       0.001
      -0.005
      -0.013
      -0.021
      -0.028
      -0.031
      -0.030
      -0.029
      -0.032
      -0.039
      -0.050
      -0.062
      -0.076
      -0.093
      -0.114
      -0.138
      -0.158
      -0.168
      -0.162
      -0.144
      -0.120
      -0.096
      -0.067
      -0.027
       0.027
       0.085
       0.137
       0.171
       0.188
       0.194
       0.197
       0.197
       0.189
       0.170
       0.143
       0.115
       0.093
       0.077
       0.063
       0.047
       0.024
      -0.002
      -0.028
      -0.046
      -0.056
      -0.059
      -0.056
      -0.047
      -0.031
      -0.007
       0.025
       0.063
       0.107
       0.153
       0.198
       0.233
       0.254
       0.258
       0.246
       0.217
       0.171
       0.111
       0.038
      -0.040
      -0.120
      -0.194
      -0.255
      -0.296
      -0.310
      -0.299
      -0.269
      -0.231
      -0.191
      -0.150
      -0.108
      -0.070
      -0.040
      -0.023
      -0.017
      -0.019
      -0.025
      -0.031
      -0.038
      -0.045
      -0.052
      -0.055
      -0.054
      -0.054
      -0.061
      -0.080
      -0.110
      -0.149
      -0.189
      -0.224
      -0.251
      -0.268
      -0.274
      -0.264
      -0.234
      -0.184
      -0.118
      -0.044
       0.030
       0.101
       0.169
       0.235
       0.302
       0.367
       0.426
       0.474
       0.507
       0.522
       0.523
       0.511
       0.487
       0.452
       0.409
       0.360
       0.306
       0.248
       0.182
       0.107
       0.024
      -0.065
      -0.157
      -0.250
      -0.342
      -0.427
      -0.499
      -0.551
      -0.577
      -0.576
      -0.551
      -0.506
      -0.444
      -0.370
      -0.287
      -0.202
      -0.117
      -0.034
       0.050
       0.133
       0.207
       0.262
       0.293
       0.301
       0.293
       0.270
       0.233
       0.182
       0.124
       0.063
       0.005
      -0.049
      -0.099
      -0.144
      -0.181
      -0.207
      -0.225
      -0.233
      -0.232
      -0.216
      -0.187
      -0.151
      -0.117
      -0.088
      -0.063
      -0.036
      -0.006
       0.026
       0.057
       0.086
       0.115
       0.145
       0.175
       0.202
       0.223
       0.236
       0.239
       0.234
       0.221
       0.204
       0.181
       0.151
       0.113
       0.075
       0.046
       0.027
       0.018
       0.009
      -0.001
      -0.011
      -0.015
      -0.008
       0.007
       0.025
       0.038
       0.043
       0.039
       0.028
       0.009
      -0.020
      -0.060
      -0.106
      -0.151
      -0.189
      -0.218
      -0.241
      -0.262
      -0.284
      -0.303
      -0.312
      -0.310
      -0.298
      -0.280
      -0.258
      -0.228
      -0.183
      -0.120
      -0.044
       0.040
       0.127
       0.215
       0.302
       0.385
       0.455
       0.506
       0.533
       0.535
       0.514
       0.473
       0.411
       0.328
       0.224
       0.107
      -0.011
      -0.117
      -0.206
      -0.276
      -0.325
      -0.354
      -0.360
      -0.346
      -0.318
      -0.282
      -0.244
      -0.204
      -0.166
      -0.130
      -0.099
      -0.073
      -0.048
      -0.023
       0.002
       0.023
       0.038
       0.050
       0.062
       0.072
       0.075
       0.065
       0.042
       0.010
      -0.026
      -0.063
      -0.100
      -0.134
      -0.157
      -0.162
      -0.145
      -0.111
      -0.065
      -0.013
       0.040
       0.091
       0.134
       0.161
       0.168
       0.153
       0.124
       0.085
       0.041
      -0.005
      -0.051
      -0.091
      -0.117
      -0.122
      -0.105
      -0.071
      -0.026
       0.023
       0.074
       0.127
       0.177
       0.220
       0.249
       0.261
       0.258
       0.242
       0.215
       0.175
       0.122
       0.057
      -0.015
      -0.088
      -0.158
      -0.223
      -0.282
      -0.334
      -0.378
      -0.408
      -0.421
      -0.417
      -0.398
      -0.365
      -0.315
      -0.248
      -0.163
      -0.067
       0.027
       0.109
       0.174
       0.223
       0.257
       0.277
       0.281
       0.272
       0.252
       0.226
       0.198
       0.169
       0.137
       0.100
       0.057
       0.010
      -0.037
      -0.077
      -0.106
      -0.121
      -0.126
      -0.120
      -0.104
      -0.076
      -0.030
       0.033
       0.106
       0.177
       0.236
       0.278
       0.299
       0.297
       0.272
       0.223
       0.162
       0.099
       0.046
       0.004
      -0.028
      -0.051
      -0.062
      -0.057
      -0.034
      -0.003
       0.026
       0.042
       0.045
       0.039
       0.031
       0.021
       0.005
      -0.018
      -0.043
      -0.065
      -0.080
      -0.089
      -0.098
      -0.107
      -0.112
      -0.111
      -0.104
      -0.099
      -0.100
      -0.109
      -0.121
      -0.128
      -0.128
      -0.128
      -0.133
      -0.144
      -0.152
      -0.148
      -0.128
      -0.098
      -0.063
      -0.027
       0.011
       0.051
       0.094
       0.136
       0.176
       0.211
       0.236
       0.248
       0.241
       0.218
       0.181
       0.136
       0.087
       0.035
      -0.017
      -0.067
      -0.109
      -0.140
      -0.154
      -0.152
      -0.139
      -0.123
      -0.112
      -0.108
      -0.109
      -0.113
      -0.120
      -0.132
      -0.154
      -0.186
      -0.223
      -0.255
      -0.273
      -0.269
      -0.245
      -0.204
      -0.153
      -0.095
      -0.032
       0.028
       0.078
       0.112
       0.127
       0.126
       0.113
       0.095
       0.078
       0.065
       0.056
       0.048
       0.039
       0.031
       0.028
       0.034
       0.048
       0.064
       0.080
       0.091
       0.100
       0.109
       0.118
       0.127
       0.137
       0.146
       0.154
       0.164
       0.177
       0.198
       0.224
       0.250
       0.268
       0.271
       0.255
       0.223
       0.181
       0.131
       0.075
       0.011
      -0.058
      -0.129
      -0.195
      -0.251
      -0.298
      -0.334
      -0.361
      -0.375
      -0.375
      -0.358
      -0.324
      -0.276
      -0.220
      -0.161
      -0.103
      -0.048
       0.001
       0.040
       0.065
       0.075
       0.071
       0.058
       0.038
       0.015
      -0.007
      -0.023
      -0.029
      -0.020
       0.009
       0.055
       0.112
       0.171
       0.222
       0.263
       0.295
       0.319
       0.333
       0.331
       0.311
       0.277
       0.236
       0.191
       0.140
       0.078
       0.003
      -0.081
      -0.165
      -0.241
      -0.300
      -0.338
      -0.355
      -0.354
      -0.338
      -0.313
      -0.281
      -0.241
      -0.194
      -0.144
      -0.094
      -0.050
      -0.014
       0.013
       0.030
       0.037
       0.037
       0.035
       0.032
       0.032
       0.033
       0.036
       0.043
       0.058
       0.084
       0.119
       0.161
       0.204
       0.242
       0.273
       0.294
       0.302
       0.294
       0.269
       0.228
       0.176
       0.114
       0.045
      -0.031
      -0.110
      -0.184
      -0.247
      -0.293
      -0.324
      -0.344
      -0.357
      -0.365
      -0.361
      -0.343
      -0.311
      -0.270
      -0.223
      -0.170
