Origin Time       05/3/2012 07:41:05	 UTC
Lat.              28.7 N	
Long.             76.6 E	
Depth (Km)         14.0
Magnitude         4.9
 Region           Haryana-Delhi-Border-Region                                      
 Above details taken from IMD 
    
Station Code      ROO
Station Lat.       29.866  N
Station Long.      77.901  E
Station Height(m)  243.0
Site Class        C   Vs30 between 200 m/sec to 375 m/sec *  
Record Time       05.03.2012 07:41:26.919 UTC
Sampling Rate     200. Hz
 Record Duration  118.305 Sec.
 Direction         N-S (N positive)
Max. Acceleration      1.816 cm/sec**2
     
  * For reference see Site Classification link of website 
     
 Base Line Corrected and Low Pass Filtered (Cut Off at 35 Hz) Time History
 Acceleration data in cm/sec**2
    
[...]
      -1.071
      -1.096
      -1.097
      -1.081
      -1.051
      -1.009
      -0.955
      -0.890
      -0.817
      -0.732
      -0.629
      -0.502
      -0.351
      -0.188
      -0.023
       0.132
       0.275
       0.400
       0.504
       0.581
       0.631
       0.659
       0.672
       0.678
       0.679
       0.673
       0.657
       0.632
       0.604
       0.578
       0.557
       0.539
       0.516
       0.486
       0.452
       0.416
       0.378
       0.334
       0.282
       0.225
       0.174
       0.135
       0.112
       0.096
       0.077
       0.050
       0.012
      -0.035
      -0.084
      -0.126
      -0.155
      -0.167
      -0.163
      -0.150
      -0.133
      -0.120
      -0.112
      -0.107
      -0.102
      -0.100
      -0.102
      -0.109
      -0.117
      -0.114
      -0.091
      -0.047
       0.008
       0.060
       0.102
       0.139
       0.178
       0.224
       0.273
       0.316
       0.344
       0.359
       0.365
       0.366
       0.356
       0.325
       0.267
       0.184
       0.084
      -0.026
      -0.143
      -0.269
      -0.401
      -0.534
      -0.656
      -0.756
      -0.826
      -0.863
      -0.873
      -0.861
      -0.835
      -0.799
      -0.754
      -0.694
      -0.614
      -0.510
      -0.387
      -0.251
      -0.112
       0.021
       0.149
       0.275
       0.402
       0.528
       0.645
       0.742
       0.810
       0.847
       0.854
       0.834
       0.791
       0.727
       0.644
       0.546
       0.439
       0.334
       0.238
       0.156
       0.090
       0.039
       0.002
      -0.019
      -0.026
      -0.025
      -0.021
      -0.019
      -0.018
      -0.016
      -0.011
      -0.002
       0.016
       0.044
       0.081
       0.120
       0.149
       0.160
       0.151
       0.122
       0.073
       0.004
      -0.078
      -0.166
      -0.250
      -0.327
      -0.397
      -0.464
      -0.528
      -0.588
      -0.644
      -0.693
      -0.733
      -0.761
      -0.770
      -0.761
      -0.739
      -0.709
      -0.675
      -0.631
      -0.568
      -0.477
      -0.352
      -0.196
      -0.017
       0.172
       0.359
       0.535
       0.693
       0.832
       0.956
       1.065
       1.156
       1.222
       1.260
       1.267
       1.245
       1.192
       1.108
       0.998
       0.870
       0.734
       0.599
       0.469
       0.348
       0.234
       0.128
       0.028
      -0.061
      -0.137
      -0.196
      -0.240
      -0.272
      -0.298
      -0.317
      -0.324
      -0.314
      -0.284
      -0.236
      -0.176
      -0.115
      -0.062
      -0.023
      -0.001
       0.007
       0.001
      -0.019
      -0.052
      -0.099
      -0.158
      -0.226
      -0.296
      -0.364
      -0.431
      -0.496
      -0.557
      -0.608
      -0.643
      -0.656
      -0.646
      -0.614
      -0.562
      -0.498
      -0.426
      -0.354
      -0.283
      -0.214
      -0.144
      -0.067
       0.025
       0.129
       0.238
       0.340
       0.428
       0.502
       0.569
       0.630
       0.680
       0.715
       0.736
       0.750
       0.762
       0.768
       0.757
       0.719
       0.652
       0.562
       0.459
       0.350
       0.238
       0.122
      -0.001
      -0.130
      -0.261
      -0.385
      -0.495
      -0.586
      -0.658
      -0.711
      -0.748
      -0.769
      -0.775
      -0.763
      -0.733
      -0.687
      -0.625
      -0.556
      -0.485
      -0.420
      -0.364
      -0.314
      -0.268
      -0.224
      -0.183
      -0.148
      -0.114
      -0.075
      -0.026
       0.034
       0.100
       0.166
       0.225
       0.272
       0.303
       0.316
       0.313
       0.301
       0.289
       0.277
       0.256
       0.217
       0.157
       0.083
       0.006
      -0.065
      -0.127
      -0.179
      -0.220
      -0.250
      -0.270
      -0.280
      -0.280
      -0.266
      -0.237
      -0.194
      -0.142
      -0.084
      -0.026
       0.031
       0.087
       0.143
       0.196
       0.242
       0.279
       0.302
       0.312
       0.308
       0.292
       0.266
       0.234
       0.195
       0.149
       0.096
       0.042
      -0.008
      -0.052
      -0.094
      -0.141
      -0.195
      -0.255
      -0.310
      -0.353
      -0.379
      -0.388
      -0.385
      -0.370
      -0.344
      -0.311
      -0.276
      -0.240
      -0.201
      -0.155
      -0.101
      -0.043
       0.013
       0.067
       0.122
       0.182
       0.247
       0.308
       0.352
       0.371
       0.365
       0.336
       0.290
       0.231
       0.162
       0.085
      -0.002
      -0.099
      -0.202
      -0.307
      -0.404
      -0.483
      -0.538
      -0.562
      -0.554
      -0.518
      -0.459
      -0.390
      -0.321
      -0.258
      -0.202
      -0.151
      -0.102
      -0.053
       0.001
       0.061
       0.129
       0.201
       0.273
       0.339
       0.396
       0.442
       0.481
       0.514
       0.541
       0.558
       0.564
       0.560
       0.552
       0.547
       0.546
       0.544
       0.535
       0.520
       0.504
       0.495
       0.490
       0.479
       0.452
       0.404
       0.339
       0.262
       0.175
       0.079
      -0.023
      -0.125
      -0.216
      -0.288
      -0.337
      -0.360
      -0.357
      -0.337
      -0.309
      -0.284
      -0.265
      -0.248
      -0.225
      -0.186
      -0.126
      -0.043
       0.058
       0.167
       0.272
       0.355
       0.404
       0.412
       0.382
       0.328
       0.264
       0.198
       0.131
       0.063
      -0.002
      -0.058
      -0.097
      -0.115
      -0.117
      -0.108
      -0.092
      -0.069
      -0.033
       0.022
       0.098
       0.188
       0.282
       0.370
       0.445
       0.500
       0.529
       0.528
       0.493
       0.426
       0.330
       0.210
       0.071
      -0.081
      -0.242
      -0.403
      -0.555
      -0.690
      -0.804
      -0.894
      -0.957
      -0.989
      -0.984
      -0.941
      -0.866
      -0.772
      -0.670
      -0.567
      -0.465
      -0.364
      -0.267
      -0.178
      -0.101
      -0.038
       0.015
       0.063
       0.112
       0.161
       0.210
       0.257
       0.306
       0.353
       0.390
       0.402
       0.386
       0.348
       0.305
       0.268
       0.241
       0.216
       0.186
       0.152
       0.125
       0.109
       0.106
       0.110
       0.113
       0.108
       0.092
       0.061
       0.017
      -0.038
      -0.096
      -0.144
      -0.176
      -0.192
      -0.196
      -0.193
      -0.185
      -0.171
      -0.157
      -0.147
      -0.148
      -0.156
      -0.166
      -0.169
      -0.158
      -0.129
      -0.082
      -0.020
       0.051
       0.122
       0.184
       0.233
       0.270
       0.298
       0.324
       0.351
       0.382
       0.417
       0.447
       0.465
       0.465
       0.447
       0.414
       0.373
       0.330
       0.289
       0.252
       0.220
       0.188
       0.154
       0.114
       0.072
       0.035
       0.009
      -0.005
      -0.011
      -0.014
      -0.016
      -0.019
      -0.031
      -0.056
      -0.099
      -0.155
      -0.220
      -0.289
      -0.363
      -0.441
      -0.517
      -0.584
      -0.636
      -0.671
      -0.690
      -0.692
      -0.678
      -0.643
      -0.589
      -0.522
      -0.450
      -0.377
      -0.305
      -0.232
      -0.155
      -0.072
       0.016
       0.108
       0.200
       0.292
       0.384
       0.475
       0.558
       0.627
       0.674
       0.699
       0.704
       0.693
       0.673
       0.646
       0.617
       0.584
       0.547
       0.502
       0.449
       0.391
       0.330
       0.269
       0.208
       0.145
       0.081
       0.020
      -0.028
      -0.057
      -0.062
      -0.047
      -0.021
       0.006
       0.020
       0.012
      -0.019
      -0.065
      -0.113
      -0.158
      -0.201
      -0.245
      -0.291
      -0.331
      -0.357
      -0.363
      -0.354
      -0.336
      -0.317
      -0.299
      -0.283
      -0.271
      -0.263
      -0.257
      -0.249
      -0.234
      -0.209
      -0.171
      -0.120
      -0.055
       0.022
       0.107
       0.195
       0.280
       0.361
       0.434
       0.498
       0.553
       0.596
       0.620
       0.619
       0.585
       0.519
       0.427
       0.319
       0.204
       0.084
      -0.045
      -0.190
      -0.346
      -0.503
      -0.649
      -0.778
      -0.887
      -0.972
      -1.028
      -1.052
      -1.043
      -1.008
      -0.953
      -0.886
      -0.812
      -0.732
      -0.642
      -0.537
      -0.412
      -0.270
      -0.116
       0.038
       0.183
       0.312
       0.428
       0.536
       0.644
       0.751
       0.855
       0.951
       1.033
       1.096
       1.133
       1.131
       1.078
       0.972
       0.822
       0.648
       0.465
       0.281
       0.096
      -0.089
      -0.265
      -0.424
      -0.557
      -0.664
      -0.744
      -0.794
      -0.808
      -0.787
      -0.738
      -0.668
      -0.586
      -0.490
      -0.381
      -0.257
      -0.121
       0.024
       0.178
       0.341
       0.506
       0.660
       0.786
       0.871
       0.909
       0.900
       0.849
       0.760
       0.634
       0.476
       0.289
       0.088
      -0.112
      -0.292
      -0.438
      -0.542
      -0.608
      -0.643
      -0.660
      -0.668
      -0.672
      -0.669
      -0.655
      -0.627
      -0.584
      -0.527
      -0.452
      -0.355
      -0.240
      -0.114
       0.013
       0.132
       0.245
       0.354
       0.459
       0.560
       0.654
       0.738
       0.808
       0.857
       0.875
       0.854
       0.801
       0.729
       0.653
       0.586
       0.530
       0.480
       0.432
       0.378
       0.313
       0.237
       0.151
       0.060
      -0.028
      -0.110
      -0.183
      -0.250
      -0.316
      -0.387
      -0.465
      -0.546
      -0.624
      -0.693
      -0.748
      -0.786
      -0.801
      -0.793
      -0.765
      -0.721
      -0.663
      -0.593
      -0.510
      -0.419
      -0.328
      -0.240
      -0.155
      -0.071
       0.019
       0.114
       0.209
       0.293
       0.357
       0.390
       0.388
       0.353
       0.292
       0.216
       0.136
       0.064
       0.005
      -0.037
      -0.063
      -0.069
      -0.056
      -0.025
       0.015
       0.057
       0.093
       0.123
       0.151
       0.182
       0.212
       0.238
       0.257
       0.269
       0.272
       0.262
       0.231
       0.176
       0.103
       0.024
      -0.051
      -0.113
      -0.162
      -0.205
      -0.251
      -0.307
      -0.377
      -0.459
      -0.549
      -0.639
      -0.722
      -0.794
      -0.848
      -0.882
      -0.889
      -0.865
      -0.810
      -0.727
      -0.619
      -0.491
      -0.345
      -0.183
      -0.011
       0.164
       0.338
       0.506
       0.663
       0.804
       0.925
       1.022
       1.089
       1.124
       1.127
       1.104
       1.063
       1.013
       0.958
       0.894
       0.816
       0.722
       0.616
       0.502
       0.384
       0.264
       0.144
       0.028
      -0.078
      -0.165
      -0.226
      -0.261
      -0.273
      -0.266
      -0.248
      -0.219
      -0.184
      -0.151
      -0.129
      -0.124
      -0.136
      -0.158
      -0.181
      -0.202
      -0.218
      -0.229
      -0.229
      -0.216
      -0.192
      -0.164
      -0.135
      -0.104
      -0.069
      -0.028
       0.012
       0.040
       0.050
       0.034
      -0.009
      -0.075
      -0.159
      -0.253
      -0.345
      -0.427
      -0.490
      -0.529
      -0.546
      -0.539
      -0.515
      -0.478
      -0.433
      -0.379
      -0.310
      -0.218
      -0.099
       0.040
       0.188
       0.328
       0.451
       0.553
       0.633
       0.692
       0.725
       0.731
       0.713
       0.678
       0.635
       0.589
       0.540
       0.479
       0.398
       0.293
       0.168
       0.039
      -0.075
      -0.162
      -0.218
      -0.245
      -0.251
      -0.243
      -0.226
      -0.208
      -0.195
      -0.189
      -0.191
      -0.191
      -0.184
      -0.166
      -0.146
      -0.137
      -0.154
      -0.203
      -0.280
      -0.377
      -0.477
      -0.569
      -0.646
      -0.704
      -0.741
      -0.754
      -0.747
      -0.725
      -0.701
      -0.679
      -0.661
      -0.637
      -0.596
      -0.531
      -0.439
      -0.324
      -0.191
      -0.046
       0.102
       0.246
       0.377
       0.497
       0.609
       0.721
       0.836
       0.953
       1.065
       1.160
       1.230
       1.269
       1.276
       1.250
       1.189
       1.096
       0.974
       0.828
       0.659
       0.464
       0.240
      -0.001
      -0.238
      -0.445
      -0.604
      -0.711
      -0.777
      -0.817
      -0.846
      -0.874
      -0.907
      -0.949
      -0.998
      -1.050
      -1.096
      -1.126
      -1.131
      -1.104
      -1.045
      -0.955
      -0.837
      -0.695
      -0.535
      -0.362
      -0.178
       0.019
       0.235
       0.473
       0.729
       0.990
       1.238
       1.457
       1.631
       1.749
       1.810
       1.816
       1.776
       1.702
       1.601
       1.478
       1.334
       1.167
       0.980
       0.778
       0.570
       0.362
       0.157
      -0.041
      -0.226
      -0.391
      -0.533
      -0.649
      -0.745
      -0.824
      -0.890
      -0.945
      -0.987
      -1.014
      -1.019
      -1.002
      -0.964
      -0.908
      -0.837
      -0.753
      -0.660
      -0.562
      -0.460
      -0.351
      -0.229
      -0.093
       0.050
       0.192
       0.325
       0.445
       0.553
       0.643
       0.710
       0.748
       0.758
       0.743
       0.707
       0.651
       0.579
       0.492
       0.398
       0.305
       0.220
       0.144
       0.069
      -0.017
      -0.119
      -0.233
      -0.346
      -0.446
      -0.527
      -0.593
      -0.650
      -0.702
      -0.751
      -0.793
      -0.826
      -0.844
      -0.841
      -0.811
      -0.755
      -0.673
      -0.573
      -0.459
      -0.341
      -0.228
      -0.127
      -0.042
       0.028
       0.084
       0.132
       0.176
       0.220
       0.262
       0.292
       0.297
       0.270
       0.217
       0.144
       0.062
      -0.023
      -0.102
      -0.163
      -0.196
      -0.198
      -0.175
      -0.136
      -0.080
       0.000
       0.109
       0.246
       0.399
       0.555
       0.704
       0.839
       0.956
       1.044
       1.092
       1.094
       1.053
       0.978
       0.878
       0.754
       0.604
       0.428
       0.234
       0.038
      -0.145
      -0.306
      -0.437
      -0.532
      -0.589
      -0.611
      -0.607
      -0.588
      -0.559
      -0.520
      -0.473
      -0.417
      -0.351
      -0.279
      -0.204
      -0.132
      -0.065
      -0.006
       0.050
       0.113
       0.189
       0.285
       0.394
       0.501
       0.586
       0.634
       0.643
       0.619
       0.569
       0.493
       0.388
       0.248
       0.076
      -0.116
      -0.310
      -0.488
      -0.636
      -0.745
      -0.812
      -0.837
      -0.817
      -0.749
      -0.633
      -0.472
      -0.282
      -0.080
       0.114
       0.287
       0.436
       0.561
       0.663
       0.741
       0.790
       0.809
       0.799
       0.766
       0.717
       0.660
       0.604
       0.557
       0.530
       0.522
       0.526
       0.533
       0.535
       0.530
       0.516
       0.491
       0.449
       0.384
       0.291
       0.170
       0.026
      -0.132
      -0.293
      -0.447
      -0.586
      -0.702
      -0.793
      -0.858
      -0.900
      -0.925
      -0.934
      -0.932
      -0.917
      -0.889
      -0.842
      -0.777
      -0.696
      -0.606
      -0.508
      -0.397
      -0.266
      -0.111
       0.060
       0.229
       0.377
       0.487
       0.551
       0.573
       0.563
       0.529
       0.474
       0.402
       0.314
       0.211
       0.094
      -0.034
      -0.170
      -0.307
      -0.434
      -0.541
      -0.619
      -0.664
      -0.672
      -0.643
      -0.577
      -0.478
      -0.358
      -0.230
      -0.106
       0.006
       0.105
       0.191
       0.267
       0.331
       0.375
       0.392
       0.379
       0.341
       0.289
       0.232
       0.173
       0.115
       0.061
       0.016
      -0.016
      -0.034
      -0.044
      -0.051
      -0.058
      -0.060
      -0.051
      -0.025
       0.017
       0.072
       0.132
       0.191
       0.241
       0.278
       0.298
       0.297
       0.271
       0.218
       0.136
       0.029
      -0.096
      -0.226
      -0.348
      -0.447
      -0.518
      -0.561
      -0.581
      -0.578
      -0.552
      -0.500
      -0.420
      -0.316
      -0.195
      -0.071
       0.043
       0.137
       0.206
       0.250
       0.274
       0.282
       0.280
       0.270
       0.260
       0.254
       0.255
       0.263
       0.275
       0.288
       0.304
       0.319
       0.328
       0.319
       0.284
       0.224
       0.148
       0.071
       0.002
      -0.052
      -0.088
      -0.108
      -0.117
      -0.119
      -0.113
      -0.096
      -0.067
      -0.029
       0.009
       0.038
       0.057
       0.072
       0.085
       0.094
       0.093
       0.077
       0.045
       0.003
      -0.043
      -0.090
      -0.134
      -0.174
      -0.208
      -0.227
      -0.223
      -0.195
      -0.147
      -0.092
      -0.044
      -0.009
       0.017
       0.039
       0.063
       0.084
       0.094
       0.087
       0.062
       0.031
       0.004
      -0.010
      -0.009
       0.007
       0.036
       0.074
       0.118
       0.163
       0.203
       0.240
       0.275
       0.314
       0.353
       0.386
       0.405
       0.406
       0.391
       0.365
       0.329
       0.282
       0.223
       0.152
       0.073
      -0.017
      -0.120
      -0.232
      -0.341
      -0.427
      -0.478
      -0.491
      -0.473
      -0.436
      -0.387
      -0.328
      -0.264
      -0.198
      -0.134
      -0.073
      -0.015
       0.038
       0.078
       0.100
       0.103
       0.091
       0.073
       0.054
       0.039
       0.028
       0.020
       0.012
      -0.003
      -0.029
      -0.070
      -0.124
      -0.183
      -0.238
      -0.283
      -0.314
      -0.330
      -0.333
      -0.329
      -0.323
      -0.319
      -0.322
      -0.332
      -0.347
      -0.363
      -0.374
      -0.376
      -0.367
      -0.346
      -0.316
      -0.278
      -0.233
      -0.178
      -0.109
      -0.027
       0.067
       0.164
       0.254
       0.330
       0.387
       0.430
       0.464
       0.492
       0.514
       0.525
       0.521
       0.505
       0.484
       0.463
       0.446
       0.429
       0.409
       0.381
       0.342
