Origin Time       14/03/2010 6:53:21	
Lat.              31.7 N	
Long.             76.1 E	
Depth (Km)         29.0
Magnitude         4.6
 Region           HIMACHAL-PUNJAB-(HOSHIARPUR)-BORDER                              
 Above details taken from IMD 
   
Station Code      Roo
Station Lat.       29.866
Station Long.      77.901
Station Height(m)  243.0
Site Class        C   Vs30 between 200 m/sec to 375 m/sec *  
Record Time       14.03.2010 06:53:55.814
Sampling Rate     200. Hz
 Record Duration   70.010 Sec.
 Direction         Vert. (Up positive)
Max. Acceleration      0.339 cm/sec**2
     
  * For reference see Site Classification link of website 
     
 Base Line Corrected and Low Pass Filtered (Cut Off at 35 Hz) Time History
 Acceleration data in cm/sec**2
    
[...]
       0.132
       0.134
       0.118
       0.086
       0.045
       0.008
      -0.019
      -0.035
      -0.047
      -0.058
      -0.068
      -0.073
      -0.069
      -0.057
      -0.036
      -0.009
       0.018
       0.038
       0.046
       0.040
       0.025
       0.007
      -0.011
      -0.023
      -0.028
      -0.025
      -0.018
      -0.011
      -0.006
      -0.001
       0.001
      -0.003
      -0.014
      -0.026
      -0.032
      -0.031
      -0.026
      -0.019
      -0.014
      -0.010
      -0.011
      -0.016
      -0.024
      -0.032
      -0.038
      -0.038
      -0.028
      -0.006
       0.027
       0.064
       0.094
       0.113
       0.121
       0.120
       0.110
       0.092
       0.073
       0.060
       0.054
       0.053
       0.054
       0.056
       0.057
       0.051
       0.034
       0.005
      -0.031
      -0.068
      -0.101
      -0.126
      -0.137
      -0.133
      -0.116
      -0.090
      -0.059
      -0.027
      -0.001
       0.014
       0.016
       0.009
      -0.003
      -0.014
      -0.019
      -0.016
      -0.007
       0.001
       0.007
       0.008
       0.006
       0.003
      -0.003
      -0.015
      -0.030
      -0.046
      -0.058
      -0.063
      -0.061
      -0.053
      -0.041
      -0.032
      -0.030
      -0.037
      -0.052
      -0.072
      -0.093
      -0.111
      -0.117
      -0.105
      -0.074
      -0.032
       0.010
       0.044
       0.069
       0.086
       0.097
       0.103
       0.104
       0.102
       0.097
       0.088
       0.076
       0.062
       0.048
       0.033
       0.017
       0.000
      -0.021
      -0.045
      -0.070
      -0.091
      -0.104
      -0.105
      -0.092
      -0.066
      -0.027
       0.017
       0.058
       0.090
       0.108
       0.114
       0.110
       0.100
       0.089
       0.080
       0.073
       0.064
       0.052
       0.039
       0.032
       0.034
       0.041
       0.044
       0.039
       0.028
       0.016
       0.006
       0.002
       0.004
       0.005
      -0.003
      -0.023
      -0.051
      -0.077
      -0.094
      -0.100
      -0.096
      -0.082
      -0.058
      -0.030
      -0.005
       0.010
       0.011
       0.000
      -0.022
      -0.050
      -0.079
      -0.101
      -0.115
      -0.123
      -0.128
      -0.127
      -0.117
      -0.094
      -0.059
      -0.019
       0.017
       0.039
       0.046
       0.041
       0.029
       0.018
       0.009
       0.002
      -0.001
       0.003
       0.014
       0.031
       0.047
       0.058
       0.063
       0.059
       0.051
       0.045
       0.050
       0.067
       0.089
       0.106
       0.109
       0.096
       0.072
       0.041
       0.013
      -0.007
      -0.019
      -0.028
      -0.038
      -0.048
      -0.047
      -0.032
      -0.009
       0.008
       0.010
      -0.003
      -0.022
      -0.041
      -0.057
      -0.072
      -0.084
      -0.092
      -0.086
      -0.063
      -0.026
       0.011
       0.040
       0.058
       0.067
       0.069
       0.061
       0.045
       0.027
       0.014
       0.005
      -0.004
      -0.017
      -0.030
      -0.036
      -0.034
      -0.026
      -0.019
      -0.010
       0.000
       0.009
       0.013
       0.015
       0.018
       0.029
       0.049
       0.072
       0.092
       0.104
       0.102
       0.087
       0.066
       0.048
       0.036
       0.029
       0.022
       0.010
      -0.008
      -0.030
      -0.053
      -0.073
      -0.089
      -0.103
      -0.119
      -0.137
      -0.151
      -0.158
      -0.157
      -0.153
      -0.148
      -0.137
      -0.118
      -0.097
      -0.079
      -0.062
      -0.041
      -0.013
       0.024
       0.066
       0.113
       0.160
       0.201
       0.227
       0.233
       0.222
       0.200
       0.172
       0.143
       0.111
       0.074
       0.030
      -0.020
      -0.063
      -0.089
      -0.097
      -0.093
      -0.086
      -0.077
      -0.060
      -0.032
       0.000
       0.025
       0.039
       0.045
       0.049
       0.051
       0.050
       0.045
       0.034
       0.017
      -0.003
      -0.020
      -0.029
      -0.033
      -0.039
      -0.051
      -0.066
      -0.080
      -0.091
      -0.102
      -0.114
      -0.124
      -0.127
      -0.124
      -0.117
      -0.111
      -0.108
      -0.108
      -0.111
      -0.114
      -0.113
      -0.105
      -0.089
      -0.065
      -0.033
       0.004
       0.041
       0.072
       0.093
       0.103
       0.099
       0.084
       0.058
       0.029
       0.004
      -0.014
      -0.026
      -0.031
      -0.026
      -0.011
       0.010
       0.030
       0.046
       0.057
       0.062
       0.057
       0.037
       0.009
      -0.017
      -0.028
      -0.021
      -0.002
       0.021
       0.041
       0.053
       0.057
       0.051
       0.038
       0.018
      -0.006
      -0.027
      -0.034
      -0.020
       0.010
       0.044
       0.069
       0.083
       0.087
       0.086
       0.078
       0.065
       0.045
       0.019
      -0.011
      -0.043
      -0.071
      -0.092
      -0.102
      -0.102
      -0.094
      -0.080
      -0.061
      -0.039
      -0.016
       0.005
       0.021
       0.032
       0.043
       0.059
       0.084
       0.110
       0.127
       0.125
       0.108
       0.087
       0.066
       0.048
       0.027
       0.005
      -0.016
      -0.033
      -0.044
      -0.049
      -0.050
      -0.049
      -0.048
      -0.048
      -0.046
      -0.037
      -0.019
       0.005
       0.029
       0.044
       0.049
       0.044
       0.033
       0.021
       0.015
       0.016
       0.021
       0.026
       0.031
       0.033
       0.034
       0.030
       0.023
       0.012
      -0.004
      -0.025
      -0.051
      -0.077
      -0.097
      -0.109
      -0.118
      -0.126
      -0.134
      -0.134
      -0.125
      -0.107
      -0.084
      -0.056
      -0.029
      -0.009
      -0.001
       0.001
       0.008
       0.022
       0.040
       0.055
       0.066
       0.075
       0.085
       0.094
       0.101
       0.104
       0.101
       0.090
       0.071
       0.043
       0.009
      -0.027
      -0.060
      -0.085
      -0.098
      -0.098
      -0.089
      -0.073
      -0.052
      -0.029
      -0.010
       0.000
      -0.004
      -0.018
      -0.038
      -0.062
      -0.088
      -0.113
      -0.128
      -0.124
      -0.099
      -0.059
      -0.015
       0.024
       0.052
       0.067
       0.071
       0.066
       0.054
       0.041
       0.030
       0.028
       0.038
       0.053
       0.066
       0.074
       0.081
       0.090
       0.101
       0.107
       0.108
       0.109
       0.112
       0.113
       0.106
       0.088
       0.060
       0.027
      -0.003
      -0.025
      -0.038
      -0.045
      -0.052
      -0.060
      -0.069
      -0.075
      -0.079
      -0.089
      -0.107
      -0.126
      -0.133
      -0.123
      -0.100
      -0.075
      -0.059
      -0.053
      -0.056
      -0.061
      -0.058
      -0.047
      -0.032
      -0.017
      -0.005
       0.004
       0.009
       0.007
       0.001
      -0.001
       0.008
       0.028
       0.051
       0.066
       0.067
       0.053
       0.021
      -0.026
      -0.078
      -0.122
      -0.148
      -0.156
      -0.150
      -0.131
      -0.100
      -0.061
      -0.024
       0.006
       0.027
       0.043
       0.055
       0.064
       0.073
       0.085
       0.102
       0.124
       0.147
       0.167
       0.178
       0.180
       0.174
       0.160
       0.139
       0.109
       0.074
       0.035
       0.000
      -0.025
      -0.038
      -0.045
      -0.053
      -0.066
      -0.082
      -0.102
      -0.121
      -0.135
      -0.140
      -0.134
      -0.116
      -0.087
      -0.050
      -0.013
       0.017
       0.035
       0.041
       0.040
       0.030
       0.007
      -0.031
      -0.072
      -0.102
      -0.112
      -0.105
      -0.088
      -0.063
      -0.031
       0.004
       0.035
       0.060
       0.081
       0.098
       0.109
       0.115
       0.120
       0.126
       0.129
       0.121
       0.100
       0.068
       0.034
       0.002
      -0.024
      -0.042
      -0.050
      -0.048
      -0.040
      -0.027
      -0.015
      -0.007
      -0.007
      -0.014
      -0.025
      -0.033
      -0.037
      -0.038
      -0.037
      -0.031
      -0.015
       0.010
       0.036
       0.056
       0.067
       0.069
       0.063
       0.050
       0.030
       0.001
      -0.035
      -0.079
      -0.122
      -0.155
      -0.171
      -0.171
      -0.159
      -0.139
      -0.112
      -0.080
      -0.047
      -0.019
       0.006
       0.034
       0.067
       0.099
       0.122
       0.136
       0.140
       0.135
       0.120
       0.098
       0.080
       0.075
       0.081
       0.086
       0.083
       0.068
       0.041
       0.001
      -0.051
      -0.107
      -0.158
      -0.202
      -0.235
      -0.253
      -0.249
      -0.218
      -0.165
      -0.097
      -0.022
       0.047
       0.099
       0.126
       0.129
       0.113
       0.087
       0.059
       0.033
       0.009
      -0.010
      -0.024
      -0.032
      -0.035
      -0.038
      -0.043
      -0.053
      -0.067
      -0.082
      -0.093
      -0.097
      -0.095
      -0.088
      -0.066
      -0.026
       0.028
       0.083
       0.128
       0.161
       0.182
       0.190
       0.181
       0.159
       0.130
       0.102
       0.083
       0.077
       0.079
       0.084
       0.082
       0.068
       0.045
       0.015
      -0.015
      -0.042
      -0.066
      -0.080
      -0.083
      -0.074
      -0.059
      -0.046
      -0.040
      -0.042
      -0.055
      -0.077
      -0.105
      -0.129
      -0.142
      -0.142
      -0.133
      -0.118
      -0.096
      -0.071
      -0.045
      -0.024
      -0.010
      -0.002
       0.003
       0.009
       0.019
       0.034
       0.055
       0.084
       0.122
       0.165
       0.206
       0.232
       0.233
       0.207
       0.162
       0.103
       0.040
      -0.022
      -0.074
      -0.109
      -0.125
      -0.126
      -0.123
      -0.127
      -0.141
      -0.160
      -0.178
      -0.188
      -0.189
      -0.179
      -0.157
      -0.125
      -0.086
      -0.046
      -0.008
       0.022
       0.042
       0.055
       0.064
       0.076
       0.091
       0.108
       0.121
       0.125
       0.119
       0.105
       0.087
       0.069
       0.051
       0.029
       0.003
      -0.025
      -0.048
      -0.062
      -0.066
      -0.059
      -0.046
      -0.029
      -0.009
       0.010
       0.026
       0.029
       0.016
      -0.015
      -0.052
      -0.087
      -0.112
      -0.128
      -0.139
      -0.147
      -0.149
      -0.141
      -0.120
      -0.086
      -0.043
       0.006
       0.055
       0.099
       0.137
       0.169
       0.191
       0.198
       0.191
       0.175
       0.161
       0.155
       0.151
       0.141
       0.119
       0.083
       0.040
      -0.005
      -0.047
      -0.080
      -0.102
      -0.113
      -0.117
      -0.118
      -0.121
      -0.127
      -0.135
      -0.142
      -0.144
      -0.140
      -0.129
      -0.113
      -0.094
      -0.068
      -0.039
      -0.008
       0.022
       0.050
       0.073
       0.086
       0.082
       0.058
       0.020
      -0.018
      -0.047
      -0.059
      -0.058
      -0.051
      -0.041
      -0.031
      -0.016
       0.003
       0.025
       0.049
       0.068
       0.080
       0.085
       0.087
       0.090
       0.092
       0.089
       0.077
       0.057
       0.032
       0.006
      -0.018
      -0.032
      -0.027
      -0.003
       0.030
       0.060
       0.080
       0.086
       0.082
       0.065
       0.035
      -0.005
      -0.047
      -0.086
      -0.114
      -0.129
      -0.132
      -0.125
      -0.113
      -0.102
      -0.092
      -0.083
      -0.075
      -0.074
      -0.080
      -0.091
      -0.102
      -0.110
      -0.112
      -0.104
      -0.082
      -0.046
      -0.002
       0.043
       0.081
       0.110
       0.129
       0.138
       0.141
       0.137
       0.123
       0.099
       0.066
       0.031
       0.002
      -0.017
      -0.027
      -0.029
      -0.024
      -0.012
       0.004
       0.015
       0.017
       0.011
       0.004
      -0.001
      -0.002
      -0.005
      -0.010
      -0.017
      -0.020
      -0.015
      -0.003
       0.008
       0.011
       0.008
       0.005
       0.006
       0.007
       0.003
      -0.014
      -0.042
      -0.077
      -0.114
      -0.147
      -0.173
      -0.186
      -0.187
      -0.180
      -0.168
      -0.153
      -0.133
      -0.109
      -0.077
      -0.034
       0.019
       0.077
       0.131
       0.177
       0.211
       0.233
       0.244
       0.244
       0.239
       0.236
       0.233
       0.220
       0.186
       0.130
       0.065
       0.004
      -0.052
      -0.104
      -0.155
      -0.203
      -0.243
      -0.274
      -0.297
      -0.315
      -0.327
      -0.331
      -0.325
      -0.310
      -0.283
      -0.247
      -0.204
      -0.157
      -0.101
      -0.035
       0.039
       0.115
       0.188
       0.253
       0.305
       0.335
       0.339
       0.321
       0.291
       0.257
       0.221
       0.181
       0.135
       0.089
       0.053
       0.027
       0.010
      -0.007
      -0.026
      -0.051
      -0.081
      -0.113
      -0.140
      -0.165
      -0.191
      -0.219
      -0.239
      -0.240
      -0.218
      -0.179
      -0.136
      -0.096
      -0.060
      -0.031
      -0.011
      -0.002
       0.000
       0.003
       0.013
       0.025
       0.037
       0.051
       0.072
       0.097
       0.117
       0.118
       0.098
       0.068
       0.042
       0.027
       0.021
       0.019
       0.014
       0.007
      -0.005
      -0.018
      -0.029
      -0.036
      -0.039
      -0.040
      -0.041
      -0.039
      -0.034
      -0.027
      -0.021
      -0.018
      -0.017
      -0.015
      -0.012
      -0.008
      -0.008
      -0.013
      -0.025
      -0.041
      -0.054
      -0.056
      -0.042
      -0.015
       0.017
       0.050
       0.082
       0.110
       0.126
       0.123
       0.099
       0.062
       0.020
      -0.020
      -0.053
      -0.078
      -0.097
      -0.111
      -0.122
      -0.132
      -0.138
      -0.136
      -0.128
      -0.121
      -0.120
      -0.125
      -0.132
      -0.137
      -0.142
      -0.140
      -0.122
      -0.082
      -0.025
       0.038
       0.096
       0.150
       0.199
       0.242
       0.279
       0.306
       0.319
       0.310
       0.277
       0.228
       0.179
       0.136
       0.093
       0.039
      -0.023
      -0.077
      -0.110
      -0.121
      -0.123
      -0.120
      -0.113
      -0.098
      -0.080
      -0.065
      -0.055
      -0.049
      -0.045
      -0.044
      -0.046
      -0.051
      -0.054
      -0.059
      -0.071
      -0.093
      -0.114
      -0.124
      -0.120
      -0.109
      -0.096
      -0.081
      -0.065
      -0.047
      -0.031
      -0.018
      -0.006
       0.008
       0.024
       0.042
       0.059
       0.070
       0.067
       0.050
       0.027
       0.013
       0.013
       0.021
       0.027
       0.024
       0.016
       0.010
       0.010
       0.012
       0.018
       0.026
       0.035
       0.045
       0.056
       0.067
       0.075
       0.076
       0.069
       0.057
       0.045
       0.035
       0.021
      -0.001
      -0.028
      -0.052
      -0.069
      -0.082
      -0.099
      -0.123
      -0.149
      -0.171
      -0.176
      -0.156
      -0.119
      -0.082
      -0.066
      -0.075
      -0.095
      -0.103
      -0.086
      -0.049
      -0.010
       0.022
       0.047
       0.070
       0.090
       0.103
       0.107
       0.106
       0.109
       0.121
       0.143
       0.167
       0.188
       0.199
       0.199
       0.190
       0.176
       0.159
       0.142
       0.124
       0.104
       0.078
       0.042
      -0.007
      -0.066
      -0.123
      -0.167
      -0.192
      -0.203
      -0.206
      -0.206
      -0.209
      -0.218
      -0.235
      -0.254
      -0.266
      -0.266
      -0.253
      -0.226
      -0.188
      -0.141
      -0.087
      -0.028
       0.034
       0.095
       0.150
       0.195
       0.224
       0.230
       0.212
       0.176
       0.132
       0.085
       0.038
      -0.005
      -0.040
      -0.064
      -0.076
      -0.079
      -0.076
      -0.066
      -0.046
      -0.016
       0.016
       0.046
       0.072
       0.096
       0.121
       0.143
       0.158
       0.160
       0.145
       0.114
       0.074
       0.033
      -0.005
      -0.041
      -0.075
      -0.102
      -0.119
      -0.124
      -0.121
      -0.115
      -0.106
      -0.093
      -0.073
      -0.047
      -0.023
      -0.005
       0.003
      -0.003
      -0.024
      -0.051
      -0.068
      -0.064
      -0.042
      -0.014
       0.009
       0.028
       0.047
       0.065
       0.077
       0.079
       0.073
       0.060
       0.047
       0.035
       0.030
       0.030
       0.030
       0.026
       0.023
       0.025
       0.033
       0.043
       0.049
       0.044
       0.031
       0.011
      -0.019
      -0.063
      -0.119
      -0.174
      -0.215
      -0.234
      -0.234
      -0.214
      -0.175
      -0.121
      -0.059
       0.002
       0.050
       0.082
       0.099
       0.111
       0.124
       0.138
       0.147
       0.148
       0.142
       0.131
       0.116
       0.098
       0.073
       0.040
       0.002
      -0.038
      -0.078
      -0.118
      -0.157
      -0.194
      -0.228
      -0.256
      -0.271
      -0.263
      -0.227
      -0.172
      -0.115
      -0.069
      -0.035
      -0.008
       0.022
       0.057
       0.093
       0.124
       0.144
       0.150
       0.145
       0.132
       0.114
       0.095
       0.081
       0.078
       0.087
       0.104
       0.118
       0.122
       0.115
       0.100
       0.077
       0.043
       0.001
      -0.039
      -0.069
      -0.083
      -0.087
      -0.084
      -0.077
      -0.069
      -0.063
      -0.059
      -0.057
      -0.057
      -0.062
      -0.072
      -0.087
      -0.103
      -0.115
      -0.121
      -0.119
      -0.108
      -0.089
      -0.062
      -0.033
      -0.005
       0.021
       0.049
       0.076
       0.094
       0.101
       0.099
       0.095
       0.092
       0.092
       0.094
       0.097
       0.100
       0.104
       0.112
       0.124
       0.137
       0.143
       0.132
       0.100
       0.051
      -0.008
      -0.070
      -0.131
      -0.184
      -0.227
      -0.260
      -0.284
      -0.298
      -0.299
      -0.288
      -0.271
      -0.251
      -0.230
      -0.202
      -0.165
      -0.121
      -0.076
      -0.033
       0.006
       0.041
       0.069
       0.089
       0.103
