Origin Time       03/5/2010 17:15:08	
Lat.              30.4 N	
Long.             78.4 E	
Depth (Km)          8.0
Magnitude         3.5
 Region           Uttarakhand                                                      
 Above details taken from IMD 
   
Station Code      Roo
Station Lat.       29.866
Station Long.      77.901
Station Height(m)  243.0
Site Class        C   Vs30 between 200 m/sec to 375 m/sec *  
Record Time       03.05.2010 17:13:50.604
Sampling Rate     200. Hz
 Record Duration   76.440 Sec.
 Direction         Vert. (Up positive)
Max. Acceleration      0.492 cm/sec**2
     
  * For reference see Site Classification link of website 
     
 Base Line Corrected and Low Pass Filtered (Cut Off at 35 Hz) Time History
 Acceleration data in cm/sec**2
    
[...]
      -0.012
       0.015
       0.039
       0.052
       0.048
       0.027
      -0.006
      -0.043
      -0.078
      -0.100
      -0.105
      -0.088
      -0.051
      -0.006
       0.036
       0.063
       0.073
       0.068
       0.053
       0.035
       0.020
       0.013
       0.018
       0.029
       0.039
       0.034
       0.010
      -0.025
      -0.060
      -0.088
      -0.106
      -0.111
      -0.101
      -0.077
      -0.045
      -0.013
       0.013
       0.028
       0.031
       0.022
       0.004
      -0.021
      -0.045
      -0.059
      -0.055
      -0.031
       0.004
       0.041
       0.068
       0.080
       0.074
       0.054
       0.025
      -0.004
      -0.025
      -0.036
      -0.038
      -0.033
      -0.019
       0.000
       0.026
       0.054
       0.082
       0.102
       0.109
       0.097
       0.066
       0.024
      -0.018
      -0.049
      -0.065
      -0.063
      -0.048
      -0.023
       0.008
       0.039
       0.071
       0.103
       0.133
       0.159
       0.174
       0.174
       0.155
       0.121
       0.079
       0.038
       0.000
      -0.031
      -0.054
      -0.073
      -0.089
      -0.102
      -0.111
      -0.114
      -0.107
      -0.087
      -0.058
      -0.026
       0.000
       0.014
       0.017
       0.017
       0.024
       0.044
       0.069
       0.089
       0.091
       0.076
       0.048
       0.016
      -0.014
      -0.038
      -0.053
      -0.060
      -0.059
      -0.059
      -0.064
      -0.077
      -0.093
      -0.106
      -0.114
      -0.117
      -0.115
      -0.109
      -0.099
      -0.085
      -0.067
      -0.046
      -0.026
      -0.005
       0.015
       0.032
       0.045
       0.054
       0.067
       0.085
       0.106
       0.117
       0.109
       0.084
       0.050
       0.018
      -0.008
      -0.026
      -0.035
      -0.038
      -0.037
      -0.036
      -0.036
      -0.038
      -0.041
      -0.040
      -0.031
      -0.012
       0.012
       0.037
       0.056
       0.070
       0.081
       0.094
       0.107
       0.113
       0.110
       0.098
       0.082
       0.066
       0.052
       0.040
       0.030
       0.019
       0.004
      -0.020
      -0.055
      -0.099
      -0.147
      -0.186
      -0.207
      -0.201
      -0.164
      -0.101
      -0.027
       0.037
       0.079
       0.096
       0.094
       0.075
       0.045
       0.010
      -0.023
      -0.041
      -0.037
      -0.012
       0.023
       0.056
       0.079
       0.090
       0.088
       0.073
       0.046
       0.010
      -0.026
      -0.049
      -0.050
      -0.031
      -0.004
       0.018
       0.027
       0.023
       0.011
      -0.005
      -0.020
      -0.034
      -0.042
      -0.041
      -0.026
       0.002
       0.041
       0.078
       0.104
       0.111
       0.103
       0.085
       0.061
       0.033
      -0.001
      -0.039
      -0.080
      -0.118
      -0.152
      -0.182
      -0.209
      -0.229
      -0.236
      -0.226
      -0.196
      -0.149
      -0.089
      -0.021
       0.054
       0.135
       0.218
       0.293
       0.347
       0.373
       0.371
       0.342
       0.292
       0.227
       0.153
       0.080
       0.019
      -0.028
      -0.062
      -0.088
      -0.109
      -0.126
      -0.140
      -0.148
      -0.147
      -0.135
      -0.107
      -0.064
      -0.010
       0.045
       0.091
       0.119
       0.127
       0.111
       0.075
       0.025
      -0.031
      -0.083
      -0.120
      -0.132
      -0.114
      -0.073
      -0.020
       0.031
       0.072
       0.097
       0.107
       0.100
       0.080
       0.051
       0.019
      -0.013
      -0.044
      -0.074
      -0.102
      -0.125
      -0.141
      -0.149
      -0.151
      -0.150
      -0.146
      -0.138
      -0.119
      -0.088
      -0.045
       0.007
       0.058
       0.102
       0.131
       0.146
       0.149
       0.142
       0.132
       0.121
       0.108
       0.089
       0.060
       0.020
      -0.027
      -0.075
      -0.113
      -0.132
      -0.126
      -0.103
      -0.073
      -0.048
      -0.036
      -0.039
      -0.053
      -0.074
      -0.098
      -0.120
      -0.137
      -0.142
      -0.134
      -0.110
      -0.073
      -0.028
       0.020
       0.065
       0.106
       0.141
       0.165
       0.179
       0.186
       0.185
       0.176
       0.159
       0.137
       0.114
       0.089
       0.061
       0.029
      -0.003
      -0.030
      -0.048
      -0.058
      -0.062
      -0.062
      -0.054
      -0.036
      -0.010
       0.012
       0.017
      -0.002
      -0.044
      -0.098
      -0.143
      -0.159
      -0.132
      -0.064
       0.032
       0.137
       0.230
       0.294
       0.315
       0.290
       0.231
       0.157
       0.090
       0.043
       0.014
      -0.003
      -0.015
      -0.025
      -0.035
      -0.044
      -0.056
      -0.074
      -0.099
      -0.129
      -0.156
      -0.178
      -0.193
      -0.201
      -0.201
      -0.193
      -0.177
      -0.155
      -0.127
      -0.089
      -0.041
       0.012
       0.060
       0.096
       0.117
       0.123
       0.113
       0.086
       0.044
      -0.003
      -0.040
      -0.056
      -0.048
      -0.024
       0.010
       0.051
       0.096
       0.140
       0.173
       0.187
       0.178
       0.148
       0.100
       0.041
      -0.026
      -0.095
      -0.159
      -0.210
      -0.238
      -0.243
      -0.228
      -0.195
      -0.145
      -0.080
      -0.004
       0.073
       0.134
       0.173
       0.190
       0.192
       0.186
       0.176
       0.159
       0.136
       0.107
       0.075
       0.041
       0.004
      -0.037
      -0.076
      -0.107
      -0.122
      -0.118
      -0.100
      -0.078
      -0.060
      -0.044
      -0.032
      -0.026
      -0.028
      -0.032
      -0.032
      -0.019
       0.009
       0.050
       0.093
       0.128
       0.147
       0.145
       0.123
       0.080
       0.023
      -0.038
      -0.085
      -0.108
      -0.102
      -0.071
      -0.030
       0.006
       0.023
       0.018
      -0.003
      -0.021
      -0.026
      -0.017
       0.000
       0.018
       0.041
       0.069
       0.099
       0.122
       0.128
       0.115
       0.087
       0.046
       0.000
      -0.044
      -0.075
      -0.086
      -0.080
      -0.069
      -0.064
      -0.071
      -0.083
      -0.094
      -0.100
      -0.098
      -0.086
      -0.063
      -0.023
       0.031
       0.093
       0.149
       0.188
       0.202
       0.192
       0.164
       0.127
       0.086
       0.042
       0.002
      -0.027
      -0.042
      -0.046
      -0.051
      -0.068
      -0.100
      -0.139
      -0.171
      -0.185
      -0.177
      -0.146
      -0.095
      -0.031
       0.031
       0.078
       0.101
       0.101
       0.083
       0.057
       0.028
      -0.004
      -0.044
      -0.089
      -0.131
      -0.161
      -0.170
      -0.154
      -0.116
      -0.057
       0.012
       0.081
       0.144
       0.194
       0.231
       0.248
       0.238
       0.196
       0.124
       0.031
      -0.064
      -0.143
      -0.188
      -0.190
      -0.148
      -0.068
       0.033
       0.137
       0.227
       0.288
       0.315
       0.304
       0.262
       0.198
       0.126
       0.053
      -0.012
      -0.063
      -0.099
      -0.116
      -0.118
      -0.110
      -0.098
      -0.086
      -0.078
      -0.081
      -0.099
      -0.132
      -0.171
      -0.208
      -0.235
      -0.248
      -0.243
      -0.217
      -0.167
      -0.092
       0.005
       0.109
       0.202
       0.262
       0.273
       0.235
       0.159
       0.062
      -0.040
      -0.136
      -0.221
      -0.294
      -0.347
      -0.375
      -0.375
      -0.344
      -0.283
      -0.189
      -0.069
       0.065
       0.191
       0.284
       0.326
       0.312
       0.252
       0.170
       0.089
       0.029
       0.000
       0.002
       0.028
       0.070
       0.123
       0.180
       0.230
       0.260
       0.257
       0.218
       0.149
       0.065
      -0.018
      -0.087
      -0.130
      -0.139
      -0.115
      -0.070
      -0.021
       0.016
       0.032
       0.030
       0.024
       0.023
       0.027
       0.032
       0.032
       0.027
       0.016
      -0.002
      -0.023
      -0.040
      -0.051
      -0.054
      -0.054
      -0.055
      -0.059
      -0.061
      -0.059
      -0.054
      -0.049
      -0.044
      -0.039
      -0.035
      -0.033
      -0.029
      -0.020
      -0.004
       0.023
       0.063
       0.112
       0.160
       0.198
       0.219
       0.217
       0.191
       0.137
       0.059
      -0.036
      -0.132
      -0.211
      -0.259
      -0.275
      -0.265
      -0.234
      -0.193
      -0.146
      -0.099
      -0.054
      -0.008
       0.045
       0.110
       0.182
       0.243
       0.273
       0.260
       0.207
       0.132
       0.052
      -0.018
      -0.071
      -0.103
      -0.110
      -0.097
      -0.075
      -0.053
      -0.036
      -0.026
      -0.024
      -0.030
      -0.045
      -0.070
      -0.098
      -0.123
      -0.143
      -0.154
      -0.153
      -0.133
      -0.087
      -0.017
       0.069
       0.157
       0.232
       0.285
       0.308
       0.303
       0.273
       0.224
       0.166
       0.105
       0.051
       0.007
      -0.027
      -0.057
      -0.095
      -0.146
      -0.211
      -0.275
      -0.322
      -0.341
      -0.329
      -0.287
      -0.218
      -0.128
      -0.024
       0.077
       0.164
       0.229
       0.272
       0.295
       0.299
       0.285
       0.258
       0.224
       0.184
       0.135
       0.069
      -0.013
      -0.102
      -0.182
      -0.236
      -0.258
      -0.249
      -0.215
      -0.165
      -0.109
      -0.057
      -0.020
      -0.002
       0.003
       0.002
       0.007
       0.021
       0.041
       0.055
       0.054
       0.035
      -0.002
      -0.052
      -0.109
      -0.161
      -0.200
      -0.217
      -0.211
      -0.187
      -0.153
      -0.118
      -0.082
      -0.042
       0.002
       0.051
       0.104
       0.163
       0.229
       0.301
       0.367
       0.411
       0.412
       0.363
       0.269
       0.147
       0.022
      -0.081
      -0.148
      -0.173
      -0.165
      -0.137
      -0.107
      -0.080
      -0.056
      -0.029
       0.001
       0.029
       0.052
       0.071
       0.084
       0.089
       0.081
       0.056
       0.020
      -0.016
      -0.039
      -0.043
      -0.027
       0.006
       0.054
       0.109
       0.158
       0.185
       0.174
       0.121
       0.032
      -0.074
      -0.179
      -0.265
      -0.319
      -0.335
      -0.315
      -0.271
      -0.214
      -0.155
      -0.100
      -0.050
      -0.002
       0.042
       0.079
       0.107
       0.123
       0.130
       0.124
       0.104
       0.066
       0.020
      -0.018
      -0.033
      -0.015
       0.027
       0.083
       0.142
       0.196
       0.237
       0.254
       0.237
       0.178
       0.085
      -0.026
      -0.133
      -0.221
      -0.282
      -0.315
      -0.323
      -0.316
      -0.299
      -0.277
      -0.249
      -0.212
      -0.160
      -0.094
      -0.019
       0.052
       0.108
       0.142
       0.156
       0.152
       0.136
       0.117
       0.109
       0.118
       0.142
       0.174
       0.203
       0.225
       0.237
       0.234
       0.211
       0.165
       0.097
       0.017
      -0.066
      -0.144
      -0.212
      -0.262
      -0.286
      -0.282
      -0.251
      -0.201
      -0.139
      -0.070
      -0.002
       0.058
       0.103
       0.126
       0.123
       0.092
       0.034
      -0.044
      -0.122
      -0.177
      -0.192
      -0.158
      -0.079
       0.031
       0.149
       0.253
       0.323
       0.343
       0.311
       0.232
       0.123
       0.004
      -0.108
      -0.197
      -0.255
      -0.279
      -0.265
      -0.216
      -0.145
      -0.072
      -0.018
       0.005
       0.004
      -0.008
      -0.015
      -0.007
       0.020
       0.061
       0.107
       0.143
       0.152
       0.126
       0.066
      -0.015
      -0.101
      -0.178
      -0.237
      -0.278
      -0.299
      -0.295
      -0.265
      -0.205
      -0.118
      -0.011
       0.100
       0.201
       0.280
       0.334
       0.359
       0.355
       0.322
       0.265
       0.183
       0.085
      -0.017
      -0.109
      -0.184
      -0.239
      -0.274
      -0.288
      -0.283
      -0.260
      -0.222
      -0.172
      -0.116
      -0.054
       0.010
       0.068
       0.112
       0.137
       0.141
       0.122
       0.083
       0.031
      -0.022
      -0.064
      -0.081
      -0.069
      -0.032
       0.024
       0.089
       0.157
       0.222
       0.277
       0.316
       0.335
       0.332
       0.308
       0.263
       0.198
       0.115
       0.020
      -0.080
      -0.180
      -0.270
      -0.340
      -0.378
      -0.379
      -0.343
      -0.278
      -0.204
      -0.144
      -0.108
      -0.094
      -0.097
      -0.107
      -0.118
      -0.125
      -0.124
      -0.110
      -0.076
      -0.018
       0.067
       0.171
       0.282
       0.383
       0.457
       0.492
       0.486
       0.443
       0.375
       0.296
       0.217
       0.141
       0.064
      -0.014
      -0.089
      -0.158
      -0.220
      -0.274
      -0.318
      -0.345
      -0.358
      -0.365
      -0.370
      -0.373
      -0.367
      -0.344
      -0.304
      -0.256
      -0.211
      -0.170
      -0.130
      -0.084
      -0.029
       0.033
       0.100
       0.165
       0.225
       0.267
       0.282
       0.266
       0.225
       0.176
       0.132
       0.106
       0.103
       0.122
       0.154
       0.189
       0.212
       0.212
       0.188
       0.148
       0.099
       0.041
      -0.027
      -0.102
      -0.173
      -0.229
      -0.261
      -0.266
      -0.249
      -0.216
      -0.173
      -0.129
      -0.096
      -0.081
      -0.084
      -0.094
      -0.096
      -0.081
      -0.050
      -0.012
       0.023
       0.048
       0.061
       0.059
       0.044
       0.021
      -0.003
      -0.019
      -0.023
      -0.012
       0.016
       0.065
       0.131
       0.202
       0.262
       0.294
       0.289
       0.249
       0.177
       0.084
      -0.012
      -0.089
      -0.121
      -0.102
      -0.044
       0.027
       0.083
       0.109
       0.099
       0.053
      -0.027
      -0.130
      -0.240
      -0.329
      -0.376
      -0.373
      -0.324
      -0.245
      -0.151
      -0.055
       0.029
       0.088
       0.114
       0.112
       0.098
       0.088
       0.088
       0.093
       0.099
       0.100
       0.093
       0.076
       0.046
      -0.001
      -0.060
      -0.122
      -0.176
      -0.211
      -0.222
      -0.206
      -0.163
      -0.105
      -0.042
       0.018
       0.072
       0.116
       0.150
       0.172
       0.179
       0.173
       0.157
       0.135
       0.109
       0.080
       0.053
       0.041
       0.050
       0.080
       0.116
       0.139
       0.135
       0.099
       0.037
      -0.042
      -0.126
      -0.206
      -0.268
      -0.302
      -0.300
      -0.262
      -0.193
      -0.108
      -0.024
       0.043
       0.085
       0.102
       0.102
       0.093
       0.087
       0.090
       0.107
       0.138
       0.176
       0.209
       0.223
       0.208
       0.157
       0.072
      -0.026
      -0.114
      -0.177
      -0.216
      -0.237
      -0.244
      -0.234
      -0.203
      -0.158
      -0.109
      -0.066
      -0.032
      -0.002
       0.027
       0.054
       0.075
       0.089
       0.096
       0.099
       0.097
       0.090
       0.078
       0.062
       0.045
       0.026
       0.003
      -0.023
      -0.046
      -0.057
      -0.050
      -0.027
       0.007
       0.045
       0.084
       0.118
       0.136
       0.122
       0.069
      -0.012
      -0.098
      -0.166
      -0.204
      -0.213
      -0.198
      -0.166
      -0.124
      -0.085
      -0.056
      -0.039
      -0.029
      -0.017
       0.002
       0.021
       0.028
       0.014
      -0.021
      -0.066
      -0.109
      -0.138
      -0.147
      -0.136
      -0.108
      -0.072
      -0.032
       0.013
       0.062
       0.112
       0.160
       0.200
       0.226
       0.233
       0.217
       0.182
       0.139
       0.097
       0.064
       0.037
       0.012
      -0.014
      -0.041
      -0.068
      -0.095
      -0.120
      -0.134
      -0.132
      -0.114
      -0.088
      -0.065
      -0.053
      -0.053
      -0.058
      -0.060
      -0.051
      -0.029
       0.003
       0.034
       0.051
       0.046
       0.022
      -0.011
      -0.037
      -0.046
      -0.032
       0.003
       0.052
       0.107
       0.158
       0.195
       0.207
       0.189
       0.147
       0.096
       0.049
       0.009
      -0.025
      -0.055
      -0.081
      -0.094
      -0.090
      -0.072
      -0.051
      -0.037
      -0.030
      -0.025
      -0.019
      -0.014
      -0.012
      -0.017
      -0.025
      -0.033
      -0.039
      -0.042
      -0.045
      -0.046
      -0.047
      -0.047
      -0.047
      -0.050
      -0.055
      -0.058
      -0.055
      -0.047
      -0.039
      -0.033
      -0.029
      -0.024
      -0.016
      -0.004
       0.013
       0.031
       0.043
       0.046
       0.041
       0.027
       0.002
      -0.030
      -0.058
      -0.074
      -0.071
      -0.045
       0.001
       0.064
       0.140
       0.218
       0.282
       0.311
       0.292
       0.225
       0.126
       0.018
      -0.074
      -0.127
      -0.132
      -0.095
      -0.033
       0.026
       0.058
       0.048
      -0.006
      -0.093
      -0.194
      -0.286
      -0.347
      -0.365
      -0.336
      -0.268
      -0.175
      -0.076
       0.015
       0.092
       0.152
       0.192
       0.211
       0.211
       0.199
       0.181
       0.165
       0.153
       0.145
       0.140
       0.133
       0.121
       0.102
       0.086
       0.080
       0.091
       0.115
       0.142
       0.154
       0.135
       0.074
      -0.023
      -0.140
      -0.254
      -0.340
      -0.380
      -0.368
      -0.315
      -0.236
      -0.147
      -0.063
       0.007
       0.055
       0.077
       0.073
       0.049
       0.017
      -0.009
      -0.017
      -0.003
       0.028
       0.066
       0.101
       0.125
       0.135
       0.131
       0.112
       0.079
       0.042
       0.007
      -0.023
      -0.055
      -0.095
      -0.148
      -0.206
      -0.260
      -0.300
      -0.316
      -0.306
      -0.269
      -0.212
      -0.143
      -0.068
       0.007
       0.083
       0.158
       0.230
       0.288
       0.321
       0.320
       0.288
       0.236
       0.179
       0.133
       0.108
       0.102
       0.106
       0.108
       0.100
