Origin Time       01/05/2009 22:36:25
Lat.              29.9 N 
Long.             80.1 E 
Depth (Km)         10.0
Magnitude         4.6
 Region           Bageshwar-Uttarakhand                                            
 Above details taken from IMD 
   
Station Code      Roo
Station Lat.       29.866
Station Long.      77.901
Station Height(m)  243.0
Site Class        C   Vs30 between 200 m/sec to 375 m/sec *  
Record Time       01.05.2010 22:35:17.934
Sampling Rate     200. Hz
 Record Duration  105.250 Sec.
 Direction         Vert. (Up positive)
Max. Acceleration     -0.920 cm/sec**2
     
  * For reference see Site Classification link of website 
     
 Base Line Corrected and Low Pass Filtered (Cut Off at 35 Hz) Time History
 Acceleration data in cm/sec**2
    
[...]
      -0.226
      -0.270
      -0.288
      -0.276
      -0.234
      -0.170
      -0.096
      -0.027
       0.029
       0.066
       0.086
       0.092
       0.091
       0.090
       0.092
       0.098
       0.108
       0.118
       0.120
       0.109
       0.082
       0.047
       0.013
      -0.013
      -0.026
      -0.030
      -0.030
      -0.037
      -0.055
      -0.084
      -0.118
      -0.150
      -0.170
      -0.175
      -0.161
      -0.124
      -0.065
       0.013
       0.096
       0.168
       0.213
       0.221
       0.189
       0.122
       0.030
      -0.072
      -0.167
      -0.235
      -0.266
      -0.255
      -0.209
      -0.135
      -0.042
       0.060
       0.157
       0.233
       0.281
       0.299
       0.298
       0.290
       0.288
       0.295
       0.309
       0.323
       0.328
       0.320
       0.292
       0.243
       0.177
       0.099
       0.018
      -0.063
      -0.139
      -0.205
      -0.257
      -0.290
      -0.301
      -0.287
      -0.250
      -0.193
      -0.128
      -0.065
      -0.019
       0.002
      -0.003
      -0.030
      -0.072
      -0.117
      -0.153
      -0.167
      -0.153
      -0.109
      -0.042
       0.036
       0.109
       0.164
       0.193
       0.199
       0.183
       0.146
       0.094
       0.036
      -0.011
      -0.037
      -0.039
      -0.021
       0.006
       0.038
       0.071
       0.105
       0.136
       0.159
       0.169
       0.165
       0.149
       0.120
       0.075
       0.015
      -0.056
      -0.128
      -0.189
      -0.227
      -0.235
      -0.211
      -0.158
      -0.086
      -0.011
       0.046
       0.072
       0.060
       0.011
      -0.065
      -0.155
      -0.242
      -0.310
      -0.343
      -0.336
      -0.291
      -0.222
      -0.141
      -0.063
       0.003
       0.053
       0.084
       0.097
       0.091
       0.068
       0.036
       0.008
      -0.005
      -0.001
       0.014
       0.033
       0.051
       0.065
       0.075
       0.080
       0.081
       0.079
       0.078
       0.082
       0.093
       0.111
       0.137
       0.170
       0.204
       0.229
       0.235
       0.216
       0.173
       0.111
       0.040
      -0.032
      -0.099
      -0.153
      -0.191
      -0.211
      -0.215
      -0.211
      -0.208
      -0.213
      -0.226
      -0.244
      -0.261
      -0.270
      -0.264
      -0.240
      -0.196
      -0.133
      -0.057
       0.024
       0.099
       0.155
       0.185
       0.186
       0.167
       0.144
       0.133
       0.145
       0.181
       0.238
       0.304
       0.368
       0.414
       0.427
       0.394
       0.310
       0.183
       0.034
      -0.111
      -0.223
      -0.290
      -0.305
      -0.272
      -0.203
      -0.117
      -0.038
       0.016
       0.038
       0.032
       0.008
      -0.023
      -0.049
      -0.064
      -0.066
      -0.055
      -0.035
      -0.009
       0.014
       0.028
       0.024
       0.001
      -0.036
      -0.072
      -0.093
      -0.090
      -0.059
      -0.009
       0.050
       0.106
       0.148
       0.169
       0.162
       0.123
       0.050
      -0.049
      -0.158
      -0.259
      -0.334
      -0.371
      -0.363
      -0.311
      -0.225
      -0.124
      -0.031
       0.040
       0.081
       0.095
       0.085
       0.058
       0.026
       0.003
       0.004
       0.035
       0.089
       0.155
       0.219
       0.270
       0.305
       0.319
       0.310
       0.278
       0.223
       0.153
       0.081
       0.016
      -0.035
      -0.072
      -0.096
      -0.108
      -0.104
      -0.080
      -0.037
       0.020
       0.084
       0.149
       0.208
       0.251
       0.268
       0.251
       0.197
       0.112
       0.012
      -0.085
      -0.165
      -0.215
      -0.230
      -0.211
      -0.164
      -0.105
      -0.049
      -0.009
       0.008
      -0.004
      -0.044
      -0.106
      -0.180
      -0.250
      -0.303
      -0.330
      -0.330
      -0.307
      -0.267
      -0.215
      -0.157
      -0.099
      -0.044
       0.009
       0.065
       0.125
       0.189
       0.246
       0.285
       0.295
       0.278
       0.240
       0.196
       0.151
       0.111
       0.084
       0.077
       0.095
       0.133
       0.173
       0.198
       0.193
       0.159
       0.102
       0.032
      -0.043
      -0.115
      -0.172
      -0.203
      -0.202
      -0.174
      -0.128
      -0.077
      -0.031
       0.013
       0.059
       0.106
       0.147
       0.176
       0.189
       0.191
       0.183
       0.159
       0.114
       0.046
      -0.033
      -0.109
      -0.167
      -0.204
      -0.219
      -0.209
      -0.171
      -0.106
      -0.024
       0.065
       0.148
       0.222
       0.285
       0.334
       0.363
       0.364
       0.335
       0.276
       0.197
       0.107
       0.015
      -0.076
      -0.161
      -0.238
      -0.311
      -0.382
      -0.455
      -0.527
      -0.591
      -0.639
      -0.660
      -0.646
      -0.590
      -0.491
      -0.349
      -0.180
      -0.007
       0.142
       0.246
       0.298
       0.302
       0.273
       0.224
       0.170
       0.126
       0.104
       0.109
       0.131
       0.150
       0.149
       0.121
       0.072
       0.015
      -0.037
      -0.075
      -0.094
      -0.093
      -0.075
      -0.046
      -0.011
       0.031
       0.082
       0.146
       0.221
       0.298
       0.367
       0.423
       0.463
       0.489
       0.500
       0.493
       0.467
       0.424
       0.369
       0.310
       0.251
       0.196
       0.147
       0.102
       0.060
       0.017
      -0.034
      -0.102
      -0.191
      -0.297
      -0.403
      -0.487
      -0.532
      -0.531
      -0.492
      -0.430
      -0.358
      -0.287
      -0.226
      -0.178
      -0.142
      -0.118
      -0.103
      -0.094
      -0.084
      -0.072
      -0.066
      -0.077
      -0.111
      -0.164
      -0.224
      -0.276
      -0.309
      -0.318
      -0.298
      -0.248
      -0.171
      -0.074
       0.028
       0.125
       0.204
       0.260
       0.290
       0.295
       0.278
       0.245
       0.204
       0.162
       0.128
       0.107
       0.103
       0.115
       0.140
       0.176
       0.219
       0.263
       0.306
       0.343
       0.368
       0.372
       0.343
       0.278
       0.182
       0.066
      -0.056
      -0.173
      -0.276
      -0.355
      -0.398
      -0.401
      -0.365
      -0.299
      -0.215
      -0.127
      -0.045
       0.023
       0.069
       0.092
       0.097
       0.093
       0.092
       0.102
       0.121
       0.144
       0.161
       0.161
       0.137
       0.092
       0.035
      -0.023
      -0.071
      -0.101
      -0.111
      -0.108
      -0.104
      -0.114
      -0.141
      -0.180
      -0.220
      -0.247
      -0.251
      -0.233
      -0.197
      -0.148
      -0.088
      -0.022
       0.049
       0.118
       0.179
       0.228
       0.259
       0.262
       0.231
       0.165
       0.075
      -0.019
      -0.096
      -0.139
      -0.146
      -0.122
      -0.078
      -0.028
       0.019
       0.060
       0.097
       0.137
       0.182
       0.229
       0.276
       0.314
       0.330
       0.310
       0.247
       0.144
       0.012
      -0.132
      -0.271
      -0.387
      -0.466
      -0.496
      -0.469
      -0.385
      -0.255
      -0.099
       0.055
       0.185
       0.275
       0.323
       0.334
       0.316
       0.276
       0.220
       0.151
       0.072
      -0.012
      -0.094
      -0.163
      -0.207
      -0.215
      -0.180
      -0.103
       0.006
       0.131
       0.253
       0.351
       0.408
       0.415
       0.372
       0.290
       0.183
       0.071
      -0.030
      -0.109
      -0.158
      -0.170
      -0.146
      -0.097
      -0.039
       0.008
       0.032
       0.033
       0.012
      -0.029
      -0.088
      -0.157
      -0.223
      -0.271
      -0.298
      -0.306
      -0.306
      -0.306
      -0.304
      -0.295
      -0.273
      -0.239
      -0.194
      -0.140
      -0.077
      -0.010
       0.053
       0.106
       0.143
       0.159
       0.153
       0.127
       0.079
       0.017
      -0.051
      -0.109
      -0.149
      -0.166
      -0.161
      -0.133
      -0.087
      -0.028
       0.036
       0.092
       0.128
       0.139
       0.131
       0.114
       0.100
       0.095
       0.106
       0.138
       0.187
       0.248
       0.309
       0.356
       0.381
       0.377
       0.344
       0.284
       0.204
       0.111
       0.019
      -0.061
      -0.123
      -0.164
      -0.187
      -0.192
      -0.173
      -0.128
      -0.063
       0.008
       0.065
       0.092
       0.083
       0.041
      -0.023
      -0.097
      -0.167
      -0.222
      -0.254
      -0.256
      -0.232
      -0.184
      -0.124
      -0.064
      -0.012
       0.024
       0.042
       0.046
       0.042
       0.036
       0.029
       0.013
      -0.019
      -0.064
      -0.114
      -0.154
      -0.176
      -0.178
      -0.160
      -0.124
      -0.070
      -0.006
       0.056
       0.104
       0.126
       0.121
       0.091
       0.047
      -0.001
      -0.042
      -0.072
      -0.092
      -0.108
      -0.125
      -0.143
      -0.159
      -0.163
      -0.146
      -0.104
      -0.038
       0.044
       0.135
       0.218
       0.279
       0.302
       0.284
       0.235
       0.178
       0.140
       0.138
       0.172
       0.225
       0.280
       0.324
       0.350
       0.350
       0.315
       0.243
       0.140
       0.018
      -0.109
      -0.227
      -0.328
      -0.408
      -0.464
      -0.491
      -0.484
      -0.444
      -0.381
      -0.305
      -0.228
      -0.160
      -0.106
      -0.067
      -0.042
      -0.029
      -0.020
      -0.003
       0.033
       0.090
       0.161
       0.231
       0.286
       0.317
       0.326
       0.320
       0.306
       0.284
       0.251
       0.205
       0.147
       0.082
       0.021
      -0.031
      -0.066
      -0.083
      -0.082
      -0.065
      -0.029
       0.024
       0.088
       0.147
       0.186
       0.192
       0.158
       0.086
      -0.016
      -0.140
      -0.270
      -0.390
      -0.479
      -0.523
      -0.518
      -0.475
      -0.411
      -0.341
      -0.275
      -0.216
      -0.160
      -0.102
      -0.038
       0.031
       0.100
       0.164
       0.220
       0.266
       0.300
       0.324
       0.340
       0.355
       0.371
       0.385
       0.390
       0.379
       0.350
       0.308
       0.266
       0.238
       0.231
       0.236
       0.238
       0.224
       0.188
       0.136
       0.075
       0.011
      -0.051
      -0.109
      -0.158
      -0.194
      -0.215
      -0.232
      -0.255
      -0.293
      -0.351
      -0.430
      -0.520
      -0.604
      -0.659
      -0.665
      -0.609
      -0.492
      -0.333
      -0.159
       0.003
       0.132
       0.221
       0.270
       0.286
       0.283
       0.270
       0.258
       0.253
       0.264
       0.290
       0.326
       0.361
       0.390
       0.411
       0.421
       0.412
       0.383
       0.333
       0.272
       0.210
       0.155
       0.109
       0.068
       0.023
      -0.028
      -0.082
      -0.137
      -0.193
      -0.249
      -0.301
      -0.344
      -0.378
      -0.406
      -0.430
      -0.450
      -0.466
      -0.471
      -0.460
      -0.423
      -0.354
      -0.252
      -0.121
       0.023
       0.161
       0.275
       0.354
       0.393
       0.390
       0.353
       0.291
       0.221
       0.161
       0.121
       0.105
       0.108
       0.121
       0.135
       0.139
       0.125
       0.092
       0.045
      -0.002
      -0.042
      -0.074
      -0.102
      -0.130
      -0.161
      -0.194
      -0.224
      -0.248
      -0.266
      -0.276
      -0.272
      -0.250
      -0.204
      -0.136
      -0.047
       0.062
       0.183
       0.301
       0.395
       0.447
       0.446
       0.394
       0.301
       0.187
       0.072
      -0.023
      -0.084
      -0.108
      -0.102
      -0.079
      -0.052
      -0.030
      -0.018
      -0.021
      -0.041
      -0.079
      -0.133
      -0.194
      -0.245
      -0.270
      -0.258
      -0.206
      -0.116
       0.002
       0.131
       0.251
       0.342
       0.390
       0.392
       0.352
       0.280
       0.185
       0.074
      -0.046
      -0.167
      -0.284
      -0.388
      -0.470
      -0.519
      -0.522
      -0.473
      -0.367
      -0.210
      -0.018
       0.184
       0.361
       0.486
       0.541
       0.525
       0.450
       0.340
       0.225
       0.132
       0.075
       0.061
       0.086
       0.132
       0.177
       0.199
       0.183
       0.125
       0.031
      -0.084
      -0.200
      -0.301
      -0.374
      -0.410
      -0.407
      -0.371
      -0.312
      -0.244
      -0.184
      -0.143
      -0.124
      -0.117
      -0.103
      -0.063
       0.013
       0.124
       0.257
       0.391
       0.501
       0.572
       0.598
       0.584
       0.544
       0.491
       0.439
       0.392
       0.344
       0.277
       0.175
       0.029
      -0.154
      -0.359
      -0.563
      -0.740
      -0.865
      -0.920
      -0.897
      -0.800
      -0.643
      -0.443
      -0.214
       0.020
       0.231
       0.387
       0.467
       0.469
       0.411
       0.326
       0.246
       0.194
       0.181
       0.205
       0.258
       0.326
       0.394
       0.441
       0.448
       0.397
       0.287
       0.131
      -0.047
      -0.221
      -0.376
      -0.505
      -0.603
      -0.666
      -0.692
      -0.680
      -0.641
      -0.587
      -0.533
      -0.485
      -0.437
      -0.377
      -0.291
      -0.174
      -0.029
       0.135
       0.304
       0.458
       0.577
       0.644
       0.657
       0.628
       0.578
       0.521
       0.465
       0.414
       0.373
       0.345
       0.328
       0.312
       0.285
       0.236
       0.157
       0.054
      -0.065
      -0.181
      -0.277
      -0.342
      -0.372
      -0.371
      -0.349
      -0.313
      -0.272
      -0.234
      -0.209
      -0.204
      -0.218
      -0.243
      -0.264
      -0.269
      -0.258
      -0.235
      -0.203
      -0.159
      -0.100
      -0.032
       0.033
       0.085
       0.121
       0.146
       0.168
       0.187
       0.199
       0.197
       0.178
       0.145
       0.102
       0.052
      -0.002
      -0.053
      -0.087
      -0.095
      -0.078
      -0.042
      -0.001
       0.037
       0.068
       0.095
       0.119
       0.140
       0.148
       0.130
       0.079
      -0.005
      -0.114
      -0.236
      -0.355
      -0.450
      -0.506
      -0.511
      -0.470
      -0.395
      -0.304
      -0.210
      -0.116
      -0.022
       0.071
       0.155
       0.222
       0.267
       0.296
       0.323
       0.360
       0.410
       0.467
       0.518
       0.550
       0.554
       0.526
       0.467
       0.386
       0.296
       0.209
       0.133
       0.076
       0.037
       0.008
      -0.024
      -0.072
      -0.143
      -0.229
      -0.318
      -0.393
      -0.443
      -0.463
      -0.449
      -0.394
      -0.299
      -0.170
      -0.024
       0.114
       0.221
       0.283
       0.298
       0.276
       0.231
       0.178
       0.130
       0.098
       0.086
       0.086
       0.087
       0.078
       0.053
       0.015
      -0.028
      -0.066
      -0.093
      -0.108
      -0.114
      -0.116
      -0.116
      -0.118
      -0.122
      -0.122
      -0.111
      -0.088
      -0.059
      -0.038
      -0.035
      -0.048
      -0.063
      -0.066
      -0.049
      -0.017
       0.025
       0.070
       0.115
       0.155
       0.177
       0.172
       0.132
       0.057
      -0.043
      -0.155
      -0.260
      -0.346
      -0.399
      -0.410
      -0.374
      -0.292
      -0.177
      -0.046
       0.081
       0.187
       0.257
       0.287
       0.274
       0.219
       0.129
       0.016
      -0.097
      -0.189
      -0.246
      -0.265
      -0.254
      -0.221
      -0.172
      -0.111
      -0.045
       0.019
       0.078
       0.135
       0.195
       0.260
       0.325
       0.385
       0.430
       0.456
       0.455
       0.425
       0.366
       0.285
       0.192
       0.100
       0.012
      -0.071
      -0.154
      -0.236
      -0.309
      -0.357
      -0.367
      -0.337
      -0.277
      -0.205
      -0.142
      -0.102
      -0.087
      -0.093
      -0.111
      -0.130
      -0.143
      -0.147
      -0.141
      -0.125
      -0.105
      -0.089
      -0.087
      -0.100
      -0.123
      -0.146
      -0.158
      -0.150
      -0.117
      -0.055
       0.033
       0.136
       0.234
       0.311
       0.352
       0.355
       0.326
       0.273
       0.206
       0.132
       0.057
      -0.011
      -0.066
      -0.102
      -0.117
      -0.116
      -0.104
      -0.088
      -0.076
      -0.077
      -0.096
      -0.132
      -0.178
      -0.221
      -0.252
      -0.262
      -0.247
      -0.206
      -0.144
      -0.072
      -0.006
       0.039
       0.057
       0.055
       0.044
       0.038
       0.046
       0.069
       0.107
       0.160
       0.225
       0.291
       0.342
       0.365
       0.356
       0.321
       0.276
       0.231
       0.189
       0.150
       0.114
       0.091
       0.085
       0.096
       0.117
       0.135
       0.141
       0.132
       0.111
       0.081
       0.040
      -0.011
      -0.070
      -0.132
      -0.192
      -0.247
      -0.298
      -0.350
      -0.403
      -0.454
      -0.493
      -0.513
      -0.509
      -0.481
      -0.432
      -0.369
      -0.289
      -0.187
      -0.061
       0.085
       0.235
       0.372
       0.483
       0.557
       0.587
       0.565
       0.494
       0.386
       0.266
       0.157
       0.073
       0.016
      -0.025
      -0.060
      -0.097
      -0.134
      -0.166
      -0.190
      -0.201
      -0.197
      -0.179
      -0.149
      -0.113
      -0.084
      -0.066
      -0.063
      -0.070
      -0.082
      -0.094
      -0.101
      -0.097
      -0.077
      -0.039
       0.019
       0.095
       0.184
       0.276
       0.360
       0.425
       0.460
       0.461
       0.426
       0.358
       0.263
       0.151
       0.037
      -0.070
      -0.159
      -0.222
      -0.255
      -0.260
      -0.247
      -0.231
      -0.220
      -0.217
      -0.219
      -0.227
      -0.239
      -0.251
      -0.255
      -0.243
      -0.210
      -0.156
      -0.090
      -0.020
       0.045
       0.098
       0.134
       0.145
       0.135
       0.114
       0.097
       0.097
       0.121
       0.164
       0.217
       0.266
       0.304
       0.325
       0.326
       0.306
       0.269
       0.222
       0.179
       0.145
       0.121
       0.106
       0.099
       0.099
       0.104
       0.107
       0.100
