Origin Time       04/04/2011 11:31:40 UTC
Lat.              29.6 N	
Long.             80.8 E	
Depth (Km)         10.0
Magnitude         5.7
 Region           NEPAL-INDIA-BORDER-REGION                                        
 Above details taken from IMD 
    
Station Code      Roo
Station Lat.       29.866  N
Station Long.      77.901  E
Station Height(m)  243.0
Site Class        C   Vs30 between 200 m/sec to 375 m/sec *  
Record Time       04.04.2011 11:32:00.024 UTC
Sampling Rate     200. Hz
 Record Duration  166.875 Sec.
 Direction         N-S (N positive)
Max. Acceleration     -4.615 cm/sec**2
     
  * For reference see Site Classification link of website 
     
 Base Line Corrected and Low Pass Filtered (Cut Off at 35 Hz) Time History
 Acceleration data in cm/sec**2
    
[...]
       1.284
       1.284
       1.272
       1.250
       1.218
       1.179
       1.134
       1.084
       1.026
       0.954
       0.858
       0.735
       0.588
       0.423
       0.252
       0.081
      -0.082
      -0.236
      -0.382
      -0.518
      -0.638
      -0.732
      -0.792
      -0.811
      -0.790
      -0.729
      -0.628
      -0.487
      -0.313
      -0.121
       0.071
       0.248
       0.402
       0.536
       0.657
       0.772
       0.881
       0.979
       1.056
       1.108
       1.129
       1.120
       1.081
       1.014
       0.919
       0.801
       0.667
       0.526
       0.384
       0.240
       0.090
      -0.071
      -0.240
      -0.417
      -0.599
      -0.782
      -0.961
      -1.129
      -1.276
      -1.394
      -1.482
      -1.539
      -1.568
      -1.572
      -1.551
      -1.512
      -1.461
      -1.405
      -1.344
      -1.275
      -1.191
      -1.090
      -0.974
      -0.851
      -0.727
      -0.599
      -0.463
      -0.316
      -0.163
      -0.010
       0.139
       0.283
       0.417
       0.534
       0.626
       0.689
       0.729
       0.753
       0.764
       0.763
       0.753
       0.739
       0.727
       0.718
       0.706
       0.687
       0.660
       0.628
       0.592
       0.552
       0.503
       0.445
       0.382
       0.317
       0.253
       0.185
       0.111
       0.029
      -0.058
      -0.148
      -0.238
      -0.328
      -0.411
      -0.479
      -0.521
      -0.530
      -0.502
      -0.440
      -0.351
      -0.240
      -0.109
       0.036
       0.185
       0.325
       0.444
       0.534
       0.597
       0.639
       0.667
       0.689
       0.703
       0.704
       0.682
       0.631
       0.550
       0.440
       0.307
       0.157
      -0.002
      -0.161
      -0.307
      -0.433
      -0.533
      -0.606
      -0.654
      -0.681
      -0.694
      -0.699
      -0.699
      -0.692
      -0.670
      -0.625
      -0.553
      -0.453
      -0.333
      -0.200
      -0.058
       0.095
       0.260
       0.436
       0.616
       0.793
       0.959
       1.110
       1.243
       1.353
       1.434
       1.479
       1.484
       1.453
       1.398
       1.336
       1.285
       1.249
       1.227
       1.206
       1.176
       1.130
       1.063
       0.976
       0.873
       0.761
       0.646
       0.536
       0.434
       0.347
       0.279
       0.229
       0.191
       0.153
       0.110
       0.060
       0.007
      -0.043
      -0.086
      -0.124
      -0.158
      -0.188
      -0.214
      -0.236
      -0.259
      -0.292
      -0.341
      -0.407
      -0.479
      -0.547
      -0.604
      -0.648
      -0.678
      -0.696
      -0.707
      -0.725
      -0.760
      -0.816
      -0.887
      -0.962
      -1.033
      -1.097
      -1.156
      -1.217
      -1.279
      -1.342
      -1.400
      -1.445
      -1.470
      -1.466
      -1.432
      -1.365
      -1.265
      -1.135
      -0.979
      -0.803
      -0.616
      -0.425
      -0.235
      -0.051
       0.127
       0.296
       0.456
       0.605
       0.739
       0.845
       0.912
       0.935
       0.918
       0.874
       0.810
       0.731
       0.636
       0.529
       0.417
       0.309
       0.213
       0.131
       0.062
       0.005
      -0.036
      -0.055
      -0.050
      -0.021
       0.026
       0.089
       0.168
       0.266
       0.385
       0.519
       0.659
       0.791
       0.909
       1.006
       1.076
       1.110
       1.099
       1.043
       0.945
       0.807
       0.632
       0.421
       0.177
      -0.091
      -0.369
      -0.643
      -0.897
      -1.116
      -1.292
      -1.424
      -1.516
      -1.570
      -1.585
      -1.558
      -1.491
      -1.390
      -1.260
      -1.104
      -0.926
      -0.731
      -0.528
      -0.331
      -0.155
      -0.010
       0.102
       0.184
       0.240
       0.279
       0.305
       0.322
       0.323
       0.301
       0.255
       0.190
       0.118
       0.044
      -0.029
      -0.101
      -0.173
      -0.244
      -0.308
      -0.357
      -0.384
      -0.383
      -0.352
      -0.294
      -0.211
      -0.100
       0.037
       0.194
       0.357
       0.518
       0.669
       0.805
       0.922
       1.014
       1.078
       1.112
       1.117
       1.093
       1.041
       0.963
       0.868
       0.761
       0.648
       0.523
       0.380
       0.213
       0.023
      -0.182
      -0.395
      -0.613
      -0.831
      -1.042
      -1.236
      -1.401
      -1.531
      -1.622
      -1.673
      -1.685
      -1.657
      -1.585
      -1.472
      -1.321
      -1.138
      -0.933
      -0.715
      -0.492
      -0.269
      -0.047
       0.178
       0.405
       0.626
       0.832
       1.014
       1.169
       1.291
       1.374
       1.412
       1.402
       1.347
       1.249
       1.115
       0.950
       0.762
       0.559
       0.343
       0.118
      -0.114
      -0.347
      -0.570
      -0.772
      -0.945
      -1.087
      -1.196
      -1.273
      -1.314
      -1.318
      -1.284
      -1.216
      -1.120
      -1.003
      -0.869
      -0.719
      -0.558
      -0.390
      -0.220
      -0.052
       0.113
       0.272
       0.420
       0.553
       0.666
       0.754
       0.813
       0.845
       0.853
       0.841
       0.812
       0.774
       0.733
       0.693
       0.654
       0.614
       0.571
       0.526
       0.479
       0.432
       0.388
       0.351
       0.325
       0.307
       0.291
       0.275
       0.257
       0.236
       0.211
       0.176
       0.124
       0.053
      -0.037
      -0.137
      -0.241
      -0.341
      -0.431
      -0.504
      -0.556
      -0.581
      -0.576
      -0.541
      -0.477
      -0.387
      -0.274
      -0.142
       0.006
       0.167
       0.332
       0.493
       0.635
       0.746
       0.816
       0.838
       0.808
       0.731
       0.615
       0.471
       0.307
       0.128
      -0.061
      -0.250
      -0.428
      -0.591
      -0.738
      -0.867
      -0.975
      -1.059
      -1.114
      -1.142
      -1.150
      -1.145
      -1.137
      -1.135
      -1.143
      -1.163
      -1.191
      -1.221
      -1.250
      -1.278
      -1.304
      -1.330
      -1.352
      -1.368
      -1.373
      -1.366
      -1.342
      -1.299
      -1.233
      -1.140
      -1.017
      -0.862
      -0.673
      -0.444
      -0.175
       0.125
       0.443
       0.761
       1.068
       1.360
       1.632
       1.879
       2.088
       2.248
       2.351
       2.398
       2.387
       2.322
       2.204
       2.037
       1.827
       1.579
       1.298
       0.987
       0.652
       0.304
      -0.042
      -0.373
      -0.675
      -0.939
      -1.160
      -1.333
      -1.452
      -1.513
      -1.517
      -1.473
      -1.390
      -1.273
      -1.121
      -0.931
      -0.703
      -0.439
      -0.146
       0.168
       0.492
       0.819
       1.141
       1.448
       1.731
       1.980
       2.185
       2.339
       2.439
       2.487
       2.492
       2.465
       2.415
       2.343
       2.248
       2.124
       1.974
       1.803
       1.619
       1.427
       1.226
       1.018
       0.804
       0.594
       0.392
       0.203
       0.025
      -0.143
      -0.300
      -0.440
      -0.556
      -0.642
      -0.705
      -0.758
      -0.815
      -0.885
      -0.967
      -1.053
      -1.136
      -1.209
      -1.264
      -1.291
      -1.284
      -1.236
      -1.152
      -1.037
      -0.903
      -0.763
      -0.628
      -0.505
      -0.396
      -0.298
      -0.207
      -0.122
      -0.048
       0.011
       0.049
       0.066
       0.063
       0.039
      -0.005
      -0.069
      -0.146
      -0.225
      -0.299
      -0.362
      -0.414
      -0.460
      -0.503
      -0.547
      -0.596
      -0.655
      -0.726
      -0.808
      -0.894
      -0.981
      -1.065
      -1.149
      -1.235
      -1.321
      -1.403
      -1.472
      -1.526
      -1.566
      -1.594
      -1.614
      -1.625
      -1.624
      -1.609
      -1.572
      -1.507
      -1.410
      -1.285
      -1.141
      -0.992
      -0.843
      -0.701
      -0.568
      -0.450
      -0.352
      -0.278
      -0.226
      -0.192
      -0.166
      -0.142
      -0.113
      -0.080
      -0.046
      -0.018
       0.002
       0.013
       0.019
       0.016
      -0.007
      -0.062
      -0.158
      -0.291
      -0.446
      -0.607
      -0.762
      -0.902
      -1.027
      -1.136
      -1.230
      -1.308
      -1.366
      -1.402
      -1.409
      -1.384
      -1.318
      -1.210
      -1.061
      -0.876
      -0.665
      -0.437
      -0.198
       0.052
       0.314
       0.591
       0.883
       1.188
       1.500
       1.811
       2.113
       2.397
       2.659
       2.894
       3.095
       3.257
       3.374
       3.443
       3.462
       3.427
       3.334
       3.184
       2.985
       2.747
       2.486
       2.212
       1.935
       1.667
       1.423
       1.217
       1.056
       0.940
       0.860
       0.808
       0.783
       0.782
       0.805
       0.846
       0.899
       0.954
       1.001
       1.038
       1.064
       1.084
       1.103
       1.117
       1.122
       1.106
       1.062
       0.991
       0.897
       0.787
       0.670
       0.549
       0.426
       0.299
       0.164
       0.021
      -0.126
      -0.271
      -0.406
      -0.529
      -0.635
      -0.720
      -0.773
      -0.785
      -0.754
      -0.683
      -0.582
      -0.458
      -0.318
      -0.170
      -0.020
       0.127
       0.265
       0.390
       0.495
       0.572
       0.617
       0.628
       0.605
       0.550
       0.466
       0.357
       0.230
       0.090
      -0.057
      -0.207
      -0.357
      -0.503
      -0.645
      -0.782
      -0.916
      -1.045
      -1.166
      -1.273
      -1.360
      -1.430
      -1.486
      -1.532
      -1.571
      -1.600
      -1.619
      -1.626
      -1.624
      -1.612
      -1.593
      -1.568
      -1.537
      -1.497
      -1.443
      -1.367
      -1.269
      -1.147
      -1.005
      -0.845
      -0.671
      -0.494
      -0.327
      -0.181
      -0.066
       0.014
       0.050
       0.038
      -0.023
      -0.127
      -0.261
      -0.413
      -0.569
      -0.718
      -0.852
      -0.961
      -1.040
      -1.088
      -1.116
      -1.138
      -1.171
      -1.223
      -1.298
      -1.390
      -1.491
      -1.587
      -1.659
      -1.695
      -1.689
      -1.644
      -1.566
      -1.460
      -1.332
      -1.188
      -1.037
      -0.886
      -0.737
      -0.586
      -0.427
      -0.256
      -0.075
       0.108
       0.285
       0.455
       0.621
       0.785
       0.947
       1.101
       1.244
       1.374
       1.488
       1.583
       1.654
       1.701
       1.723
       1.722
       1.697
       1.648
       1.580
       1.502
       1.424
       1.350
       1.272
       1.179
       1.060
       0.919
       0.768
       0.622
       0.495
       0.391
       0.313
       0.261
       0.240
       0.256
       0.309
       0.400
       0.522
       0.666
       0.825
       0.988
       1.149
       1.303
       1.450
       1.591
       1.729
       1.856
       1.960
       2.032
       2.067
       2.069
       2.041
       1.981
       1.886
       1.754
       1.593
       1.413
       1.223
       1.029
       0.830
       0.629
       0.429
       0.242
       0.076
      -0.061
      -0.169
      -0.249
      -0.303
      -0.327
      -0.321
      -0.287
      -0.234
      -0.174
      -0.115
      -0.065
      -0.027
      -0.001
       0.009
       0.002
      -0.018
      -0.047
      -0.077
      -0.109
      -0.147
      -0.197
      -0.258
      -0.327
      -0.394
      -0.457
      -0.516
      -0.578
      -0.647
      -0.729
      -0.823
      -0.927
      -1.033
      -1.134
      -1.224
      -1.302
      -1.371
      -1.436
      -1.506
      -1.585
      -1.676
      -1.780
      -1.895
      -2.022
      -2.160
      -2.305
      -2.448
      -2.578
      -2.684
      -2.754
      -2.776
      -2.744
      -2.656
      -2.520
      -2.344
      -2.142
      -1.923
      -1.699
      -1.475
      -1.256
      -1.044
      -0.838
      -0.636
      -0.438
      -0.244
      -0.054
       0.134
       0.319
       0.506
       0.696
       0.889
       1.081
       1.267
       1.443
       1.609
       1.768
       1.917
       2.055
       2.182
       2.298
       2.407
       2.511
       2.611
       2.709
       2.806
       2.901
       2.988
       3.058
       3.101
       3.111
       3.088
       3.035
       2.957
       2.858
       2.741
       2.608
       2.460
       2.291
       2.095
       1.866
       1.600
       1.301
       0.983
       0.662
       0.357
       0.087
      -0.137
      -0.310
      -0.432
      -0.506
      -0.536
      -0.518
      -0.447
      -0.325
      -0.157
       0.044
       0.270
       0.512
       0.761
       1.008
       1.242
       1.451
       1.621
       1.736
       1.781
       1.747
       1.632
       1.439
       1.174
       0.842
       0.445
      -0.007
      -0.500
      -1.017
      -1.541
      -2.064
      -2.572
      -3.052
      -3.485
      -3.854
      -4.149
      -4.368
      -4.516
      -4.597
      -4.615
      -4.577
      -4.489
      -4.356
      -4.180
      -3.966
      -3.720
      -3.451
      -3.173
      -2.896
      -2.624
      -2.361
      -2.108
      -1.872
      -1.661
      -1.481
      -1.335
      -1.222
      -1.139
      -1.083
      -1.050
      -1.039
      -1.044
      -1.059
      -1.076
      -1.093
      -1.106
      -1.117
      -1.126
      -1.135
      -1.142
      -1.141
      -1.125
      -1.092
      -1.039
      -0.968
      -0.884
      -0.794
      -0.701
      -0.606
      -0.506
      -0.402
      -0.292
      -0.176
      -0.049
       0.091
       0.250
       0.430
       0.631
       0.846
       1.070
       1.302
       1.538
       1.778
       2.013
       2.235
       2.432
       2.602
       2.742
       2.849
       2.918
       2.942
       2.920
       2.856
       2.758
       2.631
       2.477
       2.298
       2.099
       1.888
       1.670
       1.449
       1.229
       1.018
       0.829
       0.677
       0.568
       0.501
       0.466
       0.452
       0.449
       0.452
       0.466
       0.496
       0.541
       0.594
       0.644
       0.681
       0.701
       0.706
       0.697
       0.672
       0.630
       0.574
       0.511
       0.446
       0.383
       0.320
       0.258
       0.196
       0.133
       0.068
       0.000
      -0.069
      -0.134
      -0.186
      -0.217
      -0.222
      -0.202
      -0.158
      -0.098
      -0.028
       0.046
       0.120
       0.194
       0.266
       0.333
       0.393
       0.442
       0.476
       0.491
       0.482
       0.449
       0.391
       0.310
       0.213
       0.109
       0.013
      -0.068
      -0.135
      -0.201
      -0.273
      -0.354
      -0.437
      -0.511
      -0.573
      -0.619
      -0.646
      -0.652
      -0.640
      -0.616
      -0.594
      -0.585
      -0.597
      -0.630
      -0.678
      -0.735
      -0.799
      -0.871
      -0.954
      -1.045
      -1.137
      -1.226
      -1.308
      -1.382
      -1.447
      -1.497
      -1.522
      -1.514
      -1.463
      -1.366
      -1.225
      -1.047
      -0.842
      -0.618
      -0.391
      -0.172
       0.027
       0.198
       0.341
       0.454
       0.537
       0.589
       0.607
       0.588
       0.532
       0.443
       0.326
       0.186
       0.023
      -0.165
      -0.375
      -0.593
      -0.804
      -0.998
      -1.169
      -1.317
      -1.440
      -1.535
      -1.601
      -1.640
      -1.654
      -1.639
      -1.591
      -1.506
      -1.390
      -1.252
      -1.101
      -0.943
      -0.780
      -0.615
      -0.451
      -0.290
      -0.136
       0.011
       0.150
       0.282
       0.410
       0.535
       0.657
       0.772
       0.876
       0.968
       1.049
       1.122
       1.193
       1.267
       1.347
       1.432
       1.518
       1.600
       1.673
       1.728
       1.760
       1.767
       1.752
       1.724
       1.697
       1.681
       1.685
       1.709
       1.750
       1.800
       1.851
       1.897
       1.937
       1.974
       2.011
       2.045
       2.071
       2.080
       2.060
       2.002
       1.898
       1.748
       1.553
       1.319
       1.057
       0.781
       0.505
       0.235
      -0.024
      -0.274
      -0.513
      -0.739
      -0.948
      -1.138
      -1.305
      -1.448
      -1.569
      -1.667
      -1.743
      -1.796
      -1.825
      -1.834
      -1.823
      -1.794
      -1.744
      -1.674
      -1.585
      -1.480
      -1.360
      -1.223
      -1.070
      -0.907
      -0.745
      -0.590
      -0.443
      -0.297
      -0.149
       0.002
       0.152
       0.293
       0.418
       0.523
       0.610
       0.681
       0.742
       0.795
       0.843
       0.891
       0.943
       0.997
       1.048
       1.089
       1.116
       1.127
       1.122
       1.099
       1.056
       0.992
       0.905
       0.795
       0.661
       0.505
       0.330
       0.147
      -0.039
      -0.219
      -0.389
      -0.547
      -0.685
      -0.799
      -0.887
      -0.953
      -1.004
      -1.039
      -1.053
      -1.035
      -0.976
      -0.873
      -0.728
      -0.549
      -0.342
      -0.116
       0.117
       0.341
       0.542
       0.704
       0.816
       0.872
       0.870
       0.813
       0.710
       0.569
       0.395
       0.193
      -0.031
      -0.268
      -0.510
      -0.752
      -0.992
      -1.231
      -1.466
      -1.692
      -1.904
      -2.095
      -2.259
      -2.394
      -2.495
      -2.561
      -2.596
      -2.604
      -2.585
      -2.541
      -2.469
      -2.369
      -2.239
      -2.080
      -1.895
      -1.688
      -1.465
      -1.236
      -1.007
      -0.785
      -0.571
      -0.368
      -0.173
       0.013
       0.191
       0.357
       0.508
       0.643
       0.767
       0.880
       0.981
       1.067
       1.142
       1.208
       1.271
       1.330
       1.382
       1.425
       1.464
       1.501
       1.536
       1.565
       1.581
       1.579
       1.561
       1.533
       1.493
       1.438
       1.360
       1.255
       1.126
       0.979
       0.827
       0.677
       0.533
       0.393
       0.253
       0.109
      -0.036
      -0.183
      -0.331
      -0.475
      -0.608
      -0.718
      -0.796
      -0.834
      -0.831
      -0.791
      -0.717
      -0.615
      -0.491
      -0.348
      -0.190
      -0.022
       0.153
       0.325
       0.482
       0.610
       0.696
       0.736
       0.734
       0.702
       0.655
       0.604
       0.558
       0.515
       0.474
       0.432
       0.394
       0.364
       0.348
       0.346
       0.355
       0.374
       0.402
       0.440
       0.483
       0.525
       0.555
