Origin Time       20/06/2011 06:27:18 UTC
Lat.              30.5 N	
Long.             79.4 E	
Depth (Km)         12.0
Magnitude         4.6
 Region           Chamoli-Uttarakhand                                              
 Above details taken from IMD 
    
Station Code      Roo
Station Lat.       29.866  N
Station Long.      77.901  E
Station Height(m)  243.0
Site Class        C   Vs30 between 200 m/sec to 375 m/sec *  
Record Time       20.06.2011 06:27:18.744 UTC
Sampling Rate     200. Hz
 Record Duration  119.390 Sec.
 Direction         N-S (N positive)
Max. Acceleration     -2.122 cm/sec**2
     
  * For reference see Site Classification link of website 
     
 Base Line Corrected and Low Pass Filtered (Cut Off at 35 Hz) Time History
 Acceleration data in cm/sec**2
    
[...]
      -1.191
      -1.316
      -1.426
      -1.526
      -1.616
      -1.692
      -1.747
      -1.781
      -1.798
      -1.799
      -1.782
      -1.742
      -1.675
      -1.585
      -1.477
      -1.355
      -1.217
      -1.056
      -0.867
      -0.653
      -0.429
      -0.209
      -0.003
       0.192
       0.380
       0.558
       0.719
       0.856
       0.966
       1.051
       1.112
       1.145
       1.144
       1.104
       1.029
       0.925
       0.800
       0.663
       0.515
       0.353
       0.176
      -0.016
      -0.223
      -0.439
      -0.651
      -0.837
      -0.975
      -1.051
      -1.068
      -1.036
      -0.968
      -0.871
      -0.749
      -0.601
      -0.427
      -0.230
      -0.016
       0.212
       0.449
       0.690
       0.927
       1.155
       1.366
       1.552
       1.709
       1.837
       1.937
       2.008
       2.045
       2.040
       1.986
       1.874
       1.700
       1.463
       1.172
       0.837
       0.472
       0.092
      -0.284
      -0.637
      -0.953
      -1.227
      -1.462
      -1.664
      -1.833
      -1.959
      -2.029
      -2.037
      -1.985
      -1.881
      -1.732
      -1.545
      -1.320
      -1.065
      -0.788
      -0.506
      -0.232
       0.027
       0.268
       0.487
       0.676
       0.820
       0.911
       0.952
       0.955
       0.941
       0.928
       0.930
       0.947
       0.971
       0.992
       1.002
       1.002
       0.997
       0.993
       0.994
       0.996
       0.993
       0.978
       0.950
       0.903
       0.835
       0.745
       0.635
       0.509
       0.374
       0.235
       0.093
      -0.049
      -0.193
      -0.338
      -0.483
      -0.628
      -0.774
      -0.915
      -1.040
      -1.136
      -1.191
      -1.202
      -1.170
      -1.102
      -1.006
      -0.893
      -0.772
      -0.645
      -0.513
      -0.373
      -0.231
      -0.098
       0.012
       0.091
       0.141
       0.171
       0.198
       0.234
       0.281
       0.331
       0.372
       0.396
       0.398
       0.382
       0.347
       0.294
       0.223
       0.136
       0.035
      -0.075
      -0.191
      -0.309
      -0.430
      -0.551
      -0.671
      -0.780
      -0.866
      -0.920
      -0.941
      -0.932
      -0.900
      -0.848
      -0.781
      -0.697
      -0.599
      -0.494
      -0.391
      -0.300
      -0.223
      -0.154
      -0.087
      -0.022
       0.038
       0.083
       0.111
       0.123
       0.130
       0.143
       0.174
       0.224
       0.288
       0.357
       0.426
       0.494
       0.561
       0.624
       0.672
       0.694
       0.680
       0.636
       0.571
       0.499
       0.424
       0.347
       0.266
       0.185
       0.108
       0.039
      -0.019
      -0.062
      -0.081
      -0.069
      -0.020
       0.065
       0.181
       0.319
       0.466
       0.605
       0.724
       0.817
       0.892
       0.959
       1.024
       1.087
       1.137
       1.161
       1.145
       1.083
       0.976
       0.826
       0.642
       0.429
       0.193
      -0.057
      -0.312
      -0.558
      -0.784
      -0.979
      -1.139
      -1.260
      -1.338
      -1.371
      -1.354
      -1.289
      -1.182
      -1.044
      -0.885
      -0.710
      -0.520
      -0.319
      -0.112
       0.093
       0.286
       0.461
       0.609
       0.720
       0.785
       0.795
       0.751
       0.654
       0.510
       0.327
       0.119
      -0.101
      -0.313
      -0.497
      -0.634
      -0.715
      -0.740
      -0.722
      -0.676
      -0.612
      -0.537
      -0.457
      -0.379
      -0.315
      -0.273
      -0.251
      -0.243
      -0.241
      -0.246
      -0.262
      -0.292
      -0.331
      -0.372
      -0.407
      -0.430
      -0.436
      -0.426
      -0.398
      -0.353
      -0.288
      -0.208
      -0.128
      -0.060
      -0.008
       0.032
       0.067
       0.102
       0.137
       0.171
       0.203
       0.229
       0.246
       0.247
       0.223
       0.171
       0.091
      -0.010
      -0.120
      -0.227
      -0.319
      -0.384
      -0.416
      -0.414
      -0.382
      -0.324
      -0.243
      -0.140
      -0.009
       0.156
       0.356
       0.582
       0.820
       1.058
       1.284
       1.484
       1.646
       1.758
       1.814
       1.814
       1.760
       1.653
       1.494
       1.285
       1.025
       0.717
       0.364
      -0.024
      -0.425
      -0.813
      -1.156
      -1.426
      -1.601
      -1.671
      -1.636
      -1.507
      -1.298
      -1.026
      -0.709
      -0.368
      -0.028
       0.283
       0.546
       0.752
       0.903
       1.002
       1.052
       1.057
       1.017
       0.935
       0.814
       0.658
       0.478
       0.285
       0.093
      -0.094
      -0.273
      -0.446
      -0.615
      -0.775
      -0.922
      -1.049
      -1.155
      -1.239
      -1.300
      -1.334
      -1.336
      -1.301
      -1.230
      -1.125
      -0.990
      -0.830
      -0.656
      -0.480
      -0.313
      -0.160
      -0.018
       0.113
       0.226
       0.309
       0.350
       0.344
       0.297
       0.223
       0.136
       0.048
      -0.032
      -0.088
      -0.109
      -0.091
      -0.040
       0.031
       0.107
       0.178
       0.239
       0.288
       0.327
       0.358
       0.384
       0.409
       0.437
       0.466
       0.490
       0.501
       0.495
       0.474
       0.439
       0.396
       0.352
       0.318
       0.303
       0.309
       0.330
       0.353
       0.359
       0.331
       0.263
       0.161
       0.032
      -0.108
      -0.244
      -0.358
      -0.440
      -0.487
      -0.505
      -0.500
      -0.478
      -0.441
      -0.390
      -0.326
      -0.254
      -0.180
      -0.110
      -0.048
       0.001
       0.037
       0.058
       0.063
       0.053
       0.030
       0.004
      -0.014
      -0.014
       0.003
       0.030
       0.055
       0.072
       0.076
       0.069
       0.058
       0.049
       0.049
       0.057
       0.068
       0.073
       0.070
       0.062
       0.056
       0.056
       0.057
       0.050
       0.027
      -0.011
      -0.056
      -0.097
      -0.123
      -0.133
      -0.135
      -0.133
      -0.127
      -0.107
      -0.058
       0.024
       0.131
       0.251
       0.375
       0.506
       0.649
       0.802
       0.952
       1.072
       1.137
       1.134
       1.064
       0.943
       0.792
       0.624
       0.440
       0.233
       0.003
      -0.234
      -0.455
      -0.637
      -0.769
      -0.855
      -0.906
      -0.933
      -0.944
      -0.943
      -0.933
      -0.917
      -0.896
      -0.868
      -0.826
      -0.766
      -0.686
      -0.587
      -0.471
      -0.344
      -0.219
      -0.107
      -0.013
       0.069
       0.149
       0.228
       0.304
       0.366
       0.412
       0.442
       0.469
       0.506
       0.560
       0.623
       0.676
       0.707
       0.716
       0.713
       0.707
       0.703
       0.700
       0.688
       0.660
       0.610
       0.536
       0.440
       0.325
       0.198
       0.066
      -0.067
      -0.199
      -0.328
      -0.444
      -0.534
      -0.589
      -0.605
      -0.586
      -0.539
      -0.473
      -0.396
      -0.308
      -0.213
      -0.117
      -0.028
       0.046
       0.100
       0.130
       0.130
       0.095
       0.024
      -0.080
      -0.208
      -0.351
      -0.497
      -0.630
      -0.734
      -0.800
      -0.825
      -0.813
      -0.764
      -0.677
      -0.550
      -0.390
      -0.207
      -0.017
       0.166
       0.333
       0.481
       0.612
       0.724
       0.810
       0.860
       0.868
       0.831
       0.754
       0.648
       0.530
       0.414
       0.311
       0.227
       0.160
       0.103
       0.047
      -0.015
      -0.084
      -0.154
      -0.216
      -0.268
      -0.313
      -0.353
      -0.383
      -0.401
      -0.407
      -0.410
      -0.422
      -0.449
      -0.490
      -0.538
      -0.582
      -0.614
      -0.627
      -0.615
      -0.575
      -0.507
      -0.413
      -0.297
      -0.167
      -0.030
       0.104
       0.230
       0.347
       0.453
       0.546
       0.615
       0.648
       0.634
       0.577
       0.489
       0.388
       0.289
       0.196
       0.108
       0.023
      -0.051
      -0.104
      -0.128
      -0.118
      -0.071
       0.014
       0.135
       0.276
       0.412
       0.519
       0.581
       0.591
       0.550
       0.463
       0.331
       0.162
      -0.029
      -0.222
      -0.396
      -0.541
      -0.653
      -0.731
      -0.773
      -0.775
      -0.731
      -0.638
      -0.501
      -0.335
      -0.158
       0.014
       0.165
       0.282
       0.354
       0.374
       0.341
       0.263
       0.151
       0.024
      -0.105
      -0.230
      -0.351
      -0.471
      -0.587
      -0.688
      -0.760
      -0.795
      -0.790
      -0.751
      -0.688
      -0.608
      -0.514
      -0.406
      -0.287
      -0.169
      -0.069
       0.003
       0.047
       0.070
       0.086
       0.104
       0.130
       0.167
       0.213
       0.265
       0.315
       0.355
       0.385
       0.411
       0.448
       0.503
       0.578
       0.661
       0.738
       0.794
       0.825
       0.835
       0.829
       0.808
       0.767
       0.708
       0.634
       0.549
       0.450
       0.332
       0.190
       0.029
      -0.139
      -0.298
      -0.429
      -0.520
      -0.568
      -0.575
      -0.551
      -0.504
      -0.447
      -0.391
      -0.344
      -0.308
      -0.281
      -0.254
      -0.217
      -0.162
      -0.089
       0.001
       0.103
       0.207
       0.308
       0.397
       0.473
       0.535
       0.588
       0.635
       0.678
       0.712
       0.721
       0.689
       0.603
       0.458
       0.258
       0.009
      -0.276
      -0.583
      -0.887
      -1.163
      -1.387
      -1.542
      -1.619
      -1.616
      -1.539
      -1.396
      -1.199
      -0.962
      -0.696
      -0.415
      -0.130
       0.144
       0.389
       0.594
       0.752
       0.865
       0.940
       0.986
       1.011
       1.017
       1.002
       0.963
       0.900
       0.812
       0.704
       0.584
       0.462
       0.350
       0.258
       0.190
       0.146
       0.120
       0.107
       0.098
       0.083
       0.055
       0.009
      -0.056
      -0.138
      -0.225
      -0.303
      -0.357
      -0.379
      -0.370
      -0.341
      -0.308
      -0.282
      -0.267
      -0.259
      -0.252
      -0.239
      -0.218
      -0.188
      -0.153
      -0.115
      -0.077
      -0.044
      -0.019
      -0.002
       0.015
       0.044
       0.091
       0.154
       0.223
       0.285
       0.332
       0.358
       0.363
       0.348
       0.320
       0.287
       0.260
       0.247
       0.251
       0.276
       0.320
       0.383
       0.460
       0.544
       0.629
       0.709
       0.779
       0.839
       0.882
       0.900
       0.881
       0.817
       0.711
       0.570
       0.410
       0.243
       0.078
      -0.080
      -0.231
      -0.375
      -0.514
      -0.651
      -0.792
      -0.945
      -1.110
      -1.280
      -1.434
      -1.554
      -1.628
      -1.656
      -1.645
      -1.606
      -1.546
      -1.468
      -1.372
      -1.258
      -1.129
      -0.987
      -0.835
      -0.675
      -0.509
      -0.340
      -0.172
      -0.012
       0.136
       0.279
       0.427
       0.589
       0.762
       0.931
       1.073
       1.166
       1.194
       1.154
       1.053
       0.903
       0.715
       0.501
       0.278
       0.064
      -0.124
      -0.276
      -0.385
      -0.449
      -0.463
      -0.425
      -0.338
      -0.209
      -0.051
       0.122
       0.297
       0.464
       0.615
       0.741
       0.837
       0.897
       0.919
       0.899
       0.834
       0.725
       0.581
       0.413
       0.228
       0.032
      -0.169
      -0.372
      -0.570
      -0.755
      -0.917
      -1.046
      -1.135
      -1.176
      -1.161
      -1.084
      -0.951
      -0.779
      -0.589
      -0.398
      -0.216
      -0.043
       0.122
       0.285
       0.447
       0.605
       0.750
       0.873
       0.964
       1.016
       1.029
       1.013
       0.977
       0.936
       0.895
       0.855
       0.809
       0.751
       0.675
       0.585
       0.481
       0.366
       0.247
       0.132
       0.033
      -0.046
      -0.101
      -0.131
      -0.135
      -0.119
      -0.093
      -0.073
      -0.074
      -0.109
      -0.180
      -0.286
      -0.414
      -0.552
      -0.688
      -0.812
      -0.916
      -0.990
      -1.026
      -1.020
      -0.977
      -0.916
      -0.854
      -0.801
      -0.758
      -0.719
      -0.673
      -0.613
      -0.533
      -0.434
      -0.319
      -0.187
      -0.036
       0.135
       0.319
       0.507
       0.698
       0.889
       1.080
       1.261
       1.423
       1.559
       1.668
       1.755
       1.815
       1.842
       1.825
       1.759
       1.649
       1.498
       1.305
       1.064
       0.767
       0.415
       0.022
      -0.389
      -0.792
      -1.164
      -1.491
      -1.759
      -1.957
      -2.078
      -2.122
      -2.096
      -2.008
      -1.868
      -1.687
      -1.474
      -1.242
      -1.007
      -0.788
      -0.600
      -0.456
      -0.353
      -0.280
      -0.223
      -0.173
      -0.125
      -0.078
      -0.027
       0.032
       0.102
       0.180
       0.261
       0.342
       0.418
       0.485
       0.537
       0.561
       0.552
       0.513
       0.457
       0.392
       0.322
       0.247
       0.165
       0.083
       0.008
      -0.054
      -0.100
      -0.136
      -0.168
      -0.193
      -0.207
      -0.206
      -0.197
      -0.192
      -0.205
      -0.239
      -0.289
      -0.342
      -0.386
      -0.409
      -0.403
      -0.367
      -0.299
      -0.201
      -0.078
       0.061
       0.203
       0.335
       0.444
       0.523
       0.574
       0.602
       0.610
       0.604
       0.588
       0.571
       0.557
       0.541
       0.514
       0.466
       0.396
       0.308
       0.212
       0.112
       0.014
      -0.079
      -0.156
      -0.207
      -0.222
      -0.206
      -0.170
      -0.125
      -0.074
      -0.015
       0.057
       0.140
       0.227
       0.308
       0.375
       0.422
       0.448
       0.450
       0.433
       0.400
       0.356
       0.307
       0.257
       0.214
       0.184
       0.169
       0.164
       0.161
       0.151
       0.133
       0.110
       0.086
       0.062
       0.041
       0.023
       0.019
       0.036
       0.081
       0.143
       0.206
       0.252
       0.278
       0.291
       0.302
       0.314
       0.321
       0.307
       0.259
       0.173
       0.054
      -0.088
      -0.242
      -0.400
      -0.552
      -0.691
      -0.806
      -0.889
      -0.936
      -0.949
      -0.935
      -0.901
      -0.852
      -0.792
      -0.719
      -0.634
      -0.538
      -0.430
      -0.312
      -0.188
      -0.060
       0.070
       0.206
       0.351
       0.504
       0.651
       0.777
       0.866
       0.914
       0.920
       0.888
       0.823
       0.730
       0.618
       0.501
       0.390
       0.294
       0.215
       0.153
       0.102
       0.060
       0.030
       0.015
       0.010
       0.005
      -0.013
      -0.053
      -0.121
      -0.221
      -0.354
      -0.518
      -0.700
      -0.883
      -1.044
      -1.169
      -1.249
      -1.290
      -1.298
      -1.282
      -1.240
      -1.167
      -1.063
      -0.930
      -0.774
      -0.596
      -0.394
      -0.177
       0.039
       0.229
       0.373
       0.462
       0.498
       0.491
       0.447
       0.375
       0.280
       0.172
       0.060
      -0.043
      -0.128
      -0.188
      -0.223
      -0.232
      -0.215
      -0.171
      -0.098
       0.000
       0.114
       0.232
       0.339
       0.419
       0.462
       0.465
       0.436
       0.390
       0.342
       0.305
       0.289
       0.294
       0.316
       0.339
       0.349
       0.338
       0.308
       0.272
       0.239
       0.211
       0.189
       0.177
       0.179
       0.199
       0.235
       0.281
       0.328
       0.373
       0.421
       0.481
       0.557
       0.640
       0.716
       0.774
       0.809
       0.820
       0.811
       0.783
       0.738
       0.676
       0.597
       0.501
       0.394
       0.283
       0.174
       0.062
      -0.060
      -0.197
      -0.348
      -0.502
      -0.646
      -0.773
      -0.882
      -0.973
      -1.047
      -1.101
      -1.134
      -1.141
      -1.114
      -1.057
      -0.984
      -0.912
      -0.852
      -0.798
      -0.736
      -0.656
      -0.556
      -0.443
      -0.328
      -0.216
      -0.111
      -0.013
       0.075
       0.152
       0.217
       0.267
       0.303
       0.322
       0.329
       0.327
       0.316
       0.292
       0.250
       0.193
       0.131
       0.081
       0.055
       0.060
       0.089
       0.133
       0.189
       0.255
       0.335
       0.424
       0.514
       0.591
       0.647
       0.674
       0.672
       0.643
       0.595
       0.540
       0.484
       0.433
       0.390
       0.358
       0.341
       0.341
       0.352
       0.363
       0.363
       0.344
       0.303
       0.241
       0.164
       0.081
       0.001
      -0.071
      -0.136
      -0.198
      -0.262
      -0.328
      -0.392
      -0.452
      -0.502
      -0.545
      -0.583
      -0.625
      -0.674
      -0.725
      -0.769
      -0.793
      -0.791
      -0.767
      -0.728
      -0.681
      -0.628
      -0.571
      -0.507
      -0.438
      -0.362
      -0.282
      -0.198
      -0.112
      -0.029
       0.043
       0.088
       0.090
       0.040
      -0.053
      -0.169
      -0.279
      -0.359
      -0.393
      -0.378
      -0.317
      -0.221
      -0.098
       0.044
       0.200
       0.362
       0.522
       0.667
       0.785
       0.866
       0.907
       0.914
       0.904
       0.889
       0.876
       0.864
       0.852
       0.844
       0.845
       0.859
       0.879
       0.891
       0.880
       0.842
       0.773
       0.673
       0.538
       0.368
       0.167
      -0.056
      -0.285
      -0.509
      -0.718
      -0.906
      -1.072
      -1.212
      -1.325
      -1.401
      -1.437
      -1.431
      -1.385
      -1.304
      -1.193
      -1.061
      -0.920
      -0.776
      -0.631
      -0.485
      -0.342
      -0.209
      -0.088
       0.028
       0.149
       0.275
       0.398
       0.506
       0.595
       0.670
       0.739
       0.808
       0.877
       0.940
       0.992
       1.025
       1.030
       1.000
       0.931
       0.822
       0.676
       0.502
       0.315
       0.129
      -0.045
      -0.205
      -0.352
      -0.483
      -0.594
      -0.679
