Origin Time       14/12/2005 07:09:48
Lat.              30.9 N 
Long.             79.3 E 
Depth (Km)         25.7
Magnitude         5.2
 Region           Chamoli-Uttarakhand                                              
 Above details taken from IMD 
     
Station Code      Roo
Station Lat.       29.866  N
Station Long.      77.901  E
Station Height(m)  253.5
Site Class        C   Vs30 between 200 m/sec to 375 m/sec *  
Record Time       14.12.2005 07:10:06.449
Sampling Rate     200. Hz
 Record Duration   66.215 Sec.
 Direction         E-W (E positive)
Max. Acceleration      3.403 cm/sec**2
     
  * For reference see Site Classification link of website 
     
 Base Line Corrected and Low Pass Filtered (Cut Off at 35 Hz) Time History
 Acceleration data in cm/sec**2
    
[...]
       0.025
       0.030
       0.033
       0.036
       0.035
       0.023
      -0.004
      -0.041
      -0.078
      -0.107
      -0.123
      -0.131
      -0.132
      -0.130
      -0.125
      -0.121
      -0.115
      -0.101
      -0.074
      -0.031
       0.022
       0.080
       0.140
       0.195
       0.238
       0.259
       0.256
       0.236
       0.211
       0.182
       0.142
       0.081
       0.008
      -0.060
      -0.103
      -0.121
      -0.129
      -0.140
      -0.155
      -0.170
      -0.182
      -0.198
      -0.220
      -0.242
      -0.250
      -0.239
      -0.215
      -0.191
      -0.173
      -0.158
      -0.138
      -0.112
      -0.078
      -0.031
       0.034
       0.119
       0.211
       0.290
       0.340
       0.362
       0.363
       0.353
       0.332
       0.302
       0.268
       0.233
       0.194
       0.147
       0.090
       0.032
      -0.015
      -0.046
      -0.064
      -0.073
      -0.069
      -0.042
       0.009
       0.068
       0.118
       0.146
       0.154
       0.143
       0.117
       0.081
       0.047
       0.030
       0.039
       0.062
       0.082
       0.085
       0.070
       0.042
       0.004
      -0.039
      -0.076
      -0.093
      -0.088
      -0.075
      -0.078
      -0.107
      -0.152
      -0.193
      -0.218
      -0.226
      -0.221
      -0.203
      -0.173
      -0.136
      -0.100
      -0.071
      -0.045
      -0.018
       0.011
       0.034
       0.047
       0.051
       0.050
       0.045
       0.037
       0.034
       0.045
       0.071
       0.099
       0.103
       0.071
       0.013
      -0.043
      -0.074
      -0.080
      -0.074
      -0.067
      -0.056
      -0.036
      -0.010
       0.011
       0.023
       0.028
       0.036
       0.047
       0.053
       0.045
       0.026
       0.000
      -0.026
      -0.049
      -0.067
      -0.071
      -0.058
      -0.031
      -0.002
       0.022
       0.041
       0.064
       0.094
       0.123
       0.141
       0.146
       0.148
       0.157
       0.174
       0.189
       0.189
       0.169
       0.131
       0.082
       0.031
      -0.011
      -0.036
      -0.045
      -0.046
      -0.049
      -0.059
      -0.070
      -0.080
      -0.091
      -0.110
      -0.138
      -0.173
      -0.208
      -0.241
      -0.269
      -0.288
      -0.293
      -0.280
      -0.251
      -0.212
      -0.167
      -0.116
      -0.055
       0.010
       0.073
       0.122
       0.152
       0.159
       0.137
       0.085
       0.009
      -0.074
      -0.147
      -0.201
      -0.232
      -0.243
      -0.234
      -0.204
      -0.157
      -0.101
      -0.045
       0.011
       0.070
       0.133
       0.200
       0.266
       0.327
       0.381
       0.428
       0.466
       0.494
       0.511
       0.511
       0.486
       0.431
       0.348
       0.255
       0.167
       0.090
       0.019
      -0.057
      -0.140
      -0.223
      -0.300
      -0.372
      -0.441
      -0.505
      -0.553
      -0.569
      -0.547
      -0.491
      -0.412
      -0.324
      -0.238
      -0.161
      -0.094
      -0.033
       0.029
       0.092
       0.154
       0.209
       0.251
       0.273
       0.276
       0.261
       0.235
       0.201
       0.162
       0.122
       0.091
       0.083
       0.108
       0.158
       0.212
       0.244
       0.244
       0.221
       0.192
       0.163
       0.133
       0.096
       0.060
       0.032
       0.013
      -0.009
      -0.047
      -0.105
      -0.176
      -0.248
      -0.314
      -0.369
      -0.407
      -0.421
      -0.407
      -0.371
      -0.325
      -0.279
      -0.234
      -0.189
      -0.145
      -0.109
      -0.085
      -0.072
      -0.064
      -0.060
      -0.060
      -0.059
      -0.050
      -0.029
       0.000
       0.029
       0.055
       0.084
       0.118
       0.146
       0.160
       0.161
       0.159
       0.162
       0.162
       0.143
       0.096
       0.031
      -0.034
      -0.085
      -0.121
      -0.143
      -0.145
      -0.125
      -0.085
      -0.041
      -0.005
       0.020
       0.041
       0.060
       0.076
       0.086
       0.091
       0.098
       0.105
       0.103
       0.083
       0.048
       0.013
      -0.014
      -0.035
      -0.059
      -0.087
      -0.107
      -0.111
      -0.102
      -0.093
      -0.093
      -0.105
      -0.121
      -0.137
      -0.153
      -0.168
      -0.178
      -0.175
      -0.151
      -0.107
      -0.047
       0.019
       0.085
       0.146
       0.203
       0.259
       0.311
       0.356
       0.385
       0.399
       0.407
       0.416
       0.428
       0.434
       0.429
       0.421
       0.423
       0.440
       0.461
       0.473
       0.470
       0.462
       0.451
       0.431
       0.382
       0.296
       0.173
       0.026
      -0.135
      -0.300
      -0.459
      -0.600
      -0.716
      -0.805
      -0.869
      -0.909
      -0.922
      -0.908
      -0.864
      -0.794
      -0.702
      -0.591
      -0.468
      -0.341
      -0.219
      -0.106
      -0.002
       0.097
       0.196
       0.290
       0.369
       0.423
       0.448
       0.449
       0.434
       0.412
       0.386
       0.362
       0.345
       0.338
       0.338
       0.338
       0.331
       0.315
       0.292
       0.263
       0.226
       0.178
       0.120
       0.059
       0.000
      -0.057
      -0.122
      -0.199
      -0.290
      -0.390
      -0.493
      -0.595
      -0.697
      -0.804
      -0.920
      -1.046
      -1.177
      -1.296
      -1.385
      -1.432
      -1.431
      -1.384
      -1.295
      -1.167
      -1.004
      -0.812
      -0.597
      -0.364
      -0.119
       0.133
       0.380
       0.611
       0.817
       0.995
       1.146
       1.268
       1.356
       1.406
       1.417
       1.395
       1.346
       1.272
       1.178
       1.074
       0.971
       0.879
       0.803
       0.737
       0.670
       0.594
       0.508
       0.413
       0.312
       0.207
       0.100
      -0.002
      -0.092
      -0.166
      -0.224
      -0.269
      -0.302
      -0.325
      -0.345
      -0.372
      -0.412
      -0.467
      -0.532
      -0.601
      -0.669
      -0.728
      -0.771
      -0.789
      -0.786
      -0.771
      -0.752
      -0.725
      -0.685
      -0.626
      -0.553
      -0.474
      -0.390
      -0.294
      -0.180
      -0.050
       0.087
       0.221
       0.352
       0.483
       0.614
       0.738
       0.846
       0.932
       0.999
       1.049
       1.086
       1.111
       1.119
       1.098
       1.036
       0.924
       0.767
       0.586
       0.401
       0.219
       0.037
      -0.148
      -0.328
      -0.487
      -0.621
      -0.740
      -0.858
      -0.982
      -1.104
      -1.214
      -1.306
      -1.376
      -1.415
      -1.412
      -1.360
      -1.261
      -1.127
      -0.964
      -0.776
      -0.571
      -0.361
      -0.158
       0.036
       0.222
       0.406
       0.586
       0.758
       0.920
       1.071
       1.204
       1.309
       1.372
       1.391
       1.377
       1.341
       1.291
       1.226
       1.141
       1.039
       0.929
       0.820
       0.719
       0.629
       0.554
       0.498
       0.459
       0.431
       0.402
       0.365
       0.310
       0.231
       0.126
       0.001
      -0.133
      -0.264
      -0.386
      -0.494
      -0.582
      -0.640
      -0.669
      -0.677
      -0.683
      -0.695
      -0.712
      -0.723
      -0.719
      -0.698
      -0.660
      -0.607
      -0.543
      -0.477
      -0.417
      -0.371
      -0.339
      -0.316
      -0.294
      -0.270
      -0.247
      -0.228
      -0.221
      -0.233
      -0.265
      -0.314
      -0.372
      -0.431
      -0.490
      -0.551
      -0.618
      -0.688
      -0.757
      -0.819
      -0.868
      -0.897
      -0.899
      -0.865
      -0.796
      -0.695
      -0.573
      -0.437
      -0.289
      -0.130
       0.032
       0.192
       0.345
       0.489
       0.621
       0.737
       0.835
       0.919
       1.001
       1.090
       1.185
       1.269
       1.328
       1.356
       1.354
       1.328
       1.280
       1.211
       1.119
       1.000
       0.850
       0.667
       0.458
       0.239
       0.028
      -0.168
      -0.349
      -0.520
      -0.678
      -0.817
      -0.930
      -1.015
      -1.069
      -1.082
      -1.046
      -0.963
      -0.839
      -0.685
      -0.505
      -0.300
      -0.078
       0.147
       0.359
       0.554
       0.735
       0.904
       1.054
       1.179
       1.278
       1.355
       1.408
       1.426
       1.395
       1.304
       1.153
       0.949
       0.701
       0.425
       0.138
      -0.143
      -0.409
      -0.655
      -0.876
      -1.059
      -1.192
      -1.273
      -1.313
      -1.321
      -1.300
      -1.244
      -1.151
      -1.026
      -0.882
      -0.732
      -0.590
      -0.463
      -0.354
      -0.257
      -0.164
      -0.070
       0.029
       0.131
       0.234
       0.337
       0.435
       0.521
       0.588
       0.638
       0.684
       0.734
       0.788
       0.832
       0.856
       0.856
       0.836
       0.799
       0.744
       0.673
       0.587
       0.492
       0.387
       0.272
       0.145
       0.011
      -0.125
      -0.260
      -0.396
      -0.539
      -0.687
      -0.833
      -0.970
      -1.096
      -1.209
      -1.305
      -1.371
      -1.399
      -1.386
      -1.340
      -1.274
      -1.193
      -1.101
      -1.000
      -0.890
      -0.775
      -0.653
      -0.521
      -0.382
      -0.246
      -0.123
      -0.013
       0.094
       0.207
       0.330
       0.453
       0.570
       0.680
       0.785
       0.884
       0.966
       1.015
       1.026
       1.002
       0.958
       0.909
       0.857
       0.794
       0.706
       0.591
       0.459
       0.325
       0.194
       0.064
      -0.070
      -0.202
      -0.324
      -0.429
      -0.518
      -0.594
      -0.657
      -0.702
      -0.721
      -0.710
      -0.668
      -0.599
      -0.510
      -0.404
      -0.287
      -0.157
      -0.013
       0.142
       0.303
       0.461
       0.612
       0.758
       0.902
       1.032
       1.129
       1.171
       1.153
       1.084
       0.981
       0.855
       0.711
       0.552
       0.381
       0.201
       0.010
      -0.190
      -0.391
      -0.577
      -0.728
      -0.830
      -0.879
      -0.886
      -0.876
      -0.875
      -0.896
      -0.934
      -0.968
      -0.983
      -0.976
      -0.956
      -0.928
      -0.889
      -0.832
      -0.761
      -0.681
      -0.592
      -0.487
      -0.365
      -0.242
      -0.138
      -0.062
       0.003
       0.078
       0.171
       0.268
       0.355
       0.430
       0.497
       0.548
       0.559
       0.515
       0.428
       0.328
       0.231
       0.131
       0.017
      -0.098
      -0.183
      -0.226
      -0.243
      -0.259
      -0.278
      -0.284
      -0.269
      -0.253
      -0.265
      -0.308
      -0.352
      -0.365
      -0.336
      -0.278
      -0.198
      -0.088
       0.056
       0.220
       0.381
       0.530
       0.678
       0.838
       0.998
       1.139
       1.247
       1.319
       1.348
       1.318
       1.217
       1.067
       0.912
       0.791
       0.699
       0.609
       0.509
       0.420
       0.368
       0.356
       0.355
       0.344
       0.332
       0.342
       0.376
       0.414
       0.431
       0.428
       0.414
       0.391
       0.338
       0.237
       0.097
      -0.051
      -0.184
      -0.305
      -0.425
      -0.541
      -0.638
      -0.711
      -0.776
      -0.853
      -0.939
      -1.009
      -1.043
      -1.047
      -1.040
      -1.022
      -0.970
      -0.869
      -0.731
      -0.592
      -0.471
      -0.362
      -0.250
      -0.136
      -0.034
       0.048
       0.120
       0.196
       0.271
       0.324
       0.346
       0.346
       0.341
       0.332
       0.302
       0.242
       0.160
       0.072
      -0.020
      -0.140
      -0.301
      -0.490
      -0.667
      -0.799
      -0.882
      -0.925
      -0.936
      -0.913
      -0.860
      -0.791
      -0.722
      -0.649
      -0.552
      -0.416
      -0.247
      -0.059
       0.140
       0.349
       0.559
       0.748
       0.896
       1.001
       1.079
       1.139
       1.172
       1.167
       1.126
       1.074
       1.031
       0.996
       0.951
       0.887
       0.810
       0.727
       0.632
       0.513
       0.364
       0.199
       0.033
      -0.133
      -0.311
      -0.508
      -0.713
      -0.911
      -1.096
      -1.262
      -1.394
      -1.464
      -1.456
      -1.384
      -1.281
      -1.168
      -1.047
      -0.909
      -0.757
      -0.605
      -0.456
      -0.299
      -0.134
       0.016
       0.107
       0.114
       0.047
      -0.064
      -0.204
      -0.377
      -0.589
      -0.827
      -1.072
      -1.315
      -1.566
      -1.821
      -2.051
      -2.216
      -2.294
      -2.292
      -2.227
      -2.102
      -1.907
      -1.641
      -1.317
      -0.945
      -0.524
      -0.047
       0.472
       0.990
       1.468
       1.888
       2.261
       2.593
       2.871
       3.081
       3.227
       3.329
       3.393
       3.403
       3.339
       3.205
       3.033
       2.850
       2.661
       2.456
       2.240
       2.038
       1.871
       1.730
       1.591
       1.438
       1.277
       1.118
       0.958
       0.783
       0.586
       0.382
       0.185
      -0.001
      -0.180
      -0.350
      -0.494
      -0.597
      -0.670
      -0.733
      -0.794
      -0.837
      -0.845
      -0.822
      -0.796
      -0.781
      -0.764
      -0.717
      -0.631
      -0.527
      -0.429
      -0.342
      -0.253
      -0.159
      -0.071
      -0.004
       0.039
       0.070
       0.085
       0.062
      -0.022
      -0.164
      -0.335
      -0.504
      -0.661
      -0.814
      -0.965
      -1.107
      -1.231
      -1.344
      -1.450
      -1.543
      -1.594
      -1.576
      -1.476
      -1.302
      -1.062
      -0.762
      -0.414
      -0.046
       0.307
       0.621
       0.891
       1.114
       1.281
       1.376
       1.395
       1.353
       1.270
       1.153
       1.001
       0.820
       0.629
       0.448
       0.275
       0.092
      -0.106
      -0.295
      -0.443
      -0.536
      -0.593
      -0.644
      -0.702
      -0.764
      -0.823
      -0.885
      -0.950
      -1.009
      -1.053
      -1.087
      -1.131
      -1.198
      -1.280
      -1.352
      -1.401
      -1.437
      -1.472
      -1.503
      -1.507
      -1.467
      -1.391
      -1.298
      -1.196
      -1.078
      -0.933
      -0.769
      -0.610
      -0.469
      -0.336
      -0.192
      -0.029
       0.146
       0.323
       0.503
       0.684
       0.852
       0.980
       1.054
       1.091
       1.117
       1.144
       1.152
       1.117
       1.036
       0.933
       0.831
       0.740
       0.662
       0.605
       0.593
       0.639
       0.730
       0.836
       0.933
       1.021
       1.109
       1.197
       1.269
       1.308
       1.313
       1.291
       1.242
       1.153
       1.015
       0.836
       0.636
       0.425
       0.204
      -0.029
      -0.260
      -0.464
      -0.622
      -0.733
      -0.805
      -0.848
      -0.874
      -0.896
      -0.930
      -0.982
      -1.040
      -1.083
      -1.096
      -1.070
      -1.002
      -0.890
      -0.737
      -0.560
      -0.382
      -0.215
      -0.057
       0.101
       0.255
       0.390
       0.491
       0.556
       0.598
       0.621
       0.624
       0.598
       0.550
       0.494
       0.441
       0.396
       0.361
       0.339
       0.337
       0.351
       0.371
       0.388
       0.407
       0.443
       0.507
       0.591
       0.677
       0.754
       0.820
       0.870
       0.891
       0.863
       0.773
       0.630
       0.451
       0.247
       0.022
      -0.219
      -0.462
      -0.691
      -0.896
      -1.075
      -1.228
      -1.353
      -1.443
      -1.493
      -1.506
      -1.480
      -1.412
      -1.292
      -1.118
      -0.897
      -0.645
      -0.372
      -0.088
       0.194
       0.454
       0.673
       0.848
       0.987
       1.102
       1.194
       1.250
       1.260
       1.219
       1.135
       1.016
       0.870
       0.701
       0.521
       0.339
       0.165
       0.007
      -0.127
      -0.221
      -0.267
      -0.269
      -0.245
      -0.215
      -0.190
      -0.168
      -0.149
      -0.139
      -0.143
      -0.166
      -0.205
      -0.255
      -0.316
      -0.387
      -0.461
      -0.524
      -0.570
      -0.602
      -0.626
      -0.643
      -0.643
      -0.622
      -0.587
      -0.548
      -0.507
      -0.453
      -0.372
      -0.269
      -0.161
      -0.068
       0.003
       0.053
       0.081
       0.079
       0.038
      -0.044
      -0.159
      -0.296
      -0.440
      -0.568
      -0.655
      -0.683
      -0.652
      -0.578
      -0.480
      -0.368
      -0.239
      -0.091
       0.070
       0.237
       0.407
       0.581
       0.751
       0.898
       1.001
       1.044
       1.023
       0.944
       0.816
       0.655
       0.480
       0.311
       0.166
       0.057
      -0.009
      -0.025
       0.010
       0.092
       0.211
       0.363
       0.550
       0.774
       1.019
       1.256
       1.457
       1.610
       1.715
       1.775
       1.783
       1.735
       1.630
       1.470
       1.252
       0.975
       0.646
       0.296
      -0.038
      -0.336
      -0.601
      -0.845
      -1.073
      -1.272
      -1.430
      -1.553
      -1.662
      -1.767
      -1.863
      -1.937
      -1.990
      -2.032
      -2.072
      -2.102
      -2.099
      -2.050
      -1.956
      -1.829
      -1.673
      -1.494
      -1.306
      -1.137
      -1.000
      -0.889
      -0.784
      -0.672
      -0.560
      -0.461
      -0.379
      -0.300
      -0.216
      -0.131
      -0.058
      -0.005
       0.036
       0.073
       0.110
       0.142
       0.173
       0.212
       0.268
       0.338
       0.414
       0.495
       0.584
       0.680
       0.769
       0.838
       0.894
       0.961
       1.064
       1.202
       1.350
       1.475
       1.560
       1.608
       1.633
       1.642
       1.637
       1.612
       1.562
       1.484
       1.372
       1.226
       1.048
       0.837
       0.594
       0.321
       0.029
      -0.265
      -0.549
      -0.819
      -1.079
      -1.325
      -1.543
      -1.714
      -1.826
      -1.883
      -1.891
      -1.853
      -1.774
      -1.655
      -1.504
      -1.330
      -1.147
      -0.973
      -0.830
      -0.735
      -0.690
      -0.685
      -0.702
      -0.726
      -0.741
      -0.732
      -0.682
      -0.583
      -0.436
      -0.248
      -0.024
       0.238
       0.534
       0.850
       1.163
       1.452
       1.708
       1.935
       2.135
