Origin Time       22/7/2007 23:02:12 
Lat.              31.2 N 
Long.             78.2 E 
Depth (Km)         33.0
Magnitude         5.0
 Region           UTTARKASHI-UTTARANCHAL                                           
 Above details taken from IMD 
     
Station Code      Roo
Station Lat.       29.866  N
Station Long.      77.901  E
Station Height(m)  262.0
Site Class        C   Vs30 between 200 m/sec to 375 m/sec *  
Record Time       22.07.2007 23:02:30.884
Sampling Rate     200. Hz
 Record Duration   63.580 Sec.
 Direction         E-W (E positive)
Max. Acceleration      3.568 cm/sec**2
     
  * For reference see Site Classification link of website 
     
 Base Line Corrected and Low Pass Filtered (Cut Off at 35 Hz) Time History
 Acceleration data in cm/sec**2
    
[...]
       0.050
       0.062
       0.080
       0.114
       0.169
       0.240
       0.311
       0.370
       0.409
       0.430
       0.436
       0.427
       0.398
       0.344
       0.264
       0.164
       0.054
      -0.056
      -0.160
      -0.257
      -0.346
      -0.424
      -0.485
      -0.527
      -0.547
      -0.541
      -0.510
      -0.453
      -0.373
      -0.279
      -0.180
      -0.080
       0.018
       0.116
       0.210
       0.296
       0.366
       0.417
       0.448
       0.459
       0.451
       0.422
       0.371
       0.302
       0.221
       0.135
       0.050
      -0.031
      -0.108
      -0.181
      -0.249
      -0.311
      -0.360
      -0.392
      -0.406
      -0.411
      -0.415
      -0.420
      -0.416
      -0.396
      -0.352
      -0.287
      -0.208
      -0.126
      -0.046
       0.028
       0.096
       0.159
       0.211
       0.246
       0.260
       0.254
       0.235
       0.211
       0.186
       0.160
       0.133
       0.103
       0.072
       0.038
       0.000
      -0.038
      -0.071
      -0.093
      -0.102
      -0.102
      -0.097
      -0.092
      -0.090
      -0.090
      -0.087
      -0.074
      -0.049
      -0.009
       0.044
       0.100
       0.148
       0.180
       0.195
       0.196
       0.187
       0.171
       0.153
       0.133
       0.114
       0.091
       0.057
       0.006
      -0.062
      -0.139
      -0.218
      -0.295
      -0.367
      -0.433
      -0.484
      -0.507
      -0.497
      -0.456
      -0.395
      -0.326
      -0.253
      -0.175
      -0.092
      -0.005
       0.080
       0.158
       0.226
       0.283
       0.329
       0.359
       0.367
       0.350
       0.311
       0.258
       0.201
       0.150
       0.110
       0.077
       0.045
       0.009
      -0.034
      -0.078
      -0.115
      -0.140
      -0.151
      -0.152
      -0.145
      -0.133
      -0.117
      -0.096
      -0.067
      -0.030
       0.016
       0.067
       0.120
       0.170
       0.210
       0.240
       0.263
       0.285
       0.309
       0.330
       0.338
       0.327
       0.296
       0.250
       0.196
       0.141
       0.088
       0.043
       0.005
      -0.023
      -0.043
      -0.056
      -0.064
      -0.068
      -0.070
      -0.074
      -0.078
      -0.078
      -0.068
      -0.047
      -0.021
       0.003
       0.024
       0.048
       0.077
       0.108
       0.131
       0.136
       0.121
       0.091
       0.059
       0.029
       0.001
      -0.032
      -0.072
      -0.114
      -0.149
      -0.170
      -0.176
      -0.174
      -0.171
      -0.173
      -0.184
      -0.202
      -0.226
      -0.250
      -0.269
      -0.282
      -0.289
      -0.289
      -0.277
      -0.244
      -0.186
      -0.109
      -0.023
       0.053
       0.110
       0.146
       0.168
       0.184
       0.198
       0.208
       0.214
       0.215
       0.211
       0.201
       0.186
       0.167
       0.147
       0.121
       0.090
       0.057
       0.030
       0.017
       0.021
       0.036
       0.054
       0.068
       0.079
       0.089
       0.098
       0.106
       0.108
       0.103
       0.090
       0.076
       0.070
       0.080
       0.104
       0.132
       0.152
       0.160
       0.160
       0.161
       0.168
       0.175
       0.172
       0.149
       0.107
       0.054
       0.001
      -0.043
      -0.075
      -0.097
      -0.113
      -0.126
      -0.136
      -0.145
      -0.151
      -0.156
      -0.167
      -0.191
      -0.237
      -0.304
      -0.381
      -0.455
      -0.512
      -0.545
      -0.554
      -0.544
      -0.515
      -0.468
      -0.402
      -0.317
      -0.216
      -0.103
       0.018
       0.141
       0.259
       0.365
       0.451
       0.509
       0.534
       0.526
       0.495
       0.453
       0.409
       0.367
       0.324
       0.279
       0.231
       0.178
       0.118
       0.052
      -0.013
      -0.072
      -0.124
      -0.170
      -0.212
      -0.247
      -0.267
      -0.267
      -0.249
      -0.219
      -0.184
      -0.148
      -0.111
      -0.074
      -0.039
      -0.008
       0.023
       0.054
       0.084
       0.107
       0.116
       0.109
       0.090
       0.064
       0.032
      -0.002
      -0.034
      -0.054
      -0.054
      -0.029
       0.015
       0.068
       0.118
       0.154
       0.171
       0.170
       0.155
       0.134
       0.117
       0.108
       0.106
       0.106
       0.100
       0.084
       0.054
       0.012
      -0.036
      -0.083
      -0.122
      -0.149
      -0.165
      -0.180
      -0.203
      -0.237
      -0.279
      -0.316
      -0.340
      -0.345
      -0.333
      -0.303
      -0.253
      -0.180
      -0.084
       0.025
       0.132
       0.216
       0.261
       0.264
       0.234
       0.185
       0.129
       0.073
       0.021
      -0.022
      -0.052
      -0.064
      -0.059
      -0.038
      -0.008
       0.021
       0.045
       0.065
       0.081
       0.092
       0.094
       0.082
       0.054
       0.013
      -0.033
      -0.076
      -0.108
      -0.129
      -0.143
      -0.156
      -0.171
      -0.186
      -0.198
      -0.208
      -0.221
      -0.240
      -0.265
      -0.285
      -0.292
      -0.281
      -0.257
      -0.229
      -0.200
      -0.168
      -0.128
      -0.080
      -0.030
       0.015
       0.055
       0.093
       0.131
       0.167
       0.198
       0.222
       0.242
       0.264
       0.294
       0.335
       0.380
       0.426
       0.467
       0.504
       0.535
       0.555
       0.554
       0.524
       0.462
       0.367
       0.245
       0.108
      -0.035
      -0.175
      -0.307
      -0.430
      -0.535
      -0.613
      -0.653
      -0.651
      -0.614
      -0.553
      -0.477
      -0.394
      -0.307
      -0.221
      -0.141
      -0.073
      -0.020
       0.018
       0.044
       0.063
       0.077
       0.092
       0.110
       0.132
       0.160
       0.190
       0.222
       0.250
       0.271
       0.285
       0.293
       0.300
       0.311
       0.328
       0.354
       0.386
       0.416
       0.431
       0.420
       0.380
       0.317
       0.241
       0.158
       0.072
      -0.014
      -0.098
      -0.177
      -0.249
      -0.308
      -0.352
      -0.377
      -0.385
      -0.379
      -0.364
      -0.341
      -0.312
      -0.276
      -0.236
      -0.195
      -0.152
      -0.111
      -0.072
      -0.037
      -0.007
       0.018
       0.041
       0.065
       0.092
       0.120
       0.137
       0.135
       0.109
       0.063
       0.005
      -0.056
      -0.115
      -0.172
      -0.226
      -0.275
      -0.313
      -0.330
      -0.322
      -0.289
      -0.238
      -0.178
      -0.115
      -0.048
       0.022
       0.091
       0.153
       0.204
       0.245
       0.278
       0.307
       0.329
       0.338
       0.331
       0.308
       0.276
       0.246
       0.220
       0.198
       0.178
       0.154
       0.124
       0.089
       0.052
       0.014
      -0.025
      -0.068
      -0.119
      -0.178
      -0.242
      -0.306
      -0.362
      -0.405
      -0.434
      -0.452
      -0.461
      -0.467
      -0.472
      -0.478
      -0.480
      -0.471
      -0.442
      -0.391
      -0.320
      -0.235
      -0.139
      -0.036
       0.074
       0.188
       0.301
       0.403
       0.487
       0.545
       0.575
       0.571
       0.539
       0.482
       0.410
       0.325
       0.230
       0.130
       0.033
      -0.051
      -0.116
      -0.163
      -0.201
      -0.238
      -0.276
      -0.304
      -0.313
      -0.293
      -0.245
      -0.171
      -0.076
       0.037
       0.164
       0.297
       0.427
       0.546
       0.646
       0.725
       0.780
       0.810
       0.818
       0.802
       0.757
       0.680
       0.572
       0.448
       0.322
       0.201
       0.082
      -0.041
      -0.169
      -0.294
      -0.406
      -0.497
      -0.565
      -0.612
      -0.637
      -0.634
      -0.598
      -0.530
      -0.438
      -0.334
      -0.222
      -0.105
       0.015
       0.133
       0.240
       0.330
       0.399
       0.445
       0.463
       0.456
       0.432
       0.400
       0.371
       0.347
       0.325
       0.308
       0.302
       0.310
       0.333
       0.364
       0.392
       0.410
       0.412
       0.399
       0.371
       0.334
       0.290
       0.244
       0.198
       0.148
       0.091
       0.027
      -0.035
      -0.089
      -0.130
      -0.162
      -0.189
      -0.212
      -0.229
      -0.239
      -0.241
      -0.240
      -0.246
      -0.265
      -0.299
      -0.342
      -0.386
      -0.424
      -0.450
      -0.461
      -0.458
      -0.445
      -0.430
      -0.416
      -0.403
      -0.387
      -0.363
      -0.328
      -0.281
      -0.222
      -0.151
      -0.074
       0.004
       0.080
       0.149
       0.210
       0.257
       0.289
       0.304
       0.311
       0.319
       0.333
       0.354
       0.371
       0.378
       0.374
       0.366
       0.358
       0.353
       0.344
       0.324
       0.286
       0.228
       0.147
       0.043
      -0.079
      -0.212
      -0.347
      -0.478
      -0.601
      -0.716
      -0.821
      -0.914
      -0.992
      -1.053
      -1.093
      -1.113
      -1.115
      -1.103
      -1.079
      -1.049
      -1.015
      -0.979
      -0.938
      -0.887
      -0.823
      -0.748
      -0.668
      -0.592
      -0.524
      -0.463
      -0.406
      -0.350
      -0.298
      -0.254
      -0.222
      -0.200
      -0.178
      -0.148
      -0.104
      -0.047
       0.014
       0.071
       0.117
       0.155
       0.191
       0.229
       0.267
       0.300
       0.324
       0.346
       0.377
       0.423
       0.477
       0.525
       0.559
       0.576
       0.585
       0.594
       0.610
       0.631
       0.652
       0.669
       0.685
       0.705
       0.736
       0.780
       0.836
       0.902
       0.981
       1.073
       1.174
       1.275
       1.363
       1.432
       1.479
       1.501
       1.495
       1.455
       1.379
       1.276
       1.152
       1.013
       0.857
       0.682
       0.494
       0.306
       0.133
      -0.019
      -0.150
      -0.264
      -0.359
      -0.427
      -0.461
      -0.461
      -0.434
      -0.391
      -0.338
      -0.277
      -0.208
      -0.132
      -0.052
       0.023
       0.086
       0.133
       0.165
       0.190
       0.217
       0.248
       0.275
       0.288
       0.278
       0.248
       0.208
       0.165
       0.122
       0.073
       0.011
      -0.065
      -0.146
      -0.223
      -0.291
      -0.356
      -0.425
      -0.505
      -0.601
      -0.713
      -0.837
      -0.968
      -1.097
      -1.214
      -1.310
      -1.384
      -1.437
      -1.473
      -1.493
      -1.497
      -1.488
      -1.471
      -1.450
      -1.428
      -1.404
      -1.376
      -1.337
      -1.278
      -1.192
      -1.071
      -0.914
      -0.723
      -0.504
      -0.264
      -0.010
       0.255
       0.525
       0.790
       1.036
       1.251
       1.429
       1.565
       1.655
       1.697
       1.689
       1.638
       1.551
       1.439
       1.309
       1.163
       1.002
       0.828
       0.642
       0.449
       0.254
       0.061
      -0.129
      -0.314
      -0.497
      -0.672
      -0.831
      -0.965
      -1.067
      -1.139
      -1.188
      -1.222
      -1.247
      -1.268
      -1.288
      -1.308
      -1.324
      -1.333
      -1.332
      -1.324
      -1.315
      -1.308
      -1.298
      -1.275
      -1.227
      -1.154
      -1.060
      -0.951
      -0.830
      -0.694
      -0.538
      -0.363
      -0.179
       0.003
       0.169
       0.313
       0.431
       0.522
       0.591
       0.643
       0.683
       0.715
       0.740
       0.760
       0.773
       0.780
       0.779
       0.775
       0.774
       0.778
       0.782
       0.779
       0.763
       0.735
       0.704
       0.677
       0.655
       0.637
       0.617
       0.594
       0.567
       0.540
       0.517
       0.500
       0.484
       0.464
       0.432
       0.382
       0.313
       0.228
       0.132
       0.033
      -0.061
      -0.143
      -0.210
      -0.260
      -0.290
      -0.299
      -0.289
      -0.265
      -0.234
      -0.198
      -0.154
      -0.102
      -0.043
       0.016
       0.071
       0.124
       0.185
       0.261
       0.354
       0.459
       0.572
       0.690
       0.807
       0.917
       1.009
       1.075
       1.110
       1.120
       1.114
       1.106
       1.100
       1.096
       1.089
       1.075
       1.053
       1.023
       0.985
       0.933
       0.860
       0.763
       0.641
       0.497
       0.335
       0.158
      -0.032
      -0.232
      -0.443
      -0.662
      -0.891
      -1.128
      -1.370
      -1.616
      -1.860
      -2.104
      -2.347
      -2.586
      -2.812
      -3.015
      -3.182
      -3.299
      -3.352
      -3.333
      -3.241
      -3.078
      -2.853
      -2.567
      -2.221
      -1.817
      -1.365
      -0.882
      -0.389
       0.099
       0.575
       1.036
       1.477
       1.890
       2.269
       2.608
       2.905
       3.159
       3.360
       3.499
       3.568
       3.563
       3.486
       3.335
       3.116
       2.837
       2.518
       2.178
       1.836
       1.498
       1.169
       0.849
       0.545
       0.265
       0.016
      -0.198
      -0.376
      -0.514
      -0.609
      -0.665
      -0.690
      -0.698
      -0.701
      -0.709
      -0.726
      -0.755
      -0.795
      -0.844
      -0.902
      -0.963
      -1.025
      -1.077
      -1.104
      -1.088
      -1.019
      -0.895
      -0.725
      -0.522
      -0.295
      -0.056
       0.186
       0.413
       0.608
       0.756
       0.846
       0.875
       0.846
       0.764
       0.640
       0.485
       0.308
       0.113
      -0.097
      -0.320
      -0.551
      -0.786
      -1.021
      -1.250
      -1.462
      -1.650
      -1.805
      -1.926
      -2.011
      -2.060
      -2.068
      -2.031
      -1.945
      -1.811
      -1.632
      -1.407
      -1.130
      -0.802
      -0.431
      -0.040
       0.347
       0.709
       1.028
       1.296
       1.502
       1.639
       1.707
       1.708
       1.649
       1.538
       1.386
       1.205
       1.010
       0.817
       0.637
       0.482
       0.359
       0.271
       0.213
       0.179
       0.167
       0.174
       0.199
       0.229
       0.252
       0.260
       0.251
       0.232
       0.210
       0.189
       0.172
       0.163
       0.167
       0.187
       0.225
       0.277
       0.335
       0.387
       0.423
       0.436
       0.425
       0.399
       0.364
       0.328
       0.296
       0.268
       0.244
       0.221
       0.191
       0.150
       0.091
       0.011
      -0.087
      -0.196
      -0.307
      -0.414
      -0.513
      -0.606
      -0.694
      -0.773
      -0.836
      -0.881
      -0.910
      -0.930
      -0.943
      -0.942
      -0.923
      -0.883
      -0.825
      -0.752
      -0.666
      -0.569
      -0.463
      -0.357
      -0.263
      -0.190
      -0.137
      -0.101
      -0.078
      -0.066
      -0.068
      -0.087
      -0.118
      -0.154
      -0.185
      -0.201
      -0.193
      -0.156
      -0.090
      -0.001
       0.105
       0.223
       0.347
       0.463
       0.558
       0.620
       0.650
       0.653
       0.638
       0.602
       0.544
       0.462
       0.365
       0.267
       0.179
       0.106
       0.048
       0.007
      -0.015
      -0.019
      -0.011
      -0.003
      -0.007
      -0.026
      -0.057
      -0.094
      -0.132
      -0.163
      -0.175
      -0.153
      -0.088
       0.022
       0.167
       0.332
       0.502
       0.665
       0.814
       0.940
       1.033
       1.086
       1.097
       1.067
       0.993
       0.876
       0.716
       0.521
       0.302
       0.076
      -0.146
      -0.350
      -0.526
      -0.662
      -0.753
      -0.798
      -0.801
      -0.767
      -0.701
      -0.611
      -0.506
      -0.393
      -0.273
      -0.148
      -0.024
       0.091
       0.187
       0.257
       0.301
       0.320
       0.311
       0.273
       0.206
       0.115
       0.008
      -0.109
      -0.232
      -0.364
      -0.498
      -0.625
      -0.729
      -0.797
      -0.823
      -0.806
      -0.750
      -0.656
      -0.527
      -0.364
      -0.173
       0.032
       0.232
       0.404
       0.530
       0.601
       0.616
       0.577
       0.485
       0.347
       0.177
      -0.005
      -0.179
      -0.332
      -0.457
      -0.555
      -0.628
      -0.676
      -0.697
      -0.701
      -0.703
      -0.715
      -0.743
      -0.778
      -0.810
      -0.826
      -0.819
      -0.787
      -0.730
      -0.650
      -0.551
      -0.436
      -0.309
      -0.176
      -0.044
       0.083
       0.201
       0.311
       0.414
       0.509
       0.594
       0.667
       0.730
       0.789
       0.851
       0.917
       0.982
       1.043
       1.095
       1.136
       1.168
       1.190
       1.199
       1.186
       1.142
       1.065
       0.956
       0.823
       0.676
       0.522
       0.367
       0.215
       0.067
      -0.074
      -0.209
      -0.333
      -0.443
      -0.537
      -0.616
      -0.685
      -0.744
      -0.791
      -0.822
      -0.840
      -0.850
      -0.859
      -0.870
      -0.877
      -0.862
      -0.809
      -0.716
      -0.591
      -0.449
      -0.297
      -0.133
       0.047
       0.245
       0.452
       0.654
       0.839
       0.999
       1.129
       1.223
       1.274
       1.275
       1.227
       1.133
       1.004
       0.847
       0.666
       0.468
       0.259
       0.049
      -0.151
      -0.332
      -0.491
      -0.631
      -0.760
      -0.884
      -1.003
      -1.113
      -1.205
      -1.272
      -1.304
      -1.291
      -1.226
      -1.107
      -0.941
      -0.746
      -0.543
      -0.348
      -0.167
       0.004
       0.167
       0.318
       0.446
       0.541
       0.604
       0.648
       0.685
       0.716
       0.733
       0.719
       0.665
       0.577
       0.468
       0.356
       0.248
       0.150
       0.067
       0.008
      -0.014
       0.003
       0.054
       0.123
       0.197
       0.267
       0.328
       0.375
       0.397
       0.384
       0.330
       0.232
       0.094
      -0.077
      -0.272
      -0.477
      -0.677
      -0.854
      -0.993
      -1.082
      -1.113
      -1.086
      -1.011
      -0.905
      -0.789
      -0.680
      -0.583
      -0.495
      -0.403
      -0.292
      -0.156
       0.003
       0.174
       0.350
       0.530
       0.716
       0.907
       1.088
       1.240
       1.346
       1.403
       1.417
       1.395
       1.333
       1.218
       1.036
       0.789
       0.489
       0.163
      -0.164
      -0.469
      -0.732
      -0.942
