Origin Time       05/3/2012 07:41:05	
Lat.              28.7 N	
Long.             76.6 E	
Depth (Km)         14.0
Magnitude         4.9
 Region           Haryana-Delhi-Border-Region                                      
 Above details taken from IMD 
     
Station Code      ROO
Station Lat.       29.866  N
Station Long.      77.901  E
Station Height(m)  243.0
Site Class        C   Vs30 between 200 m/sec to 375 m/sec *  
Record Time       05.03.2012 07:41:26.919
Sampling Rate     200. Hz
 Record Duration  118.305 Sec.
 Direction         E-W (E positive)
Max. Acceleration     -1.649 cm/sec**2
     
  * For reference see Site Classification link of website 
     
 Base Line Corrected and Low Pass Filtered (Cut Off at 35 Hz) Time History
 Acceleration data in cm/sec**2
    
[...]
       0.132
       0.126
       0.113
       0.087
       0.047
      -0.004
      -0.065
      -0.132
      -0.204
      -0.277
      -0.345
      -0.401
      -0.442
      -0.467
      -0.475
      -0.466
      -0.440
      -0.398
      -0.344
      -0.282
      -0.216
      -0.150
      -0.088
      -0.035
       0.006
       0.035
       0.055
       0.071
       0.085
       0.097
       0.103
       0.099
       0.089
       0.075
       0.060
       0.044
       0.025
       0.000
      -0.028
      -0.057
      -0.081
      -0.098
      -0.109
      -0.120
      -0.135
      -0.156
      -0.181
      -0.206
      -0.226
      -0.239
      -0.249
      -0.257
      -0.263
      -0.262
      -0.247
      -0.219
      -0.178
      -0.128
      -0.073
      -0.014
       0.045
       0.098
       0.142
       0.167
       0.172
       0.155
       0.118
       0.069
       0.015
      -0.036
      -0.077
      -0.106
      -0.123
      -0.131
      -0.135
      -0.137
      -0.135
      -0.128
      -0.115
      -0.096
      -0.075
      -0.055
      -0.038
      -0.025
      -0.017
      -0.012
      -0.006
       0.005
       0.025
       0.057
       0.101
       0.153
       0.211
       0.269
       0.321
       0.362
       0.387
       0.395
       0.386
       0.359
       0.315
       0.258
       0.195
       0.133
       0.079
       0.036
       0.004
      -0.017
      -0.029
      -0.036
      -0.040
      -0.044
      -0.047
      -0.048
      -0.047
      -0.046
      -0.047
      -0.049
      -0.051
      -0.051
      -0.051
      -0.055
      -0.064
      -0.080
      -0.099
      -0.120
      -0.142
      -0.165
      -0.185
      -0.197
      -0.200
      -0.197
      -0.192
      -0.188
      -0.184
      -0.179
      -0.173
      -0.176
      -0.193
      -0.225
      -0.262
      -0.292
      -0.310
      -0.319
      -0.328
      -0.343
      -0.361
      -0.375
      -0.374
      -0.355
      -0.321
      -0.277
      -0.228
      -0.172
      -0.107
      -0.030
       0.056
       0.143
       0.224
       0.297
       0.360
       0.416
       0.464
       0.502
       0.529
       0.545
       0.555
       0.561
       0.561
       0.553
       0.531
       0.490
       0.430
       0.350
       0.255
       0.150
       0.042
      -0.058
      -0.140
      -0.199
      -0.238
      -0.258
      -0.260
      -0.244
      -0.211
      -0.170
      -0.127
      -0.091
      -0.063
      -0.042
      -0.026
      -0.010
       0.008
       0.030
       0.057
       0.093
       0.136
       0.186
       0.242
       0.300
       0.357
       0.412
       0.462
       0.506
       0.536
       0.547
       0.535
       0.501
       0.445
       0.369
       0.269
       0.147
       0.010
      -0.129
      -0.258
      -0.373
      -0.473
      -0.558
      -0.625
      -0.672
      -0.701
      -0.716
      -0.719
      -0.714
      -0.698
      -0.669
      -0.620
      -0.549
      -0.457
      -0.355
      -0.253
      -0.157
      -0.066
       0.026
       0.123
       0.222
       0.317
       0.401
       0.471
       0.528
       0.572
       0.603
       0.619
       0.619
       0.603
       0.569
       0.518
       0.451
       0.367
       0.265
       0.145
       0.012
      -0.125
      -0.257
      -0.376
      -0.473
      -0.545
      -0.589
      -0.607
      -0.599
      -0.570
      -0.525
      -0.469
      -0.411
      -0.357
      -0.309
      -0.260
      -0.201
      -0.126
      -0.039
       0.053
       0.143
       0.230
       0.316
       0.402
       0.483
       0.557
       0.622
       0.682
       0.741
       0.795
       0.836
       0.854
       0.843
       0.803
       0.739
       0.654
       0.551
       0.430
       0.294
       0.149
       0.007
      -0.124
      -0.237
      -0.332
      -0.411
      -0.474
      -0.524
      -0.558
      -0.578
      -0.588
      -0.590
      -0.584
      -0.568
      -0.539
      -0.495
      -0.441
      -0.382
      -0.322
      -0.265
      -0.210
      -0.158
      -0.109
      -0.059
      -0.005
       0.054
       0.118
       0.182
       0.244
       0.306
       0.366
       0.421
       0.462
       0.481
       0.476
       0.450
       0.409
       0.356
       0.293
       0.220
       0.139
       0.054
      -0.027
      -0.099
      -0.161
      -0.214
      -0.261
      -0.303
      -0.341
      -0.374
      -0.400
      -0.418
      -0.426
      -0.428
      -0.426
      -0.424
      -0.421
      -0.416
      -0.405
      -0.387
      -0.361
      -0.326
      -0.283
      -0.234
      -0.182
      -0.132
      -0.083
      -0.036
       0.014
       0.068
       0.126
       0.187
       0.248
       0.304
       0.353
       0.396
       0.436
       0.481
       0.529
       0.579
       0.621
       0.649
       0.655
       0.635
       0.583
       0.495
       0.367
       0.200
       0.003
      -0.210
      -0.420
      -0.612
      -0.775
      -0.902
      -0.990
      -1.040
      -1.053
      -1.029
      -0.965
      -0.859
      -0.714
      -0.540
      -0.353
      -0.163
       0.027
       0.215
       0.398
       0.567
       0.710
       0.816
       0.881
       0.904
       0.887
       0.833
       0.748
       0.635
       0.503
       0.357
       0.206
       0.060
      -0.074
      -0.193
      -0.300
      -0.396
      -0.481
      -0.552
      -0.602
      -0.630
      -0.634
      -0.614
      -0.575
      -0.523
      -0.460
      -0.391
      -0.319
      -0.249
      -0.189
      -0.139
      -0.095
      -0.050
       0.000
       0.049
       0.091
       0.123
       0.144
       0.157
       0.164
       0.169
       0.179
       0.198
       0.228
       0.264
       0.298
       0.325
       0.344
       0.354
       0.351
       0.334
       0.302
       0.256
       0.193
       0.112
       0.013
      -0.101
      -0.222
      -0.342
      -0.454
      -0.553
      -0.637
      -0.704
      -0.752
      -0.774
      -0.771
      -0.745
      -0.701
      -0.644
      -0.578
      -0.505
      -0.428
      -0.352
      -0.277
      -0.202
      -0.124
      -0.044
       0.037
       0.113
       0.187
       0.263
       0.347
       0.439
       0.531
       0.618
       0.699
       0.773
       0.837
       0.883
       0.900
       0.882
       0.829
       0.743
       0.627
       0.481
       0.306
       0.111
      -0.092
      -0.293
      -0.483
      -0.661
      -0.827
      -0.979
      -1.112
      -1.215
      -1.276
      -1.288
      -1.246
      -1.156
      -1.027
      -0.867
      -0.684
      -0.480
      -0.255
      -0.017
       0.222
       0.446
       0.641
       0.801
       0.928
       1.027
       1.096
       1.134
       1.136
       1.105
       1.046
       0.968
       0.879
       0.782
       0.679
       0.573
       0.470
       0.373
       0.284
       0.196
       0.108
       0.016
      -0.074
      -0.159
      -0.235
      -0.299
      -0.350
      -0.390
      -0.423
      -0.452
      -0.480
      -0.508
      -0.536
      -0.565
      -0.595
      -0.626
      -0.659
      -0.694
      -0.726
      -0.744
      -0.735
      -0.694
      -0.624
      -0.531
      -0.418
      -0.288
      -0.143
       0.011
       0.166
       0.315
       0.452
       0.574
       0.682
       0.778
       0.859
       0.919
       0.955
       0.966
       0.959
       0.941
       0.915
       0.880
       0.832
       0.771
       0.702
       0.629
       0.553
       0.470
       0.373
       0.260
       0.134
      -0.001
      -0.140
      -0.280
      -0.411
      -0.522
      -0.601
      -0.646
      -0.660
      -0.649
      -0.616
      -0.563
      -0.494
      -0.413
      -0.329
      -0.245
      -0.166
      -0.089
      -0.013
       0.061
       0.131
       0.193
       0.247
       0.292
       0.327
       0.349
       0.355
       0.344
       0.318
       0.283
       0.241
       0.197
       0.152
       0.108
       0.068
       0.035
       0.010
      -0.011
      -0.032
      -0.053
      -0.071
      -0.081
      -0.078
      -0.061
      -0.030
       0.011
       0.056
       0.097
       0.129
       0.149
       0.156
       0.154
       0.144
       0.130
       0.112
       0.089
       0.063
       0.032
      -0.006
      -0.051
      -0.101
      -0.152
      -0.199
      -0.244
      -0.292
      -0.346
      -0.405
      -0.466
      -0.521
      -0.565
      -0.599
      -0.622
      -0.634
      -0.632
      -0.609
      -0.564
      -0.501
      -0.425
      -0.340
      -0.249
      -0.150
      -0.043
       0.067
       0.176
       0.282
       0.379
       0.461
       0.521
       0.557
       0.570
       0.564
       0.540
       0.502
       0.451
       0.390
       0.325
       0.256
       0.184
       0.105
       0.022
      -0.062
      -0.142
      -0.212
      -0.272
      -0.321
      -0.354
      -0.367
      -0.359
      -0.335
      -0.303
      -0.272
      -0.246
      -0.228
      -0.216
      -0.208
      -0.202
      -0.198
      -0.195
      -0.193
      -0.188
      -0.179
      -0.164
      -0.143
      -0.122
      -0.103
      -0.092
      -0.095
      -0.112
      -0.138
      -0.162
      -0.179
      -0.189
      -0.195
      -0.196
      -0.184
      -0.152
      -0.099
      -0.034
       0.032
       0.090
       0.139
       0.178
       0.210
       0.234
       0.249
       0.259
       0.268
       0.277
       0.286
       0.289
       0.280
       0.259
       0.226
       0.186
       0.138
       0.079
       0.007
      -0.076
      -0.163
      -0.244
      -0.309
      -0.351
      -0.367
      -0.354
      -0.313
      -0.246
      -0.161
      -0.066
       0.033
       0.131
       0.229
       0.327
       0.420
       0.506
       0.582
       0.649
       0.709
       0.760
       0.800
       0.830
       0.856
       0.884
       0.918
       0.954
       0.982
       0.991
       0.974
       0.928
       0.851
       0.742
       0.599
       0.426
       0.230
       0.025
      -0.173
      -0.355
      -0.519
      -0.664
      -0.790
      -0.891
      -0.961
      -0.996
      -0.998
      -0.971
      -0.920
      -0.848
      -0.758
      -0.658
      -0.559
      -0.470
      -0.391
      -0.322
      -0.264
      -0.219
      -0.188
      -0.163
      -0.134
      -0.089
      -0.028
       0.046
       0.122
       0.194
       0.257
       0.308
       0.344
       0.360
       0.352
       0.316
       0.255
       0.176
       0.089
       0.002
      -0.080
      -0.154
      -0.217
      -0.263
      -0.288
      -0.290
      -0.269
      -0.228
      -0.169
      -0.098
      -0.027
       0.031
       0.065
       0.072
       0.057
       0.025
      -0.019
      -0.073
      -0.132
      -0.188
      -0.234
      -0.265
      -0.285
      -0.300
      -0.317
      -0.339
      -0.364
      -0.387
      -0.404
      -0.413
      -0.416
      -0.415
      -0.410
      -0.401
      -0.385
      -0.354
      -0.300
      -0.218
      -0.112
       0.013
       0.146
       0.280
       0.407
       0.517
       0.604
       0.662
       0.686
       0.678
       0.643
       0.588
       0.522
       0.453
       0.390
       0.342
       0.314
       0.305
       0.309
       0.316
       0.319
       0.314
       0.300
       0.276
       0.239
       0.189
       0.124
       0.045
      -0.047
      -0.145
      -0.243
      -0.332
      -0.409
      -0.477
      -0.538
      -0.590
      -0.625
      -0.629
      -0.597
      -0.534
      -0.454
      -0.370
      -0.293
      -0.224
      -0.167
      -0.124
      -0.098
      -0.083
      -0.071
      -0.053
      -0.025
       0.006
       0.036
       0.064
       0.096
       0.134
       0.179
       0.222
       0.257
       0.279
       0.289
       0.289
       0.279
       0.257
       0.218
       0.163
       0.096
       0.025
      -0.042
      -0.101
      -0.152
      -0.191
      -0.217
      -0.224
      -0.215
      -0.195
      -0.169
      -0.141
      -0.113
      -0.086
      -0.061
      -0.040
      -0.021
      -0.001
       0.023
       0.050
       0.079
       0.107
       0.134
       0.160
       0.184
       0.206
       0.224
       0.237
       0.243
       0.242
       0.237
       0.229
       0.218
       0.200
       0.172
       0.138
       0.104
       0.079
       0.070
       0.080
       0.108
       0.152
       0.209
       0.273
       0.335
       0.386
       0.418
       0.426
       0.408
       0.361
       0.285
       0.185
       0.069
      -0.051
      -0.167
      -0.276
      -0.378
      -0.473
      -0.559
      -0.633
      -0.695
      -0.749
      -0.795
      -0.832
      -0.857
      -0.868
      -0.869
      -0.862
      -0.846
      -0.820
      -0.778
      -0.719
      -0.641
      -0.544
      -0.429
      -0.304
      -0.177
      -0.055
       0.059
       0.167
       0.267
       0.353
       0.421
       0.474
       0.520
       0.566
       0.616
       0.669
       0.724
       0.785
       0.853
       0.927
       1.002
       1.072
       1.134
       1.189
       1.236
       1.270
       1.279
       1.251
       1.175
       1.049
       0.875
       0.660
       0.415
       0.147
      -0.133
      -0.416
      -0.690
      -0.943
      -1.165
      -1.351
      -1.495
      -1.593
      -1.645
      -1.649
      -1.608
      -1.527
      -1.416
      -1.287
      -1.153
      -1.019
      -0.884
      -0.749
      -0.614
      -0.482
      -0.353
      -0.223
      -0.093
       0.036
       0.155
       0.262
       0.355
       0.435
       0.503
       0.559
       0.603
       0.636
       0.662
       0.677
       0.683
       0.680
       0.670
       0.658
       0.648
       0.644
       0.641
       0.639
       0.633
       0.626
       0.616
       0.595
       0.554
       0.489
       0.403
       0.304
       0.200
       0.090
      -0.026
      -0.147
      -0.269
      -0.387
      -0.497
      -0.598
      -0.686
      -0.750
      -0.780
      -0.771
      -0.724
      -0.647
      -0.553
      -0.452
      -0.349
      -0.248
      -0.159
      -0.090
      -0.048
      -0.030
      -0.029
      -0.036
      -0.046
      -0.065
      -0.097
      -0.146
      -0.205
      -0.261
      -0.300
      -0.315
      -0.304
      -0.270
      -0.215
      -0.144
      -0.061
       0.029
       0.122
       0.214
       0.304
       0.390
       0.477
       0.570
       0.673
       0.781
       0.881
       0.957
       0.994
       0.987
       0.937
       0.854
       0.747
       0.624
       0.490
       0.343
       0.188
       0.030
      -0.123
      -0.268
      -0.403
      -0.524
      -0.628
      -0.708
      -0.760
      -0.785
      -0.787
      -0.768
      -0.732
      -0.679
      -0.608
      -0.517
      -0.410
      -0.295
      -0.183
      -0.085
      -0.010
       0.040
       0.065
       0.066
       0.046
       0.010
      -0.038
      -0.094
      -0.153
      -0.216
      -0.280
      -0.345
      -0.405
      -0.458
      -0.501
      -0.528
      -0.535
      -0.518
      -0.476
      -0.413
      -0.330
      -0.230
      -0.115
       0.011
       0.138
       0.259
       0.370
       0.472
       0.566
       0.649
       0.711
       0.745
       0.747
       0.719
       0.666
       0.594
       0.509
       0.417
       0.328
       0.246
       0.175
       0.114
       0.060
       0.013
      -0.031
      -0.071
      -0.105
      -0.134
      -0.159
      -0.181
      -0.201
      -0.217
      -0.226
      -0.228
      -0.220
      -0.203
      -0.177
      -0.146
      -0.113
      -0.083
      -0.061
      -0.052
      -0.059
      -0.081
      -0.112
      -0.144
      -0.175
      -0.206
      -0.242
      -0.283
      -0.330
      -0.379
      -0.423
      -0.456
      -0.469
      -0.455
      -0.413
      -0.341
      -0.245
      -0.131
      -0.006
       0.125
       0.256
       0.383
       0.503
       0.613
       0.711
       0.793
       0.857
       0.902
       0.926
       0.928
       0.908
       0.865
       0.796
       0.702
       0.582
       0.443
       0.297
       0.159
       0.039
      -0.063
      -0.150
      -0.226
      -0.290
      -0.339
      -0.371
      -0.388
      -0.395
      -0.397
      -0.395
      -0.388
      -0.376
      -0.357
      -0.336
      -0.317
      -0.309
      -0.319
      -0.345
      -0.382
      -0.420
      -0.453
      -0.476
      -0.488
      -0.488
      -0.475
      -0.450
      -0.414
      -0.367
      -0.306
      -0.232
      -0.153
      -0.076
      -0.012
       0.038
       0.075
       0.105
       0.134
       0.165
       0.197
       0.227
       0.252
       0.273
       0.293
       0.317
       0.343
       0.368
       0.385
       0.389
       0.378
       0.356
       0.329
       0.299
       0.265
       0.226
       0.183
       0.139
       0.100
       0.069
       0.051
       0.050
       0.069
       0.108
       0.162
       0.220
       0.273
       0.313
       0.338
       0.348
       0.345
       0.331
       0.307
       0.276
       0.238
       0.196
       0.151
       0.105
       0.058
       0.008
      -0.042
      -0.089
      -0.127
      -0.150
      -0.162
      -0.169
      -0.179
      -0.196
      -0.218
      -0.247
      -0.280
      -0.320
      -0.362
      -0.404
      -0.441
      -0.470
      -0.487
      -0.490
      -0.475
      -0.441
      -0.384
      -0.299
      -0.186
      -0.048
       0.105
       0.261
       0.410
       0.544
       0.659
       0.750
       0.811
       0.840
       0.835
       0.800
       0.740
       0.663
       0.579
       0.493
       0.411
       0.333
       0.260
       0.192
       0.126
       0.064
       0.009
      -0.036
      -0.068
      -0.091
      -0.111
      -0.132
      -0.152
      -0.167
      -0.177
      -0.186
      -0.201
      -0.224
      -0.248
      -0.262
      -0.260
      -0.248
      -0.234
      -0.224
      -0.219
      -0.217
      -0.217
      -0.224
      -0.244
      -0.277
      -0.323
      -0.376
      -0.429
      -0.475
      -0.507
      -0.517
      -0.502
      -0.461
      -0.399
      -0.322
      -0.241
      -0.162
      -0.093
      -0.037
       0.005
       0.033
       0.047
       0.045
       0.027
      -0.006
      -0.051
      -0.103
      -0.153
      -0.193
      -0.212
      -0.205
      -0.175
      -0.129
      -0.076
      -0.019
       0.043
       0.107
       0.166
       0.213
       0.242
       0.252
       0.244
       0.222
       0.189
       0.149
       0.103
       0.049
      -0.008
      -0.061
      -0.101
      -0.124
      -0.137
      -0.147
      -0.157
      -0.158
      -0.144
      -0.115
      -0.080
      -0.046
      -0.018
       0.008
       0.037
       0.068
       0.093
       0.105
       0.097
       0.072
       0.034
      -0.014
      -0.070
      -0.140
      -0.222
      -0.315
      -0.409
      -0.491
      -0.554
      -0.597
      -0.620
      -0.622
      -0.601
      -0.553
      -0.477
      -0.380
      -0.269
      -0.150
