Origin Time       18/01/2011 20:23:27 UTC
Lat.              28.9 N	
Long.             64.0 E	
Depth (Km)          5.0
Magnitude         7.4
 Region           Southwestern-Pakistan                                            
 Above details taken from IMD 
    
Station Code      Roo
Station Lat.       29.866  N
Station Long.      77.901  E
Station Height(m)  243.0
Site Class        C   Vs30 between 200 m/sec to 375 m/sec *  
Record Time       18.01.2011 20:27:54.384 UTC
Sampling Rate     200. Hz
 Record Duration  246.660 Sec.
 Direction         N-S (N positive)
Max. Acceleration     -1.403 cm/sec**2
     
  * For reference see Site Classification link of website 
     
 Base Line Corrected and Low Pass Filtered (Cut Off at 35 Hz) Time History
 Acceleration data in cm/sec**2
    
[...]
       0.186
       0.108
       0.028
      -0.055
      -0.141
      -0.230
      -0.320
      -0.412
      -0.502
      -0.592
      -0.678
      -0.756
      -0.818
      -0.861
      -0.885
      -0.896
      -0.899
      -0.894
      -0.879
      -0.853
      -0.815
      -0.770
      -0.722
      -0.675
      -0.632
      -0.591
      -0.551
      -0.510
      -0.467
      -0.421
      -0.374
      -0.330
      -0.294
      -0.269
      -0.254
      -0.246
      -0.239
      -0.231
      -0.223
      -0.221
      -0.229
      -0.249
      -0.276
      -0.304
      -0.334
      -0.366
      -0.406
      -0.452
      -0.503
      -0.553
      -0.598
      -0.635
      -0.665
      -0.690
      -0.711
      -0.726
      -0.729
      -0.715
      -0.684
      -0.644
      -0.603
      -0.564
      -0.524
      -0.477
      -0.421
      -0.359
      -0.296
      -0.231
      -0.167
      -0.103
      -0.043
       0.011
       0.058
       0.102
       0.143
       0.184
       0.220
       0.251
       0.277
       0.297
       0.311
       0.316
       0.310
       0.294
       0.272
       0.249
       0.227
       0.205
       0.180
       0.149
       0.111
       0.064
       0.008
      -0.054
      -0.116
      -0.177
      -0.234
      -0.289
      -0.343
      -0.400
      -0.458
      -0.514
      -0.560
      -0.595
      -0.620
      -0.638
      -0.654
      -0.664
      -0.665
      -0.652
      -0.623
      -0.580
      -0.528
      -0.471
      -0.413
      -0.353
      -0.290
      -0.222
      -0.150
      -0.076
      -0.002
       0.074
       0.148
       0.218
       0.279
       0.330
       0.372
       0.408
       0.438
       0.459
       0.472
       0.478
       0.479
       0.477
       0.469
       0.454
       0.433
       0.410
       0.387
       0.368
       0.352
       0.338
       0.324
       0.313
       0.305
       0.298
       0.287
       0.271
       0.250
       0.227
       0.203
       0.179
       0.153
       0.127
       0.105
       0.091
       0.083
       0.081
       0.081
       0.081
       0.083
       0.094
       0.115
       0.148
       0.186
       0.224
       0.258
       0.287
       0.311
       0.327
       0.333
       0.330
       0.318
       0.298
       0.270
       0.229
       0.175
       0.108
       0.035
      -0.039
      -0.112
      -0.184
      -0.258
      -0.335
      -0.412
      -0.483
      -0.541
      -0.588
      -0.624
      -0.654
      -0.680
      -0.702
      -0.719
      -0.730
      -0.737
      -0.743
      -0.744
      -0.734
      -0.708
      -0.665
      -0.611
      -0.553
      -0.493
      -0.428
      -0.356
      -0.275
      -0.189
      -0.103
      -0.017
       0.069
       0.156
       0.241
       0.320
       0.390
       0.454
       0.509
       0.554
       0.581
       0.590
       0.581
       0.563
       0.539
       0.510
       0.470
       0.416
       0.350
       0.280
       0.217
       0.166
       0.126
       0.092
       0.057
       0.022
      -0.005
      -0.021
      -0.022
      -0.016
      -0.009
      -0.007
      -0.008
      -0.010
      -0.008
      -0.003
       0.003
       0.007
       0.007
       0.001
      -0.012
      -0.031
      -0.054
      -0.083
      -0.116
      -0.150
      -0.181
      -0.205
      -0.226
      -0.249
      -0.275
      -0.301
      -0.323
      -0.341
      -0.359
      -0.378
      -0.396
      -0.410
      -0.415
      -0.410
      -0.395
      -0.376
      -0.358
      -0.343
      -0.328
      -0.311
      -0.291
      -0.269
      -0.248
      -0.228
      -0.211
      -0.195
      -0.183
      -0.171
      -0.157
      -0.141
      -0.122
      -0.102
      -0.082
      -0.062
      -0.041
      -0.020
       0.000
       0.018
       0.035
       0.051
       0.066
       0.084
       0.099
       0.107
       0.107
       0.104
       0.104
       0.110
       0.121
       0.130
       0.136
       0.141
       0.145
       0.149
       0.152
       0.155
       0.161
       0.167
       0.172
       0.172
       0.171
       0.171
       0.171
       0.167
       0.157
       0.141
       0.124
       0.108
       0.094
       0.081
       0.068
       0.054
       0.039
       0.024
       0.012
       0.001
      -0.010
      -0.024
      -0.040
      -0.051
      -0.052
      -0.044
      -0.031
      -0.022
      -0.019
      -0.021
      -0.024
      -0.023
      -0.017
      -0.010
      -0.004
      -0.002
      -0.004
      -0.009
      -0.015
      -0.024
      -0.034
      -0.046
      -0.057
      -0.066
      -0.069
      -0.066
      -0.055
      -0.037
      -0.015
       0.007
       0.026
       0.041
       0.052
       0.061
       0.072
       0.085
       0.096
       0.101
       0.100
       0.093
       0.084
       0.076
       0.066
       0.055
       0.047
       0.043
       0.043
       0.045
       0.044
       0.042
       0.044
       0.052
       0.066
       0.081
       0.096
       0.113
       0.136
       0.168
       0.210
       0.255
       0.296
       0.328
       0.352
       0.374
       0.400
       0.430
       0.460
       0.484
       0.501
       0.510
       0.512
       0.510
       0.502
       0.487
       0.462
       0.426
       0.383
       0.337
       0.291
       0.246
       0.202
       0.159
       0.119
       0.087
       0.066
       0.055
       0.053
       0.057
       0.065
       0.075
       0.084
       0.092
       0.100
       0.110
       0.120
       0.127
       0.129
       0.125
       0.119
       0.112
       0.108
       0.107
       0.108
       0.108
       0.108
       0.108
       0.107
       0.103
       0.095
       0.079
       0.058
       0.034
       0.007
      -0.022
      -0.053
      -0.086
      -0.116
      -0.141
      -0.156
      -0.157
      -0.141
      -0.111
      -0.069
      -0.021
       0.033
       0.095
       0.167
       0.249
       0.336
       0.424
       0.507
       0.582
       0.651
       0.711
       0.761
       0.800
       0.824
       0.834
       0.829
       0.810
       0.779
       0.735
       0.679
       0.608
       0.524
       0.427
       0.326
       0.226
       0.130
       0.040
      -0.044
      -0.122
      -0.191
      -0.250
      -0.300
      -0.341
      -0.374
      -0.395
      -0.403
      -0.396
      -0.377
      -0.348
      -0.314
      -0.278
      -0.242
      -0.206
      -0.174
      -0.148
      -0.128
      -0.114
      -0.102
      -0.087
      -0.070
      -0.052
      -0.037
      -0.026
      -0.018
      -0.012
      -0.004
       0.007
       0.022
       0.039
       0.058
       0.076
       0.091
       0.102
       0.108
       0.111
       0.111
       0.109
       0.104
       0.096
       0.084
       0.070
       0.056
       0.045
       0.037
       0.033
       0.033
       0.036
       0.043
       0.057
       0.078
       0.106
       0.138
       0.171
       0.204
       0.234
       0.260
       0.278
       0.290
       0.294
       0.293
       0.285
       0.268
       0.244
       0.212
       0.175
       0.133
       0.087
       0.039
      -0.008
      -0.054
      -0.101
      -0.146
      -0.186
      -0.217
      -0.239
      -0.257
      -0.275
      -0.296
      -0.317
      -0.332
      -0.336
      -0.328
      -0.313
      -0.291
      -0.265
      -0.236
      -0.208
      -0.184
      -0.166
      -0.153
      -0.141
      -0.127
      -0.108
      -0.087
      -0.066
      -0.045
      -0.023
      -0.001
       0.020
       0.038
       0.049
       0.054
       0.050
       0.035
       0.011
      -0.020
      -0.061
      -0.109
      -0.166
      -0.227
      -0.291
      -0.355
      -0.419
      -0.485
      -0.553
      -0.625
      -0.699
      -0.771
      -0.837
      -0.893
      -0.940
      -0.977
      -1.002
      -1.013
      -1.011
      -0.994
      -0.962
      -0.913
      -0.846
      -0.762
      -0.667
      -0.566
      -0.465
      -0.365
      -0.262
      -0.150
      -0.027
       0.100
       0.221
       0.328
       0.420
       0.501
       0.576
       0.641
       0.693
       0.730
       0.753
       0.764
       0.768
       0.765
       0.755
       0.737
       0.712
       0.682
       0.649
       0.613
       0.574
       0.528
       0.477
       0.422
       0.365
       0.308
       0.250
       0.189
       0.126
       0.064
       0.005
      -0.053
      -0.110
      -0.169
      -0.227
      -0.282
      -0.331
      -0.372
      -0.408
      -0.442
      -0.475
      -0.508
      -0.540
      -0.568
      -0.593
      -0.613
      -0.630
      -0.646
      -0.663
      -0.682
      -0.702
      -0.722
      -0.740
      -0.755
      -0.769
      -0.786
      -0.811
      -0.846
      -0.887
      -0.930
      -0.969
      -1.003
      -1.032
      -1.058
      -1.080
      -1.097
      -1.108
      -1.112
      -1.108
      -1.094
      -1.069
      -1.034
      -0.989
      -0.934
      -0.872
      -0.805
      -0.737
      -0.670
      -0.605
      -0.539
      -0.470
      -0.398
      -0.326
      -0.259
      -0.200
      -0.146
      -0.096
      -0.046
       0.006
       0.059
       0.108
       0.150
       0.183
       0.210
       0.234
       0.257
       0.280
       0.300
       0.312
       0.317
       0.318
       0.321
       0.325
       0.328
       0.327
       0.323
       0.317
       0.310
       0.300
       0.281
       0.253
       0.220
       0.186
       0.154
       0.121
       0.085
       0.047
       0.007
      -0.031
      -0.069
      -0.107
      -0.145
      -0.186
      -0.227
      -0.264
      -0.294
      -0.316
      -0.332
      -0.339
      -0.338
      -0.328
      -0.308
      -0.280
      -0.243
      -0.196
      -0.141
      -0.078
      -0.010
       0.063
       0.138
       0.213
       0.289
       0.365
       0.437
       0.502
       0.557
       0.601
       0.637
       0.666
       0.688
       0.697
       0.691
       0.670
       0.636
       0.593
       0.545
       0.495
       0.444
       0.397
       0.359
       0.333
       0.319
       0.314
       0.318
       0.332
       0.357
       0.391
       0.430
       0.469
       0.504
       0.535
       0.563
       0.590
       0.618
       0.646
       0.670
       0.688
       0.698
       0.700
       0.697
       0.695
       0.695
       0.696
       0.695
       0.693
       0.693
       0.701
       0.717
       0.739
       0.758
       0.771
       0.780
       0.791
       0.810
       0.839
       0.873
       0.905
       0.936
       0.972
       1.014
       1.059
       1.099
       1.126
       1.140
       1.144
       1.142
       1.136
       1.126
       1.108
       1.081
       1.045
       1.003
       0.958
       0.910
       0.856
       0.795
       0.728
       0.659
       0.594
       0.533
       0.471
       0.403
       0.332
       0.264
       0.207
       0.164
       0.133
       0.109
       0.088
       0.075
       0.076
       0.095
       0.132
       0.182
       0.239
       0.301
       0.365
       0.428
       0.488
       0.542
       0.593
       0.642
       0.692
       0.738
       0.774
       0.794
       0.799
       0.792
       0.777
       0.752
       0.714
       0.664
       0.606
       0.547
       0.489
       0.429
       0.364
       0.294
       0.224
       0.159
       0.100
       0.043
      -0.011
      -0.060
      -0.103
      -0.141
      -0.175
      -0.205
      -0.236
      -0.268
      -0.305
      -0.350
      -0.400
      -0.450
      -0.495
      -0.534
      -0.571
      -0.607
      -0.640
      -0.666
      -0.682
      -0.691
      -0.695
      -0.695
      -0.690
      -0.680
      -0.665
      -0.647
      -0.627
      -0.605
      -0.582
      -0.559
      -0.537
      -0.516
      -0.496
      -0.475
      -0.452
      -0.426
      -0.397
      -0.366
      -0.333
      -0.305
      -0.282
      -0.265
      -0.249
      -0.231
      -0.210
      -0.191
      -0.178
      -0.169
      -0.158
      -0.140
      -0.120
      -0.105
      -0.100
      -0.107
      -0.123
      -0.143
      -0.168
      -0.203
      -0.249
      -0.307
      -0.372
      -0.441
      -0.508
      -0.571
      -0.633
      -0.694
      -0.754
      -0.810
      -0.855
      -0.888
      -0.911
      -0.931
      -0.950
      -0.968
      -0.981
      -0.985
      -0.979
      -0.967
      -0.948
      -0.923
      -0.889
      -0.848
      -0.802
      -0.753
      -0.702
      -0.649
      -0.594
      -0.538
      -0.484
      -0.433
      -0.388
      -0.352
      -0.327
      -0.312
      -0.304
      -0.303
      -0.304
      -0.304
      -0.301
      -0.296
      -0.290
      -0.285
      -0.280
      -0.272
      -0.260
      -0.245
      -0.229
      -0.211
      -0.189
      -0.163
      -0.135
      -0.108
      -0.085
      -0.066
      -0.051
      -0.034
      -0.014
       0.011
       0.035
       0.053
       0.058
       0.049
       0.032
       0.019
       0.013
       0.011
       0.001
      -0.024
      -0.065
      -0.113
      -0.163
      -0.212
      -0.262
      -0.316
      -0.377
      -0.444
      -0.514
      -0.585
      -0.655
      -0.724
      -0.789
      -0.852
      -0.915
      -0.980
      -1.047
      -1.114
      -1.175
      -1.229
      -1.276
      -1.317
      -1.354
      -1.383
      -1.400
      -1.403
      -1.389
      -1.361
      -1.323
      -1.277
      -1.225
      -1.166
      -1.101
      -1.031
      -0.958
      -0.884
      -0.809
      -0.733
      -0.656
      -0.578
      -0.498
      -0.414
      -0.327
      -0.240
      -0.160
      -0.090
      -0.028
       0.031
       0.090
       0.148
       0.201
       0.245
       0.281
       0.312
       0.339
       0.362
       0.382
       0.400
       0.419
       0.436
       0.448
       0.452
       0.451
       0.448
       0.445
       0.441
       0.429
       0.404
       0.368
       0.324
       0.279
       0.236
       0.192
       0.143
       0.088
       0.028
      -0.034
      -0.096
      -0.155
      -0.209
      -0.255
      -0.294
      -0.326
      -0.351
      -0.369
      -0.381
      -0.387
      -0.388
      -0.386
      -0.381
      -0.371
      -0.354
      -0.328
      -0.294
      -0.254
      -0.211
      -0.164
      -0.112
      -0.057
      -0.001
       0.052
       0.103
       0.155
       0.211
       0.271
       0.331
       0.388
       0.437
       0.478
       0.512
       0.545
       0.579
       0.614
       0.646
       0.674
       0.697
       0.719
       0.738
       0.753
       0.764
       0.772
       0.779
       0.784
       0.787
       0.786
       0.784
       0.785
       0.789
       0.795
       0.797
       0.791
       0.776
       0.758
       0.743
       0.735
       0.732
       0.731
       0.730
       0.733
       0.741
       0.760
       0.788
       0.822
       0.858
       0.895
       0.936
       0.983
       1.033
       1.081
       1.121
       1.152
       1.175
       1.191
       1.199
       1.199
       1.187
       1.162
       1.121
       1.064
       0.995
       0.919
       0.840
       0.759
       0.674
       0.585
       0.495
       0.408
       0.324
       0.243
       0.163
       0.082
       0.001
      -0.078
      -0.153
      -0.221
      -0.277
      -0.322
      -0.355
      -0.378
      -0.392
      -0.398
      -0.397
      -0.390
      -0.382
      -0.375
      -0.370
      -0.366
      -0.361
      -0.352
      -0.338
      -0.317
      -0.287
      -0.252
      -0.217
      -0.186
      -0.159
      -0.132
      -0.100
      -0.062
      -0.023
       0.013
       0.047
       0.081
       0.118
       0.160
       0.203
       0.244
       0.282
       0.316
       0.349
       0.385
       0.426
       0.471
       0.518
       0.565
       0.613
       0.663
       0.718
       0.778
       0.842
       0.907
       0.974
       1.043
       1.114
       1.179
       1.233
       1.271
       1.294
       1.304
       1.301
       1.283
       1.248
       1.197
       1.130
       1.049
       0.955
       0.852
       0.738
       0.613
       0.476
       0.333
       0.190
       0.053
      -0.076
      -0.199
      -0.315
      -0.420
      -0.509
      -0.580
      -0.632
      -0.666
      -0.683
      -0.681
      -0.661
      -0.624
      -0.574
      -0.515
      -0.451
      -0.385
      -0.316
      -0.247
      -0.180
      -0.118
      -0.066
      -0.027
       0.000
       0.017
       0.027
       0.032
       0.032
       0.027
       0.018
       0.010
       0.007
       0.011
       0.026
       0.049
       0.078
       0.109
       0.141
       0.173
       0.209
       0.248
       0.289
       0.329
       0.365
       0.397
       0.424
       0.448
       0.468
       0.483
       0.494
       0.502
       0.507
       0.511
       0.510
       0.500
       0.478
       0.447
       0.412
       0.380
       0.353
       0.326
       0.300
       0.273
       0.252
       0.238
       0.229
       0.224
       0.219
       0.215
       0.213
       0.212
       0.210
       0.206
       0.199
       0.186
       0.166
       0.140
       0.109
       0.074
       0.037
      -0.001
      -0.038
      -0.073
      -0.104
      -0.134
      -0.162
      -0.190
      -0.218
      -0.248
      -0.278
      -0.305
      -0.328
      -0.346
      -0.363
      -0.383
      -0.405
      -0.424
      -0.437
      -0.444
      -0.449
      -0.456
      -0.467
      -0.478
      -0.488
      -0.498
      -0.512
      -0.532
      -0.558
      -0.585
      -0.611
      -0.638
      -0.664
      -0.689
      -0.710
      -0.726
      -0.735
      -0.736
      -0.727
      -0.709
      -0.686
      -0.665
      -0.649
      -0.637
      -0.624
      -0.604
      -0.576
      -0.545
      -0.514
      -0.484
      -0.452
      -0.419
      -0.385
      -0.352
      -0.319
      -0.286
      -0.253
      -0.221
      -0.189
      -0.160
      -0.134
      -0.110
      -0.089
      -0.071
      -0.053
      -0.038
      -0.027
      -0.022
      -0.024
      -0.028
      -0.033
      -0.037
      -0.043
      -0.053
      -0.067
      -0.082
      -0.098
      -0.116
      -0.141
      -0.171
      -0.202
      -0.229
      -0.250
      -0.275
      -0.312
      -0.364
      -0.427
      -0.496
      -0.567
      -0.641
      -0.724
      -0.817
      -0.915
      -1.011
      -1.096
      -1.167
      -1.229
      -1.284
      -1.332
      -1.367
      -1.385
      -1.384
      -1.365
      -1.333
      -1.291
      -1.239
      -1.177
      -1.109
      -1.036
      -0.960
      -0.881
      -0.802
      -0.725
      -0.653
      -0.584
      -0.517
      -0.452
      -0.394
      -0.348
      -0.318
      -0.300
      -0.286
      -0.271
      -0.252
      -0.235
      -0.226
      -0.225
      -0.228
      -0.231
      -0.229
      -0.221
      -0.210
      -0.200
      -0.193
      -0.192
      -0.193
      -0.193
      -0.190
      -0.186
      -0.184
      -0.184
      -0.183
      -0.176
      -0.161
      -0.139
      -0.113
      -0.087
      -0.060
