Origin Time       29/08/2013 10:13:21
Lat.              31.4 N	
Long.             76.1 E	
Depth (Km)         10.0
Magnitude         4.7
 Region           HIMACHAL-PUNJAB-(HOSHIARPUR)-BORDER                              
 Above details taken from IMD 
   
Station Code      ROO
Station Lat.       29.866
Station Long.      77.901
Station Height(m)  243.0
Site Class        C   Vs30 between 200 m/sec to 375 m/sec *  
Record Time       29.08.2013 10:13:35.449
Sampling Rate     200. Hz
 Record Duration  123.385 Sec.
 Direction         Vert. (Up positive)
Max. Acceleration     -0.549 cm/sec**2
     
  * For reference see Site Classification link of website 
     
 Base Line Corrected and Low Pass Filtered (Cut Off at 35 Hz) Time History
 Acceleration data in cm/sec**2
    
[...]
      -0.062
       0.015
       0.060
       0.096
       0.149
       0.226
       0.306
       0.350
       0.333
       0.265
       0.182
       0.120
       0.089
       0.072
       0.039
      -0.015
      -0.073
      -0.109
      -0.118
      -0.122
      -0.147
      -0.200
      -0.257
      -0.283
      -0.253
      -0.176
      -0.084
      -0.021
      -0.010
      -0.048
      -0.107
      -0.150
      -0.147
      -0.090
       0.000
       0.079
       0.105
       0.063
      -0.019
      -0.081
      -0.074
       0.007
       0.114
       0.177
       0.157
       0.071
      -0.019
      -0.052
      -0.019
       0.038
       0.061
       0.025
      -0.044
      -0.085
      -0.056
       0.031
       0.115
       0.133
       0.070
      -0.031
      -0.104
      -0.110
      -0.058
       0.009
       0.050
       0.059
       0.062
       0.087
       0.131
       0.164
       0.152
       0.097
       0.034
       0.001
       0.007
       0.022
       0.008
      -0.049
      -0.118
      -0.149
      -0.111
      -0.022
       0.061
       0.089
       0.051
      -0.013
      -0.055
      -0.054
      -0.033
      -0.031
      -0.066
      -0.118
      -0.142
      -0.106
      -0.016
       0.084
       0.148
       0.158
       0.133
       0.109
       0.103
       0.107
       0.102
       0.077
       0.043
       0.017
       0.007
       0.004
      -0.010
      -0.046
      -0.094
      -0.135
      -0.149
      -0.132
      -0.098
      -0.067
      -0.052
      -0.047
      -0.033
       0.003
       0.054
       0.098
       0.113
       0.095
       0.057
       0.023
       0.003
      -0.008
      -0.028
      -0.073
      -0.139
      -0.203
      -0.238
      -0.228
      -0.178
      -0.109
      -0.041
       0.013
       0.051
       0.078
       0.099
       0.121
       0.143
       0.160
       0.162
       0.145
       0.105
       0.047
      -0.020
      -0.080
      -0.119
      -0.131
      -0.121
      -0.100
      -0.076
      -0.044
       0.003
       0.068
       0.142
       0.210
       0.259
       0.279
       0.268
       0.231
       0.174
       0.107
       0.035
      -0.033
      -0.090
      -0.134
      -0.167
      -0.196
      -0.221
      -0.236
      -0.233
      -0.206
      -0.163
      -0.117
      -0.079
      -0.057
      -0.046
      -0.038
      -0.028
      -0.017
      -0.016
      -0.029
      -0.051
      -0.066
      -0.062
      -0.040
      -0.017
      -0.008
      -0.017
      -0.035
      -0.045
      -0.039
      -0.025
      -0.018
      -0.027
      -0.046
      -0.052
      -0.028
       0.018
       0.059
       0.063
       0.018
      -0.053
      -0.106
      -0.110
      -0.062
       0.006
       0.060
       0.084
       0.090
       0.104
       0.136
       0.174
       0.186
       0.148
       0.062
      -0.044
      -0.134
      -0.187
      -0.204
      -0.201
      -0.189
      -0.167
      -0.124
      -0.058
       0.020
       0.092
       0.145
       0.179
       0.202
       0.224
       0.242
       0.247
       0.233
       0.201
       0.165
       0.136
       0.117
       0.105
       0.084
       0.046
      -0.011
      -0.077
      -0.137
      -0.181
      -0.212
      -0.241
      -0.271
      -0.293
      -0.283
      -0.222
      -0.112
       0.019
       0.131
       0.196
       0.213
       0.206
       0.203
       0.211
       0.218
       0.204
       0.163
       0.111
       0.074
       0.065
       0.073
       0.066
       0.018
      -0.073
      -0.179
      -0.259
      -0.286
      -0.260
      -0.198
      -0.123
      -0.048
       0.024
       0.092
       0.145
       0.168
       0.145
       0.076
      -0.020
      -0.113
      -0.180
      -0.212
      -0.219
      -0.213
      -0.202
      -0.177
      -0.128
      -0.057
       0.017
       0.066
       0.075
       0.052
       0.019
      -0.002
      -0.006
      -0.004
      -0.004
      -0.003
       0.012
       0.051
       0.107
       0.159
       0.188
       0.186
       0.165
       0.144
       0.138
       0.141
       0.135
       0.105
       0.051
      -0.007
      -0.047
      -0.059
      -0.050
      -0.035
      -0.023
      -0.014
      -0.001
       0.019
       0.043
       0.057
       0.049
       0.020
      -0.018
      -0.048
      -0.064
      -0.072
      -0.082
      -0.096
      -0.104
      -0.094
      -0.062
      -0.020
       0.012
       0.024
       0.022
       0.019
       0.026
       0.042
       0.060
       0.071
       0.070
       0.055
       0.034
       0.018
       0.010
       0.006
      -0.002
      -0.018
      -0.038
      -0.056
      -0.067
      -0.075
      -0.084
      -0.100
      -0.124
      -0.153
      -0.179
      -0.196
      -0.202
      -0.200
      -0.188
      -0.167
      -0.140
      -0.112
      -0.086
      -0.060
      -0.032
      -0.003
       0.022
       0.034
       0.035
       0.028
       0.019
       0.011
      -0.002
      -0.023
      -0.050
      -0.072
      -0.075
      -0.047
       0.008
       0.071
       0.121
       0.140
       0.132
       0.115
       0.107
       0.114
       0.132
       0.153
       0.175
       0.202
       0.237
       0.278
       0.313
       0.328
       0.318
       0.286
       0.243
       0.192
       0.125
       0.036
      -0.068
      -0.163
      -0.228
      -0.255
      -0.256
      -0.254
      -0.261
      -0.270
      -0.259
      -0.212
      -0.136
      -0.059
      -0.006
       0.020
       0.038
       0.073
       0.126
       0.177
       0.196
       0.168
       0.105
       0.035
      -0.014
      -0.034
      -0.035
      -0.040
      -0.066
      -0.106
      -0.135
      -0.130
      -0.091
      -0.044
      -0.023
      -0.038
      -0.068
      -0.079
      -0.050
       0.012
       0.075
       0.114
       0.125
       0.126
       0.139
       0.166
       0.187
       0.181
       0.147
       0.110
       0.097
       0.116
       0.148
       0.161
       0.136
       0.080
       0.009
      -0.063
      -0.137
      -0.219
      -0.305
      -0.376
      -0.406
      -0.380
      -0.302
      -0.198
      -0.098
      -0.018
       0.040
       0.083
       0.110
       0.113
       0.082
       0.021
      -0.059
      -0.138
      -0.198
      -0.229
      -0.236
      -0.229
      -0.220
      -0.209
      -0.192
      -0.163
      -0.127
      -0.092
      -0.065
      -0.046
      -0.026
       0.008
       0.066
       0.147
       0.233
       0.299
       0.330
       0.330
       0.311
       0.284
       0.250
       0.204
       0.146
       0.085
       0.034
      -0.002
      -0.030
      -0.064
      -0.112
      -0.168
      -0.218
      -0.242
      -0.236
      -0.202
      -0.150
      -0.084
      -0.002
       0.095
       0.199
       0.284
       0.323
       0.303
       0.227
       0.115
      -0.012
      -0.132
      -0.236
      -0.318
      -0.371
      -0.383
      -0.347
      -0.263
      -0.151
      -0.039
       0.050
       0.111
       0.152
       0.184
       0.207
       0.212
       0.193
       0.155
       0.120
       0.108
       0.128
       0.169
       0.207
       0.221
       0.201
       0.152
       0.082
      -0.001
      -0.095
      -0.193
      -0.279
      -0.331
      -0.334
      -0.287
      -0.204
      -0.106
      -0.013
       0.063
       0.120
       0.156
       0.167
       0.149
       0.107
       0.059
       0.022
       0.005
       0.008
       0.025
       0.052
       0.088
       0.131
       0.173
       0.198
       0.190
       0.151
       0.096
       0.048
       0.014
      -0.015
      -0.054
      -0.113
      -0.184
      -0.250
      -0.287
      -0.286
      -0.255
      -0.212
      -0.176
      -0.154
      -0.141
      -0.128
      -0.109
      -0.082
      -0.052
      -0.023
       0.006
       0.037
       0.075
       0.118
       0.163
       0.205
       0.236
       0.250
       0.238
       0.194
       0.119
       0.018
      -0.094
      -0.200
      -0.281
      -0.329
      -0.343
      -0.330
      -0.295
      -0.241
      -0.171
      -0.091
      -0.015
       0.041
       0.066
       0.065
       0.053
       0.050
       0.069
       0.109
       0.162
       0.220
       0.275
       0.321
       0.353
       0.365
       0.349
       0.298
       0.212
       0.098
      -0.026
      -0.139
      -0.226
      -0.279
      -0.303
      -0.302
      -0.280
      -0.243
      -0.194
      -0.140
      -0.087
      -0.041
      -0.007
       0.014
       0.031
       0.050
       0.075
       0.105
       0.135
       0.167
       0.199
       0.225
       0.235
       0.218
       0.170
       0.097
       0.012
      -0.073
      -0.145
      -0.199
      -0.234
      -0.251
      -0.250
      -0.230
      -0.190
      -0.131
      -0.054
       0.033
       0.120
       0.193
       0.237
       0.244
       0.222
       0.187
       0.156
       0.133
       0.113
       0.083
       0.039
      -0.014
      -0.066
      -0.107
      -0.132
      -0.140
      -0.135
      -0.123
      -0.107
      -0.089
      -0.067
      -0.033
       0.017
       0.080
       0.144
       0.192
       0.213
       0.210
       0.192
       0.168
       0.138
       0.100
       0.053
       0.003
      -0.039
      -0.065
      -0.073
      -0.073
      -0.074
      -0.088
      -0.116
      -0.155
      -0.199
      -0.242
      -0.277
      -0.300
      -0.310
      -0.305
      -0.285
      -0.244
      -0.181
      -0.100
      -0.017
       0.050
       0.095
       0.130
       0.171
       0.226
       0.286
       0.331
       0.345
       0.322
       0.273
       0.211
       0.148
       0.083
       0.012
      -0.063
      -0.126
      -0.159
      -0.153
      -0.115
      -0.062
      -0.003
       0.058
       0.123
       0.188
       0.240
       0.264
       0.253
       0.214
       0.162
       0.114
       0.076
       0.043
       0.005
      -0.040
      -0.082
      -0.104
      -0.100
      -0.080
      -0.069
      -0.090
      -0.148
      -0.227
      -0.300
      -0.348
      -0.372
      -0.384
      -0.396
      -0.403
      -0.382
      -0.318
      -0.215
      -0.102
      -0.011
       0.049
       0.091
       0.137
       0.193
       0.242
       0.255
       0.219
       0.148
       0.084
       0.063
       0.087
       0.119
       0.115
       0.057
      -0.030
      -0.100
      -0.124
      -0.109
      -0.086
      -0.082
      -0.098
      -0.107
      -0.082
      -0.020
       0.054
       0.109
       0.125
       0.112
       0.093
       0.082
       0.076
       0.060
       0.025
      -0.018
      -0.049
      -0.053
      -0.031
       0.006
       0.037
       0.053
       0.053
       0.045
       0.039
       0.033
       0.015
      -0.016
      -0.052
      -0.073
      -0.062
      -0.020
       0.036
       0.086
       0.120
       0.138
       0.152
       0.168
       0.183
       0.181
       0.150
       0.094
       0.031
      -0.019
      -0.044
      -0.049
      -0.049
      -0.059
      -0.082
      -0.111
      -0.133
      -0.146
      -0.153
      -0.157
      -0.159
      -0.157
      -0.149
      -0.140
      -0.134
      -0.133
      -0.131
      -0.118
      -0.084
      -0.031
       0.032
       0.092
       0.142
       0.179
       0.201
       0.204
       0.181
       0.130
       0.063
       0.001
      -0.032
      -0.028
       0.006
       0.059
       0.120
       0.185
       0.247
       0.293
       0.311
       0.292
       0.239
       0.164
       0.086
       0.017
      -0.040
      -0.099
      -0.169
      -0.249
      -0.322
      -0.370
      -0.382
      -0.358
      -0.314
      -0.266
      -0.225
      -0.194
      -0.166
      -0.134
      -0.094
      -0.053
      -0.021
      -0.007
      -0.013
      -0.033
      -0.063
      -0.100
      -0.141
      -0.181
      -0.208
      -0.213
      -0.192
      -0.149
      -0.097
      -0.044
       0.006
       0.059
       0.124
       0.197
       0.268
       0.326
       0.367
       0.399
       0.426
       0.446
       0.448
       0.421
       0.365
       0.290
       0.209
       0.131
       0.059
      -0.008
      -0.067
      -0.110
      -0.129
      -0.123
      -0.104
      -0.091
      -0.104
      -0.145
      -0.207
      -0.271
      -0.321
      -0.346
      -0.346
      -0.326
      -0.293
      -0.249
      -0.192
      -0.126
      -0.061
      -0.013
       0.013
       0.020
       0.021
       0.027
       0.042
       0.069
       0.104
       0.145
       0.187
       0.227
       0.258
       0.271
       0.257
       0.214
       0.150
       0.082
       0.020
      -0.035
      -0.089
      -0.144
      -0.190
      -0.210
      -0.191
      -0.139
      -0.069
      -0.002
       0.055
       0.105
       0.153
       0.198
       0.224
       0.219
       0.182
       0.126
       0.076
       0.047
       0.043
       0.056
       0.075
       0.091
       0.107
       0.128
       0.157
       0.187
       0.202
       0.186
       0.140
       0.077
       0.017
      -0.025
      -0.049
      -0.064
      -0.078
      -0.097
      -0.116
      -0.123
      -0.112
      -0.087
      -0.060
      -0.043
      -0.042
      -0.056
      -0.087
      -0.135
      -0.204
      -0.290
      -0.381
      -0.463
      -0.521
      -0.549
      -0.549
      -0.526
      -0.479
      -0.406
      -0.306
      -0.186
      -0.065
       0.042
       0.127
       0.196
       0.259
       0.323
       0.386
       0.439
       0.471
       0.470
       0.434
       0.363
       0.267
       0.162
       0.063
      -0.019
      -0.080
      -0.126
      -0.158
      -0.180
      -0.188
      -0.182
      -0.162
      -0.132
      -0.097
      -0.060
      -0.023
       0.015
       0.053
       0.086
       0.109
       0.115
       0.100
       0.064
       0.010
      -0.054
      -0.117
      -0.169
      -0.201
      -0.213
      -0.211
      -0.201
      -0.191
      -0.181
      -0.166
      -0.144
      -0.115
      -0.086
      -0.060
      -0.039
      -0.019
       0.006
       0.035
       0.065
       0.090
       0.109
       0.125
       0.141
       0.161
       0.179
       0.187
       0.177
       0.150
       0.112
       0.075
       0.049
       0.037
       0.035
       0.040
       0.053
       0.077
       0.115
       0.160
       0.194
       0.196
       0.154
       0.077
      -0.011
      -0.086
      -0.139
      -0.177
      -0.217
      -0.266
      -0.314
      -0.344
      -0.345
      -0.321
      -0.283
      -0.243
      -0.200
      -0.148
      -0.083
      -0.011
       0.054
       0.094
       0.108
       0.105
       0.101
       0.100
       0.098
       0.087
       0.067
       0.043
       0.025
       0.021
       0.033
       0.057
       0.088
       0.121
       0.155
       0.182
       0.191
       0.168
       0.105
       0.003
      -0.123
      -0.249
      -0.351
      -0.410
      -0.421
      -0.385
      -0.314
      -0.216
      -0.102
       0.019
       0.128
       0.206
       0.243
       0.245
       0.233
       0.229
       0.242
       0.265
       0.283
       0.288
       0.279
       0.263
       0.249
       0.236
       0.216
       0.182
       0.132
       0.074
       0.018
      -0.029
      -0.064
      -0.092
      -0.114
      -0.132
      -0.141
      -0.138
      -0.117
      -0.078
      -0.023
       0.040
       0.103
       0.154
       0.183
       0.188
       0.172
       0.144
       0.110
       0.071
       0.026
      -0.022
      -0.064
      -0.091
      -0.100
      -0.096
      -0.084
      -0.065
      -0.039
      -0.008
       0.023
       0.043
       0.044
       0.022
      -0.018
      -0.057
      -0.081
      -0.085
      -0.077
      -0.070
      -0.069
      -0.074
      -0.080
      -0.085
      -0.092
      -0.105
      -0.129
      -0.163
      -0.198
      -0.222
      -0.223
      -0.196
      -0.146
      -0.087
      -0.033
       0.012
       0.057
       0.107
       0.160
       0.195
       0.189
       0.140
       0.067
       0.005
      -0.025
      -0.024
      -0.013
      -0.010
      -0.015
      -0.016
       0.001
       0.034
       0.068
       0.080
       0.057
       0.008
      -0.042
      -0.071
      -0.074
      -0.065
      -0.064
      -0.082
      -0.109
      -0.131
      -0.131
      -0.107
      -0.069
      -0.034
      -0.015
      -0.012
      -0.011
       0.004
       0.033
       0.060
       0.065
       0.045
       0.014
      -0.004
       0.001
       0.024
       0.045
       0.050
       0.041
       0.035
       0.046
       0.078
       0.114
       0.135
       0.129
       0.106
       0.085
       0.079
       0.084
       0.079
       0.047
      -0.007
      -0.058
      -0.074
      -0.047
       0.008
       0.056
       0.073
       0.060
       0.041
       0.043
       0.070
       0.103
       0.114
       0.092
       0.046
      -0.002
      -0.036
      -0.057
      -0.085
      -0.132
      -0.192
      -0.241
      -0.257
      -0.241
      -0.217
      -0.205
      -0.207
      -0.207
      -0.190
      -0.152
      -0.106
      -0.068
      -0.044
      -0.024
       0.010
       0.072
       0.160
       0.255
       0.332
       0.370
       0.369
       0.340
       0.300
       0.256
       0.206
       0.147
       0.084
       0.026
      -0.012
      -0.029
      -0.033
      -0.038
      -0.056
      -0.084
      -0.110
      -0.121
      -0.117
      -0.104
      -0.092
      -0.082
      -0.074
      -0.068
      -0.070
      -0.084
      -0.113
      -0.151
      -0.192
      -0.225
      -0.243
      -0.244
      -0.232
      -0.206
      -0.165
      -0.106
      -0.034
       0.040
       0.100
       0.134
       0.146
       0.148
       0.158
       0.184
       0.221
       0.254
       0.269
       0.257
       0.223
       0.181
       0.144
       0.120
       0.108
       0.103
       0.098
       0.091
       0.080
       0.067
       0.050
       0.028
      -0.004
      -0.043
      -0.084
      -0.119
      -0.143
      -0.156
      -0.161
      -0.159
      -0.157
      -0.153
      -0.147
      -0.138
      -0.129
      -0.125
      -0.125
      -0.121
      -0.101
      -0.063
      -0.013
       0.038
       0.085
       0.122
       0.147
       0.152
       0.129
       0.082
       0.024
      -0.025
      -0.054
      -0.066
      -0.069
      -0.067
      -0.055
      -0.026
       0.021
       0.077
       0.126
       0.148
       0.138
       0.105
       0.068
       0.032
      -0.008
      -0.063
      -0.129
      -0.189
      -0.223
      -0.225
      -0.208
      -0.198
      -0.207
      -0.230
      -0.246
      -0.237
      -0.201
      -0.150
      -0.100
      -0.059
      -0.027
       0.003
       0.039
       0.086
       0.138
       0.185
       0.219
       0.239
       0.253
       0.269
       0.289
       0.305
       0.307
       0.292
       0.264
       0.231
       0.200
       0.169
       0.130
       0.080
       0.029
      -0.011
      -0.031
