Origin Time       03/5/2010 17:15:08	 UTC
Lat.              30.4 N	
Long.             78.4 E	
Depth (Km)          8.0
Magnitude         3.5
 Region           Uttarakhand                                                      
 Above details taken from IMD 
    
Station Code      Roo
Station Lat.       29.866  N
Station Long.      77.901  E
Station Height(m)  243.0
Site Class        C   Vs30 between 200 m/sec to 375 m/sec *  
Record Time       03.05.2010 17:13:50.604 UTC
Sampling Rate     200. Hz
 Record Duration   76.440 Sec.
 Direction         N-S (N positive)
Max. Acceleration      0.675 cm/sec**2
     
  * For reference see Site Classification link of website 
     
 Base Line Corrected and Low Pass Filtered (Cut Off at 35 Hz) Time History
 Acceleration data in cm/sec**2
    
[...]
       0.054
       0.072
       0.085
       0.096
       0.104
       0.107
       0.102
       0.089
       0.070
       0.051
       0.032
       0.015
      -0.003
      -0.019
      -0.030
      -0.032
      -0.024
      -0.012
      -0.001
       0.005
       0.006
       0.006
       0.007
       0.011
       0.017
       0.024
       0.029
       0.028
       0.022
       0.016
       0.012
       0.012
       0.012
       0.011
       0.008
       0.003
      -0.003
      -0.010
      -0.019
      -0.028
      -0.036
      -0.041
      -0.044
      -0.041
      -0.034
      -0.025
      -0.019
      -0.021
      -0.026
      -0.027
      -0.015
       0.008
       0.033
       0.052
       0.063
       0.072
       0.085
       0.101
       0.110
       0.106
       0.088
       0.064
       0.041
       0.022
       0.005
      -0.011
      -0.030
      -0.048
      -0.062
      -0.067
      -0.063
      -0.055
      -0.049
      -0.050
      -0.055
      -0.058
      -0.053
      -0.038
      -0.018
       0.000
       0.013
       0.023
       0.032
       0.040
       0.046
       0.045
       0.037
       0.025
       0.016
       0.014
       0.018
       0.025
       0.029
       0.027
       0.018
       0.005
      -0.008
      -0.018
      -0.025
      -0.028
      -0.027
      -0.025
      -0.023
      -0.022
      -0.021
      -0.017
      -0.013
      -0.010
      -0.010
      -0.007
       0.002
       0.023
       0.050
       0.075
       0.091
       0.097
       0.097
       0.093
       0.082
       0.063
       0.040
       0.024
       0.020
       0.026
       0.033
       0.030
       0.014
      -0.009
      -0.031
      -0.047
      -0.055
      -0.055
      -0.052
      -0.046
      -0.041
      -0.038
      -0.037
      -0.042
      -0.051
      -0.061
      -0.068
      -0.067
      -0.059
      -0.046
      -0.030
      -0.014
       0.001
       0.013
       0.019
       0.022
       0.021
       0.018
       0.011
       0.001
      -0.010
      -0.018
      -0.022
      -0.023
      -0.024
      -0.026
      -0.028
      -0.022
      -0.004
       0.027
       0.062
       0.093
       0.112
       0.121
       0.123
       0.120
       0.113
       0.106
       0.104
       0.108
       0.113
       0.113
       0.102
       0.080
       0.050
       0.018
      -0.012
      -0.038
      -0.056
      -0.068
      -0.078
      -0.090
      -0.104
      -0.114
      -0.118
      -0.118
      -0.118
      -0.120
      -0.119
      -0.107
      -0.079
      -0.037
       0.008
       0.046
       0.068
       0.076
       0.075
       0.069
       0.059
       0.048
       0.038
       0.031
       0.030
       0.035
       0.041
       0.041
       0.033
       0.021
       0.014
       0.017
       0.033
       0.054
       0.074
       0.084
       0.086
       0.081
       0.074
       0.067
       0.056
       0.041
       0.021
       0.002
      -0.013
      -0.021
      -0.021
      -0.018
      -0.014
      -0.012
      -0.016
      -0.023
      -0.031
      -0.036
      -0.037
      -0.035
      -0.032
      -0.029
      -0.024
      -0.015
      -0.001
       0.015
       0.030
       0.042
       0.047
       0.047
       0.038
       0.022
       0.001
      -0.020
      -0.034
      -0.037
      -0.032
      -0.024
      -0.018
      -0.014
      -0.006
       0.012
       0.036
       0.061
       0.076
       0.075
       0.061
       0.037
       0.013
      -0.006
      -0.017
      -0.018
      -0.013
      -0.004
       0.003
       0.006
       0.003
      -0.001
       0.001
       0.013
       0.036
       0.061
       0.079
       0.079
       0.061
       0.034
       0.010
      -0.003
      -0.007
      -0.003
       0.002
       0.007
       0.007
       0.001
      -0.009
      -0.020
      -0.023
      -0.015
       0.000
       0.018
       0.033
       0.045
       0.055
       0.065
       0.071
       0.070
       0.063
       0.055
       0.049
       0.044
       0.034
       0.016
      -0.010
      -0.035
      -0.053
      -0.062
      -0.062
      -0.055
      -0.044
      -0.026
      -0.004
       0.018
       0.034
       0.042
       0.044
       0.040
       0.033
       0.029
       0.031
       0.042
       0.058
       0.072
       0.079
       0.075
       0.065
       0.054
       0.046
       0.043
       0.038
       0.025
       0.000
      -0.034
      -0.072
      -0.108
      -0.140
      -0.165
      -0.186
      -0.200
      -0.204
      -0.196
      -0.175
      -0.145
      -0.112
      -0.076
      -0.035
       0.014
       0.066
       0.114
       0.143
       0.151
       0.143
       0.133
       0.129
       0.129
       0.127
       0.118
       0.108
       0.104
       0.110
       0.118
       0.119
       0.106
       0.083
       0.058
       0.042
       0.038
       0.040
       0.042
       0.041
       0.034
       0.025
       0.014
       0.002
      -0.012
      -0.027
      -0.043
      -0.059
      -0.076
      -0.091
      -0.104
      -0.116
      -0.125
      -0.130
      -0.131
      -0.130
      -0.129
      -0.127
      -0.121
      -0.111
      -0.094
      -0.076
      -0.058
      -0.044
      -0.030
      -0.013
       0.009
       0.035
       0.061
       0.080
       0.089
       0.091
       0.089
       0.083
       0.069
       0.042
       0.005
      -0.035
      -0.068
      -0.093
      -0.112
      -0.130
      -0.145
      -0.149
      -0.139
      -0.116
      -0.089
      -0.061
      -0.033
      -0.007
       0.017
       0.036
       0.050
       0.060
       0.073
       0.092
       0.118
       0.148
       0.178
       0.202
       0.219
       0.230
       0.236
       0.238
       0.237
       0.232
       0.222
       0.206
       0.187
       0.165
       0.143
       0.120
       0.097
       0.070
       0.035
      -0.010
      -0.060
      -0.110
      -0.152
      -0.186
      -0.211
      -0.227
      -0.236
      -0.235
      -0.224
      -0.202
      -0.169
      -0.130
      -0.086
      -0.041
       0.005
       0.048
       0.085
       0.116
       0.140
       0.161
       0.178
       0.188
       0.185
       0.166
       0.132
       0.092
       0.051
       0.012
      -0.029
      -0.076
      -0.134
      -0.199
      -0.264
      -0.323
      -0.369
      -0.398
      -0.408
      -0.397
      -0.368
      -0.328
      -0.284
      -0.235
      -0.180
      -0.111
      -0.031
       0.055
       0.143
       0.230
       0.313
       0.392
       0.460
       0.515
       0.555
       0.578
       0.584
       0.570
       0.536
       0.486
       0.423
       0.349
       0.265
       0.171
       0.073
      -0.022
      -0.111
      -0.188
      -0.255
      -0.309
      -0.349
      -0.376
      -0.390
      -0.397
      -0.403
      -0.407
      -0.406
      -0.394
      -0.372
      -0.344
      -0.319
      -0.302
      -0.288
      -0.267
      -0.230
      -0.178
      -0.115
      -0.051
       0.004
       0.048
       0.079
       0.102
       0.123
       0.146
       0.174
       0.207
       0.241
       0.271
       0.295
       0.311
       0.315
       0.305
       0.283
       0.254
       0.226
       0.204
       0.191
       0.185
       0.182
       0.177
       0.166
       0.148
       0.127
       0.107
       0.088
       0.072
       0.054
       0.036
       0.016
      -0.006
      -0.029
      -0.054
      -0.083
      -0.115
      -0.146
      -0.166
      -0.169
      -0.161
      -0.150
      -0.150
      -0.164
      -0.192
      -0.225
      -0.254
      -0.271
      -0.269
      -0.247
      -0.208
      -0.160
      -0.109
      -0.058
      -0.007
       0.046
       0.095
       0.134
       0.153
       0.151
       0.135
       0.113
       0.090
       0.066
       0.039
       0.014
      -0.006
      -0.015
      -0.013
      -0.002
       0.016
       0.041
       0.066
       0.086
       0.094
       0.089
       0.075
       0.055
       0.035
       0.015
      -0.004
      -0.022
      -0.036
      -0.046
      -0.049
      -0.048
      -0.049
      -0.054
      -0.066
      -0.083
      -0.098
      -0.110
      -0.116
      -0.116
      -0.111
      -0.102
      -0.089
      -0.076
      -0.068
      -0.068
      -0.075
      -0.080
      -0.075
      -0.054
      -0.018
       0.025
       0.066
       0.099
       0.120
       0.134
       0.142
       0.145
       0.144
       0.139
       0.136
       0.141
       0.154
       0.170
       0.181
       0.184
       0.179
       0.170
       0.156
       0.137
       0.110
       0.078
       0.046
       0.019
      -0.003
      -0.020
      -0.037
      -0.055
      -0.076
      -0.099
      -0.123
      -0.146
      -0.163
      -0.170
      -0.164
      -0.149
      -0.130
      -0.115
      -0.104
      -0.098
      -0.093
      -0.086
      -0.074
      -0.057
      -0.035
      -0.012
       0.009
       0.025
       0.036
       0.041
       0.043
       0.040
       0.029
       0.008
      -0.019
      -0.043
      -0.057
      -0.057
      -0.047
      -0.032
      -0.015
      -0.003
      -0.002
      -0.016
      -0.042
      -0.068
      -0.083
      -0.082
      -0.069
      -0.054
      -0.045
      -0.039
      -0.032
      -0.019
      -0.001
       0.019
       0.042
       0.068
       0.097
       0.123
       0.143
       0.152
       0.154
       0.152
       0.153
       0.158
       0.164
       0.166
       0.162
       0.151
       0.138
       0.122
       0.103
       0.079
       0.049
       0.016
      -0.021
      -0.059
      -0.092
      -0.115
      -0.122
      -0.112
      -0.088
      -0.058
      -0.033
      -0.014
       0.001
       0.017
       0.036
       0.052
       0.062
       0.060
       0.047
       0.028
       0.003
      -0.025
      -0.053
      -0.082
      -0.108
      -0.132
      -0.153
      -0.172
      -0.189
      -0.201
      -0.206
      -0.201
      -0.186
      -0.167
      -0.150
      -0.134
      -0.110
      -0.068
      -0.007
       0.064
       0.127
       0.171
       0.193
       0.200
       0.200
       0.202
       0.206
       0.209
       0.207
       0.200
       0.187
       0.168
       0.138
       0.097
       0.046
      -0.005
      -0.050
      -0.084
      -0.110
      -0.132
      -0.153
      -0.171
      -0.185
      -0.186
      -0.169
      -0.132
      -0.079
      -0.021
       0.036
       0.087
       0.131
       0.169
       0.195
       0.201
       0.176
       0.119
       0.041
      -0.040
      -0.108
      -0.157
      -0.187
      -0.203
      -0.210
      -0.208
      -0.202
      -0.194
      -0.186
      -0.174
      -0.154
      -0.121
      -0.081
      -0.039
      -0.001
       0.034
       0.070
       0.115
       0.172
       0.237
       0.298
       0.345
       0.373
       0.379
       0.368
       0.341
       0.300
       0.241
       0.165
       0.074
      -0.023
      -0.120
      -0.214
      -0.299
      -0.368
      -0.412
      -0.428
      -0.416
      -0.381
      -0.329
      -0.268
      -0.199
      -0.130
      -0.070
      -0.021
       0.019
       0.057
       0.099
       0.145
       0.191
       0.231
       0.261
       0.278
       0.283
       0.274
       0.250
       0.212
       0.166
       0.121
       0.085
       0.057
       0.030
      -0.005
      -0.052
      -0.106
      -0.156
      -0.191
      -0.205
      -0.202
      -0.190
      -0.175
      -0.162
      -0.149
      -0.135
      -0.121
      -0.109
      -0.100
      -0.089
      -0.070
      -0.038
       0.003
       0.044
       0.076
       0.097
       0.109
       0.121
       0.142
       0.174
       0.215
       0.256
       0.285
       0.295
       0.283
       0.250
       0.200
       0.142
       0.086
       0.041
       0.011
      -0.009
      -0.027
      -0.052
      -0.088
      -0.133
      -0.183
      -0.233
      -0.280
      -0.321
      -0.351
      -0.367
      -0.366
      -0.347
      -0.314
      -0.267
      -0.208
      -0.136
      -0.052
       0.044
       0.146
       0.249
       0.346
       0.427
       0.484
       0.510
       0.504
       0.470
       0.412
       0.336
       0.246
       0.149
       0.050
      -0.045
      -0.132
      -0.209
      -0.276
      -0.335
      -0.384
      -0.421
      -0.442
      -0.443
      -0.425
      -0.386
      -0.327
      -0.250
      -0.161
      -0.071
       0.013
       0.089
       0.158
       0.224
       0.291
       0.354
       0.407
       0.439
       0.444
       0.421
       0.374
       0.309
       0.232
       0.153
       0.079
       0.015
      -0.037
      -0.078
      -0.110
      -0.135
      -0.158
      -0.182
      -0.204
      -0.217
      -0.215
      -0.194
      -0.158
      -0.112
      -0.062
      -0.011
       0.039
       0.086
       0.130
       0.171
       0.211
       0.253
       0.297
       0.337
       0.363
       0.369
       0.350
       0.311
       0.254
       0.184
       0.105
       0.018
      -0.071
      -0.158
      -0.234
      -0.295
      -0.340
      -0.375
      -0.404
      -0.430
      -0.450
      -0.461
      -0.463
      -0.456
      -0.444
      -0.425
      -0.396
      -0.352
      -0.292
      -0.218
      -0.132
      -0.035
       0.073
       0.193
       0.318
       0.437
       0.538
       0.613
       0.658
       0.675
       0.665
       0.630
       0.569
       0.487
       0.388
       0.278
       0.163
       0.049
      -0.059
      -0.160
      -0.251
      -0.330
      -0.394
      -0.443
      -0.473
      -0.479
      -0.457
      -0.411
      -0.349
      -0.287
      -0.232
      -0.185
      -0.145
      -0.109
      -0.075
      -0.036
       0.012
       0.067
       0.122
       0.165
       0.188
       0.195
       0.196
       0.196
       0.198
       0.198
       0.192
       0.181
       0.167
       0.150
       0.127
       0.094
       0.052
       0.008
      -0.031
      -0.065
      -0.096
      -0.128
      -0.156
      -0.175
      -0.181
      -0.178
      -0.176
      -0.181
      -0.192
      -0.201
      -0.199
      -0.178
      -0.139
      -0.090
      -0.043
      -0.006
       0.015
       0.023
       0.028
       0.037
       0.055
       0.086
       0.130
       0.188
       0.254
       0.319
       0.368
       0.391
       0.388
       0.367
       0.333
       0.290
       0.233
       0.162
       0.083
       0.010
      -0.045
      -0.080
      -0.099
      -0.113
      -0.130
      -0.154
      -0.182
      -0.212
      -0.237
      -0.255
      -0.263
      -0.261
      -0.252
      -0.240
      -0.225
      -0.204
      -0.169
      -0.112
      -0.032
       0.061
       0.149
       0.218
       0.259
       0.274
       0.271
       0.257
       0.236
       0.214
       0.193
       0.173
       0.156
       0.141
       0.127
       0.107
       0.076
       0.032
      -0.022
      -0.077
      -0.130
      -0.180
      -0.225
      -0.259
      -0.274
      -0.266
      -0.240
      -0.205
      -0.164
      -0.119
      -0.069
      -0.015
       0.041
       0.099
       0.158
       0.217
       0.272
       0.317
       0.346
       0.355
       0.339
       0.303
       0.251
       0.193
       0.133
       0.069
      -0.005
      -0.088
      -0.172
      -0.244
      -0.292
      -0.310
      -0.301
      -0.270
      -0.224
      -0.170
      -0.112
      -0.055
      -0.006
       0.028
       0.044
       0.039
       0.016
      -0.016
      -0.045
      -0.062
      -0.062
      -0.049
      -0.037
      -0.035
      -0.048
      -0.069
      -0.093
      -0.118
      -0.144
      -0.175
      -0.206
      -0.229
      -0.235
      -0.220
      -0.187
      -0.143
      -0.090
      -0.033
       0.029
       0.094
       0.162
       0.229
       0.291
       0.346
       0.392
       0.425
       0.439
       0.431
       0.400
       0.356
       0.307
       0.260
       0.213
       0.158
       0.090
       0.013
      -0.061
      -0.121
      -0.166
      -0.198
      -0.223
      -0.247
      -0.271
      -0.293
      -0.307
      -0.310
      -0.298
      -0.271
      -0.233
      -0.187
      -0.137
      -0.087
      -0.037
       0.011
       0.057
       0.102
       0.146
       0.189
       0.227
       0.253
       0.268
       0.278
       0.292
       0.311
       0.330
       0.337
       0.322
       0.283
       0.225
       0.161
       0.098
       0.039
      -0.020
      -0.087
      -0.165
      -0.250
      -0.329
      -0.390
      -0.427
      -0.441
      -0.435
      -0.416
      -0.390
      -0.358
      -0.322
      -0.279
      -0.228
      -0.168
      -0.105
      -0.047
      -0.008
       0.011
       0.014
       0.015
       0.022
       0.036
       0.057
       0.082
       0.111
       0.142
       0.170
       0.193
       0.209
       0.222
       0.238
       0.258
       0.282
       0.304
       0.321
       0.333
       0.341
       0.344
       0.335
       0.307
       0.257
       0.186
       0.102
       0.014
      -0.069
      -0.138
      -0.189
      -0.222
      -0.236
      -0.236
      -0.224
      -0.204
      -0.180
      -0.157
      -0.137
      -0.121
      -0.113
      -0.113
      -0.124
      -0.143
      -0.165
      -0.184
      -0.197
      -0.202
      -0.195
      -0.172
      -0.129
      -0.071
      -0.003
       0.063
       0.117
       0.153
       0.172
       0.180
       0.180
       0.175
       0.160
       0.134
       0.101
       0.069
       0.047
       0.033
       0.021
       0.006
      -0.009
      -0.014
      -0.003
       0.023
       0.055
       0.084
       0.108
       0.127
       0.141
       0.148
       0.144
       0.124
       0.089
       0.046
       0.004
      -0.027
      -0.048
      -0.064
      -0.085
      -0.115
      -0.149
      -0.174
      -0.181
      -0.168
      -0.144
      -0.118
      -0.091
      -0.056
      -0.011
       0.036
       0.067
       0.074
       0.057
       0.029
       0.001
      -0.021
      -0.038
      -0.056
      -0.075
      -0.090
      -0.096
      -0.089
      -0.069
      -0.039
      -0.005
       0.026
       0.050
       0.065
       0.070
       0.064
       0.048
       0.021
      -0.016
      -0.059
      -0.097
      -0.118
      -0.118
      -0.097
      -0.067
      -0.035
      -0.004
       0.026
       0.057
       0.090
       0.121
       0.148
       0.169
       0.184
       0.195
       0.200
       0.198
       0.187
       0.161
       0.125
       0.087
       0.059
       0.046
       0.040
       0.027
      -0.005
      -0.054
      -0.109
      -0.157
      -0.188
      -0.203
      -0.204
      -0.196
      -0.181
      -0.161
      -0.139
      -0.118
      -0.096
      -0.070
      -0.036
       0.007
       0.056
       0.107
       0.154
       0.196
       0.234
       0.263
       0.277
       0.271
       0.241
       0.191
       0.128
       0.060
      -0.007
      -0.069
      -0.123
      -0.168
      -0.202
      -0.223
      -0.230
      -0.221
      -0.196
      -0.162
      -0.125
      -0.090
