Origin Time       22/02/2010 17:23:43
Lat.              30.0 N	
Long.             80.1 E	
Depth (Km)          2.0
Magnitude         4.7
 Region           BAGESHWER-UTTARAKHAND                                            
 Above details taken from IMD 
   
Station Code      Roo
Station Lat.       29.866
Station Long.      77.901
Station Height(m)  243.0
Site Class        C   Vs30 between 200 m/sec to 375 m/sec *  
Record Time       22.02.2010 17:24:17.949
Sampling Rate     200. Hz
 Record Duration   74.320 Sec.
 Direction         Vert. (Up positive)
Max. Acceleration     -0.465 cm/sec**2
     
  * For reference see Site Classification link of website 
     
 Base Line Corrected and Low Pass Filtered (Cut Off at 35 Hz) Time History
 Acceleration data in cm/sec**2
    
[...]
      -0.081
      -0.035
      -0.001
       0.010
      -0.005
      -0.037
      -0.074
      -0.100
      -0.107
      -0.092
      -0.056
      -0.008
       0.045
       0.101
       0.165
       0.239
       0.315
       0.377
       0.404
       0.386
       0.330
       0.252
       0.175
       0.116
       0.082
       0.070
       0.070
       0.072
       0.067
       0.048
       0.017
      -0.017
      -0.043
      -0.059
      -0.068
      -0.080
      -0.099
      -0.123
      -0.147
      -0.164
      -0.167
      -0.156
      -0.140
      -0.127
      -0.124
      -0.126
      -0.123
      -0.106
      -0.064
       0.002
       0.081
       0.152
       0.196
       0.202
       0.179
       0.145
       0.120
       0.110
       0.109
       0.104
       0.085
       0.054
       0.023
       0.002
      -0.002
       0.012
       0.037
       0.059
       0.067
       0.055
       0.030
       0.009
       0.003
       0.017
       0.041
       0.059
       0.057
       0.033
      -0.003
      -0.038
      -0.062
      -0.075
      -0.081
      -0.088
      -0.098
      -0.105
      -0.106
      -0.098
      -0.081
      -0.056
      -0.030
      -0.015
      -0.024
      -0.064
      -0.120
      -0.171
      -0.194
      -0.182
      -0.139
      -0.081
      -0.024
       0.020
       0.048
       0.061
       0.067
       0.068
       0.063
       0.049
       0.025
      -0.003
      -0.030
      -0.049
      -0.057
      -0.049
      -0.031
      -0.012
      -0.002
      -0.006
      -0.023
      -0.046
      -0.070
      -0.090
      -0.106
      -0.118
      -0.124
      -0.121
      -0.110
      -0.087
      -0.051
      -0.003
       0.047
       0.085
       0.100
       0.087
       0.056
       0.017
      -0.019
      -0.042
      -0.052
      -0.047
      -0.028
       0.002
       0.035
       0.064
       0.082
       0.089
       0.089
       0.087
       0.083
       0.074
       0.057
       0.032
       0.006
      -0.015
      -0.028
      -0.042
      -0.062
      -0.090
      -0.124
      -0.156
      -0.176
      -0.178
      -0.158
      -0.123
      -0.083
      -0.049
      -0.027
      -0.014
      -0.003
       0.017
       0.044
       0.068
       0.079
       0.072
       0.052
       0.031
       0.017
       0.016
       0.027
       0.048
       0.074
       0.100
       0.122
       0.139
       0.150
       0.156
       0.155
       0.145
       0.120
       0.078
       0.020
      -0.045
      -0.101
      -0.135
      -0.143
      -0.131
      -0.112
      -0.098
      -0.094
      -0.096
      -0.097
      -0.088
      -0.068
      -0.041
      -0.014
       0.012
       0.037
       0.061
       0.083
       0.100
       0.111
       0.117
       0.124
       0.136
       0.156
       0.174
       0.183
       0.180
       0.170
       0.159
       0.150
       0.138
       0.118
       0.090
       0.060
       0.041
       0.042
       0.063
       0.094
       0.121
       0.133
       0.127
       0.103
       0.065
       0.014
      -0.047
      -0.113
      -0.178
      -0.235
      -0.273
      -0.287
      -0.275
      -0.243
      -0.197
      -0.144
      -0.096
      -0.059
      -0.034
      -0.015
       0.003
       0.022
       0.038
       0.045
       0.040
       0.028
       0.016
       0.009
       0.010
       0.018
       0.025
       0.026
       0.019
       0.008
       0.000
      -0.002
       0.001
       0.002
      -0.006
      -0.031
      -0.070
      -0.117
      -0.161
      -0.194
      -0.207
      -0.196
      -0.166
      -0.123
      -0.077
      -0.035
      -0.002
       0.023
       0.042
       0.056
       0.065
       0.062
       0.043
       0.010
      -0.027
      -0.053
      -0.059
      -0.043
      -0.018
       0.003
       0.010
       0.000
      -0.023
      -0.053
      -0.083
      -0.106
      -0.117
      -0.116
      -0.109
      -0.107
      -0.114
      -0.121
      -0.113
      -0.084
      -0.039
       0.006
       0.036
       0.045
       0.037
       0.022
       0.011
       0.008
       0.017
       0.036
       0.064
       0.094
       0.118
       0.135
       0.151
       0.177
       0.215
       0.263
       0.311
       0.348
       0.368
       0.365
       0.341
       0.303
       0.258
       0.206
       0.142
       0.061
      -0.040
      -0.150
      -0.256
      -0.337
      -0.378
      -0.372
      -0.326
      -0.257
      -0.185
      -0.121
      -0.070
      -0.026
       0.020
       0.070
       0.115
       0.144
       0.147
       0.124
       0.085
       0.046
       0.019
       0.007
       0.005
       0.007
       0.004
       0.000
       0.002
       0.019
       0.056
       0.109
       0.169
       0.218
       0.239
       0.225
       0.178
       0.112
       0.044
      -0.012
      -0.047
      -0.061
      -0.059
      -0.046
      -0.026
      -0.002
       0.023
       0.048
       0.072
       0.092
       0.103
       0.099
       0.080
       0.052
       0.030
       0.025
       0.039
       0.064
       0.082
       0.080
       0.057
       0.023
      -0.010
      -0.031
      -0.039
      -0.039
      -0.038
      -0.041
      -0.053
      -0.076
      -0.107
      -0.142
      -0.174
      -0.195
      -0.205
      -0.210
      -0.210
      -0.206
      -0.191
      -0.165
      -0.130
      -0.091
      -0.053
      -0.023
      -0.004
       0.004
       0.007
       0.012
       0.026
       0.045
       0.061
       0.066
       0.063
       0.057
       0.057
       0.064
       0.078
       0.092
       0.099
       0.092
       0.067
       0.024
      -0.027
      -0.078
      -0.120
      -0.151
      -0.175
      -0.193
      -0.211
      -0.228
      -0.243
      -0.253
      -0.252
      -0.242
      -0.225
      -0.204
      -0.181
      -0.156
      -0.128
      -0.096
      -0.063
      -0.029
       0.004
       0.035
       0.063
       0.089
       0.116
       0.149
       0.192
       0.246
       0.302
       0.348
       0.370
       0.362
       0.326
       0.273
       0.217
       0.162
       0.105
       0.038
      -0.039
      -0.116
      -0.175
      -0.203
      -0.193
      -0.152
      -0.089
      -0.020
       0.038
       0.075
       0.090
       0.087
       0.071
       0.049
       0.025
      -0.002
      -0.033
      -0.067
      -0.097
      -0.114
      -0.113
      -0.090
      -0.054
      -0.017
       0.013
       0.036
       0.065
       0.112
       0.182
       0.266
       0.346
       0.403
       0.425
       0.409
       0.360
       0.289
       0.204
       0.111
       0.016
      -0.076
      -0.161
      -0.233
      -0.289
      -0.323
      -0.331
      -0.315
      -0.287
      -0.266
      -0.265
      -0.285
      -0.321
      -0.359
      -0.391
      -0.411
      -0.413
      -0.394
      -0.354
      -0.296
      -0.224
      -0.145
      -0.067
       0.006
       0.069
       0.118
       0.147
       0.153
       0.142
       0.130
       0.133
       0.162
       0.212
       0.268
       0.312
       0.331
       0.324
       0.298
       0.269
       0.248
       0.242
       0.245
       0.241
       0.217
       0.167
       0.098
       0.023
      -0.050
      -0.114
      -0.172
      -0.222
      -0.263
      -0.292
      -0.308
      -0.308
      -0.283
      -0.233
      -0.161
      -0.078
       0.007
       0.090
       0.171
       0.248
       0.315
       0.366
       0.394
       0.393
       0.360
       0.299
       0.222
       0.146
       0.088
       0.057
       0.049
       0.049
       0.041
       0.019
      -0.011
      -0.036
      -0.048
      -0.046
      -0.036
      -0.027
      -0.027
      -0.046
      -0.086
      -0.145
      -0.212
      -0.274
      -0.321
      -0.350
      -0.358
      -0.342
      -0.300
      -0.231
      -0.141
      -0.040
       0.056
       0.133
       0.176
       0.185
       0.167
       0.140
       0.119
       0.113
       0.117
       0.121
       0.117
       0.102
       0.084
       0.074
       0.079
       0.097
       0.117
       0.123
       0.102
       0.051
      -0.026
      -0.115
      -0.199
      -0.265
      -0.304
      -0.315
      -0.300
      -0.264
      -0.213
      -0.154
      -0.088
      -0.016
       0.060
       0.134
       0.192
       0.227
       0.239
       0.239
       0.240
       0.247
       0.254
       0.248
       0.219
       0.170
       0.108
       0.050
       0.004
      -0.024
      -0.035
      -0.035
      -0.031
      -0.026
      -0.018
       0.000
       0.032
       0.078
       0.131
       0.177
       0.205
       0.204
       0.173
       0.117
       0.049
      -0.017
      -0.073
      -0.116
      -0.150
      -0.183
      -0.217
      -0.249
      -0.272
      -0.282
      -0.278
      -0.267
      -0.257
      -0.258
      -0.271
      -0.287
      -0.295
      -0.284
      -0.248
      -0.190
      -0.114
      -0.028
       0.063
       0.156
       0.246
       0.328
       0.392
       0.424
       0.409
       0.344
       0.236
       0.109
      -0.013
      -0.108
      -0.164
      -0.184
      -0.179
      -0.166
      -0.153
      -0.142
      -0.126
      -0.099
      -0.062
      -0.019
       0.024
       0.061
       0.086
       0.101
       0.116
       0.141
       0.186
       0.246
       0.305
       0.344
       0.349
       0.325
       0.287
       0.255
       0.240
       0.239
       0.237
       0.218
       0.172
       0.103
       0.026
      -0.041
      -0.084
      -0.101
      -0.099
      -0.088
      -0.071
      -0.050
      -0.025
       0.000
       0.018
       0.020
       0.002
      -0.041
      -0.106
      -0.181
      -0.247
      -0.288
      -0.294
      -0.269
      -0.224
      -0.171
      -0.121
      -0.081
      -0.056
      -0.044
      -0.043
      -0.047
      -0.056
      -0.073
      -0.101
      -0.138
      -0.178
      -0.208
      -0.221
      -0.209
      -0.172
      -0.117
      -0.055
       0.001
       0.045
       0.076
       0.097
       0.107
       0.102
       0.076
       0.026
      -0.046
      -0.129
      -0.204
      -0.253
      -0.264
      -0.237
      -0.185
      -0.119
      -0.047
       0.024
       0.089
       0.137
       0.155
       0.134
       0.076
      -0.004
      -0.087
      -0.151
      -0.180
      -0.171
      -0.130
      -0.071
      -0.007
       0.052
       0.104
       0.152
       0.201
       0.251
       0.301
       0.345
       0.378
       0.397
       0.401
       0.388
       0.358
       0.313
       0.258
       0.199
       0.137
       0.073
       0.011
      -0.038
      -0.065
      -0.061
      -0.029
       0.026
       0.092
       0.154
       0.198
       0.217
       0.207
       0.176
       0.131
       0.081
       0.030
      -0.020
      -0.067
      -0.105
      -0.130
      -0.131
      -0.107
      -0.058
       0.003
       0.060
       0.099
       0.114
       0.107
       0.088
       0.065
       0.041
       0.008
      -0.042
      -0.113
      -0.197
      -0.279
      -0.345
      -0.384
      -0.392
      -0.372
      -0.337
      -0.299
      -0.265
      -0.231
      -0.191
      -0.140
      -0.080
      -0.018
       0.041
       0.092
       0.130
       0.152
       0.162
       0.164
       0.163
       0.157
       0.142
       0.112
       0.067
       0.012
      -0.041
      -0.081
      -0.101
      -0.108
      -0.114
      -0.132
      -0.162
      -0.193
      -0.208
      -0.196
      -0.156
      -0.091
      -0.012
       0.069
       0.137
       0.182
       0.204
       0.210
       0.209
       0.208
       0.207
       0.199
       0.178
       0.145
       0.106
       0.068
       0.035
       0.003
      -0.034
      -0.083
      -0.151
      -0.229
      -0.298
      -0.335
      -0.328
      -0.281
      -0.212
      -0.143
      -0.089
      -0.057
      -0.040
      -0.025
       0.001
       0.045
       0.099
       0.154
       0.202
       0.248
       0.294
       0.343
       0.388
       0.422
       0.434
       0.419
       0.377
       0.310
       0.224
       0.134
       0.055
       0.000
      -0.030
      -0.046
      -0.058
      -0.075
      -0.096
      -0.114
      -0.125
      -0.125
      -0.118
      -0.113
      -0.117
      -0.131
      -0.152
      -0.171
      -0.182
      -0.183
      -0.179
      -0.173
      -0.172
      -0.175
      -0.175
      -0.160
      -0.121
      -0.056
       0.025
       0.102
       0.159
       0.192
       0.205
       0.210
       0.212
       0.215
       0.218
       0.221
       0.221
       0.216
       0.205
       0.190
       0.171
       0.147
       0.116
       0.080
       0.039
      -0.003
      -0.041
      -0.072
      -0.093
      -0.106
      -0.118
      -0.137
      -0.165
      -0.197
      -0.226
      -0.245
      -0.244
      -0.220
      -0.173
      -0.110
      -0.043
       0.017
       0.062
       0.090
       0.104
       0.109
       0.110
       0.108
       0.103
       0.093
       0.077
       0.059
       0.040
       0.023
       0.003
      -0.024
      -0.063
      -0.112
      -0.160
      -0.194
      -0.201
      -0.171
      -0.105
      -0.021
       0.060
       0.118
       0.141
       0.131
       0.092
       0.030
      -0.049
      -0.137
      -0.230
      -0.321
      -0.401
      -0.454
      -0.465
      -0.426
      -0.346
      -0.248
      -0.156
      -0.090
      -0.056
      -0.049
      -0.052
      -0.048
      -0.027
       0.009
       0.049
       0.077
       0.084
       0.066
       0.037
       0.013
       0.008
       0.021
       0.046
       0.074
       0.101
       0.131
       0.169
       0.216
       0.265
       0.301
       0.310
       0.283
       0.220
       0.132
       0.034
      -0.054
      -0.119
      -0.154
      -0.168
      -0.177
      -0.196
      -0.225
      -0.254
      -0.263
      -0.246
      -0.207
      -0.157
      -0.107
      -0.058
      -0.009
       0.043
       0.097
       0.149
       0.191
       0.217
       0.221
       0.201
       0.158
       0.104
       0.053
       0.023
       0.021
       0.048
       0.095
       0.149
       0.195
       0.225
       0.236
       0.226
       0.200
       0.159
       0.109
       0.059
       0.016
      -0.013
      -0.024
      -0.011
       0.029
       0.092
       0.167
       0.236
       0.281
       0.291
       0.268
       0.220
       0.164
       0.108
       0.055
       0.000
      -0.061
      -0.126
      -0.191
      -0.247
      -0.289
      -0.310
      -0.308
      -0.279
      -0.222
      -0.140
      -0.043
       0.055
       0.138
       0.200
       0.246
       0.275
       0.281
       0.254
       0.190
       0.102
       0.007
      -0.073
      -0.126
      -0.153
      -0.164
      -0.167
      -0.166
      -0.157
      -0.132
      -0.092
      -0.046
      -0.001
       0.038
       0.076
       0.116
       0.156
       0.187
       0.200
       0.189
       0.154
       0.104
       0.045
      -0.013
      -0.063
      -0.097
      -0.110
      -0.106
      -0.089
      -0.067
      -0.048
      -0.038
      -0.038
      -0.045
      -0.052
      -0.057
      -0.059
      -0.060
      -0.062
      -0.062
      -0.055
      -0.039
      -0.018
      -0.003
      -0.003
      -0.017
      -0.037
      -0.051
      -0.054
      -0.044
      -0.028
      -0.009
       0.011
       0.034
       0.062
       0.095
       0.131
       0.159
       0.170
       0.155
       0.116
       0.058
      -0.004
      -0.062
      -0.109
      -0.141
      -0.160
      -0.163
      -0.153
      -0.134
      -0.114
      -0.101
      -0.095
      -0.094
      -0.093
      -0.089
      -0.087
      -0.091
      -0.102
      -0.114
      -0.114
      -0.090
      -0.041
       0.025
       0.092
       0.144
       0.175
       0.191
       0.204
       0.221
       0.238
       0.246
       0.233
       0.194
       0.136
       0.071
       0.016
      -0.019
      -0.034
      -0.038
      -0.041
      -0.054
      -0.080
      -0.112
      -0.135
      -0.135
      -0.111
      -0.071
      -0.034
      -0.016
      -0.022
      -0.049
      -0.088
      -0.128
      -0.160
      -0.180
      -0.184
      -0.173
      -0.150
      -0.120
      -0.084
      -0.039
       0.016
       0.074
       0.118
       0.131
       0.106
       0.055
       0.001
      -0.037
      -0.048
      -0.032
       0.003
       0.048
       0.096
       0.139
       0.172
       0.188
       0.188
       0.175
       0.153
       0.122
       0.075
       0.010
      -0.068
      -0.143
      -0.198
      -0.225
      -0.224
      -0.199
      -0.158
      -0.104
      -0.043
       0.024
       0.089
       0.148
       0.192
       0.216
       0.220
       0.209
       0.185
       0.150
       0.109
       0.073
       0.054
       0.052
       0.058
       0.065
       0.068
       0.076
       0.094
       0.117
       0.133
       0.128
       0.096
       0.044
      -0.017
      -0.074
      -0.116
      -0.139
      -0.147
      -0.147
      -0.146
      -0.145
      -0.139
      -0.120
      -0.086
      -0.041
       0.006
       0.043
       0.060
       0.055
       0.032
       0.003
      -0.020
      -0.028
      -0.019
       0.003
       0.033
       0.068
       0.113
       0.170
       0.238
       0.309
       0.368
       0.401
       0.398
       0.361
       0.299
       0.226
       0.156
       0.099
       0.059
       0.031
       0.006
      -0.022
      -0.051
      -0.072
      -0.077
      -0.065
      -0.046
      -0.033
      -0.036
      -0.055
      -0.083
      -0.105
      -0.110
      -0.094
      -0.064
      -0.034
      -0.016
      -0.020
      -0.046
      -0.084
      -0.119
      -0.138
      -0.137
      -0.125
      -0.114
      -0.112
      -0.118
      -0.124
      -0.117
      -0.090
      -0.045
       0.008
       0.051
       0.073
       0.072
       0.060
       0.047
       0.042
       0.046
       0.052
       0.056
       0.051
       0.040
       0.027
       0.020
       0.028
       0.052
       0.087
       0.120
       0.135
       0.126
       0.098
       0.065
       0.039
       0.029
       0.034
       0.048
       0.058
       0.052
       0.028
      -0.005
      -0.031
      -0.038
      -0.024
       0.001
       0.021
       0.028
       0.020
       0.006
      -0.003
       0.001
       0.016
       0.034
       0.043
       0.036
       0.009
      -0.031
      -0.073
      -0.105
      -0.126
      -0.139
      -0.151
      -0.162
      -0.170
      -0.170
      -0.156
      -0.129
      -0.093
      -0.058
      -0.031
      -0.016
      -0.014
      -0.019
      -0.027
      -0.034
      -0.039
      -0.046
      -0.064
      -0.099
      -0.150
      -0.206
      -0.250
      -0.264
      -0.237
      -0.177
      -0.103
      -0.034
       0.014
       0.041
       0.054
       0.066
       0.082
       0.100
       0.112
       0.113
       0.100
       0.081
       0.066
       0.066
       0.082
       0.102
       0.114
       0.103
       0.066
