Origin Time       1/5/2013 06:57:12	 
Lat.              33.1 N	
Long.             75.8 E	
Depth (Km)         15.0
Magnitude         5.8
 Region           JK-HP-Border                                                     
 Above details taken from IMD 
     
Station Code      ROO
Station Lat.       29.866  N
Station Long.      77.901  E
Station Height(m)  262.0
Site Class        C   Vs30 between 200 m/sec to 375 m/sec *  
Record Time       01.05.2013 06:58:28.419
Sampling Rate     200. Hz
 Record Duration  159.035 Sec.
 Direction         E-W (E positive)
Max. Acceleration      1.863 cm/sec**2
     
  * For reference see Site Classification link of website 
     
 Base Line Corrected and Low Pass Filtered (Cut Off at 35 Hz) Time History
 Acceleration data in cm/sec**2
    
[...]
       0.705
       0.766
       0.827
       0.880
       0.911
       0.912
       0.879
       0.814
       0.718
       0.591
       0.434
       0.251
       0.050
      -0.158
      -0.364
      -0.563
      -0.752
      -0.929
      -1.089
      -1.225
      -1.330
      -1.399
      -1.433
      -1.433
      -1.401
      -1.340
      -1.252
      -1.137
      -0.994
      -0.825
      -0.631
      -0.419
      -0.193
       0.040
       0.275
       0.505
       0.722
       0.916
       1.079
       1.212
       1.316
       1.392
       1.437
       1.446
       1.418
       1.360
       1.277
       1.176
       1.055
       0.913
       0.749
       0.570
       0.384
       0.198
       0.016
      -0.159
      -0.326
      -0.485
      -0.634
      -0.766
      -0.873
      -0.949
      -0.999
      -1.030
      -1.047
      -1.050
      -1.035
      -1.002
      -0.953
      -0.894
      -0.830
      -0.767
      -0.705
      -0.641
      -0.573
      -0.500
      -0.423
      -0.340
      -0.251
      -0.156
      -0.056
       0.050
       0.161
       0.273
       0.380
       0.478
       0.566
       0.644
       0.707
       0.748
       0.762
       0.748
       0.709
       0.650
       0.577
       0.491
       0.392
       0.282
       0.164
       0.045
      -0.073
      -0.184
      -0.283
      -0.365
      -0.427
      -0.471
      -0.500
      -0.517
      -0.520
      -0.510
      -0.489
      -0.463
      -0.436
      -0.404
      -0.358
      -0.290
      -0.200
      -0.097
       0.007
       0.102
       0.180
       0.243
       0.290
       0.324
       0.345
       0.354
       0.348
       0.325
       0.280
       0.216
       0.134
       0.042
      -0.051
      -0.141
      -0.226
      -0.307
      -0.385
      -0.455
      -0.511
      -0.545
      -0.554
      -0.538
      -0.500
      -0.444
      -0.379
      -0.312
      -0.249
      -0.192
      -0.141
      -0.095
      -0.051
      -0.011
       0.027
       0.064
       0.103
       0.145
       0.188
       0.231
       0.273
       0.314
       0.355
       0.395
       0.432
       0.463
       0.487
       0.504
       0.513
       0.512
       0.498
       0.469
       0.425
       0.364
       0.291
       0.214
       0.137
       0.061
      -0.019
      -0.100
      -0.177
      -0.242
      -0.292
      -0.327
      -0.353
      -0.378
      -0.404
      -0.427
      -0.441
      -0.443
      -0.433
      -0.419
      -0.407
      -0.398
      -0.386
      -0.360
      -0.312
      -0.243
      -0.163
      -0.081
      -0.001
       0.077
       0.158
       0.236
       0.301
       0.344
       0.364
       0.371
       0.373
       0.372
       0.364
       0.343
       0.309
       0.268
       0.226
       0.191
       0.165
       0.148
       0.139
       0.137
       0.147
       0.171
       0.205
       0.248
       0.295
       0.342
       0.386
       0.426
       0.461
       0.495
       0.529
       0.562
       0.593
       0.620
       0.639
       0.648
       0.649
       0.647
       0.644
       0.643
       0.645
       0.651
       0.660
       0.665
       0.659
       0.640
       0.613
       0.584
       0.552
       0.507
       0.443
       0.357
       0.255
       0.148
       0.047
      -0.042
      -0.123
      -0.203
      -0.287
      -0.375
      -0.461
      -0.540
      -0.611
      -0.673
      -0.725
      -0.769
      -0.804
      -0.828
      -0.838
      -0.834
      -0.820
      -0.799
      -0.770
      -0.731
      -0.684
      -0.633
      -0.583
      -0.537
      -0.495
      -0.452
      -0.400
      -0.335
      -0.256
      -0.166
      -0.068
       0.037
       0.152
       0.279
       0.413
       0.546
       0.672
       0.791
       0.905
       1.012
       1.101
       1.163
       1.193
       1.190
       1.158
       1.097
       1.002
       0.876
       0.724
       0.556
       0.379
       0.195
       0.008
      -0.183
      -0.374
      -0.567
      -0.755
      -0.934
      -1.092
      -1.227
      -1.336
      -1.420
      -1.479
      -1.509
      -1.504
      -1.461
      -1.380
      -1.267
      -1.128
      -0.964
      -0.777
      -0.564
      -0.324
      -0.065
       0.206
       0.474
       0.726
       0.949
       1.139
       1.295
       1.419
       1.506
       1.549
       1.541
       1.483
       1.380
       1.245
       1.090
       0.924
       0.755
       0.584
       0.411
       0.236
       0.062
      -0.104
      -0.258
      -0.395
      -0.511
      -0.607
      -0.685
      -0.748
      -0.802
      -0.852
      -0.897
      -0.936
      -0.959
      -0.959
      -0.935
      -0.892
      -0.839
      -0.781
      -0.717
      -0.643
      -0.559
      -0.472
      -0.391
      -0.325
      -0.274
      -0.233
      -0.194
      -0.155
      -0.123
      -0.110
      -0.119
      -0.144
      -0.173
      -0.201
      -0.225
      -0.248
      -0.266
      -0.274
      -0.268
      -0.244
      -0.205
      -0.156
      -0.101
      -0.043
       0.012
       0.061
       0.101
       0.131
       0.152
       0.165
       0.175
       0.185
       0.201
       0.223
       0.245
       0.259
       0.260
       0.255
       0.248
       0.245
       0.245
       0.243
       0.234
       0.213
       0.180
       0.138
       0.094
       0.053
       0.016
      -0.015
      -0.036
      -0.042
      -0.030
      -0.001
       0.043
       0.098
       0.162
       0.235
       0.317
       0.404
       0.487
       0.560
       0.624
       0.682
       0.739
       0.793
       0.836
       0.862
       0.871
       0.866
       0.853
       0.835
       0.810
       0.776
       0.730
       0.669
       0.595
       0.506
       0.403
       0.291
       0.169
       0.040
      -0.092
      -0.222
      -0.337
      -0.426
      -0.486
      -0.517
      -0.522
      -0.501
      -0.452
      -0.377
      -0.283
      -0.180
      -0.075
       0.034
       0.145
       0.253
       0.346
       0.409
       0.439
       0.439
       0.415
       0.372
       0.309
       0.224
       0.121
       0.006
      -0.113
      -0.233
      -0.351
      -0.466
      -0.572
      -0.662
      -0.733
      -0.785
      -0.823
      -0.848
      -0.861
      -0.860
      -0.844
      -0.815
      -0.775
      -0.730
      -0.680
      -0.625
      -0.565
      -0.506
      -0.450
      -0.396
      -0.344
      -0.292
      -0.238
      -0.183
      -0.124
      -0.056
       0.023
       0.114
       0.211
       0.308
       0.398
       0.481
       0.559
       0.633
       0.698
       0.749
       0.781
       0.789
       0.769
       0.716
       0.630
       0.515
       0.377
       0.225
       0.064
      -0.101
      -0.266
      -0.428
      -0.586
      -0.735
      -0.870
      -0.988
      -1.084
      -1.156
      -1.200
      -1.212
      -1.195
      -1.151
      -1.086
      -1.000
      -0.889
      -0.756
      -0.604
      -0.442
      -0.278
      -0.117
       0.044
       0.206
       0.365
       0.510
       0.630
       0.721
       0.785
       0.829
       0.854
       0.861
       0.849
       0.820
       0.770
       0.697
       0.601
       0.481
       0.341
       0.187
       0.024
      -0.140
      -0.298
      -0.444
      -0.578
      -0.701
      -0.817
      -0.927
      -1.028
      -1.113
      -1.177
      -1.220
      -1.246
      -1.259
      -1.258
      -1.241
      -1.203
      -1.141
      -1.054
      -0.942
      -0.805
      -0.643
      -0.454
      -0.238
      -0.001
       0.241
       0.477
       0.700
       0.907
       1.098
       1.270
       1.417
       1.535
       1.621
       1.675
       1.698
       1.690
       1.651
       1.582
       1.484
       1.359
       1.207
       1.031
       0.834
       0.623
       0.407
       0.190
      -0.024
      -0.231
      -0.427
      -0.605
      -0.760
      -0.894
      -1.006
      -1.099
      -1.172
      -1.226
      -1.261
      -1.274
      -1.263
      -1.229
      -1.177
      -1.109
      -1.026
      -0.928
      -0.820
      -0.708
      -0.597
      -0.483
      -0.366
      -0.242
      -0.114
       0.016
       0.141
       0.257
       0.360
       0.448
       0.520
       0.573
       0.610
       0.633
       0.645
       0.646
       0.635
       0.617
       0.596
       0.576
       0.559
       0.547
       0.543
       0.546
       0.554
       0.561
       0.566
       0.564
       0.557
       0.543
       0.525
       0.500
       0.468
       0.434
       0.401
       0.373
       0.348
       0.322
       0.298
       0.282
       0.277
       0.279
       0.278
       0.270
       0.252
       0.229
       0.210
       0.198
       0.198
       0.208
       0.226
       0.245
       0.260
       0.265
       0.258
       0.235
       0.197
       0.146
       0.083
       0.009
      -0.080
      -0.183
      -0.294
      -0.405
      -0.509
      -0.600
      -0.676
      -0.739
      -0.790
      -0.829
      -0.848
      -0.843
      -0.810
      -0.758
      -0.695
      -0.625
      -0.549
      -0.465
      -0.369
      -0.259
      -0.139
      -0.013
       0.114
       0.239
       0.355
       0.458
       0.545
       0.615
       0.669
       0.706
       0.719
       0.703
       0.654
       0.576
       0.473
       0.354
       0.224
       0.086
      -0.055
      -0.192
      -0.318
      -0.427
      -0.513
      -0.576
      -0.615
      -0.631
      -0.625
      -0.598
      -0.551
      -0.488
      -0.409
      -0.317
      -0.219
      -0.117
      -0.019
       0.073
       0.152
       0.215
       0.263
       0.300
       0.331
       0.358
       0.378
       0.384
       0.372
       0.348
       0.320
       0.298
       0.284
       0.275
       0.265
       0.252
       0.235
       0.215
       0.188
       0.155
       0.115
       0.069
       0.019
      -0.034
      -0.085
      -0.125
      -0.147
      -0.151
      -0.139
      -0.113
      -0.076
      -0.027
       0.032
       0.098
       0.167
       0.236
       0.312
       0.397
       0.490
       0.581
       0.656
       0.713
       0.756
       0.794
       0.829
       0.856
       0.865
       0.853
       0.821
       0.774
       0.718
       0.651
       0.570
       0.474
       0.369
       0.266
       0.176
       0.103
       0.048
       0.011
      -0.012
      -0.022
      -0.022
      -0.012
       0.010
       0.046
       0.091
       0.137
       0.177
       0.207
       0.226
       0.231
       0.216
       0.177
       0.116
       0.037
      -0.054
      -0.156
      -0.273
      -0.407
      -0.555
      -0.706
      -0.852
      -0.990
      -1.119
      -1.237
      -1.336
      -1.410
      -1.453
      -1.462
      -1.437
      -1.381
      -1.298
      -1.193
      -1.071
      -0.934
      -0.786
      -0.629
      -0.468
      -0.307
      -0.152
      -0.009
       0.119
       0.232
       0.329
       0.410
       0.473
       0.519
       0.547
       0.557
       0.553
       0.536
       0.508
       0.470
       0.418
       0.356
       0.290
       0.229
       0.178
       0.133
       0.089
       0.046
       0.011
      -0.011
      -0.021
      -0.025
      -0.029
      -0.037
      -0.043
      -0.040
      -0.022
       0.009
       0.045
       0.080
       0.111
       0.140
       0.165
       0.189
       0.211
       0.230
       0.247
       0.264
       0.284
       0.307
       0.329
       0.342
       0.339
       0.324
       0.300
       0.271
       0.239
       0.207
       0.182
       0.168
       0.166
       0.170
       0.174
       0.171
       0.158
       0.132
       0.095
       0.055
       0.017
      -0.012
      -0.036
      -0.059
      -0.085
      -0.111
      -0.131
      -0.140
      -0.144
      -0.150
      -0.163
      -0.180
      -0.191
      -0.194
      -0.192
      -0.192
      -0.194
      -0.195
      -0.192
      -0.186
      -0.179
      -0.173
      -0.171
      -0.173
      -0.185
      -0.208
      -0.242
      -0.285
      -0.337
      -0.398
      -0.463
      -0.526
      -0.579
      -0.617
      -0.637
      -0.643
      -0.637
      -0.624
      -0.604
      -0.572
      -0.528
      -0.474
      -0.419
      -0.371
      -0.333
      -0.302
      -0.276
      -0.251
      -0.227
      -0.208
      -0.192
      -0.172
      -0.145
      -0.114
      -0.084
      -0.060
      -0.036
      -0.005
       0.040
       0.099
       0.165
       0.233
       0.298
       0.358
       0.416
       0.475
       0.536
       0.597
       0.654
       0.700
       0.732
       0.748
       0.751
       0.739
       0.712
       0.668
       0.604
       0.518
       0.413
       0.294
       0.168
       0.042
      -0.076
      -0.179
      -0.262
      -0.323
      -0.361
      -0.379
      -0.380
      -0.367
      -0.339
      -0.294
      -0.238
      -0.181
      -0.136
      -0.112
      -0.110
      -0.125
      -0.155
      -0.199
      -0.259
      -0.332
      -0.417
      -0.510
      -0.608
      -0.703
      -0.789
      -0.858
      -0.906
      -0.931
      -0.933
      -0.909
      -0.854
      -0.763
      -0.639
      -0.489
      -0.320
      -0.138
       0.060
       0.274
       0.501
       0.732
       0.957
       1.166
       1.354
       1.521
       1.662
       1.770
       1.837
       1.863
       1.851
       1.808
       1.735
       1.633
       1.504
       1.352
       1.183
       1.000
       0.805
       0.602
       0.397
       0.200
       0.017
      -0.143
      -0.278
      -0.390
      -0.478
      -0.542
      -0.584
      -0.608
      -0.617
      -0.613
      -0.595
      -0.563
      -0.518
      -0.461
      -0.393
      -0.310
      -0.216
      -0.113
      -0.013
       0.075
       0.148
       0.209
       0.268
       0.324
       0.373
       0.404
       0.410
       0.391
       0.353
       0.303
       0.243
       0.172
       0.091
       0.003
      -0.087
      -0.176
      -0.264
      -0.351
      -0.438
      -0.520
      -0.594
      -0.654
      -0.703
      -0.744
      -0.778
      -0.803
      -0.816
      -0.816
      -0.803
      -0.778
      -0.741
      -0.689
      -0.627
      -0.559
      -0.492
      -0.430
      -0.372
      -0.317
      -0.265
      -0.222
      -0.192
      -0.177
      -0.173
      -0.173
      -0.177
      -0.184
      -0.193
      -0.200
      -0.198
      -0.184
      -0.161
      -0.131
      -0.097
      -0.059
      -0.018
       0.022
       0.059
       0.092
       0.123
       0.150
       0.172
       0.183
       0.185
       0.182
       0.179
       0.180
       0.178
       0.169
       0.155
       0.144
       0.144
       0.155
       0.173
       0.195
       0.225
       0.263
       0.306
       0.346
       0.381
       0.408
       0.428
       0.440
       0.443
       0.435
       0.410
       0.368
       0.316
       0.264
       0.219
       0.182
       0.148
       0.112
       0.078
       0.050
       0.032
       0.021
       0.009
      -0.009
      -0.028
      -0.043
      -0.050
      -0.051
      -0.055
      -0.065
      -0.081
      -0.099
      -0.120
      -0.143
      -0.167
      -0.187
      -0.204
      -0.223
      -0.245
      -0.267
      -0.282
      -0.286
      -0.277
      -0.261
      -0.244
      -0.224
      -0.196
      -0.152
      -0.092
      -0.023
       0.045
       0.104
       0.156
       0.205
       0.253
       0.298
       0.332
       0.351
       0.356
       0.349
       0.331
       0.302
       0.266
       0.225
       0.185
       0.146
       0.107
       0.066
       0.021
      -0.024
      -0.061
      -0.083
      -0.088
      -0.071
      -0.033
       0.025
       0.096
       0.178
       0.269
       0.366
       0.464
       0.553
       0.624
       0.667
       0.681
       0.666
       0.627
       0.568
       0.486
       0.377
       0.241
       0.086
      -0.076
      -0.236
      -0.390
      -0.537
      -0.673
      -0.789
      -0.879
      -0.940
      -0.972
      -0.983
      -0.977
      -0.959
      -0.929
      -0.881
      -0.814
      -0.729
      -0.631
      -0.527
      -0.423
      -0.322
      -0.220
      -0.116
      -0.009
       0.095
       0.191
       0.274
       0.348
       0.416
       0.483
       0.551
       0.618
       0.677
       0.723
       0.756
       0.781
       0.806
       0.832
       0.853
       0.859
       0.846
       0.816
       0.776
       0.729
       0.673
       0.603
       0.517
       0.421
       0.325
       0.234
       0.150
       0.071
      -0.006
      -0.077
      -0.137
      -0.184
      -0.215
      -0.233
      -0.239
      -0.236
      -0.224
      -0.203
      -0.170
      -0.130
      -0.087
      -0.049
      -0.020
      -0.003
       0.001
      -0.010
      -0.033
      -0.064
      -0.102
      -0.148
      -0.205
      -0.271
      -0.342
      -0.412
      -0.478
      -0.539
      -0.594
      -0.640
      -0.674
      -0.689
      -0.685
      -0.658
      -0.604
      -0.520
      -0.408
      -0.277
      -0.140
      -0.008
       0.118
       0.237
       0.346
       0.436
       0.497
       0.522
       0.511
       0.466
       0.389
       0.282
       0.147
      -0.010
      -0.184
      -0.368
      -0.553
      -0.731
      -0.896
      -1.040
      -1.158
      -1.247
      -1.307
      -1.339
      -1.343
      -1.319
      -1.271
      -1.202
      -1.119
      -1.027
      -0.927
      -0.823
      -0.719
      -0.622
      -0.534
      -0.456
      -0.386
      -0.323
      -0.265
      -0.210
      -0.155
      -0.102
      -0.049
       0.004
       0.060
       0.120
       0.185
       0.257
       0.333
       0.409
       0.478
       0.537
       0.586
       0.628
       0.665
       0.695
       0.712
       0.710
       0.688
       0.649
       0.598
       0.535
       0.461
       0.377
       0.288
       0.197
       0.108
       0.020
      -0.066
      -0.150
      -0.230
      -0.304
      -0.371
      -0.430
      -0.480
      -0.519
      -0.544
      -0.554
      -0.551
      -0.543
      -0.536
      -0.534
      -0.534
      -0.534
      -0.535
      -0.542
      -0.560
      -0.588
      -0.623
      -0.655
      -0.674
      -0.675
      -0.659
      -0.628
      -0.587
      -0.535
      -0.470
      -0.391
      -0.300
      -0.196
      -0.081
       0.046
       0.186
       0.338
       0.495
       0.653
       0.804
       0.948
       1.086
       1.217
       1.339
       1.442
       1.513
       1.547
       1.543
       1.509
       1.453
       1.379
       1.287
       1.177
       1.050
       0.913
       0.772
       0.631
       0.491
       0.350
       0.212
       0.079
      -0.043
      -0.152
      -0.243
      -0.317
      -0.376
      -0.419
      -0.445
      -0.450
      -0.436
      -0.404
      -0.360
      -0.309
      -0.253
      -0.191
      -0.122
      -0.048
       0.027
       0.091
       0.136
       0.158
       0.161
       0.158
       0.162
       0.180
       0.208
       0.237
       0.263
       0.287
