Origin Time       01/05/2009 22:36:25 UTC
Lat.              29.9 N 
Long.             80.1 E 
Depth (Km)         10.0
Magnitude         4.6
 Region           Bageshwar-Uttarakhand                                            
 Above details taken from IMD 
    
Station Code      Roo
Station Lat.       29.866  N
Station Long.      77.901  E
Station Height(m)  243.0
Site Class        C   Vs30 between 200 m/sec to 375 m/sec *  
Record Time       01.05.2010 22:35:17.934 UTC
Sampling Rate     200. Hz
 Record Duration  105.250 Sec.
 Direction         N-S (N positive)
Max. Acceleration      1.637 cm/sec**2
     
  * For reference see Site Classification link of website 
     
 Base Line Corrected and Low Pass Filtered (Cut Off at 35 Hz) Time History
 Acceleration data in cm/sec**2
    
[...]
       0.083
       0.090
       0.103
       0.119
       0.130
       0.130
       0.117
       0.095
       0.072
       0.051
       0.035
       0.022
       0.008
      -0.012
      -0.041
      -0.075
      -0.106
      -0.126
      -0.134
      -0.131
      -0.120
      -0.103
      -0.080
      -0.052
      -0.027
      -0.012
      -0.010
      -0.012
      -0.007
       0.010
       0.036
       0.059
       0.073
       0.077
       0.074
       0.067
       0.055
       0.040
       0.025
       0.014
       0.009
       0.011
       0.016
       0.020
       0.020
       0.016
       0.007
      -0.005
      -0.018
      -0.028
      -0.034
      -0.034
      -0.028
      -0.020
      -0.014
      -0.009
      -0.007
      -0.008
      -0.010
      -0.010
      -0.006
       0.003
       0.010
       0.015
       0.016
       0.013
       0.001
      -0.021
      -0.049
      -0.077
      -0.100
      -0.114
      -0.121
      -0.122
      -0.120
      -0.113
      -0.103
      -0.087
      -0.067
      -0.044
      -0.016
       0.020
       0.063
       0.107
       0.142
       0.164
       0.173
       0.172
       0.163
       0.146
       0.120
       0.089
       0.062
       0.048
       0.046
       0.047
       0.043
       0.030
       0.012
      -0.003
      -0.011
      -0.015
      -0.020
      -0.030
      -0.041
      -0.049
      -0.051
      -0.048
      -0.047
      -0.051
      -0.060
      -0.070
      -0.074
      -0.073
      -0.070
      -0.073
      -0.082
      -0.092
      -0.094
      -0.086
      -0.070
      -0.051
      -0.030
      -0.006
       0.019
       0.046
       0.071
       0.094
       0.114
       0.130
       0.141
       0.150
       0.157
       0.159
       0.156
       0.144
       0.127
       0.106
       0.084
       0.065
       0.052
       0.044
       0.035
       0.018
      -0.010
      -0.045
      -0.080
      -0.107
      -0.125
      -0.133
      -0.132
      -0.119
      -0.093
      -0.054
      -0.010
       0.028
       0.052
       0.062
       0.066
       0.068
       0.071
       0.073
       0.071
       0.064
       0.055
       0.045
       0.040
       0.038
       0.037
       0.035
       0.031
       0.029
       0.029
       0.031
       0.032
       0.027
       0.016
      -0.005
      -0.032
      -0.061
      -0.087
      -0.104
      -0.111
      -0.111
      -0.108
      -0.106
      -0.103
      -0.098
      -0.088
      -0.071
      -0.047
      -0.017
       0.017
       0.049
       0.075
       0.091
       0.095
       0.091
       0.080
       0.064
       0.042
       0.013
      -0.018
      -0.045
      -0.060
      -0.064
      -0.059
      -0.052
      -0.048
      -0.047
      -0.051
      -0.057
      -0.061
      -0.061
      -0.053
      -0.038
      -0.019
       0.001
       0.021
       0.042
       0.059
       0.069
       0.067
       0.055
       0.039
       0.023
       0.009
      -0.007
      -0.023
      -0.042
      -0.062
      -0.084
      -0.106
      -0.125
      -0.137
      -0.137
      -0.123
      -0.102
      -0.078
      -0.057
      -0.039
      -0.020
       0.002
       0.026
       0.050
       0.069
       0.083
       0.092
       0.098
       0.101
       0.098
       0.086
       0.064
       0.037
       0.013
       0.002
       0.004
       0.017
       0.035
       0.051
       0.064
       0.073
       0.077
       0.074
       0.064
       0.047
       0.026
       0.006
      -0.010
      -0.020
      -0.027
      -0.034
      -0.043
      -0.055
      -0.067
      -0.077
      -0.082
      -0.083
      -0.081
      -0.077
      -0.073
      -0.067
      -0.059
      -0.046
      -0.029
      -0.009
       0.009
       0.020
       0.025
       0.029
       0.038
       0.053
       0.072
       0.090
       0.105
       0.113
       0.111
       0.096
       0.071
       0.039
       0.005
      -0.028
      -0.055
      -0.076
      -0.092
      -0.106
      -0.119
      -0.131
      -0.139
      -0.145
      -0.146
      -0.139
      -0.121
      -0.091
      -0.056
      -0.027
      -0.006
       0.010
       0.029
       0.053
       0.078
       0.099
       0.111
       0.117
       0.122
       0.126
       0.131
       0.132
       0.131
       0.130
       0.131
       0.132
       0.127
       0.113
       0.094
       0.076
       0.065
       0.062
       0.062
       0.062
       0.063
       0.065
       0.069
       0.073
       0.074
       0.070
       0.059
       0.042
       0.023
       0.005
      -0.007
      -0.009
      -0.007
      -0.006
      -0.011
      -0.020
      -0.029
      -0.034
      -0.034
      -0.033
      -0.032
      -0.031
      -0.027
      -0.018
      -0.004
       0.009
       0.015
       0.014
       0.005
      -0.007
      -0.020
      -0.028
      -0.029
      -0.024
      -0.015
      -0.010
      -0.013
      -0.029
      -0.058
      -0.093
      -0.127
      -0.154
      -0.168
      -0.170
      -0.162
      -0.151
      -0.142
      -0.140
      -0.147
      -0.157
      -0.162
      -0.157
      -0.141
      -0.117
      -0.093
      -0.070
      -0.050
      -0.036
      -0.030
      -0.032
      -0.042
      -0.050
      -0.051
      -0.041
      -0.023
       0.000
       0.022
       0.041
       0.053
       0.056
       0.048
       0.031
       0.013
      -0.002
      -0.008
      -0.011
      -0.014
      -0.022
      -0.035
      -0.051
      -0.068
      -0.083
      -0.093
      -0.091
      -0.078
      -0.055
      -0.029
      -0.010
       0.000
       0.002
      -0.002
      -0.008
      -0.015
      -0.022
      -0.027
      -0.030
      -0.029
      -0.030
      -0.035
      -0.042
      -0.049
      -0.049
      -0.043
      -0.030
      -0.012
       0.010
       0.032
       0.055
       0.078
       0.097
       0.109
       0.112
       0.109
       0.102
       0.092
       0.082
       0.072
       0.063
       0.055
       0.046
       0.034
       0.021
       0.011
       0.004
      -0.006
      -0.024
      -0.048
      -0.075
      -0.100
      -0.117
      -0.123
      -0.118
      -0.102
      -0.079
      -0.052
      -0.026
      -0.002
       0.020
       0.042
       0.066
       0.094
       0.124
       0.157
       0.190
       0.219
       0.240
       0.249
       0.239
       0.209
       0.165
       0.118
       0.080
       0.058
       0.047
       0.034
       0.011
      -0.026
      -0.070
      -0.112
      -0.143
      -0.164
      -0.178
      -0.184
      -0.183
      -0.173
      -0.155
      -0.132
      -0.107
      -0.081
      -0.057
      -0.032
      -0.007
       0.018
       0.042
       0.062
       0.075
       0.080
       0.079
       0.074
       0.067
       0.058
       0.046
       0.033
       0.022
       0.013
       0.007
       0.000
      -0.011
      -0.027
      -0.047
      -0.066
      -0.083
      -0.097
      -0.110
      -0.123
      -0.134
      -0.141
      -0.142
      -0.137
      -0.124
      -0.104
      -0.077
      -0.045
      -0.010
       0.026
       0.060
       0.091
       0.113
       0.128
       0.135
       0.136
       0.133
       0.123
       0.103
       0.077
       0.048
       0.026
       0.014
       0.012
       0.013
       0.013
       0.008
       0.000
      -0.008
      -0.010
      -0.003
       0.011
       0.028
       0.043
       0.057
       0.072
       0.091
       0.115
       0.141
       0.165
       0.184
       0.200
       0.217
       0.234
       0.249
       0.258
       0.255
       0.239
       0.212
       0.177
       0.140
       0.098
       0.052
       0.000
      -0.050
      -0.089
      -0.111
      -0.121
      -0.126
      -0.136
      -0.154
      -0.174
      -0.193
      -0.204
      -0.208
      -0.209
      -0.208
      -0.204
      -0.197
      -0.183
      -0.169
      -0.157
      -0.149
      -0.143
      -0.135
      -0.124
      -0.111
      -0.099
      -0.089
      -0.080
      -0.071
      -0.061
      -0.052
      -0.048
      -0.049
      -0.055
      -0.061
      -0.063
      -0.058
      -0.047
      -0.036
      -0.026
      -0.021
      -0.019
      -0.023
      -0.033
      -0.046
      -0.059
      -0.065
      -0.065
      -0.062
      -0.061
      -0.064
      -0.066
      -0.066
      -0.061
      -0.051
      -0.040
      -0.027
      -0.016
      -0.009
      -0.006
      -0.002
       0.006
       0.017
       0.027
       0.029
       0.020
       0.003
      -0.014
      -0.025
      -0.028
      -0.030
      -0.038
      -0.054
      -0.072
      -0.085
      -0.088
      -0.081
      -0.066
      -0.046
      -0.024
      -0.002
       0.017
       0.033
       0.043
       0.049
       0.052
       0.057
       0.065
       0.076
       0.086
       0.089
       0.087
       0.083
       0.081
       0.082
       0.082
       0.076
       0.065
       0.051
       0.039
       0.029
       0.020
       0.013
       0.008
       0.007
       0.008
       0.011
       0.015
       0.022
       0.035
       0.055
       0.078
       0.102
       0.126
       0.147
       0.166
       0.180
       0.186
       0.183
       0.175
       0.166
       0.157
       0.148
       0.137
       0.122
       0.104
       0.082
       0.056
       0.026
      -0.005
      -0.033
      -0.059
      -0.084
      -0.109
      -0.134
      -0.152
      -0.158
      -0.150
      -0.135
      -0.119
      -0.107
      -0.095
      -0.081
      -0.064
      -0.051
      -0.047
      -0.055
      -0.071
      -0.086
      -0.096
      -0.104
      -0.115
      -0.135
      -0.165
      -0.200
      -0.234
      -0.267
      -0.300
      -0.332
      -0.362
      -0.384
      -0.397
      -0.401
      -0.398
      -0.391
      -0.379
      -0.360
      -0.333
      -0.299
      -0.259
      -0.218
      -0.182
      -0.154
      -0.134
      -0.116
      -0.093
      -0.061
      -0.021
       0.025
       0.077
       0.130
       0.178
       0.214
       0.238
       0.252
       0.264
       0.277
       0.292
       0.307
       0.320
       0.325
       0.316
       0.285
       0.231
       0.160
       0.078
      -0.001
      -0.069
      -0.117
      -0.143
      -0.150
      -0.146
      -0.142
      -0.143
      -0.150
      -0.154
      -0.150
      -0.134
      -0.108
      -0.075
      -0.038
      -0.002
       0.035
       0.072
       0.112
       0.155
       0.204
       0.257
       0.315
       0.375
       0.435
       0.492
       0.540
       0.573
       0.583
       0.567
       0.526
       0.468
       0.399
       0.325
       0.248
       0.163
       0.066
      -0.045
      -0.167
      -0.297
      -0.432
      -0.569
      -0.702
      -0.822
      -0.922
      -0.999
      -1.048
      -1.067
      -1.051
      -1.000
      -0.922
      -0.825
      -0.716
      -0.600
      -0.480
      -0.360
      -0.244
      -0.134
      -0.033
       0.062
       0.151
       0.234
       0.306
       0.361
       0.395
       0.405
       0.390
       0.351
       0.290
       0.211
       0.120
       0.024
      -0.065
      -0.141
      -0.200
      -0.246
      -0.280
      -0.306
      -0.326
      -0.338
      -0.340
      -0.328
      -0.302
      -0.262
      -0.214
      -0.158
      -0.092
      -0.014
       0.076
       0.173
       0.267
       0.355
       0.437
       0.511
       0.576
       0.626
       0.657
       0.670
       0.667
       0.650
       0.623
       0.588
       0.551
       0.517
       0.489
       0.462
       0.433
       0.400
       0.363
       0.325
       0.290
       0.260
       0.238
       0.229
       0.238
       0.265
       0.305
       0.348
       0.388
       0.423
       0.451
       0.472
       0.481
       0.471
       0.439
       0.392
       0.334
       0.270
       0.196
       0.104
      -0.007
      -0.134
      -0.266
      -0.394
      -0.506
      -0.596
      -0.660
      -0.696
      -0.700
      -0.670
      -0.610
      -0.528
      -0.431
      -0.325
      -0.211
      -0.093
       0.027
       0.143
       0.249
       0.337
       0.400
       0.432
       0.435
       0.412
       0.370
       0.318
       0.258
       0.189
       0.112
       0.031
      -0.048
      -0.123
      -0.193
      -0.264
      -0.339
      -0.413
      -0.481
      -0.533
      -0.563
      -0.573
      -0.571
      -0.564
      -0.554
      -0.538
      -0.507
      -0.457
      -0.390
      -0.310
      -0.227
      -0.146
      -0.067
       0.010
       0.090
       0.172
       0.253
       0.328
       0.395
       0.455
       0.509
       0.557
       0.592
       0.608
       0.600
       0.572
       0.529
       0.478
       0.425
       0.372
       0.322
       0.272
       0.224
       0.176
       0.130
       0.083
       0.035
      -0.019
      -0.078
      -0.143
      -0.210
      -0.279
      -0.346
      -0.407
      -0.458
      -0.496
      -0.522
      -0.544
      -0.566
      -0.592
      -0.620
      -0.651
      -0.683
      -0.719
      -0.762
      -0.808
      -0.852
      -0.888
      -0.916
      -0.938
      -0.954
      -0.961
      -0.951
      -0.917
      -0.855
      -0.766
      -0.649
      -0.506
      -0.338
      -0.153
       0.043
       0.242
       0.441
       0.634
       0.818
       0.991
       1.150
       1.294
       1.419
       1.520
       1.592
       1.633
       1.637
       1.603
       1.533
       1.431
       1.303
       1.154
       0.986
       0.803
       0.613
       0.422
       0.236
       0.058
      -0.107
      -0.257
      -0.385
      -0.484
      -0.553
      -0.597
      -0.626
      -0.645
      -0.652
      -0.640
      -0.600
      -0.527
      -0.423
      -0.295
      -0.151
       0.000
       0.149
       0.283
       0.395
       0.475
       0.518
       0.520
       0.480
       0.403
       0.298
       0.173
       0.029
      -0.131
      -0.303
      -0.474
      -0.631
      -0.767
      -0.879
      -0.970
      -1.036
      -1.072
      -1.071
      -1.039
      -0.987
      -0.927
      -0.864
      -0.790
      -0.698
      -0.585
      -0.454
      -0.315
      -0.178
      -0.046
       0.083
       0.207
       0.323
       0.426
       0.513
       0.586
       0.649
       0.705
       0.754
       0.789
       0.806
       0.807
       0.798
       0.785
       0.767
       0.737
       0.692
       0.632
       0.567
       0.504
       0.451
       0.405
       0.364
       0.324
       0.282
       0.235
       0.178
       0.107
       0.023
      -0.069
      -0.161
      -0.250
      -0.332
      -0.407
      -0.474
      -0.532
      -0.577
      -0.608
      -0.622
      -0.618
      -0.591
      -0.537
      -0.455
      -0.348
      -0.227
      -0.105
       0.006
       0.095
       0.159
       0.197
       0.209
       0.198
       0.162
       0.105
       0.032
      -0.047
      -0.124
      -0.193
      -0.252
      -0.297
      -0.326
      -0.335
      -0.323
      -0.290
      -0.241
      -0.184
      -0.124
      -0.066
      -0.013
       0.034
       0.076
       0.111
       0.140
       0.161
       0.174
       0.183
       0.187
       0.185
       0.174
       0.155
       0.126
       0.088
       0.040
      -0.012
      -0.065
      -0.114
      -0.161
      -0.211
      -0.264
      -0.316
      -0.364
      -0.409
      -0.453
      -0.498
      -0.543
      -0.582
      -0.607
      -0.611
      -0.594
      -0.560
      -0.514
      -0.461
      -0.393
      -0.302
      -0.177
      -0.019
       0.162
       0.348
       0.521
       0.668
       0.784
       0.868
       0.924
       0.953
       0.961
       0.951
       0.929
       0.895
       0.845
       0.775
       0.682
       0.564
       0.431
       0.292
       0.157
       0.035
      -0.074
      -0.171
      -0.257
      -0.337
      -0.413
      -0.482
      -0.541
      -0.584
      -0.607
      -0.610
      -0.592
      -0.553
      -0.493
      -0.417
      -0.332
      -0.245
      -0.162
      -0.086
      -0.016
       0.047
       0.104
       0.152
       0.193
       0.223
       0.240
       0.241
       0.225
       0.192
       0.144
       0.085
       0.017
      -0.053
      -0.123
      -0.186
      -0.238
      -0.277
      -0.301
      -0.315
      -0.321
      -0.318
      -0.305
      -0.281
      -0.243
      -0.188
      -0.116
      -0.028
       0.071
       0.171
       0.265
       0.348
       0.423
       0.494
       0.567
       0.643
       0.724
       0.807
       0.888
       0.960
       1.016
       1.051
       1.064
       1.055
       1.025
       0.974
       0.904
       0.817
       0.717
       0.605
       0.480
       0.340
       0.186
       0.022
      -0.148
      -0.320
      -0.488
      -0.647
      -0.793
      -0.925
      -1.044
      -1.151
      -1.242
      -1.311
      -1.350
      -1.350
      -1.306
      -1.219
      -1.096
      -0.952
      -0.800
      -0.647
      -0.495
      -0.343
      -0.190
      -0.038
       0.107
       0.239
       0.347
       0.422
       0.458
       0.456
       0.421
       0.360
       0.283
       0.194
       0.097
      -0.009
      -0.123
      -0.240
      -0.351
      -0.443
      -0.506
      -0.537
      -0.538
      -0.513
      -0.466
      -0.401
      -0.323
      -0.236
      -0.145
      -0.053
       0.040
       0.134
       0.225
       0.310
       0.383
       0.440
       0.483
       0.513
       0.533
       0.546
       0.551
       0.544
       0.521
       0.479
       0.422
       0.356
       0.284
       0.212
       0.145
       0.086
       0.037
      -0.006
      -0.047
      -0.093
      -0.145
      -0.201
      -0.257
      -0.306
      -0.341
      -0.356
      -0.346
      -0.309
      -0.248
      -0.171
      -0.085
       0.006
       0.098
       0.192
       0.289
       0.382
       0.460
       0.509
       0.522
       0.500
       0.453
       0.390
       0.315
       0.230
       0.139
       0.055
      -0.004
      -0.029
      -0.024
      -0.002
       0.018
       0.026
       0.022
       0.015
       0.016
       0.029
       0.045
       0.057
       0.058
       0.052
       0.043
       0.030
       0.010
      -0.020
      -0.057
      -0.094
      -0.123
      -0.143
      -0.161
      -0.187
      -0.226
      -0.281
      -0.350
      -0.433
      -0.523
      -0.611
      -0.685
      -0.739
      -0.767
      -0.767
      -0.735
      -0.671
      -0.573
      -0.447
      -0.297
      -0.125
       0.067
       0.270
       0.468
       0.644
       0.784
       0.887
       0.957
       1.001
       1.023
       1.019
       0.987
       0.931
       0.861
       0.786
       0.705
       0.608
       0.488
       0.344
       0.183
       0.019
      -0.139
      -0.286
      -0.421
      -0.540
      -0.637
      -0.708
      -0.752
      -0.767
      -0.751
      -0.708
      -0.646
      -0.578
      -0.511
      -0.443
      -0.371
      -0.297
      -0.227
      -0.171
      -0.135
      -0.119
      -0.116
      -0.120
      -0.125
      -0.127
      -0.122
      -0.109
      -0.091
      -0.070
