Origin Time       14/03/2010 6:53:21	
Lat.              31.7 N	
Long.             76.1 E	
Depth (Km)         29.0
Magnitude         4.6
 Region           HIMACHAL-PUNJAB-(HOSHIARPUR)-BORDER                              
 Above details taken from IMD 
     
Station Code      Roo
Station Lat.       29.866  N
Station Long.      77.901  E
Station Height(m)  243.0
Site Class        C   Vs30 between 200 m/sec to 375 m/sec *  
Record Time       14.03.2010 06:53:55.814
Sampling Rate     200. Hz
 Record Duration   70.010 Sec.
 Direction         E-W (E positive)
Max. Acceleration      0.688 cm/sec**2
     
  * For reference see Site Classification link of website 
     
 Base Line Corrected and Low Pass Filtered (Cut Off at 35 Hz) Time History
 Acceleration data in cm/sec**2
    
[...]
      -0.017
      -0.033
      -0.046
      -0.055
      -0.060
      -0.061
      -0.059
      -0.055
      -0.055
      -0.058
      -0.063
      -0.061
      -0.050
      -0.035
      -0.024
      -0.021
      -0.021
      -0.017
      -0.008
       0.001
       0.004
       0.002
      -0.003
      -0.007
      -0.010
      -0.010
      -0.012
      -0.015
      -0.019
      -0.025
      -0.030
      -0.030
      -0.024
      -0.011
       0.004
       0.017
       0.026
       0.033
       0.041
       0.052
       0.061
       0.067
       0.068
       0.069
       0.075
       0.088
       0.104
       0.115
       0.120
       0.116
       0.108
       0.098
       0.086
       0.074
       0.061
       0.049
       0.036
       0.023
       0.009
      -0.006
      -0.018
      -0.025
      -0.029
      -0.032
      -0.036
      -0.040
      -0.042
      -0.042
      -0.044
      -0.051
      -0.065
      -0.082
      -0.099
      -0.114
      -0.125
      -0.129
      -0.128
      -0.122
      -0.116
      -0.111
      -0.105
      -0.093
      -0.076
      -0.054
      -0.032
      -0.015
      -0.001
       0.010
       0.024
       0.043
       0.068
       0.097
       0.127
       0.154
       0.177
       0.196
       0.212
       0.222
       0.223
       0.216
       0.199
       0.175
       0.144
       0.106
       0.062
       0.016
      -0.030
      -0.072
      -0.113
      -0.152
      -0.189
      -0.220
      -0.240
      -0.251
      -0.256
      -0.259
      -0.262
      -0.266
      -0.266
      -0.260
      -0.244
      -0.222
      -0.198
      -0.178
      -0.160
      -0.142
      -0.117
      -0.083
      -0.042
       0.002
       0.047
       0.089
       0.128
       0.161
       0.188
       0.211
       0.231
       0.247
       0.256
       0.257
       0.250
       0.239
       0.232
       0.230
       0.230
       0.227
       0.215
       0.193
       0.164
       0.135
       0.112
       0.097
       0.088
       0.079
       0.062
       0.038
       0.010
      -0.017
      -0.044
      -0.077
      -0.118
      -0.163
      -0.202
      -0.227
      -0.237
      -0.237
      -0.235
      -0.235
      -0.238
      -0.240
      -0.238
      -0.230
      -0.215
      -0.189
      -0.154
      -0.114
      -0.073
      -0.036
      -0.001
       0.035
       0.070
       0.099
       0.118
       0.125
       0.126
       0.125
       0.127
       0.130
       0.132
       0.134
       0.134
       0.133
       0.133
       0.135
       0.141
       0.145
       0.144
       0.136
       0.124
       0.115
       0.114
       0.117
       0.118
       0.112
       0.100
       0.088
       0.081
       0.077
       0.069
       0.054
       0.028
      -0.003
      -0.034
      -0.059
      -0.076
      -0.088
      -0.097
      -0.106
      -0.118
      -0.129
      -0.136
      -0.138
      -0.136
      -0.132
      -0.130
      -0.129
      -0.124
      -0.113
      -0.100
      -0.087
      -0.078
      -0.073
      -0.066
      -0.057
      -0.045
      -0.031
      -0.016
       0.000
       0.014
       0.023
       0.023
       0.016
       0.004
      -0.009
      -0.021
      -0.030
      -0.037
      -0.043
      -0.048
      -0.053
      -0.054
      -0.046
      -0.029
      -0.006
       0.016
       0.030
       0.035
       0.036
       0.034
       0.031
       0.023
       0.007
      -0.014
      -0.035
      -0.052
      -0.065
      -0.075
      -0.082
      -0.091
      -0.104
      -0.120
      -0.138
      -0.151
      -0.157
      -0.155
      -0.150
      -0.142
      -0.136
      -0.131
      -0.125
      -0.116
      -0.101
      -0.081
      -0.059
      -0.036
      -0.013
       0.014
       0.041
       0.068
       0.092
       0.114
       0.134
       0.152
       0.163
       0.164
       0.156
       0.143
       0.129
       0.115
       0.102
       0.091
       0.082
       0.077
       0.073
       0.065
       0.054
       0.045
       0.045
       0.054
       0.067
       0.073
       0.067
       0.054
       0.045
       0.046
       0.053
       0.056
       0.049
       0.032
       0.014
       0.001
      -0.005
      -0.005
      -0.004
      -0.007
      -0.015
      -0.025
      -0.034
      -0.037
      -0.033
      -0.023
      -0.005
       0.017
       0.043
       0.068
       0.089
       0.106
       0.118
       0.126
       0.128
       0.125
       0.117
       0.106
       0.094
       0.082
       0.073
       0.064
       0.052
       0.037
       0.018
      -0.002
      -0.022
      -0.041
      -0.059
      -0.076
      -0.094
      -0.113
      -0.130
      -0.141
      -0.140
      -0.131
      -0.120
      -0.111
      -0.104
      -0.093
      -0.076
      -0.054
      -0.032
      -0.014
      -0.004
       0.000
       0.000
       0.001
       0.004
       0.012
       0.021
       0.029
       0.036
       0.044
       0.055
       0.065
       0.069
       0.064
       0.049
       0.027
       0.005
      -0.012
      -0.024
      -0.033
      -0.042
      -0.051
      -0.060
      -0.066
      -0.071
      -0.081
      -0.097
      -0.116
      -0.133
      -0.144
      -0.150
      -0.157
      -0.166
      -0.178
      -0.189
      -0.195
      -0.192
      -0.180
      -0.159
      -0.129
      -0.091
      -0.044
       0.009
       0.062
       0.111
       0.156
       0.199
       0.239
       0.273
       0.296
       0.305
       0.302
       0.291
       0.273
       0.248
       0.213
       0.171
       0.125
       0.078
       0.034
      -0.007
      -0.045
      -0.079
      -0.106
      -0.123
      -0.127
      -0.122
      -0.113
      -0.102
      -0.089
      -0.070
      -0.045
      -0.016
       0.011
       0.032
       0.048
       0.059
       0.068
       0.073
       0.076
       0.077
       0.075
       0.070
       0.063
       0.053
       0.041
       0.027
       0.012
      -0.003
      -0.015
      -0.026
      -0.037
      -0.049
      -0.064
      -0.077
      -0.086
      -0.089
      -0.085
      -0.076
      -0.065
      -0.055
      -0.047
      -0.042
      -0.040
      -0.038
      -0.034
      -0.025
      -0.013
      -0.003
       0.003
       0.003
       0.001
       0.001
       0.003
       0.008
       0.018
       0.035
       0.056
       0.079
       0.097
       0.109
       0.114
       0.113
       0.106
       0.095
       0.078
       0.058
       0.034
       0.006
      -0.027
      -0.062
      -0.095
      -0.121
      -0.138
      -0.148
      -0.156
      -0.163
      -0.169
      -0.172
      -0.174
      -0.177
      -0.181
      -0.179
      -0.170
      -0.152
      -0.132
      -0.112
      -0.091
      -0.066
      -0.034
       0.001
       0.033
       0.056
       0.071
       0.085
       0.103
       0.125
       0.149
       0.171
       0.189
       0.206
       0.221
       0.234
       0.240
       0.239
       0.232
       0.220
       0.208
       0.195
       0.182
       0.165
       0.139
       0.101
       0.053
      -0.001
      -0.056
      -0.108
      -0.157
      -0.201
      -0.236
      -0.258
      -0.268
      -0.271
      -0.269
      -0.260
      -0.244
      -0.217
      -0.182
      -0.141
      -0.098
      -0.053
      -0.008
       0.037
       0.080
       0.118
       0.148
       0.166
       0.172
       0.165
       0.146
       0.115
       0.076
       0.032
      -0.014
      -0.062
      -0.111
      -0.158
      -0.198
      -0.226
      -0.241
      -0.244
      -0.238
      -0.223
      -0.201
      -0.173
      -0.142
      -0.111
      -0.080
      -0.050
      -0.024
      -0.001
       0.018
       0.032
       0.039
       0.038
       0.032
       0.023
       0.018
       0.016
       0.016
       0.017
       0.018
       0.021
       0.030
       0.041
       0.050
       0.055
       0.055
       0.054
       0.053
       0.056
       0.063
       0.075
       0.088
       0.099
       0.106
       0.106
       0.099
       0.089
       0.075
       0.058
       0.036
       0.014
      -0.007
      -0.024
      -0.039
      -0.052
      -0.063
      -0.072
      -0.077
      -0.078
      -0.071
      -0.056
      -0.036
      -0.015
       0.003
       0.017
       0.031
       0.043
       0.052
       0.057
       0.058
       0.057
       0.053
       0.044
       0.031
       0.018
       0.013
       0.019
       0.033
       0.050
       0.064
       0.077
       0.095
       0.120
       0.148
       0.171
       0.185
       0.194
       0.207
       0.229
       0.258
       0.283
       0.295
       0.291
       0.276
       0.254
       0.227
       0.195
       0.158
       0.114
       0.065
       0.014
      -0.035
      -0.079
      -0.117
      -0.147
      -0.172
      -0.191
      -0.205
      -0.215
      -0.222
      -0.227
      -0.231
      -0.232
      -0.230
      -0.223
      -0.213
      -0.204
      -0.198
      -0.196
      -0.198
      -0.199
      -0.196
      -0.190
      -0.182
      -0.171
      -0.158
      -0.142
      -0.123
      -0.100
      -0.074
      -0.046
      -0.016
       0.015
       0.043
       0.067
       0.087
       0.105
       0.124
       0.142
       0.160
       0.173
       0.178
       0.175
       0.164
       0.146
       0.118
       0.079
       0.030
      -0.024
      -0.078
      -0.130
      -0.178
      -0.222
      -0.256
      -0.278
      -0.286
      -0.279
      -0.260
      -0.230
      -0.192
      -0.148
      -0.102
      -0.054
      -0.005
       0.044
       0.092
       0.138
       0.179
       0.214
       0.242
       0.263
       0.278
       0.283
       0.276
       0.258
       0.233
       0.207
       0.183
       0.160
       0.140
       0.127
       0.123
       0.123
       0.124
       0.121
       0.118
       0.117
       0.119
       0.122
       0.125
       0.125
       0.120
       0.107
       0.083
       0.049
       0.005
      -0.048
      -0.108
      -0.171
      -0.235
      -0.296
      -0.347
      -0.386
      -0.413
      -0.432
      -0.449
      -0.464
      -0.472
      -0.467
      -0.448
      -0.415
      -0.367
      -0.305
      -0.233
      -0.155
      -0.076
       0.001
       0.073
       0.136
       0.186
       0.225
       0.256
       0.284
       0.307
       0.324
       0.331
       0.330
       0.322
       0.309
       0.292
       0.269
       0.241
       0.208
       0.173
       0.138
       0.107
       0.079
       0.054
       0.027
      -0.004
      -0.042
      -0.089
      -0.142
      -0.194
      -0.239
      -0.273
      -0.295
      -0.305
      -0.303
      -0.287
      -0.260
      -0.224
      -0.183
      -0.139
      -0.092
      -0.042
       0.009
       0.057
       0.104
       0.151
       0.201
       0.252
       0.298
       0.331
       0.345
       0.341
       0.324
       0.301
       0.274
       0.242
       0.202
       0.153
       0.100
       0.049
       0.005
      -0.035
      -0.073
      -0.112
      -0.147
      -0.172
      -0.185
      -0.185
      -0.178
      -0.167
      -0.156
      -0.143
      -0.127
      -0.107
      -0.080
      -0.051
      -0.022
      -0.003
       0.000
      -0.012
      -0.036
      -0.064
      -0.091
      -0.116
      -0.142
      -0.166
      -0.188
      -0.204
      -0.215
      -0.220
      -0.220
      -0.211
      -0.189
      -0.153
      -0.102
      -0.038
       0.033
       0.106
       0.170
       0.218
       0.248
       0.262
       0.265
       0.260
       0.252
       0.243
       0.236
       0.230
       0.222
       0.208
       0.186
       0.155
       0.121
       0.087
       0.052
       0.012
      -0.034
      -0.086
      -0.137
      -0.184
      -0.223
      -0.256
      -0.280
      -0.294
      -0.298
      -0.288
      -0.266
      -0.234
      -0.195
      -0.155
      -0.114
      -0.069
      -0.020
       0.031
       0.080
       0.127
       0.173
       0.217
       0.260
       0.298
       0.329
       0.353
       0.372
       0.387
       0.394
       0.389
       0.369
       0.338
       0.297
       0.252
       0.207
       0.161
       0.109
       0.050
      -0.012
      -0.074
      -0.128
      -0.173
      -0.208
      -0.237
      -0.262
      -0.282
      -0.296
      -0.301
      -0.298
      -0.291
      -0.283
      -0.281
      -0.287
      -0.300
      -0.320
      -0.343
      -0.365
      -0.381
      -0.391
      -0.395
      -0.397
      -0.398
      -0.394
      -0.382
      -0.358
      -0.317
      -0.255
      -0.175
      -0.080
       0.022
       0.125
       0.225
       0.320
       0.406
       0.480
       0.536
       0.574
       0.593
       0.594
       0.581
       0.554
       0.515
       0.463
       0.399
       0.329
       0.257
       0.191
       0.128
       0.065
       0.003
      -0.054
      -0.094
      -0.113
      -0.115
      -0.109
      -0.103
      -0.097
      -0.090
      -0.082
      -0.074
      -0.072
      -0.081
      -0.101
      -0.126
      -0.155
      -0.188
      -0.225
      -0.268
      -0.316
      -0.366
      -0.414
      -0.458
      -0.496
      -0.528
      -0.549
      -0.553
      -0.535
      -0.493
      -0.431
      -0.355
      -0.267
      -0.168
      -0.061
       0.050
       0.159
       0.265
       0.367
       0.465
       0.552
       0.620
       0.664
       0.685
       0.688
       0.677
       0.652
       0.613
       0.561
       0.501
       0.436
       0.369
       0.299
       0.228
       0.160
       0.096
       0.035
      -0.027
      -0.090
      -0.152
      -0.207
      -0.255
      -0.294
      -0.329
      -0.362
      -0.395
      -0.428
      -0.456
      -0.474
      -0.477
      -0.465
      -0.441
      -0.407
      -0.366
      -0.317
      -0.264
      -0.207
      -0.150
      -0.092
      -0.034
       0.028
       0.092
       0.155
       0.213
       0.263
       0.301
       0.328
       0.343
       0.345
       0.337
       0.321
       0.300
       0.273
       0.242
       0.208
       0.172
       0.137
       0.103
       0.067
       0.029
      -0.009
      -0.046
      -0.081
      -0.115
      -0.145
      -0.170
      -0.186
      -0.197
      -0.209
      -0.226
      -0.247
      -0.268
      -0.284
      -0.292
      -0.293
      -0.287
      -0.277
      -0.262
      -0.244
      -0.221
      -0.190
      -0.152
      -0.107
      -0.057
      -0.005
       0.050
       0.108
       0.168
       0.230
       0.289
       0.337
       0.368
       0.376
       0.362
       0.330
       0.287
       0.236
       0.178
       0.113
       0.043
      -0.028
      -0.098
      -0.164
      -0.222
      -0.271
      -0.309
      -0.337
      -0.354
      -0.360
      -0.352
      -0.330
      -0.294
      -0.248
      -0.195
      -0.137
      -0.076
      -0.014
       0.047
       0.105
       0.153
       0.190
       0.213
       0.226
       0.230
       0.226
       0.212
       0.189
       0.161
       0.133
       0.105
       0.079
       0.053
       0.030
       0.014
       0.007
       0.009
       0.019
       0.035
       0.058
       0.089
       0.127
       0.171
       0.215
       0.253
       0.282
       0.299
       0.305
       0.298
       0.278
       0.245
       0.202
       0.152
       0.097
       0.037
      -0.026
      -0.090
      -0.152
      -0.210
      -0.264
      -0.312
      -0.353
      -0.383
      -0.401
      -0.408
      -0.403
      -0.390
      -0.370
      -0.346
      -0.321
      -0.294
      -0.265
      -0.233
      -0.199
      -0.162
      -0.124
      -0.083
      -0.041
       0.000
       0.038
       0.073
       0.110
       0.145
       0.176
       0.199
       0.213
       0.221
       0.226
       0.228
       0.226
       0.215
       0.197
       0.174
       0.152
       0.131
       0.115
       0.105
       0.101
       0.105
       0.112
       0.120
       0.122
       0.115
       0.100
       0.081
       0.062
       0.043
       0.021
      -0.006
      -0.040
      -0.078
      -0.121
      -0.171
      -0.226
      -0.278
      -0.318
      -0.344
      -0.356
      -0.354
      -0.340
      -0.313
      -0.276
      -0.231
      -0.183
      -0.133
      -0.082
      -0.028
       0.029
       0.086
       0.137
       0.178
       0.206
       0.225
       0.239
       0.250
       0.261
       0.273
       0.288
       0.306
       0.330
       0.355
       0.380
       0.404
       0.425
       0.442
       0.451
       0.448
       0.433
       0.405
       0.366
       0.318
       0.261
       0.198
       0.128
       0.052
      -0.027
      -0.101
      -0.166
      -0.221
      -0.272
      -0.324
      -0.374
      -0.417
      -0.446
      -0.462
      -0.468
      -0.465
      -0.455
      -0.441
      -0.423
      -0.402
      -0.375
      -0.339
      -0.297
      -0.255
      -0.220
      -0.191
      -0.165
      -0.138
      -0.111
      -0.084
      -0.058
      -0.033
      -0.009
       0.011
       0.024
       0.028
       0.024
       0.013
       0.000
      -0.013
      -0.026
      -0.038
      -0.043
      -0.035
      -0.011
       0.026
       0.062
       0.090
       0.105
       0.116
       0.130
       0.153
       0.184
       0.217
       0.245
       0.262
       0.267
       0.263
       0.253
       0.240
       0.221
       0.197
       0.168
       0.136
       0.104
       0.069
       0.027
      -0.024
      -0.075
      -0.116
      -0.142
      -0.153
      -0.155
      -0.152
      -0.146
      -0.135
      -0.115
      -0.085
      -0.047
      -0.005
       0.037
       0.075
       0.109
       0.140
       0.167
       0.188
       0.199
       0.199
       0.187
       0.168
       0.147
       0.129
       0.113
       0.094
       0.069
       0.040
       0.016
       0.002
      -0.004
      -0.007
      -0.013
      -0.026
      -0.042
      -0.060
      -0.076
      -0.091
      -0.103
      -0.112
      -0.118
      -0.124
      -0.132
      -0.141
      -0.148
      -0.151
      -0.151
      -0.148
      -0.146
      -0.145
      -0.148
      -0.154
      -0.162
      -0.169
      -0.175
      -0.183
      -0.191
      -0.199
      -0.203
      -0.198
      -0.183
      -0.156
      -0.120
      -0.078
      -0.032
       0.018
       0.073
       0.134
       0.198
       0.258
       0.304
       0.335
       0.349
       0.349
       0.332
       0.298
       0.248
       0.186
       0.116
       0.045
      -0.024
      -0.084
      -0.134
      -0.176
      -0.212
      -0.240
      -0.255
      -0.254
      -0.239
      -0.215
      -0.188
      -0.156
      -0.119
      -0.076
      -0.028
       0.019
       0.061
       0.096
       0.123
       0.144
       0.160
       0.171
       0.173
       0.163
       0.138
       0.101
       0.059
       0.019
      -0.019
      -0.053
      -0.085
      -0.112
      -0.130
      -0.135
      -0.126
      -0.106
      -0.084
      -0.064
      -0.049
      -0.035
      -0.018
       0.003
       0.021
       0.031
       0.028
       0.013
      -0.009
      -0.035
      -0.061
      -0.087
