Origin Time       22/7/2007 23:02:12 
Lat.              31.2 N 
Long.             78.2 E 
Depth (Km)         33.0
Magnitude         5.0
 Region           UTTARKASHI-UTTARANCHAL                                           
 Above details taken from IMD 
   
Station Code      Roo
Station Lat.       29.866
Station Long.      77.901
Station Height(m)  262.0
Site Class        C   Vs30 between 200 m/sec to 375 m/sec *  
Record Time       22.07.2007 23:02:30.884
Sampling Rate     200. Hz
 Record Duration   63.580 Sec.
 Direction         Vert. (Up positive)
Max. Acceleration      1.914 cm/sec**2
     
  * For reference see Site Classification link of website 
     
 Base Line Corrected and Low Pass Filtered (Cut Off at 35 Hz) Time History
 Acceleration data in cm/sec**2
    
[...]
      -0.025
       0.059
       0.090
       0.074
       0.035
      -0.007
      -0.043
      -0.065
      -0.053
       0.021
       0.163
       0.339
       0.491
       0.578
       0.604
       0.603
       0.602
       0.605
       0.606
       0.608
       0.629
       0.669
       0.699
       0.675
       0.573
       0.409
       0.222
       0.036
      -0.155
      -0.361
      -0.573
      -0.753
      -0.859
      -0.874
      -0.818
      -0.725
      -0.619
      -0.504
      -0.380
      -0.255
      -0.144
      -0.065
      -0.021
      -0.003
       0.001
       0.003
       0.009
       0.018
       0.027
       0.031
       0.027
       0.015
       0.000
      -0.009
      -0.007
       0.009
       0.039
       0.082
       0.128
       0.165
       0.180
       0.173
       0.152
       0.133
       0.123
       0.118
       0.112
       0.112
       0.142
       0.221
       0.336
       0.436
       0.460
       0.373
       0.187
      -0.052
      -0.293
      -0.499
      -0.646
      -0.723
      -0.733
      -0.700
      -0.658
      -0.626
      -0.592
      -0.528
      -0.419
      -0.285
      -0.162
      -0.074
      -0.007
       0.071
       0.183
       0.326
       0.486
       0.648
       0.810
       0.975
       1.140
       1.285
       1.377
       1.386
       1.296
       1.120
       0.889
       0.626
       0.335
       0.009
      -0.337
      -0.650
      -0.861
      -0.935
      -0.903
      -0.839
      -0.800
      -0.783
      -0.738
      -0.624
      -0.457
      -0.293
      -0.186
      -0.142
      -0.135
      -0.138
      -0.153
      -0.195
      -0.264
      -0.337
      -0.379
      -0.376
      -0.336
      -0.285
      -0.241
      -0.210
      -0.181
      -0.131
      -0.037
       0.109
       0.290
       0.470
       0.617
       0.726
       0.804
       0.850
       0.837
       0.739
       0.562
       0.354
       0.179
       0.068
       0.002
      -0.060
      -0.133
      -0.193
      -0.209
      -0.187
      -0.175
      -0.224
      -0.338
      -0.472
      -0.579
      -0.652
      -0.721
      -0.816
      -0.919
      -0.977
      -0.946
      -0.823
      -0.641
      -0.430
      -0.198
       0.055
       0.315
       0.547
       0.718
       0.820
       0.863
       0.862
       0.825
       0.764
       0.696
       0.637
       0.582
       0.505
       0.382
       0.215
       0.032
      -0.145
      -0.315
      -0.484
      -0.636
      -0.727
      -0.716
      -0.602
      -0.437
      -0.282
      -0.175
      -0.111
      -0.076
      -0.071
      -0.106
      -0.176
      -0.250
      -0.291
      -0.285
      -0.251
      -0.211
      -0.155
      -0.051
       0.115
       0.307
       0.457
       0.516
       0.490
       0.428
       0.376
       0.354
       0.357
       0.382
       0.431
       0.495
       0.545
       0.548
       0.494
       0.401
       0.288
       0.149
      -0.033
      -0.257
      -0.492
      -0.692
      -0.829
      -0.897
      -0.908
      -0.868
      -0.789
      -0.684
      -0.567
      -0.431
      -0.254
      -0.017
       0.259
       0.523
       0.723
       0.837
       0.873
       0.847
       0.764
       0.618
       0.418
       0.197
      -0.003
      -0.149
      -0.231
      -0.250
      -0.208
      -0.111
       0.020
       0.144
       0.224
       0.252
       0.250
       0.252
       0.268
       0.281
       0.271
       0.248
       0.241
       0.267
       0.311
       0.327
       0.281
       0.169
       0.013
      -0.168
      -0.367
      -0.582
      -0.802
      -0.998
      -1.134
      -1.177
      -1.106
      -0.913
      -0.618
      -0.265
       0.085
       0.382
       0.605
       0.757
       0.850
       0.888
       0.868
       0.792
       0.672
       0.526
       0.367
       0.209
       0.069
      -0.030
      -0.072
      -0.057
      -0.002
       0.068
       0.136
       0.194
       0.236
       0.251
       0.214
       0.095
      -0.112
      -0.378
      -0.641
      -0.832
      -0.911
      -0.884
      -0.787
      -0.657
      -0.514
      -0.360
      -0.194
      -0.017
       0.162
       0.329
       0.456
       0.516
       0.501
       0.437
       0.371
       0.337
       0.341
       0.364
       0.399
       0.465
       0.580
       0.734
       0.874
       0.937
       0.887
       0.725
       0.481
       0.187
      -0.125
      -0.409
      -0.616
      -0.710
      -0.698
      -0.621
      -0.526
      -0.438
      -0.357
      -0.279
      -0.211
      -0.161
      -0.124
      -0.084
      -0.026
       0.046
       0.114
       0.168
       0.210
       0.248
       0.279
       0.291
       0.276
       0.245
       0.226
       0.240
       0.286
       0.337
       0.363
       0.347
       0.292
       0.205
       0.080
      -0.096
      -0.327
      -0.590
      -0.842
      -1.046
      -1.186
      -1.252
      -1.228
      -1.087
      -0.823
      -0.472
      -0.103
       0.215
       0.449
       0.592
       0.648
       0.619
       0.521
       0.395
       0.295
       0.256
       0.275
       0.330
       0.411
       0.528
       0.685
       0.847
       0.949
       0.934
       0.803
       0.605
       0.388
       0.159
      -0.107
      -0.429
      -0.774
      -1.078
      -1.288
      -1.394
      -1.415
      -1.370
      -1.250
      -1.041
      -0.747
      -0.404
      -0.063
       0.238
       0.477
       0.641
       0.719
       0.705
       0.602
       0.431
       0.213
      -0.026
      -0.260
      -0.449
      -0.548
      -0.531
      -0.405
      -0.216
      -0.012
       0.167
       0.303
       0.376
       0.368
       0.272
       0.110
      -0.068
      -0.208
      -0.280
      -0.289
      -0.264
      -0.237
      -0.233
      -0.261
      -0.319
      -0.391
      -0.455
      -0.487
      -0.469
      -0.391
      -0.245
      -0.041
       0.190
       0.402
       0.549
       0.620
       0.634
       0.620
       0.589
       0.535
       0.471
       0.434
       0.468
       0.579
       0.720
       0.830
       0.880
       0.879
       0.841
       0.753
       0.577
       0.296
      -0.051
      -0.386
      -0.635
      -0.770
      -0.805
      -0.770
      -0.690
      -0.585
      -0.482
      -0.411
      -0.395
      -0.439
      -0.524
      -0.616
      -0.680
      -0.688
      -0.631
      -0.527
      -0.398
      -0.254
      -0.090
       0.094
       0.266
       0.369
       0.361
       0.254
       0.104
      -0.022
      -0.093
      -0.117
      -0.114
      -0.092
      -0.049
       0.009
       0.060
       0.087
       0.099
       0.125
       0.189
       0.288
       0.399
       0.503
       0.602
       0.703
       0.797
       0.856
       0.845
       0.754
       0.607
       0.448
       0.309
       0.203
       0.130
       0.093
       0.099
       0.140
       0.191
       0.222
       0.214
       0.173
       0.112
       0.029
      -0.094
      -0.267
      -0.470
      -0.653
      -0.774
      -0.824
      -0.826
      -0.806
      -0.768
      -0.699
      -0.598
      -0.488
      -0.395
      -0.319
      -0.224
      -0.063
       0.175
       0.449
       0.694
       0.853
       0.905
       0.857
       0.733
       0.566
       0.385
       0.205
       0.024
      -0.164
      -0.348
      -0.493
      -0.571
      -0.588
      -0.592
      -0.626
      -0.683
      -0.713
      -0.670
      -0.557
      -0.416
      -0.281
      -0.144
       0.024
       0.224
       0.421
       0.580
       0.703
       0.826
       0.970
       1.111
       1.198
       1.209
       1.164
       1.089
       0.968
       0.752
       0.415
       0.004
      -0.387
      -0.686
      -0.883
      -1.005
      -1.069
      -1.056
      -0.952
      -0.788
      -0.631
      -0.530
      -0.486
      -0.468
      -0.458
      -0.461
      -0.482
      -0.487
      -0.422
      -0.257
      -0.012
       0.252
       0.482
       0.648
       0.737
       0.735
       0.635
       0.460
       0.257
       0.069
      -0.092
      -0.228
      -0.324
      -0.344
      -0.268
      -0.128
       0.007
       0.088
       0.121
       0.150
       0.198
       0.244
       0.252
       0.231
       0.233
       0.302
       0.418
       0.504
       0.494
       0.376
       0.190
      -0.026
      -0.255
      -0.493
      -0.716
      -0.883
      -0.960
      -0.946
      -0.870
      -0.764
      -0.653
      -0.563
      -0.526
      -0.567
      -0.670
      -0.781
      -0.838
      -0.806
      -0.680
      -0.470
      -0.181
       0.163
       0.501
       0.745
       0.826
       0.754
       0.600
       0.447
       0.328
       0.229
       0.131
       0.050
       0.022
       0.064
       0.149
       0.227
       0.263
       0.258
       0.241
       0.246
       0.299
       0.410
       0.574
       0.766
       0.952
       1.093
       1.162
       1.139
       1.008
       0.763
       0.424
       0.049
      -0.286
      -0.513
      -0.609
      -0.596
      -0.520
      -0.416
      -0.303
      -0.188
      -0.080
       0.001
       0.047
       0.061
       0.060
       0.052
       0.039
       0.015
      -0.014
      -0.029
      -0.017
       0.014
       0.035
       0.020
      -0.030
      -0.092
      -0.142
      -0.187
      -0.248
      -0.334
      -0.418
      -0.454
      -0.420
      -0.341
      -0.270
      -0.244
      -0.249
      -0.237
      -0.169
      -0.055
       0.065
       0.153
       0.209
       0.261
       0.335
       0.424
       0.494
       0.506
       0.440
       0.308
       0.144
      -0.007
      -0.098
      -0.095
       0.005
       0.172
       0.351
       0.477
       0.506
       0.428
       0.265
       0.058
      -0.155
      -0.359
      -0.558
      -0.757
      -0.940
      -1.062
      -1.076
      -0.961
      -0.745
      -0.490
      -0.261
      -0.092
       0.027
       0.133
       0.256
       0.401
       0.544
       0.660
       0.744
       0.818
       0.895
       0.953
       0.938
       0.805
       0.564
       0.276
       0.013
      -0.186
      -0.323
      -0.410
      -0.452
      -0.439
      -0.381
      -0.310
      -0.263
      -0.251
      -0.254
      -0.240
      -0.198
      -0.142
      -0.090
      -0.047
      -0.001
       0.059
       0.135
       0.220
       0.309
       0.395
       0.466
       0.504
       0.508
       0.495
       0.487
       0.482
       0.447
       0.342
       0.155
      -0.080
      -0.305
      -0.469
      -0.550
      -0.555
      -0.502
      -0.425
      -0.362
      -0.342
      -0.367
      -0.410
      -0.444
      -0.472
      -0.525
      -0.620
      -0.724
      -0.770
      -0.712
      -0.566
      -0.396
      -0.255
      -0.142
      -0.020
       0.135
       0.294
       0.404
       0.428
       0.379
       0.301
       0.231
       0.179
       0.138
       0.103
       0.078
       0.061
       0.038
      -0.002
      -0.057
      -0.109
      -0.138
      -0.133
      -0.094
      -0.027
       0.065
       0.169
       0.269
       0.349
       0.404
       0.435
       0.436
       0.401
       0.338
       0.280
       0.272
       0.340
       0.460
       0.573
       0.623
       0.598
       0.531
       0.456
       0.373
       0.246
       0.055
      -0.172
      -0.367
      -0.472
      -0.484
      -0.451
      -0.428
      -0.437
      -0.462
      -0.474
      -0.462
      -0.431
      -0.399
      -0.377
      -0.363
      -0.337
      -0.264
      -0.115
       0.110
       0.363
       0.567
       0.663
       0.649
       0.573
       0.484
       0.395
       0.286
       0.145
      -0.004
      -0.119
      -0.171
      -0.161
      -0.104
      -0.006
       0.130
       0.290
       0.436
       0.529
       0.555
       0.537
       0.507
       0.483
       0.455
       0.411
       0.344
       0.252
       0.134
      -0.014
      -0.179
      -0.343
      -0.491
      -0.630
      -0.781
      -0.953
      -1.122
      -1.244
      -1.280
      -1.230
      -1.131
      -1.027
      -0.940
      -0.865
      -0.786
      -0.697
      -0.598
      -0.494
      -0.376
      -0.237
      -0.082
       0.067
       0.174
       0.211
       0.173
       0.081
      -0.020
      -0.083
      -0.077
      -0.004
       0.111
       0.236
       0.360
       0.498
       0.663
       0.849
       1.016
       1.127
       1.177
       1.203
       1.252
       1.340
       1.447
       1.540
       1.601
       1.624
       1.593
       1.463
       1.187
       0.754
       0.212
      -0.354
      -0.861
      -1.259
      -1.529
      -1.670
      -1.692
      -1.626
      -1.516
      -1.409
      -1.330
      -1.277
      -1.241
      -1.217
      -1.199
      -1.163
      -1.064
      -0.857
      -0.528
      -0.111
       0.330
       0.734
       1.064
       1.313
       1.478
       1.557
       1.543
       1.436
       1.247
       0.993
       0.693
       0.369
       0.041
      -0.271
      -0.562
      -0.836
      -1.093
      -1.321
      -1.501
      -1.616
      -1.666
      -1.653
      -1.572
      -1.422
      -1.220
      -1.006
      -0.822
      -0.681
      -0.553
      -0.397
      -0.194
       0.038
       0.274
       0.514
       0.785
       1.106
       1.446
       1.734
       1.899
       1.914
       1.803
       1.603
       1.351
       1.074
       0.810
       0.600
       0.465
       0.387
       0.330
       0.264
       0.188
       0.106
       0.012
      -0.110
      -0.263
      -0.424
      -0.556
      -0.633
      -0.642
      -0.581
      -0.445
      -0.247
      -0.031
       0.136
       0.211
       0.208
       0.187
       0.196
       0.230
       0.250
       0.236
       0.208
       0.202
       0.215
       0.194
       0.085
      -0.112
      -0.335
      -0.516
      -0.635
      -0.717
      -0.790
      -0.854
      -0.883
      -0.848
      -0.730
      -0.523
      -0.245
       0.051
       0.282
       0.387
       0.379
       0.342
       0.358
       0.437
       0.513
       0.512
       0.416
       0.260
       0.072
      -0.162
      -0.471
      -0.843
      -1.210
      -1.495
      -1.664
      -1.736
      -1.740
      -1.675
      -1.517
      -1.259
      -0.941
      -0.625
      -0.352
      -0.114
       0.120
       0.378
       0.657
       0.935
       1.178
       1.357
       1.455
       1.469
       1.416
       1.321
       1.201
       1.063
       0.910
       0.760
       0.635
       0.548
       0.479
       0.395
       0.276
       0.140
       0.031
      -0.016
       0.003
       0.065
       0.145
       0.238
       0.351
       0.480
       0.598
       0.666
       0.649
       0.542
       0.356
       0.110
      -0.179
      -0.489
      -0.781
      -0.999
      -1.087
      -1.014
      -0.790
      -0.461
      -0.094
       0.238
       0.471
       0.571
       0.536
       0.402
       0.218
       0.026
      -0.140
      -0.247
      -0.264
      -0.178
      -0.022
       0.131
       0.206
       0.167
       0.026
      -0.188
      -0.452
      -0.736
      -0.976
      -1.083
      -0.990
      -0.715
      -0.355
      -0.023
       0.214
       0.353
       0.414
       0.404
       0.315
       0.162
      -0.003
      -0.117
      -0.139
      -0.065
       0.089
       0.301
       0.543
       0.767
       0.914
       0.947
       0.871
       0.726
       0.546
       0.339
       0.108
      -0.117
      -0.271
      -0.301
      -0.218
      -0.106
      -0.070
      -0.171
      -0.387
      -0.642
      -0.864
      -1.015
      -1.087
      -1.067
      -0.930
      -0.655
      -0.261
       0.176
       0.557
       0.797
       0.868
       0.790
       0.614
       0.392
       0.163
      -0.043
      -0.197
      -0.262
      -0.220
      -0.089
       0.072
       0.191
       0.229
       0.197
       0.139
       0.101
       0.101
       0.132
       0.180
       0.243
       0.328
       0.434
       0.536
       0.585
       0.529
       0.347
       0.063
      -0.266
      -0.588
      -0.877
      -1.129
      -1.334
      -1.467
      -1.497
      -1.418
      -1.252
      -1.034
      -0.787
      -0.517
      -0.222
       0.078
       0.341
       0.526
       0.610
       0.601
       0.523
       0.402
       0.265
       0.142
       0.059
       0.036
       0.081
       0.189
       0.352
       0.551
       0.745
       0.882
       0.915
       0.838
       0.684
       0.502
       0.326
       0.164
       0.009
      -0.132
      -0.245
      -0.318
      -0.350
      -0.343
      -0.296
      -0.204
      -0.078
       0.048
       0.142
       0.203
       0.260
       0.340
       0.421
       0.433
       0.307
       0.033
      -0.323
      -0.667
      -0.930
      -1.097
      -1.182
      -1.191
      -1.107
      -0.911
      -0.607
      -0.228
       0.169
       0.517
       0.757
       0.860
       0.840
       0.751
       0.648
       0.562
       0.500
       0.473
       0.499
       0.584
       0.690
       0.746
       0.700
       0.559
       0.381
       0.225
       0.116
       0.057
       0.057
       0.133
       0.277
       0.427
       0.500
       0.447
       0.281
       0.040
      -0.260
      -0.623
      -1.023
      -1.368
      -1.545
      -1.505
      -1.300
      -1.040
      -0.806
      -0.615
      -0.461
      -0.362
      -0.348
      -0.421
      -0.519
      -0.565
      -0.519
      -0.396
      -0.231
      -0.028
       0.224
       0.514
       0.785
       0.968
       1.035
       1.007
       0.908
       0.743
       0.518
       0.281
       0.120
       0.093
       0.176
       0.280
       0.324
       0.301
       0.254
       0.208
       0.139
       0.019
      -0.121
      -0.192
      -0.120
       0.085
       0.336
       0.540
       0.657
       0.696
       0.660
       0.523
       0.258
      -0.119
      -0.540
      -0.912
      -1.164
      -1.269
      -1.231
      -1.075
      -0.837
      -0.564
      -0.302
      -0.081
       0.092
       0.231
       0.356
       0.487
       0.633
       0.790
       0.943
       1.073
       1.154
       1.167
       1.097
       0.952
       0.756
       0.545
       0.351
       0.192
       0.071
      -0.017
      -0.081
      -0.133
      -0.194
      -0.291
      -0.441
      -0.637
      -0.849
      -1.042
      -1.191
      -1.288
      -1.327
      -1.301
      -1.212
      -1.082
      -0.946
      -0.820
      -0.697
      -0.554
      -0.387
      -0.220
      -0.081
       0.030
       0.140
       0.269
       0.398
       0.489
       0.534
       0.576
       0.677
       0.850
       1.035
       1.145
       1.149
       1.090
       1.041
       1.019
       0.972
       0.838
       0.621
       0.392
       0.222
       0.110
      -0.003
      -0.169
      -0.378
      -0.569
      -0.689
      -0.730
      -0.710
      -0.638
      -0.516
      -0.367
      -0.246
      -0.201
      -0.225
      -0.256
      -0.241
      -0.180
      -0.115
      -0.070
      -0.023
