Origin Time       22/02/2010 17:23:43
Lat.              30.0 N	
Long.             80.1 E	
Depth (Km)          2.0
Magnitude         4.7
 Region           BAGESHWER-UTTARAKHAND                                            
 Above details taken from IMD 
     
Station Code      Roo
Station Lat.       29.866  N
Station Long.      77.901  E
Station Height(m)  243.0
Site Class        C   Vs30 between 200 m/sec to 375 m/sec *  
Record Time       22.02.2010 17:24:17.949
Sampling Rate     200. Hz
 Record Duration   74.320 Sec.
 Direction         E-W (E positive)
Max. Acceleration     -0.888 cm/sec**2
     
  * For reference see Site Classification link of website 
     
 Base Line Corrected and Low Pass Filtered (Cut Off at 35 Hz) Time History
 Acceleration data in cm/sec**2
    
[...]
      -0.008
      -0.009
      -0.011
      -0.010
      -0.006
      -0.001
       0.003
       0.001
      -0.008
      -0.023
      -0.037
      -0.046
      -0.048
      -0.046
      -0.041
      -0.036
      -0.030
      -0.024
      -0.021
      -0.022
      -0.025
      -0.025
      -0.017
      -0.005
       0.005
       0.007
       0.002
      -0.007
      -0.013
      -0.014
      -0.013
      -0.010
      -0.007
      -0.004
      -0.002
       0.003
       0.011
       0.023
       0.037
       0.050
       0.060
       0.067
       0.072
       0.075
       0.075
       0.073
       0.068
       0.059
       0.046
       0.029
       0.011
      -0.006
      -0.021
      -0.031
      -0.036
      -0.037
      -0.033
      -0.025
      -0.017
      -0.008
       0.001
       0.013
       0.030
       0.048
       0.063
       0.070
       0.070
       0.065
       0.060
       0.054
       0.045
       0.030
       0.011
      -0.005
      -0.014
      -0.015
      -0.010
      -0.003
       0.002
       0.007
       0.012
       0.014
       0.010
      -0.001
      -0.015
      -0.024
      -0.024
      -0.017
      -0.004
       0.009
       0.021
       0.032
       0.044
       0.057
       0.073
       0.092
       0.111
       0.129
       0.144
       0.155
       0.163
       0.166
       0.160
       0.142
       0.116
       0.091
       0.075
       0.068
       0.064
       0.057
       0.043
       0.024
       0.006
      -0.012
      -0.033
      -0.059
      -0.087
      -0.112
      -0.130
      -0.140
      -0.145
      -0.146
      -0.144
      -0.136
      -0.122
      -0.103
      -0.084
      -0.067
      -0.054
      -0.043
      -0.033
      -0.020
      -0.007
       0.005
       0.014
       0.022
       0.032
       0.043
       0.055
       0.065
       0.073
       0.081
       0.089
       0.097
       0.101
       0.100
       0.093
       0.080
       0.063
       0.045
       0.031
       0.022
       0.018
       0.016
       0.010
       0.001
      -0.008
      -0.014
      -0.016
      -0.017
      -0.020
      -0.026
      -0.032
      -0.038
      -0.045
      -0.056
      -0.072
      -0.090
      -0.103
      -0.108
      -0.107
      -0.104
      -0.101
      -0.094
      -0.079
      -0.054
      -0.023
       0.005
       0.025
       0.037
       0.048
       0.059
       0.068
       0.074
       0.075
       0.071
       0.060
       0.047
       0.035
       0.028
       0.026
       0.028
       0.032
       0.036
       0.041
       0.043
       0.039
       0.030
       0.019
       0.011
       0.008
       0.008
       0.007
       0.003
      -0.004
      -0.008
      -0.008
      -0.003
       0.003
       0.006
       0.003
      -0.007
      -0.019
      -0.029
      -0.034
      -0.033
      -0.029
      -0.022
      -0.013
      -0.006
       0.001
       0.009
       0.018
       0.027
       0.031
       0.032
       0.030
       0.028
       0.028
       0.031
       0.036
       0.045
       0.057
       0.069
       0.075
       0.072
       0.063
       0.052
       0.046
       0.046
       0.047
       0.043
       0.035
       0.024
       0.015
       0.007
      -0.004
      -0.018
      -0.036
      -0.054
      -0.066
      -0.073
      -0.075
      -0.077
      -0.078
      -0.076
      -0.071
      -0.063
      -0.056
      -0.051
      -0.048
      -0.043
      -0.034
      -0.020
      -0.006
       0.006
       0.012
       0.015
       0.016
       0.019
       0.025
       0.036
       0.051
       0.067
       0.079
       0.082
       0.077
       0.064
       0.047
       0.031
       0.016
       0.005
       0.000
       0.004
       0.015
       0.027
       0.034
       0.032
       0.022
       0.007
      -0.013
      -0.038
      -0.065
      -0.092
      -0.115
      -0.133
      -0.147
      -0.157
      -0.162
      -0.162
      -0.156
      -0.147
      -0.134
      -0.116
      -0.091
      -0.059
      -0.023
       0.011
       0.036
       0.054
       0.065
       0.073
       0.081
       0.089
       0.097
       0.104
       0.107
       0.106
       0.100
       0.095
       0.091
       0.088
       0.084
       0.075
       0.063
       0.048
       0.030
       0.015
       0.004
      -0.001
      -0.002
      -0.004
      -0.009
      -0.017
      -0.026
      -0.034
      -0.040
      -0.044
      -0.046
      -0.044
      -0.034
      -0.019
      -0.001
       0.019
       0.037
       0.053
       0.065
       0.074
       0.079
       0.080
       0.078
       0.073
       0.069
       0.065
       0.062
       0.059
       0.055
       0.054
       0.056
       0.061
       0.068
       0.072
       0.073
       0.070
       0.063
       0.050
       0.035
       0.019
       0.007
       0.000
      -0.004
      -0.010
      -0.017
      -0.025
      -0.030
      -0.031
      -0.027
      -0.022
      -0.018
      -0.016
      -0.017
      -0.021
      -0.025
      -0.027
      -0.024
      -0.019
      -0.012
      -0.001
       0.013
       0.026
       0.036
       0.041
       0.043
       0.045
       0.048
       0.049
       0.044
       0.032
       0.016
       0.004
      -0.002
      -0.005
      -0.011
      -0.024
      -0.040
      -0.055
      -0.066
      -0.073
      -0.077
      -0.078
      -0.075
      -0.069
      -0.060
      -0.054
      -0.051
      -0.050
      -0.043
      -0.030
      -0.010
       0.010
       0.023
       0.027
       0.027
       0.030
       0.037
       0.044
       0.047
       0.042
       0.030
       0.018
       0.010
       0.008
       0.010
       0.012
       0.010
       0.007
       0.001
      -0.008
      -0.018
      -0.025
      -0.021
      -0.009
       0.006
       0.014
       0.014
       0.011
       0.010
       0.014
       0.021
       0.027
       0.030
       0.030
       0.028
       0.027
       0.028
       0.031
       0.035
       0.036
       0.034
       0.027
       0.016
       0.005
      -0.005
      -0.012
      -0.017
      -0.021
      -0.025
      -0.029
      -0.032
      -0.038
      -0.046
      -0.054
      -0.058
      -0.053
      -0.037
      -0.014
       0.010
       0.030
       0.043
       0.048
       0.047
       0.043
       0.040
       0.038
       0.036
       0.033
       0.027
       0.019
       0.011
       0.005
       0.001
       0.000
       0.000
       0.000
      -0.002
      -0.007
      -0.015
      -0.021
      -0.023
      -0.019
      -0.014
      -0.011
      -0.013
      -0.017
      -0.022
      -0.027
      -0.029
      -0.025
      -0.015
      -0.002
       0.010
       0.020
       0.029
       0.040
       0.052
       0.067
       0.081
       0.091
       0.095
       0.092
       0.087
       0.084
       0.086
       0.091
       0.095
       0.092
       0.081
       0.062
       0.038
       0.017
       0.005
       0.002
       0.003
       0.001
      -0.006
      -0.014
      -0.019
      -0.018
      -0.014
      -0.008
      -0.005
      -0.007
      -0.015
      -0.025
      -0.034
      -0.036
      -0.028
      -0.019
      -0.016
      -0.024
      -0.038
      -0.047
      -0.044
      -0.032
      -0.020
      -0.012
      -0.004
       0.007
       0.023
       0.040
       0.053
       0.062
       0.070
       0.083
       0.102
       0.122
       0.133
       0.132
       0.118
       0.100
       0.084
       0.075
       0.069
       0.062
       0.052
       0.037
       0.015
      -0.011
      -0.038
      -0.060
      -0.074
      -0.080
      -0.082
      -0.085
      -0.091
      -0.098
      -0.102
      -0.098
      -0.085
      -0.066
      -0.047
      -0.032
      -0.021
      -0.012
      -0.004
       0.005
       0.014
       0.022
       0.028
       0.031
       0.030
       0.024
       0.015
       0.006
       0.000
      -0.002
      -0.004
      -0.006
      -0.011
      -0.017
      -0.023
      -0.024
      -0.020
      -0.012
      -0.001
       0.009
       0.020
       0.031
       0.041
       0.049
       0.053
       0.055
       0.054
       0.048
       0.036
       0.017
      -0.003
      -0.017
      -0.022
      -0.019
      -0.018
      -0.023
      -0.032
      -0.040
      -0.042
      -0.041
      -0.039
      -0.039
      -0.040
      -0.042
      -0.044
      -0.046
      -0.050
      -0.052
      -0.050
      -0.042
      -0.030
      -0.017
      -0.006
       0.004
       0.013
       0.024
       0.039
       0.055
       0.068
       0.073
       0.067
       0.055
       0.042
       0.033
       0.029
       0.023
       0.014
       0.001
      -0.010
      -0.015
      -0.011
       0.001
       0.021
       0.047
       0.073
       0.095
       0.109
       0.113
       0.108
       0.095
       0.078
       0.059
       0.039
       0.020
       0.003
      -0.008
      -0.015
      -0.019
      -0.021
      -0.020
      -0.018
      -0.019
      -0.023
      -0.030
      -0.034
      -0.030
      -0.018
       0.000
       0.018
       0.033
       0.042
       0.046
       0.048
       0.052
       0.056
       0.058
       0.056
       0.049
       0.040
       0.032
       0.026
       0.020
       0.013
       0.007
       0.005
       0.012
       0.026
       0.042
       0.057
       0.067
       0.071
       0.071
       0.067
       0.058
       0.042
       0.021
      -0.001
      -0.017
      -0.026
      -0.028
      -0.027
      -0.026
      -0.023
      -0.016
      -0.005
       0.010
       0.028
       0.046
       0.065
       0.082
       0.092
       0.093
       0.087
       0.080
       0.074
       0.067
       0.057
       0.047
       0.042
       0.046
       0.057
       0.070
       0.082
       0.092
       0.101
       0.111
       0.117
       0.114
       0.101
       0.082
       0.061
       0.043
       0.029
       0.018
       0.012
       0.012
       0.017
       0.024
       0.029
       0.032
       0.033
       0.036
       0.038
       0.037
       0.028
       0.012
      -0.012
      -0.041
      -0.069
      -0.093
      -0.110
      -0.122
      -0.131
      -0.135
      -0.136
      -0.132
      -0.131
      -0.138
      -0.156
      -0.183
      -0.211
      -0.235
      -0.253
      -0.266
      -0.277
      -0.283
      -0.282
      -0.274
      -0.262
      -0.251
      -0.244
      -0.238
      -0.228
      -0.215
      -0.203
      -0.201
      -0.213
      -0.234
      -0.255
      -0.268
      -0.272
      -0.272
      -0.275
      -0.284
      -0.297
      -0.308
      -0.310
      -0.300
      -0.281
      -0.257
      -0.233
      -0.210
      -0.186
      -0.161
      -0.136
      -0.111
      -0.085
      -0.059
      -0.032
      -0.006
       0.017
       0.034
       0.047
       0.057
       0.065
       0.069
       0.069
       0.063
       0.053
       0.044
       0.040
       0.045
       0.059
       0.077
       0.092
       0.101
       0.106
       0.111
       0.118
       0.125
       0.128
       0.127
       0.123
       0.116
       0.105
       0.090
       0.068
       0.041
       0.012
      -0.014
      -0.032
      -0.038
      -0.035
      -0.025
      -0.013
       0.001
       0.017
       0.036
       0.055
       0.071
       0.082
       0.091
       0.102
       0.120
       0.145
       0.173
       0.203
       0.231
       0.260
       0.290
       0.323
       0.358
       0.395
       0.428
       0.456
       0.477
       0.493
       0.507
       0.522
       0.537
       0.554
       0.574
       0.598
       0.621
       0.638
       0.640
       0.626
       0.600
       0.568
       0.532
       0.488
       0.431
       0.361
       0.281
       0.198
       0.115
       0.034
      -0.044
      -0.115
      -0.181
      -0.240
      -0.294
      -0.341
      -0.379
      -0.405
      -0.421
      -0.431
      -0.443
      -0.461
      -0.481
      -0.497
      -0.505
      -0.503
      -0.494
      -0.483
      -0.469
      -0.453
      -0.435
      -0.415
      -0.397
      -0.384
      -0.373
      -0.359
      -0.336
      -0.308
      -0.279
      -0.258
      -0.243
      -0.230
      -0.213
      -0.190
      -0.165
      -0.143
      -0.127
      -0.118
      -0.117
      -0.120
      -0.126
      -0.129
      -0.130
      -0.128
      -0.128
      -0.131
      -0.134
      -0.134
      -0.129
      -0.122
      -0.118
      -0.117
      -0.118
      -0.118
      -0.112
      -0.096
      -0.070
      -0.035
       0.003
       0.046
       0.093
       0.147
       0.207
       0.273
       0.342
       0.412
       0.481
       0.547
       0.609
       0.664
       0.712
       0.748
       0.770
       0.775
       0.763
       0.736
       0.694
       0.639
       0.573
       0.502
       0.433
       0.371
       0.314
       0.259
       0.206
       0.156
       0.110
       0.070
       0.033
      -0.006
      -0.048
      -0.088
      -0.121
      -0.144
      -0.158
      -0.167
      -0.169
      -0.156
      -0.122
      -0.066
       0.005
       0.075
       0.138
       0.192
       0.238
       0.277
       0.306
       0.320
       0.315
       0.291
       0.255
       0.211
       0.162
       0.108
       0.046
      -0.023
      -0.098
      -0.174
      -0.249
      -0.320
      -0.386
      -0.451
      -0.517
      -0.584
      -0.649
      -0.708
      -0.761
      -0.808
      -0.847
      -0.875
      -0.888
      -0.884
      -0.865
      -0.835
      -0.794
      -0.742
      -0.676
      -0.596
      -0.506
      -0.410
      -0.313
      -0.215
      -0.116
      -0.016
       0.085
       0.185
       0.282
       0.372
       0.451
       0.520
       0.580
       0.634
       0.682
       0.723
       0.754
       0.776
       0.787
       0.783
       0.760
       0.714
       0.645
       0.555
       0.448
       0.332
       0.208
       0.077
      -0.059
      -0.197
      -0.333
      -0.457
      -0.565
      -0.652
      -0.720
      -0.770
      -0.802
      -0.815
      -0.806
      -0.776
      -0.727
      -0.663
      -0.591
      -0.515
      -0.436
      -0.349
      -0.250
      -0.137
      -0.011
       0.121
       0.253
       0.376
       0.487
       0.585
       0.671
       0.741
       0.790
       0.815
       0.818
       0.805
       0.780
       0.743
       0.691
       0.623
       0.544
       0.458
       0.368
       0.276
       0.181
       0.083
      -0.012
      -0.104
      -0.188
      -0.265
      -0.337
      -0.406
      -0.470
      -0.525
      -0.568
      -0.593
      -0.600
      -0.590
      -0.566
      -0.527
      -0.471
      -0.396
      -0.303
      -0.198
      -0.090
       0.016
       0.116
       0.209
       0.299
       0.387
       0.470
       0.545
       0.604
       0.644
       0.664
       0.665
       0.648
       0.616
       0.575
       0.532
       0.491
       0.453
       0.413
       0.371
       0.323
       0.272
       0.222
       0.178
       0.141
       0.112
       0.088
       0.066
       0.044
       0.023
       0.004
      -0.012
      -0.026
      -0.041
      -0.057
      -0.075
      -0.092
      -0.109
      -0.125
      -0.141
      -0.153
      -0.158
      -0.153
      -0.140
      -0.122
      -0.101
      -0.074
      -0.040
       0.000
       0.043
       0.085
       0.124
       0.158
       0.185
       0.202
       0.208
       0.202
       0.189
       0.171
       0.149
       0.121
       0.083
       0.030
      -0.032
      -0.098
      -0.156
      -0.206
      -0.250
      -0.295
      -0.345
      -0.398
      -0.448
      -0.491
      -0.527
      -0.561
      -0.601
      -0.649
      -0.701
      -0.749
      -0.783
      -0.796
      -0.786
      -0.751
      -0.696
      -0.627
      -0.552
      -0.474
      -0.394
      -0.311
      -0.225
      -0.138
      -0.054
       0.021
       0.081
       0.127
       0.166
       0.202
       0.234
       0.260
       0.280
       0.296
       0.311
       0.326
       0.336
       0.337
       0.330
       0.317
       0.297
       0.270
       0.230
       0.172
       0.097
       0.011
      -0.076
      -0.151
      -0.211
      -0.259
      -0.299
      -0.331
      -0.347
      -0.335
      -0.293
      -0.225
      -0.141
      -0.052
       0.036
       0.124
       0.213
       0.305
       0.394
       0.473
       0.538
       0.587
       0.623
       0.646
       0.651
       0.636
       0.600
       0.549
       0.486
       0.416
       0.338
       0.251
       0.159
       0.068
      -0.016
      -0.092
      -0.160
      -0.224
      -0.286
      -0.340
      -0.382
      -0.409
      -0.425
      -0.434
      -0.440
      -0.441
      -0.433
      -0.416
      -0.392
      -0.368
      -0.344
      -0.319
      -0.289
      -0.255
      -0.219
      -0.181
      -0.141
      -0.099
      -0.056
      -0.011
       0.036
       0.088
       0.145
       0.208
       0.274
       0.339
       0.400
       0.454
       0.501
       0.542
       0.571
       0.581
       0.562
       0.511
       0.430
       0.326
       0.203
       0.068
      -0.077
      -0.225
      -0.367
      -0.490
      -0.588
      -0.656
      -0.696
      -0.710
      -0.697
      -0.659
      -0.599
      -0.522
      -0.432
      -0.334
      -0.232
      -0.132
      -0.043
       0.031
       0.088
       0.134
       0.177
       0.223
       0.275
       0.330
       0.383
       0.428
       0.460
       0.479
       0.486
       0.482
       0.472
       0.456
       0.433
       0.401
       0.356
       0.300
       0.237
       0.171
       0.103
       0.033
      -0.039
      -0.112
      -0.177
      -0.228
      -0.260
      -0.275
      -0.277
      -0.267
      -0.245
      -0.207
      -0.153
      -0.085
      -0.009
       0.070
       0.147
       0.216
       0.273
       0.316
       0.347
       0.368
       0.379
       0.378
       0.366
       0.344
       0.317
       0.282
       0.232
       0.163
       0.073
      -0.034
      -0.149
      -0.264
      -0.374
      -0.479
      -0.579
      -0.673
      -0.754
      -0.812
      -0.843
      -0.845
      -0.822
      -0.779
      -0.719
      -0.644
      -0.555
      -0.452
      -0.342
      -0.233
      -0.130
      -0.037
       0.044
       0.114
       0.176
       0.232
       0.282
       0.328
       0.369
       0.401
       0.421
       0.429
       0.428
       0.417
       0.395
       0.362
       0.318
       0.267
       0.215
       0.163
       0.110
       0.056
      -0.002
      -0.064
      -0.128
      -0.192
      -0.251
      -0.301
      -0.338
      -0.357
      -0.357
      -0.340
      -0.306
      -0.256
      -0.191
      -0.117
      -0.045
       0.015
       0.058
       0.088
       0.109
       0.122
       0.117
       0.090
       0.042
      -0.016
      -0.067
      -0.103
      -0.119
      -0.121
      -0.112
      -0.093
      -0.064
      -0.022
       0.030
       0.088
       0.146
       0.202
       0.255
       0.303
       0.341
       0.366
       0.376
       0.375
       0.368
       0.358
       0.345
       0.329
       0.308
       0.281
       0.248
