Origin Time       20/06/2011 06:27:18
Lat.              30.5 N	
Long.             79.4 E	
Depth (Km)         12.0
Magnitude         4.6
 Region           Chamoli-Uttarakhand                                              
 Above details taken from IMD 
     
Station Code      Roo
Station Lat.       29.866  N
Station Long.      77.901  E
Station Height(m)  243.0
Site Class        C   Vs30 between 200 m/sec to 375 m/sec *  
Record Time       20.06.2011 06:27:18.744
Sampling Rate     200. Hz
 Record Duration  119.390 Sec.
 Direction         E-W (E positive)
Max. Acceleration     -1.773 cm/sec**2
     
  * For reference see Site Classification link of website 
     
 Base Line Corrected and Low Pass Filtered (Cut Off at 35 Hz) Time History
 Acceleration data in cm/sec**2
    
[...]
       0.100
       0.097
       0.096
       0.100
       0.106
       0.113
       0.120
       0.130
       0.143
       0.160
       0.178
       0.194
       0.206
       0.212
       0.205
       0.187
       0.160
       0.128
       0.095
       0.061
       0.027
      -0.003
      -0.026
      -0.041
      -0.049
      -0.049
      -0.042
      -0.031
      -0.019
      -0.011
      -0.008
      -0.009
      -0.012
      -0.013
      -0.010
      -0.002
       0.011
       0.029
       0.054
       0.088
       0.130
       0.172
       0.205
       0.223
       0.224
       0.214
       0.195
       0.168
       0.129
       0.083
       0.035
      -0.006
      -0.040
      -0.069
      -0.095
      -0.121
      -0.140
      -0.150
      -0.147
      -0.136
      -0.120
      -0.103
      -0.089
      -0.078
      -0.072
      -0.068
      -0.064
      -0.061
      -0.062
      -0.072
      -0.089
      -0.104
      -0.106
      -0.092
      -0.065
      -0.032
      -0.001
       0.028
       0.056
       0.084
       0.112
       0.139
       0.160
       0.168
       0.161
       0.142
       0.120
       0.100
       0.080
       0.060
       0.040
       0.029
       0.031
       0.045
       0.064
       0.080
       0.091
       0.098
       0.108
       0.122
       0.136
       0.143
       0.140
       0.128
       0.110
       0.085
       0.052
       0.008
      -0.041
      -0.086
      -0.120
      -0.144
      -0.161
      -0.175
      -0.188
      -0.200
      -0.212
      -0.227
      -0.244
      -0.264
      -0.283
      -0.296
      -0.301
      -0.295
      -0.274
      -0.239
      -0.190
      -0.127
      -0.055
       0.020
       0.097
       0.171
       0.239
       0.298
       0.341
       0.369
       0.379
       0.373
       0.348
       0.304
       0.244
       0.177
       0.110
       0.049
      -0.004
      -0.044
      -0.071
      -0.085
      -0.091
      -0.095
      -0.102
      -0.114
      -0.134
      -0.160
      -0.189
      -0.216
      -0.234
      -0.235
      -0.218
      -0.186
      -0.147
      -0.109
      -0.077
      -0.048
      -0.021
       0.006
       0.027
       0.042
       0.055
       0.071
       0.090
       0.106
       0.112
       0.104
       0.086
       0.061
       0.037
       0.017
       0.004
      -0.004
      -0.005
      -0.002
       0.007
       0.023
       0.046
       0.071
       0.095
       0.113
       0.123
       0.124
       0.117
       0.104
       0.086
       0.064
       0.041
       0.020
       0.005
      -0.002
      -0.007
      -0.011
      -0.014
      -0.015
      -0.017
      -0.024
      -0.039
      -0.056
      -0.069
      -0.075
      -0.079
      -0.087
      -0.099
      -0.109
      -0.111
      -0.103
      -0.087
      -0.066
      -0.044
      -0.017
       0.015
       0.055
       0.098
       0.137
       0.163
       0.174
       0.175
       0.171
       0.162
       0.146
       0.120
       0.085
       0.043
      -0.003
      -0.047
      -0.087
      -0.120
      -0.147
      -0.170
      -0.186
      -0.188
      -0.173
      -0.142
      -0.098
      -0.050
      -0.005
       0.031
       0.056
       0.070
       0.072
       0.063
       0.047
       0.028
       0.010
      -0.003
      -0.013
      -0.023
      -0.033
      -0.041
      -0.046
      -0.049
      -0.054
      -0.063
      -0.076
      -0.088
      -0.096
      -0.096
      -0.087
      -0.069
      -0.042
      -0.008
       0.027
       0.059
       0.080
       0.089
       0.088
       0.083
       0.081
       0.085
       0.099
       0.124
       0.160
       0.202
       0.245
       0.282
       0.312
       0.333
       0.346
       0.351
       0.349
       0.339
       0.322
       0.298
       0.267
       0.228
       0.178
       0.117
       0.045
      -0.029
      -0.092
      -0.139
      -0.172
      -0.196
      -0.214
      -0.223
      -0.221
      -0.208
      -0.190
      -0.169
      -0.148
      -0.128
      -0.110
      -0.095
      -0.084
      -0.079
      -0.078
      -0.076
      -0.069
      -0.054
      -0.035
      -0.012
       0.010
       0.026
       0.034
       0.029
       0.011
      -0.017
      -0.049
      -0.080
      -0.110
      -0.145
      -0.185
      -0.227
      -0.264
      -0.294
      -0.317
      -0.335
      -0.347
      -0.352
      -0.347
      -0.331
      -0.311
      -0.292
      -0.280
      -0.278
      -0.284
      -0.293
      -0.303
      -0.310
      -0.311
      -0.299
      -0.269
      -0.221
      -0.160
      -0.093
      -0.024
       0.044
       0.112
       0.179
       0.249
       0.320
       0.390
       0.456
       0.515
       0.566
       0.612
       0.648
       0.666
       0.655
       0.610
       0.538
       0.450
       0.357
       0.259
       0.153
       0.035
      -0.092
      -0.220
      -0.338
      -0.445
      -0.544
      -0.640
      -0.732
      -0.815
      -0.883
      -0.933
      -0.964
      -0.972
      -0.952
      -0.902
      -0.820
      -0.712
      -0.577
      -0.418
      -0.235
      -0.035
       0.169
       0.367
       0.551
       0.718
       0.866
       0.998
       1.114
       1.211
       1.285
       1.332
       1.348
       1.333
       1.289
       1.222
       1.138
       1.041
       0.936
       0.827
       0.716
       0.608
       0.507
       0.414
       0.328
       0.244
       0.161
       0.074
      -0.020
      -0.123
      -0.231
      -0.340
      -0.442
      -0.533
      -0.609
      -0.673
      -0.727
      -0.768
      -0.793
      -0.797
      -0.786
      -0.768
      -0.753
      -0.745
      -0.740
      -0.731
      -0.716
      -0.694
      -0.665
      -0.628
      -0.579
      -0.516
      -0.440
      -0.349
      -0.240
      -0.113
       0.026
       0.172
       0.316
       0.452
       0.574
       0.674
       0.748
       0.795
       0.816
       0.813
       0.790
       0.752
       0.703
       0.645
       0.577
       0.498
       0.408
       0.313
       0.221
       0.141
       0.081
       0.040
       0.011
      -0.016
      -0.043
      -0.073
      -0.104
      -0.140
      -0.184
      -0.233
      -0.281
      -0.321
      -0.351
      -0.373
      -0.388
      -0.400
      -0.405
      -0.401
      -0.385
      -0.358
      -0.328
      -0.300
      -0.278
      -0.261
      -0.247
      -0.236
      -0.233
      -0.237
      -0.246
      -0.253
      -0.251
      -0.233
      -0.197
      -0.145
      -0.082
      -0.014
       0.058
       0.131
       0.204
       0.272
       0.327
       0.363
       0.378
       0.374
       0.359
       0.341
       0.324
       0.310
       0.298
       0.289
       0.285
       0.284
       0.282
       0.276
       0.265
       0.255
       0.250
       0.248
       0.242
       0.228
       0.205
       0.181
       0.156
       0.128
       0.092
       0.049
       0.006
      -0.030
      -0.061
      -0.090
      -0.123
      -0.158
      -0.194
      -0.228
      -0.258
      -0.286
      -0.314
      -0.339
      -0.357
      -0.360
      -0.352
      -0.340
      -0.331
      -0.328
      -0.325
      -0.317
      -0.303
      -0.289
      -0.278
      -0.272
      -0.264
      -0.247
      -0.221
      -0.195
      -0.180
      -0.181
      -0.195
      -0.216
      -0.235
      -0.245
      -0.240
      -0.218
      -0.179
      -0.125
      -0.059
       0.016
       0.098
       0.187
       0.283
       0.383
       0.480
       0.564
       0.630
       0.673
       0.695
       0.695
       0.674
       0.631
       0.566
       0.484
       0.394
       0.307
       0.226
       0.149
       0.072
      -0.007
      -0.086
      -0.159
      -0.222
      -0.273
      -0.311
      -0.338
      -0.355
      -0.361
      -0.355
      -0.336
      -0.308
      -0.274
      -0.236
      -0.197
      -0.160
      -0.129
      -0.104
      -0.084
      -0.067
      -0.053
      -0.040
      -0.026
      -0.007
       0.016
       0.043
       0.070
       0.098
       0.131
       0.173
       0.221
       0.267
       0.304
       0.331
       0.348
       0.356
       0.356
       0.351
       0.343
       0.336
       0.333
       0.336
       0.347
       0.361
       0.371
       0.370
       0.357
       0.332
       0.293
       0.239
       0.169
       0.085
      -0.008
      -0.107
      -0.207
      -0.302
      -0.387
      -0.459
      -0.523
      -0.581
      -0.634
      -0.679
      -0.714
      -0.742
      -0.764
      -0.781
      -0.789
      -0.788
      -0.774
      -0.746
      -0.700
      -0.638
      -0.568
      -0.496
      -0.423
      -0.345
      -0.258
      -0.162
      -0.062
       0.035
       0.125
       0.207
       0.285
       0.357
       0.419
       0.464
       0.490
       0.496
       0.486
       0.465
       0.437
       0.407
       0.381
       0.362
       0.348
       0.333
       0.317
       0.303
       0.294
       0.290
       0.284
       0.269
       0.243
       0.206
       0.161
       0.110
       0.056
       0.004
      -0.044
      -0.085
      -0.122
      -0.149
      -0.163
      -0.160
      -0.144
      -0.121
      -0.095
      -0.072
      -0.058
      -0.055
      -0.065
      -0.082
      -0.096
      -0.101
      -0.092
      -0.070
      -0.043
      -0.020
      -0.008
      -0.007
      -0.012
      -0.019
      -0.026
      -0.038
      -0.060
      -0.095
      -0.140
      -0.198
      -0.266
      -0.344
      -0.432
      -0.527
      -0.624
      -0.720
      -0.806
      -0.879
      -0.935
      -0.970
      -0.980
      -0.958
      -0.905
      -0.823
      -0.720
      -0.600
      -0.470
      -0.334
      -0.199
      -0.067
       0.054
       0.159
       0.243
       0.305
       0.350
       0.385
       0.415
       0.438
       0.453
       0.457
       0.453
       0.443
       0.430
       0.416
       0.402
       0.386
       0.368
       0.352
       0.345
       0.350
       0.367
       0.393
       0.421
       0.444
       0.457
       0.459
       0.451
       0.438
       0.424
       0.410
       0.394
       0.376
       0.356
       0.335
       0.316
       0.303
       0.297
       0.302
       0.319
       0.349
       0.386
       0.427
       0.464
       0.495
       0.516
       0.526
       0.525
       0.509
       0.477
       0.427
       0.361
       0.283
       0.199
       0.114
       0.031
      -0.050
      -0.129
      -0.211
      -0.297
      -0.383
      -0.462
      -0.530
      -0.587
      -0.633
      -0.666
      -0.683
      -0.681
      -0.659
      -0.614
      -0.543
      -0.450
      -0.342
      -0.228
      -0.112
       0.006
       0.128
       0.249
       0.363
       0.465
       0.554
       0.630
       0.691
       0.737
       0.765
       0.773
       0.761
       0.725
       0.665
       0.578
       0.465
       0.330
       0.176
       0.011
      -0.159
      -0.328
      -0.488
      -0.632
      -0.754
      -0.849
      -0.916
      -0.954
      -0.964
      -0.951
      -0.919
      -0.872
      -0.809
      -0.729
      -0.636
      -0.543
      -0.464
      -0.404
      -0.357
      -0.307
      -0.246
      -0.170
      -0.083
       0.013
       0.114
       0.218
       0.322
       0.424
       0.517
       0.594
       0.648
       0.677
       0.682
       0.667
       0.640
       0.608
       0.573
       0.538
       0.498
       0.452
       0.398
       0.338
       0.270
       0.185
       0.079
      -0.053
      -0.205
      -0.363
      -0.511
      -0.632
      -0.723
      -0.783
      -0.819
      -0.836
      -0.833
      -0.811
      -0.770
      -0.713
      -0.642
      -0.558
      -0.466
      -0.373
      -0.282
      -0.197
      -0.115
      -0.039
       0.025
       0.071
       0.096
       0.101
       0.095
       0.082
       0.067
       0.045
       0.011
      -0.042
      -0.117
      -0.211
      -0.317
      -0.423
      -0.518
      -0.594
      -0.651
      -0.684
      -0.693
      -0.677
      -0.640
      -0.587
      -0.521
      -0.445
      -0.362
      -0.273
      -0.179
      -0.077
       0.032
       0.149
       0.269
       0.387
       0.497
       0.597
       0.690
       0.780
       0.866
       0.947
       1.020
       1.088
       1.157
       1.231
       1.306
       1.379
       1.446
       1.507
       1.561
       1.607
       1.641
       1.659
       1.654
       1.623
       1.569
       1.495
       1.402
       1.289
       1.155
       1.004
       0.839
       0.663
       0.479
       0.287
       0.090
      -0.108
      -0.306
      -0.505
      -0.705
      -0.900
      -1.081
      -1.235
      -1.353
      -1.435
      -1.486
      -1.518
      -1.536
      -1.535
      -1.509
      -1.454
      -1.378
      -1.290
      -1.195
      -1.090
      -0.975
      -0.848
      -0.715
      -0.575
      -0.427
      -0.269
      -0.102
       0.069
       0.241
       0.411
       0.577
       0.729
       0.858
       0.958
       1.026
       1.064
       1.076
       1.070
       1.051
       1.023
       0.985
       0.939
       0.885
       0.822
       0.748
       0.662
       0.565
       0.454
       0.324
       0.170
      -0.008
      -0.204
      -0.409
      -0.622
      -0.840
      -1.060
      -1.270
      -1.458
      -1.609
      -1.714
      -1.769
      -1.773
      -1.733
      -1.657
      -1.549
      -1.410
      -1.240
      -1.043
      -0.826
      -0.597
      -0.367
      -0.147
       0.050
       0.212
       0.333
       0.407
       0.438
       0.432
       0.399
       0.346
       0.278
       0.196
       0.105
       0.017
      -0.055
      -0.102
      -0.124
      -0.127
      -0.117
      -0.099
      -0.077
      -0.055
      -0.041
      -0.041
      -0.060
      -0.093
      -0.129
      -0.157
      -0.171
      -0.170
      -0.159
      -0.141
      -0.122
      -0.105
      -0.094
      -0.085
      -0.071
      -0.051
      -0.028
      -0.008
       0.004
       0.009
       0.009
       0.008
       0.014
       0.033
       0.072
       0.135
       0.222
       0.335
       0.473
       0.634
       0.813
       1.004
       1.198
       1.379
       1.534
       1.649
       1.716
       1.736
       1.712
       1.647
       1.544
       1.407
       1.243
       1.067
       0.895
       0.739
       0.602
       0.480
       0.363
       0.249
       0.138
       0.030
      -0.071
      -0.162
      -0.238
      -0.292
      -0.316
      -0.311
      -0.283
      -0.242
      -0.194
      -0.143
      -0.092
      -0.045
      -0.005
       0.024
       0.039
       0.039
       0.024
      -0.005
      -0.049
      -0.108
      -0.179
      -0.256
      -0.331
      -0.394
      -0.440
      -0.468
      -0.480
      -0.481
      -0.469
      -0.443
      -0.402
      -0.353
      -0.303
      -0.255
      -0.207
      -0.161
      -0.118
      -0.084
      -0.060
      -0.048
      -0.046
      -0.057
      -0.087
      -0.134
      -0.197
      -0.268
      -0.340
      -0.406
      -0.464
      -0.515
      -0.565
      -0.616
      -0.669
      -0.720
      -0.769
      -0.815
      -0.860
      -0.901
      -0.933
      -0.951
      -0.952
      -0.937
      -0.906
      -0.860
      -0.800
      -0.725
      -0.636
      -0.534
      -0.422
      -0.305
      -0.192
      -0.095
      -0.023
       0.019
       0.035
       0.026
      -0.007
      -0.064
      -0.138
      -0.222
      -0.307
      -0.385
      -0.445
      -0.476
      -0.472
      -0.428
      -0.344
      -0.222
      -0.070
       0.100
       0.276
       0.444
       0.597
       0.727
       0.827
       0.887
       0.904
       0.883
       0.836
       0.781
       0.734
       0.705
       0.702
       0.728
       0.789
       0.883
       1.005
       1.142
       1.279
       1.404
       1.508
       1.587
       1.638
       1.656
       1.636
       1.572
       1.461
       1.300
       1.092
       0.838
       0.545
       0.222
      -0.113
      -0.437
      -0.729
      -0.978
      -1.180
      -1.341
      -1.463
      -1.546
      -1.589
      -1.594
      -1.567
      -1.513
      -1.437
      -1.342
      -1.235
      -1.121
      -1.002
      -0.882
      -0.760
      -0.639
      -0.516
      -0.389
      -0.258
      -0.123
       0.017
       0.159
       0.303
       0.448
       0.585
       0.708
       0.807
       0.877
       0.918
       0.933
       0.928
       0.904
       0.860
       0.800
       0.725
       0.635
       0.526
       0.393
       0.241
       0.082
      -0.071
      -0.210
      -0.332
      -0.438
      -0.530
      -0.605
      -0.665
      -0.705
      -0.721
      -0.707
      -0.660
      -0.583
      -0.481
      -0.360
      -0.224
      -0.075
       0.082
       0.233
       0.362
       0.454
       0.504
       0.517
       0.509
       0.495
       0.485
       0.477
       0.464
       0.444
       0.421
       0.399
       0.382
       0.370
       0.354
       0.328
       0.285
       0.223
       0.147
       0.055
      -0.058
      -0.196
      -0.357
      -0.534
      -0.716
      -0.894
      -1.060
      -1.207
      -1.330
      -1.424
      -1.490
      -1.527
      -1.535
      -1.517
      -1.474
      -1.405
      -1.311
      -1.195
      -1.063
      -0.924
      -0.791
      -0.669
      -0.559
      -0.459
      -0.364
      -0.274
      -0.186
      -0.095
       0.008
       0.124
       0.253
       0.389
       0.529
       0.670
       0.809
       0.938
       1.051
       1.141
       1.209
       1.255
       1.288
       1.316
       1.347
       1.385
       1.430
       1.476
       1.516
       1.546
       1.567
       1.580
       1.586
       1.576
       1.541
       1.470
       1.359
       1.209
       1.024
       0.807
       0.560
       0.290
       0.007
      -0.274
      -0.535
      -0.767
      -0.967
      -1.136
      -1.273
      -1.373
      -1.434
      -1.457
      -1.447
      -1.409
      -1.341
      -1.236
      -1.093
      -0.919
      -0.730
      -0.539
      -0.354
      -0.179
      -0.015
       0.133
       0.264
       0.378
       0.472
       0.543
       0.586
       0.603
       0.598
       0.575
       0.536
       0.484
       0.422
       0.354
       0.276
       0.185
       0.081
      -0.034
      -0.156
      -0.285
      -0.420
      -0.558
      -0.688
      -0.802
      -0.895
      -0.969
      -1.026
      -1.066
      -1.085
      -1.076
      -1.039
      -0.980
      -0.912
      -0.840
      -0.761
      -0.664
      -0.548
      -0.416
      -0.276
      -0.135
       0.005
       0.141
       0.266
       0.372
       0.449
       0.493
       0.505
       0.492
       0.459
       0.414
       0.362
       0.314
       0.277
       0.257
       0.256
       0.267
       0.285
       0.305
       0.322
       0.331
       0.327
       0.304
       0.262
       0.208
       0.156
       0.124
       0.123
       0.159
       0.229
       0.331
       0.463
       0.621
       0.800
       0.987
       1.165
       1.319
       1.436
