Origin Time       14/03/2010 6:53:21	 UTC
Lat.              31.7 N	
Long.             76.1 E	
Depth (Km)         29.0
Magnitude         4.6
 Region           HIMACHAL-PUNJAB-(HOSHIARPUR)-BORDER                              
 Above details taken from IMD 
    
Station Code      Roo
Station Lat.       29.866  N
Station Long.      77.901  E
Station Height(m)  243.0
Site Class        C   Vs30 between 200 m/sec to 375 m/sec *  
Record Time       14.03.2010 06:53:55.814 UTC
Sampling Rate     200. Hz
 Record Duration   70.010 Sec.
 Direction         N-S (N positive)
Max. Acceleration      0.689 cm/sec**2
     
  * For reference see Site Classification link of website 
     
 Base Line Corrected and Low Pass Filtered (Cut Off at 35 Hz) Time History
 Acceleration data in cm/sec**2
    
[...]
       0.047
       0.055
       0.059
       0.060
       0.063
       0.072
       0.086
       0.103
       0.117
       0.123
       0.118
       0.105
       0.088
       0.072
       0.061
       0.053
       0.043
       0.029
       0.011
      -0.012
      -0.039
      -0.068
      -0.096
      -0.122
      -0.142
      -0.157
      -0.163
      -0.158
      -0.144
      -0.127
      -0.110
      -0.096
      -0.084
      -0.070
      -0.055
      -0.039
      -0.019
       0.004
       0.028
       0.050
       0.066
       0.075
       0.077
       0.070
       0.059
       0.049
       0.044
       0.044
       0.044
       0.041
       0.036
       0.031
       0.026
       0.019
       0.010
      -0.001
      -0.013
      -0.022
      -0.027
      -0.027
      -0.023
      -0.017
      -0.007
       0.009
       0.031
       0.056
       0.076
       0.086
       0.089
       0.090
       0.092
       0.091
       0.086
       0.077
       0.066
       0.053
       0.036
       0.015
      -0.008
      -0.032
      -0.057
      -0.081
      -0.103
      -0.122
      -0.137
      -0.147
      -0.150
      -0.146
      -0.139
      -0.129
      -0.118
      -0.103
      -0.085
      -0.067
      -0.051
      -0.037
      -0.025
      -0.013
       0.000
       0.011
       0.021
       0.029
       0.039
       0.050
       0.060
       0.067
       0.068
       0.066
       0.064
       0.065
       0.074
       0.088
       0.104
       0.116
       0.122
       0.124
       0.123
       0.119
       0.110
       0.096
       0.081
       0.064
       0.044
       0.021
      -0.003
      -0.025
      -0.043
      -0.060
      -0.079
      -0.101
      -0.123
      -0.137
      -0.139
      -0.132
      -0.124
      -0.122
      -0.127
      -0.135
      -0.134
      -0.119
      -0.088
      -0.048
      -0.009
       0.026
       0.055
       0.079
       0.098
       0.111
       0.118
       0.119
       0.116
       0.110
       0.104
       0.097
       0.091
       0.086
       0.081
       0.074
       0.062
       0.045
       0.025
       0.003
      -0.019
      -0.044
      -0.069
      -0.090
      -0.103
      -0.103
      -0.093
      -0.080
      -0.070
      -0.068
      -0.069
      -0.070
      -0.066
      -0.057
      -0.043
      -0.028
      -0.014
      -0.004
       0.001
       0.005
       0.012
       0.024
       0.041
       0.056
       0.066
       0.070
       0.074
       0.081
       0.090
       0.100
       0.108
       0.114
       0.116
       0.114
       0.108
       0.099
       0.090
       0.078
       0.063
       0.045
       0.025
       0.002
      -0.023
      -0.048
      -0.069
      -0.081
      -0.084
      -0.086
      -0.092
      -0.101
      -0.109
      -0.111
      -0.107
      -0.099
      -0.089
      -0.080
      -0.073
      -0.069
      -0.065
      -0.055
      -0.036
      -0.010
       0.020
       0.046
       0.066
       0.082
       0.100
       0.125
       0.153
       0.175
       0.185
       0.183
       0.174
       0.159
       0.137
       0.107
       0.074
       0.045
       0.022
       0.003
      -0.019
      -0.045
      -0.071
      -0.091
      -0.101
      -0.101
      -0.094
      -0.085
      -0.076
      -0.068
      -0.057
      -0.042
      -0.025
      -0.010
       0.003
       0.013
       0.021
       0.023
       0.020
       0.016
       0.015
       0.018
       0.020
       0.021
       0.022
       0.026
       0.034
       0.043
       0.051
       0.056
       0.059
       0.058
       0.055
       0.050
       0.042
       0.031
       0.013
      -0.009
      -0.028
      -0.039
      -0.043
      -0.042
      -0.037
      -0.032
      -0.026
      -0.022
      -0.019
      -0.019
      -0.022
      -0.027
      -0.034
      -0.040
      -0.044
      -0.047
      -0.049
      -0.051
      -0.053
      -0.052
      -0.049
      -0.044
      -0.037
      -0.027
      -0.014
       0.000
       0.013
       0.027
       0.039
       0.047
       0.049
       0.047
       0.049
       0.061
       0.081
       0.101
       0.115
       0.120
       0.116
       0.107
       0.096
       0.084
       0.074
       0.067
       0.061
       0.057
       0.053
       0.046
       0.035
       0.019
       0.002
      -0.013
      -0.029
      -0.049
      -0.078
      -0.110
      -0.139
      -0.159
      -0.169
      -0.173
      -0.173
      -0.169
      -0.164
      -0.159
      -0.154
      -0.147
      -0.137
      -0.124
      -0.111
      -0.097
      -0.082
      -0.064
      -0.046
      -0.031
      -0.020
      -0.011
       0.001
       0.020
       0.048
       0.081
       0.117
       0.151
       0.181
       0.202
       0.214
       0.216
       0.211
       0.202
       0.191
       0.177
       0.158
       0.137
       0.119
       0.105
       0.092
       0.074
       0.048
       0.021
      -0.002
      -0.015
      -0.021
      -0.026
      -0.038
      -0.056
      -0.078
      -0.097
      -0.107
      -0.110
      -0.112
      -0.114
      -0.116
      -0.115
      -0.109
      -0.099
      -0.087
      -0.073
      -0.058
      -0.043
      -0.030
      -0.019
      -0.013
      -0.012
      -0.012
      -0.010
      -0.003
       0.009
       0.022
       0.035
       0.048
       0.063
       0.080
       0.099
       0.115
       0.124
       0.121
       0.108
       0.093
       0.083
       0.077
       0.069
       0.049
       0.018
      -0.015
      -0.041
      -0.059
      -0.074
      -0.092
      -0.111
      -0.127
      -0.135
      -0.135
      -0.130
      -0.124
      -0.116
      -0.106
      -0.089
      -0.064
      -0.029
       0.012
       0.052
       0.088
       0.118
       0.148
       0.178
       0.210
       0.240
       0.265
       0.279
       0.278
       0.263
       0.240
       0.213
       0.181
       0.144
       0.102
       0.062
       0.029
       0.005
      -0.012
      -0.026
      -0.042
      -0.063
      -0.088
      -0.114
      -0.137
      -0.153
      -0.163
      -0.170
      -0.175
      -0.178
      -0.179
      -0.179
      -0.180
      -0.180
      -0.178
      -0.171
      -0.161
      -0.150
      -0.136
      -0.121
      -0.104
      -0.087
      -0.069
      -0.054
      -0.042
      -0.036
      -0.031
      -0.026
      -0.019
      -0.013
      -0.010
      -0.007
      -0.004
      -0.004
      -0.011
      -0.025
      -0.038
      -0.042
      -0.036
      -0.024
      -0.015
      -0.009
      -0.001
       0.018
       0.049
       0.087
       0.122
       0.145
       0.155
       0.154
       0.144
       0.128
       0.106
       0.081
       0.057
       0.036
       0.016
      -0.005
      -0.024
      -0.038
      -0.044
      -0.044
      -0.041
      -0.041
      -0.044
      -0.050
      -0.050
      -0.041
      -0.022
       0.002
       0.025
       0.044
       0.059
       0.072
       0.087
       0.104
       0.122
       0.137
       0.147
       0.151
       0.152
       0.151
       0.153
       0.155
       0.154
       0.148
       0.138
       0.129
       0.123
       0.117
       0.109
       0.097
       0.083
       0.068
       0.054
       0.040
       0.025
       0.006
      -0.014
      -0.032
      -0.046
      -0.055
      -0.061
      -0.064
      -0.065
      -0.063
      -0.057
      -0.046
      -0.031
      -0.014
       0.004
       0.023
       0.045
       0.070
       0.093
       0.109
       0.113
       0.106
       0.090
       0.073
       0.056
       0.041
       0.025
       0.007
      -0.016
      -0.043
      -0.070
      -0.096
      -0.121
      -0.147
      -0.179
      -0.215
      -0.251
      -0.280
      -0.297
      -0.303
      -0.298
      -0.287
      -0.273
      -0.255
      -0.232
      -0.203
      -0.170
      -0.139
      -0.112
      -0.087
      -0.060
      -0.030
      -0.002
       0.020
       0.032
       0.035
       0.032
       0.027
       0.026
       0.033
       0.047
       0.065
       0.086
       0.107
       0.123
       0.131
       0.131
       0.127
       0.126
       0.131
       0.139
       0.144
       0.145
       0.145
       0.151
       0.163
       0.175
       0.179
       0.171
       0.153
       0.133
       0.113
       0.093
       0.072
       0.049
       0.024
      -0.001
      -0.026
      -0.051
      -0.076
      -0.096
      -0.106
      -0.107
      -0.107
      -0.111
      -0.117
      -0.121
      -0.115
      -0.097
      -0.073
      -0.047
      -0.023
      -0.003
       0.012
       0.019
       0.018
       0.006
      -0.012
      -0.032
      -0.051
      -0.065
      -0.078
      -0.090
      -0.100
      -0.099
      -0.084
      -0.057
      -0.027
       0.003
       0.033
       0.067
       0.106
       0.147
       0.186
       0.221
       0.250
       0.273
       0.289
       0.295
       0.289
       0.272
       0.247
       0.216
       0.182
       0.142
       0.096
       0.043
      -0.013
      -0.071
      -0.127
      -0.182
      -0.235
      -0.283
      -0.321
      -0.345
      -0.355
      -0.356
      -0.352
      -0.345
      -0.335
      -0.315
      -0.283
      -0.238
      -0.187
      -0.136
      -0.088
      -0.045
      -0.006
       0.027
       0.053
       0.071
       0.086
       0.103
       0.121
       0.135
       0.142
       0.146
       0.152
       0.162
       0.178
       0.195
       0.210
       0.224
       0.235
       0.246
       0.256
       0.261
       0.256
       0.240
       0.216
       0.191
       0.168
       0.145
       0.122
       0.095
       0.060
       0.016
      -0.035
      -0.085
      -0.128
      -0.163
      -0.193
      -0.224
      -0.254
      -0.278
      -0.291
      -0.287
      -0.267
      -0.234
      -0.191
      -0.139
      -0.082
      -0.020
       0.043
       0.103
       0.157
       0.202
       0.237
       0.258
       0.265
       0.259
       0.242
       0.218
       0.186
       0.147
       0.103
       0.057
       0.011
      -0.031
      -0.065
      -0.089
      -0.105
      -0.117
      -0.132
      -0.151
      -0.169
      -0.181
      -0.188
      -0.193
      -0.200
      -0.207
      -0.211
      -0.209
      -0.202
      -0.192
      -0.180
      -0.166
      -0.145
      -0.117
      -0.081
      -0.039
       0.001
       0.037
       0.067
       0.091
       0.111
       0.129
       0.147
       0.163
       0.178
       0.191
       0.201
       0.211
       0.223
       0.238
       0.250
       0.258
       0.259
       0.254
       0.249
       0.246
       0.248
       0.252
       0.255
       0.251
       0.238
       0.214
       0.182
       0.143
       0.101
       0.060
       0.025
      -0.003
      -0.027
      -0.052
      -0.081
      -0.114
      -0.150
      -0.184
      -0.216
      -0.247
      -0.278
      -0.309
      -0.341
      -0.371
      -0.399
      -0.425
      -0.447
      -0.461
      -0.465
      -0.455
      -0.433
      -0.401
      -0.357
      -0.297
      -0.225
      -0.148
      -0.075
      -0.010
       0.052
       0.115
       0.183
       0.251
       0.310
       0.352
       0.375
       0.383
       0.386
       0.391
       0.401
       0.415
       0.427
       0.433
       0.425
       0.398
       0.351
       0.291
       0.225
       0.156
       0.084
       0.006
      -0.075
      -0.154
      -0.225
      -0.286
      -0.339
      -0.383
      -0.416
      -0.433
      -0.434
      -0.417
      -0.382
      -0.330
      -0.269
      -0.205
      -0.141
      -0.077
      -0.013
       0.048
       0.105
       0.154
       0.192
       0.216
       0.223
       0.210
       0.178
       0.128
       0.069
       0.007
      -0.054
      -0.111
      -0.160
      -0.200
      -0.229
      -0.249
      -0.263
      -0.273
      -0.276
      -0.267
      -0.246
      -0.216
      -0.185
      -0.154
      -0.123
      -0.086
      -0.043
       0.002
       0.044
       0.082
       0.115
       0.143
       0.166
       0.186
       0.202
       0.217
       0.229
       0.238
       0.238
       0.227
       0.209
       0.189
       0.175
       0.169
       0.166
       0.160
       0.148
       0.131
       0.116
       0.106
       0.104
       0.106
       0.111
       0.116
       0.122
       0.131
       0.146
       0.166
       0.187
       0.203
       0.213
       0.219
       0.221
       0.219
       0.208
       0.187
       0.156
       0.117
       0.070
       0.015
      -0.047
      -0.110
      -0.167
      -0.212
      -0.240
      -0.253
      -0.255
      -0.254
      -0.254
      -0.254
      -0.255
      -0.257
      -0.258
      -0.252
      -0.231
      -0.191
      -0.137
      -0.080
      -0.029
       0.014
       0.051
       0.086
       0.125
       0.171
       0.223
       0.276
       0.323
       0.360
       0.385
       0.398
       0.395
       0.376
       0.343
       0.301
       0.255
       0.206
       0.153
       0.096
       0.032
      -0.041
      -0.122
      -0.209
      -0.301
      -0.393
      -0.481
      -0.558
      -0.620
      -0.661
      -0.682
      -0.688
      -0.680
      -0.660
      -0.624
      -0.572
      -0.506
      -0.430
      -0.344
      -0.251
      -0.152
      -0.050
       0.053
       0.158
       0.262
       0.364
       0.460
       0.547
       0.617
       0.665
       0.689
       0.688
       0.662
       0.610
       0.534
       0.441
       0.339
       0.234
       0.127
       0.017
      -0.095
      -0.204
      -0.308
      -0.399
      -0.471
      -0.517
      -0.531
      -0.517
      -0.481
      -0.428
      -0.362
      -0.287
      -0.209
      -0.132
      -0.058
       0.016
       0.087
       0.149
       0.196
       0.226
       0.241
       0.248
       0.248
       0.240
       0.221
       0.190
       0.144
       0.088
       0.028
      -0.028
      -0.077
      -0.119
      -0.158
      -0.196
      -0.228
      -0.244
      -0.239
      -0.214
      -0.179
      -0.148
      -0.128
      -0.116
      -0.100
      -0.069
      -0.026
       0.024
       0.075
       0.123
       0.168
       0.207
       0.237
       0.256
       0.268
       0.278
       0.288
       0.299
       0.311
       0.318
       0.314
       0.296
       0.265
       0.227
       0.190
       0.156
       0.124
       0.092
       0.058
       0.025
      -0.005
      -0.030
      -0.049
      -0.062
      -0.070
      -0.073
      -0.070
      -0.061
      -0.045
      -0.026
      -0.007
       0.010
       0.023
       0.035
       0.044
       0.049
       0.051
       0.048
       0.036
       0.013
      -0.020
      -0.056
      -0.086
      -0.110
      -0.133
      -0.158
      -0.188
      -0.217
      -0.241
      -0.257
      -0.264
      -0.260
      -0.249
      -0.234
      -0.214
      -0.192
      -0.170
      -0.152
      -0.139
      -0.129
      -0.117
      -0.097
      -0.065
      -0.024
       0.022
       0.065
       0.101
       0.129
       0.153
       0.175
       0.198
       0.220
       0.240
       0.258
       0.272
       0.282
       0.281
       0.267
       0.237
       0.197
       0.149
       0.095
       0.038
      -0.021
      -0.078
      -0.130
      -0.176
      -0.215
      -0.245
      -0.265
      -0.273
      -0.273
      -0.267
      -0.259
      -0.249
      -0.234
      -0.212
      -0.183
      -0.151
      -0.118
      -0.084
      -0.048
      -0.010
       0.024
       0.052
       0.072
       0.091
       0.112
       0.138
       0.163
       0.180
       0.186
       0.186
       0.184
       0.184
       0.183
       0.176
       0.160
       0.136
       0.110
       0.086
       0.064
       0.042
       0.015
      -0.020
      -0.061
      -0.101
      -0.135
      -0.160
      -0.178
      -0.190
      -0.199
      -0.204
      -0.199
      -0.180
      -0.146
      -0.099
      -0.049
      -0.003
       0.038
       0.075
       0.110
       0.145
       0.178
       0.207
       0.233
       0.255
       0.270
       0.277
       0.273
       0.259
       0.239
       0.214
       0.187
       0.160
       0.132
       0.103
       0.069
       0.031
      -0.011
      -0.055
      -0.097
      -0.133
      -0.159
      -0.179
      -0.193
      -0.206
      -0.222
      -0.241
      -0.264
      -0.284
      -0.298
      -0.299
      -0.291
      -0.274
      -0.252
      -0.223
      -0.185
      -0.140
      -0.093
      -0.048
      -0.009
       0.027
       0.062
       0.097
       0.130
       0.161
       0.188
       0.211
       0.229
       0.241
       0.245
       0.244
       0.238
       0.227
       0.211
       0.191
       0.169
       0.142
       0.110
       0.075
       0.041
       0.011
      -0.014
      -0.041
      -0.074
      -0.115
      -0.159
      -0.202
      -0.241
      -0.277
      -0.307
      -0.328
      -0.337
      -0.335
      -0.326
      -0.311
      -0.285
      -0.244
      -0.185
      -0.111
      -0.028
       0.060
       0.150
       0.232
       0.301
       0.354
       0.391
       0.419
       0.437
       0.446
       0.444
       0.435
       0.422
       0.404
       0.373
       0.322
       0.257
       0.189
       0.126
       0.070
       0.016
      -0.040
      -0.101
      -0.162
      -0.216
      -0.258
      -0.284
      -0.295
      -0.300
      -0.305
      -0.314
      -0.321
      -0.321
      -0.311
      -0.294
      -0.272
      -0.246
      -0.215
      -0.179
      -0.138
      -0.095
      -0.054
      -0.020
       0.007
       0.028
       0.045
       0.062
       0.082
       0.101
       0.116
       0.126
       0.131
       0.135
       0.141
       0.155
       0.177
       0.207
       0.236
       0.260
       0.274
       0.276
       0.265
       0.241
       0.210
       0.173
       0.134
       0.091
       0.045
      -0.002
      -0.048
      -0.090
      -0.125
      -0.151
      -0.166
      -0.166
      -0.154
      -0.137
      -0.121
      -0.112
      -0.112
      -0.118
      -0.125
      -0.127
      -0.123
      -0.114
      -0.106
      -0.101
      -0.100
      -0.102
      -0.108
      -0.123
      -0.145
      -0.171
      -0.191
      -0.199
      -0.191
      -0.170
      -0.139
      -0.105
      -0.072
      -0.045
      -0.023
      -0.004
       0.015
       0.034
       0.053
       0.070
       0.085
       0.100
       0.111
       0.119
       0.126
       0.134
       0.145
       0.154
       0.157
       0.156
       0.157
       0.164
       0.175
       0.184
       0.183
       0.169
       0.140
       0.100
       0.053
       0.006
      -0.040
      -0.085
      -0.125
      -0.156
      -0.175
      -0.184
      -0.193
      -0.205
      -0.218
      -0.224
      -0.218
      -0.200
      -0.175
      -0.148
      -0.122
      -0.101
      -0.083
      -0.063
      -0.034
       0.003
       0.043
       0.079
       0.111
       0.143
       0.176
       0.205
       0.221
       0.223
       0.212
       0.199
       0.191
       0.191
       0.197
       0.207
       0.216
       0.221
       0.221
       0.218
