Origin Time       11/2/2013 10:48:55	 UTC
Lat.              31.0 N	
Long.             78.4 E	
Depth (Km)          5.0
Magnitude         4.3
 Region           UTTARKASHI-UTTARAKHAND                                           
 Above details taken from IMD 
    
Station Code      ROO
Station Lat.       29.866  N
Station Long.      77.901  E
Station Height(m)  243.0
Site Class        C   Vs30 between 200 m/sec to 375 m/sec *  
Record Time       11.02.2013 10:49:03.174 UTC
Sampling Rate     200. Hz
 Record Duration   90.100 Sec.
 Direction         N-S (N positive)
Max. Acceleration      0.438 cm/sec**2
     
  * For reference see Site Classification link of website 
     
 Base Line Corrected and Low Pass Filtered (Cut Off at 35 Hz) Time History
 Acceleration data in cm/sec**2
    
[...]
      -0.235
      -0.218
      -0.193
      -0.161
      -0.122
      -0.077
      -0.024
       0.033
       0.092
       0.146
       0.189
       0.221
       0.244
       0.263
       0.280
       0.293
       0.296
       0.288
       0.268
       0.241
       0.207
       0.163
       0.109
       0.047
      -0.017
      -0.076
      -0.129
      -0.174
      -0.213
      -0.245
      -0.268
      -0.274
      -0.257
      -0.221
      -0.175
      -0.134
      -0.106
      -0.091
      -0.084
      -0.077
      -0.069
      -0.062
      -0.055
      -0.049
      -0.042
      -0.031
      -0.017
       0.000
       0.019
       0.038
       0.056
       0.071
       0.083
       0.094
       0.104
       0.109
       0.107
       0.097
       0.081
       0.066
       0.056
       0.053
       0.055
       0.062
       0.071
       0.080
       0.087
       0.086
       0.073
       0.044
       0.004
      -0.043
      -0.089
      -0.132
      -0.170
      -0.203
      -0.232
      -0.253
      -0.261
      -0.252
      -0.227
      -0.195
      -0.164
      -0.139
      -0.117
      -0.089
      -0.050
       0.002
       0.059
       0.117
       0.170
       0.214
       0.247
       0.265
       0.266
       0.250
       0.221
       0.185
       0.149
       0.118
       0.093
       0.070
       0.049
       0.033
       0.027
       0.032
       0.042
       0.045
       0.036
       0.019
       0.006
       0.007
       0.021
       0.036
       0.040
       0.029
       0.011
      -0.009
      -0.027
      -0.045
      -0.063
      -0.079
      -0.092
      -0.100
      -0.103
      -0.098
      -0.088
      -0.072
      -0.051
      -0.026
       0.004
       0.034
       0.054
       0.056
       0.035
      -0.006
      -0.060
      -0.117
      -0.171
      -0.223
      -0.275
      -0.322
      -0.359
      -0.375
      -0.369
      -0.345
      -0.307
      -0.260
      -0.206
      -0.146
      -0.083
      -0.016
       0.053
       0.119
       0.176
       0.214
       0.230
       0.223
       0.206
       0.187
       0.172
       0.161
       0.151
       0.142
       0.133
       0.120
       0.095
       0.059
       0.017
      -0.018
      -0.038
      -0.042
      -0.039
      -0.035
      -0.030
      -0.020
      -0.002
       0.022
       0.047
       0.070
       0.093
       0.122
       0.157
       0.196
       0.229
       0.251
       0.260
       0.259
       0.255
       0.247
       0.237
       0.223
       0.200
       0.167
       0.122
       0.069
       0.012
      -0.041
      -0.085
      -0.113
      -0.120
      -0.108
      -0.085
      -0.064
      -0.053
      -0.047
      -0.043
      -0.038
      -0.036
      -0.042
      -0.056
      -0.070
      -0.078
      -0.082
      -0.088
      -0.102
      -0.122
      -0.143
      -0.158
      -0.163
      -0.156
      -0.137
      -0.102
      -0.051
       0.016
       0.092
       0.168
       0.234
       0.282
       0.307
       0.313
       0.310
       0.304
       0.295
       0.279
       0.249
       0.202
       0.144
       0.078
       0.011
      -0.056
      -0.117
      -0.167
      -0.206
      -0.236
      -0.265
      -0.292
      -0.312
      -0.316
      -0.302
      -0.276
      -0.250
      -0.230
      -0.216
      -0.203
      -0.186
      -0.167
      -0.149
      -0.132
      -0.113
      -0.089
      -0.064
      -0.042
      -0.028
      -0.023
      -0.025
      -0.030
      -0.033
      -0.027
      -0.010
       0.015
       0.043
       0.065
       0.080
       0.091
       0.101
       0.110
       0.118
       0.124
       0.134
       0.153
       0.181
       0.208
       0.222
       0.208
       0.163
       0.095
       0.020
      -0.045
      -0.092
      -0.119
      -0.130
      -0.129
      -0.118
      -0.096
      -0.063
      -0.021
       0.021
       0.059
       0.091
       0.119
       0.144
       0.166
       0.179
       0.179
       0.165
       0.141
       0.110
       0.076
       0.043
       0.012
      -0.014
      -0.034
      -0.050
      -0.064
      -0.078
      -0.095
      -0.114
      -0.131
      -0.143
      -0.145
      -0.137
      -0.122
      -0.105
      -0.088
      -0.072
      -0.051
      -0.018
       0.026
       0.077
       0.125
       0.162
       0.186
       0.197
       0.200
       0.198
       0.185
       0.158
       0.117
       0.070
       0.023
      -0.022
      -0.066
      -0.107
      -0.140
      -0.160
      -0.163
      -0.153
      -0.139
      -0.130
      -0.128
      -0.132
      -0.136
      -0.139
      -0.143
      -0.150
      -0.164
      -0.182
      -0.202
      -0.219
      -0.228
      -0.226
      -0.215
      -0.196
      -0.168
      -0.128
      -0.072
      -0.003
       0.070
       0.134
       0.181
       0.207
       0.214
       0.208
       0.195
       0.181
       0.169
       0.159
       0.149
       0.131
       0.106
       0.077
       0.049
       0.026
       0.007
      -0.006
      -0.008
       0.004
       0.026
       0.052
       0.079
       0.103
       0.121
       0.127
       0.113
       0.076
       0.021
      -0.043
      -0.107
      -0.159
      -0.192
      -0.205
      -0.200
      -0.184
      -0.164
      -0.146
      -0.130
      -0.111
      -0.087
      -0.057
      -0.026
       0.000
       0.018
       0.029
       0.035
       0.036
       0.029
       0.015
      -0.003
      -0.024
      -0.047
      -0.069
      -0.084
      -0.084
      -0.065
      -0.027
       0.020
       0.067
       0.109
       0.146
       0.178
       0.204
       0.216
       0.209
       0.180
       0.132
       0.078
       0.026
      -0.018
      -0.056
      -0.096
      -0.136
      -0.170
      -0.187
      -0.183
      -0.160
      -0.130
      -0.101
      -0.074
      -0.047
      -0.019
       0.010
       0.035
       0.053
       0.061
       0.061
       0.058
       0.055
       0.055
       0.058
       0.057
       0.051
       0.044
       0.040
       0.045
       0.056
       0.070
       0.078
       0.077
       0.065
       0.042
       0.010
      -0.028
      -0.067
      -0.101
      -0.126
      -0.143
      -0.161
      -0.185
      -0.216
      -0.244
      -0.262
      -0.264
      -0.255
      -0.239
      -0.219
      -0.196
      -0.171
      -0.144
      -0.116
      -0.081
      -0.031
       0.037
       0.117
       0.196
       0.258
       0.296
       0.312
       0.317
       0.317
       0.313
       0.303
       0.284
       0.258
       0.229
       0.200
       0.169
       0.130
       0.081
       0.021
      -0.039
      -0.090
      -0.125
      -0.143
      -0.146
      -0.137
      -0.119
      -0.098
      -0.083
      -0.083
      -0.098
      -0.121
      -0.140
      -0.148
      -0.147
      -0.142
      -0.139
      -0.134
      -0.125
      -0.111
      -0.094
      -0.076
      -0.058
      -0.034
       0.003
       0.047
       0.087
       0.111
       0.119
       0.116
       0.108
       0.097
       0.077
       0.045
       0.004
      -0.035
      -0.063
      -0.077
      -0.079
      -0.075
      -0.067
      -0.054
      -0.037
      -0.018
       0.001
       0.016
       0.023
       0.020
       0.009
      -0.007
      -0.022
      -0.035
      -0.045
      -0.053
      -0.060
      -0.065
      -0.070
      -0.073
      -0.073
      -0.070
      -0.064
      -0.056
      -0.041
      -0.009
       0.044
       0.109
       0.172
       0.223
       0.258
       0.282
       0.296
       0.298
       0.282
       0.249
       0.204
       0.156
       0.107
       0.058
       0.009
      -0.036
      -0.075
      -0.107
      -0.134
      -0.159
      -0.179
      -0.191
      -0.191
      -0.179
      -0.161
      -0.139
      -0.118
      -0.098
      -0.081
      -0.070
      -0.066
      -0.065
      -0.062
      -0.053
      -0.043
      -0.036
      -0.034
      -0.039
      -0.047
      -0.052
      -0.054
      -0.052
      -0.052
      -0.058
      -0.071
      -0.085
      -0.097
      -0.101
      -0.097
      -0.093
      -0.095
      -0.107
      -0.124
      -0.139
      -0.147
      -0.144
      -0.130
      -0.105
      -0.069
      -0.025
       0.023
       0.074
       0.122
       0.162
       0.190
       0.208
       0.221
       0.235
       0.249
       0.255
       0.245
       0.212
       0.157
       0.086
       0.011
      -0.058
      -0.114
      -0.151
      -0.167
      -0.163
      -0.145
      -0.123
      -0.108
      -0.105
      -0.112
      -0.122
      -0.127
      -0.126
      -0.124
      -0.121
      -0.116
      -0.102
      -0.075
      -0.040
      -0.009
       0.011
       0.022
       0.029
       0.040
       0.057
       0.080
       0.110
       0.148
       0.189
       0.226
       0.254
       0.272
       0.284
       0.292
       0.290
       0.273
       0.240
       0.202
       0.165
       0.131
       0.098
       0.066
       0.039
       0.027
       0.032
       0.052
       0.080
       0.109
       0.138
       0.165
       0.186
       0.195
       0.184
       0.149
       0.095
       0.029
      -0.040
      -0.104
      -0.157
      -0.197
      -0.228
      -0.253
      -0.272
      -0.283
      -0.281
      -0.262
      -0.226
      -0.179
      -0.124
      -0.066
      -0.011
       0.033
       0.062
       0.076
       0.079
       0.075
       0.066
       0.053
       0.040
       0.037
       0.048
       0.071
       0.096
       0.111
       0.110
       0.090
       0.056
       0.013
      -0.033
      -0.077
      -0.111
      -0.127
      -0.123
      -0.105
      -0.084
      -0.071
      -0.072
      -0.085
      -0.102
      -0.116
      -0.120
      -0.118
      -0.109
      -0.094
      -0.069
      -0.039
      -0.012
       0.004
       0.004
      -0.006
      -0.015
      -0.013
       0.004
       0.027
       0.046
       0.048
       0.036
       0.019
       0.008
       0.007
       0.009
       0.008
       0.003
      -0.004
      -0.007
      -0.009
      -0.016
      -0.035
      -0.067
      -0.106
      -0.143
      -0.174
      -0.197
      -0.219
      -0.245
      -0.274
      -0.298
      -0.309
      -0.305
      -0.290
      -0.273
      -0.259
      -0.244
      -0.222
      -0.190
      -0.155
      -0.123
      -0.101
      -0.086
      -0.073
      -0.057
      -0.033
      -0.004
       0.028
       0.062
       0.097
       0.134
       0.170
       0.197
       0.212
       0.215
       0.211
       0.206
       0.204
       0.205
       0.203
       0.192
       0.169
       0.134
       0.096
       0.065
       0.051
       0.053
       0.066
       0.084
       0.102
       0.119
       0.136
       0.153
       0.170
       0.188
       0.207
       0.226
       0.245
       0.265
       0.287
       0.304
       0.305
       0.282
       0.235
       0.176
       0.116
       0.064
       0.018
      -0.021
      -0.052
      -0.072
      -0.081
      -0.085
      -0.092
      -0.105
      -0.121
      -0.131
      -0.129
      -0.116
      -0.099
      -0.085
      -0.076
      -0.066
      -0.051
      -0.026
       0.007
       0.044
       0.079
       0.105
       0.120
       0.124
       0.118
       0.101
       0.072
       0.032
      -0.014
      -0.058
      -0.091
      -0.107
      -0.107
      -0.094
      -0.074
      -0.050
      -0.021
       0.016
       0.063
       0.119
       0.176
       0.223
       0.252
       0.256
       0.238
       0.206
       0.170
       0.136
       0.104
       0.068
       0.026
      -0.026
      -0.086
      -0.148
      -0.205
      -0.251
      -0.282
      -0.300
      -0.310
      -0.318
      -0.325
      -0.329
      -0.326
      -0.315
      -0.294
      -0.262
      -0.218
      -0.165
      -0.110
      -0.062
      -0.026
      -0.001
       0.018
       0.033
       0.044
       0.048
       0.048
       0.044
       0.035
       0.014
      -0.022
      -0.071
      -0.123
      -0.166
      -0.194
      -0.209
      -0.214
      -0.211
      -0.201
      -0.189
      -0.178
      -0.169
      -0.158
      -0.137
      -0.104
      -0.064
      -0.025
       0.009
       0.037
       0.055
       0.062
       0.055
       0.038
       0.017
       0.001
      -0.008
      -0.012
      -0.015
      -0.021
      -0.027
      -0.030
      -0.030
      -0.025
      -0.013
       0.007
       0.038
       0.076
       0.117
       0.156
       0.187
       0.208
       0.216
       0.209
       0.191
       0.163
       0.128
       0.084
       0.036
      -0.013
      -0.059
      -0.100
      -0.139
      -0.174
      -0.202
      -0.220
      -0.226
      -0.221
      -0.210
      -0.191
      -0.166
      -0.139
      -0.120
      -0.115
      -0.121
      -0.127
      -0.122
      -0.100
      -0.065
      -0.022
       0.029
       0.089
       0.157
       0.224
       0.280
       0.318
       0.336
       0.340
       0.337
       0.330
       0.320
       0.305
       0.282
       0.251
       0.212
       0.167
       0.122
       0.079
       0.038
      -0.003
      -0.047
      -0.095
      -0.148
      -0.205
      -0.264
      -0.321
      -0.370
      -0.402
      -0.408
      -0.385
      -0.334
      -0.266
      -0.190
      -0.110
      -0.026
       0.061
       0.148
       0.228
       0.298
       0.354
       0.397
       0.425
       0.438
       0.435
       0.421
       0.395
       0.358
       0.306
       0.236
       0.149
       0.051
      -0.050
      -0.144
      -0.224
      -0.286
      -0.333
      -0.367
      -0.388
      -0.394
      -0.383
      -0.360
      -0.329
      -0.293
      -0.250
      -0.196
      -0.131
      -0.059
       0.015
       0.088
       0.162
       0.231
       0.289
       0.330
       0.352
       0.358
       0.355
       0.347
       0.334
       0.311
       0.274
       0.222
       0.159
       0.091
       0.024
      -0.039
      -0.095
      -0.147
      -0.190
      -0.221
      -0.236
      -0.235
      -0.219
      -0.191
      -0.155
      -0.119
      -0.086
      -0.059
      -0.033
      -0.006
       0.024
       0.057
       0.088
       0.114
       0.125
       0.114
       0.081
       0.037
      -0.007
      -0.039
      -0.057
      -0.066
      -0.072
      -0.078
      -0.084
      -0.084
      -0.074
      -0.054
      -0.025
       0.010
       0.045
       0.072
       0.084
       0.077
       0.053
       0.019
      -0.016
      -0.044
      -0.066
      -0.087
      -0.111
      -0.137
      -0.159
      -0.174
      -0.180
      -0.182
      -0.185
      -0.192
      -0.201
      -0.208
      -0.208
      -0.198
      -0.176
      -0.143
      -0.100
      -0.050
       0.005
       0.063
       0.125
       0.187
       0.239
       0.273
       0.288
       0.285
       0.268
       0.237
       0.189
       0.126
       0.051
      -0.029
      -0.102
      -0.162
      -0.202
      -0.221
      -0.220
      -0.198
      -0.156
      -0.097
      -0.029
       0.042
       0.113
       0.178
       0.235
       0.278
       0.300
       0.297
       0.266
       0.209
       0.133
       0.047
      -0.038
      -0.113
      -0.171
      -0.213
      -0.242
      -0.259
      -0.263
      -0.249
      -0.217
      -0.168
      -0.105
      -0.030
       0.050
       0.123
       0.176
       0.201
       0.201
       0.183
       0.157
       0.124
       0.080
       0.029
      -0.022
      -0.059
      -0.078
      -0.082
      -0.079
      -0.077
      -0.076
      -0.073
      -0.065
      -0.050
      -0.028
      -0.002
       0.022
       0.037
       0.043
       0.041
       0.038
       0.038
       0.044
       0.052
       0.060
       0.063
       0.057
       0.045
       0.033
       0.027
       0.028
       0.029
       0.025
       0.010
      -0.012
      -0.039
      -0.068
      -0.096
      -0.117
      -0.125
      -0.117
      -0.094
      -0.062
      -0.024
       0.022
       0.078
       0.142
       0.206
       0.260
       0.291
       0.295
       0.267
       0.212
       0.137
       0.053
      -0.028
      -0.104
      -0.173
      -0.233
      -0.278
      -0.300
      -0.297
      -0.271
      -0.226
      -0.165
      -0.089
      -0.004
       0.078
       0.147
       0.196
       0.229
       0.246
       0.246
       0.223
       0.175
       0.106
       0.025
      -0.055
      -0.129
      -0.189
      -0.232
      -0.255
      -0.261
      -0.260
      -0.260
      -0.264
      -0.270
      -0.270
      -0.259
      -0.238
      -0.212
      -0.183
      -0.155
      -0.127
      -0.095
      -0.056
      -0.005
       0.057
       0.124
       0.191
       0.250
       0.301
       0.342
       0.375
       0.396
       0.399
       0.373
       0.314
       0.228
       0.130
       0.037
      -0.044
      -0.111
      -0.168
      -0.213
      -0.240
      -0.246
      -0.234
      -0.214
      -0.192
      -0.168
      -0.137
      -0.094
      -0.044
       0.004
       0.043
       0.069
       0.082
       0.082
       0.069
       0.040
      -0.004
      -0.057
      -0.106
      -0.144
      -0.163
      -0.162
      -0.145
      -0.118
      -0.084
      -0.044
       0.004
       0.056
       0.106
       0.151
       0.192
       0.229
       0.262
       0.285
       0.291
       0.274
       0.235
       0.182
       0.126
       0.078
       0.044
       0.025
       0.021
       0.029
       0.044
       0.058
       0.065
       0.067
       0.073
       0.091
       0.122
       0.154
       0.173
       0.170
       0.144
       0.103
       0.052
      -0.004
      -0.061
      -0.118
      -0.169
      -0.211
      -0.242
      -0.259
      -0.259
      -0.243
      -0.213
      -0.176
      -0.136
      -0.092
      -0.048
      -0.007
       0.021
       0.028
       0.008
      -0.033
      -0.088
      -0.146
      -0.202
      -0.249
      -0.279
      -0.284
      -0.264
      -0.221
      -0.159
      -0.080
       0.010
       0.102
       0.185
       0.251
       0.295
       0.317
       0.320
       0.301
       0.257
       0.184
       0.089
      -0.015
      -0.113
      -0.190
      -0.239
      -0.254
      -0.236
      -0.187
      -0.116
      -0.036
       0.042
       0.109
       0.164
       0.209
       0.242
       0.261
       0.262
       0.239
       0.196
       0.141
       0.086
       0.037
      -0.004
      -0.038
      -0.067
      -0.088
      -0.098
      -0.096
      -0.090
      -0.091
      -0.109
      -0.142
      -0.177
      -0.204
      -0.217
      -0.218
      -0.210
      -0.193
      -0.169
      -0.143
      -0.120
      -0.100
      -0.077
      -0.043
       0.007
       0.068
       0.127
       0.173
       0.203
       0.215
       0.213
       0.199
       0.174
       0.142
       0.103
       0.057
       0.001
      -0.066
      -0.137
      -0.201
      -0.247
      -0.270
      -0.274
      -0.267
      -0.251
      -0.222
      -0.178
      -0.121
      -0.058
       0.003
       0.058
       0.104
       0.143
       0.170
       0.180
       0.169
       0.140
       0.105
