Origin Time       04/04/2011 11:31:40
Lat.              29.6 N	
Long.             80.8 E	
Depth (Km)         10.0
Magnitude         5.7
 Region           NEPAL-INDIA-BORDER-REGION                                        
 Above details taken from IMD 
   
Station Code      Roo
Station Lat.       29.866
Station Long.      77.901
Station Height(m)  243.0
Site Class        C   Vs30 between 200 m/sec to 375 m/sec *  
Record Time       04.04.2011 11:32:00.024
Sampling Rate     200. Hz
 Record Duration  166.875 Sec.
 Direction         Vert. (Up positive)
Max. Acceleration     -1.556 cm/sec**2
     
  * For reference see Site Classification link of website 
     
 Base Line Corrected and Low Pass Filtered (Cut Off at 35 Hz) Time History
 Acceleration data in cm/sec**2
    
[...]
      -0.047
       0.029
       0.091
       0.133
       0.145
       0.116
       0.045
      -0.065
      -0.199
      -0.341
      -0.474
      -0.589
      -0.682
      -0.751
      -0.792
      -0.798
      -0.762
      -0.687
      -0.583
      -0.465
      -0.347
      -0.236
      -0.138
      -0.057
       0.008
       0.059
       0.103
       0.146
       0.193
       0.246
       0.310
       0.387
       0.477
       0.577
       0.676
       0.755
       0.796
       0.789
       0.733
       0.638
       0.520
       0.395
       0.279
       0.180
       0.100
       0.035
      -0.022
      -0.077
      -0.140
      -0.223
      -0.335
      -0.480
      -0.649
      -0.820
      -0.969
      -1.078
      -1.142
      -1.165
      -1.153
      -1.111
      -1.048
      -0.974
      -0.897
      -0.817
      -0.726
      -0.611
      -0.467
      -0.305
      -0.140
       0.014
       0.150
       0.271
       0.375
       0.458
       0.514
       0.543
       0.549
       0.539
       0.518
       0.488
       0.451
       0.410
       0.366
       0.316
       0.256
       0.186
       0.109
       0.035
      -0.032
      -0.089
      -0.139
      -0.190
      -0.245
      -0.306
      -0.366
      -0.414
      -0.442
      -0.449
      -0.436
      -0.409
      -0.375
      -0.339
      -0.306
      -0.273
      -0.234
      -0.180
      -0.107
      -0.011
       0.112
       0.264
       0.437
       0.618
       0.792
       0.946
       1.072
       1.160
       1.202
       1.194
       1.142
       1.068
       0.994
       0.940
       0.913
       0.909
       0.912
       0.908
       0.882
       0.827
       0.736
       0.606
       0.436
       0.232
       0.014
      -0.194
      -0.363
      -0.477
      -0.533
      -0.545
      -0.535
      -0.523
      -0.520
      -0.535
      -0.567
      -0.612
      -0.657
      -0.685
      -0.681
      -0.634
      -0.547
      -0.432
      -0.303
      -0.171
      -0.045
       0.062
       0.137
       0.175
       0.188
       0.198
       0.227
       0.282
       0.351
       0.410
       0.435
       0.408
       0.323
       0.185
       0.008
      -0.185
      -0.372
      -0.532
      -0.657
      -0.743
      -0.790
      -0.803
      -0.785
      -0.745
      -0.693
      -0.639
      -0.585
      -0.533
      -0.478
      -0.420
      -0.363
      -0.307
      -0.251
      -0.195
      -0.139
      -0.087
      -0.039
       0.011
       0.066
       0.121
       0.163
       0.176
       0.152
       0.095
       0.024
      -0.042
      -0.086
      -0.103
      -0.090
      -0.053
       0.003
       0.063
       0.113
       0.139
       0.142
       0.136
       0.136
       0.148
       0.175
       0.217
       0.277
       0.362
       0.473
       0.604
       0.740
       0.856
       0.934
       0.966
       0.949
       0.887
       0.783
       0.643
       0.479
       0.308
       0.147
       0.012
      -0.093
      -0.171
      -0.220
      -0.237
      -0.225
      -0.201
      -0.186
      -0.198
      -0.238
      -0.297
      -0.359
      -0.412
      -0.449
      -0.467
      -0.469
      -0.460
      -0.444
      -0.424
      -0.398
      -0.364
      -0.321
      -0.265
      -0.193
      -0.107
      -0.006
       0.107
       0.230
       0.352
       0.461
       0.547
       0.611
       0.665
       0.716
       0.766
       0.808
       0.839
       0.858
       0.866
       0.867
       0.861
       0.853
       0.846
       0.844
       0.836
       0.807
       0.735
       0.613
       0.442
       0.235
       0.009
      -0.220
      -0.433
      -0.614
      -0.750
      -0.837
      -0.879
      -0.886
      -0.865
      -0.819
      -0.756
      -0.687
      -0.624
      -0.578
      -0.552
      -0.543
      -0.544
      -0.545
      -0.539
      -0.515
      -0.468
      -0.396
      -0.305
      -0.203
      -0.093
       0.022
       0.137
       0.243
       0.332
       0.398
       0.440
       0.458
       0.449
       0.412
       0.349
       0.265
       0.167
       0.062
      -0.040
      -0.126
      -0.183
      -0.202
      -0.185
      -0.139
      -0.073
       0.000
       0.061
       0.095
       0.087
       0.030
      -0.077
      -0.221
      -0.377
      -0.516
      -0.613
      -0.655
      -0.637
      -0.564
      -0.442
      -0.284
      -0.106
       0.073
       0.233
       0.359
       0.446
       0.498
       0.518
       0.515
       0.497
       0.473
       0.454
       0.445
       0.441
       0.430
       0.402
       0.351
       0.279
       0.192
       0.099
       0.010
      -0.063
      -0.113
      -0.132
      -0.121
      -0.081
      -0.021
       0.045
       0.102
       0.134
       0.133
       0.105
       0.061
       0.018
      -0.013
      -0.021
      -0.003
       0.035
       0.076
       0.096
       0.082
       0.028
      -0.060
      -0.179
      -0.323
      -0.490
      -0.667
      -0.831
      -0.954
      -1.009
      -0.984
      -0.883
      -0.728
      -0.547
      -0.368
      -0.218
      -0.115
      -0.075
      -0.097
      -0.164
      -0.245
      -0.313
      -0.347
      -0.340
      -0.298
      -0.231
      -0.152
      -0.074
      -0.006
       0.051
       0.100
       0.150
       0.211
       0.291
       0.397
       0.531
       0.682
       0.828
       0.938
       0.982
       0.945
       0.829
       0.657
       0.459
       0.263
       0.093
      -0.033
      -0.102
      -0.109
      -0.062
       0.017
       0.104
       0.175
       0.213
       0.208
       0.160
       0.081
      -0.010
      -0.090
      -0.139
      -0.146
      -0.106
      -0.027
       0.080
       0.197
       0.308
       0.399
       0.460
       0.483
       0.467
       0.419
       0.354
       0.286
       0.227
       0.179
       0.138
       0.098
       0.051
      -0.010
      -0.090
      -0.183
      -0.279
      -0.356
      -0.398
      -0.394
      -0.346
      -0.266
      -0.174
      -0.096
      -0.051
      -0.051
      -0.093
      -0.162
      -0.239
      -0.306
      -0.356
      -0.382
      -0.384
      -0.365
      -0.333
      -0.299
      -0.275
      -0.270
      -0.286
      -0.320
      -0.362
      -0.404
      -0.438
      -0.461
      -0.472
      -0.469
      -0.454
      -0.434
      -0.413
      -0.394
      -0.375
      -0.345
      -0.292
      -0.203
      -0.074
       0.089
       0.276
       0.476
       0.678
       0.874
       1.049
       1.186
       1.271
       1.303
       1.288
       1.235
       1.148
       1.029
       0.888
       0.750
       0.640
       0.572
       0.538
       0.520
       0.500
       0.467
       0.421
       0.368
       0.315
       0.270
       0.241
       0.234
       0.243
       0.257
       0.260
       0.241
       0.198
       0.135
       0.061
      -0.015
      -0.083
      -0.138
      -0.181
      -0.219
      -0.258
      -0.298
      -0.336
      -0.372
      -0.411
      -0.461
      -0.518
      -0.573
      -0.612
      -0.629
      -0.624
      -0.605
      -0.585
      -0.573
      -0.577
      -0.597
      -0.630
      -0.667
      -0.693
      -0.696
      -0.672
      -0.625
      -0.568
      -0.516
      -0.481
      -0.469
      -0.478
      -0.507
      -0.558
      -0.628
      -0.705
      -0.766
      -0.787
      -0.746
      -0.641
      -0.483
      -0.297
      -0.111
       0.054
       0.184
       0.276
       0.332
       0.362
       0.381
       0.403
       0.435
       0.474
       0.511
       0.541
       0.564
       0.578
       0.578
       0.560
       0.522
       0.474
       0.429
       0.404
       0.414
       0.458
       0.524
       0.585
       0.614
       0.587
       0.494
       0.335
       0.122
      -0.120
      -0.361
      -0.566
      -0.703
      -0.749
      -0.698
      -0.561
      -0.365
      -0.145
       0.064
       0.235
       0.350
       0.406
       0.408
       0.371
       0.319
       0.278
       0.273
       0.318
       0.412
       0.542
       0.684
       0.811
       0.901
       0.934
       0.900
       0.798
       0.644
       0.461
       0.278
       0.117
      -0.017
      -0.129
      -0.229
      -0.324
      -0.419
      -0.514
      -0.608
      -0.695
      -0.762
      -0.801
      -0.809
      -0.789
      -0.742
      -0.671
      -0.580
      -0.476
      -0.372
      -0.281
      -0.217
      -0.188
      -0.196
      -0.230
      -0.275
      -0.308
      -0.312
      -0.281
      -0.215
      -0.124
      -0.023
       0.066
       0.131
       0.165
       0.174
       0.174
       0.176
       0.190
       0.218
       0.261
       0.319
       0.387
       0.455
       0.509
       0.542
       0.551
       0.540
       0.512
       0.469
       0.411
       0.339
       0.257
       0.165
       0.064
      -0.048
      -0.166
      -0.289
      -0.412
      -0.525
      -0.613
      -0.661
      -0.660
      -0.612
      -0.530
      -0.431
      -0.331
      -0.239
      -0.162
      -0.103
      -0.060
      -0.021
       0.030
       0.104
       0.208
       0.337
       0.482
       0.630
       0.774
       0.906
       1.022
       1.113
       1.170
       1.180
       1.136
       1.042
       0.906
       0.738
       0.541
       0.321
       0.088
      -0.143
      -0.355
      -0.530
      -0.659
      -0.739
      -0.777
      -0.783
      -0.771
      -0.749
      -0.724
      -0.702
      -0.693
      -0.702
      -0.730
      -0.773
      -0.820
      -0.858
      -0.870
      -0.849
      -0.795
      -0.717
      -0.623
      -0.519
      -0.408
      -0.296
      -0.184
      -0.075
       0.029
       0.123
       0.200
       0.252
       0.272
       0.258
       0.211
       0.135
       0.033
      -0.089
      -0.216
      -0.333
      -0.426
      -0.485
      -0.507
      -0.491
      -0.439
      -0.352
      -0.237
      -0.104
       0.037
       0.179
       0.323
       0.469
       0.619
       0.769
       0.911
       1.039
       1.143
       1.213
       1.236
       1.202
       1.105
       0.952
       0.759
       0.542
       0.317
       0.100
      -0.093
      -0.244
      -0.340
      -0.379
      -0.368
      -0.327
      -0.279
      -0.246
      -0.247
      -0.287
      -0.362
      -0.454
      -0.538
      -0.592
      -0.601
      -0.560
      -0.476
      -0.364
      -0.245
      -0.137
      -0.056
      -0.011
      -0.002
      -0.026
      -0.070
      -0.118
      -0.154
      -0.167
      -0.154
      -0.121
      -0.077
      -0.027
       0.022
       0.063
       0.092
       0.114
       0.142
       0.193
       0.276
       0.390
       0.520
       0.648
       0.759
       0.846
       0.905
       0.931
       0.918
       0.859
       0.751
       0.604
       0.434
       0.259
       0.095
      -0.049
      -0.168
      -0.259
      -0.320
      -0.355
      -0.374
      -0.389
      -0.405
      -0.422
      -0.437
      -0.449
      -0.460
      -0.473
      -0.492
      -0.516
      -0.545
      -0.572
      -0.587
      -0.581
      -0.554
      -0.511
      -0.462
      -0.410
      -0.355
      -0.300
      -0.246
      -0.198
      -0.159
      -0.130
      -0.115
      -0.110
      -0.109
      -0.101
      -0.076
      -0.028
       0.039
       0.114
       0.185
       0.241
       0.265
       0.249
       0.189
       0.097
      -0.016
      -0.137
      -0.255
      -0.353
      -0.406
      -0.391
      -0.300
      -0.148
       0.036
       0.223
       0.387
       0.511
       0.582
       0.598
       0.568
       0.510
       0.443
       0.386
       0.353
       0.350
       0.373
       0.405
       0.419
       0.390
       0.306
       0.169
      -0.010
      -0.211
      -0.418
      -0.610
      -0.774
      -0.892
      -0.955
      -0.958
      -0.907
      -0.814
      -0.693
      -0.551
      -0.392
      -0.222
      -0.047
       0.124
       0.284
       0.423
       0.532
       0.596
       0.609
       0.568
       0.482
       0.367
       0.245
       0.139
       0.062
       0.020
       0.011
       0.027
       0.062
       0.102
       0.137
       0.158
       0.163
       0.153
       0.137
       0.131
       0.152
       0.206
       0.285
       0.372
       0.449
       0.500
       0.517
       0.499
       0.444
       0.359
       0.255
       0.152
       0.069
       0.019
      -0.001
      -0.003
      -0.001
       0.001
       0.005
       0.018
       0.041
       0.068
       0.095
       0.123
       0.154
       0.190
       0.220
       0.229
       0.204
       0.150
       0.088
       0.045
       0.042
       0.086
       0.171
       0.284
       0.410
       0.529
       0.619
       0.655
       0.622
       0.521
       0.368
       0.187
       0.004
      -0.162
      -0.300
      -0.406
      -0.480
      -0.524
      -0.539
      -0.531
      -0.507
      -0.480
      -0.459
      -0.446
      -0.434
      -0.417
      -0.389
      -0.348
      -0.294
      -0.227
      -0.151
      -0.062
       0.040
       0.151
       0.261
       0.358
       0.436
       0.501
       0.564
       0.637
       0.726
       0.830
       0.943
       1.053
       1.145
       1.202
       1.202
       1.124
       0.954
       0.693
       0.357
      -0.026
      -0.422
      -0.798
      -1.124
      -1.371
      -1.517
      -1.556
      -1.499
      -1.375
      -1.222
      -1.073
      -0.958
      -0.896
      -0.893
      -0.947
      -1.040
      -1.144
      -1.229
      -1.267
      -1.235
      -1.122
      -0.931
      -0.679
      -0.395
      -0.116
       0.125
       0.307
       0.426
       0.487
       0.502
       0.485
       0.447
       0.398
       0.348
       0.308
       0.284
       0.278
       0.286
       0.301
       0.317
       0.336
       0.362
       0.398
       0.437
       0.466
       0.473
       0.452
       0.405
       0.336
       0.249
       0.149
       0.043
      -0.059
      -0.153
      -0.237
      -0.308
      -0.363
      -0.393
      -0.399
      -0.390
      -0.378
      -0.370
      -0.364
      -0.352
      -0.322
      -0.266
      -0.182
      -0.073
       0.048
       0.169
       0.282
       0.380
       0.460
       0.517
       0.555
       0.576
       0.586
       0.586
       0.578
       0.559
       0.531
       0.499
       0.466
       0.430
       0.392
       0.353
       0.320
       0.300
       0.298
       0.321
       0.370
       0.449
       0.556
       0.684
       0.812
       0.912
       0.958
       0.935
       0.842
       0.688
       0.487
       0.258
       0.025
      -0.187
      -0.360
      -0.488
      -0.568
      -0.607
      -0.610
      -0.589
      -0.554
      -0.517
      -0.486
      -0.466
      -0.456
      -0.455
      -0.459
      -0.462
      -0.456
      -0.433
      -0.388
      -0.327
      -0.260
      -0.200
      -0.155
      -0.128
      -0.122
      -0.138
      -0.180
      -0.248
      -0.340
      -0.448
      -0.555
      -0.647
      -0.710
      -0.744
      -0.748
      -0.725
      -0.671
      -0.587
      -0.472
      -0.333
      -0.175
      -0.008
       0.159
       0.316
       0.452
       0.561
       0.638
       0.688
       0.716
       0.727
       0.726
       0.714
       0.690
       0.654
       0.601
       0.530
       0.436
       0.317
       0.173
       0.010
      -0.160
      -0.320
      -0.454
      -0.555
      -0.619
      -0.654
      -0.668
      -0.665
      -0.641
      -0.586
      -0.492
      -0.363
      -0.208
      -0.043
       0.121
       0.276
       0.416
       0.534
       0.620
       0.664
       0.659
       0.602
       0.500
       0.364
       0.212
       0.063
      -0.068
      -0.170
      -0.242
      -0.288
      -0.316
      -0.334
      -0.348
      -0.362
      -0.377
      -0.391
      -0.402
      -0.403
      -0.388
      -0.357
      -0.310
      -0.251
      -0.182
      -0.108
      -0.036
       0.024
       0.066
       0.090
       0.098
       0.100
       0.103
       0.107
       0.112
       0.115
       0.117
       0.118
       0.121
       0.126
       0.132
       0.140
       0.151
       0.169
       0.194
       0.225
       0.254
       0.270
       0.267
       0.241
       0.191
       0.121
       0.039
      -0.045
      -0.121
      -0.176
      -0.199
      -0.184
      -0.133
      -0.059
       0.021
       0.095
       0.152
       0.193
       0.223
       0.244
       0.262
       0.280
       0.304
       0.336
       0.375
       0.413
       0.442
       0.452
       0.434
       0.385
       0.305
       0.200
       0.075
      -0.060
      -0.193
      -0.311
      -0.402
      -0.461
      -0.492
      -0.500
      -0.492
      -0.468
      -0.430
      -0.375
      -0.304
      -0.224
      -0.142
      -0.065
       0.007
       0.071
       0.123
       0.154
       0.158
       0.139
       0.105
       0.062
       0.015
      -0.032
      -0.067
      -0.073
      -0.036
       0.045
       0.154
       0.271
       0.384
       0.489
       0.585
       0.665
       0.712
       0.712
       0.664
       0.583
       0.495
       0.422
       0.377
       0.359
       0.361
       0.370
       0.377
       0.373
       0.349
       0.293
       0.198
       0.069
      -0.081
      -0.226
      -0.340
      -0.404
      -0.412
      -0.367
      -0.278
      -0.155
      -0.011
       0.139
       0.282
       0.405
       0.496
       0.550
       0.569
       0.561
       0.545
       0.537
       0.544
       0.562
       0.583
       0.599
       0.605
       0.596
       0.570
       0.527
       0.474
       0.421
       0.373
       0.327
       0.271
       0.191
       0.074
      -0.084
      -0.278
      -0.497
      -0.726
      -0.945
      -1.133
      -1.264
      -1.319
      -1.288
      -1.180
      -1.018
      -0.826
      -0.629
      -0.445
      -0.289
      -0.171
      -0.089
      -0.037
      -0.004
       0.023
       0.054
       0.094
       0.145
       0.199
       0.248
       0.281
       0.288
       0.264
       0.206
       0.119
       0.012
      -0.102
      -0.213
      -0.312
      -0.396
      -0.468
      -0.530
      -0.588
      -0.645
      -0.698
      -0.740
      -0.761
      -0.751
      -0.699
      -0.601
      -0.460
      -0.287
      -0.101
       0.083
       0.253
       0.401
       0.515
       0.582
       0.594
       0.556
       0.497
       0.450
       0.439
       0.460
       0.493
       0.514
       0.512
       0.490
       0.452
       0.399
       0.336
       0.264
       0.188
       0.109
       0.025
      -0.066
      -0.167
      -0.273
      -0.378
      -0.470
      -0.541
      -0.584
      -0.599
      -0.596
      -0.589
      -0.586
      -0.592
      -0.606
      -0.624
      -0.648
      -0.676
      -0.701
      -0.713
      -0.702
      -0.661
      -0.592
      -0.500
      -0.396
      -0.290
      -0.191
      -0.110
      -0.052
      -0.011
       0.025
       0.074
       0.147
       0.240
       0.338
       0.426
       0.491
       0.524
       0.524
