Origin Time       04/04/2011 11:31:40
Lat.              29.6 N	
Long.             80.8 E	
Depth (Km)         10.0
Magnitude         5.7
 Region           NEPAL-INDIA-BORDER-REGION                                        
 Above details taken from IMD 
     
Station Code      Roo
Station Lat.       29.866  N
Station Long.      77.901  E
Station Height(m)  243.0
Site Class        C   Vs30 between 200 m/sec to 375 m/sec *  
Record Time       04.04.2011 11:32:00.024
Sampling Rate     200. Hz
 Record Duration  166.875 Sec.
 Direction         E-W (E positive)
Max. Acceleration     -3.519 cm/sec**2
     
  * For reference see Site Classification link of website 
     
 Base Line Corrected and Low Pass Filtered (Cut Off at 35 Hz) Time History
 Acceleration data in cm/sec**2
    
[...]
      -0.437
      -0.586
      -0.714
      -0.817
      -0.893
      -0.941
      -0.964
      -0.969
      -0.960
      -0.947
      -0.939
      -0.942
      -0.960
      -0.992
      -1.034
      -1.083
      -1.133
      -1.184
      -1.235
      -1.288
      -1.341
      -1.391
      -1.429
      -1.450
      -1.452
      -1.433
      -1.391
      -1.322
      -1.221
      -1.086
      -0.920
      -0.727
      -0.516
      -0.295
      -0.073
       0.142
       0.347
       0.538
       0.717
       0.884
       1.042
       1.193
       1.336
       1.470
       1.592
       1.698
       1.784
       1.842
       1.869
       1.861
       1.817
       1.734
       1.612
       1.452
       1.256
       1.030
       0.779
       0.508
       0.220
      -0.079
      -0.380
      -0.671
      -0.941
      -1.179
      -1.380
      -1.538
      -1.649
      -1.708
      -1.712
      -1.664
      -1.564
      -1.417
      -1.232
      -1.021
      -0.794
      -0.561
      -0.328
      -0.101
       0.111
       0.302
       0.467
       0.609
       0.733
       0.840
       0.928
       0.991
       1.026
       1.033
       1.015
       0.972
       0.908
       0.828
       0.741
       0.658
       0.589
       0.539
       0.510
       0.504
       0.521
       0.559
       0.614
       0.685
       0.773
       0.878
       0.992
       1.102
       1.200
       1.281
       1.347
       1.397
       1.425
       1.426
       1.395
       1.337
       1.256
       1.155
       1.037
       0.906
       0.764
       0.614
       0.457
       0.294
       0.133
      -0.019
      -0.157
      -0.280
      -0.388
      -0.483
      -0.559
      -0.614
      -0.644
      -0.654
      -0.654
      -0.654
      -0.664
      -0.686
      -0.720
      -0.762
      -0.813
      -0.875
      -0.946
      -1.025
      -1.108
      -1.189
      -1.263
      -1.326
      -1.380
      -1.426
      -1.470
      -1.514
      -1.560
      -1.602
      -1.634
      -1.648
      -1.637
      -1.602
      -1.542
      -1.454
      -1.337
      -1.190
      -1.021
      -0.843
      -0.663
      -0.486
      -0.308
      -0.130
       0.047
       0.214
       0.364
       0.490
       0.592
       0.669
       0.726
       0.766
       0.792
       0.809
       0.822
       0.833
       0.846
       0.860
       0.872
       0.879
       0.877
       0.867
       0.852
       0.836
       0.821
       0.804
       0.782
       0.753
       0.712
       0.662
       0.607
       0.552
       0.503
       0.463
       0.433
       0.413
       0.404
       0.407
       0.424
       0.457
       0.504
       0.563
       0.632
       0.705
       0.780
       0.854
       0.927
       0.997
       1.057
       1.102
       1.128
       1.135
       1.125
       1.101
       1.059
       0.996
       0.911
       0.804
       0.681
       0.546
       0.405
       0.264
       0.129
       0.006
      -0.098
      -0.175
      -0.219
      -0.226
      -0.202
      -0.156
      -0.101
      -0.048
      -0.003
       0.030
       0.045
       0.036
      -0.003
      -0.070
      -0.161
      -0.269
      -0.388
      -0.519
      -0.664
      -0.819
      -0.978
      -1.129
      -1.266
      -1.382
      -1.473
      -1.534
      -1.561
      -1.554
      -1.520
      -1.467
      -1.403
      -1.333
      -1.255
      -1.172
      -1.089
      -1.015
      -0.954
      -0.910
      -0.882
      -0.872
      -0.878
      -0.896
      -0.920
      -0.945
      -0.965
      -0.974
      -0.967
      -0.940
      -0.898
      -0.845
      -0.785
      -0.721
      -0.657
      -0.598
      -0.547
      -0.505
      -0.473
      -0.452
      -0.446
      -0.461
      -0.501
      -0.565
      -0.646
      -0.734
      -0.818
      -0.891
      -0.952
      -1.002
      -1.043
      -1.073
      -1.089
      -1.088
      -1.075
      -1.052
      -1.021
      -0.973
      -0.894
      -0.775
      -0.613
      -0.412
      -0.177
       0.087
       0.372
       0.665
       0.952
       1.222
       1.463
       1.667
       1.826
       1.938
       2.006
       2.037
       2.033
       1.998
       1.936
       1.851
       1.751
       1.638
       1.512
       1.376
       1.237
       1.104
       0.987
       0.888
       0.805
       0.733
       0.667
       0.604
       0.540
       0.469
       0.388
       0.296
       0.193
       0.083
      -0.028
      -0.137
      -0.242
      -0.344
      -0.446
      -0.552
      -0.663
      -0.779
      -0.896
      -1.010
      -1.113
      -1.195
      -1.249
      -1.271
      -1.263
      -1.227
      -1.160
      -1.061
      -0.925
      -0.753
      -0.551
      -0.322
      -0.072
       0.193
       0.467
       0.741
       1.006
       1.254
       1.479
       1.676
       1.844
       1.978
       2.074
       2.125
       2.124
       2.069
       1.960
       1.805
       1.612
       1.387
       1.135
       0.859
       0.570
       0.281
       0.004
      -0.257
      -0.502
      -0.733
      -0.944
      -1.126
      -1.268
      -1.364
      -1.413
      -1.424
      -1.409
      -1.378
      -1.341
      -1.300
      -1.258
      -1.214
      -1.169
      -1.127
      -1.085
      -1.044
      -1.002
      -0.959
      -0.913
      -0.862
      -0.802
      -0.733
      -0.652
      -0.555
      -0.436
      -0.294
      -0.127
       0.059
       0.257
       0.457
       0.651
       0.828
       0.979
       1.101
       1.190
       1.250
       1.285
       1.301
       1.299
       1.277
       1.236
       1.173
       1.091
       0.991
       0.873
       0.736
       0.586
       0.431
       0.274
       0.114
      -0.056
      -0.238
      -0.424
      -0.599
      -0.748
      -0.867
      -0.954
      -1.011
      -1.036
      -1.026
      -0.981
      -0.903
      -0.797
      -0.667
      -0.517
      -0.349
      -0.168
       0.021
       0.217
       0.413
       0.604
       0.780
       0.933
       1.058
       1.156
       1.228
       1.272
       1.284
       1.262
       1.207
       1.126
       1.020
       0.889
       0.729
       0.542
       0.334
       0.115
      -0.104
      -0.316
      -0.515
      -0.696
      -0.852
      -0.976
      -1.063
      -1.113
      -1.126
      -1.108
      -1.060
      -0.987
      -0.888
      -0.768
      -0.628
      -0.478
      -0.323
      -0.168
      -0.015
       0.140
       0.293
       0.440
       0.572
       0.685
       0.781
       0.865
       0.945
       1.024
       1.100
       1.163
       1.201
       1.208
       1.184
       1.133
       1.060
       0.968
       0.858
       0.732
       0.596
       0.453
       0.308
       0.165
       0.023
      -0.120
      -0.263
      -0.406
      -0.541
      -0.661
      -0.760
      -0.840
      -0.899
      -0.940
      -0.958
      -0.951
      -0.916
      -0.857
      -0.780
      -0.692
      -0.596
      -0.496
      -0.394
      -0.292
      -0.190
      -0.089
       0.007
       0.097
       0.176
       0.241
       0.287
       0.306
       0.291
       0.242
       0.161
       0.053
      -0.080
      -0.234
      -0.409
      -0.594
      -0.778
      -0.947
      -1.096
      -1.221
      -1.321
      -1.391
      -1.426
      -1.423
      -1.387
      -1.325
      -1.241
      -1.138
      -1.019
      -0.892
      -0.765
      -0.640
      -0.519
      -0.396
      -0.265
      -0.123
       0.029
       0.191
       0.362
       0.537
       0.711
       0.876
       1.027
       1.163
       1.280
       1.377
       1.449
       1.491
       1.494
       1.454
       1.372
       1.255
       1.111
       0.952
       0.785
       0.619
       0.460
       0.318
       0.199
       0.106
       0.033
      -0.031
      -0.095
      -0.166
      -0.239
      -0.307
      -0.360
      -0.391
      -0.396
      -0.371
      -0.311
      -0.215
      -0.080
       0.091
       0.293
       0.513
       0.739
       0.955
       1.146
       1.297
       1.397
       1.444
       1.438
       1.384
       1.287
       1.153
       0.991
       0.810
       0.620
       0.429
       0.243
       0.065
      -0.101
      -0.254
      -0.392
      -0.514
      -0.619
      -0.706
      -0.771
      -0.816
      -0.842
      -0.858
      -0.868
      -0.870
      -0.858
      -0.823
      -0.763
      -0.681
      -0.586
      -0.484
      -0.383
      -0.284
      -0.191
      -0.111
      -0.047
      -0.004
       0.016
       0.012
      -0.017
      -0.074
      -0.164
      -0.293
      -0.464
      -0.678
      -0.929
      -1.204
      -1.485
      -1.752
      -1.987
      -2.173
      -2.298
      -2.352
      -2.330
      -2.234
      -2.073
      -1.858
      -1.601
      -1.315
      -1.011
      -0.703
      -0.406
      -0.135
       0.102
       0.297
       0.446
       0.544
       0.590
       0.587
       0.543
       0.465
       0.366
       0.255
       0.140
       0.031
      -0.068
      -0.152
      -0.216
      -0.257
      -0.273
      -0.263
      -0.228
      -0.173
      -0.104
      -0.025
       0.063
       0.162
       0.270
       0.387
       0.511
       0.643
       0.780
       0.916
       1.044
       1.160
       1.263
       1.357
       1.447
       1.533
       1.608
       1.666
       1.700
       1.710
       1.696
       1.659
       1.599
       1.512
       1.392
       1.237
       1.049
       0.840
       0.624
       0.416
       0.220
       0.036
      -0.138
      -0.303
      -0.455
      -0.587
      -0.693
      -0.774
      -0.828
      -0.858
      -0.865
      -0.849
      -0.814
      -0.768
      -0.717
      -0.668
      -0.624
      -0.588
      -0.560
      -0.543
      -0.534
      -0.534
      -0.540
      -0.554
      -0.578
      -0.606
      -0.630
      -0.640
      -0.640
      -0.638
      -0.639
      -0.638
      -0.627
      -0.596
      -0.547
      -0.488
      -0.423
      -0.355
      -0.280
      -0.196
      -0.105
      -0.013
       0.071
       0.142
       0.200
       0.246
       0.285
       0.320
       0.354
       0.385
       0.413
       0.433
       0.443
       0.439
       0.419
       0.379
       0.320
       0.246
       0.163
       0.078
       0.002
      -0.057
      -0.093
      -0.107
      -0.096
      -0.062
      -0.002
       0.083
       0.191
       0.320
       0.464
       0.625
       0.799
       0.984
       1.169
       1.342
       1.492
       1.615
       1.706
       1.768
       1.802
       1.809
       1.791
       1.751
       1.690
       1.611
       1.516
       1.404
       1.272
       1.119
       0.945
       0.756
       0.564
       0.384
       0.228
       0.104
       0.016
      -0.035
      -0.051
      -0.031
       0.025
       0.114
       0.227
       0.345
       0.453
       0.545
       0.629
       0.710
       0.792
       0.871
       0.941
       1.001
       1.052
       1.094
       1.124
       1.136
       1.123
       1.084
       1.018
       0.923
       0.797
       0.639
       0.451
       0.239
       0.009
      -0.232
      -0.483
      -0.740
      -0.993
      -1.233
      -1.453
      -1.647
      -1.808
      -1.928
      -1.998
      -2.013
      -1.972
      -1.879
      -1.735
      -1.542
      -1.301
      -1.020
      -0.708
      -0.374
      -0.030
       0.311
       0.635
       0.925
       1.166
       1.347
       1.463
       1.517
       1.515
       1.465
       1.373
       1.245
       1.089
       0.916
       0.736
       0.552
       0.363
       0.169
      -0.027
      -0.222
      -0.415
      -0.607
      -0.799
      -0.991
      -1.181
      -1.364
      -1.531
      -1.676
      -1.795
      -1.888
      -1.956
      -2.001
      -2.024
      -2.023
      -2.000
      -1.958
      -1.899
      -1.822
      -1.722
      -1.596
      -1.446
      -1.277
      -1.099
      -0.924
      -0.757
      -0.598
      -0.448
      -0.306
      -0.176
      -0.059
       0.044
       0.137
       0.217
       0.285
       0.339
       0.376
       0.389
       0.373
       0.323
       0.240
       0.129
      -0.006
      -0.161
      -0.330
      -0.504
      -0.666
      -0.803
      -0.908
      -0.982
      -1.026
      -1.036
      -1.003
      -0.922
      -0.794
      -0.628
      -0.438
      -0.233
      -0.018
       0.204
       0.425
       0.637
       0.835
       1.019
       1.195
       1.367
       1.533
       1.686
       1.819
       1.927
       2.007
       2.059
       2.076
       2.054
       1.992
       1.893
       1.761
       1.602
       1.424
       1.237
       1.051
       0.869
       0.694
       0.527
       0.375
       0.245
       0.144
       0.072
       0.027
       0.006
       0.008
       0.029
       0.062
       0.097
       0.126
       0.148
       0.167
       0.188
       0.213
       0.244
       0.281
       0.324
       0.373
       0.425
       0.479
       0.535
       0.593
       0.648
       0.698
       0.738
       0.771
       0.797
       0.820
       0.842
       0.865
       0.893
       0.923
       0.952
       0.977
       0.993
       0.997
       0.984
       0.949
       0.884
       0.781
       0.633
       0.438
       0.194
      -0.095
      -0.424
      -0.782
      -1.153
      -1.524
      -1.880
      -2.214
      -2.521
      -2.795
      -3.030
      -3.224
      -3.373
      -3.473
      -3.519
      -3.509
      -3.448
      -3.345
      -3.206
      -3.038
      -2.845
      -2.631
      -2.401
      -2.161
      -1.920
      -1.686
      -1.468
      -1.270
      -1.094
      -0.940
      -0.812
      -0.710
      -0.632
      -0.575
      -0.530
      -0.492
      -0.456
      -0.417
      -0.369
      -0.307
      -0.224
      -0.119
       0.006
       0.147
       0.296
       0.448
       0.599
       0.749
       0.902
       1.059
       1.222
       1.387
       1.551
       1.714
       1.875
       2.031
       2.176
       2.304
       2.409
       2.491
       2.549
       2.584
       2.595
       2.582
       2.544
       2.476
       2.379
       2.253
       2.105
       1.940
       1.761
       1.570
       1.368
       1.154
       0.927
       0.690
       0.452
       0.227
       0.022
      -0.157
      -0.314
      -0.448
      -0.558
      -0.639
      -0.690
      -0.717
      -0.730
      -0.740
      -0.755
      -0.782
      -0.826
      -0.893
      -0.982
      -1.085
      -1.192
      -1.288
      -1.359
      -1.399
      -1.403
      -1.371
      -1.307
      -1.215
      -1.100
      -0.966
      -0.819
      -0.664
      -0.505
      -0.343
      -0.177
      -0.008
       0.161
       0.327
       0.484
       0.627
       0.750
       0.847
       0.911
       0.936
       0.917
       0.852
       0.739
       0.580
       0.375
       0.129
      -0.150
      -0.450
      -0.754
      -1.045
      -1.309
      -1.536
      -1.721
      -1.861
      -1.949
      -1.981
      -1.953
      -1.870
      -1.745
      -1.588
      -1.406
      -1.199
      -0.964
      -0.701
      -0.415
      -0.116
       0.186
       0.483
       0.768
       1.025
       1.240
       1.398
       1.493
       1.529
       1.517
       1.467
       1.385
       1.273
       1.136
       0.983
       0.827
       0.683
       0.558
       0.449
       0.351
       0.260
       0.178
       0.111
       0.064
       0.033
       0.012
      -0.002
      -0.005
       0.008
       0.045
       0.107
       0.194
       0.302
       0.428
       0.569
       0.721
       0.875
       1.014
       1.125
       1.203
       1.247
       1.264
       1.255
       1.222
       1.165
       1.084
       0.978
       0.844
       0.680
       0.491
       0.282
       0.056
      -0.186
      -0.446
      -0.724
      -1.013
      -1.303
      -1.586
      -1.865
      -2.143
      -2.418
      -2.679
      -2.907
      -3.086
      -3.207
      -3.262
      -3.249
      -3.161
      -2.999
      -2.765
      -2.471
      -2.135
      -1.770
      -1.391
      -1.007
      -0.627
      -0.253
       0.112
       0.466
       0.804
       1.124
       1.425
       1.709
       1.977
       2.224
       2.439
       2.613
       2.744
       2.840
       2.904
       2.939
       2.945
       2.925
       2.885
       2.831
       2.764
       2.681
       2.578
       2.454
       2.311
       2.149
       1.970
       1.774
       1.561
       1.332
       1.093
       0.848
       0.600
       0.357
       0.125
      -0.089
      -0.278
      -0.440
      -0.576
      -0.688
      -0.781
      -0.862
      -0.940
      -1.021
      -1.112
      -1.218
      -1.341
      -1.481
      -1.633
      -1.789
      -1.937
      -2.067
      -2.168
      -2.234
      -2.259
      -2.240
      -2.172
      -2.053
      -1.882
      -1.665
      -1.409
      -1.127
      -0.836
      -0.548
      -0.273
      -0.017
       0.212
       0.404
       0.545
       0.629
       0.652
       0.617
       0.527
       0.386
       0.202
      -0.014
      -0.244
      -0.470
      -0.679
      -0.864
      -1.018
      -1.137
      -1.220
      -1.266
      -1.278
      -1.258
      -1.206
      -1.122
      -1.008
      -0.869
      -0.711
      -0.542
      -0.375
      -0.218
      -0.079
       0.040
       0.137
       0.207
       0.246
       0.247
       0.211
       0.141
       0.045
      -0.071
      -0.202
      -0.343
      -0.487
      -0.626
      -0.745
      -0.833
      -0.881
      -0.886
      -0.852
      -0.785
      -0.688
      -0.564
      -0.410
      -0.230
      -0.030
       0.178
       0.383
       0.577
       0.762
       0.939
       1.108
       1.266
       1.407
       1.529
       1.634
       1.727
       1.808
       1.877
       1.931
       1.976
       2.013
       2.043
       2.060
       2.060
       2.040
       1.997
       1.930
       1.836
       1.716
       1.574
       1.417
       1.253
       1.087
       0.922
       0.756
       0.592
       0.435
       0.289
       0.154
       0.030
      -0.084
      -0.188
      -0.282
      -0.362
      -0.424
      -0.471
      -0.510
      -0.552
      -0.602
      -0.662
      -0.729
      -0.801
      -0.883
      -0.976
      -1.080
      -1.189
      -1.297
      -1.397
      -1.483
      -1.551
      -1.600
      -1.631
      -1.642
      -1.631
      -1.599
      -1.549
      -1.485
      -1.416
      -1.343
      -1.267
      -1.185
      -1.091
      -0.978
      -0.845
      -0.690
      -0.518
      -0.333
      -0.140
       0.057
       0.248
       0.422
       0.569
       0.682
       0.761
       0.810
       0.831
       0.827
       0.799
       0.748
       0.680
       0.605
       0.535
       0.479
       0.439
       0.413
       0.398
       0.393
       0.396
       0.402
       0.404
       0.400
       0.391
       0.381
       0.374
       0.371
       0.372
       0.378
       0.392
       0.419
       0.462
       0.520
       0.588
       0.661
       0.737
       0.816
       0.899
       0.978
       1.045
       1.092
       1.116
       1.119
       1.101
       1.063
       1.006
       0.931
       0.844
