Origin Time       20/06/2011 06:27:18
Lat.              30.5 N	
Long.             79.4 E	
Depth (Km)         12.0
Magnitude         4.6
 Region           Chamoli-Uttarakhand                                              
 Above details taken from IMD 
   
Station Code      Roo
Station Lat.       29.866
Station Long.      77.901
Station Height(m)  243.0
Site Class        C   Vs30 between 200 m/sec to 375 m/sec *  
Record Time       20.06.2011 06:27:18.744
Sampling Rate     200. Hz
 Record Duration  119.390 Sec.
 Direction         Vert. (Up positive)
Max. Acceleration     -1.484 cm/sec**2
     
  * For reference see Site Classification link of website 
     
 Base Line Corrected and Low Pass Filtered (Cut Off at 35 Hz) Time History
 Acceleration data in cm/sec**2
    
[...]
      -0.090
       0.001
       0.072
       0.120
       0.154
       0.177
       0.193
       0.204
       0.220
       0.242
       0.258
       0.249
       0.202
       0.116
       0.002
      -0.116
      -0.213
      -0.267
      -0.270
      -0.228
      -0.147
      -0.035
       0.095
       0.223
       0.334
       0.416
       0.464
       0.481
       0.469
       0.435
       0.380
       0.305
       0.217
       0.128
       0.050
      -0.018
      -0.080
      -0.143
      -0.206
      -0.260
      -0.294
      -0.299
      -0.282
      -0.260
      -0.249
      -0.254
      -0.272
      -0.301
      -0.344
      -0.398
      -0.448
      -0.472
      -0.452
      -0.383
      -0.272
      -0.140
      -0.012
       0.094
       0.174
       0.226
       0.243
       0.225
       0.186
       0.152
       0.142
       0.162
       0.203
       0.251
       0.287
       0.300
       0.285
       0.240
       0.161
       0.048
      -0.094
      -0.248
      -0.389
      -0.497
      -0.557
      -0.558
      -0.498
      -0.385
      -0.247
      -0.112
      -0.003
       0.067
       0.093
       0.078
       0.035
      -0.018
      -0.058
      -0.068
      -0.044
       0.002
       0.052
       0.091
       0.109
       0.097
       0.050
      -0.026
      -0.113
      -0.193
      -0.251
      -0.278
      -0.268
      -0.226
      -0.159
      -0.080
      -0.005
       0.046
       0.060
       0.038
      -0.005
      -0.046
      -0.065
      -0.050
       0.010
       0.112
       0.247
       0.398
       0.539
       0.644
       0.691
       0.673
       0.598
       0.479
       0.329
       0.165
       0.003
      -0.143
      -0.267
      -0.362
      -0.423
      -0.449
      -0.446
      -0.420
      -0.374
      -0.309
      -0.234
      -0.158
      -0.086
      -0.015
       0.057
       0.125
       0.182
       0.222
       0.239
       0.223
       0.172
       0.096
       0.016
      -0.047
      -0.075
      -0.057
       0.004
       0.087
       0.163
       0.209
       0.214
       0.181
       0.116
       0.033
      -0.052
      -0.124
      -0.171
      -0.183
      -0.158
      -0.108
      -0.046
       0.021
       0.095
       0.178
       0.265
       0.345
       0.411
       0.458
       0.478
       0.469
       0.433
       0.372
       0.287
       0.180
       0.055
      -0.076
      -0.202
      -0.311
      -0.394
      -0.445
      -0.470
      -0.474
      -0.459
      -0.422
      -0.361
      -0.281
      -0.192
      -0.105
      -0.025
       0.040
       0.084
       0.102
       0.093
       0.058
       0.003
      -0.064
      -0.130
      -0.182
      -0.217
      -0.238
      -0.250
      -0.258
      -0.263
      -0.268
      -0.274
      -0.281
      -0.283
      -0.276
      -0.259
      -0.233
      -0.201
      -0.165
      -0.129
      -0.101
      -0.086
      -0.079
      -0.073
      -0.063
      -0.049
      -0.026
       0.009
       0.055
       0.110
       0.172
       0.239
       0.307
       0.367
       0.407
       0.414
       0.386
       0.326
       0.249
       0.173
       0.114
       0.081
       0.078
       0.099
       0.134
       0.169
       0.193
       0.198
       0.182
       0.149
       0.113
       0.088
       0.076
       0.065
       0.042
       0.004
      -0.040
      -0.081
      -0.115
      -0.145
      -0.167
      -0.182
      -0.186
      -0.173
      -0.136
      -0.079
      -0.015
       0.037
       0.062
       0.057
       0.030
      -0.006
      -0.030
      -0.024
       0.016
       0.082
       0.162
       0.247
       0.327
       0.390
       0.423
       0.420
       0.384
       0.313
       0.211
       0.084
      -0.056
      -0.199
      -0.339
      -0.467
      -0.569
      -0.636
      -0.656
      -0.624
      -0.542
      -0.420
      -0.280
      -0.143
      -0.020
       0.081
       0.157
       0.210
       0.241
       0.249
       0.239
       0.221
       0.210
       0.215
       0.228
       0.238
       0.236
       0.215
       0.172
       0.108
       0.029
      -0.058
      -0.149
      -0.237
      -0.309
      -0.348
      -0.349
      -0.320
      -0.277
      -0.234
      -0.197
      -0.162
      -0.121
      -0.063
       0.022
       0.136
       0.271
       0.413
       0.543
       0.639
       0.682
       0.660
       0.574
       0.437
       0.272
       0.106
      -0.036
      -0.140
      -0.200
      -0.223
      -0.222
      -0.216
      -0.217
      -0.230
      -0.258
      -0.301
      -0.356
      -0.409
      -0.445
      -0.455
      -0.438
      -0.401
      -0.349
      -0.283
      -0.203
      -0.106
       0.001
       0.106
       0.191
       0.245
       0.267
       0.258
       0.221
       0.161
       0.083
      -0.001
      -0.079
      -0.139
      -0.170
      -0.172
      -0.154
      -0.128
      -0.100
      -0.077
      -0.067
      -0.074
      -0.092
      -0.113
      -0.136
      -0.162
      -0.186
      -0.195
      -0.184
      -0.154
      -0.112
      -0.060
       0.002
       0.069
       0.140
       0.210
       0.277
       0.338
       0.392
       0.446
       0.499
       0.548
       0.583
       0.603
       0.611
       0.608
       0.597
       0.576
       0.544
       0.499
       0.440
       0.371
       0.301
       0.229
       0.152
       0.071
      -0.008
      -0.076
      -0.128
      -0.157
      -0.162
      -0.152
      -0.148
      -0.167
      -0.216
      -0.294
      -0.394
      -0.507
      -0.610
      -0.682
      -0.712
      -0.701
      -0.658
      -0.590
      -0.503
      -0.405
      -0.302
      -0.199
      -0.100
      -0.015
       0.044
       0.065
       0.045
      -0.005
      -0.071
      -0.134
      -0.185
      -0.220
      -0.240
      -0.247
      -0.247
      -0.243
      -0.231
      -0.199
      -0.134
      -0.034
       0.087
       0.208
       0.310
       0.380
       0.420
       0.439
       0.454
       0.475
       0.501
       0.521
       0.517
       0.480
       0.406
       0.299
       0.173
       0.048
      -0.057
      -0.126
      -0.150
      -0.131
      -0.080
      -0.013
       0.057
       0.124
       0.183
       0.231
       0.257
       0.247
       0.192
       0.097
      -0.018
      -0.128
      -0.209
      -0.252
      -0.255
      -0.228
      -0.186
      -0.143
      -0.107
      -0.086
      -0.091
      -0.126
      -0.186
      -0.260
      -0.340
      -0.420
      -0.494
      -0.547
      -0.566
      -0.541
      -0.464
      -0.335
      -0.161
       0.041
       0.247
       0.431
       0.564
       0.625
       0.610
       0.531
       0.408
       0.260
       0.104
      -0.034
      -0.130
      -0.167
      -0.149
      -0.093
      -0.021
       0.042
       0.081
       0.090
       0.075
       0.045
       0.008
      -0.022
      -0.035
      -0.020
       0.023
       0.086
       0.154
       0.213
       0.246
       0.250
       0.232
       0.206
       0.179
       0.156
       0.140
       0.135
       0.138
       0.144
       0.150
       0.154
       0.143
       0.103
       0.029
      -0.069
      -0.170
      -0.260
      -0.332
      -0.386
      -0.424
      -0.452
      -0.472
      -0.485
      -0.491
      -0.494
      -0.497
      -0.498
      -0.490
      -0.467
      -0.426
      -0.369
      -0.291
      -0.185
      -0.045
       0.126
       0.322
       0.530
       0.733
       0.912
       1.044
       1.109
       1.094
       0.999
       0.839
       0.632
       0.401
       0.170
      -0.032
      -0.182
      -0.267
      -0.285
      -0.241
      -0.151
      -0.047
       0.038
       0.084
       0.089
       0.061
       0.010
      -0.058
      -0.135
      -0.215
      -0.291
      -0.352
      -0.390
      -0.401
      -0.389
      -0.355
      -0.307
      -0.249
      -0.186
      -0.124
      -0.073
      -0.042
      -0.039
      -0.063
      -0.112
      -0.184
      -0.275
      -0.376
      -0.472
      -0.545
      -0.577
      -0.550
      -0.461
      -0.325
      -0.169
      -0.018
       0.115
       0.224
       0.303
       0.352
       0.372
       0.367
       0.343
       0.308
       0.274
       0.253
       0.245
       0.235
       0.209
       0.162
       0.100
       0.030
      -0.035
      -0.081
      -0.100
      -0.096
      -0.075
      -0.046
      -0.015
       0.005
       0.007
      -0.007
      -0.032
      -0.065
      -0.105
      -0.147
      -0.180
      -0.196
      -0.189
      -0.153
      -0.086
       0.005
       0.101
       0.185
       0.243
       0.265
       0.253
       0.217
       0.178
       0.153
       0.149
       0.166
       0.199
       0.236
       0.261
       0.259
       0.229
       0.177
       0.112
       0.043
      -0.024
      -0.084
      -0.136
      -0.176
      -0.193
      -0.178
      -0.133
      -0.076
      -0.028
      -0.006
      -0.015
      -0.055
      -0.118
      -0.190
      -0.256
      -0.307
      -0.337
      -0.341
      -0.321
      -0.282
      -0.234
      -0.187
      -0.148
      -0.122
      -0.105
      -0.088
      -0.063
      -0.029
       0.013
       0.066
       0.126
       0.186
       0.227
       0.235
       0.206
       0.146
       0.077
       0.026
       0.011
       0.038
       0.100
       0.183
       0.269
       0.335
       0.358
       0.329
       0.252
       0.145
       0.037
      -0.047
      -0.093
      -0.102
      -0.089
      -0.071
      -0.060
      -0.058
      -0.064
      -0.077
      -0.093
      -0.109
      -0.119
      -0.112
      -0.083
      -0.031
       0.029
       0.076
       0.096
       0.084
       0.044
      -0.018
      -0.092
      -0.173
      -0.250
      -0.314
      -0.353
      -0.360
      -0.344
      -0.320
      -0.306
      -0.311
      -0.341
      -0.405
      -0.502
      -0.617
      -0.721
      -0.782
      -0.775
      -0.690
      -0.532
      -0.324
      -0.099
       0.121
       0.320
       0.479
       0.580
       0.614
       0.588
       0.525
       0.448
       0.376
       0.319
       0.281
       0.263
       0.268
       0.296
       0.340
       0.381
       0.403
       0.397
       0.359
       0.289
       0.194
       0.091
       0.003
      -0.054
      -0.074
      -0.060
      -0.021
       0.026
       0.061
       0.074
       0.070
       0.057
       0.037
       0.008
      -0.026
      -0.057
      -0.071
      -0.063
      -0.038
      -0.001
       0.045
       0.102
       0.178
       0.277
       0.389
       0.497
       0.584
       0.639
       0.659
       0.642
       0.588
       0.502
       0.394
       0.277
       0.164
       0.066
      -0.014
      -0.078
      -0.134
      -0.184
      -0.230
      -0.278
      -0.333
      -0.395
      -0.462
      -0.533
      -0.606
      -0.674
      -0.720
      -0.727
      -0.690
      -0.614
      -0.516
      -0.414
      -0.323
      -0.245
      -0.178
      -0.121
      -0.081
      -0.067
      -0.076
      -0.091
      -0.086
      -0.037
       0.062
       0.197
       0.332
       0.431
       0.473
       0.454
       0.381
       0.269
       0.134
      -0.009
      -0.151
      -0.285
      -0.399
      -0.482
      -0.525
      -0.529
      -0.492
      -0.411
      -0.282
      -0.113
       0.074
       0.251
       0.383
       0.449
       0.444
       0.381
       0.277
       0.156
       0.048
      -0.018
      -0.026
       0.020
       0.105
       0.209
       0.318
       0.417
       0.498
       0.560
       0.598
       0.606
       0.582
       0.526
       0.444
       0.345
       0.235
       0.117
      -0.009
      -0.144
      -0.286
      -0.423
      -0.544
      -0.647
      -0.726
      -0.775
      -0.779
      -0.735
      -0.656
      -0.559
      -0.460
      -0.367
      -0.288
      -0.223
      -0.169
      -0.122
      -0.084
      -0.055
      -0.023
       0.028
       0.105
       0.201
       0.297
       0.371
       0.399
       0.368
       0.286
       0.178
       0.070
      -0.020
      -0.071
      -0.067
       0.001
       0.114
       0.244
       0.356
       0.422
       0.424
       0.358
       0.237
       0.077
      -0.108
      -0.302
      -0.483
      -0.632
      -0.737
      -0.794
      -0.800
      -0.756
      -0.666
      -0.539
      -0.385
      -0.209
      -0.017
       0.176
       0.356
       0.506
       0.614
       0.666
       0.662
       0.609
       0.522
       0.417
       0.314
       0.240
       0.218
       0.252
       0.329
       0.424
       0.512
       0.569
       0.581
       0.549
       0.478
       0.382
       0.272
       0.160
       0.050
      -0.061
      -0.183
      -0.315
      -0.448
      -0.568
      -0.662
      -0.719
      -0.727
      -0.681
      -0.581
      -0.436
      -0.264
      -0.093
       0.045
       0.133
       0.169
       0.161
       0.115
       0.040
      -0.051
      -0.142
      -0.211
      -0.235
      -0.202
      -0.112
       0.016
       0.161
       0.303
       0.415
       0.476
       0.476
       0.424
       0.338
       0.241
       0.151
       0.081
       0.041
       0.034
       0.057
       0.105
       0.168
       0.232
       0.275
       0.281
       0.236
       0.128
      -0.051
      -0.295
      -0.577
      -0.863
      -1.121
      -1.325
      -1.450
      -1.484
      -1.423
      -1.274
      -1.053
      -0.779
      -0.478
      -0.172
       0.130
       0.424
       0.704
       0.954
       1.156
       1.301
       1.383
       1.396
       1.343
       1.234
       1.086
       0.919
       0.755
       0.615
       0.510
       0.443
       0.406
       0.388
       0.372
       0.338
       0.267
       0.149
      -0.016
      -0.218
      -0.435
      -0.631
      -0.770
      -0.833
      -0.820
      -0.748
      -0.643
      -0.533
      -0.435
      -0.351
      -0.267
      -0.173
      -0.073
       0.025
       0.113
       0.182
       0.215
       0.197
       0.117
      -0.018
      -0.184
      -0.351
      -0.488
      -0.574
      -0.610
      -0.607
      -0.580
      -0.536
      -0.477
      -0.410
      -0.341
      -0.277
      -0.217
      -0.159
      -0.100
      -0.042
       0.012
       0.057
       0.090
       0.113
       0.131
       0.143
       0.147
       0.142
       0.136
       0.139
       0.163
       0.211
       0.273
       0.329
       0.354
       0.332
       0.257
       0.139
      -0.008
      -0.161
      -0.293
      -0.376
      -0.386
      -0.307
      -0.138
       0.103
       0.378
       0.641
       0.849
       0.968
       0.981
       0.888
       0.712
       0.483
       0.232
      -0.016
      -0.234
      -0.400
      -0.504
      -0.549
      -0.541
      -0.492
      -0.413
      -0.313
      -0.199
      -0.077
       0.040
       0.140
       0.215
       0.265
       0.289
       0.289
       0.268
       0.231
       0.182
       0.122
       0.056
      -0.008
      -0.071
      -0.137
      -0.206
      -0.272
      -0.323
      -0.350
      -0.351
      -0.324
      -0.275
      -0.215
      -0.157
      -0.109
      -0.072
      -0.045
      -0.028
      -0.014
       0.009
       0.049
       0.097
       0.142
       0.171
       0.175
       0.150
       0.098
       0.029
      -0.052
      -0.141
      -0.236
      -0.320
      -0.374
      -0.390
      -0.376
      -0.344
      -0.304
      -0.261
      -0.212
      -0.152
      -0.077
       0.012
       0.109
       0.211
       0.315
       0.417
       0.502
       0.559
       0.581
       0.567
       0.518
       0.443
       0.353
       0.253
       0.141
       0.022
      -0.088
      -0.171
      -0.218
      -0.227
      -0.200
      -0.144
      -0.071
       0.002
       0.067
       0.129
       0.197
       0.270
       0.342
       0.403
       0.440
       0.440
       0.404
       0.341
       0.266
       0.192
       0.119
       0.049
      -0.021
      -0.087
      -0.145
      -0.188
      -0.216
      -0.235
      -0.252
      -0.272
      -0.300
      -0.341
      -0.392
      -0.440
      -0.475
      -0.491
      -0.489
      -0.464
      -0.414
      -0.341
      -0.251
      -0.144
      -0.018
       0.129
       0.291
       0.458
       0.606
       0.708
       0.744
       0.708
       0.610
       0.462
       0.279
       0.081
      -0.109
      -0.270
      -0.389
      -0.460
      -0.485
      -0.473
      -0.438
      -0.395
      -0.360
      -0.345
      -0.354
      -0.378
      -0.399
      -0.398
      -0.365
      -0.298
      -0.204
      -0.096
       0.016
       0.125
       0.237
       0.355
       0.470
       0.560
       0.610
       0.617
       0.587
       0.528
       0.447
       0.342
       0.208
       0.039
      -0.152
      -0.342
      -0.510
      -0.646
      -0.742
      -0.781
      -0.743
      -0.622
      -0.432
      -0.195
       0.062
       0.306
       0.506
       0.640
       0.706
       0.715
       0.685
       0.632
       0.567
       0.485
       0.378
       0.242
       0.085
      -0.076
      -0.228
      -0.362
      -0.476
      -0.570
      -0.646
      -0.697
      -0.714
      -0.687
      -0.615
      -0.504
      -0.367
      -0.222
      -0.095
      -0.002
       0.055
       0.085
       0.101
       0.112
       0.126
       0.150
       0.189
       0.245
       0.305
       0.350
       0.355
       0.309
       0.218
       0.108
       0.011
      -0.055
      -0.082
      -0.067
      -0.011
       0.081
       0.190
       0.288
       0.345
       0.341
       0.274
       0.163
       0.032
      -0.090
      -0.184
      -0.238
      -0.246
      -0.216
      -0.167
      -0.130
      -0.127
      -0.167
      -0.237
      -0.312
      -0.366
      -0.380
      -0.342
      -0.244
      -0.089
       0.104
       0.306
       0.485
       0.614
       0.672
       0.649
       0.559
       0.432
       0.314
       0.243
       0.245
       0.322
       0.450
       0.587
       0.686
       0.713
       0.653
       0.506
       0.288
       0.029
      -0.233
      -0.458
      -0.615
      -0.688
      -0.680
      -0.615
      -0.527
      -0.447
      -0.397
      -0.387
      -0.416
      -0.470
      -0.522
      -0.541
      -0.507
      -0.418
      -0.286
      -0.136
      -0.005
       0.071
       0.073
       0.007
      -0.101
      -0.206
      -0.260
      -0.227
      -0.108
       0.069
       0.264
       0.445
       0.586
       0.670
       0.690
       0.647
       0.550
       0.416
       0.274
       0.162
       0.105
       0.098
       0.110
       0.107
       0.067
      -0.019
      -0.152
      -0.322
      -0.507
      -0.677
      -0.799
      -0.847
      -0.808
      -0.693
      -0.536
      -0.377
      -0.250
      -0.171
      -0.137
      -0.134
      -0.143
      -0.147
      -0.140
      -0.116
      -0.071
       0.003
       0.109
       0.244
       0.401
       0.562
       0.712
       0.842
       0.947
       1.024
       1.062
       1.052
       0.990
       0.870
       0.688
       0.447
       0.154
