Origin Time       11/2/2013 10:48:55	
Lat.              31.0 N	
Long.             78.4 E	
Depth (Km)          5.0
Magnitude         4.3
 Region           UTTARKASHI-UTTARAKHAND                                           
 Above details taken from IMD 
   
Station Code      ROO
Station Lat.       29.866
Station Long.      77.901
Station Height(m)  243.0
Site Class        C   Vs30 between 200 m/sec to 375 m/sec *  
Record Time       11.02.2013 10:49:03.174
Sampling Rate     200. Hz
 Record Duration   90.100 Sec.
 Direction         Vert. (Up positive)
Max. Acceleration      0.361 cm/sec**2
     
  * For reference see Site Classification link of website 
     
 Base Line Corrected and Low Pass Filtered (Cut Off at 35 Hz) Time History
 Acceleration data in cm/sec**2
    
[...]
      -0.001
       0.038
       0.072
       0.089
       0.080
       0.049
       0.016
      -0.001
       0.005
       0.027
       0.056
       0.081
       0.099
       0.112
       0.124
       0.135
       0.141
       0.135
       0.115
       0.086
       0.056
       0.030
       0.010
      -0.008
      -0.026
      -0.046
      -0.066
      -0.086
      -0.104
      -0.122
      -0.136
      -0.142
      -0.130
      -0.097
      -0.043
       0.022
       0.082
       0.127
       0.148
       0.147
       0.130
       0.103
       0.071
       0.037
       0.002
      -0.027
      -0.043
      -0.044
      -0.031
      -0.013
       0.001
       0.006
       0.003
      -0.002
      -0.009
      -0.016
      -0.022
      -0.024
      -0.023
      -0.020
      -0.017
      -0.014
      -0.007
      -0.001
      -0.001
      -0.013
      -0.032
      -0.051
      -0.062
      -0.061
      -0.048
      -0.027
       0.000
       0.032
       0.065
       0.091
       0.102
       0.092
       0.065
       0.029
      -0.005
      -0.031
      -0.049
      -0.065
      -0.087
      -0.114
      -0.139
      -0.152
      -0.149
      -0.130
      -0.099
      -0.062
      -0.020
       0.026
       0.076
       0.127
       0.172
       0.200
       0.204
       0.184
       0.149
       0.109
       0.069
       0.031
      -0.007
      -0.040
      -0.068
      -0.087
      -0.101
      -0.111
      -0.120
      -0.124
      -0.117
      -0.095
      -0.059
      -0.017
       0.018
       0.040
       0.048
       0.045
       0.038
       0.033
       0.031
       0.031
       0.031
       0.027
       0.018
       0.003
      -0.012
      -0.023
      -0.029
      -0.032
      -0.039
      -0.055
      -0.078
      -0.107
      -0.133
      -0.152
      -0.160
      -0.159
      -0.151
      -0.136
      -0.117
      -0.097
      -0.079
      -0.065
      -0.048
      -0.021
       0.016
       0.056
       0.087
       0.103
       0.105
       0.100
       0.098
       0.100
       0.100
       0.090
       0.067
       0.042
       0.032
       0.043
       0.069
       0.095
       0.105
       0.101
       0.094
       0.095
       0.104
       0.113
       0.117
       0.119
       0.127
       0.143
       0.164
       0.176
       0.171
       0.145
       0.104
       0.059
       0.017
      -0.017
      -0.041
      -0.056
      -0.063
      -0.073
      -0.089
      -0.109
      -0.124
      -0.123
      -0.106
      -0.081
      -0.057
      -0.035
      -0.012
       0.013
       0.034
       0.040
       0.026
      -0.005
      -0.044
      -0.080
      -0.105
      -0.119
      -0.125
      -0.125
      -0.119
      -0.106
      -0.090
      -0.076
      -0.066
      -0.061
      -0.054
      -0.037
      -0.011
       0.019
       0.041
       0.049
       0.047
       0.042
       0.042
       0.048
       0.050
       0.042
       0.023
       0.005
       0.003
       0.027
       0.071
       0.117
       0.148
       0.153
       0.138
       0.115
       0.100
       0.096
       0.093
       0.078
       0.047
       0.009
      -0.019
      -0.021
       0.005
       0.045
       0.083
       0.102
       0.100
       0.083
       0.060
       0.039
       0.022
       0.006
      -0.009
      -0.023
      -0.030
      -0.024
      -0.006
       0.015
       0.028
       0.024
       0.002
      -0.033
      -0.072
      -0.107
      -0.133
      -0.148
      -0.151
      -0.141
      -0.116
      -0.084
      -0.056
      -0.042
      -0.044
      -0.053
      -0.058
      -0.049
      -0.030
      -0.009
       0.003
       0.002
      -0.003
       0.000
       0.016
       0.036
       0.044
       0.026
      -0.017
      -0.068
      -0.104
      -0.109
      -0.086
      -0.049
      -0.019
      -0.004
      -0.001
       0.001
       0.008
       0.018
       0.021
       0.013
       0.000
      -0.006
       0.004
       0.026
       0.054
       0.081
       0.106
       0.127
       0.147
       0.160
       0.163
       0.153
       0.132
       0.108
       0.092
       0.085
       0.082
       0.070
       0.041
      -0.005
      -0.059
      -0.112
      -0.156
      -0.185
      -0.197
      -0.192
      -0.173
      -0.141
      -0.100
      -0.051
       0.005
       0.059
       0.097
       0.107
       0.085
       0.041
      -0.008
      -0.047
      -0.069
      -0.078
      -0.080
      -0.081
      -0.080
      -0.074
      -0.064
      -0.051
      -0.035
      -0.018
       0.000
       0.012
       0.008
      -0.017
      -0.054
      -0.087
      -0.099
      -0.088
      -0.062
      -0.032
      -0.011
      -0.004
      -0.010
      -0.022
      -0.033
      -0.035
      -0.029
      -0.019
      -0.011
      -0.008
      -0.008
      -0.011
      -0.013
      -0.016
      -0.023
      -0.036
      -0.054
      -0.075
      -0.097
      -0.113
      -0.118
      -0.104
      -0.066
      -0.006
       0.066
       0.133
       0.180
       0.203
       0.207
       0.202
       0.194
       0.184
       0.170
       0.144
       0.104
       0.051
      -0.001
      -0.038
      -0.052
      -0.046
      -0.029
      -0.009
       0.018
       0.057
       0.107
       0.160
       0.200
       0.217
       0.211
       0.190
       0.163
       0.131
       0.095
       0.055
       0.018
      -0.010
      -0.024
      -0.024
      -0.011
       0.008
       0.026
       0.039
       0.045
       0.051
       0.064
       0.085
       0.104
       0.110
       0.093
       0.055
       0.002
      -0.057
      -0.115
      -0.169
      -0.212
      -0.239
      -0.246
      -0.235
      -0.210
      -0.180
      -0.150
      -0.126
      -0.109
      -0.098
      -0.092
      -0.090
      -0.091
      -0.093
      -0.093
      -0.088
      -0.081
      -0.079
      -0.083
      -0.092
      -0.097
      -0.087
      -0.058
      -0.014
       0.033
       0.071
       0.093
       0.106
       0.115
       0.120
       0.117
       0.099
       0.067
       0.031
       0.007
       0.001
       0.006
       0.009
       0.003
      -0.008
      -0.009
       0.011
       0.049
       0.087
       0.109
       0.107
       0.087
       0.063
       0.046
       0.032
       0.016
      -0.012
      -0.047
      -0.081
      -0.100
      -0.097
      -0.075
      -0.046
      -0.025
      -0.018
      -0.019
      -0.019
      -0.015
      -0.011
      -0.015
      -0.031
      -0.049
      -0.054
      -0.037
      -0.002
       0.037
       0.064
       0.075
       0.079
       0.087
       0.102
       0.119
       0.125
       0.110
       0.076
       0.031
      -0.013
      -0.049
      -0.078
      -0.101
      -0.117
      -0.121
      -0.110
      -0.085
      -0.056
      -0.030
      -0.013
      -0.005
      -0.001
       0.005
       0.017
       0.037
       0.064
       0.093
       0.121
       0.147
       0.173
       0.196
       0.207
       0.193
       0.147
       0.072
      -0.012
      -0.086
      -0.139
      -0.170
      -0.185
      -0.186
      -0.172
      -0.138
      -0.084
      -0.017
       0.053
       0.114
       0.159
       0.185
       0.190
       0.178
       0.155
       0.122
       0.082
       0.041
       0.006
      -0.019
      -0.036
      -0.051
      -0.064
      -0.072
      -0.078
      -0.084
      -0.092
      -0.097
      -0.097
      -0.091
      -0.077
      -0.060
      -0.044
      -0.035
      -0.039
      -0.055
      -0.077
      -0.093
      -0.094
      -0.077
      -0.047
      -0.017
       0.009
       0.030
       0.051
       0.070
       0.083
       0.086
       0.080
       0.068
       0.055
       0.043
       0.031
       0.009
      -0.029
      -0.084
      -0.143
      -0.191
      -0.216
      -0.214
      -0.189
      -0.151
      -0.106
      -0.057
      -0.004
       0.047
       0.082
       0.090
       0.066
       0.027
      -0.003
      -0.005
       0.019
       0.054
       0.083
       0.098
       0.107
       0.125
       0.156
       0.188
       0.203
       0.192
       0.162
       0.131
       0.110
       0.100
       0.088
       0.063
       0.021
      -0.026
      -0.059
      -0.068
      -0.056
      -0.038
      -0.031
      -0.044
      -0.077
      -0.119
      -0.157
      -0.184
      -0.196
      -0.196
      -0.183
      -0.155
      -0.104
      -0.032
       0.049
       0.118
       0.153
       0.143
       0.095
       0.034
      -0.017
      -0.045
      -0.051
      -0.040
      -0.015
       0.024
       0.072
       0.113
       0.126
       0.099
       0.039
      -0.031
      -0.088
      -0.122
      -0.136
      -0.139
      -0.137
      -0.126
      -0.101
      -0.063
      -0.017
       0.027
       0.059
       0.075
       0.081
       0.084
       0.087
       0.086
       0.074
       0.047
       0.008
      -0.031
      -0.056
      -0.062
      -0.056
      -0.049
      -0.045
      -0.041
      -0.027
      -0.004
       0.022
       0.035
       0.030
       0.007
      -0.024
      -0.050
      -0.063
      -0.061
      -0.049
      -0.030
      -0.007
       0.024
       0.064
       0.108
       0.142
       0.155
       0.139
       0.101
       0.054
       0.012
      -0.022
      -0.046
      -0.061
      -0.060
      -0.040
       0.002
       0.056
       0.105
       0.129
       0.119
       0.082
       0.034
      -0.006
      -0.033
      -0.050
      -0.063
      -0.074
      -0.081
      -0.079
      -0.066
      -0.045
      -0.030
      -0.033
      -0.057
      -0.091
      -0.114
      -0.112
      -0.082
      -0.039
      -0.005
       0.009
       0.004
      -0.004
       0.001
       0.020
       0.044
       0.059
       0.061
       0.057
       0.059
       0.071
       0.084
       0.086
       0.073
       0.052
       0.038
       0.040
       0.056
       0.079
       0.101
       0.120
       0.134
       0.142
       0.146
       0.142
       0.125
       0.092
       0.044
      -0.010
      -0.061
      -0.098
      -0.121
      -0.136
      -0.148
      -0.158
      -0.156
      -0.133
      -0.088
      -0.033
       0.015
       0.044
       0.054
       0.055
       0.060
       0.074
       0.092
       0.100
       0.094
       0.074
       0.048
       0.020
      -0.009
      -0.042
      -0.083
      -0.129
      -0.170
      -0.190
      -0.180
      -0.143
      -0.093
      -0.048
      -0.017
      -0.004
      -0.005
      -0.018
      -0.039
      -0.063
      -0.078
      -0.070
      -0.030
       0.039
       0.120
       0.187
       0.221
       0.214
       0.173
       0.113
       0.047
      -0.018
      -0.087
      -0.156
      -0.214
      -0.243
      -0.231
      -0.178
      -0.098
      -0.013
       0.056
       0.101
       0.122
       0.127
       0.122
       0.106
       0.080
       0.045
       0.012
      -0.010
      -0.016
      -0.008
       0.007
       0.023
       0.037
       0.053
       0.073
       0.092
       0.100
       0.088
       0.054
       0.009
      -0.036
      -0.070
      -0.091
      -0.104
      -0.114
      -0.120
      -0.115
      -0.092
      -0.051
       0.001
       0.048
       0.079
       0.090
       0.084
       0.064
       0.034
      -0.002
      -0.039
      -0.069
      -0.087
      -0.087
      -0.067
      -0.032
       0.006
       0.033
       0.040
       0.027
      -0.001
      -0.036
      -0.072
      -0.103
      -0.118
      -0.109
      -0.074
      -0.020
       0.039
       0.083
       0.099
       0.088
       0.062
       0.037
       0.025
       0.025
       0.027
       0.025
       0.025
       0.036
       0.064
       0.098
       0.118
       0.104
       0.056
      -0.010
      -0.066
      -0.094
      -0.092
      -0.073
      -0.052
      -0.034
      -0.018
       0.000
       0.014
       0.012
      -0.016
      -0.069
      -0.133
      -0.188
      -0.216
      -0.210
      -0.174
      -0.119
      -0.051
       0.025
       0.108
       0.189
       0.249
       0.271
       0.252
       0.202
       0.143
       0.096
       0.066
       0.051
       0.040
       0.027
       0.013
      -0.001
      -0.014
      -0.027
      -0.044
      -0.064
      -0.086
      -0.106
      -0.117
      -0.115
      -0.097
      -0.064
      -0.027
       0.003
       0.020
       0.019
       0.002
      -0.024
      -0.049
      -0.057
      -0.040
       0.002
       0.056
       0.108
       0.146
       0.164
       0.162
       0.143
       0.112
       0.070
       0.021
      -0.024
      -0.056
      -0.070
      -0.073
      -0.074
      -0.084
      -0.102
      -0.122
      -0.133
      -0.127
      -0.103
      -0.067
      -0.027
       0.012
       0.045
       0.068
       0.075
       0.062
       0.030
      -0.014
      -0.058
      -0.090
      -0.106
      -0.107
      -0.099
      -0.085
      -0.066
      -0.039
      -0.001
       0.046
       0.100
       0.151
       0.189
       0.206
       0.198
       0.167
       0.122
       0.072
       0.021
      -0.026
      -0.061
      -0.074
      -0.061
      -0.025
       0.017
       0.046
       0.052
       0.038
       0.017
      -0.004
      -0.023
      -0.044
      -0.074
      -0.110
      -0.145
      -0.170
      -0.182
      -0.186
      -0.187
      -0.182
      -0.159
      -0.106
      -0.016
       0.101
       0.221
       0.315
       0.361
       0.355
       0.307
       0.233
       0.145
       0.054
      -0.033
      -0.104
      -0.149
      -0.156
      -0.128
      -0.074
      -0.012
       0.041
       0.074
       0.086
       0.078
       0.053
       0.019
      -0.012
      -0.028
      -0.027
      -0.012
       0.007
       0.022
       0.027
       0.025
       0.017
       0.006
      -0.012
      -0.042
      -0.080
      -0.117
      -0.137
      -0.128
      -0.087
      -0.024
       0.038
       0.078
       0.084
       0.064
       0.035
       0.017
       0.019
       0.033
       0.047
       0.050
       0.039
       0.016
      -0.012
      -0.043
      -0.074
      -0.101
      -0.117
      -0.114
      -0.092
      -0.059
      -0.024
       0.002
       0.013
       0.008
      -0.014
      -0.051
      -0.100
      -0.152
      -0.190
      -0.194
      -0.155
      -0.082
       0.004
       0.074
       0.111
       0.117
       0.107
       0.098
       0.090
       0.076
       0.048
       0.008
      -0.032
      -0.062
      -0.075
      -0.071
      -0.055
      -0.036
      -0.021
      -0.013
      -0.008
      -0.003
       0.001
       0.002
      -0.001
      -0.007
      -0.013
      -0.021
      -0.036
      -0.061
      -0.091
      -0.114
      -0.120
      -0.105
      -0.077
      -0.046
      -0.019
       0.005
       0.031
       0.064
       0.102
       0.131
       0.130
       0.087
       0.010
      -0.076
      -0.148
      -0.193
      -0.210
      -0.200
      -0.165
      -0.106
      -0.029
       0.057
       0.139
       0.203
       0.242
       0.254
       0.244
       0.214
       0.165
       0.098
       0.020
      -0.057
      -0.119
      -0.155
      -0.159
      -0.136
      -0.099
      -0.056
      -0.009
       0.045
       0.104
       0.157
       0.186
       0.176
       0.122
       0.039
      -0.052
      -0.130
      -0.186
      -0.216
      -0.221
      -0.201
      -0.155
      -0.085
       0.003
       0.093
       0.163
       0.190
       0.170
       0.111
       0.037
      -0.034
      -0.085
      -0.112
      -0.111
      -0.087
      -0.041
       0.019
       0.085
       0.139
       0.160
       0.139
       0.081
       0.012
      -0.039
      -0.054
      -0.030
       0.020
       0.080
       0.134
       0.174
       0.199
       0.208
       0.196
       0.162
       0.108
       0.044
      -0.016
      -0.058
      -0.074
      -0.067
      -0.046
      -0.022
      -0.002
       0.012
       0.020
       0.024
       0.019
       0.006
      -0.016
      -0.042
      -0.068
      -0.092
      -0.113
      -0.129
      -0.139
      -0.142
      -0.146
      -0.160
      -0.187
      -0.219
      -0.243
      -0.245
      -0.221
      -0.173
      -0.113
      -0.054
      -0.006
       0.027
       0.049
       0.062
       0.067
       0.065
       0.054
       0.038
       0.024
       0.018
       0.023
       0.030
       0.033
       0.030
       0.023
       0.020
       0.023
       0.030
       0.038
       0.046
       0.055
       0.064
       0.070
       0.070
       0.062
       0.043
       0.013
      -0.025
      -0.062
      -0.083
      -0.078
      -0.044
       0.006
       0.052
       0.078
       0.080
       0.067
       0.050
       0.035
       0.015
      -0.018
      -0.062
      -0.104
      -0.126
      -0.114
      -0.074
      -0.024
       0.016
       0.035
       0.037
       0.036
       0.044
       0.061
       0.079
       0.084
       0.070
       0.045
       0.023
       0.012
       0.018
       0.036
       0.063
       0.095
       0.128
       0.160
       0.184
       0.194
       0.184
       0.156
       0.120
       0.088
       0.068
       0.053
       0.033
       0.001
      -0.039
      -0.074
      -0.087
      -0.066
      -0.016
       0.047
       0.103
       0.140
       0.150
       0.136
       0.099
       0.043
      -0.024
      -0.092
      -0.146
      -0.175
      -0.174
      -0.148
      -0.109
      -0.064
      -0.019
       0.020
       0.047
       0.056
       0.043
       0.014
      -0.017
      -0.042
      -0.055
      -0.062
      -0.071
      -0.087
      -0.109
      -0.126
      -0.128
      -0.114
      -0.091
      -0.069
      -0.057
      -0.053
      -0.049
      -0.040
      -0.024
      -0.004
       0.012
       0.024
       0.032
       0.045
       0.068
       0.101
       0.131
       0.140
       0.111
       0.051
      -0.018
      -0.072
      -0.099
      -0.102
      -0.097
      -0.097
      -0.104
      -0.113
      -0.115
      -0.112
      -0.113
      -0.124
      -0.144
      -0.160
      -0.158
      -0.131
      -0.079
      -0.007
       0.071
       0.146
       0.208
       0.247
       0.256
       0.231
       0.174
       0.095
       0.006
      -0.076
      -0.139
      -0.175
      -0.187
      -0.183
      -0.169
      -0.145
      -0.111
      -0.071
      -0.028
       0.014
       0.056
       0.101
       0.152
       0.208
       0.260
       0.294
       0.299
       0.272
       0.222
       0.164
       0.111
       0.065
       0.023
      -0.018
      -0.058
      -0.088
      -0.098
      -0.088
      -0.067
      -0.053
      -0.060
      -0.087
      -0.119
      -0.140
      -0.144
      -0.138
      -0.128
      -0.113
      -0.083
      -0.025
       0.064
       0.167
       0.257
       0.310
       0.314
       0.275
       0.206
       0.123
       0.032
      -0.067
      -0.167
      -0.250
      -0.291
      -0.274
      -0.198
      -0.086
       0.026
       0.104
       0.135
       0.123
       0.089
       0.048
       0.006
      -0.039
      -0.084
      -0.121
      -0.134
      -0.115
      -0.066
      -0.004
       0.046
