Origin Time       17/9/2010 19:21:09	 UTC
Lat.              36.5 N	
Long.             70.8 E	
Depth (Km)        167.0
Magnitude         6.5
 Region           Hindukush                                                        
 Above details taken from IMD 
    
Station Code      Roo
Station Lat.       29.866  N
Station Long.      77.901  E
Station Height(m)  243.0
Site Class        C   Vs30 between 200 m/sec to 375 m/sec *  
Record Time       17.09.2010 19:23:39.954 UTC
Sampling Rate     200. Hz
 Record Duration  140.635 Sec.
 Direction         N-S (N positive)
Max. Acceleration     -1.331 cm/sec**2
     
  * For reference see Site Classification link of website 
     
 Base Line Corrected and Low Pass Filtered (Cut Off at 35 Hz) Time History
 Acceleration data in cm/sec**2
    
[...]
       0.046
       0.054
       0.064
       0.074
       0.084
       0.092
       0.098
       0.099
       0.095
       0.088
       0.081
       0.079
       0.080
       0.082
       0.082
       0.075
       0.059
       0.036
       0.012
      -0.007
      -0.016
      -0.015
      -0.010
      -0.009
      -0.018
      -0.040
      -0.068
      -0.094
      -0.112
      -0.122
      -0.131
      -0.144
      -0.161
      -0.180
      -0.194
      -0.202
      -0.208
      -0.215
      -0.224
      -0.230
      -0.230
      -0.224
      -0.216
      -0.209
      -0.200
      -0.187
      -0.165
      -0.136
      -0.106
      -0.080
      -0.056
      -0.031
      -0.005
       0.022
       0.043
       0.056
       0.062
       0.066
       0.070
       0.076
       0.080
       0.083
       0.082
       0.078
       0.069
       0.056
       0.042
       0.029
       0.020
       0.013
       0.006
      -0.004
      -0.017
      -0.031
      -0.043
      -0.049
      -0.047
      -0.036
      -0.020
      -0.007
       0.001
       0.004
       0.010
       0.021
       0.035
       0.047
       0.056
       0.061
       0.064
       0.065
       0.062
       0.057
       0.055
       0.059
       0.066
       0.070
       0.068
       0.060
       0.052
       0.047
       0.043
       0.036
       0.025
       0.011
       0.000
      -0.009
      -0.016
      -0.021
      -0.023
      -0.020
      -0.015
      -0.012
      -0.014
      -0.022
      -0.030
      -0.033
      -0.030
      -0.026
      -0.023
      -0.025
      -0.031
      -0.038
      -0.042
      -0.042
      -0.037
      -0.030
      -0.026
      -0.025
      -0.028
      -0.032
      -0.037
      -0.040
      -0.042
      -0.045
      -0.051
      -0.057
      -0.061
      -0.061
      -0.060
      -0.060
      -0.062
      -0.064
      -0.063
      -0.059
      -0.058
      -0.061
      -0.070
      -0.081
      -0.088
      -0.088
      -0.084
      -0.077
      -0.072
      -0.067
      -0.061
      -0.050
      -0.033
      -0.012
       0.010
       0.029
       0.043
       0.053
       0.062
       0.072
       0.086
       0.101
       0.114
       0.122
       0.126
       0.128
       0.131
       0.135
       0.137
       0.137
       0.134
       0.128
       0.120
       0.114
       0.110
       0.108
       0.105
       0.099
       0.092
       0.085
       0.080
       0.077
       0.073
       0.069
       0.062
       0.053
       0.043
       0.032
       0.018
       0.001
      -0.019
      -0.042
      -0.063
      -0.076
      -0.083
      -0.085
      -0.090
      -0.101
      -0.118
      -0.138
      -0.154
      -0.163
      -0.165
      -0.166
      -0.167
      -0.170
      -0.169
      -0.163
      -0.147
      -0.126
      -0.101
      -0.080
      -0.063
      -0.049
      -0.035
      -0.020
      -0.007
       0.003
       0.011
       0.018
       0.021
       0.019
       0.011
       0.003
       0.002
       0.007
       0.017
       0.023
       0.021
       0.010
      -0.004
      -0.016
      -0.025
      -0.030
      -0.032
      -0.034
      -0.034
      -0.032
      -0.026
      -0.016
      -0.006
       0.003
       0.013
       0.026
       0.044
       0.062
       0.075
       0.080
       0.077
       0.069
       0.063
       0.060
       0.058
       0.055
       0.049
       0.039
       0.028
       0.020
       0.016
       0.012
       0.005
      -0.005
      -0.016
      -0.026
      -0.033
      -0.040
      -0.046
      -0.049
      -0.048
      -0.044
      -0.041
      -0.036
      -0.029
      -0.020
      -0.008
       0.004
       0.012
       0.015
       0.015
       0.014
       0.016
       0.020
       0.024
       0.026
       0.027
       0.028
       0.035
       0.048
       0.064
       0.077
       0.086
       0.091
       0.097
       0.104
       0.111
       0.113
       0.110
       0.103
       0.096
       0.090
       0.084
       0.078
       0.066
       0.047
       0.021
      -0.007
      -0.034
      -0.057
      -0.079
      -0.103
      -0.132
      -0.165
      -0.197
      -0.225
      -0.244
      -0.257
      -0.267
      -0.278
      -0.290
      -0.302
      -0.310
      -0.314
      -0.313
      -0.309
      -0.301
      -0.289
      -0.270
      -0.245
      -0.217
      -0.186
      -0.153
      -0.116
      -0.076
      -0.039
      -0.010
       0.010
       0.023
       0.032
       0.038
       0.044
       0.051
       0.059
       0.067
       0.072
       0.073
       0.072
       0.073
       0.076
       0.079
       0.079
       0.073
       0.057
       0.036
       0.015
      -0.002
      -0.012
      -0.017
      -0.017
      -0.013
      -0.005
       0.004
       0.014
       0.026
       0.045
       0.072
       0.104
       0.132
       0.151
       0.163
       0.174
       0.191
       0.214
       0.237
       0.253
       0.262
       0.264
       0.264
       0.266
       0.270
       0.272
       0.267
       0.252
       0.229
       0.203
       0.177
       0.155
       0.135
       0.117
       0.100
       0.087
       0.077
       0.071
       0.069
       0.068
       0.069
       0.071
       0.072
       0.071
       0.068
       0.065
       0.069
       0.083
       0.107
       0.133
       0.154
       0.167
       0.173
       0.175
       0.176
       0.175
       0.173
       0.168
       0.161
       0.149
       0.133
       0.113
       0.093
       0.075
       0.060
       0.048
       0.040
       0.037
       0.038
       0.038
       0.034
       0.026
       0.018
       0.017
       0.023
       0.032
       0.040
       0.045
       0.050
       0.059
       0.072
       0.088
       0.102
       0.112
       0.119
       0.124
       0.128
       0.129
       0.127
       0.122
       0.118
       0.113
       0.110
       0.106
       0.103
       0.098
       0.090
       0.080
       0.067
       0.051
       0.032
       0.009
      -0.018
      -0.048
      -0.079
      -0.106
      -0.129
      -0.149
      -0.167
      -0.186
      -0.207
      -0.228
      -0.246
      -0.256
      -0.257
      -0.253
      -0.250
      -0.251
      -0.256
      -0.260
      -0.261
      -0.255
      -0.245
      -0.234
      -0.223
      -0.212
      -0.200
      -0.185
      -0.169
      -0.154
      -0.140
      -0.127
      -0.114
      -0.103
      -0.095
      -0.091
      -0.087
      -0.082
      -0.075
      -0.069
      -0.066
      -0.067
      -0.068
      -0.067
      -0.060
      -0.049
      -0.039
      -0.031
      -0.025
      -0.018
      -0.010
      -0.003
       0.004
       0.011
       0.018
       0.028
       0.037
       0.045
       0.053
       0.060
       0.064
       0.063
       0.053
       0.036
       0.015
      -0.009
      -0.036
      -0.069
      -0.107
      -0.147
      -0.187
      -0.225
      -0.259
      -0.290
      -0.321
      -0.350
      -0.375
      -0.391
      -0.401
      -0.412
      -0.426
      -0.443
      -0.452
      -0.450
      -0.437
      -0.417
      -0.392
      -0.362
      -0.327
      -0.292
      -0.261
      -0.238
      -0.220
      -0.205
      -0.193
      -0.184
      -0.177
      -0.168
      -0.159
      -0.151
      -0.144
      -0.139
      -0.132
      -0.121
      -0.110
      -0.100
      -0.094
      -0.092
      -0.090
      -0.083
      -0.069
      -0.047
      -0.022
      -0.001
       0.011
       0.020
       0.033
       0.054
       0.081
       0.106
       0.123
       0.131
       0.133
       0.134
       0.133
       0.126
       0.115
       0.106
       0.100
       0.096
       0.088
       0.074
       0.056
       0.040
       0.031
       0.028
       0.027
       0.019
       0.003
      -0.020
      -0.040
      -0.051
      -0.050
      -0.046
      -0.044
      -0.047
      -0.050
      -0.046
      -0.034
      -0.016
       0.002
       0.017
       0.029
       0.041
       0.055
       0.074
       0.095
       0.117
       0.137
       0.158
       0.181
       0.206
       0.232
       0.258
       0.287
       0.320
       0.355
       0.390
       0.420
       0.446
       0.470
       0.493
       0.514
       0.529
       0.539
       0.547
       0.555
       0.565
       0.575
       0.581
       0.579
       0.568
       0.551
       0.529
       0.501
       0.466
       0.424
       0.375
       0.325
       0.275
       0.223
       0.169
       0.110
       0.050
      -0.010
      -0.070
      -0.131
      -0.193
      -0.256
      -0.320
      -0.385
      -0.449
      -0.514
      -0.576
      -0.631
      -0.676
      -0.711
      -0.738
      -0.758
      -0.771
      -0.778
      -0.780
      -0.779
      -0.775
      -0.766
      -0.750
      -0.725
      -0.692
      -0.652
      -0.607
      -0.559
      -0.508
      -0.454
      -0.394
      -0.328
      -0.256
      -0.185
      -0.118
      -0.054
       0.010
       0.077
       0.148
       0.223
       0.299
       0.373
       0.445
       0.515
       0.583
       0.648
       0.709
       0.766
       0.819
       0.866
       0.904
       0.930
       0.945
       0.954
       0.959
       0.961
       0.958
       0.945
       0.919
       0.878
       0.824
       0.761
       0.692
       0.623
       0.552
       0.480
       0.409
       0.343
       0.286
       0.236
       0.193
       0.154
       0.118
       0.083
       0.049
       0.016
      -0.011
      -0.026
      -0.030
      -0.025
      -0.019
      -0.016
      -0.013
      -0.005
       0.008
       0.024
       0.037
       0.047
       0.056
       0.067
       0.080
       0.092
       0.102
       0.110
       0.116
       0.121
       0.126
       0.131
       0.136
       0.142
       0.149
       0.157
       0.163
       0.165
       0.164
       0.160
       0.155
       0.149
       0.141
       0.134
       0.129
       0.123
       0.116
       0.105
       0.091
       0.075
       0.056
       0.036
       0.014
      -0.012
      -0.047
      -0.091
      -0.141
      -0.191
      -0.236
      -0.278
      -0.322
      -0.372
      -0.428
      -0.487
      -0.545
      -0.603
      -0.663
      -0.724
      -0.783
      -0.834
      -0.877
      -0.917
      -0.960
      -1.008
      -1.054
      -1.091
      -1.115
      -1.125
      -1.126
      -1.119
      -1.104
      -1.079
      -1.045
      -1.002
      -0.952
      -0.897
      -0.839
      -0.779
      -0.716
      -0.646
      -0.567
      -0.482
      -0.395
      -0.314
      -0.240
      -0.172
      -0.107
      -0.047
       0.007
       0.053
       0.090
       0.120
       0.142
       0.157
       0.168
       0.177
       0.188
       0.202
       0.220
       0.240
       0.259
       0.275
       0.288
       0.302
       0.321
       0.346
       0.374
       0.405
       0.436
       0.468
       0.498
       0.527
       0.552
       0.573
       0.589
       0.601
       0.608
       0.603
       0.582
       0.544
       0.492
       0.432
       0.365
       0.292
       0.216
       0.138
       0.058
      -0.021
      -0.100
      -0.173
      -0.237
      -0.288
      -0.328
      -0.359
      -0.380
      -0.391
      -0.389
      -0.371
      -0.333
      -0.280
      -0.217
      -0.150
      -0.084
      -0.017
       0.055
       0.132
       0.210
       0.281
       0.340
       0.386
       0.423
       0.453
       0.478
       0.498
       0.510
       0.513
       0.507
       0.495
       0.476
       0.451
       0.419
       0.381
       0.341
       0.299
       0.255
       0.209
       0.163
       0.118
       0.077
       0.041
       0.011
      -0.014
      -0.035
      -0.052
      -0.067
      -0.080
      -0.092
      -0.105
      -0.117
      -0.128
      -0.134
      -0.133
      -0.128
      -0.123
      -0.121
      -0.121
      -0.122
      -0.119
      -0.112
      -0.104
      -0.102
      -0.109
      -0.126
      -0.148
      -0.170
      -0.186
      -0.198
      -0.211
      -0.228
      -0.251
      -0.277
      -0.301
      -0.321
      -0.338
      -0.358
      -0.386
      -0.426
      -0.473
      -0.523
      -0.572
      -0.622
      -0.672
      -0.720
      -0.763
      -0.793
      -0.812
      -0.820
      -0.820
      -0.811
      -0.791
      -0.761
      -0.723
      -0.679
      -0.629
      -0.570
      -0.502
      -0.424
      -0.338
      -0.245
      -0.147
      -0.047
       0.054
       0.150
       0.240
       0.324
       0.402
       0.475
       0.541
       0.597
       0.641
       0.671
       0.688
       0.695
       0.696
       0.694
       0.688
       0.675
       0.651
       0.620
       0.587
       0.558
       0.536
       0.521
       0.509
       0.501
       0.497
       0.498
       0.504
       0.517
       0.538
       0.565
       0.597
       0.628
       0.654
       0.674
       0.692
       0.710
       0.729
       0.746
       0.760
       0.770
       0.775
       0.774
       0.766
       0.751
       0.730
       0.705
       0.676
       0.640
       0.593
       0.535
       0.465
       0.383
       0.293
       0.198
       0.103
       0.008
      -0.091
      -0.195
      -0.304
      -0.411
      -0.511
      -0.602
      -0.685
      -0.764
      -0.844
      -0.925
      -1.003
      -1.075
      -1.137
      -1.187
      -1.227
      -1.260
      -1.288
      -1.310
      -1.325
      -1.331
      -1.327
      -1.312
      -1.287
      -1.255
      -1.221
      -1.188
      -1.156
      -1.121
      -1.080
      -1.033
      -0.980
      -0.926
      -0.875
      -0.830
      -0.788
      -0.747
      -0.704
      -0.663
      -0.628
      -0.599
      -0.572
      -0.544
      -0.512
      -0.477
      -0.439
      -0.399
      -0.356
      -0.309
      -0.257
      -0.199
      -0.140
      -0.083
      -0.028
       0.028
       0.088
       0.152
       0.214
       0.271
       0.321
       0.368
       0.414
       0.460
       0.507
       0.551
       0.591
       0.629
       0.666
       0.704
       0.740
       0.772
       0.799
       0.821
       0.838
       0.852
       0.864
       0.877
       0.890
       0.899
       0.902
       0.899
       0.892
       0.881
       0.863
       0.833
       0.794
       0.750
       0.703
       0.654
       0.598
       0.535
       0.468
       0.401
       0.338
       0.276
       0.214
       0.149
       0.079
       0.005
      -0.071
      -0.147
      -0.220
      -0.287
      -0.347
      -0.402
      -0.451
      -0.495
      -0.535
      -0.570
      -0.598
      -0.615
      -0.618
      -0.611
      -0.600
      -0.588
      -0.575
      -0.558
      -0.533
      -0.502
      -0.467
      -0.433
      -0.401
      -0.372
      -0.346
      -0.325
      -0.305
      -0.284
      -0.260
      -0.237
      -0.220
      -0.213
      -0.213
      -0.215
      -0.212
      -0.205
      -0.194
      -0.179
      -0.161
      -0.145
      -0.133
      -0.122
      -0.107
      -0.082
      -0.048
      -0.011
       0.023
       0.053
       0.082
       0.114
       0.149
       0.185
       0.218
       0.248
       0.274
       0.297
       0.317
       0.331
       0.342
       0.350
       0.359
       0.367
       0.369
       0.362
       0.345
       0.322
       0.298
       0.278
       0.262
       0.251
       0.243
       0.237
       0.228
       0.215
       0.197
       0.178
       0.162
       0.147
       0.130
       0.107
       0.079
       0.052
       0.029
       0.009
      -0.013
      -0.040
      -0.073
      -0.110
      -0.149
      -0.188
      -0.224
      -0.256
      -0.282
      -0.298
      -0.303
      -0.297
      -0.280
      -0.251
      -0.208
      -0.151
      -0.078
       0.009
       0.106
       0.206
       0.303
       0.396
       0.491
       0.588
       0.685
       0.775
       0.848
       0.902
       0.939
       0.965
       0.980
       0.986
       0.980
       0.961
       0.926
       0.876
       0.807
       0.721
       0.624
       0.522
       0.423
       0.327
       0.231
       0.135
       0.040
      -0.048
      -0.126
      -0.192
      -0.246
      -0.289
      -0.324
      -0.351
      -0.372
      -0.384
      -0.387
      -0.379
      -0.362
      -0.339
      -0.311
      -0.277
      -0.234
      -0.184
      -0.127
      -0.068
      -0.008
       0.053
       0.116
       0.179
       0.239
       0.296
       0.351
       0.407
       0.465
       0.523
       0.578
       0.626
       0.665
       0.695
       0.713
       0.722
       0.725
       0.725
       0.724
       0.723
       0.717
       0.707
       0.695
       0.681
       0.668
       0.652
       0.629
       0.598
       0.557
       0.505
       0.446
       0.380
       0.311
       0.240
       0.164
       0.081
      -0.011
      -0.109
      -0.205
      -0.296
      -0.381
      -0.463
      -0.543
      -0.618
      -0.691
      -0.762
      -0.836
      -0.911
      -0.982
      -1.043
      -1.091
      -1.127
      -1.155
      -1.179
      -1.199
      -1.213
      -1.219
      -1.214
      -1.198
      -1.173
      -1.146
      -1.120
      -1.098
      -1.074
      -1.040
      -0.992
      -0.932
      -0.870
      -0.815
      -0.769
      -0.726
      -0.681
      -0.629
      -0.573
      -0.516
      -0.462
      -0.409
      -0.358
      -0.309
      -0.267
      -0.230
      -0.194
      -0.154
      -0.109
      -0.060
      -0.015
       0.022
       0.053
       0.087
       0.131
       0.183
       0.240
       0.295
       0.348
       0.401
       0.456
       0.515
       0.578
       0.646
       0.713
       0.777
       0.834
       0.885
       0.929
       0.963
       0.991
       1.012
       1.026
       1.032
       1.028
       1.017
       1.001
       0.980
       0.954
       0.921
       0.883
       0.846
       0.815
       0.793
       0.778
       0.765
       0.755
       0.749
       0.750
       0.759
       0.774
       0.795
       0.818
       0.840
       0.859
       0.868
       0.862
       0.842
       0.809
       0.771
       0.731
       0.689
       0.641
       0.586
       0.526
       0.464
       0.404
       0.345
       0.285
       0.225
       0.165
       0.109
       0.059
       0.011
      -0.040
      -0.099
      -0.166
      -0.235
      -0.296
      -0.342
      -0.373
      -0.394
      -0.412
      -0.428
      -0.441
      -0.447
      -0.445
      -0.439
      -0.435
      -0.432
      -0.428
      -0.422
      -0.419
      -0.421
      -0.433
      -0.453
      -0.474
      -0.493
      -0.509
      -0.525
      -0.545
      -0.567
      -0.591
      -0.610
      -0.624
      -0.629
      -0.624
      -0.610
      -0.588
      -0.563
      -0.533
      -0.498
      -0.453
      -0.399
      -0.338
      -0.280
      -0.226
      -0.178
      -0.132
      -0.087
      -0.043
      -0.005
       0.028
       0.052
       0.068
       0.076
       0.078
       0.077
       0.070
       0.054
       0.028
      -0.007
      -0.048
      -0.093
      -0.141
      -0.194
      -0.251
      -0.311
      -0.374
      -0.440
      -0.510
      -0.581
