Origin Time       14/12/2005 07:09:48 UTC
Lat.              30.9 N 
Long.             79.3 E 
Depth (Km)         25.7
Magnitude         5.2
 Region           Chamoli-Uttarakhand                                              
 Above details taken from IMD 
    
Station Code      Roo
Station Lat.       29.866  N
Station Long.      77.901  E
Station Height(m)  253.5
Site Class        C   Vs30 between 200 m/sec to 375 m/sec *  
Record Time       14.12.2005 07:10:06.449 UTC
Sampling Rate     200. Hz
 Record Duration   66.215 Sec.
 Direction         N-S (N positive)
Max. Acceleration     -4.205 cm/sec**2
     
  * For reference see Site Classification link of website 
     
 Base Line Corrected and Low Pass Filtered (Cut Off at 35 Hz) Time History
 Acceleration data in cm/sec**2
    
[...]
       0.146
       0.097
       0.044
      -0.014
      -0.073
      -0.120
      -0.146
      -0.148
      -0.132
      -0.102
      -0.060
      -0.004
       0.061
       0.127
       0.180
       0.215
       0.224
       0.207
       0.158
       0.080
      -0.018
      -0.122
      -0.221
      -0.309
      -0.390
      -0.469
      -0.545
      -0.610
      -0.652
      -0.660
      -0.628
      -0.561
      -0.469
      -0.367
      -0.271
      -0.193
      -0.137
      -0.095
      -0.052
       0.005
       0.078
       0.155
       0.217
       0.251
       0.250
       0.219
       0.171
       0.118
       0.068
       0.021
      -0.029
      -0.097
      -0.189
      -0.300
      -0.411
      -0.504
      -0.570
      -0.610
      -0.635
      -0.649
      -0.648
      -0.625
      -0.574
      -0.495
      -0.391
      -0.264
      -0.122
       0.023
       0.153
       0.257
       0.341
       0.417
       0.496
       0.574
       0.636
       0.666
       0.658
       0.613
       0.545
       0.471
       0.406
       0.360
       0.332
       0.312
       0.286
       0.247
       0.198
       0.150
       0.114
       0.096
       0.099
       0.113
       0.126
       0.128
       0.123
       0.124
       0.152
       0.212
       0.296
       0.383
       0.459
       0.518
       0.564
       0.601
       0.632
       0.659
       0.683
       0.693
       0.672
       0.600
       0.478
       0.324
       0.173
       0.050
      -0.037
      -0.095
      -0.143
      -0.201
      -0.283
      -0.396
      -0.534
      -0.683
      -0.826
      -0.949
      -1.044
      -1.099
      -1.109
      -1.075
      -1.013
      -0.944
      -0.884
      -0.835
      -0.789
      -0.731
      -0.646
      -0.526
      -0.368
      -0.187
      -0.004
       0.158
       0.284
       0.375
       0.445
       0.512
       0.591
       0.683
       0.777
       0.850
       0.877
       0.837
       0.730
       0.569
       0.381
       0.196
       0.033
      -0.095
      -0.192
      -0.267
      -0.337
      -0.408
      -0.481
      -0.544
      -0.589
      -0.607
      -0.601
      -0.573
      -0.528
      -0.468
      -0.401
      -0.337
      -0.285
      -0.250
      -0.232
      -0.231
      -0.247
      -0.279
      -0.320
      -0.357
      -0.381
      -0.388
      -0.378
      -0.350
      -0.303
      -0.242
      -0.179
      -0.133
      -0.116
      -0.129
      -0.163
      -0.209
      -0.261
      -0.318
      -0.374
      -0.423
      -0.460
      -0.489
      -0.513
      -0.528
      -0.514
      -0.448
      -0.323
      -0.157
       0.014
       0.159
       0.264
       0.335
       0.389
       0.436
       0.480
       0.515
       0.538
       0.547
       0.545
       0.532
       0.502
       0.452
       0.379
       0.288
       0.189
       0.095
       0.017
      -0.033
      -0.044
      -0.010
       0.067
       0.168
       0.269
       0.349
       0.403
       0.444
       0.491
       0.558
       0.641
       0.725
       0.793
       0.836
       0.860
       0.877
       0.894
       0.916
       0.934
       0.938
       0.914
       0.852
       0.750
       0.624
       0.497
       0.388
       0.301
       0.220
       0.128
       0.015
      -0.108
      -0.215
      -0.277
      -0.278
      -0.224
      -0.147
      -0.089
      -0.078
      -0.114
      -0.170
      -0.206
      -0.193
      -0.118
       0.016
       0.188
       0.364
       0.510
       0.610
       0.680
       0.750
       0.837
       0.933
       1.014
       1.061
       1.077
       1.065
       1.020
       0.932
       0.803
       0.654
       0.498
       0.332
       0.137
      -0.100
      -0.367
      -0.643
      -0.910
      -1.165
      -1.409
      -1.640
      -1.855
      -2.059
      -2.259
      -2.444
      -2.580
      -2.635
      -2.607
      -2.524
      -2.428
      -2.336
      -2.242
      -2.128
      -1.983
      -1.803
      -1.590
      -1.357
      -1.127
      -0.938
      -0.817
      -0.770
      -0.783
      -0.836
      -0.917
      -1.013
      -1.104
      -1.179
      -1.239
      -1.298
      -1.360
      -1.400
      -1.378
      -1.268
      -1.072
      -0.808
      -0.487
      -0.117
       0.278
       0.654
       0.967
       1.202
       1.373
       1.504
       1.599
       1.653
       1.670
       1.665
       1.655
       1.633
       1.580
       1.486
       1.367
       1.250
       1.158
       1.100
       1.082
       1.104
       1.161
       1.229
       1.279
       1.297
       1.300
       1.323
       1.386
       1.485
       1.600
       1.713
       1.816
       1.900
       1.951
       1.963
       1.934
       1.869
       1.760
       1.592
       1.357
       1.073
       0.774
       0.481
       0.196
      -0.093
      -0.389
      -0.683
      -0.967
      -1.246
      -1.524
      -1.788
      -2.005
      -2.150
      -2.224
      -2.250
      -2.254
      -2.242
      -2.201
      -2.117
      -1.976
      -1.768
      -1.492
      -1.166
      -0.828
      -0.524
      -0.280
      -0.092
       0.060
       0.193
       0.317
       0.438
       0.559
       0.680
       0.789
       0.867
       0.908
       0.926
       0.939
       0.953
       0.950
       0.909
       0.824
       0.703
       0.560
       0.411
       0.273
       0.166
       0.104
       0.082
       0.079
       0.075
       0.065
       0.057
       0.061
       0.086
       0.139
       0.234
       0.373
       0.533
       0.676
       0.780
       0.858
       0.952
       1.097
       1.296
       1.525
       1.749
       1.932
       2.043
       2.058
       1.978
       1.832
       1.661
       1.493
       1.317
       1.108
       0.847
       0.539
       0.202
      -0.141
      -0.461
      -0.726
      -0.910
      -1.010
      -1.053
      -1.076
      -1.098
      -1.111
      -1.094
      -1.031
      -0.922
      -0.776
      -0.606
      -0.435
      -0.295
      -0.210
      -0.177
      -0.169
      -0.159
      -0.141
      -0.132
      -0.148
      -0.202
      -0.301
      -0.456
      -0.672
      -0.929
      -1.181
      -1.383
      -1.527
      -1.637
      -1.747
      -1.872
      -2.003
      -2.134
      -2.265
      -2.390
      -2.489
      -2.528
      -2.487
      -2.372
      -2.207
      -2.019
      -1.823
      -1.628
      -1.434
      -1.237
      -1.021
      -0.778
      -0.512
      -0.241
       0.021
       0.274
       0.528
       0.781
       1.015
       1.214
       1.381
       1.534
       1.686
       1.831
       1.952
       2.044
       2.118
       2.185
       2.241
       2.270
       2.258
       2.201
       2.099
       1.948
       1.748
       1.515
       1.276
       1.049
       0.829
       0.589
       0.310
      -0.003
      -0.325
      -0.623
      -0.872
      -1.050
      -1.146
      -1.166
      -1.143
      -1.124
      -1.138
      -1.183
      -1.227
      -1.237
      -1.198
      -1.105
      -0.961
      -0.771
      -0.549
      -0.317
      -0.091
       0.119
       0.313
       0.484
       0.618
       0.707
       0.755
       0.773
       0.767
       0.736
       0.681
       0.617
       0.563
       0.521
       0.474
       0.397
       0.292
       0.182
       0.096
       0.046
       0.023
       0.017
       0.018
       0.016
      -0.004
      -0.051
      -0.110
      -0.150
      -0.142
      -0.086
       0.001
       0.100
       0.208
       0.331
       0.463
       0.589
       0.692
       0.775
       0.848
       0.920
       0.990
       1.059
       1.138
       1.238
       1.353
       1.459
       1.525
       1.535
       1.488
       1.396
       1.270
       1.124
       0.976
       0.836
       0.694
       0.522
       0.292
       0.007
      -0.304
      -0.603
      -0.863
      -1.078
      -1.248
      -1.376
      -1.473
      -1.565
      -1.684
      -1.846
      -2.032
      -2.206
      -2.336
      -2.413
      -2.442
      -2.427
      -2.364
      -2.249
      -2.087
      -1.882
      -1.628
      -1.315
      -0.939
      -0.508
      -0.039
       0.455
       0.963
       1.463
       1.924
       2.310
       2.597
       2.778
       2.858
       2.844
       2.746
       2.578
       2.360
       2.106
       1.817
       1.489
       1.125
       0.744
       0.373
       0.033
      -0.262
      -0.504
      -0.688
      -0.816
      -0.897
      -0.944
      -0.970
      -0.978
      -0.972
      -0.962
      -0.957
      -0.958
      -0.954
      -0.934
      -0.890
      -0.822
      -0.731
      -0.620
      -0.499
      -0.387
      -0.297
      -0.234
      -0.186
      -0.142
      -0.099
      -0.066
      -0.051
      -0.059
      -0.090
      -0.143
      -0.220
      -0.316
      -0.415
      -0.491
      -0.530
      -0.536
      -0.526
      -0.516
      -0.512
      -0.514
      -0.530
      -0.567
      -0.630
      -0.707
      -0.775
      -0.809
      -0.787
      -0.701
      -0.559
      -0.384
      -0.214
      -0.078
       0.010
       0.054
       0.075
       0.096
       0.136
       0.210
       0.325
       0.476
       0.641
       0.793
       0.907
       0.978
       1.021
       1.055
       1.095
       1.141
       1.177
       1.183
       1.143
       1.050
       0.912
       0.746
       0.568
       0.387
       0.200
       0.005
      -0.193
      -0.381
      -0.545
      -0.685
      -0.811
      -0.940
      -1.082
      -1.236
      -1.386
      -1.505
      -1.561
      -1.531
      -1.415
      -1.241
      -1.044
      -0.852
      -0.671
      -0.491
      -0.294
      -0.062
       0.219
       0.556
       0.935
       1.319
       1.662
       1.928
       2.115
       2.241
       2.326
       2.372
       2.362
       2.281
       2.123
       1.895
       1.608
       1.271
       0.895
       0.488
       0.055
      -0.398
      -0.854
      -1.284
      -1.650
      -1.922
      -2.087
      -2.149
      -2.120
      -2.010
      -1.835
      -1.615
      -1.377
      -1.131
      -0.869
      -0.571
      -0.226
       0.164
       0.578
       0.988
       1.361
       1.664
       1.872
       1.979
       1.997
       1.953
       1.875
       1.785
       1.692
       1.588
       1.454
       1.267
       1.018
       0.720
       0.399
       0.082
      -0.218
      -0.499
      -0.769
      -1.032
      -1.294
      -1.553
      -1.808
      -2.047
      -2.258
      -2.437
      -2.595
      -2.743
      -2.878
      -2.968
      -2.975
      -2.872
      -2.660
      -2.362
      -2.004
      -1.611
      -1.208
      -0.815
      -0.441
      -0.083
       0.267
       0.607
       0.914
       1.158
       1.317
       1.393
       1.411
       1.412
       1.438
       1.518
       1.663
       1.854
       2.051
       2.209
       2.299
       2.310
       2.240
       2.086
       1.839
       1.505
       1.107
       0.678
       0.243
      -0.193
      -0.635
      -1.084
      -1.522
      -1.917
      -2.236
      -2.455
      -2.565
      -2.577
      -2.507
      -2.374
      -2.184
      -1.937
      -1.638
      -1.307
      -0.977
      -0.672
      -0.398
      -0.138
       0.130
       0.411
       0.693
       0.951
       1.150
       1.259
       1.248
       1.106
       0.850
       0.522
       0.179
      -0.128
      -0.370
      -0.541
      -0.655
      -0.735
      -0.798
      -0.843
      -0.851
      -0.799
      -0.674
      -0.481
      -0.235
       0.048
       0.353
       0.668
       0.978
       1.275
       1.552
       1.806
       2.037
       2.246
       2.442
       2.633
       2.816
       2.977
       3.088
       3.124
       3.071
       2.930
       2.706
       2.414
       2.072
       1.698
       1.308
       0.907
       0.496
       0.075
      -0.349
      -0.764
      -1.162
      -1.536
      -1.886
      -2.209
      -2.494
      -2.731
      -2.914
      -3.041
      -3.114
      -3.138
      -3.117
      -3.047
      -2.916
      -2.699
      -2.375
      -1.940
      -1.415
      -0.843
      -0.273
       0.254
       0.710
       1.089
       1.397
       1.652
       1.866
       2.035
       2.133
       2.132
       2.024
       1.830
       1.590
       1.337
       1.081
       0.818
       0.542
       0.254
      -0.035
      -0.304
      -0.529
      -0.685
      -0.763
      -0.776
      -0.761
      -0.752
      -0.763
      -0.781
      -0.781
      -0.746
      -0.666
      -0.547
      -0.401
      -0.258
      -0.160
      -0.143
      -0.219
      -0.357
      -0.510
      -0.635
      -0.721
      -0.780
      -0.831
      -0.884
      -0.937
      -0.988
      -1.034
      -1.077
      -1.109
      -1.122
      -1.116
      -1.104
      -1.107
      -1.138
      -1.195
      -1.263
      -1.328
      -1.381
      -1.413
      -1.411
      -1.354
      -1.219
      -1.000
      -0.700
      -0.338
       0.056
       0.440
       0.768
       1.009
       1.159
       1.246
       1.312
       1.394
       1.518
       1.694
       1.914
       2.160
       2.406
       2.629
       2.821
       2.990
       3.142
       3.270
       3.349
       3.351
       3.254
       3.051
       2.734
       2.305
       1.776
       1.186
       0.583
       0.002
      -0.550
      -1.093
      -1.646
      -2.212
      -2.770
      -3.288
      -3.727
      -4.046
      -4.205
      -4.177
      -3.953
      -3.551
      -3.011
      -2.379
      -1.698
      -1.003
      -0.314
       0.360
       1.009
       1.610
       2.123
       2.503
       2.723
       2.789
       2.732
       2.587
       2.383
       2.138
       1.863
       1.567
       1.251
       0.921
       0.595
       0.303
       0.073
      -0.089
      -0.202
      -0.301
      -0.407
      -0.511
      -0.585
      -0.595
      -0.515
      -0.332
      -0.058
       0.272
       0.606
       0.894
       1.118
       1.287
       1.427
       1.556
       1.664
       1.725
       1.702
       1.566
       1.299
       0.899
       0.390
      -0.187
      -0.779
      -1.342
      -1.856
      -2.312
      -2.699
      -3.003
      -3.213
      -3.331
      -3.367
      -3.325
      -3.206
      -3.008
      -2.743
      -2.435
      -2.109
      -1.772
      -1.420
      -1.049
      -0.671
      -0.304
       0.035
       0.346
       0.633
       0.901
       1.143
       1.354
       1.532
       1.687
       1.829
       1.964
       2.085
       2.180
       2.239
       2.261
       2.251
       2.210
       2.132
       2.000
       1.803
       1.542
       1.238
       0.920
       0.617
       0.342
       0.094
      -0.131
      -0.332
      -0.498
      -0.612
      -0.661
      -0.638
      -0.545
      -0.397
      -0.220
      -0.041
       0.122
       0.260
       0.361
       0.410
       0.381
       0.258
       0.044
      -0.230
      -0.521
      -0.788
      -1.008
      -1.169
      -1.274
      -1.334
      -1.369
      -1.399
      -1.429
      -1.451
      -1.447
      -1.405
      -1.335
      -1.258
      -1.200
      -1.175
      -1.185
      -1.223
      -1.283
      -1.354
      -1.425
      -1.485
      -1.523
      -1.530
      -1.494
      -1.403
      -1.251
      -1.043
      -0.795
      -0.532
      -0.273
      -0.026
       0.213
       0.452
       0.694
       0.931
       1.144
       1.315
       1.436
       1.515
       1.579
       1.656
       1.768
       1.922
       2.112
       2.321
       2.526
       2.692
       2.785
       2.776
       2.655
       2.429
       2.120
       1.742
       1.308
       0.820
       0.286
      -0.284
      -0.871
      -1.454
      -2.005
      -2.490
      -2.871
      -3.118
      -3.207
      -3.128
      -2.878
      -2.467
      -1.925
      -1.300
      -0.640
       0.025
       0.688
       1.354
       2.011
       2.624
       3.144
       3.527
       3.752
       3.817
       3.731
       3.508
       3.165
       2.728
       2.225
       1.681
       1.119
       0.561
       0.037
      -0.427
      -0.809
      -1.100
      -1.304
      -1.428
      -1.487
      -1.493
      -1.457
      -1.374
      -1.230
      -1.013
      -0.728
      -0.402
      -0.072
       0.230
       0.491
       0.708
       0.876
       0.991
       1.044
       1.037
       0.972
       0.856
       0.689
       0.473
       0.215
      -0.068
      -0.353
      -0.618
      -0.843
      -1.022
      -1.158
      -1.263
      -1.344
      -1.396
      -1.405
      -1.365
      -1.286
      -1.196
      -1.115
      -1.043
      -0.962
      -0.849
      -0.697
      -0.516
      -0.326
      -0.149
      -0.008
       0.074
       0.073
      -0.013
      -0.163
      -0.332
      -0.472
      -0.550
      -0.551
      -0.472
      -0.319
      -0.102
       0.160
       0.448
       0.747
       1.046
       1.335
       1.600
       1.820
       1.976
       2.053
       2.044
       1.946
       1.761
       1.502
       1.192
       0.867
       0.555
       0.275
       0.034
      -0.168
      -0.332
      -0.469
      -0.596
      -0.728
      -0.865
      -0.992
      -1.084
      -1.123
      -1.105
      -1.039
      -0.943
      -0.836
      -0.742
      -0.683
      -0.672
      -0.706
      -0.773
      -0.858
      -0.951
      -1.046
      -1.131
      -1.194
      -1.226
      -1.235
      -1.238
      -1.242
      -1.233
      -1.182
      -1.063
      -0.864
      -0.595
      -0.283
       0.037
       0.319
       0.524
       0.625
       0.626
       0.550
       0.426
       0.273
       0.098
      -0.088
      -0.269
      -0.425
      -0.545
      -0.630
      -0.677
      -0.682
      -0.640
      -0.553
      -0.428
      -0.268
      -0.069
       0.174
       0.453
       0.744
       1.021
       1.272
       1.500
       1.704
       1.874
       1.991
       2.038
       2.008
       1.897
       1.704
       1.435
       1.112
       0.767
       0.437
       0.143
      -0.103
      -0.298
      -0.439
      -0.523
      -0.557
      -0.552
      -0.513
      -0.429
      -0.283
      -0.063
       0.218
       0.536
       0.859
       1.160
       1.419
       1.620
       1.757
       1.834
       1.850
       1.800
       1.670
       1.458
       1.171
       0.829
       0.443
       0.018
      -0.432
      -0.881
      -1.284
      -1.601
      -1.804
      -1.883
      -1.845
      -1.710
      -1.517
      -1.310
      -1.117
      -0.943
      -0.771
      -0.581
      -0.370
      -0.149
       0.064
       0.249
       0.384
       0.441
       0.391
       0.220
      -0.063
      -0.431
      -0.840
      -1.240
      -1.580
      -1.819
      -1.946
      -1.980
      -1.956
      -1.899
      -1.811
      -1.688
      -1.530
      -1.344
      -1.135
      -0.889
      -0.592
      -0.240
       0.145
       0.526
       0.860
       1.123
       1.311
       1.448
       1.573
       1.727
       1.920
       2.120
       2.269
       2.305
       2.195
       1.941
       1.571
       1.131
       0.669
       0.233
      -0.147
      -0.471
      -0.768
      -1.068
      -1.380
      -1.676
      -1.910
