Origin Time       28/5/2010 07:25:06	 UTC
Lat.              31.2 N	
Long.             77.9 E	
Depth (Km)         43.0
Magnitude         4.8
 Region           Himachal                                                         
 Above details taken from USGS
    
Station Code      Roo
Station Lat.       29.866  N
Station Long.      77.901  E
Station Height(m)  243.0
Site Class        C   Vs30 between 200 m/sec to 375 m/sec *  
Record Time       28.05.2010 07:23:38.604 UTC
Sampling Rate     200. Hz
 Record Duration   70.000 Sec.
 Direction         N-S (N positive)
Max. Acceleration      0.550 cm/sec**2
     
  * For reference see Site Classification link of website 
     
 Base Line Corrected and Low Pass Filtered (Cut Off at 35 Hz) Time History
 Acceleration data in cm/sec**2
    
[...]
       0.018
       0.025
       0.022
       0.014
       0.006
       0.001
       0.001
       0.003
       0.004
       0.001
      -0.005
      -0.014
      -0.022
      -0.026
      -0.027
      -0.023
      -0.016
      -0.009
      -0.002
       0.008
       0.023
       0.045
       0.069
       0.088
       0.094
       0.085
       0.066
       0.045
       0.027
       0.014
       0.003
      -0.009
      -0.023
      -0.040
      -0.058
      -0.072
      -0.073
      -0.060
      -0.038
      -0.016
      -0.004
      -0.003
      -0.010
      -0.019
      -0.022
      -0.015
       0.000
       0.019
       0.036
       0.047
       0.054
       0.061
       0.075
       0.095
       0.117
       0.132
       0.130
       0.113
       0.086
       0.058
       0.036
       0.020
       0.009
      -0.002
      -0.015
      -0.030
      -0.047
      -0.063
      -0.072
      -0.072
      -0.060
      -0.042
      -0.025
      -0.014
      -0.013
      -0.017
      -0.020
      -0.018
      -0.009
      -0.001
      -0.001
      -0.012
      -0.032
      -0.057
      -0.081
      -0.095
      -0.098
      -0.091
      -0.078
      -0.066
      -0.058
      -0.056
      -0.058
      -0.059
      -0.054
      -0.041
      -0.022
      -0.006
       0.003
       0.005
       0.006
       0.013
       0.027
       0.044
       0.056
       0.059
       0.052
       0.040
       0.028
       0.020
       0.021
       0.028
       0.033
       0.027
       0.006
      -0.023
      -0.049
      -0.062
      -0.061
      -0.049
      -0.036
      -0.027
      -0.024
      -0.023
      -0.020
      -0.009
       0.008
       0.032
       0.056
       0.075
       0.082
       0.079
       0.071
       0.064
       0.061
       0.060
       0.056
       0.047
       0.033
       0.012
      -0.012
      -0.036
      -0.056
      -0.070
      -0.075
      -0.075
      -0.072
      -0.069
      -0.065
      -0.056
      -0.038
      -0.014
       0.012
       0.034
       0.047
       0.047
       0.039
       0.029
       0.022
       0.020
       0.019
       0.016
       0.006
      -0.010
      -0.028
      -0.044
      -0.052
      -0.054
      -0.052
      -0.052
      -0.058
      -0.069
      -0.084
      -0.100
      -0.113
      -0.121
      -0.122
      -0.121
      -0.119
      -0.121
      -0.125
      -0.126
      -0.120
      -0.106
      -0.084
      -0.058
      -0.035
      -0.018
      -0.008
      -0.003
       0.003
       0.011
       0.020
       0.026
       0.027
       0.025
       0.025
       0.029
       0.037
       0.048
       0.059
       0.069
       0.075
       0.075
       0.069
       0.061
       0.055
       0.055
       0.062
       0.073
       0.080
       0.075
       0.059
       0.043
       0.036
       0.046
       0.069
       0.095
       0.115
       0.124
       0.126
       0.126
       0.132
       0.143
       0.158
       0.169
       0.173
       0.169
       0.157
       0.140
       0.121
       0.105
       0.097
       0.097
       0.103
       0.104
       0.097
       0.081
       0.063
       0.049
       0.044
       0.047
       0.052
       0.052
       0.043
       0.023
       0.000
      -0.020
      -0.034
      -0.041
      -0.047
      -0.054
      -0.065
      -0.078
      -0.090
      -0.095
      -0.092
      -0.080
      -0.064
      -0.051
      -0.051
      -0.067
      -0.093
      -0.118
      -0.133
      -0.137
      -0.138
      -0.143
      -0.153
      -0.167
      -0.178
      -0.182
      -0.176
      -0.158
      -0.131
      -0.103
      -0.082
      -0.072
      -0.069
      -0.063
      -0.048
      -0.022
       0.006
       0.029
       0.043
       0.048
       0.049
       0.050
       0.053
       0.060
       0.071
       0.081
       0.088
       0.083
       0.064
       0.033
       0.004
      -0.013
      -0.013
      -0.005
      -0.001
      -0.009
      -0.029
      -0.051
      -0.060
      -0.049
      -0.022
       0.010
       0.030
       0.032
       0.023
       0.012
       0.009
       0.017
       0.030
       0.044
       0.052
       0.055
       0.053
       0.047
       0.040
       0.036
       0.035
       0.029
       0.011
      -0.020
      -0.056
      -0.088
      -0.108
      -0.118
      -0.120
      -0.117
      -0.110
      -0.100
      -0.083
      -0.060
      -0.035
      -0.007
       0.026
       0.064
       0.104
       0.137
       0.157
       0.161
       0.158
       0.153
       0.149
       0.139
       0.118
       0.086
       0.049
       0.011
      -0.028
      -0.069
      -0.113
      -0.155
      -0.193
      -0.226
      -0.255
      -0.276
      -0.281
      -0.264
      -0.224
      -0.173
      -0.124
      -0.085
      -0.058
      -0.034
      -0.007
       0.021
       0.048
       0.071
       0.091
       0.108
       0.119
       0.121
       0.114
       0.104
       0.097
       0.093
       0.088
       0.077
       0.058
       0.031
       0.002
      -0.022
      -0.038
      -0.044
      -0.044
      -0.042
      -0.043
      -0.046
      -0.047
      -0.039
      -0.020
       0.007
       0.034
       0.056
       0.072
       0.087
       0.103
       0.123
       0.141
       0.152
       0.151
       0.135
       0.101
       0.054
       0.001
      -0.047
      -0.082
      -0.100
      -0.107
      -0.107
      -0.104
      -0.100
      -0.096
      -0.088
      -0.073
      -0.049
      -0.020
       0.010
       0.033
       0.046
       0.050
       0.048
       0.046
       0.049
       0.061
       0.076
       0.085
       0.082
       0.071
       0.057
       0.050
       0.049
       0.050
       0.046
       0.031
       0.006
      -0.019
      -0.034
      -0.031
      -0.012
       0.011
       0.025
       0.022
       0.004
      -0.019
      -0.035
      -0.038
      -0.031
      -0.019
      -0.009
      -0.004
      -0.004
      -0.005
      -0.004
       0.001
       0.011
       0.020
       0.024
       0.018
       0.000
      -0.024
      -0.044
      -0.053
      -0.049
      -0.034
      -0.019
      -0.011
      -0.015
      -0.027
      -0.040
      -0.042
      -0.032
      -0.017
      -0.007
      -0.010
      -0.028
      -0.052
      -0.073
      -0.087
      -0.093
      -0.090
      -0.082
      -0.072
      -0.065
      -0.065
      -0.069
      -0.067
      -0.053
      -0.028
      -0.001
       0.019
       0.028
       0.029
       0.028
       0.029
       0.034
       0.042
       0.048
       0.052
       0.052
       0.049
       0.046
       0.046
       0.050
       0.056
       0.058
       0.053
       0.041
       0.025
       0.008
      -0.012
      -0.036
      -0.064
      -0.091
      -0.110
      -0.120
      -0.126
      -0.133
      -0.141
      -0.143
      -0.131
      -0.103
      -0.065
      -0.031
      -0.010
      -0.004
      -0.004
       0.001
       0.017
       0.040
       0.059
       0.066
       0.057
       0.041
       0.028
       0.024
       0.031
       0.043
       0.054
       0.059
       0.058
       0.052
       0.045
       0.039
       0.032
       0.024
       0.009
      -0.013
      -0.041
      -0.068
      -0.089
      -0.099
      -0.098
      -0.087
      -0.069
      -0.049
      -0.033
      -0.025
      -0.025
      -0.023
      -0.009
       0.018
       0.052
       0.079
       0.092
       0.091
       0.088
       0.093
       0.109
       0.132
       0.155
       0.170
       0.176
       0.170
       0.156
       0.134
       0.108
       0.080
       0.055
       0.032
       0.008
      -0.022
      -0.059
      -0.096
      -0.123
      -0.135
      -0.136
      -0.137
      -0.144
      -0.156
      -0.170
      -0.179
      -0.182
      -0.176
      -0.160
      -0.135
      -0.105
      -0.078
      -0.061
      -0.050
      -0.038
      -0.015
       0.020
       0.059
       0.091
       0.109
       0.108
       0.094
       0.074
       0.058
       0.047
       0.041
       0.031
       0.016
      -0.004
      -0.025
      -0.041
      -0.051
      -0.057
      -0.059
      -0.054
      -0.043
      -0.029
      -0.021
      -0.018
      -0.016
      -0.006
       0.017
       0.044
       0.065
       0.071
       0.067
       0.063
       0.070
       0.087
       0.103
       0.105
       0.092
       0.069
       0.047
       0.032
       0.026
       0.028
       0.033
       0.035
       0.026
       0.005
      -0.021
      -0.048
      -0.070
      -0.087
      -0.102
      -0.120
      -0.145
      -0.178
      -0.216
      -0.254
      -0.285
      -0.307
      -0.317
      -0.317
      -0.311
      -0.297
      -0.276
      -0.246
      -0.208
      -0.165
      -0.122
      -0.084
      -0.054
      -0.033
      -0.015
       0.005
       0.034
       0.075
       0.127
       0.180
       0.224
       0.254
       0.271
       0.283
       0.300
       0.322
       0.344
       0.354
       0.347
       0.322
       0.285
       0.244
       0.203
       0.166
       0.132
       0.102
       0.077
       0.055
       0.033
       0.009
      -0.016
      -0.038
      -0.057
      -0.072
      -0.087
      -0.104
      -0.122
      -0.135
      -0.139
      -0.132
      -0.116
      -0.095
      -0.074
      -0.056
      -0.041
      -0.028
      -0.013
       0.006
       0.027
       0.046
       0.055
       0.050
       0.029
       0.002
      -0.020
      -0.031
      -0.030
      -0.026
      -0.025
      -0.029
      -0.037
      -0.043
      -0.044
      -0.039
      -0.033
      -0.027
      -0.024
      -0.021
      -0.018
      -0.012
      -0.005
       0.006
       0.021
       0.038
       0.055
       0.069
       0.081
       0.093
       0.108
       0.130
       0.159
       0.191
       0.216
       0.228
       0.223
       0.204
       0.178
       0.155
       0.138
       0.129
       0.119
       0.102
       0.073
       0.034
      -0.009
      -0.047
      -0.074
      -0.088
      -0.096
      -0.111
      -0.139
      -0.179
      -0.223
      -0.263
      -0.297
      -0.328
      -0.360
      -0.393
      -0.422
      -0.440
      -0.441
      -0.423
      -0.386
      -0.333
      -0.268
      -0.196
      -0.123
      -0.052
       0.018
       0.085
       0.148
       0.205
       0.252
       0.282
       0.288
       0.271
       0.237
       0.197
       0.160
       0.130
       0.104
       0.077
       0.045
       0.008
      -0.028
      -0.054
      -0.064
      -0.057
      -0.040
      -0.025
      -0.023
      -0.035
      -0.051
      -0.056
      -0.042
      -0.009
       0.033
       0.076
       0.115
       0.151
       0.183
       0.208
       0.226
       0.240
       0.254
       0.270
       0.284
       0.289
       0.282
       0.264
       0.238
       0.209
       0.181
       0.149
       0.108
       0.051
      -0.020
      -0.096
      -0.165
      -0.221
      -0.264
      -0.297
      -0.325
      -0.345
      -0.353
      -0.343
      -0.311
      -0.262
      -0.207
      -0.157
      -0.120
      -0.093
      -0.072
      -0.052
      -0.035
      -0.019
      -0.004
       0.014
       0.032
       0.049
       0.060
       0.066
       0.074
       0.089
       0.116
       0.149
       0.179
       0.197
       0.198
       0.186
       0.165
       0.144
       0.127
       0.116
       0.106
       0.089
       0.063
       0.030
       0.001
      -0.017
      -0.024
      -0.029
      -0.043
      -0.068
      -0.098
      -0.123
      -0.139
      -0.146
      -0.145
      -0.139
      -0.125
      -0.106
      -0.081
      -0.047
      -0.001
       0.061
       0.135
       0.213
       0.284
       0.340
       0.373
       0.384
       0.376
       0.353
       0.324
       0.289
       0.246
       0.188
       0.111
       0.019
      -0.074
      -0.155
      -0.218
      -0.265
      -0.300
      -0.325
      -0.341
      -0.345
      -0.340
      -0.325
      -0.300
      -0.266
      -0.225
      -0.183
      -0.142
      -0.106
      -0.075
      -0.043
      -0.010
       0.020
       0.039
       0.041
       0.031
       0.019
       0.011
       0.011
       0.013
       0.013
       0.005
      -0.012
      -0.043
      -0.091
      -0.153
      -0.221
      -0.283
      -0.327
      -0.348
      -0.343
      -0.315
      -0.269
      -0.213
      -0.149
      -0.078
       0.006
       0.103
       0.207
       0.305
       0.385
       0.438
       0.469
       0.485
       0.490
       0.483
       0.453
       0.398
       0.323
       0.244
       0.174
       0.122
       0.089
       0.069
       0.056
       0.043
       0.029
       0.019
       0.017
       0.028
       0.048
       0.072
       0.093
       0.113
       0.132
       0.154
       0.178
       0.199
       0.217
       0.228
       0.228
       0.215
       0.184
       0.135
       0.074
       0.008
      -0.061
      -0.130
      -0.199
      -0.266
      -0.326
      -0.374
      -0.405
      -0.415
      -0.405
      -0.381
      -0.351
      -0.324
      -0.302
      -0.281
      -0.258
      -0.233
      -0.213
      -0.205
      -0.213
      -0.231
      -0.253
      -0.271
      -0.282
      -0.285
      -0.276
      -0.251
      -0.210
      -0.157
      -0.099
      -0.041
       0.015
       0.072
       0.139
       0.218
       0.305
       0.390
       0.462
       0.514
       0.542
       0.550
       0.544
       0.528
       0.503
       0.469
       0.427
       0.380
       0.334
       0.295
       0.268
       0.254
       0.245
       0.231
       0.209
       0.178
       0.145
       0.115
       0.091
       0.072
       0.054
       0.032
       0.003
      -0.037
      -0.085
      -0.134
      -0.177
      -0.206
      -0.221
      -0.227
      -0.233
      -0.242
      -0.256
      -0.273
      -0.288
      -0.302
      -0.313
      -0.325
      -0.342
      -0.363
      -0.383
      -0.393
      -0.389
      -0.369
      -0.337
      -0.294
      -0.241
      -0.179
      -0.110
      -0.040
       0.025
       0.080
       0.120
       0.141
       0.143
       0.126
       0.092
       0.049
       0.006
      -0.031
      -0.057
      -0.076
      -0.093
      -0.109
      -0.118
      -0.110
      -0.083
      -0.042
       0.002
       0.045
       0.085
       0.122
       0.155
       0.183
       0.209
       0.236
       0.269
       0.305
       0.337
       0.353
       0.349
       0.327
       0.300
       0.276
       0.258
       0.236
       0.202
       0.148
       0.077
      -0.002
      -0.079
      -0.151
      -0.215
      -0.272
      -0.316
      -0.342
      -0.348
      -0.336
      -0.308
      -0.267
      -0.218
      -0.163
      -0.109
      -0.064
      -0.032
      -0.015
      -0.008
      -0.006
      -0.005
      -0.004
      -0.005
      -0.011
      -0.028
      -0.056
      -0.090
      -0.124
      -0.152
      -0.173
      -0.190
      -0.204
      -0.215
      -0.219
      -0.208
      -0.180
      -0.133
      -0.072
      -0.005
       0.062
       0.122
       0.171
       0.210
       0.246
       0.284
       0.324
       0.361
       0.384
       0.390
       0.382
       0.367
       0.351
       0.333
       0.305
       0.262
       0.206
       0.143
       0.079
       0.015
      -0.052
      -0.120
      -0.182
      -0.231
      -0.264
      -0.281
      -0.280
      -0.259
      -0.211
      -0.137
      -0.048
       0.038
       0.102
       0.140
       0.156
       0.161
       0.159
       0.154
       0.148
       0.142
       0.128
       0.098
       0.046
      -0.019
      -0.077
      -0.113
      -0.121
      -0.113
      -0.105
      -0.104
      -0.108
      -0.110
      -0.106
      -0.096
      -0.083
      -0.070
      -0.059
      -0.053
      -0.051
      -0.049
      -0.041
      -0.024
       0.003
       0.033
       0.060
       0.076
       0.074
       0.057
       0.030
       0.004
      -0.012
      -0.017
      -0.014
      -0.009
      -0.010
      -0.015
      -0.018
      -0.016
      -0.008
       0.001
       0.008
       0.010
       0.005
      -0.008
      -0.028
      -0.049
      -0.069
      -0.084
      -0.093
      -0.097
      -0.096
      -0.093
      -0.089
      -0.082
      -0.071
      -0.057
      -0.043
      -0.033
      -0.024
      -0.010
       0.012
       0.044
       0.081
       0.116
       0.146
       0.168
       0.179
       0.178
       0.168
       0.158
       0.156
       0.161
       0.166
       0.159
       0.135
       0.096
       0.051
       0.009
      -0.026
      -0.054
      -0.076
      -0.093
      -0.109
      -0.127
      -0.148
      -0.166
      -0.177
      -0.178
      -0.171
      -0.161
      -0.148
      -0.130
      -0.103
      -0.067
      -0.021
       0.038
       0.109
       0.187
       0.258
       0.310
       0.335
       0.335
       0.319
       0.294
       0.259
       0.208
       0.138
       0.053
      -0.033
      -0.107
      -0.163
      -0.201
      -0.224
      -0.239
      -0.249
      -0.257
      -0.263
      -0.263
      -0.253
      -0.234
      -0.208
      -0.181
      -0.159
      -0.147
      -0.144
      -0.147
      -0.147
      -0.140
      -0.127
      -0.111
      -0.096
      -0.082
      -0.067
      -0.047
      -0.019
       0.019
       0.067
       0.122
       0.178
       0.233
       0.282
       0.326
       0.363
       0.387
       0.393
       0.376
       0.335
       0.271
       0.189
       0.102
       0.024
      -0.034
      -0.074
      -0.104
      -0.134
      -0.166
      -0.195
      -0.213
      -0.219
      -0.213
      -0.200
      -0.185
      -0.172
      -0.163
      -0.157
      -0.154
      -0.149
      -0.133
      -0.103
      -0.060
      -0.010
       0.040
       0.088
       0.134
       0.177
       0.215
       0.246
       0.269
       0.287
       0.296
       0.293
       0.275
       0.245
       0.214
       0.188
       0.167
       0.140
       0.104
       0.062
       0.021
      -0.013
      -0.042
      -0.071
      -0.103
      -0.141
      -0.188
      -0.245
      -0.302
      -0.348
      -0.372
      -0.373
      -0.359
      -0.341
      -0.324
      -0.304
      -0.276
      -0.234
      -0.182
      -0.123
      -0.060
       0.006
       0.073
       0.134
       0.181
       0.209
       0.220
       0.222
       0.221
       0.217
       0.206
       0.187
       0.163
       0.144
       0.134
       0.135
       0.140
       0.144
       0.140
       0.127
       0.105
       0.078
       0.052
       0.028
       0.006
      -0.016
      -0.038
      -0.062
      -0.088
      -0.115
      -0.137
      -0.151
      -0.155
      -0.152
      -0.147
      -0.143
      -0.143
      -0.146
      -0.146
      -0.136
      -0.113
      -0.085
      -0.061
      -0.049
      -0.047
      -0.043
      -0.025
       0.012
       0.061
       0.106
       0.135
       0.142
       0.133
       0.111
       0.084
       0.055
       0.029
       0.007
      -0.016
      -0.043
      -0.078
      -0.115
      -0.146
      -0.164
      -0.165
      -0.151
      -0.126
      -0.098
      -0.073
