Origin Time       29/08/2013 10:13:21
Lat.              31.4 N	
Long.             76.1 E	
Depth (Km)         10.0
Magnitude         4.7
 Region           HIMACHAL-PUNJAB-(HOSHIARPUR)-BORDER                              
 Above details taken from IMD 
     
Station Code      ROO
Station Lat.       29.866  N
Station Long.      77.901  E
Station Height(m)  243.0
Site Class        C   Vs30 between 200 m/sec to 375 m/sec *  
Record Time       29.08.2013 10:13:35.449
Sampling Rate     200. Hz
 Record Duration  123.385 Sec.
 Direction         E-W (E positive)
Max. Acceleration      0.818 cm/sec**2
     
  * For reference see Site Classification link of website 
     
 Base Line Corrected and Low Pass Filtered (Cut Off at 35 Hz) Time History
 Acceleration data in cm/sec**2
    
[...]
      -0.066
      -0.049
      -0.031
      -0.012
       0.008
       0.028
       0.044
       0.052
       0.052
       0.048
       0.048
       0.055
       0.065
       0.072
       0.070
       0.060
       0.046
       0.036
       0.030
       0.027
       0.024
       0.021
       0.012
      -0.002
      -0.018
      -0.033
      -0.043
      -0.048
      -0.050
      -0.052
      -0.056
      -0.063
      -0.068
      -0.068
      -0.061
      -0.050
      -0.041
      -0.036
      -0.032
      -0.026
      -0.018
      -0.011
      -0.006
      -0.002
       0.002
       0.007
       0.014
       0.025
       0.037
       0.050
       0.061
       0.069
       0.076
       0.084
       0.090
       0.090
       0.083
       0.072
       0.065
       0.065
       0.067
       0.064
       0.054
       0.040
       0.029
       0.022
       0.017
       0.008
      -0.006
      -0.026
      -0.046
      -0.060
      -0.064
      -0.059
      -0.048
      -0.037
      -0.029
      -0.025
      -0.024
      -0.025
      -0.027
      -0.028
      -0.027
      -0.024
      -0.021
      -0.020
      -0.021
      -0.025
      -0.033
      -0.044
      -0.054
      -0.063
      -0.069
      -0.074
      -0.081
      -0.093
      -0.104
      -0.110
      -0.106
      -0.093
      -0.078
      -0.064
      -0.054
      -0.046
      -0.038
      -0.030
      -0.024
      -0.020
      -0.014
      -0.005
       0.006
       0.011
       0.008
      -0.003
      -0.012
      -0.011
       0.003
       0.020
       0.030
       0.024
       0.007
      -0.011
      -0.020
      -0.018
      -0.011
      -0.005
      -0.001
       0.006
       0.018
       0.033
       0.044
       0.051
       0.054
       0.061
       0.070
       0.077
       0.075
       0.066
       0.058
       0.059
       0.064
       0.065
       0.057
       0.041
       0.029
       0.024
       0.026
       0.026
       0.023
       0.018
       0.017
       0.020
       0.020
       0.011
      -0.007
      -0.020
      -0.018
       0.000
       0.022
       0.033
       0.027
       0.016
       0.014
       0.026
       0.039
       0.039
       0.019
      -0.010
      -0.031
      -0.037
      -0.036
      -0.039
      -0.052
      -0.065
      -0.066
      -0.052
      -0.032
      -0.018
      -0.014
      -0.017
      -0.019
      -0.015
      -0.010
      -0.010
      -0.018
      -0.028
      -0.035
      -0.039
      -0.043
      -0.047
      -0.047
      -0.041
      -0.026
      -0.009
       0.004
       0.005
      -0.004
      -0.015
      -0.021
      -0.019
      -0.016
      -0.020
      -0.036
      -0.057
      -0.070
      -0.070
      -0.060
      -0.048
      -0.039
      -0.029
      -0.017
      -0.002
       0.012
       0.020
       0.020
       0.012
       0.001
      -0.010
      -0.017
      -0.023
      -0.028
      -0.034
      -0.037
      -0.032
      -0.019
      -0.006
       0.002
       0.003
       0.001
      -0.001
      -0.001
       0.003
       0.008
       0.014
       0.019
       0.023
       0.030
       0.042
       0.059
       0.074
       0.083
       0.081
       0.066
       0.041
       0.013
      -0.011
      -0.029
      -0.041
      -0.051
      -0.062
      -0.077
      -0.090
      -0.096
      -0.090
      -0.074
      -0.055
      -0.042
      -0.044
      -0.055
      -0.066
      -0.067
      -0.055
      -0.039
      -0.027
      -0.023
      -0.023
      -0.024
      -0.029
      -0.039
      -0.055
      -0.070
      -0.077
      -0.075
      -0.070
      -0.067
      -0.070
      -0.075
      -0.073
      -0.060
      -0.038
      -0.020
      -0.016
      -0.022
      -0.027
      -0.018
       0.008
       0.038
       0.064
       0.080
       0.093
       0.110
       0.132
       0.154
       0.170
       0.178
       0.182
       0.189
       0.197
       0.199
       0.187
       0.164
       0.137
       0.117
       0.103
       0.089
       0.066
       0.033
      -0.002
      -0.028
      -0.039
      -0.038
      -0.032
      -0.025
      -0.017
      -0.002
       0.019
       0.043
       0.066
       0.085
       0.103
       0.117
       0.128
       0.132
       0.125
       0.111
       0.099
       0.096
       0.103
       0.114
       0.123
       0.126
       0.128
       0.134
       0.145
       0.160
       0.173
       0.182
       0.187
       0.191
       0.191
       0.186
       0.174
       0.156
       0.137
       0.115
       0.090
       0.063
       0.038
       0.018
       0.006
       0.001
      -0.001
      -0.006
      -0.013
      -0.021
      -0.029
      -0.039
      -0.056
      -0.080
      -0.109
      -0.134
      -0.150
      -0.160
      -0.172
      -0.188
      -0.204
      -0.212
      -0.214
      -0.216
      -0.224
      -0.239
      -0.252
      -0.259
      -0.261
      -0.264
      -0.273
      -0.289
      -0.305
      -0.316
      -0.321
      -0.325
      -0.334
      -0.351
      -0.373
      -0.399
      -0.426
      -0.453
      -0.476
      -0.494
      -0.507
      -0.516
      -0.521
      -0.520
      -0.510
      -0.487
      -0.454
      -0.418
      -0.384
      -0.355
      -0.327
      -0.298
      -0.264
      -0.228
      -0.190
      -0.151
      -0.113
      -0.074
      -0.033
       0.011
       0.053
       0.089
       0.115
       0.130
       0.139
       0.145
       0.152
       0.158
       0.162
       0.162
       0.156
       0.147
       0.137
       0.133
       0.137
       0.152
       0.172
       0.190
       0.197
       0.194
       0.189
       0.192
       0.207
       0.229
       0.249
       0.262
       0.272
       0.286
       0.307
       0.331
       0.353
       0.369
       0.380
       0.389
       0.394
       0.394
       0.390
       0.384
       0.378
       0.374
       0.368
       0.361
       0.354
       0.347
       0.339
       0.328
       0.313
       0.294
       0.275
       0.259
       0.245
       0.227
       0.207
       0.187
       0.173
       0.171
       0.177
       0.186
       0.194
       0.199
       0.202
       0.207
       0.214
       0.217
       0.216
       0.208
       0.194
       0.174
       0.147
       0.114
       0.078
       0.041
       0.009
      -0.018
      -0.043
      -0.066
      -0.087
      -0.105
      -0.117
      -0.125
      -0.133
      -0.143
      -0.158
      -0.180
      -0.205
      -0.230
      -0.252
      -0.268
      -0.280
      -0.293
      -0.308
      -0.321
      -0.328
      -0.324
      -0.307
      -0.277
      -0.241
      -0.209
      -0.184
      -0.164
      -0.139
      -0.108
      -0.078
      -0.061
      -0.062
      -0.079
      -0.098
      -0.111
      -0.115
      -0.113
      -0.107
      -0.095
      -0.075
      -0.053
      -0.036
      -0.032
      -0.039
      -0.049
      -0.052
      -0.048
      -0.049
      -0.064
      -0.097
      -0.136
      -0.163
      -0.171
      -0.165
      -0.157
      -0.156
      -0.162
      -0.169
      -0.168
      -0.160
      -0.149
      -0.140
      -0.133
      -0.125
      -0.114
      -0.102
      -0.097
      -0.103
      -0.116
      -0.127
      -0.128
      -0.121
      -0.108
      -0.097
      -0.087
      -0.077
      -0.060
      -0.033
      -0.001
       0.030
       0.054
       0.069
       0.079
       0.086
       0.092
       0.097
       0.098
       0.092
       0.078
       0.059
       0.041
       0.025
       0.009
      -0.012
      -0.034
      -0.049
      -0.048
      -0.033
      -0.012
       0.008
       0.027
       0.050
       0.079
       0.111
       0.139
       0.160
       0.176
       0.193
       0.215
       0.241
       0.268
       0.295
       0.322
       0.348
       0.370
       0.383
       0.381
       0.367
       0.345
       0.320
       0.292
       0.258
       0.212
       0.152
       0.081
       0.004
      -0.069
      -0.130
      -0.176
      -0.209
      -0.238
      -0.265
      -0.289
      -0.302
      -0.298
      -0.276
      -0.237
      -0.183
      -0.115
      -0.039
       0.039
       0.109
       0.169
       0.220
       0.263
       0.298
       0.324
       0.339
       0.341
       0.324
       0.287
       0.233
       0.170
       0.110
       0.060
       0.016
      -0.032
      -0.094
      -0.168
      -0.236
      -0.279
      -0.288
      -0.276
      -0.263
      -0.264
      -0.275
      -0.279
      -0.262
      -0.226
      -0.182
      -0.147
      -0.131
      -0.129
      -0.131
      -0.128
      -0.115
      -0.093
      -0.072
      -0.059
      -0.058
      -0.065
      -0.071
      -0.067
      -0.054
      -0.038
      -0.024
      -0.012
       0.004
       0.030
       0.068
       0.116
       0.167
       0.215
       0.252
       0.273
       0.283
       0.289
       0.295
       0.296
       0.281
       0.244
       0.193
       0.140
       0.095
       0.055
       0.011
      -0.045
      -0.110
      -0.167
      -0.202
      -0.207
      -0.189
      -0.161
      -0.129
      -0.093
      -0.049
       0.009
       0.079
       0.156
       0.228
       0.287
       0.331
       0.360
       0.379
       0.388
       0.383
       0.359
       0.319
       0.267
       0.214
       0.165
       0.123
       0.088
       0.052
       0.011
      -0.040
      -0.098
      -0.154
      -0.197
      -0.221
      -0.227
      -0.224
      -0.223
      -0.224
      -0.219
      -0.198
      -0.159
      -0.111
      -0.068
      -0.041
      -0.034
      -0.044
      -0.063
      -0.088
      -0.119
      -0.159
      -0.212
      -0.272
      -0.330
      -0.375
      -0.400
      -0.408
      -0.405
      -0.395
      -0.375
      -0.335
      -0.272
      -0.192
      -0.106
      -0.027
       0.040
       0.099
       0.151
       0.197
       0.233
       0.259
       0.274
       0.276
       0.265
       0.235
       0.186
       0.125
       0.064
       0.019
      -0.005
      -0.011
      -0.008
      -0.005
      -0.006
      -0.007
       0.003
       0.032
       0.078
       0.133
       0.184
       0.226
       0.259
       0.286
       0.308
       0.323
       0.325
       0.311
       0.281
       0.239
       0.190
       0.142
       0.096
       0.052
       0.009
      -0.035
      -0.075
      -0.107
      -0.124
      -0.123
      -0.110
      -0.094
      -0.086
      -0.085
      -0.082
      -0.069
      -0.044
      -0.012
       0.016
       0.036
       0.051
       0.065
       0.082
       0.098
       0.113
       0.124
       0.132
       0.138
       0.137
       0.128
       0.110
       0.082
       0.047
       0.003
      -0.050
      -0.108
      -0.166
      -0.218
      -0.261
      -0.296
      -0.324
      -0.344
      -0.355
      -0.355
      -0.347
      -0.336
      -0.327
      -0.322
      -0.318
      -0.312
      -0.298
      -0.275
      -0.242
      -0.206
      -0.174
      -0.152
      -0.136
      -0.118
      -0.090
      -0.049
       0.000
       0.047
       0.087
       0.115
       0.132
       0.142
       0.153
       0.170
       0.188
       0.197
       0.188
       0.161
       0.125
       0.090
       0.059
       0.024
      -0.025
      -0.085
      -0.145
      -0.197
      -0.234
      -0.263
      -0.290
      -0.319
      -0.348
      -0.372
      -0.385
      -0.380
      -0.359
      -0.327
      -0.294
      -0.264
      -0.232
      -0.193
      -0.142
      -0.080
      -0.012
       0.058
       0.129
       0.195
       0.254
       0.309
       0.362
       0.417
       0.467
       0.501
       0.508
       0.489
       0.457
       0.426
       0.404
       0.383
       0.349
       0.296
       0.233
       0.180
       0.151
       0.140
       0.134
       0.118
       0.092
       0.066
       0.049
       0.038
       0.026
       0.002
      -0.035
      -0.076
      -0.109
      -0.127
      -0.129
      -0.124
      -0.120
      -0.119
      -0.113
      -0.090
      -0.051
       0.000
       0.049
       0.089
       0.122
       0.156
       0.193
       0.231
       0.257
       0.265
       0.253
       0.231
       0.206
       0.178
       0.144
       0.101
       0.047
      -0.011
      -0.067
      -0.115
      -0.152
      -0.178
      -0.194
      -0.201
      -0.202
      -0.196
      -0.183
      -0.163
      -0.138
      -0.111
      -0.081
      -0.047
      -0.010
       0.030
       0.067
       0.099
       0.126
       0.153
       0.184
       0.216
       0.236
       0.232
       0.198
       0.141
       0.071
      -0.003
      -0.076
      -0.147
      -0.213
      -0.269
      -0.311
      -0.332
      -0.331
      -0.306
      -0.259
      -0.194
      -0.118
      -0.037
       0.044
       0.123
       0.198
       0.265
       0.317
       0.346
       0.351
       0.331
       0.292
       0.239
       0.175
       0.103
       0.021
      -0.071
      -0.170
      -0.268
      -0.356
      -0.424
      -0.471
      -0.500
      -0.517
      -0.523
      -0.521
      -0.510
      -0.492
      -0.469
      -0.445
      -0.422
      -0.402
      -0.380
      -0.351
      -0.314
      -0.271
      -0.229
      -0.194
      -0.166
      -0.142
      -0.116
      -0.088
      -0.060
      -0.034
      -0.007
       0.027
       0.076
       0.143
       0.227
       0.323
       0.425
       0.526
       0.621
       0.701
       0.763
       0.803
       0.818
       0.806
       0.765
       0.694
       0.596
       0.478
       0.350
       0.222
       0.102
      -0.008
      -0.108
      -0.196
      -0.271
      -0.331
      -0.373
      -0.395
      -0.397
      -0.383
      -0.361
      -0.337
      -0.314
      -0.293
      -0.268
      -0.237
      -0.196
      -0.149
      -0.104
      -0.071
      -0.050
      -0.036
      -0.018
       0.008
       0.038
       0.060
       0.063
       0.049
       0.029
       0.017
       0.015
       0.019
       0.016
       0.005
      -0.008
      -0.009
       0.009
       0.046
       0.091
       0.136
       0.177
       0.215
       0.245
       0.262
       0.258
       0.231
       0.187
       0.136
       0.084
       0.035
      -0.009
      -0.049
      -0.080
      -0.096
      -0.092
      -0.067
      -0.023
       0.033
       0.091
       0.143
       0.183
       0.211
       0.230
       0.240
       0.239
       0.222
       0.187
       0.139
       0.090
       0.051
       0.028
       0.016
       0.010
       0.005
       0.002
       0.004
       0.016
       0.032
       0.044
       0.044
       0.032
       0.011
      -0.011
      -0.036
      -0.068
      -0.113
      -0.173
      -0.240
      -0.301
      -0.345
      -0.367
      -0.375
      -0.378
      -0.378
      -0.369
      -0.342
      -0.294
      -0.233
      -0.178
      -0.136
      -0.104
      -0.070
      -0.021
       0.040
       0.105
       0.160
       0.196
       0.212
       0.213
       0.203
       0.184
       0.156
       0.119
       0.075
       0.029
      -0.016
      -0.058
      -0.093
      -0.117
      -0.127
      -0.124
      -0.113
      -0.100
      -0.089
      -0.078
      -0.066
      -0.046
      -0.021
       0.007
       0.033
       0.061
       0.095
       0.139
       0.184
       0.221
       0.245
       0.254
       0.255
       0.250
       0.241
       0.223
       0.192
       0.145
       0.088
       0.025
      -0.041
      -0.115
      -0.200
      -0.289
      -0.368
      -0.423
      -0.449
      -0.453
      -0.446
      -0.434
      -0.418
      -0.392
      -0.351
      -0.296
      -0.229
      -0.153
      -0.073
       0.004
       0.073
       0.135
       0.194
       0.252
       0.307
       0.354
       0.389
       0.409
       0.412
       0.400
       0.381
       0.357
       0.329
       0.291
       0.238
       0.175
       0.113
       0.060
       0.020
      -0.006
      -0.019
      -0.017
       0.000
       0.030
       0.068
       0.106
       0.137
       0.159
       0.176
       0.193
       0.214
       0.237
       0.259
       0.277
       0.291
       0.302
       0.307
       0.300
       0.281
       0.248
       0.205
       0.152
       0.095
       0.033
      -0.032
      -0.098
      -0.163
      -0.218
      -0.256
      -0.271
      -0.266
      -0.247
      -0.221
      -0.190
      -0.154
      -0.113
      -0.071
      -0.033
      -0.003
       0.013
       0.012
      -0.010
      -0.056
      -0.122
      -0.201
      -0.284
      -0.366
      -0.449
      -0.536
      -0.625
      -0.705
      -0.766
      -0.800
      -0.806
      -0.789
      -0.753
      -0.700
      -0.627
      -0.532
      -0.420
      -0.300
      -0.183
      -0.073
       0.030
       0.129
       0.223
       0.307
       0.373
       0.413
       0.425
       0.407
       0.366
       0.313
       0.257
       0.206
       0.159
       0.114
       0.073
       0.047
       0.043
       0.064
       0.105
       0.154
       0.204
       0.250
       0.293
       0.330
       0.356
       0.367
       0.360
       0.338
       0.305
       0.266
       0.221
       0.167
       0.104
       0.037
      -0.023
      -0.069
      -0.101
      -0.122
      -0.135
      -0.135
      -0.122
      -0.099
      -0.072
      -0.041
      -0.005
       0.039
       0.084
       0.122
       0.146
       0.161
       0.176
       0.201
       0.234
       0.271
       0.304
       0.329
       0.342
       0.341
       0.324
       0.291
       0.245
       0.188
       0.122
       0.047
      -0.034
      -0.113
      -0.183
      -0.235
      -0.265
      -0.270
      -0.251
      -0.211
      -0.156
      -0.093
      -0.027
       0.037
       0.092
       0.131
       0.148
       0.142
       0.118
       0.085
       0.048
       0.008
      -0.035
      -0.080
      -0.119
      -0.145
      -0.150
      -0.137
      -0.109
      -0.070
      -0.018
       0.047
       0.122
       0.192
       0.241
       0.260
       0.258
       0.243
       0.221
       0.186
       0.130
       0.053
      -0.038
      -0.133
      -0.221
      -0.297
      -0.361
      -0.409
      -0.441
      -0.456
      -0.456
      -0.443
      -0.420
      -0.391
      -0.357
      -0.323
      -0.292
      -0.268
      -0.252
      -0.239
      -0.224
      -0.203
      -0.182
      -0.166
      -0.154
      -0.141
      -0.124
      -0.102
      -0.077
      -0.052
      -0.025
       0.006
       0.039
       0.067
       0.085
       0.090
       0.089
       0.091
       0.106
       0.137
       0.181
       0.234
       0.293
       0.358
       0.426
       0.489
       0.540
       0.570
       0.574
       0.553
       0.510
       0.449
       0.375
       0.296
       0.220
       0.153
       0.099
       0.057
       0.025
       0.002
      -0.010
      -0.014
      -0.017
      -0.029
      -0.060
      -0.116
      -0.194
      -0.279
      -0.354
      -0.408
      -0.441
      -0.457
      -0.463
      -0.460
      -0.442
      -0.404
      -0.346
      -0.273
      -0.193
      -0.117
      -0.052
       0.001
       0.044
       0.081
       0.113
       0.134
       0.144
       0.147
