Origin Time       11/2/2013 10:48:55	
Lat.              31.0 N	
Long.             78.4 E	
Depth (Km)          5.0
Magnitude         4.3
 Region           UTTARKASHI-UTTARAKHAND                                           
 Above details taken from IMD 
     
Station Code      ROO
Station Lat.       29.866  N
Station Long.      77.901  E
Station Height(m)  243.0
Site Class        C   Vs30 between 200 m/sec to 375 m/sec *  
Record Time       11.02.2013 10:49:03.174
Sampling Rate     200. Hz
 Record Duration   90.100 Sec.
 Direction         E-W (E positive)
Max. Acceleration      0.437 cm/sec**2
     
  * For reference see Site Classification link of website 
     
 Base Line Corrected and Low Pass Filtered (Cut Off at 35 Hz) Time History
 Acceleration data in cm/sec**2
    
[...]
       0.017
       0.006
      -0.007
      -0.019
      -0.027
      -0.029
      -0.028
      -0.026
      -0.025
      -0.025
      -0.024
      -0.021
      -0.015
      -0.011
      -0.011
      -0.014
      -0.019
      -0.020
      -0.015
      -0.005
       0.005
       0.011
       0.012
       0.011
       0.011
       0.017
       0.026
       0.034
       0.039
       0.041
       0.039
       0.034
       0.028
       0.025
       0.022
       0.019
       0.014
       0.008
       0.004
       0.002
       0.000
      -0.003
      -0.006
      -0.006
      -0.006
      -0.009
      -0.015
      -0.023
      -0.029
      -0.030
      -0.027
      -0.025
      -0.023
      -0.021
      -0.022
      -0.025
      -0.028
      -0.030
      -0.027
      -0.022
      -0.014
      -0.007
      -0.001
       0.004
       0.007
       0.007
       0.004
      -0.001
      -0.006
      -0.008
      -0.008
      -0.008
      -0.010
      -0.016
      -0.026
      -0.037
      -0.049
      -0.060
      -0.069
      -0.074
      -0.075
      -0.075
      -0.074
      -0.070
      -0.062
      -0.048
      -0.032
      -0.019
      -0.009
      -0.001
       0.008
       0.022
       0.036
       0.045
       0.043
       0.031
       0.014
       0.000
      -0.007
      -0.011
      -0.016
      -0.026
      -0.036
      -0.040
      -0.035
      -0.021
      -0.004
       0.012
       0.022
       0.025
       0.020
       0.013
       0.006
      -0.001
      -0.006
      -0.010
      -0.010
      -0.006
       0.001
       0.009
       0.013
       0.015
       0.014
       0.012
       0.010
       0.007
       0.004
       0.001
      -0.002
      -0.007
      -0.014
      -0.021
      -0.029
      -0.036
      -0.043
      -0.047
      -0.045
      -0.037
      -0.025
      -0.012
       0.001
       0.017
       0.032
       0.044
       0.050
       0.051
       0.051
       0.055
       0.056
       0.047
       0.024
      -0.008
      -0.039
      -0.060
      -0.071
      -0.077
      -0.080
      -0.080
      -0.076
      -0.069
      -0.063
      -0.056
      -0.048
      -0.035
      -0.020
      -0.005
       0.008
       0.019
       0.028
       0.035
       0.038
       0.035
       0.027
       0.016
       0.006
       0.001
      -0.001
      -0.001
       0.001
       0.004
       0.011
       0.018
       0.021
       0.017
       0.010
       0.004
       0.003
       0.005
       0.007
       0.007
       0.007
       0.008
       0.008
       0.007
       0.002
      -0.005
      -0.010
      -0.011
      -0.008
      -0.003
      -0.001
      -0.003
      -0.007
      -0.010
      -0.011
      -0.011
      -0.013
      -0.020
      -0.030
      -0.042
      -0.051
      -0.050
      -0.041
      -0.026
      -0.010
       0.006
       0.020
       0.033
       0.043
       0.051
       0.056
       0.058
       0.054
       0.043
       0.026
       0.006
      -0.013
      -0.028
      -0.039
      -0.047
      -0.050
      -0.051
      -0.047
      -0.039
      -0.029
      -0.020
      -0.016
      -0.017
      -0.020
      -0.022
      -0.026
      -0.035
      -0.050
      -0.062
      -0.065
      -0.056
      -0.039
      -0.024
      -0.015
      -0.011
      -0.005
       0.004
       0.017
       0.029
       0.036
       0.038
       0.036
       0.036
       0.040
       0.045
       0.046
       0.041
       0.029
       0.013
      -0.002
      -0.014
      -0.023
      -0.030
      -0.035
      -0.035
      -0.029
      -0.019
      -0.010
      -0.007
      -0.011
      -0.023
      -0.039
      -0.054
      -0.066
      -0.070
      -0.065
      -0.053
      -0.041
      -0.036
      -0.038
      -0.041
      -0.039
      -0.028
      -0.012
       0.003
       0.015
       0.024
       0.030
       0.032
       0.030
       0.023
       0.015
       0.005
      -0.005
      -0.013
      -0.020
      -0.022
      -0.019
      -0.012
      -0.001
       0.012
       0.025
       0.039
       0.053
       0.068
       0.079
       0.083
       0.076
       0.058
       0.032
       0.005
      -0.017
      -0.033
      -0.040
      -0.042
      -0.040
      -0.037
      -0.037
      -0.038
      -0.038
      -0.034
      -0.025
      -0.014
      -0.008
      -0.008
      -0.015
      -0.024
      -0.034
      -0.043
      -0.051
      -0.055
      -0.050
      -0.036
      -0.015
       0.008
       0.028
       0.041
       0.046
       0.048
       0.049
       0.050
       0.046
       0.038
       0.026
       0.017
       0.014
       0.015
       0.019
       0.023
       0.029
       0.037
       0.046
       0.049
       0.045
       0.037
       0.032
       0.031
       0.031
       0.026
       0.014
      -0.002
      -0.017
      -0.026
      -0.027
      -0.023
      -0.018
      -0.014
      -0.014
      -0.016
      -0.016
      -0.011
      -0.003
       0.006
       0.012
       0.015
       0.015
       0.015
       0.015
       0.013
       0.009
       0.007
       0.006
       0.008
       0.013
       0.016
       0.017
       0.013
       0.005
      -0.007
      -0.019
      -0.031
      -0.043
      -0.054
      -0.065
      -0.074
      -0.083
      -0.091
      -0.099
      -0.104
      -0.107
      -0.106
      -0.102
      -0.095
      -0.087
      -0.076
      -0.060
      -0.042
      -0.024
      -0.009
       0.002
       0.011
       0.023
       0.037
       0.056
       0.075
       0.090
       0.100
       0.104
       0.103
       0.100
       0.094
       0.086
       0.075
       0.061
       0.044
       0.025
       0.008
      -0.005
      -0.014
      -0.021
      -0.027
      -0.031
      -0.032
      -0.031
      -0.030
      -0.027
      -0.021
      -0.009
       0.008
       0.028
       0.047
       0.060
       0.067
       0.070
       0.070
       0.070
       0.066
       0.057
       0.043
       0.028
       0.016
       0.007
       0.000
      -0.007
      -0.014
      -0.015
      -0.009
       0.005
       0.020
       0.030
       0.034
       0.032
       0.029
       0.029
       0.032
       0.037
       0.040
       0.039
       0.033
       0.025
       0.020
       0.019
       0.021
       0.018
       0.011
       0.002
      -0.004
      -0.005
      -0.001
       0.000
      -0.005
      -0.017
      -0.034
      -0.049
      -0.057
      -0.057
      -0.054
      -0.051
      -0.051
      -0.055
      -0.057
      -0.054
      -0.045
      -0.034
      -0.026
      -0.023
      -0.024
      -0.026
      -0.025
      -0.022
      -0.020
      -0.020
      -0.022
      -0.024
      -0.021
      -0.013
       0.001
       0.019
       0.036
       0.049
       0.055
       0.058
       0.061
       0.064
       0.064
       0.056
       0.044
       0.030
       0.020
       0.013
       0.007
       0.003
       0.004
       0.012
       0.027
       0.044
       0.056
       0.060
       0.054
       0.041
       0.025
       0.008
      -0.008
      -0.025
      -0.040
      -0.053
      -0.062
      -0.066
      -0.067
      -0.065
      -0.064
      -0.065
      -0.066
      -0.061
      -0.050
      -0.037
      -0.027
      -0.023
      -0.020
      -0.014
      -0.003
       0.007
       0.015
       0.020
       0.027
       0.037
       0.045
       0.046
       0.039
       0.029
       0.022
       0.024
       0.031
       0.040
       0.046
       0.048
       0.046
       0.041
       0.036
       0.031
       0.026
       0.021
       0.017
       0.014
       0.012
       0.009
       0.002
      -0.010
      -0.023
      -0.032
      -0.037
      -0.039
      -0.043
      -0.048
      -0.052
      -0.053
      -0.052
      -0.051
      -0.050
      -0.049
      -0.047
      -0.046
      -0.045
      -0.042
      -0.031
      -0.013
       0.007
       0.022
       0.026
       0.022
       0.019
       0.020
       0.024
       0.026
       0.021
       0.010
      -0.002
      -0.011
      -0.016
      -0.021
      -0.026
      -0.031
      -0.031
      -0.023
      -0.008
       0.009
       0.026
       0.038
       0.047
       0.054
       0.061
       0.067
       0.070
       0.070
       0.068
       0.063
       0.058
       0.054
       0.054
       0.061
       0.073
       0.089
       0.103
       0.108
       0.104
       0.094
       0.081
       0.066
       0.050
       0.029
       0.005
      -0.020
      -0.044
      -0.067
      -0.086
      -0.098
      -0.099
      -0.088
      -0.070
      -0.055
      -0.048
      -0.046
      -0.046
      -0.045
      -0.042
      -0.042
      -0.045
      -0.051
      -0.053
      -0.049
      -0.042
      -0.038
      -0.038
      -0.038
      -0.034
      -0.023
      -0.010
       0.002
       0.013
       0.023
       0.031
       0.032
       0.026
       0.016
       0.009
       0.007
       0.011
       0.016
       0.017
       0.012
       0.002
      -0.010
      -0.021
      -0.029
      -0.034
      -0.033
      -0.026
      -0.011
       0.007
       0.025
       0.039
       0.047
       0.054
       0.063
       0.071
       0.074
       0.068
       0.057
       0.048
       0.043
       0.039
       0.032
       0.021
       0.011
       0.008
       0.011
       0.016
       0.016
       0.011
       0.002
      -0.007
      -0.015
      -0.021
      -0.024
      -0.025
      -0.025
      -0.023
      -0.021
      -0.017
      -0.015
      -0.016
      -0.019
      -0.019
      -0.016
      -0.010
      -0.006
      -0.006
      -0.006
      -0.004
       0.003
       0.012
       0.020
       0.025
       0.028
       0.031
       0.037
       0.046
       0.058
       0.074
       0.094
       0.118
       0.144
       0.166
       0.181
       0.187
       0.188
       0.183
       0.174
       0.160
       0.144
       0.125
       0.106
       0.088
       0.071
       0.054
       0.037
       0.018
      -0.002
      -0.023
      -0.043
      -0.059
      -0.068
      -0.071
      -0.070
      -0.067
      -0.065
      -0.064
      -0.060
      -0.054
      -0.047
      -0.042
      -0.039
      -0.038
      -0.035
      -0.027
      -0.016
      -0.007
      -0.003
      -0.006
      -0.014
      -0.026
      -0.042
      -0.063
      -0.084
      -0.100
      -0.112
      -0.118
      -0.121
      -0.120
      -0.116
      -0.107
      -0.098
      -0.093
      -0.095
      -0.098
      -0.095
      -0.083
      -0.064
      -0.046
      -0.036
      -0.032
      -0.030
      -0.022
      -0.006
       0.015
       0.034
       0.047
       0.055
       0.063
       0.076
       0.091
       0.104
       0.110
       0.110
       0.108
       0.105
       0.100
       0.089
       0.073
       0.054
       0.038
       0.024
       0.010
      -0.007
      -0.028
      -0.053
      -0.080
      -0.106
      -0.132
      -0.155
      -0.177
      -0.194
      -0.207
      -0.220
      -0.235
      -0.252
      -0.265
      -0.269
      -0.264
      -0.258
      -0.254
      -0.250
      -0.242
      -0.226
      -0.205
      -0.186
      -0.176
      -0.174
      -0.176
      -0.173
      -0.163
      -0.147
      -0.131
      -0.117
      -0.098
      -0.070
      -0.035
       0.002
       0.033
       0.056
       0.075
       0.097
       0.123
       0.146
       0.162
       0.167
       0.167
       0.165
       0.162
       0.155
       0.143
       0.125
       0.105
       0.087
       0.072
       0.059
       0.044
       0.030
       0.022
       0.024
       0.036
       0.050
       0.063
       0.072
       0.077
       0.080
       0.081
       0.079
       0.075
       0.073
       0.074
       0.082
       0.094
       0.109
       0.124
       0.139
       0.154
       0.171
       0.190
       0.208
       0.220
       0.225
       0.225
       0.223
       0.223
       0.225
       0.230
       0.236
       0.240
       0.239
       0.234
       0.228
       0.222
       0.220
       0.219
       0.219
       0.217
       0.210
       0.197
       0.179
       0.159
       0.139
       0.119
       0.098
       0.073
       0.048
       0.030
       0.024
       0.031
       0.043
       0.050
       0.045
       0.029
       0.008
      -0.015
      -0.037
      -0.061
      -0.088
      -0.120
      -0.157
      -0.197
      -0.235
      -0.265
      -0.283
      -0.290
      -0.290
      -0.288
      -0.283
      -0.275
      -0.265
      -0.257
      -0.253
      -0.254
      -0.255
      -0.252
      -0.248
      -0.246
      -0.250
      -0.257
      -0.261
      -0.257
      -0.249
      -0.241
      -0.239
      -0.241
      -0.242
      -0.240
      -0.236
      -0.235
      -0.238
      -0.239
      -0.230
      -0.208
      -0.175
      -0.143
      -0.117
      -0.097
      -0.078
      -0.058
      -0.038
      -0.022
      -0.009
       0.003
       0.018
       0.033
       0.047
       0.058
       0.066
       0.071
       0.070
       0.064
       0.051
       0.038
       0.027
       0.018
       0.006
      -0.016
      -0.048
      -0.087
      -0.125
      -0.156
      -0.175
      -0.177
      -0.160
      -0.132
      -0.099
      -0.069
      -0.042
      -0.017
       0.011
       0.040
       0.066
       0.086
       0.103
       0.122
       0.147
       0.175
       0.203
       0.230
       0.256
       0.283
       0.311
       0.338
       0.363
       0.384
       0.403
       0.418
       0.430
       0.437
       0.434
       0.421
       0.401
       0.381
       0.366
       0.355
       0.344
       0.326
       0.296
       0.259
       0.221
       0.185
       0.155
       0.128
       0.104
       0.079
       0.050
       0.020
      -0.010
      -0.034
      -0.053
      -0.070
      -0.090
      -0.116
      -0.146
      -0.175
      -0.200
      -0.219
      -0.229
      -0.235
      -0.236
      -0.236
      -0.234
      -0.230
      -0.225
      -0.223
      -0.227
      -0.237
      -0.248
      -0.255
      -0.257
      -0.260
      -0.266
      -0.272
      -0.269
      -0.252
      -0.224
      -0.192
      -0.163
      -0.137
      -0.113
      -0.087
      -0.055
      -0.018
       0.022
       0.059
       0.089
       0.112
       0.133
       0.157
       0.182
       0.203
       0.218
       0.229
       0.240
       0.251
       0.261
       0.268
       0.268
       0.261
       0.245
       0.220
       0.187
       0.148
       0.112
       0.083
       0.063
       0.050
       0.036
       0.016
      -0.010
      -0.037
      -0.061
      -0.081
      -0.101
      -0.122
      -0.143
      -0.164
      -0.181
      -0.196
      -0.207
      -0.216
      -0.227
      -0.244
      -0.268
      -0.296
      -0.320
      -0.338
      -0.350
      -0.356
      -0.354
      -0.338
      -0.309
      -0.271
      -0.236
      -0.208
      -0.186
      -0.160
      -0.127
      -0.086
      -0.045
      -0.008
       0.024
       0.055
       0.087
       0.122
       0.157
       0.195
       0.235
       0.278
       0.321
       0.361
       0.391
       0.405
       0.400
       0.379
       0.347
       0.310
       0.272
       0.234
       0.196
       0.161
       0.135
       0.119
       0.113
       0.112
       0.109
       0.102
       0.094
       0.088
       0.089
       0.099
       0.114
       0.131
       0.143
       0.149
       0.150
       0.147
       0.140
       0.125
       0.103
       0.075
       0.040
       0.000
      -0.045
      -0.095
      -0.145
      -0.193
      -0.235
      -0.268
      -0.293
      -0.312
      -0.327
      -0.339
      -0.348
      -0.351
      -0.346
      -0.333
      -0.316
      -0.294
      -0.270
      -0.241
      -0.207
      -0.168
      -0.126
      -0.084
      -0.046
      -0.012
       0.014
       0.036
       0.054
       0.070
       0.082
       0.085
       0.077
       0.061
       0.042
       0.024
       0.009
      -0.004
      -0.016
      -0.028
      -0.038
      -0.044
      -0.043
      -0.032
      -0.017
      -0.005
       0.000
      -0.003
      -0.006
      -0.004
       0.005
       0.016
       0.022
       0.019
       0.005
      -0.016
      -0.038
      -0.054
      -0.061
      -0.059
      -0.048
      -0.031
      -0.011
       0.008
       0.025
       0.044
       0.069
       0.099
       0.128
       0.149
       0.159
       0.161
       0.161
       0.162
       0.168
       0.175
       0.182
       0.187
       0.189
       0.190
       0.187
       0.181
       0.170
       0.154
       0.130
       0.096
       0.054
       0.011
      -0.029
      -0.061
      -0.088
      -0.112
      -0.131
      -0.143
      -0.146
      -0.139
      -0.126
      -0.109
      -0.089
      -0.065
      -0.038
      -0.009
       0.022
       0.053
       0.081
       0.107
       0.126
       0.140
       0.148
       0.150
       0.145
       0.134
       0.115
       0.091
       0.059
       0.020
      -0.024
      -0.067
      -0.102
      -0.128
      -0.148
      -0.166
      -0.183
      -0.198
      -0.207
      -0.211
      -0.213
      -0.218
      -0.225
      -0.232
      -0.234
      -0.230
      -0.220
      -0.207
      -0.192
      -0.174
      -0.152
      -0.126
      -0.096
      -0.064
      -0.034
      -0.005
       0.022
       0.045
       0.057
       0.053
       0.036
       0.015
       0.000
      -0.002
       0.007
       0.019
       0.031
       0.041
       0.049
       0.052
       0.049
       0.041
       0.031
       0.021
       0.008
      -0.009
      -0.032
      -0.055
      -0.069
      -0.071
      -0.061
      -0.047
      -0.036
      -0.030
      -0.027
      -0.019
      -0.004
       0.017
       0.042
       0.068
       0.093
       0.116
       0.137
       0.152
       0.161
       0.161
       0.152
       0.137
       0.114
       0.088
       0.061
       0.038
       0.021
       0.012
       0.006
       0.001
      -0.006
      -0.012
      -0.015
      -0.014
      -0.011
      -0.008
      -0.005
       0.004
       0.022
       0.047
       0.075
       0.097
       0.112
       0.122
       0.129
       0.133
       0.125
       0.103
       0.066
       0.021
      -0.026
      -0.072
      -0.116
      -0.163
      -0.212
      -0.258
      -0.296
      -0.321
      -0.332
      -0.330
      -0.319
      -0.300
      -0.275
      -0.242
      -0.200
      -0.148
      -0.089
      -0.025
       0.041
       0.105
       0.170
       0.235
       0.296
       0.347
       0.384
       0.404
       0.409
       0.398
       0.370
       0.325
       0.268
       0.204
       0.142
       0.082
       0.027
      -0.021
      -0.056
      -0.074
      -0.074
      -0.060
      -0.035
      -0.005
       0.028
       0.059
       0.085
       0.105
       0.121
       0.134
       0.146
       0.152
       0.149
       0.134
       0.105
       0.064
       0.014
      -0.040
      -0.096
      -0.155
      -0.212
      -0.265
      -0.309
      -0.342
      -0.363
      -0.371
      -0.363
      -0.340
      -0.303
      -0.258
      -0.208
      -0.157
      -0.104
      -0.050
       0.005
       0.056
       0.098
       0.124
       0.136
       0.132
       0.116
