Origin Time       18/01/2011 20:23:27
Lat.              28.9 N	
Long.             64.0 E	
Depth (Km)          5.0
Magnitude         7.4
 Region           Southwestern-Pakistan                                            
 Above details taken from IMD 
     
Station Code      Roo
Station Lat.       29.866  N
Station Long.      77.901  E
Station Height(m)  243.0
Site Class        C   Vs30 between 200 m/sec to 375 m/sec *  
Record Time       18.01.2011 20:27:54.384
Sampling Rate     200. Hz
 Record Duration  246.660 Sec.
 Direction         E-W (E positive)
Max. Acceleration      1.643 cm/sec**2
     
  * For reference see Site Classification link of website 
     
 Base Line Corrected and Low Pass Filtered (Cut Off at 35 Hz) Time History
 Acceleration data in cm/sec**2
    
[...]
       0.086
       0.075
       0.067
       0.062
       0.060
       0.060
       0.061
       0.065
       0.072
       0.086
       0.106
       0.129
       0.153
       0.179
       0.207
       0.241
       0.279
       0.318
       0.357
       0.395
       0.435
       0.473
       0.507
       0.537
       0.565
       0.592
       0.619
       0.643
       0.662
       0.672
       0.676
       0.675
       0.670
       0.661
       0.646
       0.628
       0.604
       0.576
       0.542
       0.504
       0.462
       0.416
       0.368
       0.318
       0.265
       0.210
       0.154
       0.099
       0.044
      -0.007
      -0.054
      -0.094
      -0.127
      -0.158
      -0.188
      -0.219
      -0.247
      -0.268
      -0.281
      -0.287
      -0.291
      -0.295
      -0.299
      -0.304
      -0.306
      -0.307
      -0.305
      -0.304
      -0.309
      -0.321
      -0.338
      -0.356
      -0.372
      -0.390
      -0.417
      -0.455
      -0.499
      -0.542
      -0.580
      -0.613
      -0.646
      -0.681
      -0.720
      -0.761
      -0.800
      -0.836
      -0.868
      -0.899
      -0.931
      -0.962
      -0.990
      -1.014
      -1.030
      -1.038
      -1.037
      -1.033
      -1.029
      -1.027
      -1.024
      -1.015
      -0.992
      -0.953
      -0.900
      -0.845
      -0.793
      -0.747
      -0.701
      -0.648
      -0.586
      -0.520
      -0.457
      -0.400
      -0.347
      -0.298
      -0.253
      -0.216
      -0.187
      -0.165
      -0.145
      -0.127
      -0.111
      -0.100
      -0.096
      -0.097
      -0.097
      -0.093
      -0.084
      -0.071
      -0.057
      -0.042
      -0.028
      -0.011
       0.008
       0.026
       0.041
       0.053
       0.064
       0.079
       0.094
       0.109
       0.119
       0.125
       0.128
       0.130
       0.128
       0.123
       0.115
       0.108
       0.103
       0.099
       0.094
       0.086
       0.077
       0.070
       0.070
       0.075
       0.085
       0.096
       0.110
       0.127
       0.146
       0.169
       0.193
       0.218
       0.247
       0.275
       0.301
       0.318
       0.326
       0.327
       0.324
       0.316
       0.302
       0.281
       0.257
       0.232
       0.204
       0.172
       0.132
       0.085
       0.036
      -0.011
      -0.052
      -0.090
      -0.124
      -0.156
      -0.184
      -0.208
      -0.228
      -0.241
      -0.243
      -0.234
      -0.216
      -0.192
      -0.165
      -0.133
      -0.095
      -0.051
      -0.005
       0.038
       0.077
       0.113
       0.143
       0.163
       0.169
       0.164
       0.149
       0.126
       0.090
       0.036
      -0.032
      -0.105
      -0.173
      -0.234
      -0.290
      -0.347
      -0.405
      -0.460
      -0.505
      -0.536
      -0.554
      -0.559
      -0.550
      -0.524
      -0.482
      -0.428
      -0.368
      -0.306
      -0.238
      -0.163
      -0.082
       0.000
       0.079
       0.152
       0.221
       0.289
       0.353
       0.411
       0.458
       0.490
       0.506
       0.511
       0.509
       0.505
       0.497
       0.481
       0.456
       0.423
       0.386
       0.350
       0.318
       0.288
       0.262
       0.240
       0.220
       0.202
       0.183
       0.164
       0.143
       0.120
       0.093
       0.060
       0.020
      -0.024
      -0.070
      -0.117
      -0.165
      -0.214
      -0.262
      -0.302
      -0.332
      -0.354
      -0.373
      -0.390
      -0.404
      -0.410
      -0.403
      -0.382
      -0.351
      -0.314
      -0.273
      -0.224
      -0.168
      -0.106
      -0.046
       0.009
       0.059
       0.111
       0.168
       0.230
       0.291
       0.346
       0.393
       0.432
       0.466
       0.495
       0.520
       0.539
       0.548
       0.550
       0.545
       0.539
       0.534
       0.531
       0.527
       0.523
       0.520
       0.516
       0.513
       0.509
       0.506
       0.502
       0.498
       0.493
       0.484
       0.468
       0.444
       0.415
       0.384
       0.352
       0.320
       0.288
       0.253
       0.217
       0.183
       0.153
       0.126
       0.099
       0.069
       0.035
       0.002
      -0.026
      -0.047
      -0.063
      -0.081
      -0.103
      -0.125
      -0.143
      -0.155
      -0.162
      -0.170
      -0.180
      -0.190
      -0.196
      -0.195
      -0.188
      -0.178
      -0.171
      -0.168
      -0.165
      -0.156
      -0.138
      -0.115
      -0.091
      -0.070
      -0.050
      -0.026
       0.006
       0.045
       0.087
       0.126
       0.161
       0.195
       0.229
       0.260
       0.284
       0.297
       0.301
       0.299
       0.294
       0.283
       0.260
       0.221
       0.169
       0.108
       0.040
      -0.031
      -0.102
      -0.172
      -0.240
      -0.306
      -0.368
      -0.422
      -0.465
      -0.495
      -0.520
      -0.544
      -0.569
      -0.591
      -0.603
      -0.606
      -0.606
      -0.609
      -0.615
      -0.621
      -0.619
      -0.606
      -0.584
      -0.557
      -0.526
      -0.493
      -0.458
      -0.416
      -0.369
      -0.315
      -0.259
      -0.203
      -0.151
      -0.098
      -0.043
       0.017
       0.081
       0.146
       0.206
       0.259
       0.307
       0.351
       0.391
       0.422
       0.443
       0.453
       0.454
       0.448
       0.436
       0.416
       0.390
       0.357
       0.321
       0.285
       0.251
       0.217
       0.183
       0.150
       0.120
       0.098
       0.085
       0.083
       0.091
       0.107
       0.131
       0.160
       0.193
       0.231
       0.274
       0.325
       0.382
       0.438
       0.487
       0.530
       0.567
       0.604
       0.639
       0.669
       0.690
       0.700
       0.700
       0.691
       0.674
       0.649
       0.617
       0.579
       0.535
       0.487
       0.438
       0.388
       0.336
       0.285
       0.234
       0.186
       0.144
       0.108
       0.080
       0.057
       0.036
       0.015
      -0.004
      -0.018
      -0.021
      -0.014
       0.005
       0.031
       0.066
       0.110
       0.163
       0.225
       0.295
       0.368
       0.441
       0.510
       0.571
       0.624
       0.667
       0.696
       0.707
       0.698
       0.674
       0.640
       0.598
       0.548
       0.489
       0.421
       0.347
       0.271
       0.195
       0.124
       0.056
      -0.007
      -0.067
      -0.124
      -0.176
      -0.225
      -0.272
      -0.317
      -0.362
      -0.408
      -0.456
      -0.506
      -0.553
      -0.594
      -0.626
      -0.654
      -0.682
      -0.710
      -0.735
      -0.754
      -0.769
      -0.780
      -0.788
      -0.794
      -0.794
      -0.787
      -0.773
      -0.753
      -0.729
      -0.700
      -0.667
      -0.631
      -0.597
      -0.566
      -0.540
      -0.518
      -0.500
      -0.488
      -0.483
      -0.484
      -0.487
      -0.492
      -0.500
      -0.517
      -0.544
      -0.577
      -0.610
      -0.638
      -0.659
      -0.673
      -0.683
      -0.690
      -0.698
      -0.707
      -0.718
      -0.733
      -0.751
      -0.773
      -0.797
      -0.822
      -0.846
      -0.873
      -0.900
      -0.925
      -0.944
      -0.955
      -0.958
      -0.952
      -0.937
      -0.913
      -0.879
      -0.836
      -0.783
      -0.719
      -0.644
      -0.561
      -0.471
      -0.376
      -0.276
      -0.174
      -0.070
       0.031
       0.128
       0.219
       0.303
       0.377
       0.437
       0.482
       0.512
       0.528
       0.530
       0.521
       0.502
       0.476
       0.445
       0.410
       0.374
       0.340
       0.307
       0.278
       0.252
       0.232
       0.219
       0.213
       0.216
       0.230
       0.256
       0.291
       0.331
       0.368
       0.400
       0.426
       0.445
       0.458
       0.462
       0.456
       0.440
       0.416
       0.385
       0.346
       0.301
       0.253
       0.205
       0.163
       0.131
       0.112
       0.100
       0.091
       0.080
       0.070
       0.066
       0.074
       0.090
       0.108
       0.120
       0.125
       0.127
       0.131
       0.139
       0.151
       0.162
       0.171
       0.177
       0.184
       0.193
       0.205
       0.219
       0.235
       0.254
       0.278
       0.308
       0.343
       0.380
       0.418
       0.456
       0.491
       0.522
       0.549
       0.571
       0.586
       0.594
       0.593
       0.582
       0.564
       0.541
       0.515
       0.487
       0.456
       0.422
       0.388
       0.355
       0.327
       0.304
       0.287
       0.273
       0.259
       0.238
       0.209
       0.173
       0.133
       0.089
       0.038
      -0.021
      -0.088
      -0.159
      -0.229
      -0.295
      -0.361
      -0.429
      -0.498
      -0.567
      -0.633
      -0.692
      -0.744
      -0.785
      -0.813
      -0.827
      -0.826
      -0.812
      -0.786
      -0.751
      -0.706
      -0.655
      -0.596
      -0.533
      -0.467
      -0.401
      -0.338
      -0.282
      -0.231
      -0.183
      -0.133
      -0.082
      -0.034
       0.005
       0.033
       0.053
       0.073
       0.096
       0.120
       0.141
       0.158
       0.173
       0.190
       0.211
       0.233
       0.251
       0.263
       0.268
       0.271
       0.275
       0.278
       0.274
       0.261
       0.239
       0.214
       0.193
       0.178
       0.170
       0.165
       0.163
       0.166
       0.175
       0.190
       0.212
       0.237
       0.267
       0.302
       0.346
       0.400
       0.463
       0.532
       0.604
       0.675
       0.743
       0.807
       0.867
       0.923
       0.975
       1.019
       1.052
       1.069
       1.070
       1.060
       1.042
       1.021
       0.996
       0.966
       0.932
       0.892
       0.847
       0.799
       0.746
       0.691
       0.632
       0.568
       0.496
       0.417
       0.332
       0.243
       0.155
       0.069
      -0.014
      -0.094
      -0.173
      -0.248
      -0.317
      -0.375
      -0.420
      -0.454
      -0.476
      -0.485
      -0.479
      -0.458
      -0.422
      -0.370
      -0.301
      -0.217
      -0.121
      -0.014
       0.101
       0.224
       0.350
       0.472
       0.582
       0.673
       0.743
       0.796
       0.832
       0.850
       0.844
       0.811
       0.753
       0.674
       0.582
       0.476
       0.357
       0.228
       0.096
      -0.033
      -0.155
      -0.270
      -0.375
      -0.469
      -0.546
      -0.607
      -0.654
      -0.690
      -0.714
      -0.726
      -0.727
      -0.724
      -0.720
      -0.715
      -0.707
      -0.696
      -0.686
      -0.680
      -0.681
      -0.687
      -0.695
      -0.703
      -0.708
      -0.712
      -0.716
      -0.722
      -0.731
      -0.741
      -0.748
      -0.750
      -0.744
      -0.734
      -0.725
      -0.721
      -0.718
      -0.711
      -0.697
      -0.680
      -0.665
      -0.655
      -0.649
      -0.641
      -0.633
      -0.629
      -0.635
      -0.652
      -0.676
      -0.707
      -0.742
      -0.780
      -0.817
      -0.852
      -0.886
      -0.924
      -0.966
      -1.011
      -1.049
      -1.074
      -1.086
      -1.089
      -1.086
      -1.078
      -1.063
      -1.037
      -1.002
      -0.959
      -0.910
      -0.857
      -0.802
      -0.748
      -0.699
      -0.654
      -0.615
      -0.578
      -0.544
      -0.514
      -0.487
      -0.468
      -0.454
      -0.444
      -0.436
      -0.430
      -0.429
      -0.435
      -0.448
      -0.465
      -0.486
      -0.507
      -0.529
      -0.548
      -0.565
      -0.581
      -0.598
      -0.615
      -0.632
      -0.643
      -0.650
      -0.653
      -0.657
      -0.661
      -0.667
      -0.672
      -0.674
      -0.672
      -0.669
      -0.668
      -0.671
      -0.679
      -0.686
      -0.688
      -0.680
      -0.663
      -0.640
      -0.616
      -0.591
      -0.565
      -0.535
      -0.503
      -0.467
      -0.430
      -0.391
      -0.348
      -0.304
      -0.261
      -0.219
      -0.179
      -0.138
      -0.092
      -0.041
       0.016
       0.073
       0.128
       0.178
       0.219
       0.250
       0.269
       0.276
       0.274
       0.267
       0.257
       0.248
       0.237
       0.223
       0.207
       0.190
       0.181
       0.183
       0.198
       0.222
       0.253
       0.287
       0.329
       0.378
       0.435
       0.497
       0.561
       0.625
       0.683
       0.735
       0.776
       0.805
       0.819
       0.816
       0.797
       0.763
       0.716
       0.653
       0.575
       0.485
       0.388
       0.289
       0.192
       0.097
       0.006
      -0.077
      -0.147
      -0.202
      -0.244
      -0.273
      -0.293
      -0.305
      -0.307
      -0.295
      -0.269
      -0.230
      -0.180
      -0.120
      -0.051
       0.026
       0.109
       0.194
       0.278
       0.363
       0.452
       0.542
       0.633
       0.724
       0.818
       0.915
       1.017
       1.118
       1.212
       1.300
       1.383
       1.461
       1.531
       1.588
       1.625
       1.643
       1.643
       1.627
       1.596
       1.553
       1.498
       1.436
       1.367
       1.294
       1.219
       1.142
       1.067
       0.993
       0.924
       0.863
       0.810
       0.766
       0.729
       0.696
       0.668
       0.645
       0.628
       0.614
       0.599
       0.580
       0.559
       0.539
       0.524
       0.513
       0.508
       0.505
       0.502
       0.502
       0.506
       0.520
       0.544
       0.574
       0.606
       0.636
       0.667
       0.702
       0.743
       0.786
       0.826
       0.858
       0.883
       0.905
       0.927
       0.951
       0.979
       1.008
       1.038
       1.069
       1.099
       1.128
       1.154
       1.176
       1.189
       1.193
       1.191
       1.184
       1.176
       1.165
       1.152
       1.132
       1.105
       1.072
       1.036
       0.999
       0.957
       0.911
       0.862
       0.811
       0.762
       0.711
       0.657
       0.598
       0.535
       0.470
       0.403
       0.335
       0.268
       0.205
       0.147
       0.098
       0.056
       0.021
      -0.007
      -0.023
      -0.023
      -0.007
       0.020
       0.054
       0.091
       0.132
       0.181
       0.234
       0.288
       0.336
       0.377
       0.412
       0.441
       0.462
       0.474
       0.476
       0.472
       0.461
       0.441
       0.411
       0.371
       0.329
       0.288
       0.247
       0.204
       0.154
       0.099
       0.043
      -0.011
      -0.059
      -0.102
      -0.137
      -0.167
      -0.195
      -0.222
      -0.247
      -0.266
      -0.276
      -0.282
      -0.292
      -0.306
      -0.323
      -0.334
      -0.337
      -0.335
      -0.334
      -0.336
      -0.337
      -0.334
      -0.326
      -0.316
      -0.306
      -0.298
      -0.288
      -0.276
      -0.262
      -0.251
      -0.247
      -0.251
      -0.260
      -0.271
      -0.285
      -0.305
      -0.333
      -0.369
      -0.412
      -0.459
      -0.508
      -0.552
      -0.590
      -0.622
      -0.651
      -0.678
      -0.703
      -0.722
      -0.730
      -0.729
      -0.724
      -0.721
      -0.721
      -0.719
      -0.707
      -0.681
      -0.648
      -0.617
      -0.591
      -0.565
      -0.533
      -0.490
      -0.439
      -0.388
      -0.344
      -0.312
      -0.292
      -0.285
      -0.291
      -0.311
      -0.342
      -0.382
      -0.431
      -0.485
      -0.545
      -0.608
      -0.671
      -0.732
      -0.791
      -0.846
      -0.897
      -0.941
      -0.978
      -1.009
      -1.035
      -1.057
      -1.074
      -1.087
      -1.099
      -1.110
      -1.119
      -1.124
      -1.124
      -1.121
      -1.116
      -1.112
      -1.106
      -1.096
      -1.081
      -1.062
      -1.041
      -1.022
      -1.006
      -0.991
      -0.972
      -0.948
      -0.919
      -0.887
      -0.853
      -0.817
      -0.776
      -0.727
      -0.672
      -0.611
      -0.547
      -0.483
      -0.419
      -0.360
      -0.306
      -0.259
      -0.219
      -0.187
      -0.164
      -0.150
      -0.147
      -0.153
      -0.167
      -0.189
      -0.217
      -0.248
      -0.281
      -0.313
      -0.344
      -0.372
      -0.393
      -0.405
      -0.404
      -0.394
      -0.376
      -0.351
      -0.319
      -0.278
      -0.229
      -0.176
      -0.120
      -0.064
      -0.009
       0.046
       0.097
       0.142
       0.181
       0.216
       0.249
       0.280
       0.308
       0.333
       0.357
       0.382
       0.409
       0.436
       0.458
       0.477
       0.492
       0.505
       0.518
       0.530
       0.541
       0.551
       0.556
       0.556
       0.551
       0.545
       0.540
       0.537
       0.534
       0.529
       0.520
       0.505
       0.478
       0.441
       0.396
       0.351
       0.309
       0.268
       0.223
       0.174
       0.120
       0.066
       0.017
      -0.027
      -0.066
      -0.100
      -0.125
      -0.140
      -0.142
      -0.133
      -0.120
      -0.107
      -0.099
      -0.096
      -0.095
      -0.098
      -0.106
      -0.123
      -0.153
      -0.194
      -0.246
      -0.304
      -0.364
      -0.425
      -0.488
      -0.553
      -0.621
      -0.689
      -0.752
      -0.804
      -0.843
      -0.872
      -0.893
      -0.909
      -0.921
      -0.926
      -0.926
      -0.920
      -0.908
      -0.888
      -0.862
      -0.830
      -0.795
      -0.758
      -0.720
      -0.679
      -0.634
      -0.586
      -0.534
      -0.480
      -0.422
      -0.359
      -0.290
      -0.216
      -0.140
      -0.066
       0.005
       0.072
       0.138
       0.199
       0.254
       0.299
       0.332
       0.355
       0.371
       0.381
       0.388
       0.390
       0.386
       0.373
       0.351
       0.322
       0.291
       0.257
       0.213
       0.152
       0.074
      -0.015
      -0.106
      -0.193
      -0.278
      -0.369
      -0.469
      -0.573
      -0.672
      -0.756
      -0.820
      -0.866
      -0.895
      -0.908
      -0.903
      -0.882
      -0.845
      -0.793
      -0.723
      -0.634
      -0.528
      -0.413
      -0.294
      -0.175
      -0.055
       0.068
       0.193
       0.315
       0.429
       0.532
       0.623
       0.702
       0.767
       0.816
       0.845
       0.855
       0.852
       0.838
       0.819
       0.793
       0.762
       0.726
       0.686
       0.646
       0.610
       0.580
       0.560
       0.552
       0.556
       0.569
       0.586
       0.602
       0.616
       0.627
       0.635
       0.639
       0.636
       0.625
       0.603
       0.571
       0.525
       0.469
       0.402
       0.330
       0.252
       0.169
