Origin Time       28/5/2010 07:25:06	
Lat.              31.2 N	
Long.             77.9 E	
Depth (Km)         43.0
Magnitude         4.8
 Region           Himachal                                                         
 Above details taken from USGS
   
Station Code      Roo
Station Lat.       29.866
Station Long.      77.901
Station Height(m)  243.0
Site Class        C   Vs30 between 200 m/sec to 375 m/sec *  
Record Time       28.05.2010 07:23:38.604
Sampling Rate     200. Hz
 Record Duration   70.000 Sec.
 Direction         Vert. (Up positive)
Max. Acceleration      0.318 cm/sec**2
     
  * For reference see Site Classification link of website 
     
 Base Line Corrected and Low Pass Filtered (Cut Off at 35 Hz) Time History
 Acceleration data in cm/sec**2
    
[...]
       0.112
       0.115
       0.100
       0.067
       0.026
      -0.012
      -0.035
      -0.036
      -0.014
       0.021
       0.055
       0.073
       0.069
       0.050
       0.029
       0.015
       0.008
       0.004
      -0.003
      -0.016
      -0.033
      -0.048
      -0.058
      -0.057
      -0.047
      -0.031
      -0.016
      -0.008
      -0.008
      -0.012
      -0.013
      -0.009
      -0.002
       0.003
       0.000
      -0.013
      -0.031
      -0.048
      -0.054
      -0.044
      -0.018
       0.017
       0.052
       0.078
       0.093
       0.096
       0.092
       0.086
       0.081
       0.072
       0.054
       0.022
      -0.018
      -0.059
      -0.090
      -0.102
      -0.090
      -0.058
      -0.022
       0.002
       0.004
      -0.012
      -0.037
      -0.055
      -0.059
      -0.047
      -0.031
      -0.023
      -0.028
      -0.039
      -0.045
      -0.034
      -0.005
       0.035
       0.072
       0.094
       0.097
       0.080
       0.048
       0.007
      -0.030
      -0.055
      -0.065
      -0.069
      -0.076
      -0.087
      -0.095
      -0.092
      -0.072
      -0.039
      -0.006
       0.014
       0.014
       0.003
      -0.004
       0.002
       0.019
       0.036
       0.042
       0.032
       0.010
      -0.016
      -0.040
      -0.053
      -0.052
      -0.036
      -0.006
       0.028
       0.050
       0.051
       0.035
       0.015
       0.002
      -0.001
      -0.001
      -0.006
      -0.018
      -0.030
      -0.031
      -0.014
       0.016
       0.049
       0.075
       0.090
       0.094
       0.086
       0.067
       0.046
       0.030
       0.025
       0.029
       0.033
       0.030
       0.015
      -0.009
      -0.032
      -0.045
      -0.047
      -0.039
      -0.028
      -0.017
      -0.015
      -0.025
      -0.042
      -0.054
      -0.051
      -0.034
      -0.013
       0.002
       0.007
       0.006
       0.001
      -0.001
       0.002
       0.006
       0.010
       0.008
       0.001
      -0.012
      -0.023
      -0.023
      -0.008
       0.018
       0.041
       0.052
       0.046
       0.029
       0.008
      -0.006
      -0.009
      -0.002
       0.002
      -0.008
      -0.036
      -0.077
      -0.119
      -0.145
      -0.146
      -0.119
      -0.078
      -0.039
      -0.011
       0.004
       0.011
       0.013
       0.011
       0.008
       0.003
      -0.006
      -0.019
      -0.036
      -0.052
      -0.060
      -0.055
      -0.034
       0.001
       0.038
       0.063
       0.070
       0.061
       0.045
       0.029
       0.020
       0.017
       0.011
      -0.007
      -0.034
      -0.061
      -0.075
      -0.074
      -0.059
      -0.037
      -0.012
       0.007
       0.013
       0.004
      -0.013
      -0.028
      -0.034
      -0.025
      -0.006
       0.011
       0.016
       0.007
      -0.006
      -0.014
      -0.013
      -0.003
       0.011
       0.026
       0.035
       0.035
       0.027
       0.017
       0.006
      -0.004
      -0.011
      -0.018
      -0.029
      -0.045
      -0.060
      -0.063
      -0.047
      -0.016
       0.022
       0.055
       0.072
       0.071
       0.056
       0.038
       0.028
       0.028
       0.031
       0.026
       0.009
      -0.018
      -0.047
      -0.066
      -0.064
      -0.044
      -0.013
       0.019
       0.042
       0.051
       0.044
       0.025
       0.004
      -0.012
      -0.024
      -0.036
      -0.055
      -0.081
      -0.111
      -0.133
      -0.139
      -0.127
      -0.102
      -0.076
      -0.057
      -0.050
      -0.058
      -0.079
      -0.106
      -0.124
      -0.124
      -0.104
      -0.073
      -0.041
      -0.011
       0.021
       0.061
       0.109
       0.157
       0.194
       0.211
       0.204
       0.177
       0.135
       0.084
       0.034
       0.000
      -0.014
      -0.015
      -0.010
      -0.002
       0.008
       0.018
       0.025
       0.023
       0.011
      -0.013
      -0.045
      -0.075
      -0.095
      -0.100
      -0.088
      -0.064
      -0.029
       0.006
       0.032
       0.046
       0.051
       0.053
       0.054
       0.052
       0.048
       0.046
       0.045
       0.043
       0.038
       0.032
       0.028
       0.029
       0.036
       0.042
       0.036
       0.015
      -0.014
      -0.037
      -0.049
      -0.054
      -0.061
      -0.073
      -0.087
      -0.099
      -0.106
      -0.107
      -0.099
      -0.082
      -0.061
      -0.043
      -0.035
      -0.042
      -0.060
      -0.076
      -0.076
      -0.056
      -0.026
      -0.003
       0.007
       0.006
      -0.001
      -0.011
      -0.026
      -0.044
      -0.061
      -0.070
      -0.062
      -0.036
       0.002
       0.042
       0.080
       0.116
       0.145
       0.164
       0.171
       0.168
       0.157
       0.143
       0.129
       0.121
       0.117
       0.110
       0.094
       0.069
       0.045
       0.027
       0.016
       0.008
      -0.007
      -0.032
      -0.070
      -0.117
      -0.166
      -0.213
      -0.251
      -0.269
      -0.251
      -0.197
      -0.122
      -0.050
       0.004
       0.039
       0.063
       0.085
       0.105
       0.114
       0.100
       0.066
       0.024
      -0.015
      -0.047
      -0.073
      -0.094
      -0.109
      -0.120
      -0.131
      -0.143
      -0.152
      -0.154
      -0.145
      -0.125
      -0.101
      -0.082
      -0.074
      -0.077
      -0.081
      -0.075
      -0.050
      -0.008
       0.039
       0.077
       0.090
       0.072
       0.031
      -0.016
      -0.054
      -0.072
      -0.067
      -0.042
      -0.005
       0.033
       0.061
       0.076
       0.078
       0.071
       0.055
       0.032
       0.003
      -0.032
      -0.068
      -0.092
      -0.094
      -0.067
      -0.018
       0.035
       0.070
       0.071
       0.038
      -0.015
      -0.069
      -0.104
      -0.110
      -0.087
      -0.048
      -0.009
       0.023
       0.044
       0.059
       0.076
       0.095
       0.111
       0.112
       0.093
       0.055
       0.006
      -0.042
      -0.077
      -0.094
      -0.095
      -0.088
      -0.080
      -0.073
      -0.064
      -0.047
      -0.016
       0.029
       0.082
       0.129
       0.157
       0.158
       0.134
       0.091
       0.043
       0.003
      -0.023
      -0.038
      -0.047
      -0.052
      -0.048
      -0.034
      -0.014
       0.003
       0.012
       0.014
       0.008
      -0.003
      -0.022
      -0.047
      -0.073
      -0.088
      -0.085
      -0.070
      -0.056
      -0.055
      -0.068
      -0.080
      -0.078
      -0.057
      -0.020
       0.020
       0.050
       0.063
       0.063
       0.055
       0.046
       0.038
       0.030
       0.025
       0.023
       0.021
       0.020
       0.017
       0.012
       0.003
      -0.010
      -0.028
      -0.052
      -0.081
      -0.110
      -0.131
      -0.134
      -0.118
      -0.087
      -0.049
      -0.015
       0.003
      -0.004
      -0.031
      -0.066
      -0.097
      -0.116
      -0.119
      -0.107
      -0.088
      -0.073
      -0.065
      -0.056
      -0.038
      -0.010
       0.023
       0.049
       0.061
       0.057
       0.043
       0.025
       0.010
      -0.005
      -0.021
      -0.034
      -0.041
      -0.042
      -0.039
      -0.028
      -0.004
       0.038
       0.090
       0.139
       0.171
       0.176
       0.156
       0.126
       0.098
       0.077
       0.059
       0.034
      -0.002
      -0.046
      -0.090
      -0.125
      -0.141
      -0.131
      -0.097
      -0.047
       0.008
       0.054
       0.086
       0.102
       0.107
       0.108
       0.107
       0.102
       0.090
       0.069
       0.040
       0.013
      -0.002
       0.001
       0.022
       0.048
       0.067
       0.069
       0.052
       0.019
      -0.019
      -0.051
      -0.065
      -0.062
      -0.046
      -0.027
      -0.015
      -0.019
      -0.038
      -0.062
      -0.079
      -0.078
      -0.062
      -0.037
      -0.010
       0.015
       0.041
       0.073
       0.107
       0.133
       0.134
       0.102
       0.038
      -0.045
      -0.130
      -0.201
      -0.242
      -0.244
      -0.212
      -0.163
      -0.115
      -0.078
      -0.052
      -0.035
      -0.026
      -0.028
      -0.041
      -0.063
      -0.085
      -0.095
      -0.080
      -0.037
       0.028
       0.101
       0.166
       0.211
       0.229
       0.221
       0.199
       0.174
       0.157
       0.152
       0.155
       0.153
       0.129
       0.078
       0.006
      -0.068
      -0.131
      -0.176
      -0.206
      -0.224
      -0.230
      -0.226
      -0.210
      -0.179
      -0.137
      -0.085
      -0.027
       0.033
       0.084
       0.116
       0.128
       0.128
       0.126
       0.126
       0.124
       0.115
       0.101
       0.083
       0.064
       0.046
       0.028
       0.009
      -0.015
      -0.043
      -0.073
      -0.100
      -0.121
      -0.128
      -0.118
      -0.091
      -0.056
      -0.023
      -0.002
       0.003
      -0.003
      -0.012
      -0.013
      -0.001
       0.021
       0.043
       0.055
       0.053
       0.038
       0.014
      -0.011
      -0.030
      -0.041
      -0.049
      -0.056
      -0.062
      -0.066
      -0.067
      -0.063
      -0.053
      -0.034
      -0.014
       0.000
       0.001
      -0.006
      -0.014
      -0.016
      -0.007
       0.012
       0.032
       0.043
       0.041
       0.032
       0.025
       0.026
       0.036
       0.053
       0.072
       0.082
       0.071
       0.035
      -0.021
      -0.085
      -0.139
      -0.165
      -0.159
      -0.127
      -0.080
      -0.033
       0.000
       0.012
       0.004
      -0.015
      -0.033
      -0.042
      -0.044
      -0.042
      -0.035
      -0.018
       0.008
       0.037
       0.059
       0.070
       0.071
       0.067
       0.067
       0.075
       0.092
       0.111
       0.124
       0.128
       0.118
       0.094
       0.059
       0.024
       0.000
      -0.005
       0.008
       0.033
       0.061
       0.079
       0.078
       0.063
       0.044
       0.028
       0.017
       0.004
      -0.016
      -0.046
      -0.082
      -0.117
      -0.137
      -0.135
      -0.110
      -0.071
      -0.032
      -0.005
       0.002
      -0.012
      -0.042
      -0.077
      -0.107
      -0.124
      -0.123
      -0.103
      -0.073
      -0.042
      -0.015
       0.010
       0.033
       0.047
       0.049
       0.038
       0.016
      -0.010
      -0.037
      -0.054
      -0.056
      -0.042
      -0.018
       0.006
       0.022
       0.025
       0.018
       0.010
       0.010
       0.017
       0.022
       0.019
       0.011
       0.008
       0.017
       0.038
       0.063
       0.078
       0.076
       0.058
       0.032
       0.007
      -0.004
       0.008
       0.046
       0.104
       0.162
       0.199
       0.203
       0.172
       0.114
       0.042
      -0.030
      -0.091
      -0.136
      -0.162
      -0.171
      -0.163
      -0.141
      -0.105
      -0.061
      -0.014
       0.025
       0.041
       0.029
      -0.006
      -0.043
      -0.064
      -0.065
      -0.053
      -0.041
      -0.033
      -0.027
      -0.022
      -0.014
      -0.004
       0.010
       0.029
       0.049
       0.061
       0.055
       0.028
      -0.015
      -0.059
      -0.085
      -0.087
      -0.064
      -0.025
       0.018
       0.056
       0.084
       0.103
       0.115
       0.115
       0.099
       0.064
       0.014
      -0.043
      -0.096
      -0.140
      -0.171
      -0.192
      -0.200
      -0.193
      -0.168
      -0.128
      -0.080
      -0.029
       0.026
       0.083
       0.135
       0.170
       0.180
       0.167
       0.137
       0.104
       0.084
       0.083
       0.097
       0.112
       0.112
       0.091
       0.049
       0.000
      -0.039
      -0.055
      -0.042
      -0.008
       0.030
       0.054
       0.047
       0.004
      -0.066
      -0.145
      -0.211
      -0.248
      -0.253
      -0.227
      -0.176
      -0.111
      -0.041
       0.029
       0.094
       0.147
       0.177
       0.177
       0.153
       0.121
       0.092
       0.075
       0.071
       0.072
       0.066
       0.043
       0.000
      -0.053
      -0.107
      -0.151
      -0.173
      -0.168
      -0.142
      -0.110
      -0.081
      -0.060
      -0.044
      -0.031
      -0.017
       0.002
       0.027
       0.055
       0.084
       0.115
       0.153
       0.196
       0.240
       0.275
       0.285
       0.260
       0.198
       0.113
       0.025
      -0.051
      -0.108
      -0.144
      -0.160
      -0.166
      -0.172
      -0.177
      -0.175
      -0.161
      -0.137
      -0.113
      -0.098
      -0.093
      -0.089
      -0.075
      -0.046
      -0.004
       0.039
       0.075
       0.099
       0.107
       0.092
       0.050
      -0.012
      -0.078
      -0.131
      -0.160
      -0.165
      -0.153
      -0.136
      -0.127
      -0.131
      -0.146
      -0.167
      -0.187
      -0.199
      -0.199
      -0.182
      -0.146
      -0.089
      -0.012
       0.078
       0.166
       0.240
       0.291
       0.316
       0.318
       0.304
       0.280
       0.249
       0.210
       0.158
       0.089
       0.004
      -0.089
      -0.177
      -0.245
      -0.275
      -0.255
      -0.190
      -0.098
      -0.006
       0.064
       0.100
       0.101
       0.078
       0.043
       0.006
      -0.022
      -0.036
      -0.026
       0.008
       0.061
       0.122
       0.179
       0.218
       0.227
       0.203
       0.154
       0.091
       0.023
      -0.042
      -0.100
      -0.148
      -0.181
      -0.198
      -0.198
      -0.187
      -0.167
      -0.141
      -0.111
      -0.078
      -0.046
      -0.021
      -0.003
       0.016
       0.045
       0.084
       0.125
       0.158
       0.170
       0.158
       0.122
       0.070
       0.014
      -0.038
      -0.079
      -0.101
      -0.102
      -0.084
      -0.055
      -0.022
       0.008
       0.028
       0.035
       0.026
       0.000
      -0.039
      -0.082
      -0.116
      -0.131
      -0.121
      -0.088
      -0.045
      -0.004
       0.028
       0.052
       0.068
       0.074
       0.066
       0.039
       0.000
      -0.043
      -0.078
      -0.103
      -0.121
      -0.135
      -0.137
      -0.117
      -0.074
      -0.020
       0.027
       0.059
       0.074
       0.082
       0.088
       0.092
       0.090
       0.079
       0.064
       0.055
       0.062
       0.085
       0.116
       0.143
       0.159
       0.162
       0.156
       0.148
       0.141
       0.128
       0.105
       0.076
       0.047
       0.020
      -0.015
      -0.064
      -0.126
      -0.188
      -0.236
      -0.258
      -0.255
      -0.234
      -0.204
      -0.171
      -0.133
      -0.094
      -0.059
      -0.034
      -0.017
      -0.008
      -0.007
      -0.014
      -0.020
      -0.015
       0.003
       0.029
       0.052
       0.060
       0.044
       0.003
      -0.052
      -0.105
      -0.141
      -0.150
      -0.133
      -0.096
      -0.055
      -0.026
      -0.021
      -0.036
      -0.059
      -0.075
      -0.073
      -0.046
       0.000
       0.053
       0.099
       0.133
       0.152
       0.152
       0.133
       0.096
       0.050
       0.001
      -0.043
      -0.076
      -0.088
      -0.073
      -0.033
       0.019
       0.070
       0.109
       0.129
       0.131
       0.121
       0.106
       0.092
       0.084
       0.085
       0.090
       0.090
       0.078
       0.055
       0.030
       0.014
       0.008
       0.007
       0.009
       0.011
       0.013
       0.014
       0.015
       0.018
       0.027
       0.038
       0.049
       0.057
       0.061
       0.061
       0.056
       0.043
       0.018
      -0.019
      -0.063
      -0.105
      -0.139
      -0.166
      -0.187
      -0.202
      -0.212
      -0.216
      -0.220
      -0.223
      -0.221
      -0.209
      -0.181
      -0.131
      -0.061
       0.018
       0.090
       0.138
       0.153
       0.137
       0.097
       0.048
       0.007
      -0.017
      -0.021
      -0.010
       0.011
       0.036
       0.059
       0.073
       0.076
       0.068
       0.048
       0.022
      -0.005
      -0.022
      -0.022
      -0.005
       0.021
       0.048
       0.068
       0.075
       0.071
       0.060
       0.049
       0.040
       0.034
       0.030
       0.030
       0.030
       0.025
       0.012
      -0.004
      -0.016
      -0.021
      -0.018
      -0.008
       0.007
       0.024
       0.043
       0.064
       0.087
       0.106
       0.114
       0.106
       0.077
       0.030
      -0.025
      -0.075
      -0.106
      -0.118
      -0.113
      -0.099
      -0.082
      -0.071
      -0.072
      -0.085
      -0.106
      -0.131
      -0.155
      -0.171
      -0.175
      -0.161
      -0.127
      -0.075
      -0.015
       0.042
       0.081
       0.087
       0.057
      -0.003
      -0.073
      -0.130
      -0.152
      -0.128
      -0.061
       0.028
       0.115
       0.182
       0.221
       0.232
       0.219
       0.192
       0.158
       0.127
       0.108
       0.103
       0.107
       0.108
       0.096
       0.074
       0.052
       0.037
       0.022
      -0.003
      -0.041
      -0.084
      -0.118
      -0.133
      -0.130
      -0.114
      -0.100
      -0.094
      -0.095
      -0.098
      -0.100
      -0.102
      -0.101
      -0.092
      -0.069
      -0.038
      -0.011
       0.004
       0.007
       0.009
       0.018
       0.033
       0.043
       0.035
       0.010
      -0.014
      -0.019
      -0.003
       0.026
       0.062
       0.096
       0.115
       0.107
       0.072
       0.021
      -0.031
      -0.073
      -0.100
      -0.105
      -0.089
      -0.057
      -0.016
       0.021
       0.044
       0.049
       0.042
       0.030
       0.018
       0.006
      -0.004
      -0.002
       0.019
       0.057
       0.100
       0.131
       0.138
       0.117
       0.071
       0.009
      -0.054
      -0.102
      -0.133
      -0.148
      -0.156
      -0.167
      -0.184
      -0.204
      -0.216
      -0.208
      -0.179
      -0.132
      -0.074
      -0.017
       0.030
       0.062
       0.084
       0.105
       0.127
       0.146
       0.154
       0.148
       0.131
       0.109
       0.092
       0.086
       0.091
       0.099
       0.100
       0.090
       0.067
       0.034
      -0.003
      -0.038
      -0.064
      -0.077
      -0.080
      -0.077
      -0.068
      -0.060
      -0.055
      -0.055
      -0.056
      -0.054
      -0.052
      -0.056
      -0.069
      -0.093
      -0.125
      -0.151
      -0.159
      -0.141
      -0.103
      -0.058
      -0.021
       0.003
       0.018
       0.031
       0.050
       0.074
       0.097
       0.116
