Origin Time       22/7/2007 23:02:12  UTC
Lat.              31.2 N 
Long.             78.2 E 
Depth (Km)         33.0
Magnitude         5.0
 Region           UTTARKASHI-UTTARANCHAL                                           
 Above details taken from IMD 
    
Station Code      Roo
Station Lat.       29.866  N
Station Long.      77.901  E
Station Height(m)  262.0
Site Class        C   Vs30 between 200 m/sec to 375 m/sec *  
Record Time       22.07.2007 23:02:30.884 UTC
Sampling Rate     200. Hz
 Record Duration   63.580 Sec.
 Direction         N-S (N positive)
Max. Acceleration     -3.199 cm/sec**2
     
  * For reference see Site Classification link of website 
     
 Base Line Corrected and Low Pass Filtered (Cut Off at 35 Hz) Time History
 Acceleration data in cm/sec**2
    
[...]
      -1.056
      -0.907
      -0.745
      -0.588
      -0.450
      -0.334
      -0.230
      -0.124
      -0.014
       0.092
       0.182
       0.250
       0.300
       0.334
       0.353
       0.357
       0.351
       0.346
       0.351
       0.368
       0.397
       0.435
       0.478
       0.518
       0.541
       0.531
       0.482
       0.403
       0.302
       0.184
       0.048
      -0.100
      -0.249
      -0.383
      -0.496
      -0.592
      -0.681
      -0.764
      -0.838
      -0.895
      -0.933
      -0.947
      -0.928
      -0.864
      -0.747
      -0.586
      -0.396
      -0.193
       0.014
       0.224
       0.427
       0.608
       0.754
       0.863
       0.943
       1.003
       1.041
       1.049
       1.024
       0.974
       0.917
       0.863
       0.812
       0.753
       0.675
       0.571
       0.438
       0.281
       0.116
      -0.037
      -0.158
      -0.243
      -0.302
      -0.352
      -0.408
      -0.472
      -0.543
      -0.621
      -0.704
      -0.789
      -0.867
      -0.929
      -0.979
      -1.024
      -1.074
      -1.127
      -1.173
      -1.202
      -1.209
      -1.199
      -1.175
      -1.139
      -1.087
      -1.009
      -0.897
      -0.749
      -0.570
      -0.370
      -0.163
       0.043
       0.245
       0.447
       0.652
       0.853
       1.043
       1.212
       1.355
       1.468
       1.545
       1.575
       1.552
       1.480
       1.376
       1.258
       1.141
       1.024
       0.905
       0.778
       0.644
       0.513
       0.392
       0.285
       0.187
       0.084
      -0.037
      -0.183
      -0.353
      -0.534
      -0.711
      -0.867
      -0.991
      -1.082
      -1.147
      -1.191
      -1.210
      -1.190
      -1.112
      -0.968
      -0.771
      -0.549
      -0.331
      -0.140
       0.013
       0.118
       0.178
       0.205
       0.226
       0.269
       0.348
       0.453
       0.558
       0.639
       0.688
       0.719
       0.758
       0.830
       0.941
       1.073
       1.187
       1.244
       1.216
       1.102
       0.925
       0.721
       0.522
       0.348
       0.203
       0.084
      -0.016
      -0.101
      -0.171
      -0.225
      -0.262
      -0.288
      -0.316
      -0.362
      -0.439
      -0.546
      -0.669
      -0.790
      -0.899
      -0.998
      -1.097
      -1.198
      -1.290
      -1.352
      -1.368
      -1.337
      -1.271
      -1.184
      -1.075
      -0.936
      -0.752
      -0.524
      -0.272
      -0.026
       0.188
       0.361
       0.496
       0.604
       0.690
       0.753
       0.791
       0.806
       0.806
       0.807
       0.825
       0.869
       0.936
       1.014
       1.080
       1.112
       1.092
       1.018
       0.899
       0.747
       0.573
       0.388
       0.203
       0.027
      -0.136
      -0.289
      -0.428
      -0.536
      -0.591
      -0.583
      -0.523
      -0.444
      -0.381
      -0.360
      -0.392
      -0.479
      -0.615
      -0.787
      -0.967
      -1.128
      -1.247
      -1.314
      -1.324
      -1.272
      -1.156
      -0.988
      -0.790
      -0.587
      -0.391
      -0.194
       0.015
       0.241
       0.474
       0.702
       0.925
       1.147
       1.374
       1.599
       1.804
       1.969
       2.080
       2.129
       2.117
       2.040
       1.893
       1.669
       1.365
       0.979
       0.525
       0.035
      -0.450
      -0.891
      -1.264
      -1.563
      -1.791
      -1.946
      -2.028
      -2.032
      -1.964
      -1.833
      -1.651
      -1.430
      -1.179
      -0.911
      -0.636
      -0.359
      -0.082
       0.194
       0.457
       0.687
       0.861
       0.964
       0.992
       0.951
       0.849
       0.694
       0.495
       0.271
       0.044
      -0.163
      -0.340
      -0.484
      -0.595
      -0.669
      -0.693
      -0.654
      -0.543
      -0.369
      -0.153
       0.074
       0.279
       0.445
       0.571
       0.667
       0.739
       0.780
       0.775
       0.711
       0.596
       0.456
       0.315
       0.184
       0.051
      -0.103
      -0.290
      -0.504
      -0.718
      -0.898
      -1.017
      -1.065
      -1.051
      -1.000
      -0.932
      -0.856
      -0.763
      -0.635
      -0.461
      -0.237
       0.030
       0.331
       0.650
       0.965
       1.249
       1.481
       1.653
       1.765
       1.817
       1.799
       1.694
       1.488
       1.179
       0.781
       0.324
      -0.158
      -0.626
      -1.049
      -1.406
      -1.686
      -1.882
      -1.991
      -2.011
      -1.944
      -1.797
      -1.585
      -1.324
      -1.030
      -0.719
      -0.408
      -0.113
       0.153
       0.390
       0.611
       0.822
       1.021
       1.190
       1.312
       1.379
       1.399
       1.387
       1.356
       1.308
       1.241
       1.151
       1.036
       0.900
       0.751
       0.596
       0.442
       0.296
       0.164
       0.053
      -0.034
      -0.098
      -0.144
      -0.177
      -0.204
      -0.233
      -0.272
      -0.328
      -0.405
      -0.498
      -0.601
      -0.704
      -0.795
      -0.868
      -0.925
      -0.979
      -1.045
      -1.132
      -1.239
      -1.351
      -1.444
      -1.490
      -1.470
      -1.381
      -1.234
      -1.048
      -0.836
      -0.609
      -0.369
      -0.118
       0.143
       0.412
       0.678
       0.926
       1.136
       1.299
       1.412
       1.479
       1.505
       1.493
       1.449
       1.376
       1.274
       1.134
       0.943
       0.703
       0.431
       0.156
      -0.094
      -0.301
      -0.459
      -0.565
      -0.620
      -0.630
      -0.607
      -0.565
      -0.508
      -0.432
      -0.329
      -0.198
      -0.052
       0.082
       0.182
       0.238
       0.253
       0.241
       0.216
       0.192
       0.171
       0.145
       0.099
       0.023
      -0.077
      -0.186
      -0.291
      -0.385
      -0.467
      -0.542
      -0.613
      -0.678
      -0.732
      -0.759
      -0.742
      -0.664
      -0.525
      -0.346
      -0.165
      -0.018
       0.077
       0.120
       0.126
       0.107
       0.073
       0.033
      -0.005
      -0.034
      -0.056
      -0.085
      -0.135
      -0.209
      -0.287
      -0.345
      -0.368
      -0.359
      -0.331
      -0.298
      -0.264
      -0.228
      -0.180
      -0.110
      -0.013
       0.100
       0.208
       0.297
       0.368
       0.447
       0.557
       0.701
       0.851
       0.962
       1.002
       0.959
       0.847
       0.690
       0.511
       0.328
       0.151
      -0.015
      -0.171
      -0.316
      -0.443
      -0.535
      -0.577
      -0.554
      -0.465
      -0.314
      -0.115
       0.110
       0.336
       0.537
       0.692
       0.795
       0.847
       0.850
       0.806
       0.717
       0.589
       0.433
       0.254
       0.053
      -0.165
      -0.387
      -0.595
      -0.773
      -0.914
      -1.016
      -1.081
      -1.107
      -1.090
      -1.031
      -0.940
      -0.831
      -0.719
      -0.613
      -0.511
      -0.405
      -0.290
      -0.166
      -0.042
       0.069
       0.154
       0.208
       0.233
       0.237
       0.227
       0.209
       0.186
       0.162
       0.139
       0.120
       0.100
       0.071
       0.027
      -0.029
      -0.084
      -0.124
      -0.140
      -0.135
      -0.121
      -0.107
      -0.092
      -0.065
      -0.013
       0.075
       0.202
       0.359
       0.526
       0.670
       0.757
       0.761
       0.675
       0.516
       0.320
       0.120
      -0.066
      -0.233
      -0.385
      -0.518
      -0.625
      -0.690
      -0.703
      -0.660
      -0.563
      -0.419
      -0.238
      -0.035
       0.177
       0.383
       0.564
       0.706
       0.798
       0.844
       0.853
       0.834
       0.787
       0.699
       0.562
       0.381
       0.175
      -0.036
      -0.236
      -0.415
      -0.568
      -0.690
      -0.774
      -0.808
      -0.784
      -0.700
      -0.565
      -0.397
      -0.211
      -0.013
       0.204
       0.447
       0.715
       0.996
       1.271
       1.520
       1.727
       1.885
       1.990
       2.042
       2.045
       2.006
       1.936
       1.842
       1.719
       1.553
       1.331
       1.046
       0.703
       0.314
      -0.105
      -0.537
      -0.957
      -1.341
      -1.663
      -1.903
      -2.046
      -2.088
      -2.036
      -1.907
      -1.717
      -1.482
      -1.220
      -0.954
      -0.709
      -0.500
      -0.330
      -0.186
      -0.055
       0.068
       0.181
       0.280
       0.362
       0.427
       0.478
       0.517
       0.549
       0.583
       0.627
       0.685
       0.748
       0.802
       0.828
       0.812
       0.754
       0.661
       0.551
       0.445
       0.360
       0.298
       0.248
       0.195
       0.128
       0.048
      -0.038
      -0.123
      -0.204
      -0.281
      -0.348
      -0.398
      -0.427
      -0.439
      -0.441
      -0.441
      -0.447
      -0.466
      -0.498
      -0.534
      -0.552
      -0.531
      -0.460
      -0.345
      -0.206
      -0.066
       0.063
       0.186
       0.317
       0.460
       0.610
       0.746
       0.847
       0.896
       0.889
       0.829
       0.721
       0.567
       0.362
       0.103
      -0.204
      -0.541
      -0.879
      -1.191
      -1.465
      -1.697
      -1.886
      -2.023
      -2.096
      -2.102
      -2.045
      -1.936
      -1.780
      -1.579
      -1.342
      -1.088
      -0.843
      -0.629
      -0.460
      -0.336
      -0.248
      -0.180
      -0.109
      -0.015
       0.111
       0.249
       0.367
       0.439
       0.468
       0.482
       0.516
       0.592
       0.703
       0.834
       0.968
       1.093
       1.205
       1.296
       1.369
       1.428
       1.479
       1.516
       1.526
       1.497
       1.428
       1.326
       1.200
       1.056
       0.899
       0.733
       0.567
       0.403
       0.238
       0.067
      -0.110
      -0.287
      -0.462
      -0.640
      -0.826
      -1.021
      -1.208
      -1.364
      -1.468
      -1.507
      -1.479
      -1.382
      -1.219
      -1.001
      -0.748
      -0.484
      -0.232
      -0.001
       0.209
       0.403
       0.589
       0.771
       0.945
       1.100
       1.218
       1.282
       1.287
       1.241
       1.160
       1.068
       0.989
       0.938
       0.920
       0.927
       0.947
       0.972
       0.992
       0.999
       0.977
       0.913
       0.800
       0.647
       0.468
       0.283
       0.110
      -0.044
      -0.177
      -0.291
      -0.389
      -0.469
      -0.518
      -0.520
      -0.461
      -0.338
      -0.165
       0.036
       0.237
       0.421
       0.581
       0.720
       0.845
       0.965
       1.084
       1.200
       1.300
       1.356
       1.341
       1.239
       1.048
       0.780
       0.452
       0.086
      -0.295
      -0.669
      -1.020
      -1.346
      -1.650
      -1.927
      -2.153
      -2.297
      -2.336
      -2.271
      -2.122
      -1.908
      -1.642
      -1.335
      -1.000
      -0.662
      -0.345
      -0.063
       0.185
       0.409
       0.618
       0.816
       0.999
       1.158
       1.281
       1.355
       1.378
       1.354
       1.295
       1.206
       1.078
       0.897
       0.663
       0.401
       0.152
      -0.055
      -0.210
      -0.323
      -0.401
      -0.437
      -0.417
      -0.335
      -0.202
      -0.040
       0.127
       0.274
       0.376
       0.405
       0.344
       0.193
      -0.024
      -0.277
      -0.547
      -0.829
      -1.127
      -1.443
      -1.772
      -2.100
      -2.406
      -2.662
      -2.840
      -2.917
      -2.891
      -2.773
      -2.579
      -2.315
      -1.983
      -1.582
      -1.121
      -0.614
      -0.075
       0.481
       1.030
       1.537
       1.967
       2.297
       2.527
       2.670
       2.732
       2.707
       2.585
       2.360
       2.050
       1.688
       1.319
       0.975
       0.673
       0.412
       0.177
      -0.044
      -0.250
      -0.427
      -0.557
      -0.633
      -0.670
      -0.689
      -0.705
      -0.721
      -0.732
      -0.734
      -0.734
      -0.741
      -0.756
      -0.766
      -0.750
      -0.695
      -0.606
      -0.505
      -0.415
      -0.352
      -0.322
      -0.325
      -0.356
      -0.410
      -0.488
      -0.593
      -0.726
      -0.878
      -1.031
      -1.168
      -1.283
      -1.374
      -1.437
      -1.458
      -1.428
      -1.348
      -1.236
      -1.107
      -0.966
      -0.805
      -0.617
      -0.410
      -0.205
      -0.026
       0.112
       0.209
       0.278
       0.335
       0.397
       0.483
       0.607
       0.778
       0.988
       1.223
       1.462
       1.690
       1.901
       2.093
       2.272
       2.441
       2.601
       2.750
       2.871
       2.940
       2.934
       2.839
       2.665
       2.433
       2.172
       1.911
       1.664
       1.432
       1.196
       0.929
       0.615
       0.261
      -0.102
      -0.440
      -0.741
      -1.014
      -1.280
      -1.555
      -1.838
      -2.118
      -2.380
      -2.616
      -2.819
      -2.981
      -3.097
      -3.169
      -3.199
      -3.186
      -3.114
      -2.957
      -2.698
      -2.337
      -1.895
      -1.405
      -0.899
      -0.408
       0.050
       0.464
       0.832
       1.149
       1.403
       1.575
       1.654
       1.650
       1.590
       1.507
       1.419
       1.326
       1.221
       1.105
       0.977
       0.838
       0.687
       0.531
       0.382
       0.255
       0.149
       0.046
      -0.077
      -0.224
      -0.384
      -0.536
      -0.657
      -0.729
      -0.735
      -0.661
      -0.502
      -0.268
       0.018
       0.328
       0.629
       0.887
       1.071
       1.157
       1.143
       1.048
       0.897
       0.707
       0.487
       0.250
       0.016
      -0.193
      -0.362
      -0.485
      -0.564
      -0.596
      -0.578
      -0.516
      -0.429
      -0.341
      -0.265
      -0.197
      -0.131
      -0.062
       0.010
       0.085
       0.170
       0.267
       0.370
       0.467
       0.537
       0.565
       0.538
       0.456
       0.322
       0.149
      -0.048
      -0.258
      -0.472
      -0.686
      -0.897
      -1.094
      -1.265
      -1.394
      -1.478
      -1.513
      -1.494
      -1.412
      -1.255
      -1.026
      -0.741
      -0.418
      -0.075
       0.277
       0.626
       0.958
       1.267
       1.551
       1.807
       2.023
       2.176
       2.252
       2.248
       2.177
       2.051
       1.876
       1.656
       1.409
       1.162
       0.943
       0.757
       0.589
       0.406
       0.178
      -0.110
      -0.448
      -0.806
      -1.141
      -1.415
      -1.605
      -1.708
      -1.743
      -1.735
      -1.704
      -1.662
      -1.610
      -1.545
      -1.462
      -1.360
      -1.235
      -1.090
      -0.936
      -0.795
      -0.693
      -0.638
      -0.621
      -0.614
      -0.590
      -0.537
      -0.453
      -0.339
      -0.194
      -0.012
       0.208
       0.459
       0.724
       0.984
       1.219
       1.418
       1.570
       1.677
       1.749
       1.799
       1.841
       1.880
       1.914
       1.939
       1.943
       1.909
       1.827
       1.694
       1.520
       1.314
       1.075
       0.798
       0.477
       0.116
      -0.268
      -0.649
      -1.006
      -1.323
      -1.596
      -1.829
      -2.027
      -2.189
      -2.303
      -2.349
      -2.313
      -2.191
      -1.996
      -1.744
      -1.450
      -1.119
      -0.753
      -0.359
       0.050
       0.451
       0.823
       1.142
       1.387
       1.544
       1.607
       1.586
       1.503
       1.391
       1.286
       1.214
       1.175
       1.141
       1.069
       0.931
       0.726
       0.478
       0.218
      -0.034
      -0.263
      -0.458
      -0.604
      -0.697
      -0.750
      -0.794
      -0.854
      -0.942
      -1.048
      -1.151
      -1.235
      -1.296
      -1.336
      -1.362
      -1.379
      -1.394
      -1.408
      -1.415
      -1.404
      -1.362
      -1.282
      -1.157
      -0.983
      -0.764
      -0.516
      -0.263
      -0.034
       0.154
       0.300
       0.409
       0.486
       0.531
       0.550
       0.556
       0.572
       0.604
       0.646
       0.674
       0.672
       0.634
       0.563
       0.467
       0.358
       0.249
       0.151
       0.071
       0.007
      -0.042
      -0.078
      -0.096
      -0.090
      -0.052
       0.027
       0.155
       0.335
       0.568
       0.844
       1.146
       1.456
       1.754
       2.017
       2.218
       2.325
       2.315
       2.177
       1.928
       1.600
       1.231
       0.856
       0.499
       0.172
      -0.125
      -0.396
      -0.645
      -0.863
      -1.028
      -1.120
      -1.136
      -1.093
      -1.027
      -0.980
      -0.982
      -1.047
      -1.171
      -1.334
      -1.509
      -1.673
      -1.812
      -1.927
      -2.022
      -2.097
      -2.138
      -2.125
      -2.037
      -1.864
      -1.610
      -1.288
      -0.910
      -0.484
      -0.023
       0.451
       0.913
       1.341
       1.722
       2.046
       2.300
       2.467
       2.534
       2.504
       2.395
       2.236
       2.047
       1.842
       1.626
       1.400
       1.161
       0.902
       0.623
       0.330
       0.043
      -0.217
      -0.440
      -0.630
      -0.795
      -0.938
      -1.042
      -1.082
      -1.036
      -0.901
      -0.692
      -0.435
      -0.152
       0.136
       0.409
       0.658
       0.881
       1.081
       1.249
       1.365
       1.406
       1.362
       1.244
       1.079
       0.895
       0.712
       0.541
       0.382
       0.230
       0.075
      -0.090
      -0.255
      -0.400
      -0.501
      -0.557
      -0.589
      -0.622
      -0.666
      -0.713
      -0.756
      -0.798
      -0.852
      -0.924
      -1.003
      -1.074
      -1.130
      -1.179
      -1.237
      -1.302
      -1.359
      -1.391
      -1.394
      -1.377
      -1.351
      -1.319
      -1.270
      -1.189
      -1.064
      -0.894
      -0.687
      -0.456
      -0.214
       0.031
       0.277
       0.521
       0.760
       0.988
       1.201
       1.401
       1.600
       1.808
       2.030
       2.256
       2.464
       2.626
       2.718
       2.717
       2.611
       2.396
       2.078
       1.677
       1.218
       0.723
       0.211
      -0.296
      -0.775
      -1.212
      -1.600
      -1.942
      -2.239
      -2.481
      -2.655
      -2.753
      -2.783
      -2.758
      -2.688
      -2.574
      -2.409
      -2.194
      -1.940
      -1.663
      -1.370
      -1.062
      -0.735
      -0.391
      -0.044
       0.285
       0.570
       0.794
       0.954
       1.065
       1.153
       1.239
       1.325
       1.391
       1.412
