Origin Time       10/07/2010 03:16:20
Lat.              29.9 N 
Long.             79.6 E 
Depth (Km)         10.0
Magnitude         4.1
 Region           ALMORA-UTTARAKHAND                                               
 Above details taken from IMD 
     
Station Code      Roo
Station Lat.       29.866  N
Station Long.      77.901  E
Station Height(m)  243.0
Site Class        C   Vs30 between 200 m/sec to 375 m/sec *  
Record Time       10.07.2010 03:16:19.089
Sampling Rate     200. Hz
 Record Duration   80.000 Sec.
 Direction         E-W (E positive)
Max. Acceleration      0.786 cm/sec**2
     
  * For reference see Site Classification link of website 
     
 Base Line Corrected and Low Pass Filtered (Cut Off at 35 Hz) Time History
 Acceleration data in cm/sec**2
    
[...]
       0.000
       0.006
       0.011
       0.013
       0.012
       0.004
      -0.005
      -0.010
      -0.007
       0.001
       0.012
       0.021
       0.028
       0.034
       0.039
       0.042
       0.041
       0.037
       0.032
       0.026
       0.022
       0.019
       0.019
       0.019
       0.018
       0.017
       0.013
       0.007
       0.000
      -0.008
      -0.017
      -0.027
      -0.037
      -0.044
      -0.048
      -0.049
      -0.051
      -0.055
      -0.059
      -0.059
      -0.051
      -0.035
      -0.014
       0.008
       0.025
       0.035
       0.040
       0.042
       0.043
       0.044
       0.041
       0.033
       0.021
       0.006
      -0.008
      -0.018
      -0.022
      -0.019
      -0.015
      -0.014
      -0.014
      -0.013
      -0.005
       0.010
       0.027
       0.042
       0.049
       0.048
       0.039
       0.026
       0.010
      -0.007
      -0.024
      -0.038
      -0.046
      -0.047
      -0.040
      -0.030
      -0.019
      -0.006
       0.007
       0.020
       0.030
       0.035
       0.034
       0.030
       0.021
       0.007
      -0.009
      -0.024
      -0.032
      -0.031
      -0.026
      -0.019
      -0.013
      -0.007
      -0.002
       0.003
       0.008
       0.012
       0.015
       0.014
       0.009
      -0.001
      -0.013
      -0.020
      -0.021
      -0.015
      -0.007
      -0.002
       0.000
       0.002
       0.008
       0.018
       0.027
       0.031
       0.032
       0.032
       0.034
       0.039
       0.044
       0.046
       0.047
       0.046
       0.044
       0.041
       0.037
       0.031
       0.025
       0.017
       0.005
      -0.011
      -0.031
      -0.048
      -0.058
      -0.061
      -0.061
      -0.058
      -0.054
      -0.048
      -0.039
      -0.030
      -0.022
      -0.018
      -0.017
      -0.019
      -0.022
      -0.021
      -0.016
      -0.008
      -0.002
       0.000
      -0.001
       0.000
       0.003
       0.007
       0.011
       0.015
       0.018
       0.019
       0.014
       0.005
      -0.003
      -0.005
      -0.001
       0.004
       0.006
       0.005
       0.004
       0.007
       0.014
       0.024
       0.031
       0.033
       0.029
       0.019
       0.006
      -0.004
      -0.007
      -0.006
      -0.005
      -0.010
      -0.023
      -0.039
      -0.050
      -0.050
      -0.042
      -0.029
      -0.015
       0.000
       0.015
       0.028
       0.037
       0.042
       0.044
       0.045
       0.043
       0.037
       0.027
       0.013
       0.001
      -0.009
      -0.015
      -0.016
      -0.013
      -0.005
       0.003
       0.006
       0.002
      -0.003
      -0.005
      -0.003
       0.001
       0.000
      -0.009
      -0.024
      -0.038
      -0.047
      -0.051
      -0.052
      -0.051
      -0.048
      -0.042
      -0.032
      -0.021
      -0.010
       0.001
       0.012
       0.027
       0.045
       0.062
       0.076
       0.080
       0.076
       0.064
       0.048
       0.032
       0.018
       0.006
      -0.002
      -0.007
      -0.007
      -0.005
      -0.004
      -0.007
      -0.015
      -0.025
      -0.030
      -0.028
      -0.024
      -0.023
      -0.030
      -0.041
      -0.050
      -0.054
      -0.057
      -0.061
      -0.070
      -0.078
      -0.082
      -0.079
      -0.071
      -0.060
      -0.047
      -0.034
      -0.020
      -0.007
       0.006
       0.022
       0.038
       0.052
       0.060
       0.060
       0.055
       0.052
       0.054
       0.061
       0.069
       0.077
       0.085
       0.094
       0.101
       0.099
       0.088
       0.072
       0.061
       0.057
       0.056
       0.051
       0.040
       0.024
       0.010
      -0.002
      -0.014
      -0.026
      -0.038
      -0.045
      -0.045
      -0.039
      -0.032
      -0.026
      -0.020
      -0.012
       0.000
       0.011
       0.014
       0.008
      -0.002
      -0.008
      -0.006
       0.003
       0.011
       0.011
       0.001
      -0.015
      -0.030
      -0.041
      -0.047
      -0.050
      -0.052
      -0.055
      -0.064
      -0.076
      -0.087
      -0.089
      -0.081
      -0.066
      -0.053
      -0.050
      -0.055
      -0.064
      -0.072
      -0.075
      -0.072
      -0.065
      -0.057
      -0.048
      -0.038
      -0.026
      -0.013
      -0.001
       0.012
       0.027
       0.046
       0.064
       0.078
       0.086
       0.092
       0.098
       0.107
       0.115
       0.117
       0.112
       0.101
       0.090
       0.080
       0.073
       0.067
       0.062
       0.059
       0.056
       0.052
       0.045
       0.035
       0.023
       0.009
      -0.003
      -0.012
      -0.017
      -0.020
      -0.027
      -0.040
      -0.052
      -0.060
      -0.061
      -0.058
      -0.057
      -0.057
      -0.055
      -0.048
      -0.036
      -0.024
      -0.014
      -0.003
       0.010
       0.026
       0.042
       0.054
       0.058
       0.057
       0.057
       0.064
       0.078
       0.095
       0.110
       0.120
       0.125
       0.126
       0.123
       0.115
       0.103
       0.084
       0.057
       0.023
      -0.013
      -0.044
      -0.065
      -0.075
      -0.078
      -0.079
      -0.078
      -0.074
      -0.068
      -0.063
      -0.060
      -0.062
      -0.066
      -0.069
      -0.069
      -0.068
      -0.068
      -0.068
      -0.066
      -0.056
      -0.038
      -0.013
       0.013
       0.032
       0.045
       0.052
       0.057
       0.059
       0.059
       0.058
       0.057
       0.059
       0.063
       0.066
       0.066
       0.063
       0.059
       0.057
       0.056
       0.053
       0.044
       0.027
       0.007
      -0.013
      -0.027
      -0.036
      -0.041
      -0.042
      -0.038
      -0.029
      -0.015
       0.003
       0.020
       0.031
       0.036
       0.035
       0.029
       0.019
       0.006
      -0.008
      -0.019
      -0.027
      -0.033
      -0.038
      -0.043
      -0.049
      -0.053
      -0.055
      -0.054
      -0.054
      -0.056
      -0.062
      -0.071
      -0.077
      -0.075
      -0.067
      -0.053
      -0.038
      -0.024
      -0.012
      -0.002
       0.008
       0.015
       0.018
       0.015
       0.007
      -0.003
      -0.010
      -0.013
      -0.013
      -0.013
      -0.013
      -0.010
      -0.004
       0.006
       0.016
       0.024
       0.024
       0.016
       0.003
      -0.011
      -0.019
      -0.022
      -0.020
      -0.018
      -0.019
      -0.021
      -0.021
      -0.015
      -0.004
       0.006
       0.012
       0.010
       0.007
       0.010
       0.022
       0.038
       0.052
       0.064
       0.074
       0.086
       0.100
       0.112
       0.117
       0.113
       0.102
       0.087
       0.073
       0.062
       0.051
       0.038
       0.026
       0.019
       0.020
       0.025
       0.031
       0.036
       0.040
       0.044
       0.045
       0.045
       0.044
       0.043
       0.044
       0.044
       0.042
       0.039
       0.039
       0.044
       0.053
       0.062
       0.070
       0.076
       0.077
       0.073
       0.067
       0.059
       0.050
       0.040
       0.027
       0.013
      -0.001
      -0.015
      -0.031
      -0.051
      -0.073
      -0.092
      -0.104
      -0.110
      -0.113
      -0.115
      -0.116
      -0.114
      -0.105
      -0.090
      -0.073
      -0.056
      -0.042
      -0.031
      -0.027
      -0.026
      -0.026
      -0.022
      -0.012
       0.000
       0.011
       0.018
       0.024
       0.032
       0.043
       0.053
       0.061
       0.065
       0.064
       0.057
       0.044
       0.025
       0.001
      -0.021
      -0.038
      -0.049
      -0.059
      -0.070
      -0.083
      -0.093
      -0.097
      -0.092
      -0.082
      -0.070
      -0.061
      -0.058
      -0.060
      -0.063
      -0.062
      -0.053
      -0.036
      -0.010
       0.021
       0.054
       0.086
       0.113
       0.135
       0.152
       0.166
       0.176
       0.184
       0.189
       0.191
       0.189
       0.182
       0.166
       0.142
       0.112
       0.078
       0.044
       0.008
      -0.027
      -0.058
      -0.084
      -0.100
      -0.110
      -0.114
      -0.114
      -0.109
      -0.101
      -0.092
      -0.086
      -0.083
      -0.083
      -0.084
      -0.086
      -0.089
      -0.094
      -0.096
      -0.089
      -0.072
      -0.049
      -0.026
      -0.004
       0.016
       0.035
       0.054
       0.069
       0.082
       0.092
       0.097
       0.097
       0.087
       0.069
       0.048
       0.030
       0.018
       0.011
       0.004
      -0.005
      -0.014
      -0.018
      -0.014
      -0.004
       0.008
       0.015
       0.015
       0.008
      -0.001
      -0.010
      -0.021
      -0.037
      -0.055
      -0.071
      -0.080
      -0.080
      -0.076
      -0.073
      -0.069
      -0.059
      -0.038
      -0.007
       0.028
       0.061
       0.087
       0.108
       0.126
       0.140
       0.147
       0.147
       0.144
       0.140
       0.137
       0.131
       0.121
       0.108
       0.093
       0.076
       0.055
       0.033
       0.010
      -0.009
      -0.025
      -0.037
      -0.046
      -0.052
      -0.053
      -0.049
      -0.042
      -0.035
      -0.032
      -0.031
      -0.029
      -0.022
      -0.010
       0.008
       0.030
       0.053
       0.074
       0.087
       0.090
       0.085
       0.077
       0.070
       0.064
       0.055
       0.040
       0.018
      -0.006
      -0.029
      -0.050
      -0.070
      -0.092
      -0.115
      -0.135
      -0.147
      -0.148
      -0.141
      -0.129
      -0.112
      -0.088
      -0.058
      -0.024
       0.011
       0.043
       0.073
       0.101
       0.129
       0.159
       0.188
       0.212
       0.227
       0.231
       0.229
       0.223
       0.213
       0.194
       0.167
       0.130
       0.084
       0.029
      -0.031
      -0.090
      -0.143
      -0.187
      -0.223
      -0.255
      -0.283
      -0.305
      -0.318
      -0.318
      -0.303
      -0.279
      -0.251
      -0.226
      -0.207
      -0.191
      -0.175
      -0.155
      -0.129
      -0.093
      -0.048
       0.004
       0.058
       0.107
       0.145
       0.172
       0.194
       0.218
       0.243
       0.263
       0.269
       0.263
       0.250
       0.238
       0.226
       0.211
       0.188
       0.159
       0.125
       0.093
       0.064
       0.040
       0.022
       0.010
       0.003
      -0.001
      -0.010
      -0.025
      -0.045
      -0.066
      -0.082
      -0.097
      -0.114
      -0.136
      -0.163
      -0.188
      -0.207
      -0.219
      -0.224
      -0.220
      -0.204
      -0.176
      -0.142
      -0.109
      -0.081
      -0.057
      -0.033
      -0.008
       0.017
       0.039
       0.057
       0.075
       0.094
       0.117
       0.139
       0.157
       0.170
       0.176
       0.180
       0.182
       0.181
       0.174
       0.158
       0.134
       0.105
       0.075
       0.045
       0.017
      -0.011
      -0.041
      -0.070
      -0.095
      -0.106
      -0.100
      -0.081
      -0.058
      -0.041
      -0.032
      -0.028
      -0.020
      -0.006
       0.011
       0.022
       0.021
       0.011
       0.002
       0.002
       0.010
       0.020
       0.027
       0.030
       0.032
       0.035
       0.042
       0.050
       0.061
       0.073
       0.086
       0.097
       0.103
       0.103
       0.094
       0.077
       0.054
       0.032
       0.014
       0.002
      -0.009
      -0.020
      -0.036
      -0.052
      -0.063
      -0.068
      -0.067
      -0.067
      -0.070
      -0.075
      -0.081
      -0.085
      -0.090
      -0.094
      -0.095
      -0.090
      -0.076
      -0.055
      -0.031
      -0.003
       0.028
       0.066
       0.109
       0.153
       0.192
       0.218
       0.229
       0.229
       0.220
       0.205
       0.182
       0.149
       0.107
       0.061
       0.014
      -0.033
      -0.080
      -0.125
      -0.163
      -0.192
      -0.211
      -0.224
      -0.229
      -0.226
      -0.214
      -0.191
      -0.159
      -0.122
      -0.085
      -0.049
      -0.015
       0.015
       0.036
       0.047
       0.049
       0.050
       0.051
       0.051
       0.040
       0.016
      -0.018
      -0.053
      -0.081
      -0.102
      -0.119
      -0.138
      -0.158
      -0.174
      -0.178
      -0.168
      -0.145
      -0.109
      -0.064
      -0.011
       0.048
       0.111
       0.170
       0.222
       0.262
       0.294
       0.323
       0.353
       0.379
       0.397
       0.404
       0.402
       0.397
       0.391
       0.383
       0.369
       0.347
       0.317
       0.280
       0.236
       0.186
       0.128
       0.060
      -0.019
      -0.110
      -0.207
      -0.306
      -0.400
      -0.488
      -0.569
      -0.638
      -0.690
      -0.720
      -0.728
      -0.720
      -0.698
      -0.659
      -0.599
      -0.515
      -0.412
      -0.300
      -0.186
      -0.070
       0.049
       0.176
       0.309
       0.439
       0.556
       0.651
       0.719
       0.763
       0.784
       0.786
       0.769
       0.735
       0.682
       0.607
       0.511
       0.398
       0.271
       0.134
      -0.007
      -0.148
      -0.283
      -0.403
      -0.504
      -0.581
      -0.633
      -0.659
      -0.658
      -0.630
      -0.577
      -0.507
      -0.429
      -0.350
      -0.270
      -0.187
      -0.098
      -0.007
       0.078
       0.150
       0.201
       0.233
       0.251
       0.264
       0.277
       0.291
       0.303
       0.310
       0.307
       0.294
       0.275
       0.253
       0.233
       0.218
       0.204
       0.187
       0.165
       0.138
       0.108
       0.080
       0.054
       0.032
       0.014
      -0.002
      -0.020
      -0.042
      -0.068
      -0.094
      -0.117
      -0.136
      -0.155
      -0.177
      -0.203
      -0.233
      -0.268
      -0.307
      -0.348
      -0.384
      -0.411
      -0.427
      -0.434
      -0.429
      -0.411
      -0.376
      -0.324
      -0.258
      -0.180
      -0.092
       0.004
       0.103
       0.199
       0.286
       0.359
       0.413
       0.445
       0.456
       0.450
       0.431
       0.399
       0.350
       0.283
       0.200
       0.112
       0.029
      -0.046
      -0.112
      -0.171
      -0.225
      -0.268
      -0.297
      -0.308
      -0.301
      -0.278
      -0.239
      -0.189
      -0.130
      -0.068
      -0.006
       0.055
       0.115
       0.172
       0.223
       0.271
       0.313
       0.350
       0.374
       0.380
       0.368
       0.344
       0.311
       0.269
       0.216
       0.147
       0.064
      -0.025
      -0.106
      -0.170
      -0.215
      -0.247
      -0.270
      -0.284
      -0.292
      -0.298
      -0.306
      -0.314
      -0.319
      -0.318
      -0.311
      -0.300
      -0.281
      -0.248
      -0.194
      -0.121
      -0.039
       0.041
       0.110
       0.170
       0.225
       0.275
       0.320
       0.356
       0.378
       0.385
       0.375
       0.347
       0.305
       0.252
       0.190
       0.120
       0.042
      -0.039
      -0.115
      -0.175
      -0.217
      -0.241
      -0.254
      -0.257
      -0.252
      -0.236
      -0.210
      -0.178
      -0.147
      -0.117
      -0.086
      -0.050
      -0.006
       0.045
       0.098
       0.148
       0.191
       0.227
       0.259
       0.288
       0.315
       0.334
       0.342
       0.339
       0.325
       0.303
       0.274
       0.240
       0.202
       0.162
       0.120
       0.076
       0.026
      -0.028
      -0.083
      -0.137
      -0.186
      -0.230
      -0.268
      -0.299
      -0.321
      -0.331
      -0.330
      -0.323
      -0.312
      -0.297
      -0.275
      -0.245
      -0.208
      -0.169
      -0.128
      -0.084
      -0.034
       0.021
       0.080
       0.139
       0.194
       0.238
       0.266
       0.278
       0.276
       0.266
       0.249
       0.226
       0.196
       0.159
       0.122
       0.088
       0.060
       0.039
       0.025
       0.021
       0.027
       0.040
       0.054
       0.066
       0.076
       0.085
       0.090
       0.083
       0.059
       0.014
      -0.047
      -0.116
      -0.183
      -0.243
      -0.289
      -0.320
      -0.336
      -0.338
      -0.328
      -0.310
      -0.284
      -0.253
      -0.219
      -0.184
      -0.152
      -0.128
      -0.110
      -0.097
      -0.083
      -0.067
      -0.048
      -0.027
      -0.005
       0.018
       0.039
       0.060
       0.081
       0.106
       0.132
       0.153
       0.166
       0.170
       0.172
       0.177
       0.189
       0.207
       0.227
       0.249
       0.273
       0.302
       0.336
       0.368
       0.389
       0.394
       0.382
       0.359
       0.328
       0.291
       0.246
       0.194
       0.135
       0.074
       0.017
      -0.034
      -0.076
      -0.108
      -0.132
      -0.149
      -0.158
      -0.160
      -0.157
      -0.153
      -0.150
      -0.149
      -0.146
      -0.137
      -0.119
      -0.095
      -0.067
      -0.038
      -0.007
       0.030
       0.072
       0.115
       0.153
       0.179
       0.188
       0.177
       0.148
       0.104
       0.053
      -0.003
      -0.064
      -0.129
      -0.193
      -0.251
      -0.295
      -0.325
      -0.340
      -0.344
      -0.338
      -0.323
      -0.296
      -0.255
      -0.200
      -0.134
      -0.063
       0.004
       0.061
       0.103
       0.134
       0.158
       0.180
       0.198
       0.208
       0.207
       0.198
       0.189
       0.187
       0.196
       0.211
       0.226
       0.235
       0.234
       0.223
       0.203
       0.173
       0.132
       0.079
       0.018
      -0.047
      -0.112
      -0.174
      -0.231
      -0.278
      -0.312
      -0.331
      -0.339
      -0.336
      -0.325
      -0.307
      -0.283
      -0.253
      -0.221
      -0.188
      -0.152
      -0.113
      -0.070
      -0.026
       0.015
       0.051
       0.082
       0.110
       0.138
       0.167
       0.196
       0.225
       0.255
       0.284
       0.310
       0.327
       0.330
       0.318
       0.294
       0.267
       0.242
       0.221
       0.201
       0.179
       0.153
       0.125
       0.094
       0.060
       0.023
      -0.015
      -0.049
      -0.077
      -0.099
      -0.112
      -0.120
      -0.129
      -0.145
      -0.173
      -0.210
      -0.251
      -0.290
      -0.323
      -0.346
      -0.356
      -0.349
      -0.325
      -0.283
      -0.224
      -0.150
      -0.062
       0.032
       0.126
       0.212
       0.286
       0.349
       0.400
       0.438
       0.460
       0.461
       0.441
       0.401
       0.343
       0.276
       0.206
       0.140
