Origin Time       14/12/2005 07:09:48
Lat.              30.9 N 
Long.             79.3 E 
Depth (Km)         25.7
Magnitude         5.2
 Region           Chamoli-Uttarakhand                                              
 Above details taken from IMD 
   
Station Code      Roo
Station Lat.       29.866
Station Long.      77.901
Station Height(m)  253.5
Site Class        C   Vs30 between 200 m/sec to 375 m/sec *  
Record Time       14.12.2005 07:10:06.449
Sampling Rate     200. Hz
 Record Duration   66.215 Sec.
 Direction         Vert. (Up positive)
Max. Acceleration     -2.341 cm/sec**2
     
  * For reference see Site Classification link of website 
     
 Base Line Corrected and Low Pass Filtered (Cut Off at 35 Hz) Time History
 Acceleration data in cm/sec**2
    
[...]
       0.348
       0.280
       0.186
       0.023
      -0.195
      -0.414
      -0.596
      -0.748
      -0.886
      -0.994
      -1.027
      -0.970
      -0.863
      -0.759
      -0.669
      -0.561
      -0.416
      -0.267
      -0.169
      -0.133
      -0.105
      -0.021
       0.127
       0.287
       0.405
       0.474
       0.526
       0.580
       0.626
       0.641
       0.619
       0.570
       0.505
       0.433
       0.362
       0.294
       0.212
       0.089
      -0.078
      -0.248
      -0.371
      -0.439
      -0.496
      -0.569
      -0.612
      -0.546
      -0.356
      -0.132
       0.006
       0.024
      -0.005
      -0.001
       0.031
       0.022
      -0.058
      -0.155
      -0.173
      -0.078
       0.089
       0.255
       0.374
       0.434
       0.433
       0.367
       0.239
       0.074
      -0.094
      -0.236
      -0.334
      -0.375
      -0.350
      -0.264
      -0.148
      -0.050
      -0.004
      -0.013
      -0.053
      -0.093
      -0.110
      -0.100
      -0.058
       0.020
       0.137
       0.276
       0.397
       0.458
       0.440
       0.366
       0.278
       0.205
       0.143
       0.076
       0.007
      -0.036
      -0.021
       0.054
       0.167
       0.288
       0.395
       0.471
       0.499
       0.464
       0.361
       0.209
       0.035
      -0.131
      -0.262
      -0.340
      -0.358
      -0.321
      -0.249
      -0.169
      -0.102
      -0.061
      -0.049
      -0.062
      -0.093
      -0.140
      -0.203
      -0.282
      -0.360
      -0.413
      -0.415
      -0.360
      -0.262
      -0.149
      -0.047
       0.032
       0.085
       0.122
       0.153
       0.187
       0.230
       0.285
       0.353
       0.425
       0.477
       0.479
       0.413
       0.289
       0.143
       0.005
      -0.117
      -0.231
      -0.329
      -0.381
      -0.353
      -0.242
      -0.077
       0.098
       0.252
       0.364
       0.403
       0.331
       0.136
      -0.138
      -0.410
      -0.609
      -0.715
      -0.751
      -0.742
      -0.700
      -0.633
      -0.551
      -0.461
      -0.349
      -0.208
      -0.062
       0.032
       0.038
      -0.017
      -0.060
      -0.041
       0.019
       0.049
       0.012
      -0.063
      -0.111
      -0.098
      -0.044
       0.019
       0.086
       0.175
       0.289
       0.403
       0.488
       0.536
       0.547
       0.500
       0.370
       0.165
      -0.055
      -0.227
      -0.330
      -0.392
      -0.428
      -0.414
      -0.325
      -0.181
      -0.043
       0.049
       0.115
       0.200
       0.309
       0.399
       0.436
       0.444
       0.483
       0.580
       0.692
       0.754
       0.745
       0.696
       0.643
       0.582
       0.492
       0.373
       0.256
       0.168
       0.097
       0.014
      -0.092
      -0.195
      -0.277
      -0.348
      -0.429
      -0.523
      -0.595
      -0.617
      -0.594
      -0.557
      -0.527
      -0.496
      -0.450
      -0.390
      -0.330
      -0.269
      -0.183
      -0.062
       0.060
       0.119
       0.084
      -0.008
      -0.086
      -0.105
      -0.083
      -0.058
      -0.048
      -0.046
      -0.037
      -0.023
      -0.001
       0.042
       0.115
       0.200
       0.269
       0.310
       0.346
       0.394
       0.438
       0.430
       0.335
       0.166
      -0.027
      -0.195
      -0.310
      -0.364
      -0.354
      -0.284
      -0.172
      -0.059
       0.013
       0.013
      -0.058
      -0.175
      -0.293
      -0.367
      -0.365
      -0.285
      -0.149
       0.019
       0.206
       0.413
       0.630
       0.823
       0.944
       0.970
       0.914
       0.803
       0.652
       0.456
       0.229
       0.010
      -0.157
      -0.271
      -0.377
      -0.520
      -0.700
      -0.874
      -1.002
      -1.084
      -1.134
      -1.148
      -1.091
      -0.947
      -0.741
      -0.528
      -0.337
      -0.151
       0.061
       0.290
       0.482
       0.587
       0.595
       0.542
       0.476
       0.426
       0.406
       0.420
       0.451
       0.456
       0.393
       0.257
       0.094
      -0.043
      -0.137
      -0.208
      -0.282
      -0.356
      -0.419
      -0.480
      -0.561
      -0.662
      -0.743
      -0.761
      -0.715
      -0.651
      -0.608
      -0.562
      -0.454
      -0.251
       0.018
       0.295
       0.543
       0.756
       0.917
       0.993
       0.958
       0.838
       0.693
       0.566
       0.458
       0.352
       0.250
       0.167
       0.104
       0.053
       0.017
       0.026
       0.096
       0.197
       0.266
       0.276
       0.272
       0.323
       0.448
       0.588
       0.664
       0.636
       0.521
       0.362
       0.193
       0.037
      -0.098
      -0.217
      -0.343
      -0.488
      -0.633
      -0.732
      -0.755
      -0.712
      -0.634
      -0.539
      -0.414
      -0.250
      -0.074
       0.068
       0.154
       0.205
       0.255
       0.308
       0.330
       0.297
       0.222
       0.139
       0.065
      -0.023
      -0.148
      -0.305
      -0.465
      -0.608
      -0.744
      -0.876
      -0.970
      -0.959
      -0.802
      -0.521
      -0.192
       0.113
       0.370
       0.587
       0.769
       0.897
       0.953
       0.946
       0.901
       0.833
       0.734
       0.595
       0.440
       0.320
       0.276
       0.310
       0.392
       0.494
       0.611
       0.733
       0.825
       0.830
       0.720
       0.514
       0.260
      -0.009
      -0.286
      -0.556
      -0.772
      -0.868
      -0.810
      -0.632
      -0.428
      -0.289
      -0.254
      -0.288
      -0.319
      -0.299
      -0.242
      -0.202
      -0.219
      -0.279
      -0.331
      -0.337
      -0.303
      -0.262
      -0.240
      -0.237
      -0.250
      -0.293
      -0.374
      -0.477
      -0.547
      -0.528
      -0.400
      -0.192
       0.040
       0.246
       0.395
       0.472
       0.477
       0.417
       0.304
       0.137
      -0.080
      -0.323
      -0.523
      -0.599
      -0.514
      -0.314
      -0.096
       0.055
       0.109
       0.082
       0.009
      -0.069
      -0.110
      -0.088
      -0.025
       0.020
      -0.006
      -0.104
      -0.231
      -0.344
      -0.421
      -0.444
      -0.386
      -0.237
      -0.037
       0.143
       0.274
       0.396
       0.550
       0.704
       0.771
       0.700
       0.530
       0.330
       0.119
      -0.119
      -0.348
      -0.464
      -0.390
      -0.190
      -0.019
       0.044
       0.072
       0.177
       0.333
       0.384
       0.230
      -0.040
      -0.242
      -0.312
      -0.363
      -0.513
      -0.700
      -0.732
      -0.517
      -0.184
       0.066
       0.171
       0.235
       0.343
       0.439
       0.426
       0.341
       0.347
       0.535
       0.786
       0.892
       0.789
       0.604
       0.487
       0.438
       0.355
       0.206
       0.083
       0.063
       0.087
       0.035
      -0.100
      -0.190
      -0.138
      -0.015
       0.026
      -0.047
      -0.107
      -0.037
       0.098
       0.122
      -0.034
      -0.248
      -0.370
      -0.414
      -0.519
      -0.741
      -0.945
      -0.958
      -0.776
      -0.568
      -0.466
      -0.416
      -0.283
      -0.065
       0.083
       0.037
      -0.130
      -0.223
      -0.149
      -0.007
       0.062
       0.059
       0.104
       0.258
       0.435
       0.521
       0.531
       0.588
       0.744
       0.897
       0.904
       0.777
       0.670
       0.696
       0.775
       0.738
       0.525
       0.252
       0.060
      -0.041
      -0.148
      -0.305
      -0.439
      -0.471
      -0.436
      -0.443
      -0.519
      -0.558
      -0.449
      -0.233
      -0.071
      -0.071
      -0.175
      -0.256
      -0.281
      -0.330
      -0.454
      -0.575
      -0.567
      -0.423
      -0.288
      -0.300
      -0.438
      -0.555
      -0.548
      -0.454
      -0.359
      -0.268
      -0.106
       0.159
       0.453
       0.679
       0.828
       0.977
       1.161
       1.311
       1.334
       1.232
       1.094
       0.979
       0.839
       0.606
       0.307
       0.060
      -0.067
      -0.139
      -0.277
      -0.500
      -0.704
      -0.788
      -0.777
      -0.775
      -0.827
      -0.870
      -0.842
      -0.779
      -0.760
      -0.778
      -0.720
      -0.502
      -0.184
       0.091
       0.261
       0.394
       0.554
       0.674
       0.623
       0.384
       0.110
      -0.027
      -0.017
       0.009
      -0.041
      -0.118
      -0.133
      -0.107
      -0.153
      -0.305
      -0.444
      -0.428
      -0.285
      -0.200
      -0.306
      -0.535
      -0.710
      -0.760
      -0.776
      -0.862
      -0.986
      -1.039
      -1.003
      -0.981
      -1.039
      -1.082
      -0.931
      -0.541
      -0.050
       0.368
       0.682
       0.966
       1.242
       1.414
       1.388
       1.214
       1.038
       0.931
       0.824
       0.629
       0.386
       0.231
       0.224
       0.270
       0.243
       0.150
       0.109
       0.174
       0.242
       0.167
      -0.055
      -0.275
      -0.367
      -0.374
      -0.434
      -0.598
      -0.767
      -0.829
      -0.795
      -0.755
      -0.735
      -0.636
      -0.359
       0.064
       0.497
       0.847
       1.128
       1.387
       1.591
       1.647
       1.534
       1.337
       1.155
       0.972
       0.701
       0.330
      -0.007
      -0.158
      -0.123
      -0.056
      -0.091
      -0.202
      -0.271
      -0.260
      -0.266
      -0.384
      -0.583
      -0.740
      -0.794
      -0.796
      -0.810
      -0.795
      -0.648
      -0.353
      -0.040
       0.144
       0.178
       0.171
       0.216
       0.291
       0.330
       0.341
       0.406
       0.565
       0.731
       0.777
       0.678
       0.535
       0.444
       0.385
       0.262
       0.040
      -0.206
      -0.388
      -0.500
      -0.602
      -0.702
      -0.727
      -0.624
      -0.453
      -0.328
      -0.278
      -0.205
      -0.014
       0.249
       0.439
       0.484
       0.468
       0.510
       0.598
       0.587
       0.375
       0.029
      -0.285
      -0.480
      -0.614
      -0.775
      -0.953
      -1.069
      -1.086
      -1.052
      -1.011
      -0.919
      -0.703
      -0.386
      -0.105
       0.025
       0.041
       0.090
       0.267
       0.515
       0.711
       0.819
       0.906
       1.029
       1.134
       1.104
       0.905
       0.629
       0.391
       0.210
       0.024
      -0.197
      -0.376
      -0.421
      -0.329
      -0.191
      -0.076
       0.038
       0.195
       0.348
       0.374
       0.218
      -0.015
      -0.140
      -0.072
       0.093
       0.212
       0.242
       0.257
       0.302
       0.297
       0.118
      -0.247
      -0.662
      -0.975
      -1.160
      -1.294
      -1.420
      -1.478
      -1.387
      -1.158
      -0.897
      -0.691
      -0.526
      -0.352
      -0.172
      -0.054
      -0.023
       0.005
       0.139
       0.390
       0.649
       0.808
       0.867
       0.894
       0.921
       0.904
       0.800
       0.643
       0.501
       0.391
       0.265
       0.094
      -0.072
      -0.155
      -0.144
      -0.105
      -0.099
      -0.116
      -0.107
      -0.076
      -0.081
      -0.161
      -0.269
      -0.325
      -0.310
      -0.279
      -0.281
      -0.278
      -0.192
      -0.008
       0.194
       0.313
       0.330
       0.296
       0.245
       0.150
      -0.021
      -0.223
      -0.354
      -0.357
      -0.281
      -0.226
      -0.225
      -0.225
      -0.177
      -0.111
      -0.108
      -0.193
      -0.296
      -0.330
      -0.273
      -0.176
      -0.080
       0.030
       0.184
       0.358
       0.469
       0.449
       0.304
       0.104
      -0.079
      -0.208
      -0.265
      -0.227
      -0.069
       0.194
       0.500
       0.783
       1.019
       1.212
       1.346
       1.363
       1.214
       0.927
       0.605
       0.347
       0.185
       0.088
       0.031
       0.030
       0.107
       0.246
       0.385
       0.460
       0.438
       0.316
       0.104
      -0.171
      -0.454
      -0.681
      -0.825
      -0.923
      -1.033
      -1.169
      -1.273
      -1.264
      -1.119
      -0.893
      -0.663
      -0.458
      -0.255
      -0.025
       0.227
       0.479
       0.724
       0.959
       1.147
       1.204
       1.060
       0.733
       0.327
      -0.036
      -0.301
      -0.472
      -0.561
      -0.559
      -0.468
      -0.330
      -0.206
      -0.114
      -0.019
       0.107
       0.224
       0.250
       0.158
       0.032
      -0.006
       0.105
       0.319
       0.546
       0.725
       0.824
       0.809
       0.643
       0.341
      -0.005
      -0.286
      -0.461
      -0.576
      -0.684
      -0.768
      -0.759
      -0.628
      -0.433
      -0.267
      -0.175
      -0.120
      -0.045
       0.072
       0.215
       0.370
       0.548
       0.761
       0.991
       1.194
       1.317
       1.327
       1.203
       0.949
       0.589
       0.164
      -0.301
      -0.808
      -1.350
      -1.861
      -2.223
      -2.341
      -2.231
      -2.006
      -1.781
      -1.587
      -1.396
      -1.193
      -1.005
      -0.848
      -0.688
      -0.477
      -0.236
      -0.053
       0.012
       0.014
       0.075
       0.256
       0.479
       0.611
       0.595
       0.495
       0.408
       0.367
       0.352
       0.377
       0.514
       0.806
       1.178
       1.461
       1.534
       1.415
       1.210
       0.989
       0.732
       0.409
       0.074
      -0.166
      -0.256
      -0.243
      -0.195
      -0.118
       0.030
       0.236
       0.388
       0.373
       0.193
      -0.033
      -0.183
      -0.236
      -0.250
      -0.265
      -0.265
      -0.225
      -0.157
      -0.086
      -0.003
       0.125
       0.299
       0.463
       0.573
       0.665
       0.815
       1.025
       1.175
       1.106
       0.774
       0.287
      -0.191
      -0.571
      -0.860
      -1.097
      -1.282
      -1.383
      -1.376
      -1.268
      -1.078
      -0.818
      -0.507
      -0.178
       0.123
       0.361
       0.513
       0.555
       0.470
       0.282
       0.080
      -0.043
      -0.061
      -0.043
      -0.076
      -0.170
      -0.255
      -0.253
      -0.168
      -0.068
      -0.018
      -0.030
      -0.083
      -0.152
      -0.220
      -0.253
      -0.216
      -0.101
       0.050
       0.175
       0.246
       0.291
       0.355
       0.454
       0.564
       0.661
       0.735
       0.783
       0.787
       0.724
       0.598
       0.451
       0.317
       0.195
       0.056
      -0.117
      -0.303
      -0.455
      -0.548
      -0.587
      -0.604
      -0.637
      -0.712
      -0.829
      -0.952
      -1.015
      -0.962
      -0.789
      -0.549
      -0.309
      -0.097
       0.094
       0.268
       0.400
       0.464
       0.477
       0.489
       0.530
       0.552
       0.473
       0.257
      -0.031
      -0.280
      -0.424
      -0.498
      -0.585
      -0.729
      -0.895
      -1.005
      -1.004
      -0.876
      -0.625
      -0.268
       0.156
       0.568
       0.881
       1.059
       1.126
       1.133
       1.094
       0.993
       0.823
       0.619
       0.436
       0.304
       0.218
       0.172
       0.180
       0.272
       0.444
       0.633
       0.749
       0.735
       0.607
       0.443
       0.321
       0.263
       0.232
       0.181
       0.106
       0.053
       0.057
       0.097
       0.110
       0.051
      -0.069
      -0.221
      -0.411
      -0.675
      -1.015
      -1.365
      -1.631
      -1.762
      -1.767
      -1.657
      -1.419
      -1.049
      -0.613
      -0.230
       0.025
       0.183
       0.330
       0.508
       0.660
       0.711
       0.653
       0.559
       0.492
       0.451
       0.400
       0.344
       0.339
       0.416
       0.538
       0.637
       0.683
       0.705
       0.720
       0.682
       0.524
       0.238
      -0.093
      -0.369
      -0.562
      -0.723
      -0.898
      -1.058
      -1.126
      -1.059
      -0.895
      -0.700
      -0.497
      -0.262
       0.018
       0.309
       0.560
       0.759
       0.924
       1.044
       1.065
       0.944
       0.718
       0.481
       0.286
       0.095
      -0.164
      -0.486
      -0.767
      -0.907
      -0.917
      -0.911
      -0.986
      -1.137
      -1.290
      -1.389
      -1.426
      -1.400
      -1.284
      -1.066
      -0.810
      -0.634
      -0.602
      -0.646
      -0.629
      -0.467
      -0.199
       0.087
       0.350
       0.596
       0.806
       0.908
       0.853
       0.708
       0.623
       0.702
       0.905
       1.107
       1.235
       1.331
       1.484
       1.716
       1.952
       2.095
       2.101
       1.976
       1.736
       1.390
       0.967
       0.525
       0.119
      -0.238
      -0.574
      -0.905
      -1.206
      -1.427
      -1.547
      -1.586
      -1.580
      -1.542
      -1.459
      -1.325
      -1.165
      -1.023
      -0.916
      -0.815
      -0.671
      -0.463
      -0.223
      -0.011
       0.140
       0.232
       0.291
       0.334
       0.369
       0.418
       0.519
       0.699
       0.945
       1.207
       1.429
       1.567
       1.581
       1.440
       1.138
       0.727
       0.293
      -0.086
      -0.387
      -0.619
      -0.786
      -0.862
      -0.819
      -0.664
      -0.436
      -0.188
       0.045
       0.237
       0.370
       0.449
       0.515
       0.623
       0.789
       0.958
       1.038
       0.978
       0.808
       0.601
       0.403
       0.203
      -0.013
      -0.220
      -0.364
      -0.413
      -0.390
      -0.338
      -0.265
      -0.153
      -0.014
       0.077
       0.018
      -0.237
      -0.631
      -1.040
      -1.356
      -1.526
      -1.551
      -1.456
      -1.274
      -1.041
      -0.797
      -0.576
      -0.395
      -0.269
      -0.219
      -0.268
      -0.417
      -0.629
      -0.835
      -0.960
      -0.950
      -0.783
      -0.476
      -0.091
       0.282
       0.565
       0.741
       0.853
       0.964
       1.093
       1.208
       1.265
       1.260
       1.240
       1.259
       1.321
       1.377
       1.364
       1.254
       1.065
       0.831
       0.568
       0.276
      -0.036
      -0.332
      -0.561
      -0.692
      -0.731
      -0.713
      -0.677
      -0.655
      -0.669
      -0.731
      -0.827
      -0.926
      -1.003
      -1.064
      -1.132
      -1.202
      -1.210
      -1.069
      -0.752
      -0.340
       0.037
       0.306
       0.492
       0.663
       0.825
       0.914
       0.873
       0.732
       0.581
       0.473
       0.378
       0.234
       0.035
      -0.157
      -0.284
      -0.350
      -0.394
