Origin Time       10/07/2010 03:16:20 UTC
Lat.              29.9 N 
Long.             79.6 E 
Depth (Km)         10.0
Magnitude         4.1
 Region           ALMORA-UTTARAKHAND                                               
 Above details taken from IMD 
    
Station Code      Roo
Station Lat.       29.866  N
Station Long.      77.901  E
Station Height(m)  243.0
Site Class        C   Vs30 between 200 m/sec to 375 m/sec *  
Record Time       10.07.2010 03:16:19.089 UTC
Sampling Rate     200. Hz
 Record Duration   80.000 Sec.
 Direction         N-S (N positive)
Max. Acceleration      0.850 cm/sec**2
     
  * For reference see Site Classification link of website 
     
 Base Line Corrected and Low Pass Filtered (Cut Off at 35 Hz) Time History
 Acceleration data in cm/sec**2
    
[...]
      -0.034
      -0.020
      -0.009
      -0.003
       0.001
       0.003
       0.004
       0.005
       0.010
       0.019
       0.030
       0.035
       0.031
       0.018
       0.000
      -0.014
      -0.019
      -0.014
      -0.005
       0.002
       0.005
       0.005
       0.008
       0.018
       0.034
       0.048
       0.053
       0.047
       0.033
       0.019
       0.010
       0.010
       0.019
       0.030
       0.039
       0.039
       0.030
       0.017
       0.003
      -0.006
      -0.012
      -0.017
      -0.024
      -0.032
      -0.041
      -0.046
      -0.043
      -0.032
      -0.017
      -0.002
       0.006
       0.003
      -0.010
      -0.026
      -0.037
      -0.041
      -0.038
      -0.032
      -0.026
      -0.021
      -0.018
      -0.020
      -0.025
      -0.030
      -0.031
      -0.025
      -0.011
       0.003
       0.014
       0.019
       0.020
       0.022
       0.026
       0.034
       0.041
       0.045
       0.039
       0.024
       0.008
      -0.004
      -0.003
       0.007
       0.020
       0.027
       0.025
       0.014
       0.002
      -0.005
      -0.003
       0.007
       0.016
       0.017
       0.009
      -0.007
      -0.023
      -0.031
      -0.030
      -0.019
      -0.004
       0.004
       0.000
      -0.017
      -0.043
      -0.065
      -0.076
      -0.070
      -0.050
      -0.025
      -0.007
      -0.002
      -0.007
      -0.011
      -0.004
       0.011
       0.024
       0.026
       0.015
      -0.001
      -0.017
      -0.026
      -0.028
      -0.023
      -0.013
       0.003
       0.019
       0.031
       0.036
       0.034
       0.026
       0.020
       0.017
       0.018
       0.019
       0.014
       0.001
      -0.018
      -0.033
      -0.038
      -0.033
      -0.026
      -0.024
      -0.031
      -0.042
      -0.047
      -0.040
      -0.021
       0.005
       0.028
       0.036
       0.028
       0.008
      -0.013
      -0.027
      -0.030
      -0.023
      -0.010
       0.004
       0.013
       0.017
       0.017
       0.021
       0.029
       0.040
       0.051
       0.055
       0.049
       0.034
       0.014
      -0.005
      -0.019
      -0.024
      -0.021
      -0.014
      -0.011
      -0.016
      -0.030
      -0.048
      -0.060
      -0.061
      -0.057
      -0.054
      -0.056
      -0.062
      -0.068
      -0.071
      -0.071
      -0.070
      -0.064
      -0.051
      -0.032
      -0.010
       0.010
       0.026
       0.042
       0.061
       0.082
       0.100
       0.109
       0.108
       0.098
       0.084
       0.071
       0.059
       0.050
       0.041
       0.029
       0.010
      -0.013
      -0.035
      -0.047
      -0.046
      -0.035
      -0.021
      -0.009
       0.000
       0.007
       0.014
       0.020
       0.024
       0.028
       0.034
       0.041
       0.044
       0.040
       0.028
       0.013
       0.005
       0.007
       0.017
       0.029
       0.033
       0.026
       0.010
      -0.006
      -0.015
      -0.013
      -0.006
      -0.002
      -0.005
      -0.014
      -0.022
      -0.026
      -0.028
      -0.030
      -0.037
      -0.044
      -0.049
      -0.049
      -0.046
      -0.042
      -0.035
      -0.023
      -0.003
       0.021
       0.044
       0.063
       0.075
       0.080
       0.080
       0.074
       0.061
       0.045
       0.027
       0.009
      -0.007
      -0.020
      -0.030
      -0.034
      -0.032
      -0.026
      -0.023
      -0.026
      -0.035
      -0.044
      -0.045
      -0.037
      -0.020
       0.000
       0.020
       0.036
       0.043
       0.041
       0.033
       0.023
       0.014
       0.003
      -0.014
      -0.039
      -0.067
      -0.093
      -0.114
      -0.130
      -0.139
      -0.141
      -0.138
      -0.132
      -0.128
      -0.127
      -0.125
      -0.117
      -0.100
      -0.077
      -0.056
      -0.044
      -0.040
      -0.040
      -0.038
      -0.027
      -0.009
       0.017
       0.044
       0.065
       0.078
       0.079
       0.072
       0.066
       0.066
       0.074
       0.086
       0.091
       0.085
       0.069
       0.051
       0.037
       0.032
       0.033
       0.032
       0.025
       0.010
      -0.012
      -0.036
      -0.057
      -0.068
      -0.067
      -0.057
      -0.046
      -0.037
      -0.034
      -0.033
      -0.029
      -0.020
      -0.006
       0.010
       0.022
       0.032
       0.040
       0.047
       0.052
       0.049
       0.036
       0.015
      -0.007
      -0.022
      -0.034
      -0.049
      -0.070
      -0.095
      -0.117
      -0.129
      -0.130
      -0.126
      -0.123
      -0.125
      -0.126
      -0.116
      -0.090
      -0.051
      -0.008
       0.026
       0.048
       0.059
       0.065
       0.068
       0.072
       0.075
       0.080
       0.086
       0.093
       0.098
       0.102
       0.103
       0.103
       0.103
       0.101
       0.097
       0.086
       0.070
       0.051
       0.037
       0.031
       0.035
       0.047
       0.062
       0.076
       0.087
       0.094
       0.098
       0.098
       0.097
       0.093
       0.084
       0.066
       0.038
       0.005
      -0.027
      -0.049
      -0.058
      -0.053
      -0.039
      -0.023
      -0.009
       0.000
       0.006
       0.014
       0.025
       0.038
       0.045
       0.044
       0.034
       0.018
       0.005
      -0.001
       0.002
       0.011
       0.021
       0.029
       0.029
       0.018
      -0.002
      -0.027
      -0.050
      -0.065
      -0.068
      -0.062
      -0.055
      -0.056
      -0.067
      -0.083
      -0.094
      -0.094
      -0.085
      -0.076
      -0.074
      -0.083
      -0.096
      -0.105
      -0.102
      -0.086
      -0.061
      -0.035
      -0.010
       0.011
       0.030
       0.044
       0.054
       0.059
       0.062
       0.063
       0.064
       0.060
       0.052
       0.038
       0.021
       0.007
      -0.004
      -0.010
      -0.016
      -0.026
      -0.041
      -0.061
      -0.080
      -0.094
      -0.098
      -0.092
      -0.074
      -0.050
      -0.024
      -0.003
       0.014
       0.032
       0.054
       0.079
       0.101
       0.108
       0.098
       0.078
       0.059
       0.051
       0.053
       0.061
       0.063
       0.053
       0.030
      -0.002
      -0.035
      -0.061
      -0.075
      -0.076
      -0.069
      -0.062
      -0.059
      -0.060
      -0.061
      -0.054
      -0.035
      -0.005
       0.033
       0.072
       0.103
       0.121
       0.126
       0.127
       0.130
       0.138
       0.142
       0.132
       0.106
       0.070
       0.035
       0.010
      -0.007
      -0.018
      -0.031
      -0.048
      -0.071
      -0.099
      -0.128
      -0.150
      -0.160
      -0.160
      -0.154
      -0.148
      -0.144
      -0.143
      -0.141
      -0.137
      -0.128
      -0.115
      -0.098
      -0.083
      -0.071
      -0.064
      -0.063
      -0.064
      -0.061
      -0.051
      -0.033
      -0.012
       0.004
       0.012
       0.011
       0.003
      -0.011
      -0.028
      -0.044
      -0.060
      -0.078
      -0.098
      -0.117
      -0.127
      -0.118
      -0.093
      -0.057
      -0.018
       0.022
       0.066
       0.115
       0.165
       0.210
       0.245
       0.271
       0.285
       0.283
       0.261
       0.218
       0.162
       0.106
       0.062
       0.036
       0.024
       0.017
       0.003
      -0.020
      -0.047
      -0.070
      -0.081
      -0.079
      -0.065
      -0.043
      -0.015
       0.013
       0.039
       0.061
       0.080
       0.097
       0.107
       0.107
       0.093
       0.069
       0.042
       0.021
       0.010
       0.002
      -0.010
      -0.032
      -0.065
      -0.101
      -0.128
      -0.140
      -0.137
      -0.122
      -0.106
      -0.092
      -0.084
      -0.077
      -0.070
      -0.060
      -0.048
      -0.035
      -0.022
      -0.009
       0.002
       0.005
      -0.002
      -0.019
      -0.037
      -0.048
      -0.048
      -0.038
      -0.025
      -0.015
      -0.010
      -0.010
      -0.009
      -0.003
       0.008
       0.022
       0.033
       0.036
       0.028
       0.010
      -0.013
      -0.033
      -0.043
      -0.046
      -0.047
      -0.053
      -0.069
      -0.091
      -0.114
      -0.133
      -0.142
      -0.140
      -0.127
      -0.107
      -0.082
      -0.056
      -0.029
       0.002
       0.039
       0.081
       0.126
       0.168
       0.204
       0.232
       0.253
       0.269
       0.281
       0.289
       0.293
       0.292
       0.285
       0.270
       0.245
       0.216
       0.187
       0.166
       0.151
       0.134
       0.106
       0.066
       0.019
      -0.027
      -0.065
      -0.097
      -0.127
      -0.156
      -0.186
      -0.212
      -0.233
      -0.246
      -0.251
      -0.247
      -0.237
      -0.219
      -0.197
      -0.173
      -0.149
      -0.128
      -0.107
      -0.088
      -0.070
      -0.057
      -0.049
      -0.047
      -0.050
      -0.054
      -0.058
      -0.061
      -0.061
      -0.056
      -0.046
      -0.033
      -0.020
      -0.009
       0.003
       0.019
       0.041
       0.064
       0.080
       0.086
       0.083
       0.075
       0.068
       0.064
       0.064
       0.068
       0.075
       0.082
       0.083
       0.075
       0.059
       0.043
       0.035
       0.038
       0.048
       0.060
       0.069
       0.078
       0.092
       0.112
       0.135
       0.154
       0.164
       0.163
       0.154
       0.139
       0.123
       0.107
       0.087
       0.062
       0.032
      -0.003
      -0.042
      -0.088
      -0.140
      -0.196
      -0.251
      -0.304
      -0.353
      -0.397
      -0.434
      -0.466
      -0.490
      -0.505
      -0.507
      -0.490
      -0.455
      -0.406
      -0.346
      -0.276
      -0.193
      -0.096
       0.010
       0.112
       0.199
       0.264
       0.307
       0.336
       0.355
       0.368
       0.373
       0.372
       0.365
       0.350
       0.326
       0.292
       0.249
       0.203
       0.161
       0.129
       0.111
       0.104
       0.099
       0.091
       0.079
       0.067
       0.060
       0.058
       0.056
       0.049
       0.037
       0.025
       0.017
       0.013
       0.008
      -0.005
      -0.030
      -0.065
      -0.101
      -0.129
      -0.144
      -0.145
      -0.132
      -0.111
      -0.086
      -0.062
      -0.040
      -0.022
      -0.008
       0.004
       0.011
       0.014
       0.010
      -0.002
      -0.021
      -0.048
      -0.084
      -0.126
      -0.169
      -0.211
      -0.246
      -0.272
      -0.290
      -0.299
      -0.302
      -0.298
      -0.289
      -0.272
      -0.241
      -0.194
      -0.134
      -0.070
      -0.009
       0.050
       0.113
       0.184
       0.258
       0.323
       0.368
       0.391
       0.399
       0.401
       0.404
       0.409
       0.411
       0.407
       0.392
       0.364
       0.325
       0.276
       0.221
       0.163
       0.107
       0.055
       0.006
      -0.043
      -0.091
      -0.134
      -0.165
      -0.180
      -0.180
      -0.170
      -0.159
      -0.150
      -0.146
      -0.140
      -0.130
      -0.113
      -0.094
      -0.076
      -0.063
      -0.057
      -0.059
      -0.066
      -0.073
      -0.079
      -0.084
      -0.090
      -0.103
      -0.127
      -0.162
      -0.201
      -0.239
      -0.269
      -0.290
      -0.304
      -0.314
      -0.322
      -0.328
      -0.330
      -0.325
      -0.311
      -0.288
      -0.257
      -0.219
      -0.176
      -0.132
      -0.089
      -0.045
       0.005
       0.068
       0.145
       0.231
       0.314
       0.385
       0.438
       0.472
       0.490
       0.495
       0.490
       0.478
       0.462
       0.442
       0.418
       0.390
       0.361
       0.336
       0.323
       0.321
       0.321
       0.311
       0.283
       0.238
       0.184
       0.125
       0.060
      -0.015
      -0.102
      -0.194
      -0.283
      -0.365
      -0.437
      -0.502
      -0.554
      -0.590
      -0.604
      -0.596
      -0.569
      -0.528
      -0.479
      -0.422
      -0.356
      -0.277
      -0.185
      -0.084
       0.017
       0.110
       0.188
       0.251
       0.303
       0.344
       0.375
       0.390
       0.388
       0.362
       0.313
       0.242
       0.154
       0.060
      -0.030
      -0.111
      -0.180
      -0.240
      -0.295
      -0.342
      -0.375
      -0.388
      -0.380
      -0.354
      -0.318
      -0.274
      -0.222
      -0.163
      -0.095
      -0.024
       0.046
       0.111
       0.171
       0.225
       0.270
       0.306
       0.336
       0.361
       0.381
       0.390
       0.380
       0.349
       0.304
       0.253
       0.203
       0.158
       0.115
       0.074
       0.033
      -0.012
      -0.059
      -0.106
      -0.148
      -0.182
      -0.210
      -0.238
      -0.275
      -0.320
      -0.370
      -0.419
      -0.459
      -0.486
      -0.498
      -0.494
      -0.471
      -0.429
      -0.368
      -0.290
      -0.195
      -0.082
       0.048
       0.196
       0.355
       0.512
       0.651
       0.758
       0.825
       0.850
       0.837
       0.793
       0.727
       0.644
       0.549
       0.443
       0.329
       0.214
       0.103
      -0.002
      -0.102
      -0.200
      -0.293
      -0.382
      -0.460
      -0.524
      -0.568
      -0.593
      -0.599
      -0.589
      -0.563
      -0.520
      -0.463
      -0.397
      -0.327
      -0.255
      -0.179
      -0.100
      -0.023
       0.046
       0.103
       0.151
       0.196
       0.240
       0.281
       0.310
       0.318
       0.301
       0.262
       0.205
       0.135
       0.058
      -0.020
      -0.093
      -0.158
      -0.213
      -0.257
      -0.287
      -0.299
      -0.295
      -0.278
      -0.256
      -0.237
      -0.225
      -0.221
      -0.219
      -0.209
      -0.187
      -0.154
      -0.114
      -0.074
      -0.035
       0.003
       0.047
       0.099
       0.159
       0.226
       0.291
       0.348
       0.391
       0.419
       0.432
       0.437
       0.436
       0.428
       0.407
       0.367
       0.305
       0.227
       0.142
       0.060
      -0.013
      -0.070
      -0.115
      -0.148
      -0.174
      -0.191
      -0.194
      -0.180
      -0.151
      -0.110
      -0.063
      -0.013
       0.034
       0.077
       0.116
       0.153
       0.192
       0.233
       0.273
       0.301
       0.308
       0.287
       0.247
       0.196
       0.143
       0.091
       0.035
      -0.027
      -0.097
      -0.174
      -0.247
      -0.306
      -0.343
      -0.358
      -0.353
      -0.331
      -0.294
      -0.249
      -0.202
      -0.158
      -0.118
      -0.077
      -0.033
       0.015
       0.061
       0.102
       0.135
       0.162
       0.183
       0.198
       0.200
       0.185
       0.151
       0.103
       0.047
      -0.012
      -0.069
      -0.119
      -0.161
      -0.194
      -0.218
      -0.237
      -0.254
      -0.269
      -0.277
      -0.271
      -0.249
      -0.209
      -0.154
      -0.093
      -0.037
       0.009
       0.045
       0.078
       0.115
       0.157
       0.200
       0.235
       0.257
       0.263
       0.260
       0.254
       0.249
       0.243
       0.233
       0.214
       0.186
       0.154
       0.123
       0.097
       0.076
       0.054
       0.020
      -0.034
      -0.107
      -0.192
      -0.276
      -0.351
      -0.411
      -0.458
      -0.495
      -0.525
      -0.548
      -0.558
      -0.547
      -0.507
      -0.432
      -0.328
      -0.206
      -0.080
       0.038
       0.145
       0.242
       0.333
       0.418
       0.496
       0.562
       0.612
       0.646
       0.664
       0.665
       0.650
       0.617
       0.564
       0.488
       0.389
       0.270
       0.144
       0.024
      -0.079
      -0.161
      -0.225
      -0.273
      -0.312
      -0.347
      -0.383
      -0.418
      -0.444
      -0.449
      -0.428
      -0.384
      -0.331
      -0.283
      -0.245
      -0.216
      -0.186
      -0.147
      -0.095
      -0.029
       0.045
       0.121
       0.189
       0.243
       0.279
       0.294
       0.293
       0.278
       0.255
       0.226
       0.192
       0.151
       0.106
       0.061
       0.026
       0.002
      -0.013
      -0.026
      -0.041
      -0.056
      -0.066
      -0.063
      -0.045
      -0.017
       0.015
       0.039
       0.049
       0.042
       0.019
      -0.012
      -0.045
      -0.073
      -0.097
      -0.121
      -0.146
      -0.175
      -0.201
      -0.219
      -0.223
      -0.214
      -0.198
      -0.178
      -0.157
      -0.135
      -0.107
      -0.065
      -0.010
       0.054
       0.114
       0.157
       0.179
       0.180
       0.169
       0.154
       0.146
       0.148
       0.161
       0.175
       0.180
       0.170
       0.149
       0.124
       0.104
       0.095
       0.097
       0.107
       0.121
       0.132
       0.137
       0.133
       0.127
       0.123
       0.124
       0.127
       0.125
       0.115
       0.098
       0.080
       0.064
       0.049
       0.032
       0.007
      -0.032
      -0.088
      -0.161
      -0.242
      -0.319
      -0.384
      -0.436
      -0.476
      -0.507
      -0.524
      -0.524
      -0.495
      -0.433
      -0.336
      -0.213
      -0.080
       0.051
       0.170
       0.271
       0.354
       0.419
       0.470
       0.509
       0.532
       0.535
       0.513
       0.464
       0.391
       0.305
       0.218
       0.137
       0.065
      -0.004
      -0.078
      -0.160
      -0.248
      -0.332
      -0.404
      -0.454
      -0.479
      -0.480
      -0.460
      -0.422
      -0.371
      -0.310
      -0.240
      -0.162
      -0.078
       0.005
       0.080
       0.143
       0.192
       0.227
       0.251
       0.268
       0.281
       0.293
       0.301
       0.299
       0.280
       0.242
       0.191
       0.135
       0.084
       0.038
      -0.009
      -0.061
      -0.119
      -0.176
      -0.222
      -0.251
      -0.262
      -0.257
      -0.238
      -0.210
      -0.175
      -0.136
      -0.094
      -0.047
       0.004
       0.061
       0.116
       0.163
       0.194
       0.207
       0.208
       0.203
       0.201
       0.201
       0.203
       0.199
       0.185
       0.156
       0.115
       0.066
       0.017
      -0.027
      -0.066
      -0.101
      -0.132
      -0.158
      -0.179
      -0.192
      -0.195
      -0.188
      -0.169
      -0.143
      -0.112
      -0.077
      -0.041
      -0.001
       0.043
       0.090
       0.136
       0.175
       0.202
       0.212
       0.205
       0.187
       0.164
       0.144
       0.132
       0.124
       0.118
       0.110
       0.099
       0.087
       0.076
       0.065
       0.059
       0.056
