Origin Time       17/9/2010 19:21:09	
Lat.              36.5 N	
Long.             70.8 E	
Depth (Km)        167.0
Magnitude         6.5
 Region           Hindukush                                                        
 Above details taken from IMD 
     
Station Code      Roo
Station Lat.       29.866  N
Station Long.      77.901  E
Station Height(m)  243.0
Site Class        C   Vs30 between 200 m/sec to 375 m/sec *  
Record Time       17.09.2010 19:23:39.954
Sampling Rate     200. Hz
 Record Duration  140.635 Sec.
 Direction         E-W (E positive)
Max. Acceleration     -2.483 cm/sec**2
     
  * For reference see Site Classification link of website 
     
 Base Line Corrected and Low Pass Filtered (Cut Off at 35 Hz) Time History
 Acceleration data in cm/sec**2
    
[...]
       0.046
       0.028
       0.007
      -0.016
      -0.037
      -0.053
      -0.069
      -0.088
      -0.111
      -0.133
      -0.152
      -0.166
      -0.179
      -0.192
      -0.206
      -0.219
      -0.231
      -0.240
      -0.244
      -0.243
      -0.235
      -0.221
      -0.204
      -0.188
      -0.174
      -0.161
      -0.147
      -0.131
      -0.114
      -0.097
      -0.081
      -0.065
      -0.053
      -0.045
      -0.040
      -0.034
      -0.026
      -0.017
      -0.008
       0.001
       0.012
       0.024
       0.035
       0.041
       0.042
       0.040
       0.036
       0.028
       0.018
       0.006
      -0.004
      -0.010
      -0.013
      -0.014
      -0.015
      -0.015
      -0.015
      -0.014
      -0.014
      -0.015
      -0.017
      -0.017
      -0.016
      -0.016
      -0.016
      -0.017
      -0.018
      -0.017
      -0.012
      -0.007
      -0.006
      -0.010
      -0.016
      -0.023
      -0.027
      -0.032
      -0.039
      -0.046
      -0.052
      -0.054
      -0.053
      -0.052
      -0.054
      -0.058
      -0.058
      -0.050
      -0.036
      -0.020
      -0.009
      -0.005
      -0.003
       0.003
       0.015
       0.032
       0.051
       0.068
       0.085
       0.098
       0.105
       0.106
       0.105
       0.108
       0.119
       0.132
       0.141
       0.141
       0.134
       0.127
       0.127
       0.136
       0.147
       0.155
       0.157
       0.154
       0.156
       0.167
       0.185
       0.203
       0.214
       0.217
       0.215
       0.213
       0.213
       0.216
       0.221
       0.226
       0.229
       0.227
       0.221
       0.211
       0.200
       0.191
       0.183
       0.175
       0.164
       0.149
       0.129
       0.104
       0.077
       0.049
       0.027
       0.012
       0.003
      -0.007
      -0.021
      -0.039
      -0.055
      -0.064
      -0.066
      -0.067
      -0.072
      -0.085
      -0.103
      -0.123
      -0.142
      -0.158
      -0.168
      -0.174
      -0.176
      -0.179
      -0.182
      -0.186
      -0.185
      -0.179
      -0.168
      -0.153
      -0.138
      -0.123
      -0.109
      -0.096
      -0.083
      -0.070
      -0.056
      -0.040
      -0.023
      -0.006
       0.007
       0.014
       0.016
       0.018
       0.021
       0.023
       0.020
       0.009
      -0.010
      -0.029
      -0.045
      -0.055
      -0.063
      -0.073
      -0.089
      -0.108
      -0.127
      -0.143
      -0.155
      -0.166
      -0.176
      -0.186
      -0.195
      -0.202
      -0.207
      -0.210
      -0.209
      -0.206
      -0.202
      -0.198
      -0.195
      -0.191
      -0.185
      -0.179
      -0.174
      -0.170
      -0.160
      -0.143
      -0.119
      -0.096
      -0.078
      -0.066
      -0.056
      -0.046
      -0.033
      -0.018
      -0.001
       0.019
       0.038
       0.054
       0.066
       0.077
       0.091
       0.107
       0.122
       0.132
       0.140
       0.150
       0.164
       0.182
       0.198
       0.212
       0.224
       0.235
       0.244
       0.251
       0.253
       0.252
       0.253
       0.258
       0.268
       0.282
       0.297
       0.312
       0.326
       0.338
       0.346
       0.351
       0.355
       0.360
       0.364
       0.366
       0.363
       0.353
       0.336
       0.315
       0.298
       0.287
       0.280
       0.270
       0.253
       0.226
       0.195
       0.166
       0.143
       0.127
       0.111
       0.091
       0.064
       0.036
       0.012
      -0.003
      -0.011
      -0.016
      -0.019
      -0.022
      -0.025
      -0.033
      -0.048
      -0.069
      -0.089
      -0.104
      -0.114
      -0.123
      -0.131
      -0.139
      -0.145
      -0.148
      -0.147
      -0.146
      -0.144
      -0.145
      -0.147
      -0.154
      -0.164
      -0.176
      -0.189
      -0.201
      -0.214
      -0.226
      -0.237
      -0.248
      -0.258
      -0.268
      -0.277
      -0.284
      -0.289
      -0.297
      -0.310
      -0.331
      -0.354
      -0.373
      -0.383
      -0.386
      -0.386
      -0.386
      -0.390
      -0.393
      -0.389
      -0.378
      -0.359
      -0.338
      -0.318
      -0.302
      -0.291
      -0.284
      -0.282
      -0.279
      -0.273
      -0.264
      -0.251
      -0.239
      -0.229
      -0.223
      -0.220
      -0.219
      -0.218
      -0.214
      -0.205
      -0.195
      -0.189
      -0.189
      -0.193
      -0.193
      -0.183
      -0.164
      -0.141
      -0.120
      -0.103
      -0.088
      -0.073
      -0.056
      -0.036
      -0.015
       0.008
       0.030
       0.051
       0.067
       0.080
       0.090
       0.101
       0.115
       0.132
       0.151
       0.167
       0.180
       0.191
       0.202
       0.214
       0.226
       0.233
       0.234
       0.233
       0.234
       0.241
       0.255
       0.275
       0.296
       0.317
       0.335
       0.349
       0.361
       0.373
       0.386
       0.399
       0.409
       0.414
       0.412
       0.402
       0.385
       0.363
       0.342
       0.322
       0.299
       0.270
       0.228
       0.177
       0.122
       0.068
       0.021
      -0.019
      -0.055
      -0.094
      -0.140
      -0.188
      -0.232
      -0.264
      -0.284
      -0.298
      -0.311
      -0.325
      -0.335
      -0.341
      -0.343
      -0.346
      -0.352
      -0.360
      -0.365
      -0.366
      -0.362
      -0.355
      -0.347
      -0.339
      -0.332
      -0.326
      -0.317
      -0.302
      -0.277
      -0.245
      -0.212
      -0.182
      -0.157
      -0.135
      -0.114
      -0.090
      -0.062
      -0.032
      -0.002
       0.025
       0.045
       0.063
       0.081
       0.098
       0.115
       0.127
       0.133
       0.135
       0.134
       0.135
       0.138
       0.142
       0.145
       0.145
       0.142
       0.137
       0.133
       0.128
       0.121
       0.110
       0.097
       0.083
       0.070
       0.058
       0.045
       0.033
       0.024
       0.019
       0.020
       0.022
       0.023
       0.017
       0.006
      -0.007
      -0.015
      -0.017
      -0.017
      -0.018
      -0.023
      -0.029
      -0.032
      -0.031
      -0.029
      -0.031
      -0.038
      -0.047
      -0.055
      -0.058
      -0.058
      -0.056
      -0.053
      -0.049
      -0.043
      -0.036
      -0.028
      -0.019
      -0.011
      -0.004
       0.005
       0.017
       0.037
       0.063
       0.092
       0.120
       0.148
       0.175
       0.205
       0.237
       0.272
       0.307
       0.343
       0.374
       0.401
       0.423
       0.443
       0.462
       0.481
       0.497
       0.506
       0.508
       0.506
       0.503
       0.499
       0.493
       0.483
       0.468
       0.446
       0.415
       0.375
       0.329
       0.282
       0.237
       0.190
       0.139
       0.080
       0.012
      -0.059
      -0.130
      -0.196
      -0.256
      -0.311
      -0.367
      -0.427
      -0.487
      -0.546
      -0.598
      -0.642
      -0.679
      -0.709
      -0.734
      -0.755
      -0.769
      -0.775
      -0.772
      -0.760
      -0.742
      -0.721
      -0.698
      -0.673
      -0.644
      -0.615
      -0.589
      -0.568
      -0.550
      -0.534
      -0.519
      -0.508
      -0.504
      -0.508
      -0.513
      -0.514
      -0.511
      -0.509
      -0.512
      -0.520
      -0.529
      -0.536
      -0.539
      -0.539
      -0.535
      -0.525
      -0.508
      -0.483
      -0.449
      -0.407
      -0.359
      -0.306
      -0.252
      -0.197
      -0.142
      -0.090
      -0.041
       0.006
       0.051
       0.095
       0.136
       0.169
       0.194
       0.211
       0.220
       0.221
       0.212
       0.195
       0.172
       0.143
       0.111
       0.074
       0.032
      -0.012
      -0.059
      -0.106
      -0.153
      -0.196
      -0.234
      -0.265
      -0.291
      -0.315
      -0.335
      -0.351
      -0.358
      -0.353
      -0.337
      -0.314
      -0.288
      -0.262
      -0.234
      -0.197
      -0.143
      -0.073
       0.007
       0.088
       0.165
       0.241
       0.318
       0.401
       0.488
       0.575
       0.657
       0.729
       0.791
       0.845
       0.894
       0.939
       0.978
       1.011
       1.035
       1.052
       1.062
       1.063
       1.054
       1.035
       1.010
       0.986
       0.963
       0.938
       0.907
       0.869
       0.830
       0.796
       0.769
       0.750
       0.732
       0.710
       0.680
       0.643
       0.605
       0.569
       0.537
       0.507
       0.475
       0.442
       0.409
       0.374
       0.340
       0.305
       0.272
       0.242
       0.214
       0.187
       0.159
       0.128
       0.097
       0.068
       0.044
       0.025
       0.011
      -0.003
      -0.021
      -0.046
      -0.079
      -0.117
      -0.155
      -0.194
      -0.237
      -0.289
      -0.351
      -0.419
      -0.486
      -0.549
      -0.607
      -0.665
      -0.725
      -0.789
      -0.853
      -0.913
      -0.967
      -1.014
      -1.056
      -1.092
      -1.121
      -1.143
      -1.155
      -1.160
      -1.162
      -1.164
      -1.163
      -1.153
      -1.131
      -1.098
      -1.059
      -1.022
      -0.989
      -0.956
      -0.919
      -0.876
      -0.829
      -0.783
      -0.741
      -0.699
      -0.651
      -0.597
      -0.535
      -0.472
      -0.408
      -0.345
      -0.282
      -0.221
      -0.163
      -0.110
      -0.057
      -0.002
       0.061
       0.129
       0.198
       0.263
       0.323
       0.377
       0.432
       0.489
       0.549
       0.612
       0.674
       0.731
       0.784
       0.834
       0.884
       0.935
       0.986
       1.036
       1.083
       1.125
       1.160
       1.189
       1.215
       1.242
       1.272
       1.303
       1.327
       1.339
       1.336
       1.321
       1.303
       1.287
       1.275
       1.260
       1.233
       1.195
       1.151
       1.109
       1.073
       1.043
       1.011
       0.973
       0.926
       0.875
       0.823
       0.771
       0.720
       0.672
       0.626
       0.583
       0.543
       0.501
       0.455
       0.407
       0.359
       0.313
       0.269
       0.223
       0.175
       0.129
       0.087
       0.049
       0.014
      -0.019
      -0.049
      -0.076
      -0.100
      -0.124
      -0.152
      -0.185
      -0.223
      -0.262
      -0.302
      -0.341
      -0.380
      -0.419
      -0.458
      -0.500
      -0.542
      -0.583
      -0.620
      -0.650
      -0.674
      -0.691
      -0.705
      -0.714
      -0.718
      -0.713
      -0.699
      -0.678
      -0.651
      -0.620
      -0.584
      -0.541
      -0.487
      -0.423
      -0.350
      -0.273
      -0.195
      -0.121
      -0.055
       0.002
       0.052
       0.095
       0.134
       0.169
       0.198
       0.217
       0.228
       0.231
       0.228
       0.224
       0.218
       0.211
       0.198
       0.177
       0.149
       0.117
       0.087
       0.060
       0.035
       0.010
      -0.016
      -0.041
      -0.064
      -0.086
      -0.108
      -0.131
      -0.155
      -0.178
      -0.199
      -0.217
      -0.234
      -0.253
      -0.275
      -0.297
      -0.315
      -0.329
      -0.339
      -0.345
      -0.346
      -0.344
      -0.343
      -0.343
      -0.346
      -0.347
      -0.348
      -0.353
      -0.367
      -0.392
      -0.427
      -0.466
      -0.504
      -0.542
      -0.579
      -0.615
      -0.649
      -0.684
      -0.721
      -0.761
      -0.804
      -0.843
      -0.874
      -0.893
      -0.899
      -0.894
      -0.881
      -0.860
      -0.831
      -0.794
      -0.748
      -0.694
      -0.637
      -0.577
      -0.517
      -0.451
      -0.376
      -0.293
      -0.207
      -0.128
      -0.059
       0.002
       0.063
       0.133
       0.213
       0.299
       0.386
       0.467
       0.541
       0.608
       0.673
       0.739
       0.809
       0.882
       0.952
       1.015
       1.073
       1.127
       1.183
       1.240
       1.291
       1.330
       1.354
       1.366
       1.371
       1.372
       1.369
       1.360
       1.344
       1.322
       1.293
       1.259
       1.220
       1.179
       1.134
       1.088
       1.042
       0.998
       0.960
       0.930
       0.907
       0.889
       0.875
       0.865
       0.862
       0.866
       0.877
       0.892
       0.907
       0.917
       0.919
       0.916
       0.910
       0.904
       0.895
       0.877
       0.842
       0.787
       0.717
       0.636
       0.550
       0.459
       0.361
       0.254
       0.139
       0.019
      -0.103
      -0.224
      -0.344
      -0.463
      -0.579
      -0.690
      -0.792
      -0.883
      -0.965
      -1.036
      -1.099
      -1.154
      -1.200
      -1.239
      -1.271
      -1.302
      -1.331
      -1.359
      -1.386
      -1.412
      -1.441
      -1.473
      -1.511
      -1.555
      -1.602
      -1.652
      -1.700
      -1.747
      -1.793
      -1.842
      -1.899
      -1.965
      -2.039
      -2.115
      -2.186
      -2.251
      -2.311
      -2.365
      -2.412
      -2.450
      -2.474
      -2.483
      -2.477
      -2.456
      -2.418
      -2.365
      -2.297
      -2.218
      -2.131
      -2.034
      -1.922
      -1.791
      -1.640
      -1.474
      -1.296
      -1.110
      -0.921
      -0.730
      -0.536
      -0.339
      -0.138
       0.065
       0.265
       0.456
       0.635
       0.806
       0.972
       1.132
       1.280
       1.409
       1.515
       1.601
       1.673
       1.736
       1.789
       1.828
       1.848
       1.851
       1.842
       1.827
       1.804
       1.772
       1.729
       1.677
       1.619
       1.558
       1.493
       1.424
       1.349
       1.270
       1.190
       1.109
       1.026
       0.941
       0.852
       0.762
       0.677
       0.601
       0.534
       0.477
       0.425
       0.377
       0.335
       0.303
       0.284
       0.279
       0.287
       0.305
       0.329
       0.355
       0.381
       0.410
       0.447
       0.493
       0.543
       0.588
       0.622
       0.647
       0.667
       0.682
       0.690
       0.684
       0.663
       0.627
       0.579
       0.521
       0.454
       0.379
       0.300
       0.225
       0.156
       0.092
       0.032
      -0.026
      -0.078
      -0.123
      -0.164
      -0.203
      -0.243
      -0.282
      -0.314
      -0.336
      -0.350
      -0.361
      -0.376
      -0.392
      -0.406
      -0.413
      -0.412
      -0.405
      -0.399
      -0.394
      -0.393
      -0.397
      -0.404
      -0.407
      -0.405
      -0.398
      -0.391
      -0.387
      -0.386
      -0.387
      -0.387
      -0.385
      -0.384
      -0.390
      -0.406
      -0.431
      -0.463
      -0.498
      -0.533
      -0.566
      -0.598
      -0.629
      -0.662
      -0.696
      -0.728
      -0.756
      -0.782
      -0.807
      -0.832
      -0.854
      -0.866
      -0.867
      -0.855
      -0.834
      -0.805
      -0.770
      -0.727
      -0.673
      -0.606
      -0.524
      -0.430
      -0.329
      -0.228
      -0.129
      -0.030
       0.071
       0.173
       0.276
       0.376
       0.475
       0.572
       0.664
       0.752
       0.833
       0.909
       0.977
       1.030
       1.062
       1.075
       1.074
       1.065
       1.052
       1.029
       0.994
       0.944
       0.881
       0.808
       0.727
       0.644
       0.561
       0.481
       0.401
       0.318
       0.230
       0.140
       0.053
      -0.025
      -0.087
      -0.133
      -0.163
      -0.182
      -0.191
      -0.191
      -0.177
      -0.149
      -0.106
      -0.055
      -0.001
       0.050
       0.096
       0.139
       0.178
       0.214
       0.244
       0.264
       0.271
       0.264
       0.244
       0.217
       0.183
       0.144
       0.099
       0.048
      -0.008
      -0.066
      -0.124
      -0.183
      -0.244
      -0.303
      -0.355
      -0.396
      -0.426
      -0.449
      -0.472
      -0.496
      -0.517
      -0.531
      -0.534
      -0.527
      -0.514
      -0.501
      -0.491
      -0.485
      -0.479
      -0.470
      -0.456
      -0.440
      -0.421
      -0.402
      -0.378
      -0.347
      -0.307
      -0.261
      -0.212
      -0.158
      -0.096
      -0.025
       0.054
       0.134
       0.216
       0.303
       0.399
       0.501
       0.600
       0.683
       0.744
       0.788
       0.823
       0.856
       0.885
       0.903
       0.904
       0.888
       0.857
       0.820
       0.781
       0.742
       0.705
       0.666
       0.626
       0.584
       0.541
       0.499
       0.461
       0.431
       0.412
       0.403
       0.401
       0.402
       0.402
       0.404
       0.414
       0.434
       0.460
       0.479
       0.483
       0.466
       0.432
       0.391
       0.348
       0.302
       0.246
       0.174
       0.088
      -0.004
      -0.095
      -0.183
      -0.270
      -0.354
      -0.433
      -0.503
      -0.564
      -0.623
      -0.683
      -0.744
      -0.801
      -0.848
      -0.886
      -0.917
      -0.943
      -0.965
      -0.980
      -0.990
      -0.994
      -0.995
      -0.988
      -0.972
      -0.948
      -0.922
      -0.897
      -0.874
      -0.846
      -0.805
      -0.751
      -0.688
      -0.623
      -0.558
      -0.491
      -0.422
      -0.352
      -0.280
      -0.206
      -0.133
      -0.062
       0.000
       0.051
       0.092
       0.129
       0.164
       0.196
       0.221
       0.232
       0.227
       0.205
       0.170
       0.128
       0.087
       0.049
       0.013
      -0.025
      -0.069
      -0.116
      -0.160
      -0.194
      -0.215
      -0.226
      -0.231
      -0.231
      -0.223
      -0.205
      -0.177
      -0.142
      -0.099
      -0.047
       0.017
       0.092
       0.173
       0.256
       0.339
       0.426
       0.519
       0.619
       0.722
       0.822
       0.910
       0.979
       1.030
       1.066
       1.091
       1.110
       1.123
       1.128
       1.120
       1.095
       1.051
       0.991
       0.923
       0.852
       0.777
       0.698
       0.613
       0.523
       0.431
       0.341
       0.254
       0.170
       0.086
       0.005
      -0.071
      -0.135
      -0.185
      -0.222
      -0.253
      -0.280
      -0.303
      -0.317
      -0.318
      -0.308
      -0.289
      -0.263
      -0.234
      -0.200
      -0.160
      -0.116
      -0.071
      -0.030
       0.006
       0.037
       0.066
       0.094
       0.118
       0.134
       0.137
       0.128
       0.108
       0.078
       0.039
      -0.007
      -0.057
      -0.111
      -0.169
      -0.234
      -0.305
      -0.378
      -0.448
      -0.512
      -0.568
      -0.613
      -0.648
      -0.673
      -0.687
      -0.689
      -0.676
