Origin Time       01/05/2009 22:36:25
Lat.              29.9 N 
Long.             80.1 E 
Depth (Km)         10.0
Magnitude         4.6
 Region           Bageshwar-Uttarakhand                                            
 Above details taken from IMD 
     
Station Code      Roo
Station Lat.       29.866  N
Station Long.      77.901  E
Station Height(m)  243.0
Site Class        C   Vs30 between 200 m/sec to 375 m/sec *  
Record Time       01.05.2010 22:35:17.934
Sampling Rate     200. Hz
 Record Duration  105.250 Sec.
 Direction         E-W (E positive)
Max. Acceleration      1.552 cm/sec**2
     
  * For reference see Site Classification link of website 
     
 Base Line Corrected and Low Pass Filtered (Cut Off at 35 Hz) Time History
 Acceleration data in cm/sec**2
    
[...]
      -0.016
      -0.018
      -0.018
      -0.018
      -0.018
      -0.019
      -0.022
      -0.031
      -0.045
      -0.059
      -0.066
      -0.064
      -0.053
      -0.038
      -0.021
      -0.006
       0.008
       0.018
       0.021
       0.016
       0.003
      -0.015
      -0.030
      -0.039
      -0.042
      -0.043
      -0.046
      -0.050
      -0.051
      -0.048
      -0.045
      -0.047
      -0.058
      -0.072
      -0.081
      -0.078
      -0.062
      -0.040
      -0.018
       0.001
       0.015
       0.027
       0.036
       0.042
       0.044
       0.043
       0.038
       0.032
       0.023
       0.010
      -0.006
      -0.023
      -0.040
      -0.054
      -0.064
      -0.069
      -0.071
      -0.069
      -0.063
      -0.055
      -0.047
      -0.042
      -0.040
      -0.036
      -0.027
      -0.007
       0.018
       0.043
       0.062
       0.077
       0.093
       0.113
       0.134
       0.148
       0.149
       0.133
       0.104
       0.066
       0.024
      -0.020
      -0.062
      -0.100
      -0.130
      -0.150
      -0.155
      -0.145
      -0.122
      -0.093
      -0.066
      -0.044
      -0.028
      -0.014
      -0.001
       0.010
       0.021
       0.029
       0.035
       0.039
       0.043
       0.051
       0.063
       0.078
       0.090
       0.095
       0.097
       0.102
       0.111
       0.123
       0.133
       0.138
       0.139
       0.139
       0.138
       0.137
       0.134
       0.128
       0.118
       0.106
       0.092
       0.072
       0.044
       0.006
      -0.040
      -0.086
      -0.127
      -0.161
      -0.186
      -0.203
      -0.216
      -0.222
      -0.222
      -0.215
      -0.203
      -0.188
      -0.170
      -0.144
      -0.109
      -0.067
      -0.024
       0.018
       0.057
       0.092
       0.117
       0.130
       0.129
       0.119
       0.110
       0.106
       0.109
       0.113
       0.112
       0.105
       0.091
       0.071
       0.045
       0.016
      -0.008
      -0.022
      -0.021
      -0.010
       0.001
       0.004
      -0.004
      -0.017
      -0.032
      -0.049
      -0.069
      -0.098
      -0.132
      -0.168
      -0.198
      -0.222
      -0.242
      -0.259
      -0.272
      -0.280
      -0.280
      -0.270
      -0.255
      -0.235
      -0.214
      -0.192
      -0.173
      -0.156
      -0.139
      -0.117
      -0.085
      -0.041
       0.010
       0.062
       0.108
       0.146
       0.178
       0.209
       0.241
       0.273
       0.301
       0.322
       0.335
       0.339
       0.331
       0.309
       0.274
       0.232
       0.191
       0.158
       0.135
       0.121
       0.111
       0.099
       0.085
       0.070
       0.055
       0.040
       0.022
       0.003
      -0.020
      -0.046
      -0.074
      -0.100
      -0.118
      -0.130
      -0.141
      -0.157
      -0.175
      -0.187
      -0.185
      -0.167
      -0.140
      -0.112
      -0.086
      -0.063
      -0.039
      -0.015
       0.011
       0.040
       0.073
       0.108
       0.141
       0.165
       0.176
       0.178
       0.173
       0.167
       0.157
       0.145
       0.130
       0.115
       0.099
       0.082
       0.063
       0.037
       0.003
      -0.038
      -0.079
      -0.116
      -0.142
      -0.158
      -0.164
      -0.164
      -0.158
      -0.148
      -0.134
      -0.118
      -0.101
      -0.085
      -0.071
      -0.061
      -0.055
      -0.051
      -0.047
      -0.040
      -0.035
      -0.035
      -0.043
      -0.053
      -0.059
      -0.058
      -0.056
      -0.060
      -0.071
      -0.086
      -0.097
      -0.100
      -0.099
      -0.098
      -0.102
      -0.107
      -0.107
      -0.096
      -0.074
      -0.048
      -0.023
      -0.004
       0.010
       0.023
       0.038
       0.055
       0.069
       0.077
       0.079
       0.077
       0.071
       0.064
       0.053
       0.037
       0.017
      -0.004
      -0.022
      -0.035
      -0.044
      -0.052
      -0.060
      -0.063
      -0.058
      -0.047
      -0.032
      -0.018
      -0.006
       0.008
       0.025
       0.047
       0.071
       0.094
       0.113
       0.127
       0.137
       0.142
       0.144
       0.142
       0.134
       0.118
       0.094
       0.068
       0.046
       0.031
       0.024
       0.021
       0.016
       0.009
       0.002
      -0.003
      -0.003
      -0.001
       0.000
      -0.001
      -0.004
      -0.003
       0.003
       0.013
       0.022
       0.029
       0.032
       0.034
       0.038
       0.045
       0.054
       0.064
       0.069
       0.070
       0.067
       0.059
       0.048
       0.034
       0.019
       0.006
       0.001
       0.006
       0.019
       0.035
       0.048
       0.052
       0.046
       0.032
       0.015
      -0.003
      -0.022
      -0.041
      -0.061
      -0.081
      -0.099
      -0.116
      -0.132
      -0.148
      -0.163
      -0.177
      -0.191
      -0.204
      -0.218
      -0.235
      -0.254
      -0.270
      -0.278
      -0.278
      -0.274
      -0.270
      -0.267
      -0.263
      -0.250
      -0.228
      -0.197
      -0.161
      -0.123
      -0.081
      -0.038
       0.007
       0.051
       0.092
       0.128
       0.160
       0.186
       0.206
       0.221
       0.233
       0.242
       0.250
       0.256
       0.263
       0.272
       0.285
       0.300
       0.314
       0.324
       0.327
       0.325
       0.315
       0.297
       0.273
       0.242
       0.209
       0.177
       0.149
       0.126
       0.104
       0.080
       0.051
       0.020
      -0.010
      -0.037
      -0.061
      -0.081
      -0.098
      -0.109
      -0.114
      -0.113
      -0.109
      -0.105
      -0.102
      -0.097
      -0.089
      -0.079
      -0.068
      -0.058
      -0.046
      -0.032
      -0.013
       0.007
       0.025
       0.038
       0.050
       0.060
       0.070
       0.076
       0.076
       0.069
       0.057
       0.041
       0.021
      -0.001
      -0.026
      -0.052
      -0.076
      -0.096
      -0.112
      -0.123
      -0.131
      -0.139
      -0.148
      -0.156
      -0.162
      -0.161
      -0.155
      -0.149
      -0.145
      -0.143
      -0.137
      -0.126
      -0.111
      -0.096
      -0.084
      -0.074
      -0.063
      -0.050
      -0.038
      -0.028
      -0.024
      -0.025
      -0.030
      -0.038
      -0.047
      -0.057
      -0.065
      -0.069
      -0.068
      -0.062
      -0.054
      -0.049
      -0.047
      -0.048
      -0.048
      -0.046
      -0.043
      -0.042
      -0.045
      -0.053
      -0.060
      -0.060
      -0.045
      -0.015
       0.027
       0.074
       0.122
       0.168
       0.209
       0.240
       0.255
       0.256
       0.246
       0.231
       0.212
       0.189
       0.159
       0.123
       0.084
       0.043
       0.001
      -0.037
      -0.065
      -0.081
      -0.083
      -0.074
      -0.059
      -0.041
      -0.023
      -0.007
       0.006
       0.016
       0.021
       0.025
       0.029
       0.036
       0.046
       0.057
       0.064
       0.070
       0.076
       0.085
       0.092
       0.094
       0.088
       0.074
       0.052
       0.021
      -0.021
      -0.071
      -0.127
      -0.184
      -0.239
      -0.291
      -0.338
      -0.374
      -0.394
      -0.394
      -0.375
      -0.343
      -0.304
      -0.264
      -0.229
      -0.205
      -0.192
      -0.187
      -0.187
      -0.194
      -0.209
      -0.232
      -0.259
      -0.284
      -0.302
      -0.310
      -0.310
      -0.304
      -0.299
      -0.295
      -0.294
      -0.295
      -0.295
      -0.292
      -0.285
      -0.272
      -0.252
      -0.227
      -0.195
      -0.155
      -0.105
      -0.048
       0.009
       0.062
       0.109
       0.154
       0.197
       0.240
       0.276
       0.301
       0.309
       0.302
       0.285
       0.264
       0.243
       0.224
       0.206
       0.188
       0.172
       0.160
       0.154
       0.154
       0.157
       0.160
       0.166
       0.178
       0.197
       0.219
       0.239
       0.252
       0.258
       0.258
       0.255
       0.247
       0.237
       0.233
       0.241
       0.264
       0.298
       0.336
       0.374
       0.407
       0.436
       0.456
       0.462
       0.449
       0.416
       0.367
       0.307
       0.239
       0.167
       0.095
       0.025
      -0.036
      -0.086
      -0.122
      -0.142
      -0.143
      -0.129
      -0.105
      -0.077
      -0.051
      -0.028
      -0.010
      -0.004
      -0.015
      -0.044
      -0.089
      -0.147
      -0.212
      -0.279
      -0.345
      -0.401
      -0.441
      -0.465
      -0.472
      -0.464
      -0.438
      -0.390
      -0.318
      -0.220
      -0.100
       0.039
       0.190
       0.350
       0.511
       0.665
       0.804
       0.919
       1.005
       1.059
       1.079
       1.063
       1.012
       0.929
       0.822
       0.697
       0.561
       0.416
       0.263
       0.104
      -0.057
      -0.217
      -0.373
      -0.524
      -0.665
      -0.789
      -0.892
      -0.972
      -1.030
      -1.069
      -1.084
      -1.076
      -1.046
      -1.001
      -0.950
      -0.897
      -0.845
      -0.795
      -0.747
      -0.703
      -0.659
      -0.614
      -0.566
      -0.514
      -0.456
      -0.393
      -0.320
      -0.234
      -0.132
      -0.018
       0.102
       0.224
       0.345
       0.466
       0.585
       0.694
       0.782
       0.839
       0.865
       0.861
       0.832
       0.778
       0.699
       0.599
       0.482
       0.360
       0.239
       0.125
       0.020
      -0.073
      -0.159
      -0.242
      -0.322
      -0.395
      -0.451
      -0.481
      -0.476
      -0.436
      -0.362
      -0.254
      -0.115
       0.055
       0.245
       0.445
       0.636
       0.805
       0.947
       1.061
       1.150
       1.213
       1.243
       1.234
       1.185
       1.100
       0.983
       0.840
       0.670
       0.478
       0.270
       0.056
      -0.156
      -0.357
      -0.545
      -0.715
      -0.863
      -0.985
      -1.075
      -1.129
      -1.150
      -1.148
      -1.133
      -1.111
      -1.084
      -1.049
      -1.003
      -0.945
      -0.877
      -0.802
      -0.724
      -0.643
      -0.559
      -0.475
      -0.396
      -0.324
      -0.258
      -0.192
      -0.125
      -0.059
       0.003
       0.059
       0.112
       0.163
       0.208
       0.244
       0.270
       0.289
       0.303
       0.315
       0.327
       0.335
       0.337
       0.332
       0.318
       0.294
       0.259
       0.213
       0.158
       0.098
       0.038
      -0.019
      -0.069
      -0.110
      -0.140
      -0.154
      -0.152
      -0.132
      -0.096
      -0.050
       0.000
       0.051
       0.102
       0.155
       0.213
       0.274
       0.333
       0.384
       0.420
       0.441
       0.449
       0.442
       0.423
       0.396
       0.368
       0.347
       0.336
       0.335
       0.341
       0.353
       0.374
       0.399
       0.422
       0.435
       0.433
       0.416
       0.386
       0.344
       0.291
       0.224
       0.144
       0.053
      -0.040
      -0.129
      -0.206
      -0.270
      -0.322
      -0.362
      -0.391
      -0.408
      -0.411
      -0.400
      -0.379
      -0.351
      -0.321
      -0.289
      -0.255
      -0.216
      -0.173
      -0.126
      -0.079
      -0.033
       0.010
       0.049
       0.086
       0.118
       0.142
       0.155
       0.157
       0.151
       0.141
       0.133
       0.125
       0.115
       0.099
       0.075
       0.046
       0.019
       0.005
       0.008
       0.024
       0.048
       0.069
       0.081
       0.081
       0.068
       0.043
       0.008
      -0.036
      -0.084
      -0.131
      -0.174
      -0.209
      -0.237
      -0.258
      -0.267
      -0.265
      -0.253
      -0.237
      -0.222
      -0.210
      -0.199
      -0.180
      -0.150
      -0.106
      -0.054
      -0.003
       0.043
       0.086
       0.133
       0.186
       0.242
       0.292
       0.325
       0.334
       0.316
       0.273
       0.209
       0.126
       0.033
      -0.061
      -0.143
      -0.207
      -0.253
      -0.280
      -0.290
      -0.281
      -0.253
      -0.208
      -0.152
      -0.091
      -0.032
       0.018
       0.055
       0.077
       0.083
       0.074
       0.052
       0.019
      -0.019
      -0.056
      -0.084
      -0.101
      -0.104
      -0.096
      -0.083
      -0.067
      -0.052
      -0.039
      -0.027
      -0.016
      -0.008
      -0.006
      -0.013
      -0.029
      -0.052
      -0.080
      -0.109
      -0.136
      -0.157
      -0.171
      -0.177
      -0.172
      -0.158
      -0.133
      -0.099
      -0.061
      -0.023
       0.009
       0.031
       0.039
       0.030
       0.005
      -0.033
      -0.079
      -0.132
      -0.192
      -0.259
      -0.334
      -0.418
      -0.511
      -0.610
      -0.706
      -0.789
      -0.848
      -0.875
      -0.862
      -0.806
      -0.707
      -0.570
      -0.404
      -0.215
      -0.009
       0.211
       0.443
       0.678
       0.906
       1.112
       1.286
       1.420
       1.510
       1.552
       1.544
       1.485
       1.382
       1.244
       1.079
       0.894
       0.692
       0.476
       0.251
       0.024
      -0.195
      -0.401
      -0.591
      -0.762
      -0.912
      -1.034
      -1.123
      -1.178
      -1.197
      -1.181
      -1.128
      -1.037
      -0.909
      -0.746
      -0.551
      -0.331
      -0.097
       0.141
       0.370
       0.589
       0.795
       0.988
       1.160
       1.301
       1.399
       1.446
       1.442
       1.388
       1.288
       1.148
       0.977
       0.781
       0.562
       0.324
       0.068
      -0.200
      -0.472
      -0.734
      -0.971
      -1.171
      -1.326
      -1.432
      -1.487
      -1.490
      -1.444
      -1.351
      -1.215
      -1.046
      -0.852
      -0.645
      -0.434
      -0.232
      -0.047
       0.113
       0.242
       0.339
       0.402
       0.436
       0.448
       0.443
       0.429
       0.410
       0.393
       0.387
       0.396
       0.417
       0.444
       0.471
       0.496
       0.518
       0.536
       0.540
       0.521
       0.476
       0.410
       0.335
       0.263
       0.197
       0.138
       0.088
       0.048
       0.019
      -0.002
      -0.021
      -0.046
      -0.078
      -0.117
      -0.159
      -0.200
      -0.236
      -0.262
      -0.274
      -0.272
      -0.259
      -0.240
      -0.218
      -0.196
      -0.173
      -0.141
      -0.097
      -0.040
       0.022
       0.083
       0.136
       0.179
       0.214
       0.239
       0.254
       0.259
       0.253
       0.235
       0.206
       0.169
       0.124
       0.073
       0.015
      -0.049
      -0.119
      -0.190
      -0.257
      -0.319
      -0.377
      -0.436
      -0.493
      -0.545
      -0.586
      -0.619
      -0.649
      -0.679
      -0.707
      -0.726
      -0.728
      -0.712
      -0.679
      -0.630
      -0.566
      -0.483
      -0.382
      -0.268
      -0.147
      -0.028
       0.082
       0.177
       0.253
       0.311
       0.355
       0.388
       0.415
       0.436
       0.451
       0.461
       0.466
       0.467
       0.462
       0.449
       0.430
       0.407
       0.383
       0.360
       0.339
       0.323
       0.314
       0.310
       0.311
       0.313
       0.315
       0.311
       0.300
       0.281
       0.255
       0.230
       0.208
       0.190
       0.171
       0.149
       0.123
       0.093
       0.060
       0.024
      -0.016
      -0.059
      -0.100
      -0.135
      -0.158
      -0.166
      -0.164
      -0.157
      -0.148
      -0.136
      -0.120
      -0.100
      -0.083
      -0.073
      -0.074
      -0.089
      -0.116
      -0.152
      -0.193
      -0.232
      -0.264
      -0.282
      -0.282
      -0.260
      -0.213
      -0.143
      -0.057
       0.035
       0.126
       0.209
       0.285
       0.353
       0.411
       0.457
       0.487
       0.498
       0.490
       0.464
       0.419
       0.353
       0.267
       0.163
       0.048
      -0.068
      -0.176
      -0.272
      -0.358
      -0.438
      -0.518
      -0.598
      -0.670
      -0.727
      -0.760
      -0.767
      -0.750
      -0.712
      -0.657
      -0.590
      -0.518
      -0.447
      -0.385
      -0.334
      -0.292
      -0.252
      -0.207
      -0.154
      -0.093
      -0.026
       0.044
       0.116
       0.194
       0.276
       0.362
       0.451
       0.541
       0.629
       0.712
       0.782
       0.831
       0.857
       0.859
       0.840
       0.803
       0.751
       0.681
       0.594
       0.486
       0.357
       0.207
       0.042
      -0.131
      -0.302
      -0.461
      -0.600
      -0.711
      -0.788
      -0.831
      -0.843
      -0.828
      -0.793
      -0.742
      -0.682
      -0.614
      -0.536
      -0.443
      -0.333
      -0.206
      -0.073
       0.056
       0.173
       0.273
       0.361
       0.444
       0.529
       0.616
       0.701
       0.777
       0.838
       0.879
       0.895
       0.880
       0.832
       0.751
       0.641
       0.510
       0.368
       0.219
       0.067
      -0.088
      -0.246
      -0.404
      -0.556
      -0.692
      -0.802
      -0.882
      -0.929
      -0.947
      -0.936
      -0.899
      -0.837
      -0.750
      -0.644
      -0.526
      -0.409
      -0.301
      -0.207
      -0.129
      -0.071
      -0.037
      -0.029
      -0.041
      -0.063
      -0.085
      -0.095
      -0.084
      -0.049
       0.006
       0.077
       0.154
       0.235
       0.317
       0.402
       0.490
       0.579
       0.664
       0.737
       0.790
       0.819
       0.820
       0.794
       0.739
       0.656
       0.549
       0.428
       0.304
       0.187
       0.084
      -0.001
      -0.069
      -0.126
      -0.182
      -0.242
      -0.307
      -0.371
      -0.430
      -0.481
      -0.522
      -0.551
      -0.567
      -0.567
      -0.552
      -0.522
      -0.479
      -0.424
      -0.356
      -0.276
      -0.192
      -0.114
      -0.046
       0.014
       0.071
       0.131
       0.189
       0.240
       0.275
       0.293
       0.296
       0.286
       0.260
       0.218
       0.159
       0.090
       0.016
      -0.059
      -0.131
      -0.198
      -0.255
      -0.297
      -0.320
      -0.323
      -0.305
      -0.263
      -0.193
      -0.097
       0.018
       0.143
       0.269
       0.393
       0.509
       0.607
       0.677
       0.711
       0.708
       0.676
       0.622
       0.549
       0.456
       0.344
       0.215
       0.080
      -0.051
      -0.172
      -0.280
      -0.376
      -0.461
      -0.528
      -0.572
      -0.587
      -0.574
      -0.536
      -0.475
      -0.394
      -0.296
      -0.186
