Origin Time       22/02/2010 17:23:43 UTC
Lat.              30.0 N	
Long.             80.1 E	
Depth (Km)          2.0
Magnitude         4.7
 Region           BAGESHWER-UTTARAKHAND                                            
 Above details taken from IMD 
    
Station Code      Roo
Station Lat.       29.866  N
Station Long.      77.901  E
Station Height(m)  243.0
Site Class        C   Vs30 between 200 m/sec to 375 m/sec *  
Record Time       22.02.2010 17:24:17.949 UTC
Sampling Rate     200. Hz
 Record Duration   74.320 Sec.
 Direction         N-S (N positive)
Max. Acceleration     -1.043 cm/sec**2
     
  * For reference see Site Classification link of website 
     
 Base Line Corrected and Low Pass Filtered (Cut Off at 35 Hz) Time History
 Acceleration data in cm/sec**2
    
[...]
       0.029
       0.015
       0.002
      -0.010
      -0.021
      -0.032
      -0.044
      -0.055
      -0.062
      -0.065
      -0.066
      -0.067
      -0.066
      -0.057
      -0.037
      -0.011
       0.011
       0.019
       0.012
       0.001
      -0.003
       0.004
       0.017
       0.027
       0.031
       0.033
       0.034
       0.037
       0.041
       0.046
       0.052
       0.060
       0.069
       0.074
       0.073
       0.065
       0.053
       0.042
       0.030
       0.017
       0.001
      -0.018
      -0.038
      -0.057
      -0.072
      -0.082
      -0.087
      -0.089
      -0.087
      -0.081
      -0.073
      -0.066
      -0.063
      -0.061
      -0.055
      -0.040
      -0.021
      -0.003
       0.006
       0.005
       0.004
       0.010
       0.023
       0.036
       0.042
       0.039
       0.032
       0.025
       0.022
       0.019
       0.012
      -0.001
      -0.020
      -0.040
      -0.058
      -0.075
      -0.089
      -0.103
      -0.113
      -0.117
      -0.111
      -0.101
      -0.089
      -0.077
      -0.066
      -0.053
      -0.041
      -0.031
      -0.025
      -0.020
      -0.012
       0.002
       0.021
       0.038
       0.050
       0.052
       0.046
       0.036
       0.025
       0.015
       0.009
       0.009
       0.015
       0.023
       0.025
       0.015
      -0.007
      -0.035
      -0.055
      -0.061
      -0.052
      -0.039
      -0.031
      -0.030
      -0.034
      -0.038
      -0.040
      -0.042
      -0.043
      -0.044
      -0.044
      -0.041
      -0.036
      -0.027
      -0.012
       0.010
       0.036
       0.058
       0.069
       0.067
       0.060
       0.055
       0.056
       0.062
       0.071
       0.077
       0.079
       0.077
       0.071
       0.061
       0.052
       0.046
       0.047
       0.054
       0.062
       0.066
       0.065
       0.062
       0.059
       0.057
       0.057
       0.059
       0.061
       0.062
       0.060
       0.054
       0.048
       0.045
       0.049
       0.055
       0.061
       0.060
       0.050
       0.035
       0.021
       0.016
       0.023
       0.035
       0.047
       0.054
       0.057
       0.059
       0.060
       0.061
       0.062
       0.058
       0.049
       0.035
       0.017
       0.000
      -0.015
      -0.025
      -0.029
      -0.029
      -0.027
      -0.026
      -0.027
      -0.028
      -0.030
      -0.031
      -0.027
      -0.022
      -0.017
      -0.017
      -0.022
      -0.032
      -0.043
      -0.051
      -0.050
      -0.038
      -0.019
       0.001
       0.012
       0.014
       0.008
       0.002
       0.001
       0.004
       0.008
       0.009
       0.002
      -0.014
      -0.037
      -0.058
      -0.073
      -0.077
      -0.075
      -0.074
      -0.075
      -0.081
      -0.087
      -0.091
      -0.093
      -0.091
      -0.084
      -0.073
      -0.058
      -0.043
      -0.028
      -0.016
      -0.010
      -0.008
      -0.009
      -0.009
      -0.007
      -0.004
      -0.002
       0.001
       0.009
       0.027
       0.054
       0.082
       0.099
       0.098
       0.083
       0.066
       0.058
       0.061
       0.068
       0.072
       0.068
       0.054
       0.033
       0.009
      -0.015
      -0.035
      -0.053
      -0.067
      -0.079
      -0.087
      -0.090
      -0.090
      -0.085
      -0.077
      -0.066
      -0.054
      -0.044
      -0.038
      -0.038
      -0.037
      -0.031
      -0.015
       0.008
       0.033
       0.053
       0.062
       0.061
       0.052
       0.043
       0.041
       0.048
       0.061
       0.073
       0.076
       0.066
       0.045
       0.018
      -0.008
      -0.026
      -0.036
      -0.040
      -0.041
      -0.041
      -0.039
      -0.030
      -0.015
       0.005
       0.024
       0.033
       0.028
       0.013
      -0.007
      -0.021
      -0.027
      -0.027
      -0.021
      -0.014
      -0.008
      -0.005
      -0.008
      -0.011
      -0.010
       0.000
       0.014
       0.029
       0.042
       0.054
       0.066
       0.078
       0.088
       0.092
       0.087
       0.077
       0.061
       0.042
       0.018
      -0.011
      -0.040
      -0.063
      -0.077
      -0.078
      -0.070
      -0.056
      -0.038
      -0.018
       0.006
       0.032
       0.057
       0.080
       0.099
       0.113
       0.121
       0.122
       0.116
       0.105
       0.091
       0.078
       0.067
       0.059
       0.054
       0.054
       0.058
       0.067
       0.080
       0.092
       0.095
       0.083
       0.061
       0.040
       0.031
       0.035
       0.045
       0.050
       0.048
       0.040
       0.032
       0.024
       0.018
       0.016
       0.023
       0.038
       0.054
       0.063
       0.061
       0.053
       0.046
       0.040
       0.034
       0.025
       0.012
      -0.005
      -0.026
      -0.050
      -0.071
      -0.084
      -0.088
      -0.090
      -0.099
      -0.113
      -0.128
      -0.136
      -0.135
      -0.124
      -0.107
      -0.085
      -0.062
      -0.040
      -0.024
      -0.018
      -0.023
      -0.035
      -0.044
      -0.044
      -0.033
      -0.018
      -0.011
      -0.020
      -0.040
      -0.060
      -0.071
      -0.072
      -0.070
      -0.074
      -0.086
      -0.103
      -0.116
      -0.122
      -0.120
      -0.115
      -0.113
      -0.117
      -0.123
      -0.126
      -0.122
      -0.109
      -0.088
      -0.065
      -0.044
      -0.027
      -0.013
      -0.003
       0.004
       0.009
       0.015
       0.028
       0.046
       0.062
       0.068
       0.061
       0.047
       0.034
       0.026
       0.022
       0.019
       0.012
       0.000
      -0.015
      -0.029
      -0.037
      -0.038
      -0.030
      -0.018
      -0.004
       0.010
       0.024
       0.038
       0.048
       0.052
       0.053
       0.056
       0.060
       0.061
       0.055
       0.041
       0.026
       0.017
       0.016
       0.019
       0.018
       0.007
      -0.010
      -0.027
      -0.040
      -0.045
      -0.041
      -0.030
      -0.013
       0.004
       0.015
       0.018
       0.017
       0.018
       0.027
       0.044
       0.060
       0.066
       0.056
       0.032
       0.004
      -0.017
      -0.023
      -0.015
       0.001
       0.016
       0.023
       0.022
       0.023
       0.034
       0.059
       0.091
       0.120
       0.137
       0.138
       0.125
       0.101
       0.075
       0.053
       0.040
       0.036
       0.037
       0.041
       0.048
       0.056
       0.064
       0.069
       0.067
       0.058
       0.045
       0.032
       0.025
       0.025
       0.026
       0.025
       0.019
       0.009
      -0.002
      -0.012
      -0.019
      -0.020
      -0.015
      -0.005
       0.006
       0.016
       0.022
       0.023
       0.016
       0.000
      -0.021
      -0.039
      -0.049
      -0.048
      -0.041
      -0.034
      -0.033
      -0.037
      -0.043
      -0.046
      -0.042
      -0.032
      -0.016
       0.000
       0.014
       0.028
       0.045
       0.068
       0.094
       0.119
       0.133
       0.131
       0.111
       0.080
       0.045
       0.015
      -0.008
      -0.023
      -0.036
      -0.053
      -0.075
      -0.099
      -0.123
      -0.143
      -0.154
      -0.156
      -0.151
      -0.144
      -0.141
      -0.145
      -0.151
      -0.154
      -0.147
      -0.131
      -0.112
      -0.095
      -0.078
      -0.058
      -0.032
      -0.005
       0.017
       0.030
       0.034
       0.030
       0.020
       0.005
      -0.016
      -0.039
      -0.060
      -0.078
      -0.092
      -0.104
      -0.115
      -0.127
      -0.138
      -0.146
      -0.150
      -0.144
      -0.128
      -0.105
      -0.082
      -0.067
      -0.065
      -0.074
      -0.088
      -0.100
      -0.105
      -0.108
      -0.114
      -0.128
      -0.150
      -0.173
      -0.191
      -0.200
      -0.202
      -0.199
      -0.198
      -0.202
      -0.214
      -0.231
      -0.249
      -0.263
      -0.274
      -0.281
      -0.285
      -0.285
      -0.281
      -0.274
      -0.266
      -0.258
      -0.254
      -0.256
      -0.264
      -0.277
      -0.290
      -0.298
      -0.297
      -0.287
      -0.264
      -0.229
      -0.185
      -0.138
      -0.097
      -0.061
      -0.026
       0.015
       0.064
       0.121
       0.177
       0.225
       0.257
       0.273
       0.278
       0.276
       0.272
       0.264
       0.252
       0.233
       0.212
       0.196
       0.193
       0.209
       0.239
       0.274
       0.301
       0.314
       0.313
       0.309
       0.315
       0.338
       0.374
       0.413
       0.445
       0.464
       0.471
       0.468
       0.460
       0.453
       0.455
       0.469
       0.495
       0.528
       0.561
       0.591
       0.615
       0.631
       0.641
       0.646
       0.645
       0.638
       0.619
       0.587
       0.542
       0.487
       0.425
       0.359
       0.289
       0.212
       0.127
       0.041
      -0.037
      -0.099
      -0.145
      -0.177
      -0.197
      -0.207
      -0.209
      -0.202
      -0.185
      -0.156
      -0.112
      -0.059
      -0.006
       0.040
       0.076
       0.103
       0.128
       0.154
       0.180
       0.208
       0.237
       0.264
       0.287
       0.300
       0.302
       0.295
       0.283
       0.268
       0.250
       0.225
       0.186
       0.126
       0.047
      -0.044
      -0.134
      -0.214
      -0.282
      -0.343
      -0.404
      -0.466
      -0.524
      -0.569
      -0.595
      -0.600
      -0.587
      -0.564
      -0.535
      -0.506
      -0.478
      -0.452
      -0.426
      -0.397
      -0.361
      -0.322
      -0.289
      -0.267
      -0.256
      -0.256
      -0.260
      -0.266
      -0.273
      -0.282
      -0.294
      -0.310
      -0.329
      -0.346
      -0.356
      -0.357
      -0.351
      -0.340
      -0.327
      -0.310
      -0.287
      -0.256
      -0.217
      -0.171
      -0.126
      -0.088
      -0.062
      -0.049
      -0.045
      -0.045
      -0.047
      -0.048
      -0.048
      -0.050
      -0.056
      -0.065
      -0.073
      -0.075
      -0.069
      -0.060
      -0.051
      -0.043
      -0.033
      -0.019
      -0.003
       0.014
       0.032
       0.050
       0.063
       0.066
       0.055
       0.036
       0.017
       0.008
       0.010
       0.020
       0.032
       0.044
       0.057
       0.075
       0.099
       0.130
       0.165
       0.204
       0.246
       0.286
       0.323
       0.353
       0.376
       0.397
       0.422
       0.455
       0.496
       0.543
       0.591
       0.637
       0.682
       0.726
       0.767
       0.802
       0.829
       0.845
       0.849
       0.841
       0.822
       0.792
       0.752
       0.702
       0.640
       0.561
       0.463
       0.349
       0.226
       0.104
      -0.012
      -0.115
      -0.205
      -0.285
      -0.358
      -0.428
      -0.497
      -0.563
      -0.619
      -0.660
      -0.683
      -0.688
      -0.682
      -0.673
      -0.668
      -0.667
      -0.667
      -0.657
      -0.633
      -0.589
      -0.529
      -0.458
      -0.382
      -0.308
      -0.236
      -0.165
      -0.093
      -0.022
       0.042
       0.098
       0.146
       0.186
       0.219
       0.242
       0.257
       0.264
       0.261
       0.247
       0.216
       0.173
       0.124
       0.076
       0.036
       0.001
      -0.033
      -0.068
      -0.106
      -0.143
      -0.177
      -0.208
      -0.234
      -0.258
      -0.279
      -0.299
      -0.313
      -0.319
      -0.315
      -0.303
      -0.285
      -0.260
      -0.230
      -0.195
      -0.156
      -0.116
      -0.075
      -0.032
       0.010
       0.050
       0.084
       0.109
       0.122
       0.123
       0.111
       0.087
       0.055
       0.019
      -0.022
      -0.069
      -0.123
      -0.182
      -0.238
      -0.285
      -0.323
      -0.354
      -0.383
      -0.405
      -0.413
      -0.400
      -0.363
      -0.310
      -0.247
      -0.181
      -0.118
      -0.063
      -0.019
       0.012
       0.033
       0.048
       0.059
       0.068
       0.071
       0.066
       0.054
       0.039
       0.025
       0.017
       0.019
       0.034
       0.061
       0.098
       0.143
       0.193
       0.250
       0.312
       0.377
       0.440
       0.497
       0.541
       0.571
       0.585
       0.588
       0.589
       0.598
       0.621
       0.651
       0.680
       0.698
       0.700
       0.689
       0.672
       0.650
       0.623
       0.585
       0.530
       0.454
       0.355
       0.239
       0.113
      -0.012
      -0.126
      -0.225
      -0.314
      -0.391
      -0.456
      -0.503
      -0.529
      -0.534
      -0.518
      -0.481
      -0.421
      -0.341
      -0.247
      -0.147
      -0.049
       0.046
       0.137
       0.224
       0.306
       0.379
       0.437
       0.478
       0.500
       0.506
       0.497
       0.472
       0.429
       0.363
       0.274
       0.161
       0.029
      -0.117
      -0.269
      -0.418
      -0.554
      -0.672
      -0.770
      -0.855
      -0.930
      -0.991
      -1.030
      -1.043
      -1.031
      -1.003
      -0.968
      -0.931
      -0.892
      -0.847
      -0.792
      -0.722
      -0.634
      -0.529
      -0.413
      -0.295
      -0.186
      -0.089
      -0.004
       0.079
       0.165
       0.255
       0.342
       0.420
       0.485
       0.536
       0.574
       0.599
       0.610
       0.606
       0.590
       0.567
       0.541
       0.511
       0.473
       0.423
       0.361
       0.292
       0.216
       0.134
       0.040
      -0.067
      -0.188
      -0.316
      -0.445
      -0.566
      -0.670
      -0.749
      -0.796
      -0.807
      -0.781
      -0.718
      -0.621
      -0.495
      -0.349
      -0.190
      -0.024
       0.145
       0.314
       0.478
       0.630
       0.760
       0.859
       0.919
       0.933
       0.902
       0.835
       0.748
       0.653
       0.557
       0.458
       0.359
       0.262
       0.171
       0.087
       0.010
      -0.062
      -0.128
      -0.187
      -0.238
      -0.277
      -0.306
      -0.322
      -0.326
      -0.316
      -0.292
      -0.255
      -0.207
      -0.149
      -0.083
      -0.006
       0.080
       0.171
       0.260
       0.339
       0.400
       0.437
       0.448
       0.434
       0.396
       0.335
       0.250
       0.143
       0.020
      -0.107
      -0.229
      -0.339
      -0.431
      -0.506
      -0.561
      -0.596
      -0.609
      -0.599
      -0.564
      -0.506
      -0.429
      -0.341
      -0.252
      -0.173
      -0.108
      -0.057
      -0.012
       0.037
       0.093
       0.152
       0.207
       0.250
       0.279
       0.295
       0.304
       0.310
       0.318
       0.328
       0.338
       0.342
       0.333
       0.308
       0.270
       0.226
       0.185
       0.152
       0.130
       0.119
       0.115
       0.111
       0.101
       0.082
       0.058
       0.037
       0.028
       0.034
       0.049
       0.067
       0.077
       0.079
       0.074
       0.061
       0.040
       0.007
      -0.038
      -0.092
      -0.151
      -0.210
      -0.267
      -0.315
      -0.349
      -0.367
      -0.371
      -0.367
      -0.360
      -0.344
      -0.313
      -0.263
      -0.196
      -0.121
      -0.049
       0.010
       0.053
       0.084
       0.109
       0.134
       0.162
       0.189
       0.207
       0.209
       0.191
       0.151
       0.094
       0.025
      -0.049
      -0.119
      -0.178
      -0.226
      -0.263
      -0.294
      -0.322
      -0.344
      -0.358
      -0.359
      -0.342
      -0.312
      -0.270
      -0.217
      -0.155
      -0.084
      -0.013
       0.050
       0.100
       0.138
       0.171
       0.205
       0.244
       0.290
       0.339
       0.387
       0.427
       0.449
       0.450
       0.430
       0.393
       0.341
       0.277
       0.205
       0.131
       0.060
      -0.006
      -0.067
      -0.122
      -0.167
      -0.196
      -0.202
      -0.183
      -0.143
      -0.089
      -0.030
       0.028
       0.080
       0.121
       0.150
       0.163
       0.157
       0.134
       0.099
       0.064
       0.038
       0.030
       0.041
       0.069
       0.105
       0.144
       0.179
       0.210
       0.239
       0.273
       0.309
       0.341
       0.356
       0.345
       0.303
       0.233
       0.144
       0.044
      -0.058
      -0.152
      -0.236
      -0.307
      -0.367
      -0.417
      -0.454
      -0.472
      -0.467
      -0.440
      -0.399
      -0.353
      -0.308
      -0.267
      -0.228
      -0.192
      -0.162
      -0.144
      -0.141
      -0.152
      -0.173
      -0.200
      -0.226
      -0.246
      -0.259
      -0.267
      -0.276
      -0.290
      -0.310
      -0.333
      -0.351
      -0.355
      -0.340
      -0.307
      -0.259
      -0.202
      -0.146
      -0.095
      -0.047
       0.002
       0.059
       0.124
       0.193
       0.258
       0.315
       0.367
       0.414
       0.454
       0.483
       0.497
       0.496
       0.482
       0.454
       0.410
       0.351
       0.278
       0.192
       0.097
      -0.007
      -0.113
      -0.213
      -0.303
      -0.377
      -0.430
      -0.459
      -0.463
      -0.446
      -0.413
      -0.370
      -0.315
      -0.243
      -0.154
      -0.054
       0.045
       0.131
       0.194
       0.227
       0.237
       0.232
       0.222
       0.212
       0.203
       0.190
       0.166
       0.128
       0.075
       0.016
      -0.035
      -0.062
      -0.061
      -0.036
      -0.002
       0.027
       0.039
       0.027
      -0.007
      -0.051
      -0.093
      -0.123
      -0.139
      -0.146
      -0.144
      -0.132
      -0.109
      -0.077
      -0.042
      -0.011
       0.015
       0.038
       0.059
       0.074
       0.080
       0.074
       0.059
       0.037
       0.012
      -0.014
      -0.040
      -0.061
      -0.070
      -0.063
      -0.039
      -0.004
       0.031
       0.058
       0.074
       0.083
       0.087
       0.090
       0.089
       0.083
       0.073
       0.060
       0.045
       0.028
       0.008
      -0.011
      -0.022
      -0.020
      -0.004
       0.018
       0.039
       0.057
       0.073
       0.094
       0.123
       0.162
       0.210
       0.263
       0.313
       0.356
       0.389
       0.414
       0.431
       0.435
       0.422
       0.391
       0.344
       0.286
       0.221
       0.152
       0.084
       0.023
      -0.027
      -0.062
      -0.083
      -0.089
      -0.084
      -0.070
      -0.052
      -0.033
      -0.016
      -0.004
       0.001
      -0.004
      -0.018
      -0.040
      -0.063
      -0.086
      -0.110
      -0.136
      -0.160
      -0.178
      -0.181
      -0.167
