Origin Time       28/5/2010 07:25:06	
Lat.              31.2 N	
Long.             77.9 E	
Depth (Km)         43.0
Magnitude         4.8
 Region           Himachal                                                         
 Above details taken from USGS
     
Station Code      Roo
Station Lat.       29.866  N
Station Long.      77.901  E
Station Height(m)  243.0
Site Class        C   Vs30 between 200 m/sec to 375 m/sec *  
Record Time       28.05.2010 07:23:38.604
Sampling Rate     200. Hz
 Record Duration   70.000 Sec.
 Direction         E-W (E positive)
Max. Acceleration     -0.456 cm/sec**2
     
  * For reference see Site Classification link of website 
     
 Base Line Corrected and Low Pass Filtered (Cut Off at 35 Hz) Time History
 Acceleration data in cm/sec**2
    
[...]
      -0.001
      -0.019
      -0.036
      -0.046
      -0.048
      -0.043
      -0.035
      -0.028
      -0.025
      -0.028
      -0.033
      -0.036
      -0.032
      -0.020
      -0.006
       0.004
       0.005
      -0.002
      -0.011
      -0.016
      -0.015
      -0.013
      -0.011
      -0.009
      -0.007
      -0.005
      -0.009
      -0.020
      -0.035
      -0.045
      -0.045
      -0.036
      -0.024
      -0.014
      -0.008
      -0.003
       0.004
       0.014
       0.029
       0.045
       0.059
       0.066
       0.068
       0.065
       0.061
       0.058
       0.056
       0.054
       0.053
       0.053
       0.050
       0.042
       0.029
       0.011
      -0.005
      -0.019
      -0.029
      -0.040
      -0.051
      -0.063
      -0.072
      -0.075
      -0.072
      -0.063
      -0.054
      -0.048
      -0.044
      -0.041
      -0.038
      -0.034
      -0.026
      -0.011
       0.005
       0.016
       0.018
       0.011
       0.001
      -0.006
      -0.011
      -0.014
      -0.017
      -0.022
      -0.028
      -0.035
      -0.042
      -0.049
      -0.053
      -0.053
      -0.051
      -0.048
      -0.050
      -0.056
      -0.062
      -0.064
      -0.058
      -0.045
      -0.029
      -0.015
      -0.008
      -0.007
      -0.008
      -0.003
       0.010
       0.029
       0.048
       0.059
       0.063
       0.060
       0.055
       0.051
       0.050
       0.050
       0.052
       0.055
       0.056
       0.055
       0.056
       0.062
       0.070
       0.074
       0.068
       0.058
       0.052
       0.050
       0.049
       0.042
       0.033
       0.028
       0.033
       0.044
       0.055
       0.059
       0.057
       0.054
       0.053
       0.055
       0.060
       0.065
       0.071
       0.074
       0.069
       0.058
       0.046
       0.039
       0.039
       0.041
       0.038
       0.029
       0.016
       0.004
      -0.004
      -0.009
      -0.014
      -0.021
      -0.029
      -0.038
      -0.047
      -0.055
      -0.058
      -0.053
      -0.044
      -0.036
      -0.032
      -0.032
      -0.035
      -0.037
      -0.039
      -0.043
      -0.048
      -0.051
      -0.050
      -0.047
      -0.046
      -0.049
      -0.057
      -0.066
      -0.071
      -0.072
      -0.071
      -0.071
      -0.075
      -0.085
      -0.098
      -0.109
      -0.116
      -0.119
      -0.122
      -0.130
      -0.140
      -0.148
      -0.151
      -0.148
      -0.141
      -0.135
      -0.133
      -0.136
      -0.143
      -0.148
      -0.145
      -0.130
      -0.107
      -0.082
      -0.062
      -0.050
      -0.041
      -0.029
      -0.010
       0.014
       0.039
       0.061
       0.082
       0.103
       0.125
       0.147
       0.168
       0.185
       0.195
       0.201
       0.206
       0.212
       0.219
       0.221
       0.216
       0.203
       0.189
       0.176
       0.165
       0.154
       0.140
       0.121
       0.100
       0.083
       0.070
       0.062
       0.057
       0.053
       0.051
       0.054
       0.063
       0.076
       0.087
       0.090
       0.081
       0.063
       0.043
       0.024
       0.010
       0.001
      -0.004
      -0.006
      -0.008
      -0.015
      -0.026
      -0.040
      -0.055
      -0.067
      -0.077
      -0.086
      -0.096
      -0.108
      -0.121
      -0.132
      -0.141
      -0.145
      -0.143
      -0.136
      -0.124
      -0.110
      -0.097
      -0.087
      -0.082
      -0.079
      -0.076
      -0.070
      -0.062
      -0.052
      -0.045
      -0.038
      -0.029
      -0.019
      -0.008
       0.003
       0.013
       0.021
       0.026
       0.030
       0.035
       0.038
       0.040
       0.040
       0.041
       0.044
       0.050
       0.057
       0.064
       0.070
       0.073
       0.074
       0.074
       0.074
       0.072
       0.068
       0.061
       0.052
       0.041
       0.032
       0.025
       0.019
       0.012
       0.004
      -0.001
      -0.002
       0.003
       0.008
       0.011
       0.009
       0.004
      -0.003
      -0.006
       0.000
       0.016
       0.039
       0.061
       0.078
       0.087
       0.091
       0.095
       0.099
       0.099
       0.091
       0.075
       0.061
       0.051
       0.046
       0.037
       0.020
      -0.002
      -0.024
      -0.041
      -0.055
      -0.071
      -0.092
      -0.113
      -0.127
      -0.127
      -0.116
      -0.099
      -0.079
      -0.059
      -0.037
      -0.016
       0.004
       0.021
       0.036
       0.053
       0.072
       0.091
       0.103
       0.104
       0.094
       0.074
       0.053
       0.034
       0.018
       0.001
      -0.020
      -0.048
      -0.081
      -0.115
      -0.142
      -0.160
      -0.167
      -0.165
      -0.158
      -0.148
      -0.138
      -0.128
      -0.119
      -0.107
      -0.092
      -0.075
      -0.058
      -0.045
      -0.038
      -0.034
      -0.026
      -0.010
       0.012
       0.034
       0.049
       0.057
       0.060
       0.062
       0.064
       0.065
       0.067
       0.068
       0.068
       0.064
       0.057
       0.048
       0.042
       0.042
       0.046
       0.047
       0.042
       0.033
       0.024
       0.016
       0.010
       0.003
      -0.003
      -0.007
      -0.008
      -0.006
      -0.004
       0.000
       0.003
       0.005
       0.004
       0.002
       0.000
      -0.001
      -0.001
       0.001
       0.003
       0.006
       0.011
       0.019
       0.028
       0.038
       0.047
       0.057
       0.072
       0.090
       0.110
       0.125
       0.134
       0.133
       0.127
       0.116
       0.102
       0.088
       0.073
       0.057
       0.037
       0.011
      -0.021
      -0.054
      -0.081
      -0.097
      -0.103
      -0.103
      -0.100
      -0.098
      -0.096
      -0.091
      -0.084
      -0.075
      -0.065
      -0.053
      -0.038
      -0.021
      -0.005
       0.009
       0.018
       0.024
       0.029
       0.035
       0.038
       0.039
       0.035
       0.030
       0.024
       0.021
       0.020
       0.022
       0.023
       0.023
       0.022
       0.021
       0.021
       0.023
       0.025
       0.029
       0.034
       0.041
       0.050
       0.057
       0.061
       0.060
       0.060
       0.062
       0.066
       0.065
       0.053
       0.031
       0.004
      -0.022
      -0.043
      -0.062
      -0.078
      -0.096
      -0.116
      -0.137
      -0.158
      -0.174
      -0.178
      -0.168
      -0.144
      -0.115
      -0.086
      -0.061
      -0.041
      -0.023
      -0.006
       0.014
       0.039
       0.067
       0.092
       0.108
       0.110
       0.101
       0.087
       0.075
       0.062
       0.047
       0.027
       0.003
      -0.017
      -0.029
      -0.032
      -0.030
      -0.029
      -0.032
      -0.043
      -0.061
      -0.080
      -0.095
      -0.103
      -0.104
      -0.102
      -0.098
      -0.094
      -0.089
      -0.084
      -0.076
      -0.063
      -0.043
      -0.016
       0.013
       0.042
       0.068
       0.088
       0.102
       0.110
       0.113
       0.114
       0.116
       0.119
       0.120
       0.116
       0.105
       0.086
       0.061
       0.033
       0.004
      -0.020
      -0.038
      -0.050
      -0.061
      -0.073
      -0.084
      -0.089
      -0.084
      -0.069
      -0.047
      -0.026
      -0.008
       0.008
       0.026
       0.045
       0.061
       0.070
       0.070
       0.060
       0.042
       0.019
      -0.003
      -0.018
      -0.025
      -0.029
      -0.034
      -0.041
      -0.052
      -0.063
      -0.075
      -0.089
      -0.104
      -0.120
      -0.136
      -0.154
      -0.173
      -0.193
      -0.207
      -0.206
      -0.186
      -0.152
      -0.113
      -0.074
      -0.033
       0.014
       0.070
       0.131
       0.193
       0.248
       0.291
       0.317
       0.328
       0.327
       0.319
       0.305
       0.283
       0.253
       0.214
       0.167
       0.115
       0.062
       0.014
      -0.025
      -0.054
      -0.074
      -0.089
      -0.103
      -0.118
      -0.134
      -0.149
      -0.161
      -0.168
      -0.168
      -0.163
      -0.152
      -0.136
      -0.116
      -0.096
      -0.080
      -0.066
      -0.052
      -0.037
      -0.025
      -0.019
      -0.023
      -0.034
      -0.045
      -0.054
      -0.063
      -0.074
      -0.088
      -0.100
      -0.107
      -0.105
      -0.093
      -0.072
      -0.043
      -0.008
       0.028
       0.064
       0.096
       0.128
       0.161
       0.195
       0.227
       0.250
       0.257
       0.248
       0.224
       0.189
       0.146
       0.099
       0.052
       0.009
      -0.030
      -0.064
      -0.095
      -0.121
      -0.140
      -0.151
      -0.155
      -0.154
      -0.153
      -0.151
      -0.146
      -0.137
      -0.120
      -0.098
      -0.073
      -0.050
      -0.029
      -0.010
       0.009
       0.031
       0.054
       0.079
       0.104
       0.124
       0.136
       0.140
       0.139
       0.132
       0.123
       0.112
       0.101
       0.090
       0.081
       0.075
       0.074
       0.077
       0.080
       0.083
       0.087
       0.093
       0.099
       0.103
       0.101
       0.092
       0.076
       0.056
       0.034
       0.011
      -0.014
      -0.044
      -0.074
      -0.098
      -0.111
      -0.111
      -0.105
      -0.099
      -0.097
      -0.100
      -0.103
      -0.104
      -0.102
      -0.097
      -0.091
      -0.083
      -0.075
      -0.066
      -0.059
      -0.054
      -0.048
      -0.040
      -0.030
      -0.016
       0.001
       0.022
       0.044
       0.066
       0.084
       0.095
       0.099
       0.095
       0.082
       0.061
       0.036
       0.008
      -0.021
      -0.053
      -0.087
      -0.123
      -0.154
      -0.175
      -0.183
      -0.178
      -0.163
      -0.142
      -0.119
      -0.098
      -0.081
      -0.067
      -0.055
      -0.045
      -0.035
      -0.029
      -0.025
      -0.027
      -0.033
      -0.042
      -0.052
      -0.058
      -0.055
      -0.042
      -0.020
       0.005
       0.029
       0.050
       0.069
       0.090
       0.112
       0.136
       0.159
       0.177
       0.188
       0.194
       0.194
       0.190
       0.178
       0.155
       0.123
       0.084
       0.042
       0.003
      -0.028
      -0.050
      -0.068
      -0.081
      -0.087
      -0.083
      -0.069
      -0.053
      -0.040
      -0.031
      -0.025
      -0.017
      -0.007
       0.004
       0.018
       0.038
       0.065
       0.096
       0.129
       0.163
       0.196
       0.225
       0.250
       0.266
       0.273
       0.269
       0.254
       0.227
       0.189
       0.143
       0.092
       0.041
      -0.010
      -0.061
      -0.111
      -0.157
      -0.194
      -0.215
      -0.220
      -0.211
      -0.195
      -0.178
      -0.164
      -0.155
      -0.154
      -0.163
      -0.180
      -0.205
      -0.233
      -0.263
      -0.292
      -0.318
      -0.339
      -0.352
      -0.354
      -0.341
      -0.314
      -0.275
      -0.227
      -0.173
      -0.118
      -0.064
      -0.014
       0.028
       0.062
       0.087
       0.104
       0.116
       0.129
       0.149
       0.181
       0.222
       0.261
       0.294
       0.316
       0.329
       0.333
       0.324
       0.298
       0.256
       0.203
       0.145
       0.087
       0.032
      -0.016
      -0.050
      -0.063
      -0.054
      -0.025
       0.018
       0.072
       0.130
       0.187
       0.240
       0.283
       0.313
       0.327
       0.323
       0.304
       0.275
       0.240
       0.199
       0.151
       0.093
       0.026
      -0.047
      -0.115
      -0.171
      -0.213
      -0.242
      -0.259
      -0.266
      -0.261
      -0.244
      -0.220
      -0.193
      -0.165
      -0.136
      -0.104
      -0.068
      -0.031
       0.005
       0.039
       0.074
       0.104
       0.125
       0.132
       0.127
       0.117
       0.105
       0.092
       0.074
       0.049
       0.020
      -0.012
      -0.046
      -0.084
      -0.130
      -0.182
      -0.234
      -0.279
      -0.313
      -0.338
      -0.352
      -0.354
      -0.341
      -0.314
      -0.276
      -0.232
      -0.185
      -0.138
      -0.092
      -0.051
      -0.019
       0.001
       0.008
       0.005
      -0.005
      -0.015
      -0.023
      -0.029
      -0.034
      -0.041
      -0.045
      -0.043
      -0.030
      -0.003
       0.033
       0.074
       0.118
       0.163
       0.208
       0.249
       0.284
       0.313
       0.336
       0.354
       0.365
       0.369
       0.363
       0.348
       0.323
       0.291
       0.252
       0.204
       0.147
       0.083
       0.016
      -0.052
      -0.113
      -0.160
      -0.188
      -0.195
      -0.184
      -0.159
      -0.125
      -0.086
      -0.043
       0.001
       0.045
       0.091
       0.136
       0.174
       0.198
       0.204
       0.189
       0.158
       0.114
       0.061
       0.001
      -0.062
      -0.123
      -0.178
      -0.228
      -0.274
      -0.316
      -0.349
      -0.375
      -0.395
      -0.416
      -0.436
      -0.453
      -0.456
      -0.441
      -0.406
      -0.359
      -0.308
      -0.258
      -0.208
      -0.155
      -0.097
      -0.035
       0.029
       0.094
       0.160
       0.221
       0.275
       0.315
       0.339
       0.349
       0.349
       0.345
       0.336
       0.320
       0.299
       0.276
       0.258
       0.249
       0.245
       0.242
       0.232
       0.208
       0.169
       0.120
       0.068
       0.017
      -0.035
      -0.089
      -0.145
      -0.199
      -0.241
      -0.268
      -0.281
      -0.285
      -0.282
      -0.273
      -0.255
      -0.230
      -0.201
      -0.172
      -0.143
      -0.111
      -0.071
      -0.024
       0.028
       0.078
       0.118
       0.147
       0.168
       0.188
       0.209
       0.228
       0.236
       0.231
       0.214
       0.194
       0.180
       0.174
       0.174
       0.176
       0.179
       0.182
       0.184
       0.179
       0.165
       0.143
       0.119
       0.096
       0.074
       0.050
       0.022
      -0.009
      -0.040
      -0.071
      -0.096
      -0.114
      -0.121
      -0.118
      -0.109
      -0.098
      -0.086
      -0.072
      -0.055
      -0.038
      -0.027
      -0.026
      -0.037
      -0.057
      -0.081
      -0.106
      -0.127
      -0.143
      -0.155
      -0.165
      -0.170
      -0.169
      -0.158
      -0.138
      -0.113
      -0.086
      -0.061
      -0.040
      -0.025
      -0.014
      -0.006
       0.006
       0.021
       0.041
       0.064
       0.089
       0.113
       0.136
       0.153
       0.163
       0.162
       0.151
       0.134
       0.111
       0.086
       0.058
       0.032
       0.012
      -0.001
      -0.009
      -0.014
      -0.019
      -0.028
      -0.039
      -0.049
      -0.052
      -0.046
      -0.034
      -0.023
      -0.019
      -0.025
      -0.038
      -0.053
      -0.063
      -0.064
      -0.054
      -0.038
      -0.020
      -0.001
       0.019
       0.036
       0.050
       0.060
       0.069
       0.081
       0.096
       0.111
       0.121
       0.120
       0.113
       0.104
       0.100
       0.105
       0.117
       0.132
       0.144
       0.150
       0.150
       0.147
       0.144
       0.140
       0.131
       0.111
       0.081
       0.041
      -0.006
      -0.055
      -0.102
      -0.142
      -0.172
      -0.193
      -0.206
      -0.213
      -0.214
      -0.209
      -0.195
      -0.173
      -0.145
      -0.114
      -0.085
      -0.057
      -0.035
      -0.020
      -0.015
      -0.022
      -0.038
      -0.058
      -0.078
      -0.095
      -0.109
      -0.117
      -0.118
      -0.108
      -0.087
      -0.062
      -0.041
      -0.027
      -0.014
       0.005
       0.033
       0.065
       0.095
       0.113
       0.116
       0.105
       0.085
       0.061
       0.035
       0.013
      -0.003
      -0.015
      -0.025
      -0.039
      -0.056
      -0.073
      -0.083
      -0.084
      -0.078
      -0.070
      -0.065
      -0.064
      -0.066
      -0.069
      -0.072
      -0.071
      -0.065
      -0.053
      -0.036
      -0.015
       0.012
       0.046
       0.084
       0.121
       0.151
       0.171
       0.180
       0.179
       0.171
       0.158
       0.143
       0.129
       0.117
       0.106
       0.099
       0.095
       0.096
       0.101
       0.108
       0.117
       0.125
       0.132
       0.137
       0.140
       0.139
       0.134
       0.126
       0.119
       0.115
       0.110
       0.101
       0.083
       0.052
       0.010
      -0.039
      -0.091
      -0.142
      -0.190
      -0.229
      -0.260
      -0.281
      -0.296
      -0.308
      -0.317
      -0.326
      -0.333
      -0.338
      -0.339
      -0.337
      -0.333
      -0.324
      -0.305
      -0.274
      -0.233
      -0.187
      -0.142
      -0.099
      -0.058
      -0.019
       0.019
       0.058
       0.096
       0.129
       0.151
       0.158
       0.150
       0.132
       0.109
       0.089
       0.076
       0.074
       0.082
       0.096
       0.113
       0.133
       0.152
       0.169
       0.181
       0.186
       0.186
       0.183
       0.178
       0.167
       0.152
       0.132
       0.109
       0.083
       0.050
       0.010
      -0.034
      -0.074
      -0.106
      -0.127
      -0.141
      -0.152
      -0.162
      -0.169
      -0.166
      -0.151
      -0.123
      -0.088
      -0.051
      -0.017
       0.008
       0.023
       0.028
       0.024
       0.014
       0.000
      -0.015
      -0.026
      -0.031
      -0.027
      -0.017
       0.000
       0.021
       0.045
       0.069
       0.090
       0.110
       0.127
       0.138
       0.143
       0.142
       0.137
       0.128
       0.112
       0.089
       0.063
       0.039
       0.023
       0.015
       0.011
       0.005
      -0.010
      -0.035
      -0.068
      -0.105
      -0.142
      -0.173
      -0.198
      -0.217
      -0.233
      -0.245
      -0.253
      -0.253
      -0.246
      -0.236
      -0.225
      -0.212
      -0.195
      -0.169
      -0.135
      -0.094
      -0.051
      -0.006
       0.042
       0.095
       0.152
       0.207
       0.252
       0.280
       0.290
       0.281
       0.261
       0.233
       0.204
       0.172
       0.137
       0.097
       0.049
      -0.002
      -0.052
      -0.098
      -0.138
      -0.170
      -0.194
      -0.209
      -0.215
      -0.215
      -0.207
      -0.188
      -0.156
      -0.114
      -0.071
      -0.036
      -0.014
       0.000
       0.009
       0.021
       0.037
       0.059
       0.084
       0.110
       0.136
       0.161
       0.180
       0.190
       0.191
       0.182
       0.164
       0.136
       0.099
