Origin Time       05/3/2012 07:41:05	
Lat.              28.7 N	
Long.             76.6 E	
Depth (Km)         14.0
Magnitude         4.9
 Region           Haryana-Delhi-Border-Region                                      
 Above details taken from IMD 
   
Station Code      ROO
Station Lat.       29.866
Station Long.      77.901
Station Height(m)  243.0
Site Class        C   Vs30 between 200 m/sec to 375 m/sec *  
Record Time       05.03.2012 07:41:26.919
Sampling Rate     200. Hz
 Record Duration  118.305 Sec.
 Direction         Vert. (Up positive)
Max. Acceleration      0.893 cm/sec**2
     
  * For reference see Site Classification link of website 
     
 Base Line Corrected and Low Pass Filtered (Cut Off at 35 Hz) Time History
 Acceleration data in cm/sec**2
    
[...]
       0.141
       0.078
       0.028
      -0.001
      -0.013
      -0.016
      -0.018
      -0.023
      -0.028
      -0.032
      -0.037
      -0.047
      -0.064
      -0.077
      -0.075
      -0.050
      -0.010
       0.029
       0.051
       0.050
       0.029
      -0.008
      -0.058
      -0.122
      -0.198
      -0.279
      -0.356
      -0.419
      -0.460
      -0.471
      -0.444
      -0.380
      -0.283
      -0.163
      -0.033
       0.091
       0.193
       0.261
       0.291
       0.285
       0.249
       0.192
       0.127
       0.070
       0.031
       0.009
      -0.006
      -0.024
      -0.046
      -0.062
      -0.059
      -0.029
       0.021
       0.077
       0.122
       0.150
       0.162
       0.165
       0.161
       0.143
       0.104
       0.043
      -0.032
      -0.110
      -0.183
      -0.246
      -0.296
      -0.323
      -0.316
      -0.269
      -0.185
      -0.078
       0.032
       0.126
       0.195
       0.236
       0.253
       0.252
       0.242
       0.234
       0.239
       0.261
       0.297
       0.339
       0.372
       0.382
       0.359
       0.297
       0.205
       0.097
      -0.011
      -0.106
      -0.179
      -0.225
      -0.240
      -0.224
      -0.184
      -0.142
      -0.119
      -0.130
      -0.170
      -0.223
      -0.270
      -0.301
      -0.313
      -0.300
      -0.257
      -0.177
      -0.064
       0.070
       0.206
       0.329
       0.430
       0.504
       0.544
       0.537
       0.476
       0.363
       0.218
       0.067
      -0.064
      -0.160
      -0.216
      -0.235
      -0.225
      -0.192
      -0.144
      -0.082
      -0.009
       0.066
       0.133
       0.180
       0.202
       0.204
       0.197
       0.187
       0.173
       0.146
       0.097
       0.023
      -0.071
      -0.177
      -0.283
      -0.372
      -0.428
      -0.432
      -0.379
      -0.283
      -0.176
      -0.091
      -0.047
      -0.041
      -0.061
      -0.096
      -0.142
      -0.192
      -0.237
      -0.259
      -0.245
      -0.192
      -0.113
      -0.027
       0.047
       0.097
       0.115
       0.104
       0.072
       0.037
       0.021
       0.038
       0.091
       0.172
       0.263
       0.345
       0.406
       0.435
       0.427
       0.377
       0.287
       0.162
       0.015
      -0.133
      -0.257
      -0.336
      -0.359
      -0.334
      -0.284
      -0.235
      -0.201
      -0.179
      -0.159
      -0.135
      -0.103
      -0.063
      -0.011
       0.056
       0.137
       0.217
       0.275
       0.294
       0.269
       0.204
       0.108
      -0.005
      -0.114
      -0.199
      -0.247
      -0.260
      -0.250
      -0.229
      -0.205
      -0.179
      -0.155
      -0.137
      -0.128
      -0.124
      -0.111
      -0.075
      -0.012
       0.070
       0.154
       0.230
       0.298
       0.356
       0.399
       0.422
       0.424
       0.414
       0.403
       0.389
       0.360
       0.299
       0.201
       0.076
      -0.056
      -0.177
      -0.278
      -0.357
      -0.407
      -0.425
      -0.413
      -0.385
      -0.356
      -0.334
      -0.321
      -0.307
      -0.285
      -0.249
      -0.196
      -0.126
      -0.041
       0.052
       0.147
       0.236
       0.311
       0.365
       0.389
       0.370
       0.301
       0.190
       0.056
      -0.080
      -0.202
      -0.308
      -0.395
      -0.459
      -0.487
      -0.471
      -0.412
      -0.321
      -0.208
      -0.077
       0.069
       0.221
       0.359
       0.460
       0.505
       0.497
       0.447
       0.374
       0.292
       0.213
       0.148
       0.111
       0.109
       0.137
       0.178
       0.214
       0.229
       0.212
       0.161
       0.074
      -0.044
      -0.185
      -0.332
      -0.465
      -0.564
      -0.616
      -0.617
      -0.570
      -0.487
      -0.381
      -0.263
      -0.139
      -0.009
       0.120
       0.240
       0.339
       0.409
       0.449
       0.460
       0.443
       0.399
       0.330
       0.246
       0.160
       0.093
       0.058
       0.056
       0.072
       0.089
       0.089
       0.067
       0.026
      -0.024
      -0.068
      -0.096
      -0.101
      -0.082
      -0.054
      -0.033
      -0.038
      -0.074
      -0.134
      -0.206
      -0.275
      -0.334
      -0.372
      -0.375
      -0.328
      -0.225
      -0.077
       0.093
       0.257
       0.388
       0.469
       0.487
       0.438
       0.330
       0.184
       0.030
      -0.102
      -0.189
      -0.219
      -0.194
      -0.130
      -0.053
       0.005
       0.023
      -0.008
      -0.083
      -0.189
      -0.307
      -0.419
      -0.502
      -0.539
      -0.524
      -0.462
      -0.369
      -0.256
      -0.133
      -0.006
       0.113
       0.206
       0.255
       0.254
       0.214
       0.154
       0.099
       0.062
       0.050
       0.067
       0.110
       0.178
       0.257
       0.330
       0.380
       0.399
       0.389
       0.365
       0.336
       0.308
       0.277
       0.241
       0.197
       0.145
       0.086
       0.023
      -0.039
      -0.090
      -0.125
      -0.141
      -0.137
      -0.115
      -0.086
      -0.063
      -0.064
      -0.102
      -0.175
      -0.271
      -0.370
      -0.451
      -0.497
      -0.495
      -0.442
      -0.346
      -0.224
      -0.108
      -0.027
       0.002
      -0.017
      -0.061
      -0.104
      -0.123
      -0.106
      -0.050
       0.040
       0.159
       0.291
       0.419
       0.524
       0.592
       0.620
       0.613
       0.575
       0.515
       0.445
       0.377
       0.323
       0.286
       0.262
       0.247
       0.231
       0.206
       0.160
       0.088
      -0.008
      -0.118
      -0.221
      -0.297
      -0.331
      -0.317
      -0.261
      -0.175
      -0.075
       0.022
       0.095
       0.127
       0.107
       0.041
      -0.054
      -0.155
      -0.243
      -0.306
      -0.335
      -0.326
      -0.284
      -0.221
      -0.160
      -0.120
      -0.113
      -0.133
      -0.170
      -0.210
      -0.243
      -0.260
      -0.254
      -0.223
      -0.166
      -0.090
      -0.006
       0.076
       0.149
       0.212
       0.262
       0.293
       0.291
       0.253
       0.192
       0.132
       0.093
       0.078
       0.079
       0.083
       0.086
       0.092
       0.105
       0.118
       0.121
       0.107
       0.082
       0.058
       0.043
       0.033
       0.023
       0.013
       0.007
       0.007
       0.005
      -0.011
      -0.040
      -0.068
      -0.070
      -0.029
       0.052
       0.155
       0.256
       0.336
       0.385
       0.397
       0.370
       0.300
       0.187
       0.039
      -0.126
      -0.288
      -0.428
      -0.536
      -0.610
      -0.651
      -0.663
      -0.644
      -0.592
      -0.509
      -0.408
      -0.309
      -0.230
      -0.179
      -0.144
      -0.107
      -0.052
       0.025
       0.118
       0.221
       0.327
       0.435
       0.539
       0.629
       0.693
       0.721
       0.714
       0.682
       0.635
       0.580
       0.512
       0.426
       0.319
       0.193
       0.048
      -0.115
      -0.291
      -0.467
      -0.617
      -0.717
      -0.753
      -0.722
      -0.636
      -0.515
      -0.386
      -0.273
      -0.193
      -0.148
      -0.128
      -0.116
      -0.093
      -0.051
       0.019
       0.118
       0.240
       0.370
       0.483
       0.560
       0.591
       0.578
       0.534
       0.469
       0.396
       0.328
       0.277
       0.246
       0.226
       0.201
       0.151
       0.068
      -0.042
      -0.164
      -0.284
      -0.390
      -0.475
      -0.526
      -0.530
      -0.478
      -0.376
      -0.248
      -0.124
      -0.025
       0.036
       0.055
       0.040
       0.005
      -0.023
      -0.023
       0.011
       0.063
       0.107
       0.123
       0.112
       0.088
       0.065
       0.047
       0.030
       0.015
       0.010
       0.018
       0.026
       0.007
      -0.058
      -0.162
      -0.272
      -0.356
      -0.398
      -0.401
      -0.373
      -0.312
      -0.210
      -0.070
       0.088
       0.239
       0.363
       0.456
       0.523
       0.567
       0.584
       0.570
       0.524
       0.452
       0.361
       0.257
       0.144
       0.029
      -0.074
      -0.156
      -0.213
      -0.248
      -0.264
      -0.262
      -0.245
      -0.219
      -0.202
      -0.208
      -0.239
      -0.285
      -0.323
      -0.342
      -0.342
      -0.331
      -0.316
      -0.300
      -0.279
      -0.251
      -0.219
      -0.187
      -0.153
      -0.113
      -0.060
       0.008
       0.082
       0.155
       0.218
       0.264
       0.286
       0.281
       0.253
       0.213
       0.173
       0.138
       0.108
       0.087
       0.085
       0.115
       0.180
       0.263
       0.336
       0.376
       0.375
       0.343
       0.292
       0.233
       0.175
       0.131
       0.114
       0.129
       0.165
       0.201
       0.208
       0.170
       0.084
      -0.041
      -0.189
      -0.339
      -0.472
      -0.571
      -0.630
      -0.656
      -0.666
      -0.669
      -0.669
      -0.661
      -0.640
      -0.605
      -0.553
      -0.479
      -0.372
      -0.226
      -0.041
       0.166
       0.370
       0.545
       0.671
       0.741
       0.755
       0.720
       0.650
       0.564
       0.477
       0.397
       0.322
       0.243
       0.155
       0.055
      -0.050
      -0.154
      -0.244
      -0.306
      -0.325
      -0.293
      -0.214
      -0.103
       0.021
       0.141
       0.245
       0.319
       0.345
       0.308
       0.208
       0.066
      -0.085
      -0.214
      -0.301
      -0.340
      -0.337
      -0.306
      -0.264
      -0.231
      -0.221
      -0.232
      -0.252
      -0.262
      -0.251
      -0.217
      -0.163
      -0.091
      -0.009
       0.072
       0.134
       0.163
       0.164
       0.162
       0.185
       0.248
       0.344
       0.452
       0.550
       0.624
       0.664
       0.659
       0.602
       0.489
       0.333
       0.161
       0.008
      -0.102
      -0.164
      -0.185
      -0.179
      -0.159
      -0.141
      -0.138
      -0.154
      -0.177
      -0.189
      -0.173
      -0.128
      -0.073
      -0.036
      -0.031
      -0.057
      -0.108
      -0.178
      -0.267
      -0.368
      -0.458
      -0.514
      -0.523
      -0.492
      -0.441
      -0.383
      -0.316
      -0.226
      -0.109
       0.022
       0.145
       0.244
       0.322
       0.388
       0.445
       0.481
       0.484
       0.452
       0.404
       0.362
       0.338
       0.324
       0.310
       0.291
       0.271
       0.250
       0.226
       0.188
       0.133
       0.067
       0.004
      -0.050
      -0.091
      -0.122
      -0.143
      -0.152
      -0.148
      -0.136
      -0.120
      -0.108
      -0.105
      -0.116
      -0.146
      -0.200
      -0.273
      -0.349
      -0.407
      -0.429
      -0.409
      -0.353
      -0.267
      -0.156
      -0.029
       0.099
       0.202
       0.250
       0.231
       0.158
       0.062
      -0.019
      -0.060
      -0.053
       0.000
       0.088
       0.195
       0.294
       0.355
       0.356
       0.297
       0.202
       0.102
       0.020
      -0.041
      -0.085
      -0.118
      -0.139
      -0.150
      -0.156
      -0.170
      -0.201
      -0.248
      -0.297
      -0.328
      -0.333
      -0.312
      -0.275
      -0.229
      -0.182
      -0.136
      -0.100
      -0.083
      -0.092
      -0.119
      -0.143
      -0.137
      -0.083
       0.022
       0.167
       0.330
       0.485
       0.611
       0.690
       0.712
       0.678
       0.596
       0.478
       0.342
       0.207
       0.100
       0.040
       0.040
       0.094
       0.186
       0.290
       0.379
       0.427
       0.419
       0.357
       0.260
       0.156
       0.073
       0.022
      -0.002
      -0.024
      -0.074
      -0.175
      -0.328
      -0.509
      -0.680
      -0.804
      -0.857
      -0.827
      -0.715
      -0.536
      -0.320
      -0.104
       0.069
       0.173
       0.198
       0.158
       0.080
      -0.005
      -0.069
      -0.093
      -0.070
      -0.005
       0.089
       0.188
       0.271
       0.323
       0.342
       0.337
       0.317
       0.291
       0.266
       0.244
       0.222
       0.198
       0.169
       0.140
       0.122
       0.122
       0.135
       0.151
       0.154
       0.139
       0.110
       0.072
       0.034
      -0.003
      -0.036
      -0.063
      -0.085
      -0.104
      -0.127
      -0.160
      -0.203
      -0.246
      -0.278
      -0.290
      -0.281
      -0.255
      -0.217
      -0.174
      -0.131
      -0.096
      -0.077
      -0.083
      -0.116
      -0.169
      -0.224
      -0.260
      -0.258
      -0.212
      -0.139
      -0.069
      -0.032
      -0.042
      -0.093
      -0.173
      -0.269
      -0.370
      -0.464
      -0.530
      -0.549
      -0.511
      -0.428
      -0.325
      -0.225
      -0.140
      -0.067
      -0.006
       0.039
       0.061
       0.067
       0.076
       0.117
       0.206
       0.336
       0.485
       0.630
       0.755
       0.846
       0.893
       0.885
       0.822
       0.716
       0.588
       0.456
       0.332
       0.221
       0.124
       0.041
      -0.031
      -0.100
      -0.174
      -0.250
      -0.313
      -0.352
      -0.363
      -0.355
      -0.345
      -0.343
      -0.346
      -0.337
      -0.308
      -0.263
      -0.220
      -0.197
      -0.198
      -0.213
      -0.224
      -0.218
      -0.191
      -0.145
      -0.090
      -0.041
      -0.014
      -0.018
      -0.050
      -0.093
      -0.131
      -0.156
      -0.167
      -0.162
      -0.132
      -0.067
       0.033
       0.156
       0.284
       0.399
       0.496
       0.573
       0.629
       0.661
       0.672
       0.670
       0.669
       0.672
       0.668
       0.628
       0.528
       0.368
       0.173
      -0.023
      -0.197
      -0.340
      -0.445
      -0.499
      -0.491
      -0.422
      -0.321
      -0.232
      -0.190
      -0.203
      -0.250
      -0.302
      -0.346
      -0.384
      -0.417
      -0.435
      -0.417
      -0.346
      -0.230
      -0.100
       0.007
       0.066
       0.074
       0.043
      -0.006
      -0.052
      -0.076
      -0.067
      -0.025
       0.040
       0.108
       0.166
       0.209
       0.242
       0.267
       0.283
       0.285
       0.273
       0.256
       0.245
       0.247
       0.258
       0.268
       0.267
       0.251
       0.218
       0.167
       0.094
       0.002
      -0.098
      -0.183
      -0.239
      -0.265
      -0.273
      -0.279
      -0.293
      -0.312
      -0.331
      -0.351
      -0.375
      -0.407
      -0.436
      -0.444
      -0.416
      -0.355
      -0.275
      -0.193
      -0.117
      -0.049
       0.009
       0.057
       0.099
       0.145
       0.208
       0.291
       0.382
       0.458
       0.497
       0.496
       0.459
       0.394
       0.302
       0.187
       0.065
      -0.036
      -0.084
      -0.069
      -0.004
       0.086
       0.180
       0.270
       0.355
       0.428
       0.472
       0.462
       0.386
       0.252
       0.088
      -0.073
      -0.206
      -0.298
      -0.345
      -0.344
      -0.301
      -0.225
      -0.136
      -0.055
      -0.004
       0.004
      -0.032
      -0.103
      -0.194
      -0.287
      -0.372
      -0.440
      -0.484
      -0.496
      -0.470
      -0.409
      -0.326
      -0.240
      -0.159
      -0.078
       0.020
       0.145
       0.296
       0.454
       0.601
       0.721
       0.805
       0.853
       0.867
       0.844
       0.780
       0.675
       0.538
       0.387
       0.240
       0.109
      -0.001
      -0.092
      -0.166
      -0.218
      -0.241
      -0.231
      -0.187
      -0.119
      -0.041
       0.033
       0.091
       0.123
       0.124
       0.088
       0.015
      -0.089
      -0.212
      -0.333
      -0.426
      -0.464
      -0.432
      -0.335
      -0.193
      -0.036
       0.109
       0.221
       0.286
       0.292
       0.236
       0.124
      -0.023
      -0.179
      -0.314
      -0.414
      -0.473
      -0.493
      -0.477
      -0.428
      -0.354
      -0.270
      -0.195
      -0.137
      -0.093
      -0.054
      -0.012
       0.032
       0.070
       0.093
       0.101
       0.100
       0.097
       0.095
       0.096
       0.098
       0.098
       0.094
       0.083
       0.064
       0.040
       0.015
      -0.010
      -0.031
      -0.046
      -0.053
      -0.056
      -0.064
      -0.086
      -0.122
      -0.159
      -0.180
      -0.174
      -0.138
      -0.076
       0.008
       0.105
       0.202
       0.280
       0.321
       0.318
       0.279
       0.222
       0.159
       0.091
       0.015
      -0.068
      -0.145
      -0.195
      -0.208
      -0.191
      -0.158
      -0.126
      -0.099
      -0.073
      -0.049
      -0.029
      -0.019
      -0.022
      -0.034
      -0.052
      -0.070
      -0.082
      -0.075
      -0.036
       0.044
       0.158
       0.282
       0.385
       0.447
       0.469
       0.463
       0.440
       0.401
       0.340
       0.255
       0.152
       0.042
      -0.065
      -0.157
      -0.223
      -0.254
      -0.247
      -0.206
      -0.143
      -0.076
      -0.022
       0.006
       0.005
      -0.026
      -0.083
      -0.155
      -0.224
      -0.274
      -0.294
      -0.290
      -0.275
      -0.255
      -0.228
      -0.189
      -0.137
      -0.083
      -0.037
       0.002
       0.042
       0.093
       0.153
       0.213
       0.262
       0.295
       0.315
       0.328
       0.337
       0.343
       0.348
       0.358
       0.372
       0.384
       0.379
       0.339
       0.253
       0.125
      -0.027
      -0.183
      -0.318
      -0.413
      -0.454
      -0.439
      -0.381
      -0.305
      -0.233
      -0.173
      -0.122
      -0.073
      -0.025
       0.015
       0.040
       0.050
       0.044
       0.023
      -0.017
      -0.073
      -0.134
      -0.182
      -0.200
      -0.181
      -0.126
      -0.049
       0.039
       0.125
       0.196
       0.242
       0.250
       0.216
       0.143
       0.050
      -0.038
      -0.097
      -0.115
      -0.096
      -0.057
      -0.022
      -0.010
      -0.027
      -0.067
      -0.119
      -0.171
      -0.212
      -0.236
      -0.247
      -0.254
      -0.262
      -0.258
      -0.223
      -0.140
      -0.014
       0.130
       0.264
       0.370
       0.450
       0.510
       0.551
       0.561
       0.529
       0.451
       0.334
       0.188
       0.024
      -0.141
      -0.280
      -0.366
      -0.384
      -0.337
      -0.244
      -0.126
       0.005
       0.136
       0.253
       0.336
       0.368
       0.344
       0.271
       0.167
       0.055
      -0.050
