Origin Time       04/04/2011 11:31:40 UTC
Lat.              29.6 N	
Long.             80.8 E	
Depth (Km)         10.0
Magnitude         5.7
 Region           NEPAL-INDIA-BORDER-REGION                                        
 Above details taken from IMD 
    
Station Code      RUD
Station Lat.       30.287  N
Station Long.      78.983  E
Station Height(m)  859.0
Site Class        A   Vs30 between 700 m/sec to 1400 m/sec * 
Record Time       04.04.2011 11:32:05.214 UTC
Sampling Rate     200. Hz
 Record Duration   89.040 Sec.
 Direction         N-S (N positive)
Max. Acceleration      6.335 cm/sec**2
     
  * For reference see Site Classification link of website 
     
 Base Line Corrected and Low Pass Filtered (Cut Off at 35 Hz) Time History
 Acceleration data in cm/sec**2
    
[...]
      -0.080
      -0.015
       0.069
       0.127
       0.126
       0.078
       0.015
      -0.050
      -0.135
      -0.249
      -0.372
      -0.472
      -0.520
      -0.508
      -0.454
      -0.407
      -0.413
      -0.475
      -0.552
      -0.605
      -0.614
      -0.569
      -0.464
      -0.302
      -0.106
       0.100
       0.291
       0.440
       0.536
       0.603
       0.678
       0.773
       0.864
       0.921
       0.935
       0.912
       0.864
       0.808
       0.750
       0.671
       0.548
       0.382
       0.197
       0.015
      -0.160
      -0.323
      -0.468
      -0.603
      -0.737
      -0.863
      -0.961
      -1.026
      -1.067
      -1.082
      -1.055
      -0.978
      -0.860
      -0.717
      -0.572
      -0.453
      -0.387
      -0.374
      -0.400
      -0.452
      -0.517
      -0.564
      -0.556
      -0.489
      -0.393
      -0.302
      -0.234
      -0.193
      -0.168
      -0.133
      -0.065
       0.035
       0.141
       0.234
       0.310
       0.369
       0.419
       0.481
       0.574
       0.696
       0.826
       0.950
       1.068
       1.170
       1.231
       1.229
       1.161
       1.027
       0.844
       0.647
       0.480
       0.367
       0.318
       0.346
       0.468
       0.672
       0.920
       1.171
       1.385
       1.526
       1.579
       1.568
       1.535
       1.494
       1.418
       1.274
       1.053
       0.776
       0.485
       0.223
       0.012
      -0.166
      -0.332
      -0.485
      -0.602
      -0.677
      -0.726
      -0.756
      -0.764
      -0.756
      -0.746
      -0.736
      -0.718
      -0.686
      -0.651
      -0.619
      -0.590
      -0.569
      -0.559
      -0.547
      -0.520
      -0.489
      -0.482
      -0.506
      -0.547
      -0.587
      -0.610
      -0.594
      -0.534
      -0.462
      -0.433
      -0.480
      -0.586
      -0.704
      -0.780
      -0.772
      -0.680
      -0.544
      -0.406
      -0.268
      -0.095
       0.136
       0.418
       0.717
       0.993
       1.203
       1.326
       1.368
       1.354
       1.298
       1.215
       1.138
       1.099
       1.095
       1.089
       1.051
       0.984
       0.905
       0.829
       0.750
       0.638
       0.443
       0.146
      -0.212
      -0.543
      -0.777
      -0.887
      -0.884
      -0.803
      -0.703
      -0.638
      -0.636
      -0.698
      -0.823
      -1.009
      -1.227
      -1.429
      -1.575
      -1.640
      -1.613
      -1.509
      -1.368
      -1.229
      -1.094
      -0.937
      -0.741
      -0.517
      -0.282
      -0.043
       0.196
       0.431
       0.670
       0.922
       1.178
       1.424
       1.652
       1.858
       2.019
       2.108
       2.123
       2.084
       2.008
       1.904
       1.781
       1.651
       1.517
       1.376
       1.241
       1.127
       1.026
       0.905
       0.728
       0.474
       0.138
      -0.262
      -0.675
      -1.050
      -1.371
      -1.651
      -1.904
      -2.136
      -2.351
      -2.559
      -2.754
      -2.918
      -3.040
      -3.120
      -3.153
      -3.134
      -3.060
      -2.930
      -2.739
      -2.489
      -2.211
      -1.943
      -1.686
      -1.416
      -1.111
      -0.776
      -0.425
      -0.084
       0.219
       0.458
       0.636
       0.771
       0.876
       0.958
       1.026
       1.089
       1.137
       1.160
       1.168
       1.182
       1.205
       1.222
       1.225
       1.232
       1.263
       1.341
       1.484
       1.694
       1.939
       2.172
       2.362
       2.498
       2.562
       2.538
       2.420
       2.219
       1.948
       1.633
       1.315
       1.035
       0.801
       0.593
       0.390
       0.180
      -0.057
      -0.343
      -0.678
      -1.042
      -1.404
      -1.726
      -1.965
      -2.100
      -2.147
      -2.144
      -2.104
      -2.017
      -1.883
      -1.728
      -1.590
      -1.507
      -1.503
      -1.567
      -1.646
      -1.676
      -1.639
      -1.554
      -1.450
      -1.339
      -1.227
      -1.113
      -0.989
      -0.856
      -0.728
      -0.616
      -0.500
      -0.338
      -0.098
       0.234
       0.657
       1.145
       1.635
       2.056
       2.365
       2.557
       2.641
       2.628
       2.535
       2.376
       2.150
       1.863
       1.549
       1.257
       1.021
       0.846
       0.717
       0.598
       0.443
       0.228
      -0.026
      -0.270
      -0.484
      -0.683
      -0.878
      -1.064
      -1.227
      -1.353
      -1.432
      -1.464
      -1.467
      -1.449
      -1.396
      -1.284
      -1.117
      -0.921
      -0.717
      -0.523
      -0.359
      -0.241
      -0.162
      -0.100
      -0.040
       0.029
       0.118
       0.226
       0.328
       0.387
       0.397
       0.378
       0.356
       0.339
       0.328
       0.312
       0.263
       0.164
       0.030
      -0.106
      -0.214
      -0.269
      -0.243
      -0.109
       0.139
       0.480
       0.889
       1.328
       1.736
       2.051
       2.237
       2.290
       2.226
       2.080
       1.907
       1.751
       1.614
       1.467
       1.287
       1.063
       0.782
       0.429
       0.004
      -0.474
      -0.987
      -1.501
      -1.972
      -2.366
      -2.675
      -2.907
      -3.048
      -3.072
      -2.976
      -2.789
      -2.560
      -2.337
      -2.160
      -2.026
      -1.891
      -1.704
      -1.456
      -1.173
      -0.881
      -0.587
      -0.296
      -0.011
       0.257
       0.486
       0.635
       0.675
       0.616
       0.488
       0.304
       0.071
      -0.183
      -0.412
      -0.576
      -0.654
      -0.640
      -0.538
      -0.362
      -0.122
       0.182
       0.539
       0.908
       1.246
       1.537
       1.793
       2.022
       2.230
       2.429
       2.634
       2.842
       3.038
       3.214
       3.364
       3.469
       3.509
       3.485
       3.402
       3.263
       3.074
       2.864
       2.664
       2.484
       2.305
       2.106
       1.863
       1.552
       1.160
       0.701
       0.204
      -0.307
      -0.804
      -1.238
      -1.563
      -1.771
      -1.890
      -1.964
      -2.033
      -2.133
      -2.270
      -2.413
      -2.520
      -2.574
      -2.581
      -2.546
      -2.474
      -2.380
      -2.287
      -2.211
      -2.166
      -2.176
      -2.251
      -2.373
      -2.512
      -2.651
      -2.783
      -2.890
      -2.945
      -2.926
      -2.817
      -2.607
      -2.293
      -1.892
      -1.424
      -0.894
      -0.315
       0.266
       0.788
       1.210
       1.525
       1.747
       1.898
       2.004
       2.067
       2.062
       1.971
       1.818
       1.655
       1.521
       1.423
       1.353
       1.300
       1.263
       1.256
       1.298
       1.374
       1.418
       1.360
       1.182
       0.923
       0.649
       0.417
       0.265
       0.200
       0.201
       0.250
       0.339
       0.453
       0.541
       0.546
       0.445
       0.256
       0.017
      -0.230
      -0.440
      -0.583
      -0.660
      -0.692
      -0.699
      -0.709
      -0.767
      -0.908
      -1.132
      -1.409
      -1.695
      -1.946
      -2.116
      -2.171
      -2.109
      -1.947
      -1.699
      -1.372
      -0.985
      -0.558
      -0.112
       0.321
       0.704
       1.020
       1.305
       1.614
       1.984
       2.408
       2.847
       3.243
       3.531
       3.662
       3.628
       3.442
       3.113
       2.654
       2.107
       1.534
       0.990
       0.522
       0.171
      -0.046
      -0.147
      -0.175
      -0.174
      -0.179
      -0.217
      -0.290
      -0.375
      -0.449
      -0.521
      -0.613
      -0.733
      -0.879
      -1.055
      -1.273
      -1.532
      -1.811
      -2.075
      -2.272
      -2.344
      -2.262
      -2.047
      -1.740
      -1.364
      -0.926
      -0.445
       0.042
       0.494
       0.881
       1.197
       1.470
       1.753
       2.073
       2.400
       2.666
       2.819
       2.835
       2.718
       2.490
       2.194
       1.864
       1.511
       1.129
       0.719
       0.289
      -0.149
      -0.566
      -0.913
      -1.154
      -1.296
      -1.373
      -1.411
      -1.413
      -1.379
      -1.310
      -1.212
      -1.107
      -1.034
      -1.009
      -1.018
      -1.030
      -1.038
      -1.058
      -1.105
      -1.190
      -1.318
      -1.474
      -1.610
      -1.678
      -1.664
      -1.584
      -1.464
      -1.338
      -1.245
      -1.215
      -1.256
      -1.361
      -1.527
      -1.731
      -1.924
      -2.050
      -2.073
      -1.977
      -1.758
      -1.434
      -1.067
      -0.730
      -0.459
      -0.236
      -0.006
       0.294
       0.700
       1.181
       1.656
       2.056
       2.375
       2.653
       2.904
       3.089
       3.139
       3.002
       2.676
       2.233
       1.783
       1.409
       1.126
       0.900
       0.697
       0.502
       0.308
       0.117
      -0.058
      -0.208
      -0.345
      -0.486
      -0.644
      -0.838
      -1.098
      -1.446
      -1.876
      -2.370
      -2.919
      -3.504
      -4.067
      -4.520
      -4.780
      -4.783
      -4.491
      -3.900
      -3.050
      -2.015
      -0.879
       0.263
       1.321
       2.232
       2.983
       3.584
       4.045
       4.372
       4.582
       4.695
       4.714
       4.641
       4.484
       4.251
       3.930
       3.509
       3.006
       2.462
       1.924
       1.433
       1.018
       0.686
       0.414
       0.175
      -0.037
      -0.229
      -0.417
      -0.615
      -0.804
      -0.954
      -1.045
      -1.076
      -1.050
      -0.972
      -0.862
      -0.739
      -0.616
      -0.513
      -0.451
      -0.429
      -0.409
      -0.351
      -0.254
      -0.153
      -0.096
      -0.124
      -0.268
      -0.533
      -0.889
      -1.290
      -1.695
      -2.061
      -2.345
      -2.528
      -2.624
      -2.656
      -2.628
      -2.534
      -2.374
      -2.166
      -1.932
      -1.707
      -1.528
      -1.400
      -1.262
      -1.021
      -0.614
      -0.034
       0.668
       1.401
       2.077
       2.645
       3.105
       3.459
       3.687
       3.771
       3.735
       3.636
       3.526
       3.415
       3.281
       3.079
       2.774
       2.376
       1.944
       1.543
       1.201
       0.918
       0.692
       0.531
       0.439
       0.413
       0.430
       0.436
       0.353
       0.129
      -0.219
      -0.632
      -1.048
      -1.423
      -1.728
      -1.954
      -2.115
      -2.226
      -2.292
      -2.317
      -2.322
      -2.332
      -2.364
      -2.424
      -2.513
      -2.604
      -2.643
      -2.581
      -2.407
      -2.142
      -1.813
      -1.450
      -1.090
      -0.761
      -0.464
      -0.194
       0.041
       0.234
       0.398
       0.567
       0.777
       1.063
       1.442
       1.888
       2.323
       2.662
       2.849
       2.863
       2.692
       2.348
       1.877
       1.348
       0.814
       0.301
      -0.184
      -0.651
      -1.102
      -1.505
      -1.794
      -1.916
      -1.877
      -1.729
      -1.524
      -1.297
      -1.067
      -0.835
      -0.594
      -0.358
      -0.163
      -0.032
       0.058
       0.152
       0.286
       0.466
       0.664
       0.818
       0.858
       0.756
       0.563
       0.375
       0.274
       0.299
       0.432
       0.607
       0.743
       0.786
       0.732
       0.601
       0.402
       0.144
      -0.149
      -0.455
      -0.770
      -1.107
      -1.476
      -1.887
      -2.345
      -2.827
      -3.286
      -3.674
      -3.968
      -4.147
      -4.166
      -3.972
      -3.538
      -2.886
      -2.075
      -1.187
      -0.307
       0.516
       1.271
       1.953
       2.530
       2.967
       3.244
       3.363
       3.326
       3.144
       2.850
       2.484
       2.077
       1.657
       1.250
       0.872
       0.538
       0.272
       0.116
       0.087
       0.152
       0.260
       0.381
       0.520
       0.690
       0.898
       1.129
       1.339
       1.462
       1.461
       1.341
       1.126
       0.818
       0.403
      -0.112
      -0.687
      -1.247
      -1.689
      -1.896
      -1.783
      -1.334
      -0.605
       0.291
       1.206
       2.006
       2.629
       3.100
       3.478
       3.790
       4.021
       4.128
       4.057
       3.760
       3.232
       2.517
       1.681
       0.777
      -0.143
      -1.023
      -1.801
      -2.425
      -2.853
      -3.056
      -3.053
      -2.917
      -2.739
      -2.570
      -2.422
      -2.278
      -2.118
      -1.939
      -1.767
      -1.652
      -1.622
      -1.657
      -1.699
      -1.686
      -1.574
      -1.360
      -1.101
      -0.905
      -0.867
      -1.030
      -1.381
      -1.876
      -2.449
      -3.015
      -3.494
      -3.832
      -3.989
      -3.937
      -3.682
      -3.285
      -2.827
      -2.369
      -1.942
      -1.543
      -1.138
      -0.676
      -0.126
       0.506
       1.194
       1.921
       2.668
       3.403
       4.087
       4.676
       5.120
       5.368
       5.418
       5.347
       5.272
       5.284
       5.411
       5.630
       5.880
       6.101
       6.258
       6.335
       6.304
       6.112
       5.726
       5.162
       4.468
       3.690
       2.864
       2.030
       1.230
       0.503
      -0.125
      -0.647
      -1.092
      -1.508
      -1.921
      -2.304
      -2.610
      -2.811
      -2.910
      -2.929
      -2.909
      -2.891
      -2.887
      -2.872
      -2.826
      -2.762
      -2.718
      -2.728
      -2.828
      -3.043
      -3.362
      -3.717
      -4.006
      -4.147
      -4.103
      -3.897
      -3.612
      -3.352
      -3.193
      -3.150
      -3.200
      -3.307
      -3.424
      -3.490
      -3.446
      -3.252
      -2.884
      -2.340
      -1.666
      -0.952
      -0.277
       0.329
       0.880
       1.387
       1.838
       2.202
       2.445
       2.555
       2.565
       2.545
       2.549
       2.593
       2.667
       2.762
       2.864
       2.936
       2.925
       2.785
       2.480
       2.004
       1.419
       0.848
       0.418
       0.186
       0.129
       0.173
       0.241
       0.279
       0.274
       0.229
       0.134
      -0.028
      -0.231
      -0.383
      -0.379
      -0.172
       0.206
       0.664
       1.075
       1.321
       1.335
       1.125
       0.752
       0.301
      -0.141
      -0.511
      -0.793
      -1.027
      -1.257
      -1.502
      -1.759
      -2.034
      -2.334
      -2.648
      -2.952
      -3.209
      -3.371
      -3.395
      -3.274
      -3.047
      -2.760
      -2.424
      -2.032
      -1.578
      -1.066
      -0.506
       0.075
       0.637
       1.146
       1.596
       1.988
       2.316
       2.576
       2.764
       2.859
       2.813
       2.590
       2.189
       1.634
       0.962
       0.221
      -0.515
      -1.177
      -1.714
      -2.089
      -2.270
      -2.252
      -2.065
      -1.759
      -1.386
      -0.997
      -0.632
      -0.308
      -0.012
       0.268
       0.531
       0.773
       1.002
       1.217
       1.400
       1.544
       1.663
       1.783
       1.916
       2.070
       2.256
       2.467
       2.671
       2.835
       2.940
       2.972
       2.913
       2.752
       2.505
       2.196
       1.854
       1.514
       1.216
       0.980
       0.796
       0.635
       0.476
       0.297
       0.077
      -0.177
      -0.428
      -0.635
      -0.795
      -0.932
      -1.077
      -1.250
      -1.443
      -1.611
      -1.701
      -1.701
      -1.641
      -1.559
      -1.460
      -1.340
      -1.208
      -1.088
      -1.000
      -0.961
      -0.983
      -1.064
      -1.183
      -1.308
      -1.404
      -1.417
      -1.295
      -1.037
      -0.703
      -0.371
      -0.090
       0.122
       0.256
       0.301
       0.256
       0.128
      -0.060
      -0.253
      -0.376
      -0.377
      -0.257
      -0.046
       0.217
       0.499
       0.760
       0.971
       1.112
       1.166
       1.132
       1.056
       1.040
       1.184
       1.532
       2.068
       2.724
       3.399
       3.967
       4.322
       4.418
       4.266
       3.912
       3.417
       2.828
       2.154
       1.386
       0.540
      -0.316
      -1.094
      -1.736
      -2.226
      -2.596
      -2.915
      -3.260
      -3.656
      -4.061
      -4.414
      -4.681
      -4.866
      -4.987
      -5.052
      -5.047
      -4.926
      -4.641
      -4.189
      -3.626
      -3.029
      -2.457
      -1.945
      -1.503
      -1.106
      -0.706
      -0.269
       0.198
       0.667
       1.118
       1.543
       1.940
       2.310
       2.647
       2.923
       3.091
       3.128
       3.057
       2.921
       2.762
       2.609
       2.487
       2.400
       2.338
       2.296
       2.282
       2.293
       2.298
       2.264
       2.174
       2.019
       1.794
       1.499
       1.143
       0.744
       0.330
      -0.040
      -0.288
      -0.371
      -0.310
      -0.175
      -0.039
       0.044
       0.050
      -0.001
      -0.056
      -0.066
      -0.009
       0.122
       0.326
       0.576
       0.804
       0.926
       0.879
       0.635
       0.209
      -0.335
      -0.908
      -1.439
      -1.903
      -2.289
      -2.581
      -2.766
      -2.851
      -2.853
      -2.779
      -2.640
      -2.451
      -2.220
      -1.955
      -1.670
      -1.392
      -1.130
      -0.868
      -0.598
      -0.337
      -0.107
       0.091
       0.278
       0.475
       0.695
       0.934
       1.162
       1.330
       1.403
       1.377
       1.262
       1.070
       0.825
       0.566
       0.320
       0.094
      -0.110
      -0.278
      -0.402
      -0.498
      -0.596
      -0.721
      -0.898
      -1.141
      -1.433
      -1.724
      -1.965
      -2.131
      -2.216
      -2.229
      -2.199
      -2.160
      -2.116
      -2.035
      -1.888
      -1.680
      -1.447
      -1.220
      -1.018
      -0.842
      -0.677
      -0.514
      -0.376
      -0.301
      -0.287
      -0.270
      -0.171
       0.047
       0.372
       0.752
       1.119
       1.409
       1.591
       1.675
       1.684
       1.643
       1.586
       1.561
       1.605
       1.733
       1.956
       2.273
       2.657
       3.043
       3.359
       3.555
       3.609
       3.523
       3.337
       3.110
       2.888
       2.684
       2.492
       2.307
       2.119
       1.906
       1.642
       1.309
       0.896
       0.415
      -0.091
      -0.576
      -1.032
      -1.501
      -2.014
      -2.543
      -3.007
      -3.321
      -3.430
      -3.331
      -3.083
      -2.777
      -2.484
      -2.243
      -2.079
      -2.019
      -2.070
      -2.191
      -2.326
      -2.430
      -2.484
      -2.487
      -2.444
      -2.352
      -2.185
      -1.918
      -1.565
      -1.178
      -0.797
