Origin Time       21/9/2009 9:43:47	 
Lat.              30.9 N	
Long.             79.1 E	
Depth (Km)         13.0
Magnitude         4.7
 Region           UTTARKASHI-UTTARAKHAND                                           
 Above details taken from IMD 
     
Station Code      RUD
Station Lat.       30.287  N
Station Long.      78.983  E
Station Height(m)  860.0
Site Class        A   Vs30 between 700 m/sec to 1400 m/sec * 
Record Time       21.09.2009 09:43:59.794
Sampling Rate     200. Hz
 Record Duration   66.405 Sec.
 Direction         E-W (E positive)
Max. Acceleration     12.222 cm/sec**2
     
  * For reference see Site Classification link of website 
     
 Base Line Corrected and Low Pass Filtered (Cut Off at 35 Hz) Time History
 Acceleration data in cm/sec**2
    
[...]
      -0.715
      -0.929
      -0.987
      -0.820
      -0.438
       0.094
       0.674
       1.175
       1.475
       1.507
       1.304
       0.969
       0.599
       0.242
      -0.084
      -0.359
      -0.550
      -0.635
      -0.618
      -0.518
      -0.369
      -0.232
      -0.177
      -0.230
      -0.346
      -0.440
      -0.459
      -0.406
      -0.304
      -0.156
       0.049
       0.290
       0.513
       0.667
       0.737
       0.741
       0.674
       0.498
       0.176
      -0.262
      -0.727
      -1.115
      -1.345
      -1.368
      -1.169
      -0.795
      -0.380
      -0.103
      -0.066
      -0.217
      -0.381
      -0.403
      -0.249
       0.016
       0.325
       0.675
       1.083
       1.505
       1.814
       1.880
       1.651
       1.200
       0.666
       0.169
      -0.255
      -0.632
      -0.973
      -1.204
      -1.199
      -0.907
      -0.448
      -0.075
      -0.008
      -0.271
      -0.677
      -0.974
      -1.030
      -0.900
      -0.745
      -0.677
      -0.657
      -0.524
      -0.135
       0.501
       1.179
       1.607
       1.600
       1.214
       0.698
       0.297
       0.084
      -0.030
      -0.141
      -0.241
      -0.248
      -0.107
       0.135
       0.360
       0.447
       0.344
       0.108
      -0.120
      -0.199
      -0.099
       0.077
       0.194
       0.208
       0.195
       0.247
       0.367
       0.457
       0.414
       0.220
      -0.042
      -0.238
      -0.255
      -0.054
       0.287
       0.597
       0.704
       0.549
       0.213
      -0.165
      -0.490
      -0.721
      -0.824
      -0.760
      -0.537
      -0.257
      -0.059
      -0.023
      -0.120
      -0.278
      -0.449
      -0.616
      -0.735
      -0.729
      -0.554
      -0.269
       0.008
       0.198
       0.316
       0.421
       0.541
       0.661
       0.753
       0.794
       0.749
       0.586
       0.316
       0.011
      -0.230
      -0.350
      -0.368
      -0.353
      -0.383
      -0.505
      -0.702
      -0.888
      -0.939
      -0.771
      -0.420
      -0.042
       0.190
       0.211
       0.110
       0.038
       0.070
       0.162
       0.223
       0.221
       0.209
       0.256
       0.352
       0.407
       0.328
       0.114
      -0.142
      -0.327
      -0.384
      -0.326
      -0.189
      -0.010
       0.166
       0.281
       0.297
       0.233
       0.148
       0.084
       0.027
      -0.056
      -0.156
      -0.204
      -0.122
       0.102
       0.400
       0.673
       0.842
       0.872
       0.766
       0.568
       0.352
       0.170
       0.023
      -0.126
      -0.298
      -0.460
      -0.538
      -0.477
      -0.292
      -0.072
       0.074
       0.103
       0.071
       0.067
       0.108
       0.122
       0.032
      -0.145
      -0.317
      -0.406
      -0.408
      -0.349
      -0.217
       0.015
       0.319
       0.577
       0.667
       0.552
       0.299
       0.008
      -0.227
      -0.335
      -0.282
      -0.120
       0.011
      -0.037
      -0.296
      -0.647
      -0.906
      -0.942
      -0.745
      -0.396
      -0.022
       0.248
       0.341
       0.291
       0.230
       0.300
       0.536
       0.846
       1.083
       1.143
       1.008
       0.736
       0.421
       0.132
      -0.129
      -0.421
      -0.783
      -1.156
      -1.396
      -1.381
      -1.100
      -0.653
      -0.178
       0.216
       0.457
       0.502
       0.361
       0.110
      -0.137
      -0.288
      -0.304
      -0.178
       0.085
       0.446
       0.803
       1.007
       0.970
       0.738
       0.449
       0.209
       0.009
      -0.226
      -0.515
      -0.764
      -0.836
      -0.678
      -0.374
      -0.100
      -0.002
      -0.117
      -0.366
      -0.598
      -0.673
      -0.534
      -0.262
      -0.037
      -0.020
      -0.210
      -0.411
      -0.359
       0.065
       0.716
       1.271
       1.456
       1.239
       0.820
       0.448
       0.233
       0.109
      -0.049
      -0.279
      -0.487
      -0.503
      -0.217
       0.306
       0.828
       1.060
       0.848
       0.277
      -0.387
      -0.870
      -1.046
      -0.958
      -0.733
      -0.470
      -0.197
       0.092
       0.372
       0.566
       0.593
       0.438
       0.179
      -0.047
      -0.130
      -0.058
       0.075
       0.147
       0.112
       0.039
       0.034
       0.124
       0.223
       0.219
       0.077
      -0.143
      -0.348
      -0.479
      -0.509
      -0.417
      -0.201
       0.083
       0.333
       0.476
       0.525
       0.531
       0.487
       0.308
      -0.057
      -0.526
      -0.913
      -1.064
      -0.968
      -0.736
      -0.513
      -0.412
      -0.480
      -0.672
      -0.857
      -0.880
      -0.676
      -0.327
       0.005
       0.207
       0.287
       0.324
       0.369
       0.414
       0.445
       0.482
       0.555
       0.641
       0.663
       0.548
       0.308
       0.047
      -0.107
      -0.077
       0.125
       0.398
       0.600
       0.624
       0.467
       0.245
       0.111
       0.144
       0.288
       0.385
       0.288
      -0.018
      -0.371
      -0.543
      -0.419
      -0.121
       0.074
      -0.038
      -0.413
      -0.796
      -0.933
      -0.768
      -0.432
      -0.097
       0.146
       0.279
       0.299
       0.210
       0.081
       0.033
       0.138
       0.322
       0.415
       0.321
       0.141
       0.089
       0.292
       0.664
       0.978
       1.043
       0.839
       0.516
       0.266
       0.191
       0.223
       0.177
      -0.095
      -0.551
      -0.953
      -1.046
      -0.773
      -0.333
      -0.008
       0.064
      -0.030
      -0.101
      -0.052
       0.060
       0.104
       0.018
      -0.139
      -0.257
      -0.265
      -0.177
      -0.067
      -0.012
      -0.041
      -0.110
      -0.121
      -0.014
       0.134
       0.137
      -0.136
      -0.597
      -0.965
      -0.970
      -0.536
       0.195
       0.968
       1.528
       1.695
       1.423
       0.844
       0.214
      -0.235
      -0.441
      -0.508
      -0.577
      -0.684
      -0.746
      -0.653
      -0.358
       0.086
       0.554
       0.890
       0.978
       0.824
       0.555
       0.311
       0.112
      -0.145
      -0.543
      -0.990
      -1.248
      -1.132
      -0.705
      -0.263
      -0.109
      -0.314
      -0.671
      -0.857
      -0.684
      -0.228
       0.226
       0.405
       0.245
      -0.051
      -0.178
       0.017
       0.404
       0.670
       0.589
       0.219
      -0.141
      -0.200
       0.074
       0.424
       0.523
       0.247
      -0.237
      -0.627
      -0.731
      -0.575
      -0.333
      -0.178
      -0.201
      -0.405
      -0.710
      -0.963
      -0.995
      -0.736
      -0.290
       0.144
       0.436
       0.616
       0.803
       1.060
       1.325
       1.469
       1.396
       1.106
       0.689
       0.277
      -0.021
      -0.174
      -0.222
      -0.219
      -0.166
      -0.010
       0.280
       0.646
       0.956
       1.094
       1.038
       0.856
       0.648
       0.464
       0.276
       0.010
      -0.369
      -0.789
      -1.083
      -1.107
      -0.867
      -0.535
      -0.325
      -0.331
      -0.499
      -0.708
      -0.864
      -0.921
      -0.840
      -0.599
      -0.232
       0.167
       0.508
       0.766
       0.975
       1.147
       1.216
       1.072
       0.671
       0.110
      -0.395
      -0.639
      -0.563
      -0.305
      -0.107
      -0.159
      -0.468
      -0.863
      -1.109
      -1.063
      -0.765
      -0.407
      -0.206
      -0.265
      -0.504
      -0.737
      -0.803
      -0.661
      -0.367
      -0.007
       0.342
       0.635
       0.856
       1.006
       1.070
       0.991
       0.725
       0.338
       0.026
      -0.015
       0.231
       0.558
       0.710
       0.586
       0.297
       0.026
      -0.131
      -0.211
      -0.304
      -0.466
      -0.669
      -0.826
      -0.853
      -0.734
      -0.541
      -0.381
      -0.313
      -0.305
      -0.277
      -0.168
       0.027
       0.275
       0.521
       0.676
       0.629
       0.334
      -0.113
      -0.480
      -0.547
      -0.269
       0.187
       0.572
       0.743
       0.749
       0.745
       0.845
       1.024
       1.159
       1.135
       0.940
       0.666
       0.437
       0.304
       0.202
       0.013
      -0.301
      -0.628
      -0.790
      -0.699
      -0.430
      -0.131
       0.099
       0.240
       0.282
       0.194
      -0.023
      -0.282
      -0.449
      -0.450
      -0.330
      -0.191
      -0.104
      -0.086
      -0.149
      -0.310
      -0.556
      -0.810
      -0.989
      -1.066
      -1.074
      -1.035
      -0.931
      -0.751
      -0.545
      -0.392
      -0.330
      -0.325
      -0.327
      -0.334
      -0.379
      -0.455
      -0.481
      -0.339
       0.024
       0.534
       1.001
       1.229
       1.152
       0.892
       0.678
       0.670
       0.857
       1.086
       1.184
       1.038
       0.602
      -0.086
      -0.884
      -1.553
      -1.865
      -1.744
      -1.302
      -0.732
      -0.173
       0.333
       0.780
       1.133
       1.316
       1.277
       1.040
       0.722
       0.503
       0.531
       0.814
       1.182
       1.391
       1.305
       1.004
       0.688
       0.474
       0.294
       0.003
      -0.424
      -0.822
      -0.962
      -0.748
      -0.295
       0.152
       0.374
       0.295
       0.013
      -0.270
      -0.372
      -0.256
      -0.057
       0.022
      -0.124
      -0.416
      -0.675
      -0.773
      -0.718
      -0.602
      -0.511
      -0.486
      -0.542
      -0.673
      -0.827
      -0.916
      -0.874
      -0.718
      -0.537
      -0.412
      -0.352
      -0.317
      -0.274
      -0.228
      -0.181
      -0.112
      -0.011
       0.072
       0.040
      -0.146
      -0.406
      -0.577
      -0.529
      -0.246
       0.179
       0.606
       0.897
       0.951
       0.738
       0.325
      -0.134
      -0.457
      -0.505
      -0.229
       0.304
       0.907
       1.322
       1.347
       0.971
       0.404
      -0.052
      -0.207
      -0.081
       0.155
       0.334
       0.395
       0.382
       0.371
       0.404
       0.463
       0.477
       0.368
       0.118
      -0.183
      -0.369
      -0.315
      -0.071
       0.152
       0.142
      -0.103
      -0.338
      -0.281
       0.134
       0.690
       1.086
       1.158
       0.921
       0.459
      -0.142
      -0.751
      -1.179
      -1.308
      -1.223
      -1.145
      -1.198
      -1.286
      -1.220
      -0.942
      -0.563
      -0.231
       0.006
       0.180
       0.324
       0.462
       0.631
       0.858
       1.080
       1.145
       0.951
       0.568
       0.177
      -0.108
      -0.326
      -0.538
      -0.700
      -0.715
      -0.611
      -0.576
      -0.772
      -1.138
      -1.445
      -1.532
      -1.442
      -1.301
      -1.140
      -0.889
      -0.526
      -0.153
       0.093
       0.171
       0.152
       0.122
       0.122
       0.171
       0.299
       0.496
       0.654
       0.592
       0.209
      -0.400
      -0.976
      -1.281
      -1.273
      -1.125
      -1.080
      -1.245
      -1.502
      -1.595
      -1.336
      -0.753
      -0.072
       0.436
       0.628
       0.561
       0.429
       0.429
       0.641
       1.009
       1.413
       1.747
       1.939
       1.943
       1.743
       1.374
       0.909
       0.407
      -0.111
      -0.614
      -1.004
      -1.131
      -0.899
      -0.364
       0.295
       0.906
       1.415
       1.866
       2.296
       2.665
       2.884
       2.901
       2.740
       2.482
       2.236
       2.106
       2.139
       2.263
       2.304
       2.104
       1.648
       1.044
       0.382
      -0.350
      -1.188
      -2.052
      -2.746
      -3.141
      -3.317
      -3.481
      -3.721
      -3.885
      -3.742
      -3.234
      -2.584
      -2.120
      -2.014
      -2.152
      -2.227
      -1.956
      -1.261
      -0.309
       0.598
       1.206
       1.459
       1.514
       1.587
       1.773
       1.978
       2.020
       1.803
       1.399
       0.993
       0.782
       0.896
       1.353
       2.028
       2.681
       3.070
       3.090
       2.819
       2.411
       1.955
       1.449
       0.871
       0.254
      -0.345
      -0.894
      -1.384
      -1.766
      -1.935
      -1.785
      -1.279
      -0.466
       0.524
       1.457
       2.034
       2.036
       1.489
       0.640
      -0.252
      -1.084
      -1.871
      -2.582
      -3.108
      -3.376
      -3.445
      -3.426
      -3.323
      -3.038
      -2.540
      -1.978
      -1.558
      -1.328
      -1.126
      -0.752
      -0.158
       0.552
       1.271
       1.974
       2.650
       3.192
       3.421
       3.227
       2.668
       1.921
       1.129
       0.305
      -0.610
      -1.627
      -2.638
      -3.467
      -3.991
      -4.243
      -4.410
      -4.723
      -5.295
      -6.042
      -6.743
      -7.177
      -7.220
      -6.837
      -6.007
      -4.663
      -2.717
      -0.147
       2.915
       6.145
       9.074
      11.204
      12.222
      12.180
      11.497
      10.712
      10.139
       9.701
       9.061
       7.917
       6.213
       4.148
       2.023
       0.069
      -1.636
      -3.110
      -4.336
      -5.170
      -5.401
      -4.919
      -3.854
      -2.556
      -1.406
      -0.585
       0.032
       0.737
       1.723
       2.872
       3.815
       4.204
       3.980
       3.392
       2.765
       2.210
       1.546
       0.496
      -1.015
      -2.735
      -4.240
      -5.254
      -5.845
      -6.332
      -6.965
      -7.665
      -8.036
      -7.646
      -6.372
      -4.541
      -2.756
      -1.531
      -0.981
      -0.777
      -0.400
       0.483
       1.764
       2.954
       3.511
       3.229
       2.386
       1.576
       1.318
       1.755
       2.622
       3.471
       3.934
       3.860
       3.285
       2.357
       1.291
       0.324
      -0.368
      -0.758
      -0.981
      -1.224
      -1.575
      -1.947
      -2.142
      -2.001
      -1.506
      -0.769
       0.044
       0.763
       1.238
       1.391
       1.294
       1.125
       0.994
       0.786
       0.222
      -0.864
      -2.294
      -3.596
      -4.319
      -4.340
      -3.917
      -3.479
      -3.338
      -3.523
      -3.808
      -3.902
      -3.642
      -3.093
      -2.468
      -1.945
      -1.539
      -1.117
      -0.526
       0.281
       1.211
       2.082
       2.738
       3.135
       3.361
       3.540
       3.681
       3.614
       3.093
       2.009
       0.540
      -0.885
      -1.762
      -1.730
      -0.728
       0.960
       2.805
       4.276
       5.087
       5.268
       5.013
       4.455
       3.583
       2.350
       0.836
      -0.735
      -2.113
      -3.140
      -3.751
      -3.915
      -3.595
      -2.799
      -1.616
      -0.211
       1.225
       2.529
       3.597
       4.388
       4.894
       5.081
       4.866
       4.185
       3.108
       1.859
       0.688
      -0.283
      -1.070
      -1.690
      -2.057
      -2.041
      -1.641
      -1.056
      -0.591
      -0.460
      -0.669
      -1.033
      -1.309
      -1.352
      -1.212
      -1.105
      -1.262
      -1.753
      -2.412
      -2.934
      -3.065
      -2.731
      -2.034
      -1.193
      -0.474
      -0.139
      -0.340
      -1.006
      -1.850
      -2.555
      -3.026
      -3.424
      -3.941
      -4.505
      -4.748
      -4.284
      -3.029
      -1.259
       0.575
       2.075
       2.990
       3.254
       3.037
       2.698
       2.539
       2.529
       2.329
       1.692
       0.860
       0.485
       1.107
       2.666
       4.524
       5.926
       6.439
       6.072
       5.104
       3.852
       2.510
       1.120
      -0.330
      -1.730
      -2.757
      -3.029
      -2.400
      -1.124
       0.305
       1.471
       2.187
       2.402
       2.067
       1.194
       0.016
      -1.038
      -1.621
      -1.731
      -1.671
      -1.739
      -1.978
      -2.201
      -2.197
      -1.849
      -1.138
      -0.125
       0.994
       1.874
       2.186
       1.840
       1.033
       0.059
      -0.903
      -1.815
      -2.641
      -3.273
      -3.613
      -3.684
      -3.618
      -3.531
      -3.434
      -3.236
      -2.842
      -2.233
      -1.504
      -0.842
      -0.441
      -0.366
      -0.454
      -0.392
       0.057
       0.835
       1.611
       2.061
       2.148
       2.135
       2.291
       2.593
       2.740
       2.479
       1.905
       1.396
       1.238
       1.342
       1.339
       0.940
       0.180
      -0.645
      -1.223
      -1.400
      -1.198
      -0.744
      -0.203
       0.286
       0.662
       0.946
       1.163
       1.234
       0.992
       0.342
      -0.570
      -1.366
      -1.649
      -1.269
      -0.427
       0.466
       1.068
       1.304
       1.360
       1.482
       1.765
       2.101
       2.293
       2.215
       1.875
       1.355
       0.732
       0.049
      -0.640
      -1.247
      -1.702
      -2.003
      -2.213
      -2.363
      -2.390
      -2.178
      -1.687
      -1.037
      -0.443
      -0.065
       0.068
       0.008
      -0.223
      -0.639
      -1.221
      -1.860
      -2.398
      -2.724
      -2.815
      -2.723
      -2.526
      -2.301
      -2.096
      -1.917
      -1.720
      -1.437
      -1.029
      -0.534
      -0.049
       0.362
       0.731
       1.152
       1.655
       2.144
       2.448
       2.442
       2.095
       1.446
       0.572
      -0.399
      -1.284
      -1.881
      -2.056
      -1.770
      -1.052
       0.017
       1.264
       2.385
       3.030
       2.990
       2.360
       1.482
       0.716
       0.224
      -0.048
      -0.204
      -0.243
      -0.082
       0.314
       0.818
       1.179
       1.157
       0.672
      -0.125
      -0.885
      -1.225
      -0.953
      -0.215
       0.597
       1.137
       1.339
       1.383
       1.456
       1.564
       1.575
       1.395
       1.065
       0.723
       0.495
       0.415
       0.421
       0.392
       0.224
      -0.095
      -0.466
      -0.721
      -0.720
      -0.431
       0.053
       0.562
       0.944
       1.159
       1.314
       1.591
       2.085
       2.668
       3.019
       2.837
       2.086
       1.022
      -0.002
      -0.791
      -1.378
      -1.880
      -2.304
      -2.511
      -2.335
      -1.751
      -0.954
      -0.289
      -0.057
      -0.336
      -0.937
      -1.545
      -1.937
      -2.090
      -2.125
      -2.154
      -2.159
      -2.002
      -1.524
      -0.690
       0.311
       1.085
       1.229
       0.604
      -0.498
      -1.462
      -1.690
      -0.944
       0.532
       2.195
       3.520
       4.238
       4.353
       3.992
