Origin Time       21/9/2009 9:43:47	  UTC
Lat.              30.9 N	
Long.             79.1 E	
Depth (Km)         13.0
Magnitude         4.7
 Region           UTTARKASHI-UTTARAKHAND                                           
 Above details taken from IMD 
    
Station Code      RUD
Station Lat.       30.287  N
Station Long.      78.983  E
Station Height(m)  860.0
Site Class        A   Vs30 between 700 m/sec to 1400 m/sec * 
Record Time       21.09.2009 09:43:59.794 UTC
Sampling Rate     200. Hz
 Record Duration   66.405 Sec.
 Direction         N-S (N positive)
Max. Acceleration     10.621 cm/sec**2
     
  * For reference see Site Classification link of website 
     
 Base Line Corrected and Low Pass Filtered (Cut Off at 35 Hz) Time History
 Acceleration data in cm/sec**2
    
[...]
       0.293
       0.108
      -0.028
      -0.039
       0.129
       0.440
       0.742
       0.839
       0.604
       0.057
      -0.655
      -1.335
      -1.832
      -2.074
      -2.051
      -1.776
      -1.269
      -0.570
       0.240
       1.045
       1.723
       2.184
       2.374
       2.268
       1.868
       1.227
       0.475
      -0.210
      -0.697
      -0.969
      -1.115
      -1.234
      -1.350
      -1.412
      -1.358
      -1.189
      -0.972
      -0.783
      -0.645
      -0.515
      -0.329
      -0.067
       0.236
       0.523
       0.769
       0.985
       1.194
       1.390
       1.535
       1.589
       1.530
       1.347
       1.026
       0.562
      -0.002
      -0.549
      -0.929
      -1.039
      -0.889
      -0.597
      -0.323
      -0.183
      -0.197
      -0.309
      -0.433
      -0.508
      -0.511
      -0.424
      -0.211
       0.172
       0.728
       1.362
       1.889
       2.108
       1.912
       1.346
       0.580
      -0.188
      -0.815
      -1.232
      -1.415
      -1.353
      -1.047
      -0.525
       0.119
       0.731
       1.126
       1.170
       0.854
       0.317
      -0.214
      -0.543
      -0.596
      -0.437
      -0.206
      -0.017
       0.103
       0.192
       0.269
       0.261
       0.030
      -0.514
      -1.306
      -2.109
      -2.628
      -2.670
      -2.233
      -1.469
      -0.579
       0.274
       0.968
       1.405
       1.504
       1.246
       0.709
       0.064
      -0.484
      -0.780
      -0.769
      -0.501
      -0.085
       0.346
       0.661
       0.748
       0.540
       0.061
      -0.555
      -1.089
      -1.317
      -1.109
      -0.502
       0.317
       1.102
       1.664
       1.933
       1.942
       1.751
       1.392
       0.883
       0.277
      -0.306
      -0.717
      -0.855
      -0.745
      -0.534
      -0.405
      -0.468
      -0.699
      -0.982
      -1.186
      -1.223
      -1.036
      -0.595
       0.078
       0.853
       1.517
       1.870
       1.836
       1.501
       1.032
       0.571
       0.169
      -0.177
      -0.449
      -0.579
      -0.500
      -0.229
       0.106
       0.324
       0.299
       0.044
      -0.294
      -0.516
      -0.478
      -0.166
       0.300
       0.730
       0.971
       0.974
       0.801
       0.557
       0.319
       0.090
      -0.164
      -0.456
      -0.741
      -0.940
      -0.991
      -0.886
      -0.667
      -0.386
      -0.086
       0.187
       0.381
       0.441
       0.349
       0.136
      -0.144
      -0.458
      -0.804
      -1.171
      -1.482
      -1.599
      -1.404
      -0.893
      -0.201
       0.466
       0.931
       1.115
       1.032
       0.762
       0.413
       0.090
      -0.146
      -0.297
      -0.408
      -0.508
      -0.558
      -0.478
      -0.231
       0.099
       0.345
       0.381
       0.223
      -0.006
      -0.190
      -0.316
      -0.445
      -0.617
      -0.803
      -0.947
      -1.018
      -1.000
      -0.849
      -0.481
       0.154
       0.976
       1.766
       2.267
       2.331
       1.991
       1.409
       0.775
       0.220
      -0.201
      -0.483
      -0.634
      -0.652
      -0.524
      -0.250
       0.119
       0.461
       0.618
       0.486
       0.088
      -0.419
      -0.835
      -1.018
      -0.930
      -0.620
      -0.179
       0.292
       0.701
       1.002
       1.200
       1.326
       1.379
       1.302
       1.024
       0.542
      -0.047
      -0.590
      -0.975
      -1.170
      -1.199
      -1.078
      -0.805
      -0.393
       0.079
       0.474
       0.666
       0.612
       0.364
       0.025
      -0.312
      -0.581
      -0.724
      -0.675
      -0.375
       0.183
       0.911
       1.619
       2.063
       2.041
       1.508
       0.614
      -0.353
      -1.119
      -1.549
      -1.673
      -1.593
      -1.369
      -0.996
      -0.475
       0.112
       0.610
       0.878
       0.874
       0.658
       0.329
      -0.028
      -0.360
      -0.624
      -0.794
      -0.883
      -0.929
      -0.952
      -0.913
      -0.749
      -0.449
      -0.109
       0.109
       0.086
      -0.158
      -0.478
      -0.696
      -0.708
      -0.515
      -0.184
       0.211
       0.609
       0.935
       1.085
       0.956
       0.514
      -0.148
      -0.817
      -1.256
      -1.324
      -1.050
      -0.594
      -0.142
       0.192
       0.387
       0.468
       0.446
       0.309
       0.063
      -0.222
      -0.403
      -0.341
       0.013
       0.576
       1.183
       1.660
       1.892
       1.840
       1.546
       1.110
       0.646
       0.228
      -0.135
      -0.462
      -0.757
      -0.973
      -1.044
      -0.926
      -0.629
      -0.231
       0.143
       0.367
       0.376
       0.203
      -0.035
      -0.201
      -0.197
       0.005
       0.371
       0.826
       1.269
       1.595
       1.724
       1.630
       1.335
       0.884
       0.334
      -0.241
      -0.743
      -1.079
      -1.215
      -1.190
      -1.092
      -0.996
      -0.923
      -0.839
      -0.693
      -0.475
      -0.232
      -0.042
       0.046
       0.038
      -0.019
      -0.079
      -0.106
      -0.066
       0.076
       0.320
       0.590
       0.745
       0.665
       0.344
      -0.091
      -0.449
      -0.594
      -0.515
      -0.305
      -0.091
       0.051
       0.118
       0.138
       0.114
      -0.003
      -0.271
      -0.672
      -1.077
      -1.302
      -1.226
      -0.868
      -0.364
       0.124
       0.478
       0.638
       0.600
       0.425
       0.232
       0.145
       0.201
       0.317
       0.354
       0.225
      -0.045
      -0.359
      -0.622
      -0.806
      -0.929
      -1.007
      -1.020
      -0.931
      -0.731
      -0.459
      -0.187
       0.016
       0.119
       0.145
       0.165
       0.244
       0.389
       0.534
       0.591
       0.546
       0.476
       0.492
       0.640
       0.864
       1.058
       1.144
       1.109
       0.985
       0.809
       0.597
       0.342
       0.031
      -0.330
      -0.690
      -0.966
      -1.095
      -1.073
      -0.951
      -0.769
      -0.521
      -0.183
       0.218
       0.583
       0.790
       0.774
       0.557
       0.217
      -0.144
      -0.421
      -0.524
      -0.410
      -0.119
       0.249
       0.587
       0.840
       1.010
       1.103
       1.094
       0.943
       0.646
       0.270
      -0.077
      -0.304
      -0.382
      -0.352
      -0.296
      -0.284
      -0.318
      -0.319
      -0.194
       0.055
       0.278
       0.266
      -0.084
      -0.659
      -1.176
      -1.348
      -1.064
      -0.432
       0.294
       0.872
       1.182
       1.247
       1.157
       0.985
       0.750
       0.447
       0.104
      -0.192
      -0.349
      -0.347
      -0.272
      -0.264
      -0.407
      -0.665
      -0.916
      -1.052
      -1.057
      -1.000
      -0.957
      -0.942
      -0.908
      -0.801
      -0.596
      -0.285
       0.141
       0.678
       1.250
       1.695
       1.826
       1.534
       0.864
      -0.008
      -0.869
      -1.570
      -2.053
      -2.312
      -2.345
      -2.132
      -1.658
      -0.963
      -0.161
       0.581
       1.110
       1.346
       1.305
       1.061
       0.688
       0.235
      -0.243
      -0.641
      -0.811
      -0.636
      -0.120
       0.588
       1.265
       1.735
       1.928
       1.853
       1.521
       0.918
       0.060
      -0.928
      -1.804
      -2.304
      -2.273
      -1.727
      -0.820
       0.233
       1.219
       1.957
       2.317
       2.264
       1.885
       1.345
       0.815
       0.407
       0.168
       0.110
       0.234
       0.515
       0.873
       1.174
       1.275
       1.096
       0.677
       0.155
      -0.307
      -0.609
      -0.752
      -0.816
      -0.890
      -0.986
      -1.022
      -0.875
      -0.486
       0.066
       0.575
       0.809
       0.649
       0.153
      -0.493
      -1.100
      -1.578
      -1.921
      -2.127
      -2.131
      -1.843
      -1.245
      -0.464
       0.280
       0.806
       1.071
       1.150
       1.143
       1.098
       1.016
       0.892
       0.737
       0.558
       0.341
       0.059
      -0.278
      -0.602
      -0.816
      -0.852
      -0.720
      -0.507
      -0.337
      -0.287
      -0.343
      -0.422
      -0.445
      -0.403
      -0.346
      -0.318
      -0.305
      -0.259
      -0.167
      -0.085
      -0.091
      -0.194
      -0.311
      -0.329
      -0.202
       0.010
       0.189
       0.249
       0.201
       0.126
       0.090
       0.073
      -0.004
      -0.208
      -0.518
      -0.832
      -1.030
      -1.045
      -0.888
      -0.619
      -0.297
       0.039
       0.366
       0.680
       1.008
       1.398
       1.871
       2.370
       2.763
       2.909
       2.742
       2.295
       1.664
       0.945
       0.223
      -0.421
      -0.900
      -1.163
      -1.246
      -1.264
      -1.353
      -1.582
      -1.910
      -2.190
      -2.239
      -1.931
      -1.270
      -0.402
       0.463
       1.160
       1.639
       1.940
       2.120
       2.184
       2.098
       1.840
       1.452
       1.020
       0.625
       0.309
       0.086
      -0.046
      -0.128
      -0.269
      -0.600
      -1.159
      -1.790
      -2.198
      -2.136
      -1.584
      -0.787
      -0.106
       0.201
       0.115
      -0.186
      -0.481
      -0.647
      -0.685
      -0.642
      -0.521
      -0.271
       0.141
       0.658
       1.122
       1.358
       1.276
       0.924
       0.447
      -0.017
      -0.403
      -0.701
      -0.894
      -0.934
      -0.787
      -0.499
      -0.202
      -0.033
      -0.026
      -0.086
      -0.067
       0.109
       0.394
       0.647
       0.721
       0.558
       0.210
      -0.208
      -0.581
      -0.830
      -0.902
      -0.765
      -0.436
      -0.023
       0.305
       0.399
       0.233
      -0.081
      -0.365
      -0.481
      -0.392
      -0.128
       0.260
       0.733
       1.225
       1.621
       1.772
       1.577
       1.057
       0.364
      -0.292
      -0.753
      -0.975
      -1.003
      -0.914
      -0.768
      -0.611
      -0.501
      -0.491
      -0.582
      -0.674
      -0.600
      -0.212
       0.523
       1.492
       2.464
       3.171
       3.393
       3.038
       2.185
       1.070
      -0.011
      -0.832
      -1.317
      -1.537
      -1.625
      -1.679
      -1.722
      -1.723
      -1.651
      -1.512
      -1.357
      -1.253
      -1.232
      -1.263
      -1.261
      -1.145
      -0.900
      -0.591
      -0.309
      -0.091
       0.132
       0.465
       0.933
       1.420
       1.744
       1.796
       1.605
       1.287
       0.949
       0.662
       0.497
       0.529
       0.759
       1.046
       1.166
       0.962
       0.460
      -0.166
      -0.746
      -1.214
      -1.584
      -1.839
      -1.895
      -1.674
      -1.205
      -0.617
      -0.046
       0.435
       0.810
       1.052
       1.117
       0.974
       0.644
       0.208
      -0.226
      -0.570
      -0.791
      -0.930
      -1.055
      -1.195
      -1.301
      -1.294
      -1.141
      -0.877
      -0.550
      -0.159
       0.324
       0.869
       1.354
       1.648
       1.716
       1.643
       1.535
       1.424
       1.261
       0.990
       0.598
       0.099
      -0.503
      -1.195
      -1.898
      -2.448
      -2.663
      -2.468
      -1.942
      -1.242
      -0.488
       0.289
       1.089
       1.854
       2.464
       2.818
       2.904
       2.806
       2.624
       2.416
       2.191
       1.952
       1.732
       1.578
       1.499
       1.442
       1.328
       1.116
       0.852
       0.620
       0.455
       0.281
      -0.033
      -0.558
      -1.223
      -1.868
      -2.371
      -2.717
      -2.975
      -3.203
      -3.413
      -3.590
      -3.731
      -3.844
      -3.930
      -3.971
      -3.948
      -3.855
      -3.701
      -3.515
      -3.337
      -3.198
      -3.084
      -2.938
      -2.685
      -2.278
      -1.718
      -1.036
      -0.278
       0.477
       1.107
       1.462
       1.456
       1.138
       0.696
       0.352
       0.231
       0.301
       0.449
       0.617
       0.883
       1.396
       2.242
       3.345
       4.498
       5.476
       6.163
       6.582
       6.851
       7.088
       7.341
       7.592
       7.791
       7.898
       7.873
       7.654
       7.164
       6.366
       5.316
       4.148
       3.005
       1.969
       1.041
       0.186
      -0.602
      -1.274
      -1.762
      -2.039
      -2.158
      -2.220
      -2.291
      -2.338
      -2.237
      -1.865
      -1.203
      -0.382
       0.368
       0.826
       0.885
       0.569
      -0.031
      -0.853
      -1.900
      -3.184
      -4.657
      -6.185
      -7.594
      -8.733
      -9.507
      -9.857
      -9.741
      -9.147
      -8.139
      -6.873
      -5.555
      -4.350
      -3.346
      -2.591
      -2.132
      -2.006
      -2.160
      -2.421
      -2.577
      -2.508
      -2.247
      -1.885
      -1.424
      -0.748
       0.254
       1.542
       2.938
       4.284
       5.566
       6.876
       8.246
       9.530
      10.429
      10.621
       9.913
       8.335
       6.150
       3.777
       1.641
       0.019
      -1.017
      -1.554
      -1.737
      -1.708
      -1.589
      -1.514
      -1.632
      -2.083
      -2.930
      -4.091
      -5.320
      -6.273
      -6.657
      -6.375
      -5.567
      -4.506
      -3.423
      -2.412
      -1.448
      -0.510
       0.343
       0.980
       1.286
       1.244
       0.937
       0.496
       0.021
      -0.441
      -0.866
      -1.196
      -1.300
      -0.999
      -0.159
       1.202
       2.866
       4.489
       5.760
       6.552
       6.933
       7.023
       6.811
       6.091
       4.621
       2.379
      -0.284
      -2.766
      -4.532
      -5.393
      -5.530
      -5.276
      -4.826
      -4.121
      -2.969
      -1.296
       0.675
       2.456
       3.532
       3.636
       2.897
       1.764
       0.769
       0.289
       0.425
       1.022
       1.774
       2.354
       2.545
       2.315
       1.810
       1.231
       0.703
       0.222
      -0.250
      -0.675
      -0.901
      -0.756
      -0.181
       0.682
       1.522
       2.005
       1.941
       1.383
       0.567
      -0.221
      -0.785
      -1.060
      -1.087
      -0.976
      -0.870
      -0.896
      -1.098
      -1.418
      -1.736
      -1.960
      -2.058
      -2.013
      -1.761
      -1.205
      -0.320
       0.740
       1.676
       2.202
       2.201
       1.753
       1.039
       0.248
      -0.449
      -0.892
      -0.952
      -0.583
       0.158
       1.142
       2.230
       3.285
       4.137
       4.558
       4.318
       3.299
       1.593
      -0.508
      -2.623
      -4.432
      -5.773
      -6.636
      -7.072
      -7.085
      -6.592
      -5.485
      -3.760
      -1.623
       0.512
       2.143
       2.873
       2.581
       1.473
      -0.014
      -1.407
      -2.375
      -2.815
      -2.819
      -2.573
      -2.254
      -1.971
      -1.757
      -1.594
      -1.425
      -1.168
      -0.741
      -0.130
       0.585
       1.262
       1.800
       2.187
       2.449
       2.574
       2.529
       2.364
       2.284
       2.545
       3.253
       4.222
       5.039
       5.325
       4.962
       4.130
       3.118
       2.121
       1.201
       0.372
      -0.310
      -0.773
      -0.979
      -0.930
      -0.642
      -0.168
       0.337
       0.616
       0.442
      -0.203
      -1.060
      -1.751
      -2.023
      -1.895
      -1.603
      -1.403
      -1.397
      -1.489
      -1.455
      -1.106
      -0.426
       0.382
       1.018
       1.281
       1.196
       0.963
       0.787
       0.744
       0.778
       0.779
       0.662
       0.405
       0.057
      -0.307
      -0.678
      -1.187
      -2.018
      -3.188
      -4.385
      -5.091
      -4.929
      -3.950
      -2.595
      -1.382
      -0.591
      -0.187
       0.042
       0.340
       0.906
       1.868
       3.210
       4.723
       6.042
       6.788
       6.713
       5.778
       4.153
       2.152
       0.126
      -1.654
      -3.047
      -4.012
      -4.531
      -4.599
      -4.282
      -3.762
      -3.297
      -3.104
      -3.264
      -3.692
      -4.179
      -4.448
      -4.237
      -3.403
      -2.010
      -0.324
       1.309
       2.635
       3.539
       3.992
       3.975
       3.516
       2.769
       2.018
       1.547
       1.474
       1.699
       2.008
       2.227
       2.300
       2.237
       2.039
       1.679
       1.164
       0.587
       0.105
      -0.166
      -0.256
      -0.334
      -0.563
      -0.923
      -1.180
      -1.053
      -0.469
       0.323
       0.905
       0.999
       0.680
       0.286
       0.098
       0.074
      -0.119
      -0.796
      -1.948
      -3.217
      -4.140
      -4.446
      -4.147
      -3.439
      -2.561
      -1.737
      -1.161
      -0.924
      -0.935
      -0.936
      -0.672
      -0.066
       0.775
       1.696
       2.622
       3.520
       4.289
       4.736
       4.686
       4.124
       3.210
       2.180
       1.242
       0.517
       0.033
      -0.265
      -0.494
      -0.774
      -1.168
      -1.635
      -2.037
      -2.211
      -2.065
      -1.626
      -1.004
      -0.323
       0.307
       0.770
       0.932
       0.697
       0.099
      -0.655
      -1.262
      -1.479
      -1.253
      -0.714
      -0.056
       0.602
       1.242
       1.878
       2.456
       2.844
       2.917
       2.678
       2.290
       1.986
       1.913
       2.026
       2.100
       1.866
       1.181
       0.130
      -1.013
      -1.930
      -2.413
      -2.453
      -2.218
      -1.971
      -1.950
      -2.255
      -2.795
      -3.327
      -3.573
      -3.358
      -2.691
      -1.736
      -0.710
       0.202
       0.871
       1.195
       1.090
       0.552
      -0.259
      -1.011
      -1.345
      -1.085
      -0.331
       0.627
       1.498
       2.116
       2.424
       2.398
       2.014
       1.299
       0.391
      -0.486
      -1.104
      -1.307
      -1.040
      -0.351
       0.593
       1.531
       2.188
       2.401
       2.189
       1.710
       1.134
       0.539
      -0.086
      -0.739
      -1.319
      -1.644
      -1.581
      -1.183
      -0.704
      -0.455
      -0.603
      -1.051
      -1.491
      -1.586
      -1.169
      -0.330
       0.648
       1.455
       1.915
       2.024
       1.892
       1.628
       1.282
       0.849
       0.317
      -0.299
      -0.943
      -1.516
      -1.895
      -1.965
      -1.675
      -1.062
      -0.240
       0.635
       1.405
       1.942
       2.174
       2.123
       1.890
       1.606
       1.354
       1.127
       0.861
       0.508
       0.068
      -0.414
      -0.878
