Origin Time       14/12/2005 07:09:48
Lat.              30.9 N 
Long.             79.3 E 
Depth (Km)         25.7
Magnitude         5.2
 Region           Chamoli-Uttarakhand                                              
 Above details taken from IMD 
     
Station Code      RUD
Station Lat.       30.287  N
Station Long.      78.983  E
Station Height(m)  638.0
Site Class        A   Vs30 between 700 m/sec to 1400 m/sec * 
Record Time       14.12.2005 07:09:35.069
Sampling Rate     200. Hz
 Record Duration   36.965 Sec.
 Direction         E-W (E positive)
Max. Acceleration    -33.043 cm/sec**2
     
  * For reference see Site Classification link of website 
     
 Base Line Corrected and Low Pass Filtered (Cut Off at 35 Hz) Time History
 Acceleration data in cm/sec**2
    
[...]
       0.198
      -1.054
      -2.052
      -2.376
      -2.081
      -1.577
      -1.199
      -0.912
      -0.431
       0.378
       1.267
       1.770
       1.579
       0.751
      -0.411
      -1.620
      -2.682
      -3.331
      -3.103
      -1.554
       1.245
       4.425
       6.652
       6.918
       5.177
       2.305
      -0.570
      -2.746
      -4.115
      -4.826
      -4.908
      -4.235
      -2.779
      -0.805
       1.178
       2.651
       3.289
       3.022
       1.982
       0.434
      -1.276
      -2.725
      -3.442
      -3.028
      -1.371
       1.142
       3.609
       4.883
       4.091
       1.183
      -2.828
      -6.209
      -7.397
      -5.909
      -2.592
       1.032
       3.770
       5.310
       5.951
       5.930
       5.064
       3.006
      -0.171
      -3.688
      -6.367
      -7.327
      -6.469
      -4.374
      -1.758
       0.963
       3.646
       6.036
       7.496
       7.227
       4.922
       1.307
      -2.007
      -3.453
      -2.579
      -0.350
       1.603
       2.185
       1.468
       0.340
      -0.399
      -0.673
      -1.030
      -1.969
      -3.304
      -4.145
      -3.539
      -1.265
       1.883
       4.528
       5.492
       4.354
       1.533
      -2.005
      -5.158
      -7.052
      -7.278
      -5.920
      -3.383
      -0.172
       3.181
       6.016
       7.533
       7.111
       4.774
       1.345
      -1.975
      -4.280
      -5.289
      -5.148
      -4.023
      -1.971
       0.794
       3.577
       5.260
       4.900
       2.483
      -0.805
      -3.175
      -3.406
      -1.738
       0.295
       1.081
       0.273
      -0.902
      -0.718
       1.467
       4.476
       6.083
       4.666
       0.469
      -4.456
      -7.529
      -7.223
      -3.871
       0.765
       4.669
       6.575
       6.242
       4.143
       1.034
      -2.309
      -5.179
      -6.949
      -7.146
      -5.636
      -2.825
       0.349
       2.826
       4.010
       4.045
       3.489
       2.707
       1.592
      -0.119
      -2.315
      -4.336
      -5.291
      -4.573
      -2.150
       1.432
       5.242
       8.215
       9.441
       8.434
       5.328
       0.894
      -3.639
      -6.983
      -8.253
      -7.278
      -4.581
      -1.105
       2.182
       4.575
       5.712
       5.476
       3.870
       1.050
      -2.488
      -5.787
      -7.669
      -7.280
      -4.587
      -0.434
       3.863
       7.026
       8.139
       6.812
       3.370
      -1.036
      -4.702
      -6.142
      -4.923
      -1.947
       1.089
       2.692
       2.359
       0.667
      -1.283
      -2.596
      -2.964
      -2.550
      -1.641
      -0.472
       0.679
       1.401
       1.334
       0.475
      -0.758
      -1.811
      -2.304
      -2.088
      -1.136
       0.421
       2.184
       3.573
       4.157
       3.919
       3.159
       2.187
       1.106
      -0.113
      -1.415
      -2.519
      -3.012
      -2.606
      -1.360
       0.291
       1.692
       2.201
       1.428
      -0.524
      -2.974
      -4.932
      -5.627
      -4.936
      -3.325
      -1.378
       0.665
       2.905
       5.304
       7.178
       7.281
       4.630
      -0.469
      -6.112
      -9.675
      -9.397
      -5.539
      -0.192
       4.141
       6.130
       6.138
       5.442
       4.998
       4.839
       4.384
       3.096
       0.911
      -1.699
      -3.915
      -4.947
      -4.446
      -2.664
      -0.246
       2.053
       3.472
       3.325
       1.374
      -1.662
      -4.126
      -4.311
      -1.708
       2.417
       5.686
       6.139
       3.544
      -0.421
      -3.288
      -3.519
      -1.594
       0.375
       0.307
      -2.188
      -5.447
      -6.982
      -5.319
      -1.063
       3.553
       6.224
       6.050
       3.890
       1.396
      -0.409
      -1.758
      -3.467
      -5.653
      -7.189
      -6.517
      -3.094
       1.910
       6.336
       8.495
       8.097
       6.000
       3.273
       0.504
      -2.129
      -4.359
      -5.549
      -5.034
      -2.811
       0.116
       2.267
       2.740
       1.868
       0.812
       0.526
       1.046
       1.653
       1.541
       0.361
      -1.645
      -3.787
      -5.206
      -5.267
      -3.932
      -1.830
       0.165
       1.531
       2.331
       2.874
       3.213
       3.071
       2.282
       1.203
       0.546
       0.700
       1.279
       1.420
       0.595
      -0.850
      -1.943
      -1.901
      -0.769
       0.643
       1.438
       1.296
       0.624
       0.113
       0.133
       0.507
       0.811
       0.846
       0.751
       0.705
       0.628
       0.258
      -0.552
      -1.691
      -2.900
      -3.855
      -4.119
      -3.202
      -0.922
       2.227
       5.150
       6.707
       6.315
       4.129
       0.776
      -3.027
      -6.674
      -9.527
     -10.690
      -9.124
      -4.364
       2.648
       9.502
      13.411
      12.771
       8.004
       1.088
      -5.686
     -10.675
     -13.039
     -12.422
      -8.819
      -2.826
       4.098
       9.861
      12.563
      11.468
       7.431
       2.369
      -1.865
      -4.349
      -5.092
      -4.434
      -2.641
      -0.105
       2.323
       3.530
       2.879
       0.807
      -1.339
      -2.150
      -1.102
       1.086
       2.919
       3.112
       1.408
      -1.343
      -3.794
      -4.887
      -4.298
      -2.454
      -0.260
       1.330
       1.791
       1.265
       0.381
      -0.228
      -0.316
      -0.035
       0.321
       0.541
       0.535
       0.278
      -0.207
      -0.807
      -1.293
      -1.374
      -0.853
       0.205
       1.421
       2.283
       2.455
       1.955
       1.058
       0.058
      -0.856
      -1.532
      -1.780
      -1.475
      -0.758
      -0.060
       0.170
      -0.172
      -0.711
      -0.858
      -0.259
       0.935
       2.181
       2.945
       3.080
       2.850
       2.568
       2.185
       1.267
      -0.511
      -2.810
      -4.598
      -4.754
      -2.843
       0.506
       3.814
       5.420
       4.307
       0.739
      -3.717
      -6.945
      -7.442
      -5.138
      -1.320
       2.238
       4.259
       4.445
       3.275
       1.477
      -0.361
      -1.846
      -2.652
      -2.506
      -1.357
       0.456
       2.276
       3.448
       3.649
       2.951
       1.632
      -0.030
      -1.775
      -3.259
      -4.059
      -3.857
      -2.665
      -0.898
       0.729
       1.463
       0.875
      -0.782
      -2.493
      -2.939
      -1.387
       1.640
       4.557
       5.739
       4.607
       1.919
      -0.869
      -2.575
      -2.876
      -2.239
      -1.385
      -0.758
      -0.365
      -0.025
       0.314
       0.550
       0.647
       0.746
       0.951
       1.030
       0.484
      -0.985
      -3.016
      -4.627
      -4.789
      -3.153
      -0.356
       2.307
       3.663
       3.370
       2.031
       0.655
      -0.091
      -0.217
      -0.138
      -0.185
      -0.344
      -0.347
       0.082
       0.992
       2.093
       2.853
       2.858
       2.207
       1.518
       1.425
       1.944
       2.326
       1.599
      -0.625
      -3.720
      -6.325
      -7.056
      -5.216
      -1.150
       3.792
       7.687
       8.793
       6.392
       1.266
      -4.558
      -8.737
      -9.718
      -7.413
      -3.077
       1.491
       4.909
       6.719
       7.174
       6.616
       5.047
       2.282
      -1.504
      -5.392
      -7.958
      -8.067
      -5.648
      -1.776
       2.029
       4.717
       6.036
       6.131
       5.037
       2.699
      -0.557
      -3.795
      -5.864
      -6.087
      -4.630
      -2.316
      -0.092
       1.404
       1.971
       1.708
       0.862
      -0.225
      -1.108
      -1.359
      -0.798
       0.338
       1.487
       2.079
       1.868
       1.050
       0.123
      -0.419
      -0.351
       0.218
       0.939
       1.357
       1.030
      -0.261
      -2.243
      -4.063
      -4.636
      -3.330
      -0.476
       2.744
       4.990
       5.499
       4.344
       2.149
      -0.365
      -2.622
      -4.160
      -4.595
      -3.720
      -1.680
       0.979
       3.464
       5.014
       5.162
       3.881
       1.566
      -1.138
      -3.538
      -5.034
      -5.177
      -3.736
      -0.847
       2.863
       6.320
       8.288
       7.849
       4.838
       0.002
      -5.223
      -9.165
     -10.446
      -8.454
      -3.699
       2.190
       7.024
       9.063
       7.905
       4.609
       0.913
      -1.885
      -3.519
      -4.459
      -5.112
      -5.283
      -4.361
      -1.988
       1.402
       4.660
       6.531
       6.303
       4.063
       0.535
      -3.242
      -6.178
      -7.345
      -6.204
      -2.858
       1.799
       6.194
       8.614
       8.037
       4.788
       0.458
      -3.001
      -4.449
      -4.136
      -3.273
      -2.971
      -3.366
      -3.592
      -2.577
      -0.039
       3.089
       5.154
       4.884
       2.305
      -1.227
      -3.922
      -4.683
      -3.638
      -1.818
      -0.391
       0.003
      -0.505
      -1.183
      -1.138
       0.155
       2.479
       4.875
       6.065
       5.109
       2.001
      -2.173
      -5.703
      -7.168
      -6.213
      -3.609
      -0.571
       2.074
       4.207
       6.040
       7.496
       7.915
       6.395
       2.552
      -2.867
      -8.016
     -10.730
      -9.639
      -4.944
       1.629
       7.638
      11.022
      10.902
       7.744
       2.910
      -2.052
      -5.940
      -8.048
      -8.075
      -6.083
      -2.576
       1.511
       5.082
       7.307
       7.863
       6.852
       4.612
       1.675
      -1.167
      -3.034
      -3.412
      -2.543
      -1.270
      -0.393
      -0.073
       0.131
       0.650
       1.336
       1.553
       0.883
      -0.314
      -1.122
      -0.914
       0.045
       0.899
       1.068
       0.746
       0.543
       0.750
       1.039
       0.905
       0.287
      -0.300
      -0.228
       0.646
       1.837
       2.647
       2.709
       2.149
       1.298
       0.334
      -0.763
      -2.000
      -3.197
      -4.053
      -4.357
      -4.113
      -3.505
      -2.793
      -2.269
      -2.223
      -2.801
      -3.771
      -4.497
      -4.301
      -3.001
      -1.144
       0.325
       0.661
      -0.281
      -2.036
      -3.725
      -4.311
      -2.937
       0.580
       5.373
       9.674
      11.615
      10.239
       6.075
       0.867
      -3.387
      -5.458
      -5.293
      -3.609
      -1.169
       1.576
       4.251
       6.206
       6.601
       4.913
       1.388
      -2.975
      -6.851
      -9.120
      -9.212
      -7.237
      -3.936
      -0.471
       1.977
       2.670
       1.624
      -0.413
      -2.322
      -3.113
      -2.341
      -0.316
       1.993
       3.390
       3.087
       1.206
      -1.183
      -2.574
      -1.829
       1.153
       5.281
       8.761
      10.041
       8.676
       5.511
       2.016
      -0.745
      -2.687
      -4.389
      -6.204
      -7.633
      -7.570
      -5.268
      -1.182
       3.052
       5.564
       5.385
       2.955
      -0.335
      -3.120
      -4.786
      -5.482
      -5.593
      -5.264
      -4.336
      -2.600
      -0.050
       2.993
       5.866
       7.659
       7.563
       5.397
       1.917
      -1.483
      -3.552
      -3.853
      -2.812
      -1.274
       0.020
       0.732
       1.016
       1.401
       2.455
       4.312
       6.429
       7.780
       7.411
       5.009
       1.172
      -2.750
      -5.260
      -5.546
      -4.058
      -2.289
      -1.759
      -2.929
      -4.941
      -6.390
      -6.357
      -4.837
      -2.389
       0.385
       2.988
       4.826
       5.152
       3.458
       0.024
      -3.960
      -6.966
      -8.005
      -7.078
      -4.863
      -2.029
       1.124
       4.424
       7.369
       8.988
       8.257
       4.759
      -0.807
      -6.641
     -10.465
     -10.569
      -6.773
      -0.708
       4.913
       7.684
       6.718
       2.957
      -1.489
      -4.445
      -4.542
      -1.562
       3.627
       9.333
      13.488
      14.342
      11.258
       5.171
      -1.663
      -6.613
      -7.842
      -5.136
       0.070
       5.442
       8.820
       9.045
       6.248
       1.635
      -3.035
      -6.116
      -6.680
      -4.839
      -1.639
       1.368
       2.693
       1.447
      -2.303
      -7.532
     -12.657
     -16.142
     -16.962
     -14.811
     -10.177
      -4.330
       0.974
       4.223
       4.979
       4.146
       3.294
       3.515
       4.701
       5.797
       5.692
       3.963
       0.958
      -2.599
      -5.936
      -8.288
      -8.915
      -7.380
      -3.985
       0.080
       3.204
       4.232
       3.108
       0.774
      -1.529
      -2.967
      -3.315
      -2.706
      -1.260
       1.067
       4.339
       8.246
      11.780
      13.417
      11.983
       7.643
       2.151
      -2.038
      -3.177
      -1.160
       2.557
       5.895
       7.306
       6.527
       4.545
       2.879
       2.720
       4.460
       7.687
      11.377
      14.117
      14.419
      11.157
       3.992
      -6.345
     -17.952
     -27.922
     -33.043
     -31.069
     -22.008
      -8.525
       5.054
      14.624
      17.943
      15.139
       8.131
      -0.338
      -7.490
     -11.133
     -10.290
      -5.609
       0.881
       6.738
      10.206
      10.770
       8.979
       5.889
       2.524
      -0.432
      -2.694
      -4.255
      -5.178
      -5.456
      -5.035
      -3.963
      -2.528
      -1.227
      -0.510
      -0.462
      -0.730
      -0.808
      -0.455
       0.183
       0.806
       1.187
       1.134
       0.369
      -1.359
      -3.965
      -6.857
      -9.082
      -9.639
      -7.814
      -3.591
       1.969
       6.784
       8.554
       6.043
       0.003
      -6.988
     -11.750
     -12.082
      -7.757
      -0.452
       7.243
      13.043
      15.704
      15.091
      11.842
       7.034
       1.944
      -2.193
      -4.481
      -4.608
      -2.886
      -0.116
       2.664
       4.480
       4.743
       3.462
       1.266
      -0.767
      -1.458
      -0.052
       3.280
       7.371
      10.593
      11.651
      10.040
       6.005
       0.373
      -5.463
      -9.638
     -10.461
      -7.409
      -1.725
       4.042
       7.342
       6.904
       3.207
      -2.020
      -6.791
      -9.741
     -10.457
      -9.249
      -6.694
      -3.359
       0.129
       2.944
       4.179
       3.261
       0.343
      -3.736
      -7.902
     -11.395
     -13.981
     -15.718
     -16.480
     -15.647
     -12.348
      -6.221
       1.844
       9.722
      15.063
      16.636
      14.951
      11.690
       8.464
       5.952
       3.976
       2.100
       0.061
      -2.137
      -4.238
      -5.691
      -5.769
      -3.929
      -0.194
       4.721
       9.592
      13.064
      14.102
      12.410
       8.576
       3.776
      -0.857
      -4.686
      -7.471
      -8.903
      -8.380
      -5.418
      -0.402
       5.053
       8.696
       8.902
       5.702
       0.664
      -4.295
      -8.124
     -10.797
     -12.401
     -12.280
      -9.340
      -3.305
       4.366
      11.005
      14.337
      13.744
      10.204
       5.283
       0.252
      -4.077
      -7.101
      -8.297
      -7.323
      -4.187
       0.625
       6.029
      10.381
      11.905
       9.516
       3.604
      -3.821
      -9.899
     -12.240
     -10.067
      -4.543
       1.849
       6.492
       7.744
       5.447
       0.734
      -4.583
      -8.712
     -10.395
      -9.212
      -5.705
      -1.249
       2.457
       4.162
       3.732
       2.249
       1.411
       2.492
       5.529
       9.301
      12.120
      12.786
      11.005
       7.110
       1.615
      -4.841
     -11.159
     -15.610
     -16.287
     -12.060
      -3.433
       7.245
      16.392
      20.429
      17.229
       7.238
      -6.415
     -19.068
     -26.466
     -26.464
     -19.682
      -8.975
       1.835
       9.374
      11.798
       9.250
       3.575
      -2.556
      -6.754
      -7.755
      -5.657
      -1.538
       3.199
       7.350
      10.095
      10.975
       9.870
       7.067
       3.322
      -0.269
      -2.630
      -3.131
      -1.848
       0.460
       2.633
       3.563
       2.726
       0.513
      -1.931
      -3.367
      -3.205
      -1.807
      -0.181
       0.676
       0.299
      -1.158
      -3.238
      -5.562
      -8.003
     -10.552
     -13.013
     -14.783
     -14.916
     -12.530
      -7.335
       0.027
       8.070
      14.908
      18.826
      18.789
      14.815
       8.140
       0.984
      -4.133
      -5.376
      -2.440
       3.210
       8.938
      12.151
      11.463
       7.133
       0.638
      -6.126
     -11.397
     -13.763
     -12.376
      -7.418
      -0.442
       6.038
       9.733
       9.764
       6.921
       2.863
      -0.966
      -3.835
      -5.464
      -5.618
      -4.148
      -1.410
       1.573
       3.622
       4.247
       4.019
       4.057
       5.051
       6.678
       7.865
       7.651
       5.880
       3.158
       0.220
      -2.641
      -5.517
      -8.329
     -10.374
     -10.463
      -7.622
      -1.894
       5.264
      11.334
      13.747
      11.107
       3.957
      -5.297
     -13.302
     -17.135
     -15.602
      -9.765
      -2.315
       3.896
       7.182
       7.379
       5.286
       1.947
      -1.651
      -4.525
      -5.732
      -4.686
      -1.540
       2.700
       6.496
       8.386
       7.588
       4.279
      -0.539
      -5.476
      -9.210
     -10.790
      -9.845
      -6.713
      -2.397
       1.779
       4.680
       5.757
       5.101
       3.224
       0.741
      -1.806
      -3.944
      -5.241
      -5.411
      -4.533
      -3.108
      -1.752
      -0.693
       0.444
       2.263
       4.910
       7.698
       9.426
       9.143
       6.753
       3.067
      -0.662
      -3.371
      -4.611
      -4.584
      -3.810
      -2.694
      -1.291
       0.536
       2.740
       4.796
       5.769
       4.756
       1.509
      -3.125
      -7.336
      -9.199
      -7.810
      -3.922
       0.448
       3.219
       3.381
       1.372
      -1.403
      -3.447
      -3.917
      -2.922
      -1.299
      -0.008
       0.458
       0.267
      -0.073
      -0.198
      -0.085
       0.150
       0.500
       1.017
       1.556
       1.699
       1.048
      -0.368
      -1.961
      -2.867
      -2.454
      -0.711
       1.694
       3.754
       4.703
       4.425
       3.350
       1.946
       0.336
      -1.504
      -3.224
      -3.918
      -2.666
       0.592
       4.664
       7.632
       7.971
       5.462
       1.273
      -2.799
      -5.347
      -5.990
      -5.297
      -4.211
      -3.404
      -2.930
      -2.325
      -1.047
       1.012
       3.290
