Origin Time       04/04/2011 11:31:40
Lat.              29.6 N	
Long.             80.8 E	
Depth (Km)         10.0
Magnitude         5.7
 Region           NEPAL-INDIA-BORDER-REGION                                        
 Above details taken from IMD 
     
Station Code      RUD
Station Lat.       30.287  N
Station Long.      78.983  E
Station Height(m)  859.0
Site Class        A   Vs30 between 700 m/sec to 1400 m/sec * 
Record Time       04.04.2011 11:32:05.214
Sampling Rate     200. Hz
 Record Duration   89.040 Sec.
 Direction         E-W (E positive)
Max. Acceleration      7.741 cm/sec**2
     
  * For reference see Site Classification link of website 
     
 Base Line Corrected and Low Pass Filtered (Cut Off at 35 Hz) Time History
 Acceleration data in cm/sec**2
    
[...]
      -0.162
      -0.046
       0.061
       0.153
       0.203
       0.181
       0.082
      -0.055
      -0.182
      -0.261
      -0.270
      -0.200
      -0.068
       0.082
       0.214
       0.310
       0.352
       0.325
       0.234
       0.111
      -0.016
      -0.136
      -0.237
      -0.299
      -0.316
      -0.301
      -0.263
      -0.207
      -0.143
      -0.095
      -0.073
      -0.068
      -0.074
      -0.093
      -0.121
      -0.142
      -0.154
      -0.166
      -0.171
      -0.144
      -0.064
       0.067
       0.243
       0.456
       0.679
       0.877
       1.031
       1.149
       1.234
       1.274
       1.260
       1.192
       1.067
       0.879
       0.641
       0.383
       0.134
      -0.095
      -0.291
      -0.440
      -0.546
      -0.628
      -0.700
      -0.762
      -0.817
      -0.876
      -0.935
      -0.970
      -0.963
      -0.904
      -0.785
      -0.601
      -0.382
      -0.182
      -0.040
       0.039
       0.071
       0.078
       0.094
       0.155
       0.274
       0.430
       0.598
       0.755
       0.877
       0.938
       0.935
       0.884
       0.794
       0.665
       0.515
       0.383
       0.297
       0.263
       0.268
       0.300
       0.334
       0.344
       0.321
       0.276
       0.215
       0.133
       0.042
      -0.032
      -0.076
      -0.098
      -0.113
      -0.131
      -0.168
      -0.242
      -0.351
      -0.472
      -0.590
      -0.709
      -0.829
      -0.938
      -1.033
      -1.131
      -1.244
      -1.377
      -1.533
      -1.702
      -1.844
      -1.903
      -1.860
      -1.737
      -1.572
      -1.394
      -1.222
      -1.073
      -0.947
      -0.827
      -0.715
      -0.619
      -0.539
      -0.451
      -0.341
      -0.203
      -0.032
       0.185
       0.438
       0.698
       0.936
       1.131
       1.258
       1.297
       1.259
       1.187
       1.121
       1.081
       1.085
       1.143
       1.246
       1.361
       1.458
       1.521
       1.532
       1.472
       1.339
       1.145
       0.903
       0.624
       0.337
       0.083
      -0.113
      -0.255
      -0.351
      -0.401
      -0.413
      -0.397
      -0.350
      -0.256
      -0.122
       0.023
       0.155
       0.266
       0.354
       0.412
       0.443
       0.453
       0.436
       0.384
       0.309
       0.242
       0.199
       0.172
       0.151
       0.130
       0.094
       0.020
      -0.092
      -0.217
      -0.327
      -0.411
      -0.462
      -0.475
      -0.465
      -0.451
      -0.441
      -0.421
      -0.388
      -0.351
      -0.303
      -0.223
      -0.091
       0.103
       0.366
       0.698
       1.065
       1.410
       1.693
       1.910
       2.064
       2.151
       2.164
       2.099
       1.949
       1.717
       1.437
       1.163
       0.932
       0.754
       0.634
       0.573
       0.549
       0.519
       0.455
       0.351
       0.215
       0.052
      -0.121
      -0.290
      -0.462
      -0.665
      -0.910
      -1.180
      -1.444
      -1.681
      -1.871
      -2.008
      -2.109
      -2.205
      -2.310
      -2.428
      -2.574
      -2.775
      -3.033
      -3.315
      -3.581
      -3.796
      -3.926
      -3.947
      -3.864
      -3.713
      -3.530
      -3.349
      -3.212
      -3.150
      -3.149
      -3.148
      -3.083
      -2.914
      -2.622
      -2.208
      -1.701
      -1.146
      -0.579
      -0.028
       0.465
       0.861
       1.146
       1.343
       1.479
       1.570
       1.632
       1.677
       1.693
       1.657
       1.568
       1.452
       1.339
       1.250
       1.207
       1.222
       1.279
       1.347
       1.417
       1.508
       1.636
       1.807
       2.017
       2.264
       2.520
       2.744
       2.909
       3.006
       3.028
       2.973
       2.861
       2.730
       2.605
       2.494
       2.397
       2.302
       2.175
       1.970
       1.666
       1.274
       0.814
       0.309
      -0.204
      -0.682
      -1.097
      -1.437
      -1.688
      -1.834
      -1.888
      -1.878
      -1.828
      -1.742
      -1.617
      -1.453
      -1.242
      -0.978
      -0.676
      -0.365
      -0.064
       0.224
       0.485
       0.698
       0.863
       0.993
       1.096
       1.171
       1.220
       1.254
       1.268
       1.245
       1.178
       1.072
       0.925
       0.729
       0.495
       0.253
       0.029
      -0.164
      -0.310
      -0.405
      -0.470
      -0.548
      -0.671
      -0.850
      -1.089
      -1.381
      -1.689
      -1.964
      -2.166
      -2.278
      -2.280
      -2.157
      -1.918
      -1.596
      -1.228
      -0.841
      -0.472
      -0.145
       0.141
       0.416
       0.699
       0.995
       1.307
       1.638
       1.969
       2.266
       2.504
       2.667
       2.744
       2.724
       2.622
       2.462
       2.254
       1.984
       1.646
       1.248
       0.801
       0.323
      -0.148
      -0.566
      -0.903
      -1.153
      -1.311
      -1.375
      -1.361
      -1.299
      -1.204
      -1.074
      -0.909
      -0.714
      -0.490
      -0.241
       0.004
       0.201
       0.331
       0.400
       0.419
       0.399
       0.362
       0.339
       0.342
       0.368
       0.413
       0.469
       0.509
       0.494
       0.396
       0.199
      -0.107
      -0.524
      -1.025
      -1.566
      -2.116
      -2.665
      -3.193
      -3.666
      -4.056
      -4.336
      -4.476
      -4.458
      -4.297
      -4.033
      -3.701
      -3.323
      -2.927
      -2.543
      -2.183
      -1.837
      -1.499
      -1.161
      -0.810
      -0.438
      -0.062
       0.284
       0.577
       0.812
       0.979
       1.067
       1.082
       1.050
       0.993
       0.927
       0.875
       0.857
       0.864
       0.871
       0.865
       0.852
       0.835
       0.819
       0.819
       0.853
       0.918
       0.996
       1.076
       1.155
       1.214
       1.229
       1.198
       1.139
       1.070
       1.003
       0.952
       0.925
       0.908
       0.866
       0.784
       0.660
       0.491
       0.277
       0.041
      -0.177
      -0.348
      -0.461
      -0.507
      -0.479
      -0.389
      -0.260
      -0.106
       0.066
       0.239
       0.394
       0.534
       0.678
       0.826
       0.966
       1.096
       1.230
       1.378
       1.539
       1.707
       1.866
       1.981
       2.018
       1.968
       1.850
       1.672
       1.437
       1.157
       0.859
       0.557
       0.253
      -0.046
      -0.331
      -0.598
      -0.848
      -1.065
      -1.230
      -1.346
      -1.423
      -1.450
      -1.400
      -1.263
      -1.056
      -0.799
      -0.510
      -0.215
       0.063
       0.311
       0.515
       0.646
       0.669
       0.584
       0.413
       0.183
      -0.092
      -0.382
      -0.654
      -0.881
      -1.052
      -1.160
      -1.209
      -1.225
      -1.239
      -1.255
      -1.255
      -1.229
      -1.186
      -1.125
      -1.043
      -0.938
      -0.813
      -0.658
      -0.464
      -0.250
      -0.051
       0.116
       0.257
       0.388
       0.527
       0.709
       0.966
       1.302
       1.691
       2.095
       2.470
       2.765
       2.939
       2.985
       2.921
       2.762
       2.521
       2.228
       1.927
       1.644
       1.391
       1.182
       1.027
       0.913
       0.826
       0.774
       0.785
       0.861
       0.965
       1.039
       1.016
       0.844
       0.515
       0.084
      -0.363
      -0.759
      -1.073
      -1.298
      -1.446
      -1.555
      -1.666
      -1.798
      -1.948
      -2.110
      -2.272
      -2.406
      -2.481
      -2.489
      -2.448
      -2.370
      -2.260
      -2.125
      -1.971
      -1.786
      -1.548
      -1.248
      -0.893
      -0.483
      -0.024
       0.451
       0.898
       1.293
       1.632
       1.914
       2.133
       2.288
       2.371
       2.360
       2.234
       2.006
       1.712
       1.392
       1.072
       0.781
       0.530
       0.305
       0.083
      -0.133
      -0.319
      -0.461
      -0.559
      -0.615
      -0.621
      -0.578
      -0.492
      -0.373
      -0.248
      -0.167
      -0.173
      -0.274
      -0.444
      -0.658
      -0.886
      -1.083
      -1.193
      -1.191
      -1.085
      -0.909
      -0.716
      -0.579
      -0.557
      -0.668
      -0.887
      -1.170
      -1.464
      -1.698
      -1.806
      -1.745
      -1.503
      -1.084
      -0.519
       0.116
       0.726
       1.237
       1.615
       1.848
       1.954
       1.987
       2.013
       2.073
       2.166
       2.263
       2.314
       2.259
       2.060
       1.732
       1.324
       0.879
       0.424
      -0.013
      -0.402
      -0.725
      -0.978
      -1.158
      -1.286
      -1.410
      -1.581
      -1.810
      -2.064
      -2.293
      -2.444
      -2.456
      -2.292
      -1.958
      -1.500
      -0.973
      -0.431
       0.059
       0.442
       0.694
       0.828
       0.868
       0.852
       0.839
       0.886
       1.022
       1.236
       1.499
       1.758
       1.943
       2.002
       1.931
       1.763
       1.533
       1.265
       0.988
       0.737
       0.534
       0.396
       0.348
       0.407
       0.567
       0.802
       1.095
       1.424
       1.753
       2.042
       2.273
       2.452
       2.579
       2.650
       2.661
       2.602
       2.447
       2.165
       1.759
       1.255
       0.684
       0.080
      -0.509
      -1.033
      -1.476
      -1.852
      -2.192
      -2.533
      -2.913
      -3.338
      -3.758
      -4.094
      -4.288
      -4.316
      -4.175
      -3.885
      -3.494
      -3.054
      -2.600
      -2.147
      -1.713
      -1.310
      -0.934
      -0.579
      -0.264
      -0.019
       0.148
       0.248
       0.282
       0.246
       0.141
      -0.022
      -0.230
      -0.461
      -0.677
      -0.855
      -0.999
      -1.120
      -1.207
      -1.239
      -1.221
      -1.194
      -1.200
      -1.271
      -1.422
      -1.636
      -1.850
      -1.991
      -2.017
      -1.922
      -1.723
      -1.454
      -1.170
      -0.926
      -0.754
      -0.664
      -0.671
      -0.775
      -0.942
      -1.110
      -1.219
      -1.216
      -1.046
      -0.674
      -0.111
       0.596
       1.381
       2.175
       2.909
       3.544
       4.087
       4.559
       4.963
       5.278
       5.490
       5.594
       5.571
       5.396
       5.057
       4.551
       3.880
       3.062
       2.149
       1.200
       0.264
      -0.613
      -1.373
      -1.967
      -2.381
      -2.627
      -2.721
      -2.676
      -2.520
      -2.279
      -1.960
      -1.560
      -1.096
      -0.609
      -0.142
       0.257
       0.536
       0.660
       0.637
       0.505
       0.302
       0.061
      -0.185
      -0.410
      -0.612
      -0.793
      -0.933
      -1.011
      -1.031
      -1.016
      -0.976
      -0.904
      -0.794
      -0.636
      -0.418
      -0.133
       0.201
       0.563
       0.946
       1.345
       1.730
       2.058
       2.301
       2.455
       2.516
       2.489
       2.395
       2.254
       2.073
       1.864
       1.658
       1.493
       1.374
       1.281
       1.195
       1.102
       0.983
       0.820
       0.617
       0.381
       0.105
      -0.217
      -0.571
      -0.932
      -1.285
      -1.609
      -1.872
      -2.041
      -2.118
      -2.133
      -2.115
      -2.084
      -2.058
      -2.040
      -2.008
      -1.939
      -1.832
      -1.700
      -1.541
      -1.348
      -1.114
      -0.831
      -0.488
      -0.098
       0.282
       0.573
       0.715
       0.678
       0.450
       0.041
      -0.506
      -1.132
      -1.774
      -2.362
      -2.822
      -3.103
      -3.216
      -3.210
      -3.139
      -3.049
      -2.974
      -2.920
      -2.850
      -2.711
      -2.471
      -2.125
      -1.689
      -1.206
      -0.749
      -0.383
      -0.129
       0.034
       0.142
       0.235
       0.359
       0.536
       0.744
       0.922
       1.014
       0.976
       0.789
       0.481
       0.131
      -0.170
      -0.360
      -0.420
      -0.344
      -0.143
       0.156
       0.520
       0.937
       1.403
       1.904
       2.430
       2.979
       3.540
       4.069
       4.502
       4.789
       4.895
       4.803
       4.527
       4.141
       3.748
       3.438
       3.258
       3.210
       3.251
       3.309
       3.314
       3.231
       3.047
       2.751
       2.351
       1.903
       1.487
       1.166
       0.966
       0.876
       0.848
       0.803
       0.676
       0.452
       0.155
      -0.180
      -0.521
      -0.840
      -1.128
      -1.404
      -1.684
      -1.950
      -2.167
      -2.315
      -2.401
      -2.444
      -2.476
      -2.541
      -2.672
      -2.872
      -3.138
      -3.479
      -3.901
      -4.374
      -4.840
      -5.244
      -5.543
      -5.701
      -5.703
      -5.557
      -5.278
      -4.865
      -4.320
      -3.666
      -2.938
      -2.162
      -1.354
      -0.534
       0.299
       1.173
       2.109
       3.083
       4.042
       4.934
       5.724
       6.387
       6.908
       7.294
       7.556
       7.701
       7.741
       7.696
       7.564
       7.302
       6.858
       6.215
       5.394
       4.432
       3.381
       2.303
       1.257
       0.272
      -0.647
      -1.493
      -2.272
      -3.001
      -3.695
      -4.349
      -4.949
      -5.484
      -5.931
      -6.239
      -6.356
      -6.269
      -6.000
      -5.592
      -5.097
      -4.574
      -4.059
      -3.540
      -2.986
      -2.384
      -1.748
      -1.106
      -0.498
       0.018
       0.389
       0.584
       0.596
       0.424
       0.091
      -0.333
      -0.760
      -1.111
      -1.326
      -1.362
      -1.229
      -1.000
      -0.783
      -0.661
      -0.662
      -0.754
      -0.850
      -0.833
      -0.616
      -0.183
       0.425
       1.150
       1.918
       2.646
       3.259
       3.721
       4.021
       4.166
       4.180
       4.121
       4.043
       3.965
       3.872
       3.734
       3.513
       3.169
       2.686
       2.098
       1.470
       0.862
       0.315
      -0.146
      -0.516
      -0.820
      -1.080
      -1.296
      -1.463
      -1.586
      -1.676
      -1.733
      -1.756
      -1.765
      -1.774
      -1.782
      -1.787
      -1.807
      -1.870
      -1.988
      -2.149
      -2.330
      -2.496
      -2.599
      -2.613
      -2.547
      -2.428
      -2.269
      -2.076
      -1.859
      -1.618
      -1.327
      -0.961
      -0.521
      -0.028
       0.500
       1.035
       1.534
       1.955
       2.273
       2.481
       2.576
       2.580
       2.550
       2.557
       2.641
       2.809
       3.036
       3.260
       3.390
       3.342
       3.083
       2.620
       1.985
       1.233
       0.445
      -0.300
      -0.954
      -1.493
      -1.893
      -2.139
      -2.238
      -2.210
      -2.074
      -1.859
      -1.618
      -1.395
      -1.202
      -1.032
      -0.878
      -0.731
      -0.576
      -0.410
      -0.254
      -0.143
      -0.099
      -0.141
      -0.284
      -0.534
      -0.867
      -1.242
      -1.623
      -1.971
      -2.243
      -2.415
      -2.500
      -2.527
      -2.521
      -2.504
      -2.509
      -2.554
      -2.623
      -2.680
      -2.699
      -2.653
      -2.508
      -2.234
      -1.836
      -1.342
      -0.796
      -0.256
       0.213
       0.567
       0.808
       0.965
       1.063
       1.128
       1.204
       1.338
       1.563
       1.892
       2.327
       2.841
       3.386
       3.914
       4.401
       4.819
       5.126
       5.295
       5.334
       5.274
       5.132
       4.908
       4.597
       4.188
       3.671
       3.062
       2.411
       1.784
       1.229
       0.779
       0.464
       0.290
       0.225
       0.217
       0.217
       0.169
       0.017
      -0.275
      -0.696
      -1.213
      -1.796
      -2.418
      -3.028
      -3.573
      -4.011
      -4.310
      -4.457
      -4.471
      -4.414
      -4.354
      -4.331
      -4.361
      -4.455
      -4.622
      -4.856
      -5.142
      -5.458
      -5.748
      -5.924
      -5.909
      -5.678
      -5.256
      -4.684
      -4.012
      -3.298
      -2.581
      -1.871
      -1.175
      -0.516
       0.078
       0.597
       1.035
       1.396
       1.698
       1.992
       2.322
       2.694
       3.089
       3.482
       3.855
       4.190
       4.491
       4.787
       5.094
       5.387
       5.618
       5.744
       5.735
       5.572
       5.260
       4.840
       4.366
       3.881
       3.426
       3.044
       2.754
       2.529
       2.317
       2.081
       1.808
       1.501
       1.173
       0.846
       0.527
       0.204
      -0.124
      -0.428
      -0.669
      -0.830
      -0.903
      -0.879
      -0.766
      -0.605
      -0.453
      -0.352
      -0.326
      -0.378
      -0.487
      -0.603
      -0.689
      -0.735
      -0.739
      -0.683
      -0.555
      -0.373
      -0.183
      -0.045
      -0.018
      -0.146
      -0.425
      -0.795
      -1.180
      -1.535
      -1.848
      -2.110
      -2.317
      -2.470
      -2.554
      -2.542
      -2.419
      -2.198
      -1.899
      -1.531
      -1.105
      -0.655
      -0.221
       0.182
       0.556
       0.907
       1.245
       1.582
       1.915
       2.220
       2.473
       2.680
       2.851
       2.979
       3.048
       3.044
       2.957
       2.778
       2.530
       2.258
       1.999
       1.752
       1.494
       1.213
       0.914
       0.608
       0.316
       0.073
      -0.099
      -0.210
      -0.288
      -0.352
      -0.430
      -0.563
      -0.783
      -1.093
      -1.468
      -1.876
      -2.278
      -2.626
      -2.895
      -3.093
      -3.238
      -3.344
      -3.424
      -3.505
      -3.600
      -3.686
      -3.724
      -3.691
      -3.581
      -3.410
      -3.218
      -3.065
      -2.992
      -2.985
      -3.003
      -3.010
      -2.982
      -2.897
      -2.741
      -2.510
      -2.196
      -1.787
      -1.293
      -0.763
      -0.255
       0.204
       0.606
       0.956
       1.271
       1.593
       1.950
       2.341
       2.749
       3.173
       3.619
       4.088
       4.580
       5.093
       5.607
       6.077
       6.464
       6.747
       6.899
       6.875
       6.637
       6.185
       5.558
       4.815
       4.027
       3.263
       2.564
       1.926
       1.330
       0.759
       0.191
      -0.411
      -1.086
      -1.839
      -2.642
      -3.442
      -4.158
      -4.702
      -5.028
      -5.144
      -5.097
      -4.939
      -4.733
      -4.555
      -4.475
      -4.525
      -4.700
      -4.969
      -5.267
      -5.503
      -5.598
      -5.508
      -5.216
      -4.716
      -4.031
      -3.214
      -2.324
      -1.403
      -0.479
       0.412
