Origin Time       21/9/2009 9:43:47	 
Lat.              30.9 N	
Long.             79.1 E	
Depth (Km)         13.0
Magnitude         4.7
 Region           UTTARKASHI-UTTARAKHAND                                           
 Above details taken from IMD 
   
Station Code      RUD
Station Lat.       30.287
Station Long.      78.983
Station Height(m)  860.0
Site Class        A   Vs30 between 700 m/sec to 1400 m/sec * 
Record Time       21.09.2009 09:43:59.794
Sampling Rate     200. Hz
 Record Duration   66.405 Sec.
 Direction         Vert. (Up positive)
Max. Acceleration      8.080 cm/sec**2
     
  * For reference see Site Classification link of website 
     
 Base Line Corrected and Low Pass Filtered (Cut Off at 35 Hz) Time History
 Acceleration data in cm/sec**2
    
[...]
      -0.008
      -0.307
      -0.645
      -0.923
      -0.958
      -0.629
      -0.048
       0.444
       0.516
       0.106
      -0.565
      -1.189
      -1.546
      -1.522
      -1.053
      -0.180
       0.846
       1.610
       1.806
       1.488
       1.023
       0.771
       0.807
       0.941
       0.939
       0.702
       0.282
      -0.185
      -0.538
      -0.642
      -0.461
      -0.118
       0.150
       0.126
      -0.237
      -0.783
      -1.242
      -1.368
      -1.080
      -0.521
      -0.004
       0.186
      -0.001
      -0.330
      -0.486
      -0.354
      -0.092
       0.074
       0.106
       0.154
       0.325
       0.510
       0.508
       0.291
       0.092
       0.168
       0.500
       0.799
       0.829
       0.668
       0.585
       0.678
       0.710
       0.374
      -0.311
      -0.955
      -1.173
      -0.947
      -0.592
      -0.388
      -0.329
      -0.244
      -0.072
       0.065
       0.060
      -0.012
       0.007
       0.125
       0.162
      -0.021
      -0.312
      -0.428
      -0.196
       0.291
       0.790
       1.126
       1.268
       1.224
       0.964
       0.471
      -0.145
      -0.655
      -0.876
      -0.833
      -0.719
      -0.675
      -0.639
      -0.443
      -0.072
       0.242
       0.247
      -0.034
      -0.289
      -0.233
       0.094
       0.371
       0.316
      -0.073
      -0.580
      -0.964
      -1.073
      -0.818
      -0.198
       0.614
       1.285
       1.520
       1.290
       0.832
       0.423
       0.186
       0.089
       0.066
       0.048
      -0.065
      -0.359
      -0.742
      -0.915
      -0.600
       0.150
       0.928
       1.282
       1.067
       0.493
      -0.128
      -0.638
      -1.041
      -1.339
      -1.430
      -1.197
      -0.661
      -0.018
       0.492
       0.757
       0.811
       0.726
       0.514
       0.151
      -0.308
      -0.701
      -0.862
      -0.759
      -0.493
      -0.164
       0.221
       0.680
       1.121
       1.346
       1.232
       0.879
       0.522
       0.280
       0.053
      -0.307
      -0.745
      -0.990
      -0.822
      -0.328
       0.148
       0.295
       0.070
      -0.349
      -0.753
      -1.000
      -0.977
      -0.600
       0.065
       0.715
       0.968
       0.709
       0.233
      -0.011
       0.122
       0.336
       0.219
      -0.286
      -0.806
      -0.924
      -0.614
      -0.237
      -0.110
      -0.152
      -0.002
       0.530
       1.210
       1.585
       1.411
       0.834
       0.188
      -0.310
      -0.643
      -0.860
      -0.948
      -0.872
      -0.666
      -0.420
      -0.192
       0.053
       0.350
       0.616
       0.652
       0.297
      -0.383
      -1.066
      -1.345
      -0.978
      -0.045
       1.076
       1.921
       2.195
       1.917
       1.337
       0.709
       0.142
      -0.342
      -0.658
      -0.664
      -0.328
       0.147
       0.450
       0.418
       0.148
      -0.149
      -0.353
      -0.465
      -0.496
      -0.421
      -0.282
      -0.254
      -0.501
      -0.944
      -1.269
      -1.226
      -0.895
      -0.593
      -0.521
      -0.573
      -0.512
      -0.269
       0.023
       0.260
       0.506
       0.863
       1.258
       1.471
       1.361
       1.030
       0.695
       0.474
       0.324
       0.192
       0.111
       0.112
       0.093
      -0.103
      -0.466
      -0.728
      -0.598
      -0.085
       0.452
       0.617
       0.321
      -0.179
      -0.555
      -0.667
      -0.584
      -0.434
      -0.293
      -0.213
      -0.263
      -0.461
      -0.658
      -0.566
      -0.008
       0.839
       1.499
       1.581
       1.114
       0.500
       0.117
       0.013
      -0.012
      -0.096
      -0.174
      -0.176
      -0.230
      -0.559
      -1.150
      -1.651
      -1.688
      -1.267
      -0.764
      -0.484
      -0.327
       0.008
       0.546
       0.884
       0.621
      -0.144
      -0.827
      -0.897
      -0.338
       0.433
       1.011
       1.268
       1.246
       0.975
       0.496
      -0.001
      -0.224
      -0.037
       0.384
       0.715
       0.772
       0.608
       0.348
       0.040
      -0.303
      -0.570
      -0.594
      -0.341
      -0.007
       0.138
       0.002
      -0.262
      -0.452
      -0.515
      -0.540
      -0.607
      -0.713
      -0.840
      -0.987
      -1.090
      -0.980
      -0.522
       0.196
       0.878
       1.261
       1.311
       1.159
       0.894
       0.516
       0.057
      -0.345
      -0.539
      -0.500
      -0.301
       0.021
       0.495
       1.060
       1.468
       1.429
       0.910
       0.222
      -0.220
      -0.231
       0.060
       0.362
       0.422
       0.111
      -0.528
      -1.237
      -1.623
      -1.428
      -0.792
      -0.183
       0.010
      -0.163
      -0.309
      -0.141
       0.212
       0.373
       0.154
      -0.214
      -0.306
       0.080
       0.743
       1.264
       1.332
       0.923
       0.278
      -0.245
      -0.347
       0.026
       0.582
       0.828
       0.433
      -0.468
      -1.340
      -1.678
      -1.404
      -0.859
      -0.436
      -0.281
      -0.325
      -0.512
      -0.860
      -1.272
      -1.427
      -1.001
      -0.031
       1.039
       1.740
       1.975
       1.984
       1.956
       1.789
       1.273
       0.422
      -0.469
      -1.114
      -1.464
      -1.626
      -1.609
      -1.264
      -0.490
       0.540
       1.429
       1.824
       1.626
       0.985
       0.159
      -0.603
      -1.118
      -1.326
      -1.301
      -1.183
      -1.022
      -0.692
      -0.008
       1.018
       2.037
       2.510
       2.097
       0.963
      -0.303
      -1.092
      -1.193
      -0.821
      -0.309
       0.188
       0.663
       1.043
       1.129
       0.846
       0.447
       0.348
       0.663
       0.996
       0.783
      -0.092
      -1.104
      -1.540
      -1.148
      -0.306
       0.397
       0.669
       0.596
       0.347
      -0.054
      -0.628
      -1.225
      -1.551
      -1.456
      -1.118
      -0.872
      -0.856
      -0.885
      -0.702
      -0.279
       0.164
       0.417
       0.466
       0.434
       0.409
       0.401
       0.402
       0.400
       0.325
       0.060
      -0.398
      -0.852
      -1.036
      -0.861
      -0.499
      -0.183
       0.005
       0.127
       0.208
       0.177
       0.010
      -0.144
      -0.078
       0.226
       0.530
       0.560
       0.281
      -0.078
      -0.262
      -0.215
      -0.069
       0.036
       0.074
       0.097
       0.126
       0.119
       0.051
      -0.005
       0.073
       0.313
       0.568
       0.599
       0.273
      -0.278
      -0.712
      -0.701
      -0.183
       0.573
       1.144
       1.233
       0.832
       0.201
      -0.316
      -0.487
      -0.306
       0.033
       0.295
       0.389
       0.421
       0.542
       0.733
       0.793
       0.577
       0.215
      -0.004
       0.018
       0.043
      -0.212
      -0.656
      -0.824
      -0.370
       0.500
       1.177
       1.236
       0.792
       0.268
      -0.078
      -0.299
      -0.479
      -0.496
      -0.173
       0.396
       0.805
       0.674
       0.005
      -0.847
      -1.492
      -1.758
      -1.686
      -1.413
      -1.113
      -0.981
      -1.140
      -1.481
      -1.665
      -1.379
      -0.620
       0.270
       0.895
       1.122
       1.129
       1.158
       1.243
       1.216
       0.968
       0.630
       0.443
       0.458
       0.445
       0.162
      -0.335
      -0.695
      -0.635
      -0.232
       0.152
       0.245
       0.084
      -0.114
      -0.236
      -0.351
      -0.554
      -0.799
      -0.940
      -0.896
      -0.724
      -0.513
      -0.281
       0.010
       0.370
       0.734
       0.972
       0.955
       0.640
       0.196
      -0.003
       0.388
       1.337
       2.344
       2.767
       2.333
       1.331
       0.314
      -0.347
      -0.630
      -0.671
      -0.571
      -0.419
      -0.398
      -0.702
      -1.311
      -1.913
      -2.159
      -1.959
      -1.491
      -0.949
      -0.368
       0.264
       0.833
       1.151
       1.191
       1.154
       1.235
       1.352
       1.203
       0.626
      -0.173
      -0.794
      -1.030
      -1.001
      -0.939
      -0.918
      -0.855
      -0.708
      -0.563
      -0.505
      -0.490
      -0.393
      -0.160
       0.149
       0.464
       0.763
       0.993
       0.981
       0.521
      -0.380
      -1.373
      -1.924
      -1.681
      -0.713
       0.542
       1.562
       2.018
       1.889
       1.383
       0.755
       0.154
      -0.382
      -0.815
      -1.013
      -0.816
      -0.213
       0.590
       1.269
       1.567
       1.365
       0.666
      -0.388
      -1.446
      -2.010
      -1.747
      -0.831
       0.083
       0.368
       0.004
      -0.386
      -0.157
       0.702
       1.565
       1.825
       1.466
       0.927
       0.524
       0.164
      -0.323
      -0.767
      -0.778
      -0.288
       0.249
       0.319
      -0.061
      -0.376
      -0.238
       0.197
       0.508
       0.554
       0.545
       0.612
       0.534
       0.043
      -0.712
      -1.230
      -1.190
      -0.780
      -0.406
      -0.230
      -0.138
      -0.069
      -0.130
      -0.325
      -0.354
       0.073
       0.769
       1.123
       0.724
      -0.181
      -0.978
      -1.371
      -1.582
      -1.873
      -2.072
      -1.770
      -0.936
      -0.094
       0.211
       0.010
      -0.143
       0.213
       1.001
       1.768
       2.139
       2.021
       1.479
       0.623
      -0.305
      -0.891
      -0.800
      -0.130
       0.565
       0.741
       0.354
      -0.132
      -0.223
       0.139
       0.595
       0.781
       0.649
       0.405
       0.233
       0.132
       0.003
      -0.199
      -0.431
      -0.623
      -0.737
      -0.774
      -0.747
      -0.659
      -0.505
      -0.280
      -0.010
       0.235
       0.384
       0.436
       0.463
       0.514
       0.537
       0.441
       0.264
       0.224
       0.516
       1.052
       1.473
       1.481
       1.150
       0.844
       0.803
       0.890
       0.771
       0.302
      -0.335
      -0.864
      -1.190
      -1.394
      -1.515
      -1.455
      -1.111
      -0.524
       0.149
       0.750
       1.142
       1.160
       0.727
       0.074
      -0.276
       0.050
       0.808
       1.236
       0.757
      -0.422
      -1.473
      -1.737
      -1.294
      -0.777
      -0.733
      -1.237
      -2.022
      -2.782
      -3.266
      -3.221
      -2.481
      -1.211
       0.042
       0.696
       0.583
       0.051
      -0.400
      -0.529
      -0.437
      -0.331
      -0.292
      -0.269
      -0.185
      -0.003
       0.285
       0.658
       1.030
       1.260
       1.225
       0.882
       0.277
      -0.467
      -1.155
      -1.548
      -1.457
      -0.854
       0.123
       1.255
       2.323
       3.142
       3.580
       3.643
       3.474
       3.200
       2.750
       1.949
       0.834
      -0.191
      -0.644
      -0.416
       0.159
       0.701
       1.158
       1.690
       2.258
       2.510
       2.137
       1.233
       0.192
      -0.702
      -1.434
      -1.996
      -2.148
      -1.640
      -0.676
       0.040
      -0.119
      -1.095
      -2.188
      -2.747
      -2.738
      -2.604
      -2.645
      -2.656
      -2.198
      -1.126
       0.205
       1.235
       1.610
       1.335
       0.620
      -0.329
      -1.386
      -2.441
      -3.367
      -4.038
      -4.355
      -4.210
      -3.474
      -2.090
      -0.233
       1.639
       2.971
       3.447
       3.176
       2.562
       1.949
       1.378
       0.720
       0.029
      -0.276
       0.305
       1.839
       3.755
       5.191
       5.610
       5.099
       4.145
       3.175
       2.294
       1.363
       0.234
      -1.087
      -2.426
      -3.513
      -4.089
      -4.031
      -3.468
      -2.767
      -2.333
      -2.344
      -2.647
      -2.933
      -3.013
      -2.925
      -2.762
      -2.442
      -1.702
      -0.377
       1.324
       2.828
       3.554
       3.321
       2.481
       1.665
       1.381
       1.760
       2.582
       3.471
       4.062
       4.098
       3.475
       2.291
       0.832
      -0.543
      -1.592
      -2.318
      -2.901
      -3.477
      -3.945
      -3.996
      -3.350
      -2.008
      -0.302
       1.296
       2.417
       2.902
       2.771
       2.174
       1.381
       0.735
       0.482
       0.561
       0.590
       0.165
      -0.772
      -1.836
      -2.475
      -2.370
      -1.597
      -0.490
       0.604
       1.447
       1.893
       1.887
       1.534
       1.074
       0.670
       0.192
      -0.670
      -1.949
      -3.100
      -3.313
      -2.243
      -0.411
       1.188
       1.912
       1.887
       1.643
       1.473
       1.194
       0.466
      -0.777
      -2.231
      -3.454
      -4.132
      -4.154
      -3.576
      -2.618
      -1.662
      -1.138
      -1.291
      -1.982
      -2.720
      -2.958
      -2.445
      -1.390
      -0.300
       0.381
       0.569
       0.583
       0.914
       1.910
       3.573
       5.541
       7.228
       8.080
       7.843
       6.692
       5.103
       3.546
       2.239
       1.146
       0.136
      -0.876
      -1.895
      -2.841
      -3.533
      -3.731
      -3.281
      -2.263
      -0.963
       0.331
       1.477
       2.414
       2.976
       2.893
       2.045
       0.698
      -0.605
      -1.453
      -1.839
      -2.038
      -2.228
      -2.299
      -2.020
      -1.334
      -0.456
       0.273
       0.616
       0.570
       0.335
       0.138
       0.049
      -0.065
      -0.361
      -0.817
      -1.242
      -1.481
      -1.562
      -1.572
      -1.457
      -1.072
      -0.475
      -0.050
      -0.190
      -0.844
      -1.490
      -1.660
      -1.432
      -1.285
      -1.467
      -1.665
      -1.413
      -0.745
      -0.229
      -0.273
      -0.564
      -0.381
       0.568
       1.766
       2.418
       2.226
       1.546
       0.890
       0.489
       0.343
       0.456
       0.781
       1.033
       0.838
       0.196
      -0.383
      -0.406
       0.003
       0.245
       0.042
      -0.120
       0.448
       1.711
       2.782
       2.791
       1.742
       0.387
      -0.579
      -1.019
      -1.092
      -0.823
      -0.155
       0.693
       1.201
       1.008
       0.298
      -0.384
      -0.648
      -0.510
      -0.195
       0.128
       0.357
       0.353
       0.015
      -0.534
      -0.987
      -1.168
      -1.206
      -1.306
      -1.386
      -1.094
      -0.244
       0.886
       1.774
       2.117
       1.966
       1.448
       0.583
      -0.530
      -1.479
      -1.749
      -1.254
      -0.526
      -0.252
      -0.614
      -1.165
      -1.343
      -1.026
      -0.539
      -0.208
      -0.031
       0.209
       0.598
       0.931
       0.866
       0.191
      -0.990
      -2.245
      -2.959
      -2.670
      -1.452
       0.004
       0.845
       0.766
       0.288
       0.239
       0.902
       1.721
       1.926
       1.381
       0.722
       0.639
       1.141
       1.637
       1.629
       1.178
       0.644
       0.187
      -0.311
      -0.879
      -1.258
      -1.223
      -0.971
      -0.990
      -1.471
      -1.982
      -1.852
      -0.874
       0.489
       1.567
       2.060
       2.093
       1.858
       1.397
       0.788
       0.371
       0.557
       1.345
       2.142
       2.189
       1.229
      -0.256
      -1.485
      -2.006
      -1.927
      -1.610
      -1.260
      -0.837
      -0.261
       0.402
       0.971
       1.290
       1.316
       1.108
       0.788
       0.474
       0.199
      -0.107
      -0.503
      -0.887
      -0.991
      -0.591
       0.246
       1.121
       1.534
       1.222
       0.330
      -0.682
      -1.332
      -1.388
      -0.972
      -0.458
      -0.241
      -0.492
      -1.035
      -1.483
      -1.540
      -1.248
      -0.927
      -0.872
      -1.108
      -1.426
      -1.603
      -1.567
      -1.358
      -1.034
      -0.634
      -0.194
       0.280
       0.854
       1.600
       2.443
       3.101
       3.262
       2.864
       2.161
       1.481
       0.930
       0.399
      -0.162
      -0.538
      -0.415
       0.265
       1.156
       1.743
       1.715
       1.140
       0.321
      -0.443
      -0.981
      -1.256
      -1.325
      -1.263
      -1.072
      -0.674
      -0.052
       0.567
       0.794
       0.408
      -0.365
      -1.003
      -1.148
      -0.869
      -0.463
      -0.080
       0.346
       0.825
       1.115
       0.921
       0.268
      -0.439
      -0.798
      -0.812
      -0.855
      -1.218
      -1.764
      -2.042
      -1.723
      -0.901
      -0.003
       0.563
       0.668
       0.478
       0.255
       0.128
       0.019
      -0.249
      -0.730
      -1.244
      -1.494
      -1.308
      -0.780
      -0.197
       0.156
       0.142
      -0.204
      -0.726
      -1.243
      -1.622
      -1.825
      -1.872
      -1.762
      -1.433
      -0.827
      -0.019
       0.761
       1.238
       1.256
       0.849
       0.196
      -0.477
      -0.941
      -1.001
      -0.566
       0.265
       1.207
       1.939
       2.302
       2.356
       2.235
       1.930
       1.284
       0.233
      -0.933
      -1.646
      -1.467
      -0.463
       0.846
       1.907
       2.502
       2.713
       2.622
       2.159
       1.282
       0.225
      -0.528
      -0.609
      -0.100
       0.517
       0.766
       0.548
       0.130
      -0.167
      -0.246
      -0.237
      -0.306
      -0.514
      -0.802
      -1.026
      -0.978
      -0.482
       0.428
       1.393
       1.900
       1.675
       0.940
       0.254
       0.032
       0.207
       0.358
       0.155
      -0.345
      -0.844
      -1.183
      -1.478
      -1.852
      -2.116
      -1.863
      -0.946
       0.229
       0.988
       0.975
       0.417
      -0.194
      -0.551
      -0.647
      -0.551
      -0.302
      -0.019
       0.026
      -0.337
      -0.866
      -1.004
      -0.429
       0.534
       1.157
       0.979
       0.200
      -0.590
      -0.988
      -1.010
      -0.855
      -0.619
      -0.329
      -0.130
      -0.248
      -0.711
      -1.189
      -1.240
      -0.714
       0.100
       0.744
       0.964
       0.839
       0.602
       0.395
       0.206
      -0.048
      -0.405
      -0.801
      -1.043
      -0.874
      -0.140
       1.006
       2.096
       2.627
       2.415
       1.711
       0.963
       0.494
       0.353
       0.391
       0.427
       0.370
       0.253
       0.179
       0.196
       0.219
       0.108
      -0.133
      -0.282
      -0.084
       0.458
       1.008
       1.181
       0.888
       0.371
      -0.091
      -0.447
      -0.784
      -1.059
      -1.067
      -0.735
