Origin Time       14/12/2005 07:09:48
Lat.              30.9 N 
Long.             79.3 E 
Depth (Km)         25.7
Magnitude         5.2
 Region           Chamoli-Uttarakhand                                              
 Above details taken from IMD 
   
Station Code      RUD
Station Lat.       30.287
Station Long.      78.983
Station Height(m)  638.0
Site Class        A   Vs30 between 700 m/sec to 1400 m/sec * 
Record Time       14.12.2005 07:09:35.069
Sampling Rate     200. Hz
 Record Duration   36.965 Sec.
 Direction         Vert. (Up positive)
Max. Acceleration     21.455 cm/sec**2
     
  * For reference see Site Classification link of website 
     
 Base Line Corrected and Low Pass Filtered (Cut Off at 35 Hz) Time History
 Acceleration data in cm/sec**2
    
[...]
       1.387
      -0.890
      -2.749
      -3.749
      -3.684
      -2.638
      -0.995
       0.663
       1.827
       2.372
       2.646
       3.124
       3.827
       4.099
       3.068
       0.474
      -2.937
      -5.861
      -7.290
      -6.968
      -5.113
      -1.977
       2.111
       6.292
       9.081
       9.067
       5.950
       0.952
      -3.799
      -6.461
      -6.438
      -4.566
      -2.454
      -1.388
      -1.502
      -1.864
      -1.390
       0.236
       2.440
       4.318
       5.172
       4.652
       2.798
       0.227
      -1.844
      -2.160
      -0.404
       2.250
       3.706
       2.394
      -1.537
      -6.217
      -9.163
      -8.650
      -4.616
       1.296
       6.557
       9.030
       7.945
       4.059
      -0.923
      -5.172
      -7.366
      -7.020
      -4.608
      -1.390
       1.172
       2.243
       2.091
       1.768
       2.252
       3.711
       5.398
       6.168
       5.254
       2.722
      -0.673
      -4.046
      -6.810
      -8.609
      -8.971
      -7.301
      -3.480
       1.497
       5.718
       7.468
       6.338
       3.345
       0.100
      -2.142
      -2.858
      -2.060
      -0.027
       2.717
       5.265
       6.434
       5.281
       1.795
      -2.769
      -6.351
      -7.239
      -5.128
      -1.263
       2.475
       4.718
       5.099
       3.931
       1.722
      -0.927
      -3.179
      -4.111
      -3.268
      -1.086
       1.345
       3.016
       3.532
       3.016
       1.699
      -0.250
      -2.547
      -4.600
      -5.678
      -5.316
      -3.625
      -1.231
       1.038
       2.519
       2.976
       2.592
       1.723
       0.670
      -0.290
      -0.739
      -0.246
       1.150
       2.671
       3.243
       2.371
       0.537
      -1.310
      -2.618
      -3.534
      -4.395
      -5.063
      -4.914
      -3.446
      -0.811
       2.221
       4.741
       6.171
       6.395
       5.556
       3.771
       1.079
      -2.271
      -5.511
      -7.441
      -7.024
      -4.056
       0.571
       5.211
       8.154
       8.296
       5.530
       0.749
      -4.539
      -8.760
     -10.688
      -9.672
      -5.840
      -0.240
       5.411
       9.405
      10.709
       9.139
       5.177
      -0.149
      -5.304
      -8.605
      -8.992
      -6.633
      -2.749
       1.199
       4.169
       5.617
       5.324
       3.458
       0.785
      -1.473
      -2.266
      -1.377
       0.471
       2.105
       2.573
       1.605
      -0.285
      -2.072
      -2.786
      -2.099
      -0.493
       1.149
       2.165
       2.392
       1.987
       1.157
       0.152
      -0.619
      -0.696
       0.061
       1.198
       1.899
       1.617
       0.539
      -0.599
      -1.156
      -1.082
      -0.852
      -0.985
      -1.632
      -2.519
      -3.166
      -3.157
      -2.288
      -0.639
       1.400
       3.196
       4.068
       3.541
       1.611
      -1.063
      -3.259
      -3.767
      -2.217
       0.507
       2.815
       3.531
       2.619
       0.944
      -0.526
      -1.303
      -1.416
      -1.187
      -1.041
      -1.306
      -1.955
      -2.497
      -2.283
      -1.062
       0.742
       2.284
       2.822
       2.076
       0.318
      -1.684
      -2.869
      -2.383
      -0.193
       2.686
       4.749
       4.948
       3.284
       0.636
      -1.851
      -3.298
      -3.345
      -2.201
      -0.553
       0.737
       1.042
       0.302
      -0.952
      -1.909
      -1.939
      -0.904
       0.808
       2.513
       3.575
       3.692
       2.940
       1.582
      -0.071
      -1.602
      -2.506
      -2.514
      -1.949
      -1.550
      -1.761
      -2.205
      -2.035
      -0.881
       0.606
       1.249
       0.497
      -0.921
      -1.561
      -0.580
       1.458
       3.062
       3.074
       1.539
      -0.523
      -2.006
      -2.358
      -1.539
       0.336
       3.050
       5.976
       7.928
       7.632
       4.602
      -0.331
      -5.315
      -8.429
      -8.668
      -6.357
      -2.771
       0.719
       3.310
       4.746
       4.894
       3.634
       1.267
      -1.162
      -2.317
      -1.607
       0.167
       1.341
       0.743
      -1.350
      -3.520
      -4.360
      -3.345
      -0.890
       2.067
       4.398
       5.037
       3.373
      -0.257
      -4.437
      -7.190
      -6.988
      -3.643
       1.455
       5.937
       7.621
       5.665
       1.041
      -4.046
      -7.417
      -7.951
      -5.733
      -1.583
       3.358
       7.685
       9.858
       8.845
       4.960
      -0.018
      -3.886
      -5.471
      -5.150
      -3.982
      -2.509
      -0.564
       1.864
       3.916
       4.335
       2.666
      -0.144
      -2.437
      -3.106
      -2.218
      -0.588
       0.984
       2.026
       2.244
       1.434
      -0.327
      -2.516
      -4.329
      -5.054
      -4.340
      -2.308
       0.422
       2.835
       3.916
       3.165
       0.866
      -2.055
      -4.407
      -5.089
      -3.449
       0.268
       4.648
       7.524
       7.161
       3.449
      -1.891
      -6.309
      -7.815
      -5.818
      -1.150
       4.389
       8.678
      10.028
       7.886
       3.138
      -2.264
      -6.219
      -7.412
      -5.779
      -2.386
       1.118
       3.229
       3.276
       1.717
      -0.195
      -1.216
      -0.852
       0.411
       1.510
       1.514
       0.163
      -1.986
      -3.770
      -3.911
      -1.742
       2.154
       5.936
       7.424
       5.477
       0.805
      -4.427
      -7.913
      -8.450
      -6.280
      -2.577
       1.246
       3.949
       4.741
       3.585
       1.363
      -0.473
      -0.757
       0.552
       2.201
       2.444
       0.340
      -3.369
      -6.552
      -7.020
      -3.946
       1.612
       7.303
      10.687
      10.285
       6.086
      -0.501
      -7.082
     -11.093
     -10.840
      -6.375
       0.368
       6.391
       9.078
       7.490
       2.754
      -2.676
      -6.412
      -7.261
      -5.463
      -2.120
       1.544
       4.564
       6.236
       6.133
       4.302
       1.380
      -1.668
      -3.992
      -5.061
      -4.558
      -2.339
       1.293
       5.301
       8.100
       8.295
       5.489
       0.615
      -4.413
      -7.531
      -7.451
      -4.236
       0.698
       5.198
       7.358
       6.377
       2.830
      -1.779
      -5.788
      -7.973
      -7.773
      -5.265
      -1.089
       3.639
       7.508
       9.227
       8.160
       4.648
      -0.179
      -4.956
      -8.584
     -10.409
     -10.162
      -7.844
      -3.760
       1.334
       6.217
       9.562
      10.532
       9.161
       6.202
       2.585
      -1.052
      -4.358
      -6.879
      -7.898
      -6.875
      -4.081
      -0.622
       2.269
       3.960
       4.481
       4.033
       2.623
       0.262
      -2.591
      -5.012
      -6.178
      -5.912
      -4.612
      -2.734
      -0.511
       1.794
       3.557
       3.964
       2.685
       0.386
      -1.577
      -2.126
      -1.193
       0.440
       1.925
       2.899
       3.386
       3.397
       2.791
       1.577
       0.247
      -0.344
       0.385
       2.141
       3.831
       4.311
       3.205
       1.071
      -1.197
      -3.128
      -4.810
      -6.298
      -7.056
      -6.256
      -3.734
      -0.503
       1.877
       2.467
       1.514
      -0.016
      -1.252
      -1.733
      -1.176
       0.635
       3.488
       6.404
       7.988
       7.346
       4.739
       1.388
      -1.313
      -2.484
      -1.980
      -0.221
       2.055
       3.974
       4.752
       4.001
       1.942
      -0.698
      -3.052
      -4.490
      -4.825
      -4.325
      -3.522
      -2.892
      -2.626
      -2.682
      -2.973
      -3.401
      -3.743
      -3.589
      -2.513
      -0.402
       2.296
       4.677
       5.861
       5.524
       4.071
       2.360
       1.242
       1.234
       2.373
       4.211
       5.973
       6.875
       6.520
       5.124
       3.389
       2.030
       1.298
       0.866
       0.178
      -1.062
      -2.658
      -4.120
      -5.064
      -5.417
      -5.241
      -4.476
      -3.028
      -1.170
       0.284
       0.441
      -0.907
      -2.983
      -4.579
      -4.928
      -4.091
      -2.539
      -0.506
       2.130
       5.309
       8.246
       9.617
       8.480
       5.128
       1.039
      -2.083
      -3.334
      -2.917
      -1.722
      -0.720
      -0.586
      -1.577
      -3.486
      -5.632
      -7.007
      -6.683
      -4.311
      -0.419
       3.719
       6.621
       7.249
       5.464
       2.055
      -1.680
      -4.550
      -5.887
      -5.617
      -4.122
      -2.065
      -0.229
       0.679
       0.218
      -1.638
      -4.415
      -7.106
      -8.356
      -6.969
      -2.595
       3.807
      10.168
      14.242
      14.729
      11.798
       6.712
       1.033
      -3.859
      -6.794
      -6.859
      -3.847
       1.187
       6.001
       8.185
       6.526
       1.653
      -4.568
     -10.249
     -14.273
     -16.216
     -15.903
     -13.282
      -8.703
      -3.061
       2.520
       7.143
      10.238
      11.373
      10.198
       6.778
       1.968
      -2.680
      -5.537
      -5.629
      -3.002
       1.407
       6.217
      10.121
      12.176
      11.862
       9.105
       4.464
      -0.753
      -4.841
      -6.497
      -5.479
      -2.609
       0.826
       3.703
       5.313
       5.295
       3.582
       0.449
      -3.461
      -7.253
     -10.029
     -11.197
     -10.718
      -9.031
      -6.615
      -3.525
       0.573
       5.784
      11.318
      15.516
      16.721
      14.341
       9.190
       2.936
      -2.718
      -6.426
      -7.261
      -4.935
      -0.308
       4.446
       6.628
       4.516
      -1.503
      -9.103
     -15.406
     -18.466
     -17.798
     -13.865
      -7.390
       0.754
       9.255
      16.401
      20.689
      21.440
      18.871
      13.663
       6.582
      -1.532
      -9.563
     -16.062
     -19.511
     -18.897
     -14.340
      -7.379
      -0.504
       3.965
       4.911
       2.667
      -1.502
      -6.104
      -9.850
     -11.813
     -11.498
      -8.948
      -4.873
      -0.587
       2.440
       3.292
       2.079
      -0.245
      -2.527
      -3.924
      -3.928
      -2.229
       1.151
       5.503
       9.439
      11.583
      11.526
      10.125
       8.800
       8.423
       8.821
       9.222
       9.047
       8.293
       7.364
       6.724
       6.683
       7.302
       8.316
       9.101
       8.838
       6.880
       3.123
      -1.893
      -7.226
     -11.913
     -15.252
     -16.917
     -16.967
     -15.773
     -13.889
     -11.897
     -10.309
      -9.521
      -9.705
     -10.581
     -11.275
     -10.637
      -8.018
      -3.916
       0.265
       3.211
       4.558
       4.820
       4.590
       3.941
       2.649
       0.885
      -0.469
      -0.324
       1.730
       5.031
       8.304
      10.505
      11.348
      11.233
      10.838
      10.711
      11.074
      11.813
      12.544
      12.677
      11.529
       8.559
       3.687
      -2.467
      -8.630
     -13.285
     -15.322
     -14.554
     -11.711
      -7.965
      -4.411
      -1.853
      -0.797
      -1.383
      -3.301
      -5.903
      -8.496
     -10.504
     -11.366
     -10.489
      -7.592
      -3.241
       1.107
       3.887
       4.528
       3.851
       3.368
       4.112
       6.064
       8.476
      10.502
      11.484
      10.932
       8.692
       5.329
       2.207
       0.953
       2.541
       6.573
      11.224
      13.967
      12.841
       7.521
      -0.503
      -8.749
     -14.938
     -17.813
     -17.287
     -14.181
      -9.859
      -5.821
      -3.175
      -2.153
      -2.048
      -1.752
      -0.556
       1.356
       2.988
       3.094
       0.925
      -3.202
      -7.920
     -11.523
     -12.876
     -11.855
      -9.109
      -5.560
      -2.043
       0.859
       2.952
       4.493
       5.983
       7.709
       9.384
      10.295
       9.948
       8.682
       7.590
       7.701
       9.105
      10.877
      11.845
      11.467
      10.012
       8.000
       5.641
       2.879
      -0.107
      -2.692
      -4.270
      -4.942
      -5.566
      -6.877
      -8.605
      -9.657
      -9.278
      -7.860
      -6.409
      -5.291
      -3.773
      -0.939
       3.054
       6.773
       8.527
       7.534
       4.178
      -0.576
      -5.718
     -10.139
     -12.383
     -10.966
      -5.396
       2.972
      11.193
      16.152
      16.170
      11.667
       4.616
      -2.580
      -7.923
     -10.107
      -8.587
      -3.809
       2.596
       8.171
      10.653
       9.104
       4.315
      -1.794
      -7.268
     -10.837
     -11.939
     -10.442
      -6.636
      -1.479
       3.388
       6.190
       5.862
       2.621
      -2.089
      -6.256
      -8.226
      -7.401
      -4.362
      -0.450
       2.848
       4.402
       3.746
       1.265
      -1.814
      -3.773
      -3.127
       0.535
       6.049
      10.918
      12.402
       8.983
       1.307
      -8.021
     -15.567
     -18.430
     -15.272
      -6.803
       4.393
      14.735
      20.976
      21.455
      16.685
       8.991
       1.381
      -3.750
      -5.432
      -4.197
      -1.604
       0.508
       0.849
      -0.789
      -3.608
      -6.365
      -7.955
      -7.696
      -5.440
      -1.668
       2.540
       5.808
       6.968
       5.537
       1.955
      -2.509
      -6.166
      -7.572
      -6.215
      -2.921
       0.409
       1.823
       0.557
      -2.478
      -5.412
      -6.759
      -6.212
      -4.371
      -1.943
       0.681
       3.237
       5.310
       6.505
       6.894
       7.074
       7.576
       8.149
       7.789
       5.627
       1.886
      -2.048
      -4.544
      -4.798
      -3.196
      -0.855
       1.097
       1.886
       1.106
      -1.237
      -4.475
      -7.218
      -7.935
      -5.957
      -2.064
       1.975
       4.521
       4.879
       3.301
       0.508
      -2.613
      -5.055
      -5.851
      -4.520
      -1.487
       1.989
       4.450
       4.991
       3.630
       1.123
      -1.509
      -3.394
      -4.015
      -3.244
      -1.377
       0.811
       2.232
       2.061
       0.444
      -1.350
      -1.665
       0.348
       4.004
       7.454
       8.915
       7.822
       4.988
       1.685
      -1.397
      -4.281
      -6.950
      -8.712
      -8.511
      -5.855
      -1.440
       3.123
       6.157
       6.652
       4.488
       0.303
      -4.697
      -8.941
     -10.913
      -9.764
      -5.800
      -0.447
       4.399
       7.266
       7.680
       6.132
       3.608
       1.103
      -0.604
      -1.036
      -0.130
       1.613
       3.169
       3.418
       1.777
      -1.411
      -5.015
      -7.653
      -8.282
      -6.605
      -3.170
       0.854
       4.118
       5.534
       4.611
       1.678
      -2.112
      -5.157
      -6.123
      -4.644
      -1.536
       1.688
       3.689
       3.962
       2.879
       1.210
      -0.338
      -1.194
      -0.821
       1.101
       4.149
       6.893
       7.511
       5.037
       0.232
      -4.718
      -7.509
      -7.000
      -3.619
       1.108
       5.320
       7.424
       6.581
       3.132
      -1.345
      -4.722
      -5.526
      -3.769
      -0.736
       2.053
       3.775
       4.461
       4.512
       4.201
       3.576
       2.640
       1.513
       0.396
      -0.627
      -1.732
      -3.229
      -5.155
      -6.978
      -7.775
      -6.861
      -4.341
      -1.047
       2.107
       4.679
       6.593
       7.601
       7.113
       4.735
       0.941
      -2.930
      -5.411
      -5.710
      -3.966
      -0.985
       2.190
       4.564
       5.376
       4.305
       1.669
      -1.598
      -4.294
      -5.466
      -4.808
      -2.749
      -0.208
       1.830
       2.692
       2.208
       0.699
      -1.168
      -2.579
      -2.791
      -1.375
       1.524
       4.990
       7.454
       7.364
       4.198
      -0.942
      -5.763
      -8.057
      -6.932
      -3.162
       1.427
       4.960
       6.253
       5.089
       2.196
      -1.039
      -3.189
      -3.541
      -2.483
      -1.140
      -0.546
      -0.992
      -2.006
      -2.808
      -2.810
      -1.848
      -0.172
       1.690
       3.086
       3.463
       2.622
       0.880
      -1.048
      -2.438
      -2.973
      -2.855
      -2.478
      -1.972
      -1.084
       0.419
       2.219
       3.400
       3.051
       0.979
      -2.109
      -5.069
      -6.949
      -7.290
      -6.018
      -3.253
       0.643
       4.838
       8.024
       8.894
       6.918
       2.816
      -1.726
      -4.960
      -5.915
      -4.620
      -1.786
       1.606
       4.552
       6.168
       5.911
       3.809
       0.517
      -2.912
      -5.424
      -6.341
      -5.556
      -3.501
      -0.871
       1.720
       3.885
       5.353
       5.826
       5.081
       3.267
       1.030
      -0.741
      -1.387
      -0.837
       0.351
       1.255
       1.078
      -0.346
      -2.357
      -3.789
      -3.654
      -1.698
       1.524
       4.925
       7.230
       7.308
       4.646
      -0.148
      -5.295
      -8.625
      -8.787
      -6.016
      -1.856
       1.812
       3.678
       3.333
       1.186
      -1.720
      -3.964
      -4.287
      -2.264
       1.387
       5.154
       7.506
       7.550
       5.266
       1.366
      -2.969
      -6.409
      -7.906
      -7.127
      -4.636
      -1.601
       0.823
       2.043
       2.151
       1.659
       1.150
       1.027
       1.372
       1.847
       1.796
       0.665
      -1.489
      -3.885
      -5.480
      -5.608
      -4.221
      -1.626
       1.737
       5.099
       7.147
       6.469
       2.643
      -3.029
      -8.039
     -10.193
      -8.916
      -5.307
      -1.108
       2.396
       4.710
       5.814
       5.832
       5.042
       3.932
       2.961
       2.173
       1.161
      -0.435
      -2.293
      -3.375
      -2.683
      -0.215
       2.795
       4.626
       4.188
       1.658
      -1.679
      -4.144
      -4.507
      -2.588
       0.644
       3.565
       4.731
       3.596
       0.708
      -2.627
      -4.985
      -5.419
      -3.834
      -1.042
       1.585
       2.812
       2.230
       0.480
      -1.185
      -1.673
      -0.635
       1.447
       3.569
       4.672
       4.099
       1.929
      -1.005
      -3.490
      -4.562
      -4.010
      -2.428
      -0.795
       0.088
      -0.081
      -1.134
      -2.626
      -3.967
      -4.501
      -3.689
      -1.406
       1.851
       5.048
       7.002
       6.889
       4.658
       1.155
      -2.158
      -3.845
      -3.234
      -0.767
       2.315
       4.725
       5.726
       5.202
       3.415
       0.859
      -1.702
      -3.329
      -3.339
