Origin Time       04/04/2011 11:31:40
Lat.              29.6 N	
Long.             80.8 E	
Depth (Km)         10.0
Magnitude         5.7
 Region           NEPAL-INDIA-BORDER-REGION                                        
 Above details taken from IMD 
   
Station Code      RUD
Station Lat.       30.287
Station Long.      78.983
Station Height(m)  859.0
Site Class        A   Vs30 between 700 m/sec to 1400 m/sec * 
Record Time       04.04.2011 11:32:05.214
Sampling Rate     200. Hz
 Record Duration   89.040 Sec.
 Direction         Vert. (Up positive)
Max. Acceleration     -3.654 cm/sec**2
     
  * For reference see Site Classification link of website 
     
 Base Line Corrected and Low Pass Filtered (Cut Off at 35 Hz) Time History
 Acceleration data in cm/sec**2
    
[...]
       0.533
       0.506
       0.467
       0.397
       0.301
       0.199
       0.081
      -0.066
      -0.194
      -0.238
      -0.211
      -0.197
      -0.251
      -0.362
      -0.510
      -0.681
      -0.840
      -0.947
      -1.015
      -1.082
      -1.136
      -1.129
      -1.042
      -0.888
      -0.658
      -0.347
      -0.014
       0.247
       0.400
       0.471
       0.476
       0.406
       0.288
       0.184
       0.125
       0.115
       0.167
       0.292
       0.449
       0.576
       0.668
       0.756
       0.829
       0.841
       0.785
       0.699
       0.604
       0.503
       0.426
       0.409
       0.415
       0.359
       0.205
      -0.014
      -0.253
      -0.473
      -0.629
      -0.701
      -0.737
      -0.800
      -0.879
      -0.923
      -0.929
      -0.945
      -0.986
      -1.009
      -0.982
      -0.903
      -0.763
      -0.566
      -0.370
      -0.244
      -0.186
      -0.142
      -0.081
      -0.005
       0.102
       0.259
       0.422
       0.514
       0.516
       0.475
       0.437
       0.421
       0.449
       0.518
       0.561
       0.508
       0.375
       0.248
       0.180
       0.161
       0.174
       0.202
       0.192
       0.098
      -0.049
      -0.168
      -0.218
      -0.227
      -0.226
      -0.240
      -0.295
      -0.389
      -0.445
      -0.381
      -0.208
       0.000
       0.214
       0.451
       0.703
       0.920
       1.080
       1.195
       1.262
       1.265
       1.220
       1.159
       1.087
       1.017
       0.995
       1.053
       1.129
       1.123
       1.014
       0.861
       0.703
       0.528
       0.328
       0.115
      -0.102
      -0.309
      -0.450
      -0.468
      -0.383
      -0.266
      -0.170
      -0.121
      -0.164
      -0.328
      -0.564
      -0.791
      -0.988
      -1.184
      -1.379
      -1.536
      -1.649
      -1.735
      -1.789
      -1.789
      -1.748
      -1.698
      -1.639
      -1.559
      -1.484
      -1.441
      -1.402
      -1.320
      -1.212
      -1.138
      -1.110
      -1.080
      -1.025
      -0.955
      -0.872
      -0.765
      -0.647
      -0.535
      -0.406
      -0.225
       0.000
       0.252
       0.556
       0.939
       1.347
       1.683
       1.914
       2.082
       2.218
       2.313
       2.362
       2.367
       2.310
       2.180
       2.015
       1.872
       1.761
       1.670
       1.613
       1.594
       1.550
       1.402
       1.157
       0.892
       0.647
       0.399
       0.123
      -0.180
      -0.500
      -0.808
      -1.033
      -1.126
      -1.124
      -1.101
      -1.086
      -1.072
      -1.081
      -1.150
      -1.263
      -1.370
      -1.458
      -1.530
      -1.549
      -1.450
      -1.225
      -0.922
      -0.587
      -0.256
       0.020
       0.210
       0.339
       0.443
       0.502
       0.479
       0.401
       0.339
       0.315
       0.306
       0.305
       0.329
       0.362
       0.363
       0.317
       0.226
       0.066
      -0.170
      -0.423
      -0.609
      -0.703
      -0.723
      -0.669
      -0.526
      -0.316
      -0.081
       0.168
       0.422
       0.619
       0.684
       0.616
       0.480
       0.330
       0.208
       0.170
       0.246
       0.388
       0.507
       0.570
       0.593
       0.581
       0.526
       0.438
       0.325
       0.149
      -0.117
      -0.427
      -0.690
      -0.862
      -0.947
      -0.951
      -0.893
      -0.839
      -0.849
      -0.901
      -0.922
      -0.886
      -0.816
      -0.721
      -0.586
      -0.413
      -0.206
       0.054
       0.376
       0.707
       0.983
       1.197
       1.379
       1.514
       1.575
       1.578
       1.565
       1.530
       1.447
       1.345
       1.287
       1.296
       1.348
       1.420
       1.482
       1.473
       1.347
       1.124
       0.849
       0.528
       0.147
      -0.257
      -0.637
      -1.000
      -1.380
      -1.763
      -2.102
      -2.377
      -2.587
      -2.700
      -2.693
      -2.608
      -2.515
      -2.438
      -2.362
      -2.287
      -2.218
      -2.124
      -1.979
      -1.812
      -1.665
      -1.517
      -1.318
      -1.069
      -0.806
      -0.532
      -0.227
       0.096
       0.401
       0.677
       0.922
       1.108
       1.210
       1.267
       1.332
       1.411
       1.491
       1.601
       1.775
       1.987
       2.182
       2.347
       2.500
       2.625
       2.684
       2.671
       2.596
       2.443
       2.204
       1.926
       1.667
       1.432
       1.206
       1.012
       0.889
       0.810
       0.710
       0.561
       0.367
       0.129
      -0.137
      -0.370
      -0.518
      -0.600
      -0.673
      -0.747
      -0.797
      -0.823
      -0.836
      -0.818
      -0.748
      -0.654
      -0.569
      -0.474
      -0.337
      -0.180
      -0.043
       0.077
       0.206
       0.318
       0.357
       0.317
       0.241
       0.171
       0.136
       0.167
       0.255
       0.323
       0.304
       0.209
       0.083
      -0.086
      -0.334
      -0.645
      -0.966
      -1.271
      -1.551
      -1.778
      -1.934
      -2.053
      -2.169
      -2.262
      -2.280
      -2.220
      -2.098
      -1.896
      -1.587
      -1.197
      -0.783
      -0.384
      -0.027
       0.237
       0.380
       0.447
       0.505
       0.560
       0.588
       0.602
       0.633
       0.671
       0.691
       0.701
       0.730
       0.775
       0.825
       0.913
       1.062
       1.238
       1.397
       1.548
       1.728
       1.908
       2.010
       1.978
       1.786
       1.426
       0.941
       0.447
       0.051
      -0.229
      -0.421
      -0.519
      -0.498
      -0.390
      -0.267
      -0.183
      -0.171
      -0.266
      -0.467
      -0.706
      -0.914
      -1.090
      -1.256
      -1.385
      -1.430
      -1.401
      -1.337
      -1.250
      -1.125
      -0.967
      -0.771
      -0.502
      -0.143
       0.233
       0.529
       0.714
       0.829
       0.917
       1.003
       1.112
       1.228
       1.279
       1.221
       1.094
       0.968
       0.849
       0.701
       0.522
       0.342
       0.167
       0.001
      -0.108
      -0.114
      -0.030
       0.093
       0.226
       0.353
       0.444
       0.490
       0.538
       0.631
       0.742
       0.821
       0.863
       0.885
       0.862
       0.753
       0.574
       0.370
       0.153
      -0.087
      -0.338
      -0.587
      -0.851
      -1.139
      -1.407
      -1.608
      -1.763
      -1.914
      -2.067
      -2.200
      -2.311
      -2.389
      -2.372
      -2.210
      -1.929
      -1.601
      -1.260
      -0.910
      -0.577
      -0.296
      -0.062
       0.137
       0.292
       0.410
       0.543
       0.729
       0.931
       1.088
       1.187
       1.236
       1.197
       1.020
       0.717
       0.345
      -0.044
      -0.403
      -0.665
      -0.788
      -0.792
      -0.705
      -0.517
      -0.237
       0.055
       0.258
       0.351
       0.373
       0.358
       0.326
       0.307
       0.317
       0.324
       0.306
       0.301
       0.345
       0.405
       0.417
       0.362
       0.259
       0.134
       0.035
       0.046
       0.214
       0.479
       0.735
       0.922
       1.024
       1.022
       0.910
       0.731
       0.529
       0.311
       0.078
      -0.111
      -0.195
      -0.168
      -0.062
       0.104
       0.296
       0.432
       0.445
       0.346
       0.182
      -0.034
      -0.298
      -0.558
      -0.747
      -0.838
      -0.826
      -0.707
      -0.526
      -0.398
      -0.422
      -0.583
      -0.791
      -0.961
      -1.034
      -0.958
      -0.736
      -0.459
      -0.233
      -0.087
       0.002
       0.052
       0.084
       0.145
       0.254
       0.370
       0.451
       0.528
       0.663
       0.864
       1.095
       1.311
       1.448
       1.418
       1.192
       0.860
       0.561
       0.371
       0.296
       0.312
       0.366
       0.373
       0.294
       0.180
       0.099
       0.052
      -0.001
      -0.060
      -0.088
      -0.067
       0.016
       0.179
       0.401
       0.598
       0.704
       0.735
       0.731
       0.683
       0.564
       0.396
       0.219
       0.036
      -0.167
      -0.366
      -0.531
      -0.667
      -0.783
      -0.873
      -0.956
      -1.103
      -1.355
      -1.650
      -1.884
      -2.006
      -2.011
      -1.884
      -1.632
      -1.318
      -1.018
      -0.756
      -0.539
      -0.402
      -0.390
      -0.511
      -0.765
      -1.156
      -1.630
      -2.045
      -2.279
      -2.329
      -2.269
      -2.142
      -1.950
      -1.699
      -1.396
      -1.035
      -0.637
      -0.273
       0.007
       0.227
       0.433
       0.623
       0.778
       0.908
       1.014
       1.048
       0.968
       0.800
       0.601
       0.393
       0.190
       0.033
      -0.057
      -0.123
      -0.227
      -0.376
      -0.536
      -0.671
      -0.726
      -0.625
      -0.357
      -0.018
       0.277
       0.497
       0.672
       0.810
       0.903
       0.971
       1.040
       1.117
       1.214
       1.360
       1.542
       1.681
       1.725
       1.719
       1.739
       1.796
       1.853
       1.892
       1.899
       1.831
       1.669
       1.451
       1.232
       1.026
       0.831
       0.666
       0.536
       0.413
       0.295
       0.227
       0.230
       0.239
       0.180
       0.055
      -0.085
      -0.224
      -0.377
      -0.541
      -0.705
      -0.869
      -1.013
      -1.096
      -1.123
      -1.172
      -1.295
      -1.427
      -1.449
      -1.304
      -1.008
      -0.608
      -0.175
       0.206
       0.500
       0.733
       0.918
       0.998
       0.924
       0.740
       0.529
       0.339
       0.181
       0.078
       0.028
      -0.019
      -0.111
      -0.242
      -0.375
      -0.475
      -0.490
      -0.352
      -0.068
       0.241
       0.447
       0.518
       0.489
       0.384
       0.218
       0.033
      -0.136
      -0.295
      -0.461
      -0.627
      -0.785
      -0.945
      -1.084
      -1.141
      -1.099
      -1.049
      -1.090
      -1.233
      -1.412
      -1.556
      -1.605
      -1.494
      -1.203
      -0.788
      -0.312
       0.206
       0.746
       1.244
       1.634
       1.897
       2.022
       1.976
       1.764
       1.472
       1.190
       0.934
       0.677
       0.402
       0.086
      -0.304
      -0.756
      -1.178
      -1.479
      -1.654
      -1.742
      -1.764
      -1.725
      -1.643
      -1.496
      -1.212
      -0.746
      -0.145
       0.497
       1.119
       1.674
       2.107
       2.401
       2.600
       2.741
       2.798
       2.730
       2.544
       2.268
       1.904
       1.464
       0.999
       0.547
       0.106
      -0.321
      -0.680
      -0.941
      -1.138
      -1.308
      -1.408
      -1.373
      -1.194
      -0.930
      -0.667
      -0.504
      -0.521
      -0.704
      -0.934
      -1.102
      -1.196
      -1.250
      -1.262
      -1.228
      -1.172
      -1.106
      -0.979
      -0.742
      -0.421
      -0.085
       0.218
       0.466
       0.649
       0.790
       0.928
       1.049
       1.092
       1.054
       1.040
       1.156
       1.388
       1.625
       1.764
       1.741
       1.518
       1.113
       0.607
       0.089
      -0.389
      -0.773
      -1.003
      -1.073
      -1.072
      -1.086
      -1.125
      -1.158
      -1.178
      -1.195
      -1.207
      -1.236
      -1.323
      -1.455
      -1.533
      -1.467
      -1.256
      -0.952
      -0.598
      -0.239
       0.057
       0.264
       0.436
       0.645
       0.915
       1.233
       1.585
       1.931
       2.211
       2.418
       2.610
       2.814
       2.962
       2.968
       2.834
       2.621
       2.381
       2.145
       1.915
       1.643
       1.245
       0.709
       0.150
      -0.273
      -0.468
      -0.418
      -0.167
       0.170
       0.433
       0.522
       0.440
       0.226
      -0.119
      -0.574
      -1.053
      -1.449
      -1.708
      -1.813
      -1.767
      -1.629
      -1.515
      -1.513
      -1.626
      -1.823
      -2.101
      -2.434
      -2.739
      -2.915
      -2.917
      -2.728
      -2.356
      -1.877
      -1.444
      -1.183
      -1.121
      -1.229
      -1.482
      -1.826
      -2.158
      -2.384
      -2.479
      -2.439
      -2.239
      -1.874
      -1.395
      -0.867
      -0.336
       0.144
       0.502
       0.715
       0.840
       0.941
       1.026
       1.111
       1.263
       1.546
       1.953
       2.419
       2.873
       3.227
       3.407
       3.421
       3.378
       3.374
       3.403
       3.399
       3.317
       3.134
       2.849
       2.508
       2.198
       1.967
       1.779
       1.605
       1.466
       1.378
       1.290
       1.137
       0.912
       0.653
       0.403
       0.217
       0.157
       0.222
       0.319
       0.341
       0.228
      -0.051
      -0.506
      -1.072
      -1.605
      -1.988
      -2.211
      -2.319
      -2.341
      -2.310
      -2.294
      -2.338
      -2.438
      -2.584
      -2.796
      -3.073
      -3.351
      -3.557
      -3.654
      -3.616
      -3.414
      -3.069
      -2.660
      -2.251
      -1.847
      -1.462
      -1.168
      -1.028
      -1.016
      -1.046
      -1.016
      -0.818
      -0.361
       0.341
       1.137
       1.852
       2.391
       2.730
       2.864
       2.816
       2.629
       2.331
       1.923
       1.463
       1.074
       0.847
       0.772
       0.792
       0.868
       0.958
       1.000
       0.958
       0.864
       0.761
       0.656
       0.549
       0.467
       0.422
       0.405
       0.424
       0.510
       0.627
       0.658
       0.519
       0.240
      -0.097
      -0.456
      -0.834
      -1.216
      -1.576
      -1.892
      -2.116
      -2.181
      -2.081
      -1.882
      -1.647
      -1.380
      -1.088
      -0.817
      -0.594
      -0.376
      -0.118
       0.170
       0.453
       0.730
       1.010
       1.279
       1.525
       1.740
       1.885
       1.900
       1.801
       1.690
       1.648
       1.653
       1.644
       1.606
       1.552
       1.478
       1.373
       1.228
       1.007
       0.666
       0.230
      -0.188
      -0.482
      -0.623
      -0.620
      -0.479
      -0.257
      -0.074
      -0.031
      -0.137
      -0.342
      -0.578
      -0.755
      -0.779
      -0.640
      -0.437
      -0.275
      -0.185
      -0.158
      -0.203
      -0.322
      -0.495
      -0.704
      -0.947
      -1.185
      -1.342
      -1.397
      -1.413
      -1.436
      -1.423
      -1.315
      -1.127
      -0.928
      -0.770
      -0.684
      -0.668
      -0.658
      -0.554
      -0.332
      -0.062
       0.171
       0.340
       0.428
       0.408
       0.295
       0.184
       0.161
       0.234
       0.367
       0.543
       0.733
       0.883
       0.948
       0.929
       0.837
       0.687
       0.539
       0.479
       0.510
       0.540
       0.496
       0.404
       0.323
       0.256
       0.182
       0.099
       0.016
      -0.075
      -0.167
      -0.231
      -0.274
      -0.340
      -0.429
      -0.464
      -0.385
      -0.211
      -0.004
       0.187
       0.308
       0.302
       0.188
       0.077
       0.081
       0.244
       0.565
       1.014
       1.498
       1.857
       1.988
       1.910
       1.719
       1.502
       1.321
       1.204
       1.108
       0.947
       0.692
       0.411
       0.181
       0.022
      -0.071
      -0.096
      -0.089
      -0.123
      -0.235
      -0.382
      -0.522
      -0.660
      -0.806
      -0.927
      -0.992
      -1.006
      -0.983
      -0.927
      -0.861
      -0.822
      -0.783
      -0.657
      -0.413
      -0.138
       0.045
       0.082
      -0.021
      -0.227
      -0.456
      -0.605
      -0.624
      -0.550
      -0.431
      -0.294
      -0.186
      -0.185
      -0.328
      -0.571
      -0.860
      -1.179
      -1.499
      -1.757
      -1.908
      -1.963
      -1.942
      -1.834
      -1.643
      -1.400
      -1.117
      -0.781
      -0.426
      -0.160
      -0.067
      -0.120
      -0.229
      -0.298
      -0.248
      -0.036
       0.281
       0.567
       0.723
       0.746
       0.677
       0.552
       0.435
       0.418
       0.530
       0.702
       0.849
       0.945
       0.989
       0.961
       0.845
       0.647
       0.365
      -0.008
      -0.423
      -0.789
      -1.066
      -1.296
      -1.512
      -1.671
      -1.719
      -1.644
      -1.461
      -1.184
      -0.861
      -0.576
      -0.375
      -0.241
      -0.149
      -0.094
      -0.035
       0.111
       0.376
       0.698
       1.010
       1.321
       1.676
       2.088
       2.532
       2.946
       3.215
       3.231
       2.994
       2.619
       2.223
       1.845
       1.504
       1.246
       1.094
       1.014
       0.960
       0.913
       0.844
       0.688
       0.414
       0.046
      -0.379
      -0.835
      -1.264
      -1.573
      -1.713
      -1.710
      -1.606
      -1.421
      -1.194
      -0.987
      -0.812
      -0.615
      -0.380
      -0.172
      -0.070
      -0.078
      -0.156
      -0.266
      -0.375
      -0.459
      -0.530
      -0.606
      -0.641
      -0.550
      -0.321
      -0.051
       0.168
       0.322
       0.419
       0.436
       0.361
       0.236
       0.122
       0.054
       0.050
       0.110
       0.193
       0.252
       0.313
       0.459
       0.696
       0.921
       1.028
       1.010
       0.920
       0.805
       0.714
       0.702
       0.775
       0.870
       0.910
       0.849
       0.662
       0.355
       0.008
      -0.262
      -0.408
      -0.472
      -0.488
      -0.428
      -0.270
      -0.055
       0.158
       0.344
       0.479
       0.530
       0.496
       0.431
       0.380
       0.353
       0.362
       0.414
       0.449
       0.361
       0.105
      -0.254
      -0.624
      -0.963
      -1.236
      -1.385
      -1.371
      -1.213
      -0.966
      -0.697
      -0.501
      -0.445
      -0.492
      -0.520
      -0.467
      -0.396
      -0.401
      -0.506
      -0.680
      -0.875
      -1.016
      -1.031
      -0.915
      -0.732
      -0.550
      -0.395
      -0.308
      -0.344
      -0.494
      -0.663
      -0.763
      -0.768
      -0.678
      -0.492
      -0.250
      -0.037
       0.091
       0.150
       0.171
       0.162
       0.146
       0.166
       0.232
       0.325
       0.458
       0.675
       0.949
       1.163
       1.215
       1.108
       0.909
       0.675
       0.439
       0.218
      -0.010
      -0.269
      -0.531
      -0.730
      -0.858
      -0.979
      -1.121
      -1.229
      -1.244
      -1.169
      -1.022
      -0.808
      -0.550
      -0.303
      -0.100
       0.073
       0.236
