Origin Time       14/12/2005 07:09:48 UTC
Lat.              30.9 N 
Long.             79.3 E 
Depth (Km)         25.7
Magnitude         5.2
 Region           Chamoli-Uttarakhand                                              
 Above details taken from IMD 
    
Station Code      RUD
Station Lat.       30.287  N
Station Long.      78.983  E
Station Height(m)  638.0
Site Class        A   Vs30 between 700 m/sec to 1400 m/sec * 
Record Time       14.12.2005 07:09:35.069 UTC
Sampling Rate     200. Hz
 Record Duration   36.965 Sec.
 Direction         N-S (N positive)
Max. Acceleration    -32.323 cm/sec**2
     
  * For reference see Site Classification link of website 
     
 Base Line Corrected and Low Pass Filtered (Cut Off at 35 Hz) Time History
 Acceleration data in cm/sec**2
    
[...]
       0.102
       0.680
       1.381
       1.926
       2.052
       1.685
       0.969
       0.155
      -0.516
      -0.860
      -0.783
      -0.343
       0.234
       0.629
       0.591
       0.052
      -0.862
      -1.908
      -2.801
      -3.283
      -3.194
      -2.561
      -1.628
      -0.749
      -0.156
       0.230
       0.739
       1.676
       3.017
       4.378
       5.250
       5.299
       4.524
       3.177
       1.562
      -0.146
      -1.892
      -3.580
      -4.945
      -5.629
      -5.430
      -4.425
      -2.846
      -0.870
       1.410
       3.799
       5.867
       7.040
       6.885
       5.369
       2.923
       0.280
      -1.840
      -3.030
      -3.301
      -2.965
      -2.400
      -1.862
      -1.438
      -1.086
      -0.712
      -0.274
       0.149
       0.392
       0.357
       0.178
       0.191
       0.665
       1.478
       2.051
       1.687
       0.129
      -2.141
      -4.186
      -5.273
      -5.324
      -4.769
      -4.026
      -3.155
      -1.942
      -0.219
       1.909
       4.065
       5.751
       6.544
       6.232
       4.873
       2.800
       0.579
      -1.129
      -1.853
      -1.611
      -0.949
      -0.586
      -0.877
      -1.546
      -1.938
      -1.584
      -0.612
       0.339
       0.638
       0.146
      -0.726
      -1.366
      -1.371
      -0.709
       0.364
       1.427
       2.032
       1.883
       1.028
      -0.075
      -0.756
      -0.523
       0.565
       1.810
       2.239
       1.267
      -0.804
      -2.887
      -3.831
      -3.215
      -1.549
       0.238
       1.507
       2.200
       2.569
       2.765
       2.692
       2.194
       1.315
       0.339
      -0.437
      -0.995
      -1.646
      -2.729
      -4.174
      -5.359
      -5.450
      -3.968
      -1.151
       2.147
       4.867
       6.228
       6.054
       4.803
       3.233
       1.929
       1.052
       0.425
      -0.213
      -1.037
      -2.065
      -3.122
      -3.875
      -4.017
      -3.525
      -2.750
      -2.186
      -2.064
      -2.127
      -1.822
      -0.771
       0.880
       2.554
       3.680
       4.048
       3.807
       3.190
       2.268
       0.940
      -0.866
      -2.942
      -4.704
      -5.392
      -4.491
      -2.087
       1.095
       4.038
       5.909
       6.378
       5.613
       4.029
       2.030
      -0.051
      -1.884
      -3.118
      -3.529
      -3.172
      -2.338
      -1.354
      -0.440
       0.240
       0.503
       0.249
      -0.324
      -0.696
      -0.332
       0.903
       2.580
       3.911
       4.142
       2.935
       0.588
      -1.991
      -3.652
      -3.601
      -1.866
       0.715
       2.976
       4.027
       3.598
       1.997
      -0.184
      -2.357
      -4.054
      -4.931
      -4.776
      -3.564
      -1.490
       1.065
       3.536
       5.164
       5.140
       3.042
      -0.668
      -4.563
      -6.890
      -6.596
      -3.993
      -0.521
       2.262
       3.675
       4.139
       4.493
       5.051
       5.273
       4.280
       1.686
      -1.958
      -5.403
      -7.332
      -6.981
      -4.479
      -0.811
       2.606
       4.548
       4.497
       2.802
       0.442
      -1.444
      -2.077
      -1.397
      -0.070
       0.934
       0.979
       0.190
      -0.700
      -0.995
      -0.617
      -0.122
      -0.146
      -0.830
      -1.732
      -2.220
      -1.934
      -0.965
       0.266
       1.266
       1.749
       1.779
       1.699
       1.866
       2.383
       2.982
       3.104
       2.167
      -0.027
      -2.945
      -5.391
      -6.153
      -4.849
      -2.269
       0.162
       1.441
       1.662
       1.717
       2.312
       3.183
       3.253
       1.564
      -1.785
      -5.435
      -7.468
      -6.569
      -2.883
       2.030
       6.131
       8.055
       7.672
       5.785
       3.343
       0.893
      -1.371
      -3.219
      -4.204
      -3.930
      -2.477
      -0.475
       1.292
       2.364
       2.697
       2.392
       1.474
       0.022
      -1.598
      -2.801
      -3.220
      -3.030
      -2.712
      -2.459
      -1.895
      -0.521
       1.570
       3.500
       4.218
       3.319
       1.293
      -0.946
      -2.683
      -3.628
      -3.696
      -2.776
      -0.796
       2.014
       4.942
       6.913
       6.946
       4.730
       0.957
      -2.941
      -5.600
      -6.463
      -5.884
      -4.556
      -2.844
      -0.634
       2.176
       5.061
       6.793
       6.164
       2.936
      -1.790
      -6.124
      -8.371
      -7.752
      -4.551
       0.162
       4.954
       8.461
       9.743
       8.487
       5.035
       0.220
      -4.901
      -9.280
     -11.975
     -12.206
      -9.568
      -4.359
       2.250
       8.502
      12.686
      13.746
      11.512
       6.595
       0.195
      -6.073
     -10.490
     -11.759
      -9.534
      -4.601
       1.454
       6.867
      10.254
      10.897
       8.777
       4.472
      -0.996
      -6.313
     -10.084
     -11.192
      -9.248
      -4.858
       0.561
       5.361
       8.286
       8.809
       7.111
       3.854
      -0.077
      -3.777
      -6.458
      -7.588
      -7.046
      -5.176
      -2.643
      -0.147
       1.801
       2.934
       3.234
       2.959
       2.600
       2.619
       3.093
       3.598
       3.503
       2.445
       0.597
      -1.436
      -2.954
      -3.455
      -2.792
      -1.195
       0.746
       2.216
       2.500
       1.417
      -0.456
      -2.064
      -2.551
      -1.855
      -0.702
       0.033
       0.052
      -0.185
       0.054
       1.067
       2.424
       3.276
       2.957
       1.407
      -0.813
      -2.819
      -3.796
      -3.310
      -1.507
       0.903
       2.907
       3.659
       2.910
       1.153
      -0.676
      -1.785
      -1.992
      -1.712
      -1.498
      -1.519
      -1.452
      -0.861
       0.292
       1.488
       2.011
       1.495
       0.184
      -1.260
      -2.157
      -2.123
      -1.173
       0.323
       1.797
       2.689
       2.639
       1.596
      -0.162
      -2.081
      -3.450
      -3.603
      -2.217
       0.393
       3.225
       4.963
       4.648
       2.209
      -1.503
      -5.151
      -7.473
      -7.728
      -5.915
      -2.750
       0.664
       3.333
       4.774
       5.093
       4.703
       3.940
       2.873
       1.489
       0.033
      -0.881
      -0.636
       0.831
       2.809
       4.174
       4.060
       2.369
      -0.240
      -2.787
      -4.506
      -5.119
      -4.737
      -3.583
      -1.844
       0.245
       2.246
       3.523
       3.526
       2.158
      -0.081
      -2.335
      -3.796
      -3.991
      -2.883
      -0.910
       1.085
       2.213
       2.095
       1.168
       0.375
       0.406
       1.108
       1.578
       0.926
      -0.858
      -2.691
      -3.130
      -1.517
       1.446
       4.178
       5.301
       4.421
       2.131
      -0.521
      -2.578
      -3.435
      -2.924
      -1.368
       0.478
       1.755
       2.014
       1.510
       0.957
       0.919
       1.365
       1.719
       1.315
      -0.118
      -2.238
      -4.270
      -5.449
      -5.419
      -4.300
      -2.439
      -0.142
       2.329
       4.568
       5.938
       5.797
       3.882
       0.558
      -3.209
      -6.136
      -7.078
      -5.517
      -1.886
       2.506
       5.987
       7.249
       5.915
       2.694
      -0.972
      -3.579
      -4.237
      -3.002
      -0.723
       1.438
       2.551
       2.274
       0.874
      -1.023
      -2.749
      -3.778
      -3.754
      -2.540
      -0.335
       2.295
       4.598
       5.962
       6.087
       4.888
       2.376
      -1.217
      -5.158
      -8.193
      -9.053
      -7.218
      -3.368
       0.922
       4.069
       5.335
       4.990
       3.788
       2.325
       0.845
      -0.525
      -1.578
      -2.105
      -2.105
      -1.804
      -1.454
      -1.128
      -0.684
       0.096
       1.324
       2.859
       4.287
       5.048
       4.660
       2.948
       0.134
      -3.196
      -6.195
      -7.929
      -7.664
      -5.252
      -1.388
       2.601
       5.402
       6.392
       5.810
       4.364
       2.645
       0.853
      -1.043
      -2.954
      -4.511
      -5.203
      -4.665
      -2.876
      -0.218
       2.586
       4.642
       5.178
       3.890
       1.158
      -2.029
      -4.456
      -5.175
      -3.868
      -0.919
       2.742
       5.917
       7.482
       6.797
       4.003
      -0.003
      -3.992
      -6.940
      -8.294
      -7.892
      -5.793
      -2.287
       1.960
       5.891
       8.327
       8.393
       5.863
       1.262
      -4.250
      -9.137
     -11.891
     -11.551
      -8.120
      -2.592
       3.498
       8.681
      11.913
      12.614
      10.617
       6.279
       0.631
      -4.723
      -8.102
      -8.420
      -5.647
      -0.841
       4.236
       7.745
       8.443
       6.169
       1.894
      -2.723
      -6.098
      -7.446
      -7.068
      -5.978
      -5.103
      -4.650
      -4.162
      -3.109
      -1.413
       0.531
       2.222
       3.366
       3.935
       4.033
       3.725
       2.926
       1.417
      -0.970
      -4.032
      -6.995
      -8.663
      -7.909
      -4.270
       1.674
       8.351
      13.716
      15.988
      14.296
       8.952
       1.336
      -6.507
     -12.463
     -14.977
     -13.493
      -8.531
      -1.403
       6.215
      12.629
      16.392
      16.579
      13.061
       6.660
      -1.001
      -7.971
     -12.580
     -13.939
     -12.117
      -7.994
      -2.912
       1.734
       4.850
       5.866
       4.772
       2.043
      -1.489
      -4.762
      -6.688
      -6.448
      -3.822
       0.628
       5.684
       9.894
      12.102
      11.825
       9.320
       5.401
       1.165
      -2.277
      -4.061
      -3.825
      -1.825
       1.173
       4.193
       6.370
       7.185
       6.573
       4.857
       2.514
      -0.054
      -2.571
      -4.763
      -6.249
      -6.618
      -5.660
      -3.578
      -1.001
       1.209
       2.295
       1.893
       0.142
      -2.432
      -5.145
      -7.368
      -8.645
      -8.730
      -7.576
      -5.281
      -2.060
       1.718
       5.426
       8.139
       8.800
       6.667
       1.856
      -4.392
     -10.079
     -13.294
     -13.020
      -9.402
      -3.483
       3.270
       9.348
      13.447
      14.625
      12.448
       7.132
      -0.351
      -8.326
     -14.762
     -17.862
     -16.655
     -11.313
      -3.072
       6.141
      14.181
      19.160
      19.896
      16.265
       9.268
       0.696
      -7.501
     -13.784
     -17.298
     -17.839
     -15.667
     -11.292
      -5.334
       1.482
       8.192
      13.518
      16.080
      14.951
      10.229
       3.188
      -4.153
      -9.888
     -13.008
     -13.659
     -12.700
     -10.905
      -8.416
      -4.831
       0.206
       6.369
      12.449
      16.758
      17.934
      15.657
      10.790
       4.865
      -0.676
      -4.978
      -7.805
      -9.247
      -9.443
      -8.498
      -6.564
      -3.958
      -1.207
       0.992
       1.919
       1.069
      -1.572
      -5.353
      -9.056
     -11.344
     -11.375
      -9.193
      -5.625
      -1.797
       1.382
       3.482
       4.510
       4.697
       4.308
       3.619
       3.026
       3.100
       4.415
       7.195
      11.052
      15.077
      18.241
      19.811
      19.490
      17.337
      13.699
       9.220
       4.768
       1.155
      -1.208
      -2.499
      -3.376
      -4.661
      -6.912
     -10.062
     -13.285
     -15.283
     -14.927
     -11.908
      -6.960
      -1.537
       2.860
       5.275
       5.529
       4.047
       1.499
      -1.419
      -3.975
      -5.343
      -4.799
      -2.137
       2.073
       6.650
      10.256
      11.823
      10.794
       7.258
       2.003
      -3.602
      -7.964
      -9.783
      -8.513
      -4.570
       0.817
       6.022
       9.558
      10.524
       8.827
       5.115
       0.473
      -3.988
      -7.438
      -9.418
      -9.793
      -8.679
      -6.447
      -3.699
      -1.132
       0.715
       1.678
       2.021
       2.274
       2.944
       4.213
       5.757
       6.821
       6.596
       4.715
       1.573
      -1.806
      -4.316
      -5.364
      -5.109
      -4.173
      -3.107
      -2.095
      -1.087
      -0.130
       0.483
       0.330
      -0.968
      -3.629
      -7.566
     -12.171
     -16.260
     -18.412
     -17.610
     -13.740
      -7.597
      -0.432
       6.573
      12.466
      16.380
      17.421
      14.911
       8.829
       0.067
      -9.725
     -18.590
     -24.717
     -26.763
     -24.104
     -17.058
      -6.975
       3.976
      13.317
      18.987
      20.040
      17.026
      11.722
       6.241
       2.000
      -0.727
      -2.382
      -3.236
      -2.833
      -0.246
       5.059
      12.437
      19.978
      25.243
      26.402
      23.118
      16.652
       9.196
       2.898
      -0.872
      -1.709
       0.054
       3.695
       8.308
      12.861
      16.213
      17.220
      14.995
       9.218
       0.374
     -10.212
     -20.575
     -28.540
     -32.323
     -31.153
     -25.664
     -17.833
     -10.359
      -5.615
      -4.704
      -7.163
     -11.466
     -15.887
     -19.096
     -20.196
     -18.511
     -13.575
      -5.481
       4.724
      15.013
      22.920
      26.435
      24.773
      18.605
       9.754
       0.618
      -6.468
      -9.833
      -8.934
      -4.502
       1.778
       7.930
      12.395
      14.469
      14.304
      12.561
      10.004
       7.256
       4.793
       2.987
       2.037
       1.787
       1.664
       0.941
      -0.818
      -3.480
      -6.460
      -9.104
     -11.018
     -12.135
     -12.560
     -12.302
     -11.097
      -8.508
      -4.305
       1.099
       6.594
      10.860
      13.080
      13.274
      11.961
       9.508
       5.798
       0.560
      -5.936
     -12.450
     -17.014
     -17.769
     -13.888
      -6.065
       3.676
      12.659
      18.400
      19.349
      15.322
       7.487
      -2.150
     -11.454
     -18.668
     -22.585
     -22.620
     -18.975
     -12.724
      -5.461
       1.367
       6.897
      10.691
      12.291
      11.105
       6.863
       0.211
      -7.133
     -12.943
     -15.407
     -13.885
      -9.050
      -2.431
       4.361
      10.206
      14.591
      17.296
      18.077
      16.657
      13.035
       7.764
       1.928
      -3.225
      -6.745
      -8.263
      -7.947
      -6.221
      -3.486
      -0.078
       3.540
       6.627
       8.319
       8.034
       5.811
       2.299
      -1.538
      -4.727
      -6.455
      -6.215
      -4.000
      -0.420
       3.464
       6.559
       8.100
       7.742
       5.433
       1.335
      -4.024
      -9.523
     -13.498
     -14.312
     -11.240
      -5.112
       1.822
       6.882
       8.313
       6.143
       1.995
      -1.973
      -4.288
      -4.780
      -4.290
      -3.753
      -3.347
      -2.382
      -0.041
       3.619
       7.317
       9.209
       8.051
       4.013
      -1.334
      -5.669
      -6.839
      -3.756
       2.961
      10.985
      17.180
      19.074
      15.981
       9.019
       0.168
      -8.700
     -16.096
     -20.754
     -21.731
     -18.881
     -13.131
      -6.101
       0.627
       5.950
       9.189
       9.898
       7.930
       3.723
      -1.560
      -6.259
      -8.786
      -8.242
      -4.824
       0.215
       5.083
       8.205
       8.855
       7.303
       4.461
       1.285
      -1.625
      -3.991
      -5.573
      -6.045
      -5.251
      -3.591
      -2.004
      -1.393
      -1.908
      -2.744
      -2.702
      -1.102
       1.683
       4.452
       5.940
       5.520
       3.405
       0.443
      -2.203
      -3.354
      -2.212
       1.164
       5.636
       9.350
      10.610
       8.728
       4.300
      -1.215
      -6.243
      -9.659
     -10.940
      -9.977
      -6.839
      -1.794
       4.336
       9.874
      12.573
      10.672
       4.193
      -4.490
     -11.515
     -13.570
      -9.819
      -2.363
       5.090
       9.349
       9.243
       5.762
       1.081
      -2.727
      -4.568
      -4.479
      -3.155
      -1.313
       0.667
       2.636
       4.358
       5.371
       5.191
       3.678
       1.199
      -1.572
      -4.006
      -5.714
      -6.483
      -6.145
      -4.642
      -2.306
       0.010
       1.289
       1.086
       0.006
      -0.643
       0.189
       2.526
       5.440
       7.843
       9.225
       9.749
       9.750
       9.189
       7.583
       4.457
      -0.090
      -5.175
      -9.419
     -11.517
     -10.805
      -7.606
      -3.205
       0.622
       2.401
       1.706
      -0.583
      -2.742
      -3.177
      -1.365
       1.823
       4.635
       5.475
       3.823
       0.492
      -2.883
      -4.776
      -4.561
      -2.719
      -0.379
       1.455
       2.464
       2.963
       3.344
       3.550
       3.082
       1.535
      -0.854
      -3.162
      -4.262
      -3.468
      -0.940
       2.338
       4.977
       5.811
       4.475
       1.614
      -1.455
      -3.483
      -4.044
      -3.762
      -3.784
      -4.823
      -6.537
      -7.705
      -7.108
      -4.425
      -0.508
       3.150
       5.342
       5.817
       5.246
       4.594
       4.392
       4.406
       3.878
       2.107
      -0.987
      -4.647
      -7.549
      -8.465
      -6.952
      -3.618
       0.272
       3.608
       5.990
       7.575
       8.412
       7.971
       5.410
       0.417
      -6.082
     -12.035
     -15.197
     -14.279
      -9.538
      -2.519
       4.750
      10.504
      13.565
      13.350
       9.843
       3.676
      -3.823
     -10.820
     -15.427
     -16.284
     -13.037
      -6.531
       1.394
       8.504
      12.975
      14.046
      12.141
       8.403
       3.957
      -0.554
      -4.925
      -8.960
     -12.074
     -13.282
     -11.671
      -7.043
      -0.290
       6.837
      12.454
      15.335
      15.294
      12.978
       9.326
       5.107
       0.792
      -3.287
      -6.709
      -8.833
      -8.840
      -6.060
      -0.512
       6.623
      13.068
      16.314
      14.936
       9.474
       2.164
      -4.338
      -8.291
      -9.400
      -8.492
      -6.852
      -5.657
      -5.512
      -6.126
      -6.379
      -5.007
      -1.586
       2.958
       6.802
       8.296
       6.852
       3.139
      -1.379
      -5.131
      -7.023
      -6.725
      -4.649
      -1.650
       1.389
       3.885
       5.643
       6.684
       7.003
       6.464
       4.939
       2.583
      -0.032
      -2.098
      -3.005
      -2.723
      -1.780
      -0.803
      -0.008
       0.875
       2.150
       3.580
       4.308
       3.420
       0.697
      -3.102
      -6.674
