Origin Time       07/09/2011 17:58:18
Lat.              28.6 N	
Long.             77.0 E	
Depth (Km)          8.0
Magnitude         4.2
 Region           DELHI-HARYANA(SONIPAT)-Haryana                                   
 Above details taken from IMD 
    
Station Code       NSIT
Station Lat.       28.608  N
Station Long.      77.041  E
Station Height(m)  159.0
Site Class        C   Vs30 between 200 m/sec to 375 m/sec *  
Record Time        9/7/2011  ) 17:58:07.0
Sampling Rate     200. Hz
 Record Duration   75.000 Sec.
 Direction         N-S (N positive)
Max. Acceleration  25.825 cm/sec**2
     
  * For reference see Site Classification link of website 
     
 Base Line Corrected and Low Pass Filtered (Cut Off at 35 Hz) Time History
 Acceleration data in cm/sec**2
    
[...]
   -0.018
   -0.020
   -0.009
    0.007
    0.017
    0.016
    0.010
    0.006
    0.005
    0.003
   -0.004
   -0.012
   -0.015
   -0.007
    0.006
    0.014
    0.012
    0.003
   -0.004
   -0.002
    0.007
    0.014
    0.009
   -0.005
   -0.018
   -0.020
   -0.012
   -0.004
   -0.001
   -0.004
   -0.004
    0.001
    0.009
    0.012
    0.008
    0.001
   -0.007
   -0.010
   -0.007
    0.002
    0.010
    0.012
    0.010
    0.007
    0.006
    0.003
   -0.004
   -0.010
   -0.011
   -0.008
   -0.004
   -0.005
   -0.010
   -0.016
   -0.017
   -0.011
    0.001
    0.011
    0.012
    0.002
   -0.013
   -0.023
   -0.019
   -0.005
    0.009
    0.015
    0.011
    0.005
    0.003
    0.005
    0.006
    0.000
   -0.012
   -0.022
   -0.021
   -0.011
    0.000
    0.005
    0.005
    0.007
    0.015
    0.024
    0.025
    0.015
    0.000
   -0.009
   -0.005
    0.006
    0.016
    0.016
    0.011
    0.006
    0.004
    0.003
   -0.003
   -0.011
   -0.017
   -0.016
   -0.009
    0.001
    0.008
    0.010
    0.006
   -0.001
   -0.009
   -0.013
   -0.012
   -0.006
    0.003
    0.010
    0.011
    0.004
   -0.012
   -0.028
   -0.036
   -0.028
   -0.008
    0.016
    0.032
    0.033
    0.017
   -0.007
   -0.030
   -0.039
   -0.033
   -0.015
    0.001
    0.010
    0.010
    0.006
    0.005
    0.006
    0.005
    0.002
   -0.001
    0.002
    0.007
    0.006
   -0.003
   -0.015
   -0.019
   -0.013
   -0.002
    0.010
    0.020
    0.027
    0.025
    0.011
   -0.006
   -0.015
   -0.012
   -0.003
    0.003
    0.002
   -0.003
   -0.003
    0.002
    0.007
    0.005
   -0.005
   -0.017
   -0.024
   -0.018
   -0.005
    0.010
    0.018
    0.018
    0.010
   -0.004
   -0.014
   -0.011
    0.005
    0.022
    0.023
    0.006
   -0.013
   -0.019
   -0.007
    0.008
    0.014
    0.006
   -0.007
   -0.013
   -0.009
   -0.002
   -0.001
   -0.005
   -0.007
   -0.004
   -0.001
   -0.003
   -0.013
   -0.024
   -0.026
   -0.014
    0.006
    0.018
    0.012
   -0.005
   -0.018
   -0.017
   -0.004
    0.008
    0.010
    0.001
   -0.010
   -0.013
   -0.004
    0.010
    0.018
    0.016
    0.007
    0.003
    0.006
    0.009
    0.004
   -0.004
   -0.006
    0.005
    0.021
    0.026
    0.013
   -0.010
   -0.027
   -0.027
   -0.016
   -0.004
    0.000
   -0.002
   -0.001
    0.008
    0.019
    0.021
    0.008
   -0.009
   -0.018
   -0.013
   -0.001
    0.007
    0.007
    0.003
    0.000
   -0.001
   -0.001
   -0.003
   -0.006
   -0.008
   -0.004
    0.002
    0.003
   -0.007
   -0.023
   -0.032
   -0.021
    0.006
    0.029
    0.034
    0.020
   -0.003
   -0.019
   -0.024
   -0.019
   -0.009
    0.002
    0.009
    0.012
    0.007
   -0.003
   -0.011
   -0.011
   -0.004
    0.004
    0.007
    0.004
   -0.001
   -0.003
   -0.003
   -0.002
   -0.001
   -0.002
   -0.003
   -0.001
    0.005
    0.011
    0.013
    0.007
   -0.003
   -0.010
   -0.010
   -0.006
   -0.002
    0.002
    0.006
    0.010
    0.010
    0.006
    0.001
   -0.002
    0.001
    0.010
    0.017
    0.015
    0.004
   -0.010
   -0.020
   -0.020
   -0.014
   -0.006
    0.003
    0.011
    0.017
    0.016
    0.004
   -0.013
   -0.025
   -0.025
   -0.012
    0.005
    0.016
    0.017
    0.009
   -0.001
   -0.008
   -0.010
   -0.008
   -0.006
   -0.004
   -0.004
   -0.004
   -0.004
   -0.002
    0.000
    0.002
    0.003
    0.002
    0.001
    0.001
    0.002
    0.002
    0.001
   -0.002
   -0.003
   -0.003
   -0.001
    0.001
    0.004
    0.004
   -0.001
   -0.010
   -0.018
   -0.019
   -0.015
   -0.009
   -0.005
    0.001
    0.009
    0.015
    0.014
    0.003
   -0.008
   -0.009
    0.000
    0.011
    0.013
    0.003
   -0.011
   -0.017
   -0.010
    0.005
    0.015
    0.014
    0.007
    0.000
   -0.004
   -0.007
   -0.013
   -0.019
   -0.015
    0.001
    0.021
    0.028
    0.017
   -0.002
   -0.013
   -0.004
    0.017
    0.031
    0.026
    0.005
   -0.019
   -0.028
   -0.020
   -0.003
    0.010
    0.013
    0.009
    0.003
   -0.002
   -0.004
   -0.003
   -0.001
    0.002
    0.003
    0.002
   -0.003
   -0.008
   -0.007
   -0.001
    0.004
    0.001
   -0.006
   -0.013
   -0.014
   -0.011
   -0.007
   -0.004
   -0.002
    0.001
    0.003
    0.004
    0.004
    0.001
   -0.004
   -0.011
   -0.016
   -0.020
   -0.022
   -0.020
   -0.013
   -0.001
    0.015
    0.025
    0.027
    0.019
    0.006
   -0.006
   -0.013
   -0.012
   -0.001
    0.013
    0.018
    0.011
   -0.004
   -0.016
   -0.017
   -0.005
    0.013
    0.024
    0.023
    0.011
   -0.004
   -0.013
   -0.015
   -0.013
   -0.010
   -0.004
    0.006
    0.016
    0.020
    0.015
    0.005
   -0.004
   -0.007
   -0.005
   -0.001
    0.003
    0.006
    0.008
    0.010
    0.008
    0.000
   -0.010
   -0.016
   -0.012
    0.000
    0.012
    0.016
    0.013
    0.005
   -0.003
   -0.010
   -0.014
   -0.014
   -0.011
   -0.005
    0.000
    0.003
    0.004
    0.003
   -0.001
   -0.007
   -0.012
   -0.010
   -0.003
    0.005
    0.007
    0.001
   -0.009
   -0.014
   -0.009
    0.001
    0.005
    0.000
   -0.010
   -0.014
   -0.006
    0.010
    0.020
    0.017
    0.002
   -0.012
   -0.016
   -0.010
   -0.003
    0.000
    0.002
    0.006
    0.008
    0.005
   -0.002
   -0.009
   -0.008
   -0.001
    0.008
    0.013
    0.008
   -0.004
   -0.016
   -0.021
   -0.015
   -0.002
    0.010
    0.014
    0.010
    0.006
    0.004
    0.004
    0.003
   -0.001
   -0.003
   -0.002
    0.003
    0.008
    0.009
    0.005
   -0.001
   -0.004
   -0.002
   -0.001
   -0.001
   -0.001
    0.004
    0.010
    0.011
    0.004
   -0.005
   -0.007
   -0.004
    0.000
    0.001
    0.001
    0.002
    0.004
    0.000
   -0.009
   -0.019
   -0.022
   -0.013
    0.003
    0.018
    0.022
    0.011
   -0.006
   -0.016
   -0.012
   -0.001
    0.009
    0.012
    0.010
    0.004
   -0.003
   -0.009
   -0.012
   -0.009
   -0.001
    0.008
    0.013
    0.012
    0.008
    0.002
   -0.005
   -0.013
   -0.019
   -0.019
   -0.009
    0.005
    0.015
    0.016
    0.010
   -0.001
   -0.014
   -0.024
   -0.026
   -0.019
   -0.006
    0.006
    0.013
    0.014
    0.009
    0.000
   -0.010
   -0.011
   -0.002
    0.010
    0.016
    0.013
    0.005
   -0.004
   -0.009
   -0.008
    0.000
    0.010
    0.017
    0.017
    0.010
   -0.001
   -0.012
   -0.018
   -0.014
   -0.001
    0.014
    0.024
    0.024
    0.015
    0.000
   -0.016
   -0.026
   -0.024
   -0.011
    0.006
    0.014
    0.010
   -0.001
   -0.008
   -0.007
    0.001
    0.007
    0.003
   -0.010
   -0.023
   -0.025
   -0.014
   -0.001
    0.001
   -0.006
   -0.014
   -0.011
    0.001
    0.018
    0.029
    0.032
    0.024
    0.010
   -0.004
   -0.015
   -0.021
   -0.020
   -0.009
    0.008
    0.019
    0.015
   -0.006
   -0.028
   -0.035
   -0.020
    0.007
    0.026
    0.028
    0.018
    0.007
    0.003
    0.003
    0.002
   -0.001
   -0.002
    0.000
    0.003
    0.001
   -0.006
   -0.012
   -0.010
   -0.001
    0.007
    0.007
   -0.001
   -0.007
   -0.004
    0.010
    0.027
    0.034
    0.023
   -0.002
   -0.024
   -0.032
   -0.024
   -0.007
    0.008
    0.018
    0.022
    0.020
    0.012
    0.002
   -0.008
   -0.011
   -0.008
   -0.001
    0.003
    0.001
   -0.006
   -0.014
   -0.013
   -0.003
    0.010
    0.016
    0.013
    0.007
    0.004
    0.002
   -0.004
   -0.015
   -0.022
   -0.018
   -0.005
    0.007
    0.011
    0.008
    0.002
   -0.005
   -0.012
   -0.018
   -0.021
   -0.016
   -0.004
    0.010
    0.018
    0.017
    0.008
    0.001
   -0.003
   -0.005
   -0.006
   -0.007
   -0.008
   -0.008
   -0.007
   -0.008
   -0.008
   -0.002
    0.012
    0.028
    0.037
    0.031
    0.015
   -0.002
   -0.014
   -0.018
   -0.017
   -0.010
   -0.001
    0.007
    0.010
    0.007
   -0.001
   -0.009
   -0.012
   -0.010
   -0.006
   -0.003
   -0.001
    0.003
    0.008
    0.010
    0.007
    0.001
   -0.004
   -0.002
    0.003
    0.006
    0.004
   -0.001
   -0.006
   -0.010
   -0.012
   -0.014
   -0.015
   -0.013
   -0.006
    0.003
    0.011
    0.014
    0.010
    0.005
    0.002
    0.001
    0.001
    0.002
    0.006
    0.009
    0.007
   -0.004
   -0.015
   -0.009
    0.019
    0.051
    0.055
    0.014
   -0.046
   -0.076
   -0.045
    0.023
    0.068
    0.048
   -0.022
   -0.077
   -0.057
    0.053
    0.192
    0.258
    0.171
   -0.028
   -0.174
   -0.100
    0.163
    0.360
    0.211
   -0.295
   -0.843
   -1.056
   -0.827
   -0.352
    0.143
    0.598
    0.975
    1.060
    0.633
   -0.085
   -0.412
    0.080
    0.860
    0.794
   -0.510
   -1.923
   -1.786
    0.160
    2.131
    1.962
   -0.539
   -3.148
   -3.377
   -0.988
    1.866
    2.996
    2.309
    1.340
    1.051
    0.782
   -0.454
   -2.239
   -2.942
   -1.645
    0.579
    1.620
    0.475
   -1.683
   -2.564
   -0.923
    2.173
    4.165
    3.294
    0.233
   -2.482
   -2.724
   -0.630
    1.589
    1.726
   -0.280
   -2.220
   -1.873
    0.508
    2.240
    1.038
   -2.309
   -4.381
   -2.497
    2.348
    6.068
    5.249
    0.484
   -4.029
   -4.321
   -0.353
    3.970
    4.530
    0.816
   -3.837
   -5.493
   -2.963
    1.569
    4.616
    4.107
    0.740
   -2.759
   -3.813
   -1.923
    1.086
    2.642
    1.513
   -1.199
   -3.024
   -2.328
    0.234
    2.367
    2.261
    0.147
   -2.118
   -2.852
   -1.859
   -0.169
    1.151
    1.787
    1.992
    1.924
    1.381
    0.177
   -1.355
   -2.361
   -2.102
   -0.640
    1.110
    2.114
    2.076
    1.482
    0.744
   -0.331
   -1.822
   -2.811
   -2.049
    0.353
    2.540
    2.567
    0.227
   -2.746
   -4.012
   -2.352
    1.271
    4.201
    4.171
    1.396
   -1.456
   -1.703
    0.717
    3.105
    2.600
   -0.967
   -4.774
   -5.615
   -2.942
    0.703
    2.289
    1.196
   -0.529
   -0.572
    1.378
    3.619
    4.193
    2.547
   -0.170
   -2.183
   -2.577
   -1.867
   -1.304
   -1.665
   -2.538
   -2.627
   -0.979
    1.833
    3.848
    3.411
    0.897
   -1.465
   -1.661
    0.268
    2.438
    2.995
    1.636
   -0.584
   -2.442
   -3.287
   -2.947
   -1.547
    0.383
    1.870
    1.933
    0.438
   -1.487
   -2.230
   -1.182
    0.692
    1.878
    1.790
    0.979
    0.102
   -0.729
   -1.395
   -1.264
    0.140
    2.119
    3.114
    2.292
    0.499
   -0.672
   -0.660
   -0.450
   -1.213
   -2.693
   -3.261
   -1.723
    1.126
    3.048
    2.556
    0.343
   -1.594
   -1.923
   -0.881
    0.352
    0.755
    0.169
   -0.629
   -0.571
    0.693
    2.286
    2.766
    1.500
   -0.552
   -1.634
   -0.996
    0.175
   -0.016
   -1.861
   -3.306
   -1.938
    2.182
    5.985
    6.076
    1.992
   -3.402
   -6.529
   -5.847
   -2.569
    0.636
    1.806
    1.138
    0.344
    0.555
    1.130
    0.724
   -0.710
   -1.455
    0.181
    3.649
    6.069
    4.779
    0.079
   -4.776
   -6.448
   -4.345
   -0.786
    1.387
    1.270
    0.172
   -0.133
    0.850
    2.104
    2.211
    0.733
   -1.312
   -2.298
   -1.442
    0.463
    1.667
    0.904
   -1.488
   -3.731
   -4.069
   -2.251
    0.480
    2.696
    3.806
    3.976
    3.619
    3.025
    2.108
    0.534
   -1.592
   -3.311
   -3.534
   -2.204
   -0.412
    0.603
    0.365
   -0.787
   -2.131
   -2.943
   -2.712
   -1.247
    1.180
    3.679
    4.909
    3.904
    1.134
   -1.454
   -2.048
   -0.798
    0.338
   -0.232
   -1.949
   -2.700
   -1.030
    2.313
    4.895
    4.633
    1.567
   -2.224
   -4.401
   -4.130
   -2.301
   -0.394
    0.697
    0.950
    0.803
    0.650
    0.544
    0.206
   -0.525
   -1.240
   -1.211
   -0.192
    1.285
    2.470
    3.025
    2.990
    2.453
    1.449
    0.019
   -1.710
   -3.362
   -4.218
   -3.630
   -1.741
    0.320
    1.242
    0.745
   -0.042
    0.388
    2.270
    3.974
    3.453
    0.493
   -2.791
   -3.975
   -2.673
   -0.691
   -0.033
   -0.953
   -1.967
   -1.573
    0.256
    2.133
    2.474
    0.751
   -1.935
   -3.344
   -1.687
    2.608
    6.739
    7.596
    4.306
   -1.061
   -5.164
   -5.893
   -3.706
   -0.913
    0.334
   -0.313
   -1.357
   -0.932
    1.444
    4.251
    5.039
    2.485
   -2.117
   -5.446
   -4.769
   -0.485
    3.903
    4.683
    1.237
   -3.269
   -4.573
   -1.152
    4.200
    6.638
    3.575
   -2.741
   -6.955
   -5.395
    0.465
    5.350
    5.061
    0.195
   -4.713
   -5.509
   -2.000
    2.287
    3.543
    1.003
   -2.613
   -3.649
   -0.775
    3.785
    6.110
    4.064
   -0.728
   -4.370
   -4.237
   -1.075
    2.155
    3.155
    1.985
    0.348
   -0.337
   -0.087
    0.051
   -0.766
   -2.398
   -3.947
   -4.460
   -3.413
   -0.911
    2.180
    4.473
    4.854
    3.257
    0.695
   -1.403
   -1.986
   -0.918
    0.955
    2.389
    2.619
    1.744
    0.380
   -0.886
   -1.746
   -2.134
   -2.088
   -1.735
   -1.314
   -1.016
   -0.739
   -0.215
    0.549
    1.133
    1.100
    0.458
   -0.293
   -0.561
   -0.291
   -0.112
   -0.494
   -0.833
    0.030
    2.252
    4.342
    4.302
    1.420
   -2.826
   -5.546
   -4.557
   -0.415
    3.637
    4.216
    0.841
   -3.361
   -4.277
   -0.729
    4.079
    5.402
    1.579
   -4.123
   -6.400
   -2.883
    3.512
    7.202
    5.171
   -0.252
   -3.833
   -2.606
    1.449
    3.664
    1.392
   -3.375
   -5.867
   -3.087
    3.296
    8.541
    9.274
    6.279
    3.143
    2.516
    3.726
    3.885
    1.349
   -2.197
   -3.654
   -2.361
   -1.136
   -3.133
   -8.257
  -13.089
  -13.988
  -10.191
   -4.383
   -0.344
    0.272
   -1.149
   -2.557
   -3.976
   -7.021
  -11.500
  -13.479
   -8.133
    4.848
   19.129
   25.825
   20.559
    7.326
   -4.185
   -6.017
    1.747
   11.230
   13.530
    6.183
   -4.917
  -10.594
   -6.277
    3.884
   10.567
    7.791
   -1.309
   -7.352
   -3.953
    5.574
   10.999
    5.191
   -8.445
  -18.706
  -17.012
   -5.245
    6.496
    9.514
    3.975
   -2.477
   -2.763
    2.967
    7.892
    5.098
   -5.894
  -18.065
  -22.087
  -13.707
    2.592
   16.850
   21.307
   16.000
    7.518
    2.448
    1.700
    0.788
   -4.562
  -13.054
  -18.242
  -14.726
   -3.972
    6.393
    9.166
    3.364
   -5.876
  -12.094
  -12.083
   -6.872
    0.393
    6.922
   11.155
   12.427
   10.749
    6.983
    2.604
   -1.071
   -3.307
   -3.647
   -1.817
    1.419
    3.617
    2.045
   -3.377
   -8.789
   -9.120
   -2.790
    6.336
   11.872
   10.024
    2.432
   -5.447
   -8.729
   -6.454
   -1.478
    2.315
    2.920
    1.316
    0.241
    1.435
    3.585
    3.368
   -0.847
   -6.386
   -7.865
   -1.979
    8.791
   17.189
   16.650
    6.805
   -5.985
  -13.797
  -13.401
   -8.108
   -3.938
   -3.775
   -4.922
   -2.477
    4.734
   11.836
   11.972
    3.037
   -9.411
  -16.086
  -11.501
    1.476
   13.971
   18.110
   12.566
    2.496
   -5.205
   -7.065
   -4.684
   -2.069
   -1.385
   -1.118
    1.579
    6.746
   10.316
    7.717
   -1.155
  -11.042
  -15.488
  -11.771
   -2.398
    7.097
   11.811
   10.230
    4.556
   -1.532
   -5.723
   -8.118
   -9.950
  -11.578
  -11.700
   -8.593
   -2.365
    4.130
    7.148
    5.206
    0.420
   -3.303
   -3.369
    0.002
    4.847
    9.419
   12.870
   14.422
   12.746
    6.895
   -2.051
  -10.615
  -14.720
  -12.461
   -5.473
    2.395
    7.709
    8.961
    6.372
    1.333
   -3.778
   -6.292
   -4.842
   -0.569
    3.471
    4.512
    2.074
   -1.984
   -5.161
   -6.021
   -4.662
   -2.186
    0.131
    1.601
    2.443
    3.306
    4.288
    4.446
    2.511
   -1.509
   -5.345
   -5.779
   -1.805
    3.642
    5.921
    3.117
   -1.914
   -4.234
   -1.650
    3.131
    5.168
    2.066
   -3.884
   -8.079
   -7.836
   -4.318
   -0.773
    0.634
    0.298
    0.086
    1.271
    3.500
    5.408
    5.866
    4.684
    2.516
    0.401
   -0.757
   -0.620
    0.435
    1.623
    2.315
    2.446
    2.436
    2.642
    2.857
    2.475
    1.165
   -0.812
   -2.819
   -4.181
   -4.560
   -4.359
   -4.581
   -5.838
   -7.489
   -7.970
   -5.955
   -1.370
    4.238
    8.233
    8.403
    4.623
   -0.753
   -4.371
   -4.328
   -1.613
    0.828
    0.786
   -1.232
   -2.642
   -1.386
    2.066
    5.212
    5.859
    3.982
    1.498
    0.449
    1.355
    2.943
    3.193
    0.983
   -2.666
   -4.983
   -3.728
    0.420
    3.895
    3.165
   -1.919
   -7.706
   -9.835
   -6.959
   -1.654
    2.122
    2.445
    0.576
   -0.803
   -0.224
    1.565
    2.803
    2.565
    1.415
    0.625
    1.032
    2.460
    3.998
    4.830
    4.908
    4.780
    4.776
    4.528
    3.471
    1.778
    0.535
    0.752
    2.097
    2.770
    0.983
   -3.171
   -7.414
   -9.063
   -7.323
   -3.948
   -1.691
   -1.899
   -3.415
   -3.843
   -1.962
    0.962
    2.229
    0.174
   -4.171
   -7.687
   -7.534
   -3.313
    2.664
    7.039
    7.611
    4.613
    0.402
   -2.233
   -2.109
   -0.317
    1.188
    1.698
    2.247
    3.978
    6.305
    6.955
    4.030
   -1.855
   -7.500
   -9.488
   -6.955
   -2.221
    1.313
    1.980
    0.701
   -0.664
   -1.309
   -1.652
   -1.999
   -1.792
   -0.383
    1.896
    3.755
    3.970
    2.355
   -0.058
   -1.806
   -2.141
   -1.498
   -0.739
   -0.043
    1.210
    3.356
    5.501
    5.927
    3.584
   -0.774
   -4.854
   -6.270
   -4.076
    0.674
    5.554
    8.074
    7.069
    3.398
   -0.766
   -3.666
   -4.995
   -5.279
   -4.644
   -2.614
    0.905
    4.695
    6.552
    4.897
    0.309
   -4.646
   -7.334
   -6.830
   -4.008
   -0.477
    2.248
    3.125
    1.954
   -0.362
   -2.190
   -2.191
   -0.356
    1.881
    2.816
    2.025
    0.710
    0.327
    0.873
    0.767
   -1.338
   -4.652
   -6.399
   -4.295
    0.899
    5.484
    5.810
    1.422
   -4.584
   -8.124
   -7.132
   -2.668
    2.290
    5.007
    4.553
    1.998
   -0.569
   -1.456
   -0.438
    1.232
    1.970
    1.308
    0.310
    0.498
    2.286
    4.470
    5.343
    4.365
    2.718
    2.072
    2.797
    3.595
    3.002
    1.067
   -0.759
   -1.292
   -0.889
   -0.993
   -2.638
   -5.480
   -8.089
   -9.049
   -7.880
   -5.185
   -2.159
    0.013
    0.612
   -0.243
   -1.625
   -2.520
   -2.680
   -2.599
   -2.595
   -2.125
   -0.221
    3.371
    7.506
   10.151
    9.776
    6.535
    2.320
   -0.404
   -0.179
    2.454
    5.263
    5.882
    3.632
    0.110
   -2.103
   -1.577
    0.781
    2.463
    1.483
   -1.770
   -4.648
   -4.562
   -1.503
    1.753
    2.077
   -1.241
   -5.918
   -8.740
   -8.351
   -6.249
   -5.072
   -5.874
   -7.024
   -5.802
   -1.219
    4.564
    7.734
    6.170
    1.554
   -1.910
   -1.084
    3.451
    7.994
    8.926
    5.692
    1.028
   -1.588
   -0.834
    1.701
    3.283
    2.501
    0.286
   -1.197
   -0.618
    1.333
    2.629
    1.782
   -0.762
   -3.005
   -3.211
   -1.517
    0.145
   -0.260
   -3.011
   -6.273
   -7.616
   -6.057
   -2.844
   -0.362
   -0.169
   -1.766
   -3.042
   -2.130
    0.860
    3.903
    4.955
    3.801
    2.070
    1.573
    2.688
    4.259
    4.779
    3.610
    1.283
   -1.112
   -2.748
   -3.360
   -2.964
   -1.680
    0.045
    1.386
    1.698
    1.105
    0.323
   -0.090
   -0.178
   -0.293
   -0.610
   -1.003
   -1.169
   -0.728
    0.576
    2.487
    4.109
    4.435
    3.175
    1.074
   -0.611
   -1.070
   -0.479
    0.375
    0.942
    1.194
    1.181
    0.719
   -0.333
   -1.766
   -3.127
   -4.005
   -4.138
   -3.374
   -1.637
    0.864
    3.245
    4.055
    2.347
   -1.167
