Origin Time       09/01/2013 07:44:20 UTC
Lat.              29.75 N
Long.             81.74 E
Depth (Km)         34.0
Magnitude         5.0
 Region           NEPAL                                                            
 Above details taken from IIT 
    
Station Code      PTI
Station Lat.       29.407  N
Station Long.      79.931  E
Station Height(m) 1667.0
Site Class        A   Vs30 between 700 m/sec to 1400 m/sec * 
Record Time       09.01.2013 07:44:39.314 UTC
Sampling Rate     200. Hz
 Record Duration   84.525 Sec.
 Direction         N-S (N positive)
Max. Acceleration      6.123 cm/sec**2
     
  * For reference see Site Classification link of website 
     
 Base Line Corrected and Low Pass Filtered (Cut Off at 35 Hz) Time History
 Acceleration data in cm/sec**2
    
[...]
      -0.228
      -0.177
      -0.125
      -0.080
      -0.046
      -0.023
      -0.011
      -0.012
      -0.028
      -0.046
      -0.047
      -0.017
       0.042
       0.120
       0.202
       0.273
       0.317
       0.327
       0.307
       0.270
       0.227
       0.188
       0.158
       0.134
       0.114
       0.094
       0.071
       0.040
      -0.009
      -0.080
      -0.177
      -0.292
      -0.407
      -0.495
      -0.531
      -0.506
      -0.430
      -0.324
      -0.207
      -0.094
       0.000
       0.065
       0.089
       0.071
       0.017
      -0.053
      -0.114
      -0.151
      -0.157
      -0.139
      -0.108
      -0.076
      -0.048
      -0.029
      -0.021
      -0.025
      -0.038
      -0.051
      -0.049
      -0.027
       0.011
       0.057
       0.109
       0.164
       0.219
       0.265
       0.296
       0.311
       0.316
       0.320
       0.331
       0.352
       0.378
       0.396
       0.388
       0.336
       0.238
       0.113
      -0.009
      -0.105
      -0.169
      -0.215
      -0.256
      -0.304
      -0.355
      -0.398
      -0.417
      -0.408
      -0.370
      -0.307
      -0.219
      -0.110
       0.011
       0.120
       0.192
       0.210
       0.174
       0.108
       0.043
       0.001
      -0.015
      -0.015
      -0.013
      -0.022
      -0.048
      -0.089
      -0.134
      -0.171
      -0.188
      -0.178
      -0.143
      -0.095
      -0.046
      -0.002
       0.034
       0.062
       0.079
       0.083
       0.074
       0.057
       0.037
       0.022
       0.019
       0.032
       0.058
       0.085
       0.100
       0.092
       0.064
       0.031
       0.008
       0.003
       0.012
       0.028
       0.046
       0.064
       0.085
       0.113
       0.141
       0.157
       0.145
       0.101
       0.034
      -0.046
      -0.127
      -0.198
      -0.248
      -0.271
      -0.263
      -0.226
      -0.167
      -0.099
      -0.034
       0.020
       0.064
       0.099
       0.127
       0.151
       0.176
       0.209
       0.254
       0.302
       0.336
       0.334
       0.283
       0.190
       0.077
      -0.030
      -0.113
      -0.165
      -0.193
      -0.207
      -0.212
      -0.208
      -0.192
      -0.172
      -0.154
      -0.144
      -0.142
      -0.148
      -0.156
      -0.158
      -0.149
      -0.130
      -0.108
      -0.088
      -0.080
      -0.092
      -0.132
      -0.195
      -0.259
      -0.294
      -0.280
      -0.212
      -0.111
      -0.013
       0.053
       0.072
       0.053
       0.013
      -0.029
      -0.060
      -0.074
      -0.071
      -0.052
      -0.014
       0.045
       0.122
       0.212
       0.303
       0.382
       0.432
       0.444
       0.419
       0.373
       0.325
       0.295
       0.297
       0.336
       0.397
       0.454
       0.478
       0.439
       0.322
       0.141
      -0.067
      -0.249
      -0.369
      -0.418
      -0.409
      -0.372
      -0.330
      -0.302
      -0.291
      -0.294
      -0.310
      -0.336
      -0.360
      -0.374
      -0.372
      -0.354
      -0.321
      -0.272
      -0.207
      -0.133
      -0.055
       0.012
       0.059
       0.085
       0.105
       0.134
       0.179
       0.233
       0.282
       0.314
       0.321
       0.302
       0.260
       0.204
       0.142
       0.090
       0.067
       0.079
       0.115
       0.155
       0.183
       0.186
       0.155
       0.091
       0.001
      -0.101
      -0.199
      -0.281
      -0.332
      -0.345
      -0.325
      -0.280
      -0.218
      -0.145
      -0.069
       0.006
       0.074
       0.132
       0.182
       0.230
       0.286
       0.352
       0.417
       0.457
       0.451
       0.388
       0.269
       0.110
      -0.062
      -0.221
      -0.346
      -0.425
      -0.454
      -0.442
      -0.398
      -0.334
      -0.259
      -0.185
      -0.126
      -0.090
      -0.079
      -0.091
      -0.119
      -0.157
      -0.193
      -0.214
      -0.212
      -0.184
      -0.130
      -0.056
       0.024
       0.094
       0.143
       0.170
       0.186
       0.205
       0.236
       0.278
       0.317
       0.341
       0.344
       0.328
       0.294
       0.246
       0.186
       0.121
       0.059
       0.012
      -0.017
      -0.029
      -0.037
      -0.048
      -0.068
      -0.095
      -0.130
      -0.173
      -0.220
      -0.263
      -0.293
      -0.301
      -0.289
      -0.264
      -0.242
      -0.234
      -0.240
      -0.252
      -0.261
      -0.260
      -0.243
      -0.207
      -0.150
      -0.069
       0.034
       0.149
       0.259
       0.347
       0.407
       0.436
       0.433
       0.399
       0.343
       0.274
       0.201
       0.131
       0.075
       0.038
       0.022
       0.021
       0.022
       0.014
      -0.006
      -0.031
      -0.056
      -0.081
      -0.111
      -0.151
      -0.197
      -0.245
      -0.292
      -0.332
      -0.360
      -0.373
      -0.374
      -0.368
      -0.358
      -0.343
      -0.320
      -0.278
      -0.216
      -0.142
      -0.073
      -0.023
       0.002
       0.006
      -0.006
      -0.023
      -0.035
      -0.031
      -0.008
       0.035
       0.099
       0.183
       0.283
       0.390
       0.492
       0.573
       0.618
       0.624
       0.604
       0.578
       0.564
       0.562
       0.562
       0.540
       0.474
       0.359
       0.213
       0.060
      -0.080
      -0.204
      -0.314
      -0.414
      -0.503
      -0.568
      -0.600
      -0.599
      -0.576
      -0.539
      -0.493
      -0.437
      -0.376
      -0.314
      -0.255
      -0.200
      -0.150
      -0.110
      -0.086
      -0.084
      -0.095
      -0.094
      -0.051
       0.045
       0.180
       0.321
       0.440
       0.517
       0.551
       0.551
       0.527
       0.487
       0.427
       0.349
       0.254
       0.145
       0.029
      -0.086
      -0.193
      -0.287
      -0.367
      -0.434
      -0.486
      -0.521
      -0.536
      -0.521
      -0.467
      -0.368
      -0.233
      -0.079
       0.063
       0.164
       0.211
       0.214
       0.197
       0.182
       0.174
       0.166
       0.150
       0.126
       0.102
       0.092
       0.105
       0.141
       0.191
       0.242
       0.286
       0.311
       0.313
       0.295
       0.268
       0.237
       0.205
       0.172
       0.137
       0.097
       0.044
      -0.024
      -0.105
      -0.187
      -0.259
      -0.312
      -0.338
      -0.337
      -0.310
      -0.264
      -0.210
      -0.166
      -0.142
      -0.136
      -0.130
      -0.108
      -0.062
       0.006
       0.084
       0.159
       0.219
       0.256
       0.268
       0.248
       0.199
       0.129
       0.056
      -0.007
      -0.055
      -0.084
      -0.094
      -0.082
      -0.053
      -0.015
       0.019
       0.035
       0.027
      -0.003
      -0.044
      -0.084
      -0.116
      -0.132
      -0.124
      -0.085
      -0.015
       0.078
       0.175
       0.251
       0.289
       0.291
       0.273
       0.255
       0.252
       0.270
       0.298
       0.316
       0.302
       0.249
       0.167
       0.078
       0.001
      -0.059
      -0.108
      -0.158
      -0.213
      -0.268
      -0.310
      -0.332
      -0.331
      -0.313
      -0.289
      -0.279
      -0.299
      -0.352
      -0.424
      -0.491
      -0.524
      -0.501
      -0.414
      -0.275
      -0.108
       0.056
       0.193
       0.287
       0.331
       0.333
       0.312
       0.286
       0.274
       0.286
       0.318
       0.355
       0.382
       0.390
       0.379
       0.346
       0.295
       0.232
       0.164
       0.094
       0.024
      -0.043
      -0.101
      -0.147
      -0.178
      -0.196
      -0.203
      -0.200
      -0.182
      -0.144
      -0.087
      -0.024
       0.025
       0.053
       0.066
       0.079
       0.107
       0.153
       0.201
       0.224
       0.207
       0.151
       0.068
      -0.029
      -0.137
      -0.260
      -0.394
      -0.527
      -0.633
      -0.689
      -0.687
      -0.645
      -0.588
      -0.535
      -0.484
      -0.421
      -0.321
      -0.171
       0.025
       0.240
       0.440
       0.602
       0.718
       0.787
       0.820
       0.826
       0.813
       0.783
       0.737
       0.679
       0.611
       0.533
       0.441
       0.332
       0.214
       0.098
      -0.004
      -0.093
      -0.182
      -0.284
      -0.401
      -0.514
      -0.598
      -0.641
      -0.648
      -0.639
      -0.639
      -0.662
      -0.708
      -0.761
      -0.799
      -0.803
      -0.755
      -0.647
      -0.483
      -0.282
      -0.071
       0.123
       0.283
       0.401
       0.483
       0.545
       0.601
       0.658
       0.712
       0.750
       0.757
       0.726
       0.660
       0.572
       0.479
       0.386
       0.293
       0.199
       0.105
       0.019
      -0.049
      -0.091
      -0.112
      -0.126
      -0.144
      -0.167
      -0.195
      -0.225
      -0.256
      -0.279
      -0.279
      -0.241
      -0.157
      -0.033
       0.110
       0.244
       0.351
       0.424
       0.467
       0.483
       0.479
       0.467
       0.455
       0.447
       0.441
       0.428
       0.397
       0.335
       0.240
       0.127
       0.012
      -0.088
      -0.171
      -0.242
      -0.309
      -0.374
      -0.427
      -0.456
      -0.463
      -0.466
      -0.487
      -0.536
      -0.601
      -0.661
      -0.694
      -0.689
      -0.649
      -0.583
      -0.500
      -0.403
      -0.302
      -0.216
      -0.160
      -0.131
      -0.110
      -0.062
       0.036
       0.186
       0.360
       0.522
       0.646
       0.729
       0.780
       0.809
       0.816
       0.802
       0.766
       0.718
       0.674
       0.648
       0.638
       0.625
       0.588
       0.513
       0.409
       0.295
       0.198
       0.131
       0.093
       0.074
       0.061
       0.048
       0.032
       0.009
      -0.025
      -0.073
      -0.136
      -0.220
      -0.321
      -0.432
      -0.541
      -0.639
      -0.719
      -0.777
      -0.811
      -0.821
      -0.805
      -0.767
      -0.707
      -0.628
      -0.529
      -0.413
      -0.289
      -0.175
      -0.087
      -0.034
      -0.013
      -0.013
      -0.021
      -0.028
      -0.030
      -0.031
      -0.032
      -0.030
      -0.020
       0.008
       0.061
       0.140
       0.235
       0.328
       0.404
       0.458
       0.492
       0.512
       0.523
       0.529
       0.530
       0.528
       0.525
       0.526
       0.534
       0.552
       0.584
       0.630
       0.679
       0.707
       0.687
       0.606
       0.470
       0.298
       0.118
      -0.048
      -0.195
      -0.324
      -0.436
      -0.523
      -0.583
      -0.615
      -0.624
      -0.611
      -0.575
      -0.512
      -0.420
      -0.305
      -0.183
      -0.074
       0.002
       0.034
       0.021
      -0.036
      -0.130
      -0.259
      -0.415
      -0.581
      -0.726
      -0.820
      -0.849
      -0.823
      -0.758
      -0.669
      -0.565
      -0.458
      -0.358
      -0.276
      -0.217
      -0.178
      -0.147
      -0.110
      -0.059
       0.005
       0.077
       0.145
       0.196
       0.225
       0.240
       0.260
       0.301
       0.370
       0.467
       0.585
       0.715
       0.850
       0.983
       1.104
       1.193
       1.223
       1.176
       1.054
       0.877
       0.679
       0.496
       0.349
       0.246
       0.188
       0.172
       0.198
       0.259
       0.346
       0.449
       0.552
       0.635
       0.680
       0.681
       0.644
       0.578
       0.487
       0.370
       0.225
       0.055
      -0.120
      -0.274
      -0.390
      -0.464
      -0.505
      -0.519
      -0.510
      -0.481
      -0.447
      -0.427
      -0.443
      -0.510
      -0.629
      -0.789
      -0.974
      -1.167
      -1.355
      -1.522
      -1.649
      -1.716
      -1.718
      -1.659
      -1.560
      -1.437
      -1.297
      -1.132
      -0.932
      -0.699
      -0.446
      -0.186
       0.075
       0.336
       0.596
       0.855
       1.111
       1.354
       1.577
       1.778
       1.951
       2.081
       2.158
       2.176
       2.142
       2.071
       1.975
       1.855
       1.704
       1.510
       1.265
       0.982
       0.678
       0.373
       0.077
      -0.209
      -0.483
      -0.736
      -0.948
      -1.092
      -1.153
      -1.135
      -1.059
      -0.956
      -0.851
      -0.758
      -0.671
      -0.570
      -0.431
      -0.244
      -0.011
       0.256
       0.532
       0.788
       0.994
       1.131
       1.191
       1.182
       1.124
       1.045
       0.970
       0.914
       0.875
       0.843
       0.798
       0.714
       0.569
       0.347
       0.038
      -0.362
      -0.846
      -1.399
      -1.993
      -2.597
      -3.177
      -3.703
      -4.151
      -4.507
      -4.758
      -4.899
      -4.930
      -4.852
      -4.665
      -4.360
      -3.930
      -3.371
      -2.695
      -1.926
      -1.099
      -0.251
       0.585
       1.388
       2.151
       2.871
       3.546
       4.172
       4.735
       5.218
       5.603
       5.883
       6.057
       6.123
       6.075
       5.904
       5.603
       5.173
       4.630
       3.996
       3.291
       2.531
       1.738
       0.934
       0.144
      -0.613
      -1.328
      -1.995
      -2.619
      -3.205
      -3.743
      -4.213
      -4.588
      -4.845
      -4.968
      -4.946
      -4.775
      -4.467
      -4.051
      -3.563
      -3.031
      -2.466
      -1.867
      -1.235
      -0.588
       0.042
       0.630
       1.168
       1.661
       2.112
       2.515
       2.855
       3.114
       3.281
       3.358
       3.358
       3.291
       3.156
       2.933
       2.594
       2.119
       1.511
       0.796
       0.014
      -0.800
      -1.615
      -2.397
      -3.102
      -3.682
      -4.102
      -4.347
      -4.415
      -4.312
      -4.044
      -3.620
      -3.065
      -2.421
      -1.738
      -1.043
      -0.336
       0.391
       1.135
       1.865
       2.535
       3.107
       3.560
       3.892
       4.115
       4.249
       4.323
       4.358
       4.352
       4.271
       4.070
       3.723
       3.244
       2.673
       2.054
       1.418
       0.783
       0.159
      -0.443
      -1.013
      -1.538
      -2.019
      -2.463
      -2.881
      -3.279
      -3.653
      -3.981
      -4.222
      -4.328
      -4.278
      -4.082
      -3.786
      -3.442
      -3.096
      -2.768
      -2.448
      -2.109
      -1.715
      -1.245
      -0.701
      -0.111
       0.470
       0.974
       1.339
       1.522
       1.519
       1.368
       1.148
       0.941
       0.803
       0.742
       0.745
       0.792
       0.869
       0.965
       1.067
       1.151
       1.191
       1.180
       1.133
       1.081
       1.050
       1.049
       1.074
       1.115
       1.159
       1.193
       1.203
       1.178
       1.110
       0.993
       0.829
       0.618
       0.354
       0.034
      -0.328
      -0.701
      -1.046
      -1.329
      -1.530
      -1.649
      -1.697
      -1.688
      -1.625
      -1.513
      -1.370
      -1.217
      -1.071
      -0.929
      -0.770
      -0.573
      -0.325
      -0.028
       0.301
       0.641
       0.964
       1.245
       1.453
       1.567
       1.585
       1.526
       1.422
       1.303
       1.195
       1.121
       1.095
       1.121
       1.190
       1.277
       1.345
       1.356
       1.289
       1.143
       0.938
       0.705
       0.473
       0.260
       0.070
      -0.109
      -0.291
      -0.491
      -0.717
      -0.974
      -1.246
      -1.507
      -1.723
      -1.865
      -1.916
      -1.879
      -1.783
      -1.675
      -1.601
      -1.589
      -1.646
      -1.751
      -1.862
      -1.928
      -1.904
      -1.767
      -1.519
      -1.182
      -0.781
      -0.338
       0.135
       0.624
       1.104
       1.532
       1.871
       2.102
       2.233
       2.295
       2.319
       2.324
       2.308
       2.261
       2.180
       2.071
       1.936
       1.774
       1.587
       1.398
       1.237
       1.131
       1.079
       1.052
       1.007
       0.902
       0.718
       0.451
       0.105
      -0.311
      -0.776
      -1.259
      -1.722
      -2.123
      -2.423
      -2.601
      -2.651
      -2.587
      -2.431
      -2.215
      -1.980
      -1.760
      -1.573
      -1.416
      -1.268
      -1.100
      -0.884
      -0.611
      -0.298
       0.022
       0.318
       0.574
       0.782
       0.939
       1.042
       1.091
       1.091
       1.060
       1.019
       0.988
       0.966
       0.938
       0.888
       0.802
       0.677
       0.521
       0.353
       0.199
       0.083
       0.028
       0.048
       0.144
       0.295
       0.468
       0.625
       0.741
       0.801
       0.806
       0.766
       0.696
       0.604
       0.494
       0.358
       0.176
      -0.068
      -0.384
      -0.759
      -1.167
      -1.570
      -1.921
      -2.174
      -2.292
      -2.269
      -2.132
      -1.926
      -1.703
      -1.507
      -1.360
      -1.265
      -1.219
      -1.212
      -1.229
      -1.241
      -1.217
      -1.133
      -0.983
      -0.780
      -0.542
      -0.285
      -0.011
       0.286
       0.614
       0.976
       1.375
       1.810
       2.273
       2.738
       3.171
       3.530
       3.776
       3.876
       3.810
       3.580
       3.205
       2.716
       2.151
       1.543
       0.915
       0.279
      -0.357
      -0.974
      -1.553
      -2.072
      -2.516
      -2.872
      -3.132
      -3.286
      -3.319
      -3.222
      -2.997
      -2.668
      -2.274
      -1.859
      -1.462
      -1.107
      -0.797
      -0.518
      -0.250
       0.019
       0.295
       0.570
       0.829
       1.050
       1.220
       1.339
       1.421
       1.479
       1.517
       1.529
       1.503
       1.437
       1.350
       1.271
       1.231
       1.246
       1.318
       1.426
       1.537
       1.611
       1.619
       1.548
       1.405
       1.202
       0.958
       0.697
       0.443
       0.216
       0.030
      -0.111
      -0.209
      -0.275
      -0.317
      -0.342
      -0.362
      -0.397
      -0.462
      -0.570
      -0.713
      -0.870
      -1.009
      -1.112
      -1.179
      -1.231
      -1.285
      -1.340
      -1.387
      -1.418
      -1.442
      -1.468
      -1.495
      -1.494
      -1.427
      -1.277
      -1.069
      -0.865
      -0.724
      -0.677
      -0.720
      -0.829
      -0.976
      -1.128
      -1.256
      -1.327
      -1.316
      -1.207
      -1.001
      -0.709
      -0.337
       0.109
       0.611
       1.133
       1.627
       2.051
       2.386
       2.639
       2.829
       2.977
       3.089
       3.160
       3.175
       3.111
       2.936
       2.621
