Origin Time       07/09/2011 17:58:18
Lat.              28.6 N	
Long.             77.0 E	
Depth (Km)          8.0
Magnitude         4.2
 Region           DELHI-HARYANA(SONIPAT)-Haryana                                   
 Above details taken from IMD 
    
Station Code       IMD 
Station Lat.       28.685  N
Station Long.      77.216  E
Station Height(m)  184.0
Site Class        A   Vs30 between 700 m/sec to 1620 m/sec * 
Record Time        9/7/2011  ) 17:57:31.0
Sampling Rate     200. Hz
 Record Duration  110.000 Sec.
 Direction         N-S (N positive)
Max. Acceleration -37.654 cm/sec**2
     
  * For reference see Site Classification link of website 
     
 Base Line Corrected and Low Pass Filtered (Cut Off at 35 Hz) Time History
 Acceleration data in cm/sec**2
    
[...]
    0.000
   -0.001
   -0.002
   -0.002
   -0.002
   -0.002
   -0.001
   -0.001
    0.000
    0.000
    0.000
    0.000
    0.000
   -0.001
   -0.002
   -0.002
   -0.002
   -0.001
    0.000
    0.000
   -0.001
   -0.001
   -0.002
   -0.001
   -0.001
   -0.001
   -0.001
   -0.001
    0.000
    0.001
    0.002
    0.001
    0.000
   -0.001
   -0.001
    0.000
    0.001
    0.001
    0.001
    0.000
   -0.001
   -0.001
    0.000
    0.000
    0.000
   -0.001
   -0.001
   -0.001
   -0.001
    0.000
    0.000
    0.000
    0.000
    0.000
    0.000
    0.000
    0.000
   -0.001
   -0.001
   -0.001
    0.000
    0.000
    0.000
    0.000
   -0.001
   -0.002
   -0.002
   -0.002
   -0.002
    0.000
    0.000
    0.000
    0.000
   -0.001
   -0.001
   -0.001
   -0.001
   -0.002
   -0.002
   -0.002
   -0.001
    0.000
    0.000
    0.000
   -0.001
   -0.001
   -0.001
   -0.001
   -0.001
    0.000
    0.001
    0.001
    0.001
    0.001
    0.000
    0.000
    0.000
    0.000
    0.000
    0.000
    0.000
    0.001
    0.001
    0.001
    0.000
    0.000
    0.001
    0.001
    0.000
    0.000
   -0.001
   -0.001
   -0.001
    0.000
    0.000
    0.001
    0.002
    0.001
    0.000
   -0.001
   -0.001
   -0.001
    0.000
    0.000
    0.001
    0.001
    0.001
    0.001
    0.001
    0.000
    0.000
    0.000
    0.000
    0.000
    0.001
    0.001
    0.001
    0.000
   -0.001
   -0.001
   -0.001
    0.000
    0.001
    0.001
    0.001
    0.001
    0.001
    0.001
    0.000
   -0.001
   -0.002
   -0.002
   -0.001
    0.000
    0.001
    0.001
    0.000
    0.000
    0.000
   -0.001
   -0.001
   -0.001
   -0.001
   -0.001
    0.000
    0.001
    0.001
    0.000
   -0.001
   -0.001
   -0.001
   -0.001
    0.000
    0.001
    0.000
    0.000
    0.000
    0.000
    0.001
    0.000
    0.000
   -0.001
   -0.002
   -0.001
   -0.001
    0.000
    0.001
    0.002
    0.002
    0.002
    0.000
    0.000
   -0.001
    0.000
    0.000
    0.000
    0.000
    0.001
    0.001
    0.001
    0.000
   -0.001
    0.000
    0.000
    0.000
   -0.001
   -0.001
    0.000
    0.001
    0.001
    0.001
    0.000
   -0.001
   -0.001
   -0.001
    0.000
    0.001
    0.002
    0.001
    0.000
   -0.002
   -0.002
   -0.002
   -0.001
    0.000
    0.000
    0.000
    0.000
    0.001
    0.001
    0.001
    0.000
   -0.001
   -0.001
   -0.001
    0.000
    0.000
   -0.001
   -0.001
   -0.001
    0.000
    0.000
    0.001
    0.001
    0.000
   -0.001
   -0.001
   -0.001
    0.000
    0.001
    0.001
    0.000
   -0.001
   -0.001
   -0.001
    0.000
    0.000
    0.000
    0.000
    0.001
    0.001
    0.001
    0.000
    0.000
    0.000
    0.000
   -0.001
   -0.001
    0.000
    0.001
    0.001
    0.001
    0.000
    0.000
   -0.001
   -0.001
   -0.001
   -0.001
    0.000
    0.001
    0.001
    0.002
    0.002
    0.001
    0.000
   -0.001
   -0.001
   -0.001
    0.000
    0.001
    0.001
    0.001
    0.000
    0.000
    0.000
    0.001
    0.000
   -0.001
   -0.002
   -0.001
    0.001
    0.002
    0.001
    0.001
    0.000
    0.000
    0.000
    0.000
   -0.001
   -0.001
   -0.001
    0.000
    0.000
    0.001
    0.001
    0.001
    0.000
   -0.001
   -0.002
   -0.002
   -0.001
    0.000
    0.001
    0.002
    0.002
    0.002
    0.002
    0.000
   -0.001
   -0.001
   -0.001
    0.000
    0.001
    0.001
    0.001
    0.000
    0.000
    0.000
   -0.001
   -0.001
    0.000
    0.000
    0.001
    0.001
    0.001
    0.000
    0.000
    0.000
   -0.001
   -0.001
   -0.001
   -0.001
    0.000
    0.000
    0.000
    0.000
   -0.001
   -0.001
   -0.001
   -0.001
    0.000
    0.000
    0.001
    0.001
    0.000
    0.000
    0.001
    0.002
    0.002
    0.001
    0.000
    0.000
    0.000
    0.000
    0.000
    0.001
    0.001
    0.001
    0.000
   -0.001
   -0.001
   -0.002
   -0.001
   -0.001
   -0.001
   -0.001
    0.000
    0.001
    0.001
    0.000
   -0.002
   -0.003
   -0.002
   -0.001
    0.000
    0.000
    0.000
    0.000
    0.000
    0.000
   -0.001
   -0.001
   -0.002
   -0.002
   -0.001
   -0.001
    0.000
    0.001
    0.001
    0.000
   -0.001
   -0.001
    0.000
    0.001
    0.001
    0.000
    0.000
    0.000
    0.000
    0.000
    0.000
   -0.001
   -0.001
   -0.002
   -0.002
   -0.001
   -0.001
    0.000
    0.001
    0.001
    0.001
    0.000
    0.000
    0.000
    0.000
    0.000
    0.000
    0.000
    0.000
    0.001
    0.001
    0.001
    0.001
    0.000
   -0.001
   -0.001
   -0.001
    0.000
    0.001
    0.002
    0.002
    0.001
    0.000
   -0.001
   -0.001
   -0.001
    0.000
    0.000
    0.001
    0.001
    0.001
    0.000
    0.000
   -0.001
    0.000
    0.000
    0.000
    0.001
    0.001
    0.001
    0.001
    0.001
    0.000
   -0.001
   -0.001
   -0.001
   -0.001
   -0.001
    0.000
    0.000
   -0.001
   -0.001
   -0.001
    0.000
    0.000
    0.000
    0.000
   -0.001
    0.000
    0.001
    0.002
    0.001
    0.001
    0.000
    0.001
    0.000
    0.000
   -0.001
   -0.001
   -0.001
    0.000
    0.001
    0.001
    0.001
    0.001
    0.001
    0.000
    0.000
    0.000
    0.000
    0.000
    0.001
    0.001
    0.001
    0.000
    0.000
    0.000
    0.000
    0.000
    0.000
    0.000
    0.000
    0.000
    0.000
   -0.001
   -0.001
   -0.002
   -0.003
   -0.003
   -0.002
   -0.001
    0.000
    0.001
    0.001
    0.000
   -0.001
   -0.002
   -0.002
   -0.001
    0.000
    0.001
    0.002
    0.002
    0.001
    0.000
    0.000
    0.000
    0.000
    0.000
    0.000
    0.000
    0.000
    0.000
    0.000
    0.000
    0.000
    0.000
    0.000
    0.000
    0.000
   -0.001
   -0.001
   -0.001
   -0.001
    0.000
    0.001
    0.002
    0.002
    0.000
   -0.001
   -0.002
   -0.002
   -0.001
    0.000
    0.001
    0.002
    0.002
    0.001
    0.000
   -0.001
   -0.002
   -0.002
   -0.001
    0.000
    0.001
    0.001
    0.000
    0.000
   -0.002
   -0.003
   -0.003
   -0.002
    0.000
    0.001
    0.002
    0.002
    0.000
   -0.001
   -0.002
   -0.002
   -0.002
   -0.001
    0.000
    0.000
    0.000
    0.000
    0.000
    0.000
   -0.001
   -0.001
   -0.001
    0.000
    0.000
    0.001
    0.001
    0.001
    0.001
    0.001
    0.001
    0.002
    0.001
    0.001
    0.001
    0.000
   -0.001
   -0.001
    0.000
    0.001
    0.001
    0.001
    0.001
    0.001
    0.001
    0.000
    0.000
    0.000
    0.000
    0.000
    0.000
    0.000
    0.000
   -0.001
   -0.001
   -0.002
   -0.001
   -0.001
    0.000
    0.000
    0.001
    0.000
   -0.001
   -0.002
   -0.003
   -0.003
   -0.002
   -0.002
   -0.001
    0.000
    0.001
    0.001
    0.000
    0.000
   -0.001
   -0.001
    0.000
    0.000
    0.000
    0.000
    0.000
    0.000
    0.000
   -0.001
   -0.001
    0.000
    0.000
    0.001
    0.000
    0.000
    0.000
    0.000
    0.000
    0.000
    0.000
    0.000
    0.000
    0.000
    0.000
   -0.001
   -0.001
    0.000
    0.000
    0.001
    0.001
    0.001
    0.000
   -0.001
   -0.002
   -0.003
   -0.002
   -0.001
    0.000
    0.000
    0.000
    0.000
    0.000
   -0.001
   -0.001
   -0.001
   -0.001
    0.000
    0.000
    0.000
   -0.001
   -0.002
   -0.002
   -0.002
   -0.002
   -0.001
   -0.001
    0.000
    0.001
    0.001
    0.001
   -0.001
   -0.002
   -0.002
   -0.002
   -0.001
   -0.001
   -0.001
   -0.001
   -0.001
   -0.001
   -0.001
   -0.001
   -0.001
   -0.001
   -0.001
    0.000
    0.000
    0.000
    0.000
   -0.001
   -0.001
   -0.001
    0.000
    0.000
    0.000
    0.000
   -0.001
   -0.001
    0.000
    0.001
    0.001
    0.000
    0.000
    0.000
    0.000
   -0.001
   -0.002
   -0.002
   -0.002
   -0.001
   -0.001
   -0.001
    0.000
    0.000
   -0.001
   -0.001
   -0.002
   -0.002
   -0.001
    0.000
    0.000
    0.000
    0.000
   -0.001
   -0.002
   -0.002
   -0.003
   -0.002
   -0.001
    0.000
    0.000
    0.000
    0.000
   -0.001
   -0.001
   -0.001
   -0.002
   -0.002
   -0.002
   -0.001
    0.000
    0.000
    0.000
   -0.001
   -0.001
   -0.002
   -0.002
   -0.001
    0.000
    0.000
    0.000
    0.000
    0.000
    0.001
    0.000
    0.000
    0.000
    0.000
    0.000
    0.000
   -0.001
   -0.002
   -0.002
   -0.001
    0.000
    0.000
    0.000
    0.000
   -0.001
   -0.001
   -0.001
   -0.001
    0.000
    0.000
    0.000
    0.000
    0.000
   -0.001
   -0.002
   -0.002
   -0.001
    0.001
    0.002
    0.002
    0.002
    0.001
    0.000
   -0.001
   -0.001
   -0.001
   -0.001
   -0.001
    0.000
    0.000
    0.000
    0.000
   -0.001
   -0.002
   -0.002
   -0.001
    0.000
    0.000
    0.000
    0.000
   -0.001
    0.000
    0.000
    0.000
    0.000
   -0.001
   -0.001
   -0.001
   -0.001
   -0.002
   -0.001
   -0.001
    0.000
    0.001
    0.001
    0.000
    0.000
    0.000
   -0.001
   -0.002
   -0.002
   -0.001
    0.000
    0.000
    0.000
    0.000
    0.000
   -0.001
   -0.001
   -0.001
    0.000
    0.000
    0.001
    0.000
    0.000
   -0.001
   -0.001
   -0.002
   -0.002
   -0.002
   -0.002
   -0.001
    0.000
    0.000
    0.000
   -0.001
   -0.002
   -0.001
   -0.001
    0.000
    0.000
    0.002
    0.002
    0.002
    0.001
    0.000
    0.000
    0.000
   -0.001
   -0.001
   -0.001
    0.000
    0.000
    0.001
    0.001
    0.000
    0.000
    0.000
    0.000
    0.000
    0.001
    0.001
    0.001
    0.001
    0.000
    0.000
    0.001
    0.001
    0.002
    0.001
    0.000
   -0.001
   -0.001
   -0.001
    0.000
    0.000
    0.000
    0.000
    0.000
    0.000
   -0.001
   -0.001
   -0.001
    0.000
    0.000
    0.001
    0.000
    0.000
    0.000
   -0.001
   -0.001
   -0.002
   -0.002
   -0.001
    0.000
    0.001
    0.001
    0.000
   -0.001
   -0.002
   -0.002
   -0.003
   -0.002
   -0.001
    0.000
    0.000
    0.000
   -0.001
   -0.001
   -0.001
   -0.001
   -0.002
   -0.002
   -0.001
   -0.001
   -0.001
   -0.001
   -0.002
   -0.002
   -0.002
   -0.001
   -0.001
    0.000
    0.000
    0.001
    0.001
    0.001
   -0.001
   -0.002
   -0.002
   -0.002
   -0.001
    0.000
    0.000
    0.000
    0.000
    0.000
    0.000
    0.001
    0.001
    0.000
   -0.001
   -0.001
   -0.001
    0.001
    0.002
   -0.001
   -0.006
   -0.010
   -0.011
   -0.007
   -0.001
    0.010
    0.033
    0.059
    0.058
    0.009
   -0.066
   -0.107
   -0.060
    0.079
    0.240
    0.270
    0.048
   -0.342
   -0.614
   -0.479
    0.088
    0.756
    1.063
    0.834
    0.356
    0.102
    0.256
    0.536
    0.503
    0.025
   -0.578
   -0.866
   -0.769
   -0.661
   -0.861
   -1.201
   -1.253
   -0.811
   -0.017
    0.803
    1.227
    0.910
   -0.017
   -0.844
   -0.908
   -0.273
    0.394
    0.545
    0.169
   -0.358
   -0.620
   -0.427
    0.025
    0.336
    0.318
    0.178
    0.250
    0.629
    1.001
    0.873
    0.115
   -0.731
   -0.928
   -0.347
    0.401
    0.685
    0.474
    0.184
    0.145
    0.357
    0.552
    0.420
   -0.081
   -0.573
   -0.591
   -0.137
    0.257
    0.117
   -0.416
   -0.717
   -0.433
    0.039
    0.035
   -0.547
   -1.084
   -0.859
    0.204
    1.392
    1.730
    0.810
   -0.734
   -1.684
   -1.350
   -0.159
    0.877
    1.098
    0.569
   -0.166
   -0.548
   -0.345
    0.267
    0.862
    1.037
    0.691
    0.161
   -0.048
    0.195
    0.458
    0.237
   -0.494
   -1.265
   -1.515
   -1.015
   -0.006
    0.909
    1.100
    0.409
   -0.661
   -1.322
   -1.061
    0.043
    1.295
    1.776
    1.049
   -0.417
   -1.542
   -1.491
   -0.357
    0.929
    1.392
    0.703
   -0.713
   -1.922
   -1.962
   -0.528
    1.574
    2.913
    2.586
    0.901
   -0.965
   -1.855
   -1.366
   -0.065
    0.956
    0.929
    0.015
   -0.918
   -1.134
   -0.604
    0.152
    0.566
    0.454
    0.104
   -0.092
   -0.044
    0.033
   -0.044
   -0.210
   -0.296
   -0.237
   -0.098
    0.030
    0.059
   -0.112
   -0.494
   -0.840
   -0.741
   -0.100
    0.603
    0.745
    0.252
   -0.331
   -0.456
   -0.122
    0.277
    0.463
    0.456
    0.426
    0.488
    0.555
    0.432
    0.091
   -0.248
   -0.328
   -0.068
    0.397
    0.750
    0.640
    0.003
   -0.748
   -0.998
   -0.532
    0.196
    0.494
    0.123
   -0.493
   -0.703
   -0.313
    0.244
    0.423
    0.143
   -0.190
   -0.167
    0.223
    0.588
    0.486
   -0.053
   -0.418
   -0.057
    0.752
    1.106
    0.556
   -0.371
   -0.884
   -0.813
   -0.581
   -0.549
   -0.702
   -0.732
   -0.241
    0.865
    1.958
    1.978
    0.433
   -1.868
   -3.213
   -2.424
    0.001
    2.249
    2.689
    1.171
   -0.916
   -1.861
   -1.026
    0.686
    1.634
    0.858
   -1.034
   -2.291
   -1.587
    0.631
    2.476
    2.403
    0.557
   -1.494
   -2.085
   -0.701
    1.615
    3.002
    2.264
   -0.078
   -2.229
   -2.803
   -1.988
   -0.948
   -0.412
   -0.193
    0.224
    1.044
    1.970
    2.399
    1.807
    0.225
   -1.455
   -1.928
   -0.785
    0.753
    0.978
   -0.385
   -1.892
   -2.059
   -0.857
    0.571
    1.206
    0.876
    0.029
   -0.722
   -0.787
    0.141
    1.667
    2.703
    2.226
    0.216
   -2.153
   -3.385
   -2.861
   -1.202
    0.490
    1.511
    1.761
    1.487
    1.050
    0.702
    0.406
   -0.024
   -0.567
   -0.926
   -0.961
   -1.006
   -1.331
   -1.394
   -0.421
    1.290
    2.485
    2.502
    1.927
    1.579
    1.570
    1.718
    2.326
    3.667
    4.749
    3.730
    0.142
   -4.107
   -6.497
   -5.954
   -2.685
    3.122
   11.325
   20.675
   28.355
   30.681
   24.555
    9.915
   -8.303
  -22.483
  -28.796
  -30.592
  -33.460
  -37.654
  -37.576
  -28.685
  -12.985
    2.768
   12.777
   15.298
   11.748
    5.196
   -0.242
   -0.929
    3.402
    8.693
   10.187
    7.424
    4.460
    5.032
    8.857
   12.687
   13.349
    9.529
    2.209
   -5.722
  -10.651
  -10.022
   -4.313
    2.234
    4.145
   -0.356
   -6.977
   -9.149
   -4.652
    2.234
    5.588
    4.088
    1.522
    1.724
    4.654
    7.539
    8.153
    6.393
    3.736
    1.641
    0.210
   -1.288
   -2.574
   -2.215
    0.012
    1.690
    0.010
   -4.711
   -8.698
   -8.368
   -4.040
    0.342
    1.122
   -1.659
   -4.656
   -4.749
   -1.984
    0.925
    1.689
    0.619
   -0.332
   -0.154
    0.231
   -0.459
   -1.893
   -2.173
    0.013
    3.561
    5.807
    5.277
    3.086
    1.555
    1.926
    3.467
    4.301
    3.044
   -0.015
   -3.169
   -4.677
   -3.903
   -1.452
    1.274
    2.699
    1.872
   -0.796
   -3.654
   -5.054
   -4.668
   -3.497
   -2.507
   -1.545
    0.074
    2.099
    3.076
    1.910
   -0.556
   -1.927
   -0.354
    3.606
    7.069
    7.214
    4.089
    0.725
   -0.027
    1.524
    2.500
    0.798
   -2.661
   -5.025
   -4.378
   -1.461
    1.087
    1.145
   -0.944
   -2.803
   -2.540
   -0.733
    0.401
   -0.381
   -2.071
   -2.665
   -1.260
    1.156
    2.710
    2.273
    0.341
   -1.437
   -1.697
   -0.540
    0.727
    1.063
    0.692
    0.462
    0.479
   -0.037
   -1.397
   -2.551
   -2.150
   -0.276
    1.480
    1.777
    0.880
    0.007
   -0.213
   -0.087
    0.094
    0.530
    1.182
    1.263
    0.078
   -1.835
   -2.914
   -1.984
    0.742
    3.891
    5.823
    5.448
    2.774
   -0.912
   -3.693
   -4.299
   -2.809
   -0.308
    1.799
    2.296
    0.764
   -1.875
   -3.729
   -3.443
   -1.511
    0.183
    0.240
   -1.099
   -2.533
   -2.897
   -1.790
    0.413
    2.740
    3.952
    3.332
    1.516
    0.053
   -0.251
   -0.070
   -0.245
   -0.393
    0.444
    2.093
    3.029
    2.204
    0.723
    0.900
    3.364
    5.811
    5.244
    1.272
   -3.313
   -5.332
   -4.196
   -1.937
   -0.816
   -1.450
   -2.969
   -4.145
   -4.117
   -2.732
   -0.813
    0.228
   -0.324
   -1.605
   -1.997
   -0.888
    0.699
    1.282
    0.444
   -0.901
   -1.467
   -0.613
    1.420
    3.797
    5.430
    5.403
    3.657
    1.323
   -0.078
   -0.039
    0.484
    0.109
   -1.560
   -3.550
   -4.435
   -3.537
   -1.304
    1.128
    2.579
    2.405
    0.959
   -0.468
   -0.571
    0.714
    1.945
    1.567
   -0.347
   -2.072
   -2.048
   -0.563
    0.591
    0.094
   -1.544
   -2.750
   -2.576
   -1.274
    0.361
    1.662
    2.321
    2.465
    2.516
    2.806
    3.317
    3.729
    3.532
    2.289
    0.055
   -2.423
   -4.049
   -4.092
   -2.755
   -1.091
   -0.268
   -0.791
   -2.295
   -3.858
   -4.441
   -3.289
   -0.416
    3.066
    5.389
    5.323
    3.173
    0.685
   -0.271
    0.714
    2.204
    2.252
    0.243
   -2.481
   -3.782
   -2.591
    0.199
    2.586
    3.122
    1.806
   -0.311
   -1.986
   -2.376
   -1.426
   -0.067
    0.339
   -0.790
   -2.556
   -3.387
   -2.546
   -0.658
    1.123
    2.065
    2.061
    1.398
    0.586
    0.166
    0.356
    0.945
    1.613
    2.077
    1.832
    0.385
   -1.850
   -3.426
   -3.227
   -1.817
   -0.890
   -1.385
   -2.484
   -2.532
   -0.701
    2.214
    4.423
    4.649
    3.213
    1.611
    0.971
    1.086
    1.023
    0.348
   -0.566
   -1.206
   -1.474
   -1.571
   -1.587
   -1.414
   -0.997
   -0.580
   -0.587
   -1.193
   -2.054
   -2.553
   -2.296
   -1.322
    0.071
    1.516
    2.601
    2.986
    2.588
    1.618
    0.476
   -0.364
   -0.539
   -0.009
    0.855
    1.423
    1.187
    0.214
   -0.787
   -1.044
   -0.434
    0.300
    0.179
   -0.962
   -2.150
   -2.186
   -0.879
    0.756
    1.445
    0.804
   -0.300
   -0.530
    0.578
    2.040
    2.360
    1.165
   -0.230
   -0.179
    1.385
    2.739
    2.179
   -0.199
   -2.649
   -3.483
   -2.447
   -0.583
    0.893
    1.450
    1.238
    0.542
   -0.585
   -2.054
   -3.241
   -3.158
   -1.466
    0.843
    2.156
    1.756
    0.537
    0.077
    0.905
    1.892
    1.545
   -0.277
   -2.081
   -2.180
   -0.354
    1.849
    2.527
    1.214
   -0.807
   -1.912
   -1.614
   -0.764
   -0.537
   -1.231
   -1.964
   -1.663
   -0.265
    1.271
    2.025
    1.893
    1.403
    1.100
    1.188
    1.490
    1.506
    0.786
   -0.439
   -1.209
   -0.842
    0.116
    0.412
   -0.410
   -1.440
   -1.461
   -0.294
    1.065
    1.481
    0.689
   -0.625
   -1.546
   -1.699
   -1.399
   -1.075
   -0.688
    0.056
    1.031
    1.654
    1.538
    0.856
    0.007
   -0.764
   -1.294
   -1.358
   -0.892
   -0.199
    0.383
    0.902
    1.621
    2.473
    2.873
    2.176
    0.362
   -1.765
   -3.135
   -3.247
   -2.456
   -1.521
   -0.954
   -0.725
   -0.467
    0.132
    1.105
    2.138
    2.602
    1.939
    0.362
   -0.978
   -0.974
    0.168
    0.971
    0.280
   -1.369
   -2.278
   -1.431
    0.401
    1.469
    0.909
   -0.375
   -0.822
   -0.025
    0.896
    0.768
   -0.179
   -0.634
    0.152
    1.428
    1.835
    0.973
   -0.258
   -0.787
   -0.490
   -0.128
   -0.399
   -1.207
   -1.796
   -1.500
   -0.357
    0.937
    1.606
    1.372
    0.598
   -0.069
   -0.256
   -0.134
   -0.176
   -0.632
   -1.234
   -1.403
   -0.831
    0.136
    0.791
    0.750
    0.273
   -0.081
   -0.015
    0.309
    0.545
    0.480
    0.088
   -0.503
   -0.984
   -1.003
   -0.495
    0.157
    0.421
    0.129
   -0.364
   -0.559
   -0.287
    0.241
    0.718
    0.908
    0.744
    0.478
    0.567
    1.138
    1.679
    1.555
    0.784
    0.084
    0.050
    0.502
    0.771
    0.497
   -0.062
   -0.457
   -0.579
   -0.683
   -1.055
   -1.681
   -2.127
   -1.807
   -0.558
    1.015
    1.927
    1.632
    0.439
   -0.830
   -1.467
