Origin Time       18/01/2011 20:23:27
Lat.              28.9 N	
Long.             64.0 E	
Depth (Km)          5.0
Magnitude         7.4
 Region           Southwestern-Pakistan                                            
 Above details taken from IMD 
    
Station Code       JAFR
Station Lat.       28.594  N
Station Long.      76.908  E
Station Height(m)  162.0
Site Class        C   Vs30 between 200 m/sec to 375 m/sec *  
Record Time        1/18/2011 ) 20:27:50.0
Sampling Rate     100. Hz
 Record Duration   70.000 Sec.
 Direction         N-S (N positive)
Max. Acceleration -14.307 cm/sec**2
     
  * For reference see Site Classification link of website 
     
 Base Line Corrected and Low Pass Filtered (Cut Off at 35 Hz) Time History
 Acceleration data in cm/sec**2
    
[...]
   -0.223
   -0.261
   -0.253
   -0.213
   -0.134
    0.004
    0.197
    0.385
    0.511
    0.565
    0.521
    0.405
    0.306
    0.266
    0.274
    0.271
    0.207
    0.105
   -0.022
   -0.179
   -0.287
   -0.254
   -0.153
   -0.119
   -0.136
   -0.110
   -0.059
   -0.085
   -0.190
   -0.246
   -0.193
   -0.127
   -0.111
   -0.102
   -0.088
   -0.104
   -0.139
   -0.154
   -0.134
   -0.088
   -0.041
    0.019
    0.106
    0.158
    0.161
    0.167
    0.163
    0.103
   -0.007
   -0.130
   -0.226
   -0.278
   -0.306
   -0.325
   -0.324
   -0.317
   -0.329
   -0.325
   -0.269
   -0.178
   -0.091
   -0.033
    0.028
    0.084
    0.037
   -0.103
   -0.219
   -0.253
   -0.187
   -0.048
    0.086
    0.142
    0.115
    0.085
    0.107
    0.182
    0.250
    0.237
    0.169
    0.078
   -0.087
   -0.290
   -0.411
   -0.457
   -0.523
   -0.608
   -0.651
   -0.680
   -0.744
   -0.829
   -0.894
   -0.887
   -0.792
   -0.678
   -0.604
   -0.603
   -0.652
   -0.612
   -0.424
   -0.206
   -0.011
    0.173
    0.290
    0.324
    0.317
    0.233
    0.080
   -0.017
   -0.005
    0.070
    0.153
    0.216
    0.277
    0.322
    0.318
    0.265
    0.139
   -0.072
   -0.282
   -0.403
   -0.450
   -0.468
   -0.466
   -0.457
   -0.451
   -0.447
   -0.475
   -0.567
   -0.698
   -0.792
   -0.735
   -0.531
   -0.311
   -0.134
   -0.006
    0.078
    0.163
    0.268
    0.351
    0.336
    0.231
    0.175
    0.225
    0.275
    0.237
    0.115
   -0.003
    0.013
    0.130
    0.181
    0.146
    0.088
   -0.013
   -0.141
   -0.214
   -0.187
   -0.083
    0.043
    0.120
    0.129
    0.113
    0.071
   -0.017
   -0.101
   -0.132
   -0.163
   -0.244
   -0.292
   -0.258
   -0.224
   -0.204
   -0.138
   -0.031
    0.083
    0.197
    0.331
    0.496
    0.606
    0.554
    0.379
    0.227
    0.179
    0.179
    0.170
    0.172
    0.204
    0.264
    0.335
    0.360
    0.322
    0.283
    0.294
    0.316
    0.298
    0.258
    0.215
    0.178
    0.193
    0.279
    0.381
    0.403
    0.282
    0.085
   -0.079
   -0.195
   -0.264
   -0.286
   -0.294
   -0.285
   -0.216
   -0.109
   -0.017
    0.055
    0.105
    0.149
    0.214
    0.277
    0.301
    0.274
    0.192
    0.081
    0.020
    0.077
    0.206
    0.358
    0.554
    0.742
    0.779
    0.681
    0.581
    0.520
    0.465
    0.382
    0.288
    0.256
    0.259
    0.185
    0.020
   -0.089
   -0.050
    0.050
    0.153
    0.259
    0.313
    0.318
    0.335
    0.374
    0.396
    0.388
    0.393
    0.406
    0.327
    0.154
    0.033
    0.023
    0.020
   -0.062
   -0.157
   -0.163
   -0.061
    0.112
    0.256
    0.295
    0.250
    0.171
    0.083
    0.008
   -0.046
   -0.090
   -0.101
   -0.033
    0.096
    0.192
    0.189
    0.146
    0.127
    0.104
    0.097
    0.153
    0.196
    0.089
   -0.164
   -0.428
   -0.625
   -0.803
   -1.012
   -1.153
   -1.098
   -0.887
   -0.637
   -0.428
   -0.325
   -0.369
   -0.498
   -0.598
   -0.599
   -0.502
   -0.392
   -0.341
   -0.297
   -0.154
    0.056
    0.181
    0.176
    0.146
    0.179
    0.232
    0.260
    0.304
    0.322
    0.236
    0.090
   -0.017
   -0.046
   -0.043
   -0.049
   -0.021
    0.036
    0.048
    0.055
    0.130
    0.217
    0.275
    0.351
    0.438
    0.493
    0.529
    0.557
    0.565
    0.589
    0.646
    0.648
    0.528
    0.348
    0.246
    0.281
    0.350
    0.327
    0.245
    0.189
    0.110
   -0.078
   -0.330
   -0.474
   -0.402
   -0.181
    0.066
    0.236
    0.242
    0.090
   -0.085
   -0.152
   -0.105
   -0.014
    0.038
   -0.004
   -0.077
   -0.038
    0.139
    0.337
    0.462
    0.527
    0.571
    0.619
    0.730
    0.905
    1.057
    1.153
    1.144
    0.992
    0.814
    0.680
    0.570
    0.498
    0.439
    0.339
    0.178
    0.002
   -0.092
   -0.118
   -0.135
   -0.091
    0.021
    0.101
    0.105
    0.056
    0.002
   -0.012
    0.033
    0.146
    0.296
    0.462
    0.634
    0.744
    0.732
    0.645
    0.592
    0.646
    0.742
    0.727
    0.587
    0.431
    0.306
    0.242
    0.240
    0.224
    0.166
    0.117
    0.098
    0.028
   -0.157
   -0.359
   -0.468
   -0.519
   -0.579
   -0.648
   -0.751
   -0.880
   -0.928
   -0.905
   -0.943
   -1.083
   -1.270
   -1.460
   -1.573
   -1.522
   -1.331
   -1.116
   -1.024
   -1.112
   -1.282
   -1.386
   -1.336
   -1.159
   -0.978
   -0.895
   -0.904
   -0.957
   -1.032
   -1.084
   -1.028
   -0.819
   -0.525
   -0.354
   -0.412
   -0.542
   -0.601
   -0.643
   -0.710
   -0.725
   -0.635
   -0.438
   -0.173
    0.066
    0.206
    0.204
    0.063
   -0.122
   -0.314
   -0.553
   -0.805
   -0.989
   -1.079
   -1.108
   -1.129
   -1.208
   -1.345
   -1.502
   -1.668
   -1.803
   -1.876
   -1.924
   -1.922
   -1.794
   -1.593
   -1.437
   -1.343
   -1.179
   -0.821
   -0.372
   -0.034
    0.095
    0.031
   -0.125
   -0.253
   -0.267
   -0.125
    0.113
    0.335
    0.525
    0.685
    0.733
    0.647
    0.504
    0.364
    0.238
    0.091
   -0.087
   -0.250
   -0.368
   -0.426
   -0.429
   -0.421
   -0.417
   -0.401
   -0.332
   -0.174
    0.016
    0.167
    0.315
    0.531
    0.800
    1.076
    1.361
    1.639
    1.884
    2.103
    2.252
    2.264
    2.179
    2.056
    1.852
    1.502
    1.059
    0.699
    0.535
    0.475
    0.354
    0.154
   -0.019
   -0.152
   -0.294
   -0.416
   -0.509
   -0.662
   -0.862
   -0.903
   -0.665
   -0.239
    0.172
    0.451
    0.711
    1.045
    1.301
    1.417
    1.497
    1.496
    1.367
    1.280
    1.368
    1.579
    1.796
    1.877
    1.746
    1.519
    1.294
    1.017
    0.694
    0.396
    0.127
   -0.076
   -0.171
   -0.185
   -0.179
   -0.217
   -0.278
   -0.265
   -0.183
   -0.101
   -0.011
    0.082
    0.144
    0.225
    0.364
    0.472
    0.515
    0.622
    0.859
    1.232
    1.736
    2.209
    2.430
    2.358
    2.098
    1.753
    1.435
    1.203
    0.951
    0.607
    0.230
   -0.147
   -0.455
   -0.610
   -0.699
   -0.831
   -0.940
   -0.902
   -0.687
   -0.410
   -0.276
   -0.352
   -0.479
   -0.511
   -0.417
   -0.202
   -0.001
    0.048
   -0.009
   -0.092
   -0.170
   -0.276
   -0.511
   -0.822
   -1.002
   -0.973
   -0.795
   -0.510
   -0.185
    0.064
    0.208
    0.275
    0.208
   -0.043
   -0.349
   -0.536
   -0.543
   -0.401
   -0.206
   -0.009
    0.207
    0.409
    0.542
    0.646
    0.732
    0.693
    0.556
    0.508
    0.604
    0.789
    0.980
    1.083
    1.097
    1.056
    0.982
    0.927
    0.856
    0.613
    0.178
   -0.304
   -0.710
   -0.987
   -1.184
   -1.349
   -1.428
   -1.383
   -1.243
   -1.076
   -0.973
   -0.966
   -1.004
   -1.017
   -0.939
   -0.771
   -0.655
   -0.681
   -0.752
   -0.758
   -0.672
   -0.511
   -0.306
   -0.107
    0.012
   -0.020
   -0.132
   -0.167
   -0.177
   -0.335
   -0.639
   -0.934
   -1.111
   -1.217
   -1.332
   -1.492
   -1.774
   -2.219
   -2.676
   -2.984
   -3.113
   -3.080
   -2.903
   -2.583
   -2.115
   -1.545
   -0.970
   -0.472
   -0.016
    0.523
    1.225
    2.029
    2.762
    3.281
    3.599
    3.798
    3.899
    3.907
    3.850
    3.760
    3.610
    3.262
    2.674
    1.922
    1.058
    0.167
   -0.609
   -1.163
   -1.489
   -1.656
   -1.723
   -1.728
   -1.605
   -1.288
   -0.864
   -0.427
    0.003
    0.425
    0.805
    1.126
    1.512
    1.997
    2.416
    2.736
    3.107
    3.528
    3.822
    3.913
    3.806
    3.418
    2.760
    2.007
    1.296
    0.678
    0.137
   -0.381
   -0.875
   -1.373
   -1.926
   -2.433
   -2.773
   -2.991
   -3.190
   -3.366
   -3.426
   -3.278
   -2.874
   -2.311
   -1.816
   -1.462
   -1.200
   -1.071
   -1.063
   -1.002
   -0.772
   -0.498
   -0.307
   -0.123
    0.026
   -0.058
   -0.384
   -0.885
   -1.539
   -2.194
   -2.702
   -3.025
   -3.182
   -3.195
   -2.998
   -2.647
   -2.357
   -2.169
   -1.960
   -1.614
   -1.088
   -0.419
    0.320
    1.038
    1.628
    1.947
    1.908
    1.538
    0.925
    0.280
   -0.178
   -0.462
   -0.681
   -0.820
   -0.857
   -0.857
   -0.920
   -1.149
   -1.565
   -2.059
   -2.459
   -2.740
   -3.063
   -3.465
   -3.782
   -3.916
   -3.880
   -3.736
   -3.589
   -3.408
   -3.139
   -2.875
   -2.541
   -1.951
   -1.166
   -0.437
    0.038
    0.245
    0.237
    0.116
    0.160
    0.557
    1.258
    2.163
    3.058
    3.614
    3.662
    3.224
    2.497
    1.787
    1.271
    0.999
    0.974
    1.081
    1.122
    1.036
    0.811
    0.418
   -0.035
   -0.428
   -0.736
   -0.921
   -0.908
   -0.680
   -0.263
    0.360
    1.112
    1.789
    2.239
    2.457
    2.610
    2.847
    3.167
    3.493
    3.730
    3.829
    3.780
    3.623
    3.531
    3.681
    4.032
    4.417
    4.745
    5.001
    5.066
    4.782
    4.301
    3.887
    3.556
    3.191
    2.700
    2.137
    1.687
    1.444
    1.305
    1.095
    0.747
    0.267
   -0.251
   -0.629
   -0.797
   -0.805
   -0.762
   -0.774
   -0.936
   -1.348
   -1.948
   -2.545
   -3.104
   -3.733
   -4.376
   -4.784
   -4.697
   -4.033
   -3.052
   -2.113
   -1.305
   -0.589
    0.029
    0.517
    0.909
    1.326
    1.759
    2.049
    2.190
    2.411
    2.905
    3.534
    3.943
    3.996
    3.827
    3.566
    3.288
    2.979
    2.633
    2.446
    2.453
    2.381
    2.065
    1.499
    0.737
   -0.078
   -0.864
   -1.651
   -2.512
   -3.409
   -4.031
   -4.117
   -3.818
   -3.481
   -3.247
   -3.097
   -3.156
   -3.505
   -3.881
   -3.929
   -3.431
   -2.361
   -0.968
    0.505
    1.970
    3.163
    3.812
    4.041
    4.070
    3.918
    3.749
    3.852
    4.170
    4.337
    4.109
    3.565
    2.949
    2.405
    1.936
    1.525
    1.170
    0.788
    0.277
   -0.341
   -0.937
   -1.412
   -1.775
   -2.148
   -2.609
   -3.146
   -3.821
   -4.593
   -5.140
   -5.186
   -4.777
   -4.161
   -3.589
   -3.167
   -2.771
   -2.283
   -1.796
   -1.382
   -0.944
   -0.443
    0.063
    0.495
    0.710
    0.708
    0.650
    0.570
    0.402
    0.169
   -0.051
   -0.349
   -0.864
   -1.498
   -2.072
   -2.432
   -2.371
   -1.782
   -0.855
    0.053
    0.630
    0.724
    0.420
   -0.115
   -0.745
   -1.349
   -1.897
   -2.523
   -3.363
   -4.340
   -5.236
   -5.915
   -6.364
   -6.517
   -6.334
   -5.897
   -5.164
   -4.082
   -2.894
   -1.980
   -1.549
   -1.485
   -1.433
   -1.102
   -0.541
   -0.026
    0.254
    0.214
   -0.222
   -0.980
   -1.836
   -2.617
   -3.285
   -3.876
   -4.300
   -4.212
   -3.321
   -1.770
   -0.027
    1.532
    2.749
    3.502
    3.803
    3.892
    4.006
    4.216
    4.382
    4.300
    3.910
    3.249
    2.285
    1.057
   -0.153
   -0.937
   -0.960
   -0.255
    0.834
    2.095
    3.381
    4.459
    5.124
    5.341
    5.303
    5.228
    5.111
    4.800
    4.243
    3.539
    2.712
    1.757
    0.965
    0.789
    1.270
    2.018
    2.755
    3.508
    4.329
    5.189
    6.120
    7.185
    8.301
    9.240
    9.625
    9.283
    8.588
    7.835
    6.910
    5.785
    4.603
    3.372
    2.008
    0.491
   -1.115
   -2.514
   -3.359
   -3.409
   -2.615
   -1.408
   -0.306
    0.563
    1.267
    1.931
    2.587
    3.091
    3.445
    3.824
    4.237
    4.506
    4.422
    3.885
    3.047
    2.222
    1.671
    1.487
    1.582
    1.936
    2.684
    3.714
    4.580
    4.995
    5.022
    4.879
    4.670
    4.192
    3.251
    1.916
    0.294
   -1.315
   -2.447
   -3.104
   -3.621
   -4.183
   -4.983
   -6.109
   -7.260
   -8.146
   -8.850
   -9.545
  -10.108
  -10.230
   -9.755
   -8.845
   -7.854
   -7.054
   -6.550
   -6.410
   -6.718
   -7.346
   -7.919
   -8.185
   -8.159
   -8.018
   -7.952
   -8.032
   -8.194
   -8.253
   -8.231
   -8.581
   -9.626
  -11.149
  -12.570
  -13.361
  -13.492
  -13.214
  -12.666
  -11.891
  -10.844
   -9.541
   -8.153
   -6.940
   -6.211
   -6.108
   -6.419
   -6.697
   -6.500
   -5.799
   -5.033
   -4.497
   -4.074
   -3.594
   -3.090
   -2.656
   -2.140
   -1.337
   -0.305
    0.864
    2.018
    2.722
    2.677
    2.059
    1.229
    0.375
   -0.466
   -1.144
   -1.341
   -1.003
   -0.532
   -0.216
    0.040
    0.179
    0.008
   -0.364
   -0.733
   -1.098
   -1.432
   -1.435
   -0.759
    0.586
    2.214
    3.775
    5.292
    6.909
    8.491
    9.762
   10.558
   10.812
   10.647
   10.493
   10.772
   11.413
   11.888
   11.715
   10.972
   10.136
    9.467
    8.734
    7.589
    6.054
    4.370
    2.784
    1.763
    1.780
    2.835
    4.386
    5.902
    7.375
    8.796
    9.607
    9.393
    8.609
    7.929
    7.327
    6.534
    5.708
    5.028
    4.399
    3.852
    3.562
    3.407
    2.957
    2.042
    1.111
    0.735
    0.924
    1.214
    1.312
    1.322
    1.391
    1.561
    1.934
    2.659
    3.580
    4.329
    4.885
    5.510
    6.331
    7.244
    8.015
    8.684
    9.626
   10.922
   12.221
   13.050
   12.947
   11.775
    9.956
    8.209
    6.994
    6.273
    5.800
    5.353
    4.925
    4.591
    4.111
    3.396
    2.831
    2.734
    2.985
    3.134
    2.923
    2.488
    1.989
    1.395
    0.660
   -0.124
   -1.024
   -2.223
   -3.571
   -4.782
   -5.753
   -6.476
   -6.951
   -7.175
   -7.131
   -6.875
   -6.531
   -6.083
   -5.490
   -4.903
   -4.263
   -3.398
   -2.502
   -1.913
   -1.749
   -1.857
   -2.113
   -2.676
   -3.747
   -5.210
   -6.485
   -7.015
   -6.947
   -6.809
   -6.816
   -6.894
   -6.979
   -7.167
   -7.565
   -7.932
   -7.972
   -7.756
   -7.459
   -7.150
   -6.781
   -6.285
   -5.820
   -5.569
   -5.552
   -5.754
   -6.220
   -7.124
   -8.610
  -10.524
  -12.449
  -13.853
  -14.307
  -13.836
  -12.656
  -10.895
   -8.891
   -7.109
   -5.794
   -4.946
   -4.339
   -3.780
   -3.278
   -2.685
   -1.660
   -0.361
    0.549
    0.913
    1.066
    0.881
    0.078
   -1.104
   -2.131
   -2.536
   -2.377
   -2.137
   -2.023
   -2.092
   -2.600
   -3.625
   -4.830
   -5.766
   -6.319
   -6.554
   -6.363
   -5.787
   -5.014
   -4.148
   -3.325
   -2.652
   -2.252
   -2.217
   -2.370
   -2.551
   -2.795
   -2.995
   -2.932
   -2.588
   -2.172
   -1.919
   -1.766
   -1.363
   -0.564
    0.408
    1.233
    1.743
    2.071
    2.458
    3.013
    3.707
    4.368
    4.776
    5.024
    5.424
    6.053
    6.908
    7.831
    8.326
    8.142
    7.424
    6.389
    5.195
    3.957
    2.836
    1.881
    0.929
    0.040
   -0.419
   -0.286
    0.481
    1.909
    3.751
    5.685
    7.328
    8.197
    8.126
    7.347
    5.980
    4.005
    1.966
    0.823
    0.922
    1.950
    3.602
    5.615
    7.747
    9.844
   11.585
   12.713
   13.316
   13.602
   13.802
   14.086
   14.253
   13.921
   13.094
   12.095
   11.306
   11.027
   11.079
   10.892
   10.022
    8.466
    6.638
    4.887
    3.250
    1.651
    0.168
   -1.060
   -2.071
   -2.832
   -3.207
   -3.271
   -3.101
   -2.748
   -2.548
   -2.729
   -3.049
   -3.166
   -2.950
   -2.515
   -2.190
   -2.289
   -2.713
   -3.144
   -3.427
   -3.334
   -2.697
   -1.741
   -0.744
    0.207
    0.987
    1.468
    1.731
    1.878
    1.890
    1.784
    1.584
    1.319
    1.211
    1.492
    2.079
    2.693
    3.196
    3.424
    2.876
    1.231
   -1.138
   -3.374
   -4.776
   -5.337
   -5.381
   -5.075
   -4.650
   -4.516
   -4.826
   -5.240
   -5.460
   -5.639
   -6.071
   -6.886
   -7.958
   -8.987
   -9.824
  -10.445
  -10.790
  -10.872
  -10.641
   -9.891
   -8.531
   -6.641
   -4.518
   -2.721
   -1.713
   -1.550
   -1.955
   -2.507
   -2.880
   -3.018
   -2.980
   -2.782
   -2.516
   -2.413
   -2.510
   -2.586
   -2.528
   -2.321
   -1.933
   -1.502
   -1.123
   -0.872
   -1.062
   -1.751
   -2.664
   -3.505
   -3.895
   -3.706
   -3.256
   -2.895
   -2.832
   -3.052
   -3.264
   -3.215
   -2.831
   -2.178
   -1.420
   -0.702
   -0.090
    0.410
    0.774
    0.910
    0.784
    0.415
   -0.086
   -0.458
   -0.555
   -0.382
    0.094
    0.836
    1.638
    2.235
    2.514
    2.508
    2.181
    1.836
    2.176
    3.330
    4.764
    5.932
    6.468
    6.363
    5.936
    5.440
    4.848
    3.885
    2.359
    0.565
   -0.955
   -2.057
   -2.902
   -3.461
   -3.623
   -3.379
   -2.748
   -1.830
   -0.775
    0.337
    1.491
    2.674
    3.753
    4.499
    4.783
    4.605
    4.039
    3.308
    2.708
    2.357
    2.134
    1.926
    1.719
    1.459
    1.117
    0.804
    0.696
    0.858
    1.249
    1.869
    2.726
    3.723
    4.571
    4.999
    5.001
    4.530
    3.506
    2.342
    1.687
    1.563
    1.312
    0.549
   -0.560
   -1.819
   -2.913
   -3.437
   -3.526
   -3.592
   -3.606
   -3.255
   -2.416
   -1.241
   -0.032
    1.089
    2.246
    3.455
    4.668
    5.868
    6.821
    7.298
    7.363
    7.082
    6.436
    5.550
    4.594
    3.728
    3.227
    3.159
    3.109
    2.561
    1.459
    0.247
   -0.649
   -1.165
   -1.405
   -1.330
   -0.901
   -0.385
   -0.147
   -0.316
   -0.904
   -1.780
   -2.523
   -2.737
   -2.259
   -1.293
   -0.536
   -0.559
   -1.296
   -2.333
   -3.137
   -3.309
   -2.963
   -2.525
   -2.156
   -1.737
   -1.354
   -1.219
   -1.302
   -1.581
   -2.050
   -2.508
   -2.846
   -2.955
   -2.553
   -1.694
   -0.924
   -0.583
   -0.585
   -0.916
   -1.584
   -2.366
   -2.973
   -3.251
   -3.253
   -3.199
   -3.164
   -2.886
   -2.293
   -1.728
   -1.397
   -1.292
   -1.337
   -1.361
   -1.419
   -1.701
   -1.971
   -1.751
   -0.901
    0.267
    1.307
    2.032
    2.358
    2.190
    1.766
    1.418
    1.200
    1.043
    0.938
    0.943
    0.919
    0.587
   -0.069
   -0.757
   -1.106
   -1.019
   -0.782
   -0.732
   -0.824
   -0.666
   -0.014
    1.018
    2.038
    2.631
    2.725
    2.476
    1.944
    1.286
    0.716
    0.172
   -0.482
   -1.233
   -1.979
   -2.528
   -2.729
   -2.554
   -1.962
   -1.056
   -0.169
    0.458
    0.823
    1.052
    1.222
    1.331
    1.344
    1.146
    0.851
    0.860
    1.210
    1.603
    2.002
    2.450
    2.782
    2.792
    2.416
    1.893
    1.541
    1.286
    0.738
   -0.177
   -1.038
   -1.579
   -1.921
   -2.153
   -2.247
   -2.176
   -2.092
   -2.317
   -2.729
   -2.928
   -3.015
   -3.233
   -3.383
   -3.263
   -2.991
   -2.591
   -1.904
   -0.949
    0.151
    1.294
    2.240
    2.861
    3.306
    3.622
    3.593
    3.064
    2.256
    1.575
    1.325
    1.673
    2.461
    3.145
    3.224
    2.766
    2.229
    1.826
    1.486
    1.082
    0.441
   -0.434
   -1.228
   -1.652
   -1.768
   -1.802
   -1.757
   -1.495
   -1.113
   -0.837
   -0.725
   -0.783
   -1.028
   -1.354
   -1.520
   -1.216
   -0.425
    0.409
    0.821
    0.634
   -0.088
   -1.033
   -1.835
   -2.345
   -2.575
   -2.598
   -2.495
   -2.246
   -1.925
   -1.816
   -2.030
   -2.287
   -2.284
   -2.136
   -2.221
   -2.715
   -3.542
   -4.347
   -4.605
   -4.209
   -3.468
   -2.572
   -1.746
   -1.338
   -1.326
   -1.412
   -1.442
   -1.353
   -1.085
   -0.546
    0.295
    1.220
    1.898
    2.203
    2.356
    2.621
    2.990
    3.356
    3.727
    4.165
    4.621
    4.836
    4.431
    3.281
    1.770
    0.472
   -0.338
   -0.804
   -1.066
   -1.042
   -0.856
   -0.741
   -0.553
   -0.136
    0.266
    0.461
    0.648
    0.976
    1.296
    1.667
    2.404
    3.398
    4.030
    3.906
    3.279
    2.564
    1.858
    1.124
    0.458
   -0.025
   -0.340
   -0.480
   -0.409
   -0.290
   -0.251
   -0.214
   -0.168
   -0.162
   -0.179
   -0.248
   -0.399
   -0.571
   -0.652
   -0.541
