Origin Time       28/07/2011 18:42:34
Lat.              33.3 N 
Long.             76.0 E	
Depth (Km)         21.0
Magnitude         4.4
 Region           J&K-Border                                                       
 Above details taken from IMD 
   
Station Code      SAL
Station Lat.       32.704
Station Long.      76.057
Station Height(m)    0.0
Site Class        A   Vs30 between 700 m/sec to 1400 m/sec * 
Record Time       28.07.2011 18:42:37.609
Sampling Rate     200. Hz
 Record Duration   65.290 Sec.
 Direction         Vert. (Up positive)
Max. Acceleration     -3.447 cm/sec**2
     
  * For reference see Site Classification link of website 
     
 Base Line Corrected and Low Pass Filtered (Cut Off at 35 Hz) Time History
 Acceleration data in cm/sec**2
    
[...]
      -0.016
      -0.005
      -0.007
      -0.020
      -0.038
      -0.048
      -0.044
      -0.024
       0.011
       0.054
       0.100
       0.137
       0.157
       0.154
       0.134
       0.113
       0.106
       0.121
       0.153
       0.189
       0.217
       0.231
       0.231
       0.222
       0.206
       0.184
       0.158
       0.128
       0.094
       0.053
       0.005
      -0.050
      -0.104
      -0.155
      -0.197
      -0.222
      -0.223
      -0.198
      -0.155
      -0.110
      -0.082
      -0.085
      -0.116
      -0.161
      -0.199
      -0.210
      -0.184
      -0.124
      -0.046
       0.031
       0.087
       0.111
       0.107
       0.087
       0.071
       0.070
       0.081
       0.091
       0.089
       0.070
       0.039
       0.003
      -0.026
      -0.039
      -0.032
      -0.004
       0.036
       0.072
       0.092
       0.095
       0.090
       0.096
       0.120
       0.157
       0.191
       0.202
       0.179
       0.126
       0.059
       0.000
      -0.036
      -0.049
      -0.056
      -0.078
      -0.131
      -0.211
      -0.295
      -0.350
      -0.352
      -0.294
      -0.197
      -0.095
      -0.018
       0.016
       0.009
      -0.023
      -0.054
      -0.063
      -0.035
       0.028
       0.105
       0.167
       0.191
       0.172
       0.123
       0.067
       0.025
       0.004
       0.004
       0.013
       0.017
       0.008
      -0.019
      -0.061
      -0.107
      -0.142
      -0.154
      -0.138
      -0.103
      -0.065
      -0.041
      -0.035
      -0.045
      -0.058
      -0.064
      -0.049
      -0.008
       0.056
       0.129
       0.186
       0.207
       0.187
       0.135
       0.074
       0.026
       0.006
       0.015
       0.044
       0.080
       0.111
       0.133
       0.146
       0.156
       0.168
       0.187
       0.206
       0.213
       0.196
       0.152
       0.093
       0.043
       0.021
       0.033
       0.064
       0.090
       0.085
       0.036
      -0.055
      -0.171
      -0.281
      -0.359
      -0.392
      -0.381
      -0.342
      -0.296
      -0.256
      -0.225
      -0.198
      -0.168
      -0.132
      -0.090
      -0.050
      -0.022
      -0.014
      -0.028
      -0.056
      -0.077
      -0.071
      -0.023
       0.063
       0.163
       0.248
       0.298
       0.313
       0.303
       0.287
       0.273
       0.256
       0.229
       0.186
       0.129
       0.066
       0.002
      -0.058
      -0.109
      -0.141
      -0.150
      -0.138
      -0.117
      -0.100
      -0.101
      -0.122
      -0.163
      -0.214
      -0.262
      -0.291
      -0.292
      -0.265
      -0.221
      -0.173
      -0.129
      -0.089
      -0.051
      -0.007
       0.046
       0.108
       0.173
       0.230
       0.272
       0.301
       0.321
       0.332
       0.332
       0.316
       0.282
       0.234
       0.180
       0.127
       0.083
       0.055
       0.043
       0.043
       0.043
       0.037
       0.023
       0.010
       0.005
       0.010
       0.019
       0.025
       0.022
       0.009
      -0.017
      -0.053
      -0.094
      -0.128
      -0.145
      -0.140
      -0.121
      -0.101
      -0.088
      -0.083
      -0.078
      -0.065
      -0.041
      -0.011
       0.016
       0.027
       0.016
      -0.015
      -0.060
      -0.106
      -0.141
      -0.156
      -0.148
      -0.120
      -0.085
      -0.057
      -0.046
      -0.046
      -0.045
      -0.030
       0.002
       0.046
       0.092
       0.132
       0.157
       0.158
       0.131
       0.080
       0.018
      -0.038
      -0.074
      -0.088
      -0.088
      -0.087
      -0.093
      -0.103
      -0.113
      -0.113
      -0.100
      -0.074
      -0.040
      -0.004
       0.030
       0.060
       0.083
       0.100
       0.117
       0.137
       0.162
       0.184
       0.198
       0.205
       0.212
       0.224
       0.247
       0.274
       0.294
       0.295
       0.274
       0.233
       0.179
       0.121
       0.062
       0.009
      -0.033
      -0.059
      -0.067
      -0.062
      -0.047
      -0.029
      -0.008
       0.014
       0.033
       0.043
       0.040
       0.023
      -0.003
      -0.031
      -0.057
      -0.076
      -0.086
      -0.091
      -0.100
      -0.117
      -0.142
      -0.168
      -0.190
      -0.202
      -0.204
      -0.199
      -0.194
      -0.198
      -0.214
      -0.240
      -0.266
      -0.278
      -0.271
      -0.243
      -0.204
      -0.159
      -0.113
      -0.064
      -0.006
       0.064
       0.147
       0.238
       0.326
       0.395
       0.426
       0.411
       0.357
       0.284
       0.218
       0.177
       0.162
       0.164
       0.169
       0.164
       0.144
       0.112
       0.071
       0.027
      -0.017
      -0.060
      -0.098
      -0.128
      -0.149
      -0.166
      -0.183
      -0.203
      -0.224
      -0.237
      -0.239
      -0.230
      -0.215
      -0.195
      -0.168
      -0.129
      -0.077
      -0.022
       0.020
       0.037
       0.027
      -0.001
      -0.033
      -0.059
      -0.074
      -0.078
      -0.073
      -0.062
      -0.050
      -0.040
      -0.030
      -0.017
       0.006
       0.044
       0.094
       0.146
       0.193
       0.225
       0.240
       0.235
       0.208
       0.161
       0.095
       0.012
      -0.088
      -0.200
      -0.317
      -0.424
      -0.500
      -0.526
      -0.496
      -0.417
      -0.304
      -0.174
      -0.041
       0.081
       0.180
       0.248
       0.288
       0.302
       0.294
       0.262
       0.205
       0.132
       0.061
       0.018
       0.019
       0.068
       0.155
       0.260
       0.360
       0.432
       0.466
       0.461
       0.426
       0.369
       0.300
       0.226
       0.154
       0.088
       0.031
      -0.019
      -0.060
      -0.090
      -0.110
      -0.122
      -0.130
      -0.134
      -0.127
      -0.106
      -0.070
      -0.030
       0.002
       0.018
       0.018
       0.009
      -0.001
      -0.008
      -0.014
      -0.022
      -0.034
      -0.049
      -0.064
      -0.075
      -0.075
      -0.059
      -0.022
       0.036
       0.110
       0.187
       0.252
       0.291
       0.292
       0.261
       0.210
       0.154
       0.101
       0.052
       0.003
      -0.050
      -0.109
      -0.175
      -0.247
      -0.319
      -0.384
      -0.429
      -0.441
      -0.412
      -0.342
      -0.244
      -0.139
      -0.051
       0.008
       0.036
       0.048
       0.060
       0.089
       0.140
       0.203
       0.258
       0.284
       0.268
       0.206
       0.112
       0.007
      -0.084
      -0.140
      -0.150
      -0.116
      -0.058
      -0.011
      -0.009
      -0.064
      -0.162
      -0.268
      -0.346
      -0.379
      -0.370
      -0.335
      -0.291
      -0.249
      -0.214
      -0.186
      -0.152
      -0.100
      -0.020
       0.085
       0.201
       0.312
       0.399
       0.452
       0.461
       0.427
       0.361
       0.284
       0.215
       0.168
       0.142
       0.130
       0.126
       0.125
       0.124
       0.119
       0.105
       0.078
       0.039
      -0.010
      -0.064
      -0.127
      -0.195
      -0.257
      -0.292
      -0.278
      -0.209
      -0.104
      -0.003
       0.055
       0.055
       0.008
      -0.064
      -0.144
      -0.224
      -0.303
      -0.372
      -0.416
      -0.421
      -0.386
      -0.319
      -0.235
      -0.145
      -0.049
       0.050
       0.147
       0.232
       0.301
       0.352
       0.389
       0.412
       0.416
       0.400
       0.364
       0.317
       0.274
       0.250
       0.254
       0.278
       0.303
       0.309
       0.281
       0.213
       0.106
      -0.035
      -0.194
      -0.346
      -0.461
      -0.513
      -0.490
      -0.397
      -0.255
      -0.090
       0.077
       0.225
       0.344
       0.425
       0.464
       0.463
       0.431
       0.386
       0.347
       0.323
       0.315
       0.316
       0.313
       0.293
       0.249
       0.180
       0.084
      -0.037
      -0.180
      -0.331
      -0.475
      -0.593
      -0.672
      -0.706
      -0.695
      -0.645
      -0.568
      -0.486
      -0.423
      -0.402
      -0.430
      -0.493
      -0.565
      -0.618
      -0.636
      -0.613
      -0.553
      -0.466
      -0.362
      -0.248
      -0.135
      -0.020
       0.104
       0.254
       0.436
       0.641
       0.839
       0.994
       1.074
       1.068
       0.987
       0.856
       0.702
       0.547
       0.404
       0.280
       0.172
       0.078
      -0.005
      -0.071
      -0.120
      -0.155
      -0.184
      -0.218
      -0.264
      -0.323
      -0.389
      -0.457
      -0.520
      -0.574
      -0.609
      -0.615
      -0.584
      -0.521
      -0.435
      -0.337
      -0.238
      -0.151
      -0.088
      -0.053
      -0.040
      -0.030
      -0.002
       0.053
       0.130
       0.208
       0.269
       0.302
       0.311
       0.311
       0.321
       0.354
       0.411
       0.482
       0.548
       0.586
       0.578
       0.522
       0.424
       0.303
       0.176
       0.053
      -0.060
      -0.156
      -0.224
      -0.256
      -0.247
      -0.205
      -0.144
      -0.079
      -0.026
       0.004
       0.003
      -0.030
      -0.088
      -0.158
      -0.225
      -0.278
      -0.309
      -0.319
      -0.316
      -0.305
      -0.287
      -0.262
      -0.229
      -0.194
      -0.159
      -0.129
      -0.102
      -0.073
      -0.034
       0.022
       0.100
       0.198
       0.303
       0.395
       0.459
       0.492
       0.504
       0.511
       0.521
       0.533
       0.539
       0.536
       0.522
       0.492
       0.439
       0.357
       0.245
       0.112
      -0.033
      -0.181
      -0.324
      -0.450
      -0.545
      -0.602
      -0.621
      -0.617
      -0.607
      -0.608
      -0.623
      -0.641
      -0.641
      -0.612
      -0.551
      -0.463
      -0.349
      -0.209
      -0.046
       0.126
       0.285
       0.414
       0.503
       0.554
       0.580
       0.592
       0.603
       0.618
       0.634
       0.637
       0.615
       0.566
       0.504
       0.452
       0.431
       0.444
       0.480
       0.524
       0.562
       0.590
       0.610
       0.628
       0.646
       0.657
       0.646
       0.599
       0.511
       0.385
       0.231
       0.058
      -0.129
      -0.327
      -0.531
      -0.733
      -0.921
      -1.083
      -1.217
      -1.329
      -1.428
      -1.518
      -1.597
      -1.659
      -1.695
      -1.694
      -1.644
      -1.539
      -1.385
      -1.199
      -1.000
      -0.799
      -0.604
      -0.411
      -0.212
      -0.007
       0.196
       0.386
       0.560
       0.722
       0.870
       0.998
       1.103
       1.183
       1.240
       1.272
       1.276
       1.247
       1.187
       1.094
       0.972
       0.830
       0.681
       0.535
       0.396
       0.264
       0.145
       0.048
      -0.026
      -0.082
      -0.132
      -0.191
      -0.267
      -0.361
      -0.455
      -0.528
      -0.569
      -0.585
      -0.588
      -0.582
      -0.560
      -0.516
      -0.447
      -0.364
      -0.289
      -0.241
      -0.223
      -0.217
      -0.198
      -0.152
      -0.086
      -0.009
       0.080
       0.181
       0.287
       0.387
       0.470
       0.531
       0.573
       0.606
       0.638
       0.668
       0.685
       0.675
       0.638
       0.587
       0.548
       0.542
       0.571
       0.609
       0.631
       0.627
       0.608
       0.595
       0.594
       0.596
       0.586
       0.557
       0.510
       0.444
       0.347
       0.208
       0.027
      -0.181
      -0.402
      -0.624
      -0.838
      -1.028
      -1.183
      -1.297
      -1.370
      -1.409
      -1.418
      -1.397
      -1.341
      -1.245
      -1.106
      -0.921
      -0.686
      -0.415
      -0.131
       0.134
       0.357
       0.518
       0.610
       0.641
       0.629
       0.585
       0.509
       0.401
       0.265
       0.117
      -0.028
      -0.158
      -0.279
      -0.412
      -0.571
      -0.753
      -0.934
      -1.089
      -1.198
      -1.247
      -1.220
      -1.112
      -0.927
      -0.671
      -0.347
       0.041
       0.472
       0.910
       1.312
       1.641
       1.875
       2.020
       2.091
       2.102
       2.052
       1.943
       1.778
       1.566
       1.313
       1.022
       0.700
       0.357
       0.004
      -0.343
      -0.668
      -0.954
      -1.197
      -1.395
      -1.539
      -1.624
      -1.655
      -1.644
      -1.594
      -1.494
      -1.339
      -1.141
      -0.921
      -0.693
      -0.459
      -0.223
       0.006
       0.209
       0.373
       0.500
       0.599
       0.679
       0.744
       0.794
       0.829
       0.847
       0.857
       0.885
       0.953
       1.069
       1.224
       1.403
       1.583
       1.725
       1.797
       1.789
       1.719
       1.612
       1.482
       1.321
       1.105
       0.815
       0.455
       0.057
      -0.332
      -0.679
      -0.993
      -1.301
      -1.621
      -1.945
      -2.262
      -2.567
      -2.853
      -3.104
      -3.301
      -3.421
      -3.447
      -3.367
      -3.181
      -2.901
      -2.546
      -2.133
      -1.673
      -1.178
      -0.673
      -0.182
       0.280
       0.717
       1.136
       1.541
       1.921
       2.248
       2.489
       2.623
       2.652
       2.595
       2.476
       2.313
       2.120
       1.908
       1.690
       1.477
       1.274
       1.076
       0.868
       0.643
       0.408
       0.181
      -0.020
      -0.187
      -0.321
      -0.427
      -0.495
      -0.522
      -0.526
      -0.540
      -0.583
      -0.648
      -0.715
      -0.767
      -0.798
      -0.810
      -0.809
      -0.802
      -0.793
      -0.780
      -0.761
      -0.734
      -0.693
      -0.628
      -0.534
      -0.409
      -0.264
      -0.113
       0.026
       0.143
       0.240
       0.337
       0.456
       0.613
       0.806
       1.016
       1.209
       1.346
       1.401
       1.368
       1.260
       1.104
       0.928
       0.761
       0.622
       0.515
       0.435
       0.374
       0.319
       0.261
       0.191
       0.106
       0.004
      -0.112
      -0.241
      -0.382
      -0.529
      -0.672
      -0.801
      -0.913
      -1.010
      -1.083
      -1.123
      -1.125
      -1.091
      -1.023
      -0.926
      -0.818
      -0.713
      -0.621
      -0.541
      -0.473
      -0.409
      -0.334
      -0.237
      -0.114
       0.027
       0.175
       0.313
       0.422
       0.493
       0.521
       0.504
       0.444
       0.345
       0.215
       0.072
      -0.067
      -0.184
      -0.261
      -0.282
      -0.236
      -0.136
      -0.008
       0.129
       0.266
       0.399
       0.533
       0.668
       0.788
       0.869
       0.899
       0.879
       0.817
       0.719
       0.588
       0.428
       0.243
       0.035
      -0.182
      -0.393
      -0.579
      -0.729
      -0.836
      -0.896
      -0.906
      -0.871
      -0.804
      -0.729
      -0.666
      -0.623
      -0.600
      -0.581
      -0.549
      -0.497
      -0.427
      -0.343
      -0.245
      -0.140
      -0.038
       0.061
       0.162
       0.270
       0.391
       0.522
       0.655
       0.776
       0.882
       0.977
       1.068
       1.152
       1.217
       1.245
       1.226
       1.159
       1.050
       0.903
       0.726
       0.528
       0.324
       0.131
      -0.037
      -0.173
      -0.287
      -0.393
      -0.504
      -0.621
      -0.737
      -0.841
      -0.924
      -0.989
      -1.039
      -1.073
      -1.087
      -1.075
      -1.031
      -0.950
      -0.839
      -0.711
      -0.573
      -0.430
      -0.286
      -0.148
      -0.018
       0.111
       0.245
       0.381
       0.505
       0.604
       0.677
       0.730
       0.770
       0.802
       0.827
       0.839
       0.833
       0.804
       0.753
       0.680
       0.589
       0.485
       0.376
       0.265
       0.150
       0.026
      -0.106
      -0.240
      -0.371
      -0.487
      -0.579
      -0.641
      -0.675
      -0.687
      -0.688
      -0.682
      -0.672
      -0.653
      -0.620
      -0.568
      -0.500
      -0.416
      -0.316
      -0.205
      -0.095
       0.007
       0.099
       0.185
       0.264
       0.334
       0.392
       0.437
       0.469
       0.493
       0.513
       0.531
       0.542
       0.533
       0.496
       0.431
       0.345
       0.246
       0.144
       0.049
      -0.032
      -0.094
      -0.136
      -0.158
      -0.159
      -0.142
      -0.110
      -0.072
      -0.034
       0.000
       0.030
       0.058
       0.081
       0.094
       0.088
       0.061
       0.017
      -0.037
      -0.095
      -0.155
      -0.215
      -0.262
      -0.287
      -0.287
      -0.266
      -0.233
      -0.191
      -0.140
      -0.080
      -0.017
       0.041
       0.083
       0.111
       0.134
       0.158
       0.181
       0.203
       0.227
       0.261
       0.302
       0.345
       0.379
       0.395
       0.385
       0.350
       0.292
       0.220
       0.141
       0.061
      -0.014
      -0.078
      -0.130
      -0.167
      -0.182
      -0.176
      -0.154
      -0.122
      -0.087
      -0.051
      -0.014
       0.027
       0.071
       0.112
       0.140
       0.150
       0.142
       0.117
       0.078
       0.026
      -0.041
      -0.123
      -0.217
      -0.323
      -0.440
      -0.558
      -0.664
      -0.742
      -0.784
      -0.783
      -0.739
      -0.661
      -0.563
      -0.461
      -0.369
      -0.295
      -0.239
      -0.189
      -0.134
      -0.073
      -0.009
       0.050
       0.095
       0.128
       0.151
       0.171
       0.191
       0.219
       0.260
       0.311
       0.361
       0.394
       0.402
       0.389
       0.361
       0.323
       0.275
       0.221
       0.166
       0.116
       0.078
       0.055
       0.048
       0.051
       0.055
       0.054
       0.041
       0.013
      -0.034
      -0.095
      -0.162
      -0.225
      -0.274
      -0.306
      -0.322
      -0.322
      -0.307
      -0.278
      -0.234
      -0.178
      -0.110
      -0.033
       0.046
       0.115
       0.170
       0.209
       0.231
       0.231
       0.204
       0.153
       0.088
       0.019
      -0.043
      -0.090
      -0.116
      -0.114
      -0.083
      -0.030
       0.033
       0.095
       0.146
       0.182
       0.204
       0.213
       0.212
       0.201
       0.182
       0.156
       0.132
       0.121
       0.124
       0.137
       0.150
       0.158
       0.159
       0.152
       0.131
       0.096
       0.050
       0.000
      -0.046
      -0.084
      -0.112
      -0.130
      -0.141
      -0.145
      -0.143
      -0.132
      -0.114
      -0.088
      -0.061
      -0.036
