Origin Time       28/07/2011 18:42:34 UTC
Lat.              33.3 N 
Long.             76.0 E	
Depth (Km)         21.0
Magnitude         4.4
 Region           J&K-Border                                                       
 Above details taken from IMD 
    
Station Code      SAL
Station Lat.       32.704  N
Station Long.      76.057  E
Station Height(m)    0.0
Site Class        A   Vs30 between 700 m/sec to 1400 m/sec * 
Record Time       28.07.2011 18:42:37.609 UTC
Sampling Rate     200. Hz
 Record Duration   65.290 Sec.
 Direction         N-S (N positive)
Max. Acceleration      6.662 cm/sec**2
     
  * For reference see Site Classification link of website 
     
 Base Line Corrected and Low Pass Filtered (Cut Off at 35 Hz) Time History
 Acceleration data in cm/sec**2
    
[...]
       0.074
       0.106
       0.123
       0.123
       0.108
       0.080
       0.043
       0.002
      -0.040
      -0.076
      -0.104
      -0.122
      -0.132
      -0.132
      -0.124
      -0.108
      -0.090
      -0.076
      -0.071
      -0.077
      -0.089
      -0.103
      -0.114
      -0.122
      -0.130
      -0.141
      -0.156
      -0.173
      -0.185
      -0.189
      -0.180
      -0.158
      -0.121
      -0.074
      -0.023
       0.021
       0.055
       0.077
       0.093
       0.107
       0.121
       0.133
       0.142
       0.152
       0.162
       0.170
       0.171
       0.164
       0.151
       0.137
       0.128
       0.125
       0.128
       0.134
       0.142
       0.150
       0.153
       0.145
       0.119
       0.076
       0.021
      -0.032
      -0.074
      -0.102
      -0.117
      -0.122
      -0.121
      -0.113
      -0.099
      -0.078
      -0.050
      -0.016
       0.020
       0.054
       0.082
       0.102
       0.115
       0.124
       0.130
       0.133
       0.130
       0.119
       0.099
       0.075
       0.057
       0.050
       0.052
       0.057
       0.053
       0.039
       0.022
       0.012
       0.012
       0.013
       0.005
      -0.023
      -0.069
      -0.127
      -0.184
      -0.233
      -0.270
      -0.292
      -0.296
      -0.280
      -0.242
      -0.188
      -0.132
      -0.082
      -0.043
      -0.008
       0.028
       0.069
       0.110
       0.142
       0.156
       0.155
       0.147
       0.141
       0.144
       0.154
       0.167
       0.172
       0.163
       0.137
       0.097
       0.050
       0.006
      -0.030
      -0.061
      -0.089
      -0.117
      -0.144
      -0.164
      -0.176
      -0.178
      -0.172
      -0.161
      -0.147
      -0.129
      -0.109
      -0.087
      -0.064
      -0.039
      -0.015
       0.006
       0.024
       0.039
       0.050
       0.056
       0.056
       0.050
       0.038
       0.021
      -0.001
      -0.024
      -0.046
      -0.065
      -0.083
      -0.102
      -0.124
      -0.150
      -0.176
      -0.197
      -0.211
      -0.216
      -0.208
      -0.188
      -0.156
      -0.111
      -0.054
       0.012
       0.082
       0.147
       0.201
       0.243
       0.275
       0.301
       0.320
       0.326
       0.316
       0.293
       0.268
       0.253
       0.253
       0.266
       0.282
       0.291
       0.279
       0.243
       0.183
       0.115
       0.056
       0.019
       0.003
       0.000
      -0.002
      -0.010
      -0.023
      -0.037
      -0.052
      -0.070
      -0.091
      -0.109
      -0.117
      -0.113
      -0.101
      -0.089
      -0.085
      -0.090
      -0.101
      -0.113
      -0.125
      -0.138
      -0.155
      -0.178
      -0.207
      -0.240
      -0.272
      -0.294
      -0.302
      -0.289
      -0.255
      -0.204
      -0.142
      -0.079
      -0.022
       0.020
       0.047
       0.061
       0.070
       0.085
       0.111
       0.147
       0.182
       0.206
       0.212
       0.203
       0.184
       0.162
       0.138
       0.111
       0.076
       0.033
      -0.013
      -0.058
      -0.097
      -0.127
      -0.144
      -0.144
      -0.130
      -0.105
      -0.073
      -0.035
       0.006
       0.045
       0.075
       0.092
       0.101
       0.106
       0.115
       0.128
       0.145
       0.161
       0.172
       0.178
       0.179
       0.172
       0.154
       0.122
       0.078
       0.029
      -0.014
      -0.041
      -0.051
      -0.051
      -0.048
      -0.052
      -0.070
      -0.102
      -0.145
      -0.188
      -0.217
      -0.221
      -0.198
      -0.153
      -0.099
      -0.044
       0.009
       0.060
       0.109
       0.152
       0.188
       0.212
       0.220
       0.210
       0.181
       0.135
       0.076
       0.014
      -0.043
      -0.089
      -0.123
      -0.149
      -0.171
      -0.190
      -0.206
      -0.213
      -0.210
      -0.197
      -0.175
      -0.146
      -0.112
      -0.079
      -0.052
      -0.033
      -0.017
       0.004
       0.035
       0.075
       0.121
       0.164
       0.199
       0.220
       0.231
       0.235
       0.234
       0.223
       0.198
       0.159
       0.110
       0.056
       0.001
      -0.055
      -0.112
      -0.168
      -0.215
      -0.245
      -0.251
      -0.232
      -0.194
      -0.149
      -0.102
      -0.056
      -0.004
       0.057
       0.125
       0.191
       0.239
       0.260
       0.252
       0.221
       0.176
       0.125
       0.074
       0.023
      -0.026
      -0.070
      -0.109
      -0.142
      -0.168
      -0.191
      -0.213
      -0.241
      -0.276
      -0.318
      -0.358
      -0.381
      -0.373
      -0.329
      -0.253
      -0.160
      -0.065
       0.019
       0.085
       0.128
       0.151
       0.158
       0.156
       0.148
       0.141
       0.136
       0.134
       0.129
       0.115
       0.087
       0.046
       0.001
      -0.036
      -0.060
      -0.069
      -0.071
      -0.076
      -0.089
      -0.107
      -0.118
      -0.112
      -0.086
      -0.042
       0.011
       0.068
       0.126
       0.185
       0.247
       0.307
       0.361
       0.398
       0.417
       0.420
       0.413
       0.400
       0.384
       0.361
       0.331
       0.294
       0.250
       0.201
       0.152
       0.100
       0.048
      -0.006
      -0.058
      -0.107
      -0.151
      -0.190
      -0.227
      -0.261
      -0.293
      -0.320
      -0.342
      -0.359
      -0.372
      -0.380
      -0.378
      -0.366
      -0.344
      -0.316
      -0.287
      -0.260
      -0.236
      -0.216
      -0.198
      -0.182
      -0.168
      -0.156
      -0.145
      -0.133
      -0.120
      -0.104
      -0.085
      -0.058
      -0.023
       0.021
       0.068
       0.113
       0.152
       0.186
       0.212
       0.228
       0.232
       0.228
       0.223
       0.217
       0.209
       0.194
       0.167
       0.133
       0.094
       0.054
       0.015
      -0.021
      -0.049
      -0.070
      -0.084
      -0.094
      -0.104
      -0.116
      -0.128
      -0.134
      -0.124
      -0.097
      -0.057
      -0.013
       0.024
       0.054
       0.078
       0.102
       0.124
       0.145
       0.163
       0.182
       0.203
       0.226
       0.244
       0.249
       0.239
       0.213
       0.178
       0.137
       0.094
       0.049
       0.006
      -0.033
      -0.064
      -0.084
      -0.088
      -0.077
      -0.050
      -0.013
       0.025
       0.056
       0.078
       0.089
       0.092
       0.090
       0.087
       0.085
       0.088
       0.096
       0.111
       0.128
       0.148
       0.174
       0.209
       0.255
       0.306
       0.352
       0.381
       0.380
       0.349
       0.291
       0.214
       0.126
       0.034
      -0.058
      -0.144
      -0.218
      -0.279
      -0.329
      -0.372
      -0.417
      -0.468
      -0.527
      -0.591
      -0.653
      -0.704
      -0.737
      -0.748
      -0.735
      -0.696
      -0.632
      -0.540
      -0.422
      -0.284
      -0.136
       0.010
       0.138
       0.241
       0.313
       0.356
       0.374
       0.372
       0.357
       0.336
       0.315
       0.298
       0.283
       0.265
       0.240
       0.204
       0.158
       0.107
       0.054
      -0.001
      -0.058
      -0.113
      -0.159
      -0.188
      -0.201
      -0.206
      -0.215
      -0.232
      -0.249
      -0.253
      -0.234
      -0.190
      -0.125
      -0.050
       0.024
       0.087
       0.134
       0.165
       0.185
       0.197
       0.205
       0.212
       0.215
       0.210
       0.191
       0.157
       0.112
       0.067
       0.036
       0.026
       0.042
       0.082
       0.143
       0.218
       0.297
       0.367
       0.415
       0.431
       0.410
       0.355
       0.278
       0.191
       0.108
       0.036
      -0.022
      -0.073
      -0.129
      -0.204
      -0.304
      -0.429
      -0.562
      -0.678
      -0.752
      -0.774
      -0.752
      -0.712
      -0.679
      -0.673
      -0.691
      -0.717
      -0.723
      -0.687
      -0.593
      -0.442
      -0.245
      -0.024
       0.195
       0.389
       0.546
       0.667
       0.762
       0.846
       0.929
       1.014
       1.100
       1.184
       1.260
       1.318
       1.346
       1.333
       1.273
       1.164
       1.007
       0.813
       0.597
       0.379
       0.174
      -0.005
      -0.151
      -0.260
      -0.337
      -0.397
      -0.453
      -0.514
      -0.576
      -0.626
      -0.654
      -0.658
      -0.647
      -0.636
      -0.641
      -0.668
      -0.711
      -0.749
      -0.757
      -0.719
      -0.636
      -0.522
      -0.392
      -0.259
      -0.128
      -0.007
       0.095
       0.168
       0.201
       0.189
       0.138
       0.061
      -0.022
      -0.093
      -0.142
      -0.172
      -0.192
      -0.210
      -0.226
      -0.236
      -0.234
      -0.220
      -0.200
      -0.185
      -0.182
      -0.200
      -0.242
      -0.306
      -0.388
      -0.474
      -0.545
      -0.581
      -0.569
      -0.510
      -0.415
      -0.299
      -0.183
      -0.084
      -0.016
       0.014
       0.008
      -0.024
      -0.059
      -0.071
      -0.042
       0.039
       0.164
       0.312
       0.460
       0.586
       0.672
       0.707
       0.689
       0.630
       0.556
       0.498
       0.476
       0.497
       0.549
       0.611
       0.667
       0.709
       0.738
       0.760
       0.773
       0.769
       0.731
       0.642
       0.494
       0.290
       0.049
      -0.210
      -0.460
      -0.673
      -0.824
      -0.892
      -0.874
      -0.780
      -0.631
      -0.452
      -0.264
      -0.090
       0.051
       0.149
       0.198
       0.199
       0.154
       0.072
      -0.034
      -0.140
      -0.218
      -0.240
      -0.193
      -0.082
       0.070
       0.230
       0.371
       0.473
       0.528
       0.535
       0.497
       0.423
       0.317
       0.187
       0.036
      -0.133
      -0.309
      -0.476
      -0.613
      -0.697
      -0.713
      -0.657
      -0.539
      -0.377
      -0.194
      -0.013
       0.143
       0.251
       0.301
       0.296
       0.257
       0.208
       0.170
       0.148
       0.140
       0.142
       0.152
       0.170
       0.189
       0.203
       0.204
       0.190
       0.165
       0.136
       0.112
       0.095
       0.083
       0.071
       0.054
       0.024
      -0.020
      -0.078
      -0.145
      -0.214
      -0.280
      -0.341
      -0.393
      -0.433
      -0.453
      -0.446
      -0.406
      -0.335
      -0.246
      -0.156
      -0.078
      -0.019
       0.027
       0.066
       0.099
       0.125
       0.141
       0.149
       0.155
       0.166
       0.187
       0.217
       0.253
       0.293
       0.336
       0.383
       0.435
       0.491
       0.547
       0.596
       0.635
       0.661
       0.669
       0.652
       0.601
       0.512
       0.389
       0.242
       0.095
      -0.030
      -0.114
      -0.151
      -0.148
      -0.124
      -0.099
      -0.086
      -0.089
      -0.110
      -0.146
      -0.201
      -0.282
      -0.395
      -0.534
      -0.685
      -0.827
      -0.939
      -1.010
      -1.038
      -1.030
      -0.997
      -0.952
      -0.903
      -0.855
      -0.813
      -0.781
      -0.760
      -0.745
      -0.727
      -0.693
      -0.630
      -0.531
      -0.395
      -0.227
      -0.039
       0.155
       0.340
       0.507
       0.649
       0.763
       0.840
       0.868
       0.837
       0.740
       0.581
       0.370
       0.120
      -0.154
      -0.440
      -0.728
      -1.010
      -1.282
      -1.537
      -1.772
      -1.985
      -2.174
      -2.339
      -2.473
      -2.561
      -2.585
      -2.527
      -2.377
      -2.137
      -1.814
      -1.416
      -0.953
      -0.433
       0.133
       0.742
       1.389
       2.068
       2.763
       3.450
       4.100
       4.692
       5.210
       5.648
       5.995
       6.239
       6.368
       6.376
       6.266
       6.043
       5.719
       5.308
       4.823
       4.275
       3.669
       3.011
       2.301
       1.550
       0.774
      -0.003
      -0.760
      -1.490
      -2.194
      -2.877
      -3.537
      -4.166
      -4.751
      -5.279
      -5.739
      -6.118
      -6.402
      -6.579
      -6.646
      -6.604
      -6.459
      -6.218
      -5.890
      -5.485
      -5.013
      -4.485
      -3.909
      -3.295
      -2.653
      -1.996
      -1.333
      -0.669
      -0.007
       0.653
       1.308
       1.955
       2.588
       3.200
       3.784
       4.327
       4.818
       5.237
       5.564
       5.780
       5.872
       5.836
       5.666
       5.352
       4.891
       4.296
       3.597
       2.833
       2.037
       1.231
       0.426
      -0.369
      -1.146
      -1.895
      -2.606
      -3.278
      -3.904
      -4.472
      -4.960
      -5.344
      -5.605
      -5.730
      -5.715
      -5.557
      -5.255
      -4.814
      -4.246
      -3.567
      -2.792
      -1.927
      -0.977
       0.045
       1.108
       2.167
       3.176
       4.096
       4.902
       5.578
       6.109
       6.476
       6.662
       6.660
       6.472
       6.112
       5.602
       4.970
       4.244
       3.450
       2.608
       1.732
       0.831
      -0.080
      -0.984
      -1.854
      -2.666
      -3.394
      -4.015
      -4.508
      -4.859
      -5.063
      -5.122
      -5.043
      -4.835
      -4.503
      -4.056
      -3.511
      -2.898
      -2.253
      -1.608
      -0.983
      -0.392
       0.158
       0.663
       1.123
       1.538
       1.903
       2.211
       2.453
       2.618
       2.705
       2.719
       2.675
       2.588
       2.472
       2.331
       2.165
       1.977
       1.773
       1.565
       1.359
       1.157
       0.950
       0.727
       0.481
       0.208
      -0.092
      -0.418
      -0.768
      -1.141
      -1.532
      -1.928
      -2.314
      -2.675
      -3.007
      -3.309
      -3.581
      -3.810
      -3.976
      -4.057
      -4.033
      -3.894
      -3.638
      -3.274
      -2.817
      -2.289
      -1.714
      -1.118
      -0.527
       0.045
       0.594
       1.124
       1.635
       2.125
       2.592
       3.025
       3.411
       3.730
       3.965
       4.102
       4.133
       4.053
       3.855
       3.537
       3.109
       2.593
       2.026
       1.447
       0.888
       0.374
      -0.081
      -0.468
      -0.783
      -1.022
      -1.183
      -1.265
      -1.263
      -1.178
      -1.020
      -0.802
      -0.538
      -0.245
       0.060
       0.356
       0.618
       0.823
       0.961
       1.032
       1.045
       1.012
       0.940
       0.835
       0.703
       0.540
       0.345
       0.113
      -0.150
      -0.431
      -0.714
      -0.985
      -1.231
      -1.442
      -1.613
      -1.743
      -1.840
      -1.906
      -1.936
      -1.921
      -1.849
      -1.718
      -1.531
      -1.296
      -1.021
      -0.718
      -0.392
      -0.053
       0.292
       0.627
       0.935
       1.199
       1.406
       1.547
       1.615
       1.604
       1.515
       1.358
       1.151
       0.917
       0.676
       0.445
       0.241
       0.076
      -0.046
      -0.127
      -0.175
      -0.199
      -0.208
      -0.215
      -0.237
      -0.289
      -0.381
      -0.513
      -0.671
      -0.834
      -0.978
      -1.085
      -1.148
      -1.168
      -1.151
      -1.104
      -1.034
      -0.954
      -0.878
      -0.821
      -0.794
      -0.796
      -0.816
      -0.837
      -0.845
      -0.830
      -0.783
      -0.693
      -0.547
      -0.336
      -0.065
       0.252
       0.589
       0.919
       1.214
       1.459
       1.643
       1.766
       1.830
       1.842
       1.806
       1.727
       1.610
       1.464
       1.289
       1.090
       0.868
       0.630
       0.390
       0.162
      -0.038
      -0.199
      -0.319
      -0.406
      -0.471
      -0.520
      -0.555
      -0.574
      -0.579
      -0.569
      -0.541
      -0.488
      -0.399
      -0.274
      -0.121
       0.047
       0.214
       0.373
       0.517
       0.639
       0.733
       0.788
       0.792
       0.737
       0.624
       0.459
       0.258
       0.042
      -0.173
      -0.373
      -0.547
      -0.688
      -0.793
      -0.864
      -0.913
      -0.956
      -1.004
      -1.059
      -1.115
      -1.164
      -1.199
      -1.211
      -1.193
      -1.142
      -1.060
      -0.958
      -0.849
      -0.743
      -0.642
      -0.546
      -0.452
      -0.358
      -0.258
      -0.149
      -0.032
       0.083
       0.193
       0.297
       0.400
       0.512
       0.636
       0.773
       0.925
       1.092
       1.274
       1.463
       1.647
       1.813
       1.951
       2.052
       2.113
       2.129
       2.098
       2.023
       1.911
       1.764
       1.584
       1.375
       1.144
       0.900
       0.654
       0.413
       0.183
      -0.034
      -0.238
      -0.434
      -0.629
      -0.828
      -1.034
      -1.244
      -1.452
      -1.651
      -1.831
      -1.982
      -2.090
      -2.151
      -2.163
      -2.131
      -2.055
      -1.937
      -1.782
      -1.601
      -1.411
      -1.224
      -1.049
      -0.885
      -0.735
      -0.602
      -0.496
      -0.422
      -0.379
      -0.356
      -0.341
      -0.318
      -0.282
      -0.230
      -0.163
      -0.083
       0.014
       0.130
       0.262
       0.407
       0.557
       0.709
       0.863
       1.019
       1.175
       1.325
       1.459
       1.567
       1.643
       1.684
       1.690
       1.665
       1.616
       1.553
       1.482
       1.407
       1.327
       1.236
       1.134
       1.024
       0.911
       0.799
       0.687
       0.571
       0.449
       0.321
       0.193
       0.074
      -0.030
      -0.117
      -0.192
      -0.259
      -0.327
      -0.399
      -0.478
      -0.556
      -0.625
      -0.679
      -0.717
      -0.743
      -0.766
      -0.792
      -0.824
      -0.867
      -0.924
      -0.999
      -1.088
      -1.186
      -1.282
      -1.368
      -1.435
      -1.475
      -1.485
      -1.470
      -1.436
      -1.389
      -1.328
      -1.247
      -1.137
      -0.996
      -0.826
      -0.630
      -0.415
      -0.188
       0.040
       0.257
       0.453
       0.622
       0.763
       0.877
       0.963
       1.020
       1.048
       1.054
       1.048
       1.036
       1.022
       1.003
       0.976
       0.941
       0.892
       0.826
       0.735
       0.619
       0.484
       0.338
       0.193
       0.056
      -0.064
      -0.163
      -0.236
      -0.285
      -0.307
      -0.304
      -0.277
      -0.230
      -0.171
      -0.110
      -0.055
      -0.008
       0.029
       0.060
       0.084
       0.102
       0.118
       0.134
       0.150
       0.164
       0.172
