Origin Time       28/07/2011 18:42:34
Lat.              33.3 N 
Long.             76.0 E	
Depth (Km)         21.0
Magnitude         4.4
 Region           J&K-Border                                                       
 Above details taken from IMD 
     
Station Code      SAL
Station Lat.       32.704  N
Station Long.      76.057  E
Station Height(m)    0.0
Site Class        A   Vs30 between 700 m/sec to 1400 m/sec * 
Record Time       28.07.2011 18:42:37.609
Sampling Rate     200. Hz
 Record Duration   65.290 Sec.
 Direction         E-W (E positive)
Max. Acceleration     -4.150 cm/sec**2
     
  * For reference see Site Classification link of website 
     
 Base Line Corrected and Low Pass Filtered (Cut Off at 35 Hz) Time History
 Acceleration data in cm/sec**2
    
[...]
      -0.166
      -0.278
      -0.400
      -0.517
      -0.614
      -0.680
      -0.713
      -0.714
      -0.686
      -0.632
      -0.553
      -0.456
      -0.350
      -0.244
      -0.147
      -0.066
      -0.005
       0.034
       0.056
       0.071
       0.094
       0.133
       0.185
       0.242
       0.295
       0.340
       0.375
       0.397
       0.398
       0.369
       0.308
       0.219
       0.113
       0.002
      -0.109
      -0.216
      -0.316
      -0.402
      -0.463
      -0.487
      -0.468
      -0.409
      -0.321
      -0.220
      -0.122
      -0.040
       0.022
       0.062
       0.086
       0.098
       0.103
       0.107
       0.116
       0.132
       0.158
       0.193
       0.237
       0.284
       0.325
       0.352
       0.363
       0.362
       0.352
       0.333
       0.299
       0.248
       0.184
       0.116
       0.055
       0.008
      -0.021
      -0.032
      -0.019
       0.017
       0.072
       0.135
       0.190
       0.225
       0.233
       0.219
       0.188
       0.145
       0.089
       0.018
      -0.067
      -0.150
      -0.218
      -0.262
      -0.283
      -0.290
      -0.294
      -0.293
      -0.287
      -0.272
      -0.258
      -0.256
      -0.277
      -0.319
      -0.366
      -0.399
      -0.407
      -0.391
      -0.360
      -0.320
      -0.271
      -0.209
      -0.133
      -0.046
       0.046
       0.139
       0.228
       0.306
       0.363
       0.387
       0.376
       0.337
       0.284
       0.230
       0.185
       0.150
       0.123
       0.099
       0.073
       0.046
       0.017
      -0.014
      -0.051
      -0.092
      -0.133
      -0.168
      -0.192
      -0.210
      -0.227
      -0.248
      -0.273
      -0.293
      -0.301
      -0.291
      -0.263
      -0.220
      -0.167
      -0.106
      -0.044
       0.015
       0.069
       0.123
       0.183
       0.250
       0.314
       0.358
       0.372
       0.355
       0.319
       0.279
       0.246
       0.226
       0.217
       0.212
       0.200
       0.175
       0.135
       0.087
       0.037
      -0.010
      -0.048
      -0.072
      -0.079
      -0.073
      -0.061
      -0.055
      -0.061
      -0.079
      -0.101
      -0.118
      -0.119
      -0.099
      -0.063
      -0.018
       0.026
       0.063
       0.095
       0.121
       0.145
       0.168
       0.190
       0.206
       0.209
       0.193
       0.158
       0.117
       0.083
       0.067
       0.068
       0.076
       0.078
       0.065
       0.034
      -0.007
      -0.052
      -0.099
      -0.146
      -0.193
      -0.239
      -0.280
      -0.310
      -0.324
      -0.319
      -0.298
      -0.268
      -0.238
      -0.209
      -0.179
      -0.146
      -0.116
      -0.095
      -0.085
      -0.081
      -0.076
      -0.062
      -0.042
      -0.015
       0.017
       0.054
       0.095
       0.131
       0.154
       0.160
       0.149
       0.129
       0.105
       0.080
       0.052
       0.022
      -0.007
      -0.024
      -0.020
       0.002
       0.032
       0.060
       0.080
       0.094
       0.106
       0.115
       0.121
       0.123
       0.123
       0.123
       0.122
       0.121
       0.118
       0.114
       0.106
       0.094
       0.075
       0.054
       0.034
       0.017
       0.004
      -0.009
      -0.024
      -0.045
      -0.070
      -0.096
      -0.120
      -0.142
      -0.158
      -0.166
      -0.161
      -0.140
      -0.106
      -0.063
      -0.016
       0.033
       0.083
       0.129
       0.170
       0.205
       0.236
       0.262
       0.281
       0.286
       0.277
       0.259
       0.240
       0.226
       0.220
       0.217
       0.209
       0.184
       0.129
       0.041
      -0.077
      -0.208
      -0.326
      -0.410
      -0.453
      -0.462
      -0.452
      -0.437
      -0.423
      -0.409
      -0.392
      -0.365
      -0.324
      -0.267
      -0.201
      -0.135
      -0.076
      -0.022
       0.031
       0.089
       0.156
       0.229
       0.301
       0.361
       0.398
       0.408
       0.391
       0.356
       0.312
       0.271
       0.236
       0.210
       0.191
       0.177
       0.164
       0.149
       0.126
       0.090
       0.039
      -0.026
      -0.100
      -0.170
      -0.222
      -0.246
      -0.239
      -0.209
      -0.165
      -0.113
      -0.061
      -0.015
       0.017
       0.026
       0.009
      -0.025
      -0.062
      -0.085
      -0.092
      -0.089
      -0.085
      -0.084
      -0.080
      -0.064
      -0.037
      -0.007
       0.010
       0.008
      -0.013
      -0.038
      -0.053
      -0.047
      -0.019
       0.023
       0.068
       0.112
       0.154
       0.192
       0.222
       0.237
       0.231
       0.205
       0.163
       0.117
       0.077
       0.054
       0.048
       0.053
       0.056
       0.045
       0.015
      -0.033
      -0.088
      -0.139
      -0.179
      -0.206
      -0.222
      -0.232
      -0.234
      -0.220
      -0.183
      -0.121
      -0.042
       0.041
       0.117
       0.177
       0.219
       0.242
       0.247
       0.239
       0.221
       0.196
       0.167
       0.135
       0.102
       0.070
       0.041
       0.010
      -0.030
      -0.083
      -0.147
      -0.213
      -0.272
      -0.323
      -0.366
      -0.399
      -0.420
      -0.426
      -0.420
      -0.405
      -0.380
      -0.346
      -0.304
      -0.261
      -0.219
      -0.178
      -0.133
      -0.077
      -0.007
       0.074
       0.158
       0.233
       0.288
       0.317
       0.320
       0.299
       0.261
       0.213
       0.163
       0.119
       0.086
       0.070
       0.071
       0.086
       0.107
       0.128
       0.145
       0.155
       0.155
       0.148
       0.138
       0.133
       0.135
       0.139
       0.138
       0.125
       0.102
       0.076
       0.052
       0.033
       0.015
      -0.004
      -0.027
      -0.055
      -0.087
      -0.120
      -0.154
      -0.190
      -0.231
      -0.278
      -0.326
      -0.368
      -0.397
      -0.409
      -0.399
      -0.369
      -0.320
      -0.259
      -0.190
      -0.115
      -0.033
       0.051
       0.127
       0.184
       0.214
       0.220
       0.208
       0.188
       0.163
       0.135
       0.108
       0.087
       0.078
       0.082
       0.093
       0.102
       0.098
       0.082
       0.061
       0.047
       0.044
       0.049
       0.054
       0.057
       0.062
       0.076
       0.105
       0.146
       0.190
       0.226
       0.250
       0.268
       0.289
       0.319
       0.353
       0.381
       0.393
       0.388
       0.371
       0.349
       0.325
       0.298
       0.260
       0.208
       0.144
       0.079
       0.022
      -0.023
      -0.058
      -0.088
      -0.118
      -0.148
      -0.178
      -0.207
      -0.235
      -0.259
      -0.278
      -0.294
      -0.304
      -0.305
      -0.298
      -0.284
      -0.264
      -0.240
      -0.212
      -0.181
      -0.152
      -0.131
      -0.121
      -0.122
      -0.129
      -0.140
      -0.148
      -0.150
      -0.147
      -0.140
      -0.132
      -0.124
      -0.117
      -0.108
      -0.092
      -0.067
      -0.031
       0.014
       0.065
       0.114
       0.158
       0.199
       0.237
       0.274
       0.303
       0.316
       0.305
       0.267
       0.206
       0.132
       0.061
       0.008
      -0.022
      -0.032
      -0.031
      -0.027
      -0.028
      -0.039
      -0.062
      -0.094
      -0.124
      -0.143
      -0.150
      -0.149
      -0.143
      -0.133
      -0.113
      -0.080
      -0.033
       0.024
       0.086
       0.149
       0.210
       0.268
       0.315
       0.345
       0.349
       0.325
       0.275
       0.210
       0.136
       0.060
      -0.017
      -0.098
      -0.181
      -0.260
      -0.322
      -0.355
      -0.352
      -0.313
      -0.253
      -0.192
      -0.154
      -0.152
      -0.191
      -0.267
      -0.368
      -0.475
      -0.567
      -0.626
      -0.642
      -0.614
      -0.552
      -0.467
      -0.368
      -0.262
      -0.153
      -0.050
       0.039
       0.105
       0.152
       0.189
       0.228
       0.269
       0.304
       0.318
       0.301
       0.257
       0.193
       0.123
       0.058
       0.002
      -0.042
      -0.081
      -0.116
      -0.146
      -0.164
      -0.160
      -0.129
      -0.074
      -0.001
       0.081
       0.164
       0.241
       0.303
       0.345
       0.368
       0.379
       0.391
       0.416
       0.460
       0.525
       0.601
       0.676
       0.733
       0.762
       0.756
       0.718
       0.657
       0.585
       0.511
       0.442
       0.375
       0.304
       0.219
       0.112
      -0.015
      -0.151
      -0.276
      -0.370
      -0.427
      -0.455
      -0.472
      -0.500
      -0.554
      -0.643
      -0.765
      -0.901
      -1.016
      -1.072
      -1.036
      -0.902
      -0.692
      -0.451
      -0.229
      -0.067
       0.020
       0.039
       0.014
      -0.023
      -0.044
      -0.030
       0.024
       0.115
       0.229
       0.356
       0.485
       0.610
       0.723
       0.814
       0.874
       0.894
       0.871
       0.804
       0.694
       0.547
       0.380
       0.214
       0.072
      -0.029
      -0.083
      -0.095
      -0.077
      -0.055
      -0.055
      -0.098
      -0.193
      -0.336
      -0.505
      -0.675
      -0.829
      -0.961
      -1.070
      -1.151
      -1.184
      -1.145
      -1.021
      -0.821
      -0.571
      -0.311
      -0.073
       0.118
       0.249
       0.312
       0.309
       0.254
       0.178
       0.122
       0.124
       0.208
       0.375
       0.603
       0.854
       1.083
       1.248
       1.316
       1.275
       1.134
       0.917
       0.661
       0.396
       0.153
      -0.045
      -0.176
      -0.232
      -0.219
      -0.157
      -0.074
       0.002
       0.048
       0.045
      -0.016
      -0.130
      -0.275
      -0.419
      -0.535
      -0.604
      -0.626
      -0.607
      -0.551
      -0.459
      -0.328
      -0.164
       0.019
       0.196
       0.337
       0.423
       0.448
       0.426
       0.380
       0.337
       0.313
       0.318
       0.348
       0.396
       0.445
       0.476
       0.475
       0.433
       0.350
       0.232
       0.088
      -0.074
      -0.246
      -0.423
      -0.599
      -0.762
      -0.893
      -0.967
      -0.965
      -0.888
      -0.760
      -0.622
      -0.517
      -0.478
      -0.512
      -0.604
      -0.727
      -0.842
      -0.916
      -0.923
      -0.851
      -0.700
      -0.488
      -0.244
      -0.001
       0.210
       0.374
       0.491
       0.570
       0.615
       0.622
       0.582
       0.494
       0.364
       0.217
       0.087
       0.006
      -0.002
       0.066
       0.195
       0.359
       0.534
       0.698
       0.831
       0.913
       0.931
       0.882
       0.773
       0.619
       0.436
       0.243
       0.063
      -0.081
      -0.170
      -0.194
      -0.157
      -0.070
       0.047
       0.174
       0.293
       0.390
       0.458
       0.487
       0.477
       0.433
       0.373
       0.314
       0.262
       0.209
       0.137
       0.036
      -0.093
      -0.230
      -0.347
      -0.421
      -0.445
      -0.423
      -0.372
      -0.310
      -0.255
      -0.220
      -0.220
      -0.265
      -0.359
      -0.492
      -0.638
      -0.764
      -0.841
      -0.854
      -0.803
      -0.697
      -0.554
      -0.391
      -0.226
      -0.078
       0.038
       0.114
       0.153
       0.166
       0.167
       0.167
       0.175
       0.197
       0.235
       0.289
       0.357
       0.438
       0.529
       0.621
       0.696
       0.734
       0.721
       0.654
       0.539
       0.385
       0.202
       0.001
      -0.203
      -0.392
      -0.546
      -0.656
      -0.718
      -0.737
      -0.721
      -0.677
      -0.614
      -0.537
      -0.450
      -0.355
      -0.253
      -0.153
      -0.062
       0.018
       0.096
       0.189
       0.312
       0.470
       0.654
       0.847
       1.023
       1.158
       1.233
       1.247
       1.214
       1.150
       1.064
       0.955
       0.818
       0.661
       0.501
       0.357
       0.239
       0.141
       0.047
      -0.059
      -0.186
      -0.338
      -0.510
      -0.690
      -0.864
      -1.018
      -1.148
      -1.255
      -1.344
      -1.415
      -1.461
      -1.471
      -1.438
      -1.363
      -1.263
      -1.160
      -1.073
      -1.010
      -0.974
      -0.964
      -0.980
      -1.020
      -1.076
      -1.133
      -1.171
      -1.174
      -1.128
      -1.023
      -0.852
      -0.612
      -0.311
       0.031
       0.384
       0.719
       1.013
       1.254
       1.442
       1.580
       1.679
       1.755
       1.831
       1.929
       2.069
       2.257
       2.486
       2.733
       2.966
       3.157
       3.282
       3.328
       3.289
       3.165
       2.962
       2.696
       2.383
       2.037
       1.660
       1.246
       0.787
       0.286
      -0.241
      -0.772
      -1.282
      -1.756
      -2.184
      -2.568
      -2.913
      -3.224
      -3.505
      -3.752
      -3.952
      -4.089
      -4.150
      -4.126
      -4.017
      -3.828
      -3.569
      -3.246
      -2.860
      -2.411
      -1.904
      -1.358
      -0.798
      -0.253
       0.261
       0.737
       1.177
       1.581
       1.942
       2.253
       2.503
       2.686
       2.797
       2.833
       2.793
       2.681
       2.507
       2.283
       2.021
       1.731
       1.420
       1.089
       0.734
       0.354
      -0.048
      -0.463
      -0.874
      -1.266
      -1.624
      -1.936
      -2.191
      -2.374
      -2.473
      -2.481
      -2.399
      -2.231
      -1.981
      -1.649
      -1.238
      -0.756
      -0.221
       0.337
       0.887
       1.396
       1.839
       2.199
       2.467
       2.638
       2.712
       2.691
       2.580
       2.399
       2.173
       1.930
       1.691
       1.470
       1.264
       1.057
       0.828
       0.561
       0.250
      -0.095
      -0.457
      -0.819
      -1.157
      -1.448
      -1.669
      -1.804
      -1.852
      -1.823
      -1.730
      -1.582
      -1.386
      -1.146
      -0.875
      -0.598
      -0.345
      -0.145
      -0.013
       0.051
       0.063
       0.042
       0.013
      -0.010
      -0.019
      -0.020
      -0.023
      -0.036
      -0.059
      -0.088
      -0.120
      -0.152
      -0.179
      -0.185
      -0.151
      -0.061
       0.083
       0.264
       0.459
       0.649
       0.824
       0.981
       1.117
       1.232
       1.327
       1.402
       1.453
       1.474
       1.457
       1.395
       1.282
       1.116
       0.904
       0.660
       0.396
       0.124
      -0.150
      -0.417
      -0.670
      -0.897
      -1.093
      -1.257
      -1.398
      -1.524
      -1.636
      -1.729
      -1.788
      -1.799
      -1.755
      -1.657
      -1.511
      -1.325
      -1.107
      -0.865
      -0.612
      -0.363
      -0.131
       0.071
       0.232
       0.344
       0.399
       0.394
       0.329
       0.213
       0.059
      -0.121
      -0.312
      -0.499
      -0.667
      -0.803
      -0.897
      -0.944
      -0.947
      -0.916
      -0.857
      -0.779
      -0.683
      -0.570
      -0.446
      -0.315
      -0.182
      -0.046
       0.100
       0.261
       0.438
       0.629
       0.834
       1.055
       1.293
       1.545
       1.804
       2.060
       2.306
       2.534
       2.737
       2.903
       3.021
       3.081
       3.079
       3.020
       2.914
       2.768
       2.585
       2.364
       2.102
       1.803
       1.467
       1.100
       0.708
       0.302
      -0.108
      -0.513
      -0.909
      -1.291
      -1.657
      -2.006
      -2.330
      -2.619
      -2.863
      -3.055
      -3.198
      -3.295
      -3.344
      -3.327
      -3.224
      -3.025
      -2.735
      -2.381
      -1.993
      -1.600
      -1.217
      -0.852
      -0.508
      -0.185
       0.114
       0.386
       0.625
       0.823
       0.971
       1.067
       1.115
       1.122
       1.099
       1.051
       0.978
       0.882
       0.763
       0.625
       0.474
       0.308
       0.126
      -0.070
      -0.271
      -0.464
      -0.638
      -0.785
      -0.899
      -0.978
      -1.016
      -1.009
      -0.950
      -0.836
      -0.675
      -0.481
      -0.275
      -0.076
       0.098
       0.238
       0.337
       0.398
       0.435
       0.460
       0.486
       0.519
       0.562
       0.616
       0.686
       0.779
       0.897
       1.036
       1.183
       1.324
       1.449
       1.550
       1.625
       1.671
       1.688
       1.678
       1.646
       1.599
       1.547
       1.497
       1.453
       1.413
       1.369
       1.312
       1.238
       1.146
       1.036
       0.900
       0.722
       0.485
       0.172
      -0.220
      -0.678
      -1.180
      -1.693
      -2.186
      -2.634
      -3.015
      -3.317
      -3.530
      -3.643
      -3.651
      -3.553
      -3.358
      -3.087
      -2.764
      -2.412
      -2.039
      -1.652
      -1.254
      -0.854
      -0.464
      -0.096
       0.248
       0.569
       0.870
       1.153
       1.416
       1.656
       1.874
       2.072
       2.250
       2.401
       2.510
       2.557
       2.527
       2.414
       2.223
       1.972
       1.684
       1.381
       1.084
       0.805
       0.546
       0.304
       0.081
      -0.116
      -0.280
      -0.414
      -0.532
      -0.651
      -0.783
      -0.931
      -1.089
      -1.247
      -1.391
      -1.506
      -1.577
      -1.593
      -1.556
      -1.476
      -1.371
      -1.257
      -1.147
      -1.045
      -0.942
      -0.825
      -0.685
      -0.524
      -0.356
      -0.198
      -0.058
       0.064
       0.181
       0.307
       0.454
       0.625
       0.822
       1.037
       1.263
       1.484
       1.683
       1.840
       1.940
       1.975
       1.947
       1.866
       1.742
       1.581
       1.386
       1.159
       0.902
       0.618
       0.315
       0.005
      -0.300
      -0.591
      -0.861
      -1.106
      -1.326
      -1.517
      -1.674
      -1.792
      -1.867
      -1.899
      -1.894
      -1.857
      -1.796
      -1.715
      -1.616
      -1.503
      -1.370
      -1.212
      -1.021
      -0.798
      -0.549
      -0.282
      -0.004
       0.282
       0.569
       0.848
       1.103
       1.323
       1.501
       1.637
       1.735
       1.800
       1.835
       1.841
       1.817
       1.769
       1.698
       1.609
       1.498
       1.363
       1.205
       1.027
       0.836
       0.643
       0.457
       0.284
       0.122
      -0.037
      -0.201
      -0.380
      -0.575
      -0.789
      -1.018
      -1.253
      -1.482
      -1.687
      -1.852
      -1.967
      -2.024
