Origin Time       14/03/2010 6:53:21	
Lat.              31.7 N	
Long.             76.1 E	
Depth (Km)         29.0
Magnitude         4.6
 Region           HIMACHAL-PUNJAB-(HOSHIARPUR)-BORDER                              
 Above details taken from IMD 
     
Station Code      SNG
Station Lat.       30.245  N
Station Long.      75.839  E
Station Height(m)    0.0
Site Class        C   Vs30 between 200 m/sec to 375 m/sec *  
Record Time       27.01.2037 23:02:03.164
Sampling Rate     200. Hz
 Record Duration   69.235 Sec.
 Direction         E-W (E positive)
Max. Acceleration     -6.514 cm/sec**2
     
  * For reference see Site Classification link of website 
     
 Base Line Corrected and Low Pass Filtered (Cut Off at 35 Hz) Time History
 Acceleration data in cm/sec**2
    
[...]
      -0.049
      -0.066
      -0.082
      -0.099
      -0.113
      -0.123
      -0.123
      -0.111
      -0.086
      -0.053
      -0.014
       0.032
       0.081
       0.128
       0.162
       0.172
       0.160
       0.134
       0.107
       0.086
       0.072
       0.061
       0.050
       0.039
       0.024
       0.009
      -0.005
      -0.010
      -0.003
       0.015
       0.034
       0.043
       0.036
       0.020
       0.002
      -0.011
      -0.021
      -0.033
      -0.047
      -0.058
      -0.062
      -0.058
      -0.051
      -0.044
      -0.037
      -0.026
      -0.007
       0.019
       0.048
       0.075
       0.095
       0.105
       0.100
       0.080
       0.046
       0.010
      -0.021
      -0.038
      -0.044
      -0.040
      -0.030
      -0.018
      -0.014
      -0.021
      -0.041
      -0.063
      -0.074
      -0.065
      -0.037
      -0.002
       0.028
       0.048
       0.061
       0.068
       0.070
       0.064
       0.049
       0.034
       0.024
       0.022
       0.026
       0.030
       0.026
       0.012
      -0.010
      -0.028
      -0.033
      -0.025
      -0.008
       0.010
       0.020
       0.019
       0.006
      -0.017
      -0.043
      -0.066
      -0.080
      -0.082
      -0.072
      -0.052
      -0.029
      -0.009
       0.002
       0.004
       0.001
       0.000
       0.005
       0.015
       0.025
       0.031
       0.032
       0.032
       0.036
       0.048
       0.066
       0.082
       0.088
       0.082
       0.065
       0.040
       0.015
      -0.004
      -0.012
      -0.008
       0.007
       0.027
       0.042
       0.047
       0.040
       0.027
       0.013
       0.001
      -0.009
      -0.019
      -0.027
      -0.031
      -0.029
      -0.022
      -0.011
      -0.002
      -0.001
      -0.013
      -0.041
      -0.080
      -0.124
      -0.160
      -0.180
      -0.177
      -0.150
      -0.105
      -0.054
      -0.007
       0.027
       0.051
       0.069
       0.088
       0.110
       0.132
       0.151
       0.167
       0.179
       0.184
       0.178
       0.160
       0.132
       0.097
       0.062
       0.034
       0.015
       0.004
      -0.006
      -0.020
      -0.042
      -0.072
      -0.105
      -0.134
      -0.156
      -0.171
      -0.178
      -0.178
      -0.169
      -0.146
      -0.111
      -0.068
      -0.026
       0.010
       0.038
       0.059
       0.079
       0.098
       0.118
       0.135
       0.148
       0.156
       0.162
       0.170
       0.181
       0.193
       0.197
       0.183
       0.146
       0.091
       0.029
      -0.027
      -0.070
      -0.099
      -0.117
      -0.124
      -0.120
      -0.111
      -0.101
      -0.098
      -0.103
      -0.113
      -0.125
      -0.139
      -0.151
      -0.162
      -0.169
      -0.166
      -0.149
      -0.116
      -0.067
      -0.005
       0.062
       0.130
       0.193
       0.246
       0.289
       0.325
       0.358
       0.386
       0.402
       0.399
       0.373
       0.333
       0.288
       0.248
       0.215
       0.188
       0.163
       0.138
       0.110
       0.077
       0.037
      -0.012
      -0.070
      -0.134
      -0.196
      -0.250
      -0.289
      -0.311
      -0.317
      -0.308
      -0.280
      -0.236
      -0.181
      -0.129
      -0.089
      -0.061
      -0.042
      -0.025
      -0.011
       0.001
       0.012
       0.029
       0.055
       0.088
       0.121
       0.149
       0.174
       0.199
       0.225
       0.245
       0.248
       0.228
       0.187
       0.128
       0.055
      -0.027
      -0.112
      -0.191
      -0.264
      -0.326
      -0.373
      -0.405
      -0.424
      -0.437
      -0.450
      -0.461
      -0.465
      -0.459
      -0.441
      -0.414
      -0.379
      -0.335
      -0.279
      -0.210
      -0.130
      -0.038
       0.060
       0.159
       0.249
       0.324
       0.385
       0.439
       0.487
       0.527
       0.551
       0.554
       0.536
       0.497
       0.436
       0.353
       0.251
       0.131
      -0.004
      -0.157
      -0.326
      -0.506
      -0.683
      -0.840
      -0.964
      -1.047
      -1.089
      -1.093
      -1.058
      -0.985
      -0.878
      -0.745
      -0.596
      -0.437
      -0.269
      -0.090
       0.104
       0.313
       0.533
       0.752
       0.958
       1.144
       1.310
       1.456
       1.581
       1.680
       1.744
       1.764
       1.732
       1.633
       1.458
       1.203
       0.872
       0.475
       0.028
      -0.451
      -0.934
      -1.397
      -1.820
      -2.188
      -2.491
      -2.720
      -2.870
      -2.936
      -2.920
      -2.823
      -2.652
      -2.411
      -2.107
      -1.752
      -1.360
      -0.950
      -0.543
      -0.156
       0.199
       0.525
       0.823
       1.097
       1.343
       1.550
       1.711
       1.818
       1.875
       1.889
       1.864
       1.802
       1.706
       1.580
       1.438
       1.289
       1.142
       1.004
       0.882
       0.786
       0.723
       0.702
       0.730
       0.812
       0.945
       1.125
       1.345
       1.599
       1.878
       2.162
       2.424
       2.637
       2.783
       2.853
       2.840
       2.737
       2.538
       2.246
       1.874
       1.444
       0.976
       0.480
      -0.040
      -0.575
      -1.114
      -1.639
      -2.138
      -2.608
      -3.053
      -3.481
      -3.883
      -4.243
      -4.542
      -4.765
      -4.901
      -4.942
      -4.881
      -4.717
      -4.456
      -4.114
      -3.707
      -3.248
      -2.745
      -2.206
      -1.638
      -1.054
      -0.468
       0.100
       0.629
       1.102
       1.510
       1.847
       2.115
       2.317
       2.455
       2.528
       2.536
       2.485
       2.383
       2.238
       2.058
       1.852
       1.627
       1.396
       1.170
       0.960
       0.773
       0.610
       0.463
       0.315
       0.160
       0.008
      -0.124
      -0.224
      -0.300
      -0.369
      -0.435
      -0.487
      -0.508
      -0.495
      -0.464
      -0.440
      -0.433
      -0.428
      -0.395
      -0.317
      -0.200
      -0.065
       0.065
       0.181
       0.285
       0.383
       0.476
       0.560
       0.633
       0.699
       0.765
       0.838
       0.916
       0.991
       1.056
       1.106
       1.141
       1.159
       1.161
       1.149
       1.124
       1.082
       1.015
       0.917
       0.793
       0.651
       0.499
       0.336
       0.156
      -0.039
      -0.244
      -0.446
      -0.642
      -0.833
      -1.022
      -1.211
      -1.397
      -1.575
      -1.741
      -1.888
      -2.012
      -2.108
      -2.169
      -2.184
      -2.138
      -2.020
      -1.831
      -1.583
      -1.297
      -0.988
      -0.668
      -0.346
      -0.030
       0.273
       0.561
       0.828
       1.073
       1.288
       1.465
       1.591
       1.656
       1.652
       1.580
       1.451
       1.279
       1.080
       0.866
       0.645
       0.426
       0.215
       0.016
      -0.173
      -0.353
      -0.520
      -0.661
      -0.764
      -0.821
      -0.833
      -0.802
      -0.728
      -0.616
      -0.468
      -0.295
      -0.109
       0.080
       0.266
       0.449
       0.627
       0.800
       0.961
       1.105
       1.225
       1.318
       1.385
       1.427
       1.446
       1.439
       1.399
       1.318
       1.196
       1.037
       0.843
       0.615
       0.347
       0.044
      -0.282
      -0.607
      -0.909
      -1.176
      -1.404
      -1.596
      -1.754
      -1.879
      -1.964
      -2.008
      -2.007
      -1.966
      -1.893
      -1.797
      -1.685
      -1.559
      -1.416
      -1.250
      -1.060
      -0.848
      -0.618
      -0.376
      -0.126
       0.123
       0.360
       0.574
       0.753
       0.891
       0.989
       1.049
       1.081
       1.098
       1.108
       1.113
       1.105
       1.077
       1.027
       0.960
       0.883
       0.801
       0.717
       0.633
       0.551
       0.475
       0.401
       0.322
       0.232
       0.133
       0.030
      -0.069
      -0.157
      -0.230
      -0.283
      -0.316
      -0.333
      -0.342
      -0.349
      -0.357
      -0.367
      -0.378
      -0.384
      -0.383
      -0.376
      -0.372
      -0.377
      -0.397
      -0.434
      -0.486
      -0.543
      -0.590
      -0.607
      -0.582
      -0.510
      -0.398
      -0.260
      -0.114
       0.025
       0.152
       0.267
       0.377
       0.486
       0.593
       0.688
       0.760
       0.803
       0.819
       0.815
       0.795
       0.757
       0.700
       0.627
       0.544
       0.451
       0.345
       0.217
       0.056
      -0.135
      -0.345
      -0.557
      -0.753
      -0.923
      -1.060
      -1.164
      -1.235
      -1.276
      -1.289
      -1.274
      -1.229
      -1.153
      -1.043
      -0.903
      -0.740
      -0.566
      -0.394
      -0.233
      -0.087
       0.044
       0.166
       0.286
       0.416
       0.571
       0.754
       0.956
       1.161
       1.348
       1.509
       1.635
       1.721
       1.761
       1.753
       1.703
       1.620
       1.503
       1.351
       1.162
       0.947
       0.717
       0.486
       0.261
       0.047
      -0.150
      -0.323
      -0.469
      -0.588
      -0.685
      -0.767
      -0.839
      -0.897
      -0.932
      -0.935
      -0.906
      -0.854
      -0.790
      -0.726
      -0.666
      -0.613
      -0.569
      -0.532
      -0.499
      -0.466
      -0.426
      -0.374
      -0.303
      -0.212
      -0.105
       0.010
       0.118
       0.211
       0.283
       0.329
       0.345
       0.329
       0.279
       0.203
       0.118
       0.041
      -0.013
      -0.042
      -0.052
      -0.052
      -0.049
      -0.041
      -0.030
      -0.023
      -0.032
      -0.066
      -0.131
      -0.224
      -0.339
      -0.465
      -0.589
      -0.702
      -0.801
      -0.888
      -0.962
      -1.014
      -1.024
      -0.979
      -0.877
      -0.731
      -0.562
      -0.390
      -0.234
      -0.111
      -0.029
       0.015
       0.037
       0.060
       0.101
       0.166
       0.257
       0.376
       0.528
       0.715
       0.933
       1.171
       1.417
       1.666
       1.918
       2.164
       2.385
       2.548
       2.626
       2.603
       2.483
       2.275
       1.991
       1.642
       1.243
       0.814
       0.371
      -0.071
      -0.505
      -0.917
      -1.288
      -1.604
      -1.857
      -2.051
      -2.188
      -2.272
      -2.305
      -2.294
      -2.249
      -2.175
      -2.070
      -1.927
      -1.742
      -1.516
      -1.253
      -0.955
      -0.629
      -0.282
       0.075
       0.427
       0.755
       1.041
       1.269
       1.424
       1.496
       1.484
       1.395
       1.254
       1.084
       0.906
       0.729
       0.557
       0.389
       0.224
       0.059
      -0.105
      -0.265
      -0.413
      -0.545
      -0.659
      -0.760
      -0.852
      -0.942
      -1.031
      -1.113
      -1.176
      -1.204
      -1.183
      -1.100
      -0.950
      -0.732
      -0.455
      -0.128
       0.232
       0.612
       0.995
       1.358
       1.674
       1.916
       2.065
       2.112
       2.063
       1.929
       1.728
       1.476
       1.189
       0.879
       0.558
       0.230
      -0.102
      -0.434
      -0.761
      -1.074
      -1.365
      -1.626
      -1.850
      -2.026
      -2.144
      -2.195
      -2.174
      -2.079
      -1.908
      -1.667
      -1.369
      -1.034
      -0.681
      -0.323
       0.042
       0.423
       0.828
       1.254
       1.682
       2.088
       2.445
       2.730
       2.920
       3.003
       2.977
       2.849
       2.631
       2.333
       1.967
       1.548
       1.098
       0.636
       0.176
      -0.268
      -0.682
      -1.052
      -1.369
      -1.631
      -1.843
      -2.006
      -2.122
      -2.188
      -2.199
      -2.146
      -2.027
      -1.840
      -1.587
      -1.272
      -0.898
      -0.477
      -0.028
       0.425
       0.855
       1.241
       1.563
       1.810
       1.971
       2.038
       2.005
       1.867
       1.629
       1.306
       0.919
       0.485
       0.023
      -0.448
      -0.913
      -1.354
      -1.759
      -2.116
      -2.422
      -2.675
      -2.876
      -3.026
      -3.125
      -3.171
      -3.157
      -3.072
      -2.898
      -2.624
      -2.249
      -1.784
      -1.258
      -0.704
      -0.159
       0.345
       0.788
       1.165
       1.476
       1.725
       1.917
       2.052
       2.128
       2.143
       2.096
       1.987
       1.819
       1.598
       1.327
       1.013
       0.667
       0.304
      -0.059
      -0.402
      -0.709
      -0.957
      -1.122
      -1.187
      -1.145
      -1.000
      -0.763
      -0.447
      -0.069
       0.358
       0.822
       1.314
       1.829
       2.352
       2.859
       3.319
       3.705
       4.002
       4.206
       4.324
       4.363
       4.330
       4.224
       4.043
       3.773
       3.400
       2.906
       2.283
       1.537
       0.684
      -0.249
      -1.228
      -2.220
      -3.187
      -4.089
      -4.885
      -5.541
      -6.033
      -6.357
      -6.514
      -6.510
      -6.348
      -6.039
      -5.601
      -5.065
      -4.462
      -3.814
      -3.132
      -2.425
      -1.697
      -0.959
      -0.223
       0.494
       1.171
       1.784
       2.313
       2.741
       3.059
       3.259
       3.341
       3.319
       3.219
       3.075
       2.912
       2.738
       2.548
       2.337
       2.110
       1.875
       1.642
       1.413
       1.187
       0.962
       0.738
       0.512
       0.275
       0.019
      -0.259
      -0.545
      -0.815
      -1.047
      -1.236
      -1.390
      -1.521
      -1.629
      -1.703
      -1.726
      -1.685
      -1.572
      -1.393
      -1.157
      -0.879
      -0.578
      -0.278
      -0.006
       0.210
       0.354
       0.427
       0.449
       0.452
       0.471
       0.531
       0.639
       0.790
       0.962
       1.125
       1.256
       1.342
       1.375
       1.355
       1.282
       1.163
       1.011
       0.851
       0.705
       0.585
       0.491
       0.411
       0.337
       0.257
       0.160
       0.029
      -0.156
      -0.400
      -0.693
      -1.009
      -1.311
      -1.568
      -1.758
      -1.876
      -1.931
      -1.935
      -1.902
      -1.837
      -1.742
      -1.614
      -1.447
      -1.230
      -0.955
      -0.622
      -0.238
       0.182
       0.622
       1.064
       1.487
       1.870
       2.197
       2.457
       2.645
       2.752
       2.767
       2.677
       2.477
       2.175
       1.795
       1.378
       0.959
       0.569
       0.222
      -0.077
      -0.329
      -0.544
      -0.736
      -0.920
      -1.109
      -1.302
      -1.487
      -1.645
      -1.763
      -1.839
      -1.877
      -1.885
      -1.863
      -1.811
      -1.727
      -1.610
      -1.458
      -1.269
      -1.042
      -0.783
      -0.500
      -0.204
       0.093
       0.377
       0.633
       0.838
       0.973
       1.031
       1.020
       0.958
       0.868
       0.769
       0.677
       0.602
       0.549
       0.514
       0.486
       0.445
       0.371
       0.250
       0.079
      -0.132
      -0.364
      -0.600
      -0.825
      -1.026
      -1.186
      -1.290
      -1.326
      -1.300
      -1.228
      -1.133
      -1.029
      -0.921
      -0.803
      -0.669
      -0.510
      -0.322
      -0.105
       0.134
       0.381
       0.623
       0.853
       1.072
       1.275
       1.455
       1.595
       1.680
       1.704
       1.676
       1.614
       1.539
       1.463
       1.384
       1.291
       1.173
       1.031
       0.870
       0.697
       0.513
       0.317
       0.111
      -0.097
      -0.294
      -0.467
      -0.608
      -0.715
      -0.792
      -0.838
      -0.849
      -0.823
      -0.757
      -0.658
      -0.532
      -0.390
      -0.241
      -0.096
       0.035
       0.140
       0.209
       0.239
       0.237
       0.220
       0.203
       0.195
       0.195
       0.192
       0.175
       0.135
       0.069
      -0.027
      -0.148
      -0.290
      -0.446
      -0.605
      -0.760
      -0.906
      -1.039
      -1.154
      -1.243
      -1.298
      -1.315
      -1.290
      -1.221
      -1.109
      -0.955
      -0.762
      -0.534
      -0.280
      -0.012
       0.256
       0.510
       0.742
       0.942
       1.098
       1.202
       1.249
       1.243
       1.196
       1.123
       1.035
       0.932
       0.811
       0.664
       0.501
       0.341
       0.207
       0.110
       0.047
      -0.002
      -0.050
      -0.105
      -0.163
      -0.218
      -0.260
      -0.283
      -0.276
      -0.237
      -0.173
      -0.091
      -0.002
       0.089
       0.174
       0.246
       0.297
       0.332
       0.356
       0.378
       0.398
       0.410
       0.398
       0.346
       0.242
       0.084
      -0.122
      -0.363
      -0.623
      -0.888
      -1.147
      -1.386
      -1.584
      -1.714
      -1.758
      -1.712
      -1.585
      -1.388
      -1.133
      -0.834
      -0.512
      -0.190
       0.103
       0.351
       0.549
       0.703
       0.823
       0.911
       0.966
       0.986
       0.972
       0.936
       0.895
       0.867
       0.863
       0.882
       0.919
       0.959
       0.987
       0.991
       0.961
       0.889
       0.766
       0.583
       0.332
       0.011
      -0.364
      -0.766
      -1.157
      -1.504
      -1.783
      -1.979
      -2.087
      -2.098
      -2.006
      -1.811
      -1.525
      -1.172
      -0.782
      -0.384
      -0.003
       0.343
       0.643
       0.895
       1.107
       1.290
       1.452
       1.594
       1.709
       1.789
       1.831
       1.842
       1.833
       1.809
       1.763
       1.687
       1.571
       1.410
       1.201
       0.944
       0.649
       0.332
       0.020
      -0.263
      -0.511
      -0.731
      -0.938
      -1.144
      -1.351
      -1.557
      -1.757
      -1.944
      -2.103
      -2.214
      -2.262
      -2.246
      -2.174
      -2.063
      -1.923
      -1.755
      -1.554
      -1.317
      -1.047
      -0.754
      -0.444
      -0.116
       0.231
       0.590
       0.945
       1.273
       1.554
       1.775
       1.933
       2.027
       2.061
       2.038
       1.963
       1.841
       1.676
       1.473
       1.233
       0.963
       0.670
       0.369
       0.082
      -0.167
      -0.363
      -0.502
      -0.600
      -0.677
      -0.747
      -0.812
      -0.864
      -0.897
      -0.912
      -0.916
      -0.914
      -0.901
      -0.868
      -0.803
      -0.693
      -0.534
      -0.323
      -0.065
       0.236
       0.566
       0.902
       1.211
       1.464
       1.645
       1.755
       1.804
       1.798
       1.741
       1.633
