Origin Time       14/03/2010 6:53:21	
Lat.              31.7 N	
Long.             76.1 E	
Depth (Km)         29.0
Magnitude         4.6
 Region           HIMACHAL-PUNJAB-(HOSHIARPUR)-BORDER                              
 Above details taken from IMD 
   
Station Code      SNG
Station Lat.       30.245
Station Long.      75.839
Station Height(m)    0.0
Site Class        C   Vs30 between 200 m/sec to 375 m/sec *  
Record Time       27.01.2037 23:02:03.164
Sampling Rate     200. Hz
 Record Duration   69.235 Sec.
 Direction         Vert. (Up positive)
Max. Acceleration     -7.227 cm/sec**2
     
  * For reference see Site Classification link of website 
     
 Base Line Corrected and Low Pass Filtered (Cut Off at 35 Hz) Time History
 Acceleration data in cm/sec**2
    
[...]
      -0.077
      -0.153
      -0.202
      -0.209
      -0.181
      -0.136
      -0.088
      -0.044
      -0.004
       0.026
       0.038
       0.028
       0.005
      -0.011
      -0.002
       0.035
       0.089
       0.139
       0.169
       0.177
       0.168
       0.148
       0.122
       0.092
       0.064
       0.046
       0.042
       0.055
       0.087
       0.131
       0.174
       0.199
       0.193
       0.150
       0.077
      -0.009
      -0.088
      -0.148
      -0.190
      -0.221
      -0.248
      -0.275
      -0.297
      -0.305
      -0.291
      -0.258
      -0.213
      -0.167
      -0.127
      -0.094
      -0.072
      -0.055
      -0.033
       0.005
       0.064
       0.138
       0.207
       0.251
       0.253
       0.210
       0.132
       0.036
      -0.060
      -0.139
      -0.186
      -0.200
      -0.183
      -0.143
      -0.085
      -0.021
       0.035
       0.075
       0.102
       0.126
       0.154
       0.183
       0.204
       0.206
       0.190
       0.166
       0.150
       0.144
       0.143
       0.136
       0.117
       0.090
       0.062
       0.045
       0.048
       0.068
       0.096
       0.113
       0.107
       0.074
       0.022
      -0.038
      -0.093
      -0.141
      -0.180
      -0.212
      -0.236
      -0.253
      -0.264
      -0.265
      -0.249
      -0.211
      -0.156
      -0.093
      -0.033
       0.015
       0.048
       0.070
       0.087
       0.098
       0.104
       0.101
       0.089
       0.071
       0.052
       0.037
       0.026
       0.016
       0.005
      -0.004
      -0.009
      -0.007
       0.000
       0.006
       0.010
       0.010
       0.005
      -0.004
      -0.018
      -0.032
      -0.042
      -0.046
      -0.047
      -0.050
      -0.054
      -0.058
      -0.059
      -0.055
      -0.039
      -0.007
       0.038
       0.081
       0.107
       0.109
       0.094
       0.077
       0.069
       0.068
       0.065
       0.051
       0.028
       0.007
      -0.007
      -0.021
      -0.041
      -0.065
      -0.079
      -0.072
      -0.040
       0.011
       0.067
       0.115
       0.145
       0.155
       0.154
       0.146
       0.126
       0.081
       0.008
      -0.080
      -0.159
      -0.212
      -0.236
      -0.234
      -0.207
      -0.154
      -0.081
       0.000
       0.068
       0.106
       0.109
       0.077
       0.023
      -0.039
      -0.088
      -0.112
      -0.114
      -0.108
      -0.105
      -0.105
      -0.097
      -0.077
      -0.044
      -0.002
       0.043
       0.083
       0.117
       0.144
       0.165
       0.175
       0.170
       0.150
       0.114
       0.059
      -0.017
      -0.109
      -0.199
      -0.264
      -0.283
      -0.253
      -0.187
      -0.107
      -0.027
       0.045
       0.105
       0.145
       0.160
       0.151
       0.129
       0.112
       0.111
       0.129
       0.157
       0.186
       0.209
       0.218
       0.204
       0.165
       0.107
       0.044
      -0.011
      -0.054
      -0.091
      -0.122
      -0.141
      -0.141
      -0.122
      -0.091
      -0.058
      -0.030
      -0.016
      -0.030
      -0.080
      -0.162
      -0.255
      -0.328
      -0.356
      -0.329
      -0.258
      -0.165
      -0.077
      -0.012
       0.022
       0.029
       0.015
      -0.006
      -0.024
      -0.026
      -0.009
       0.023
       0.062
       0.106
       0.155
       0.204
       0.244
       0.266
       0.268
       0.259
       0.246
       0.232
       0.221
       0.214
       0.217
       0.225
       0.227
       0.206
       0.149
       0.058
      -0.054
      -0.167
      -0.268
      -0.350
      -0.411
      -0.448
      -0.460
      -0.448
      -0.415
      -0.364
      -0.299
      -0.230
      -0.167
      -0.116
      -0.069
      -0.011
       0.072
       0.185
       0.316
       0.443
       0.540
       0.591
       0.597
       0.567
       0.515
       0.446
       0.357
       0.246
       0.114
      -0.027
      -0.155
      -0.255
      -0.323
      -0.368
      -0.407
      -0.450
      -0.499
      -0.545
      -0.575
      -0.570
      -0.523
      -0.439
      -0.332
      -0.219
      -0.110
      -0.015
       0.062
       0.117
       0.156
       0.191
       0.235
       0.292
       0.354
       0.407
       0.439
       0.446
       0.429
       0.391
       0.335
       0.263
       0.178
       0.086
       0.003
      -0.058
      -0.093
      -0.107
      -0.110
      -0.107
      -0.098
      -0.088
      -0.086
      -0.100
      -0.131
      -0.163
      -0.181
      -0.179
      -0.158
      -0.124
      -0.081
      -0.035
       0.007
       0.037
       0.055
       0.067
       0.084
       0.102
       0.109
       0.093
       0.055
       0.013
      -0.016
      -0.023
      -0.016
      -0.015
      -0.036
      -0.078
      -0.126
      -0.157
      -0.161
      -0.146
      -0.127
      -0.115
      -0.107
      -0.091
      -0.061
      -0.026
      -0.003
      -0.005
      -0.036
      -0.081
      -0.118
      -0.128
      -0.103
      -0.048
       0.021
       0.087
       0.144
       0.188
       0.220
       0.240
       0.249
       0.246
       0.232
       0.207
       0.176
       0.145
       0.121
       0.109
       0.105
       0.105
       0.101
       0.085
       0.050
      -0.005
      -0.070
      -0.133
      -0.189
      -0.234
      -0.265
      -0.276
      -0.266
      -0.243
      -0.215
      -0.190
      -0.171
      -0.163
      -0.170
      -0.185
      -0.193
      -0.178
      -0.136
      -0.074
      -0.006
       0.052
       0.096
       0.128
       0.152
       0.168
       0.171
       0.159
       0.144
       0.145
       0.171
       0.213
       0.250
       0.264
       0.252
       0.219
       0.178
       0.138
       0.104
       0.071
       0.036
       0.000
      -0.029
      -0.046
      -0.051
      -0.054
      -0.064
      -0.086
      -0.126
      -0.182
      -0.245
      -0.296
      -0.318
      -0.304
      -0.259
      -0.203
      -0.158
      -0.135
      -0.128
      -0.111
      -0.068
       0.002
       0.076
       0.135
       0.173
       0.203
       0.239
       0.287
       0.339
       0.377
       0.384
       0.356
       0.295
       0.213
       0.118
       0.026
      -0.048
      -0.093
      -0.114
      -0.125
      -0.140
      -0.168
      -0.210
      -0.255
      -0.288
      -0.300
      -0.290
      -0.265
      -0.227
      -0.176
      -0.113
      -0.049
       0.008
       0.053
       0.082
       0.095
       0.100
       0.105
       0.119
       0.147
       0.183
       0.217
       0.240
       0.246
       0.234
       0.210
       0.177
       0.133
       0.076
       0.014
      -0.046
      -0.099
      -0.146
      -0.191
      -0.239
      -0.290
      -0.341
      -0.383
      -0.408
      -0.412
      -0.397
      -0.365
      -0.321
      -0.270
      -0.208
      -0.126
      -0.019
       0.113
       0.251
       0.370
       0.446
       0.471
       0.457
       0.422
       0.384
       0.348
       0.314
       0.277
       0.241
       0.215
       0.205
       0.204
       0.202
       0.191
       0.167
       0.133
       0.092
       0.040
      -0.026
      -0.108
      -0.199
      -0.288
      -0.368
      -0.436
      -0.490
      -0.522
      -0.524
      -0.497
      -0.447
      -0.387
      -0.331
      -0.285
      -0.239
      -0.185
      -0.116
      -0.038
       0.038
       0.095
       0.129
       0.148
       0.170
       0.207
       0.250
       0.284
       0.297
       0.298
       0.301
       0.320
       0.355
       0.394
       0.421
       0.426
       0.405
       0.368
       0.323
       0.274
       0.215
       0.138
       0.045
      -0.054
      -0.153
      -0.247
      -0.333
      -0.411
      -0.478
      -0.529
      -0.562
      -0.581
      -0.582
      -0.556
      -0.496
      -0.411
      -0.317
      -0.229
      -0.156
      -0.094
      -0.032
       0.042
       0.122
       0.192
       0.242
       0.270
       0.288
       0.313
       0.356
       0.411
       0.457
       0.480
       0.474
       0.441
       0.390
       0.331
       0.268
       0.192
       0.094
      -0.023
      -0.146
      -0.252
      -0.325
      -0.364
      -0.382
      -0.387
      -0.387
      -0.387
      -0.388
      -0.389
      -0.385
      -0.367
      -0.324
      -0.250
      -0.157
      -0.064
       0.014
       0.078
       0.137
       0.204
       0.283
       0.359
       0.412
       0.433
       0.429
       0.408
       0.382
       0.351
       0.308
       0.239
       0.146
       0.036
      -0.074
      -0.166
      -0.228
      -0.264
      -0.288
      -0.306
      -0.318
      -0.320
      -0.311
      -0.292
      -0.271
      -0.256
      -0.241
      -0.216
      -0.173
      -0.107
      -0.016
       0.087
       0.184
       0.255
       0.291
       0.291
       0.266
       0.232
       0.200
       0.172
       0.145
       0.119
       0.094
       0.075
       0.067
       0.069
       0.070
       0.062
       0.045
       0.021
      -0.003
      -0.016
      -0.014
      -0.002
       0.014
       0.028
       0.034
       0.035
       0.037
       0.042
       0.040
       0.021
      -0.016
      -0.065
      -0.114
      -0.148
      -0.162
      -0.161
      -0.156
      -0.159
      -0.178
      -0.215
      -0.263
      -0.309
      -0.341
      -0.349
      -0.325
      -0.268
      -0.179
      -0.065
       0.060
       0.175
       0.261
       0.315
       0.341
       0.346
       0.341
       0.334
       0.324
       0.313
       0.303
       0.300
       0.307
       0.317
       0.315
       0.283
       0.214
       0.117
       0.007
      -0.102
      -0.199
      -0.282
      -0.347
      -0.386
      -0.397
      -0.385
      -0.369
      -0.358
      -0.354
      -0.348
      -0.330
      -0.298
      -0.257
      -0.216
      -0.180
      -0.146
      -0.104
      -0.044
       0.037
       0.128
       0.206
       0.253
       0.261
       0.244
       0.226
       0.225
       0.243
       0.272
       0.294
       0.298
       0.280
       0.244
       0.200
       0.158
       0.124
       0.092
       0.056
       0.010
      -0.042
      -0.089
      -0.131
      -0.169
      -0.209
      -0.247
      -0.276
      -0.285
      -0.275
      -0.252
      -0.224
      -0.194
      -0.159
      -0.120
      -0.084
      -0.058
      -0.044
      -0.034
      -0.020
       0.000
       0.022
       0.034
       0.034
       0.029
       0.031
       0.052
       0.095
       0.155
       0.218
       0.275
       0.326
       0.370
       0.403
       0.413
       0.388
       0.325
       0.230
       0.120
       0.005
      -0.109
      -0.218
      -0.319
      -0.405
      -0.464
      -0.494
      -0.497
      -0.481
      -0.447
      -0.399
      -0.337
      -0.267
      -0.201
      -0.151
      -0.122
      -0.111
      -0.103
      -0.082
      -0.038
       0.026
       0.097
       0.165
       0.225
       0.286
       0.358
       0.445
       0.538
       0.615
       0.654
       0.647
       0.594
       0.508
       0.401
       0.280
       0.151
       0.014
      -0.124
      -0.254
      -0.362
      -0.438
      -0.489
      -0.532
      -0.578
      -0.621
      -0.635
      -0.595
      -0.501
      -0.376
      -0.253
      -0.150
      -0.059
       0.042
       0.169
       0.308
       0.432
       0.512
       0.541
       0.537
       0.523
       0.518
       0.523
       0.528
       0.519
       0.483
       0.416
       0.323
       0.212
       0.096
      -0.011
      -0.090
      -0.130
      -0.137
      -0.139
      -0.170
      -0.249
      -0.369
      -0.502
      -0.622
      -0.714
      -0.777
      -0.817
      -0.835
      -0.824
      -0.771
      -0.675
      -0.544
      -0.394
      -0.243
      -0.103
       0.027
       0.149
       0.272
       0.395
       0.521
       0.652
       0.793
       0.943
       1.089
       1.211
       1.288
       1.311
       1.282
       1.216
       1.131
       1.041
       0.950
       0.852
       0.733
       0.577
       0.378
       0.137
      -0.134
      -0.424
      -0.720
      -1.019
      -1.320
      -1.628
      -1.939
      -2.232
      -2.478
      -2.651
      -2.742
      -2.749
      -2.680
      -2.535
      -2.311
      -2.001
      -1.598
      -1.114
      -0.577
      -0.021
       0.531
       1.077
       1.630
       2.190
       2.737
       3.238
       3.664
       3.996
       4.227
       4.354
       4.374
       4.287
       4.096
       3.809
       3.428
       2.953
       2.379
       1.700
       0.922
       0.069
      -0.820
      -1.704
      -2.554
      -3.350
      -4.074
      -4.707
      -5.226
      -5.615
      -5.866
      -5.979
      -5.957
      -5.794
      -5.479
      -5.006
      -4.385
      -3.641
      -2.803
      -1.895
      -0.933
       0.075
       1.111
       2.145
       3.135
       4.042
       4.842
       5.522
       6.076
       6.499
       6.780
       6.907
       6.871
       6.671
       6.307
       5.780
       5.085
       4.221
       3.204
       2.068
       0.860
      -0.372
      -1.583
      -2.732
      -3.783
      -4.711
      -5.500
      -6.153
      -6.671
      -7.039
      -7.227
      -7.210
      -6.983
      -6.556
      -5.948
      -5.181
      -4.283
      -3.293
      -2.245
      -1.169
      -0.087
       0.973
       1.975
       2.873
       3.629
       4.231
       4.691
       5.037
       5.284
       5.429
       5.452
       5.338
       5.083
       4.692
       4.178
       3.559
       2.854
       2.078
       1.249
       0.391
      -0.463
      -1.272
      -1.999
      -2.615
      -3.104
      -3.462
      -3.686
      -3.774
      -3.725
      -3.554
      -3.285
      -2.946
      -2.561
      -2.144
      -1.697
      -1.214
      -0.689
      -0.128
       0.451
       1.020
       1.546
       1.999
       2.352
       2.589
       2.702
       2.700
       2.598
       2.409
       2.141
       1.800
       1.401
       0.971
       0.539
       0.128
      -0.250
      -0.595
      -0.911
      -1.203
      -1.468
      -1.696
      -1.876
      -1.998
      -2.061
      -2.070
      -2.033
      -1.951
      -1.818
      -1.624
      -1.365
      -1.039
      -0.648
      -0.201
       0.283
       0.779
       1.268
       1.736
       2.169
       2.539
       2.809
       2.951
       2.955
       2.838
       2.622
       2.323
       1.945
       1.493
       0.983
       0.443
      -0.094
      -0.608
      -1.097
      -1.565
      -2.006
      -2.396
      -2.706
      -2.916
      -3.026
      -3.048
      -2.997
      -2.881
      -2.693
      -2.426
      -2.077
      -1.653
      -1.175
      -0.668
      -0.162
       0.322
       0.774
       1.189
       1.575
       1.936
       2.275
       2.584
       2.853
       3.064
       3.203
       3.257
       3.224
       3.107
       2.914
       2.655
       2.338
       1.964
       1.538
       1.068
       0.571
       0.062
      -0.452
      -0.965
      -1.473
      -1.957
      -2.392
      -2.748
      -3.005
      -3.168
      -3.270
      -3.347
      -3.403
      -3.410
      -3.331
      -3.153
      -2.886
      -2.554
      -2.176
      -1.761
      -1.311
      -0.836
      -0.343
       0.167
       0.690
       1.212
       1.707
       2.160
       2.565
       2.923
       3.237
       3.503
       3.708
       3.832
       3.850
       3.744
       3.515
       3.180
       2.765
       2.294
       1.787
       1.262
       0.731
       0.195
      -0.351
      -0.896
      -1.411
      -1.865
      -2.248
      -2.575
      -2.867
      -3.125
      -3.325
      -3.430
      -3.412
      -3.268
      -3.024
      -2.716
      -2.369
      -1.984
      -1.556
      -1.091
      -0.605
      -0.110
       0.381
       0.858
       1.300
       1.684
       1.997
       2.238
       2.405
       2.487
       2.476
       2.375
       2.207
       2.008
       1.809
       1.621
       1.436
       1.239
       1.022
       0.776
       0.484
       0.139
      -0.243
      -0.633
      -1.007
      -1.352
      -1.665
      -1.935
      -2.143
      -2.262
      -2.273
      -2.179
      -2.008
      -1.792
      -1.549
      -1.272
      -0.942
      -0.554
      -0.135
       0.275
       0.645
       0.964
       1.235
       1.462
       1.653
       1.815
       1.944
       2.020
       2.018
       1.928
       1.767
       1.565
       1.344
       1.105
       0.828
       0.503
       0.142
      -0.226
      -0.568
      -0.866
      -1.120
      -1.331
      -1.497
      -1.607
      -1.653
      -1.637
      -1.574
      -1.483
      -1.373
      -1.249
      -1.111
      -0.962
      -0.808
      -0.656
      -0.510
      -0.371
      -0.234
      -0.087
       0.074
       0.250
       0.437
       0.628
       0.803
       0.929
       0.980
       0.946
       0.842
       0.705
       0.575
       0.479
       0.425
       0.401
       0.387
       0.373
       0.358
       0.343
       0.329
       0.307
       0.270
       0.206
       0.105
      -0.041
      -0.230
      -0.441
      -0.644
      -0.806
      -0.902
      -0.920
      -0.860
      -0.735
      -0.574
      -0.410
      -0.262
      -0.129
       0.001
       0.138
       0.280
       0.429
       0.591
       0.777
       0.984
       1.185
       1.340
       1.419
       1.416
       1.351
       1.251
       1.134
       0.999
       0.829
       0.611
       0.346
       0.052
      -0.244
      -0.528
      -0.798
      -1.066
      -1.334
      -1.584
      -1.786
      -1.910
      -1.942
      -1.889
      -1.764
      -1.580
      -1.343
      -1.069
      -0.782
      -0.504
      -0.246
      -0.009
       0.209
       0.403
       0.567
       0.695
       0.789
       0.847
       0.861
       0.824
       0.733
       0.598
       0.432
       0.246
       0.042
      -0.173
      -0.380
      -0.557
      -0.682
      -0.753
      -0.775
      -0.752
      -0.677
      -0.532
      -0.300
       0.020
       0.402
       0.806
       1.194
       1.549
       1.872
       2.166
       2.421
       2.603
       2.673
       2.602
       2.395
       2.083
       1.709
       1.304
       0.878
       0.431
      -0.027
      -0.475
      -0.884
      -1.233
      -1.520
      -1.757
      -1.956
      -2.119
      -2.237
      -2.289
      -2.253
      -2.114
      -1.870
      -1.536
      -1.143
      -0.739
      -0.369
      -0.053
       0.215
       0.455
       0.675
       0.862
       0.986
       1.023
       0.972
       0.847
       0.669
       0.454
       0.211
      -0.057
      -0.356
      -0.694
      -1.075
      -1.482
      -1.883
      -2.238
      -2.510
      -2.670
      -2.692
      -2.556
      -2.251
      -1.788
      -1.199
      -0.532
       0.163
       0.843
       1.486
       2.089
       2.658
       3.195
       3.687
       4.102
       4.410
       4.589
       4.640
