Origin Time       4/2/2011 13:53:39	 
Lat.              24.8 N	
Long.             94.6 E	
Depth (Km)         30.0
Magnitude         6.4
 Region           Myanmar-India-Border                                             
 Above details taken from IMD 
     
Station Code      SBS
Station Lat.       26.989  N
Station Long.      94.631  E
Station Height(m)   78.0
Site Class        C   Vs30 between 200 m/sec to 375 m/sec *  
Record Time       04.02.2011 13:54:51.869
Sampling Rate     200. Hz
 Record Duration   67.795 Sec.
 Direction         E-W (E positive)
Max. Acceleration     -6.757 cm/sec**2
     
  * For reference see Site Classification link of website 
     
 Base Line Corrected and Low Pass Filtered (Cut Off at 35 Hz) Time History
 Acceleration data in cm/sec**2
    
[...]
       0.495
       0.656
       0.851
       1.028
       1.129
       1.131
       1.063
       0.985
       0.942
       0.946
       0.971
       0.986
       0.968
       0.928
       0.905
       0.941
       1.034
       1.124
       1.125
       0.994
       0.750
       0.436
       0.064
      -0.379
      -0.875
      -1.335
      -1.639
      -1.720
      -1.617
      -1.441
      -1.286
      -1.177
      -1.083
      -0.989
      -0.924
      -0.938
      -1.038
      -1.172
      -1.260
      -1.253
      -1.153
      -0.993
      -0.799
      -0.573
      -0.311
      -0.018
       0.281
       0.559
       0.798
       0.985
       1.108
       1.154
       1.113
       0.985
       0.793
       0.584
       0.420
       0.353
       0.394
       0.516
       0.667
       0.802
       0.893
       0.940
       0.969
       1.012
       1.081
       1.148
       1.167
       1.107
       0.969
       0.767
       0.504
       0.189
      -0.149
      -0.455
      -0.669
      -0.762
      -0.747
      -0.663
      -0.542
      -0.391
      -0.206
      -0.007
       0.146
       0.184
       0.076
      -0.145
      -0.402
      -0.625
      -0.785
      -0.893
      -0.967
      -1.003
      -0.981
      -0.899
      -0.780
      -0.661
      -0.561
      -0.471
      -0.367
      -0.230
      -0.057
       0.133
       0.319
       0.497
       0.690
       0.925
       1.206
       1.501
       1.769
       1.974
       2.103
       2.159
       2.161
       2.122
       2.047
       1.936
       1.798
       1.651
       1.502
       1.350
       1.196
       1.057
       0.948
       0.873
       0.806
       0.713
       0.555
       0.306
      -0.042
      -0.474
      -0.958
      -1.442
      -1.860
      -2.156
      -2.307
      -2.327
      -2.248
      -2.100
      -1.910
      -1.717
      -1.571
      -1.512
      -1.532
      -1.585
      -1.631
      -1.677
      -1.762
      -1.912
      -2.096
      -2.243
      -2.293
      -2.234
      -2.089
      -1.884
      -1.627
      -1.323
      -0.982
      -0.626
      -0.275
       0.060
       0.391
       0.737
       1.111
       1.501
       1.886
       2.257
       2.619
       2.974
       3.302
       3.563
       3.711
       3.709
       3.542
       3.220
       2.781
       2.287
       1.798
       1.364
       1.021
       0.789
       0.665
       0.608
       0.554
       0.435
       0.222
      -0.078
      -0.435
      -0.811
      -1.165
      -1.454
      -1.645
      -1.730
      -1.722
      -1.659
      -1.587
      -1.546
      -1.544
      -1.557
      -1.555
      -1.521
      -1.453
      -1.355
      -1.245
      -1.152
      -1.101
      -1.091
      -1.098
      -1.105
      -1.116
      -1.146
      -1.190
      -1.228
      -1.243
      -1.238
      -1.231
      -1.223
      -1.182
      -1.059
      -0.822
      -0.488
      -0.117
       0.232
       0.532
       0.778
       0.967
       1.084
       1.106
       1.027
       0.868
       0.666
       0.450
       0.223
      -0.017
      -0.256
      -0.455
      -0.590
      -0.670
      -0.730
      -0.799
      -0.877
      -0.944
      -0.970
      -0.932
      -0.831
      -0.694
      -0.553
      -0.419
      -0.289
      -0.176
      -0.120
      -0.159
      -0.290
      -0.467
      -0.643
      -0.798
      -0.939
      -1.072
      -1.193
      -1.279
      -1.306
      -1.247
      -1.092
      -0.844
      -0.518
      -0.131
       0.294
       0.728
       1.126
       1.437
       1.629
       1.712
       1.744
       1.784
       1.839
       1.845
       1.730
       1.474
       1.133
       0.781
       0.465
       0.203
       0.016
      -0.069
      -0.048
       0.035
       0.115
       0.148
       0.132
       0.089
       0.035
      -0.031
      -0.113
      -0.197
      -0.245
      -0.219
      -0.110
       0.048
       0.203
       0.322
       0.398
       0.441
       0.471
       0.496
       0.512
       0.498
       0.429
       0.290
       0.084
      -0.174
      -0.464
      -0.769
      -1.063
      -1.306
      -1.457
      -1.489
      -1.396
      -1.184
      -0.865
      -0.469
      -0.053
       0.315
       0.587
       0.748
       0.802
       0.757
       0.630
       0.460
       0.296
       0.170
       0.082
       0.020
      -0.026
      -0.055
      -0.064
      -0.036
       0.045
       0.189
       0.383
       0.611
       0.856
       1.099
       1.319
       1.493
       1.604
       1.655
       1.659
       1.638
       1.606
       1.566
       1.508
       1.420
       1.297
       1.150
       0.998
       0.845
       0.681
       0.503
       0.327
       0.175
       0.045
      -0.086
      -0.250
      -0.451
      -0.660
      -0.834
      -0.949
      -1.006
      -1.028
      -1.048
      -1.112
      -1.253
      -1.468
      -1.704
      -1.886
      -1.956
      -1.899
      -1.734
      -1.484
      -1.159
      -0.747
      -0.234
       0.372
       1.030
       1.674
       2.245
       2.709
       3.054
       3.278
       3.389
       3.413
       3.381
       3.309
       3.193
       3.024
       2.804
       2.541
       2.247
       1.929
       1.577
       1.162
       0.656
       0.076
      -0.508
      -1.007
      -1.373
      -1.624
      -1.814
      -1.986
      -2.159
      -2.344
      -2.554
      -2.796
      -3.062
      -3.329
      -3.558
      -3.704
      -3.727
      -3.608
      -3.349
      -2.965
      -2.479
      -1.932
      -1.375
      -0.845
      -0.349
       0.130
       0.619
       1.124
       1.633
       2.109
       2.498
       2.759
       2.892
       2.951
       3.008
       3.096
       3.177
       3.175
       3.036
       2.779
       2.484
       2.235
       2.070
       1.976
       1.919
       1.870
       1.804
       1.695
       1.518
       1.260
       0.926
       0.529
       0.084
      -0.387
      -0.847
      -1.256
      -1.583
      -1.825
      -2.001
      -2.142
      -2.258
      -2.341
      -2.379
      -2.385
      -2.384
      -2.387
      -2.388
      -2.391
      -2.423
      -2.513
      -2.650
      -2.783
      -2.858
      -2.869
      -2.846
      -2.816
      -2.766
      -2.650
      -2.413
      -2.017
      -1.463
      -0.783
      -0.031
       0.742
       1.493
       2.177
       2.753
       3.185
       3.461
       3.598
       3.645
       3.658
       3.674
       3.694
       3.688
       3.621
       3.479
       3.260
       2.960
       2.578
       2.135
       1.674
       1.231
       0.809
       0.382
      -0.075
      -0.564
      -1.066
      -1.564
      -2.055
      -2.539
      -3.001
      -3.393
      -3.658
      -3.770
      -3.760
      -3.684
      -3.569
      -3.392
      -3.123
      -2.778
      -2.415
      -2.066
      -1.707
      -1.309
      -0.898
      -0.557
      -0.340
      -0.209
      -0.068
       0.159
       0.463
       0.777
       1.035
       1.211
       1.306
       1.326
       1.269
       1.140
       0.941
       0.674
       0.340
      -0.049
      -0.466
      -0.869
      -1.222
      -1.499
      -1.690
      -1.787
      -1.788
      -1.705
      -1.560
      -1.383
      -1.199
      -1.016
      -0.827
      -0.620
      -0.386
      -0.127
       0.148
       0.411
       0.619
       0.735
       0.747
       0.685
       0.605
       0.556
       0.545
       0.530
       0.461
       0.308
       0.079
      -0.190
      -0.450
      -0.647
      -0.745
      -0.739
      -0.649
      -0.515
      -0.369
      -0.225
      -0.073
       0.110
       0.327
       0.545
       0.713
       0.797
       0.794
       0.715
       0.568
       0.369
       0.155
      -0.008
      -0.056
       0.039
       0.259
       0.558
       0.895
       1.242
       1.564
       1.819
       1.984
       2.060
       2.064
       2.001
       1.862
       1.636
       1.331
       0.974
       0.605
       0.268
      -0.009
      -0.211
      -0.331
      -0.370
      -0.340
      -0.269
      -0.202
      -0.179
      -0.219
      -0.298
      -0.367
      -0.383
      -0.339
      -0.253
      -0.147
      -0.037
       0.054
       0.093
       0.057
      -0.051
      -0.203
      -0.381
      -0.592
      -0.860
      -1.194
      -1.569
      -1.932
      -2.227
      -2.418
      -2.491
      -2.445
      -2.278
      -1.992
      -1.607
      -1.166
      -0.710
      -0.263
       0.176
       0.615
       1.053
       1.488
       1.917
       2.345
       2.773
       3.185
       3.553
       3.851
       4.071
       4.222
       4.317
       4.366
       4.368
       4.301
       4.139
       3.868
       3.502
       3.088
       2.675
       2.289
       1.913
       1.510
       1.038
       0.461
      -0.224
      -0.977
      -1.726
      -2.407
      -3.000
      -3.515
      -3.954
      -4.308
      -4.577
      -4.781
      -4.942
      -5.040
      -5.024
      -4.852
      -4.533
      -4.127
      -3.724
      -3.399
      -3.184
      -3.067
      -3.013
      -2.989
      -2.980
      -2.973
      -2.955
      -2.913
      -2.838
      -2.722
      -2.553
      -2.316
      -2.001
      -1.605
      -1.128
      -0.575
       0.028
       0.628
       1.158
       1.575
       1.886
       2.136
       2.365
       2.575
       2.732
       2.807
       2.808
       2.767
       2.717
       2.665
       2.605
       2.539
       2.482
       2.454
       2.464
       2.503
       2.554
       2.589
       2.582
       2.508
       2.347
       2.090
       1.743
       1.327
       0.877
       0.437
       0.063
      -0.185
      -0.277
      -0.228
      -0.091
       0.089
       0.310
       0.598
       0.969
       1.389
       1.792
       2.118
       2.320
       2.372
       2.267
       2.024
       1.686
       1.295
       0.885
       0.491
       0.150
      -0.109
      -0.278
      -0.365
      -0.364
      -0.271
      -0.102
       0.091
       0.252
       0.355
       0.406
       0.411
       0.342
       0.143
      -0.223
      -0.728
      -1.279
      -1.769
      -2.154
      -2.463
      -2.753
      -3.042
      -3.296
      -3.469
      -3.537
      -3.491
      -3.310
      -2.954
      -2.398
      -1.653
      -0.782
       0.125
       0.984
       1.746
       2.395
       2.925
       3.331
       3.617
       3.804
       3.921
       3.993
       4.018
       3.976
       3.844
       3.628
       3.371
       3.136
       2.968
       2.868
       2.806
       2.753
       2.688
       2.585
       2.406
       2.118
       1.720
       1.250
       0.767
       0.315
      -0.078
      -0.401
      -0.644
      -0.813
      -0.931
      -1.025
      -1.104
      -1.164
      -1.209
      -1.270
      -1.393
      -1.602
      -1.877
      -2.161
      -2.396
      -2.555
      -2.650
      -2.709
      -2.738
      -2.719
      -2.631
      -2.479
      -2.299
      -2.118
      -1.929
      -1.698
      -1.403
      -1.058
      -0.696
      -0.335
       0.024
       0.375
       0.688
       0.913
       1.006
       0.946
       0.761
       0.516
       0.288
       0.119
       0.002
      -0.090
      -0.167
      -0.222
      -0.243
      -0.239
      -0.231
      -0.242
      -0.278
      -0.333
      -0.400
      -0.470
      -0.527
      -0.541
      -0.478
      -0.328
      -0.113
       0.126
       0.342
       0.500
       0.568
       0.521
       0.347
       0.051
      -0.345
      -0.796
      -1.236
      -1.602
      -1.866
      -2.040
      -2.150
      -2.214
      -2.230
      -2.188
      -2.079
      -1.910
      -1.707
      -1.513
      -1.373
      -1.307
      -1.308
      -1.358
      -1.438
      -1.529
      -1.595
      -1.605
      -1.543
      -1.418
      -1.235
      -0.997
      -0.700
      -0.358
       0.004
       0.347
       0.642
       0.878
       1.063
       1.201
       1.287
       1.310
       1.282
       1.234
       1.201
       1.192
       1.185
       1.140
       1.038
       0.888
       0.714
       0.544
       0.399
       0.299
       0.255
       0.266
       0.317
       0.394
       0.489
       0.601
       0.732
       0.874
       0.996
       1.046
       0.982
       0.799
       0.539
       0.259
       0.007
      -0.189
      -0.311
      -0.340
      -0.282
      -0.180
      -0.110
      -0.132
      -0.260
      -0.458
      -0.690
      -0.945
      -1.233
      -1.546
      -1.837
      -2.047
      -2.153
      -2.177
      -2.151
      -2.079
      -1.940
      -1.707
      -1.375
      -0.964
      -0.520
      -0.105
       0.234
       0.490
       0.688
       0.861
       1.025
       1.174
       1.282
       1.324
       1.289
       1.202
       1.113
       1.061
       1.050
       1.063
       1.092
       1.143
       1.211
       1.286
       1.373
       1.503
       1.714
       2.009
       2.345
       2.659
       2.893
       3.020
       3.051
       3.020
       2.956
       2.858
       2.699
       2.470
       2.208
       1.988
       1.863
       1.841
       1.899
       2.017
       2.186
       2.401
       2.644
       2.882
       3.080
       3.200
       3.215
       3.117
       2.921
       2.641
       2.274
       1.801
       1.202
       0.475
      -0.355
      -1.238
      -2.124
      -2.981
      -3.793
      -4.547
      -5.227
      -5.811
      -6.275
      -6.597
      -6.757
      -6.729
      -6.487
      -6.016
      -5.350
      -4.575
      -3.798
      -3.087
      -2.447
      -1.840
      -1.233
      -0.627
      -0.042
       0.507
       1.014
       1.471
       1.855
       2.146
       2.336
       2.424
       2.405
       2.282
       2.089
       1.890
       1.740
       1.658
       1.625
       1.621
       1.644
       1.708
       1.804
       1.883
       1.877
       1.735
       1.443
       1.022
       0.502
      -0.095
      -0.759
      -1.486
      -2.252
      -3.004
      -3.660
      -4.138
      -4.382
      -4.374
      -4.141
      -3.745
      -3.259
      -2.741
      -2.221
      -1.726
      -1.283
      -0.909
      -0.595
      -0.322
      -0.080
       0.123
       0.273
       0.364
       0.406
       0.411
       0.382
       0.304
       0.165
      -0.020
      -0.204
      -0.337
      -0.402
      -0.417
      -0.415
      -0.410
      -0.390
      -0.345
      -0.281
      -0.222
      -0.184
      -0.155
      -0.101
       0.010
       0.177
       0.352
       0.469
       0.477
       0.363
       0.142
      -0.147
      -0.461
      -0.765
      -1.046
      -1.319
      -1.607
      -1.907
      -2.174
      -2.336
      -2.335
      -2.165
      -1.870
      -1.509
      -1.123
      -0.731
      -0.353
      -0.018
       0.250
       0.455
       0.625
       0.785
       0.939
       1.063
       1.128
       1.113
       1.016
       0.862
       0.688
       0.521
       0.369
       0.226
       0.100
       0.013
      -0.002
       0.082
       0.282
       0.593
       0.980
       1.379
       1.710
       1.900
       1.908
       1.733
       1.399
       0.939
       0.400
      -0.169
      -0.715
      -1.191
      -1.563
      -1.822
      -1.982
      -2.068
      -2.106
      -2.118
      -2.117
      -2.106
      -2.084
      -2.043
      -1.978
      -1.876
      -1.717
      -1.480
      -1.147
      -0.710
      -0.170
       0.449
       1.100
       1.724
       2.284
       2.772
       3.196
       3.559
       3.851
       4.056
       4.163
       4.176
       4.106
       3.961
       3.739
       3.436
       3.055
       2.616
       2.132
       1.597
       0.991
       0.314
      -0.394
      -1.060
      -1.610
      -2.000
      -2.220
      -2.287
      -2.228
      -2.074
      -1.853
      -1.603
      -1.362
      -1.159
      -1.010
      -0.929
      -0.947
      -1.095
      -1.382
      -1.769
      -2.178
      -2.520
      -2.709
      -2.689
      -2.442
      -1.999
      -1.417
      -0.754
      -0.056
       0.640
       1.301
       1.896
       2.406
       2.822
       3.132
       3.320
       3.373
       3.313
       3.189
       3.050
       2.911
       2.752
       2.555
       2.322
       2.063
       1.774
       1.430
       1.016
       0.556
       0.098
      -0.317
      -0.678
      -0.996
      -1.271
      -1.477
      -1.570
      -1.532
      -1.396
      -1.240
      -1.138
      -1.106
      -1.098
      -1.050
      -0.928
      -0.742
      -0.513
      -0.251
       0.037
       0.330
       0.596
       0.817
       0.999
       1.157
       1.289
       1.376
       1.415
       1.418
       1.400
       1.358
       1.286
       1.197
       1.126
       1.111
       1.164
       1.266
       1.377
       1.458
       1.478
       1.423
       1.285
       1.068
       0.791
       0.489
       0.195
      -0.079
      -0.338
      -0.581
      -0.781
      -0.904
      -0.941
      -0.921
      -0.896
      -0.905
      -0.958
      -1.036
      -1.113
      -1.172
      -1.201
      -1.180
      -1.078
      -0.879
      -0.600
      -0.291
       0.000
       0.249
       0.456
       0.624
       0.743
       0.787
       0.725
       0.540
       0.257
      -0.073
      -0.397
      -0.692
      -0.948
      -1.143
      -1.231
      -1.166
      -0.941
      -0.600
      -0.216
       0.152
       0.467
       0.705
       0.834
       0.836
       0.731
       0.573
       0.420
       0.299
       0.205
       0.125
       0.070
       0.076
       0.176
       0.363
       0.579
       0.749
       0.825
       0.806
       0.717
       0.581
       0.403
       0.191
      -0.045
      -0.289
      -0.532
      -0.762
      -0.962
      -1.110
      -1.185
      -1.180
      -1.101
      -0.966
      -0.801
      -0.637
      -0.502
      -0.424
      -0.424
      -0.519
      -0.715
      -0.999
      -1.345
      -1.719
      -2.088
      -2.410
      -2.633
      -2.703
      -2.601
      -2.348
      -1.990
      -1.568
      -1.104
      -0.623
      -0.158
       0.251
       0.581
       0.833
       1.027
       1.194
       1.351
       1.501
       1.638
       1.759
       1.866
       1.966
       2.059
       2.144
       2.214
       2.261
       2.284
       2.293
       2.298
       2.297
       2.255
       2.123
       1.869
       1.503
       1.072
       0.627
       0.200
      -0.198
      -0.555
      -0.856
      -1.103
      -1.340
      -1.633
      -2.014
      -2.441
      -2.822
      -3.082
      -3.214
      -3.257
      -3.259
      -3.249
      -3.236
      -3.214
      -3.160
      -3.038
      -2.831
      -2.567
      -2.316
      -2.148
      -2.096
      -2.137
      -2.218
      -2.287
      -2.304
      -2.234
      -2.039
      -1.689
      -1.193
      -0.611
      -0.027
       0.501
       0.970
       1.409
       1.838
       2.233
       2.546
       2.738
       2.799
       2.737
       2.573
       2.329
       2.044
       1.772
       1.570
       1.467
       1.432
       1.397
       1.298
       1.128
       0.924
       0.735
       0.581
       0.455
       0.337
       0.219
       0.106
      -0.006
      -0.138
