Origin Time       4/2/2011 13:53:39	  UTC
Lat.              24.8 N	
Long.             94.6 E	
Depth (Km)         30.0
Magnitude         6.4
 Region           Myanmar-India-Border                                             
 Above details taken from IMD 
    
Station Code      SBS
Station Lat.       26.989  N
Station Long.      94.631  E
Station Height(m)   78.0
Site Class        C   Vs30 between 200 m/sec to 375 m/sec *  
Record Time       04.02.2011 13:54:51.869 UTC
Sampling Rate     200. Hz
 Record Duration   67.795 Sec.
 Direction         N-S (N positive)
Max. Acceleration      8.746 cm/sec**2
     
  * For reference see Site Classification link of website 
     
 Base Line Corrected and Low Pass Filtered (Cut Off at 35 Hz) Time History
 Acceleration data in cm/sec**2
    
[...]
       1.009
       0.955
       0.882
       0.795
       0.671
       0.484
       0.237
      -0.024
      -0.237
      -0.362
      -0.392
      -0.339
      -0.228
      -0.096
       0.016
       0.080
       0.084
       0.035
      -0.054
      -0.157
      -0.227
      -0.218
      -0.114
       0.055
       0.227
       0.349
       0.407
       0.420
       0.412
       0.384
       0.314
       0.179
      -0.017
      -0.228
      -0.385
      -0.437
      -0.406
      -0.364
      -0.385
      -0.482
      -0.611
      -0.704
      -0.716
      -0.653
      -0.563
      -0.508
      -0.531
      -0.624
      -0.733
      -0.791
      -0.759
      -0.647
      -0.482
      -0.282
      -0.044
       0.239
       0.551
       0.858
       1.129
       1.358
       1.559
       1.730
       1.831
       1.808
       1.631
       1.324
       0.962
       0.628
       0.371
       0.175
      -0.018
      -0.258
      -0.540
      -0.810
      -1.017
      -1.152
      -1.251
      -1.350
      -1.463
      -1.584
      -1.713
      -1.852
      -1.989
      -2.091
      -2.128
      -2.106
      -2.068
      -2.064
      -2.115
      -2.184
      -2.183
      -2.014
      -1.623
      -1.038
      -0.356
       0.301
       0.852
       1.281
       1.617
       1.888
       2.103
       2.255
       2.343
       2.395
       2.453
       2.541
       2.629
       2.658
       2.587
       2.431
       2.238
       2.033
       1.791
       1.472
       1.076
       0.660
       0.310
       0.072
      -0.079
      -0.219
      -0.418
      -0.688
      -0.992
      -1.283
      -1.547
      -1.806
      -2.074
      -2.326
      -2.482
      -2.459
      -2.226
      -1.834
      -1.391
      -0.991
      -0.661
      -0.353
       0.005
       0.451
       0.960
       1.476
       1.953
       2.371
       2.712
       2.934
       2.967
       2.764
       2.337
       1.760
       1.136
       0.545
       0.020
      -0.447
      -0.869
      -1.232
      -1.491
      -1.620
      -1.644
      -1.641
      -1.681
      -1.776
      -1.875
      -1.910
      -1.842
      -1.677
      -1.455
      -1.217
      -0.969
      -0.688
      -0.346
       0.058
       0.496
       0.925
       1.299
       1.591
       1.793
       1.912
       1.966
       1.969
       1.927
       1.831
       1.658
       1.383
       0.987
       0.469
      -0.147
      -0.814
      -1.460
      -2.018
      -2.446
      -2.738
      -2.902
      -2.952
      -2.905
      -2.783
      -2.597
      -2.336
      -1.964
      -1.451
      -0.798
      -0.044
       0.741
       1.484
       2.128
       2.647
       3.027
       3.248
       3.290
       3.165
       2.931
       2.674
       2.469
       2.350
       2.311
       2.321
       2.352
       2.400
       2.479
       2.602
       2.756
       2.901
       2.984
       2.963
       2.826
       2.596
       2.317
       2.034
       1.785
       1.596
       1.488
       1.457
       1.465
       1.443
       1.323
       1.078
       0.723
       0.303
      -0.135
      -0.531
      -0.822
      -0.958
      -0.939
      -0.833
      -0.744
      -0.764
      -0.920
      -1.175
      -1.444
      -1.646
      -1.739
      -1.747
      -1.731
      -1.731
      -1.733
      -1.691
      -1.576
      -1.406
      -1.215
      -1.030
      -0.853
      -0.681
      -0.515
      -0.366
      -0.256
      -0.202
      -0.197
      -0.199
      -0.157
      -0.044
       0.117
       0.272
       0.382
       0.448
       0.504
       0.589
       0.724
       0.900
       1.076
       1.193
       1.201
       1.077
       0.837
       0.522
       0.187
      -0.108
      -0.311
      -0.410
      -0.439
      -0.458
      -0.521
      -0.653
      -0.858
      -1.122
      -1.425
      -1.745
      -2.051
      -2.305
      -2.463
      -2.499
      -2.419
      -2.257
      -2.055
      -1.840
      -1.627
      -1.434
      -1.296
      -1.255
      -1.339
      -1.538
      -1.798
      -2.030
      -2.157
      -2.137
      -1.969
      -1.676
      -1.298
      -0.888
      -0.519
      -0.263
      -0.170
      -0.236
      -0.388
      -0.517
      -0.526
      -0.369
      -0.053
       0.371
       0.814
       1.177
       1.388
       1.436
       1.367
       1.254
       1.153
       1.090
       1.054
       1.018
       0.971
       0.938
       0.963
       1.063
       1.211
       1.357
       1.455
       1.488
       1.454
       1.351
       1.168
       0.888
       0.502
       0.021
      -0.508
      -1.022
      -1.472
      -1.839
      -2.130
      -2.347
      -2.467
      -2.463
      -2.330
      -2.110
      -1.875
      -1.678
      -1.523
      -1.371
      -1.192
      -1.005
      -0.865
      -0.811
      -0.839
      -0.899
      -0.920
      -0.851
      -0.678
      -0.433
      -0.165
       0.095
       0.356
       0.642
       0.955
       1.253
       1.484
       1.609
       1.618
       1.511
       1.292
       0.965
       0.532
       0.000
      -0.613
      -1.263
      -1.893
      -2.447
      -2.872
      -3.120
      -3.144
      -2.909
      -2.414
      -1.705
      -0.879
      -0.058
       0.640
       1.143
       1.438
       1.563
       1.577
       1.530
       1.448
       1.350
       1.257
       1.200
       1.194
       1.235
       1.300
       1.356
       1.378
       1.361
       1.334
       1.339
       1.407
       1.523
       1.636
       1.700
       1.704
       1.677
       1.658
       1.669
       1.696
       1.688
       1.591
       1.391
       1.130
       0.887
       0.720
       0.645
       0.637
       0.650
       0.649
       0.615
       0.537
       0.390
       0.149
      -0.191
      -0.593
      -0.986
      -1.303
      -1.519
      -1.655
      -1.730
      -1.728
      -1.609
      -1.355
      -1.019
      -0.716
      -0.568
      -0.635
      -0.878
      -1.194
      -1.475
      -1.648
      -1.699
      -1.651
      -1.529
      -1.330
      -1.031
      -0.627
      -0.168
       0.256
       0.553
       0.684
       0.674
       0.592
       0.507
       0.450
       0.411
       0.368
       0.309
       0.250
       0.216
       0.232
       0.317
       0.482
       0.732
       1.045
       1.378
       1.669
       1.857
       1.904
       1.816
       1.643
       1.430
       1.185
       0.875
       0.479
       0.026
      -0.411
      -0.754
      -0.964
      -1.033
      -0.971
      -0.786
      -0.496
      -0.137
       0.219
       0.470
       0.514
       0.305
      -0.102
      -0.578
      -0.985
      -1.235
      -1.317
      -1.274
      -1.166
      -1.038
      -0.901
      -0.752
      -0.605
      -0.490
      -0.425
      -0.388
      -0.328
      -0.225
      -0.113
      -0.054
      -0.087
      -0.209
      -0.390
      -0.604
      -0.849
      -1.131
      -1.445
      -1.758
      -2.022
      -2.191
      -2.246
      -2.190
      -2.027
      -1.746
      -1.319
      -0.724
       0.018
       0.827
       1.585
       2.192
       2.613
       2.877
       3.050
       3.179
       3.272
       3.304
       3.253
       3.139
       3.026
       2.974
       2.990
       3.023
       3.005
       2.889
       2.656
       2.306
       1.849
       1.299
       0.680
       0.009
      -0.703
      -1.444
      -2.182
      -2.868
      -3.454
      -3.897
      -4.176
      -4.299
      -4.311
      -4.263
      -4.170
      -3.995
      -3.679
      -3.191
      -2.555
      -1.845
      -1.149
      -0.531
      -0.012
       0.413
       0.757
       1.021
       1.205
       1.321
       1.395
       1.465
       1.569
       1.745
       2.008
       2.341
       2.692
       3.000
       3.224
       3.361
       3.433
       3.450
       3.384
       3.181
       2.810
       2.296
       1.713
       1.147
       0.649
       0.231
      -0.105
      -0.343
      -0.460
      -0.453
      -0.338
      -0.139
       0.118
       0.385
       0.588
       0.652
       0.544
       0.273
      -0.123
      -0.603
      -1.113
      -1.585
      -1.950
      -2.163
      -2.221
      -2.149
      -1.987
      -1.781
      -1.586
      -1.457
      -1.425
      -1.477
      -1.562
      -1.630
      -1.650
      -1.623
      -1.562
      -1.478
      -1.375
      -1.257
      -1.138
      -1.040
      -0.988
      -0.997
      -1.062
      -1.150
      -1.209
      -1.184
      -1.037
      -0.764
      -0.410
      -0.058
       0.195
       0.283
       0.210
       0.046
      -0.108
      -0.181
      -0.161
      -0.075
       0.050
       0.208
       0.410
       0.661
       0.942
       1.208
       1.417
       1.549
       1.615
       1.641
       1.655
       1.669
       1.677
       1.672
       1.664
       1.691
       1.789
       1.954
       2.134
       2.260
       2.294
       2.246
       2.164
       2.097
       2.071
       2.072
       2.061
       1.994
       1.838
       1.576
       1.208
       0.739
       0.191
      -0.398
      -0.963
      -1.436
      -1.778
      -1.996
      -2.131
      -2.228
      -2.321
      -2.418
      -2.498
      -2.515
      -2.416
      -2.165
      -1.761
      -1.239
      -0.652
      -0.049
       0.536
       1.075
       1.548
       1.954
       2.318
       2.663
       2.985
       3.248
       3.408
       3.448
       3.379
       3.228
       3.014
       2.741
       2.403
       1.990
       1.498
       0.942
       0.355
      -0.216
      -0.726
      -1.148
      -1.471
      -1.702
      -1.867
      -1.995
      -2.109
      -2.216
      -2.313
      -2.409
      -2.530
      -2.707
      -2.949
      -3.227
      -3.482
      -3.648
      -3.675
      -3.530
      -3.207
      -2.729
      -2.136
      -1.472
      -0.770
      -0.061
       0.609
       1.192
       1.641
       1.925
       2.021
       1.915
       1.606
       1.122
       0.509
      -0.170
      -0.840
      -1.432
      -1.899
      -2.233
      -2.442
      -2.530
      -2.489
      -2.331
      -2.103
      -1.873
      -1.707
      -1.655
      -1.753
      -2.015
      -2.427
      -2.948
      -3.524
      -4.099
      -4.621
      -5.058
      -5.402
      -5.655
      -5.814
      -5.874
      -5.831
      -5.683
      -5.438
      -5.114
      -4.744
      -4.371
      -4.017
      -3.675
      -3.314
      -2.912
      -2.479
      -2.053
      -1.661
      -1.294
      -0.910
      -0.470
       0.029
       0.552
       1.060
       1.555
       2.077
       2.672
       3.346
       4.044
       4.682
       5.193
       5.562
       5.825
       6.037
       6.236
       6.412
       6.526
       6.532
       6.411
       6.173
       5.844
       5.450
       5.021
       4.591
       4.213
       3.932
       3.758
       3.642
       3.502
       3.281
       2.981
       2.650
       2.337
       2.045
       1.744
       1.404
       1.034
       0.682
       0.412
       0.254
       0.180
       0.114
      -0.005
      -0.172
      -0.311
      -0.339
      -0.227
      -0.012
       0.243
       0.487
       0.699
       0.884
       1.058
       1.235
       1.413
       1.575
       1.700
       1.769
       1.761
       1.675
       1.531
       1.370
       1.229
       1.118
       1.029
       0.953
       0.884
       0.811
       0.701
       0.516
       0.236
      -0.136
      -0.578
      -1.054
      -1.515
      -1.911
      -2.204
      -2.367
      -2.394
      -2.296
      -2.101
      -1.846
      -1.574
      -1.328
      -1.149
      -1.060
      -1.063
      -1.137
      -1.247
      -1.357
      -1.437
      -1.462
      -1.402
      -1.227
      -0.913
      -0.464
       0.078
       0.641
       1.153
       1.565
       1.859
       2.033
       2.095
       2.057
       1.941
       1.771
       1.570
       1.344
       1.092
       0.822
       0.555
       0.318
       0.126
      -0.021
      -0.126
      -0.187
      -0.199
      -0.170
      -0.137
      -0.163
      -0.291
      -0.514
      -0.770
      -0.990
      -1.149
      -1.278
      -1.432
      -1.646
      -1.908
      -2.173
      -2.394
      -2.548
      -2.637
      -2.669
      -2.643
      -2.546
      -2.367
      -2.110
      -1.801
      -1.455
      -1.062
      -0.597
      -0.067
       0.469
       0.920
       1.212
       1.331
       1.329
       1.285
       1.268
       1.294
       1.335
       1.349
       1.312
       1.228
       1.115
       0.982
       0.814
       0.585
       0.283
      -0.065
      -0.403
      -0.677
      -0.870
      -1.005
      -1.119
      -1.246
      -1.410
      -1.623
      -1.879
      -2.157
      -2.440
      -2.721
      -3.001
      -3.280
      -3.558
      -3.830
      -4.079
      -4.261
      -4.331
      -4.268
      -4.086
      -3.813
      -3.470
      -3.067
      -2.608
      -2.106
      -1.573
      -1.040
      -0.550
      -0.159
       0.096
       0.204
       0.191
       0.097
      -0.030
      -0.150
      -0.234
      -0.264
      -0.248
      -0.214
      -0.203
      -0.230
      -0.274
      -0.284
      -0.211
      -0.039
       0.216
       0.514
       0.819
       1.119
       1.431
       1.779
       2.178
       2.613
       3.058
       3.489
       3.906
       4.331
       4.792
       5.310
       5.891
       6.516
       7.137
       7.695
       8.142
       8.465
       8.668
       8.746
       8.673
       8.430
       8.026
       7.496
       6.879
       6.203
       5.488
       4.764
       4.068
       3.429
       2.851
       2.313
       1.785
       1.264
       0.782
       0.397
       0.146
       0.021
      -0.031
      -0.065
      -0.100
      -0.116
      -0.079
       0.013
       0.115
       0.147
       0.047
      -0.189
      -0.505
      -0.814
      -1.055
      -1.219
      -1.361
      -1.556
      -1.844
      -2.190
      -2.519
      -2.788
      -3.024
      -3.301
      -3.669
      -4.134
      -4.665
      -5.226
      -5.787
      -6.316
      -6.783
      -7.153
      -7.381
      -7.433
      -7.316
      -7.092
      -6.834
      -6.575
      -6.290
      -5.946
      -5.547
      -5.135
      -4.746
      -4.369
      -3.959
      -3.465
      -2.867
      -2.206
      -1.570
      -1.043
      -0.645
      -0.318
       0.020
       0.400
       0.780
       1.088
       1.281
       1.375
       1.420
       1.453
       1.467
       1.420
       1.269
       1.017
       0.714
       0.429
       0.198
       0.006
      -0.191
      -0.419
      -0.667
      -0.889
      -1.044
      -1.117
      -1.120
      -1.066
      -0.966
      -0.820
      -0.627
      -0.387
      -0.112
       0.172
       0.425
       0.616
       0.733
       0.797
       0.841
       0.890
       0.960
       1.060
       1.196
       1.345
       1.453
       1.462
       1.351
       1.136
       0.844
       0.487
       0.064
      -0.417
      -0.929
      -1.432
      -1.885
      -2.264
      -2.565
      -2.795
      -2.965
      -3.079
      -3.128
      -3.110
      -3.047
      -2.979
      -2.932
      -2.880
      -2.760
      -2.508
      -2.099
      -1.555
      -0.925
      -0.262
       0.394
       1.028
       1.633
       2.176
       2.595
       2.831
       2.873
       2.759
       2.561
       2.353
       2.187
       2.082
       2.035
       2.044
       2.113
       2.234
       2.366
       2.447
       2.420
       2.268
       2.019
       1.728
       1.453
       1.231
       1.068
       0.957
       0.887
       0.845
       0.813
       0.766
       0.683
       0.568
       0.437
       0.305
       0.177
       0.050
      -0.088
      -0.248
      -0.438
      -0.643
      -0.834
      -0.992
      -1.114
      -1.215
      -1.299
      -1.351
      -1.346
      -1.276
      -1.153
      -1.004
      -0.840
      -0.652
      -0.423
      -0.157
       0.130
       0.419
       0.710
       1.012
       1.334
       1.672
       2.000
       2.275
       2.462
       2.567
       2.641
       2.751
       2.926
       3.138
       3.324
       3.431
       3.449
       3.413
       3.385
       3.416
       3.512
       3.629
       3.706
       3.702
       3.607
       3.418
       3.109
       2.632
       1.960
       1.114
       0.169
      -0.787
      -1.688
      -2.501
      -3.212
      -3.802
      -4.239
      -4.488
      -4.535
      -4.418
      -4.219
      -4.034
      -3.923
      -3.894
      -3.904
      -3.898
      -3.843
      -3.727
      -3.553
      -3.322
      -3.039
      -2.717
      -2.374
      -2.026
      -1.681
      -1.351
      -1.051
      -0.795
      -0.596
      -0.447
      -0.324
      -0.188
      -0.003
       0.242
       0.536
       0.852
       1.169
       1.473
       1.746
       1.964
       2.101
       2.135
       2.046
       1.835
       1.536
       1.200
       0.880
       0.605
       0.379
       0.199
       0.054
      -0.062
      -0.153
      -0.219
      -0.270
      -0.333
      -0.449
      -0.644
      -0.918
      -1.252
      -1.616
      -1.983
      -2.331
      -2.653
      -2.947
      -3.206
      -3.411
      -3.540
      -3.591
      -3.577
      -3.502
      -3.346
      -3.071
      -2.654
      -2.109
      -1.477
      -0.796
      -0.092
       0.608
       1.271
       1.865
       2.380
       2.829
       3.230
       3.598
       3.948
       4.291
       4.621
       4.902
       5.076
       5.108
       5.002
       4.808
       4.585
       4.374
       4.187
       3.997
       3.762
       3.457
       3.094
       2.705
       2.307
       1.875
       1.372
       0.805
       0.255
      -0.163
      -0.363
      -0.332
      -0.124
       0.165
       0.441
       0.658
       0.839
       1.052
       1.347
       1.701
       2.040
       2.309
       2.516
       2.712
       2.936
       3.175
       3.369
       3.445
       3.352
       3.099
       2.757
       2.405
       2.089
       1.805
       1.533
       1.272
       1.037
       0.837
       0.651
       0.438
       0.157
      -0.206
      -0.641
      -1.115
      -1.591
      -2.045
      -2.461
      -2.835
      -3.155
      -3.399
      -3.531
      -3.521
      -3.363
      -3.085
      -2.740
      -2.378
      -2.030
      -1.699
      -1.368
      -1.021
      -0.673
      -0.373
      -0.176
      -0.102
      -0.127
      -0.220
      -0.366
      -0.575
      -0.850
      -1.161
      -1.450
      -1.656
      -1.750
      -1.739
      -1.652
      -1.522
      -1.373
      -1.222
      -1.081
      -0.952
      -0.833
      -0.714
      -0.585
      -0.430
      -0.233
       0.014
       0.293
       0.565
       0.784
       0.920
       0.971
       0.955
       0.886
       0.770
       0.607
       0.404
       0.175
      -0.075
      -0.337
      -0.592
      -0.802
      -0.931
      -0.976
      -0.972
      -0.963
      -0.978
      -1.014
      -1.043
      -1.029
      -0.949
      -0.802
      -0.610
      -0.398
      -0.186
       0.007
       0.151
       0.200
       0.127
      -0.044
      -0.232
      -0.339
      -0.304
      -0.118
       0.189
       0.582
       1.034
