Origin Time       4/2/2011 13:53:39	 
Lat.              24.8 N	
Long.             94.6 E	
Depth (Km)         30.0
Magnitude         6.4
 Region           Myanmar-India-Border                                             
 Above details taken from IMD 
   
Station Code      SBS
Station Lat.       26.989
Station Long.      94.631
Station Height(m)   78.0
Site Class        C   Vs30 between 200 m/sec to 375 m/sec *  
Record Time       04.02.2011 13:54:51.869
Sampling Rate     200. Hz
 Record Duration   67.795 Sec.
 Direction         Vert. (Up positive)
Max. Acceleration     -3.212 cm/sec**2
     
  * For reference see Site Classification link of website 
     
 Base Line Corrected and Low Pass Filtered (Cut Off at 35 Hz) Time History
 Acceleration data in cm/sec**2
    
[...]
      -1.235
      -0.883
      -0.977
      -1.436
      -1.885
      -1.993
      -1.712
      -1.241
      -0.825
      -0.588
      -0.503
      -0.475
      -0.415
      -0.287
      -0.103
       0.095
       0.269
       0.407
       0.504
       0.532
       0.443
       0.231
      -0.021
      -0.183
      -0.168
      -0.018
       0.106
       0.041
      -0.226
      -0.529
      -0.653
      -0.503
      -0.166
       0.152
       0.257
       0.088
      -0.228
      -0.463
      -0.472
      -0.316
      -0.180
      -0.160
      -0.168
      -0.075
       0.095
       0.181
       0.108
       0.022
       0.129
       0.420
       0.622
       0.469
      -0.014
      -0.507
      -0.677
      -0.451
      -0.045
       0.244
       0.253
       0.036
      -0.223
      -0.346
      -0.279
      -0.116
      -0.004
      -0.010
      -0.074
      -0.076
       0.036
       0.157
       0.069
      -0.372
      -1.031
      -1.526
      -1.531
      -1.084
      -0.554
      -0.285
      -0.275
      -0.245
       0.004
       0.351
       0.500
       0.319
       0.021
      -0.017
       0.404
       1.114
       1.697
       1.813
       1.428
       0.784
       0.180
      -0.217
      -0.409
      -0.478
      -0.488
      -0.461
      -0.401
      -0.328
      -0.273
      -0.269
      -0.336
      -0.463
      -0.589
      -0.626
      -0.533
      -0.382
      -0.316
      -0.424
      -0.656
      -0.869
      -0.940
      -0.842
      -0.624
      -0.357
      -0.099
       0.134
       0.352
       0.531
       0.576
       0.383
       0.003
      -0.302
      -0.232
       0.277
       0.977
       1.502
       1.622
       1.327
       0.750
       0.077
      -0.498
      -0.809
      -0.768
      -0.419
       0.043
       0.354
       0.331
      -0.009
      -0.467
      -0.811
      -0.926
      -0.864
      -0.773
      -0.763
      -0.840
      -0.942
      -1.037
      -1.162
      -1.334
      -1.460
      -1.362
      -0.915
      -0.162
       0.687
       1.357
       1.647
       1.556
       1.310
       1.226
       1.469
       1.913
       2.250
       2.245
       1.899
       1.399
       0.964
       0.701
       0.567
       0.437
       0.225
      -0.047
      -0.299
      -0.484
      -0.619
      -0.737
      -0.859
      -0.998
      -1.156
      -1.306
      -1.398
      -1.409
      -1.364
      -1.302
      -1.241
      -1.175
      -1.092
      -0.983
      -0.842
      -0.659
      -0.405
      -0.047
       0.395
       0.805
       1.027
       1.005
       0.866
       0.820
       0.953
       1.138
       1.202
       1.150
       1.167
       1.371
       1.595
       1.495
       0.893
       0.008
      -0.672
      -0.772
      -0.301
       0.385
       0.856
       0.881
       0.531
       0.081
      -0.209
      -0.299
      -0.360
      -0.567
      -0.913
      -1.247
      -1.455
      -1.544
      -1.570
      -1.541
      -1.421
      -1.202
      -0.916
      -0.609
      -0.321
      -0.096
       0.041
       0.123
       0.247
       0.480
       0.799
       1.124
       1.409
       1.646
       1.785
       1.724
       1.405
       0.911
       0.416
       0.044
      -0.211
      -0.428
      -0.657
      -0.874
      -0.990
      -0.903
      -0.575
      -0.099
       0.346
       0.615
       0.684
       0.618
       0.486
       0.328
       0.155
      -0.059
      -0.369
      -0.778
      -1.179
      -1.399
      -1.352
      -1.130
      -0.926
      -0.851
      -0.852
      -0.793
      -0.621
      -0.430
      -0.369
      -0.464
      -0.557
      -0.427
       0.023
       0.678
       1.302
       1.697
       1.783
       1.589
       1.201
       0.714
       0.217
      -0.195
      -0.448
      -0.564
      -0.683
      -0.935
      -1.255
      -1.382
      -1.094
      -0.452
       0.199
       0.471
       0.208
      -0.407
      -0.961
      -1.082
      -0.714
      -0.172
       0.128
       0.013
      -0.350
      -0.665
      -0.788
      -0.775
      -0.745
      -0.738
      -0.718
      -0.633
      -0.469
      -0.261
      -0.089
      -0.025
      -0.066
      -0.122
      -0.106
      -0.039
      -0.037
      -0.188
      -0.437
      -0.607
      -0.549
      -0.307
      -0.100
      -0.114
      -0.306
      -0.452
      -0.392
      -0.191
      -0.031
      -0.005
      -0.058
      -0.127
      -0.227
      -0.380
      -0.515
      -0.524
      -0.418
      -0.345
      -0.422
      -0.597
      -0.681
      -0.533
      -0.192
       0.133
       0.194
      -0.120
      -0.674
      -1.154
      -1.306
      -1.133
      -0.874
      -0.777
      -0.892
      -1.063
      -1.088
      -0.893
      -0.569
      -0.268
      -0.075
       0.054
       0.222
       0.487
       0.789
       0.992
       1.007
       0.901
       0.848
       0.965
       1.193
       1.351
       1.287
       0.977
       0.521
       0.095
      -0.119
      -0.035
       0.232
       0.399
       0.222
      -0.284
      -0.841
      -1.136
      -1.043
      -0.659
      -0.191
       0.195
       0.471
       0.752
       1.176
       1.717
       2.146
       2.204
       1.830
       1.223
       0.687
       0.410
       0.362
       0.364
       0.267
       0.045
      -0.229
      -0.493
      -0.768
      -1.105
      -1.456
      -1.628
      -1.421
      -0.852
      -0.219
       0.105
      -0.050
      -0.530
      -0.989
      -1.134
      -0.905
      -0.460
      -0.034
       0.200
       0.212
       0.141
       0.232
       0.646
       1.274
       1.767
       1.810
       1.379
       0.774
       0.401
       0.488
       0.935
       1.383
       1.454
       1.003
       0.195
      -0.624
      -1.158
      -1.304
      -1.135
      -0.805
      -0.488
      -0.351
      -0.479
      -0.805
      -1.154
      -1.367
      -1.403
      -1.345
      -1.325
      -1.406
      -1.470
      -1.266
      -0.647
       0.198
       0.795
       0.757
       0.136
      -0.568
      -0.774
      -0.234
       0.827
       1.893
       2.474
       2.384
       1.829
       1.266
       1.072
       1.287
       1.640
       1.802
       1.611
       1.133
       0.594
       0.257
       0.286
       0.635
       1.073
       1.346
       1.330
       1.037
       0.549
      -0.009
      -0.453
      -0.628
      -0.549
      -0.433
      -0.500
      -0.740
      -0.895
      -0.694
      -0.127
       0.518
       0.892
       0.871
       0.632
       0.477
       0.588
       0.912
       1.218
       1.245
       0.866
       0.173
      -0.546
      -0.969
      -0.952
      -0.662
      -0.477
      -0.722
      -1.423
      -2.249
      -2.714
      -2.518
      -1.790
      -1.004
      -0.605
      -0.689
      -0.991
      -1.144
      -0.920
      -0.307
       0.511
       1.215
       1.459
       1.094
       0.342
      -0.285
      -0.343
       0.219
       1.038
       1.602
       1.558
       0.897
      -0.029
      -0.692
      -0.724
      -0.181
       0.490
       0.787
       0.503
      -0.168
      -0.829
      -1.169
      -1.145
      -0.959
      -0.868
      -0.990
      -1.248
      -1.459
      -1.464
      -1.214
      -0.806
      -0.466
      -0.425
      -0.713
      -1.043
      -0.966
      -0.226
       0.976
       2.068
       2.499
       2.156
       1.443
       0.955
       1.021
       1.492
       1.929
       1.999
       1.706
       1.278
       0.882
       0.518
       0.149
      -0.162
      -0.350
      -0.512
      -0.835
      -1.328
      -1.699
      -1.621
      -1.117
      -0.601
      -0.510
      -0.928
      -1.553
      -1.988
      -2.034
      -1.750
      -1.326
      -0.939
      -0.669
      -0.483
      -0.267
       0.070
       0.498
       0.868
       1.038
       1.000
       0.902
       0.938
       1.216
       1.685
       2.173
       2.457
       2.364
       1.860
       1.124
       0.515
       0.386
       0.843
       1.622
       2.218
       2.207
       1.540
       0.585
      -0.128
      -0.258
       0.147
       0.705
       0.971
       0.749
       0.199
      -0.316
      -0.527
      -0.431
      -0.245
      -0.209
      -0.400
      -0.687
      -0.832
      -0.679
      -0.270
       0.160
       0.306
      -0.025
      -0.750
      -1.506
      -1.874
      -1.700
      -1.221
      -0.871
      -0.915
      -1.264
      -1.597
      -1.642
      -1.351
      -0.882
      -0.445
      -0.154
       0.017
       0.181
       0.450
       0.867
       1.361
       1.745
       1.817
       1.510
       0.968
       0.450
       0.164
       0.140
       0.242
       0.276
       0.158
      -0.006
      -0.001
       0.299
       0.826
       1.359
       1.685
       1.716
       1.508
       1.180
       0.829
       0.508
       0.247
       0.045
      -0.176
      -0.541
      -1.076
      -1.595
      -1.804
      -1.548
      -0.965
      -0.389
      -0.099
      -0.142
      -0.350
      -0.502
      -0.473
      -0.260
       0.062
       0.393
       0.634
       0.702
       0.555
       0.213
      -0.229
      -0.642
      -0.921
      -1.039
      -1.035
      -0.966
      -0.870
      -0.771
      -0.691
      -0.652
      -0.647
      -0.623
      -0.515
      -0.309
      -0.083
       0.030
      -0.085
      -0.444
      -0.955
      -1.458
      -1.789
      -1.856
      -1.678
      -1.377
      -1.086
      -0.864
      -0.680
      -0.458
      -0.122
       0.388
       1.055
       1.729
       2.188
       2.317
       2.208
       2.045
       1.937
       1.881
       1.859
       1.858
       1.816
       1.599
       1.130
       0.507
      -0.057
      -0.407
      -0.572
      -0.706
      -0.955
      -1.348
      -1.773
      -2.057
      -2.085
      -1.875
      -1.543
      -1.209
      -0.936
      -0.733
      -0.565
      -0.372
      -0.110
       0.192
       0.409
       0.406
       0.184
      -0.063
      -0.081
       0.183
       0.490
       0.497
       0.088
      -0.471
      -0.741
      -0.480
       0.162
       0.791
       1.096
       1.062
       0.917
       0.917
       1.173
       1.606
       2.032
       2.293
       2.356
       2.320
       2.304
       2.320
       2.251
       1.969
       1.463
       0.871
       0.376
       0.062
      -0.149
      -0.408
      -0.760
      -1.077
      -1.199
      -1.137
      -1.109
      -1.347
      -1.860
      -2.403
      -2.676
      -2.555
      -2.177
      -1.834
      -1.790
      -2.102
      -2.539
      -2.701
      -2.296
      -1.372
      -0.287
       0.569
       1.009
       1.055
       0.827
       0.488
       0.240
       0.242
       0.467
       0.694
       0.696
       0.461
       0.229
       0.289
       0.711
       1.238
       1.473
       1.222
       0.688
       0.318
       0.417
       0.899
       1.391
       1.583
       1.449
       1.170
       0.924
       0.776
       0.682
       0.552
       0.312
      -0.031
      -0.403
      -0.739
      -1.034
      -1.300
      -1.526
      -1.680
      -1.755
      -1.762
      -1.700
      -1.507
      -1.097
      -0.448
       0.310
       0.920
       1.159
       1.005
       0.657
       0.390
       0.367
       0.576
       0.879
       1.101
       1.099
       0.823
       0.356
      -0.115
      -0.404
      -0.435
      -0.276
      -0.049
       0.187
       0.458
       0.779
       1.062
       1.184
       1.143
       1.093
       1.205
       1.480
       1.719
       1.677
       1.282
       0.718
       0.290
       0.177
       0.275
       0.311
       0.108
      -0.249
      -0.521
      -0.569
      -0.493
      -0.520
      -0.770
      -1.141
      -1.429
      -1.538
      -1.552
      -1.624
      -1.815
      -2.026
      -2.064
      -1.786
      -1.242
      -0.670
      -0.309
      -0.182
      -0.095
       0.176
       0.683
       1.289
       1.799
       2.085
       2.125
       1.977
       1.748
       1.562
       1.510
       1.588
       1.688
       1.665
       1.457
       1.150
       0.908
       0.825
       0.838
       0.792
       0.580
       0.233
      -0.103
      -0.250
      -0.117
       0.207
       0.471
       0.445
       0.110
      -0.330
      -0.615
      -0.614
      -0.361
       0.017
       0.386
       0.645
       0.751
       0.731
       0.644
       0.533
       0.419
       0.327
       0.284
       0.262
       0.172
      -0.045
      -0.341
      -0.615
      -0.816
      -0.965
      -1.084
      -1.137
      -1.066
      -0.872
      -0.660
      -0.580
      -0.692
      -0.867
      -0.864
      -0.549
      -0.045
       0.345
       0.376
       0.043
      -0.429
      -0.752
      -0.758
      -0.475
      -0.064
       0.276
       0.404
       0.290
       0.025
      -0.238
      -0.390
      -0.420
      -0.406
      -0.441
      -0.573
      -0.756
      -0.856
      -0.750
      -0.482
      -0.281
      -0.379
      -0.774
      -1.210
      -1.394
      -1.232
      -0.854
      -0.437
      -0.063
       0.255
       0.459
       0.439
       0.149
      -0.254
      -0.452
      -0.187
       0.488
       1.195
       1.492
       1.218
       0.611
       0.125
       0.094
       0.512
       1.031
       1.194
       0.753
      -0.132
      -0.992
      -1.402
      -1.306
      -1.035
      -1.037
      -1.533
      -2.357
      -3.062
      -3.212
      -2.711
      -1.884
      -1.215
      -0.942
      -0.912
      -0.809
      -0.492
      -0.069
       0.264
       0.398
       0.327
       0.098
      -0.214
      -0.505
      -0.671
      -0.630
      -0.323
       0.231
       0.869
       1.323
       1.409
       1.221
       1.063
       1.169
       1.476
       1.708
       1.646
       1.298
       0.843
       0.490
       0.373
       0.482
       0.647
       0.625
       0.304
      -0.175
      -0.519
      -0.537
      -0.295
      -0.049
      -0.039
      -0.317
      -0.713
      -0.949
      -0.823
      -0.344
       0.270
       0.766
       1.042
       1.192
       1.404
       1.794
       2.306
       2.750
       2.912
       2.663
       2.011
       1.121
       0.284
      -0.216
      -0.308
      -0.218
      -0.304
      -0.779
      -1.548
      -2.288
      -2.672
      -2.562
      -2.048
      -1.339
      -0.651
      -0.143
       0.145
       0.327
       0.589
       1.010
       1.451
       1.688
       1.642
       1.451
       1.334
       1.379
       1.486
       1.488
       1.329
       1.115
       1.003
       1.054
       1.173
       1.192
       0.995
       0.626
       0.290
       0.235
       0.561
       1.106
       1.535
       1.572
       1.171
       0.519
      -0.106
      -0.496
      -0.620
      -0.636
      -0.747
      -1.020
      -1.360
      -1.653
      -1.880
      -2.081
      -2.250
      -2.307
      -2.160
      -1.760
      -1.138
      -0.395
       0.357
       1.044
       1.622
       2.034
       2.229
       2.232
       2.175
       2.198
       2.323
       2.428
       2.357
       2.056
       1.611
       1.165
       0.797
       0.479
       0.112
      -0.368
      -0.906
      -1.333
      -1.477
      -1.283
      -0.838
      -0.306
       0.131
       0.315
       0.161
      -0.263
      -0.735
      -1.001
      -0.962
      -0.734
      -0.529
      -0.455
      -0.465
      -0.479
      -0.523
      -0.715
      -1.087
      -1.478
      -1.621
      -1.381
      -0.878
      -0.407
      -0.240
      -0.453
      -0.888
      -1.250
      -1.295
      -1.025
      -0.701
      -0.629
      -0.901
      -1.330
      -1.628
      -1.639
      -1.409
      -1.103
      -0.879
      -0.798
      -0.794
      -0.721
      -0.461
      -0.023
       0.469
       0.897
       1.240
       1.559
       1.886
       2.146
       2.210
       2.011
       1.612
       1.182
       0.906
       0.895
       1.106
       1.338
       1.343
       0.983
       0.317
      -0.445
      -1.077
      -1.466
      -1.659
      -1.783
      -1.933
      -2.116
      -2.284
      -2.385
      -2.366
      -2.184
      -1.859
      -1.503
      -1.240
      -1.105
      -1.013
      -0.849
      -0.574
      -0.266
      -0.068
      -0.080
      -0.266
      -0.469
      -0.525
      -0.395
      -0.182
      -0.016
       0.068
       0.143
       0.286
       0.512
       0.784
       1.057
       1.296
       1.471
       1.558
       1.544
       1.444
       1.306
       1.187
       1.079
       0.870
       0.413
      -0.314
      -1.099
      -1.608
      -1.632
      -1.257
      -0.786
      -0.529
      -0.615
      -0.933
      -1.210
      -1.188
      -0.812
      -0.256
       0.224
       0.491
       0.586
       0.610
       0.589
       0.486
       0.313
       0.185
       0.191
       0.266
       0.236
       0.022
      -0.256
      -0.395
      -0.315
      -0.111
       0.075
       0.195
       0.282
       0.357
       0.404
       0.425
       0.486
       0.646
       0.865
       0.980
       0.803
       0.269
      -0.459
      -1.028
      -1.115
      -0.707
      -0.177
      -0.001
      -0.348
      -0.908
      -1.168
      -0.870
      -0.199
       0.430
       0.713
       0.633
       0.391
       0.258
       0.428
       0.875
       1.294
       1.262
       0.592
      -0.447
      -1.295
      -1.548
      -1.247
      -0.766
      -0.474
      -0.484
      -0.655
      -0.739
      -0.554
      -0.094
       0.477
       0.952
       1.213
       1.268
       1.195
       1.084
       1.015
       1.040
       1.142
       1.227
       1.200
       1.065
       0.927
       0.885
       0.920
       0.901
       0.709
       0.365
       0.043
      -0.078
       0.017
       0.160
       0.158
      -0.034
      -0.300
      -0.483
      -0.516
      -0.453
      -0.401
      -0.415
      -0.438
      -0.361
      -0.167
      -0.009
      -0.092
      -0.458
      -0.923
      -1.238
      -1.310
      -1.243
      -1.190
      -1.189
      -1.161
      -1.044
      -0.896
      -0.821
      -0.830
      -0.807
      -0.645
      -0.367
      -0.103
       0.044
       0.098
       0.159
       0.292
       0.456
       0.541
       0.491
       0.394
       0.422
       0.663
       1.009
       1.227
       1.142
       0.763
       0.246
      -0.206
      -0.451
      -0.471
      -0.380
      -0.359
      -0.514
      -0.782
      -0.976
      -0.938
      -0.654
      -0.247
       0.123
       0.353
       0.439
       0.462
       0.529
       0.682
       0.855
       0.932
       0.877
       0.787
       0.797
       0.909
       0.947
       0.716
       0.200
      -0.403
      -0.847
      -1.001
      -0.910
      -0.722
      -0.599
      -0.637
      -0.819
      -1.030
      -1.150
      -1.153
      -1.110
      -1.090
      -1.088
      -1.025
      -0.827
      -0.501
      -0.154
       0.070
       0.117
       0.084
       0.145
       0.373
       0.660
       0.816
       0.769
       0.630
       0.571
       0.651
       0.785
       0.865
       0.849
       0.759
       0.608
       0.395
       0.159
       0.006
       0.024
