Origin Time       02/10/2012 18:37:39
Lat.              26.9 N	
Long.             92.8 E	
Depth (Km)         35.0
Magnitude         5.1
 Region           Sonitpur-Assam                                                   
 Above details taken from IMD 
     
Station Code      SBS
Station Lat.       26.989  N
Station Long.      94.631  E
Station Height(m)   78.0
Site Class        C   Vs30 between 200 m/sec to 375 m/sec *  
Record Time       02.10.2012 18:38:14.124
Sampling Rate     200. Hz
 Record Duration   65.920 Sec.
 Direction         E-W (E positive)
Max. Acceleration      5.186 cm/sec**2
     
  * For reference see Site Classification link of website 
     
 Base Line Corrected and Low Pass Filtered (Cut Off at 35 Hz) Time History
 Acceleration data in cm/sec**2
    
[...]
      -0.131
      -0.151
      -0.164
      -0.156
      -0.115
      -0.052
       0.012
       0.057
       0.078
       0.087
       0.108
       0.154
       0.220
       0.288
       0.338
       0.359
       0.349
       0.319
       0.286
       0.267
       0.263
       0.260
       0.235
       0.181
       0.112
       0.053
       0.022
       0.015
       0.017
       0.017
       0.017
       0.024
       0.038
       0.053
       0.058
       0.051
       0.034
       0.007
      -0.036
      -0.101
      -0.187
      -0.277
      -0.350
      -0.388
      -0.386
      -0.352
      -0.300
      -0.245
      -0.198
      -0.167
      -0.156
      -0.163
      -0.176
      -0.175
      -0.145
      -0.086
      -0.017
       0.039
       0.072
       0.092
       0.114
       0.146
       0.177
       0.190
       0.181
       0.156
       0.126
       0.098
       0.074
       0.062
       0.065
       0.080
       0.095
       0.102
       0.101
       0.098
       0.099
       0.099
       0.092
       0.076
       0.061
       0.053
       0.047
       0.029
      -0.006
      -0.048
      -0.073
      -0.066
      -0.029
       0.020
       0.059
       0.077
       0.085
       0.103
       0.143
       0.199
       0.247
       0.261
       0.233
       0.175
       0.112
       0.063
       0.036
       0.029
       0.033
       0.043
       0.058
       0.078
       0.106
       0.135
       0.153
       0.147
       0.114
       0.063
       0.008
      -0.038
      -0.078
      -0.117
      -0.160
      -0.203
      -0.235
      -0.247
      -0.240
      -0.226
      -0.218
      -0.217
      -0.219
      -0.220
      -0.220
      -0.220
      -0.221
      -0.216
      -0.201
      -0.175
      -0.143
      -0.118
      -0.110
      -0.120
      -0.140
      -0.151
      -0.145
      -0.120
      -0.083
      -0.037
       0.018
       0.084
       0.150
       0.201
       0.221
       0.210
       0.184
       0.163
       0.158
       0.167
       0.178
       0.187
       0.195
       0.209
       0.225
       0.233
       0.222
       0.196
       0.168
       0.157
       0.165
       0.179
       0.176
       0.144
       0.088
       0.030
      -0.017
      -0.053
      -0.085
      -0.118
      -0.143
      -0.146
      -0.119
      -0.071
      -0.029
      -0.016
      -0.043
      -0.096
      -0.146
      -0.175
      -0.182
      -0.181
      -0.183
      -0.185
      -0.172
      -0.140
      -0.099
      -0.062
      -0.029
       0.009
       0.058
       0.109
       0.137
       0.129
       0.099
       0.078
       0.084
       0.110
       0.131
       0.130
       0.110
       0.088
       0.082
       0.097
       0.122
       0.142
       0.141
       0.113
       0.066
       0.022
       0.000
       0.009
       0.040
       0.074
       0.092
       0.092
       0.081
       0.072
       0.068
       0.063
       0.048
       0.022
      -0.011
      -0.039
      -0.060
      -0.080
      -0.108
      -0.149
      -0.199
      -0.245
      -0.273
      -0.278
      -0.263
      -0.239
      -0.212
      -0.182
      -0.147
      -0.105
      -0.057
      -0.003
       0.060
       0.131
       0.200
       0.249
       0.251
       0.198
       0.105
       0.015
      -0.034
      -0.027
       0.017
       0.063
       0.088
       0.094
       0.102
       0.123
       0.149
       0.158
       0.142
       0.111
       0.086
       0.073
       0.062
       0.043
       0.018
      -0.001
      -0.001
       0.011
       0.019
       0.006
      -0.027
      -0.064
      -0.088
      -0.092
      -0.086
      -0.081
      -0.087
      -0.101
      -0.120
      -0.137
      -0.154
      -0.173
      -0.192
      -0.201
      -0.185
      -0.140
      -0.075
      -0.017
       0.015
       0.018
       0.005
      -0.008
      -0.010
      -0.001
       0.019
       0.045
       0.073
       0.093
       0.098
       0.085
       0.063
       0.044
       0.044
       0.076
       0.144
       0.238
       0.332
       0.403
       0.441
       0.454
       0.456
       0.450
       0.429
       0.383
       0.307
       0.210
       0.110
       0.026
      -0.033
      -0.075
      -0.113
      -0.155
      -0.196
      -0.224
      -0.236
      -0.239
      -0.241
      -0.243
      -0.235
      -0.205
      -0.154
      -0.096
      -0.051
      -0.029
      -0.022
      -0.016
      -0.009
      -0.009
      -0.024
      -0.048
      -0.065
      -0.067
      -0.061
      -0.061
      -0.075
      -0.095
      -0.107
      -0.106
      -0.097
      -0.087
      -0.084
      -0.083
      -0.072
      -0.043
       0.001
       0.045
       0.081
       0.109
       0.133
       0.151
       0.157
       0.153
       0.155
       0.174
       0.210
       0.242
       0.252
       0.238
       0.213
       0.195
       0.190
       0.187
       0.174
       0.143
       0.103
       0.064
       0.034
       0.013
      -0.009
      -0.043
      -0.092
      -0.148
      -0.196
      -0.225
      -0.238
      -0.246
      -0.263
      -0.288
      -0.311
      -0.319
      -0.306
      -0.280
      -0.255
      -0.239
      -0.232
      -0.224
      -0.207
      -0.176
      -0.135
      -0.087
      -0.034
       0.029
       0.105
       0.188
       0.257
       0.292
       0.292
       0.279
       0.278
       0.297
       0.323
       0.335
       0.327
       0.307
       0.292
       0.288
       0.283
       0.263
       0.225
       0.177
       0.126
       0.077
       0.025
      -0.035
      -0.102
      -0.172
      -0.234
      -0.282
      -0.312
      -0.323
      -0.317
      -0.295
      -0.249
      -0.174
      -0.073
       0.026
       0.092
       0.110
       0.092
       0.070
       0.066
       0.083
       0.106
       0.115
       0.104
       0.081
       0.061
       0.051
       0.046
       0.032
       0.006
      -0.020
      -0.030
      -0.020
       0.007
       0.045
       0.091
       0.145
       0.201
       0.245
       0.265
       0.264
       0.251
       0.238
       0.233
       0.229
       0.216
       0.187
       0.143
       0.092
       0.047
       0.014
      -0.006
      -0.020
      -0.035
      -0.059
      -0.096
      -0.147
      -0.203
      -0.248
      -0.265
      -0.250
      -0.221
      -0.200
      -0.202
      -0.217
      -0.225
      -0.218
      -0.205
      -0.204
      -0.221
      -0.242
      -0.254
      -0.250
      -0.237
      -0.214
      -0.175
      -0.114
      -0.041
       0.019
       0.047
       0.047
       0.035
       0.024
       0.016
       0.007
       0.001
       0.007
       0.025
       0.048
       0.064
       0.073
       0.081
       0.096
       0.115
       0.131
       0.145
       0.162
       0.188
       0.220
       0.243
       0.248
       0.239
       0.227
       0.222
       0.220
       0.211
       0.187
       0.149
       0.101
       0.049
       0.004
      -0.021
      -0.023
      -0.003
       0.034
       0.085
       0.147
       0.207
       0.246
       0.249
       0.214
       0.161
       0.115
       0.088
       0.078
       0.071
       0.060
       0.041
       0.010
      -0.036
      -0.095
      -0.154
      -0.199
      -0.219
      -0.221
      -0.225
      -0.246
      -0.285
      -0.329
      -0.356
      -0.348
      -0.300
      -0.219
      -0.129
      -0.054
      -0.011
      -0.002
      -0.010
      -0.016
      -0.008
       0.017
       0.052
       0.092
       0.135
       0.184
       0.240
       0.295
       0.338
       0.361
       0.357
       0.324
       0.262
       0.179
       0.087
      -0.002
      -0.084
      -0.164
      -0.242
      -0.311
      -0.360
      -0.383
      -0.390
      -0.390
      -0.380
      -0.348
      -0.288
      -0.215
      -0.152
      -0.106
      -0.069
      -0.026
       0.021
       0.047
       0.031
      -0.025
      -0.095
      -0.149
      -0.176
      -0.187
      -0.196
      -0.204
      -0.194
      -0.152
      -0.076
       0.020
       0.113
       0.186
       0.235
       0.267
       0.296
       0.338
       0.397
       0.457
       0.494
       0.487
       0.437
       0.364
       0.292
       0.235
       0.189
       0.142
       0.081
       0.003
      -0.079
      -0.145
      -0.177
      -0.172
      -0.145
      -0.116
      -0.100
      -0.106
      -0.139
      -0.193
      -0.249
      -0.283
      -0.281
      -0.251
      -0.216
      -0.195
      -0.191
      -0.185
      -0.159
      -0.108
      -0.046
       0.008
       0.048
       0.078
       0.109
       0.145
       0.181
       0.208
       0.219
       0.207
       0.171
       0.117
       0.065
       0.032
       0.019
       0.015
       0.007
      -0.005
      -0.010
       0.001
       0.028
       0.059
       0.082
       0.090
       0.089
       0.088
       0.086
       0.070
       0.023
      -0.052
      -0.134
      -0.192
      -0.214
      -0.207
      -0.188
      -0.167
      -0.145
      -0.122
      -0.102
      -0.093
      -0.095
      -0.097
      -0.079
      -0.029
       0.046
       0.121
       0.162
       0.152
       0.099
       0.034
      -0.015
      -0.033
      -0.025
      -0.009
       0.003
       0.003
      -0.006
      -0.021
      -0.038
      -0.055
      -0.072
      -0.092
      -0.113
      -0.136
      -0.159
      -0.180
      -0.194
      -0.190
      -0.156
      -0.083
       0.027
       0.158
       0.286
       0.391
       0.462
       0.496
       0.487
       0.437
       0.354
       0.261
       0.185
       0.146
       0.144
       0.160
       0.181
       0.202
       0.225
       0.247
       0.257
       0.238
       0.184
       0.096
      -0.009
      -0.111
      -0.186
      -0.212
      -0.184
      -0.119
      -0.046
       0.014
       0.057
       0.091
       0.120
       0.135
       0.124
       0.083
       0.024
      -0.030
      -0.065
      -0.093
      -0.131
      -0.182
      -0.224
      -0.224
      -0.176
      -0.103
      -0.040
      -0.009
      -0.002
      -0.009
      -0.023
      -0.046
      -0.075
      -0.097
      -0.101
      -0.089
      -0.079
      -0.092
      -0.131
      -0.183
      -0.234
      -0.272
      -0.295
      -0.295
      -0.262
      -0.195
      -0.109
      -0.028
       0.035
       0.083
       0.126
       0.169
       0.207
       0.234
       0.257
       0.281
       0.309
       0.328
       0.324
       0.290
       0.220
       0.116
      -0.015
      -0.146
      -0.246
      -0.293
      -0.291
      -0.259
      -0.215
      -0.157
      -0.076
       0.025
       0.121
       0.178
       0.178
       0.136
       0.078
       0.019
      -0.047
      -0.124
      -0.198
      -0.242
      -0.243
      -0.218
      -0.194
      -0.181
      -0.169
      -0.140
      -0.091
      -0.040
      -0.002
       0.022
       0.047
       0.089
       0.148
       0.204
       0.242
       0.268
       0.305
       0.369
       0.442
       0.480
       0.452
       0.364
       0.257
       0.170
       0.113
       0.072
       0.031
      -0.007
      -0.032
      -0.040
      -0.033
      -0.012
       0.031
       0.100
       0.186
       0.268
       0.324
       0.345
       0.331
       0.287
       0.225
       0.156
       0.090
       0.031
      -0.025
      -0.081
      -0.133
      -0.176
      -0.204
      -0.216
      -0.216
      -0.217
      -0.230
      -0.259
      -0.302
      -0.347
      -0.377
      -0.374
      -0.331
      -0.258
      -0.179
      -0.122
      -0.099
      -0.105
      -0.128
      -0.161
      -0.203
      -0.252
      -0.302
      -0.346
      -0.382
      -0.411
      -0.429
      -0.431
      -0.417
      -0.394
      -0.367
      -0.332
      -0.277
      -0.198
      -0.109
      -0.035
       0.006
       0.010
      -0.008
      -0.030
      -0.049
      -0.064
      -0.080
      -0.087
      -0.064
       0.004
       0.106
       0.208
       0.273
       0.285
       0.262
       0.231
       0.208
       0.184
       0.145
       0.085
       0.014
      -0.039
      -0.042
       0.026
       0.171
       0.368
       0.574
       0.748
       0.876
       0.976
       1.079
       1.206
       1.352
       1.495
       1.607
       1.672
       1.686
       1.666
       1.637
       1.618
       1.613
       1.607
       1.578
       1.511
       1.402
       1.265
       1.121
       0.986
       0.863
       0.741
       0.601
       0.433
       0.242
       0.044
      -0.140
      -0.296
      -0.430
      -0.560
      -0.708
      -0.885
      -1.087
      -1.301
      -1.507
      -1.682
      -1.805
      -1.869
      -1.889
      -1.892
      -1.911
      -1.965
      -2.061
      -2.195
      -2.352
      -2.512
      -2.657
      -2.774
      -2.860
      -2.916
      -2.950
      -2.967
      -2.969
      -2.960
      -2.941
      -2.906
      -2.837
      -2.718
      -2.552
      -2.363
      -2.175
      -1.994
      -1.812
      -1.624
      -1.439
      -1.273
      -1.137
      -1.022
      -0.905
      -0.760
      -0.574
      -0.350
      -0.094
       0.191
       0.500
       0.825
       1.152
       1.467
       1.770
       2.069
       2.371
       2.676
       2.971
       3.247
       3.510
       3.778
       4.062
       4.352
       4.622
       4.847
       5.013
       5.119
       5.173
       5.186
       5.162
       5.103
       5.001
       4.840
       4.607
       4.303
       3.950
       3.572
       3.175
       2.738
       2.239
       1.680
       1.094
       0.522
      -0.013
      -0.512
      -0.984
      -1.436
      -1.869
      -2.283
      -2.681
      -3.062
      -3.410
      -3.697
      -3.899
      -4.003
      -4.015
      -3.958
      -3.860
      -3.736
      -3.584
      -3.383
      -3.115
      -2.776
      -2.382
      -1.956
      -1.511
      -1.034
      -0.503
       0.093
       0.737
       1.377
       1.946
       2.393
       2.698
       2.868
       2.914
       2.840
       2.640
       2.315
       1.876
       1.345
       0.738
       0.065
      -0.657
      -1.398
      -2.115
      -2.762
      -3.305
      -3.720
      -4.001
      -4.159
      -4.213
      -4.173
      -4.044
      -3.829
      -3.540
      -3.199
      -2.824
      -2.424
      -1.996
      -1.544
      -1.091
      -0.662
      -0.265
       0.118
       0.508
       0.905
       1.280
       1.588
       1.793
       1.888
       1.876
       1.763
       1.556
       1.272
       0.944
       0.616
       0.324
       0.084
      -0.102
      -0.239
      -0.328
      -0.364
      -0.345
      -0.280
      -0.178
      -0.041
       0.136
       0.361
       0.650
       1.011
       1.441
       1.913
       2.398
       2.876
       3.339
       3.785
       4.204
       4.565
       4.823
       4.927
       4.839
       4.550
       4.082
       3.484
       2.818
       2.133
       1.459
       0.814
       0.214
      -0.318
      -0.755
      -1.079
      -1.295
      -1.429
      -1.515
      -1.573
      -1.608
      -1.624
      -1.635
      -1.657
      -1.699
      -1.758
      -1.820
      -1.871
      -1.910
      -1.944
      -1.985
      -2.044
      -2.126
      -2.239
      -2.386
      -2.559
      -2.735
      -2.887
      -3.010
      -3.117
      -3.222
      -3.317
      -3.364
      -3.322
      -3.174
      -2.939
      -2.649
      -2.332
      -2.007
      -1.685
      -1.380
      -1.091
      -0.802
      -0.485
      -0.115
       0.323
       0.831
       1.402
       2.015
       2.641
       3.236
       3.765
       4.205
       4.553
       4.812
       4.983
       5.069
       5.084
       5.044
       4.961
       4.825
       4.617
       4.326
       3.954
       3.509
       3.001
       2.430
       1.810
       1.172
       0.567
       0.040
      -0.395
      -0.760
      -1.091
      -1.401
      -1.671
      -1.865
      -1.962
      -1.969
      -1.898
      -1.750
      -1.524
      -1.244
      -0.970
      -0.773
      -0.690
      -0.714
      -0.808
      -0.947
      -1.134
      -1.393
      -1.735
      -2.140
      -2.561
      -2.943
      -3.245
      -3.450
      -3.570
      -3.631
      -3.654
      -3.644
      -3.587
      -3.461
      -3.246
      -2.929
      -2.502
      -1.956
      -1.288
      -0.513
       0.332
       1.195
       2.019
       2.748
       3.337
       3.757
       4.005
       4.100
       4.078
       3.972
       3.807
       3.600
       3.365
       3.118
       2.868
       2.608
       2.312
       1.955
       1.525
       1.030
       0.485
      -0.087
      -0.664
      -1.219
      -1.731
      -2.183
      -2.560
      -2.840
      -2.996
      -3.010
      -2.883
      -2.640
      -2.322
      -1.973
      -1.634
      -1.337
      -1.099
      -0.926
      -0.809
      -0.725
      -0.639
      -0.516
      -0.332
      -0.078
       0.238
       0.594
       0.968
       1.327
       1.641
       1.881
       2.034
       2.104
       2.108
       2.067
       1.995
       1.899
       1.787
       1.672
       1.565
       1.473
       1.391
       1.312
       1.227
       1.118
       0.960
       0.722
       0.386
      -0.044
      -0.533
      -1.037
      -1.520
      -1.959
      -2.343
      -2.656
      -2.873
      -2.964
      -2.915
      -2.730
      -2.430
      -2.040
      -1.590
      -1.122
      -0.683
      -0.317
      -0.047
       0.132
       0.239
       0.296
       0.328
       0.369
       0.456
       0.613
       0.834
       1.082
       1.315
       1.502
       1.621
       1.651
       1.572
       1.378
       1.095
       0.773
       0.473
       0.233
       0.069
      -0.023
      -0.045
      -0.003
       0.090
       0.196
       0.266
       0.258
       0.154
      -0.045
      -0.333
      -0.705
      -1.145
      -1.612
      -2.046
      -2.388
      -2.602
      -2.687
      -2.670
      -2.589
      -2.471
      -2.321
      -2.126
      -1.869
      -1.541
      -1.134
      -0.649
      -0.087
       0.540
       1.203
       1.857
       2.451
       2.942
       3.310
       3.559
       3.703
       3.748
       3.686
       3.497
       3.187
       2.797
       2.394
       2.030
       1.724
       1.457
       1.205
       0.958
       0.723
       0.509
       0.311
       0.109
      -0.118
      -0.379
      -0.665
      -0.953
      -1.210
      -1.410
      -1.537
      -1.597
      -1.604
      -1.576
      -1.531
      -1.484
      -1.442
      -1.399
      -1.353
      -1.307
      -1.284
      -1.307
      -1.398
      -1.567
      -1.812
      -2.115
      -2.442
      -2.746
      -2.968
      -3.053
      -2.957
      -2.668
      -2.207
      -1.619
      -0.954
      -0.254
       0.448
       1.115
       1.704
       2.175
       2.502
       2.679
       2.725
       2.683
       2.596
       2.488
       2.350
       2.159
       1.904
       1.594
       1.247
       0.878
       0.496
       0.118
      -0.229
      -0.509
      -0.695
      -0.781
      -0.786
      -0.741
      -0.669
      -0.573
      -0.433
      -0.230
       0.039
