Origin Time       18/9/2011 12:40:47	
Lat.              27.6 N	
Long.             88.2 E	
Depth (Km)         10.0
Magnitude         6.8
 Region           India(Sikkim)-Nepar-Border                                       
 Above details taken from IMD 
     
Station Code      SBS
Station Lat.       26.989  N
Station Long.      94.631  E
Station Height(m)   78.0
Site Class        C   Vs30 between 200 m/sec to 375 m/sec *  
Record Time       18.09.2011 12:45:42.034
Sampling Rate     200. Hz
 Record Duration   65.035 Sec.
 Direction         E-W (E positive)
Max. Acceleration      5.330 cm/sec**2
     
  * For reference see Site Classification link of website 
     
 Base Line Corrected and Low Pass Filtered (Cut Off at 35 Hz) Time History
 Acceleration data in cm/sec**2
    
[...]
      -0.349
      -0.378
      -0.408
      -0.437
      -0.456
      -0.453
      -0.422
      -0.366
      -0.295
      -0.217
      -0.137
      -0.056
       0.018
       0.075
       0.103
       0.096
       0.063
       0.021
      -0.012
      -0.030
      -0.043
      -0.066
      -0.112
      -0.181
      -0.268
      -0.365
      -0.472
      -0.589
      -0.710
      -0.828
      -0.927
      -0.996
      -1.030
      -1.032
      -1.013
      -0.979
      -0.930
      -0.864
      -0.779
      -0.683
      -0.591
      -0.516
      -0.455
      -0.397
      -0.328
      -0.243
      -0.149
      -0.055
       0.032
       0.111
       0.181
       0.243
       0.296
       0.338
       0.365
       0.376
       0.372
       0.356
       0.330
       0.293
       0.243
       0.173
       0.084
      -0.015
      -0.107
      -0.173
      -0.209
      -0.224
      -0.228
      -0.231
      -0.241
      -0.268
      -0.321
      -0.397
      -0.480
      -0.546
      -0.582
      -0.590
      -0.585
      -0.581
      -0.586
      -0.597
      -0.611
      -0.620
      -0.620
      -0.608
      -0.581
      -0.534
      -0.463
      -0.371
      -0.268
      -0.164
      -0.064
       0.030
       0.118
       0.193
       0.247
       0.272
       0.269
       0.249
       0.227
       0.217
       0.222
       0.235
       0.243
       0.234
       0.206
       0.166
       0.119
       0.070
       0.017
      -0.044
      -0.117
      -0.200
      -0.286
      -0.367
      -0.441
      -0.513
      -0.592
      -0.681
      -0.776
      -0.866
      -0.945
      -1.015
      -1.078
      -1.132
      -1.164
      -1.164
      -1.127
      -1.062
      -0.982
      -0.895
      -0.797
      -0.685
      -0.557
      -0.421
      -0.285
      -0.152
      -0.017
       0.128
       0.286
       0.452
       0.618
       0.775
       0.921
       1.060
       1.196
       1.326
       1.442
       1.536
       1.611
       1.675
       1.735
       1.790
       1.832
       1.850
       1.834
       1.781
       1.693
       1.578
       1.441
       1.282
       1.095
       0.881
       0.642
       0.384
       0.113
      -0.162
      -0.434
      -0.690
      -0.922
      -1.123
      -1.298
      -1.455
      -1.606
      -1.756
      -1.903
      -2.039
      -2.154
      -2.244
      -2.307
      -2.343
      -2.350
      -2.324
      -2.263
      -2.171
      -2.050
      -1.909
      -1.756
      -1.592
      -1.417
      -1.225
      -1.015
      -0.789
      -0.554
      -0.312
      -0.057
       0.216
       0.507
       0.806
       1.093
       1.356
       1.596
       1.822
       2.043
       2.255
       2.446
       2.602
       2.721
       2.809
       2.874
       2.917
       2.930
       2.911
       2.867
       2.810
       2.750
       2.683
       2.593
       2.461
       2.282
       2.068
       1.834
       1.591
       1.333
       1.049
       0.731
       0.386
       0.032
      -0.315
      -0.646
      -0.962
      -1.267
      -1.560
      -1.831
      -2.066
      -2.252
      -2.386
      -2.473
      -2.517
      -2.516
      -2.463
      -2.355
      -2.203
      -2.025
      -1.844
      -1.671
      -1.496
      -1.306
      -1.091
      -0.860
      -0.626
      -0.400
      -0.181
       0.044
       0.288
       0.552
       0.830
       1.112
       1.393
       1.671
       1.946
       2.214
       2.467
       2.694
       2.891
       3.067
       3.234
       3.393
       3.529
       3.616
       3.635
       3.582
       3.472
       3.323
       3.144
       2.936
       2.697
       2.433
       2.154
       1.869
       1.585
       1.306
       1.033
       0.771
       0.529
       0.311
       0.113
      -0.077
      -0.273
      -0.478
      -0.683
      -0.874
      -1.037
      -1.171
      -1.286
      -1.397
      -1.513
      -1.630
      -1.732
      -1.803
      -1.843
      -1.861
      -1.872
      -1.880
      -1.877
      -1.858
      -1.817
      -1.759
      -1.686
      -1.596
      -1.482
      -1.341
      -1.176
      -1.004
      -0.846
      -0.717
      -0.616
      -0.533
      -0.457
      -0.390
      -0.340
      -0.313
      -0.306
      -0.306
      -0.299
      -0.280
      -0.252
      -0.222
      -0.194
      -0.167
      -0.141
      -0.120
      -0.106
      -0.104
      -0.119
      -0.153
      -0.202
      -0.257
      -0.307
      -0.346
      -0.375
      -0.397
      -0.414
      -0.421
      -0.413
      -0.389
      -0.357
      -0.326
      -0.296
      -0.263
      -0.222
      -0.169
      -0.110
      -0.049
       0.013
       0.080
       0.159
       0.248
       0.336
       0.403
       0.435
       0.420
       0.359
       0.253
       0.106
      -0.081
      -0.306
      -0.558
      -0.819
      -1.069
      -1.293
      -1.491
      -1.666
      -1.821
      -1.952
      -2.053
      -2.121
      -2.160
      -2.184
      -2.201
      -2.207
      -2.188
      -2.127
      -2.018
      -1.868
      -1.692
      -1.504
      -1.312
      -1.111
      -0.900
      -0.686
      -0.480
      -0.291
      -0.115
       0.058
       0.236
       0.423
       0.611
       0.796
       0.984
       1.186
       1.406
       1.635
       1.852
       2.034
       2.170
       2.264
       2.327
       2.369
       2.390
       2.383
       2.344
       2.272
       2.170
       2.041
       1.887
       1.709
       1.514
       1.314
       1.125
       0.953
       0.793
       0.639
       0.484
       0.335
       0.199
       0.083
      -0.012
      -0.095
      -0.178
      -0.266
      -0.359
      -0.450
      -0.533
      -0.612
      -0.695
      -0.787
      -0.877
      -0.942
      -0.962
      -0.932
      -0.863
      -0.772
      -0.668
      -0.551
      -0.416
      -0.261
      -0.090
       0.086
       0.262
       0.434
       0.603
       0.769
       0.932
       1.089
       1.231
       1.352
       1.451
       1.531
       1.597
       1.648
       1.676
       1.676
       1.654
       1.623
       1.593
       1.560
       1.513
       1.441
       1.351
       1.256
       1.167
       1.085
       0.997
       0.888
       0.748
       0.583
       0.408
       0.235
       0.070
      -0.092
      -0.251
      -0.397
      -0.518
      -0.604
      -0.663
      -0.709
      -0.752
      -0.789
      -0.807
      -0.793
      -0.748
      -0.681
      -0.602
      -0.511
      -0.410
      -0.304
      -0.206
      -0.124
      -0.062
      -0.009
       0.049
       0.125
       0.222
       0.344
       0.491
       0.664
       0.862
       1.083
       1.321
       1.564
       1.799
       2.013
       2.192
       2.335
       2.442
       2.521
       2.579
       2.618
       2.638
       2.643
       2.633
       2.604
       2.546
       2.448
       2.307
       2.131
       1.936
       1.732
       1.521
       1.302
       1.076
       0.851
       0.635
       0.433
       0.242
       0.061
      -0.111
      -0.270
      -0.411
      -0.530
      -0.623
      -0.690
      -0.733
      -0.758
      -0.763
      -0.743
      -0.693
      -0.617
      -0.531
      -0.456
      -0.407
      -0.383
      -0.380
      -0.394
      -0.433
      -0.504
      -0.610
      -0.738
      -0.868
      -0.986
      -1.092
      -1.193
      -1.301
      -1.422
      -1.554
      -1.693
      -1.840
      -2.003
      -2.193
      -2.414
      -2.656
      -2.897
      -3.119
      -3.312
      -3.481
      -3.634
      -3.774
      -3.898
      -4.000
      -4.078
      -4.133
      -4.169
      -4.185
      -4.173
      -4.122
      -4.030
      -3.898
      -3.736
      -3.553
      -3.360
      -3.163
      -2.965
      -2.762
      -2.550
      -2.324
      -2.083
      -1.829
      -1.569
      -1.308
      -1.049
      -0.798
      -0.556
      -0.318
      -0.072
       0.193
       0.477
       0.768
       1.047
       1.297
       1.510
       1.684
       1.816
       1.901
       1.934
       1.917
       1.854
       1.751
       1.607
       1.417
       1.179
       0.897
       0.582
       0.248
      -0.088
      -0.417
      -0.733
      -1.035
      -1.317
      -1.571
      -1.792
      -1.979
      -2.142
      -2.290
      -2.428
      -2.554
      -2.662
      -2.751
      -2.821
      -2.873
      -2.905
      -2.908
      -2.873
      -2.792
      -2.666
      -2.506
      -2.327
      -2.145
      -1.966
      -1.786
      -1.604
      -1.420
      -1.243
      -1.079
      -0.929
      -0.785
      -0.642
      -0.507
      -0.392
      -0.306
      -0.247
      -0.199
      -0.146
      -0.073
       0.022
       0.138
       0.272
       0.427
       0.604
       0.806
       1.026
       1.255
       1.482
       1.703
       1.915
       2.122
       2.320
       2.500
       2.647
       2.756
       2.829
       2.882
       2.928
       2.972
       3.009
       3.030
       3.033
       3.026
       3.018
       3.009
       2.985
       2.925
       2.817
       2.664
       2.473
       2.255
       2.011
       1.739
       1.441
       1.130
       0.822
       0.529
       0.255
      -0.006
      -0.259
      -0.499
      -0.715
      -0.901
      -1.058
      -1.194
      -1.312
      -1.411
      -1.485
      -1.528
      -1.538
      -1.516
      -1.465
      -1.389
      -1.292
      -1.175
      -1.045
      -0.906
      -0.760
      -0.609
      -0.452
      -0.282
      -0.097
       0.102
       0.305
       0.502
       0.682
       0.844
       0.993
       1.131
       1.256
       1.362
       1.446
       1.517
       1.587
       1.664
       1.749
       1.835
       1.911
       1.975
       2.025
       2.060
       2.078
       2.075
       2.051
       2.006
       1.947
       1.881
       1.818
       1.762
       1.717
       1.685
       1.668
       1.671
       1.698
       1.746
       1.808
       1.874
       1.931
       1.975
       2.013
       2.053
       2.102
       2.157
       2.211
       2.256
       2.286
       2.300
       2.298
       2.276
       2.232
       2.166
       2.087
       2.006
       1.928
       1.853
       1.773
       1.676
       1.560
       1.430
       1.297
       1.170
       1.049
       0.926
       0.797
       0.663
       0.526
       0.381
       0.221
       0.041
      -0.160
      -0.368
      -0.571
      -0.761
      -0.942
      -1.124
      -1.313
      -1.504
      -1.682
      -1.837
      -1.966
      -2.075
      -2.168
      -2.244
      -2.292
      -2.306
      -2.286
      -2.241
      -2.182
      -2.113
      -2.031
      -1.929
      -1.803
      -1.658
      -1.507
      -1.365
      -1.235
      -1.113
      -0.986
      -0.849
      -0.709
      -0.583
      -0.487
      -0.420
      -0.375
      -0.340
      -0.317
      -0.312
      -0.330
      -0.364
      -0.400
      -0.428
      -0.445
      -0.463
      -0.492
      -0.533
      -0.573
      -0.602
      -0.620
      -0.638
      -0.670
      -0.717
      -0.770
      -0.815
      -0.841
      -0.845
      -0.836
      -0.820
      -0.802
      -0.783
      -0.766
      -0.753
      -0.747
      -0.749
      -0.748
      -0.735
      -0.701
      -0.646
      -0.583
      -0.525
      -0.480
      -0.441
      -0.395
      -0.336
      -0.265
      -0.194
      -0.134
      -0.090
      -0.062
      -0.048
      -0.049
      -0.070
      -0.118
      -0.191
      -0.278
      -0.366
      -0.443
      -0.510
      -0.573
      -0.636
      -0.702
      -0.768
      -0.833
      -0.898
      -0.968
      -1.044
      -1.121
      -1.185
      -1.223
      -1.228
      -1.203
      -1.157
      -1.105
      -1.050
      -0.990
      -0.921
      -0.843
      -0.764
      -0.689
      -0.616
      -0.532
      -0.424
      -0.288
      -0.130
       0.036
       0.199
       0.355
       0.507
       0.661
       0.815
       0.962
       1.095
       1.211
       1.315
       1.408
       1.484
       1.528
       1.528
       1.481
       1.401
       1.304
       1.204
       1.102
       0.996
       0.888
       0.791
       0.721
       0.687
       0.682
       0.697
       0.722
       0.754
       0.795
       0.840
       0.883
       0.911
       0.918
       0.900
       0.858
       0.792
       0.704
       0.594
       0.467
       0.334
       0.206
       0.095
       0.002
      -0.075
      -0.141
      -0.199
      -0.246
      -0.279
      -0.298
      -0.308
      -0.317
      -0.330
      -0.346
      -0.358
      -0.364
      -0.369
      -0.383
      -0.417
      -0.474
      -0.544
      -0.607
      -0.645
      -0.648
      -0.624
      -0.586
      -0.545
      -0.509
      -0.482
      -0.466
      -0.461
      -0.467
      -0.482
      -0.505
      -0.531
      -0.558
      -0.586
      -0.619
      -0.665
      -0.730
      -0.812
      -0.906
      -1.011
      -1.128
      -1.263
      -1.414
      -1.568
      -1.708
      -1.822
      -1.908
      -1.971
      -2.010
      -2.019
      -1.985
      -1.900
      -1.765
      -1.594
      -1.401
      -1.196
      -0.983
      -0.758
      -0.523
      -0.277
      -0.023
       0.241
       0.519
       0.816
       1.133
       1.468
       1.811
       2.152
       2.488
       2.820
       3.147
       3.464
       3.765
       4.042
       4.292
       4.512
       4.706
       4.877
       5.027
       5.151
       5.246
       5.306
       5.330
       5.318
       5.271
       5.187
       5.065
       4.898
       4.685
       4.424
       4.116
       3.766
       3.381
       2.977
       2.577
       2.201
       1.864
       1.561
       1.284
       1.026
       0.791
       0.586
       0.415
       0.273
       0.148
       0.025
      -0.106
      -0.248
      -0.398
      -0.553
      -0.710
      -0.866
      -1.019
      -1.166
      -1.307
      -1.445
      -1.583
      -1.728
      -1.883
      -2.043
      -2.195
      -2.323
      -2.415
      -2.469
      -2.498
      -2.524
      -2.562
      -2.616
      -2.683
      -2.754
      -2.829
      -2.906
      -2.983
      -3.056
      -3.123
      -3.186
      -3.245
      -3.296
      -3.325
      -3.314
      -3.258
      -3.159
      -3.030
      -2.884
      -2.728
      -2.561
      -2.384
      -2.198
      -2.004
      -1.807
      -1.603
      -1.389
      -1.162
      -0.927
      -0.693
      -0.474
      -0.275
      -0.097
       0.067
       0.216
       0.350
       0.460
       0.544
       0.605
       0.654
       0.704
       0.762
       0.829
       0.898
       0.967
       1.039
       1.120
       1.219
       1.335
       1.459
       1.582
       1.696
       1.806
       1.918
       2.034
       2.144
       2.235
       2.294
       2.324
       2.331
       2.323
       2.301
       2.258
       2.191
       2.108
       2.021
       1.941
       1.870
       1.796
       1.704
       1.589
       1.453
       1.305
       1.155
       1.006
       0.861
       0.724
       0.600
       0.494
       0.406
       0.329
       0.251
       0.165
       0.070
      -0.030
      -0.135
      -0.244
      -0.361
      -0.482
      -0.601
      -0.705
      -0.784
      -0.836
      -0.865
      -0.880
      -0.887
      -0.891
      -0.891
      -0.892
      -0.904
      -0.937
      -1.001
      -1.094
      -1.196
      -1.283
      -1.337
      -1.352
      -1.339
      -1.314
      -1.286
      -1.252
      -1.205
      -1.140
      -1.062
      -0.976
      -0.881
      -0.766
      -0.621
      -0.445
      -0.247
      -0.043
       0.164
       0.372
       0.578
       0.772
       0.939
       1.069
       1.164
       1.236
       1.301
       1.367
       1.433
       1.493
       1.540
       1.576
       1.607
       1.638
       1.664
       1.677
       1.669
       1.646
       1.615
       1.580
       1.536
       1.479
       1.407
       1.326
       1.250
       1.189
       1.147
       1.120
       1.096
       1.066
       1.023
       0.970
       0.912
       0.853
       0.793
       0.728
       0.656
       0.582
       0.515
       0.463
       0.425
       0.389
       0.344
       0.288
       0.232
       0.186
       0.151
       0.116
       0.067
      -0.004
      -0.090
      -0.181
      -0.269
      -0.356
      -0.456
      -0.580
      -0.730
      -0.899
      -1.076
      -1.250
      -1.409
      -1.538
      -1.625
      -1.664
      -1.663
      -1.634
      -1.592
      -1.545
      -1.492
      -1.427
      -1.350
      -1.261
      -1.162
      -1.056
      -0.947
      -0.842
      -0.744
      -0.651
      -0.558
      -0.460
      -0.360
      -0.260
      -0.163
      -0.070
       0.017
       0.090
       0.143
       0.173
       0.185
       0.187
       0.186
       0.182
       0.167
       0.132
       0.078
       0.011
      -0.059
      -0.130
      -0.204
      -0.285
      -0.368
      -0.443
      -0.504
      -0.555
      -0.609
      -0.679
      -0.768
      -0.870
      -0.978
      -1.092
      -1.219
      -1.365
      -1.527
      -1.690
      -1.840
      -1.966
      -2.068
      -2.157
      -2.239
      -2.317
      -2.378
      -2.406
      -2.390
      -2.331
      -2.243
      -2.141
      -2.034
      -1.924
      -1.811
      -1.696
      -1.586
      -1.490
      -1.412
      -1.354
      -1.309
      -1.274
      -1.253
      -1.253
      -1.278
      -1.318
      -1.353
      -1.364
      -1.346
      -1.309
      -1.271
      -1.244
      -1.232
      -1.231
      -1.237
      -1.248
      -1.267
      -1.293
      -1.325
      -1.356
      -1.380
      -1.394
      -1.401
      -1.401
      -1.393
      -1.371
      -1.331
      -1.269
      -1.189
      -1.103
      -1.020
      -0.943
      -0.865
      -0.777
      -0.682
      -0.591
      -0.516
      -0.460
      -0.416
      -0.378
      -0.341
      -0.311
      -0.292
      -0.280
      -0.269
      -0.251
      -0.224
      -0.191
      -0.157
      -0.124
      -0.090
      -0.056
      -0.022
       0.005
       0.013
      -0.008
      -0.062
      -0.149
      -0.260
      -0.384
      -0.515
      -0.642
      -0.756
      -0.848
      -0.912
      -0.948
      -0.967
      -0.976
      -0.978
      -0.966
      -0.930
      -0.863
      -0.769
      -0.663
      -0.560
      -0.467
      -0.379
      -0.289
      -0.198
      -0.114
      -0.049
      -0.009
       0.014
       0.032
       0.051
       0.073
       0.089
       0.101
       0.113
       0.136
       0.175
       0.226
       0.280
       0.328
       0.368
       0.404
       0.437
       0.466
       0.482
       0.476
       0.445
       0.394
       0.336
       0.282
       0.238
       0.201
       0.163
       0.122
       0.083
       0.050
       0.024
      -0.004
      -0.045
      -0.105
      -0.176
      -0.247
      -0.311
      -0.370
      -0.427
      -0.486
      -0.537
      -0.576
      -0.599
      -0.616
      -0.638
      -0.672
      -0.714
      -0.753
      -0.781
      -0.797
      -0.803
      -0.802
      -0.795
      -0.780
      -0.764
      -0.753
      -0.755
      -0.772
      -0.797
      -0.817
      -0.812
      -0.767
      -0.676
      -0.542
