Origin Time       02/10/2012 18:37:39 UTC
Lat.              26.9 N	
Long.             92.8 E	
Depth (Km)         35.0
Magnitude         5.1
 Region           Sonitpur-Assam                                                   
 Above details taken from IMD 
    
Station Code      SBS
Station Lat.       26.989  N
Station Long.      94.631  E
Station Height(m)   78.0
Site Class        C   Vs30 between 200 m/sec to 375 m/sec *  
Record Time       02.10.2012 18:38:14.124 UTC
Sampling Rate     200. Hz
 Record Duration   65.920 Sec.
 Direction         N-S (N positive)
Max. Acceleration      1.927 cm/sec**2
     
  * For reference see Site Classification link of website 
     
 Base Line Corrected and Low Pass Filtered (Cut Off at 35 Hz) Time History
 Acceleration data in cm/sec**2
    
[...]
       0.286
       0.294
       0.300
       0.296
       0.280
       0.254
       0.228
       0.210
       0.202
       0.198
       0.190
       0.171
       0.144
       0.117
       0.097
       0.088
       0.092
       0.105
       0.118
       0.125
       0.127
       0.128
       0.138
       0.160
       0.188
       0.212
       0.224
       0.227
       0.226
       0.226
       0.226
       0.224
       0.218
       0.212
       0.210
       0.213
       0.219
       0.230
       0.248
       0.274
       0.309
       0.345
       0.375
       0.390
       0.389
       0.375
       0.354
       0.332
       0.313
       0.301
       0.296
       0.299
       0.304
       0.304
       0.292
       0.268
       0.240
       0.217
       0.204
       0.196
       0.187
       0.174
       0.162
       0.156
       0.160
       0.170
       0.182
       0.193
       0.203
       0.208
       0.206
       0.201
       0.195
       0.192
       0.192
       0.193
       0.193
       0.193
       0.196
       0.202
       0.208
       0.211
       0.214
       0.221
       0.235
       0.252
       0.262
       0.260
       0.245
       0.225
       0.209
       0.201
       0.198
       0.191
       0.175
       0.152
       0.133
       0.127
       0.139
       0.162
       0.188
       0.207
       0.218
       0.221
       0.219
       0.215
       0.209
       0.201
       0.190
       0.178
       0.171
       0.173
       0.187
       0.207
       0.229
       0.248
       0.264
       0.280
       0.297
       0.315
       0.328
       0.332
       0.329
       0.324
       0.321
       0.320
       0.321
       0.321
       0.321
       0.321
       0.322
       0.320
       0.314
       0.303
       0.290
       0.280
       0.277
       0.281
       0.289
       0.294
       0.291
       0.281
       0.266
       0.248
       0.225
       0.199
       0.172
       0.151
       0.143
       0.147
       0.158
       0.166
       0.168
       0.165
       0.160
       0.157
       0.153
       0.148
       0.142
       0.138
       0.142
       0.153
       0.164
       0.169
       0.166
       0.160
       0.161
       0.174
       0.196
       0.220
       0.239
       0.253
       0.266
       0.280
       0.290
       0.291
       0.280
       0.261
       0.244
       0.239
       0.250
       0.271
       0.291
       0.303
       0.305
       0.305
       0.306
       0.307
       0.301
       0.289
       0.272
       0.257
       0.244
       0.229
       0.208
       0.188
       0.177
       0.180
       0.192
       0.201
       0.198
       0.188
       0.179
       0.179
       0.188
       0.196
       0.199
       0.193
       0.182
       0.174
       0.175
       0.186
       0.205
       0.223
       0.232
       0.228
       0.216
       0.202
       0.195
       0.195
       0.199
       0.203
       0.204
       0.206
       0.212
       0.223
       0.236
       0.248
       0.256
       0.264
       0.275
       0.292
       0.312
       0.331
       0.342
       0.344
       0.338
       0.328
       0.317
       0.305
       0.291
       0.274
       0.255
       0.233
       0.207
       0.179
       0.151
       0.131
       0.130
       0.152
       0.189
       0.226
       0.245
       0.243
       0.225
       0.206
       0.196
       0.193
       0.190
       0.182
       0.171
       0.167
       0.174
       0.187
       0.197
       0.202
       0.206
       0.214
       0.224
       0.232
       0.232
       0.227
       0.224
       0.229
       0.242
       0.257
       0.267
       0.269
       0.266
       0.264
       0.266
       0.272
       0.280
       0.287
       0.294
       0.301
       0.309
       0.312
       0.306
       0.288
       0.262
       0.238
       0.225
       0.224
       0.229
       0.234
       0.235
       0.232
       0.224
       0.213
       0.202
       0.194
       0.192
       0.197
       0.206
       0.213
       0.213
       0.200
       0.173
       0.135
       0.097
       0.068
       0.053
       0.047
       0.047
       0.049
       0.058
       0.076
       0.107
       0.146
       0.186
       0.220
       0.244
       0.261
       0.277
       0.294
       0.310
       0.321
       0.326
       0.328
       0.328
       0.329
       0.326
       0.314
       0.293
       0.270
       0.252
       0.243
       0.240
       0.237
       0.234
       0.235
       0.241
       0.250
       0.257
       0.258
       0.255
       0.256
       0.261
       0.269
       0.274
       0.274
       0.270
       0.266
       0.265
       0.264
       0.260
       0.248
       0.231
       0.212
       0.198
       0.187
       0.177
       0.170
       0.167
       0.169
       0.168
       0.160
       0.146
       0.133
       0.129
       0.134
       0.145
       0.152
       0.154
       0.155
       0.160
       0.173
       0.189
       0.205
       0.217
       0.225
       0.234
       0.248
       0.268
       0.290
       0.310
       0.322
       0.327
       0.330
       0.337
       0.347
       0.356
       0.359
       0.354
       0.344
       0.333
       0.327
       0.324
       0.321
       0.314
       0.301
       0.285
       0.266
       0.244
       0.219
       0.188
       0.154
       0.127
       0.112
       0.112
       0.118
       0.118
       0.110
       0.100
       0.095
       0.098
       0.106
       0.112
       0.114
       0.116
       0.124
       0.139
       0.159
       0.179
       0.199
       0.220
       0.244
       0.272
       0.300
       0.325
       0.344
       0.356
       0.361
       0.358
       0.349
       0.331
       0.300
       0.260
       0.220
       0.193
       0.186
       0.193
       0.202
       0.203
       0.196
       0.187
       0.184
       0.188
       0.197
       0.206
       0.209
       0.211
       0.217
       0.227
       0.238
       0.242
       0.238
       0.227
       0.212
       0.193
       0.171
       0.149
       0.131
       0.123
       0.123
       0.129
       0.134
       0.136
       0.138
       0.143
       0.154
       0.172
       0.193
       0.211
       0.224
       0.232
       0.238
       0.244
       0.254
       0.269
       0.289
       0.312
       0.330
       0.337
       0.331
       0.319
       0.311
       0.311
       0.317
       0.321
       0.318
       0.313
       0.312
       0.319
       0.328
       0.332
       0.331
       0.325
       0.316
       0.300
       0.276
       0.246
       0.222
       0.211
       0.211
       0.216
       0.220
       0.223
       0.227
       0.229
       0.227
       0.219
       0.210
       0.204
       0.200
       0.197
       0.191
       0.183
       0.177
       0.171
       0.164
       0.154
       0.141
       0.131
       0.129
       0.133
       0.138
       0.140
       0.140
       0.144
       0.154
       0.169
       0.189
       0.210
       0.228
       0.238
       0.239
       0.231
       0.216
       0.195
       0.170
       0.146
       0.130
       0.129
       0.143
       0.164
       0.183
       0.194
       0.198
       0.201
       0.205
       0.213
       0.225
       0.244
       0.267
       0.292
       0.310
       0.318
       0.318
       0.320
       0.329
       0.345
       0.362
       0.373
       0.370
       0.350
       0.318
       0.281
       0.251
       0.234
       0.230
       0.233
       0.236
       0.232
       0.222
       0.208
       0.192
       0.175
       0.155
       0.132
       0.110
       0.092
       0.083
       0.085
       0.098
       0.123
       0.157
       0.194
       0.230
       0.263
       0.295
       0.327
       0.355
       0.374
       0.384
       0.387
       0.386
       0.382
       0.369
       0.345
       0.316
       0.290
       0.272
       0.257
       0.239
       0.221
       0.210
       0.216
       0.239
       0.267
       0.289
       0.300
       0.304
       0.308
       0.311
       0.307
       0.290
       0.259
       0.221
       0.183
       0.153
       0.134
       0.121
       0.109
       0.092
       0.069
       0.044
       0.029
       0.032
       0.052
       0.082
       0.111
       0.134
       0.152
       0.171
       0.196
       0.227
       0.261
       0.287
       0.300
       0.298
       0.287
       0.275
       0.269
       0.271
       0.285
       0.306
       0.329
       0.343
       0.342
       0.330
       0.316
       0.307
       0.305
       0.303
       0.293
       0.272
       0.247
       0.225
       0.209
       0.197
       0.184
       0.170
       0.155
       0.144
       0.140
       0.145
       0.159
       0.181
       0.202
       0.216
       0.221
       0.222
       0.225
       0.230
       0.232
       0.228
       0.217
       0.204
       0.195
       0.192
       0.192
       0.193
       0.193
       0.200
       0.219
       0.249
       0.282
       0.306
       0.315
       0.312
       0.304
       0.296
       0.287
       0.277
       0.269
       0.266
       0.267
       0.267
       0.260
       0.240
       0.209
       0.179
       0.163
       0.167
       0.188
       0.215
       0.234
       0.241
       0.238
       0.232
       0.227
       0.227
       0.231
       0.237
       0.243
       0.250
       0.257
       0.265
       0.274
       0.283
       0.292
       0.301
       0.306
       0.305
       0.291
       0.262
       0.217
       0.164
       0.112
       0.070
       0.041
       0.028
       0.031
       0.051
       0.085
       0.123
       0.153
       0.169
       0.170
       0.163
       0.155
       0.146
       0.137
       0.128
       0.124
       0.132
       0.154
       0.189
       0.232
       0.273
       0.303
       0.313
       0.302
       0.276
       0.246
       0.222
       0.205
       0.191
       0.179
       0.173
       0.177
       0.194
       0.218
       0.240
       0.254
       0.265
       0.280
       0.301
       0.318
       0.318
       0.299
       0.269
       0.244
       0.231
       0.229
       0.231
       0.237
       0.246
       0.258
       0.267
       0.268
       0.263
       0.260
       0.265
       0.280
       0.302
       0.322
       0.338
       0.347
       0.347
       0.333
       0.306
       0.272
       0.239
       0.213
       0.194
       0.176
       0.159
       0.144
       0.133
       0.124
       0.114
       0.103
       0.095
       0.096
       0.110
       0.138
       0.181
       0.233
       0.286
       0.327
       0.346
       0.345
       0.332
       0.314
       0.291
       0.258
       0.217
       0.178
       0.155
       0.155
       0.172
       0.196
       0.220
       0.246
       0.277
       0.307
       0.325
       0.325
       0.315
       0.305
       0.300
       0.296
       0.284
       0.264
       0.243
       0.228
       0.218
       0.208
       0.191
       0.167
       0.145
       0.129
       0.119
       0.104
       0.078
       0.049
       0.033
       0.044
       0.080
       0.123
       0.158
       0.181
       0.198
       0.215
       0.230
       0.240
       0.243
       0.240
       0.232
       0.214
       0.186
       0.152
       0.119
       0.096
       0.088
       0.093
       0.111
       0.136
       0.164
       0.190
       0.214
       0.237
       0.259
       0.281
       0.298
       0.309
       0.314
       0.314
       0.315
       0.320
       0.332
       0.349
       0.367
       0.379
       0.378
       0.361
       0.331
       0.299
       0.276
       0.267
       0.269
       0.278
       0.292
       0.309
       0.329
       0.349
       0.367
       0.381
       0.393
       0.400
       0.401
       0.395
       0.386
       0.375
       0.361
       0.338
       0.307
       0.271
       0.241
       0.224
       0.222
       0.230
       0.239
       0.246
       0.253
       0.259
       0.262
       0.252
       0.225
       0.184
       0.142
       0.116
       0.111
       0.121
       0.133
       0.143
       0.152
       0.168
       0.192
       0.221
       0.242
       0.244
       0.216
       0.157
       0.078
      -0.005
      -0.076
      -0.128
      -0.168
      -0.210
      -0.261
      -0.320
      -0.378
      -0.423
      -0.449
      -0.455
      -0.447
      -0.435
      -0.427
      -0.425
      -0.423
      -0.411
      -0.384
      -0.340
      -0.285
      -0.227
      -0.172
      -0.123
      -0.073
      -0.017
       0.051
       0.129
       0.209
       0.283
       0.346
       0.400
       0.452
       0.512
       0.584
       0.665
       0.752
       0.835
       0.906
       0.955
       0.981
       0.989
       0.991
       0.998
       1.020
       1.059
       1.113
       1.176
       1.241
       1.299
       1.347
       1.381
       1.404
       1.418
       1.425
       1.426
       1.422
       1.414
       1.400
       1.372
       1.324
       1.257
       1.181
       1.105
       1.032
       0.958
       0.882
       0.807
       0.740
       0.685
       0.639
       0.591
       0.533
       0.458
       0.367
       0.264
       0.149
       0.024
      -0.108
      -0.239
      -0.367
      -0.489
      -0.610
      -0.732
      -0.855
      -0.974
      -1.086
      -1.192
      -1.301
      -1.415
      -1.532
      -1.642
      -1.733
      -1.800
      -1.842
      -1.864
      -1.869
      -1.860
      -1.836
      -1.795
      -1.730
      -1.636
      -1.513
      -1.370
      -1.218
      -1.057
      -0.881
      -0.679
      -0.453
      -0.216
       0.015
       0.231
       0.432
       0.623
       0.806
       0.981
       1.148
       1.309
       1.463
       1.603
       1.719
       1.801
       1.843
       1.848
       1.825
       1.785
       1.735
       1.673
       1.592
       1.484
       1.347
       1.188
       1.016
       0.836
       0.643
       0.429
       0.188
      -0.073
      -0.331
      -0.561
      -0.741
      -0.865
      -0.933
      -0.952
      -0.922
      -0.841
      -0.710
      -0.533
      -0.318
      -0.073
       0.199
       0.491
       0.790
       1.080
       1.341
       1.561
       1.728
       1.842
       1.906
       1.927
       1.911
       1.859
       1.772
       1.656
       1.518
       1.366
       1.205
       1.032
       0.849
       0.666
       0.493
       0.332
       0.178
       0.020
      -0.141
      -0.292
      -0.416
      -0.499
      -0.538
      -0.533
      -0.487
      -0.404
      -0.289
      -0.156
      -0.024
       0.094
       0.191
       0.266
       0.322
       0.358
       0.372
       0.365
       0.338
       0.297
       0.241
       0.170
       0.079
      -0.038
      -0.184
      -0.357
      -0.548
      -0.744
      -0.937
      -1.124
      -1.305
      -1.474
      -1.620
      -1.724
      -1.766
      -1.730
      -1.614
      -1.424
      -1.183
      -0.914
      -0.637
      -0.365
      -0.104
       0.138
       0.353
       0.530
       0.661
       0.748
       0.802
       0.837
       0.860
       0.874
       0.881
       0.885
       0.894
       0.911
       0.935
       0.960
       0.981
       0.996
       1.010
       1.027
       1.050
       1.084
       1.129
       1.189
       1.259
       1.329
       1.391
       1.441
       1.484
       1.526
       1.565
       1.584
       1.567
       1.507
       1.412
       1.295
       1.167
       1.035
       0.905
       0.782
       0.665
       0.548
       0.420
       0.271
       0.094
      -0.111
      -0.342
      -0.590
      -0.842
      -1.083
      -1.297
      -1.475
      -1.615
      -1.720
      -1.789
      -1.824
      -1.830
      -1.814
      -1.780
      -1.725
      -1.641
      -1.524
      -1.373
      -1.194
      -0.988
      -0.758
      -0.507
      -0.249
      -0.005
       0.208
       0.384
       0.531
       0.665
       0.790
       0.899
       0.978
       1.017
       1.020
       0.991
       0.931
       0.840
       0.727
       0.616
       0.536
       0.503
       0.513
       0.551
       0.607
       0.682
       0.787
       0.925
       1.089
       1.259
       1.413
       1.535
       1.618
       1.666
       1.691
       1.700
       1.696
       1.673
       1.622
       1.535
       1.407
       1.235
       1.014
       0.744
       0.431
       0.090
      -0.259
      -0.592
      -0.886
      -1.124
      -1.294
      -1.394
      -1.433
      -1.424
      -1.381
      -1.314
      -1.231
      -1.136
      -1.036
      -0.935
      -0.830
      -0.710
      -0.566
      -0.392
      -0.192
       0.028
       0.259
       0.492
       0.716
       0.923
       1.106
       1.258
       1.371
       1.434
       1.440
       1.388
       1.290
       1.162
       1.021
       0.884
       0.764
       0.668
       0.598
       0.551
       0.517
       0.482
       0.432
       0.358
       0.255
       0.128
      -0.017
      -0.167
      -0.313
      -0.439
      -0.536
      -0.598
      -0.626
      -0.628
      -0.612
      -0.582
      -0.544
      -0.498
      -0.452
      -0.409
      -0.371
      -0.338
      -0.307
      -0.272
      -0.228
      -0.164
      -0.068
       0.068
       0.241
       0.439
       0.643
       0.837
       1.015
       1.170
       1.297
       1.384
       1.421
       1.401
       1.326
       1.205
       1.047
       0.866
       0.677
       0.499
       0.351
       0.242
       0.170
       0.127
       0.104
       0.091
       0.074
       0.039
      -0.024
      -0.114
      -0.214
      -0.308
      -0.384
      -0.432
      -0.444
      -0.412
      -0.334
      -0.219
      -0.089
       0.032
       0.129
       0.195
       0.232
       0.241
       0.224
       0.187
       0.144
       0.116
       0.119
       0.161
       0.241
       0.358
       0.508
       0.686
       0.875
       1.050
       1.188
       1.274
       1.309
       1.302
       1.269
       1.221
       1.161
       1.082
       0.978
       0.845
       0.681
       0.485
       0.258
       0.005
      -0.263
      -0.527
      -0.767
      -0.966
      -1.115
      -1.215
      -1.273
      -1.292
      -1.266
      -1.190
      -1.065
      -0.907
      -0.744
      -0.597
      -0.474
      -0.366
      -0.264
      -0.164
      -0.069
       0.017
       0.097
       0.179
       0.270
       0.376
       0.491
       0.608
       0.712
       0.792
       0.844
       0.868
       0.871
       0.859
       0.841
       0.822
       0.805
       0.788
       0.769
       0.751
       0.741
       0.751
       0.787
       0.856
       0.955
       1.077
       1.209
       1.332
       1.422
       1.456
       1.417
       1.301
       1.114
       0.877
       0.608
       0.325
       0.042
      -0.228
      -0.466
      -0.656
      -0.788
      -0.860
      -0.879
      -0.861
      -0.826
      -0.783
      -0.727
      -0.650
      -0.547
      -0.422
      -0.282
      -0.132
       0.022
       0.175
       0.315
       0.428
       0.503
       0.538
       0.540
       0.522
       0.493
       0.454
       0.397
       0.315
       0.206
