Origin Time       18/9/2011 12:40:47	
Lat.              27.6 N	
Long.             88.2 E	
Depth (Km)         10.0
Magnitude         6.8
 Region           India(Sikkim)-Nepar-Border                                       
 Above details taken from IMD 
   
Station Code      SBS
Station Lat.       26.989
Station Long.      94.631
Station Height(m)   78.0
Site Class        C   Vs30 between 200 m/sec to 375 m/sec *  
Record Time       18.09.2011 12:45:42.034
Sampling Rate     200. Hz
 Record Duration   65.035 Sec.
 Direction         Vert. (Up positive)
Max. Acceleration      1.508 cm/sec**2
     
  * For reference see Site Classification link of website 
     
 Base Line Corrected and Low Pass Filtered (Cut Off at 35 Hz) Time History
 Acceleration data in cm/sec**2
    
[...]
      -0.300
      -0.480
      -0.580
      -0.590
      -0.552
      -0.526
      -0.548
      -0.612
      -0.676
      -0.700
      -0.664
      -0.592
      -0.527
      -0.503
      -0.516
      -0.529
      -0.500
      -0.425
      -0.335
      -0.274
      -0.262
      -0.285
      -0.308
      -0.305
      -0.274
      -0.228
      -0.182
      -0.141
      -0.102
      -0.064
      -0.035
      -0.027
      -0.048
      -0.092
      -0.143
      -0.186
      -0.227
      -0.275
      -0.331
      -0.381
      -0.408
      -0.400
      -0.358
      -0.293
      -0.219
      -0.153
      -0.103
      -0.062
      -0.015
       0.054
       0.155
       0.281
       0.404
       0.487
       0.501
       0.458
       0.402
       0.379
       0.398
       0.436
       0.458
       0.450
       0.420
       0.394
       0.398
       0.448
       0.539
       0.638
       0.701
       0.702
       0.646
       0.569
       0.504
       0.462
       0.423
       0.359
       0.255
       0.127
       0.016
      -0.043
      -0.042
      -0.004
       0.034
       0.046
       0.031
       0.010
       0.017
       0.077
       0.187
       0.317
       0.430
       0.511
       0.572
       0.635
       0.706
       0.764
       0.779
       0.742
       0.678
       0.622
       0.586
       0.550
       0.485
       0.379
       0.251
       0.136
       0.052
      -0.003
      -0.051
      -0.106
      -0.165
      -0.211
      -0.227
      -0.205
      -0.152
      -0.080
      -0.003
       0.071
       0.140
       0.209
       0.286
       0.371
       0.458
       0.529
       0.569
       0.574
       0.558
       0.544
       0.547
       0.571
       0.608
       0.642
       0.658
       0.641
       0.588
       0.510
       0.429
       0.361
       0.310
       0.274
       0.248
       0.231
       0.225
       0.231
       0.236
       0.221
       0.172
       0.094
       0.022
      -0.006
       0.031
       0.122
       0.239
       0.359
       0.474
       0.583
       0.683
       0.761
       0.809
       0.829
       0.835
       0.848
       0.873
       0.894
       0.879
       0.808
       0.690
       0.558
       0.446
       0.366
       0.297
       0.206
       0.074
      -0.093
      -0.264
      -0.408
      -0.512
      -0.584
      -0.651
      -0.736
      -0.841
      -0.946
      -1.020
      -1.047
      -1.023
      -0.962
      -0.883
      -0.813
      -0.774
      -0.774
      -0.797
      -0.815
      -0.804
      -0.751
      -0.663
      -0.559
      -0.465
      -0.396
      -0.350
      -0.309
      -0.258
      -0.189
      -0.111
      -0.046
      -0.006
       0.017
       0.055
       0.133
       0.240
       0.334
       0.371
       0.341
       0.272
       0.206
       0.172
       0.176
       0.209
       0.255
       0.296
       0.323
       0.333
       0.329
       0.324
       0.329
       0.350
       0.382
       0.410
       0.419
       0.401
       0.356
       0.301
       0.257
       0.236
       0.227
       0.205
       0.150
       0.060
      -0.038
      -0.108
      -0.127
      -0.112
      -0.108
      -0.146
      -0.221
      -0.288
      -0.297
      -0.229
      -0.104
       0.036
       0.156
       0.251
       0.340
       0.452
       0.602
       0.777
       0.945
       1.069
       1.126
       1.113
       1.048
       0.959
       0.868
       0.781
       0.677
       0.533
       0.333
       0.088
      -0.172
      -0.418
      -0.632
      -0.817
      -0.984
      -1.141
      -1.281
      -1.382
      -1.424
      -1.409
      -1.361
      -1.313
      -1.281
      -1.259
      -1.231
      -1.190
      -1.132
      -1.051
      -0.937
      -0.792
      -0.633
      -0.493
      -0.395
      -0.343
      -0.312
      -0.269
      -0.196
      -0.106
      -0.032
      -0.002
      -0.019
      -0.058
      -0.085
      -0.085
      -0.070
      -0.062
      -0.073
      -0.092
      -0.095
      -0.068
      -0.007
       0.079
       0.170
       0.246
       0.290
       0.305
       0.303
       0.303
       0.315
       0.333
       0.343
       0.327
       0.279
       0.212
       0.148
       0.103
       0.079
       0.054
       0.009
      -0.060
      -0.136
      -0.199
      -0.249
      -0.298
      -0.353
      -0.413
      -0.469
      -0.514
      -0.541
      -0.542
      -0.512
      -0.460
      -0.410
      -0.385
      -0.393
      -0.419
      -0.430
      -0.403
      -0.343
      -0.279
      -0.244
      -0.250
      -0.283
      -0.310
      -0.303
      -0.255
      -0.172
      -0.076
       0.008
       0.057
       0.060
       0.029
      -0.004
      -0.011
       0.012
       0.038
       0.038
       0.000
      -0.061
      -0.126
      -0.187
      -0.253
      -0.328
      -0.403
      -0.456
      -0.477
      -0.478
      -0.489
      -0.535
      -0.615
      -0.705
      -0.779
      -0.828
      -0.860
      -0.893
      -0.932
      -0.969
      -0.985
      -0.958
      -0.880
      -0.751
      -0.589
      -0.421
      -0.275
      -0.165
      -0.091
      -0.041
       0.002
       0.052
       0.114
       0.182
       0.237
       0.261
       0.245
       0.193
       0.117
       0.037
      -0.020
      -0.037
      -0.014
       0.026
       0.061
       0.090
       0.129
       0.194
       0.286
       0.389
       0.490
       0.585
       0.679
       0.780
       0.887
       0.991
       1.069
       1.095
       1.064
       1.000
       0.947
       0.941
       0.986
       1.057
       1.109
       1.103
       1.022
       0.877
       0.706
       0.555
       0.457
       0.415
       0.402
       0.381
       0.330
       0.252
       0.174
       0.122
       0.110
       0.122
       0.123
       0.082
       0.001
      -0.085
      -0.129
      -0.109
      -0.040
       0.040
       0.094
       0.106
       0.083
       0.049
       0.033
       0.041
       0.052
       0.034
      -0.033
      -0.133
      -0.233
      -0.303
      -0.340
      -0.361
      -0.389
      -0.437
      -0.497
      -0.547
      -0.559
      -0.523
      -0.446
      -0.355
      -0.280
      -0.236
      -0.217
      -0.199
      -0.153
      -0.064
       0.053
       0.165
       0.241
       0.267
       0.254
       0.229
       0.212
       0.210
       0.214
       0.211
       0.190
       0.159
       0.132
       0.124
       0.126
       0.116
       0.075
       0.004
      -0.073
      -0.129
      -0.149
      -0.138
      -0.116
      -0.106
      -0.114
      -0.124
      -0.115
      -0.075
      -0.006
       0.078
       0.164
       0.239
       0.298
       0.344
       0.390
       0.454
       0.547
       0.661
       0.765
       0.824
       0.819
       0.765
       0.694
       0.631
       0.577
       0.522
       0.458
       0.390
       0.320
       0.240
       0.140
       0.026
      -0.085
      -0.177
      -0.248
      -0.308
      -0.361
      -0.394
      -0.383
      -0.315
      -0.209
      -0.100
      -0.010
       0.071
       0.171
       0.304
       0.457
       0.595
       0.691
       0.741
       0.767
       0.792
       0.820
       0.829
       0.794
       0.709
       0.600
       0.508
       0.457
       0.438
       0.414
       0.349
       0.230
       0.079
      -0.067
      -0.180
      -0.256
      -0.304
      -0.330
      -0.331
      -0.311
      -0.292
      -0.308
      -0.370
      -0.458
      -0.523
      -0.524
      -0.454
      -0.352
      -0.277
      -0.262
      -0.293
      -0.323
      -0.306
      -0.231
      -0.119
      -0.013
       0.049
       0.055
       0.028
       0.007
       0.015
       0.054
       0.104
       0.150
       0.188
       0.223
       0.260
       0.304
       0.355
       0.407
       0.450
       0.478
       0.491
       0.496
       0.500
       0.516
       0.554
       0.612
       0.673
       0.714
       0.714
       0.670
       0.593
       0.506
       0.429
       0.376
       0.343
       0.316
       0.278
       0.217
       0.138
       0.049
      -0.038
      -0.117
      -0.186
      -0.247
      -0.300
      -0.341
      -0.361
      -0.357
      -0.333
      -0.309
      -0.306
      -0.338
      -0.391
      -0.438
      -0.453
      -0.429
      -0.384
      -0.345
      -0.332
      -0.343
      -0.355
      -0.350
      -0.318
      -0.270
      -0.226
      -0.207
      -0.221
      -0.254
      -0.282
      -0.289
      -0.274
      -0.252
      -0.244
      -0.268
      -0.324
      -0.385
      -0.410
      -0.371
      -0.277
      -0.176
      -0.120
      -0.136
      -0.202
      -0.269
      -0.296
      -0.275
      -0.230
      -0.191
      -0.167
      -0.142
      -0.091
      -0.004
       0.102
       0.189
       0.231
       0.233
       0.235
       0.276
       0.371
       0.500
       0.623
       0.712
       0.766
       0.807
       0.862
       0.944
       1.035
       1.105
       1.133
       1.115
       1.066
       1.001
       0.924
       0.831
       0.720
       0.594
       0.465
       0.346
       0.245
       0.159
       0.079
      -0.003
      -0.093
      -0.194
      -0.302
      -0.403
      -0.481
      -0.520
      -0.520
      -0.504
      -0.500
      -0.519
      -0.545
      -0.552
      -0.525
      -0.470
      -0.414
      -0.382
      -0.387
      -0.417
      -0.445
      -0.440
      -0.395
      -0.324
      -0.254
      -0.210
      -0.206
      -0.230
      -0.254
      -0.253
      -0.225
      -0.194
      -0.184
      -0.199
      -0.215
      -0.206
      -0.163
      -0.101
      -0.049
      -0.023
      -0.016
      -0.008
       0.014
       0.047
       0.074
       0.081
       0.070
       0.056
       0.055
       0.071
       0.092
       0.109
       0.125
       0.145
       0.154
       0.129
       0.050
      -0.065
      -0.174
      -0.231
      -0.215
      -0.141
      -0.043
       0.046
       0.110
       0.148
       0.169
       0.181
       0.195
       0.229
       0.302
       0.418
       0.561
       0.692
       0.775
       0.789
       0.741
       0.658
       0.576
       0.522
       0.498
       0.492
       0.485
       0.462
       0.414
       0.338
       0.247
       0.159
       0.093
       0.061
       0.057
       0.067
       0.069
       0.039
      -0.027
      -0.118
      -0.207
      -0.275
      -0.316
      -0.342
      -0.361
      -0.368
      -0.351
      -0.307
      -0.243
      -0.176
      -0.121
      -0.084
      -0.062
      -0.055
      -0.063
      -0.098
      -0.164
      -0.252
      -0.339
      -0.408
      -0.463
      -0.528
      -0.626
      -0.755
      -0.885
      -0.979
      -1.020
      -1.025
      -1.029
      -1.063
      -1.130
      -1.203
      -1.241
      -1.219
      -1.137
      -1.027
      -0.920
      -0.833
      -0.762
      -0.691
      -0.610
      -0.528
      -0.460
      -0.422
      -0.411
      -0.418
      -0.428
      -0.437
      -0.447
      -0.465
      -0.491
      -0.516
      -0.529
      -0.523
      -0.502
      -0.476
      -0.448
      -0.416
      -0.377
      -0.336
      -0.301
      -0.275
      -0.250
      -0.221
      -0.191
      -0.175
      -0.183
      -0.216
      -0.261
      -0.303
      -0.331
      -0.345
      -0.362
      -0.403
      -0.476
      -0.560
      -0.618
      -0.620
      -0.572
      -0.511
      -0.481
      -0.497
      -0.542
      -0.579
      -0.581
      -0.550
      -0.508
      -0.467
      -0.421
      -0.352
      -0.252
      -0.138
      -0.043
       0.011
       0.034
       0.063
       0.138
       0.266
       0.416
       0.535
       0.588
       0.581
       0.560
       0.573
       0.641
       0.739
       0.820
       0.843
       0.810
       0.758
       0.729
       0.740
       0.776
       0.806
       0.805
       0.764
       0.696
       0.622
       0.558
       0.510
       0.480
       0.462
       0.451
       0.437
       0.418
       0.399
       0.394
       0.411
       0.442
       0.469
       0.474
       0.452
       0.414
       0.377
       0.347
       0.316
       0.267
       0.195
       0.115
       0.050
       0.015
       0.013
       0.032
       0.054
       0.060
       0.043
       0.011
      -0.014
      -0.022
      -0.022
      -0.040
      -0.098
      -0.194
      -0.299
      -0.377
      -0.405
      -0.395
      -0.380
      -0.386
      -0.411
      -0.432
      -0.431
      -0.415
      -0.410
      -0.440
      -0.503
      -0.577
      -0.626
      -0.626
      -0.574
      -0.487
      -0.397
      -0.334
      -0.306
      -0.304
      -0.315
      -0.329
      -0.343
      -0.352
      -0.341
      -0.296
      -0.218
      -0.126
      -0.056
      -0.027
      -0.030
      -0.036
      -0.020
       0.022
       0.074
       0.115
       0.135
       0.146
       0.163
       0.188
       0.206
       0.193
       0.143
       0.063
      -0.026
      -0.105
      -0.164
      -0.211
      -0.262
      -0.339
      -0.450
      -0.582
      -0.699
      -0.763
      -0.755
      -0.694
      -0.622
      -0.572
      -0.555
      -0.552
      -0.535
      -0.482
      -0.387
      -0.256
      -0.103
       0.059
       0.223
       0.384
       0.542
       0.702
       0.869
       1.034
       1.168
       1.243
       1.258
       1.245
       1.250
       1.299
       1.381
       1.463
       1.508
       1.506
       1.469
       1.415
       1.360
       1.301
       1.230
       1.135
       1.011
       0.860
       0.689
       0.510
       0.339
       0.195
       0.090
       0.013
      -0.066
      -0.168
      -0.285
      -0.374
      -0.397
      -0.350
      -0.269
      -0.207
      -0.197
      -0.233
      -0.281
      -0.305
      -0.289
      -0.249
      -0.213
      -0.205
      -0.233
      -0.278
      -0.310
      -0.302
      -0.245
      -0.150
      -0.048
       0.029
       0.070
       0.090
       0.122
       0.189
       0.280
       0.363
       0.409
       0.411
       0.389
       0.368
       0.370
       0.400
       0.443
       0.468
       0.455
       0.400
       0.325
       0.259
       0.221
       0.212
       0.214
       0.200
       0.152
       0.078
       0.005
      -0.035
      -0.030
       0.006
       0.043
       0.055
       0.041
       0.025
       0.037
       0.093
       0.181
       0.270
       0.332
       0.358
       0.358
       0.355
       0.365
       0.390
       0.415
       0.419
       0.385
       0.320
       0.250
       0.202
       0.188
       0.189
       0.172
       0.109
       0.002
      -0.119
      -0.218
      -0.277
      -0.301
      -0.310
      -0.321
      -0.337
      -0.347
      -0.336
      -0.303
      -0.258
      -0.211
      -0.166
      -0.119
      -0.068
      -0.010
       0.055
       0.119
       0.167
       0.182
       0.164
       0.132
       0.110
       0.103
       0.093
       0.055
      -0.020
      -0.112
      -0.194
      -0.238
      -0.235
      -0.192
      -0.131
      -0.075
      -0.045
      -0.050
      -0.080
      -0.115
      -0.143
      -0.171
      -0.223
      -0.315
      -0.435
      -0.548
      -0.619
      -0.637
      -0.624
      -0.611
      -0.622
      -0.653
      -0.684
      -0.694
      -0.675
      -0.633
      -0.577
      -0.510
      -0.435
      -0.360
      -0.304
      -0.275
      -0.268
      -0.258
      -0.221
      -0.150
      -0.060
       0.022
       0.072
       0.088
       0.087
       0.092
       0.116
       0.145
       0.155
       0.131
       0.086
       0.051
       0.054
       0.090
       0.122
       0.102
       0.011
      -0.127
      -0.257
      -0.342
      -0.379
      -0.397
      -0.422
      -0.461
      -0.495
      -0.511
      -0.518
      -0.546
      -0.612
      -0.707
      -0.794
      -0.841
      -0.841
      -0.809
      -0.770
      -0.746
      -0.751
      -0.787
      -0.846
      -0.901
      -0.926
      -0.906
      -0.851
      -0.788
      -0.745
      -0.735
      -0.748
      -0.766
      -0.775
      -0.778
      -0.786
      -0.802
      -0.815
      -0.809
      -0.775
      -0.726
      -0.681
      -0.660
      -0.663
      -0.673
      -0.662
      -0.606
      -0.501
      -0.372
      -0.263
      -0.214
      -0.235
      -0.303
      -0.372
      -0.407
      -0.398
      -0.366
      -0.351
      -0.386
      -0.474
      -0.580
      -0.659
      -0.682
      -0.655
      -0.603
      -0.550
      -0.496
      -0.432
      -0.348
      -0.250
      -0.151
      -0.069
      -0.005
       0.048
       0.098
       0.148
       0.194
       0.231
       0.254
       0.255
       0.231
       0.182
       0.121
       0.071
       0.054
       0.080
       0.140
       0.208
       0.260
       0.287
       0.298
       0.315
       0.354
       0.416
       0.478
       0.513
       0.502
       0.446
       0.367
       0.292
       0.237
       0.203
       0.177
       0.139
       0.081
       0.012
      -0.049
      -0.081
      -0.081
      -0.060
      -0.036
      -0.020
      -0.007
       0.013
       0.042
       0.073
       0.099
       0.114
       0.118
       0.114
       0.115
       0.136
       0.185
       0.247
       0.292
       0.296
       0.258
       0.205
       0.168
       0.161
       0.172
       0.183
       0.182
       0.169
       0.148
       0.118
       0.089
       0.081
       0.115
       0.190
       0.271
       0.308
       0.270
       0.168
       0.048
      -0.041
      -0.079
      -0.080
      -0.075
      -0.085
      -0.113
      -0.151
      -0.190
      -0.231
      -0.279
      -0.329
      -0.368
      -0.381
      -0.355
      -0.291
      -0.208
      -0.127
      -0.064
      -0.012
       0.049
       0.141
       0.263
       0.394
       0.511
       0.607
       0.692
       0.778
       0.863
       0.932
       0.974
       0.995
       1.011
       1.039
       1.077
       1.112
       1.126
       1.116
       1.093
       1.070
       1.044
       1.000
       0.925
       0.828
       0.734
       0.671
       0.645
       0.641
       0.635
       0.611
       0.563
       0.500
       0.434
       0.376
       0.322
       0.265
       0.200
       0.131
       0.071
       0.030
       0.004
      -0.018
      -0.048
      -0.090
      -0.135
      -0.171
      -0.185
      -0.177
      -0.155
      -0.127
      -0.093
      -0.049
       0.002
       0.040
       0.048
       0.026
       0.001
       0.011
       0.074
       0.173
       0.266
       0.317
       0.318
       0.289
       0.250
       0.212
       0.177
       0.149
       0.131
       0.121
       0.103
       0.061
      -0.004
      -0.072
      -0.114
      -0.109
      -0.066
      -0.014
       0.018
       0.025
       0.017
       0.004
      -0.020
      -0.070
      -0.153
      -0.257
      -0.357
      -0.431
      -0.472
      -0.494
      -0.519
      -0.560
      -0.616
      -0.671
      -0.712
      -0.732
      -0.730
      -0.715
      -0.694
      -0.673
      -0.649
      -0.618
      -0.577
      -0.523
      -0.458
      -0.384
      -0.302
      -0.218
