Origin Time       18/9/2011 12:40:47	 UTC
Lat.              27.6 N	
Long.             88.2 E	
Depth (Km)         10.0
Magnitude         6.8
 Region           India(Sikkim)-Nepar-Border                                       
 Above details taken from IMD 
    
Station Code      SBS
Station Lat.       26.989  N
Station Long.      94.631  E
Station Height(m)   78.0
Site Class        C   Vs30 between 200 m/sec to 375 m/sec *  
Record Time       18.09.2011 12:45:42.034 UTC
Sampling Rate     200. Hz
 Record Duration   65.035 Sec.
 Direction         N-S (N positive)
Max. Acceleration     -5.140 cm/sec**2
     
  * For reference see Site Classification link of website 
     
 Base Line Corrected and Low Pass Filtered (Cut Off at 35 Hz) Time History
 Acceleration data in cm/sec**2
    
[...]
      -0.861
      -0.892
      -0.917
      -0.929
      -0.923
      -0.894
      -0.836
      -0.744
      -0.610
      -0.432
      -0.211
       0.043
       0.315
       0.586
       0.845
       1.084
       1.303
       1.500
       1.677
       1.832
       1.962
       2.064
       2.130
       2.157
       2.144
       2.097
       2.023
       1.926
       1.804
       1.651
       1.463
       1.241
       0.993
       0.733
       0.469
       0.201
      -0.075
      -0.360
      -0.654
      -0.949
      -1.235
      -1.503
      -1.740
      -1.937
      -2.087
      -2.191
      -2.255
      -2.287
      -2.296
      -2.291
      -2.275
      -2.249
      -2.213
      -2.172
      -2.131
      -2.096
      -2.069
      -2.048
      -2.033
      -2.023
      -2.014
      -2.001
      -1.978
      -1.945
      -1.900
      -1.851
      -1.806
      -1.775
      -1.760
      -1.758
      -1.759
      -1.762
      -1.767
      -1.776
      -1.786
      -1.785
      -1.765
      -1.722
      -1.660
      -1.588
      -1.513
      -1.430
      -1.330
      -1.206
      -1.065
      -0.919
      -0.782
      -0.659
      -0.551
      -0.463
      -0.396
      -0.355
      -0.335
      -0.325
      -0.308
      -0.275
      -0.225
      -0.174
      -0.140
      -0.133
      -0.145
      -0.160
      -0.163
      -0.152
      -0.137
      -0.132
      -0.144
      -0.169
      -0.201
      -0.238
      -0.285
      -0.343
      -0.406
      -0.455
      -0.475
      -0.454
      -0.396
      -0.310
      -0.203
      -0.076
       0.067
       0.216
       0.361
       0.487
       0.592
       0.682
       0.771
       0.872
       0.996
       1.142
       1.307
       1.490
       1.689
       1.904
       2.126
       2.342
       2.541
       2.717
       2.873
       3.013
       3.140
       3.250
       3.336
       3.397
       3.438
       3.470
       3.505
       3.552
       3.609
       3.671
       3.729
       3.780
       3.825
       3.863
       3.891
       3.897
       3.870
       3.802
       3.697
       3.565
       3.420
       3.273
       3.131
       2.996
       2.867
       2.737
       2.597
       2.443
       2.274
       2.091
       1.898
       1.697
       1.490
       1.271
       1.030
       0.756
       0.448
       0.124
      -0.195
      -0.491
      -0.761
      -1.014
      -1.253
      -1.472
      -1.654
      -1.782
      -1.854
      -1.886
      -1.898
      -1.905
      -1.907
      -1.890
      -1.842
      -1.764
      -1.663
      -1.553
      -1.448
      -1.355
      -1.279
      -1.223
      -1.190
      -1.187
      -1.213
      -1.255
      -1.297
      -1.320
      -1.320
      -1.306
      -1.288
      -1.273
      -1.258
      -1.241
      -1.220
      -1.204
      -1.199
      -1.208
      -1.229
      -1.260
      -1.302
      -1.356
      -1.418
      -1.482
      -1.533
      -1.563
      -1.571
      -1.567
      -1.562
      -1.562
      -1.564
      -1.558
      -1.541
      -1.515
      -1.486
      -1.456
      -1.423
      -1.381
      -1.327
      -1.267
      -1.210
      -1.172
      -1.160
      -1.177
      -1.224
      -1.292
      -1.374
      -1.458
      -1.532
      -1.591
      -1.636
      -1.673
      -1.708
      -1.740
      -1.769
      -1.791
      -1.805
      -1.815
      -1.829
      -1.851
      -1.882
      -1.915
      -1.935
      -1.929
      -1.884
      -1.799
      -1.683
      -1.547
      -1.407
      -1.268
      -1.128
      -0.983
      -0.834
      -0.694
      -0.574
      -0.485
      -0.423
      -0.379
      -0.343
      -0.310
      -0.283
      -0.267
      -0.271
      -0.300
      -0.359
      -0.448
      -0.571
      -0.731
      -0.928
      -1.158
      -1.411
      -1.680
      -1.958
      -2.245
      -2.536
      -2.822
      -3.084
      -3.307
      -3.481
      -3.610
      -3.703
      -3.764
      -3.789
      -3.771
      -3.706
      -3.597
      -3.452
      -3.272
      -3.057
      -2.801
      -2.505
      -2.176
      -1.823
      -1.453
      -1.073
      -0.689
      -0.312
       0.048
       0.391
       0.725
       1.056
       1.381
       1.683
       1.940
       2.132
       2.252
       2.301
       2.287
       2.221
       2.114
       1.972
       1.799
       1.596
       1.365
       1.109
       0.832
       0.544
       0.252
      -0.033
      -0.303
      -0.544
      -0.750
      -0.915
      -1.042
      -1.135
      -1.201
      -1.245
      -1.268
      -1.268
      -1.246
      -1.203
      -1.145
      -1.077
      -1.001
      -0.920
      -0.839
      -0.762
      -0.691
      -0.620
      -0.542
      -0.451
      -0.339
      -0.205
      -0.044
       0.141
       0.345
       0.556
       0.761
       0.952
       1.125
       1.279
       1.410
       1.514
       1.592
       1.651
       1.695
       1.726
       1.748
       1.762
       1.774
       1.785
       1.790
       1.780
       1.755
       1.721
       1.688
       1.659
       1.634
       1.610
       1.591
       1.577
       1.568
       1.561
       1.546
       1.520
       1.488
       1.460
       1.445
       1.443
       1.444
       1.432
       1.392
       1.318
       1.217
       1.100
       0.978
       0.853
       0.725
       0.593
       0.460
       0.330
       0.204
       0.072
      -0.074
      -0.241
      -0.428
      -0.627
      -0.828
      -1.020
      -1.194
      -1.341
      -1.455
      -1.538
      -1.592
      -1.625
      -1.642
      -1.648
      -1.644
      -1.632
      -1.610
      -1.577
      -1.535
      -1.488
      -1.435
      -1.371
      -1.286
      -1.174
      -1.033
      -0.868
      -0.690
      -0.508
      -0.330
      -0.153
       0.028
       0.213
       0.397
       0.573
       0.733
       0.876
       1.001
       1.104
       1.174
       1.200
       1.179
       1.119
       1.034
       0.940
       0.841
       0.738
       0.629
       0.518
       0.414
       0.325
       0.248
       0.176
       0.104
       0.040
      -0.007
      -0.030
      -0.033
      -0.025
      -0.016
      -0.004
       0.019
       0.065
       0.140
       0.247
       0.384
       0.548
       0.733
       0.936
       1.155
       1.387
       1.627
       1.870
       2.106
       2.329
       2.533
       2.717
       2.880
       3.021
       3.141
       3.238
       3.312
       3.364
       3.388
       3.380
       3.337
       3.261
       3.159
       3.037
       2.899
       2.747
       2.579
       2.392
       2.181
       1.940
       1.663
       1.349
       1.004
       0.639
       0.267
      -0.098
      -0.451
      -0.792
      -1.124
      -1.450
      -1.762
      -2.046
      -2.292
      -2.495
      -2.658
      -2.788
      -2.891
      -2.977
      -3.053
      -3.125
      -3.191
      -3.245
      -3.272
      -3.259
      -3.202
      -3.108
      -2.990
      -2.865
      -2.744
      -2.633
      -2.531
      -2.429
      -2.316
      -2.184
      -2.029
      -1.849
      -1.642
      -1.409
      -1.155
      -0.890
      -0.626
      -0.367
      -0.112
       0.139
       0.381
       0.604
       0.796
       0.947
       1.060
       1.140
       1.195
       1.238
       1.279
       1.324
       1.377
       1.439
       1.510
       1.591
       1.673
       1.744
       1.791
       1.804
       1.778
       1.718
       1.634
       1.538
       1.443
       1.351
       1.254
       1.136
       0.984
       0.797
       0.579
       0.345
       0.104
      -0.139
      -0.385
      -0.636
      -0.891
      -1.144
      -1.392
      -1.640
      -1.896
      -2.161
      -2.428
      -2.682
      -2.904
      -3.081
      -3.208
      -3.282
      -3.300
      -3.253
      -3.132
      -2.937
      -2.677
      -2.365
      -2.009
      -1.616
      -1.190
      -0.735
      -0.257
       0.239
       0.747
       1.256
       1.759
       2.247
       2.708
       3.133
       3.512
       3.840
       4.118
       4.352
       4.547
       4.702
       4.807
       4.851
       4.826
       4.735
       4.589
       4.402
       4.189
       3.958
       3.713
       3.455
       3.190
       2.925
       2.669
       2.434
       2.229
       2.063
       1.940
       1.861
       1.826
       1.836
       1.890
       1.979
       2.089
       2.203
       2.307
       2.396
       2.470
       2.533
       2.587
       2.633
       2.674
       2.711
       2.748
       2.783
       2.807
       2.810
       2.783
       2.726
       2.643
       2.544
       2.434
       2.315
       2.183
       2.030
       1.852
       1.649
       1.427
       1.192
       0.951
       0.707
       0.460
       0.207
      -0.054
      -0.325
      -0.605
      -0.890
      -1.172
      -1.439
      -1.674
      -1.864
      -2.000
      -2.082
      -2.113
      -2.097
      -2.036
      -1.935
      -1.806
      -1.662
      -1.514
      -1.364
      -1.203
      -1.020
      -0.808
      -0.577
      -0.347
      -0.141
       0.027
       0.149
       0.226
       0.260
       0.257
       0.222
       0.164
       0.093
       0.015
      -0.066
      -0.153
      -0.255
      -0.378
      -0.527
      -0.700
      -0.894
      -1.102
      -1.317
      -1.526
      -1.715
      -1.875
      -2.001
      -2.099
      -2.176
      -2.239
      -2.288
      -2.314
      -2.306
      -2.255
      -2.160
      -2.027
      -1.867
      -1.687
      -1.489
      -1.275
      -1.043
      -0.796
      -0.537
      -0.274
      -0.014
       0.230
       0.450
       0.641
       0.808
       0.958
       1.103
       1.255
       1.415
       1.580
       1.743
       1.896
       2.033
       2.152
       2.246
       2.313
       2.347
       2.342
       2.298
       2.216
       2.097
       1.945
       1.762
       1.550
       1.316
       1.068
       0.811
       0.554
       0.298
       0.047
      -0.189
      -0.401
      -0.578
      -0.722
      -0.840
      -0.944
      -1.039
      -1.115
      -1.163
      -1.176
      -1.162
      -1.134
      -1.101
      -1.066
      -1.024
      -0.966
      -0.888
      -0.792
      -0.682
      -0.560
      -0.425
      -0.279
      -0.130
       0.015
       0.151
       0.276
       0.390
       0.490
       0.565
       0.604
       0.601
       0.559
       0.494
       0.421
       0.345
       0.260
       0.156
       0.028
      -0.120
      -0.278
      -0.439
      -0.602
      -0.765
      -0.927
      -1.077
      -1.203
      -1.294
      -1.349
      -1.373
      -1.375
      -1.360
      -1.328
      -1.270
      -1.181
      -1.058
      -0.904
      -0.723
      -0.515
      -0.277
      -0.006
       0.296
       0.620
       0.951
       1.272
       1.565
       1.819
       2.029
       2.192
       2.302
       2.350
       2.332
       2.257
       2.143
       2.008
       1.857
       1.683
       1.480
       1.248
       1.001
       0.749
       0.496
       0.235
      -0.042
      -0.337
      -0.649
      -0.969
      -1.288
      -1.600
      -1.901
      -2.192
      -2.468
      -2.724
      -2.953
      -3.152
      -3.325
      -3.480
      -3.621
      -3.744
      -3.841
      -3.905
      -3.934
      -3.927
      -3.886
      -3.810
      -3.699
      -3.553
      -3.376
      -3.172
      -2.942
      -2.688
      -2.415
      -2.132
      -1.855
      -1.592
      -1.340
      -1.086
      -0.816
      -0.520
      -0.199
       0.145
       0.506
       0.879
       1.262
       1.641
       2.000
       2.318
       2.583
       2.795
       2.961
       3.092
       3.189
       3.246
       3.257
       3.222
       3.153
       3.068
       2.988
       2.920
       2.860
       2.791
       2.699
       2.575
       2.417
       2.222
       1.986
       1.703
       1.379
       1.034
       0.699
       0.399
       0.146
      -0.068
      -0.256
      -0.431
      -0.593
      -0.736
      -0.850
      -0.931
      -0.975
      -0.976
      -0.926
      -0.816
      -0.647
      -0.427
      -0.176
       0.087
       0.351
       0.610
       0.859
       1.094
       1.305
       1.489
       1.643
       1.774
       1.895
       2.016
       2.138
       2.249
       2.333
       2.382
       2.396
       2.385
       2.359
       2.324
       2.280
       2.225
       2.158
       2.082
       1.996
       1.901
       1.795
       1.677
       1.547
       1.411
       1.276
       1.145
       1.019
       0.889
       0.746
       0.582
       0.392
       0.175
      -0.071
      -0.350
      -0.661
      -1.002
      -1.360
      -1.723
      -2.082
      -2.430
      -2.760
      -3.058
      -3.311
      -3.507
      -3.646
      -3.731
      -3.770
      -3.764
      -3.719
      -3.643
      -3.545
      -3.429
      -3.295
      -3.139
      -2.959
      -2.756
      -2.535
      -2.302
      -2.063
      -1.822
      -1.582
      -1.347
      -1.122
      -0.914
      -0.729
      -0.573
      -0.441
      -0.327
      -0.218
      -0.113
      -0.020
       0.042
       0.062
       0.038
      -0.026
      -0.127
      -0.268
      -0.454
      -0.685
      -0.951
      -1.240
      -1.539
      -1.841
      -2.148
      -2.457
      -2.764
      -3.058
      -3.333
      -3.587
      -3.823
      -4.044
      -4.253
      -4.448
      -4.625
      -4.779
      -4.906
      -5.005
      -5.076
      -5.120
      -5.140
      -5.135
      -5.105
      -5.048
      -4.964
      -4.851
      -4.708
      -4.534
      -4.328
      -4.086
      -3.809
      -3.496
      -3.159
      -2.815
      -2.484
      -2.181
      -1.914
      -1.676
      -1.458
      -1.253
      -1.059
      -0.876
      -0.704
      -0.539
      -0.381
      -0.229
      -0.090
       0.028
       0.119
       0.180
       0.216
       0.228
       0.216
       0.174
       0.100
      -0.003
      -0.124
      -0.249
      -0.366
      -0.472
      -0.576
      -0.685
      -0.805
      -0.926
      -1.038
      -1.131
      -1.205
      -1.263
      -1.303
      -1.314
      -1.286
      -1.217
      -1.122
      -1.019
      -0.926
      -0.846
      -0.776
      -0.707
      -0.634
      -0.556
      -0.476
      -0.391
      -0.293
      -0.173
      -0.023
       0.152
       0.338
       0.522
       0.698
       0.866
       1.026
       1.178
       1.322
       1.459
       1.588
       1.710
       1.818
       1.905
       1.964
       1.992
       1.993
       1.977
       1.957
       1.943
       1.938
       1.934
       1.925
       1.910
       1.895
       1.885
       1.881
       1.875
       1.862
       1.838
       1.806
       1.767
       1.720
       1.662
       1.588
       1.494
       1.376
       1.233
       1.068
       0.889
       0.705
       0.528
       0.369
       0.230
       0.108
      -0.007
      -0.123
      -0.243
      -0.362
      -0.472
      -0.567
      -0.649
      -0.723
      -0.791
      -0.848
      -0.883
      -0.890
      -0.867
      -0.824
      -0.772
      -0.716
      -0.656
      -0.593
      -0.528
      -0.463
      -0.404
      -0.352
      -0.307
      -0.267
      -0.234
      -0.210
      -0.195
      -0.184
      -0.169
      -0.139
      -0.088
      -0.018
       0.066
       0.157
       0.254
       0.361
       0.486
       0.633
       0.799
       0.976
       1.154
       1.319
       1.461
       1.573
       1.649
       1.691
       1.702
       1.684
       1.639
       1.567
       1.463
       1.324
       1.151
       0.953
       0.737
       0.511
       0.274
       0.024
      -0.241
      -0.516
      -0.791
      -1.056
      -1.298
      -1.505
      -1.665
      -1.774
      -1.833
      -1.847
      -1.826
      -1.773
      -1.690
      -1.573
      -1.419
      -1.232
      -1.021
      -0.797
      -0.563
      -0.314
      -0.042
       0.250
       0.552
       0.849
       1.134
       1.409
       1.679
       1.947
       2.209
       2.455
       2.682
       2.889
       3.080
       3.248
       3.385
       3.479
       3.530
       3.547
       3.543
       3.531
       3.516
       3.493
       3.458
       3.406
       3.341
       3.268
       3.191
       3.112
       3.033
       2.950
       2.862
       2.766
       2.664
       2.555
       2.438
       2.312
       2.172
       2.017
       1.843
       1.648
       1.437
       1.220
       1.010
       0.817
       0.645
       0.489
       0.341
       0.192
       0.036
      -0.127
      -0.290
      -0.445
      -0.591
      -0.730
      -0.871
      -1.021
      -1.180
      -1.339
      -1.488
      -1.616
      -1.717
      -1.785
      -1.822
      -1.831
      -1.820
      -1.797
      -1.772
      -1.755
      -1.752
      -1.762
      -1.782
      -1.807
      -1.836
      -1.872
      -1.920
      -1.984
      -2.066
      -2.170
      -2.302
      -2.464
      -2.653
      -2.859
      -3.071
      -3.278
      -3.472
      -3.651
      -3.812
      -3.957
      -4.092
      -4.220
      -4.342
      -4.453
      -4.543
      -4.606
      -4.639
      -4.644
      -4.618
      -4.557
      -4.458
      -4.314
      -4.123
      -3.886
      -3.608
      -3.295
      -2.953
      -2.586
      -2.197
      -1.794
      -1.388
      -0.989
      -0.610
      -0.256
       0.069
       0.366
       0.638
       0.893
       1.137
       1.371
       1.599
       1.820
       2.031
       2.226
       2.400
       2.549
       2.668
       2.761
       2.836
       2.905
       2.971
       3.027
       3.057
       3.046
       2.993
       2.904
       2.793
       2.669
       2.536
       2.394
       2.243
       2.085
       1.926
       1.768
       1.612
       1.456
       1.302
       1.160
       1.044
       0.967
       0.932
       0.937
       0.971
       1.027
       1.103
       1.197
       1.313
       1.451
       1.609
       1.779
       1.961
       2.154
       2.362
       2.585
       2.814
       3.037
       3.242
       3.420
       3.570
       3.693
       3.789
       3.857
       3.897
       3.910
       3.898
       3.858
       3.782
       3.665
       3.502
       3.290
       3.031
       2.729
       2.390
       2.024
       1.650
       1.290
       0.972
       0.717
       0.528
       0.400
       0.318
       0.275
       0.268
       0.295
       0.357
       0.448
       0.557
       0.677
       0.804
       0.936
       1.071
       1.202
       1.322
       1.428
       1.523
       1.610
       1.691
       1.760
       1.810
       1.829
       1.815
       1.771
       1.703
       1.617
       1.513
       1.385
       1.222
       1.019
       0.781
       0.522
       0.257
      -0.003
      -0.250
      -0.477
      -0.675
      -0.837
      -0.960
      -1.047
      -1.103
      -1.134
      -1.147
      -1.145
      -1.129
      -1.090
      -1.019
      -0.908
      -0.756
      -0.571
      -0.362
      -0.143
       0.073
       0.272
       0.442
       0.573
       0.662
       0.713
       0.733
       0.732
       0.715
       0.683
       0.636
       0.579
       0.520
       0.465
       0.420
       0.388
       0.371
       0.367
       0.374
