Origin Time       12/3/2012 22:07:20	 UTC
Lat.              28.9 N	
Long.             77.3 E	
Depth (Km)          5.0
Magnitude         3.5
 Region           Baghpat-U.P.                                                     
 Above details taken from IMD 
    
Station Code      ANC
Station Lat.       28.539  N
Station Long.      77.264  E
Station Height(m)  231.0
Site Class        C   Vs30 between 200 m/sec to 375 m/sec *  
Record Time       12.03.2012 22:07:08.454 UTC
Sampling Rate     200. Hz
 Record Duration   81.045 Sec.
 Direction         N-S (N positive)
Max. Acceleration     -3.278 cm/sec**2
     
  * For reference see Site Classification link of website 
     
 Base Line Corrected and Low Pass Filtered (Cut Off at 35 Hz) Time History
 Acceleration data in cm/sec**2
    
[...]
       0.374
       0.181
      -0.053
      -0.250
      -0.333
      -0.275
      -0.127
       0.007
       0.039
      -0.045
      -0.176
      -0.249
      -0.191
      -0.001
       0.255
       0.478
       0.571
       0.481
       0.222
      -0.121
      -0.419
      -0.546
      -0.450
      -0.180
       0.123
       0.309
       0.303
       0.145
      -0.047
      -0.158
      -0.145
      -0.054
       0.024
       0.017
      -0.072
      -0.172
      -0.189
      -0.080
       0.110
       0.272
       0.313
       0.222
       0.072
      -0.036
      -0.045
       0.020
       0.086
       0.089
       0.017
      -0.102
      -0.226
      -0.317
      -0.343
      -0.271
      -0.088
       0.163
       0.373
       0.423
       0.269
      -0.008
      -0.244
      -0.315
      -0.214
      -0.034
       0.115
       0.194
       0.224
       0.232
       0.207
       0.124
      -0.007
      -0.128
      -0.167
      -0.106
      -0.009
       0.025
      -0.058
      -0.212
      -0.320
      -0.284
      -0.088
       0.182
       0.393
       0.438
       0.294
       0.028
      -0.244
      -0.408
      -0.410
      -0.265
      -0.043
       0.169
       0.301
       0.323
       0.250
       0.122
      -0.011
      -0.121
      -0.202
      -0.262
      -0.296
      -0.270
      -0.154
       0.043
       0.249
       0.359
       0.303
       0.107
      -0.116
      -0.242
      -0.217
      -0.092
       0.032
       0.087
       0.081
       0.066
       0.073
       0.076
       0.023
      -0.096
      -0.222
      -0.264
      -0.170
       0.024
       0.212
       0.293
       0.229
       0.065
      -0.108
      -0.211
      -0.217
      -0.152
      -0.073
      -0.031
      -0.043
      -0.076
      -0.061
       0.055
       0.256
       0.439
       0.473
       0.293
      -0.043
      -0.374
      -0.539
      -0.475
      -0.249
       0.005
       0.175
       0.242
       0.257
       0.275
       0.291
       0.248
       0.098
      -0.137
      -0.367
      -0.492
      -0.460
      -0.297
      -0.086
       0.090
       0.189
       0.225
       0.241
       0.258
       0.260
       0.210
       0.085
      -0.093
      -0.270
      -0.383
      -0.387
      -0.271
      -0.068
       0.149
       0.289
       0.286
       0.144
      -0.045
      -0.155
      -0.104
       0.072
       0.243
       0.271
       0.118
      -0.137
      -0.352
      -0.423
      -0.329
      -0.118
       0.134
       0.350
       0.455
       0.406
       0.216
      -0.031
      -0.221
      -0.276
      -0.206
      -0.085
       0.000
       0.010
      -0.033
      -0.080
      -0.094
      -0.077
      -0.053
      -0.039
      -0.019
       0.039
       0.147
       0.270
       0.340
       0.301
       0.146
      -0.068
      -0.256
      -0.351
      -0.332
      -0.220
      -0.056
       0.116
       0.250
       0.298
       0.226
       0.053
      -0.147
      -0.274
      -0.264
      -0.125
       0.068
       0.218
       0.249
       0.145
      -0.038
      -0.201
      -0.257
      -0.182
      -0.037
       0.076
       0.082
      -0.014
      -0.128
      -0.157
      -0.053
       0.138
       0.304
       0.341
       0.219
       0.009
      -0.168
      -0.218
      -0.126
       0.036
       0.170
       0.203
       0.117
      -0.051
      -0.237
      -0.370
      -0.403
      -0.326
      -0.170
       0.015
       0.189
       0.345
       0.486
       0.587
       0.569
       0.342
      -0.099
      -0.614
      -0.962
      -0.944
      -0.548
       0.035
       0.526
       0.725
       0.608
       0.306
       0.000
      -0.186
      -0.228
      -0.168
      -0.071
       0.018
       0.082
       0.117
       0.119
       0.078
      -0.012
      -0.136
      -0.249
      -0.293
      -0.229
      -0.065
       0.130
       0.267
       0.291
       0.209
       0.086
      -0.014
      -0.064
      -0.088
      -0.127
      -0.195
      -0.262
      -0.268
      -0.176
      -0.004
       0.180
       0.305
       0.336
       0.290
       0.212
       0.145
       0.101
       0.054
      -0.037
      -0.193
      -0.386
      -0.540
      -0.567
      -0.421
      -0.136
       0.173
       0.370
       0.376
       0.224
       0.033
      -0.068
      -0.028
       0.111
       0.257
       0.340
       0.344
       0.283
       0.154
      -0.054
      -0.322
      -0.560
      -0.643
      -0.500
      -0.182
       0.152
       0.337
       0.308
       0.132
      -0.052
      -0.135
      -0.095
       0.019
       0.142
       0.231
       0.265
       0.222
       0.093
      -0.093
      -0.252
      -0.294
      -0.185
       0.021
       0.212
       0.289
       0.219
       0.042
      -0.163
      -0.331
      -0.431
      -0.455
      -0.378
      -0.155
       0.229
       0.689
       1.012
       0.966
       0.469
      -0.306
      -1.006
      -1.305
      -1.102
      -0.547
       0.073
       0.513
       0.670
       0.585
       0.381
       0.185
       0.072
       0.054
       0.089
       0.112
       0.078
      -0.014
      -0.115
      -0.165
      -0.134
      -0.047
       0.049
       0.125
       0.177
       0.193
       0.130
      -0.061
      -0.362
      -0.658
      -0.777
      -0.604
      -0.173
       0.339
       0.699
       0.752
       0.492
       0.057
      -0.352
      -0.568
      -0.534
      -0.315
      -0.042
       0.176
       0.305
       0.367
       0.395
       0.387
       0.322
       0.191
       0.028
      -0.104
      -0.154
      -0.125
      -0.083
      -0.115
      -0.257
      -0.446
      -0.548
      -0.445
      -0.127
       0.281
       0.585
       0.649
       0.471
       0.166
      -0.130
      -0.338
      -0.448
      -0.463
      -0.362
      -0.124
       0.217
       0.552
       0.740
       0.697
       0.441
       0.067
      -0.303
      -0.566
      -0.650
      -0.521
      -0.212
       0.153
       0.392
       0.366
       0.079
      -0.298
      -0.533
      -0.483
      -0.194
       0.144
       0.343
       0.334
       0.186
       0.024
      -0.064
      -0.053
       0.048
       0.222
       0.430
       0.580
       0.545
       0.248
      -0.246
      -0.718
      -0.915
      -0.717
      -0.241
       0.232
       0.435
       0.294
      -0.055
      -0.380
      -0.511
      -0.407
      -0.135
       0.208
       0.536
       0.769
       0.821
       0.634
       0.234
      -0.245
      -0.623
      -0.769
      -0.661
      -0.372
      -0.016
       0.302
       0.491
       0.488
       0.277
      -0.071
      -0.404
      -0.550
      -0.425
      -0.090
       0.273
       0.476
       0.433
       0.196
      -0.104
      -0.332
      -0.410
      -0.321
      -0.102
       0.174
       0.413
       0.516
       0.423
       0.162
      -0.146
      -0.342
      -0.340
      -0.186
      -0.035
      -0.027
      -0.175
      -0.346
      -0.361
      -0.131
       0.266
       0.639
       0.798
       0.673
       0.340
      -0.044
      -0.338
      -0.490
      -0.535
      -0.531
      -0.493
      -0.371
      -0.115
       0.253
       0.599
       0.746
       0.593
       0.190
      -0.280
      -0.615
      -0.695
      -0.524
      -0.202
       0.139
       0.379
       0.444
       0.332
       0.111
      -0.107
      -0.228
      -0.217
      -0.089
       0.120
       0.371
       0.597
       0.683
       0.513
       0.065
      -0.521
      -0.975
      -1.041
      -0.650
       0.014
       0.600
       0.792
       0.504
      -0.069
      -0.583
      -0.748
      -0.489
       0.042
       0.582
       0.898
       0.892
       0.605
       0.162
      -0.298
      -0.657
      -0.831
      -0.772
      -0.506
      -0.150
       0.135
       0.250
       0.230
       0.199
       0.254
       0.367
       0.424
       0.336
       0.130
      -0.084
      -0.221
      -0.293
      -0.373
      -0.486
      -0.549
      -0.442
      -0.133
       0.259
       0.538
       0.595
       0.480
       0.334
       0.232
       0.128
      -0.060
      -0.301
      -0.435
      -0.303
       0.079
       0.477
       0.593
       0.283
      -0.316
      -0.873
      -1.076
      -0.836
      -0.320
       0.190
       0.493
       0.565
       0.506
       0.426
       0.366
       0.305
       0.207
       0.063
      -0.109
      -0.285
      -0.435
      -0.516
      -0.466
      -0.233
       0.169
       0.618
       0.915
       0.891
       0.520
      -0.055
      -0.617
      -0.991
      -1.101
      -0.941
      -0.552
      -0.029
       0.460
       0.718
       0.627
       0.251
      -0.173
      -0.369
      -0.198
       0.240
       0.663
       0.794
       0.544
       0.070
      -0.348
      -0.502
      -0.382
      -0.137
       0.060
       0.134
       0.109
       0.035
      -0.077
      -0.239
      -0.426
      -0.559
      -0.551
      -0.380
      -0.101
       0.203
       0.473
       0.666
       0.727
       0.598
       0.289
      -0.083
      -0.340
      -0.377
      -0.252
      -0.131
      -0.153
      -0.300
      -0.416
      -0.332
      -0.005
       0.446
       0.824
       0.972
       0.847
       0.510
       0.073
      -0.352
      -0.680
      -0.848
      -0.813
      -0.558
      -0.125
       0.353
       0.672
       0.656
       0.277
      -0.294
      -0.779
      -0.949
      -0.746
      -0.279
       0.266
       0.711
       0.936
       0.906
       0.655
       0.266
      -0.168
      -0.567
      -0.847
      -0.922
      -0.735
      -0.320
       0.179
       0.572
       0.730
       0.663
       0.485
       0.318
       0.204
       0.106
      -0.041
      -0.257
      -0.499
      -0.683
      -0.731
      -0.605
      -0.324
       0.040
       0.380
       0.585
       0.592
       0.426
       0.195
       0.041
       0.049
       0.186
       0.324
       0.332
       0.167
      -0.117
      -0.424
      -0.680
      -0.833
      -0.822
      -0.584
      -0.117
       0.457
       0.929
       1.109
       0.947
       0.543
       0.063
      -0.361
      -0.668
      -0.842
      -0.865
      -0.733
      -0.497
      -0.263
      -0.116
      -0.039
       0.078
       0.324
       0.649
       0.883
       0.881
       0.662
       0.416
       0.345
       0.486
       0.663
       0.618
       0.217
      -0.437
      -1.083
      -1.497
      -1.609
      -1.488
      -1.211
      -0.787
      -0.194
       0.507
       1.125
       1.434
       1.328
       0.910
       0.434
       0.130
       0.066
       0.138
       0.181
       0.101
      -0.077
      -0.277
      -0.456
      -0.609
      -0.712
      -0.688
      -0.460
      -0.066
       0.309
       0.443
       0.248
      -0.136
      -0.426
      -0.398
      -0.048
       0.411
       0.716
       0.732
       0.524
       0.261
       0.072
      -0.034
      -0.117
      -0.212
      -0.272
      -0.220
      -0.035
       0.206
       0.361
       0.318
       0.066
      -0.303
      -0.653
      -0.866
      -0.876
      -0.665
      -0.259
       0.256
       0.727
       0.984
       0.936
       0.644
       0.298
       0.084
       0.046
       0.059
      -0.039
      -0.300
      -0.620
      -0.842
      -0.889
      -0.800
      -0.646
      -0.441
      -0.132
       0.314
       0.832
       1.259
       1.417
       1.228
       0.766
       0.202
      -0.302
      -0.683
      -0.972
      -1.222
      -1.420
      -1.462
      -1.211
      -0.583
       0.367
       1.431
       2.305
       2.700
       2.452
       1.599
       0.388
      -0.812
      -1.660
      -1.999
      -1.903
      -1.585
      -1.222
      -0.855
      -0.427
       0.094
       0.633
       1.054
       1.285
       1.365
       1.372
       1.301
       1.018
       0.378
      -0.596
      -1.626
      -2.298
      -2.314
      -1.687
      -0.718
       0.205
       0.841
       1.187
       1.387
       1.565
       1.704
       1.654
       1.249
       0.452
      -0.582
      -1.559
      -2.175
      -2.248
      -1.774
      -0.885
       0.218
       1.307
       2.143
       2.506
       2.265
       1.451
       0.267
      -0.985
      -2.014
      -2.630
      -2.760
      -2.429
      -1.731
      -0.797
       0.224
       1.192
       1.990
       2.522
       2.703
       2.469
       1.820
       0.862
      -0.202
      -1.135
      -1.757
      -2.005
      -1.927
      -1.630
      -1.210
      -0.710
      -0.136
       0.488
       1.064
       1.430
       1.453
       1.135
       0.643
       0.212
      -0.014
      -0.079
      -0.147
      -0.346
      -0.648
      -0.897
      -0.932
      -0.691
      -0.238
       0.293
       0.754
       1.019
       1.010
       0.725
       0.270
      -0.160
      -0.365
      -0.271
      -0.011
       0.129
      -0.094
      -0.678
      -1.335
      -1.664
      -1.417
      -0.659
       0.292
       1.068
       1.447
       1.414
       1.107
       0.706
       0.352
       0.118
       0.010
      -0.022
      -0.056
      -0.158
      -0.336
      -0.533
      -0.672
      -0.710
      -0.642
      -0.470
      -0.187
       0.168
       0.475
       0.584
       0.457
       0.254
       0.256
       0.635
       1.253
       1.696
       1.529
       0.599
      -0.848
      -2.296
      -3.212
      -3.278
      -2.492
      -1.160
       0.229
       1.220
       1.626
       1.606
       1.508
       1.581
       1.772
       1.798
       1.404
       0.584
      -0.416
      -1.298
      -1.905
      -2.240
      -2.320
      -2.048
      -1.264
       0.044
       1.578
       2.795
       3.192
       2.612
       1.328
      -0.142
      -1.334
      -2.033
      -2.267
      -2.169
      -1.849
      -1.353
      -0.701
       0.048
       0.766
       1.292
       1.505
       1.409
       1.148
       0.953
       1.019
       1.352
       1.702
       1.648
       0.870
      -0.568
      -2.152
      -3.188
      -3.253
      -2.469
      -1.375
      -0.497
       0.025
       0.451
       1.099
       1.976
       2.701
       2.775
       1.965
       0.485
      -1.122
      -2.289
      -2.691
      -2.342
      -1.513
      -0.563
       0.226
       0.751
       1.068
       1.292
       1.469
       1.526
       1.339
       0.847
       0.126
      -0.643
      -1.248
      -1.548
      -1.528
      -1.283
      -0.930
      -0.519
      -0.025
       0.568
       1.169
       1.593
       1.685
       1.441
       1.006
       0.540
       0.091
      -0.392
      -0.926
      -1.389
      -1.577
      -1.384
      -0.921
      -0.458
      -0.209
      -0.173
      -0.149
       0.088
       0.602
       1.236
       1.698
       1.725
       1.214
       0.279
      -0.790
      -1.623
      -1.921
      -1.576
      -0.719
       0.352
       1.302
       1.866
       1.895
       1.359
       0.363
      -0.838
      -1.850
      -2.254
      -1.812
      -0.637
       0.794
       1.856
       2.085
       1.416
       0.185
      -1.070
      -1.868
      -1.953
      -1.339
      -0.268
       0.865
       1.630
       1.743
       1.219
       0.390
      -0.294
      -0.556
      -0.456
      -0.281
      -0.262
      -0.380
      -0.418
      -0.203
       0.211
       0.587
       0.723
       0.614
       0.411
       0.226
      -0.006
      -0.444
      -1.107
      -1.728
      -1.893
      -1.369
      -0.335
       0.741
       1.440
       1.653
       1.555
       1.364
       1.150
       0.840
       0.372
      -0.184
      -0.661
      -0.920
      -0.957
      -0.877
      -0.777
      -0.674
      -0.527
      -0.331
      -0.164
      -0.125
      -0.215
      -0.292
      -0.187
       0.131
       0.494
       0.683
       0.650
       0.575
       0.671
       0.922
       1.018
       0.610
      -0.335
      -1.406
      -1.995
      -1.748
      -0.822
       0.253
       0.974
       1.180
       1.031
       0.772
       0.519
       0.256
      -0.044
      -0.342
      -0.568
      -0.701
      -0.770
      -0.796
      -0.742
      -0.545
      -0.195
       0.229
       0.601
       0.850
       0.989
       1.062
       1.041
       0.802
       0.232
      -0.605
      -1.409
      -1.786
      -1.506
      -0.673
       0.334
       1.118
       1.492
       1.503
       1.286
       0.901
       0.329
      -0.402
      -1.135
      -1.646
      -1.801
      -1.626
      -1.238
      -0.699
       0.007
       0.860
       1.662
       2.062
       1.784
       0.884
      -0.232
      -1.061
      -1.341
      -1.184
      -0.890
      -0.650
      -0.410
      -0.001
       0.625
       1.289
       1.703
       1.676
       1.223
       0.512
      -0.263
      -0.959
      -1.465
      -1.664
      -1.463
      -0.894
      -0.170
       0.401
       0.586
       0.380
      -0.010
      -0.304
      -0.313
      -0.007
       0.510
       1.054
       1.405
       1.380
       0.919
       0.148
      -0.665
      -1.238
      -1.418
      -1.228
      -0.818
      -0.350
       0.073
       0.418
       0.681
       0.847
       0.877
       0.736
       0.422
      -0.007
      -0.451
      -0.797
      -0.958
      -0.889
      -0.599
      -0.162
       0.288
       0.609
       0.721
       0.669
       0.580
       0.558
       0.575
       0.467
       0.057
      -0.665
      -1.451
      -1.892
      -1.665
      -0.751
       0.512
       1.592
       2.014
       1.599
       0.545
      -0.668
      -1.510
      -1.664
      -1.155
      -0.285
       0.564
       1.127
       1.318
       1.169
       0.746
       0.136
      -0.514
      -0.993
      -1.103
      -0.788
      -0.202
       0.347
       0.562
       0.348
      -0.105
      -0.426
      -0.306
       0.267
       0.982
       1.399
       1.233
       0.517
      -0.452
      -1.308
      -1.793
      -1.812
      -1.387
      -0.612
       0.349
       1.250
       1.818
       1.869
       1.417
       0.679
      -0.056
      -0.604
      -0.946
      -1.151
      -1.249
      -1.202
      -0.977
      -0.607
      -0.165
       0.304
       0.791
       1.247
       1.533
       1.485
       1.042
       0.334
      -0.378
      -0.856
      -1.012
      -0.911
      -0.674
      -0.369
      -0.015
       0.335
       0.528
       0.386
      -0.112
      -0.724
      -1.043
      -0.776
       0.007
       0.892
       1.400
       1.316
       0.803
       0.227
      -0.136
      -0.267
      -0.331
      -0.471
      -0.679
      -0.823
      -0.799
      -0.617
      -0.373
      -0.141
       0.103
       0.437
       0.891
       1.354
       1.596
       1.387
       0.658
      -0.406
      -1.408
      -1.938
      -1.789
      -1.080
      -0.178
       0.511
       0.763
       0.606
       0.264
       0.003
      -0.002
       0.257
       0.615
       0.822
       0.696
       0.261
      -0.237
      -0.499
      -0.399
      -0.093
       0.117
       0.039
      -0.248
      -0.494
      -0.516
      -0.339
      -0.124
       0.024
       0.132
       0.273
       0.418
       0.426
