Origin Time       17/9/2010 19:21:09	 UTC
Lat.              36.5 N	
Long.             70.8 E	
Depth (Km)        167.0
Magnitude         6.5
 Region           Hindukush                                                        
 Above details taken from IMD 
    
Station Code      BHA
Station Lat.       31.552  N
Station Long.      77.923  E
Station Height(m) 1566.0
Site Class        A   Vs30 between 700 m/sec to 1400 m/sec * 
Record Time       17.09.2010 19:23:56.629 UTC
Sampling Rate     200. Hz
 Record Duration   86.390 Sec.
 Direction         N-S (N positive)
Max. Acceleration      4.205 cm/sec**2
     
  * For reference see Site Classification link of website 
     
 Base Line Corrected and Low Pass Filtered (Cut Off at 35 Hz) Time History
 Acceleration data in cm/sec**2
    
[...]
       0.102
       0.009
      -0.090
      -0.191
      -0.282
      -0.351
      -0.392
      -0.409
      -0.407
      -0.395
      -0.375
      -0.348
      -0.317
      -0.286
      -0.254
      -0.219
      -0.179
      -0.135
      -0.090
      -0.047
      -0.003
       0.040
       0.080
       0.113
       0.136
       0.149
       0.158
       0.167
       0.175
       0.177
       0.167
       0.145
       0.113
       0.072
       0.026
      -0.020
      -0.065
      -0.107
      -0.142
      -0.171
      -0.194
      -0.213
      -0.232
      -0.251
      -0.270
      -0.281
      -0.278
      -0.260
      -0.228
      -0.185
      -0.134
      -0.078
      -0.021
       0.031
       0.072
       0.102
       0.124
       0.146
       0.173
       0.208
       0.249
       0.291
       0.325
       0.349
       0.360
       0.360
       0.355
       0.348
       0.342
       0.336
       0.328
       0.314
       0.289
       0.250
       0.198
       0.140
       0.086
       0.043
       0.010
      -0.025
      -0.076
      -0.146
      -0.223
      -0.289
      -0.330
      -0.348
      -0.357
      -0.367
      -0.380
      -0.391
      -0.395
      -0.386
      -0.361
      -0.318
      -0.254
      -0.169
      -0.074
       0.018
       0.094
       0.146
       0.175
       0.189
       0.198
       0.210
       0.219
       0.216
       0.192
       0.146
       0.084
       0.013
      -0.056
      -0.116
      -0.161
      -0.193
      -0.216
      -0.237
      -0.266
      -0.302
      -0.334
      -0.347
      -0.331
      -0.290
      -0.235
      -0.177
      -0.118
      -0.056
       0.018
       0.105
       0.203
       0.302
       0.390
       0.457
       0.494
       0.497
       0.473
       0.432
       0.387
       0.349
       0.326
       0.320
       0.329
       0.346
       0.362
       0.372
       0.379
       0.385
       0.388
       0.380
       0.348
       0.284
       0.197
       0.107
       0.029
      -0.029
      -0.073
      -0.113
      -0.156
      -0.202
      -0.248
      -0.294
      -0.341
      -0.390
      -0.437
      -0.475
      -0.502
      -0.520
      -0.531
      -0.536
      -0.533
      -0.521
      -0.497
      -0.462
      -0.417
      -0.362
      -0.296
      -0.217
      -0.123
      -0.017
       0.098
       0.214
       0.325
       0.426
       0.518
       0.597
       0.659
       0.700
       0.713
       0.694
       0.641
       0.559
       0.457
       0.347
       0.236
       0.128
       0.021
      -0.089
      -0.207
      -0.335
      -0.469
      -0.601
      -0.715
      -0.799
      -0.849
      -0.863
      -0.847
      -0.802
      -0.730
      -0.634
      -0.519
      -0.392
      -0.259
      -0.127
       0.000
       0.113
       0.209
       0.290
       0.361
       0.428
       0.492
       0.553
       0.604
       0.642
       0.669
       0.686
       0.697
       0.700
       0.689
       0.658
       0.607
       0.536
       0.444
       0.333
       0.207
       0.072
      -0.061
      -0.183
      -0.291
      -0.390
      -0.485
      -0.578
      -0.665
      -0.738
      -0.791
      -0.823
      -0.838
      -0.838
      -0.820
      -0.779
      -0.712
      -0.621
      -0.510
      -0.387
      -0.258
      -0.129
      -0.004
       0.114
       0.223
       0.320
       0.402
       0.465
       0.505
       0.523
       0.522
       0.508
       0.487
       0.462
       0.437
       0.415
       0.396
       0.377
       0.352
       0.312
       0.254
       0.182
       0.106
       0.042
      -0.007
      -0.041
      -0.070
      -0.102
      -0.141
      -0.183
      -0.227
      -0.275
      -0.331
      -0.394
      -0.456
      -0.507
      -0.538
      -0.553
      -0.561
      -0.568
      -0.573
      -0.562
      -0.519
      -0.437
      -0.329
      -0.215
      -0.116
      -0.038
       0.027
       0.093
       0.173
       0.269
       0.374
       0.477
       0.568
       0.640
       0.682
       0.688
       0.660
       0.609
       0.548
       0.487
       0.424
       0.352
       0.266
       0.173
       0.085
       0.013
      -0.043
      -0.086
      -0.126
      -0.169
      -0.219
      -0.275
      -0.328
      -0.371
      -0.405
      -0.433
      -0.461
      -0.487
      -0.503
      -0.500
      -0.471
      -0.418
      -0.346
      -0.266
      -0.183
      -0.102
      -0.025
       0.047
       0.113
       0.175
       0.239
       0.312
       0.396
       0.486
       0.572
       0.641
       0.688
       0.716
       0.726
       0.720
       0.697
       0.651
       0.578
       0.481
       0.365
       0.239
       0.113
      -0.003
      -0.102
      -0.183
      -0.254
      -0.330
      -0.423
      -0.533
      -0.652
      -0.764
      -0.858
      -0.927
      -0.965
      -0.971
      -0.943
      -0.885
      -0.801
      -0.698
      -0.575
      -0.427
      -0.255
      -0.066
       0.129
       0.314
       0.484
       0.637
       0.773
       0.891
       0.983
       1.039
       1.055
       1.033
       0.983
       0.917
       0.842
       0.760
       0.672
       0.578
       0.480
       0.378
       0.269
       0.150
       0.023
      -0.107
      -0.230
      -0.339
      -0.428
      -0.500
      -0.557
      -0.601
      -0.630
      -0.645
      -0.647
      -0.642
      -0.636
      -0.632
      -0.624
      -0.603
      -0.559
      -0.496
      -0.422
      -0.344
      -0.263
      -0.175
      -0.079
       0.024
       0.124
       0.217
       0.301
       0.374
       0.434
       0.477
       0.503
       0.514
       0.518
       0.518
       0.514
       0.505
       0.490
       0.469
       0.440
       0.399
       0.339
       0.260
       0.165
       0.064
      -0.036
      -0.129
      -0.212
      -0.286
      -0.350
      -0.406
      -0.459
      -0.513
      -0.571
      -0.629
      -0.685
      -0.730
      -0.756
      -0.761
      -0.744
      -0.707
      -0.647
      -0.565
      -0.461
      -0.342
      -0.217
      -0.095
       0.015
       0.110
       0.187
       0.249
       0.303
       0.360
       0.428
       0.504
       0.584
       0.663
       0.735
       0.797
       0.842
       0.863
       0.858
       0.827
       0.774
       0.707
       0.629
       0.539
       0.435
       0.315
       0.179
       0.033
      -0.110
      -0.235
      -0.332
      -0.400
      -0.444
      -0.471
      -0.485
      -0.490
      -0.488
      -0.486
      -0.485
      -0.487
      -0.490
      -0.494
      -0.497
      -0.499
      -0.496
      -0.481
      -0.450
      -0.399
      -0.332
      -0.259
      -0.188
      -0.128
      -0.080
      -0.041
      -0.006
       0.034
       0.087
       0.159
       0.253
       0.365
       0.488
       0.614
       0.729
       0.817
       0.868
       0.877
       0.849
       0.794
       0.721
       0.635
       0.537
       0.423
       0.290
       0.140
      -0.026
      -0.200
      -0.376
      -0.545
      -0.702
      -0.842
      -0.964
      -1.066
      -1.148
      -1.207
      -1.236
      -1.230
      -1.187
      -1.117
      -1.026
      -0.922
      -0.802
      -0.663
      -0.500
      -0.318
      -0.125
       0.069
       0.257
       0.436
       0.601
       0.751
       0.881
       0.989
       1.070
       1.123
       1.149
       1.151
       1.133
       1.096
       1.045
       0.984
       0.919
       0.850
       0.775
       0.694
       0.609
       0.527
       0.449
       0.371
       0.286
       0.187
       0.074
      -0.042
      -0.151
      -0.248
      -0.335
      -0.413
      -0.481
      -0.531
      -0.559
      -0.570
      -0.580
      -0.603
      -0.642
      -0.687
      -0.725
      -0.744
      -0.746
      -0.731
      -0.701
      -0.651
      -0.578
      -0.484
      -0.379
      -0.278
      -0.191
      -0.120
      -0.061
      -0.010
       0.038
       0.083
       0.125
       0.164
       0.200
       0.235
       0.265
       0.290
       0.305
       0.316
       0.324
       0.332
       0.338
       0.340
       0.339
       0.337
       0.342
       0.356
       0.375
       0.390
       0.397
       0.392
       0.379
       0.356
       0.321
       0.272
       0.206
       0.126
       0.039
      -0.051
      -0.140
      -0.224
      -0.302
      -0.369
      -0.419
      -0.446
      -0.452
      -0.443
      -0.430
      -0.418
      -0.405
      -0.386
      -0.361
      -0.330
      -0.292
      -0.246
      -0.194
      -0.142
      -0.094
      -0.050
      -0.006
       0.040
       0.085
       0.117
       0.127
       0.112
       0.080
       0.040
       0.005
      -0.017
      -0.021
      -0.006
       0.023
       0.063
       0.110
       0.160
       0.211
       0.258
       0.295
       0.315
       0.316
       0.301
       0.277
       0.247
       0.218
       0.194
       0.181
       0.184
       0.197
       0.212
       0.217
       0.208
       0.182
       0.146
       0.105
       0.061
       0.013
      -0.040
      -0.097
      -0.153
      -0.206
      -0.257
      -0.308
      -0.356
      -0.399
      -0.435
      -0.461
      -0.471
      -0.461
      -0.426
      -0.366
      -0.285
      -0.190
      -0.086
       0.025
       0.142
       0.259
       0.373
       0.479
       0.573
       0.651
       0.708
       0.740
       0.745
       0.724
       0.680
       0.620
       0.549
       0.476
       0.405
       0.337
       0.271
       0.199
       0.115
       0.015
      -0.099
      -0.221
      -0.344
      -0.458
      -0.556
      -0.636
      -0.700
      -0.750
      -0.787
      -0.811
      -0.818
      -0.810
      -0.787
      -0.754
      -0.715
      -0.675
      -0.633
      -0.585
      -0.526
      -0.452
      -0.361
      -0.254
      -0.132
      -0.001
       0.135
       0.268
       0.391
       0.501
       0.595
       0.670
       0.724
       0.758
       0.776
       0.782
       0.777
       0.761
       0.733
       0.693
       0.642
       0.582
       0.516
       0.440
       0.352
       0.247
       0.128
       0.002
      -0.117
      -0.219
      -0.300
      -0.363
      -0.424
      -0.495
      -0.582
      -0.684
      -0.787
      -0.876
      -0.935
      -0.957
      -0.945
      -0.903
      -0.837
      -0.749
      -0.641
      -0.514
      -0.374
      -0.227
      -0.083
       0.050
       0.167
       0.261
       0.332
       0.382
       0.423
       0.465
       0.518
       0.579
       0.634
       0.666
       0.665
       0.629
       0.564
       0.470
       0.349
       0.206
       0.056
      -0.085
      -0.205
      -0.300
      -0.370
      -0.417
      -0.439
      -0.432
      -0.394
      -0.328
      -0.245
      -0.161
      -0.088
      -0.033
       0.009
       0.042
       0.071
       0.095
       0.114
       0.130
       0.145
       0.163
       0.185
       0.207
       0.224
       0.228
       0.215
       0.180
       0.126
       0.055
      -0.026
      -0.113
      -0.205
      -0.303
      -0.409
      -0.521
      -0.629
      -0.723
      -0.791
      -0.827
      -0.825
      -0.786
      -0.710
      -0.603
      -0.470
      -0.313
      -0.135
       0.064
       0.277
       0.498
       0.716
       0.922
       1.105
       1.256
       1.371
       1.448
       1.487
       1.487
       1.439
       1.336
       1.176
       0.962
       0.710
       0.439
       0.166
      -0.098
      -0.346
      -0.573
      -0.772
      -0.939
      -1.076
      -1.188
      -1.278
      -1.345
      -1.380
      -1.374
      -1.325
      -1.237
      -1.114
      -0.955
      -0.757
      -0.521
      -0.257
       0.021
       0.298
       0.566
       0.821
       1.061
       1.281
       1.478
       1.645
       1.775
       1.863
       1.904
       1.893
       1.822
       1.685
       1.473
       1.188
       0.839
       0.447
       0.032
      -0.386
      -0.797
      -1.193
      -1.570
      -1.916
      -2.215
      -2.445
      -2.592
      -2.645
      -2.602
      -2.466
      -2.242
      -1.941
      -1.577
      -1.169
      -0.737
      -0.298
       0.138
       0.569
       0.998
       1.429
       1.852
       2.250
       2.607
       2.913
       3.164
       3.354
       3.471
       3.506
       3.451
       3.310
       3.088
       2.799
       2.457
       2.070
       1.642
       1.181
       0.699
       0.209
      -0.281
      -0.766
      -1.241
      -1.701
      -2.141
      -2.559
      -2.948
      -3.293
      -3.574
      -3.775
      -3.889
      -3.919
      -3.869
      -3.739
      -3.531
      -3.250
      -2.907
      -2.516
      -2.084
      -1.618
      -1.130
      -0.636
      -0.153
       0.310
       0.752
       1.179
       1.591
       1.978
       2.324
       2.622
       2.877
       3.099
       3.286
       3.410
       3.434
       3.335
       3.119
       2.810
       2.428
       1.982
       1.473
       0.907
       0.300
      -0.328
      -0.957
      -1.563
      -2.129
      -2.640
      -3.093
      -3.482
      -3.800
      -4.031
      -4.156
      -4.159
      -4.034
      -3.784
      -3.421
      -2.959
      -2.413
      -1.800
      -1.135
      -0.436
       0.280
       0.993
       1.672
       2.292
       2.832
       3.289
       3.660
       3.943
       4.129
       4.205
       4.159
       3.984
       3.679
       3.260
       2.753
       2.194
       1.605
       0.995
       0.359
      -0.302
      -0.972
      -1.618
      -2.203
      -2.698
      -3.095
      -3.404
      -3.636
      -3.788
      -3.845
      -3.794
      -3.635
      -3.377
      -3.037
      -2.627
      -2.162
      -1.658
      -1.128
      -0.580
      -0.021
       0.542
       1.092
       1.611
       2.079
       2.482
       2.808
       3.050
       3.206
       3.283
       3.287
       3.216
       3.060
       2.812
       2.480
       2.083
       1.644
       1.180
       0.702
       0.224
      -0.241
      -0.676
      -1.070
      -1.411
      -1.689
      -1.897
      -2.030
      -2.093
      -2.095
      -2.041
      -1.936
      -1.788
      -1.606
      -1.400
      -1.174
      -0.931
      -0.680
      -0.440
      -0.231
      -0.065
       0.057
       0.143
       0.200
       0.231
       0.236
       0.221
       0.191
       0.153
       0.107
       0.053
      -0.009
      -0.068
      -0.104
      -0.101
      -0.052
       0.038
       0.159
       0.305
       0.480
       0.682
       0.900
       1.113
       1.293
       1.414
       1.462
       1.435
       1.346
       1.212
       1.050
       0.874
       0.698
       0.529
       0.374
       0.235
       0.114
       0.016
      -0.056
      -0.099
      -0.117
      -0.119
      -0.106
      -0.080
      -0.034
       0.038
       0.136
       0.258
       0.392
       0.524
       0.642
       0.737
       0.800
       0.822
       0.794
       0.718
       0.603
       0.458
       0.295
       0.117
      -0.075
      -0.285
      -0.509
      -0.734
      -0.940
      -1.112
      -1.245
      -1.346
      -1.423
      -1.481
      -1.515
      -1.515
      -1.481
      -1.416
      -1.330
      -1.236
      -1.143
      -1.057
      -0.979
      -0.905
      -0.825
      -0.725
      -0.590
      -0.414
      -0.200
       0.038
       0.283
       0.519
       0.736
       0.925
       1.077
       1.180
       1.222
       1.194
       1.094
       0.924
       0.694
       0.420
       0.117
      -0.202
      -0.525
      -0.847
      -1.159
      -1.451
      -1.709
      -1.925
      -2.095
      -2.214
      -2.276
      -2.269
      -2.181
      -2.006
      -1.744
      -1.406
      -1.001
      -0.538
      -0.031
       0.498
       1.023
       1.517
       1.962
       2.344
       2.649
       2.865
       2.983
       2.998
       2.911
       2.731
       2.473
       2.150
       1.780
       1.377
       0.948
       0.500
       0.038
      -0.428
      -0.878
      -1.287
      -1.637
      -1.917
      -2.130
      -2.281
      -2.368
      -2.379
      -2.298
      -2.117
      -1.840
      -1.487
      -1.085
      -0.662
      -0.246
       0.148
       0.509
       0.826
       1.090
       1.295
       1.443
       1.546
       1.617
       1.663
       1.689
       1.697
       1.697
       1.695
       1.692
       1.681
       1.652
       1.599
       1.523
       1.425
       1.313
       1.191
       1.059
       0.922
       0.786
       0.662
       0.556
       0.462
       0.361
       0.237
       0.084
      -0.087
      -0.255
      -0.403
      -0.520
      -0.609
      -0.671
      -0.709
      -0.722
      -0.707
      -0.663
      -0.599
      -0.526
      -0.461
      -0.410
      -0.377
      -0.360
      -0.364
      -0.394
      -0.453
      -0.534
      -0.625
      -0.719
      -0.813
      -0.908
      -1.000
      -1.082
      -1.139
      -1.153
      -1.111
      -1.010
      -0.856
      -0.667
      -0.463
      -0.257
      -0.058
       0.131
       0.307
       0.467
       0.612
       0.743
       0.861
       0.965
       1.049
       1.105
       1.122
       1.093
       1.012
       0.877
       0.690
       0.454
       0.181
      -0.112
      -0.402
      -0.666
      -0.891
      -1.067
      -1.196
      -1.280
      -1.325
      -1.338
      -1.332
      -1.317
      -1.295
      -1.265
      -1.212
      -1.118
      -0.975
      -0.788
      -0.575
      -0.352
      -0.131
       0.084
       0.290
       0.477
       0.639
       0.770
       0.868
       0.933
       0.960
       0.947
       0.899
       0.828
       0.744
       0.649
       0.543
       0.424
       0.297
       0.169
       0.042
      -0.083
      -0.207
      -0.325
      -0.434
      -0.529
      -0.605
      -0.657
      -0.680
      -0.672
      -0.629
      -0.551
      -0.438
      -0.294
      -0.128
       0.046
       0.219
       0.385
       0.540
       0.675
       0.782
       0.856
       0.896
       0.901
       0.876
       0.829
       0.771
       0.712
       0.658
       0.605
       0.551
       0.492
       0.430
       0.368
       0.308
       0.250
       0.188
       0.118
       0.038
      -0.054
      -0.156
      -0.260
      -0.353
      -0.419
      -0.448
      -0.442
      -0.412
      -0.375
      -0.345
      -0.333
      -0.343
      -0.375
      -0.427
      -0.487
      -0.541
      -0.570
      -0.565
      -0.525
      -0.459
      -0.381
      -0.302
      -0.228
      -0.159
      -0.093
      -0.028
       0.042
       0.124
       0.218
       0.322
       0.430
       0.528
       0.602
       0.641
       0.642
       0.607
       0.540
       0.447
       0.332
       0.201
       0.064
      -0.068
      -0.181
      -0.259
      -0.295
      -0.287
      -0.242
      -0.173
      -0.095
      -0.018
       0.053
       0.113
       0.163
       0.206
       0.249
       0.298
       0.354
       0.411
       0.460
       0.493
       0.507
       0.502
       0.475
       0.420
       0.330
       0.207
       0.060
      -0.092
      -0.231
