Origin Time       1/5/2013 06:57:12	  UTC
Lat.              33.1 N	
Long.             75.8 E	
Depth (Km)         15.0
Magnitude         5.8
 Region           JK-HP-Border                                                     
 Above details taken from IMD 
    
Station Code      JMU
Station Lat.       32.732  N
Station Long.      74.874  E
Station Height(m)  361.0
Site Class        B   Vs30 between 375 m/sec to 700 m/sec *  
Record Time       01.05.2013 06:57:06.234 UTC
Sampling Rate     200. Hz
 Record Duration  111.850 Sec.
 Direction         N-S (N positive)
Max. Acceleration     -4.024 cm/sec**2
     
  * For reference see Site Classification link of website 
     
 Base Line Corrected and Low Pass Filtered (Cut Off at 35 Hz) Time History
 Acceleration data in cm/sec**2
    
[...]
      -0.346
      -0.528
      -0.706
      -0.834
      -0.890
      -0.885
      -0.853
      -0.823
      -0.789
      -0.713
      -0.566
      -0.358
      -0.143
       0.010
       0.056
       0.006
      -0.065
      -0.072
       0.018
       0.169
       0.312
       0.383
       0.354
       0.222
       0.015
      -0.229
      -0.473
      -0.693
      -0.879
      -1.038
      -1.184
      -1.338
      -1.501
      -1.653
      -1.767
      -1.824
      -1.825
      -1.781
      -1.701
      -1.574
      -1.380
      -1.097
      -0.728
      -0.308
       0.109
       0.461
       0.694
       0.785
       0.748
       0.638
       0.517
       0.434
       0.403
       0.404
       0.396
       0.327
       0.153
      -0.150
      -0.554
      -0.974
      -1.288
      -1.397
      -1.276
      -0.963
      -0.524
      -0.024
       0.482
       0.946
       1.331
       1.622
       1.833
       2.002
       2.174
       2.366
       2.561
       2.731
       2.853
       2.907
       2.876
       2.749
       2.529
       2.224
       1.843
       1.394
       0.901
       0.396
      -0.094
      -0.540
      -0.915
      -1.202
      -1.405
      -1.542
      -1.636
      -1.699
      -1.736
      -1.731
      -1.653
      -1.492
      -1.287
      -1.115
      -1.036
      -1.059
      -1.133
      -1.169
      -1.081
      -0.827
      -0.441
      -0.013
       0.354
       0.590
       0.673
       0.629
       0.518
       0.410
       0.357
       0.384
       0.496
       0.682
       0.918
       1.177
       1.430
       1.650
       1.799
       1.854
       1.825
       1.760
       1.706
       1.688
       1.698
       1.722
       1.757
       1.809
       1.891
       2.009
       2.159
       2.340
       2.557
       2.811
       3.078
       3.302
       3.417
       3.372
       3.140
       2.735
       2.193
       1.563
       0.890
       0.222
      -0.386
      -0.880
      -1.217
      -1.382
      -1.402
      -1.339
      -1.265
      -1.227
      -1.231
      -1.251
      -1.250
      -1.195
      -1.067
      -0.879
      -0.674
      -0.503
      -0.395
      -0.348
      -0.349
      -0.387
      -0.461
      -0.571
      -0.704
      -0.814
      -0.839
      -0.742
      -0.540
      -0.291
      -0.054
       0.133
       0.268
       0.383
       0.542
       0.804
       1.194
       1.688
       2.220
       2.694
       3.013
       3.113
       2.995
       2.711
       2.332
       1.928
       1.567
       1.305
       1.172
       1.150
       1.173
       1.147
       0.986
       0.659
       0.212
      -0.261
      -0.663
      -0.931
      -1.036
      -0.977
      -0.784
      -0.504
      -0.181
       0.152
       0.466
       0.737
       0.947
       1.090
       1.178
       1.233
       1.285
       1.352
       1.436
       1.530
       1.632
       1.744
       1.849
       1.906
       1.874
       1.752
       1.585
       1.452
       1.418
       1.490
       1.600
       1.645
       1.553
       1.330
       1.056
       0.845
       0.771
       0.838
       0.979
       1.106
       1.158
       1.116
       1.007
       0.881
       0.790
       0.772
       0.837
       0.965
       1.105
       1.175
       1.089
       0.805
       0.357
      -0.166
      -0.657
      -1.041
      -1.280
      -1.371
      -1.325
      -1.167
      -0.932
      -0.684
      -0.496
      -0.424
      -0.476
      -0.613
      -0.772
      -0.880
      -0.895
      -0.834
      -0.768
      -0.766
      -0.838
      -0.929
      -0.973
      -0.941
      -0.859
      -0.780
      -0.739
      -0.718
      -0.652
      -0.479
      -0.191
       0.174
       0.558
       0.908
       1.193
       1.413
       1.607
       1.825
       2.100
       2.420
       2.737
       2.978
       3.071
       2.981
       2.731
       2.375
       1.965
       1.540
       1.130
       0.754
       0.407
       0.055
      -0.338
      -0.776
      -1.231
      -1.648
      -1.972
      -2.177
      -2.268
      -2.266
      -2.190
      -2.056
      -1.912
      -1.834
      -1.893
      -2.109
      -2.428
      -2.749
      -2.963
      -3.009
      -2.900
      -2.722
      -2.578
      -2.539
      -2.603
      -2.711
      -2.786
      -2.773
      -2.651
      -2.427
      -2.124
      -1.785
      -1.465
      -1.209
      -1.029
      -0.908
      -0.822
      -0.755
      -0.709
      -0.700
      -0.736
      -0.802
      -0.867
      -0.896
      -0.866
      -0.770
      -0.621
      -0.452
      -0.292
      -0.139
       0.044
       0.281
       0.547
       0.776
       0.905
       0.919
       0.869
       0.857
       0.980
       1.282
       1.733
       2.258
       2.768
       3.173
       3.408
       3.451
       3.338
       3.138
       2.920
       2.734
       2.615
       2.573
       2.584
       2.603
       2.569
       2.433
       2.185
       1.875
       1.607
       1.479
       1.519
       1.672
       1.829
       1.881
       1.756
       1.450
       1.028
       0.597
       0.247
       0.013
      -0.146
      -0.315
      -0.581
      -0.975
      -1.440
      -1.861
      -2.131
      -2.205
      -2.114
      -1.930
      -1.724
      -1.527
      -1.327
      -1.094
      -0.816
      -0.506
      -0.192
       0.094
       0.317
       0.454
       0.508
       0.515
       0.536
       0.611
       0.732
       0.833
       0.824
       0.657
       0.369
       0.071
      -0.117
      -0.128
       0.016
       0.234
       0.440
       0.588
       0.689
       0.779
       0.894
       1.052
       1.256
       1.496
       1.741
       1.946
       2.072
       2.102
       2.058
       1.989
       1.937
       1.900
       1.835
       1.688
       1.423
       1.035
       0.556
       0.044
      -0.447
      -0.889
      -1.289
      -1.653
      -1.966
      -2.203
      -2.342
      -2.368
      -2.270
      -2.048
      -1.726
      -1.359
      -1.013
      -0.755
      -0.624
      -0.620
      -0.704
      -0.820
      -0.912
      -0.923
      -0.806
      -0.558
      -0.240
       0.051
       0.236
       0.290
       0.237
       0.144
       0.095
       0.158
       0.349
       0.629
       0.915
       1.106
       1.130
       0.979
       0.724
       0.469
       0.282
       0.172
       0.093
      -0.018
      -0.216
      -0.520
      -0.897
      -1.278
      -1.602
      -1.847
      -2.027
      -2.163
      -2.256
      -2.283
      -2.212
      -2.036
      -1.792
      -1.545
      -1.349
      -1.231
      -1.187
      -1.200
      -1.261
      -1.372
      -1.538
      -1.736
      -1.903
      -1.971
      -1.916
      -1.779
      -1.649
      -1.596
      -1.628
      -1.687
      -1.694
      -1.600
      -1.412
      -1.174
      -0.943
      -0.777
      -0.720
      -0.782
      -0.932
      -1.105
      -1.236
      -1.281
      -1.237
      -1.137
      -1.029
      -0.940
      -0.861
      -0.762
      -0.613
      -0.398
      -0.131
       0.146
       0.376
       0.528
       0.605
       0.631
       0.626
       0.606
       0.592
       0.598
       0.619
       0.638
       0.632
       0.594
       0.553
       0.570
       0.700
       0.945
       1.242
       1.502
       1.647
       1.635
       1.455
       1.131
       0.708
       0.239
      -0.230
      -0.658
      -1.013
      -1.299
      -1.564
      -1.874
      -2.260
      -2.696
      -3.118
      -3.440
      -3.597
      -3.567
      -3.382
      -3.113
      -2.825
      -2.547
      -2.263
      -1.932
      -1.519
      -1.031
      -0.525
      -0.085
       0.208
       0.310
       0.214
      -0.041
      -0.382
      -0.729
      -1.026
      -1.249
      -1.384
      -1.430
      -1.398
      -1.321
      -1.245
      -1.200
      -1.191
      -1.194
      -1.174
      -1.096
      -0.941
      -0.693
      -0.354
       0.053
       0.474
       0.845
       1.126
       1.313
       1.431
       1.507
       1.545
       1.523
       1.404
       1.174
       0.858
       0.517
       0.224
       0.039
      -0.024
      -0.005
       0.026
       0.011
      -0.063
      -0.174
      -0.288
      -0.375
      -0.411
      -0.389
      -0.317
      -0.213
      -0.106
      -0.029
       0.002
       0.013
       0.072
       0.247
       0.555
       0.945
       1.315
       1.561
       1.636
       1.580
       1.492
       1.459
       1.499
       1.570
       1.603
       1.550
       1.402
       1.195
       0.992
       0.843
       0.762
       0.746
       0.791
       0.888
       1.006
       1.102
       1.136
       1.097
       0.996
       0.866
       0.738
       0.611
       0.442
       0.179
      -0.192
      -0.633
      -1.059
      -1.375
      -1.512
      -1.469
      -1.313
      -1.135
      -0.993
      -0.881
      -0.755
      -0.556
      -0.241
       0.200
       0.731
       1.277
       1.754
       2.086
       2.224
       2.156
       1.923
       1.614
       1.338
       1.171
       1.118
       1.096
       0.988
       0.716
       0.290
      -0.208
      -0.684
      -1.075
      -1.353
      -1.514
      -1.558
      -1.491
      -1.313
      -1.023
      -0.623
      -0.132
       0.389
       0.852
       1.176
       1.344
       1.402
       1.426
       1.469
       1.545
       1.646
       1.747
       1.817
       1.806
       1.663
       1.363
       0.939
       0.480
       0.079
      -0.225
      -0.449
      -0.630
      -0.776
      -0.876
      -0.918
      -0.911
      -0.876
      -0.827
      -0.757
      -0.633
      -0.443
      -0.225
      -0.058
      -0.013
      -0.112
      -0.321
      -0.575
      -0.789
      -0.874
      -0.769
      -0.471
      -0.042
       0.415
       0.791
       1.029
       1.153
       1.248
       1.394
       1.620
       1.898
       2.175
       2.398
       2.523
       2.533
       2.435
       2.249
       1.994
       1.679
       1.318
       0.922
       0.510
       0.113
      -0.225
      -0.474
      -0.636
      -0.728
      -0.750
      -0.683
      -0.520
      -0.295
      -0.077
       0.062
       0.091
       0.040
      -0.022
      -0.028
       0.051
       0.213
       0.430
       0.662
       0.855
       0.976
       1.032
       1.065
       1.113
       1.173
       1.199
       1.133
       0.954
       0.698
       0.441
       0.250
       0.146
       0.101
       0.066
      -0.007
      -0.146
      -0.348
      -0.589
      -0.838
      -1.066
      -1.253
      -1.399
      -1.522
      -1.643
      -1.763
      -1.859
      -1.900
      -1.857
      -1.713
      -1.467
      -1.146
      -0.796
      -0.471
      -0.214
      -0.051
       0.035
       0.110
       0.246
       0.465
       0.709
       0.884
       0.917
       0.791
       0.547
       0.262
       0.011
      -0.154
      -0.220
      -0.198
      -0.122
      -0.047
      -0.038
      -0.134
      -0.319
      -0.528
      -0.669
      -0.659
      -0.467
      -0.139
       0.225
       0.527
       0.718
       0.801
       0.812
       0.799
       0.814
       0.877
       0.977
       1.077
       1.153
       1.193
       1.189
       1.125
       0.971
       0.699
       0.302
      -0.185
      -0.687
      -1.116
      -1.411
      -1.551
      -1.564
      -1.509
      -1.442
      -1.379
      -1.283
      -1.105
      -0.828
      -0.482
      -0.116
       0.233
       0.541
       0.796
       0.994
       1.141
       1.251
       1.333
       1.385
       1.392
       1.344
       1.248
       1.126
       0.988
       0.817
       0.590
       0.317
       0.047
      -0.159
      -0.264
      -0.278
      -0.232
      -0.138
       0.035
       0.325
       0.728
       1.172
       1.559
       1.818
       1.939
       1.971
       1.987
       2.035
       2.120
       2.204
       2.240
       2.186
       2.010
       1.702
       1.280
       0.787
       0.274
      -0.201
      -0.581
      -0.830
      -0.952
      -0.986
      -0.983
      -0.973
      -0.952
      -0.893
      -0.759
      -0.541
      -0.284
      -0.074
       0.009
      -0.075
      -0.314
      -0.649
      -0.984
      -1.219
      -1.291
      -1.205
      -1.022
      -0.819
      -0.666
      -0.595
      -0.593
      -0.617
      -0.621
      -0.576
      -0.465
      -0.281
      -0.043
       0.202
       0.393
       0.480
       0.449
       0.327
       0.166
       0.022
      -0.086
      -0.186
      -0.320
      -0.503
      -0.711
      -0.898
      -1.022
      -1.063
      -1.021
      -0.922
      -0.806
      -0.714
      -0.683
      -0.727
      -0.829
      -0.946
      -1.036
      -1.072
      -1.043
      -0.940
      -0.763
      -0.536
      -0.304
      -0.119
      -0.009
       0.039
       0.073
       0.137
       0.246
       0.379
       0.501
       0.584
       0.612
       0.581
       0.493
       0.353
       0.164
      -0.061
      -0.298
      -0.511
      -0.669
      -0.761
      -0.792
      -0.776
      -0.728
      -0.660
      -0.578
      -0.503
      -0.466
      -0.493
      -0.573
      -0.669
      -0.733
      -0.742
      -0.698
      -0.638
      -0.617
      -0.683
      -0.845
      -1.079
      -1.345
      -1.615
      -1.869
      -2.096
      -2.304
      -2.510
      -2.738
      -3.000
      -3.297
      -3.604
      -3.867
      -4.021
      -4.024
      -3.875
      -3.600
      -3.244
      -2.865
      -2.518
      -2.226
      -1.964
      -1.689
      -1.381
      -1.056
      -0.738
      -0.440
      -0.151
       0.142
       0.424
       0.643
       0.729
       0.651
       0.447
       0.196
      -0.031
      -0.202
      -0.330
      -0.448
      -0.587
      -0.752
      -0.906
      -0.997
      -0.974
      -0.803
      -0.472
      -0.004
       0.545
       1.101
       1.604
       2.023
       2.359
       2.638
       2.884
       3.099
       3.249
       3.279
       3.145
       2.842
       2.410
       1.930
       1.492
       1.154
       0.920
       0.748
       0.574
       0.343
       0.037
      -0.314
      -0.644
      -0.897
      -1.055
      -1.144
      -1.207
      -1.282
      -1.374
      -1.463
      -1.521
      -1.534
      -1.507
      -1.456
      -1.402
      -1.363
      -1.335
      -1.285
      -1.176
      -1.008
      -0.820
      -0.665
      -0.577
      -0.559
      -0.580
      -0.586
      -0.524
      -0.360
      -0.091
       0.265
       0.673
       1.080
       1.439
       1.720
       1.910
       2.003
       2.012
       1.977
       1.945
       1.931
       1.904
       1.812
       1.625
       1.358
       1.063
       0.814
       0.668
       0.637
       0.688
       0.761
       0.792
       0.726
       0.540
       0.269
       0.006
      -0.155
      -0.168
      -0.052
       0.136
       0.332
       0.494
       0.595
       0.610
       0.504
       0.251
      -0.135
      -0.592
      -1.038
      -1.411
      -1.679
      -1.841
      -1.916
      -1.941
      -1.947
      -1.951
      -1.951
      -1.933
      -1.879
      -1.781
      -1.658
      -1.556
      -1.524
      -1.582
      -1.714
      -1.879
      -2.030
      -2.125
      -2.127
      -2.019
      -1.809
      -1.549
      -1.316
      -1.169
      -1.117
      -1.120
      -1.126
      -1.100
      -1.032
      -0.929
      -0.812
      -0.703
      -0.619
      -0.565
      -0.534
      -0.512
      -0.484
      -0.444
      -0.388
      -0.309
      -0.191
      -0.027
       0.170
       0.373
       0.568
       0.765
       0.985
       1.246
       1.548
       1.862
       2.137
       2.324
       2.405
       2.402
       2.360
       2.329
       2.333
       2.355
       2.339
       2.231
       2.028
       1.778
       1.543
       1.366
       1.261
       1.223
       1.226
       1.230
       1.199
       1.115
       0.987
       0.842
       0.718
       0.630
       0.554
       0.445
       0.276
       0.072
      -0.118
      -0.255
      -0.334
      -0.382
      -0.437
      -0.521
      -0.618
      -0.681
      -0.684
      -0.641
      -0.592
      -0.567
      -0.573
      -0.598
      -0.627
      -0.640
      -0.613
      -0.520
      -0.345
      -0.096
       0.184
       0.430
       0.597
       0.671
       0.662
       0.577
       0.427
       0.248
       0.115
       0.123
       0.339
       0.748
       1.250
       1.707
       2.019
       2.158
       2.154
       2.056
       1.898
       1.696
       1.451
       1.163
       0.830
       0.460
       0.075
      -0.273
      -0.516
      -0.602
      -0.525
      -0.336
      -0.105
       0.106
       0.270
       0.395
       0.507
       0.627
       0.756
       0.886
       1.006
       1.104
       1.164
       1.190
       1.218
       1.289
       1.417
       1.566
       1.670
       1.672
       1.557
       1.366
       1.176
       1.059
       1.037
       1.079
       1.127
       1.126
       1.037
       0.859
       0.629
       0.391
       0.168
      -0.048
      -0.270
      -0.494
      -0.698
      -0.854
      -0.936
      -0.935
      -0.872
      -0.786
      -0.708
      -0.647
      -0.607
      -0.590
      -0.598
      -0.623
      -0.650
      -0.651
      -0.596
      -0.462
      -0.254
      -0.003
       0.249
       0.465
       0.610
       0.663
       0.634
       0.571
       0.533
       0.562
       0.664
       0.808
       0.935
       0.980
       0.901
       0.694
       0.393
       0.049
      -0.291
      -0.592
      -0.833
      -1.004
      -1.101
      -1.140
      -1.156
      -1.183
      -1.228
      -1.269
      -1.283
      -1.270
      -1.245
      -1.216
      -1.162
      -1.050
      -0.865
      -0.633
      -0.408
      -0.242
      -0.162
      -0.179
      -0.293
      -0.492
      -0.743
      -0.996
      -1.208
      -1.355
      -1.437
      -1.474
      -1.481
      -1.447
      -1.333
      -1.096
      -0.727
      -0.253
       0.265
       0.751
       1.138
       1.388
       1.495
       1.475
       1.351
       1.156
       0.940
       0.752
       0.621
       0.561
       0.588
       0.715
       0.931
       1.193
       1.431
       1.573
       1.562
       1.384
       1.074
       0.700
       0.329
       0.013
      -0.216
      -0.354
      -0.434
      -0.500
      -0.575
      -0.641
      -0.653
      -0.576
      -0.401
      -0.154
       0.112
       0.341
       0.502
       0.589
       0.609
       0.579
       0.536
       0.528
       0.586
       0.696
       0.803
       0.839
       0.766
       0.588
       0.342
       0.067
      -0.216
      -0.492
      -0.734
      -0.902
      -0.977
      -0.984
      -0.962
      -0.938
      -0.900
      -0.824
      -0.700
      -0.563
      -0.474
      -0.487
      -0.603
      -0.759
      -0.860
      -0.838
      -0.686
      -0.473
      -0.303
      -0.269
      -0.401
      -0.661
      -0.951
      -1.163
      -1.220
      -1.114
      -0.906
      -0.686
      -0.528
      -0.455
      -0.447
      -0.449
      -0.399
      -0.256
      -0.019
       0.268
       0.540
       0.730
