Origin Time       02/01/2013 17:42:15
Lat.              29.4 N	
Long.             81.1 E	
Depth (Km)         10.0
Magnitude         4.8
 Region           Western-NEPAL                                                    
 Above details taken from IMD 
   
Station Code      PTI
Station Lat.       29.407
Station Long.      79.931
Station Height(m) 1667.0
Site Class        A   Vs30 between 700 m/sec to 1400 m/sec * 
Record Time       02.01.2013 17:42:27.684
Sampling Rate     200. Hz
 Record Duration   81.090 Sec.
 Direction         Vert. (Up positive)
Max. Acceleration     -1.385 cm/sec**2
     
  * For reference see Site Classification link of website 
     
 Base Line Corrected and Low Pass Filtered (Cut Off at 35 Hz) Time History
 Acceleration data in cm/sec**2
    
[...]
       0.045
      -0.065
      -0.155
      -0.209
      -0.224
      -0.205
      -0.163
      -0.110
      -0.058
      -0.013
       0.026
       0.067
       0.110
       0.145
       0.157
       0.140
       0.104
       0.070
       0.054
       0.056
       0.063
       0.064
       0.058
       0.053
       0.054
       0.058
       0.053
       0.025
      -0.036
      -0.128
      -0.242
      -0.360
      -0.454
      -0.494
      -0.461
      -0.360
      -0.228
      -0.109
      -0.035
      -0.004
       0.014
       0.051
       0.121
       0.207
       0.275
       0.299
       0.276
       0.226
       0.181
       0.167
       0.193
       0.253
       0.324
       0.378
       0.390
       0.347
       0.252
       0.124
      -0.009
      -0.126
      -0.212
      -0.268
      -0.304
      -0.329
      -0.349
      -0.363
      -0.367
      -0.354
      -0.327
      -0.287
      -0.244
      -0.198
      -0.150
      -0.093
      -0.025
       0.049
       0.116
       0.171
       0.215
       0.261
       0.321
       0.389
       0.441
       0.447
       0.397
       0.303
       0.195
       0.098
       0.018
      -0.050
      -0.106
      -0.143
      -0.151
      -0.135
      -0.115
      -0.110
      -0.129
      -0.161
      -0.190
      -0.204
      -0.196
      -0.168
      -0.126
      -0.084
      -0.055
      -0.048
      -0.057
      -0.065
      -0.057
      -0.032
      -0.002
       0.016
       0.013
      -0.008
      -0.031
      -0.043
      -0.038
      -0.018
       0.010
       0.037
       0.056
       0.064
       0.065
       0.068
       0.081
       0.108
       0.144
       0.171
       0.165
       0.114
       0.026
      -0.069
      -0.133
      -0.142
      -0.100
      -0.033
       0.031
       0.067
       0.071
       0.047
       0.011
      -0.016
      -0.020
      -0.003
       0.017
       0.013
      -0.033
      -0.116
      -0.205
      -0.264
      -0.279
      -0.254
      -0.210
      -0.157
      -0.096
      -0.028
       0.037
       0.081
       0.094
       0.078
       0.050
       0.031
       0.033
       0.055
       0.083
       0.101
       0.098
       0.077
       0.048
       0.027
       0.024
       0.037
       0.052
       0.057
       0.046
       0.023
      -0.004
      -0.030
      -0.055
      -0.077
      -0.095
      -0.102
      -0.097
      -0.090
      -0.091
      -0.106
      -0.126
      -0.141
      -0.146
      -0.147
      -0.149
      -0.143
      -0.110
      -0.031
       0.091
       0.228
       0.340
       0.392
       0.373
       0.299
       0.203
       0.123
       0.082
       0.079
       0.090
       0.081
       0.035
      -0.039
      -0.107
      -0.134
      -0.097
       0.003
       0.139
       0.273
       0.360
       0.369
       0.294
       0.158
       0.006
      -0.115
      -0.172
      -0.163
      -0.117
      -0.077
      -0.077
      -0.126
      -0.201
      -0.260
      -0.271
      -0.222
      -0.133
      -0.038
       0.024
       0.029
      -0.018
      -0.088
      -0.135
      -0.125
      -0.053
       0.051
       0.142
       0.192
       0.199
       0.189
       0.190
       0.218
       0.268
       0.317
       0.333
       0.286
       0.160
      -0.024
      -0.215
      -0.355
      -0.407
      -0.378
      -0.313
      -0.257
      -0.231
      -0.221
      -0.200
      -0.150
      -0.073
       0.014
       0.084
       0.114
       0.092
       0.028
      -0.053
      -0.113
      -0.129
      -0.102
      -0.052
      -0.006
       0.026
       0.043
       0.053
       0.062
       0.076
       0.102
       0.142
       0.186
       0.212
       0.204
       0.164
       0.118
       0.098
       0.118
       0.159
       0.188
       0.179
       0.138
       0.093
       0.064
       0.054
       0.044
       0.014
      -0.046
      -0.124
      -0.195
      -0.229
      -0.206
      -0.125
      -0.012
       0.091
       0.145
       0.133
       0.066
      -0.024
      -0.106
      -0.159
      -0.176
      -0.158
      -0.110
      -0.041
       0.033
       0.100
       0.151
       0.184
       0.198
       0.188
       0.147
       0.076
      -0.015
      -0.106
      -0.183
      -0.240
      -0.279
      -0.297
      -0.283
      -0.231
      -0.144
      -0.037
       0.067
       0.147
       0.188
       0.189
       0.157
       0.106
       0.048
      -0.005
      -0.044
      -0.066
      -0.069
      -0.058
      -0.038
      -0.019
      -0.006
      -0.003
      -0.009
      -0.022
      -0.036
      -0.049
      -0.056
      -0.055
      -0.047
      -0.036
      -0.020
       0.008
       0.055
       0.119
       0.184
       0.228
       0.230
       0.181
       0.090
      -0.019
      -0.116
      -0.178
      -0.190
      -0.151
      -0.071
       0.029
       0.125
       0.190
       0.213
       0.193
       0.139
       0.065
      -0.015
      -0.089
      -0.142
      -0.163
      -0.150
      -0.116
      -0.075
      -0.032
       0.019
       0.090
       0.180
       0.271
       0.332
       0.335
       0.271
       0.144
      -0.020
      -0.187
      -0.316
      -0.372
      -0.345
      -0.262
      -0.170
      -0.112
      -0.105
      -0.132
      -0.162
      -0.170
      -0.152
      -0.119
      -0.082
      -0.047
      -0.016
       0.009
       0.027
       0.038
       0.048
       0.069
       0.106
       0.153
       0.192
       0.207
       0.196
       0.174
       0.159
       0.158
       0.163
       0.161
       0.150
       0.133
       0.108
       0.061
      -0.025
      -0.150
      -0.287
      -0.388
      -0.409
      -0.341
      -0.211
      -0.069
       0.033
       0.062
       0.018
      -0.074
      -0.166
      -0.206
      -0.163
      -0.043
       0.104
       0.214
       0.243
       0.194
       0.111
       0.047
       0.030
       0.056
       0.098
       0.131
       0.140
       0.122
       0.082
       0.033
       0.001
       0.011
       0.080
       0.192
       0.308
       0.383
       0.387
       0.312
       0.167
      -0.028
      -0.237
      -0.419
      -0.535
      -0.571
      -0.550
      -0.513
      -0.497
      -0.503
      -0.501
      -0.453
      -0.344
      -0.188
      -0.016
       0.135
       0.243
       0.300
       0.318
       0.324
       0.352
       0.421
       0.523
       0.618
       0.657
       0.604
       0.464
       0.273
       0.084
      -0.056
      -0.125
      -0.134
      -0.118
      -0.123
      -0.180
      -0.287
      -0.405
      -0.478
      -0.465
      -0.362
      -0.201
      -0.032
       0.106
       0.187
       0.207
       0.181
       0.136
       0.108
       0.124
       0.185
       0.264
       0.315
       0.302
       0.216
       0.088
      -0.036
      -0.120
      -0.159
      -0.172
      -0.184
      -0.211
      -0.257
      -0.324
      -0.409
      -0.495
      -0.552
      -0.546
      -0.455
      -0.287
      -0.079
       0.117
       0.257
       0.319
       0.315
       0.283
       0.269
       0.304
       0.388
       0.492
       0.568
       0.573
       0.489
       0.330
       0.138
      -0.034
      -0.145
      -0.188
      -0.186
      -0.183
      -0.214
      -0.288
      -0.389
      -0.478
      -0.514
      -0.468
      -0.340
      -0.158
       0.020
       0.136
       0.160
       0.107
       0.027
      -0.025
      -0.025
       0.016
       0.061
       0.080
       0.066
       0.037
       0.019
       0.039
       0.114
       0.248
       0.426
       0.608
       0.741
       0.776
       0.691
       0.507
       0.270
       0.037
      -0.153
      -0.281
      -0.346
      -0.360
      -0.348
      -0.340
      -0.357
      -0.402
      -0.452
      -0.476
      -0.452
      -0.381
      -0.286
      -0.195
      -0.129
      -0.095
      -0.083
      -0.072
      -0.034
       0.051
       0.183
       0.337
       0.473
       0.552
       0.547
       0.461
       0.322
       0.178
       0.078
       0.053
       0.099
       0.184
       0.257
       0.279
       0.232
       0.127
      -0.013
      -0.161
      -0.298
      -0.413
      -0.503
      -0.575
      -0.634
      -0.680
      -0.693
      -0.644
      -0.509
      -0.289
      -0.016
       0.261
       0.493
       0.654
       0.747
       0.788
       0.790
       0.750
       0.657
       0.505
       0.307
       0.094
      -0.100
      -0.250
      -0.346
      -0.384
      -0.368
      -0.306
      -0.213
      -0.112
      -0.018
       0.068
       0.151
       0.229
       0.285
       0.290
       0.233
       0.124
      -0.009
      -0.134
      -0.234
      -0.301
      -0.335
      -0.342
      -0.333
      -0.321
      -0.311
      -0.289
      -0.231
      -0.121
       0.036
       0.210
       0.360
       0.452
       0.469
       0.417
       0.316
       0.186
       0.043
      -0.109
      -0.269
      -0.429
      -0.571
      -0.659
      -0.659
      -0.562
      -0.389
      -0.190
      -0.012
       0.116
       0.198
       0.252
       0.294
       0.330
       0.360
       0.372
       0.352
       0.283
       0.161
       0.004
      -0.145
      -0.234
      -0.237
      -0.170
      -0.087
      -0.047
      -0.076
      -0.160
      -0.263
      -0.350
      -0.402
      -0.412
      -0.378
      -0.295
      -0.163
       0.003
       0.186
       0.377
       0.571
       0.762
       0.929
       1.040
       1.072
       1.028
       0.929
       0.788
       0.600
       0.358
       0.071
      -0.229
      -0.496
      -0.691
      -0.794
      -0.806
      -0.748
      -0.653
      -0.562
      -0.511
      -0.509
      -0.534
      -0.546
      -0.514
      -0.433
      -0.328
      -0.233
      -0.163
      -0.109
      -0.044
       0.049
       0.172
       0.309
       0.438
       0.544
       0.607
       0.603
       0.516
       0.350
       0.149
      -0.022
      -0.106
      -0.082
       0.024
       0.161
       0.279
       0.355
       0.393
       0.411
       0.421
       0.421
       0.394
       0.315
       0.170
      -0.033
      -0.261
      -0.468
      -0.619
      -0.698
      -0.715
      -0.694
      -0.661
      -0.635
      -0.631
      -0.648
      -0.663
      -0.637
      -0.530
      -0.332
      -0.077
       0.169
       0.350
       0.455
       0.523
       0.609
       0.744
       0.912
       1.057
       1.114
       1.039
       0.824
       0.504
       0.145
      -0.177
      -0.398
      -0.500
      -0.517
      -0.514
      -0.554
      -0.651
      -0.770
      -0.843
      -0.810
      -0.647
      -0.378
      -0.058
       0.248
       0.491
       0.648
       0.728
       0.755
       0.754
       0.744
       0.731
       0.707
       0.653
       0.551
       0.392
       0.190
      -0.029
      -0.231
      -0.390
      -0.494
      -0.541
      -0.538
      -0.503
      -0.461
      -0.435
      -0.428
      -0.426
      -0.399
      -0.335
      -0.242
      -0.151
      -0.090
      -0.073
      -0.093
      -0.133
      -0.168
      -0.174
      -0.131
      -0.031
       0.121
       0.304
       0.485
       0.631
       0.729
       0.785
       0.827
       0.873
       0.915
       0.915
       0.834
       0.662
       0.426
       0.174
      -0.049
      -0.225
      -0.357
      -0.458
      -0.535
      -0.595
      -0.646
      -0.693
      -0.735
      -0.763
      -0.760
      -0.711
      -0.608
      -0.459
      -0.284
      -0.113
       0.018
       0.088
       0.091
       0.046
      -0.009
      -0.037
      -0.015
       0.062
       0.178
       0.303
       0.405
       0.453
       0.436
       0.365
       0.271
       0.184
       0.130
       0.113
       0.126
       0.143
       0.134
       0.082
      -0.011
      -0.117
      -0.210
      -0.284
      -0.360
      -0.462
      -0.588
      -0.698
      -0.735
      -0.664
      -0.488
      -0.242
       0.031
       0.298
       0.535
       0.721
       0.834
       0.867
       0.822
       0.707
       0.530
       0.296
       0.018
      -0.269
      -0.515
      -0.668
      -0.697
      -0.606
      -0.434
      -0.245
      -0.093
      -0.001
       0.044
       0.075
       0.110
       0.149
       0.180
       0.196
       0.206
       0.224
       0.261
       0.319
       0.392
       0.468
       0.524
       0.536
       0.490
       0.395
       0.278
       0.163
       0.053
      -0.069
      -0.225
      -0.412
      -0.598
      -0.741
      -0.810
      -0.805
      -0.744
      -0.656
      -0.564
      -0.483
      -0.418
      -0.362
      -0.299
      -0.210
      -0.092
       0.039
       0.156
       0.240
       0.296
       0.343
       0.401
       0.478
       0.566
       0.648
       0.696
       0.679
       0.572
       0.375
       0.123
      -0.127
      -0.318
      -0.424
      -0.448
      -0.416
      -0.357
      -0.296
      -0.250
      -0.228
      -0.224
      -0.216
      -0.185
      -0.134
      -0.092
      -0.100
      -0.177
      -0.304
      -0.428
      -0.477
      -0.399
      -0.181
       0.143
       0.505
       0.827
       1.051
       1.165
       1.189
       1.152
       1.070
       0.947
       0.791
       0.628
       0.492
       0.398
       0.334
       0.269
       0.172
       0.019
      -0.202
      -0.490
      -0.815
      -1.118
      -1.325
      -1.385
      -1.302
      -1.123
      -0.907
      -0.691
      -0.487
      -0.302
      -0.141
      -0.008
       0.104
       0.212
       0.320
       0.416
       0.484
       0.526
       0.572
       0.646
       0.732
       0.780
       0.734
       0.583
       0.363
       0.127
      -0.091
      -0.290
      -0.480
      -0.655
      -0.788
      -0.843
      -0.796
      -0.642
      -0.394
      -0.094
       0.193
       0.389
       0.443
       0.361
       0.203
       0.054
      -0.028
      -0.038
      -0.007
       0.024
       0.030
       0.006
      -0.045
      -0.114
      -0.176
      -0.200
      -0.158
      -0.055
       0.065
       0.144
       0.143
       0.079
       0.009
       0.003
       0.096
       0.271
       0.480
       0.664
       0.783
       0.816
       0.754
       0.605
       0.388
       0.139
      -0.108
      -0.337
      -0.555
      -0.767
      -0.962
      -1.097
      -1.124
      -1.022
      -0.812
      -0.551
      -0.297
      -0.086
       0.071
       0.186
       0.287
       0.404
       0.548
       0.703
       0.824
       0.867
       0.818
       0.708
       0.591
       0.508
       0.460
       0.413
       0.325
       0.174
      -0.035
      -0.276
      -0.514
      -0.711
      -0.837
      -0.875
      -0.838
      -0.752
      -0.652
      -0.554
      -0.455
      -0.343
      -0.213
      -0.081
       0.026
       0.086
       0.090
       0.049
      -0.017
      -0.079
      -0.103
      -0.063
       0.046
       0.196
       0.339
       0.434
       0.466
       0.449
       0.411
       0.370
       0.334
       0.306
       0.293
       0.301
       0.326
       0.352
       0.363
       0.352
       0.320
       0.269
       0.196
       0.098
      -0.018
      -0.132
      -0.220
      -0.273
      -0.306
      -0.346
      -0.407
      -0.478
      -0.528
      -0.530
      -0.481
      -0.400
      -0.310
      -0.233
      -0.179
      -0.153
      -0.148
      -0.146
      -0.122
      -0.063
       0.027
       0.129
       0.222
       0.301
       0.375
       0.454
       0.541
       0.619
       0.659
       0.625
       0.494
       0.267
      -0.024
      -0.328
      -0.587
      -0.760
      -0.826
      -0.787
      -0.667
      -0.509
      -0.357
      -0.237
      -0.143
      -0.047
       0.077
       0.223
       0.358
       0.443
       0.461
       0.425
       0.359
       0.293
       0.255
       0.274
       0.369
       0.529
       0.708
       0.834
       0.847
       0.728
       0.504
       0.225
      -0.061
      -0.330
      -0.571
      -0.780
      -0.947
      -1.056
      -1.094
      -1.058
      -0.956
      -0.804
      -0.617
      -0.410
      -0.193
       0.024
       0.230
       0.413
       0.561
       0.660
       0.699
       0.681
       0.621
       0.539
       0.454
       0.375
       0.299
       0.220
       0.143
       0.083
       0.054
       0.059
       0.074
       0.069
       0.017
      -0.086
      -0.226
      -0.372
      -0.482
      -0.523
      -0.480
      -0.375
      -0.262
      -0.203
      -0.225
      -0.304
      -0.377
      -0.385
      -0.304
      -0.157
       0.015
       0.175
       0.307
       0.407
       0.475
       0.510
       0.512
       0.488
       0.448
       0.398
       0.332
       0.243
       0.133
       0.020
      -0.070
      -0.122
      -0.136
      -0.133
      -0.136
      -0.162
      -0.213
      -0.277
      -0.330
      -0.350
      -0.324
      -0.255
      -0.162
      -0.074
      -0.020
      -0.013
      -0.046
      -0.092
      -0.109
      -0.065
       0.045
       0.186
       0.303
       0.340
       0.273
       0.116
      -0.087
      -0.276
      -0.390
      -0.388
      -0.264
      -0.063
       0.138
       0.264
       0.296
       0.285
       0.316
       0.451
       0.682
       0.928
       1.082
       1.065
       0.855
       0.488
       0.041
      -0.399
      -0.763
      -1.013
      -1.152
      -1.206
      -1.207
      -1.168
      -1.084
      -0.937
      -0.714
      -0.414
      -0.053
       0.333
       0.689
       0.959
       1.106
       1.126
       1.046
       0.903
       0.735
       0.567
       0.413
       0.279
       0.157
       0.032
      -0.112
      -0.276
      -0.441
      -0.570
      -0.634
      -0.630
      -0.579
      -0.519
      -0.480
      -0.472
      -0.481
      -0.479
      -0.439
      -0.345
      -0.204
      -0.048
       0.076
       0.136
       0.127
       0.080
       0.045
       0.063
       0.156
       0.316
       0.516
       0.711
       0.858
       0.927
       0.905
       0.797
       0.620
       0.400
       0.164
      -0.057
      -0.235
      -0.362
      -0.444
      -0.498
      -0.541
      -0.578
      -0.600
      -0.591
      -0.533
      -0.420
      -0.267
      -0.113
      -0.003
       0.034
       0.008
      -0.036
      -0.044
       0.017
       0.140
       0.283
       0.388
       0.409
       0.328
       0.164
      -0.031
      -0.189
      -0.247
      -0.185
      -0.033
       0.138
       0.258
       0.291
       0.253
       0.192
       0.159
       0.177
       0.237
       0.300
       0.319
       0.256
       0.103
      -0.112
      -0.337
      -0.513
      -0.607
      -0.617
      -0.566
      -0.484
      -0.388
      -0.285
      -0.166
      -0.024
       0.144
       0.325
       0.489
       0.593
       0.600
       0.497
       0.308
       0.088
      -0.099
      -0.208
      -0.224
      -0.165
      -0.068
       0.025
       0.081
       0.087
       0.054
       0.014
      -0.002
       0.023
       0.079
       0.132
       0.147
       0.105
       0.014
      -0.096
      -0.192
