Origin Time       20/06/2011 06:27:18
Lat.              30.5 N	
Long.             79.4 E	
Depth (Km)         12.0
Magnitude         4.6
 Region           Chamoli-Uttarakhand                                              
 Above details taken from IMD 
   
Station Code      CKR
Station Lat.       30.694
Station Long.      77.901
Station Height(m)    0.0
Site Class        B   Vs30 between 375 m/sec to 700 m/sec *  
Record Time       20.06.2011 06:27:31.574
Sampling Rate     200. Hz
 Record Duration   83.970 Sec.
 Direction         Vert. (Up positive)
Max. Acceleration     -1.532 cm/sec**2
     
  * For reference see Site Classification link of website 
     
 Base Line Corrected and Low Pass Filtered (Cut Off at 35 Hz) Time History
 Acceleration data in cm/sec**2
    
[...]
      -0.136
      -0.179
      -0.212
      -0.193
      -0.121
      -0.029
       0.061
       0.134
       0.167
       0.151
       0.122
       0.111
       0.111
       0.095
       0.064
       0.032
      -0.005
      -0.049
      -0.077
      -0.064
      -0.029
      -0.013
      -0.032
      -0.077
      -0.134
      -0.179
      -0.178
      -0.120
      -0.045
       0.009
       0.050
       0.095
       0.135
       0.154
       0.161
       0.166
       0.153
       0.101
       0.031
      -0.029
      -0.078
      -0.120
      -0.134
      -0.100
      -0.041
       0.001
       0.017
       0.023
       0.019
       0.009
       0.012
       0.029
       0.020
      -0.051
      -0.152
      -0.217
      -0.212
      -0.144
      -0.032
       0.093
       0.189
       0.236
       0.257
       0.281
       0.301
       0.297
       0.270
       0.221
       0.130
      -0.004
      -0.135
      -0.212
      -0.236
      -0.234
      -0.209
      -0.164
      -0.121
      -0.103
      -0.094
      -0.069
      -0.033
      -0.002
       0.022
       0.039
       0.023
      -0.028
      -0.073
      -0.066
      -0.020
       0.031
       0.082
       0.143
       0.200
       0.231
       0.242
       0.245
       0.226
       0.165
       0.072
      -0.037
      -0.167
      -0.318
      -0.450
      -0.521
      -0.529
      -0.499
      -0.438
      -0.354
      -0.272
      -0.206
      -0.129
      -0.017
       0.116
       0.229
       0.308
       0.353
       0.363
       0.350
       0.349
       0.384
       0.434
       0.468
       0.480
       0.473
       0.424
       0.316
       0.178
       0.045
      -0.080
      -0.205
      -0.318
      -0.397
      -0.442
      -0.455
      -0.415
      -0.319
      -0.215
      -0.158
      -0.147
      -0.151
      -0.151
      -0.141
      -0.105
      -0.039
       0.023
       0.046
       0.042
       0.044
       0.060
       0.075
       0.090
       0.110
       0.121
       0.116
       0.116
       0.138
       0.161
       0.158
       0.127
       0.081
       0.012
      -0.084
      -0.175
      -0.226
      -0.241
      -0.231
      -0.195
      -0.137
      -0.091
      -0.078
      -0.074
      -0.041
       0.015
       0.069
       0.104
       0.105
       0.046
      -0.066
      -0.170
      -0.203
      -0.164
      -0.088
       0.008
       0.117
       0.211
       0.268
       0.301
       0.338
       0.374
       0.394
       0.402
       0.402
       0.370
       0.286
       0.170
       0.051
      -0.071
      -0.200
      -0.316
      -0.393
      -0.438
      -0.467
      -0.473
      -0.446
      -0.405
      -0.375
      -0.348
      -0.295
      -0.209
      -0.090
       0.057
       0.204
       0.297
       0.316
       0.297
       0.283
       0.271
       0.235
       0.181
       0.120
       0.044
      -0.048
      -0.127
      -0.159
      -0.148
      -0.111
      -0.044
       0.051
       0.134
       0.165
       0.145
       0.094
       0.011
      -0.101
      -0.207
      -0.282
      -0.341
      -0.411
      -0.472
      -0.484
      -0.432
      -0.322
      -0.154
       0.057
       0.269
       0.439
       0.561
       0.634
       0.641
       0.573
       0.462
       0.344
       0.222
       0.089
      -0.036
      -0.131
      -0.199
      -0.239
      -0.229
      -0.168
      -0.091
      -0.029
       0.031
       0.108
       0.186
       0.235
       0.253
       0.241
       0.186
       0.089
      -0.007
      -0.059
      -0.072
      -0.067
      -0.039
       0.015
       0.071
       0.103
       0.123
       0.157
       0.200
       0.239
       0.272
       0.287
       0.252
       0.149
       0.010
      -0.123
      -0.241
      -0.354
      -0.452
      -0.526
      -0.586
      -0.632
      -0.629
      -0.544
      -0.394
      -0.222
      -0.055
       0.094
       0.211
       0.292
       0.357
       0.413
       0.431
       0.391
       0.317
       0.236
       0.143
       0.035
      -0.061
      -0.121
      -0.159
      -0.198
      -0.229
      -0.235
      -0.222
      -0.196
      -0.142
      -0.057
       0.019
       0.045
       0.029
       0.000
      -0.024
      -0.026
       0.024
       0.123
       0.218
       0.256
       0.245
       0.226
       0.226
       0.249
       0.301
       0.370
       0.420
       0.418
       0.374
       0.311
       0.228
       0.125
       0.029
      -0.043
      -0.108
      -0.181
      -0.240
      -0.264
      -0.264
      -0.261
      -0.257
      -0.248
      -0.252
      -0.274
      -0.279
      -0.242
      -0.183
      -0.137
      -0.118
      -0.127
      -0.169
      -0.227
      -0.250
      -0.208
      -0.129
      -0.061
      -0.011
       0.033
       0.061
       0.063
       0.058
       0.067
       0.079
       0.070
       0.041
      -0.002
      -0.068
      -0.151
      -0.214
      -0.222
      -0.183
      -0.121
      -0.042
       0.046
       0.120
       0.172
       0.224
       0.294
       0.362
       0.399
       0.402
       0.387
       0.355
       0.315
       0.286
       0.263
       0.215
       0.133
       0.057
       0.023
       0.017
       0.013
       0.003
      -0.019
      -0.077
      -0.177
      -0.280
      -0.347
      -0.372
      -0.359
      -0.293
      -0.182
      -0.070
       0.002
       0.046
       0.090
       0.132
       0.157
       0.168
       0.163
       0.117
       0.017
      -0.108
      -0.222
      -0.320
      -0.414
      -0.494
      -0.547
      -0.579
      -0.584
      -0.540
      -0.443
      -0.327
      -0.230
      -0.152
      -0.088
      -0.050
      -0.035
      -0.006
       0.061
       0.145
       0.210
       0.252
       0.273
       0.267
       0.248
       0.261
       0.328
       0.424
       0.511
       0.573
       0.593
       0.551
       0.452
       0.350
       0.280
       0.224
       0.150
       0.062
      -0.019
      -0.100
      -0.186
      -0.255
      -0.288
      -0.297
      -0.296
      -0.278
      -0.245
      -0.224
      -0.235
      -0.258
      -0.268
      -0.272
      -0.281
      -0.283
      -0.268
      -0.249
      -0.231
      -0.193
      -0.127
      -0.069
      -0.064
      -0.113
      -0.186
      -0.255
      -0.290
      -0.265
      -0.196
      -0.137
      -0.118
      -0.118
      -0.102
      -0.067
      -0.012
       0.083
       0.219
       0.359
       0.462
       0.528
       0.563
       0.559
       0.517
       0.467
       0.425
       0.363
       0.256
       0.124
      -0.002
      -0.100
      -0.144
      -0.098
       0.031
       0.172
       0.249
       0.249
       0.198
       0.114
       0.017
      -0.067
      -0.122
      -0.165
      -0.204
      -0.224
      -0.210
      -0.179
      -0.142
      -0.095
      -0.037
       0.008
       0.029
       0.056
       0.109
       0.176
       0.235
       0.281
       0.301
       0.260
       0.159
       0.047
      -0.024
      -0.044
      -0.027
       0.013
       0.045
       0.032
      -0.021
      -0.052
      -0.016
       0.060
       0.123
       0.151
       0.135
       0.064
      -0.051
      -0.168
      -0.255
      -0.329
      -0.409
      -0.483
      -0.534
      -0.571
      -0.596
      -0.590
      -0.539
      -0.463
      -0.387
      -0.311
      -0.242
      -0.202
      -0.197
      -0.201
      -0.190
      -0.175
      -0.167
      -0.148
      -0.102
      -0.035
       0.048
       0.156
       0.276
       0.368
       0.414
       0.438
       0.462
       0.481
       0.492
       0.516
       0.553
       0.568
       0.530
       0.454
       0.366
       0.277
       0.199
       0.161
       0.164
       0.171
       0.150
       0.112
       0.075
       0.035
      -0.010
      -0.037
      -0.044
      -0.067
      -0.135
      -0.226
      -0.303
      -0.358
      -0.391
      -0.397
      -0.379
      -0.366
      -0.373
      -0.387
      -0.396
      -0.412
      -0.443
      -0.478
      -0.508
      -0.540
      -0.559
      -0.516
      -0.385
      -0.194
       0.006
       0.182
       0.304
       0.344
       0.316
       0.279
       0.279
       0.312
       0.355
       0.396
       0.416
       0.390
       0.332
       0.299
       0.322
       0.372
       0.409
       0.431
       0.444
       0.434
       0.392
       0.337
       0.284
       0.221
       0.132
       0.028
      -0.082
      -0.205
      -0.331
      -0.426
      -0.467
      -0.468
      -0.445
      -0.393
      -0.310
      -0.218
      -0.127
      -0.017
       0.113
       0.219
       0.250
       0.194
       0.066
      -0.108
      -0.277
      -0.378
      -0.397
      -0.373
      -0.341
      -0.298
      -0.239
      -0.183
      -0.141
      -0.096
      -0.035
       0.023
       0.067
       0.115
       0.176
       0.232
       0.272
       0.312
       0.356
       0.372
       0.342
       0.290
       0.251
       0.229
       0.224
       0.242
       0.264
       0.248
       0.179
       0.096
       0.044
       0.023
       0.010
      -0.009
      -0.050
      -0.130
      -0.241
      -0.340
      -0.403
      -0.438
      -0.453
      -0.440
      -0.404
      -0.375
      -0.364
      -0.346
      -0.308
      -0.265
      -0.232
      -0.195
      -0.153
      -0.124
      -0.109
      -0.081
      -0.024
       0.044
       0.106
       0.165
       0.216
       0.241
       0.254
       0.304
       0.410
       0.530
       0.617
       0.661
       0.666
       0.625
       0.542
       0.447
       0.356
       0.254
       0.133
       0.010
      -0.103
      -0.218
      -0.333
      -0.412
      -0.433
      -0.411
      -0.367
      -0.305
      -0.233
      -0.172
      -0.127
      -0.075
      -0.007
       0.056
       0.093
       0.118
       0.139
       0.142
       0.127
       0.113
       0.100
       0.070
       0.021
      -0.016
      -0.029
      -0.039
      -0.064
      -0.090
      -0.119
      -0.179
      -0.282
      -0.401
      -0.500
      -0.567
      -0.586
      -0.523
      -0.377
      -0.193
      -0.015
       0.147
       0.288
       0.385
       0.432
       0.446
       0.429
       0.357
       0.230
       0.098
       0.008
      -0.031
      -0.030
       0.005
       0.059
       0.107
       0.147
       0.202
       0.272
       0.326
       0.339
       0.322
       0.274
       0.175
       0.027
      -0.128
      -0.251
      -0.332
      -0.371
      -0.361
      -0.323
      -0.299
      -0.297
      -0.283
      -0.231
      -0.155
      -0.075
       0.007
       0.077
       0.112
       0.122
       0.155
       0.228
       0.304
       0.349
       0.369
       0.381
       0.380
       0.367
       0.357
       0.347
       0.302
       0.201
       0.067
      -0.073
      -0.204
      -0.306
      -0.339
      -0.288
      -0.186
      -0.077
       0.020
       0.091
       0.128
       0.143
       0.168
       0.199
       0.188
       0.100
      -0.050
      -0.226
      -0.395
      -0.521
      -0.575
      -0.568
      -0.550
      -0.547
      -0.541
      -0.515
      -0.477
      -0.433
      -0.373
      -0.301
      -0.249
      -0.228
      -0.222
      -0.223
      -0.241
      -0.272
      -0.273
      -0.218
      -0.118
       0.005
       0.151
       0.306
       0.443
       0.548
       0.636
       0.706
       0.734
       0.707
       0.654
       0.595
       0.519
       0.418
       0.306
       0.193
       0.071
      -0.055
      -0.151
      -0.199
      -0.216
      -0.222
      -0.225
      -0.241
      -0.297
      -0.389
      -0.473
      -0.521
      -0.544
      -0.551
      -0.534
      -0.492
      -0.441
      -0.378
      -0.284
      -0.162
      -0.048
       0.030
       0.088
       0.145
       0.203
       0.262
       0.325
       0.370
       0.364
       0.315
       0.270
       0.263
       0.285
       0.323
       0.384
       0.464
       0.534
       0.575
       0.596
       0.593
       0.548
       0.462
       0.365
       0.269
       0.159
       0.033
      -0.076
      -0.152
      -0.211
      -0.261
      -0.289
      -0.292
      -0.292
      -0.287
      -0.239
      -0.137
      -0.016
       0.085
       0.160
       0.210
       0.225
       0.206
       0.172
       0.126
       0.049
      -0.060
      -0.163
      -0.240
      -0.304
      -0.360
      -0.393
      -0.391
      -0.372
      -0.352
      -0.333
      -0.332
      -0.374
      -0.454
      -0.533
      -0.584
      -0.615
      -0.630
      -0.608
      -0.535
      -0.409
      -0.223
       0.033
       0.327
       0.593
       0.799
       0.963
       1.102
       1.199
       1.236
       1.214
       1.121
       0.929
       0.643
       0.312
      -0.018
      -0.332
      -0.606
      -0.805
      -0.918
      -0.972
      -0.985
      -0.946
      -0.851
      -0.713
      -0.536
      -0.313
      -0.076
       0.101
       0.166
       0.133
       0.048
      -0.044
      -0.102
      -0.086
       0.003
       0.124
       0.238
       0.326
       0.375
       0.366
       0.321
       0.293
       0.307
       0.344
       0.388
       0.447
       0.516
       0.566
       0.584
       0.577
       0.540
       0.448
       0.298
       0.118
      -0.077
      -0.304
      -0.566
      -0.837
      -1.096
      -1.328
      -1.491
      -1.532
      -1.447
      -1.287
      -1.095
      -0.873
      -0.616
      -0.348
      -0.090
       0.157
       0.376
       0.534
       0.617
       0.643
       0.625
       0.560
       0.466
       0.389
       0.355
       0.345
       0.337
       0.335
       0.345
       0.364
       0.397
       0.448
       0.488
       0.475
       0.411
       0.336
       0.271
       0.210
       0.159
       0.132
       0.111
       0.055
      -0.031
      -0.099
      -0.123
      -0.120
      -0.101
      -0.054
       0.011
       0.062
       0.085
       0.099
       0.100
       0.047
      -0.063
      -0.173
      -0.224
      -0.217
      -0.177
      -0.117
      -0.037
       0.053
       0.157
       0.283
       0.412
       0.505
       0.551
       0.571
       0.582
       0.581
       0.579
       0.590
       0.590
       0.532
       0.409
       0.259
       0.104
      -0.078
      -0.295
      -0.516
      -0.702
      -0.840
      -0.920
      -0.925
      -0.853
      -0.720
      -0.529
      -0.285
      -0.039
       0.137
       0.210
       0.212
       0.178
       0.118
       0.038
      -0.045
      -0.129
      -0.228
      -0.321
      -0.360
      -0.333
      -0.277
      -0.227
      -0.190
      -0.174
      -0.200
      -0.260
      -0.309
      -0.312
      -0.282
      -0.245
      -0.215
      -0.206
      -0.228
      -0.271
      -0.299
      -0.297
      -0.276
      -0.231
      -0.132
       0.030
       0.228
       0.437
       0.655
       0.864
       1.017
       1.070
       1.019
       0.882
       0.690
       0.490
       0.327
       0.197
       0.063
      -0.088
      -0.233
      -0.354
      -0.452
      -0.523
      -0.555
      -0.558
      -0.572
      -0.609
      -0.634
      -0.616
      -0.551
      -0.445
      -0.309
      -0.178
      -0.096
      -0.060
      -0.028
       0.019
       0.064
       0.096
       0.130
       0.165
       0.173
       0.156
       0.154
       0.200
       0.287
       0.402
       0.544
       0.698
       0.836
       0.946
       1.036
       1.095
       1.088
       1.004
       0.865
       0.688
       0.475
       0.244
       0.031
      -0.155
      -0.332
      -0.511
      -0.686
      -0.864
      -1.060
      -1.256
      -1.398
      -1.456
      -1.441
      -1.362
      -1.222
      -1.043
      -0.859
      -0.678
      -0.477
      -0.258
      -0.052
       0.131
       0.312
       0.494
       0.652
       0.773
       0.878
       0.983
       1.068
       1.116
       1.122
       1.073
       0.960
       0.807
       0.663
       0.541
       0.405
       0.228
       0.023
      -0.187
      -0.391
      -0.568
      -0.687
      -0.747
      -0.782
      -0.814
      -0.830
      -0.816
      -0.775
      -0.710
      -0.621
      -0.517
      -0.407
      -0.269
      -0.075
       0.161
       0.375
       0.525
       0.609
       0.632
       0.600
       0.537
       0.478
       0.416
       0.309
       0.143
      -0.058
      -0.266
      -0.470
      -0.639
      -0.722
      -0.703
      -0.613
      -0.492
      -0.361
      -0.251
      -0.183
      -0.134
      -0.047
       0.101
       0.273
       0.428
       0.555
       0.647
       0.692
       0.704
       0.717
       0.730
       0.713
       0.646
       0.542
       0.408
       0.243
       0.069
      -0.064
      -0.129
      -0.135
      -0.094
      -0.012
       0.080
       0.134
       0.134
       0.100
       0.041
      -0.055
      -0.188
      -0.335
      -0.478
      -0.610
      -0.706
      -0.726
      -0.669
      -0.556
      -0.396
      -0.173
       0.095
       0.352
       0.557
       0.706
       0.785
       0.772
       0.671
       0.515
       0.332
       0.134
      -0.054
      -0.197
      -0.298
      -0.394
      -0.505
      -0.599
      -0.640
      -0.610
      -0.495
      -0.297
      -0.067
       0.113
       0.201
       0.218
       0.197
       0.153
       0.105
       0.083
       0.098
       0.136
       0.190
       0.256
       0.313
       0.330
       0.305
       0.263
       0.203
       0.098
      -0.057
      -0.227
      -0.380
      -0.499
      -0.561
      -0.548
      -0.483
      -0.411
      -0.346
      -0.258
      -0.131
       0.009
       0.137
       0.233
       0.269
       0.223
       0.126
       0.043
      -0.001
      -0.041
      -0.110
      -0.210
      -0.326
      -0.447
      -0.537
      -0.553
      -0.488
      -0.376
      -0.242
      -0.088
       0.071
       0.204
       0.296
       0.357
       0.382
       0.346
       0.255
       0.146
       0.051
      -0.023
      -0.064
      -0.047
       0.024
       0.118
       0.218
       0.327
       0.435
       0.516
       0.569
       0.608
       0.626
       0.596
       0.519
       0.417
       0.298
       0.156
       0.007
      -0.114
      -0.205
      -0.299
      -0.409
      -0.513
      -0.596
      -0.664
      -0.706
      -0.696
      -0.633
      -0.550
      -0.461
      -0.353
      -0.218
      -0.074
       0.076
       0.239
       0.394
       0.504
       0.569
       0.629
       0.705
       0.778
       0.828
       0.853
       0.846
       0.787
       0.678
       0.541
       0.385
       0.205
       0.016
      -0.159
      -0.323
      -0.497
      -0.667
      -0.788
      -0.833
      -0.814
      -0.744
      -0.628
      -0.490
      -0.363
      -0.248
      -0.121
       0.016
       0.133
       0.205
       0.228
       0.193
       0.099
      -0.017
      -0.109
      -0.175
      -0.253
      -0.350
      -0.424
      -0.443
      -0.407
      -0.315
      -0.161
       0.028
       0.193
       0.301
       0.357
       0.371
       0.345
       0.311
