Origin Time       24/2/2010 19:20:52	 UTC
Lat.              28.6 N	
Long.             76.9 E	
Depth (Km)         17.0
Magnitude         2.5
 Region           Rohtak                                                           
 Above details taken from IMD 
    
Station Code      ANC
Station Lat.       28.539  N
Station Long.      77.264  E
Station Height(m)  231.0
Site Class        C   Vs30 between 200 m/sec to 375 m/sec *  
Record Time       24.02.2010 19:20:31.719 UTC
Sampling Rate     200. Hz
 Record Duration   80.955 Sec.
 Direction         N-S (N positive)
Max. Acceleration      5.077 cm/sec**2
     
  * For reference see Site Classification link of website 
     
 Base Line Corrected and Low Pass Filtered (Cut Off at 35 Hz) Time History
 Acceleration data in cm/sec**2
    
[...]
       0.007
      -0.022
      -0.036
      -0.028
      -0.010
       0.006
       0.007
      -0.005
      -0.015
      -0.007
       0.024
       0.060
       0.072
       0.042
      -0.020
      -0.079
      -0.097
      -0.060
       0.011
       0.068
       0.075
       0.032
      -0.028
      -0.059
      -0.045
       0.001
       0.039
       0.042
       0.010
      -0.031
      -0.047
      -0.030
       0.005
       0.030
       0.025
      -0.003
      -0.031
      -0.037
      -0.015
       0.021
       0.048
       0.050
       0.026
      -0.009
      -0.041
      -0.054
      -0.045
      -0.023
       0.003
       0.024
       0.040
       0.051
       0.050
       0.031
      -0.006
      -0.044
      -0.061
      -0.045
      -0.006
       0.026
       0.031
       0.011
      -0.007
       0.000
       0.030
       0.057
       0.055
       0.018
      -0.030
      -0.054
      -0.036
       0.013
       0.058
       0.066
       0.032
      -0.020
      -0.053
      -0.043
       0.001
       0.047
       0.059
       0.031
      -0.015
      -0.045
      -0.034
       0.008
       0.052
       0.067
       0.044
       0.001
      -0.033
      -0.037
      -0.012
       0.022
       0.044
       0.043
       0.027
       0.011
       0.002
       0.002
       0.002
      -0.004
      -0.011
      -0.014
      -0.007
       0.007
       0.021
       0.027
       0.026
       0.024
       0.024
       0.023
       0.018
       0.005
      -0.007
      -0.010
      -0.002
       0.011
       0.015
       0.007
      -0.007
      -0.012
       0.000
       0.024
       0.041
       0.040
       0.019
      -0.011
      -0.033
      -0.037
      -0.020
       0.009
       0.032
       0.038
       0.023
      -0.005
      -0.030
      -0.040
      -0.030
      -0.010
       0.009
       0.021
       0.030
       0.039
       0.044
       0.036
       0.008
      -0.030
      -0.056
      -0.055
      -0.025
       0.015
       0.044
       0.045
       0.024
      -0.006
      -0.028
      -0.033
      -0.020
       0.000
       0.018
       0.026
       0.023
       0.014
       0.004
      -0.005
      -0.010
      -0.009
       0.001
       0.018
       0.035
       0.039
       0.022
      -0.010
      -0.044
      -0.060
      -0.051
      -0.022
       0.015
       0.044
       0.054
       0.046
       0.028
       0.009
      -0.006
      -0.018
      -0.028
      -0.034
      -0.031
      -0.014
       0.013
       0.038
       0.047
       0.033
       0.004
      -0.027
      -0.043
      -0.041
      -0.026
      -0.010
       0.003
       0.012
       0.019
       0.020
       0.007
      -0.018
      -0.044
      -0.050
      -0.029
       0.006
       0.033
       0.034
       0.007
      -0.033
      -0.061
      -0.060
      -0.029
       0.013
       0.044
       0.049
       0.029
      -0.002
      -0.028
      -0.037
      -0.027
      -0.003
       0.022
       0.035
       0.031
       0.014
      -0.007
      -0.022
      -0.027
      -0.024
      -0.018
      -0.012
      -0.009
      -0.004
       0.006
       0.025
       0.042
       0.044
       0.023
      -0.015
      -0.052
      -0.065
      -0.045
      -0.003
       0.038
       0.059
       0.050
       0.017
      -0.022
      -0.050
      -0.055
      -0.037
      -0.007
       0.021
       0.033
       0.028
       0.011
      -0.005
      -0.012
      -0.007
       0.003
       0.011
       0.009
      -0.002
      -0.016
      -0.027
      -0.029
      -0.020
      -0.003
       0.016
       0.025
       0.021
       0.001
      -0.023
      -0.040
      -0.041
      -0.030
      -0.019
      -0.016
      -0.020
      -0.020
      -0.007
       0.018
       0.044
       0.055
       0.044
       0.013
      -0.020
      -0.041
      -0.043
      -0.030
      -0.013
      -0.001
       0.007
       0.014
       0.022
       0.026
       0.021
       0.004
      -0.017
      -0.033
      -0.039
      -0.036
      -0.028
      -0.017
      -0.002
       0.016
       0.033
       0.038
       0.022
      -0.011
      -0.047
      -0.063
      -0.043
       0.010
       0.072
       0.110
       0.099
       0.042
      -0.026
      -0.060
      -0.035
       0.030
       0.076
       0.047
      -0.062
      -0.182
      -0.211
      -0.094
       0.121
       0.306
       0.337
       0.183
      -0.072
      -0.295
      -0.397
      -0.368
      -0.250
      -0.078
       0.136
       0.369
       0.552
       0.588
       0.424
       0.108
      -0.224
      -0.440
      -0.487
      -0.412
      -0.295
      -0.176
      -0.030
       0.172
       0.394
       0.519
       0.430
       0.116
      -0.275
      -0.515
      -0.457
      -0.144
       0.221
       0.429
       0.396
       0.185
      -0.068
      -0.254
      -0.326
      -0.295
      -0.197
      -0.074
       0.029
       0.077
       0.067
       0.043
       0.076
       0.207
       0.406
       0.565
       0.547
       0.263
      -0.250
      -0.811
      -1.169
      -1.134
      -0.696
      -0.044
       0.546
       0.867
       0.883
       0.706
       0.478
       0.261
       0.039
      -0.209
      -0.452
      -0.614
      -0.637
      -0.518
      -0.305
      -0.063
       0.153
       0.302
       0.359
       0.322
       0.216
       0.086
      -0.027
      -0.098
      -0.115
      -0.074
       0.011
       0.095
       0.112
       0.020
      -0.148
      -0.288
      -0.287
      -0.109
       0.164
       0.381
       0.421
       0.270
       0.017
      -0.208
      -0.323
      -0.332
      -0.295
      -0.262
      -0.228
      -0.142
       0.031
       0.261
       0.451
       0.488
       0.323
       0.017
      -0.288
      -0.446
      -0.393
      -0.180
       0.072
       0.242
       0.275
       0.192
       0.064
      -0.039
      -0.087
      -0.097
      -0.102
      -0.110
      -0.087
      -0.002
       0.116
       0.178
       0.109
      -0.068
      -0.225
      -0.218
      -0.013
       0.265
       0.409
       0.289
      -0.029
      -0.313
      -0.338
      -0.075
       0.257
       0.353
       0.063
      -0.460
      -0.857
      -0.830
      -0.367
       0.252
       0.675
       0.723
       0.475
       0.164
      -0.018
      -0.046
      -0.022
      -0.053
      -0.151
      -0.247
      -0.263
      -0.181
      -0.041
       0.097
       0.191
       0.221
       0.186
       0.095
      -0.043
      -0.209
      -0.357
      -0.413
      -0.307
      -0.049
       0.245
       0.405
       0.332
       0.079
      -0.186
      -0.298
      -0.211
      -0.012
       0.166
       0.236
       0.204
       0.138
       0.107
       0.127
       0.156
       0.108
      -0.081
      -0.392
      -0.694
      -0.812
      -0.635
      -0.193
       0.354
       0.800
       0.993
       0.898
       0.593
       0.202
      -0.180
      -0.515
      -0.779
      -0.922
      -0.861
      -0.554
      -0.060
       0.450
       0.781
       0.826
       0.627
       0.331
       0.073
      -0.114
      -0.283
      -0.468
      -0.601
      -0.538
      -0.194
       0.328
       0.758
       0.827
       0.460
      -0.167
      -0.729
      -0.948
      -0.737
      -0.226
       0.326
       0.676
       0.709
       0.470
       0.121
      -0.163
      -0.286
      -0.257
      -0.154
      -0.070
      -0.065
      -0.144
      -0.241
      -0.251
      -0.103
       0.168
       0.422
       0.510
       0.378
       0.107
      -0.148
      -0.274
      -0.257
      -0.157
      -0.048
       0.021
       0.022
      -0.037
      -0.108
      -0.106
       0.030
       0.261
       0.434
       0.384
       0.070
      -0.353
      -0.627
      -0.573
      -0.220
       0.228
       0.534
       0.563
       0.322
      -0.061
      -0.394
      -0.506
      -0.344
      -0.019
       0.261
       0.333
       0.193
      -0.012
      -0.126
      -0.097
       0.002
       0.079
       0.096
       0.064
      -0.007
      -0.115
      -0.228
      -0.256
      -0.121
       0.149
       0.402
       0.460
       0.255
      -0.101
      -0.380
      -0.398
      -0.146
       0.192
       0.368
       0.243
      -0.104
      -0.439
      -0.541
      -0.354
      -0.011
       0.275
       0.361
       0.256
       0.085
      -0.015
       0.015
       0.118
       0.180
       0.114
      -0.064
      -0.251
      -0.329
      -0.255
      -0.085
       0.072
       0.132
       0.100
       0.054
       0.078
       0.176
       0.270
       0.263
       0.123
      -0.101
      -0.320
      -0.469
      -0.518
      -0.449
      -0.248
       0.064
       0.399
       0.625
       0.642
       0.442
       0.115
      -0.201
      -0.388
      -0.408
      -0.315
      -0.208
      -0.156
      -0.145
      -0.095
       0.060
       0.305
       0.530
       0.596
       0.433
       0.098
      -0.256
      -0.483
      -0.531
      -0.445
      -0.297
      -0.118
       0.095
       0.332
       0.539
       0.643
       0.596
       0.387
       0.044
      -0.368
      -0.730
      -0.895
      -0.777
      -0.420
       0.002
       0.285
       0.324
       0.178
       0.033
       0.069
       0.320
       0.621
       0.709
       0.421
      -0.149
      -0.676
      -0.817
      -0.475
       0.122
       0.582
       0.638
       0.309
      -0.177
      -0.573
      -0.749
      -0.677
      -0.379
       0.091
       0.600
       0.929
       0.867
       0.383
      -0.293
      -0.773
      -0.778
      -0.347
       0.201
       0.510
       0.439
       0.129
      -0.151
      -0.218
      -0.100
       0.019
      -0.028
      -0.227
      -0.375
      -0.244
       0.200
       0.727
       0.977
       0.732
       0.076
      -0.665
      -1.133
      -1.139
      -0.720
      -0.077
       0.530
       0.882
       0.875
       0.554
       0.083
      -0.333
      -0.544
      -0.515
      -0.321
      -0.091
       0.064
       0.098
       0.050
       0.020
       0.103
       0.302
       0.506
       0.543
       0.314
      -0.133
      -0.609
      -0.884
      -0.806
      -0.378
       0.235
       0.761
       0.934
       0.652
       0.070
      -0.463
      -0.619
      -0.331
       0.149
       0.436
       0.317
      -0.081
      -0.397
      -0.344
       0.043
       0.439
       0.492
       0.102
      -0.504
      -0.950
      -0.961
      -0.525
       0.145
       0.758
       1.102
       1.100
       0.790
       0.272
      -0.313
      -0.800
      -1.027
      -0.894
      -0.441
       0.138
       0.581
       0.709
       0.535
       0.227
      -0.032
      -0.167
      -0.222
      -0.281
      -0.377
      -0.459
      -0.424
      -0.189
       0.230
       0.688
       0.962
       0.874
       0.416
      -0.222
      -0.749
      -0.924
      -0.695
      -0.225
       0.212
       0.409
       0.351
       0.195
       0.118
       0.171
       0.242
       0.172
      -0.095
      -0.442
      -0.655
      -0.579
      -0.231
       0.216
       0.542
       0.603
       0.391
       0.031
      -0.288
      -0.399
      -0.249
       0.068
       0.358
       0.456
       0.326
       0.076
      -0.128
      -0.191
      -0.141
      -0.094
      -0.148
      -0.316
      -0.503
      -0.565
      -0.399
      -0.018
       0.436
       0.763
       0.817
       0.572
       0.113
      -0.404
      -0.791
      -0.878
      -0.588
      -0.011
       0.593
       0.917
       0.801
       0.346
      -0.148
      -0.399
      -0.341
      -0.138
      -0.014
      -0.061
      -0.178
      -0.183
       0.013
       0.307
       0.468
       0.319
      -0.114
      -0.592
      -0.803
      -0.566
       0.038
       0.694
       1.033
       0.847
       0.221
      -0.512
      -0.966
      -0.921
      -0.434
       0.209
       0.678
       0.768
       0.489
       0.025
      -0.374
      -0.520
      -0.372
      -0.058
       0.210
       0.272
       0.122
      -0.104
      -0.239
      -0.200
      -0.015
       0.212
       0.359
       0.341
       0.149
      -0.133
      -0.358
      -0.397
      -0.223
       0.058
       0.268
       0.277
       0.104
      -0.096
      -0.152
      -0.017
       0.181
       0.237
       0.039
      -0.315
      -0.570
      -0.498
      -0.076
       0.487
       0.886
       0.901
       0.512
      -0.101
      -0.673
      -0.975
      -0.889
      -0.430
       0.245
       0.859
       1.102
       0.798
       0.035
      -0.832
      -1.363
      -1.294
      -0.697
       0.076
       0.630
       0.769
       0.575
       0.311
       0.220
       0.374
       0.618
       0.674
       0.336
      -0.349
      -1.047
      -1.328
      -0.952
      -0.063
       0.873
       1.341
       1.075
       0.195
      -0.875
      -1.638
      -1.773
      -1.258
      -0.349
       0.589
       1.277
       1.635
       1.764
       1.815
       1.849
       1.758
       1.332
       0.420
      -0.922
      -2.390
      -3.532
      -3.910
      -3.277
      -1.710
       0.333
       2.124
       2.960
       2.543
       1.179
      -0.383
      -1.397
      -1.521
      -0.915
      -0.033
       0.651
       0.836
       0.456
      -0.328
      -1.211
      -1.877
      -2.126
      -1.920
      -1.317
      -0.365
       0.924
       2.474
       4.007
       5.038
       5.077
       3.940
       1.934
      -0.245
      -1.867
      -2.524
      -2.276
      -1.524
      -0.756
      -0.358
      -0.514
      -1.170
      -2.049
      -2.720
      -2.775
      -2.021
      -0.619
       0.944
       2.040
       2.216
       1.463
       0.260
      -0.695
      -0.904
      -0.348
       0.566
       1.314
       1.558
       1.255
       0.570
      -0.262
      -0.996
      -1.395
      -1.279
      -0.652
       0.227
       0.950
       1.216
       1.024
       0.627
       0.287
       0.055
      -0.217
      -0.661
      -1.195
      -1.529
      -1.371
      -0.658
       0.375
       1.313
       1.770
       1.550
       0.714
      -0.438
      -1.463
      -1.932
      -1.609
      -0.591
       0.709
       1.726
       2.009
       1.434
       0.272
      -0.945
      -1.671
      -1.589
      -0.753
       0.426
       1.364
       1.595
       1.034
       0.039
      -0.787
      -0.969
      -0.438
       0.454
       1.179
       1.355
       0.913
       0.054
      -0.895
      -1.604
      -1.825
      -1.475
      -0.695
       0.200
       0.872
       1.140
       1.044
       0.750
       0.407
       0.066
      -0.288
      -0.651
      -0.964
      -1.127
      -1.034
      -0.613
       0.127
       1.046
       1.866
       2.242
       1.917
       0.875
      -0.595
      -1.982
      -2.755
      -2.616
      -1.665
      -0.363
       0.724
       1.242
       1.226
       0.994
       0.879
       0.987
       1.177
       1.210
       0.939
       0.396
      -0.259
      -0.829
      -1.162
      -1.205
      -1.021
      -0.755
      -0.542
      -0.414
      -0.279
      -0.009
       0.414
       0.851
       1.085
       0.974
       0.558
       0.016
      -0.449
      -0.733
      -0.852
      -0.865
      -0.765
      -0.453
       0.158
       0.984
       1.711
       1.914
       1.312
       0.011
      -1.460
      -2.403
      -2.347
      -1.327
       0.157
       1.457
       2.102
       1.950
       1.148
       0.025
      -1.029
      -1.674
      -1.733
      -1.241
      -0.413
       0.455
       1.103
       1.386
       1.296
       0.924
       0.399
      -0.142
      -0.576
      -0.815
      -0.843
      -0.720
      -0.523
      -0.281
       0.027
       0.391
       0.689
       0.714
       0.336
      -0.345
      -0.985
      -1.187
      -0.738
       0.249
       1.383
       2.185
       2.306
       1.673
       0.496
      -0.843
      -1.940
      -2.501
      -2.418
      -1.786
      -0.841
       0.141
       0.928
       1.371
       1.416
       1.116
       0.633
       0.168
      -0.132
      -0.258
      -0.324
      -0.454
      -0.647
      -0.749
      -0.557
       0.011
       0.811
       1.494
       1.672
       1.138
       0.020
      -1.237
      -2.085
      -2.157
      -1.444
      -0.274
       0.863
       1.546
       1.585
       1.073
       0.322
      -0.302
      -0.568
      -0.504
      -0.330
      -0.258
      -0.306
      -0.299
      -0.057
       0.406
       0.850
       0.971
       0.641
       0.007
      -0.621
      -0.982
      -0.994
      -0.725
      -0.301
       0.165
       0.571
       0.816
       0.815
       0.537
       0.038
      -0.546
      -1.019
      -1.188
      -0.939
      -0.319
       0.449
       1.063
       1.305
       1.171
       0.841
       0.507
       0.214
      -0.142
      -0.651
      -1.219
      -1.567
      -1.441
      -0.838
      -0.040
       0.594
       0.870
       0.834
       0.643
       0.403
       0.130
      -0.157
      -0.353
      -0.303
       0.068
       0.644
       1.145
       1.271
       0.866
       0.014
      -0.981
      -1.724
      -1.908
      -1.461
      -0.584
       0.337
       0.917
       0.976
       0.635
       0.228
       0.075
       0.268
       0.626
       0.822
       0.607
      -0.029
      -0.843
      -1.463
      -1.581
      -1.102
      -0.186
       0.819
       1.529
       1.687
       1.263
       0.438
      -0.484
      -1.187
      -1.424
      -1.110
      -0.373
       0.459
       0.987
       0.955
       0.406
      -0.320
      -0.800
      -0.798
      -0.402
       0.081
       0.375
       0.421
       0.360
       0.357
       0.452
       0.536
       0.453
       0.122
      -0.389
      -0.881
      -1.122
      -0.966
      -0.442
       0.244
       0.809
       1.039
       0.901
       0.521
       0.073
      -0.326
      -0.619
      -0.749
      -0.644
      -0.294
       0.157
       0.433
       0.305
      -0.196
      -0.744
      -0.927
      -0.555
       0.195
       0.921
       1.280
       1.172
       0.718
       0.115
      -0.467
      -0.882
      -0.988
      -0.695
      -0.051
       0.701
       1.206
       1.188
       0.627
      -0.208
      -0.912
      -1.175
      -0.936
      -0.379
       0.190
       0.502
       0.454
       0.143
      -0.203
      -0.397
      -0.407
      -0.320
      -0.200
       0.001
       0.351
       0.786
       1.070
       0.958
       0.409
      -0.339
      -0.923
      -1.093
      -0.859
      -0.435
      -0.060
       0.170
       0.315
       0.477
       0.660
       0.745
       0.600
       0.218
      -0.260
      -0.637
      -0.789
      -0.716
      -0.501
      -0.237
       0.016
       0.230
       0.392
       0.484
       0.484
       0.374
       0.155
      -0.127
      -0.372
      -0.448
      -0.258
       0.182
       0.714
       1.083
       1.060
       0.571
      -0.224
      -0.991
      -1.389
      -1.266
      -0.741
      -0.122
       0.296
       0.408
       0.324
       0.236
       0.238
       0.265
       0.183
      -0.047
      -0.301
      -0.383
      -0.213
       0.088
