Origin Time       04/04/2011 11:31:40
Lat.              29.6 N	
Long.             80.8 E	
Depth (Km)         10.0
Magnitude         5.7
 Region           NEPAL-INDIA-BORDER-REGION                                        
 Above details taken from IMD 
   
Station Code      KSH
Station Lat.       29.211
Station Long.      78.960
Station Height(m)  216.0
Site Class        C   Vs30 between 200 m/sec to 375 m/sec *  
Record Time       04.04.2011 11:20:13.934
Sampling Rate     200. Hz
 Record Duration   69.090 Sec.
 Direction         Vert. (Up positive)
Max. Acceleration      7.219 cm/sec**2
     
  * For reference see Site Classification link of website 
     
 Base Line Corrected and Low Pass Filtered (Cut Off at 35 Hz) Time History
 Acceleration data in cm/sec**2
    
[...]
      -1.102
      -0.896
      -0.508
      -0.050
       0.409
       0.796
       1.016
       0.998
       0.750
       0.366
      -0.015
      -0.249
      -0.222
       0.113
       0.682
       1.301
       1.749
       1.883
       1.696
       1.285
       0.802
       0.386
       0.134
       0.060
       0.097
       0.142
       0.126
       0.055
      -0.007
       0.003
       0.102
       0.241
       0.330
       0.297
       0.141
      -0.066
      -0.242
      -0.362
      -0.459
      -0.565
      -0.657
      -0.680
      -0.593
      -0.421
      -0.242
      -0.145
      -0.186
      -0.366
      -0.620
      -0.838
      -0.906
      -0.759
      -0.421
       0.019
       0.475
       0.917
       1.346
       1.729
       1.978
       1.996
       1.761
       1.351
       0.900
       0.518
       0.231
      -0.027
      -0.361
      -0.808
      -1.268
      -1.520
      -1.354
      -0.712
       0.252
       1.242
       1.962
       2.220
       1.967
       1.278
       0.322
      -0.674
      -1.481
      -1.933
      -1.959
      -1.579
      -0.887
      -0.036
       0.793
       1.430
       1.750
       1.687
       1.245
       0.524
      -0.270
      -0.885
      -1.158
      -1.103
      -0.893
      -0.736
      -0.743
      -0.887
      -1.042
      -1.073
      -0.909
      -0.568
      -0.132
       0.306
       0.684
       0.967
       1.136
       1.183
       1.118
       0.976
       0.797
       0.625
       0.498
       0.437
       0.434
       0.458
       0.482
       0.486
       0.450
       0.337
       0.118
      -0.205
      -0.572
      -0.892
      -1.086
      -1.128
      -1.057
      -0.941
      -0.815
      -0.657
      -0.418
      -0.085
       0.297
       0.646
       0.901
       1.055
       1.139
       1.169
       1.106
       0.887
       0.498
       0.015
      -0.440
      -0.784
      -1.015
      -1.171
      -1.264
      -1.249
      -1.045
      -0.615
      -0.031
       0.527
       0.860
       0.886
       0.687
       0.428
       0.220
       0.044
      -0.199
      -0.564
      -0.999
      -1.372
      -1.560
      -1.504
      -1.214
      -0.753
      -0.223
       0.256
       0.592
       0.766
       0.831
       0.864
       0.916
       0.998
       1.074
       1.055
       0.826
       0.333
      -0.336
      -0.949
      -1.267
      -1.199
      -0.849
      -0.423
      -0.098
       0.050
       0.030
      -0.115
      -0.331
      -0.573
      -0.810
      -1.032
      -1.244
      -1.446
      -1.602
      -1.639
      -1.466
      -1.020
      -0.323
       0.514
       1.316
       1.915
       2.190
       2.087
       1.618
       0.862
      -0.037
      -0.906
      -1.602
      -2.063
      -2.295
      -2.312
      -2.112
      -1.717
      -1.236
      -0.861
      -0.776
      -1.049
      -1.610
      -2.291
      -2.896
      -3.245
      -3.197
      -2.674
      -1.670
      -0.279
       1.296
       2.770
       3.865
       4.409
       4.393
       3.924
       3.139
       2.151
       1.063
       0.007
      -0.848
      -1.351
      -1.432
      -1.145
      -0.652
      -0.147
       0.221
       0.397
       0.394
       0.231
      -0.091
      -0.549
      -1.035
      -1.381
      -1.457
      -1.264
      -0.914
      -0.516
      -0.102
       0.350
       0.824
       1.240
       1.503
       1.579
       1.526
       1.455
       1.446
       1.487
       1.475
       1.290
       0.891
       0.358
      -0.169
      -0.596
      -0.925
      -1.201
      -1.425
      -1.508
      -1.331
      -0.846
      -0.135
       0.628
       1.254
       1.623
       1.689
       1.458
       0.965
       0.277
      -0.495
      -1.208
      -1.718
      -1.922
      -1.784
      -1.350
      -0.731
      -0.076
       0.460
       0.744
       0.695
       0.322
      -0.259
      -0.880
      -1.401
      -1.755
      -1.925
      -1.899
      -1.668
      -1.265
      -0.772
      -0.277
       0.168
       0.564
       0.946
       1.344
       1.767
       2.182
       2.512
       2.659
       2.549
       2.167
       1.557
       0.799
      -0.024
      -0.846
      -1.633
      -2.391
      -3.121
      -3.766
      -4.174
      -4.150
      -3.545
      -2.346
      -0.707
       1.078
       2.668
       3.797
       4.377
       4.497
       4.316
       3.931
       3.349
       2.557
       1.614
       0.662
      -0.152
      -0.766
      -1.220
      -1.600
      -1.959
      -2.285
      -2.510
      -2.550
      -2.334
      -1.838
      -1.122
      -0.327
       0.371
       0.834
       1.016
       0.962
       0.787
       0.630
       0.607
       0.779
       1.131
       1.585
       2.027
       2.346
       2.463
       2.351
       2.012
       1.464
       0.734
      -0.105
      -0.907
      -1.494
      -1.747
      -1.685
      -1.447
      -1.178
      -0.935
      -0.689
      -0.388
      -0.025
       0.372
       0.761
       1.080
       1.236
       1.132
       0.731
       0.089
      -0.650
      -1.300
      -1.668
      -1.611
      -1.106
      -0.288
       0.590
       1.281
       1.653
       1.713
       1.578
       1.393
       1.256
       1.175
       1.080
       0.904
       0.645
       0.363
       0.107
      -0.125
      -0.355
      -0.574
      -0.731
      -0.775
      -0.685
      -0.458
      -0.106
       0.325
       0.705
       0.830
       0.505
      -0.337
      -1.554
      -2.835
      -3.835
      -4.314
      -4.200
      -3.544
      -2.429
      -0.934
       0.820
       2.607
       4.094
       4.967
       5.065
       4.438
       3.260
       1.725
       0.011
      -1.685
      -3.128
      -4.097
      -4.458
      -4.200
      -3.433
      -2.357
      -1.204
      -0.162
       0.668
       1.262
       1.625
       1.766
       1.718
       1.551
       1.350
       1.168
       1.005
       0.826
       0.585
       0.259
      -0.130
      -0.482
      -0.647
      -0.505
      -0.067
       0.524
       1.099
       1.576
       1.975
       2.307
       2.501
       2.448
       2.112
       1.588
       1.037
       0.583
       0.281
       0.140
       0.145
       0.257
       0.395
       0.457
       0.356
       0.048
      -0.475
      -1.196
      -2.058
      -2.945
      -3.677
      -4.067
      -3.972
      -3.354
      -2.304
      -1.030
       0.209
       1.204
       1.881
       2.291
       2.533
       2.677
       2.733
       2.668
       2.420
       1.931
       1.202
       0.344
      -0.462
      -1.057
      -1.385
      -1.485
      -1.427
      -1.265
      -1.042
      -0.798
      -0.574
      -0.410
      -0.353
      -0.436
      -0.644
      -0.897
      -1.093
      -1.174
      -1.155
      -1.096
      -1.045
      -1.002
      -0.919
      -0.721
      -0.360
       0.139
       0.690
       1.203
       1.636
       1.979
       2.188
       2.157
       1.770
       0.986
      -0.113
      -1.352
      -2.533
      -3.510
      -4.213
      -4.622
      -4.723
      -4.478
      -3.836
      -2.776
      -1.352
       0.276
       1.860
       3.115
       3.820
       3.896
       3.436
       2.663
       1.831
       1.124
       0.601
       0.221
      -0.077
      -0.306
      -0.416
      -0.356
      -0.147
       0.081
       0.118
      -0.220
      -0.978
      -2.004
      -3.007
      -3.698
      -3.900
      -3.588
      -2.829
      -1.736
      -0.469
       0.765
       1.766
       2.432
       2.797
       2.970
       3.040
       3.017
       2.857
       2.509
       1.966
       1.287
       0.566
      -0.111
      -0.713
      -1.258
      -1.764
      -2.212
      -2.538
      -2.664
      -2.534
      -2.122
      -1.432
      -0.515
       0.509
       1.463
       2.169
       2.534
       2.582
       2.401
       2.058
       1.563
       0.922
       0.214
      -0.381
      -0.664
      -0.547
      -0.135
       0.309
       0.507
       0.320
      -0.189
      -0.826
      -1.394
      -1.772
      -1.907
      -1.772
      -1.380
      -0.825
      -0.267
       0.149
       0.388
       0.533
       0.705
       0.952
       1.209
       1.353
       1.292
       1.049
       0.754
       0.541
       0.441
       0.356
       0.134
      -0.307
      -0.934
      -1.652
      -2.369
      -3.007
      -3.463
      -3.616
      -3.396
      -2.859
      -2.193
      -1.617
      -1.266
      -1.119
      -1.015
      -0.755
      -0.229
       0.507
       1.267
       1.856
       2.182
       2.286
       2.283
       2.278
       2.309
       2.334
       2.261
       2.009
       1.549
       0.912
       0.142
      -0.744
      -1.746
      -2.826
      -3.850
      -4.592
      -4.805
      -4.339
      -3.216
      -1.629
       0.142
       1.818
       3.190
       4.141
       4.627
       4.663
       4.292
       3.576
       2.598
       1.484
       0.400
      -0.469
      -0.984
      -1.100
      -0.908
      -0.604
      -0.399
      -0.416
      -0.642
      -0.968
      -1.272
      -1.474
      -1.544
      -1.477
      -1.255
      -0.843
      -0.208
       0.605
       1.425
       1.979
       2.039
       1.561
       0.730
      -0.149
      -0.824
      -1.192
      -1.281
      -1.154
      -0.836
      -0.312
       0.418
       1.278
       2.110
       2.738
       3.049
       3.038
       2.766
       2.297
       1.660
       0.858
      -0.085
      -1.098
      -2.058
      -2.803
      -3.163
      -3.005
      -2.307
      -1.209
       0.004
       1.005
       1.573
       1.684
       1.490
       1.219
       1.055
       1.076
       1.257
       1.519
       1.783
       1.999
       2.130
       2.116
       1.871
       1.350
       0.612
      -0.183
      -0.865
      -1.325
      -1.534
      -1.503
      -1.270
      -0.921
      -0.569
      -0.280
      -0.022
       0.290
       0.691
       1.088
       1.322
       1.278
       0.971
       0.544
       0.191
       0.064
       0.200
       0.514
       0.847
       1.051
       1.038
       0.786
       0.324
      -0.269
      -0.867
      -1.306
      -1.425
      -1.136
      -0.490
       0.314
       0.999
       1.323
       1.187
       0.663
      -0.079
      -0.876
      -1.617
      -2.214
      -2.547
      -2.491
      -2.006
      -1.180
      -0.177
       0.863
       1.858
       2.741
       3.425
       3.813
       3.851
       3.556
       3.004
       2.301
       1.540
       0.783
       0.055
      -0.644
      -1.307
      -1.910
      -2.413
      -2.770
      -2.928
      -2.826
      -2.410
      -1.648
      -0.558
       0.766
       2.134
       3.276
       3.915
       3.871
       3.132
       1.840
       0.232
      -1.414
      -2.841
      -3.867
      -4.442
      -4.629
      -4.532
      -4.219
      -3.720
      -3.064
      -2.304
      -1.487
      -0.628
       0.284
       1.245
       2.212
       3.112
       3.856
       4.348
       4.493
       4.247
       3.661
       2.875
       2.029
       1.186
       0.326
      -0.579
      -1.508
      -2.385
      -3.097
      -3.524
      -3.586
      -3.301
      -2.792
      -2.215
      -1.670
      -1.183
      -0.757
      -0.415
      -0.152
       0.108
       0.491
       1.064
       1.743
       2.327
       2.609
       2.481
       1.959
       1.134
       0.134
      -0.900
      -1.816
      -2.477
      -2.788
      -2.741
      -2.429
      -2.024
      -1.696
      -1.526
      -1.457
      -1.333
      -0.994
      -0.356
       0.541
       1.534
       2.371
       2.799
       2.669
       2.016
       1.061
       0.104
      -0.608
      -0.968
      -1.014
      -0.853
      -0.589
      -0.271
       0.099
       0.520
       0.958
       1.336
       1.568
       1.596
       1.406
       1.016
       0.479
      -0.097
      -0.562
      -0.794
      -0.782
      -0.638
      -0.512
      -0.489
      -0.555
      -0.650
      -0.741
      -0.838
      -0.948
      -1.037
      -1.024
      -0.817
      -0.366
       0.302
       1.081
       1.819
       2.355
       2.539
       2.258
       1.487
       0.349
      -0.897
      -1.962
      -2.662
      -2.982
      -3.033
      -2.940
      -2.782
      -2.591
      -2.397
      -2.249
      -2.188
      -2.199
      -2.187
      -2.015
      -1.587
      -0.928
      -0.165
       0.569
       1.234
       1.892
       2.612
       3.365
       4.013
       4.391
       4.399
       4.031
       3.333
       2.351
       1.115
      -0.337
      -1.909
      -3.417
      -4.628
      -5.332
      -5.442
      -5.024
      -4.253
      -3.324
      -2.370
      -1.412
      -0.385
       0.773
       2.010
       3.118
       3.806
       3.844
       3.205
       2.097
       0.882
      -0.089
      -0.623
      -0.734
      -0.566
      -0.255
       0.151
       0.666
       1.265
       1.820
       2.132
       2.049
       1.550
       0.754
      -0.154
      -1.002
      -1.667
      -2.065
      -2.132
      -1.832
      -1.204
      -0.393
       0.393
       0.983
       1.324
       1.452
       1.402
       1.141
       0.613
      -0.157
      -1.025
      -1.800
      -2.369
      -2.749
      -3.019
      -3.201
      -3.226
      -3.001
      -2.511
      -1.846
      -1.117
      -0.339
       0.601
       1.836
       3.364
       4.965
       6.301
       7.088
       7.219
       6.741
       5.750
       4.337
       2.603
       0.709
      -1.123
      -2.680
      -3.831
      -4.553
      -4.899
      -4.921
      -4.627
      -3.997
      -3.044
      -1.865
      -0.631
       0.474
       1.309
       1.797
       1.927
       1.764
       1.439
       1.114
       0.928
       0.958
       1.221
       1.689
       2.292
       2.911
       3.416
       3.719
       3.803
       3.682
       3.355
       2.782
       1.916
       0.764
      -0.566
      -1.873
      -2.944
      -3.651
      -3.996
      -4.038
      -3.786
      -3.175
      -2.164
      -0.837
       0.588
       1.881
       2.913
       3.669
       4.156
       4.328
       4.106
       3.474
       2.536
       1.468
       0.407
      -0.602
      -1.573
      -2.491
      -3.264
      -3.735
      -3.745
      -3.219
      -2.213
      -0.898
       0.516
       1.857
       2.989
       3.788
       4.153
       4.067
       3.625
       2.997
       2.335
       1.713
       1.132
       0.551
      -0.075
      -0.781
      -1.564
      -2.376
      -3.129
      -3.698
      -3.931
      -3.691
      -2.939
      -1.803
      -0.542
       0.583
       1.443
       2.043
       2.443
       2.672
       2.732
       2.636
       2.434
       2.189
       1.945
       1.709
       1.468
       1.203
       0.916
       0.632
       0.392
       0.225
       0.121
       0.020
      -0.165
      -0.500
      -0.999
      -1.627
      -2.317
      -2.973
      -3.461
      -3.626
      -3.349
      -2.627
      -1.614
      -0.600
       0.100
       0.296
       0.022
      -0.491
      -0.975
      -1.279
      -1.393
      -1.369
      -1.239
      -1.037
      -0.832
      -0.700
      -0.654
      -0.610
      -0.466
      -0.215
       0.029
       0.098
      -0.127
      -0.653
      -1.375
      -2.122
      -2.735
      -3.119
      -3.251
      -3.145
      -2.820
      -2.299
      -1.619
      -0.835
      -0.015
       0.764
       1.406
       1.812
       1.907
       1.671
       1.158
       0.478
      -0.242
      -0.884
      -1.357
      -1.581
      -1.477
      -1.013
      -0.255
       0.613
       1.344
       1.729
       1.689
       1.283
       0.661
      -0.035
      -0.707
      -1.291
      -1.710
      -1.860
      -1.658
      -1.090
      -0.242
       0.716
       1.575
       2.153
       2.368
       2.262
       1.970
       1.638
       1.349
       1.098
       0.813
       0.414
      -0.143
      -0.828
      -1.550
      -2.183
      -2.605
      -2.724
      -2.509
      -2.016
      -1.385
      -0.798
      -0.412
      -0.290
      -0.372
      -0.498
      -0.479
      -0.188
       0.369
       1.048
       1.637
       1.948
       1.884
       1.448
       0.723
      -0.157
      -1.035
      -1.764
      -2.241
      -2.432
      -2.359
      -2.062
      -1.562
      -0.869
      -0.026
       0.869
       1.692
       2.338
       2.741
       2.851
       2.630
       2.080
       1.273
       0.354
      -0.490
      -1.068
      -1.239
      -0.974
      -0.405
       0.211
       0.593
       0.552
       0.049
      -0.797
      -1.751
      -2.520
      -2.842
      -2.580
      -1.775
      -0.613
       0.675
       1.909
       2.974
       3.779
       4.233
       4.270
       3.884
       3.131
       2.133
       1.071
       0.171
      -0.396
      -0.611
      -0.620
      -0.619
      -0.714
      -0.873
      -0.991
      -0.993
      -0.893
      -0.776
      -0.731
      -0.779
      -0.844
      -0.791
      -0.522
      -0.037
       0.578
       1.211
       1.778
       2.225
       2.504
       2.579
       2.439
       2.109
       1.633
       1.051
       0.415
      -0.188
      -0.628
      -0.781
      -0.591
      -0.101
       0.548
       1.150
       1.489
       1.414
       0.911
       0.101
      -0.814
      -1.631
      -2.180
      -2.341
      -2.067
      -1.400
      -0.471
       0.549
       1.508
       2.307
       2.902
       3.273
       3.387
       3.194
       2.663
       1.843
       0.900
       0.066
      -0.455
      -0.590
      -0.432
      -0.181
      -0.033
      -0.091
      -0.331
      -0.642
      -0.889
      -0.973
      -0.873
      -0.654
      -0.414
      -0.209
      -0.011
       0.257
       0.634
       1.082
       1.500
       1.777
       1.828
       1.594
       1.046
       0.208
      -0.825
      -1.887
      -2.756
      -3.218
      -3.137
      -2.518
      -1.514
      -0.374
       0.647
       1.358
       1.687
       1.683
       1.471
       1.166
       0.818
       0.424
      -0.009
      -0.408
      -0.666
      -0.713
      -0.574
      -0.351
      -0.149
      -0.028
       0.000
      -0.070
      -0.246
      -0.528
      -0.893
      -1.301
      -1.707
      -2.053
      -2.255
      -2.228
      -1.918
      -1.342
      -0.592
       0.181
       0.797
       1.110
       1.073
       0.761
       0.332
      -0.061
      -0.320
      -0.395
      -0.238
       0.191
       0.873
       1.666
       2.294
       2.445
       1.919
       0.761
      -0.726
      -2.118
      -3.072
      -3.461
      -3.353
      -2.898
      -2.245
      -1.521
      -0.835
      -0.267
       0.152
       0.428
       0.579
       0.641
       0.693
       0.840
       1.137
       1.522
       1.813
       1.813
       1.415
       0.650
      -0.347
      -1.412
      -2.418
      -3.297
      -4.021
      -4.542
      -4.756
      -4.540
      -3.843
      -2.767
      -1.531
      -0.358
       0.632
       1.423
       2.047
       2.515
       2.821
       2.964
       2.957
       2.813
       2.521
       2.052
       1.390
       0.563
      -0.347
      -1.223
      -1.963
