Origin Time       02/01/2013 17:42:15 UTC
Lat.              29.4 N	
Long.             81.1 E	
Depth (Km)         10.0
Magnitude         4.8
 Region           Western-NEPAL                                                    
 Above details taken from IMD 
    
Station Code      PTI
Station Lat.       29.407  N
Station Long.      79.931  E
Station Height(m) 1667.0
Site Class        A   Vs30 between 700 m/sec to 1400 m/sec * 
Record Time       02.01.2013 17:42:27.684 UTC
Sampling Rate     200. Hz
 Record Duration   81.090 Sec.
 Direction         N-S (N positive)
Max. Acceleration     -2.046 cm/sec**2
     
  * For reference see Site Classification link of website 
     
 Base Line Corrected and Low Pass Filtered (Cut Off at 35 Hz) Time History
 Acceleration data in cm/sec**2
    
[...]
      -0.065
       0.012
       0.095
       0.188
       0.294
       0.409
       0.528
       0.644
       0.752
       0.852
       0.943
       1.021
       1.075
       1.095
       1.073
       1.012
       0.917
       0.793
       0.649
       0.486
       0.300
       0.092
      -0.127
      -0.344
      -0.544
      -0.717
      -0.859
      -0.967
      -1.042
      -1.084
      -1.092
      -1.067
      -1.015
      -0.943
      -0.858
      -0.765
      -0.669
      -0.575
      -0.485
      -0.402
      -0.323
      -0.241
      -0.152
      -0.055
       0.041
       0.130
       0.213
       0.303
       0.407
       0.525
       0.644
       0.740
       0.799
       0.819
       0.813
       0.793
       0.763
       0.716
       0.642
       0.536
       0.403
       0.253
       0.101
      -0.043
      -0.173
      -0.284
      -0.375
      -0.447
      -0.506
      -0.560
      -0.609
      -0.647
      -0.664
      -0.654
      -0.614
      -0.551
      -0.472
      -0.388
      -0.305
      -0.228
      -0.152
      -0.064
       0.043
       0.165
       0.284
       0.378
       0.441
       0.478
       0.504
       0.527
       0.547
       0.553
       0.533
       0.481
       0.401
       0.299
       0.180
       0.049
      -0.088
      -0.231
      -0.378
      -0.522
      -0.653
      -0.762
      -0.843
      -0.891
      -0.902
      -0.871
      -0.798
      -0.687
      -0.548
      -0.400
      -0.262
      -0.150
      -0.065
      -0.007
       0.033
       0.067
       0.108
       0.169
       0.252
       0.351
       0.453
       0.544
       0.608
       0.643
       0.653
       0.649
       0.640
       0.629
       0.614
       0.588
       0.543
       0.480
       0.407
       0.333
       0.271
       0.224
       0.188
       0.148
       0.089
       0.007
      -0.092
      -0.197
      -0.297
      -0.388
      -0.468
      -0.540
      -0.608
      -0.673
      -0.734
      -0.788
      -0.827
      -0.842
      -0.824
      -0.772
      -0.694
      -0.599
      -0.494
      -0.386
      -0.281
      -0.186
      -0.102
      -0.027
       0.051
       0.144
       0.253
       0.371
       0.476
       0.548
       0.576
       0.559
       0.507
       0.438
       0.378
       0.344
       0.343
       0.366
       0.405
       0.449
       0.495
       0.540
       0.579
       0.601
       0.595
       0.553
       0.477
       0.375
       0.257
       0.133
       0.013
      -0.101
      -0.212
      -0.323
      -0.431
      -0.532
      -0.621
      -0.693
      -0.745
      -0.778
      -0.791
      -0.781
      -0.744
      -0.681
      -0.600
      -0.510
      -0.415
      -0.320
      -0.225
      -0.127
      -0.022
       0.093
       0.214
       0.330
       0.428
       0.497
       0.533
       0.545
       0.548
       0.557
       0.578
       0.607
       0.631
       0.637
       0.611
       0.550
       0.454
       0.332
       0.193
       0.054
      -0.070
      -0.170
      -0.243
      -0.290
      -0.317
      -0.335
      -0.353
      -0.377
      -0.403
      -0.427
      -0.444
      -0.451
      -0.453
      -0.458
      -0.473
      -0.493
      -0.506
      -0.498
      -0.463
      -0.400
      -0.316
      -0.223
      -0.128
      -0.038
       0.046
       0.116
       0.169
       0.202
       0.219
       0.226
       0.230
       0.240
       0.262
       0.296
       0.334
       0.365
       0.384
       0.387
       0.380
       0.368
       0.355
       0.340
       0.319
       0.288
       0.246
       0.195
       0.137
       0.081
       0.025
      -0.039
      -0.123
      -0.229
      -0.344
      -0.442
      -0.499
      -0.501
      -0.454
      -0.375
      -0.283
      -0.192
      -0.109
      -0.048
      -0.019
      -0.027
      -0.064
      -0.119
      -0.176
      -0.224
      -0.255
      -0.271
      -0.282
      -0.300
      -0.329
      -0.363
      -0.385
      -0.371
      -0.309
      -0.206
      -0.077
       0.059
       0.196
       0.329
       0.457
       0.570
       0.662
       0.724
       0.757
       0.762
       0.736
       0.670
       0.553
       0.389
       0.195
      -0.002
      -0.176
      -0.309
      -0.393
      -0.425
      -0.406
      -0.336
      -0.225
      -0.096
       0.020
       0.097
       0.122
       0.098
       0.040
      -0.026
      -0.080
      -0.112
      -0.120
      -0.109
      -0.092
      -0.080
      -0.081
      -0.087
      -0.077
      -0.034
       0.044
       0.144
       0.240
       0.312
       0.349
       0.353
       0.329
       0.273
       0.183
       0.061
      -0.078
      -0.219
      -0.346
      -0.452
      -0.539
      -0.619
      -0.703
      -0.791
      -0.871
      -0.922
      -0.922
      -0.859
      -0.738
      -0.582
      -0.412
      -0.244
      -0.081
       0.074
       0.211
       0.320
       0.391
       0.422
       0.428
       0.424
       0.425
       0.433
       0.447
       0.467
       0.498
       0.543
       0.603
       0.677
       0.757
       0.832
       0.888
       0.911
       0.894
       0.838
       0.745
       0.618
       0.456
       0.257
       0.026
      -0.221
      -0.463
      -0.686
      -0.888
      -1.065
      -1.215
      -1.330
      -1.398
      -1.410
      -1.359
      -1.250
      -1.090
      -0.894
      -0.676
      -0.453
      -0.240
      -0.044
       0.135
       0.301
       0.455
       0.593
       0.703
       0.773
       0.798
       0.784
       0.741
       0.677
       0.599
       0.511
       0.418
       0.324
       0.233
       0.147
       0.067
      -0.013
      -0.097
      -0.187
      -0.283
      -0.379
      -0.464
      -0.519
      -0.535
      -0.513
      -0.465
      -0.401
      -0.328
      -0.251
      -0.174
      -0.103
      -0.043
       0.001
       0.032
       0.061
       0.098
       0.145
       0.202
       0.260
       0.312
       0.346
       0.357
       0.343
       0.304
       0.248
       0.186
       0.134
       0.108
       0.110
       0.138
       0.181
       0.228
       0.271
       0.304
       0.327
       0.339
       0.335
       0.308
       0.255
       0.181
       0.094
      -0.001
      -0.100
      -0.201
      -0.300
      -0.389
      -0.464
      -0.522
      -0.566
      -0.597
      -0.609
      -0.596
      -0.554
      -0.486
      -0.397
      -0.298
      -0.196
      -0.100
      -0.011
       0.070
       0.144
       0.215
       0.278
       0.324
       0.339
       0.317
       0.262
       0.191
       0.119
       0.061
       0.023
       0.008
       0.012
       0.025
       0.035
       0.033
       0.016
      -0.006
      -0.020
      -0.018
       0.002
       0.037
       0.083
       0.142
       0.212
       0.294
       0.383
       0.467
       0.526
       0.544
       0.523
       0.479
       0.432
       0.390
       0.349
       0.297
       0.223
       0.121
      -0.005
      -0.147
      -0.295
      -0.442
      -0.585
      -0.720
      -0.839
      -0.929
      -0.972
      -0.953
      -0.871
      -0.741
      -0.588
      -0.441
      -0.321
      -0.230
      -0.162
      -0.103
      -0.041
       0.032
       0.123
       0.223
       0.314
       0.373
       0.388
       0.362
       0.320
       0.294
       0.313
       0.386
       0.504
       0.645
       0.788
       0.914
       1.005
       1.045
       1.018
       0.915
       0.734
       0.487
       0.199
      -0.105
      -0.403
      -0.679
      -0.916
      -1.098
      -1.215
      -1.265
      -1.253
      -1.192
      -1.093
      -0.962
      -0.806
      -0.638
      -0.477
      -0.337
      -0.228
      -0.154
      -0.115
      -0.103
      -0.099
      -0.085
      -0.047
       0.019
       0.110
       0.223
       0.358
       0.521
       0.714
       0.925
       1.123
       1.278
       1.364
       1.367
       1.280
       1.101
       0.837
       0.509
       0.151
      -0.197
      -0.491
      -0.699
      -0.802
      -0.794
      -0.679
      -0.476
      -0.220
       0.042
       0.268
       0.434
       0.532
       0.567
       0.552
       0.499
       0.429
       0.366
       0.323
       0.297
       0.264
       0.195
       0.078
      -0.077
      -0.237
      -0.367
      -0.446
      -0.480
      -0.499
      -0.532
      -0.601
      -0.710
      -0.854
      -1.022
      -1.192
      -1.338
      -1.430
      -1.439
      -1.348
      -1.156
      -0.879
      -0.539
      -0.159
       0.232
       0.609
       0.950
       1.240
       1.457
       1.579
       1.593
       1.511
       1.373
       1.228
       1.111
       1.028
       0.954
       0.856
       0.716
       0.538
       0.341
       0.142
      -0.040
      -0.193
      -0.309
      -0.389
      -0.444
      -0.492
      -0.549
      -0.622
      -0.700
      -0.769
      -0.823
      -0.869
      -0.919
      -0.978
      -1.041
      -1.100
      -1.147
      -1.174
      -1.170
      -1.118
      -0.998
      -0.798
      -0.526
      -0.212
       0.099
       0.369
       0.574
       0.717
       0.824
       0.922
       1.026
       1.135
       1.236
       1.316
       1.368
       1.395
       1.400
       1.378
       1.317
       1.198
       1.014
       0.769
       0.488
       0.202
      -0.058
      -0.277
      -0.455
      -0.591
      -0.678
      -0.701
      -0.650
      -0.525
      -0.343
      -0.132
       0.076
       0.251
       0.372
       0.426
       0.406
       0.309
       0.139
      -0.096
      -0.380
      -0.695
      -1.020
      -1.330
      -1.597
      -1.794
      -1.898
      -1.898
      -1.807
      -1.646
      -1.435
      -1.188
      -0.909
      -0.599
      -0.259
       0.108
       0.485
       0.846
       1.160
       1.406
       1.577
       1.684
       1.747
       1.779
       1.781
       1.746
       1.670
       1.556
       1.404
       1.211
       0.974
       0.698
       0.392
       0.078
      -0.225
      -0.499
      -0.737
      -0.942
      -1.117
      -1.269
      -1.409
      -1.547
      -1.686
      -1.815
      -1.905
      -1.919
      -1.822
      -1.607
      -1.295
      -0.935
      -0.574
      -0.245
       0.043
       0.299
       0.539
       0.775
       1.007
       1.232
       1.442
       1.631
       1.790
       1.904
       1.957
       1.931
       1.816
       1.617
       1.358
       1.073
       0.792
       0.532
       0.298
       0.085
      -0.118
      -0.314
      -0.493
      -0.641
      -0.748
      -0.820
      -0.872
      -0.916
      -0.959
      -0.996
      -1.018
      -1.017
      -0.987
      -0.924
      -0.821
      -0.675
      -0.489
      -0.275
      -0.049
       0.167
       0.354
       0.504
       0.624
       0.721
       0.797
       0.838
       0.830
       0.763
       0.641
       0.481
       0.306
       0.130
      -0.037
      -0.188
      -0.309
      -0.388
      -0.418
      -0.398
      -0.336
      -0.248
      -0.161
      -0.101
      -0.079
      -0.090
      -0.114
      -0.133
      -0.139
      -0.131
      -0.112
      -0.088
      -0.060
      -0.028
       0.007
       0.050
       0.102
       0.159
       0.206
       0.234
       0.239
       0.224
       0.189
       0.130
       0.049
      -0.048
      -0.145
      -0.229
      -0.299
      -0.364
      -0.436
      -0.511
      -0.570
      -0.586
      -0.545
      -0.451
      -0.317
      -0.161
       0.001
       0.169
       0.347
       0.535
       0.717
       0.863
       0.942
       0.937
       0.855
       0.722
       0.568
       0.412
       0.255
       0.092
      -0.075
      -0.229
      -0.352
      -0.438
      -0.495
      -0.536
      -0.572
      -0.600
      -0.611
      -0.593
      -0.537
      -0.433
      -0.272
      -0.055
       0.198
       0.457
       0.687
       0.863
       0.969
       1.008
       0.994
       0.948
       0.892
       0.842
       0.810
       0.788
       0.757
       0.690
       0.569
       0.391
       0.158
      -0.120
      -0.428
      -0.742
      -1.033
      -1.269
      -1.428
      -1.507
      -1.522
      -1.495
      -1.449
      -1.397
      -1.350
      -1.306
      -1.256
      -1.185
      -1.086
      -0.962
      -0.820
      -0.666
      -0.503
      -0.328
      -0.140
       0.050
       0.227
       0.380
       0.515
       0.652
       0.804
       0.967
       1.120
       1.228
       1.266
       1.229
       1.135
       1.013
       0.890
       0.792
       0.738
       0.736
       0.779
       0.854
       0.944
       1.034
       1.108
       1.143
       1.112
       0.994
       0.785
       0.510
       0.206
      -0.096
      -0.385
      -0.666
      -0.949
      -1.232
      -1.501
      -1.732
      -1.902
      -1.991
      -1.986
      -1.883
      -1.685
      -1.418
      -1.118
      -0.820
      -0.550
      -0.315
      -0.112
       0.069
       0.237
       0.392
       0.528
       0.644
       0.751
       0.861
       0.977
       1.094
       1.203
       1.299
       1.385
       1.472
       1.565
       1.656
       1.722
       1.736
       1.678
       1.544
       1.345
       1.101
       0.830
       0.543
       0.244
      -0.063
      -0.369
      -0.662
      -0.933
      -1.176
      -1.392
      -1.584
      -1.751
      -1.891
      -1.994
      -2.046
      -2.033
      -1.946
      -1.792
      -1.600
      -1.408
      -1.245
      -1.115
      -1.001
      -0.881
      -0.735
      -0.554
      -0.334
      -0.076
       0.221
       0.554
       0.911
       1.261
       1.563
       1.782
       1.901
       1.927
       1.890
       1.821
       1.737
       1.636
       1.507
       1.342
       1.142
       0.919
       0.696
       0.493
       0.320
       0.174
       0.042
      -0.090
      -0.239
      -0.414
      -0.615
      -0.834
      -1.050
      -1.238
      -1.371
      -1.431
      -1.417
      -1.343
      -1.232
      -1.107
      -0.978
      -0.845
      -0.698
      -0.534
      -0.360
      -0.196
      -0.060
       0.035
       0.087
       0.106
       0.115
       0.142
       0.205
       0.302
       0.417
       0.525
       0.606
       0.645
       0.645
       0.617
       0.577
       0.539
       0.514
       0.512
       0.536
       0.570
       0.591
       0.573
       0.502
       0.379
       0.219
       0.044
      -0.128
      -0.284
      -0.412
      -0.505
      -0.561
      -0.581
      -0.567
      -0.522
      -0.460
      -0.395
      -0.340
      -0.289
      -0.231
      -0.152
      -0.059
       0.029
       0.079
       0.072
       0.012
      -0.073
      -0.149
      -0.183
      -0.158
      -0.074
       0.055
       0.205
       0.352
       0.476
       0.565
       0.617
       0.641
       0.649
       0.644
       0.623
       0.581
       0.512
       0.412
       0.279
       0.113
      -0.076
      -0.268
      -0.439
      -0.560
      -0.615
      -0.605
      -0.554
      -0.491
      -0.436
      -0.396
      -0.364
      -0.324
      -0.270
      -0.210
      -0.163
      -0.146
      -0.167
      -0.216
      -0.268
      -0.287
      -0.245
      -0.135
       0.023
       0.198
       0.362
       0.497
       0.599
       0.670
       0.707
       0.705
       0.661
       0.577
       0.466
       0.342
       0.216
       0.092
      -0.030
      -0.156
      -0.285
      -0.404
      -0.493
      -0.532
      -0.516
      -0.458
      -0.384
      -0.319
      -0.271
      -0.237
      -0.210
      -0.189
      -0.181
      -0.188
      -0.207
      -0.239
      -0.287
      -0.356
      -0.438
      -0.514
      -0.558
      -0.550
      -0.486
      -0.379
      -0.252
      -0.121
       0.008
       0.140
       0.289
       0.468
       0.677
       0.899
       1.108
       1.279
       1.403
       1.478
       1.506
       1.482
       1.397
       1.241
       1.014
       0.730
       0.407
       0.064
      -0.275
      -0.584
      -0.832
      -1.001
      -1.092
      -1.119
      -1.105
      -1.069
      -1.018
      -0.949
      -0.858
      -0.748
      -0.628
      -0.511
      -0.408
      -0.333
      -0.296
      -0.295
      -0.317
      -0.337
      -0.332
      -0.286
      -0.202
      -0.093
       0.031
       0.162
       0.301
       0.442
       0.576
       0.695
       0.786
       0.840
       0.850
       0.820
       0.756
       0.658
       0.523
       0.349
       0.144
      -0.069
      -0.256
      -0.390
      -0.463
      -0.484
      -0.472
      -0.436
      -0.376
      -0.291
      -0.193
      -0.099
      -0.035
      -0.023
      -0.075
      -0.182
      -0.315
      -0.436
      -0.513
      -0.537
      -0.523
      -0.494
      -0.464
      -0.428
      -0.373
      -0.286
      -0.170
      -0.033
       0.109
       0.247
       0.374
       0.494
       0.608
       0.713
       0.799
       0.862
       0.901
       0.919
       0.917
       0.895
       0.851
       0.791
       0.725
       0.669
       0.631
       0.609
       0.593
       0.573
       0.544
       0.496
       0.417
       0.294
       0.122
      -0.087
      -0.307
      -0.507
      -0.668
      -0.789
      -0.881
      -0.953
      -1.015
      -1.073
      -1.139
      -1.217
      -1.298
      -1.363
      -1.386
      -1.351
      -1.264
      -1.147
      -1.024
      -0.907
      -0.794
      -0.677
      -0.550
      -0.411
      -0.259
      -0.089
       0.105
       0.327
       0.568
       0.805
       1.009
       1.164
       1.273
       1.355
       1.433
       1.522
       1.614
       1.685
       1.709
       1.675
       1.584
       1.447
       1.275
       1.078
       0.864
       0.637
       0.398
       0.152
      -0.096
      -0.339
      -0.568
      -0.780
      -0.976
      -1.166
      -1.355
      -1.541
      -1.713
      -1.860
      -1.965
      -2.015
      -1.994
      -1.895
      -1.720
      -1.478
      -1.193
      -0.894
      -0.607
      -0.357
      -0.151
       0.016
       0.165
       0.322
       0.497
       0.679
       0.840
       0.953
       1.009
       1.016
       1.002
       0.995
       1.014
       1.058
       1.117
       1.180
       1.239
       1.288
       1.318
       1.319
       1.282
       1.204
       1.095
       0.970
       0.836
       0.683
       0.489
       0.238
      -0.065
      -0.388
      -0.691
      -0.935
      -1.110
      -1.227
      -1.313
      -1.393
      -1.480
      -1.568
      -1.633
      -1.645
      -1.590
      -1.475
      -1.321
      -1.147
      -0.962
      -0.764
      -0.550
      -0.326
      -0.100
       0.119
       0.330
       0.537
       0.733
       0.905
       1.042
       1.144
       1.219
       1.278
       1.324
       1.355
       1.364
       1.339
       1.270
       1.157
       1.008
       0.836
       0.653
       0.463
       0.259
       0.032
      -0.218
      -0.475
      -0.716
      -0.922
      -1.079
      -1.183
      -1.233
      -1.224
      -1.153
      -1.020
      -0.833
      -0.608
      -0.369
      -0.141
       0.046
