Origin Time       07/09/2011 17:58:18
Lat.              28.6 N	
Long.             77.0 E	
Depth (Km)          8.0
Magnitude         4.2
 Region           DELHI-HARYANA(SONIPAT)-Haryana                                   
 Above details taken from IMD 
    
Station Code       ALIP
Station Lat.       28.795  N
Station Long.      77.141  E
Station Height(m)   98.0
Site Class        C   Vs30 between 200 m/sec to 375 m/sec *  
Record Time        9/7/2011  ) 17:57:33.0
Sampling Rate     200. Hz
 Record Duration  116.000 Sec.
 Direction         N-S (N positive)
Max. Acceleration  28.448 cm/sec**2
     
  * For reference see Site Classification link of website 
     
 Base Line Corrected and Low Pass Filtered (Cut Off at 35 Hz) Time History
 Acceleration data in cm/sec**2
    
[...]
    0.008
   -0.043
   -0.057
   -0.045
   -0.026
   -0.015
   -0.017
   -0.026
   -0.036
   -0.040
   -0.035
   -0.021
   -0.002
    0.016
    0.027
    0.027
    0.019
    0.006
   -0.012
   -0.029
   -0.034
   -0.014
    0.028
    0.069
    0.079
    0.045
   -0.018
   -0.076
   -0.097
   -0.071
   -0.016
    0.039
    0.069
    0.065
    0.031
   -0.013
   -0.042
   -0.044
   -0.031
   -0.032
   -0.065
   -0.116
   -0.149
   -0.137
   -0.086
   -0.021
    0.038
    0.093
    0.153
    0.210
    0.236
    0.203
    0.110
   -0.018
   -0.143
   -0.228
   -0.251
   -0.208
   -0.116
   -0.007
    0.080
    0.121
    0.119
    0.096
    0.074
    0.057
    0.035
   -0.001
   -0.040
   -0.062
   -0.057
   -0.031
   -0.006
    0.003
   -0.006
   -0.020
   -0.022
   -0.005
    0.014
    0.008
   -0.042
   -0.121
   -0.185
   -0.177
   -0.066
    0.135
    0.355
    0.498
    0.492
    0.331
    0.082
   -0.149
   -0.279
   -0.284
   -0.208
   -0.116
   -0.047
    0.004
    0.063
    0.135
    0.186
    0.162
    0.036
   -0.163
   -0.358
   -0.463
   -0.427
   -0.255
   -0.008
    0.222
    0.351
    0.343
    0.225
    0.064
   -0.073
   -0.149
   -0.162
   -0.126
   -0.066
    0.001
    0.052
    0.066
    0.024
   -0.068
   -0.170
   -0.220
   -0.177
   -0.043
    0.132
    0.276
    0.333
    0.285
    0.157
    0.005
   -0.117
   -0.170
   -0.148
   -0.072
    0.027
    0.116
    0.178
    0.201
    0.176
    0.100
   -0.014
   -0.128
   -0.188
   -0.156
   -0.036
    0.120
    0.232
    0.235
    0.118
   -0.073
   -0.265
   -0.388
   -0.410
   -0.336
   -0.203
   -0.049
    0.096
    0.215
    0.298
    0.341
    0.336
    0.263
    0.099
   -0.147
   -0.411
   -0.583
   -0.563
   -0.326
    0.050
    0.417
    0.622
    0.588
    0.344
    0.007
   -0.277
   -0.400
   -0.336
   -0.141
    0.073
    0.204
    0.207
    0.112
   -0.003
   -0.071
   -0.077
   -0.053
   -0.044
   -0.064
   -0.084
   -0.068
   -0.002
    0.091
    0.167
    0.192
    0.157
    0.081
   -0.006
   -0.075
   -0.105
   -0.093
   -0.052
   -0.010
    0.004
   -0.023
   -0.078
   -0.128
   -0.147
   -0.129
   -0.084
   -0.025
    0.041
    0.113
    0.181
    0.218
    0.193
    0.097
   -0.042
   -0.169
   -0.236
   -0.223
   -0.137
   -0.009
    0.119
    0.206
    0.225
    0.176
    0.083
   -0.013
   -0.079
   -0.104
   -0.099
   -0.081
   -0.056
   -0.025
    0.015
    0.052
    0.073
    0.072
    0.055
    0.034
    0.013
   -0.010
   -0.037
   -0.060
   -0.071
   -0.072
   -0.068
   -0.067
   -0.062
   -0.045
   -0.014
    0.019
    0.037
    0.034
    0.020
    0.010
    0.015
    0.033
    0.056
    0.075
    0.090
    0.100
    0.096
    0.070
    0.021
   -0.033
   -0.071
   -0.077
   -0.050
   -0.013
    0.005
   -0.016
   -0.070
   -0.127
   -0.152
   -0.120
   -0.033
    0.078
    0.167
    0.194
    0.143
    0.034
   -0.087
   -0.168
   -0.175
   -0.102
    0.018
    0.134
    0.193
    0.170
    0.079
   -0.032
   -0.109
   -0.125
   -0.091
   -0.045
   -0.022
   -0.037
   -0.074
   -0.099
   -0.081
   -0.016
    0.076
    0.156
    0.192
    0.167
    0.082
   -0.039
   -0.154
   -0.219
   -0.207
   -0.126
   -0.011
    0.093
    0.155
    0.167
    0.141
    0.096
    0.045
    0.001
   -0.024
   -0.027
   -0.017
   -0.008
   -0.004
   -0.001
    0.008
    0.022
    0.034
    0.039
    0.040
    0.040
    0.035
    0.012
   -0.037
   -0.099
   -0.144
   -0.141
   -0.082
    0.011
    0.099
    0.144
    0.121
    0.036
   -0.079
   -0.175
   -0.207
   -0.157
   -0.044
    0.080
    0.162
    0.170
    0.108
    0.007
   -0.086
   -0.133
   -0.113
   -0.041
    0.044
    0.101
    0.106
    0.065
    0.002
   -0.054
   -0.083
   -0.085
   -0.077
   -0.076
   -0.084
   -0.084
   -0.052
    0.020
    0.113
    0.185
    0.202
    0.153
    0.067
   -0.009
   -0.038
   -0.010
    0.047
    0.093
    0.095
    0.045
   -0.034
   -0.109
   -0.156
   -0.162
   -0.131
   -0.076
   -0.015
    0.033
    0.057
    0.059
    0.046
    0.024
    0.000
   -0.019
   -0.024
    0.000
    0.059
    0.138
    0.203
    0.216
    0.157
    0.038
   -0.099
   -0.206
   -0.248
   -0.220
   -0.145
   -0.059
    0.009
    0.040
    0.030
   -0.007
   -0.046
   -0.061
   -0.038
    0.015
    0.072
    0.104
    0.092
    0.045
   -0.013
   -0.052
   -0.058
   -0.034
    0.006
    0.047
    0.072
    0.065
    0.011
   -0.084
   -0.185
   -0.244
   -0.223
   -0.122
    0.020
    0.156
    0.251
    0.292
    0.279
    0.219
    0.123
    0.012
   -0.090
   -0.157
   -0.178
   -0.154
   -0.099
   -0.030
    0.038
    0.086
    0.095
    0.054
   -0.025
   -0.114
   -0.176
   -0.181
   -0.120
   -0.009
    0.121
    0.238
    0.313
    0.325
    0.269
    0.155
    0.013
   -0.117
   -0.205
   -0.238
   -0.221
   -0.166
   -0.088
   -0.004
    0.061
    0.083
    0.051
   -0.018
   -0.089
   -0.128
   -0.118
   -0.069
   -0.005
    0.050
    0.084
    0.096
    0.088
    0.059
    0.012
   -0.041
   -0.082
   -0.093
   -0.070
   -0.026
    0.021
    0.051
    0.055
    0.033
   -0.006
   -0.056
   -0.108
   -0.147
   -0.152
   -0.111
   -0.031
    0.067
    0.156
    0.219
    0.242
    0.223
    0.167
    0.083
   -0.011
   -0.089
   -0.121
   -0.094
   -0.027
    0.036
    0.051
    0.007
   -0.068
   -0.123
   -0.121
   -0.061
    0.025
    0.099
    0.138
    0.139
    0.112
    0.071
    0.023
   -0.025
   -0.063
   -0.082
   -0.080
   -0.066
   -0.061
   -0.080
   -0.123
   -0.172
   -0.200
   -0.182
   -0.116
   -0.022
    0.068
    0.129
    0.151
    0.139
    0.110
    0.086
    0.082
    0.095
    0.107
    0.100
    0.066
    0.014
   -0.039
   -0.066
   -0.052
   -0.009
    0.034
    0.046
    0.015
   -0.043
   -0.097
   -0.123
   -0.113
   -0.081
   -0.044
   -0.016
    0.003
    0.022
    0.053
    0.103
    0.161
    0.203
    0.192
    0.111
   -0.025
   -0.167
   -0.254
   -0.250
   -0.161
   -0.027
    0.100
    0.182
    0.198
    0.145
    0.032
   -0.116
   -0.259
   -0.348
   -0.347
   -0.256
   -0.108
    0.043
    0.151
    0.197
    0.189
    0.147
    0.097
    0.057
    0.032
    0.015
   -0.003
   -0.022
   -0.025
    0.002
    0.054
    0.107
    0.132
    0.114
    0.062
   -0.001
   -0.048
   -0.065
   -0.052
   -0.016
    0.030
    0.071
    0.096
    0.102
    0.091
    0.063
    0.017
   -0.048
   -0.125
   -0.195
   -0.231
   -0.210
   -0.130
   -0.020
    0.074
    0.113
    0.086
    0.017
   -0.053
   -0.082
   -0.049
    0.029
    0.113
    0.159
    0.148
    0.085
    0.000
   -0.071
   -0.104
   -0.100
   -0.074
   -0.042
   -0.012
    0.008
    0.010
   -0.006
   -0.031
   -0.041
   -0.021
    0.029
    0.087
    0.126
    0.127
    0.093
    0.038
   -0.023
   -0.084
   -0.136
   -0.165
   -0.161
   -0.123
   -0.067
   -0.013
    0.026
    0.051
    0.068
    0.077
    0.072
    0.050
    0.022
    0.008
    0.020
    0.054
    0.088
    0.098
    0.070
    0.014
   -0.043
   -0.081
   -0.094
   -0.088
   -0.070
   -0.042
   -0.009
    0.022
    0.045
    0.056
    0.049
    0.022
   -0.017
   -0.052
   -0.064
   -0.043
    0.008
    0.070
    0.118
    0.132
    0.110
    0.066
    0.011
   -0.044
   -0.089
   -0.110
   -0.097
   -0.059
   -0.017
    0.001
   -0.018
   -0.064
   -0.110
   -0.123
   -0.092
   -0.028
    0.042
    0.093
    0.115
    0.110
    0.091
    0.070
    0.054
    0.045
    0.041
    0.035
    0.021
   -0.004
   -0.034
   -0.055
   -0.058
   -0.040
   -0.004
    0.038
    0.071
    0.080
    0.059
    0.006
   -0.073
   -0.160
   -0.223
   -0.225
   -0.145
    0.001
    0.158
    0.257
    0.253
    0.155
    0.023
   -0.070
   -0.092
   -0.069
   -0.065
   -0.135
   -0.278
   -0.424
   -0.481
   -0.396
   -0.198
    0.022
    0.179
    0.257
    0.311
    0.406
    0.542
    0.642
    0.639
    0.565
    0.524
    0.549
    0.493
    0.132
   -0.571
   -1.305
   -1.568
   -1.088
   -0.126
    0.640
    0.618
   -0.204
   -1.204
   -1.576
   -0.963
    0.247
    1.222
    1.368
    0.822
    0.292
    0.380
    1.006
    1.493
    1.208
    0.159
   -1.019
   -1.634
   -1.465
   -0.831
   -0.230
    0.051
    0.081
    0.125
    0.355
    0.655
    0.718
    0.373
   -0.205
   -0.637
   -0.707
   -0.524
   -0.337
   -0.256
   -0.243
   -0.298
   -0.476
   -0.678
   -0.568
    0.112
    1.152
    1.900
    1.798
    0.905
   -0.104
   -0.508
   -0.147
    0.468
    0.635
    0.076
   -0.842
   -1.447
   -1.328
   -0.648
    0.007
    0.129
   -0.270
   -0.668
   -0.507
    0.300
    1.276
    1.754
    1.369
    0.298
   -0.862
   -1.433
   -1.015
    0.216
    1.489
    1.866
    0.940
   -0.806
   -2.354
   -2.912
   -2.390
   -1.241
    0.029
    1.145
    1.982
    2.392
    2.213
    1.459
    0.401
   -0.593
   -1.269
   -1.525
   -1.311
   -0.592
    0.506
    1.573
    2.085
    1.813
    1.049
    0.311
   -0.210
   -0.809
   -1.771
   -2.768
   -2.929
   -1.698
    0.400
    1.998
    2.028
    0.657
   -0.926
   -1.593
   -1.100
    0.042
    1.237
    2.179
    2.705
    2.576
    1.584
   -0.118
   -1.911
   -3.008
   -2.946
   -1.822
   -0.151
    1.458
    2.510
    2.668
    1.777
   -0.012
   -2.108
   -3.609
   -3.799
   -2.627
   -0.725
    1.083
    2.295
    2.791
    2.546
    1.517
   -0.101
   -1.691
   -2.498
   -2.158
   -0.926
    0.574
    1.780
    2.431
    2.527
    2.175
    1.495
    0.606
   -0.376
   -1.341
   -2.158
   -2.645
   -2.607
   -1.976
   -0.962
   -0.082
    0.096
   -0.579
   -1.542
   -1.785
   -0.640
    1.587
    3.746
    4.675
    4.008
    2.261
    0.277
   -1.296
   -2.074
   -1.827
   -0.644
    0.847
    1.735
    1.539
    0.624
   -0.244
   -0.705
   -1.040
   -1.597
   -2.166
   -2.098
   -1.103
    0.246
    0.924
    0.417
   -0.786
   -1.574
   -1.073
    0.729
    2.918
    4.151
    3.475
    1.023
   -1.954
   -3.881
   -3.929
   -2.464
   -0.565
    0.831
    1.397
    1.302
    0.902
    0.534
    0.391
    0.437
    0.467
    0.374
    0.327
    0.553
    0.906
    0.861
    0.083
   -1.072
   -1.827
   -1.772
   -1.207
   -0.648
   -0.157
    0.557
    1.421
    1.732
    0.862
   -0.852
   -2.200
   -2.188
   -0.915
    0.691
    1.853
    2.464
    2.701
    2.465
    1.407
   -0.529
   -2.765
   -4.371
   -4.669
   -3.589
   -1.570
    0.749
    2.771
    4.054
    4.384
    3.837
    2.762
    1.574
    0.457
   -0.702
   -2.002
   -3.164
   -3.643
   -3.192
   -2.252
   -1.596
   -1.502
   -1.411
   -0.560
    1.072
    2.624
    3.240
    2.949
    2.465
    2.200
    1.791
    0.766
   -0.617
   -1.511
   -1.418
   -0.726
   -0.242
   -0.389
   -0.959
   -1.531
   -1.888
   -2.011
   -1.854
   -1.331
   -0.513
    0.371
    1.220
    2.175
    3.270
    4.026
    3.621
    1.651
   -1.303
   -3.927
   -5.045
   -4.308
   -2.169
    0.551
    2.976
    4.264
    3.835
    1.786
   -0.919
   -2.890
   -3.158
   -1.780
    0.258
    1.734
    1.967
    1.094
   -0.254
   -1.462
   -2.158
   -2.150
   -1.381
   -0.001
    1.578
    2.784
    3.171
    2.705
    1.781
    0.881
    0.159
   -0.616
   -1.650
   -2.651
   -2.899
   -1.947
   -0.204
    1.341
    2.009
    1.875
    1.339
    0.507
   -0.754
   -2.242
   -3.193
   -2.872
   -1.372
    0.376
    1.475
    1.859
    2.059
    2.295
    2.064
    0.745
   -1.475
   -3.434
   -3.855
   -2.408
    0.038
    2.146
    3.054
    2.723
    1.636
    0.315
   -0.923
   -1.865
   -2.229
   -1.746
   -0.485
    0.940
    1.693
    1.428
    0.678
    0.382
    0.929
    1.720
    1.751
    0.583
   -1.268
   -2.845
   -3.538
   -3.339
   -2.441
   -0.910
    1.045
    2.680
    3.068
    2.049
    0.636
    0.164
    0.969
    2.074
    2.221
    1.107
   -0.512
   -1.788
   -2.557
   -3.058
   -3.212
   -2.600
   -1.188
    0.240
    0.684
   -0.050
   -1.047
   -1.038
    0.502
    2.887
    4.697
    4.783
    3.066
    0.578
   -1.335
   -2.001
   -1.723
   -1.179
   -0.642
    0.070
    0.901
    1.087
   -0.242
   -2.905
   -5.340
   -5.687
   -3.310
    0.664
    4.128
    5.399
    4.188
    1.604
   -0.675
   -1.434
   -0.527
    1.212
    2.636
    3.076
    2.645
    1.820
    0.778
   -0.711
   -2.730
   -4.680
   -5.482
   -4.384
   -1.636
    1.548
    3.698
    3.964
    2.533
    0.301
   -1.822
   -3.343
   -4.078
   -3.819
   -2.305
    0.409
    3.563
    5.823
    6.025
    3.995
    0.726
   -2.246
   -3.745
   -3.483
   -1.966
   -0.005
    1.725
    2.772
    2.753
    1.403
   -1.013
   -3.429
   -4.456
   -3.444
   -1.101
    1.055
    1.911
    1.457
    0.425
   -0.529
   -1.224
   -1.647
   -1.507
   -0.345
    1.835
    4.182
    5.372
    4.447
    1.431
   -2.592
   -5.932
   -7.067
   -5.377
   -1.531
    2.671
    5.074
    4.343
    0.838
   -3.533
   -6.424
   -6.295
   -3.076
    1.902
    6.541
    8.942
    8.210
    4.697
   -0.261
   -4.823
   -7.240
   -6.610
   -3.434
    0.578
    3.586
    4.787
    4.611
    3.856
    2.896
    1.922
    1.539
    2.499
    4.609
    6.184
    4.872
   -0.712
   -9.733
  -19.057
  -24.401
  -22.271
  -11.943
    3.437
   17.743
   24.948
   22.659
   13.383
    2.382
   -5.876
   -9.660
   -9.410
   -6.355
   -2.006
    1.681
    2.830
    0.990
   -2.311
   -4.888
   -5.804
   -5.549
   -4.379
   -1.281
    4.668
   12.073
   17.219
   16.916
   11.361
    4.019
   -1.279
   -3.033
   -2.381
   -1.469
   -1.824
   -3.784
   -6.733
   -9.602
  -11.512
  -12.317
  -12.558
  -12.704
  -12.350
  -10.231
   -5.069
    3.430
   13.972
   23.620
   28.448
   25.280
   14.019
   -1.225
  -13.855
  -18.688
  -14.995
   -6.190
    3.246
   10.526
   14.812
   15.729
   12.536
    4.994
   -5.318
  -15.040
  -20.663
  -20.351
  -14.644
   -5.963
    2.468
    7.861
    9.047
    7.007
    4.122
    2.430
    2.231
    2.238
    1.108
   -1.141
   -3.117
   -3.319
   -1.415
    1.476
    3.513
    3.300
    0.794
   -2.580
   -4.801
   -4.604
   -2.322
    0.467
    2.110
    1.899
    0.270
   -1.658
   -2.667
   -1.900
    0.678
    3.964
    6.099
    5.681
    2.882
   -0.643
   -3.020
   -3.418
   -2.284
   -0.679
    0.462
    0.649
   -0.165
   -1.607
   -3.023
   -3.914
   -4.404
   -5.078
   -6.123
   -6.656
   -5.152
   -0.778
    5.534
   11.227
   13.467
   10.918
    4.891
   -1.071
   -3.273
   -0.491
    4.862
    8.307
    6.651
    0.369
   -7.020
  -11.807
  -12.416
   -9.340
   -3.557
    4.275
   12.883
   19.246
   19.503
   11.889
   -0.996
  -13.210
  -19.296
  -17.569
  -10.245
   -1.006
    7.165
   12.274
   12.760
    7.913
   -0.847
   -9.843
  -15.218
  -15.538
  -12.243
   -7.566
   -2.389
    3.553
    9.633
   13.248
   11.414
    3.681
   -6.645
  -14.362
  -15.723
  -10.531
   -1.635
    7.239
   13.464
   16.102
   15.284
   11.453
    5.309
   -1.722
   -7.412
   -9.580
   -7.380
   -1.918
    4.289
    8.601
    9.383
    6.449
    0.914
   -5.265
   -9.962
  -11.667
  -10.033
   -5.873
   -0.692
    3.889
    6.570
    6.635
    4.104
   -0.152
   -4.411
   -6.561
   -5.137
   -0.394
    5.501
    9.644
   10.194
    7.296
    2.416
   -2.999
   -8.034
  -11.695
  -12.430
   -8.909
   -1.597
    6.618
   11.818
   11.587
    6.603
   -0.061
   -5.195
   -7.286
   -6.559
   -3.795
    0.450
    5.477
    9.782
   11.388
    9.203
    4.078
   -1.700
   -6.055
   -8.356
   -9.215
   -9.374
   -8.949
   -7.651
   -5.508
   -3.153
   -1.372
   -0.431
    0.115
    1.005
    2.647
    4.818
    6.869
    8.134
    8.182
    6.830
    4.196
    0.912
   -1.841
   -2.850
   -1.734
    0.650
    2.777
    3.604
    3.230
    2.515
    2.106
    1.853
    1.035
   -0.990
   -4.283
   -8.077
  -10.833
  -10.783
   -7.003
   -0.337
    6.655
   10.920
   10.516
    5.569
   -1.937
   -9.239
  -13.962
  -14.763
  -11.474
   -5.093
    2.305
    8.091
   10.182
    8.215
    3.933
    0.282
   -0.355
    2.389
    6.776
   10.213
   10.800
    8.130
    3.099
   -2.754
   -7.824
  -10.765
  -10.734
   -7.622
   -2.140
    4.308
    9.841
   12.434
   10.605
    4.398
   -4.089
  -11.466
  -14.869
  -13.461
   -8.539
   -2.428
    2.797
    5.936
    6.620
    5.042
    1.857
   -1.842
   -4.734
   -5.750
   -4.587
   -1.928
    0.865
    2.515
    2.543
    1.368
   -0.229
   -1.633
   -2.427
   -2.116
   -0.164
    3.453
    7.682
   10.625
   10.776
    8.259
    4.827
    2.437
    1.704
    1.608
    0.513
   -2.512
   -7.014
  -11.385
  -13.780
  -13.208
  -10.128
   -6.089
   -2.641
   -0.337
    1.321
    3.024
    4.741
    5.681
    5.150
    3.427
    1.816
    1.831
    4.109
    7.788
   10.804
   11.054
    7.742
    1.943
   -4.093
   -8.340
   -9.976
   -9.268
   -6.838
   -3.257
    0.696
    3.703
    4.287
    1.797
   -2.873
   -7.546
   -9.866
   -8.481
   -3.683
    2.680
    7.960
    9.914
    7.854
    3.019
   -2.151
   -5.381
   -5.616
   -3.227
    0.383
    3.320
    3.877
    1.398
   -3.052
   -6.970
   -7.817
   -4.720
    0.880
    6.253
    9.272
    9.566
    8.164
    6.274
    4.516
    3.067
    2.054
    1.469
    0.851
   -0.508
   -2.754
   -5.003
   -5.929
   -4.959
   -2.842
   -1.070
   -0.729
   -1.860
   -3.706
   -5.372
   -6.254
   -6.042
   -4.549
   -1.708
    2.243
    6.570
   10.061
   11.370
    9.617
    4.927
   -1.457
   -7.593
  -11.548
  -12.061
   -8.950
   -3.164
    3.478
    8.786
   10.898
    9.035
    3.980
   -2.123
   -6.720
   -8.084
   -6.128
   -2.328
    1.213
    3.008
    2.967
    2.143
    1.626
    1.609
    1.487
    0.798
   -0.086
   -0.231
    0.922
    2.955
    4.730
    5.192
    3.966
    1.383
   -1.838
   -4.870
   -6.945
   -7.538
   -6.572
   -4.450
   -1.772
    0.991
    3.503
    5.294
    5.758
    4.612
    2.376
    0.202
   -0.936
   -0.896
   -0.252
    0.350
    0.637
    0.599
    0.186
   -0.682
   -1.813
   -2.587
   -2.323
   -0.922
    0.873
    1.928
    1.533
   -0.107
   -2.090
   -3.493
   -3.861
   -3.166
   -1.540
    0.788
    3.322
    5.305
    6.087
    5.536
    4.034
    2.061
   -0.147
   -2.541
   -4.960
   -6.983
   -8.092
   -7.926
   -6.386
   -3.640
   -0.239
    2.764
    4.139
    3.294
    0.912
   -1.303
   -1.757
   -0.073
    2.773
    5.358
    6.881
    7.409
    7.277
    6.432
    4.471
    1.264
   -2.586
   -5.948
   -7.843
   -7.956
   -6.555
   -4.067
   -0.842
    2.648
    5.551
    6.842
    5.991
    3.448
    0.418
   -1.987
   -3.453
   -4.396
   -5.247
   -5.886
   -5.761
   -4.422
   -1.876
    1.405
    4.626
    6.887
    7.537
    6.580
    4.741
    2.939
    1.516
   -0.035
   -2.430
   -5.549
   -8.060
   -8.243
   -5.367
   -0.427
    4.392
    7.078
    6.944
    4.790
    2.080
   -0.099
   -1.468
   -2.256
   -2.674
   -2.717
   -2.303
   -1.511
   -0.693
   -0.426
   -1.239
   -3.197
   -5.568
   -6.994
   -6.281
   -3.309
    0.764
    4.294
    6.232
    6.545
    5.814
    4.612
    3.234
    1.749
    0.177
   -1.334
   -2.390
   -2.474
   -1.318
    0.731
    2.752
    3.759
    3.312
    1.698
   -0.397
   -2.316
   -3.617
   -4.069
   -3.663
   -2.637
   -1.362
   -0.111
    1.043
    2.092
    2.863
    2.958
    2.015
    0.151
   -1.793
   -2.586
   -1.411
    1.455
    4.687
    6.716
    6.661
    4.652
    1.410
   -2.313
   -5.829
   -8.274
   -8.727
   -6.876
   -3.572
   -0.503
    0.927
    0.566
   -0.541
   -1.066
