Origin Time       24/2/2010 19:20:52	 UTC
Lat.              28.6 N	
Long.             76.9 E	
Depth (Km)         17.0
Magnitude         2.5
 Region           Rohtak                                                           
 Above details taken from IMD 
    
Station Code      DJB
Station Lat.       28.652  N
Station Long.      77.188  E
Station Height(m)  235.0
Site Class        A   Vs30 between 700 m/sec to 1400 m/sec * 
Record Time       24.02.2010 19:20:14.619 UTC
Sampling Rate     200. Hz
 Record Duration   80.000 Sec.
 Direction         N-S (N positive)
Max. Acceleration     -1.595 cm/sec**2
     
  * For reference see Site Classification link of website 
     
 Base Line Corrected and Low Pass Filtered (Cut Off at 35 Hz) Time History
 Acceleration data in cm/sec**2
    
[...]
      -0.014
      -0.010
      -0.009
      -0.009
      -0.011
      -0.013
      -0.014
      -0.014
      -0.012
      -0.008
      -0.003
       0.002
       0.004
       0.001
      -0.003
      -0.008
      -0.014
      -0.021
      -0.028
      -0.032
      -0.030
      -0.022
      -0.012
      -0.004
      -0.002
      -0.008
      -0.016
      -0.023
      -0.025
      -0.022
      -0.016
      -0.009
      -0.005
      -0.006
      -0.011
      -0.013
      -0.011
      -0.007
      -0.006
      -0.007
      -0.007
      -0.002
       0.006
       0.009
       0.005
      -0.004
      -0.013
      -0.016
      -0.012
      -0.007
      -0.004
      -0.003
      -0.003
      -0.003
      -0.004
      -0.008
      -0.013
      -0.015
      -0.013
      -0.007
      -0.002
      -0.003
      -0.008
      -0.013
      -0.014
      -0.012
      -0.008
      -0.003
      -0.001
      -0.001
      -0.004
      -0.008
      -0.012
      -0.015
      -0.016
      -0.014
      -0.010
      -0.008
      -0.008
      -0.009
      -0.008
      -0.006
      -0.005
      -0.007
      -0.011
      -0.015
      -0.018
      -0.017
      -0.014
      -0.011
      -0.008
      -0.007
      -0.009
      -0.015
      -0.024
      -0.030
      -0.030
      -0.022
      -0.011
      -0.001
       0.001
      -0.006
      -0.017
      -0.024
      -0.023
      -0.015
      -0.007
      -0.004
      -0.007
      -0.012
      -0.014
      -0.011
      -0.007
      -0.006
      -0.007
      -0.008
      -0.008
      -0.006
      -0.002
       0.000
       0.000
      -0.004
      -0.011
      -0.015
      -0.013
      -0.006
      -0.001
      -0.002
      -0.007
      -0.012
      -0.012
      -0.008
      -0.002
       0.004
       0.009
       0.012
       0.013
       0.011
       0.007
       0.005
       0.006
       0.009
       0.013
       0.013
       0.008
      -0.001
      -0.009
      -0.010
      -0.004
       0.002
       0.005
       0.003
      -0.002
      -0.006
      -0.006
      -0.002
       0.003
       0.006
       0.006
       0.004
       0.002
      -0.001
      -0.003
      -0.006
      -0.007
      -0.006
      -0.001
       0.004
       0.006
       0.002
      -0.006
      -0.011
      -0.010
      -0.006
      -0.003
      -0.005
      -0.009
      -0.013
      -0.014
      -0.009
      -0.002
       0.005
       0.008
       0.006
       0.000
      -0.007
      -0.011
      -0.011
      -0.008
      -0.005
      -0.004
      -0.005
      -0.006
      -0.009
      -0.013
      -0.015
      -0.013
      -0.008
      -0.003
      -0.001
       0.001
       0.001
       0.000
      -0.002
      -0.006
      -0.010
      -0.014
      -0.015
      -0.012
      -0.007
      -0.003
      -0.003
      -0.006
      -0.007
      -0.005
       0.001
       0.006
       0.006
       0.001
      -0.006
      -0.009
      -0.006
       0.000
       0.007
       0.012
       0.011
       0.005
      -0.002
      -0.006
      -0.005
      -0.001
       0.000
      -0.002
      -0.007
      -0.011
      -0.014
      -0.015
      -0.015
      -0.013
      -0.008
      -0.001
       0.004
       0.005
      -0.001
      -0.012
      -0.022
      -0.025
      -0.020
      -0.008
       0.002
       0.007
       0.005
      -0.001
      -0.008
      -0.012
      -0.012
      -0.008
      -0.002
       0.002
       0.002
      -0.001
      -0.004
      -0.006
      -0.008
      -0.008
      -0.008
      -0.007
      -0.009
      -0.013
      -0.021
      -0.027
      -0.026
      -0.018
      -0.007
       0.004
       0.010
       0.010
       0.003
      -0.007
      -0.016
      -0.016
      -0.009
       0.000
       0.003
       0.000
      -0.007
      -0.016
      -0.021
      -0.022
      -0.016
      -0.006
       0.003
       0.009
       0.008
       0.004
      -0.002
      -0.007
      -0.009
      -0.009
      -0.008
      -0.008
      -0.010
      -0.013
      -0.015
      -0.015
      -0.014
      -0.010
      -0.005
       0.000
       0.003
       0.002
      -0.002
      -0.006
      -0.007
      -0.005
      -0.002
       0.000
      -0.001
      -0.002
      -0.004
      -0.004
      -0.003
      -0.003
      -0.006
      -0.009
      -0.009
      -0.005
      -0.001
      -0.001
      -0.005
      -0.012
      -0.014
      -0.009
      -0.001
       0.004
       0.004
      -0.001
      -0.005
      -0.005
       0.000
       0.006
       0.007
       0.000
      -0.010
      -0.017
      -0.015
      -0.009
      -0.005
      -0.008
      -0.015
      -0.022
      -0.024
      -0.021
      -0.017
      -0.015
      -0.016
      -0.016
      -0.014
      -0.009
      -0.006
      -0.005
      -0.006
      -0.005
      -0.002
       0.004
       0.009
       0.010
       0.007
       0.002
      -0.003
      -0.005
      -0.008
      -0.011
      -0.013
      -0.013
      -0.008
      -0.001
       0.003
      -0.001
      -0.008
      -0.012
      -0.009
      -0.001
       0.004
       0.004
      -0.001
      -0.008
      -0.012
      -0.014
      -0.013
      -0.011
      -0.008
      -0.005
      -0.002
      -0.001
      -0.003
      -0.008
      -0.013
      -0.016
      -0.014
      -0.009
      -0.003
      -0.002
      -0.004
      -0.009
      -0.013
      -0.012
      -0.008
      -0.003
       0.000
      -0.003
      -0.011
      -0.023
      -0.039
      -0.058
      -0.080
      -0.102
      -0.119
      -0.128
      -0.121
      -0.093
      -0.036
       0.047
       0.139
       0.210
       0.231
       0.199
       0.142
       0.102
       0.108
       0.145
       0.168
       0.137
       0.049
      -0.070
      -0.188
      -0.291
      -0.370
      -0.402
      -0.357
      -0.229
      -0.062
       0.075
       0.133
       0.119
       0.079
       0.053
       0.057
       0.078
       0.103
       0.126
       0.148
       0.162
       0.157
       0.121
       0.049
      -0.052
      -0.168
      -0.269
      -0.323
      -0.313
      -0.246
      -0.149
      -0.034
       0.107
       0.267
       0.398
       0.419
       0.288
       0.046
      -0.188
      -0.301
      -0.256
      -0.110
       0.032
       0.083
       0.026
      -0.096
      -0.207
      -0.242
      -0.180
      -0.052
       0.082
       0.167
       0.184
       0.155
       0.123
       0.118
       0.137
       0.154
       0.146
       0.107
       0.035
      -0.064
      -0.164
      -0.216
      -0.183
      -0.090
      -0.016
      -0.039
      -0.146
      -0.244
      -0.228
      -0.084
       0.109
       0.243
       0.258
       0.171
       0.044
      -0.059
      -0.097
      -0.062
       0.019
       0.092
       0.100
       0.017
      -0.128
      -0.261
      -0.289
      -0.168
       0.056
       0.251
       0.290
       0.155
      -0.028
      -0.098
      -0.010
       0.123
       0.138
      -0.007
      -0.191
      -0.250
      -0.138
       0.035
       0.121
       0.078
      -0.011
      -0.053
      -0.039
      -0.032
      -0.074
      -0.129
      -0.121
      -0.021
       0.120
       0.208
       0.190
       0.098
       0.017
       0.005
       0.040
       0.036
      -0.066
      -0.226
      -0.322
      -0.254
      -0.052
       0.140
       0.185
       0.085
      -0.033
      -0.044
       0.059
       0.164
       0.160
       0.037
      -0.101
      -0.136
      -0.035
       0.127
       0.230
       0.197
       0.043
      -0.142
      -0.256
      -0.252
      -0.163
      -0.067
      -0.036
      -0.074
      -0.117
      -0.088
       0.030
       0.167
       0.234
       0.206
       0.138
       0.096
       0.084
       0.044
      -0.065
      -0.192
      -0.223
      -0.098
       0.103
       0.216
       0.138
      -0.078
      -0.261
      -0.271
      -0.111
       0.080
       0.157
       0.086
      -0.032
      -0.059
       0.045
       0.193
       0.249
       0.151
      -0.046
      -0.223
      -0.281
      -0.202
      -0.053
       0.066
       0.093
       0.039
      -0.033
      -0.070
      -0.061
      -0.024
       0.026
       0.079
       0.112
       0.098
       0.037
      -0.032
      -0.062
      -0.048
      -0.023
      -0.023
      -0.049
      -0.076
      -0.084
      -0.085
      -0.097
      -0.107
      -0.072
       0.022
       0.130
       0.184
       0.162
       0.117
       0.113
       0.144
       0.127
       0.003
      -0.180
      -0.287
      -0.224
      -0.035
       0.125
       0.130
      -0.010
      -0.159
      -0.189
      -0.087
       0.043
       0.090
       0.040
      -0.024
      -0.019
       0.056
       0.129
       0.139
       0.093
       0.040
       0.004
      -0.040
      -0.113
      -0.188
      -0.207
      -0.148
      -0.051
       0.018
       0.031
       0.012
       0.008
       0.039
       0.089
       0.123
       0.116
       0.063
      -0.016
      -0.082
      -0.100
      -0.067
      -0.021
      -0.014
      -0.060
      -0.112
      -0.106
      -0.030
       0.056
       0.084
       0.043
      -0.015
      -0.038
      -0.013
       0.036
       0.079
       0.094
       0.064
      -0.019
      -0.122
      -0.185
      -0.167
      -0.089
      -0.010
       0.037
       0.064
       0.096
       0.126
       0.117
       0.052
      -0.036
      -0.088
      -0.068
       0.004
       0.067
       0.070
       0.013
      -0.055
      -0.077
      -0.042
      -0.001
      -0.007
      -0.058
      -0.090
      -0.050
       0.048
       0.135
       0.151
       0.094
       0.015
      -0.039
      -0.064
      -0.077
      -0.077
      -0.036
       0.060
       0.170
       0.219
       0.160
       0.021
      -0.111
      -0.163
      -0.137
      -0.088
      -0.061
      -0.051
      -0.026
       0.022
       0.061
       0.057
       0.015
      -0.021
      -0.003
       0.066
       0.126
       0.110
       0.012
      -0.097
      -0.136
      -0.087
      -0.008
       0.033
       0.020
      -0.016
      -0.043
      -0.057
      -0.061
      -0.040
       0.034
       0.149
       0.233
       0.204
       0.060
      -0.108
      -0.188
      -0.155
      -0.081
      -0.060
      -0.112
      -0.172
      -0.152
      -0.037
       0.103
       0.172
       0.138
       0.042
      -0.044
      -0.075
      -0.047
       0.021
       0.101
       0.156
       0.152
       0.075
      -0.044
      -0.145
      -0.180
      -0.153
      -0.114
      -0.105
      -0.126
      -0.136
      -0.090
       0.025
       0.178
       0.306
       0.351
       0.299
       0.172
       0.012
      -0.148
      -0.281
      -0.355
      -0.339
      -0.225
      -0.059
       0.078
       0.125
       0.087
       0.026
       0.004
       0.031
       0.068
       0.069
       0.021
      -0.037
      -0.050
       0.015
       0.131
       0.214
       0.178
       0.016
      -0.185
      -0.307
      -0.292
      -0.187
      -0.085
      -0.046
      -0.052
      -0.038
       0.042
       0.163
       0.246
       0.223
       0.106
      -0.022
      -0.075
      -0.045
      -0.005
      -0.028
      -0.107
      -0.166
      -0.137
      -0.039
       0.044
       0.050
       0.002
      -0.024
       0.013
       0.071
       0.076
       0.010
      -0.070
      -0.086
      -0.027
       0.040
       0.042
      -0.031
      -0.118
      -0.153
      -0.110
      -0.019
       0.073
       0.132
       0.139
       0.082
      -0.024
      -0.125
      -0.144
      -0.054
       0.087
       0.180
       0.168
       0.067
      -0.063
      -0.167
      -0.223
      -0.227
      -0.175
      -0.069
       0.062
       0.157
       0.164
       0.082
      -0.028
      -0.089
      -0.065
       0.016
       0.096
       0.129
       0.107
       0.052
      -0.003
      -0.030
      -0.028
      -0.022
      -0.044
      -0.100
      -0.158
      -0.172
      -0.124
      -0.038
       0.043
       0.086
       0.085
       0.056
       0.020
      -0.013
      -0.051
      -0.099
      -0.147
      -0.165
      -0.119
      -0.002
       0.148
       0.257
       0.269
       0.186
       0.060
      -0.056
      -0.140
      -0.189
      -0.191
      -0.136
      -0.039
       0.048
       0.065
       0.001
      -0.081
      -0.093
      -0.004
       0.124
       0.180
       0.109
      -0.033
      -0.118
      -0.061
       0.099
       0.237
       0.249
       0.136
      -0.021
      -0.144
      -0.204
      -0.208
      -0.159
      -0.068
       0.021
       0.045
      -0.013
      -0.088
      -0.088
       0.006
       0.106
       0.107
      -0.005
      -0.140
      -0.197
      -0.155
      -0.066
       0.021
       0.106
       0.204
       0.292
       0.304
       0.194
      -0.007
      -0.209
      -0.328
      -0.342
      -0.294
      -0.248
      -0.236
      -0.238
      -0.216
      -0.169
      -0.144
      -0.180
      -0.250
      -0.254
      -0.100
       0.219
       0.608
       0.931
       1.083
       1.018
       0.741
       0.311
      -0.167
      -0.564
      -0.775
      -0.760
      -0.560
      -0.277
      -0.035
       0.082
       0.076
       0.032
       0.062
       0.216
       0.429
       0.557
       0.484
       0.225
      -0.065
      -0.205
      -0.143
       0.009
       0.103
       0.101
       0.089
       0.146
       0.219
       0.147
      -0.187
      -0.731
      -1.276
      -1.595
      -1.577
      -1.243
      -0.691
      -0.031
       0.616
       1.123
       1.383
       1.366
       1.129
       0.782
       0.439
       0.173
       0.000
      -0.112
      -0.206
      -0.285
      -0.298
      -0.192
       0.001
       0.149
       0.108
      -0.146
      -0.474
      -0.677
      -0.662
      -0.507
      -0.358
      -0.262
      -0.122
       0.179
       0.602
       0.930
       0.938
       0.587
       0.072
      -0.333
      -0.464
      -0.358
      -0.181
      -0.091
      -0.118
      -0.170
      -0.126
       0.043
       0.237
       0.310
       0.199
      -0.016
      -0.190
      -0.232
      -0.171
      -0.084
      -0.002
       0.114
       0.288
       0.440
       0.435
       0.224
      -0.094
      -0.360
      -0.489
      -0.511
      -0.482
      -0.400
      -0.210
       0.083
       0.355
       0.447
       0.320
       0.095
      -0.076
      -0.147
      -0.159
      -0.131
      -0.015
       0.200
       0.406
       0.434
       0.222
      -0.112
      -0.343
      -0.322
      -0.099
       0.125
       0.178
       0.063
      -0.067
      -0.063
       0.073
       0.208
       0.200
       0.029
      -0.193
      -0.315
      -0.262
      -0.085
       0.094
       0.178
       0.148
       0.043
      -0.074
      -0.140
      -0.117
      -0.016
       0.098
       0.140
       0.069
      -0.074
      -0.201
      -0.245
      -0.207
      -0.134
      -0.057
       0.025
       0.124
       0.217
       0.246
       0.163
      -0.014
      -0.190
      -0.252
      -0.160
       0.011
       0.138
       0.150
       0.089
       0.056
       0.095
       0.142
       0.098
      -0.048
      -0.185
      -0.181
      -0.015
       0.184
       0.229
       0.035
      -0.282
      -0.483
      -0.408
      -0.117
       0.166
       0.252
       0.155
       0.049
       0.065
       0.146
       0.128
      -0.053
      -0.261
      -0.282
      -0.057
       0.243
       0.378
       0.265
       0.033
      -0.125
      -0.140
      -0.093
      -0.093
      -0.145
      -0.162
      -0.074
       0.091
       0.226
       0.233
       0.098
      -0.105
      -0.256
      -0.266
      -0.133
       0.050
       0.162
       0.154
       0.095
       0.089
       0.152
       0.173
       0.025
      -0.294
      -0.623
      -0.737
      -0.505
       0.004
       0.546
       0.854
       0.803
       0.471
       0.078
      -0.174
      -0.232
      -0.209
      -0.257
      -0.404
      -0.504
      -0.372
       0.002
       0.384
       0.476
       0.193
      -0.243
      -0.491
      -0.374
      -0.004
       0.349
       0.472
       0.352
       0.130
      -0.050
      -0.152
      -0.212
      -0.230
      -0.133
       0.109
       0.376
       0.456
       0.243
      -0.146
      -0.456
      -0.510
      -0.329
      -0.073
       0.120
       0.231
       0.305
       0.355
       0.329
       0.180
      -0.050
      -0.240
      -0.285
      -0.189
      -0.070
      -0.053
      -0.146
      -0.219
      -0.140
       0.074
       0.247
       0.216
       0.012
      -0.158
      -0.107
       0.131
       0.326
       0.266
      -0.044
      -0.378
      -0.473
      -0.232
       0.209
       0.565
       0.586
       0.239
      -0.231
      -0.472
      -0.334
      -0.020
       0.111
      -0.090
      -0.412
      -0.497
      -0.205
       0.253
       0.535
       0.479
       0.212
      -0.019
      -0.086
      -0.052
      -0.045
      -0.105
      -0.178
      -0.214
      -0.220
      -0.210
      -0.142
       0.049
       0.343
       0.576
       0.541
       0.183
      -0.288
      -0.539
      -0.400
      -0.029
       0.229
       0.148
      -0.169
      -0.396
      -0.284
       0.103
       0.455
       0.504
       0.248
      -0.086
      -0.269
      -0.243
      -0.103
       0.032
       0.102
       0.097
       0.024
      -0.078
      -0.129
      -0.054
       0.123
       0.260
       0.216
      -0.001
      -0.224
      -0.278
      -0.139
       0.067
       0.192
       0.182
       0.077
      -0.052
      -0.157
      -0.210
      -0.193
      -0.110
       0.011
       0.133
       0.217
       0.215
       0.097
      -0.093
      -0.238
      -0.234
      -0.086
       0.090
       0.158
       0.068
      -0.096
      -0.178
      -0.080
       0.139
       0.309
       0.282
       0.064
      -0.178
      -0.253
      -0.108
       0.114
       0.202
       0.076
      -0.138
      -0.240
      -0.158
       0.001
       0.074
      -0.005
      -0.151
      -0.223
      -0.139
       0.066
       0.283
       0.402
       0.363
       0.172
      -0.102
      -0.353
      -0.481
      -0.433
      -0.244
      -0.019
       0.143
       0.217
       0.232
       0.212
       0.154
       0.056
      -0.054
      -0.138
      -0.163
      -0.110
       0.019
       0.173
       0.263
       0.217
       0.044
      -0.149
      -0.230
      -0.154
       0.014
       0.158
       0.209
       0.171
       0.082
      -0.032
      -0.149
      -0.242
      -0.273
      -0.214
      -0.073
       0.083
       0.157
       0.108
      -0.001
      -0.048
       0.022
       0.143
       0.176
       0.050
      -0.162
      -0.298
      -0.259
      -0.096
       0.052
       0.095
       0.059
       0.030
       0.045
       0.064
       0.049
       0.027
       0.047
       0.102
       0.117
       0.034
      -0.111
      -0.205
      -0.167
      -0.037
       0.070
       0.076
       0.012
      -0.050
      -0.082
      -0.090
      -0.065
       0.020
       0.146
       0.235
       0.211
       0.077
      -0.087
      -0.193
      -0.217
      -0.197
      -0.167
      -0.111
