Origin Time       17/9/2010 19:21:09	
Lat.              36.5 N	
Long.             70.8 E	
Depth (Km)        167.0
Magnitude         6.5
 Region           Hindukush                                                        
 Above details taken from IMD 
   
Station Code      BHA
Station Lat.       31.552
Station Long.      77.923
Station Height(m) 1566.0
Site Class        A   Vs30 between 700 m/sec to 1400 m/sec * 
Record Time       17.09.2010 19:23:56.629
Sampling Rate     200. Hz
 Record Duration   86.390 Sec.
 Direction         Vert. (Up positive)
Max. Acceleration      1.542 cm/sec**2
     
  * For reference see Site Classification link of website 
     
 Base Line Corrected and Low Pass Filtered (Cut Off at 35 Hz) Time History
 Acceleration data in cm/sec**2
    
[...]
       0.039
       0.007
      -0.050
      -0.110
      -0.157
      -0.187
      -0.214
      -0.248
      -0.289
      -0.320
      -0.327
      -0.303
      -0.258
      -0.204
      -0.148
      -0.092
      -0.031
       0.039
       0.113
       0.185
       0.242
       0.275
       0.281
       0.265
       0.240
       0.218
       0.202
       0.190
       0.175
       0.154
       0.137
       0.133
       0.148
       0.176
       0.203
       0.210
       0.184
       0.123
       0.038
      -0.050
      -0.122
      -0.171
      -0.201
      -0.220
      -0.232
      -0.234
      -0.224
      -0.207
      -0.185
      -0.160
      -0.133
      -0.103
      -0.068
      -0.028
       0.017
       0.061
       0.092
       0.101
       0.089
       0.065
       0.039
       0.013
      -0.015
      -0.045
      -0.075
      -0.101
      -0.124
      -0.148
      -0.173
      -0.198
      -0.216
      -0.227
      -0.236
      -0.242
      -0.240
      -0.217
      -0.169
      -0.101
      -0.027
       0.040
       0.092
       0.128
       0.149
       0.155
       0.146
       0.128
       0.106
       0.086
       0.071
       0.065
       0.070
       0.082
       0.096
       0.109
       0.124
       0.151
       0.191
       0.238
       0.280
       0.309
       0.325
       0.329
       0.325
       0.315
       0.297
       0.269
       0.229
       0.172
       0.101
       0.019
      -0.060
      -0.125
      -0.168
      -0.191
      -0.197
      -0.192
      -0.183
      -0.174
      -0.171
      -0.173
      -0.175
      -0.175
      -0.170
      -0.161
      -0.149
      -0.134
      -0.115
      -0.094
      -0.070
      -0.043
      -0.013
       0.024
       0.069
       0.125
       0.185
       0.235
       0.260
       0.254
       0.226
       0.190
       0.153
       0.110
       0.049
      -0.035
      -0.131
      -0.221
      -0.286
      -0.318
      -0.322
      -0.308
      -0.283
      -0.243
      -0.183
      -0.105
      -0.018
       0.061
       0.118
       0.153
       0.176
       0.195
       0.210
       0.214
       0.200
       0.171
       0.138
       0.111
       0.094
       0.081
       0.064
       0.037
      -0.001
      -0.048
      -0.101
      -0.159
      -0.220
      -0.283
      -0.338
      -0.381
      -0.407
      -0.416
      -0.410
      -0.383
      -0.330
      -0.248
      -0.147
      -0.044
       0.045
       0.111
       0.151
       0.169
       0.171
       0.160
       0.136
       0.099
       0.047
      -0.014
      -0.074
      -0.123
      -0.153
      -0.163
      -0.153
      -0.132
      -0.103
      -0.071
      -0.039
      -0.013
       0.001
       0.003
       0.000
       0.004
       0.022
       0.055
       0.104
       0.176
       0.272
       0.384
       0.492
       0.574
       0.619
       0.632
       0.618
       0.581
       0.515
       0.414
       0.282
       0.137
       0.003
      -0.096
      -0.153
      -0.179
      -0.191
      -0.206
      -0.223
      -0.233
      -0.226
      -0.197
      -0.147
      -0.083
      -0.009
       0.070
       0.148
       0.223
       0.288
       0.339
       0.374
       0.389
       0.383
       0.352
       0.296
       0.220
       0.134
       0.052
      -0.017
      -0.070
      -0.111
      -0.145
      -0.175
      -0.198
      -0.207
      -0.193
      -0.153
      -0.097
      -0.046
      -0.020
      -0.026
      -0.055
      -0.088
      -0.108
      -0.114
      -0.108
      -0.101
      -0.098
      -0.107
      -0.131
      -0.171
      -0.222
      -0.276
      -0.325
      -0.361
      -0.384
      -0.397
      -0.410
      -0.430
      -0.452
      -0.462
      -0.439
      -0.380
      -0.299
      -0.217
      -0.152
      -0.103
      -0.056
       0.003
       0.078
       0.161
       0.242
       0.310
       0.364
       0.409
       0.448
       0.480
       0.496
       0.487
       0.448
       0.383
       0.306
       0.230
       0.169
       0.126
       0.098
       0.080
       0.062
       0.036
      -0.006
      -0.064
      -0.127
      -0.177
      -0.202
      -0.202
      -0.192
      -0.184
      -0.178
      -0.163
      -0.123
      -0.052
       0.046
       0.152
       0.250
       0.325
       0.377
       0.408
       0.425
       0.427
       0.409
       0.365
       0.295
       0.204
       0.103
       0.006
      -0.082
      -0.162
      -0.233
      -0.292
      -0.331
      -0.339
      -0.314
      -0.260
      -0.186
      -0.103
      -0.017
       0.070
       0.153
       0.222
       0.267
       0.274
       0.241
       0.173
       0.086
      -0.001
      -0.077
      -0.142
      -0.205
      -0.273
      -0.341
      -0.395
      -0.419
      -0.406
      -0.359
      -0.285
      -0.196
      -0.101
      -0.008
       0.071
       0.127
       0.150
       0.139
       0.109
       0.077
       0.058
       0.052
       0.050
       0.044
       0.039
       0.042
       0.059
       0.082
       0.107
       0.129
       0.151
       0.176
       0.195
       0.198
       0.173
       0.119
       0.047
      -0.029
      -0.098
      -0.158
      -0.212
      -0.263
      -0.308
      -0.343
      -0.361
      -0.356
      -0.329
      -0.283
      -0.219
      -0.140
      -0.047
       0.056
       0.162
       0.265
       0.356
       0.428
       0.475
       0.490
       0.477
       0.446
       0.408
       0.371
       0.328
       0.265
       0.169
       0.039
      -0.115
      -0.278
      -0.443
      -0.606
      -0.764
      -0.915
      -1.051
      -1.163
      -1.240
      -1.267
      -1.230
      -1.123
      -0.954
      -0.743
      -0.514
      -0.282
      -0.045
       0.204
       0.460
       0.694
       0.863
       0.943
       0.944
       0.896
       0.831
       0.764
       0.697
       0.625
       0.548
       0.468
       0.395
       0.340
       0.312
       0.310
       0.318
       0.319
       0.299
       0.255
       0.195
       0.123
       0.039
      -0.053
      -0.144
      -0.216
      -0.259
      -0.271
      -0.256
      -0.217
      -0.154
      -0.070
       0.025
       0.118
       0.196
       0.252
       0.283
       0.292
       0.281
       0.253
       0.211
       0.161
       0.107
       0.055
       0.007
      -0.037
      -0.083
      -0.134
      -0.185
      -0.215
      -0.200
      -0.138
      -0.058
       0.001
       0.023
       0.027
       0.050
       0.118
       0.221
       0.327
       0.404
       0.439
       0.437
       0.410
       0.366
       0.298
       0.193
       0.040
      -0.156
      -0.368
      -0.564
      -0.724
      -0.844
      -0.926
      -0.964
      -0.951
      -0.884
      -0.773
      -0.632
      -0.468
      -0.283
      -0.081
       0.130
       0.330
       0.499
       0.626
       0.722
       0.811
       0.912
       1.015
       1.088
       1.095
       1.027
       0.911
       0.785
       0.680
       0.596
       0.521
       0.440
       0.348
       0.247
       0.146
       0.050
      -0.041
      -0.133
      -0.229
      -0.328
      -0.427
      -0.526
      -0.627
      -0.723
      -0.797
      -0.831
      -0.817
      -0.767
      -0.701
      -0.633
      -0.570
      -0.514
      -0.464
      -0.419
      -0.370
      -0.310
      -0.240
      -0.170
      -0.109
      -0.057
       0.000
       0.070
       0.142
       0.194
       0.205
       0.179
       0.147
       0.144
       0.190
       0.270
       0.349
       0.396
       0.400
       0.374
       0.342
       0.322
       0.318
       0.323
       0.320
       0.298
       0.254
       0.187
       0.098
      -0.008
      -0.123
      -0.228
      -0.300
      -0.326
      -0.312
      -0.281
      -0.257
      -0.252
      -0.256
      -0.254
      -0.238
      -0.210
      -0.175
      -0.133
      -0.078
      -0.006
       0.084
       0.184
       0.277
       0.346
       0.383
       0.388
       0.373
       0.350
       0.318
       0.266
       0.182
       0.061
      -0.089
      -0.252
      -0.409
      -0.546
      -0.654
      -0.735
      -0.791
      -0.824
      -0.830
      -0.806
      -0.755
      -0.687
      -0.615
      -0.547
      -0.480
      -0.405
      -0.307
      -0.182
      -0.041
       0.093
       0.196
       0.264
       0.311
       0.364
       0.438
       0.528
       0.609
       0.659
       0.674
       0.662
       0.638
       0.607
       0.573
       0.531
       0.481
       0.422
       0.357
       0.298
       0.255
       0.237
       0.243
       0.271
       0.314
       0.370
       0.435
       0.501
       0.559
       0.603
       0.619
       0.594
       0.518
       0.391
       0.224
       0.034
      -0.163
      -0.352
      -0.518
      -0.650
      -0.746
      -0.802
      -0.816
      -0.785
      -0.719
      -0.635
      -0.554
      -0.489
      -0.442
      -0.405
      -0.368
      -0.321
      -0.261
      -0.191
      -0.120
      -0.053
       0.013
       0.091
       0.193
       0.311
       0.414
       0.463
       0.435
       0.338
       0.208
       0.089
       0.007
      -0.043
      -0.082
      -0.125
      -0.166
      -0.179
      -0.140
      -0.045
       0.082
       0.201
       0.273
       0.286
       0.250
       0.192
       0.136
       0.093
       0.056
       0.020
      -0.018
      -0.056
      -0.091
      -0.119
      -0.140
      -0.149
      -0.145
      -0.132
      -0.116
      -0.109
      -0.120
      -0.154
      -0.211
      -0.280
      -0.345
      -0.393
      -0.419
      -0.427
      -0.420
      -0.400
      -0.358
      -0.290
      -0.203
      -0.115
      -0.047
      -0.015
      -0.019
      -0.045
      -0.070
      -0.079
      -0.070
      -0.051
      -0.025
       0.014
       0.081
       0.182
       0.299
       0.397
       0.451
       0.455
       0.430
       0.395
       0.358
       0.313
       0.249
       0.172
       0.098
       0.050
       0.040
       0.071
       0.132
       0.207
       0.286
       0.361
       0.435
       0.510
       0.583
       0.647
       0.692
       0.717
       0.730
       0.741
       0.754
       0.760
       0.751
       0.727
       0.692
       0.649
       0.598
       0.532
       0.448
       0.348
       0.246
       0.156
       0.089
       0.046
       0.016
      -0.016
      -0.059
      -0.113
      -0.172
      -0.229
      -0.288
      -0.359
      -0.449
      -0.555
      -0.666
      -0.764
      -0.828
      -0.846
      -0.814
      -0.739
      -0.634
      -0.512
      -0.381
      -0.243
      -0.106
       0.017
       0.108
       0.155
       0.161
       0.134
       0.083
       0.016
      -0.061
      -0.132
      -0.184
      -0.213
      -0.231
      -0.252
      -0.283
      -0.316
      -0.341
      -0.349
      -0.343
      -0.329
      -0.313
      -0.292
      -0.261
      -0.215
      -0.157
      -0.099
      -0.049
      -0.006
       0.045
       0.116
       0.205
       0.294
       0.360
       0.386
       0.365
       0.300
       0.196
       0.065
      -0.085
      -0.243
      -0.391
      -0.508
      -0.567
      -0.555
      -0.479
      -0.368
      -0.255
      -0.161
      -0.080
       0.001
       0.091
       0.179
       0.239
       0.252
       0.209
       0.121
       0.007
      -0.110
      -0.215
      -0.298
      -0.358
      -0.394
      -0.407
      -0.399
      -0.369
      -0.314
      -0.237
      -0.144
      -0.047
       0.039
       0.107
       0.157
       0.191
       0.217
       0.235
       0.245
       0.243
       0.228
       0.201
       0.167
       0.133
       0.103
       0.073
       0.037
      -0.016
      -0.087
      -0.169
      -0.244
      -0.299
      -0.327
      -0.330
      -0.311
      -0.268
      -0.197
      -0.095
       0.039
       0.195
       0.359
       0.515
       0.646
       0.746
       0.820
       0.878
       0.925
       0.959
       0.968
       0.947
       0.897
       0.825
       0.738
       0.635
       0.510
       0.357
       0.175
      -0.027
      -0.234
      -0.428
      -0.592
      -0.720
      -0.814
      -0.877
      -0.911
      -0.911
      -0.866
      -0.770
      -0.622
      -0.429
      -0.206
       0.023
       0.235
       0.411
       0.543
       0.634
       0.693
       0.725
       0.728
       0.695
       0.620
       0.512
       0.386
       0.261
       0.143
       0.024
      -0.109
      -0.261
      -0.421
      -0.565
      -0.673
      -0.738
      -0.773
      -0.792
      -0.800
      -0.789
      -0.746
      -0.671
      -0.576
      -0.482
      -0.399
      -0.325
      -0.255
      -0.183
      -0.115
      -0.061
      -0.035
      -0.053
      -0.126
      -0.249
      -0.397
      -0.535
      -0.635
      -0.687
      -0.698
      -0.678
      -0.630
      -0.546
      -0.424
      -0.275
      -0.123
       0.005
       0.095
       0.146
       0.165
       0.164
       0.159
       0.165
       0.198
       0.265
       0.361
       0.465
       0.558
       0.620
       0.640
       0.611
       0.526
       0.390
       0.213
       0.018
      -0.171
      -0.341
      -0.486
      -0.599
      -0.671
      -0.683
      -0.621
      -0.483
      -0.281
      -0.036
       0.228
       0.489
       0.733
       0.955
       1.152
       1.320
       1.447
       1.523
       1.542
       1.509
       1.437
       1.342
       1.232
       1.113
       0.981
       0.831
       0.659
       0.463
       0.253
       0.043
      -0.154
      -0.336
      -0.508
      -0.670
      -0.810
      -0.910
      -0.950
      -0.922
      -0.822
      -0.655
      -0.439
      -0.204
       0.019
       0.217
       0.393
       0.554
       0.693
       0.792
       0.834
       0.818
       0.751
       0.636
       0.475
       0.270
       0.038
      -0.193
      -0.395
      -0.551
      -0.657
      -0.715
      -0.727
      -0.697
      -0.633
      -0.552
      -0.473
      -0.409
      -0.359
      -0.309
      -0.245
      -0.162
      -0.061
       0.053
       0.177
       0.300
       0.407
       0.471
       0.473
       0.407
       0.291
       0.155
       0.025
      -0.083
      -0.170
      -0.247
      -0.330
      -0.439
      -0.587
      -0.768
      -0.953
      -1.105
      -1.199
      -1.231
      -1.213
      -1.157
      -1.066
      -0.942
      -0.794
      -0.635
      -0.479
      -0.327
      -0.177
      -0.029
       0.116
       0.255
       0.391
       0.520
       0.633
       0.709
       0.722
       0.659
       0.526
       0.350
       0.174
       0.032
      -0.055
      -0.092
      -0.097
      -0.091
      -0.080
      -0.056
      -0.004
       0.084
       0.198
       0.322
       0.439
       0.543
       0.639
       0.730
       0.814
       0.879
       0.913
       0.910
       0.872
       0.809
       0.728
       0.630
       0.510
       0.373
       0.234
       0.114
       0.025
      -0.040
      -0.099
      -0.165
      -0.236
      -0.299
      -0.343
      -0.361
      -0.354
      -0.321
      -0.266
      -0.194
      -0.117
      -0.043
       0.023
       0.079
       0.123
       0.147
       0.145
       0.117
       0.073
       0.024
      -0.020
      -0.053
      -0.073
      -0.081
      -0.078
      -0.060
      -0.026
       0.025
       0.083
       0.134
       0.163
       0.162
       0.129
       0.070
      -0.004
      -0.083
      -0.155
      -0.209
      -0.239
      -0.241
      -0.217
      -0.170
      -0.101
      -0.006
       0.121
       0.280
       0.458
       0.638
       0.800
       0.930
       1.015
       1.043
       1.009
       0.910
       0.758
       0.566
       0.353
       0.136
      -0.075
      -0.277
      -0.479
      -0.687
      -0.896
      -1.092
      -1.262
      -1.395
      -1.481
      -1.506
      -1.450
      -1.297
      -1.044
      -0.709
      -0.326
       0.059
       0.403
       0.675
       0.863
       0.972
       1.008
       0.978
       0.886
       0.736
       0.536
       0.303
       0.065
      -0.138
      -0.281
      -0.358
      -0.393
      -0.417
      -0.451
      -0.493
      -0.525
      -0.531
      -0.512
      -0.487
      -0.475
      -0.480
      -0.488
      -0.469
      -0.403
      -0.286
      -0.134
       0.032
       0.194
       0.335
       0.442
       0.500
       0.502
       0.446
       0.339
       0.196
       0.030
      -0.140
      -0.296
      -0.420
      -0.500
      -0.534
      -0.522
      -0.467
      -0.374
      -0.252
      -0.112
       0.030
       0.164
       0.275
       0.348
       0.371
       0.337
       0.257
       0.152
       0.049
      -0.025
      -0.052
      -0.028
       0.040
       0.132
       0.230
       0.315
       0.372
       0.392
       0.371
       0.311
       0.224
       0.118
       0.002
      -0.113
      -0.214
      -0.286
      -0.320
      -0.317
      -0.278
      -0.200
      -0.079
       0.077
       0.248
       0.401
       0.513
       0.578
       0.606
       0.610
       0.593
       0.555
       0.495
       0.416
       0.328
       0.243
       0.177
       0.147
       0.155
       0.185
       0.208
       0.199
       0.150
       0.070
      -0.030
      -0.139
      -0.249
      -0.347
      -0.421
      -0.467
      -0.482
      -0.469
      -0.422
      -0.336
      -0.212
      -0.071
       0.057
       0.144
       0.178
       0.164
       0.124
       0.081
       0.055
       0.055
       0.080
       0.117
       0.153
       0.188
       0.226
       0.270
       0.303
       0.301
       0.247
       0.152
       0.047
      -0.040
      -0.106
      -0.161
      -0.223
      -0.296
      -0.379
      -0.462
      -0.539
      -0.605
      -0.655
      -0.684
      -0.686
      -0.653
      -0.581
      -0.466
      -0.310
      -0.122
       0.080
       0.271
       0.427
       0.535
       0.593
       0.610
       0.596
       0.555
       0.485
       0.382
       0.249
       0.096
      -0.060
      -0.198
      -0.298
      -0.348
      -0.349
      -0.309
      -0.236
      -0.129
       0.015
       0.192
       0.384
       0.560
       0.697
       0.792
       0.853
       0.888
       0.896
       0.863
       0.778
       0.632
       0.429
       0.188
      -0.062
      -0.288
      -0.472
      -0.617
      -0.744
      -0.869
      -0.989
      -1.071
      -1.080
      -0.996
      -0.829
      -0.606
      -0.359
      -0.107
       0.143
       0.389
       0.624
       0.833
       0.991
       1.071
       1.051
       0.930
       0.726
       0.467
       0.179
      -0.119
      -0.407
      -0.666
      -0.874
      -1.017
      -1.091
      -1.098
      -1.046
      -0.942
      -0.793
      -0.614
      -0.423
      -0.234
      -0.060
       0.093
       0.212
       0.287
       0.315
       0.305
       0.284
       0.278
       0.305
       0.362
       0.430
       0.486
       0.514
       0.510
       0.475
       0.416
       0.334
       0.226
       0.084
      -0.094
      -0.297
      -0.502
      -0.681
      -0.811
      -0.879
