Origin Time       18/9/2011 12:40:47	
Lat.              27.6 N	
Long.             88.2 E	
Depth (Km)         10.0
Magnitude         6.8
 Region           India(Sikkim)-Nepar-Border                                       
 Above details taken from IMD 
   
Station Code      KRM
Station Lat.       24.870
Station Long.      92.354
Station Height(m)   35.0
Site Class        C   Vs30 between 200 m/sec to 375 m/sec *  
Record Time       18.09.2011 12:42:52.549
Sampling Rate     200. Hz
 Record Duration  140.155 Sec.
 Direction         Vert. (Up positive)
Max. Acceleration      2.772 cm/sec**2
     
  * For reference see Site Classification link of website 
     
 Base Line Corrected and Low Pass Filtered (Cut Off at 35 Hz) Time History
 Acceleration data in cm/sec**2
    
[...]
      -0.299
      -0.240
      -0.186
      -0.138
      -0.103
      -0.083
      -0.071
      -0.049
      -0.004
       0.059
       0.119
       0.161
       0.190
       0.223
       0.269
       0.319
       0.351
       0.357
       0.354
       0.366
       0.406
       0.462
       0.516
       0.554
       0.574
       0.582
       0.582
       0.574
       0.564
       0.559
       0.563
       0.570
       0.572
       0.564
       0.549
       0.535
       0.523
       0.500
       0.453
       0.386
       0.320
       0.276
       0.255
       0.243
       0.227
       0.205
       0.181
       0.160
       0.136
       0.104
       0.065
       0.027
       0.002
      -0.010
      -0.016
      -0.022
      -0.027
      -0.028
      -0.028
      -0.040
      -0.076
      -0.130
      -0.180
      -0.205
      -0.206
      -0.195
      -0.187
      -0.187
      -0.196
      -0.214
      -0.247
      -0.296
      -0.352
      -0.395
      -0.411
      -0.405
      -0.395
      -0.401
      -0.421
      -0.441
      -0.452
      -0.458
      -0.470
      -0.489
      -0.505
      -0.504
      -0.487
      -0.465
      -0.444
      -0.423
      -0.394
      -0.361
      -0.336
      -0.328
      -0.324
      -0.303
      -0.253
      -0.186
      -0.124
      -0.080
      -0.042
       0.007
       0.069
       0.128
       0.162
       0.169
       0.173
       0.200
       0.259
       0.335
       0.410
       0.473
       0.523
       0.558
       0.572
       0.562
       0.540
       0.529
       0.550
       0.599
       0.653
       0.686
       0.694
       0.693
       0.701
       0.720
       0.735
       0.740
       0.737
       0.734
       0.735
       0.737
       0.740
       0.749
       0.766
       0.784
       0.789
       0.770
       0.732
       0.692
       0.670
       0.671
       0.685
       0.697
       0.700
       0.698
       0.690
       0.668
       0.626
       0.569
       0.517
       0.483
       0.466
       0.455
       0.446
       0.437
       0.426
       0.402
       0.352
       0.275
       0.188
       0.117
       0.080
       0.070
       0.067
       0.052
       0.021
      -0.018
      -0.060
      -0.110
      -0.175
      -0.251
      -0.324
      -0.380
      -0.416
      -0.440
      -0.459
      -0.481
      -0.509
      -0.549
      -0.606
      -0.678
      -0.751
      -0.807
      -0.835
      -0.845
      -0.853
      -0.869
      -0.889
      -0.904
      -0.910
      -0.920
      -0.950
      -1.003
      -1.061
      -1.101
      -1.116
      -1.115
      -1.110
      -1.108
      -1.109
      -1.117
      -1.138
      -1.170
      -1.200
      -1.210
      -1.191
      -1.157
      -1.127
      -1.116
      -1.119
      -1.118
      -1.099
      -1.068
      -1.042
      -1.028
      -1.019
      -1.005
      -0.978
      -0.941
      -0.893
      -0.837
      -0.782
      -0.745
      -0.736
      -0.751
      -0.768
      -0.763
      -0.726
      -0.672
      -0.626
      -0.599
      -0.584
      -0.564
      -0.537
      -0.517
      -0.516
      -0.533
      -0.546
      -0.538
      -0.503
      -0.453
      -0.399
      -0.352
      -0.317
      -0.299
      -0.302
      -0.321
      -0.339
      -0.338
      -0.311
      -0.270
      -0.235
      -0.213
      -0.194
      -0.166
      -0.130
      -0.102
      -0.094
      -0.099
      -0.093
      -0.059
      -0.003
       0.057
       0.107
       0.144
       0.176
       0.206
       0.232
       0.251
       0.268
       0.295
       0.337
       0.391
       0.444
       0.491
       0.533
       0.573
       0.604
       0.615
       0.603
       0.581
       0.574
       0.593
       0.631
       0.674
       0.712
       0.744
       0.773
       0.795
       0.801
       0.789
       0.772
       0.764
       0.775
       0.795
       0.811
       0.816
       0.815
       0.820
       0.828
       0.829
       0.811
       0.783
       0.764
       0.769
       0.790
       0.815
       0.833
       0.846
       0.854
       0.851
       0.833
       0.802
       0.769
       0.747
       0.738
       0.736
       0.731
       0.724
       0.724
       0.734
       0.740
       0.725
       0.685
       0.637
       0.607
       0.604
       0.619
       0.633
       0.639
       0.641
       0.646
       0.650
       0.642
       0.619
       0.590
       0.572
       0.571
       0.580
       0.582
       0.572
       0.558
       0.548
       0.542
       0.526
       0.491
       0.446
       0.409
       0.394
       0.395
       0.402
       0.407
       0.413
       0.423
       0.429
       0.421
       0.394
       0.365
       0.353
       0.370
       0.405
       0.440
       0.462
       0.476
       0.489
       0.502
       0.507
       0.501
       0.491
       0.495
       0.516
       0.545
       0.569
       0.583
       0.595
       0.608
       0.617
       0.613
       0.597
       0.581
       0.580
       0.599
       0.632
       0.668
       0.703
       0.739
       0.779
       0.816
       0.837
       0.840
       0.837
       0.849
       0.883
       0.930
       0.976
       1.015
       1.050
       1.080
       1.098
       1.101
       1.096
       1.097
       1.118
       1.157
       1.201
       1.232
       1.246
       1.251
       1.260
       1.272
       1.274
       1.261
       1.241
       1.229
       1.231
       1.245
       1.264
       1.284
       1.301
       1.307
       1.296
       1.262
       1.216
       1.174
       1.156
       1.163
       1.180
       1.189
       1.184
       1.176
       1.173
       1.171
       1.158
       1.123
       1.077
       1.035
       1.014
       1.016
       1.033
       1.057
       1.078
       1.087
       1.076
       1.045
       1.008
       0.984
       0.981
       0.995
       1.009
       1.011
       1.003
       0.993
       0.985
       0.970
       0.939
       0.891
       0.844
       0.815
       0.812
       0.823
       0.839
       0.853
       0.865
       0.870
       0.859
       0.827
       0.782
       0.745
       0.733
       0.745
       0.764
       0.771
       0.762
       0.748
       0.742
       0.739
       0.723
       0.686
       0.639
       0.603
       0.591
       0.596
       0.604
       0.608
       0.609
       0.606
       0.594
       0.567
       0.531
       0.499
       0.484
       0.483
       0.487
       0.483
       0.474
       0.469
       0.471
       0.464
       0.432
       0.372
       0.307
       0.262
       0.243
       0.237
       0.227
       0.203
       0.171
       0.138
       0.102
       0.057
       0.000
      -0.056
      -0.097
      -0.114
      -0.118
      -0.126
      -0.148
      -0.178
      -0.210
      -0.249
      -0.304
      -0.374
      -0.447
      -0.503
      -0.535
      -0.552
      -0.566
      -0.587
      -0.616
      -0.657
      -0.715
      -0.791
      -0.871
      -0.936
      -0.977
      -1.003
      -1.034
      -1.080
      -1.134
      -1.179
      -1.211
      -1.242
      -1.290
      -1.357
      -1.425
      -1.475
      -1.504
      -1.520
      -1.530
      -1.535
      -1.535
      -1.538
      -1.560
      -1.608
      -1.673
      -1.731
      -1.763
      -1.770
      -1.769
      -1.781
      -1.806
      -1.834
      -1.856
      -1.879
      -1.915
      -1.965
      -2.011
      -2.037
      -2.040
      -2.035
      -2.033
      -2.037
      -2.043
      -2.051
      -2.067
      -2.095
      -2.128
      -2.151
      -2.155
      -2.143
      -2.131
      -2.126
      -2.123
      -2.113
      -2.099
      -2.098
      -2.124
      -2.168
      -2.198
      -2.188
      -2.142
      -2.082
      -2.029
      -1.985
      -1.944
      -1.904
      -1.874
      -1.858
      -1.848
      -1.825
      -1.775
      -1.706
      -1.639
      -1.592
      -1.556
      -1.516
      -1.464
      -1.416
      -1.386
      -1.375
      -1.364
      -1.335
      -1.288
      -1.233
      -1.179
      -1.129
      -1.081
      -1.037
      -1.005
      -0.988
      -0.973
      -0.943
      -0.892
      -0.831
      -0.777
      -0.737
      -0.707
      -0.675
      -0.639
      -0.607
      -0.590
      -0.586
      -0.578
      -0.550
      -0.507
      -0.459
      -0.416
      -0.374
      -0.329
      -0.287
      -0.262
      -0.260
      -0.270
      -0.272
      -0.255
      -0.224
      -0.193
      -0.170
      -0.152
      -0.135
      -0.124
      -0.132
      -0.165
      -0.210
      -0.243
      -0.254
      -0.247
      -0.237
      -0.228
      -0.221
      -0.214
      -0.214
      -0.234
      -0.277
      -0.329
      -0.368
      -0.380
      -0.372
      -0.360
      -0.361
      -0.374
      -0.387
      -0.396
      -0.408
      -0.433
      -0.472
      -0.512
      -0.541
      -0.553
      -0.551
      -0.540
      -0.522
      -0.505
      -0.495
      -0.498
      -0.514
      -0.530
      -0.528
      -0.499
      -0.448
      -0.392
      -0.348
      -0.317
      -0.291
      -0.261
      -0.232
      -0.208
      -0.189
      -0.166
      -0.131
      -0.084
      -0.028
       0.032
       0.091
       0.145
       0.185
       0.207
       0.214
       0.220
       0.244
       0.289
       0.342
       0.384
       0.408
       0.419
       0.432
       0.448
       0.459
       0.455
       0.439
       0.429
       0.439
       0.466
       0.497
       0.525
       0.553
       0.583
       0.609
       0.619
       0.613
       0.606
       0.615
       0.645
       0.686
       0.721
       0.740
       0.749
       0.762
       0.781
       0.794
       0.788
       0.765
       0.745
       0.746
       0.764
       0.788
       0.806
       0.819
       0.833
       0.843
       0.842
       0.824
       0.801
       0.791
       0.807
       0.840
       0.869
       0.882
       0.885
       0.890
       0.900
       0.899
       0.879
       0.844
       0.815
       0.807
       0.817
       0.834
       0.847
       0.852
       0.851
       0.839
       0.813
       0.772
       0.730
       0.702
       0.696
       0.700
       0.697
       0.676
       0.646
       0.616
       0.589
       0.553
       0.496
       0.423
       0.349
       0.287
       0.238
       0.195
       0.154
       0.116
       0.082
       0.041
      -0.018
      -0.095
      -0.174
      -0.228
      -0.247
      -0.245
      -0.245
      -0.261
      -0.285
      -0.302
      -0.313
      -0.334
      -0.376
      -0.431
      -0.478
      -0.502
      -0.507
      -0.508
      -0.510
      -0.510
      -0.507
      -0.512
      -0.538
      -0.583
      -0.627
      -0.648
      -0.643
      -0.629
      -0.623
      -0.630
      -0.644
      -0.659
      -0.677
      -0.710
      -0.763
      -0.822
      -0.865
      -0.884
      -0.885
      -0.883
      -0.887
      -0.897
      -0.911
      -0.932
      -0.962
      -0.998
      -1.030
      -1.046
      -1.043
      -1.031
      -1.027
      -1.036
      -1.052
      -1.064
      -1.072
      -1.087
      -1.115
      -1.148
      -1.170
      -1.172
      -1.159
      -1.139
      -1.119
      -1.102
      -1.090
      -1.089
      -1.105
      -1.132
      -1.154
      -1.157
      -1.138
      -1.112
      -1.092
      -1.083
      -1.077
      -1.069
      -1.064
      -1.076
      -1.106
      -1.141
      -1.163
      -1.164
      -1.149
      -1.129
      -1.108
      -1.091
      -1.081
      -1.086
      -1.109
      -1.144
      -1.177
      -1.192
      -1.188
      -1.173
      -1.161
      -1.157
      -1.155
      -1.154
      -1.157
      -1.176
      -1.211
      -1.247
      -1.264
      -1.254
      -1.229
      -1.206
      -1.194
      -1.192
      -1.193
      -1.193
      -1.197
      -1.206
      -1.211
      -1.202
      -1.174
      -1.138
      -1.105
      -1.080
      -1.059
      -1.034
      -1.014
      -1.010
      -1.026
      -1.047
      -1.051
      -1.028
      -0.987
      -0.947
      -0.913
      -0.887
      -0.868
      -0.863
      -0.873
      -0.891
      -0.900
      -0.884
      -0.848
      -0.807
      -0.781
      -0.768
      -0.756
      -0.730
      -0.698
      -0.680
      -0.685
      -0.702
      -0.709
      -0.692
      -0.653
      -0.604
      -0.555
      -0.515
      -0.490
      -0.482
      -0.487
      -0.491
      -0.482
      -0.449
      -0.399
      -0.343
      -0.295
      -0.254
      -0.211
      -0.166
      -0.128
      -0.107
      -0.099
      -0.085
      -0.048
       0.011
       0.077
       0.135
       0.183
       0.231
       0.280
       0.323
       0.349
       0.363
       0.384
       0.432
       0.507
       0.593
       0.669
       0.730
       0.787
       0.848
       0.904
       0.941
       0.957
       0.971
       1.002
       1.059
       1.131
       1.204
       1.271
       1.334
       1.396
       1.447
       1.481
       1.499
       1.519
       1.556
       1.613
       1.676
       1.730
       1.775
       1.819
       1.871
       1.923
       1.962
       1.983
       1.996
       2.018
       2.062
       2.124
       2.195
       2.266
       2.329
       2.372
       2.391
       2.391
       2.390
       2.410
       2.457
       2.519
       2.575
       2.613
       2.636
       2.661
       2.692
       2.715
       2.716
       2.696
       2.677
       2.678
       2.702
       2.733
       2.758
       2.771
       2.772
       2.760
       2.731
       2.683
       2.629
       2.589
       2.574
       2.578
       2.579
       2.562
       2.529
       2.494
       2.460
       2.419
       2.364
       2.302
       2.252
       2.224
       2.212
       2.205
       2.196
       2.188
       2.186
       2.185
       2.170
       2.130
       2.073
       2.022
       1.990
       1.978
       1.970
       1.958
       1.941
       1.925
       1.906
       1.871
       1.812
       1.738
       1.670
       1.628
       1.610
       1.599
       1.582
       1.556
       1.526
       1.495
       1.458
       1.410
       1.358
       1.313
       1.283
       1.265
       1.245
       1.218
       1.188
       1.159
       1.128
       1.082
       1.012
       0.928
       0.850
       0.793
       0.754
       0.722
       0.686
       0.643
       0.591
       0.525
       0.442
       0.349
       0.262
       0.199
       0.157
       0.119
       0.068
      -0.001
      -0.073
      -0.135
      -0.187
      -0.248
      -0.329
      -0.422
      -0.507
      -0.571
      -0.620
      -0.663
      -0.702
      -0.736
      -0.768
      -0.808
      -0.867
      -0.943
      -1.019
      -1.077
      -1.109
      -1.126
      -1.149
      -1.188
      -1.236
      -1.281
      -1.320
      -1.365
      -1.427
      -1.501
      -1.570
      -1.625
      -1.665
      -1.693
      -1.710
      -1.720
      -1.731
      -1.760
      -1.815
      -1.887
      -1.950
      -1.982
      -1.982
      -1.971
      -1.968
      -1.978
      -1.986
      -1.985
      -1.984
      -1.998
      -2.032
      -2.068
      -2.083
      -2.067
      -2.031
      -1.994
      -1.967
      -1.948
      -1.932
      -1.923
      -1.926
      -1.940
      -1.947
      -1.931
      -1.894
      -1.853
      -1.828
      -1.820
      -1.816
      -1.806
      -1.794
      -1.797
      -1.823
      -1.856
      -1.877
      -1.874
      -1.858
      -1.840
      -1.826
      -1.811
      -1.795
      -1.784
      -1.792
      -1.822
      -1.855
      -1.867
      -1.847
      -1.805
      -1.766
      -1.745
      -1.740
      -1.739
      -1.735
      -1.731
      -1.731
      -1.734
      -1.730
      -1.713
      -1.683
      -1.639
      -1.586
      -1.533
      -1.493
      -1.477
      -1.481
      -1.486
      -1.471
      -1.431
      -1.376
      -1.326
      -1.286
      -1.248
      -1.200
      -1.144
      -1.098
      -1.078
      -1.078
      -1.075
      -1.047
      -0.995
      -0.936
      -0.881
      -0.831
      -0.780
      -0.732
      -0.695
      -0.679
      -0.677
      -0.665
      -0.625
      -0.556
      -0.478
      -0.413
      -0.367
      -0.327
      -0.285
      -0.241
      -0.210
      -0.200
      -0.201
      -0.193
      -0.163
      -0.113
      -0.059
      -0.012
       0.023
       0.045
       0.053
       0.051
       0.048
       0.057
       0.085
       0.125
       0.165
       0.196
       0.223
       0.259
       0.306
       0.348
       0.365
       0.355
       0.340
       0.348
       0.386
       0.443
       0.497
       0.539
       0.572
       0.597
       0.611
       0.607
       0.592
       0.582
       0.592
       0.622
       0.659
       0.686
       0.701
       0.711
       0.725
       0.736
       0.732
       0.714
       0.696
       0.697
       0.721
       0.754
       0.779
       0.792
       0.798
       0.805
       0.810
       0.807
       0.794
       0.779
       0.773
       0.778
       0.789
       0.797
       0.800
       0.804
       0.809
       0.807
       0.785
       0.746
       0.707
       0.688
       0.692
       0.705
       0.715
       0.715
       0.709
       0.700
       0.687
       0.669
       0.651
       0.642
       0.649
       0.665
       0.680
       0.695
       0.715
       0.748
       0.786
       0.808
       0.802
       0.779
       0.764
       0.775
       0.808
       0.845
       0.871
       0.886
       0.898
       0.914
       0.925
       0.920
       0.901
       0.885
       0.889
       0.910
       0.933
       0.941
       0.936
       0.928
       0.923
       0.914
       0.893
       0.864
       0.840
       0.834
       0.842
       0.851
       0.855
       0.861
       0.873
       0.882
       0.876
       0.855
       0.833
       0.830
       0.851
       0.881
       0.907
       0.921
       0.932
       0.950
       0.975
       0.996
       1.001
       0.994
       0.993
       1.006
       1.031
       1.060
       1.091
       1.127
       1.167
       1.201
       1.217
       1.211
       1.195
       1.188
       1.201
       1.224
       1.242
       1.251
       1.260
       1.283
       1.315
       1.334
       1.326
       1.301
       1.286
       1.299
       1.336
       1.379
       1.413
       1.432
       1.439
       1.436
       1.423
       1.403
       1.384
       1.375
       1.379
       1.391
       1.398
       1.398
       1.397
       1.402
       1.408
       1.398
       1.366
       1.320
       1.280
       1.259
       1.256
       1.263
       1.275
       1.290
       1.300
       1.293
       1.261
       1.209
       1.161
       1.138
       1.146
       1.164
       1.170
       1.158
       1.142
       1.131
       1.120
       1.092
       1.044
       0.988
       0.942
       0.915
       0.897
       0.881
       0.865
       0.854
       0.845
       0.823
       0.777
       0.710
       0.641
       0.586
       0.549
       0.519
       0.484
       0.441
       0.398
       0.354
       0.302
       0.232
       0.148
       0.064
      -0.001
      -0.046
      -0.084
      -0.124
      -0.168
      -0.208
      -0.247
      -0.290
      -0.347
      -0.416
      -0.484
