Origin Time       3/9/2009 19:51:08	  UTC
Lat.              24.3 N	
Long.             94.6 E	
Depth (Km)        100.0
Magnitude         5.9
 Region           MYANMAR-India-Manipuir-Border                                    
 Above details taken from IMD 
    
Station Code      SIL
Station Lat.       24.830  N
Station Long.      92.801  E
Station Height(m)   28.3
Site Class        C   Vs30 between 200 m/sec to 375 m/sec *  
Record Time       04.09.2009 01:24:54.894 UTC
Sampling Rate     200. Hz
 Record Duration   66.730 Sec.
 Direction         N-S (N positive)
Max. Acceleration      7.280 cm/sec**2
     
  * For reference see Site Classification link of website 
     
 Base Line Corrected and Low Pass Filtered (Cut Off at 35 Hz) Time History
 Acceleration data in cm/sec**2
    
[...]
       0.288
       0.314
       0.319
       0.307
       0.294
       0.294
       0.315
       0.349
       0.378
       0.382
       0.353
       0.296
       0.226
       0.163
       0.121
       0.104
       0.111
       0.130
       0.147
       0.147
       0.120
       0.063
      -0.017
      -0.107
      -0.194
      -0.270
      -0.331
      -0.378
      -0.410
      -0.430
      -0.442
      -0.456
      -0.475
      -0.501
      -0.528
      -0.550
      -0.564
      -0.564
      -0.551
      -0.525
      -0.491
      -0.453
      -0.415
      -0.376
      -0.333
      -0.283
      -0.228
      -0.174
      -0.125
      -0.082
      -0.043
      -0.006
       0.028
       0.054
       0.066
       0.064
       0.055
       0.043
       0.032
       0.020
       0.005
      -0.011
      -0.020
      -0.016
       0.001
       0.019
       0.024
       0.003
      -0.046
      -0.109
      -0.166
      -0.199
      -0.200
      -0.169
      -0.118
      -0.058
      -0.005
       0.035
       0.058
       0.070
       0.080
       0.097
       0.127
       0.167
       0.215
       0.267
       0.318
       0.366
       0.406
       0.439
       0.465
       0.486
       0.502
       0.509
       0.503
       0.479
       0.432
       0.360
       0.263
       0.150
       0.030
      -0.087
      -0.195
      -0.287
      -0.353
      -0.381
      -0.367
      -0.315
      -0.240
      -0.168
      -0.115
      -0.093
      -0.097
      -0.123
      -0.167
      -0.228
      -0.300
      -0.375
      -0.442
      -0.494
      -0.528
      -0.546
      -0.550
      -0.541
      -0.517
      -0.475
      -0.412
      -0.325
      -0.218
      -0.101
       0.015
       0.117
       0.198
       0.256
       0.293
       0.318
       0.344
       0.382
       0.437
       0.499
       0.555
       0.590
       0.598
       0.582
       0.549
       0.513
       0.484
       0.469
       0.466
       0.470
       0.465
       0.440
       0.382
       0.288
       0.162
       0.018
      -0.125
      -0.246
      -0.333
      -0.384
      -0.407
      -0.412
      -0.412
      -0.417
      -0.430
      -0.450
      -0.469
      -0.477
      -0.465
      -0.430
      -0.379
      -0.323
      -0.273
      -0.239
      -0.224
      -0.226
      -0.233
      -0.231
      -0.204
      -0.151
      -0.080
      -0.005
       0.061
       0.113
       0.152
       0.183
       0.207
       0.225
       0.227
       0.207
       0.159
       0.089
       0.007
      -0.074
      -0.141
      -0.188
      -0.214
      -0.219
      -0.211
      -0.197
      -0.187
      -0.183
      -0.180
      -0.170
      -0.146
      -0.104
      -0.050
       0.007
       0.059
       0.102
       0.139
       0.172
       0.202
       0.229
       0.255
       0.286
       0.332
       0.391
       0.451
       0.495
       0.505
       0.480
       0.435
       0.392
       0.368
       0.366
       0.376
       0.384
       0.380
       0.362
       0.327
       0.275
       0.197
       0.089
      -0.045
      -0.189
      -0.323
      -0.424
      -0.477
      -0.481
      -0.446
      -0.388
      -0.315
      -0.235
      -0.149
      -0.062
       0.017
       0.069
       0.077
       0.031
      -0.063
      -0.183
      -0.305
      -0.404
      -0.465
      -0.480
      -0.454
      -0.397
      -0.323
      -0.248
      -0.188
      -0.153
      -0.150
      -0.175
      -0.214
      -0.248
      -0.260
      -0.244
      -0.211
      -0.178
      -0.160
      -0.155
      -0.148
      -0.126
      -0.082
      -0.020
       0.048
       0.111
       0.161
       0.200
       0.235
       0.278
       0.338
       0.411
       0.484
       0.541
       0.567
       0.560
       0.527
       0.478
       0.424
       0.367
       0.302
       0.228
       0.154
       0.095
       0.069
       0.087
       0.138
       0.196
       0.233
       0.238
       0.217
       0.189
       0.165
       0.148
       0.129
       0.104
       0.078
       0.060
       0.057
       0.065
       0.074
       0.072
       0.056
       0.033
       0.014
       0.016
       0.050
       0.120
       0.216
       0.316
       0.393
       0.429
       0.421
       0.377
       0.315
       0.249
       0.193
       0.155
       0.134
       0.125
       0.114
       0.087
       0.035
      -0.043
      -0.135
      -0.224
      -0.291
      -0.331
      -0.345
      -0.343
      -0.331
      -0.317
      -0.306
      -0.304
      -0.314
      -0.336
      -0.370
      -0.414
      -0.467
      -0.518
      -0.552
      -0.552
      -0.508
      -0.427
      -0.328
      -0.234
      -0.160
      -0.103
      -0.051
       0.009
       0.081
       0.157
       0.223
       0.262
       0.265
       0.232
       0.177
       0.119
       0.074
       0.046
       0.032
       0.022
       0.008
      -0.019
      -0.063
      -0.127
      -0.205
      -0.286
      -0.358
      -0.413
      -0.444
      -0.450
      -0.432
      -0.394
      -0.346
      -0.297
      -0.251
      -0.209
      -0.172
      -0.137
      -0.102
      -0.066
      -0.028
       0.008
       0.040
       0.067
       0.093
       0.123
       0.165
       0.218
       0.277
       0.331
       0.362
       0.361
       0.324
       0.261
       0.183
       0.100
       0.021
      -0.048
      -0.098
      -0.125
      -0.126
      -0.105
      -0.069
      -0.025
       0.024
       0.072
       0.116
       0.144
       0.142
       0.099
       0.018
      -0.086
      -0.186
      -0.257
      -0.284
      -0.268
      -0.219
      -0.154
      -0.086
      -0.021
       0.036
       0.078
       0.096
       0.088
       0.057
       0.020
      -0.006
      -0.008
       0.015
       0.054
       0.097
       0.139
       0.181
       0.232
       0.301
       0.388
       0.482
       0.564
       0.616
       0.627
       0.595
       0.528
       0.440
       0.349
       0.275
       0.234
       0.232
       0.257
       0.292
       0.315
       0.319
       0.306
       0.285
       0.266
       0.253
       0.240
       0.219
       0.184
       0.131
       0.059
      -0.031
      -0.137
      -0.251
      -0.358
      -0.440
      -0.484
      -0.489
      -0.470
      -0.452
      -0.459
      -0.506
      -0.593
      -0.705
      -0.822
      -0.929
      -1.017
      -1.090
      -1.150
      -1.188
      -1.189
      -1.136
      -1.023
      -0.864
      -0.681
      -0.500
      -0.340
      -0.213
      -0.118
      -0.043
       0.028
       0.108
       0.201
       0.304
       0.409
       0.504
       0.580
       0.631
       0.662
       0.682
       0.702
       0.730
       0.759
       0.778
       0.769
       0.715
       0.610
       0.459
       0.283
       0.110
      -0.032
      -0.126
      -0.170
      -0.178
      -0.170
      -0.162
      -0.162
      -0.167
      -0.172
      -0.171
      -0.162
      -0.144
      -0.114
      -0.069
      -0.007
       0.069
       0.153
       0.236
       0.311
       0.373
       0.422
       0.463
       0.503
       0.549
       0.604
       0.661
       0.708
       0.735
       0.735
       0.707
       0.655
       0.591
       0.523
       0.461
       0.407
       0.358
       0.304
       0.238
       0.162
       0.085
       0.022
      -0.018
      -0.033
      -0.031
      -0.022
      -0.015
      -0.013
      -0.018
      -0.025
      -0.031
      -0.033
      -0.032
      -0.028
      -0.020
      -0.001
       0.031
       0.075
       0.128
       0.187
       0.255
       0.333
       0.419
       0.505
       0.576
       0.617
       0.621
       0.592
       0.542
       0.489
       0.447
       0.421
       0.410
       0.401
       0.385
       0.355
       0.312
       0.263
       0.214
       0.170
       0.132
       0.095
       0.049
      -0.016
      -0.102
      -0.203
      -0.309
      -0.411
      -0.508
      -0.597
      -0.676
      -0.740
      -0.787
      -0.820
      -0.843
      -0.861
      -0.874
      -0.880
      -0.873
      -0.852
      -0.817
      -0.773
      -0.723
      -0.667
      -0.606
      -0.544
      -0.490
      -0.455
      -0.438
      -0.426
      -0.397
      -0.332
      -0.223
      -0.077
       0.091
       0.257
       0.397
       0.495
       0.544
       0.553
       0.538
       0.515
       0.487
       0.446
       0.385
       0.303
       0.216
       0.140
       0.082
       0.035
      -0.020
      -0.094
      -0.185
      -0.279
      -0.355
      -0.398
      -0.410
      -0.407
      -0.412
      -0.443
      -0.500
      -0.568
      -0.628
      -0.665
      -0.674
      -0.650
      -0.583
      -0.467
      -0.305
      -0.115
       0.075
       0.243
       0.385
       0.510
       0.635
       0.765
       0.892
       1.000
       1.077
       1.120
       1.129
       1.107
       1.056
       0.978
       0.881
       0.774
       0.667
       0.568
       0.480
       0.407
       0.348
       0.305
       0.273
       0.240
       0.192
       0.119
       0.016
      -0.114
      -0.258
      -0.402
      -0.534
      -0.647
      -0.734
      -0.795
      -0.831
      -0.850
      -0.860
      -0.869
      -0.880
      -0.892
      -0.900
      -0.896
      -0.874
      -0.832
      -0.774
      -0.703
      -0.622
      -0.528
      -0.414
      -0.280
      -0.125
       0.045
       0.224
       0.410
       0.603
       0.803
       1.004
       1.192
       1.348
       1.453
       1.499
       1.489
       1.438
       1.359
       1.259
       1.146
       1.026
       0.905
       0.791
       0.689
       0.598
       0.513
       0.428
       0.332
       0.218
       0.080
      -0.078
      -0.248
      -0.417
      -0.575
      -0.714
      -0.830
      -0.918
      -0.971
      -0.980
      -0.934
      -0.835
      -0.701
      -0.560
      -0.442
      -0.363
      -0.322
      -0.302
      -0.277
      -0.229
      -0.145
      -0.021
       0.140
       0.333
       0.553
       0.792
       1.036
       1.261
       1.442
       1.564
       1.619
       1.614
       1.557
       1.456
       1.315
       1.141
       0.938
       0.717
       0.494
       0.292
       0.129
       0.011
      -0.076
      -0.158
      -0.257
      -0.383
      -0.533
      -0.692
      -0.849
      -1.006
      -1.172
      -1.354
      -1.547
      -1.727
      -1.860
      -1.916
      -1.876
      -1.743
      -1.528
      -1.248
      -0.923
      -0.569
      -0.207
       0.147
       0.478
       0.778
       1.047
       1.287
       1.501
       1.689
       1.849
       1.980
       2.085
       2.173
       2.256
       2.343
       2.428
       2.499
       2.539
       2.529
       2.458
       2.320
       2.117
       1.859
       1.558
       1.236
       0.912
       0.606
       0.324
       0.065
      -0.178
      -0.409
      -0.630
      -0.842
      -1.044
      -1.237
      -1.418
      -1.583
      -1.725
      -1.840
      -1.936
      -2.019
      -2.099
      -2.176
      -2.249
      -2.314
      -2.375
      -2.441
      -2.521
      -2.615
      -2.716
      -2.807
      -2.873
      -2.906
      -2.905
      -2.878
      -2.835
      -2.784
      -2.737
      -2.696
      -2.663
      -2.628
      -2.581
      -2.508
      -2.398
      -2.249
      -2.065
      -1.857
      -1.638
      -1.419
      -1.208
      -1.013
      -0.845
      -0.712
      -0.620
      -0.561
      -0.513
      -0.448
      -0.343
      -0.181
       0.041
       0.317
       0.635
       0.981
       1.339
       1.698
       2.046
       2.373
       2.670
       2.923
       3.119
       3.244
       3.296
       3.284
       3.228
       3.142
       3.035
       2.902
       2.732
       2.515
       2.242
       1.912
       1.531
       1.105
       0.642
       0.150
      -0.360
      -0.870
      -1.357
      -1.798
      -2.179
      -2.496
      -2.752
      -2.950
      -3.086
      -3.152
      -3.138
      -3.041
      -2.871
      -2.646
      -2.390
      -2.124
      -1.859
      -1.593
      -1.316
      -1.016
      -0.691
      -0.350
      -0.006
       0.322
       0.622
       0.895
       1.146
       1.385
       1.610
       1.815
       1.984
       2.100
       2.149
       2.128
       2.042
       1.900
       1.706
       1.464
       1.178
       0.860
       0.532
       0.217
      -0.072
      -0.335
      -0.586
      -0.845
      -1.120
      -1.411
      -1.702
      -1.972
      -2.204
      -2.389
      -2.529
      -2.630
      -2.696
      -2.728
      -2.719
      -2.659
      -2.537
      -2.349
      -2.097
      -1.794
      -1.459
      -1.109
      -0.757
      -0.411
      -0.074
       0.245
       0.538
       0.792
       0.997
       1.152
       1.259
       1.325
       1.351
       1.335
       1.267
       1.137
       0.940
       0.676
       0.349
      -0.032
      -0.457
      -0.916
      -1.397
      -1.888
      -2.380
      -2.868
      -3.346
      -3.805
      -4.228
      -4.592
      -4.873
      -5.057
      -5.146
      -5.149
      -5.073
      -4.912
      -4.651
      -4.281
      -3.804
      -3.240
      -2.612
      -1.944
      -1.249
      -0.541
       0.173
       0.880
       1.573
       2.244
       2.884
       3.493
       4.070
       4.618
       5.138
       5.632
       6.098
       6.524
       6.885
       7.147
       7.280
       7.271
       7.123
       6.854
       6.486
       6.036
       5.514
       4.925
       4.268
       3.546
       2.772
       1.970
       1.177
       0.424
      -0.276
      -0.925
      -1.536
      -2.119
      -2.668
      -3.165
      -3.582
      -3.896
      -4.097
      -4.186
      -4.170
      -4.058
      -3.853
      -3.556
      -3.171
      -2.706
      -2.176
      -1.597
      -0.983
      -0.347
       0.297
       0.931
       1.538
       2.102
       2.608
       3.048
       3.413
       3.704
       3.930
       4.102
       4.229
       4.307
       4.326
       4.269
       4.125
       3.894
       3.590
       3.234
       2.843
       2.421
       1.960
       1.453
       0.905
       0.338
      -0.221
      -0.746
      -1.222
      -1.640
      -1.996
      -2.284
      -2.499
      -2.633
      -2.680
      -2.639
      -2.515
      -2.316
      -2.043
      -1.694
      -1.268
      -0.772
      -0.225
       0.347
       0.918
       1.471
       1.996
       2.489
       2.940
       3.338
       3.679
       3.977
       4.247
       4.490
       4.691
       4.834
       4.919
       4.955
       4.956
       4.920
       4.832
       4.667
       4.404
       4.040
       3.580
       3.044
       2.456
       1.838
       1.210
       0.581
      -0.047
      -0.669
      -1.279
      -1.870
      -2.425
      -2.922
      -3.339
      -3.664
      -3.901
      -4.064
      -4.166
      -4.218
      -4.230
      -4.215
      -4.180
      -4.122
      -4.033
      -3.897
      -3.702
      -3.445
      -3.138
      -2.798
      -2.439
      -2.064
      -1.669
      -1.248
      -0.809
      -0.370
       0.046
       0.419
       0.728
       0.956
       1.089
       1.133
       1.109
       1.050
       0.993
       0.961
       0.964
       0.992
       1.028
       1.058
       1.077
       1.091
       1.107
       1.126
       1.143
       1.146
       1.126
       1.076
       0.993
       0.878
       0.735
       0.559
       0.342
       0.068
      -0.273
      -0.675
      -1.115
      -1.560
      -1.974
      -2.336
      -2.640
      -2.897
      -3.122
      -3.328
      -3.514
      -3.668
      -3.778
      -3.836
      -3.841
      -3.793
      -3.698
      -3.565
      -3.396
      -3.190
      -2.942
      -2.656
      -2.342
      -2.013
      -1.685
      -1.374
      -1.098
      -0.871
      -0.699
      -0.578
      -0.500
      -0.455
      -0.442
      -0.463
      -0.522
      -0.616
      -0.741
      -0.886
      -1.041
      -1.193
      -1.332
      -1.452
      -1.549
      -1.628
      -1.692
      -1.743
      -1.784
      -1.820
      -1.857
      -1.902
      -1.957
      -2.014
      -2.057
      -2.077
      -2.073
      -2.056
      -2.035
      -2.001
      -1.934
      -1.816
      -1.644
      -1.424
      -1.169
      -0.884
      -0.578
      -0.262
       0.052
       0.355
       0.648
       0.939
       1.234
       1.535
       1.834
       2.124
       2.397
       2.650
       2.883
       3.105
       3.326
       3.561
       3.820
       4.105
       4.410
       4.725
       5.036
       5.331
       5.598
       5.828
       6.011
       6.144
       6.221
       6.238
       6.185
       6.052
       5.828
       5.511
       5.109
       4.645
       4.143
       3.623
       3.099
       2.578
       2.062
       1.548
       1.037
       0.529
       0.030
      -0.454
      -0.915
      -1.344
      -1.731
      -2.072
      -2.360
      -2.588
      -2.743
      -2.809
      -2.777
      -2.651
      -2.450
      -2.197
      -1.905
      -1.582
      -1.235
      -0.879
      -0.532
      -0.207
       0.097
       0.385
       0.657
       0.894
       1.073
       1.172
       1.190
       1.143
       1.055
       0.949
       0.844
       0.756
       0.704
       0.702
       0.754
       0.857
       0.995
       1.155
       1.332
       1.529
       1.752
       2.003
       2.278
       2.571
       2.867
       3.148
       3.393
       3.581
       3.697
       3.733
       3.680
       3.531
       3.286
       2.948
       2.530
       2.044
       1.502
       0.913
       0.292
      -0.344
      -0.975
      -1.587
      -2.170
      -2.716
      -3.215
      -3.654
      -4.023
      -4.312
      -4.523
      -4.661
      -4.734
      -4.747
      -4.702
      -4.604
      -4.454
      -4.258
      -4.018
      -3.742
      -3.437
      -3.113
      -2.777
      -2.429
      -2.073
      -1.710
      -1.351
      -1.009
      -0.698
      -0.426
      -0.198
      -0.019
       0.103
       0.166
       0.175
       0.145
       0.090
       0.022
      -0.051
      -0.123
      -0.187
      -0.239
      -0.280
      -0.318
      -0.364
      -0.427
      -0.509
      -0.604
      -0.709
      -0.828
      -0.962
      -1.111
      -1.267
      -1.416
      -1.542
      -1.628
      -1.658
      -1.623
      -1.520
      -1.360
      -1.163
      -0.947
      -0.723
      -0.494
      -0.261
      -0.032
       0.185
       0.389
       0.587
       0.787
       0.998
       1.220
       1.449
       1.670
       1.867
       2.024
       2.138
       2.218
       2.274
       2.314
       2.334
       2.326
       2.285
       2.220
       2.144
       2.073
       2.008
       1.944
       1.872
       1.781
       1.657
       1.484
       1.244
       0.925
       0.527
       0.062
      -0.444
      -0.965
      -1.471
      -1.940
      -2.357
      -2.711
      -2.996
      -3.207
      -3.345
      -3.414
      -3.419
      -3.366
      -3.265
      -3.120
      -2.936
      -2.705
      -2.425
      -2.098
      -1.739
      -1.367
      -0.998
      -0.638
      -0.289
       0.042
       0.351
       0.634
