Origin Time       11/8/2009 21:43:39 
Lat.              24.4 N 
Long.             94.8 E 
Depth (Km)         22.0
Magnitude         5.6
 Region           MYANMAR-INDIA(MANIPUR)BORDER                                     
 Above details taken from IMD 
     
Station Code      SIL
Station Lat.       24.830  N
Station Long.      92.801  E
Station Height(m)   28.3
Site Class        C   Vs30 between 200 m/sec to 375 m/sec *  
Record Time       11.08.2009 21:43:18.544
Sampling Rate     200. Hz
 Record Duration   74.000 Sec.
 Direction         E-W (E positive)
Max. Acceleration      7.660 cm/sec**2
     
  * For reference see Site Classification link of website 
     
 Base Line Corrected and Low Pass Filtered (Cut Off at 35 Hz) Time History
 Acceleration data in cm/sec**2
    
[...]
       0.240
       0.387
       0.536
       0.659
       0.731
       0.741
       0.692
       0.600
       0.484
       0.363
       0.252
       0.154
       0.070
      -0.006
      -0.076
      -0.143
      -0.212
      -0.285
      -0.362
      -0.435
      -0.483
      -0.483
      -0.419
      -0.298
      -0.144
       0.010
       0.139
       0.235
       0.307
       0.373
       0.449
       0.539
       0.632
       0.705
       0.740
       0.730
       0.685
       0.623
       0.559
       0.500
       0.445
       0.390
       0.334
       0.283
       0.245
       0.229
       0.233
       0.251
       0.269
       0.273
       0.255
       0.212
       0.141
       0.045
      -0.070
      -0.192
      -0.304
      -0.387
      -0.430
      -0.429
      -0.393
      -0.335
      -0.271
      -0.218
      -0.182
      -0.163
      -0.148
      -0.118
      -0.057
       0.043
       0.179
       0.337
       0.496
       0.631
       0.718
       0.748
       0.722
       0.655
       0.557
       0.433
       0.285
       0.118
      -0.051
      -0.197
      -0.296
      -0.333
      -0.313
      -0.262
      -0.213
      -0.193
      -0.223
      -0.306
      -0.434
      -0.590
      -0.749
      -0.887
      -0.987
      -1.041
      -1.048
      -1.015
      -0.947
      -0.845
      -0.708
      -0.532
      -0.316
      -0.069
       0.190
       0.434
       0.632
       0.759
       0.802
       0.765
       0.664
       0.522
       0.365
       0.212
       0.075
      -0.042
      -0.145
      -0.245
      -0.350
      -0.461
      -0.565
      -0.639
      -0.654
      -0.582
      -0.414
      -0.167
       0.117
       0.383
       0.579
       0.670
       0.643
       0.508
       0.292
       0.034
      -0.225
      -0.445
      -0.595
      -0.652
      -0.599
      -0.437
      -0.184
       0.119
       0.424
       0.678
       0.846
       0.907
       0.857
       0.710
       0.488
       0.222
      -0.054
      -0.306
      -0.504
      -0.629
      -0.676
      -0.661
      -0.609
      -0.547
      -0.492
      -0.439
      -0.371
      -0.267
      -0.119
       0.058
       0.234
       0.369
       0.437
       0.431
       0.367
       0.284
       0.228
       0.237
       0.326
       0.477
       0.648
       0.789
       0.857
       0.833
       0.725
       0.559
       0.372
       0.199
       0.064
      -0.022
      -0.061
      -0.063
      -0.044
      -0.019
       0.010
       0.049
       0.112
       0.197
       0.292
       0.371
       0.411
       0.407
       0.367
       0.310
       0.253
       0.204
       0.154
       0.089
      -0.004
      -0.130
      -0.277
      -0.422
      -0.535
      -0.592
      -0.587
      -0.528
      -0.436
      -0.334
      -0.242
      -0.178
      -0.156
      -0.185
      -0.265
      -0.381
      -0.518
      -0.659
      -0.791
      -0.898
      -0.957
      -0.949
      -0.864
      -0.709
      -0.508
      -0.288
      -0.079
       0.092
       0.200
       0.233
       0.189
       0.082
      -0.067
      -0.237
      -0.408
      -0.558
      -0.669
      -0.727
      -0.729
      -0.687
      -0.620
      -0.541
      -0.448
      -0.326
      -0.157
       0.065
       0.329
       0.609
       0.867
       1.068
       1.183
       1.202
       1.132
       0.996
       0.821
       0.624
       0.413
       0.196
      -0.014
      -0.197
      -0.328
      -0.391
      -0.380
      -0.305
      -0.189
      -0.061
       0.046
       0.105
       0.104
       0.048
      -0.041
      -0.138
      -0.227
      -0.296
      -0.342
      -0.355
      -0.328
      -0.255
      -0.142
      -0.007
       0.124
       0.230
       0.305
       0.360
       0.414
       0.488
       0.593
       0.724
       0.858
       0.964
       1.009
       0.975
       0.861
       0.680
       0.460
       0.228
       0.014
      -0.162
      -0.286
      -0.361
      -0.397
      -0.404
      -0.393
      -0.366
      -0.327
      -0.275
      -0.217
      -0.165
      -0.134
      -0.139
      -0.187
      -0.266
      -0.353
      -0.419
      -0.443
      -0.419
      -0.355
      -0.268
      -0.174
      -0.080
       0.014
       0.115
       0.228
       0.355
       0.482
       0.591
       0.658
       0.666
       0.609
       0.496
       0.340
       0.154
      -0.051
      -0.259
      -0.450
      -0.606
      -0.712
      -0.764
      -0.758
      -0.697
      -0.584
      -0.435
      -0.269
      -0.110
       0.024
       0.120
       0.171
       0.169
       0.116
       0.023
      -0.084
      -0.171
      -0.208
      -0.179
      -0.086
       0.051
       0.208
       0.354
       0.465
       0.521
       0.509
       0.426
       0.278
       0.082
      -0.134
      -0.342
      -0.517
      -0.644
      -0.721
      -0.756
      -0.764
      -0.766
      -0.773
      -0.784
      -0.788
      -0.772
      -0.728
      -0.661
      -0.578
      -0.490
      -0.398
      -0.300
      -0.185
      -0.042
       0.138
       0.360
       0.622
       0.916
       1.231
       1.551
       1.857
       2.128
       2.350
       2.515
       2.623
       2.670
       2.648
       2.542
       2.341
       2.039
       1.644
       1.177
       0.666
       0.143
      -0.364
      -0.828
      -1.223
      -1.535
      -1.760
      -1.905
      -1.977
      -1.984
      -1.934
      -1.838
      -1.714
      -1.579
      -1.450
      -1.337
      -1.243
      -1.164
      -1.086
      -0.996
      -0.884
      -0.750
      -0.598
      -0.437
      -0.276
      -0.125
       0.002
       0.093
       0.135
       0.119
       0.042
      -0.093
      -0.280
      -0.506
      -0.756
      -1.009
      -1.246
      -1.445
      -1.587
      -1.659
      -1.659
      -1.597
      -1.488
      -1.351
      -1.195
      -1.019
      -0.817
      -0.586
      -0.332
      -0.068
       0.187
       0.419
       0.622
       0.801
       0.969
       1.142
       1.334
       1.550
       1.786
       2.032
       2.268
       2.472
       2.623
       2.705
       2.717
       2.666
       2.563
       2.415
       2.224
       1.988
       1.710
       1.401
       1.079
       0.765
       0.473
       0.221
       0.030
      -0.079
      -0.086
       0.011
       0.197
       0.445
       0.718
       0.975
       1.186
       1.335
       1.428
       1.483
       1.519
       1.548
       1.572
       1.584
       1.578
       1.547
       1.481
       1.374
       1.218
       1.004
       0.723
       0.368
      -0.061
      -0.554
      -1.089
      -1.637
      -2.173
      -2.674
      -3.132
      -3.548
      -3.926
      -4.271
      -4.585
      -4.870
      -5.130
      -5.369
      -5.592
      -5.797
      -5.978
      -6.119
      -6.199
      -6.194
      -6.087
      -5.870
      -5.544
      -5.116
      -4.587
      -3.961
      -3.248
      -2.460
      -1.613
      -0.714
       0.229
       1.202
       2.182
       3.139
       4.041
       4.864
       5.584
       6.187
       6.668
       7.031
       7.290
       7.461
       7.558
       7.587
       7.547
       7.432
       7.239
       6.972
       6.639
       6.252
       5.828
       5.388
       4.950
       4.529
       4.126
       3.733
       3.328
       2.890
       2.407
       1.876
       1.304
       0.705
       0.089
      -0.535
      -1.168
      -1.812
      -2.470
      -3.143
      -3.820
      -4.484
      -5.107
      -5.660
      -6.119
      -6.477
      -6.743
      -6.929
      -7.046
      -7.098
      -7.087
      -7.019
      -6.905
      -6.753
      -6.571
      -6.358
      -6.113
      -5.832
      -5.516
      -5.165
      -4.779
      -4.357
      -3.896
      -3.393
      -2.854
      -2.289
      -1.710
      -1.130
      -0.562
      -0.024
       0.462
       0.880
       1.222
       1.499
       1.732
       1.951
       2.181
       2.446
       2.761
       3.132
       3.556
       4.018
       4.495
       4.959
       5.379
       5.729
       5.999
       6.195
       6.334
       6.435
       6.511
       6.572
       6.624
       6.666
       6.684
       6.651
       6.539
       6.326
       6.006
       5.592
       5.106
       4.572
       4.001
       3.397
       2.751
       2.055
       1.306
       0.511
      -0.307
      -1.112
      -1.853
      -2.481
      -2.963
      -3.282
      -3.444
      -3.459
      -3.338
      -3.093
      -2.734
      -2.276
      -1.742
      -1.165
      -0.591
      -0.068
       0.364
       0.678
       0.868
       0.939
       0.897
       0.751
       0.513
       0.200
      -0.169
      -0.574
      -0.997
      -1.427
      -1.855
      -2.279
      -2.705
      -3.139
      -3.579
      -4.006
      -4.388
      -4.689
      -4.882
      -4.951
      -4.885
      -4.673
      -4.305
      -3.782
      -3.116
      -2.334
      -1.467
      -0.547
       0.400
       1.347
       2.258
       3.096
       3.835
       4.466
       4.999
       5.441
       5.796
       6.062
       6.237
       6.324
       6.325
       6.241
       6.071
       5.816
       5.478
       5.053
       4.538
       3.929
       3.236
       2.485
       1.711
       0.956
       0.253
      -0.370
      -0.897
      -1.317
      -1.631
      -1.848
      -1.979
      -2.034
      -2.021
      -1.954
      -1.854
      -1.745
      -1.645
      -1.562
      -1.504
      -1.477
      -1.497
      -1.572
      -1.700
      -1.866
      -2.046
      -2.214
      -2.351
      -2.442
      -2.482
      -2.471
      -2.418
      -2.333
      -2.222
      -2.093
      -1.967
      -1.873
      -1.846
      -1.908
      -2.056
      -2.272
      -2.531
      -2.814
      -3.111
      -3.417
      -3.727
      -4.037
      -4.342
      -4.634
      -4.901
      -5.127
      -5.301
      -5.409
      -5.440
      -5.387
      -5.247
      -5.025
      -4.733
      -4.382
      -3.984
      -3.546
      -3.075
      -2.579
      -2.066
      -1.545
      -1.023
      -0.515
      -0.038
       0.390
       0.751
       1.031
       1.222
       1.322
       1.338
       1.290
       1.211
       1.136
       1.093
       1.088
       1.105
       1.116
       1.100
       1.043
       0.943
       0.800
       0.617
       0.403
       0.169
      -0.070
      -0.303
      -0.517
      -0.705
      -0.858
      -0.965
      -1.014
      -0.993
      -0.892
      -0.705
      -0.424
      -0.036
       0.468
       1.089
       1.813
       2.605
       3.419
       4.200
       4.890
       5.434
       5.789
       5.929
       5.851
       5.572
       5.123
       4.541
       3.862
       3.116
       2.333
       1.540
       0.760
       0.011
      -0.705
      -1.390
      -2.050
      -2.677
      -3.253
      -3.751
      -4.150
      -4.430
      -4.576
      -4.574
      -4.427
      -4.156
      -3.793
      -3.365
      -2.885
      -2.353
      -1.781
      -1.191
      -0.611
      -0.061
       0.454
       0.947
       1.435
       1.941
       2.479
       3.047
       3.626
       4.179
       4.664
       5.050
       5.316
       5.447
       5.434
       5.266
       4.938
       4.448
       3.803
       3.022
       2.147
       1.248
       0.405
      -0.306
      -0.843
      -1.191
      -1.355
      -1.339
      -1.145
      -0.782
      -0.282
       0.299
       0.901
       1.478
       2.007
       2.485
       2.921
       3.321
       3.688
       4.019
       4.311
       4.556
       4.739
       4.842
       4.841
       4.721
       4.475
       4.109
       3.644
       3.109
       2.532
       1.941
       1.355
       0.790
       0.250
      -0.266
      -0.762
      -1.230
      -1.654
      -2.019
      -2.322
      -2.572
      -2.784
      -2.964
      -3.114
      -3.234
      -3.323
      -3.375
      -3.374
      -3.307
      -3.178
      -3.000
      -2.795
      -2.572
      -2.340
      -2.109
      -1.892
      -1.701
      -1.538
      -1.397
      -1.274
      -1.168
      -1.088
      -1.041
      -1.033
      -1.060
      -1.118
      -1.195
      -1.273
      -1.335
      -1.371
      -1.383
      -1.392
      -1.426
      -1.505
      -1.628
      -1.776
      -1.921
      -2.048
      -2.148
      -2.218
      -2.249
      -2.228
      -2.148
      -2.013
      -1.833
      -1.623
      -1.388
      -1.123
      -0.824
      -0.492
      -0.135
       0.236
       0.616
       1.003
       1.396
       1.793
       2.187
       2.572
       2.941
       3.290
       3.609
       3.888
       4.105
       4.238
       4.272
       4.194
       3.997
       3.671
       3.210
       2.623
       1.938
       1.198
       0.449
      -0.272
      -0.936
      -1.521
      -2.015
      -2.411
      -2.703
      -2.886
      -2.952
      -2.894
      -2.717
      -2.448
      -2.132
      -1.821
      -1.563
      -1.390
      -1.317
      -1.342
      -1.454
      -1.628
      -1.836
      -2.051
      -2.265
      -2.477
      -2.697
      -2.927
      -3.159
      -3.378
      -3.558
      -3.677
      -3.722
      -3.695
      -3.610
      -3.487
      -3.341
      -3.174
      -2.985
      -2.767
      -2.514
      -2.218
      -1.867
      -1.447
      -0.943
      -0.348
       0.339
       1.108
       1.943
       2.815
       3.696
       4.558
       5.377
       6.128
       6.775
       7.273
       7.578
       7.660
       7.512
       7.153
       6.624
       5.978
       5.263
       4.511
       3.738
       2.945
       2.134
       1.314
       0.508
      -0.249
      -0.920
      -1.477
      -1.908
      -2.212
      -2.397
      -2.465
      -2.413
      -2.242
      -1.953
      -1.562
      -1.094
      -0.584
      -0.071
       0.405
       0.806
       1.096
       1.254
       1.282
       1.209
       1.071
       0.892
       0.677
       0.416
       0.102
      -0.259
      -0.650
      -1.051
      -1.443
      -1.808
      -2.122
      -2.361
      -2.499
      -2.515
      -2.400
      -2.153
      -1.785
      -1.322
      -0.800
      -0.257
       0.275
       0.785
       1.271
       1.734
       2.171
       2.573
       2.932
       3.235
       3.465
       3.603
       3.633
       3.544
       3.331
       2.990
       2.517
       1.909
       1.164
       0.296
      -0.664
      -1.668
      -2.667
      -3.624
      -4.511
      -5.309
      -5.992
      -6.537
      -6.923
      -7.138
      -7.171
      -7.008
      -6.640
      -6.065
      -5.296
      -4.362
      -3.303
      -2.169
      -1.014
       0.110
       1.153
       2.082
       2.878
       3.539
       4.067
       4.462
       4.720
       4.835
       4.808
       4.646
       4.365
       3.989
       3.544
       3.061
       2.563
       2.070
       1.596
       1.150
       0.739
       0.373
       0.062
      -0.179
      -0.339
      -0.409
      -0.390
      -0.289
      -0.127
       0.067
       0.261
       0.430
       0.559
       0.635
       0.653
       0.606
       0.495
       0.327
       0.117
      -0.117
      -0.356
      -0.586
      -0.799
      -0.994
      -1.176
      -1.354
      -1.540
      -1.743
      -1.965
      -2.196
      -2.412
      -2.587
      -2.700
      -2.745
      -2.726
      -2.647
      -2.513
      -2.330
      -2.100
      -1.832
      -1.532
      -1.209
      -0.872
      -0.538
      -0.219
       0.072
       0.324
       0.526
       0.670
       0.750
       0.768
       0.739
       0.684
       0.629
       0.594
       0.591
       0.618
       0.667
       0.733
       0.815
       0.923
       1.067
       1.255
       1.486
       1.756
       2.052
       2.358
       2.659
       2.942
       3.204
       3.444
       3.655
       3.831
       3.959
       4.029
       4.030
       3.956
       3.803
       3.577
       3.289
       2.948
       2.564
       2.143
       1.692
       1.217
       0.724
       0.222
      -0.283
      -0.775
      -1.237
      -1.653
      -2.014
      -2.322
      -2.579
      -2.786
      -2.940
      -3.034
      -3.063
      -3.027
      -2.937
      -2.804
      -2.646
      -2.473
      -2.291
      -2.106
      -1.919
      -1.733
      -1.549
      -1.373
      -1.216
      -1.092
      -1.013
      -0.992
      -1.043
      -1.180
      -1.411
      -1.725
      -2.095
      -2.474
      -2.810
      -3.056
      -3.178
      -3.159
      -3.000
      -2.715
      -2.328
      -1.866
      -1.352
      -0.807
      -0.257
       0.267
       0.736
       1.134
       1.457
       1.710
       1.894
       2.010
       2.059
       2.043
       1.969
       1.845
       1.677
       1.478
       1.261
       1.037
       0.817
       0.608
       0.418
       0.259
       0.144
       0.075
       0.043
       0.029
       0.013
      -0.023
      -0.094
      -0.210
      -0.377
      -0.589
      -0.827
      -1.065
      -1.273
      -1.433
      -1.540
      -1.598
      -1.613
      -1.587
      -1.516
      -1.397
      -1.227
      -1.007
      -0.740
      -0.438
      -0.121
       0.193
       0.493
       0.774
       1.037
       1.286
       1.524
       1.756
       1.985
       2.212
       2.436
       2.650
       2.841
       2.997
       3.109
       3.177
       3.203
       3.191
       3.146
       3.075
       2.987
       2.887
       2.777
       2.648
       2.485
       2.270
       1.993
       1.655
       1.273
       0.863
       0.435
      -0.011
      -0.474
      -0.953
      -1.432
      -1.887
      -2.289
      -2.612
      -2.835
      -2.948
      -2.950
      -2.850
      -2.665
      -2.411
      -2.104
      -1.754
      -1.369
      -0.959
      -0.538
      -0.124
       0.268
       0.622
       0.929
       1.182
       1.377
       1.518
       1.613
       1.675
       1.715
       1.735
       1.739
       1.725
       1.693
       1.640
       1.561
       1.453
       1.314
       1.145
       0.946
       0.715
       0.454
       0.171
      -0.117
      -0.385
      -0.615
      -0.802
      -0.949
      -1.071
      -1.183
      -1.303
      -1.451
      -1.644
      -1.895
      -2.208
      -2.571
      -2.962
      -3.351
      -3.703
      -3.991
      -4.185
      -4.260
      -4.194
      -3.973
      -3.604
      -3.107
      -2.509
      -1.840
      -1.129
      -0.407
       0.292
       0.941
       1.527
       2.050
       2.515
       2.930
       3.298
       3.614
       3.867
       4.037
       4.100
       4.032
       3.817
       3.457
       2.969
       2.386
       1.741
       1.066
       0.387
      -0.272
      -0.887
      -1.433
      -1.892
      -2.253
      -2.513
      -2.667
      -2.714
      -2.657
      -2.505
      -2.278
      -1.993
      -1.669
      -1.317
      -0.949
      -0.579
      -0.226
       0.093
       0.366
       0.581
       0.730
       0.802
       0.785
       0.670
       0.450
       0.124
      -0.295
      -0.778
      -1.284
      -1.769
      -2.203
      -2.566
      -2.844
      -3.032
      -3.128
      -3.133
      -3.054
      -2.902
      -2.696
      -2.449
      -2.165
      -1.835
      -1.447
      -0.998
      -0.503
