Origin Time       3/9/2009 19:51:08	 
Lat.              24.3 N	
Long.             94.6 E	
Depth (Km)        100.0
Magnitude         5.9
 Region           MYANMAR-India-Manipuir-Border                                    
 Above details taken from IMD 
     
Station Code      SIL
Station Lat.       24.830  N
Station Long.      92.801  E
Station Height(m)   28.3
Site Class        C   Vs30 between 200 m/sec to 375 m/sec *  
Record Time       04.09.2009 01:24:54.894
Sampling Rate     200. Hz
 Record Duration   66.730 Sec.
 Direction         E-W (E positive)
Max. Acceleration      7.354 cm/sec**2
     
  * For reference see Site Classification link of website 
     
 Base Line Corrected and Low Pass Filtered (Cut Off at 35 Hz) Time History
 Acceleration data in cm/sec**2
    
[...]
      -0.751
      -0.799
      -0.841
      -0.874
      -0.892
      -0.887
      -0.853
      -0.796
      -0.723
      -0.648
      -0.575
      -0.508
      -0.447
      -0.394
      -0.348
      -0.308
      -0.269
      -0.231
      -0.190
      -0.143
      -0.087
      -0.023
       0.039
       0.091
       0.127
       0.144
       0.143
       0.125
       0.094
       0.056
       0.019
      -0.008
      -0.020
      -0.017
      -0.008
       0.000
      -0.001
      -0.009
      -0.015
      -0.008
       0.019
       0.064
       0.113
       0.149
       0.163
       0.158
       0.145
       0.138
       0.140
       0.147
       0.146
       0.130
       0.101
       0.070
       0.046
       0.037
       0.045
       0.066
       0.094
       0.121
       0.141
       0.149
       0.149
       0.149
       0.158
       0.181
       0.220
       0.277
       0.355
       0.454
       0.562
       0.665
       0.753
       0.825
       0.885
       0.933
       0.959
       0.955
       0.916
       0.848
       0.762
       0.671
       0.586
       0.510
       0.438
       0.359
       0.265
       0.155
       0.037
      -0.068
      -0.139
      -0.165
      -0.150
      -0.112
      -0.073
      -0.046
      -0.034
      -0.036
      -0.045
      -0.058
      -0.066
      -0.060
      -0.032
       0.020
       0.091
       0.168
       0.232
       0.265
       0.255
       0.200
       0.108
      -0.009
      -0.136
      -0.262
      -0.379
      -0.487
      -0.590
      -0.693
      -0.790
      -0.865
      -0.893
      -0.856
      -0.755
      -0.606
      -0.439
      -0.284
      -0.160
      -0.077
      -0.032
      -0.013
      -0.010
      -0.012
      -0.018
      -0.024
      -0.028
      -0.023
      -0.006
       0.020
       0.043
       0.050
       0.029
      -0.015
      -0.069
      -0.115
      -0.139
      -0.134
      -0.105
      -0.059
      -0.004
       0.057
       0.117
       0.167
       0.196
       0.198
       0.174
       0.131
       0.080
       0.028
      -0.017
      -0.053
      -0.078
      -0.092
      -0.101
      -0.110
      -0.122
      -0.138
      -0.155
      -0.170
      -0.183
      -0.192
      -0.193
      -0.183
      -0.165
      -0.147
      -0.147
      -0.172
      -0.220
      -0.276
      -0.325
      -0.362
      -0.386
      -0.397
      -0.389
      -0.357
      -0.297
      -0.210
      -0.103
       0.011
       0.119
       0.210
       0.281
       0.331
       0.364
       0.382
       0.388
       0.389
       0.390
       0.401
       0.431
       0.481
       0.551
       0.632
       0.715
       0.789
       0.844
       0.877
       0.891
       0.893
       0.887
       0.871
       0.833
       0.762
       0.652
       0.504
       0.331
       0.152
      -0.012
      -0.140
      -0.217
      -0.231
      -0.182
      -0.081
       0.050
       0.179
       0.280
       0.341
       0.365
       0.368
       0.366
       0.372
       0.396
       0.436
       0.481
       0.514
       0.523
       0.502
       0.455
       0.389
       0.311
       0.232
       0.156
       0.088
       0.023
      -0.042
      -0.111
      -0.183
      -0.255
      -0.323
      -0.386
      -0.443
      -0.492
      -0.526
      -0.542
      -0.544
      -0.546
      -0.569
      -0.620
      -0.692
      -0.768
      -0.829
      -0.867
      -0.880
      -0.867
      -0.827
      -0.759
      -0.673
      -0.579
      -0.491
      -0.412
      -0.343
      -0.283
      -0.231
      -0.186
      -0.146
      -0.117
      -0.101
      -0.102
      -0.113
      -0.130
      -0.151
      -0.181
      -0.234
      -0.316
      -0.421
      -0.529
      -0.615
      -0.663
      -0.666
      -0.633
      -0.576
      -0.503
      -0.419
      -0.326
      -0.226
      -0.123
      -0.020
       0.078
       0.160
       0.211
       0.219
       0.186
       0.132
       0.084
       0.066
       0.087
       0.138
       0.204
       0.267
       0.318
       0.355
       0.378
       0.387
       0.382
       0.363
       0.329
       0.281
       0.223
       0.165
       0.117
       0.091
       0.089
       0.110
       0.146
       0.188
       0.227
       0.253
       0.253
       0.222
       0.163
       0.093
       0.035
       0.007
       0.015
       0.053
       0.105
       0.151
       0.172
       0.159
       0.112
       0.037
      -0.056
      -0.154
      -0.244
      -0.305
      -0.324
      -0.298
      -0.243
      -0.187
      -0.159
      -0.175
      -0.233
      -0.316
      -0.399
      -0.458
      -0.479
      -0.450
      -0.373
      -0.255
      -0.113
       0.034
       0.168
       0.278
       0.354
       0.392
       0.389
       0.352
       0.297
       0.243
       0.202
       0.180
       0.176
       0.188
       0.212
       0.237
       0.253
       0.257
       0.251
       0.243
       0.238
       0.232
       0.210
       0.155
       0.060
      -0.070
      -0.215
      -0.351
      -0.461
      -0.536
      -0.574
      -0.577
      -0.552
      -0.505
      -0.449
      -0.395
      -0.360
      -0.356
      -0.386
      -0.444
      -0.519
      -0.601
      -0.681
      -0.750
      -0.799
      -0.815
      -0.790
      -0.719
      -0.610
      -0.476
      -0.337
      -0.214
      -0.121
      -0.059
      -0.020
       0.008
       0.029
       0.046
       0.059
       0.065
       0.060
       0.032
      -0.025
      -0.105
      -0.189
      -0.248
      -0.261
      -0.216
      -0.122
       0.006
       0.148
       0.289
       0.413
       0.508
       0.567
       0.594
       0.596
       0.578
       0.542
       0.493
       0.439
       0.394
       0.375
       0.395
       0.459
       0.562
       0.685
       0.805
       0.898
       0.945
       0.939
       0.881
       0.780
       0.645
       0.488
       0.324
       0.170
       0.042
      -0.046
      -0.092
      -0.103
      -0.091
      -0.069
      -0.047
      -0.033
      -0.036
      -0.060
      -0.107
      -0.166
      -0.220
      -0.253
      -0.259
      -0.241
      -0.211
      -0.183
      -0.164
      -0.157
      -0.159
      -0.169
      -0.189
      -0.230
      -0.301
      -0.405
      -0.533
      -0.664
      -0.769
      -0.822
      -0.806
      -0.722
      -0.585
      -0.420
      -0.259
      -0.133
      -0.069
      -0.079
      -0.158
      -0.286
      -0.436
      -0.583
      -0.705
      -0.781
      -0.790
      -0.719
      -0.565
      -0.349
      -0.108
       0.122
       0.319
       0.478
       0.607
       0.709
       0.784
       0.828
       0.842
       0.839
       0.832
       0.833
       0.850
       0.878
       0.901
       0.899
       0.855
       0.766
       0.648
       0.519
       0.398
       0.294
       0.208
       0.142
       0.093
       0.054
       0.018
      -0.026
      -0.088
      -0.171
      -0.272
      -0.382
      -0.484
      -0.557
      -0.584
      -0.553
      -0.466
      -0.337
      -0.189
      -0.045
       0.075
       0.160
       0.204
       0.204
       0.167
       0.109
       0.048
       0.002
      -0.021
      -0.027
      -0.028
      -0.036
      -0.055
      -0.082
      -0.106
      -0.109
      -0.078
      -0.010
       0.087
       0.194
       0.288
       0.351
       0.370
       0.346
       0.290
       0.218
       0.145
       0.081
       0.034
       0.011
       0.019
       0.062
       0.138
       0.239
       0.352
       0.462
       0.552
       0.610
       0.631
       0.619
       0.586
       0.546
       0.509
       0.478
       0.458
       0.454
       0.472
       0.517
       0.585
       0.666
       0.745
       0.806
       0.836
       0.825
       0.763
       0.642
       0.465
       0.248
       0.016
      -0.203
      -0.389
      -0.535
      -0.641
      -0.707
      -0.738
      -0.744
      -0.744
      -0.758
      -0.800
      -0.871
      -0.958
      -1.037
      -1.085
      -1.090
      -1.053
      -0.984
      -0.896
      -0.795
      -0.689
      -0.584
      -0.489
      -0.413
      -0.365
      -0.352
      -0.378
      -0.441
      -0.526
      -0.605
      -0.654
      -0.661
      -0.636
      -0.602
      -0.585
      -0.601
      -0.647
      -0.712
      -0.773
      -0.809
      -0.811
      -0.780
      -0.726
      -0.656
      -0.573
      -0.478
      -0.374
      -0.262
      -0.144
      -0.017
       0.127
       0.294
       0.480
       0.673
       0.855
       1.014
       1.145
       1.253
       1.342
       1.424
       1.507
       1.595
       1.682
       1.753
       1.791
       1.788
       1.743
       1.667
       1.569
       1.461
       1.353
       1.255
       1.171
       1.094
       1.011
       0.903
       0.761
       0.589
       0.402
       0.223
       0.067
      -0.061
      -0.167
      -0.262
      -0.354
      -0.448
      -0.542
      -0.632
      -0.716
      -0.792
      -0.867
      -0.944
      -1.027
      -1.114
      -1.203
      -1.290
      -1.376
      -1.465
      -1.560
      -1.664
      -1.774
      -1.885
      -1.989
      -2.075
      -2.129
      -2.135
      -2.083
      -1.968
      -1.795
      -1.575
      -1.322
      -1.055
      -0.791
      -0.551
      -0.350
      -0.197
      -0.089
      -0.016
       0.040
       0.097
       0.165
       0.248
       0.341
       0.435
       0.524
       0.604
       0.668
       0.714
       0.738
       0.740
       0.731
       0.725
       0.728
       0.738
       0.738
       0.709
       0.645
       0.555
       0.463
       0.391
       0.357
       0.366
       0.417
       0.501
       0.604
       0.706
       0.790
       0.840
       0.846
       0.807
       0.733
       0.641
       0.554
       0.491
       0.460
       0.461
       0.484
       0.523
       0.574
       0.635
       0.699
       0.749
       0.767
       0.737
       0.657
       0.535
       0.386
       0.226
       0.069
      -0.071
      -0.177
      -0.238
      -0.253
      -0.233
      -0.187
      -0.115
      -0.010
       0.142
       0.341
       0.575
       0.823
       1.060
       1.271
       1.445
       1.577
       1.667
       1.710
       1.703
       1.645
       1.540
       1.400
       1.243
       1.088
       0.950
       0.842
       0.770
       0.723
       0.679
       0.611
       0.501
       0.350
       0.175
      -0.005
      -0.173
      -0.325
      -0.464
      -0.590
      -0.698
      -0.773
      -0.797
      -0.753
      -0.638
      -0.461
      -0.240
       0.005
       0.253
       0.481
       0.671
       0.807
       0.881
       0.891
       0.845
       0.759
       0.653
       0.558
       0.503
       0.515
       0.607
       0.771
       0.977
       1.181
       1.338
       1.411
       1.378
       1.233
       0.986
       0.661
       0.288
      -0.091
      -0.443
      -0.742
      -0.983
      -1.169
      -1.313
      -1.424
      -1.512
      -1.587
      -1.664
      -1.764
      -1.909
      -2.109
      -2.358
      -2.633
      -2.899
      -3.121
      -3.269
      -3.326
      -3.286
      -3.149
      -2.921
      -2.615
      -2.255
      -1.871
      -1.492
      -1.147
      -0.852
      -0.615
      -0.431
      -0.291
      -0.179
      -0.085
       0.002
       0.090
       0.187
       0.295
       0.414
       0.536
       0.661
       0.796
       0.954
       1.142
       1.349
       1.550
       1.714
       1.822
       1.867
       1.855
       1.800
       1.720
       1.639
       1.572
       1.525
       1.486
       1.435
       1.357
       1.250
       1.129
       1.013
       0.920
       0.854
       0.811
       0.777
       0.737
       0.676
       0.585
       0.465
       0.322
       0.167
       0.011
      -0.139
      -0.273
      -0.383
      -0.465
      -0.523
      -0.573
      -0.630
      -0.707
      -0.814
      -0.954
      -1.128
      -1.327
      -1.534
      -1.731
      -1.901
      -2.034
      -2.124
      -2.160
      -2.134
      -2.042
      -1.896
      -1.717
      -1.527
      -1.341
      -1.164
      -0.994
      -0.827
      -0.660
      -0.490
      -0.317
      -0.146
       0.013
       0.153
       0.271
       0.376
       0.478
       0.583
       0.684
       0.765
       0.812
       0.818
       0.785
       0.728
       0.662
       0.599
       0.547
       0.507
       0.470
       0.425
       0.359
       0.268
       0.159
       0.039
      -0.087
      -0.218
      -0.354
      -0.491
      -0.614
      -0.705
      -0.741
      -0.707
      -0.597
      -0.422
      -0.201
       0.042
       0.287
       0.523
       0.746
       0.951
       1.132
       1.278
       1.384
       1.450
       1.484
       1.491
       1.477
       1.439
       1.364
       1.232
       1.022
       0.719
       0.323
      -0.150
      -0.665
      -1.178
      -1.645
      -2.042
      -2.363
      -2.622
      -2.837
      -3.021
      -3.175
      -3.294
      -3.366
      -3.382
      -3.339
      -3.236
      -3.082
      -2.893
      -2.677
      -2.439
      -2.173
      -1.874
      -1.537
      -1.160
      -0.748
      -0.314
       0.136
       0.602
       1.099
       1.643
       2.239
       2.874
       3.521
       4.153
       4.744
       5.280
       5.760
       6.187
       6.565
       6.888
       7.141
       7.303
       7.354
       7.283
       7.092
       6.788
       6.381
       5.881
       5.299
       4.657
       3.986
       3.320
       2.681
       2.076
       1.499
       0.938
       0.387
      -0.151
      -0.672
      -1.167
      -1.631
      -2.056
      -2.431
      -2.736
      -2.951
      -3.061
      -3.059
      -2.947
      -2.736
      -2.438
      -2.072
      -1.656
      -1.212
      -0.761
      -0.322
       0.088
       0.452
       0.754
       0.975
       1.101
       1.122
       1.038
       0.857
       0.600
       0.294
      -0.037
      -0.380
      -0.732
      -1.097
      -1.484
      -1.902
      -2.353
      -2.833
      -3.329
      -3.829
      -4.322
      -4.797
      -5.242
      -5.644
      -5.990
      -6.272
      -6.482
      -6.615
      -6.673
      -6.661
      -6.586
      -6.445
      -6.226
      -5.912
      -5.498
      -5.001
      -4.461
      -3.928
      -3.433
      -2.976
      -2.537
      -2.104
      -1.681
      -1.287
      -0.938
      -0.641
      -0.385
      -0.155
       0.066
       0.287
       0.516
       0.757
       1.005
       1.248
       1.465
       1.639
       1.765
       1.843
       1.877
       1.859
       1.777
       1.621
       1.399
       1.131
       0.842
       0.548
       0.252
      -0.045
      -0.340
      -0.622
      -0.881
      -1.108
      -1.308
      -1.486
      -1.652
      -1.808
      -1.947
      -2.057
      -2.126
      -2.151
      -2.129
      -2.057
      -1.924
      -1.722
      -1.450
      -1.118
      -0.750
      -0.371
      -0.003
       0.335
       0.634
       0.889
       1.104
       1.285
       1.445
       1.595
       1.748
       1.912
       2.093
       2.290
       2.499
       2.716
       2.937
       3.165
       3.403
       3.654
       3.922
       4.203
       4.487
       4.757
       4.992
       5.181
       5.320
       5.410
       5.450
       5.434
       5.351
       5.193
       4.961
       4.667
       4.336
       4.007
       3.722
       3.514
       3.393
       3.347
       3.346
       3.362
       3.376
       3.376
       3.350
       3.284
       3.162
       2.976
       2.729
       2.429
       2.090
       1.726
       1.354
       0.994
       0.663
       0.374
       0.137
      -0.042
      -0.159
      -0.216
      -0.229
      -0.221
      -0.215
      -0.225
      -0.247
      -0.269
      -0.275
      -0.254
      -0.203
      -0.128
      -0.039
       0.054
       0.144
       0.224
       0.289
       0.335
       0.363
       0.380
       0.389
       0.385
       0.358
       0.292
       0.177
       0.004
      -0.229
      -0.524
      -0.883
      -1.306
      -1.786
      -2.305
      -2.837
      -3.350
      -3.813
      -4.205
      -4.513
      -4.740
      -4.897
      -4.999
      -5.067
      -5.116
      -5.160
      -5.201
      -5.229
      -5.228
      -5.185
      -5.094
      -4.958
      -4.788
      -4.594
      -4.379
      -4.144
      -3.879
      -3.579
      -3.240
      -2.864
      -2.463
      -2.060
      -1.679
      -1.343
      -1.062
      -0.832
      -0.645
      -0.496
      -0.392
      -0.338
      -0.336
      -0.378
      -0.452
      -0.547
      -0.652
      -0.750
      -0.827
      -0.881
      -0.921
      -0.967
      -1.037
      -1.133
      -1.242
      -1.337
      -1.387
      -1.374
      -1.294
      -1.158
      -0.979
      -0.762
      -0.504
      -0.206
       0.122
       0.461
       0.792
       1.089
       1.329
       1.486
       1.534
       1.457
       1.243
       0.893
       0.420
      -0.147
      -0.761
      -1.364
      -1.900
      -2.327
      -2.624
      -2.791
      -2.837
      -2.776
      -2.623
      -2.389
      -2.090
      -1.748
      -1.385
      -1.027
      -0.693
      -0.391
      -0.119
       0.136
       0.389
       0.649
       0.916
       1.185
       1.449
       1.701
       1.931
       2.130
       2.284
       2.385
       2.429
       2.422
       2.371
       2.288
       2.186
       2.078
       1.985
       1.924
       1.912
       1.952
       2.041
       2.161
       2.292
       2.412
       2.505
       2.555
       2.555
       2.506
       2.418
       2.302
       2.164
       2.008
       1.831
       1.631
       1.410
       1.168
       0.909
       0.637
       0.363
       0.105
      -0.109
      -0.251
      -0.300
      -0.247
      -0.097
       0.141
       0.456
       0.837
       1.269
       1.730
       2.190
       2.615
       2.971
       3.232
       3.387
       3.434
       3.374
       3.209
       2.947
       2.599
       2.193
       1.762
       1.341
       0.946
       0.574
       0.205
      -0.177
      -0.575
      -0.980
      -1.386
      -1.787
      -2.177
      -2.540
      -2.856
      -3.104
      -3.277
      -3.376
      -3.404
      -3.366
      -3.264
      -3.107
      -2.905
      -2.666
      -2.393
      -2.090
      -1.762
      -1.415
      -1.057
      -0.699
      -0.354
      -0.037
       0.239
       0.466
       0.647
       0.789
       0.895
       0.966
       1.001
       1.000
       0.975
       0.942
       0.920
       0.919
       0.939
       0.967
       0.995
       1.019
       1.045
       1.076
       1.110
       1.141
       1.158
       1.160
       1.145
       1.122
       1.096
       1.073
       1.055
       1.040
       1.023
       0.997
       0.951
       0.878
       0.773
       0.631
       0.452
       0.238
      -0.005
      -0.262
      -0.510
      -0.725
      -0.892
      -1.012
      -1.096
      -1.160
      -1.218
      -1.277
      -1.338
      -1.392
      -1.421
      -1.403
      -1.318
      -1.162
      -0.939
      -0.659
      -0.335
       0.021
       0.395
