Origin Time       11/8/2009 21:43:39  UTC
Lat.              24.4 N 
Long.             94.8 E 
Depth (Km)         22.0
Magnitude         5.6
 Region           MYANMAR-INDIA(MANIPUR)BORDER                                     
 Above details taken from IMD 
    
Station Code      SIL
Station Lat.       24.830  N
Station Long.      92.801  E
Station Height(m)   28.3
Site Class        C   Vs30 between 200 m/sec to 375 m/sec *  
Record Time       11.08.2009 21:43:18.544 UTC
Sampling Rate     200. Hz
 Record Duration   74.000 Sec.
 Direction         N-S (N positive)
Max. Acceleration     -9.789 cm/sec**2
     
  * For reference see Site Classification link of website 
     
 Base Line Corrected and Low Pass Filtered (Cut Off at 35 Hz) Time History
 Acceleration data in cm/sec**2
    
[...]
       0.383
       0.403
       0.414
       0.418
       0.413
       0.391
       0.346
       0.272
       0.169
       0.044
      -0.093
      -0.223
      -0.329
      -0.398
      -0.428
      -0.428
      -0.411
      -0.391
      -0.374
      -0.358
      -0.333
      -0.289
      -0.221
      -0.133
      -0.031
       0.072
       0.158
       0.212
       0.227
       0.204
       0.155
       0.101
       0.057
       0.038
       0.050
       0.093
       0.158
       0.225
       0.275
       0.295
       0.283
       0.240
       0.166
       0.062
      -0.065
      -0.193
      -0.294
      -0.347
      -0.347
      -0.304
      -0.237
      -0.161
      -0.085
      -0.014
       0.053
       0.115
       0.173
       0.221
       0.249
       0.248
       0.216
       0.160
       0.091
       0.022
      -0.042
      -0.100
      -0.149
      -0.191
      -0.226
      -0.257
      -0.286
      -0.317
      -0.345
      -0.366
      -0.375
      -0.376
      -0.373
      -0.371
      -0.370
      -0.370
      -0.374
      -0.386
      -0.405
      -0.425
      -0.432
      -0.415
      -0.367
      -0.293
      -0.203
      -0.108
      -0.017
       0.058
       0.107
       0.120
       0.096
       0.046
      -0.003
      -0.020
       0.018
       0.111
       0.235
       0.354
       0.440
       0.482
       0.491
       0.483
       0.470
       0.452
       0.418
       0.356
       0.261
       0.134
      -0.016
      -0.172
      -0.314
      -0.419
      -0.466
      -0.449
      -0.378
      -0.275
      -0.168
      -0.075
      -0.009
       0.026
       0.029
       0.007
      -0.027
      -0.065
      -0.101
      -0.135
      -0.164
      -0.181
      -0.174
      -0.137
      -0.072
       0.009
       0.092
       0.160
       0.206
       0.236
       0.262
       0.297
       0.348
       0.409
       0.465
       0.498
       0.497
       0.462
       0.399
       0.316
       0.219
       0.114
       0.006
      -0.100
      -0.194
      -0.270
      -0.320
      -0.344
      -0.345
      -0.331
      -0.312
      -0.292
      -0.267
      -0.231
      -0.179
      -0.119
      -0.058
      -0.005
       0.034
       0.061
       0.082
       0.105
       0.140
       0.189
       0.249
       0.316
       0.384
       0.443
       0.484
       0.497
       0.474
       0.416
       0.331
       0.226
       0.109
      -0.015
      -0.135
      -0.236
      -0.306
      -0.336
      -0.327
      -0.288
      -0.233
      -0.181
      -0.151
      -0.156
      -0.197
      -0.268
      -0.352
      -0.432
      -0.491
      -0.514
      -0.493
      -0.427
      -0.321
      -0.189
      -0.047
       0.087
       0.202
       0.287
       0.339
       0.359
       0.353
       0.333
       0.308
       0.283
       0.252
       0.205
       0.133
       0.040
      -0.056
      -0.131
      -0.166
      -0.165
      -0.142
      -0.118
      -0.104
      -0.100
      -0.096
      -0.086
      -0.070
      -0.055
      -0.051
      -0.061
      -0.081
      -0.104
      -0.122
      -0.128
      -0.116
      -0.087
      -0.042
       0.010
       0.062
       0.107
       0.141
       0.161
       0.167
       0.164
       0.155
       0.146
       0.142
       0.144
       0.148
       0.145
       0.126
       0.088
       0.038
      -0.006
      -0.028
      -0.019
       0.017
       0.074
       0.140
       0.203
       0.247
       0.256
       0.225
       0.157
       0.064
      -0.038
      -0.135
      -0.217
      -0.269
      -0.283
      -0.257
      -0.201
      -0.133
      -0.069
      -0.011
       0.040
       0.089
       0.133
       0.168
       0.191
       0.202
       0.208
       0.221
       0.245
       0.275
       0.298
       0.298
       0.268
       0.208
       0.126
       0.031
      -0.068
      -0.163
      -0.246
      -0.308
      -0.338
      -0.333
      -0.299
      -0.251
      -0.203
      -0.164
      -0.140
      -0.134
      -0.151
      -0.187
      -0.219
      -0.220
      -0.169
      -0.069
       0.053
       0.158
       0.213
       0.202
       0.130
       0.022
      -0.086
      -0.160
      -0.176
      -0.140
      -0.079
      -0.031
      -0.021
      -0.051
      -0.106
      -0.167
      -0.225
      -0.276
      -0.315
      -0.339
      -0.340
      -0.316
      -0.274
      -0.229
      -0.195
      -0.177
      -0.166
      -0.153
      -0.131
      -0.106
      -0.085
      -0.074
      -0.071
      -0.071
      -0.072
      -0.067
      -0.049
      -0.011
       0.053
       0.131
       0.205
       0.256
       0.283
       0.297
       0.313
       0.327
       0.327
       0.290
       0.205
       0.078
      -0.067
      -0.199
      -0.290
      -0.329
      -0.321
      -0.287
      -0.252
      -0.233
      -0.230
      -0.226
      -0.202
      -0.154
      -0.101
      -0.069
      -0.080
      -0.133
      -0.205
      -0.264
      -0.283
      -0.245
      -0.154
      -0.033
       0.087
       0.172
       0.204
       0.184
       0.130
       0.069
       0.033
       0.042
       0.100
       0.191
       0.290
       0.369
       0.408
       0.403
       0.363
       0.309
       0.262
       0.237
       0.243
       0.280
       0.339
       0.407
       0.469
       0.510
       0.521
       0.494
       0.427
       0.320
       0.183
       0.033
      -0.110
      -0.223
      -0.287
      -0.288
      -0.228
      -0.123
      -0.004
       0.091
       0.131
       0.104
       0.024
      -0.073
      -0.153
      -0.195
      -0.206
      -0.208
      -0.228
      -0.276
      -0.343
      -0.405
      -0.431
      -0.396
      -0.298
      -0.150
       0.016
       0.170
       0.287
       0.351
       0.352
       0.290
       0.178
       0.039
      -0.096
      -0.195
      -0.236
      -0.209
      -0.121
       0.008
       0.144
       0.253
       0.306
       0.296
       0.243
       0.175
       0.117
       0.069
       0.019
      -0.046
      -0.128
      -0.212
      -0.273
      -0.291
      -0.256
      -0.181
      -0.087
       0.001
       0.062
       0.083
       0.058
      -0.010
      -0.102
      -0.192
      -0.252
      -0.267
      -0.240
      -0.188
      -0.138
      -0.109
      -0.113
      -0.147
      -0.197
      -0.244
      -0.270
      -0.261
      -0.212
      -0.127
      -0.021
       0.084
       0.164
       0.196
       0.171
       0.098
       0.000
      -0.090
      -0.149
      -0.166
      -0.148
      -0.113
      -0.080
      -0.056
      -0.037
      -0.005
       0.050
       0.123
       0.193
       0.229
       0.217
       0.162
       0.082
      -0.001
      -0.071
      -0.123
      -0.151
      -0.147
      -0.107
      -0.033
       0.061
       0.156
       0.234
       0.281
       0.290
       0.258
       0.190
       0.100
       0.013
      -0.050
      -0.075
      -0.059
      -0.006
       0.076
       0.181
       0.299
       0.413
       0.509
       0.574
       0.599
       0.579
       0.515
       0.411
       0.281
       0.145
       0.023
      -0.070
      -0.128
      -0.158
      -0.171
      -0.179
      -0.191
      -0.205
      -0.214
      -0.212
      -0.208
      -0.223
      -0.280
      -0.383
      -0.513
      -0.634
      -0.706
      -0.705
      -0.626
      -0.486
      -0.312
      -0.135
       0.021
       0.142
       0.224
       0.278
       0.318
       0.359
       0.406
       0.458
       0.509
       0.550
       0.571
       0.564
       0.523
       0.449
       0.351
       0.241
       0.131
       0.028
      -0.063
      -0.142
      -0.211
      -0.277
      -0.350
      -0.432
      -0.517
      -0.589
      -0.630
      -0.629
      -0.587
      -0.519
      -0.442
      -0.366
      -0.293
      -0.217
      -0.135
      -0.047
       0.039
       0.114
       0.168
       0.196
       0.199
       0.191
       0.189
       0.205
       0.239
       0.277
       0.297
       0.281
       0.224
       0.135
       0.040
      -0.032
      -0.057
      -0.029
       0.035
       0.107
       0.162
       0.188
       0.185
       0.159
       0.119
       0.072
       0.027
      -0.005
      -0.013
       0.003
       0.028
       0.043
       0.033
      -0.008
      -0.072
      -0.144
      -0.205
      -0.237
      -0.230
      -0.192
      -0.141
      -0.112
      -0.136
      -0.229
      -0.384
      -0.566
      -0.726
      -0.817
      -0.814
      -0.711
      -0.525
      -0.286
      -0.028
       0.217
       0.427
       0.591
       0.712
       0.800
       0.867
       0.916
       0.942
       0.931
       0.870
       0.761
       0.621
       0.482
       0.372
       0.301
       0.257
       0.212
       0.146
       0.052
      -0.055
      -0.153
      -0.230
      -0.289
      -0.344
      -0.403
      -0.457
      -0.488
      -0.480
      -0.432
      -0.355
      -0.268
      -0.179
      -0.088
       0.009
       0.104
       0.180
       0.216
       0.204
       0.157
       0.102
       0.071
       0.080
       0.125
       0.187
       0.237
       0.246
       0.192
       0.070
      -0.101
      -0.283
      -0.435
      -0.534
      -0.576
      -0.575
      -0.551
      -0.525
      -0.510
      -0.512
      -0.525
      -0.533
      -0.517
      -0.463
      -0.373
      -0.261
      -0.153
      -0.078
      -0.049
      -0.062
      -0.089
      -0.093
      -0.046
       0.054
       0.182
       0.290
       0.334
       0.290
       0.166
      -0.007
      -0.195
      -0.369
      -0.520
      -0.647
      -0.752
      -0.841
      -0.919
      -0.986
      -1.032
      -1.038
      -0.983
      -0.857
      -0.668
      -0.436
      -0.183
       0.077
       0.339
       0.597
       0.846
       1.068
       1.246
       1.366
       1.426
       1.436
       1.419
       1.392
       1.367
       1.339
       1.292
       1.206
       1.065
       0.872
       0.648
       0.432
       0.255
       0.128
       0.042
      -0.032
      -0.117
      -0.226
      -0.355
      -0.495
      -0.636
      -0.775
      -0.907
      -1.023
      -1.112
      -1.166
      -1.184
      -1.166
      -1.114
      -1.027
      -0.901
      -0.734
      -0.531
      -0.311
      -0.100
       0.070
       0.175
       0.207
       0.182
       0.126
       0.069
       0.032
       0.026
       0.045
       0.077
       0.105
       0.118
       0.110
       0.076
       0.019
      -0.056
      -0.136
      -0.202
      -0.238
      -0.233
      -0.189
      -0.116
      -0.030
       0.057
       0.143
       0.233
       0.329
       0.429
       0.527
       0.615
       0.683
       0.719
       0.716
       0.667
       0.576
       0.455
       0.319
       0.185
       0.064
      -0.040
      -0.127
      -0.199
      -0.256
      -0.302
      -0.346
      -0.397
      -0.458
      -0.527
      -0.590
      -0.632
      -0.640
      -0.610
      -0.541
      -0.434
      -0.287
      -0.100
       0.126
       0.379
       0.634
       0.855
       1.008
       1.076
       1.062
       0.996
       0.918
       0.864
       0.851
       0.876
       0.920
       0.963
       0.990
       0.987
       0.942
       0.840
       0.670
       0.432
       0.140
      -0.175
      -0.481
      -0.758
      -1.005
      -1.231
      -1.443
      -1.640
      -1.810
      -1.936
      -2.006
      -2.012
      -1.953
      -1.839
      -1.679
      -1.485
      -1.267
      -1.028
      -0.772
      -0.501
      -0.221
       0.058
       0.328
       0.583
       0.819
       1.031
       1.217
       1.374
       1.502
       1.604
       1.684
       1.743
       1.777
       1.776
       1.730
       1.631
       1.470
       1.246
       0.969
       0.663
       0.353
       0.064
      -0.191
      -0.405
      -0.567
      -0.664
      -0.682
      -0.622
      -0.500
      -0.341
      -0.173
      -0.022
       0.094
       0.172
       0.225
       0.274
       0.337
       0.422
       0.529
       0.652
       0.788
       0.928
       1.059
       1.166
       1.231
       1.241
       1.193
       1.096
       0.969
       0.836
       0.722
       0.641
       0.600
       0.591
       0.603
       0.624
       0.641
       0.644
       0.634
       0.615
       0.593
       0.570
       0.548
       0.524
       0.492
       0.446
       0.375
       0.277
       0.155
       0.018
      -0.126
      -0.274
      -0.425
      -0.574
      -0.718
      -0.852
      -0.977
      -1.096
      -1.204
      -1.292
      -1.353
      -1.390
      -1.420
      -1.463
      -1.536
      -1.647
      -1.794
      -1.969
      -2.159
      -2.352
      -2.533
      -2.692
      -2.820
      -2.907
      -2.941
      -2.913
      -2.820
      -2.666
      -2.455
      -2.187
      -1.853
      -1.450
      -0.986
      -0.476
       0.066
       0.633
       1.222
       1.826
       2.435
       3.035
       3.615
       4.175
       4.711
       5.212
       5.660
       6.042
       6.354
       6.609
       6.823
       7.001
       7.131
       7.189
       7.149
       6.989
       6.699
       6.276
       5.731
       5.076
       4.332
       3.513
       2.627
       1.671
       0.645
      -0.448
      -1.596
      -2.778
      -3.963
      -5.117
      -6.195
      -7.154
      -7.964
      -8.614
      -9.111
      -9.467
      -9.691
      -9.789
      -9.759
      -9.596
      -9.292
      -8.842
      -8.254
      -7.555
      -6.784
      -5.979
      -5.169
      -4.376
      -3.614
      -2.892
      -2.210
      -1.558
      -0.927
      -0.323
       0.235
       0.729
       1.156
       1.532
       1.882
       2.227
       2.574
       2.911
       3.221
       3.484
       3.687
       3.824
       3.889
       3.878
       3.788
       3.627
       3.409
       3.156
       2.884
       2.612
       2.358
       2.150
       2.018
       1.981
       2.047
       2.204
       2.426
       2.680
       2.927
       3.132
       3.274
       3.348
       3.359
       3.315
       3.223
       3.089
       2.912
       2.686
       2.398
       2.041
       1.615
       1.133
       0.614
       0.068
      -0.499
      -1.087
      -1.688
      -2.285
      -2.854
      -3.374
      -3.833
      -4.231
      -4.573
      -4.863
      -5.105
      -5.298
      -5.439
      -5.517
      -5.528
      -5.471
      -5.351
      -5.174
      -4.932
      -4.616
      -4.214
      -3.726
      -3.172
      -2.583
      -2.001
      -1.462
      -0.996
      -0.613
      -0.308
      -0.060
       0.149
       0.329
       0.473
       0.574
       0.631
       0.654
       0.662
       0.664
       0.664
       0.654
       0.634
       0.608
       0.587
       0.583
       0.598
       0.628
       0.664
       0.698
       0.728
       0.759
       0.799
       0.852
       0.914
       0.984
       1.065
       1.163
       1.290
       1.457
       1.677
       1.955
       2.290
       2.680
       3.123
       3.617
       4.151
       4.696
       5.212
       5.660
       6.012
       6.252
       6.363
       6.336
       6.167
       5.864
       5.449
       4.947
       4.377
       3.749
       3.062
       2.315
       1.516
       0.689
      -0.133
      -0.918
      -1.647
      -2.311
      -2.906
      -3.432
      -3.892
      -4.291
      -4.628
      -4.900
      -5.110
      -5.271
      -5.405
      -5.532
      -5.663
      -5.791
      -5.894
      -5.946
      -5.927
      -5.827
      -5.645
      -5.378
      -5.026
      -4.600
      -4.119
      -3.617
      -3.131
      -2.692
      -2.323
      -2.033
      -1.823
      -1.675
      -1.558
      -1.430
      -1.248
      -0.979
      -0.607
      -0.130
       0.436
       1.064
       1.725
       2.385
       3.019
       3.603
       4.117
       4.547
       4.888
       5.146
       5.330
       5.447
       5.495
       5.469
       5.372
       5.218
       5.023
       4.797
       4.546
       4.280
       4.016
       3.773
       3.569
       3.420
       3.332
       3.305
       3.324
       3.368
       3.411
       3.432
       3.417
       3.355
       3.238
       3.052
       2.788
       2.443
       2.028
       1.568
       1.097
       0.649
       0.253
      -0.082
      -0.368
      -0.629
      -0.894
      -1.185
      -1.505
      -1.847
      -2.197
      -2.542
      -2.879
      -3.207
      -3.532
      -3.852
      -4.163
      -4.448
      -4.681
      -4.835
      -4.885
      -4.809
      -4.594
      -4.231
      -3.720
      -3.073
      -2.312
      -1.466
      -0.564
       0.368
       1.309
       2.236
       3.118
       3.922
       4.611
       5.153
       5.526
       5.719
       5.732
       5.580
       5.289
       4.877
       4.356
       3.728
       2.998
       2.181
       1.300
       0.383
      -0.547
      -1.471
      -2.375
      -3.240
      -4.047
      -4.774
      -5.400
      -5.908
      -6.278
      -6.495
      -6.547
      -6.428
      -6.139
      -5.678
      -5.042
      -4.236
      -3.283
      -2.226
      -1.116
       0.011
       1.131
       2.222
       3.249
       4.163
       4.913
       5.466
       5.811
       5.960
       5.932
       5.747
       5.418
       4.949
       4.338
       3.598
       2.766
       1.900
       1.056
       0.259
      -0.503
      -1.250
      -1.985
      -2.686
      -3.316
      -3.851
      -4.292
      -4.660
      -4.986
      -5.288
      -5.568
      -5.807
      -5.974
      -6.037
      -5.977
      -5.807
      -5.574
      -5.345
      -5.166
      -5.041
      -4.927
      -4.771
      -4.538
      -4.232
      -3.886
      -3.534
      -3.196
      -2.865
      -2.524
      -2.164
      -1.790
      -1.415
      -1.056
      -0.722
      -0.420
      -0.150
       0.098
       0.340
       0.596
       0.878
       1.184
       1.505
       1.828
       2.139
       2.419
       2.649
       2.813
       2.907
       2.936
       2.910
       2.842
       2.741
       2.624
       2.517
       2.449
       2.445
       2.511
       2.637
       2.800
       2.983
       3.168
       3.348
       3.518
       3.674
       3.802
       3.888
       3.918
       3.888
       3.803
       3.669
       3.491
       3.264
       2.985
       2.656
       2.289
       1.902
       1.508
       1.116
       0.730
       0.361
       0.021
      -0.280
      -0.545
      -0.784
      -1.005
      -1.216
      -1.420
      -1.626
      -1.841
      -2.067
      -2.300
      -2.527
      -2.734
      -2.912
      -3.047
      -3.119
      -3.103
      -2.985
      -2.768
      -2.481
      -2.157
      -1.824
      -1.487
      -1.142
      -0.786
      -0.426
      -0.074
       0.259
       0.572
       0.869
       1.154
       1.429
       1.695
       1.952
       2.199
       2.437
       2.667
       2.891
       3.115
       3.337
       3.546
       3.724
       3.849
       3.905
       3.878
       3.752
       3.506
       3.129
       2.628
       2.029
       1.370
       0.685
      -0.003
      -0.678
      -1.323
      -1.920
      -2.452
      -2.902
      -3.260
