Origin Time       3/9/2009 19:51:08	 
Lat.              24.3 N	
Long.             94.6 E	
Depth (Km)        100.0
Magnitude         5.9
 Region           MYANMAR-India-Manipuir-Border                                    
 Above details taken from IMD 
   
Station Code      SIL
Station Lat.       24.830
Station Long.      92.801
Station Height(m)   28.3
Site Class        C   Vs30 between 200 m/sec to 375 m/sec *  
Record Time       04.09.2009 01:24:54.894
Sampling Rate     200. Hz
 Record Duration   66.730 Sec.
 Direction         Vert. (Up positive)
Max. Acceleration     -2.679 cm/sec**2
     
  * For reference see Site Classification link of website 
     
 Base Line Corrected and Low Pass Filtered (Cut Off at 35 Hz) Time History
 Acceleration data in cm/sec**2
    
[...]
       1.478
       1.159
       0.735
       0.249
      -0.238
      -0.656
      -0.948
      -1.084
      -1.070
      -0.941
      -0.750
      -0.542
      -0.345
      -0.162
       0.024
       0.230
       0.460
       0.689
       0.869
       0.946
       0.889
       0.702
       0.419
       0.086
      -0.258
      -0.579
      -0.848
      -1.031
      -1.097
      -1.033
      -0.857
      -0.615
      -0.366
      -0.155
       0.000
       0.110
       0.193
       0.262
       0.314
       0.333
       0.297
       0.186
      -0.011
      -0.289
      -0.629
      -0.992
      -1.323
      -1.559
      -1.651
      -1.574
      -1.335
      -0.963
      -0.503
      -0.010
       0.452
       0.811
       1.007
       1.010
       0.831
       0.523
       0.169
      -0.139
      -0.326
      -0.359
      -0.253
      -0.064
       0.134
       0.283
       0.355
       0.354
       0.297
       0.201
       0.080
      -0.041
      -0.119
      -0.104
       0.044
       0.321
       0.675
       1.018
       1.256
       1.328
       1.210
       0.916
       0.484
      -0.028
      -0.538
      -0.955
      -1.191
      -1.197
      -0.978
      -0.589
      -0.116
       0.360
       0.785
       1.126
       1.356
       1.442
       1.351
       1.073
       0.647
       0.158
      -0.284
      -0.593
      -0.739
      -0.743
      -0.654
      -0.509
      -0.317
      -0.069
       0.235
       0.571
       0.886
       1.115
       1.203
       1.126
       0.902
       0.581
       0.228
      -0.099
      -0.368
      -0.568
      -0.703
      -0.772
      -0.765
      -0.671
      -0.488
      -0.240
       0.026
       0.253
       0.386
       0.392
       0.274
       0.063
      -0.189
      -0.432
      -0.630
      -0.766
      -0.836
      -0.843
      -0.796
      -0.710
      -0.600
      -0.490
      -0.401
      -0.356
      -0.375
      -0.466
      -0.609
      -0.756
      -0.836
      -0.788
      -0.579
      -0.226
       0.212
       0.661
       1.052
       1.347
       1.539
       1.639
       1.657
       1.593
       1.437
       1.191
       0.880
       0.559
       0.288
       0.110
       0.037
       0.047
       0.097
       0.139
       0.136
       0.069
      -0.059
      -0.231
      -0.417
      -0.575
      -0.669
      -0.671
      -0.576
      -0.402
      -0.187
       0.022
       0.178
       0.245
       0.203
       0.060
      -0.155
      -0.388
      -0.575
      -0.658
      -0.604
      -0.417
      -0.138
       0.165
       0.419
       0.569
       0.584
       0.461
       0.217
      -0.108
      -0.465
      -0.795
      -1.042
      -1.159
      -1.123
      -0.932
      -0.604
      -0.172
       0.318
       0.806
       1.226
       1.520
       1.664
       1.668
       1.573
       1.427
       1.263
       1.093
       0.906
       0.684
       0.414
       0.096
      -0.254
      -0.610
      -0.941
      -1.214
      -1.403
      -1.497
      -1.498
      -1.419
      -1.280
      -1.103
      -0.906
      -0.700
      -0.487
      -0.263
      -0.020
       0.248
       0.534
       0.812
       1.046
       1.198
       1.243
       1.169
       0.984
       0.713
       0.394
       0.076
      -0.195
      -0.377
      -0.442
      -0.375
      -0.178
       0.120
       0.467
       0.794
       1.035
       1.156
       1.151
       1.035
       0.831
       0.563
       0.263
      -0.021
      -0.241
      -0.367
      -0.403
      -0.383
      -0.364
      -0.391
      -0.490
      -0.655
      -0.860
      -1.066
      -1.234
      -1.334
      -1.353
      -1.306
      -1.227
      -1.157
      -1.128
      -1.141
      -1.179
      -1.213
      -1.221
      -1.192
      -1.122
      -1.001
      -0.822
      -0.584
      -0.309
      -0.033
       0.203
       0.377
       0.492
       0.570
       0.639
       0.722
       0.824
       0.932
       1.029
       1.102
       1.153
       1.201
       1.267
       1.356
       1.453
       1.524
       1.529
       1.431
       1.209
       0.863
       0.419
      -0.066
      -0.512
      -0.833
      -0.966
      -0.896
      -0.662
      -0.343
      -0.025
       0.224
       0.370
       0.403
       0.328
       0.158
      -0.077
      -0.332
      -0.553
      -0.694
      -0.735
      -0.683
      -0.570
      -0.435
      -0.309
      -0.207
      -0.131
      -0.078
      -0.046
      -0.039
      -0.072
      -0.160
      -0.309
      -0.502
      -0.702
      -0.861
      -0.936
      -0.898
      -0.739
      -0.468
      -0.115
       0.272
       0.644
       0.966
       1.220
       1.406
       1.523
       1.560
       1.507
       1.364
       1.148
       0.889
       0.621
       0.372
       0.159
      -0.018
      -0.170
      -0.319
      -0.487
      -0.691
      -0.938
      -1.215
      -1.488
      -1.712
      -1.848
      -1.882
      -1.815
      -1.655
      -1.408
      -1.081
      -0.706
      -0.347
      -0.081
       0.036
      -0.005
      -0.160
      -0.353
      -0.504
      -0.555
      -0.476
      -0.260
       0.077
       0.504
       0.970
       1.414
       1.768
       1.982
       2.033
       1.933
       1.715
       1.420
       1.087
       0.754
       0.456
       0.220
       0.052
      -0.060
      -0.136
      -0.192
      -0.230
      -0.245
      -0.245
      -0.248
      -0.274
      -0.333
      -0.414
      -0.500
      -0.573
      -0.623
      -0.645
      -0.634
      -0.583
      -0.481
      -0.327
      -0.138
       0.044
       0.168
       0.201
       0.145
       0.036
      -0.079
      -0.168
      -0.224
      -0.254
      -0.255
      -0.212
      -0.101
       0.084
       0.318
       0.554
       0.730
       0.804
       0.757
       0.610
       0.410
       0.223
       0.109
       0.102
       0.201
       0.378
       0.595
       0.823
       1.032
       1.181
       1.221
       1.113
       0.851
       0.467
       0.016
      -0.440
      -0.853
      -1.192
      -1.435
      -1.568
      -1.579
      -1.471
      -1.272
      -1.034
      -0.809
      -0.633
      -0.512
      -0.434
      -0.390
      -0.383
      -0.421
      -0.497
      -0.583
      -0.637
      -0.618
      -0.507
      -0.309
      -0.051
       0.240
       0.538
       0.824
       1.080
       1.292
       1.443
       1.515
       1.501
       1.401
       1.218
       0.960
       0.646
       0.307
      -0.019
      -0.299
      -0.517
      -0.662
      -0.723
      -0.694
      -0.583
      -0.421
      -0.253
      -0.119
      -0.039
      -0.014
      -0.031
      -0.077
      -0.152
      -0.263
      -0.417
      -0.602
      -0.788
      -0.940
      -1.035
      -1.079
      -1.096
      -1.112
      -1.132
      -1.134
      -1.084
      -0.953
      -0.741
      -0.478
      -0.213
       0.005
       0.152
       0.228
       0.256
       0.258
       0.242
       0.201
       0.132
       0.058
       0.023
       0.066
       0.196
       0.377
       0.552
       0.669
       0.711
       0.694
       0.646
       0.591
       0.542
       0.504
       0.467
       0.414
       0.318
       0.160
      -0.057
      -0.310
      -0.554
      -0.747
      -0.861
      -0.892
      -0.851
      -0.761
      -0.651
      -0.545
      -0.459
      -0.393
      -0.336
      -0.281
      -0.224
      -0.163
      -0.082
       0.043
       0.230
       0.478
       0.755
       1.004
       1.173
       1.235
       1.202
       1.110
       0.997
       0.886
       0.778
       0.665
       0.543
       0.426
       0.346
       0.331
       0.385
       0.478
       0.554
       0.562
       0.475
       0.293
       0.044
      -0.231
      -0.474
      -0.628
      -0.651
      -0.536
      -0.311
      -0.032
       0.238
       0.447
       0.570
       0.610
       0.597
       0.565
       0.543
       0.544
       0.566
       0.593
       0.604
       0.580
       0.505
       0.377
       0.202
      -0.009
      -0.242
      -0.484
      -0.715
      -0.916
      -1.076
      -1.200
      -1.299
      -1.378
      -1.431
      -1.437
      -1.376
      -1.243
      -1.054
      -0.847
      -0.665
      -0.542
      -0.487
      -0.491
      -0.533
      -0.587
      -0.624
      -0.612
      -0.521
      -0.335
      -0.063
       0.265
       0.602
       0.902
       1.134
       1.285
       1.353
       1.343
       1.259
       1.109
       0.906
       0.670
       0.431
       0.228
       0.098
       0.062
       0.105
       0.178
       0.218
       0.185
       0.079
      -0.069
      -0.226
      -0.382
      -0.537
      -0.687
      -0.807
      -0.858
      -0.804
      -0.635
      -0.369
      -0.047
       0.270
       0.530
       0.700
       0.777
       0.780
       0.738
       0.687
       0.661
       0.688
       0.774
       0.906
       1.059
       1.211
       1.349
       1.459
       1.518
       1.502
       1.398
       1.211
       0.967
       0.699
       0.439
       0.207
       0.008
      -0.168
      -0.338
      -0.507
      -0.663
      -0.778
      -0.828
      -0.812
      -0.755
      -0.695
      -0.670
      -0.697
      -0.766
      -0.848
      -0.910
      -0.933
      -0.922
      -0.897
      -0.882
      -0.892
      -0.929
      -0.991
      -1.070
      -1.159
      -1.248
      -1.315
      -1.326
      -1.243
      -1.044
      -0.736
      -0.354
       0.053
       0.436
       0.760
       1.019
       1.228
       1.411
       1.586
       1.749
       1.887
       1.977
       2.008
       1.976
       1.888
       1.757
       1.599
       1.422
       1.227
       1.009
       0.765
       0.498
       0.215
      -0.069
      -0.334
      -0.554
      -0.717
      -0.823
      -0.888
      -0.934
      -0.975
      -1.026
      -1.099
      -1.202
      -1.327
      -1.450
      -1.533
      -1.542
      -1.448
      -1.241
      -0.929
      -0.543
      -0.129
       0.255
       0.558
       0.742
       0.787
       0.693
       0.480
       0.198
      -0.086
      -0.301
      -0.400
      -0.377
      -0.263
      -0.111
       0.028
       0.111
       0.109
       0.000
      -0.230
      -0.582
      -1.037
      -1.550
      -2.046
      -2.440
      -2.661
      -2.671
      -2.478
      -2.123
      -1.671
      -1.193
      -0.755
      -0.404
      -0.170
      -0.060
      -0.066
      -0.160
      -0.294
      -0.407
      -0.438
      -0.351
      -0.136
       0.190
       0.587
       1.005
       1.383
       1.663
       1.794
       1.756
       1.571
       1.300
       1.027
       0.829
       0.748
       0.784
       0.909
       1.089
       1.295
       1.508
       1.706
       1.861
       1.947
       1.946
       1.856
       1.701
       1.518
       1.348
       1.214
       1.115
       1.027
       0.924
       0.789
       0.620
       0.418
       0.186
      -0.083
      -0.401
      -0.771
      -1.175
      -1.578
      -1.938
      -2.224
      -2.424
      -2.543
      -2.594
      -2.583
      -2.512
      -2.376
      -2.172
      -1.907
      -1.588
      -1.219
      -0.791
      -0.307
       0.205
       0.679
       1.041
       1.240
       1.272
       1.172
       0.992
       0.778
       0.563
       0.371
       0.216
       0.105
       0.036
      -0.007
      -0.042
      -0.093
      -0.176
      -0.298
      -0.445
      -0.579
      -0.655
      -0.642
      -0.542
      -0.378
      -0.184
       0.020
       0.222
       0.413
       0.581
       0.705
       0.772
       0.773
       0.711
       0.598
       0.444
       0.259
       0.045
      -0.189
      -0.426
      -0.639
      -0.797
      -0.877
      -0.865
      -0.759
      -0.564
      -0.292
       0.034
       0.369
       0.659
       0.848
       0.909
       0.855
       0.740
       0.637
       0.605
       0.671
       0.820
       1.015
       1.214
       1.384
       1.502
       1.544
       1.483
       1.299
       0.997
       0.616
       0.218
      -0.136
      -0.409
      -0.590
      -0.684
      -0.699
      -0.641
      -0.527
      -0.388
      -0.272
      -0.228
      -0.290
      -0.454
      -0.681
      -0.913
      -1.088
      -1.162
      -1.107
      -0.915
      -0.599
      -0.204
       0.204
       0.546
       0.762
       0.824
       0.745
       0.575
       0.383
       0.240
       0.195
       0.268
       0.443
       0.684
       0.946
       1.185
       1.360
       1.441
       1.412
       1.281
       1.071
       0.817
       0.543
       0.262
      -0.018
      -0.288
      -0.531
      -0.733
      -0.893
      -1.023
      -1.130
      -1.211
      -1.254
      -1.242
      -1.170
      -1.044
      -0.878
      -0.696
      -0.521
      -0.376
      -0.277
      -0.236
      -0.256
      -0.336
      -0.456
      -0.584
      -0.676
      -0.695
      -0.622
      -0.463
      -0.242
       0.009
       0.258
       0.475
       0.641
       0.748
       0.796
       0.799
       0.773
       0.739
       0.710
       0.696
       0.694
       0.698
       0.699
       0.690
       0.658
       0.592
       0.483
       0.328
       0.132
      -0.098
      -0.348
      -0.598
      -0.821
      -0.986
      -1.069
      -1.074
      -1.032
      -0.991
      -0.997
      -1.080
      -1.245
      -1.482
      -1.765
      -2.060
      -2.330
      -2.540
      -2.663
      -2.679
      -2.584
      -2.383
      -2.098
      -1.759
      -1.403
      -1.062
      -0.761
      -0.508
      -0.294
      -0.102
       0.087
       0.279
       0.462
       0.614
       0.724
       0.796
       0.842
       0.870
       0.870
       0.823
       0.715
       0.552
       0.361
       0.177
       0.025
      -0.093
      -0.188
      -0.263
      -0.311
      -0.323
      -0.294
      -0.231
      -0.142
      -0.029
       0.116
       0.295
       0.498
       0.697
       0.861
       0.968
       1.011
       0.991
       0.915
       0.797
       0.662
       0.543
       0.465
       0.429
       0.409
       0.375
       0.310
       0.216
       0.109
       0.003
      -0.098
      -0.193
      -0.270
      -0.312
      -0.297
      -0.226
      -0.126
      -0.036
       0.018
       0.042
       0.066
       0.115
       0.192
       0.274
       0.332
       0.349
       0.333
       0.306
       0.296
       0.321
       0.389
       0.498
       0.644
       0.815
       0.989
       1.137
       1.230
       1.245
       1.174
       1.018
       0.797
       0.542
       0.294
       0.089
      -0.045
      -0.093
      -0.049
       0.088
       0.306
       0.574
       0.842
       1.054
       1.169
       1.175
       1.090
       0.948
       0.781
       0.607
       0.427
       0.243
       0.062
      -0.099
      -0.218
      -0.279
      -0.277
      -0.225
      -0.144
      -0.063
       0.002
       0.044
       0.068
       0.081
       0.088
       0.089
       0.080
       0.061
       0.041
       0.029
       0.027
       0.025
       0.012
      -0.017
      -0.055
      -0.093
      -0.123
      -0.141
      -0.143
      -0.120
      -0.060
       0.039
       0.173
       0.325
       0.475
       0.601
       0.687
       0.729
       0.733
       0.707
       0.647
       0.538
       0.359
       0.110
      -0.184
      -0.482
      -0.745
      -0.947
      -1.082
      -1.155
      -1.183
      -1.184
      -1.169
      -1.144
      -1.112
      -1.078
      -1.054
      -1.050
      -1.062
      -1.065
      -1.029
      -0.932
      -0.773
      -0.569
      -0.347
      -0.137
       0.035
       0.156
       0.223
       0.245
       0.234
       0.196
       0.130
       0.034
      -0.086
      -0.219
      -0.346
      -0.457
      -0.547
      -0.621
      -0.679
      -0.716
      -0.719
      -0.681
      -0.601
      -0.490
      -0.363
      -0.232
      -0.102
       0.031
       0.173
       0.329
       0.493
       0.651
       0.785
       0.876
       0.916
       0.907
       0.859
       0.780
       0.676
       0.555
       0.425
       0.302
       0.202
       0.133
       0.101
       0.104
       0.135
       0.185
       0.238
       0.280
       0.306
       0.317
       0.316
       0.298
       0.257
       0.188
       0.103
       0.023
      -0.020
      -0.006
       0.067
       0.182
       0.305
       0.396
       0.428
       0.391
       0.293
       0.151
      -0.019
      -0.206
      -0.401
      -0.583
      -0.729
      -0.819
      -0.843
      -0.807
      -0.723
      -0.608
      -0.474
      -0.339
      -0.218
      -0.121
      -0.050
      -0.004
       0.011
      -0.014
      -0.083
      -0.190
      -0.315
      -0.427
      -0.490
      -0.474
      -0.370
      -0.199
      -0.006
       0.155
       0.242
       0.241
       0.169
       0.063
      -0.049
      -0.151
      -0.235
      -0.295
      -0.312
      -0.268
      -0.153
       0.017
       0.204
       0.361
       0.447
       0.448
       0.375
       0.249
       0.094
      -0.072
      -0.238
      -0.388
      -0.509
      -0.585
      -0.612
      -0.596
      -0.551
      -0.490
      -0.422
      -0.347
      -0.259
      -0.150
      -0.024
       0.104
       0.214
       0.290
       0.334
       0.359
       0.383
       0.418
       0.462
       0.502
       0.517
       0.496
       0.433
       0.334
       0.204
       0.050
      -0.116
      -0.275
      -0.404
      -0.484
      -0.509
      -0.482
      -0.413
      -0.312
      -0.192
      -0.070
       0.039
       0.130
       0.202
       0.251
       0.265
       0.222
       0.108
      -0.066
      -0.267
      -0.446
      -0.562
      -0.591
      -0.528
      -0.393
      -0.219
      -0.046
       0.094
       0.185
       0.231
       0.246
       0.250
       0.262
       0.296
       0.360
       0.457
       0.584
       0.729
       0.873
       0.991
       1.064
       1.087
       1.070
       1.027
       0.971
       0.911
       0.853
       0.806
       0.780
       0.777
       0.791
       0.808
       0.819
       0.823
       0.817
       0.797
       0.750
       0.663
       0.529
       0.354
       0.157
      -0.036
      -0.194
      -0.296
      -0.339
      -0.341
      -0.337
      -0.364
      -0.435
      -0.538
      -0.640
      -0.709
      -0.727
      -0.690
      -0.604
      -0.471
      -0.292
      -0.067
       0.189
       0.454
       0.700
       0.904
       1.054
       1.144
       1.176
       1.155
       1.098
       1.033
       0.988
       0.982
       1.019
       1.094
       1.194
       1.301
       1.387
       1.421
       1.372
       1.224
       0.983
       0.668
       0.305
      -0.076
      -0.445
      -0.782
      -1.073
      -1.316
      -1.507
      -1.634
      -1.681
      -1.637
      -1.509
      -1.321
      -1.105
      -0.890
      -0.693
      -0.522
      -0.379
      -0.269
      -0.191
      -0.136
      -0.090
      -0.043
       0.004
       0.034
       0.027
      -0.027
      -0.126
      -0.253
      -0.386
      -0.509
      -0.614
      -0.703
      -0.780
      -0.855
      -0.938
      -1.038
