Origin Time       11/8/2009 21:43:39 
Lat.              24.4 N 
Long.             94.8 E 
Depth (Km)         22.0
Magnitude         5.6
 Region           MYANMAR-INDIA(MANIPUR)BORDER                                     
 Above details taken from IMD 
   
Station Code      SIL
Station Lat.       24.830
Station Long.      92.801
Station Height(m)   28.3
Site Class        C   Vs30 between 200 m/sec to 375 m/sec *  
Record Time       11.08.2009 21:43:18.544
Sampling Rate     200. Hz
 Record Duration   74.000 Sec.
 Direction         Vert. (Up positive)
Max. Acceleration      4.131 cm/sec**2
     
  * For reference see Site Classification link of website 
     
 Base Line Corrected and Low Pass Filtered (Cut Off at 35 Hz) Time History
 Acceleration data in cm/sec**2
    
[...]
       0.235
       0.017
      -0.201
      -0.391
      -0.525
      -0.584
      -0.560
      -0.457
      -0.287
      -0.065
       0.191
       0.467
       0.746
       0.993
       1.156
       1.179
       1.029
       0.717
       0.307
      -0.106
      -0.431
      -0.614
      -0.661
      -0.624
      -0.576
      -0.570
      -0.626
      -0.726
      -0.840
      -0.936
      -0.991
      -0.991
      -0.924
      -0.782
      -0.561
      -0.262
       0.101
       0.505
       0.910
       1.268
       1.535
       1.681
       1.701
       1.609
       1.426
       1.173
       0.877
       0.571
       0.302
       0.122
       0.062
       0.124
       0.267
       0.419
       0.506
       0.480
       0.336
       0.110
      -0.140
      -0.371
      -0.567
      -0.739
      -0.910
      -1.090
      -1.267
      -1.415
      -1.504
      -1.515
      -1.431
      -1.236
      -0.920
      -0.489
       0.015
       0.512
       0.906
       1.118
       1.114
       0.908
       0.549
       0.106
      -0.346
      -0.743
      -1.037
      -1.204
      -1.236
      -1.136
      -0.904
      -0.547
      -0.083
       0.442
       0.957
       1.384
       1.662
       1.763
       1.690
       1.477
       1.178
       0.860
       0.581
       0.377
       0.246
       0.158
       0.063
      -0.077
      -0.275
      -0.515
      -0.761
      -0.965
      -1.083
      -1.084
      -0.964
      -0.743
      -0.456
      -0.141
       0.174
       0.470
       0.731
       0.936
       1.056
       1.066
       0.954
       0.733
       0.436
       0.106
      -0.214
      -0.491
      -0.698
      -0.811
      -0.818
      -0.732
      -0.594
      -0.472
      -0.432
      -0.513
      -0.709
      -0.961
      -1.176
      -1.251
      -1.103
      -0.703
      -0.083
       0.666
       1.417
       2.040
       2.429
       2.534
       2.369
       2.001
       1.521
       1.012
       0.523
       0.070
      -0.351
      -0.731
      -1.042
      -1.239
      -1.278
      -1.136
      -0.832
      -0.425
       0.006
       0.390
       0.695
       0.929
       1.116
       1.263
       1.345
       1.308
       1.101
       0.695
       0.109
      -0.600
      -1.349
      -2.053
      -2.635
      -3.031
      -3.191
      -3.085
      -2.719
      -2.134
      -1.408
      -0.635
       0.091
       0.689
       1.101
       1.294
       1.273
       1.071
       0.748
       0.367
      -0.015
      -0.356
      -0.618
      -0.769
      -0.783
      -0.648
      -0.376
      -0.003
       0.410
       0.792
       1.084
       1.257
       1.319
       1.312
       1.284
       1.273
       1.288
       1.314
       1.319
       1.273
       1.151
       0.937
       0.628
       0.235
      -0.212
      -0.665
      -1.061
      -1.335
      -1.425
      -1.282
      -0.879
      -0.228
       0.603
       1.491
       2.279
       2.820
       3.022
       2.861
       2.381
       1.665
       0.814
      -0.066
      -0.875
      -1.522
      -1.948
      -2.129
      -2.082
      -1.861
      -1.548
      -1.241
      -1.028
      -0.968
      -1.063
      -1.259
      -1.464
      -1.589
      -1.580
      -1.428
      -1.162
      -0.834
      -0.506
      -0.236
      -0.067
      -0.017
      -0.065
      -0.165
      -0.263
      -0.313
      -0.294
      -0.208
      -0.065
       0.119
       0.327
       0.542
       0.748
       0.928
       1.066
       1.148
       1.156
       1.069
       0.871
       0.564
       0.178
      -0.230
      -0.593
      -0.849
      -0.958
      -0.914
      -0.736
      -0.461
      -0.134
       0.205
       0.514
       0.760
       0.915
       0.973
       0.949
       0.884
       0.822
       0.792
       0.798
       0.828
       0.870
       0.925
       1.006
       1.117
       1.233
       1.302
       1.270
       1.103
       0.803
       0.401
      -0.054
      -0.507
      -0.902
      -1.186
      -1.319
      -1.286
      -1.109
      -0.849
      -0.598
      -0.443
      -0.429
      -0.545
      -0.731
      -0.909
      -1.015
      -1.016
      -0.916
      -0.748
      -0.558
      -0.383
      -0.242
      -0.138
      -0.073
      -0.053
      -0.085
      -0.163
      -0.261
      -0.340
      -0.365
      -0.319
      -0.204
      -0.026
       0.216
       0.519
       0.864
       1.193
       1.423
       1.469
       1.285
       0.886
       0.349
      -0.209
      -0.680
      -0.990
      -1.111
      -1.052
      -0.845
      -0.538
      -0.189
       0.132
       0.352
       0.416
       0.301
       0.031
      -0.329
      -0.696
      -0.993
      -1.172
      -1.211
      -1.101
      -0.846
      -0.469
      -0.013
       0.452
       0.851
       1.124
       1.245
       1.222
       1.087
       0.890
       0.683
       0.516
       0.418
       0.386
       0.394
       0.402
       0.382
       0.318
       0.204
       0.038
      -0.185
      -0.462
      -0.772
      -1.079
      -1.340
      -1.521
      -1.597
      -1.548
      -1.350
      -0.982
      -0.446
       0.211
       0.909
       1.550
       2.055
       2.379
       2.507
       2.451
       2.234
       1.891
       1.455
       0.959
       0.434
      -0.096
      -0.611
      -1.088
      -1.505
      -1.835
      -2.056
      -2.145
      -2.086
      -1.877
      -1.537
      -1.104
      -0.627
      -0.157
       0.267
       0.615
       0.861
       0.976
       0.932
       0.719
       0.353
      -0.117
      -0.621
      -1.079
      -1.419
      -1.582
      -1.535
      -1.282
      -0.871
      -0.389
       0.056
       0.376
       0.537
       0.571
       0.564
       0.612
       0.771
       1.038
       1.351
       1.619
       1.760
       1.729
       1.530
       1.206
       0.813
       0.409
       0.039
      -0.263
      -0.474
      -0.584
      -0.590
      -0.497
      -0.324
      -0.099
       0.137
       0.348
       0.509
       0.615
       0.665
       0.652
       0.555
       0.355
       0.059
      -0.277
      -0.567
      -0.718
      -0.676
      -0.445
      -0.085
       0.311
       0.655
       0.880
       0.955
       0.876
       0.659
       0.332
      -0.073
      -0.523
      -0.984
      -1.427
      -1.818
      -2.119
      -2.302
      -2.355
      -2.284
      -2.104
      -1.828
      -1.456
      -0.999
      -0.489
       0.012
       0.434
       0.727
       0.887
       0.950
       0.972
       0.989
       0.996
       0.959
       0.847
       0.671
       0.494
       0.395
       0.430
       0.587
       0.789
       0.931
       0.930
       0.761
       0.463
       0.107
      -0.239
      -0.535
      -0.769
      -0.944
      -1.066
      -1.139
      -1.170
      -1.174
      -1.157
      -1.109
      -1.003
      -0.816
      -0.541
      -0.196
       0.186
       0.564
       0.897
       1.140
       1.256
       1.225
       1.061
       0.812
       0.545
       0.323
       0.186
       0.154
       0.222
       0.374
       0.580
       0.789
       0.943
       0.985
       0.884
       0.646
       0.305
      -0.096
      -0.512
      -0.901
      -1.219
      -1.418
      -1.455
      -1.307
      -0.986
      -0.541
      -0.051
       0.396
       0.727
       0.904
       0.933
       0.851
       0.707
       0.541
       0.380
       0.238
       0.111
      -0.008
      -0.128
      -0.253
      -0.380
      -0.494
      -0.578
      -0.614
      -0.601
      -0.553
      -0.495
      -0.438
      -0.367
      -0.253
      -0.071
       0.177
       0.448
       0.674
       0.783
       0.734
       0.527
       0.205
      -0.169
      -0.533
      -0.843
      -1.069
      -1.186
      -1.162
      -0.965
      -0.583
      -0.053
       0.535
       1.059
       1.404
       1.499
       1.342
       0.994
       0.546
       0.096
      -0.285
      -0.555
      -0.699
      -0.713
      -0.604
      -0.386
      -0.078
       0.293
       0.688
       1.061
       1.369
       1.582
       1.690
       1.695
       1.599
       1.400
       1.097
       0.708
       0.274
      -0.151
      -0.517
      -0.800
      -1.007
      -1.157
      -1.266
      -1.325
      -1.309
      -1.192
      -0.974
      -0.688
      -0.385
      -0.119
       0.076
       0.193
       0.249
       0.273
       0.301
       0.356
       0.448
       0.561
       0.671
       0.745
       0.756
       0.678
       0.493
       0.200
      -0.176
      -0.580
      -0.943
      -1.198
      -1.311
      -1.288
      -1.170
      -1.016
      -0.880
      -0.789
      -0.734
      -0.675
      -0.566
      -0.381
      -0.120
       0.196
       0.539
       0.888
       1.224
       1.521
       1.744
       1.857
       1.839
       1.696
       1.456
       1.153
       0.815
       0.459
       0.102
      -0.230
      -0.497
      -0.650
      -0.651
      -0.489
      -0.196
       0.157
       0.481
       0.697
       0.757
       0.644
       0.370
      -0.033
      -0.517
      -1.022
      -1.482
      -1.837
      -2.043
      -2.079
      -1.953
      -1.687
      -1.304
      -0.821
      -0.255
       0.357
       0.948
       1.427
       1.715
       1.768
       1.593
       1.236
       0.761
       0.240
      -0.257
      -0.662
      -0.915
      -0.981
      -0.859
      -0.597
      -0.278
       0.002
       0.171
       0.205
       0.126
      -0.017
      -0.184
      -0.349
      -0.495
      -0.600
      -0.631
      -0.561
      -0.375
      -0.085
       0.280
       0.671
       1.027
       1.284
       1.389
       1.306
       1.036
       0.611
       0.098
      -0.416
      -0.849
      -1.141
      -1.269
      -1.240
      -1.078
      -0.816
      -0.494
      -0.159
       0.143
       0.374
       0.523
       0.606
       0.654
       0.691
       0.714
       0.703
       0.630
       0.488
       0.291
       0.079
      -0.110
      -0.246
      -0.317
      -0.324
      -0.280
      -0.201
      -0.110
      -0.025
       0.045
       0.103
       0.150
       0.183
       0.196
       0.187
       0.170
       0.173
       0.227
       0.348
       0.529
       0.743
       0.945
       1.096
       1.160
       1.120
       0.974
       0.741
       0.456
       0.163
      -0.098
      -0.298
      -0.414
      -0.427
      -0.332
      -0.151
       0.052
       0.187
       0.168
      -0.041
      -0.409
      -0.859
      -1.297
      -1.645
      -1.855
      -1.908
      -1.813
      -1.592
      -1.277
      -0.906
      -0.519
      -0.157
       0.147
       0.374
       0.527
       0.621
       0.672
       0.680
       0.635
       0.526
       0.357
       0.151
      -0.063
      -0.264
      -0.439
      -0.577
      -0.658
      -0.661
      -0.577
      -0.410
      -0.182
       0.076
       0.324
       0.518
       0.608
       0.554
       0.350
       0.033
      -0.326
      -0.648
      -0.868
      -0.941
      -0.845
      -0.587
      -0.207
       0.223
       0.615
       0.898
       1.047
       1.080
       1.037
       0.950
       0.830
       0.678
       0.501
       0.322
       0.173
       0.078
       0.044
       0.065
       0.127
       0.211
       0.294
       0.342
       0.328
       0.248
       0.133
       0.037
       0.010
       0.065
       0.172
       0.285
       0.369
       0.416
       0.436
       0.437
       0.417
       0.367
       0.277
       0.140
      -0.039
      -0.253
      -0.485
      -0.710
      -0.897
      -1.029
      -1.115
      -1.194
      -1.297
      -1.430
      -1.562
      -1.650
      -1.664
      -1.606
      -1.509
      -1.411
      -1.330
      -1.255
      -1.144
      -0.955
      -0.659
      -0.265
       0.176
       0.595
       0.932
       1.167
       1.319
       1.420
       1.496
       1.546
       1.548
       1.468
       1.279
       0.976
       0.585
       0.157
      -0.236
      -0.527
      -0.678
      -0.694
      -0.621
      -0.510
      -0.395
      -0.277
      -0.140
       0.023
       0.198
       0.347
       0.432
       0.439
       0.381
       0.294
       0.219
       0.195
       0.243
       0.361
       0.521
       0.681
       0.802
       0.863
       0.856
       0.785
       0.654
       0.474
       0.261
       0.038
      -0.164
      -0.303
      -0.327
      -0.192
       0.110
       0.533
       0.973
       1.301
       1.415
       1.289
       0.977
       0.587
       0.215
      -0.088
      -0.323
      -0.513
      -0.671
      -0.792
      -0.863
      -0.884
      -0.877
      -0.869
      -0.876
      -0.883
      -0.849
      -0.728
      -0.498
      -0.176
       0.182
       0.501
       0.709
       0.761
       0.648
       0.403
       0.092
      -0.205
      -0.421
      -0.519
      -0.499
      -0.389
      -0.229
      -0.051
       0.121
       0.268
       0.369
       0.400
       0.346
       0.221
       0.075
      -0.031
      -0.043
       0.045
       0.187
       0.300
       0.303
       0.154
      -0.142
      -0.546
      -1.012
      -1.509
      -2.018
      -2.508
      -2.925
      -3.194
      -3.249
      -3.061
      -2.657
      -2.106
      -1.490
      -0.872
      -0.286
       0.256
       0.751
       1.200
       1.602
       1.961
       2.284
       2.579
       2.858
       3.134
       3.415
       3.693
       3.936
       4.097
       4.131
       4.008
       3.715
       3.253
       2.639
       1.909
       1.116
       0.319
      -0.433
      -1.107
      -1.672
      -2.089
      -2.313
      -2.324
      -2.140
      -1.821
      -1.442
      -1.064
      -0.710
      -0.379
      -0.063
       0.220
       0.428
       0.508
       0.424
       0.193
      -0.123
      -0.442
      -0.701
      -0.886
      -1.022
      -1.131
      -1.205
      -1.214
      -1.137
      -0.987
      -0.808
      -0.653
      -0.552
      -0.511
      -0.524
      -0.591
      -0.720
      -0.918
      -1.184
      -1.504
      -1.847
      -2.164
      -2.399
      -2.511
      -2.504
      -2.412
      -2.281
      -2.127
      -1.932
      -1.657
      -1.274
      -0.791
      -0.252
       0.290
       0.789
       1.218
       1.556
       1.781
       1.876
       1.834
       1.673
       1.431
       1.169
       0.949
       0.816
       0.792
       0.868
       1.019
       1.212
       1.422
       1.635
       1.846
       2.060
       2.278
       2.497
       2.701
       2.870
       2.986
       3.026
       2.962
       2.768
       2.427
       1.945
       1.360
       0.719
       0.065
      -0.578
      -1.197
      -1.772
      -2.267
      -2.642
      -2.873
      -2.967
      -2.960
      -2.899
      -2.814
      -2.704
      -2.550
      -2.338
      -2.079
      -1.799
      -1.523
      -1.253
      -0.974
      -0.667
      -0.324
       0.050
       0.438
       0.811
       1.133
       1.367
       1.490
       1.496
       1.400
       1.226
       0.999
       0.748
       0.493
       0.251
       0.028
      -0.172
      -0.349
      -0.504
      -0.654
      -0.837
      -1.102
      -1.477
      -1.948
      -2.455
      -2.921
      -3.286
      -3.515
      -3.585
      -3.469
      -3.138
      -2.583
      -1.838
      -0.965
      -0.034
       0.892
       1.765
       2.541
       3.183
       3.664
       3.974
       4.119
       4.128
       4.061
       3.997
       3.995
       4.053
       4.101
       4.036
       3.782
       3.328
       2.725
       2.045
       1.353
       0.692
       0.098
      -0.401
      -0.794
      -1.089
      -1.310
      -1.485
      -1.624
      -1.713
      -1.715
      -1.592
      -1.325
      -0.926
      -0.438
       0.083
       0.578
       1.001
       1.319
       1.514
       1.582
       1.531
       1.389
       1.190
       0.966
       0.728
       0.474
       0.196
      -0.108
      -0.441
      -0.808
      -1.203
      -1.603
      -1.963
      -2.229
      -2.368
      -2.381
      -2.298
      -2.163
      -2.014
      -1.877
      -1.771
      -1.710
      -1.710
      -1.777
      -1.909
      -2.100
      -2.334
      -2.579
      -2.782
      -2.875
      -2.804
      -2.550
      -2.138
      -1.620
      -1.051
      -0.477
       0.059
       0.501
       0.794
       0.899
       0.817
       0.598
       0.322
       0.082
      -0.049
      -0.026
       0.163
       0.497
       0.936
       1.431
       1.935
       2.407
       2.809
       3.105
       3.272
       3.306
       3.218
       3.029
       2.766
       2.459
       2.139
       1.831
       1.547
       1.289
       1.054
       0.841
       0.648
       0.467
       0.285
       0.091
      -0.118
      -0.335
      -0.553
      -0.762
      -0.950
      -1.105
      -1.209
      -1.249
      -1.216
      -1.107
      -0.931
      -0.705
      -0.461
      -0.237
      -0.069
       0.027
       0.065
       0.076
       0.090
       0.113
       0.122
       0.081
      -0.035
      -0.220
      -0.443
      -0.670
      -0.891
      -1.119
      -1.378
      -1.678
      -2.002
      -2.305
      -2.534
      -2.647
      -2.634
      -2.524
      -2.372
      -2.225
      -2.100
      -1.984
      -1.844
      -1.654
      -1.409
      -1.122
      -0.811
      -0.488
      -0.158
       0.164
       0.450
       0.664
       0.784
       0.814
       0.791
       0.766
       0.788
       0.880
       1.037
       1.239
       1.461
       1.681
       1.878
       2.029
       2.110
       2.111
       2.049
       1.968
       1.919
       1.932
       1.999
       2.083
       2.140
       2.138
       2.065
       1.920
       1.699
       1.389
       0.982
       0.491
      -0.056
      -0.618
      -1.142
      -1.566
      -1.831
      -1.899
      -1.768
      -1.473
      -1.074
      -0.645
      -0.252
       0.051
       0.239
       0.308
       0.278
       0.183
       0.069
      -0.014
      -0.022
       0.064
       0.237
       0.459
       0.689
       0.888
       1.034
       1.119
       1.147
       1.128
       1.069
       0.975
       0.848
       0.690
       0.508
       0.311
       0.108
      -0.109
      -0.354
      -0.640
      -0.971
      -1.340
      -1.733
      -2.134
      -2.517
      -2.844
      -3.072
      -3.163
      -3.096
      -2.875
      -2.522
      -2.085
      -1.622
      -1.196
      -0.855
      -0.617
      -0.476
      -0.409
      -0.393
      -0.408
      -0.434
      -0.450
      -0.438
      -0.392
      -0.320
      -0.236
      -0.153
      -0.078
      -0.007
       0.068
       0.156
       0.267
       0.409
       0.588
       0.808
       1.069
       1.358
       1.646
       1.898
       2.086
       2.195
       2.223
       2.180
       2.094
       2.006
       1.963
       1.986
       2.070
       2.188
       2.315
       2.433
       2.518
       2.530
       2.430
       2.199
       1.852
       1.422
       0.941
       0.435
      -0.070
      -0.536
      -0.918
      -1.185
      -1.327
      -1.352
      -1.275
      -1.108
      -0.864
      -0.571
      -0.270
      -0.008
       0.182
       0.294
       0.349
