Origin Time       18/9/2011 12:40:47	
Lat.              27.6 N	
Long.             88.2 E	
Depth (Km)         10.0
Magnitude         6.8
 Region           India(Sikkim)-Nepar-Border                                       
 Above details taken from IMD 
   
Station Code      SLG
Station Lat.       26.712
Station Long.      88.428
Station Height(m)  131.0
Site Class        C   Vs30 between 200 m/sec to 375 m/sec *  
Record Time       18.09.2011 12:40:58.379
Sampling Rate     200. Hz
 Record Duration  169.845 Sec.
 Direction         Vert. (Up positive)
Max. Acceleration   -122.923 cm/sec**2
     
  * For reference see Site Classification link of website 
     
 Base Line Corrected and Low Pass Filtered (Cut Off at 35 Hz) Time History
 Acceleration data in cm/sec**2
    
[...]
     -11.373
      -4.281
       0.365
       2.042
       2.284
       3.909
       9.208
      18.252
      28.466
      35.766
      36.696
      30.406
      19.320
       7.963
       0.565
      -1.056
       2.096
       7.587
      13.466
      19.063
      24.248
      28.210
      29.199
      25.568
      17.078
       5.227
      -7.525
     -18.742
     -26.429
     -29.035
     -25.678
     -16.735
      -4.261
       8.301
      17.123
      19.318
      14.120
       3.395
      -9.011
     -19.025
     -24.166
     -24.202
     -20.388
     -14.269
      -7.096
      -0.004
       5.718
       8.768
       8.297
       4.289
      -2.314
      -9.771
     -15.993
     -19.289
     -19.119
     -16.306
     -12.399
      -8.561
      -4.803
      -0.143
       6.495
      15.207
      24.483
      31.381
      32.677
      26.647
      14.516
       0.442
     -10.273
     -13.701
      -8.941
       2.013
      15.724
      28.867
      38.995
      44.526
      44.522
      38.653
      27.338
      11.828
      -5.862
     -23.209
     -37.581
     -46.731
     -49.231
     -44.706
     -33.889
     -18.640
      -1.900
      12.642
      21.383
      21.912
      13.829
      -1.170
     -19.914
     -38.617
     -53.563
     -61.614
     -60.755
     -50.624
     -32.675
      -9.787
      14.332
      35.539
      49.653
      53.392
      45.818
      29.347
       9.317
      -7.961
     -17.606
     -17.742
      -9.682
       3.098
      16.551
      27.512
      34.408
      36.998
      35.598
      30.622
      22.830
      13.892
       6.415
       3.074
       5.289
      12.319
      21.333
      28.402
      29.918
      23.850
      10.367
      -8.279
     -28.423
     -45.880
     -56.880
     -58.971
     -51.730
     -36.932
     -17.962
       1.301
      17.516
      28.419
      32.886
      30.765
      22.666
       9.891
      -5.400
     -19.975
     -29.878
     -31.785
     -24.833
     -11.520
       3.339
      15.048
      21.154
      21.906
      19.101
      14.460
       8.641
       1.317
      -7.930
     -18.555
     -28.651
     -35.618
     -37.453
     -33.614
     -24.847
     -12.393
       2.420
      17.868
      31.539
      40.880
      44.387
      42.367
      36.557
      28.973
      21.004
      13.326
       6.432
       1.141
      -1.425
      -0.507
       3.319
       7.737
       9.565
       6.682
      -0.358
      -8.437
     -13.758
     -14.073
      -9.626
      -2.442
       5.123
      11.370
      15.334
      16.418
      14.290
       9.318
       3.033
      -2.082
      -3.644
      -0.552
       6.594
      16.057
      25.853
      34.204
      39.459
      39.999
      34.610
      23.184
       7.228
     -10.179
     -25.024
     -33.463
     -33.114
     -24.074
      -9.067
       7.474
      20.958
      28.054
      27.441
      19.786
       7.177
      -7.591
     -21.508
     -31.552
     -34.947
     -29.966
     -17.163
      -0.082
      15.580
      24.284
      23.037
      12.270
      -5.049
     -24.885
     -42.979
     -55.002
     -57.045
     -47.024
     -26.307
      -0.076
      24.282
      39.961
      43.083
      33.568
      14.600
      -8.657
     -30.522
     -46.089
     -52.065
     -47.079
     -31.644
      -8.147
      19.128
      44.370
      61.447
      65.775
      55.975
      34.444
       6.602
     -20.703
     -40.977
     -49.661
     -45.348
     -30.283
      -9.744
       9.770
      22.864
      27.005
      22.864
      13.292
       1.739
      -8.957
     -16.927
     -20.978
     -20.282
     -14.530
      -4.526
       7.393
      17.721
      23.014
      21.409
      13.559
       2.429
      -7.957
     -14.166
     -14.584
      -9.736
      -1.845
       6.044
      11.085
      11.635
       7.826
       1.337
      -5.569
     -11.066
     -14.186
     -14.620
     -12.484
      -8.412
      -3.719
      -0.153
       0.784
      -1.545
      -6.715
     -13.404
     -19.719
     -23.640
     -23.655
     -19.411
     -11.975
      -3.478
       3.737
       8.013
       8.913
       7.095
       3.539
      -1.363
      -8.069
     -17.108
     -27.863
     -38.048
     -44.515
     -44.841
     -38.508
     -26.906
     -12.354
       3.003
      17.696
      30.683
      40.784
      46.499
      46.558
      40.871
      30.953
      19.272
       8.019
      -1.501
      -8.382
     -11.342
      -8.896
      -0.593
      11.885
      24.913
      34.340
      37.097
      32.146
      20.736
       6.191
      -6.869
     -14.052
     -13.054
      -4.840
       6.713
      16.532
      20.461
      16.709
       6.107
      -8.694
     -24.500
     -38.655
     -49.420
     -55.689
     -56.525
     -51.102
     -39.233
     -22.130
      -2.775
      14.438
      24.749
      24.529
      12.854
      -7.496
     -30.399
     -48.413
     -55.729
     -50.459
     -34.924
     -13.922
       7.696
      26.582
      41.039
      50.321
      54.061
      52.316
      45.973
      36.877
      27.323
      19.114
      12.819
       7.732
       2.581
      -3.474
     -10.161
     -16.109
     -19.434
     -18.504
     -12.542
      -1.955
      11.556
      25.123
      35.184
      38.333
      32.442
      17.628
      -3.445
     -26.272
     -45.924
     -58.375
     -61.126
     -53.227
     -35.287
      -9.761
      18.926
      45.078
      63.250
      69.826
      63.877
      47.158
      23.626
      -1.298
     -21.858
     -33.466
     -34.092
     -24.764
      -8.931
       8.851
      24.196
      33.778
      35.878
      30.619
      19.797
       6.235
      -7.037
     -17.333
     -22.524
     -21.340
     -14.031
      -3.002
       7.427
      12.548
       9.477
      -1.246
     -15.666
     -28.170
     -34.073
     -31.631
     -22.375
      -9.769
       2.664
      12.403
      17.774
      17.401
      10.279
      -3.414
     -21.591
     -40.444
     -55.527
     -63.044
     -60.709
     -47.976
     -25.949
       2.696
      33.668
      61.285
      79.478
      83.626
      72.426
      48.697
      18.594
     -10.290
     -31.054
     -39.145
     -33.347
     -16.010
       7.669
      31.358
      49.704
      59.704
      60.652
      53.096
      37.954
      16.501
      -9.001
     -34.848
     -56.290
     -68.883
     -70.287
     -61.469
     -46.251
     -29.226
     -13.489
       0.033
      11.321
      19.633
      23.369
      21.566
      15.359
       7.777
       1.923
      -0.788
      -0.895
       0.282
       1.973
       4.371
       8.023
      12.930
      18.145
      22.183
      23.902
      23.131
      20.546
      16.909
      12.371
       6.428
      -1.578
     -11.903
     -24.035
     -36.458
     -46.673
     -51.802
     -49.835
     -40.836
     -27.128
     -12.156
       1.211
      11.704
      19.440
      24.816
      27.495
      26.266
      19.886
       8.255
      -7.006
     -22.994
     -36.597
     -45.397
     -47.989
     -43.936
     -33.784
     -19.134
      -2.424
      13.745
      27.417
      37.585
      43.729
      45.025
      40.151
      28.200
      10.158
     -10.388
     -28.181
     -38.447
     -38.814
     -29.891
     -14.514
       3.512
      20.524
      33.808
      42.091
      45.547
      45.245
      42.314
      37.345
      30.300
      20.857
       8.964
      -4.641
     -18.260
     -29.669
     -37.096
     -40.137
     -39.910
     -38.255
     -36.561
     -35.049
     -32.887
     -28.836
     -21.970
     -12.250
      -0.836
      10.083
      18.159
      22.116
      22.402
      20.609
      18.076
      15.051
      11.289
       7.506
       6.016
       9.516
      18.806
      31.436
      42.630
      47.904
      45.380
      36.188
      22.981
       7.997
      -7.890
     -24.661
     -41.820
     -57.275
     -67.208
     -67.156
     -53.910
     -27.409
       8.272
      45.419
      74.707
      88.101
      81.568
      56.384
      18.461
     -23.850
     -62.206
     -89.906
    -102.565
     -98.496
     -79.249
     -49.805
     -17.491
      10.528
      29.886
      40.056
      43.244
      42.207
      38.679
      33.217
      25.951
      17.276
       8.019
      -0.810
      -8.360
     -14.209
     -18.490
     -21.731
     -24.315
     -25.804
     -24.717
     -19.167
      -8.041
       8.062
      26.731
      44.447
      57.706
      64.068
      62.737
      54.568
      41.640
      26.697
      12.702
       2.514
      -1.553
       1.527
      10.654
      22.232
      30.849
      31.160
      20.321
      -0.362
     -25.654
     -48.466
     -62.625
     -64.956
     -55.919
     -38.931
     -19.014
      -1.353
       9.934
      12.695
       7.199
      -4.019
     -16.968
     -27.506
     -32.594
     -30.923
     -22.812
      -9.815
       5.458
      19.394
      27.848
      27.417
      17.093
      -0.824
     -21.377
     -38.889
     -48.987
     -49.622
     -40.895
     -24.385
      -2.691
      20.772
      42.190
      58.148
      66.415
      66.152
      57.468
      40.965
      18.012
      -8.384
     -33.177
     -50.377
     -55.387
     -47.093
     -28.240
      -4.034
      19.760
      37.937
      46.189
      41.578
      23.621
      -4.655
     -36.856
     -65.059
     -82.662
     -86.751
     -78.691
     -62.692
     -43.335
     -23.685
      -5.050
      11.950
      26.338
      36.836
      42.837
      45.158
      45.697
      46.176
      47.094
      47.763
      47.107
      44.261
      38.386
      28.246
      12.516
      -8.882
     -33.355
     -55.643
     -69.943
     -73.040
     -66.121
     -53.636
     -39.967
     -26.682
     -12.727
       2.767
      17.822
      27.728
      28.047
      18.022
       1.661
     -14.264
     -23.745
     -24.162
     -16.539
      -3.799
      11.314
      27.089
      42.260
      55.074
      63.229
      64.834
      59.573
      49.140
      36.601
      25.042
      16.177
       9.579
       2.953
      -6.625
     -21.104
     -40.312
     -61.794
     -81.635
     -95.820
    -101.467
     -97.426
     -84.143
     -63.108
     -36.456
      -7.076
      21.090
      43.345
      55.665
      56.618
      48.354
      35.793
      24.462
      18.340
      18.755
      24.447
      32.404
      39.088
      41.890
      40.377
      36.497
      33.172
      31.882
      31.005
      26.480
      14.680
      -4.469
     -26.513
     -44.551
     -53.035
     -50.661
     -40.490
     -27.615
     -16.373
      -8.942
      -5.622
      -5.758
      -8.316
     -11.992
     -15.285
     -16.793
     -15.518
     -10.932
      -2.962
       7.781
      19.567
      29.536
      34.674
      33.439
      26.873
      18.128
      10.551
       5.627
       2.278
      -2.065
      -9.419
     -19.632
     -30.212
     -37.684
     -39.595
     -35.915
     -29.068
     -22.761
     -20.384
     -23.715
     -32.226
     -43.012
     -51.379
     -52.149
     -41.551
     -19.040
      11.858
      44.280
      70.161
      82.907
      79.512
      61.371
      33.587
       3.077
     -23.685
     -42.356
     -51.255
     -50.903
     -43.124
     -30.154
     -13.967
       4.019
      22.681
      40.513
      55.013
      62.777
      60.520
      46.667
      22.601
      -7.295
     -36.930
     -60.271
     -72.667
     -71.591
     -57.270
     -33.222
      -5.924
      17.105
      30.180
      31.594
      23.642
      10.703
      -3.085
     -15.035
     -23.678
     -27.943
     -26.777
     -19.555
      -6.864
       9.069
      24.807
      36.838
      42.730
      41.652
      34.142
      21.591
       5.972
     -10.112
     -23.527
     -31.275
     -31.582
     -24.661
     -12.566
       1.770
      15.620
      27.004
      34.500
      36.826
      32.981
      23.131
       9.520
      -3.692
     -11.986
     -12.583
      -5.732
       5.638
      17.544
      26.731
      31.513
      31.416
      26.309
      15.968
       0.457
     -19.210
     -40.899
     -61.803
     -78.973
     -89.562
     -90.973
     -81.390
     -60.691
     -31.231
       2.075
      32.582
      53.526
      60.103
      51.384
      31.049
       6.134
     -15.864
     -29.912
     -34.676
     -31.534
     -22.458
      -8.505
      10.086
      32.591
      56.681
      78.486
      93.735
      99.260
      94.151
      80.062
      60.501
      39.339
      19.189
       0.466
     -18.280
     -38.830
     -61.359
     -83.404
    -100.626
    -109.134
    -107.882
     -99.363
     -87.927
     -76.849
     -66.271
     -53.646
     -36.363
     -14.394
       9.254
      30.440
      46.264
      56.002
      60.494
      61.202
      59.868
      58.547
      59.389
      63.883
      71.843
      81.000
      87.852
      89.425
      84.590
      73.959
      58.795
      40.145
      18.768
      -4.570
     -28.994
     -53.439
     -76.185
     -94.333
    -104.128
    -102.498
     -88.929
     -66.326
     -40.227
     -16.883
      -1.279
       4.268
       0.663
      -8.552
     -18.829
     -26.368
     -28.860
     -24.969
     -13.661
       5.391
      30.548
      57.602
      80.927
      95.830
     100.377
      95.447
      83.385
      66.731
      47.853
      28.943
      11.568
      -4.030
     -19.058
     -35.285
     -53.618
     -73.173
     -91.592
    -106.418
    -116.402
    -121.700
    -122.923
    -120.046
    -112.093
     -97.661
     -75.792
     -46.774
     -12.694
      22.483
      53.596
      75.834
      86.589
      86.585
      79.569
      70.605
      63.874
      61.120
      61.354
      61.726
      59.025
      50.998
      36.894
      17.307
      -6.014
     -30.042
     -50.445
     -62.432
     -62.631
     -50.987
     -31.271
      -9.667
       7.768
      17.378
      18.906
      15.007
       9.707
       6.531
       7.213
      11.615
      18.724
      27.747
      38.370
      50.232
      62.397
      73.353
      81.307
      84.421
      81.013
      69.969
      51.288
      26.287
      -2.779
     -33.339
     -62.815
     -88.490
    -107.446
    -117.152
    -116.627
    -107.388
     -93.330
     -79.287
     -68.911
     -63.048
     -59.615
     -55.012
     -46.227
     -32.321
     -14.472
       5.241
      25.169
      44.394
      61.934
      75.955
      84.139
      85.100
      79.577
      70.234
      60.159
      51.184
      43.107
      34.195
      22.557
       7.565
      -9.493
     -25.831
     -38.355
     -44.879
     -44.754
     -38.789
     -28.823
     -17.233
      -6.405
       1.808
       6.413
       7.193
       4.384
      -1.454
      -9.245
     -17.248
     -23.340
     -25.650
     -22.999
     -14.860
      -1.172
      17.322
      38.255
      57.309
      69.368
      70.842
      61.528
      44.525
      24.264
       4.285
     -13.510
     -27.951
     -37.485
     -40.394
     -36.318
     -27.434
     -17.813
     -11.215
      -9.036
      -9.955
     -11.247
     -10.532
      -6.760
      -0.198
       8.077
      16.620
      23.864
      28.333
      28.937
      25.297
      17.921
       8.045
      -2.918
     -14.000
     -24.758
     -34.530
     -41.527
     -43.024
     -37.128
     -24.895
     -10.695
       0.041
       4.176
       2.701
      -0.323
      -0.637
       3.882
      12.860
      24.476
      36.501
      46.689
      52.949
      53.801
      48.962
      39.533
      27.547
      15.232
       4.488
      -3.314
      -7.496
      -8.351
      -7.264
      -6.300
      -7.281
     -10.805
     -15.827
     -20.082
     -21.168
     -17.656
      -9.735
       0.806
      11.294
      19.343
      23.760
      24.451
      21.445
      14.068
       1.313
     -16.748
     -37.851
     -57.831
     -72.118
     -77.239
     -71.521
     -55.161
     -30.293
      -1.024
      27.120
      48.612
      59.537
      58.421
      46.089
      25.158
      -0.335
     -25.376
     -44.947
     -55.477
     -55.997
     -48.156
     -34.981
     -19.156
      -1.839
      17.278
      38.720
      61.539
      82.348
      96.121
      98.658
      89.206
      71.208
      50.504
      32.310
      19.132
      10.680
       5.209
       1.004
      -2.879
      -6.677
     -10.385
     -14.154
     -18.392
     -23.599
     -30.129
     -37.959
     -46.464
     -54.222
     -59.161
     -59.269
     -53.735
     -43.761
     -32.263
     -22.282
     -15.050
      -9.161
      -1.637
       9.763
      24.688
      40.232
      52.862
      60.739
      64.671
      67.102
      70.063
      73.623
      75.802
      73.746
      65.290
      50.027
      29.396
       5.925
     -17.840
     -40.066
     -59.704
     -76.081
     -88.518
     -96.277
     -98.713
     -95.375
     -86.075
     -71.164
     -51.983
     -31.047
     -11.553
       3.593
      12.596
      15.053
      11.892
       5.303
      -1.429
      -4.540
      -1.026
       9.905
      26.040
      42.818
      55.453
      61.340
      61.076
      57.279
      52.272
      46.651
      39.810
      31.567
      23.122
      16.352
      12.169
       9.502
       5.944
      -0.443
      -9.574
     -19.286
     -26.780
     -30.376
     -30.193
     -27.332
     -22.453
     -15.199
      -5.013
       7.474
      19.880
      28.890
      31.773
      27.437
      16.399
       0.141
     -19.361
     -39.563
     -57.190
     -68.556
     -70.523
     -61.602
     -42.715
     -17.299
       9.318
      31.351
      44.458
      47.281
      41.616
      30.971
      18.476
       5.727
      -6.594
     -17.045
     -22.427
     -18.763
      -3.979
      19.607
      45.117
      63.857
      69.291
      59.720
      38.281
      10.845
     -16.525
     -39.202
     -54.336
     -60.276
     -55.778
     -39.832
     -12.643
      22.557
      58.411
      84.840
      93.140
      80.474
      51.516
      15.983
     -16.100
     -38.076
     -47.471
     -44.633
     -31.247
      -9.955
      15.305
      39.395
      57.058
      64.481
      60.389
      46.128
      24.901
       0.743
     -22.228
     -40.127
     -49.578
     -48.428
     -36.872
     -18.146
       2.153
      18.128
      25.890
      24.665
      16.190
       3.145
     -12.118
     -27.869
     -42.667
     -55.093
     -63.839
     -67.894
     -66.544
     -59.338
     -46.346
     -28.733
      -9.094
       9.079
      22.709
      30.377
      32.632
      31.235
      28.037
      24.336
      21.040
      19.081
      19.286
      21.589
      24.416
      25.278
      22.541
      16.919
      11.111
       7.583
       6.403
       5.163
       1.216
      -5.748
     -13.070
     -17.041
     -15.704
     -10.231
      -3.862
       0.592
       2.619
       3.834
       6.032
       9.176
      10.991
       8.544
       0.561
     -11.298
     -23.203
     -31.338
     -33.861
     -31.264
     -25.194
     -17.038
      -7.439
       3.259
      14.536
      25.734
      36.326
      45.936
      54.131
      60.342
      63.978
      64.442
      61.060
      53.310
      41.508
      27.320
      13.296
       1.582
      -7.078
     -13.192
