Origin Time       18/9/2011 12:40:47	
Lat.              27.6 N	
Long.             88.2 E	
Depth (Km)         10.0
Magnitude         6.8
 Region           India(Sikkim)-Nepar-Border                                       
 Above details taken from IMD 
     
Station Code      SLG
Station Lat.       26.712  N
Station Long.      88.428  E
Station Height(m)  131.0
Site Class        C   Vs30 between 200 m/sec to 375 m/sec *  
Record Time       18.09.2011 12:40:58.379
Sampling Rate     200. Hz
 Record Duration  169.845 Sec.
 Direction         E-W (E positive)
Max. Acceleration   -156.794 cm/sec**2
     
  * For reference see Site Classification link of website 
     
 Base Line Corrected and Low Pass Filtered (Cut Off at 35 Hz) Time History
 Acceleration data in cm/sec**2
    
[...]
     -16.974
     -18.785
     -20.516
     -21.929
     -22.607
     -22.103
     -20.113
     -16.613
     -11.888
      -6.491
      -1.132
       3.492
       6.932
       9.180
      10.644
      11.853
      13.113
      14.365
      15.328
      15.751
      15.531
      14.661
      13.122
      10.868
       7.908
       4.437
       0.891
      -2.133
      -4.055
      -4.481
      -3.338
      -0.966
       1.872
       4.188
       5.140
       4.401
       2.258
      -0.582
      -3.286
      -5.129
      -5.656
      -4.785
      -2.828
      -0.375
       1.886
       3.343
       3.598
       2.552
       0.440
      -2.252
      -4.967
      -7.262
      -8.893
      -9.772
      -9.904
      -9.393
      -8.514
      -7.709
      -7.438
      -7.947
      -9.156
     -10.719
     -12.218
     -13.341
     -14.005
     -14.387
     -14.823
     -15.555
     -16.488
     -17.149
     -16.922
     -15.397
     -12.584
      -8.876
      -4.826
      -0.925
       2.496
       5.245
       7.202
       8.322
       8.702
       8.637
       8.574
       8.916
       9.799
      10.988
      12.006
      12.401
      11.974
      10.813
       9.194
       7.427
       5.732
       4.200
       2.858
       1.782
       1.153
       1.194
       2.058
       3.694
       5.776
       7.735
       8.945
       8.989
       7.815
       5.688
       3.013
       0.222
      -2.208
      -3.702
      -3.648
      -1.608
       2.473
       8.167
      14.618
      20.718
      25.339
      27.587
      27.001
      23.659
      18.137
      11.367
       4.453
      -1.554
      -5.925
      -8.481
      -9.647
     -10.250
     -11.148
     -12.871
     -15.414
     -18.275
     -20.722
     -22.114
     -22.098
     -20.603
     -17.759
     -13.834
      -9.225
      -4.419
       0.102
       3.946
       6.865
       8.778
       9.779
      10.109
      10.108
      10.151
      10.566
      11.565
      13.176
      15.180
      17.086
      18.223
      17.998
      16.210
      13.220
       9.842
       6.985
       5.274
       4.846
       5.387
       6.365
       7.305
       7.960
       8.299
       8.360
       8.081
       7.276
       5.776
       3.638
       1.221
      -0.941
      -2.382
      -2.927
      -2.726
      -2.106
      -1.334
      -0.469
       0.571
       1.814
       3.101
       4.126
       4.557
       4.123
       2.630
       0.012
      -3.569
      -7.662
     -11.626
     -14.852
     -16.971
     -17.930
     -17.920
     -17.215
     -16.048
     -14.591
     -13.028
     -11.620
     -10.626
     -10.138
      -9.977
      -9.793
      -9.279
      -8.338
      -7.097
      -5.813
      -4.769
      -4.184
      -4.149
      -4.587
      -5.242
      -5.724
      -5.612
      -4.572
      -2.474
       0.507
       3.876
       6.945
       9.088
       9.992
       9.753
       8.797
       7.710
       7.044
       7.147
       8.077
       9.628
      11.455
      13.159
      14.284
      14.299
      12.699
       9.271
       4.345
      -1.198
      -6.258
      -9.935
     -11.744
     -11.536
      -9.362
      -5.507
      -0.638
       4.180
       7.747
       9.163
       8.153
       5.136
       1.012
      -3.180
      -6.553
      -8.513
      -8.811
      -7.578
      -5.363
      -3.058
      -1.634
      -1.803
      -3.768
      -7.197
     -11.370
     -15.398
     -18.386
     -19.525
     -18.184
     -14.126
      -7.801
      -0.465
       6.098
      10.230
      11.056
       8.754
       4.327
      -0.877
      -5.582
      -8.809
      -9.980
      -8.989
      -6.268
      -2.742
       0.402
       2.126
       1.963
       0.232
      -2.139
      -4.080
      -4.868
      -4.346
      -2.803
      -0.646
       1.856
       4.593
       7.431
      10.072
      12.097
      13.141
      13.026
      11.753
       9.489
       6.597
       3.670
       1.411
       0.353
       0.627
       1.970
       3.953
       6.213
       8.516
      10.695
      12.590
      14.079
      15.142
      15.848
      16.248
      16.245
      15.578
      13.955
      11.286
       7.821
       4.067
       0.540
      -2.456
      -4.839
      -6.631
      -7.869
      -8.648
      -9.219
      -9.993
     -11.409
     -13.711
     -16.764
     -19.991
     -22.516
     -23.463
     -22.292
     -18.981
     -14.009
      -8.183
      -2.411
       2.501
       6.009
       7.927
       8.421
       7.877
       6.720
       5.263
       3.663
       1.948
       0.059
      -2.094
      -4.488
      -6.830
      -8.543
      -9.036
      -8.089
      -6.083
      -3.876
      -2.417
      -2.353
      -3.778
      -6.201
      -8.707
     -10.289
     -10.234
      -8.383
      -5.115
      -1.079
       3.108
       6.991
      10.231
      12.550
      13.785
      13.989
      13.477
      12.747
      12.309
      12.524
      13.489
      14.990
      16.544
      17.510
      17.258
      15.324
      11.531
       6.051
      -0.602
      -7.630
     -14.066
     -18.966
     -21.647
     -21.878
     -19.936
     -16.510
     -12.468
      -8.593
      -5.363
      -2.865
      -0.847
       1.102
       3.331
       5.949
       8.772
      11.430
      13.559
      14.946
      15.554
      15.461
      14.786
      13.623
      12.007
       9.919
       7.358
       4.437
       1.403
      -1.488
      -4.146
      -6.698
      -9.348
     -12.167
     -15.002
     -17.564
     -19.607
     -21.042
     -21.906
     -22.279
     -22.263
     -22.078
     -22.158
     -23.088
     -25.341
     -28.992
     -33.617
     -38.445
     -42.639
     -45.565
     -46.940
     -46.818
     -45.397
     -42.767
     -38.806
     -33.349
     -26.489
     -18.754
     -10.996
      -4.050
       1.624
       6.121
      10.008
      14.027
      18.744
      24.335
      30.554
      36.861
      42.626
      47.303
      50.571
      52.390
      52.967
      52.622
      51.637
      50.164
      48.245
      45.867
      42.971
      39.395
      34.840
      28.925
      21.345
      12.054
       1.333
     -10.301
     -22.248
     -33.918
     -44.745
     -54.231
     -62.063
     -68.260
     -73.179
     -77.307
     -80.917
     -83.818
     -85.365
     -84.723
     -81.240
     -74.706
     -65.413
     -54.004
     -41.202
     -27.572
     -13.480
       0.729
      14.497
      27.058
      37.686
      46.004
      52.072
      56.231
      58.847
      60.120
      60.009
      58.311
      54.868
      49.826
      43.781
      37.661
      32.361
      28.312
      25.257
      22.388
      18.742
      13.613
       6.800
      -1.366
     -10.125
     -18.489
     -25.514
     -30.581
     -33.588
     -34.997
     -35.708
     -36.757
     -38.912
     -42.340
     -46.532
     -50.554
     -53.462
     -54.634
     -53.865
     -51.271
     -47.170
     -42.028
     -36.438
     -31.026
     -26.234
     -22.119
     -18.315
     -14.216
      -9.317
      -3.519
       2.751
       8.659
      13.242
      15.718
      15.766
      13.689
      10.385
       7.083
       4.915
       4.493
       5.724
       7.965
      10.461
      12.785
      15.028
      17.624
      20.997
      25.292
      30.334
      35.757
      41.132
      46.009
      49.912
      52.338
      52.875
      51.384
      48.168
      43.936
      39.563
      35.757
      32.808
      30.534
      28.410
      25.824
      22.351
      17.965
      13.106
       8.596
       5.406
       4.328
       5.674
       9.155
      13.995
      19.214
      23.932
      27.622
      30.255
      32.293
      34.504
      37.626
      42.041
      47.655
      54.052
      60.738
      67.253
      73.111
      77.766
      80.746
      81.853
      81.236
      79.262
      76.326
      72.740
      68.719
      64.333
      59.385
      53.343
      45.490
      35.281
      22.630
       7.938
      -8.121
     -24.807
     -41.351
     -56.880
     -70.456
     -81.322
     -89.270
     -94.781
     -98.725
    -101.691
    -103.370
    -102.512
     -97.635
     -88.117
     -74.866
     -60.023
     -45.935
     -34.161
     -25.172
     -18.722
     -14.350
     -11.566
      -9.743
      -8.076
      -5.772
      -2.351
       2.181
       7.309
      12.080
      15.283
      15.800
      13.067
       7.424
       0.095
      -7.229
     -13.033
     -16.490
     -17.633
     -17.114
     -15.757
     -14.154
     -12.454
     -10.342
      -7.221
      -2.549
       3.793
      11.300
      18.945
      25.539
      30.136
      32.272
      31.981
      29.674
      26.003
      21.699
      17.423
      13.628
      10.490
       7.898
       5.513
       2.907
      -0.258
      -4.085
      -8.404
     -12.837
     -16.897
     -20.080
     -21.968
     -22.346
     -21.304
     -19.255
     -16.849
     -14.820
     -13.786
     -14.082
     -15.706
     -18.400
     -21.772
     -25.339
     -28.472
     -30.346
     -30.024
     -26.756
     -20.361
     -11.501
      -1.623
       7.480
      14.321
      18.226
      19.441
      18.817
      17.320
      15.672
      14.263
      13.287
      12.930
      13.407
      14.817
      16.965
      19.391
      21.641
      23.585
      25.489
      27.787
      30.766
      34.426
      38.614
      43.239
      48.363
      54.077
      60.333
      66.882
      73.336
      79.177
      83.602
      85.366
      82.965
      75.259
      62.247
      45.400
      27.209
      10.186
      -4.022
     -14.872
     -22.577
     -27.629
     -30.573
     -32.101
     -33.229
     -35.235
     -39.178
     -45.182
     -52.042
     -57.636
     -60.095
     -58.934
     -55.276
     -51.034
     -47.743
     -45.928
     -45.313
     -45.441
     -46.069
     -47.093
     -48.252
     -49.001
     -48.673
     -46.778
     -43.185
     -38.094
     -31.884
     -25.050
     -18.234
     -12.213
      -7.670
      -4.894
      -3.642
      -3.338
      -3.423
      -3.573
      -3.673
      -3.695
      -3.643
      -3.582
      -3.658
      -4.076
      -5.051
      -6.813
      -9.628
     -13.809
     -19.627
     -27.154
     -36.096
     -45.705
     -54.854
     -62.311
     -67.152
     -69.075
     -68.408
     -65.801
     -61.809
     -56.625
     -50.098
     -41.934
     -31.971
     -20.360
      -7.615
       5.506
      18.186
      29.723
      39.583
      47.405
      53.037
      56.659
      58.837
      60.425
      62.307
      65.071
      68.690
      72.339
      74.566
      73.864
      69.385
      61.314
      50.711
      38.984
      27.382
      16.729
       7.384
      -0.678
      -7.756
     -14.282
     -20.629
     -26.971
     -33.258
     -39.314
     -44.942
     -49.943
     -54.085
     -57.112
     -58.829
     -59.221
     -58.511
     -57.142
     -55.673
     -54.633
     -54.370
     -54.915
     -55.933
     -56.778
     -56.682
     -54.999
     -51.433
     -46.144
     -39.710
     -32.945
     -26.618
     -21.157
     -16.445
     -11.807
      -6.312
       0.686
       9.059
      17.825
      25.622
      31.413
      34.924
      36.580
      37.085
      37.035
      36.777
      36.434
      35.926
      34.961
      33.140
      30.236
      26.471
      22.498
      19.059
      16.573
      15.039
      14.290
      14.316
      15.350
      17.718
      21.609
      26.858
      32.815
      38.392
      42.292
      43.405
      41.232
      36.149
      29.378
      22.629
      17.559
      15.235
      15.848
      18.789
      23.056
      27.724
      32.242
      36.427
      40.265
      43.679
      46.472
      48.464
      49.695
      50.476
      51.202
      52.081
      53.014
      53.723
      54.002
      53.888
      53.615
      53.403
      53.224
      52.728
      51.429
      49.012
      45.530
      41.398
      37.261
      33.820
      31.619
      30.852
      31.279
      32.306
      33.188
      33.295
      32.376
      30.702
      28.851
      27.140
      25.128
      21.768
      16.253
       8.804
       0.623
      -6.897
     -12.910
     -17.206
     -19.843
     -20.845
     -20.208
     -18.075
     -14.840
     -11.086
      -7.422
      -4.373
      -2.315
      -1.403
      -1.456
      -1.916
      -2.012
      -1.132
       0.748
       2.801
       3.462
       1.020
      -5.540
     -15.951
     -28.799
     -42.355
     -55.471
     -67.872
     -79.720
     -90.936
    -100.884
    -108.657
    -113.789
    -116.852
    -119.399
    -122.982
    -127.641
    -130.867
    -128.180
    -115.509
     -91.980
     -60.820
     -27.314
       4.463
      33.152
      58.863
      81.155
      98.554
     109.664
     114.233
     113.128
     107.597
      98.725
      87.398
      74.435
      60.475
      45.662
      29.514
      11.251
      -9.522
     -32.269
     -55.466
     -77.075
     -95.242
    -108.885
    -117.957
    -123.361
    -126.447
    -128.174
    -128.311
    -125.303
    -117.079
    -102.345
     -81.443
     -56.152
     -28.680
      -0.743
      26.630
      52.658
      76.360
      96.628
     112.787
     125.109
     134.735
     142.846
     149.476
     152.884
     150.270
     139.596
     121.116
      97.205
      70.580
      42.614
      13.326
     -17.186
     -47.549
     -75.377
     -98.565
    -116.336
    -129.297
    -138.767
    -146.021
    -151.755
    -155.753
    -156.794
    -153.028
    -142.837
    -125.724
    -102.598
     -75.247
     -45.520
     -14.942
      15.110
      43.061
      67.144
      85.842
      98.395
     104.956
     106.361
     103.723
      98.067
      90.099
      80.128
      68.143
      54.117
      38.481
      22.449
       7.838
      -3.663
     -11.336
     -15.746
     -18.264
     -20.225
     -22.339
     -24.635
     -26.763
     -28.328
     -29.046
     -28.704
     -27.078
     -23.973
     -19.464
     -14.110
      -8.828
      -4.380
      -0.906
       2.077
       5.178
       8.584
      11.896
      14.403
      15.466
      14.715
      12.064
       7.674
       1.955
      -4.410
     -10.487
     -15.208
     -17.586
     -16.975
     -13.252
      -6.807
       1.625
      11.147
      20.842
      29.933
      37.981
      45.015
      51.482
      57.961
      64.806
      71.919
      78.849
      85.124
      90.525
      95.066
      98.741
     101.339
     102.529
     102.102
     100.139
      96.981
      93.057
      88.678
      83.936
      78.770
      73.183
      67.367
      61.629
      56.148
      50.788
      45.105
      38.514
      30.479
      20.673
       9.117
      -3.756
     -17.181
     -30.312
     -42.509
     -53.495
     -63.300
     -72.055
     -79.781
     -86.273
     -91.154
     -94.015
     -94.590
     -92.918
     -89.503
     -85.341
     -81.674
     -79.507
     -79.163
     -80.189
     -81.718
     -83.039
     -83.958
     -84.701
     -85.492
     -86.230
     -86.547
     -86.124
     -84.930
     -83.142
     -80.889
     -78.080
     -74.443
     -69.676
     -63.591
     -56.208
     -47.807
     -38.887
     -30.011
     -21.572
     -13.649
      -6.030
       1.639
       9.712
      18.463
      28.049
      38.471
      49.549
      60.992
      72.519
      83.909
      94.889
     105.010
     113.718
     120.617
     125.697
     129.217
     131.299
     131.559
     129.129
     123.094
     113.039
      99.344
      83.085
      65.672
      48.479
      32.593
      18.716
       7.174
      -1.966
      -8.724
     -13.108
     -15.232
     -15.614
     -15.386
     -16.093
     -19.028
     -24.512
     -31.725
     -39.293
     -46.111
     -51.748
     -56.308
     -60.122
     -63.540
     -66.840
     -70.186
     -73.661
     -77.362
     -81.477
     -86.228
     -91.736
     -97.943
    -104.619
    -111.320
    -117.294
    -121.409
    -122.265
    -118.559
    -109.618
     -95.849
     -78.802
     -60.727
     -43.807
     -29.453
     -18.011
      -8.946
      -1.295
       5.899
      13.321
      21.302
      29.862
      38.805
      47.770
      56.209
      63.330
      68.120
      69.504
      66.649
      59.292
      47.937
      33.782
      18.352
       3.027
     -11.287
     -24.179
     -35.555
     -45.430
     -53.830
     -60.728
     -66.023
     -69.546
     -71.147
     -70.738
     -68.249
     -63.559
     -56.509
     -46.973
     -34.927
     -20.514
      -4.150
      13.388
      31.009
      47.555
      62.129
      74.290
      84.020
      91.455
      96.516
      98.648
      96.882
      90.291
      78.598
      62.559
      43.782
      24.047
       4.581
     -14.190
     -32.286
     -49.595
     -65.585
     -79.494
     -90.786
     -99.479
    -106.056
    -110.999
    -114.259
    -115.094
    -112.407
    -105.319
     -93.622
     -77.942
     -59.573
     -40.116
     -21.067
      -3.527
      11.881
      24.978
      35.972
      45.409
      54.092
      62.967
      72.900
      84.345
      97.043
     109.981
     121.723
     130.915
     136.661
     138.590
     136.761
     131.637
     124.149
     115.662
     107.639
     101.077
      96.059
      91.737
      86.730
      79.760
      70.215
      58.419
      45.498
      32.948
      22.141
      14.014
       8.953
       6.816
       7.041
       8.814
      11.274
      13.686
      15.567
      16.714
      17.118
      16.784
      15.595
      13.327
       9.838
       5.285
       0.203
      -4.658
      -8.667
     -11.650
     -14.023
     -16.620
     -20.272
     -25.376
     -31.726
     -38.758
     -46.016
     -53.387
     -60.800
     -67.602
     -72.246
     -72.771
     -67.947
     -58.250
     -45.796
     -33.214
     -22.279
     -13.355
      -5.853
       0.930
       7.363
      13.539
      19.468
      25.097
      30.207
      34.370
      37.010
      37.509
      35.340
      30.237
      22.360
      12.322
       1.072
     -10.264
     -20.454
     -28.186
     -32.227
     -31.838
     -27.284
     -20.040
     -12.457
      -6.959
      -5.139
      -7.253
     -12.392
     -19.185
     -26.524
     -33.857
     -41.065
     -48.224
     -55.483
     -63.012
     -70.862
     -78.802
     -86.288
     -92.603
     -97.037
     -98.969
     -97.893
     -93.484
     -85.734
     -75.035
     -62.083
     -47.698
     -32.712
     -17.947
      -4.155
       8.123
      18.677
      27.553
      34.822
      40.418
      44.219
      46.302
      47.081
      47.172
      47.067
      46.972
      46.970
      47.332
      48.639
      51.547
      56.398
      62.976
      70.652
      78.810
      87.131
      95.466
     103.296
     109.198
     110.843
     105.835
      93.109
      73.958
      51.738
      30.234
      11.835
      -3.067
     -15.145
     -24.775
     -31.507
     -34.656
     -34.180
     -30.971
     -26.385
     -21.517
     -16.782
     -11.989
      -6.683
      -0.500
       6.624
      14.424
      22.410
      30.018
      36.720
      42.021
      45.374
      46.067
      43.250
      36.270
      25.214
      11.229
      -3.783
     -17.933
     -29.995
     -39.524
     -46.580
     -51.441
