Origin Time       03/06/2011 00:53:21
Lat.              27.5 N	
Long.             88.0 E	
Depth (Km)         26.0
Magnitude         4.9
Region            India(Sikkim)-Nepar-Border                                       
 Above details taken from IMD 
     
Station Code      SLG
Station Lat.       26.712  N
Station Long.      88.428  E
Station Height(m)  131.0
Site Class        C   Vs30 between 200 m/sec to 375 m/sec *  
Record Time       03.06.2011 00:53:43.199
Sampling Rate     200. Hz
Record Duration    70.270 Sec.
Direction         E-W (E positive)
Max. Acceleration    -12.502 cm/sec**2
     
  * For reference see Site Classification link of website 
     
 Base Line Corrected and Low Pass Filtered (Cut Off at 35 Hz) Time History
 Acceleration data in cm/sec**2
    
[...]
       0.657
       0.724
       0.708
       0.654
       0.598
       0.553
       0.501
       0.416
       0.275
       0.083
      -0.130
      -0.317
      -0.437
      -0.465
      -0.396
      -0.258
      -0.099
       0.026
       0.075
       0.039
      -0.059
      -0.175
      -0.262
      -0.293
      -0.264
      -0.184
      -0.071
       0.060
       0.196
       0.334
       0.481
       0.644
       0.816
       0.976
       1.090
       1.119
       1.037
       0.840
       0.545
       0.182
      -0.210
      -0.573
      -0.829
      -0.907
      -0.792
      -0.543
      -0.271
      -0.083
      -0.037
      -0.118
      -0.270
      -0.428
      -0.554
      -0.636
      -0.668
      -0.643
      -0.556
      -0.411
      -0.239
      -0.090
      -0.011
      -0.016
      -0.083
      -0.159
      -0.190
      -0.142
      -0.008
       0.179
       0.354
       0.450
       0.428
       0.301
       0.124
      -0.033
      -0.115
      -0.104
      -0.018
       0.105
       0.218
       0.271
       0.229
       0.084
      -0.125
      -0.329
      -0.456
      -0.471
      -0.387
      -0.254
      -0.123
      -0.024
       0.042
       0.084
       0.104
       0.102
       0.086
       0.083
       0.130
       0.250
       0.437
       0.656
       0.855
       0.987
       1.026
       0.965
       0.812
       0.581
       0.295
      -0.008
      -0.285
      -0.497
      -0.624
      -0.669
      -0.646
      -0.575
      -0.478
      -0.385
      -0.326
      -0.314
      -0.334
      -0.348
      -0.316
      -0.226
      -0.092
       0.053
       0.176
       0.256
       0.287
       0.274
       0.224
       0.140
       0.027
      -0.108
      -0.248
      -0.374
      -0.460
      -0.485
      -0.436
      -0.312
      -0.115
       0.138
       0.421
       0.694
       0.907
       1.012
       0.974
       0.780
       0.452
       0.044
      -0.380
      -0.755
      -1.027
      -1.160
      -1.128
      -0.927
      -0.579
      -0.148
       0.270
       0.578
       0.714
       0.664
       0.468
       0.190
      -0.103
      -0.361
      -0.548
      -0.642
      -0.628
      -0.504
      -0.285
       0.006
       0.341
       0.683
       0.973
       1.141
       1.132
       0.927
       0.560
       0.108
      -0.339
      -0.703
      -0.933
      -1.006
      -0.913
      -0.671
      -0.319
       0.076
       0.434
       0.682
       0.781
       0.739
       0.603
       0.429
       0.263
       0.131
       0.040
      -0.016
      -0.049
      -0.075
      -0.108
      -0.165
      -0.263
      -0.410
      -0.597
      -0.798
      -0.975
      -1.073
      -1.039
      -0.840
      -0.491
      -0.061
       0.354
       0.665
       0.826
       0.849
       0.780
       0.668
       0.527
       0.339
       0.079
      -0.244
      -0.577
      -0.843
      -0.972
      -0.934
      -0.741
      -0.433
      -0.062
       0.322
       0.672
       0.945
       1.108
       1.146
       1.069
       0.905
       0.687
       0.436
       0.163
      -0.111
      -0.336
      -0.448
      -0.397
      -0.182
       0.143
       0.485
       0.747
       0.853
       0.767
       0.495
       0.088
      -0.375
      -0.796
      -1.095
      -1.224
      -1.173
      -0.965
      -0.648
      -0.282
       0.074
       0.376
       0.597
       0.730
       0.782
       0.767
       0.699
       0.584
       0.420
       0.205
      -0.047
      -0.299
      -0.501
      -0.615
      -0.641
      -0.605
      -0.531
      -0.437
      -0.335
      -0.249
      -0.211
      -0.248
      -0.358
      -0.500
      -0.609
      -0.620
      -0.500
      -0.261
       0.041
       0.336
       0.565
       0.701
       0.747
       0.724
       0.645
       0.521
       0.363
       0.183
      -0.009
      -0.204
      -0.385
      -0.526
      -0.606
      -0.620
      -0.566
      -0.440
      -0.236
       0.033
       0.327
       0.584
       0.752
       0.807
       0.768
       0.668
       0.536
       0.379
       0.196
       0.000
      -0.181
      -0.312
      -0.366
      -0.335
      -0.235
      -0.104
       0.011
       0.065
       0.031
      -0.092
      -0.273
      -0.466
      -0.628
      -0.735
      -0.777
      -0.749
      -0.636
      -0.425
      -0.118
       0.252
       0.620
       0.915
       1.085
       1.113
       1.010
       0.812
       0.564
       0.313
       0.094
      -0.075
      -0.191
      -0.275
      -0.352
      -0.426
      -0.475
      -0.467
      -0.393
      -0.284
      -0.194
      -0.169
      -0.235
      -0.386
      -0.581
      -0.758
      -0.841
      -0.776
      -0.549
      -0.200
       0.191
       0.535
       0.766
       0.857
       0.818
       0.674
       0.460
       0.205
      -0.065
      -0.319
      -0.513
      -0.599
      -0.541
      -0.342
      -0.043
       0.284
       0.556
       0.703
       0.695
       0.537
       0.271
      -0.051
      -0.376
      -0.652
      -0.829
      -0.858
      -0.706
      -0.369
       0.108
       0.637
       1.112
       1.453
       1.620
       1.616
       1.468
       1.217
       0.901
       0.551
       0.201
      -0.117
      -0.378
      -0.572
      -0.704
      -0.793
      -0.858
      -0.906
      -0.924
      -0.897
      -0.819
      -0.700
      -0.572
      -0.465
      -0.397
      -0.354
      -0.300
      -0.197
      -0.031
       0.186
       0.417
       0.618
       0.751
       0.802
       0.780
       0.707
       0.600
       0.464
       0.289
       0.070
      -0.187
      -0.454
      -0.690
      -0.857
      -0.934
      -0.924
      -0.838
      -0.692
      -0.501
      -0.279
      -0.047
       0.171
       0.350
       0.477
       0.550
       0.581
       0.583
       0.567
       0.542
       0.513
       0.476
       0.414
       0.311
       0.165
      -0.006
      -0.163
      -0.270
      -0.309
      -0.292
      -0.261
      -0.258
      -0.304
      -0.382
      -0.456
      -0.498
      -0.507
      -0.507
      -0.519
      -0.543
      -0.549
      -0.493
      -0.346
      -0.122
       0.124
       0.319
       0.415
       0.416
       0.372
       0.338
       0.339
       0.359
       0.365
       0.334
       0.281
       0.254
       0.302
       0.444
       0.648
       0.835
       0.924
       0.866
       0.670
       0.397
       0.118
      -0.119
      -0.313
      -0.487
      -0.657
      -0.808
      -0.903
      -0.905
      -0.807
      -0.631
      -0.414
      -0.183
       0.051
       0.283
       0.502
       0.684
       0.790
       0.782
       0.651
       0.425
       0.162
      -0.078
      -0.256
      -0.356
      -0.387
      -0.364
      -0.309
      -0.244
      -0.188
      -0.157
      -0.168
      -0.233
      -0.357
      -0.524
      -0.694
      -0.816
      -0.844
      -0.756
      -0.555
      -0.278
       0.021
       0.282
       0.457
       0.519
       0.473
       0.352
       0.213
       0.111
       0.087
       0.155
       0.306
       0.515
       0.739
       0.918
       0.994
       0.929
       0.718
       0.397
       0.027
      -0.327
      -0.618
      -0.820
      -0.931
      -0.957
      -0.913
      -0.812
      -0.665
      -0.467
      -0.213
       0.095
       0.420
       0.703
       0.881
       0.929
       0.876
       0.794
       0.749
       0.759
       0.777
       0.721
       0.522
       0.161
      -0.321
      -0.835
      -1.291
      -1.616
      -1.770
      -1.731
      -1.502
      -1.113
      -0.626
      -0.121
       0.324
       0.660
       0.881
       1.011
       1.078
       1.095
       1.060
       0.967
       0.810
       0.586
       0.303
      -0.011
      -0.314
      -0.562
      -0.728
      -0.804
      -0.796
      -0.712
      -0.560
      -0.351
      -0.098
       0.169
       0.406
       0.565
       0.606
       0.522
       0.340
       0.108
      -0.126
      -0.323
      -0.455
      -0.500
      -0.447
      -0.301
      -0.087
       0.153
       0.369
       0.512
       0.546
       0.466
       0.304
       0.128
       0.013
      -0.001
       0.065
       0.143
       0.163
       0.093
      -0.046
      -0.199
      -0.314
      -0.368
      -0.384
      -0.404
      -0.468
      -0.591
      -0.768
      -0.970
      -1.144
      -1.219
      -1.136
      -0.876
      -0.475
      -0.001
       0.478
       0.926
       1.340
       1.721
       2.046
       2.262
       2.318
       2.190
       1.879
       1.395
       0.760
       0.027
      -0.706
      -1.307
      -1.657
      -1.694
      -1.440
      -0.989
      -0.472
      -0.008
       0.328
       0.514
       0.557
       0.477
       0.284
      -0.014
      -0.390
      -0.785
      -1.110
      -1.279
      -1.239
      -0.992
      -0.594
      -0.126
       0.328
       0.702
       0.951
       1.046
       0.981
       0.773
       0.466
       0.124
      -0.178
      -0.366
      -0.394
      -0.266
      -0.035
       0.210
       0.395
       0.486
       0.512
       0.536
       0.598
       0.681
       0.716
       0.623
       0.362
      -0.051
      -0.550
      -1.049
      -1.460
      -1.710
      -1.736
      -1.502
      -1.024
      -0.386
       0.278
       0.825
       1.153
       1.227
       1.081
       0.797
       0.471
       0.179
      -0.040
      -0.186
      -0.277
      -0.341
      -0.393
      -0.442
      -0.489
      -0.536
      -0.572
      -0.568
      -0.476
      -0.256
       0.089
       0.495
       0.846
       1.026
       0.968
       0.694
       0.300
      -0.080
      -0.323
      -0.365
      -0.219
       0.028
       0.261
       0.392
       0.402
       0.346
       0.313
       0.363
       0.485
       0.600
       0.609
       0.458
       0.161
      -0.212
      -0.584
      -0.903
      -1.141
      -1.281
      -1.300
      -1.194
      -0.996
      -0.786
      -0.663
      -0.698
      -0.896
      -1.182
      -1.424
      -1.477
      -1.243
      -0.714
       0.020
       0.806
       1.496
       1.993
       2.282
       2.413
       2.462
       2.490
       2.527
       2.578
       2.626
       2.632
       2.535
       2.277
       1.831
       1.226
       0.539
      -0.138
      -0.739
      -1.231
      -1.599
      -1.832
      -1.923
      -1.888
      -1.767
      -1.613
      -1.465
      -1.323
      -1.151
      -0.901
      -0.546
      -0.098
       0.397
       0.876
       1.281
       1.567
       1.717
       1.738
       1.653
       1.480
       1.228
       0.885
       0.437
      -0.112
      -0.718
      -1.289
      -1.712
      -1.896
      -1.802
      -1.474
      -1.027
      -0.628
      -0.436
      -0.546
      -0.937
      -1.470
      -1.937
      -2.151
      -2.022
      -1.580
      -0.944
      -0.260
       0.340
       0.765
       0.973
       0.978
       0.845
       0.675
       0.563
       0.556
       0.631
       0.702
       0.668
       0.463
       0.091
      -0.372
      -0.813
      -1.130
      -1.271
      -1.248
      -1.116
      -0.958
      -0.864
      -0.907
      -1.125
      -1.508
      -1.988
      -2.461
      -2.814
      -2.963
      -2.881
      -2.595
      -2.150
      -1.586
      -0.931
      -0.217
       0.507
       1.177
       1.733
       2.126
       2.327
       2.323
       2.113
       1.717
       1.193
       0.635
       0.156
      -0.145
      -0.216
      -0.069
       0.221
       0.545
       0.802
       0.950
       1.027
       1.143
       1.423
       1.928
       2.613
       3.335
       3.920
       4.228
       4.186
       3.779
       3.033
       2.008
       0.804
      -0.444
      -1.572
      -2.422
      -2.882
      -2.913
      -2.559
      -1.935
      -1.198
      -0.513
      -0.004
       0.276
       0.348
       0.276
       0.133
      -0.036
      -0.209
      -0.370
      -0.480
      -0.480
      -0.309
       0.073
       0.673
       1.463
       2.389
       3.358
       4.243
       4.895
       5.171
       4.987
       4.339
       3.292
       1.953
       0.443
      -1.123
      -2.648
      -4.060
      -5.316
      -6.383
      -7.223
      -7.783
      -8.002
      -7.816
      -7.191
      -6.139
      -4.742
      -3.138
      -1.505
      -0.018
       1.183
       2.030
       2.531
       2.747
       2.738
       2.518
       2.058
       1.331
       0.375
      -0.682
      -1.641
      -2.306
      -2.550
      -2.357
      -1.830
      -1.158
      -0.569
      -0.262
      -0.363
      -0.896
      -1.772
      -2.813
      -3.804
      -4.550
      -4.928
      -4.898
      -4.495
      -3.793
      -2.870
      -1.762
      -0.463
       1.048
       2.761
       4.607
       6.459
       8.153
       9.531
      10.464
      10.880
      10.774
      10.202
       9.266
       8.081
       6.752
       5.362
       3.980
       2.663
       1.459
       0.413
      -0.426
      -1.007
      -1.291
      -1.271
      -0.989
      -0.546
      -0.085
       0.240
       0.306
       0.048
      -0.523
      -1.338
      -2.282
      -3.216
      -3.972
      -4.361
      -4.206
      -3.410
      -2.018
      -0.224
       1.684
       3.406
       4.692
       5.360
       5.305
       4.501
       2.995
       0.917
      -1.539
      -4.144
      -6.675
      -8.930
     -10.742
     -11.969
     -12.502
     -12.275
     -11.281
      -9.596
      -7.391
      -4.909
      -2.423
      -0.184
       1.626
       2.923
       3.725
       4.127
       4.255
       4.224
       4.117
       3.977
       3.825
       3.669
       3.515
       3.364
       3.203
       3.009
       2.747
       2.371
       1.821
       1.031
      -0.035
      -1.345
      -2.777
      -4.120
      -5.123
      -5.567
      -5.333
      -4.431
      -2.985
      -1.184
       0.773
       2.703
       4.458
       5.911
       6.961
       7.541
       7.636
       7.288
       6.577
       5.591
       4.397
       3.041
       1.559
       0.011
      -1.492
      -2.788
      -3.685
      -4.013
      -3.680
      -2.717
      -1.289
       0.327
       1.809
       2.875
       3.361
       3.262
       2.698
       1.844
       0.848
      -0.200
      -1.263
      -2.323
      -3.341
      -4.247
      -4.936
      -5.293
      -5.221
      -4.682
      -3.724
      -2.481
      -1.138
       0.116
       1.145
       1.874
       2.279
       2.366
       2.165
       1.729
       1.119
       0.388
      -0.444
      -1.381
      -2.419
      -3.504
      -4.515
      -5.292
      -5.689
      -5.616
      -5.048
      -4.023
      -2.633
      -1.014
       0.669
       2.253
       3.596
       4.602
       5.219
       5.441
       5.289
       4.821
       4.130
       3.344
       2.607
       2.038
       1.706
       1.619
       1.748
       2.055
       2.501
       3.015
       3.471
       3.677
       3.427
       2.578
       1.123
      -0.777
      -2.840
      -4.749
      -6.252
      -7.217
      -7.625
      -7.519
      -6.949
      -5.942
      -4.523
      -2.757
      -0.770
       1.271
       3.194
       4.856
       6.145
       6.986
       7.335
       7.179
       6.542
       5.503
       4.193
       2.781
       1.428
       0.255
      -0.690
      -1.439
      -2.090
      -2.758
      -3.514
      -4.348
      -5.168
      -5.838
      -6.233
      -6.276
      -5.956
      -5.313
      -4.429
      -3.403
      -2.335
      -1.299
      -0.313
       0.670
       1.732
       2.939
       4.293
       5.725
       7.108
       8.289
       9.115
       9.446
       9.183
       8.281
       6.774
       4.773
       2.460
       0.048
      -2.261
      -4.316
      -6.031
      -7.367
      -8.302
      -8.829
      -8.964
      -8.755
      -8.278
      -7.614
      -6.828
      -5.962
      -5.031
      -4.038
      -2.986
      -1.885
      -0.762
       0.338
       1.352
       2.212
       2.871
       3.330
       3.655
       3.958
       4.365
       4.963
       5.772
       6.730
       7.706
       8.515
       8.951
       8.821
       8.000
       6.460
       4.297
       1.708
      -1.038
      -3.660
      -5.914
      -7.627
      -8.708
      -9.146
      -8.984
      -8.306
      -7.222
      -5.862
      -4.357
      -2.832
      -1.391
      -0.112
       0.961
       1.822
       2.500
       3.044
       3.501
       3.895
       4.213
       4.398
       4.363
       4.029
       3.371
       2.444
       1.369
       0.290
      -0.674
      -1.451
      -2.005
      -2.309
      -2.336
      -2.077
      -1.567
      -0.892
      -0.164
       0.509
       1.054
       1.444
       1.688
       1.804
       1.803
       1.700
       1.515
       1.275
       0.995
       0.671
       0.278
      -0.218
      -0.841
      -1.581
      -2.378
      -3.128
      -3.709
      -4.019
      -4.001
      -3.651
      -3.000
      -2.099
      -1.008
       0.197
       1.439
       2.650
       3.776
       4.760
       5.525
       5.973
       6.000
       5.523
       4.512
       3.015
       1.150
      -0.927
      -3.048
      -5.048
      -6.772
      -8.077
      -8.850
      -9.025
      -8.596
      -7.622
      -6.216
      -4.511
      -2.634
      -0.685
       1.253
       3.084
       4.687
       5.917
       6.637
       6.766
       6.311
       5.378
       4.154
       2.865
       1.726
       0.897
       0.454
       0.390
       0.622
       1.005
       1.354
       1.484
       1.256
       0.622
      -0.361
      -1.547
      -2.734
      -3.706
      -4.270
      -4.303
      -3.781
      -2.799
      -1.543
      -0.242
       0.889
       1.686
       2.060
       1.997
       1.560
       0.877
       0.127
      -0.492
      -0.794
      -0.651
      -0.028
       1.011
       2.320
       3.706
       4.968
       5.925
       6.432
       6.396
       5.791
       4.658
       3.098
       1.258
      -0.687
      -2.538
      -4.101
      -5.216
      -5.791
      -5.814
      -5.369
      -4.623
      -3.791
      -3.079
      -2.631
      -2.500
      -2.648
      -2.979
      -3.371
      -3.693
      -3.828
      -3.678
      -3.198
      -2.404
      -1.365
      -0.182
       1.049
       2.243
       3.335
       4.264
       4.968
       5.383
       5.447
       5.127
       4.440
       3.465
       2.324
       1.145
       0.019
      -1.008
      -1.917
      -2.677
      -3.230
      -3.510
      -3.476
      -3.132
      -2.517
      -1.685
      -0.702
       0.360
       1.413
       2.369
       3.161
       3.757
       4.162
       4.400
       4.497
       4.471
       4.326
       4.056
       3.637
       3.043
       2.259
       1.309
       0.260
      -0.779
      -1.702
      -2.437
      -2.962
      -3.285
      -3.421
      -3.379
      -3.180
      -2.869
      -2.515
      -2.196
      -1.970
      -1.857
      -1.839
      -1.861
      -1.846
      -1.685
      -1.261
      -0.490
       0.636
       2.008
       3.410
       4.569
       5.230
       5.218
       4.472
       3.036
       1.045
      -1.293
      -3.722
      -5.958
