Origin Time       03/06/2011 00:53:21 UTC
Lat.              27.5 N	
Long.             88.0 E	
Depth (Km)         26.0
Magnitude         4.9
Region            India(Sikkim)-Nepar-Border                                       
 Above details taken from IMD 
    
Station Code      SLG
Station Lat.       26.712  N
Station Long.      88.428  E
Station Height(m)  131.0
Site Class        C   Vs30 between 200 m/sec to 375 m/sec *  
Record Time       03.06.2011 00:53:43.199 UTC
Sampling Rate     200. Hz
Record Duration    70.270 Sec.
Direction         N-S (N positive)
Max. Acceleration    -14.119 cm/sec**2
     
  * For reference see Site Classification link of website 
     
 Base Line Corrected and Low Pass Filtered (Cut Off at 35 Hz) Time History
 Acceleration data in cm/sec**2
    
[...]
      -0.098
       0.037
       0.195
       0.326
       0.384
       0.344
       0.205
      -0.006
      -0.251
      -0.500
      -0.730
      -0.914
      -1.021
      -1.036
      -0.977
      -0.878
      -0.766
      -0.637
      -0.459
      -0.187
       0.205
       0.701
       1.233
       1.703
       2.013
       2.100
       1.955
       1.614
       1.142
       0.616
       0.103
      -0.347
      -0.708
      -0.967
      -1.112
      -1.134
      -1.034
      -0.833
      -0.578
      -0.335
      -0.171
      -0.129
      -0.211
      -0.382
      -0.578
      -0.731
      -0.787
      -0.719
      -0.536
      -0.276
       0.015
       0.291
       0.517
       0.665
       0.710
       0.637
       0.451
       0.193
      -0.071
      -0.266
      -0.347
      -0.303
      -0.157
       0.050
       0.274
       0.477
       0.632
       0.713
       0.694
       0.552
       0.284
      -0.083
      -0.483
      -0.826
      -1.027
      -1.039
      -0.876
      -0.597
      -0.279
       0.009
       0.227
       0.356
       0.408
       0.405
       0.375
       0.336
       0.298
       0.265
       0.237
       0.214
       0.192
       0.168
       0.130
       0.063
      -0.048
      -0.200
      -0.371
      -0.516
      -0.583
      -0.535
      -0.362
      -0.090
       0.229
       0.529
       0.752
       0.860
       0.854
       0.766
       0.633
       0.476
       0.302
       0.127
      -0.020
      -0.093
      -0.071
       0.024
       0.121
       0.138
       0.025
      -0.211
      -0.511
      -0.793
      -0.971
      -0.984
      -0.805
      -0.449
       0.023
       0.517
       0.929
       1.184
       1.258
       1.180
       0.991
       0.725
       0.401
       0.037
      -0.330
      -0.644
      -0.842
      -0.882
      -0.778
      -0.604
      -0.457
      -0.415
      -0.498
      -0.662
      -0.824
      -0.898
      -0.833
      -0.632
      -0.336
      -0.005
       0.300
       0.526
       0.637
       0.618
       0.473
       0.226
      -0.088
      -0.424
      -0.727
      -0.931
      -0.978
      -0.840
      -0.544
      -0.163
       0.211
       0.504
       0.679
       0.744
       0.736
       0.700
       0.680
       0.706
       0.784
       0.889
       0.967
       0.954
       0.802
       0.504
       0.104
      -0.326
      -0.711
      -0.997
      -1.156
      -1.176
      -1.051
      -0.789
      -0.415
       0.017
       0.439
       0.784
       1.002
       1.075
       1.022
       0.883
       0.703
       0.513
       0.320
       0.118
      -0.109
      -0.359
      -0.603
      -0.795
      -0.899
      -0.916
      -0.880
      -0.833
      -0.795
      -0.751
      -0.657
      -0.475
      -0.213
       0.056
       0.232
       0.237
       0.063
      -0.220
      -0.488
      -0.612
      -0.507
      -0.167
       0.337
       0.879
       1.331
       1.592
       1.613
       1.390
       0.969
       0.441
      -0.061
      -0.399
      -0.488
      -0.334
      -0.029
       0.283
       0.468
       0.437
       0.170
      -0.284
      -0.823
      -1.313
      -1.622
      -1.659
      -1.404
      -0.913
      -0.301
       0.293
       0.749
       1.002
       1.060
       0.981
       0.841
       0.696
       0.566
       0.451
       0.347
       0.258
       0.189
       0.125
       0.024
      -0.168
      -0.486
      -0.917
      -1.388
      -1.783
      -1.983
      -1.913
      -1.556
      -0.955
      -0.189
       0.635
       1.391
       1.954
       2.231
       2.192
       1.893
       1.454
       1.014
       0.680
       0.494
       0.443
       0.478
       0.536
       0.547
       0.440
       0.159
      -0.311
      -0.910
      -1.494
      -1.873
      -1.889
      -1.496
      -0.791
       0.028
       0.740
       1.181
       1.282
       1.059
       0.601
       0.032
      -0.519
      -0.957
      -1.234
      -1.356
      -1.361
      -1.291
      -1.171
      -0.997
      -0.755
      -0.439
      -0.075
       0.283
       0.584
       0.794
       0.905
       0.928
       0.872
       0.749
       0.575
       0.366
       0.132
      -0.117
      -0.363
      -0.559
      -0.645
      -0.573
      -0.337
       0.017
       0.403
       0.708
       0.835
       0.737
       0.443
       0.048
      -0.325
      -0.566
      -0.603
      -0.414
      -0.037
       0.437
       0.885
       1.197
       1.305
       1.193
       0.879
       0.402
      -0.189
      -0.825
      -1.407
      -1.816
      -1.949
      -1.763
      -1.308
      -0.717
      -0.159
       0.228
       0.395
       0.397
       0.341
       0.325
       0.387
       0.507
       0.636
       0.733
       0.776
       0.762
       0.686
       0.544
       0.343
       0.106
      -0.132
      -0.346
      -0.529
      -0.686
      -0.812
      -0.878
      -0.840
      -0.670
      -0.393
      -0.080
       0.189
       0.371
       0.468
       0.513
       0.528
       0.508
       0.422
       0.241
      -0.030
      -0.339
      -0.598
      -0.719
      -0.648
      -0.383
       0.031
       0.518
       1.002
       1.420
       1.728
       1.879
       1.816
       1.493
       0.906
       0.141
      -0.636
      -1.235
      -1.532
      -1.521
      -1.313
      -1.068
      -0.919
      -0.915
      -1.014
      -1.118
      -1.131
      -0.999
      -0.726
      -0.362
       0.032
       0.402
       0.713
       0.949
       1.114
       1.235
       1.355
       1.510
       1.692
       1.835
       1.847
       1.662
       1.283
       0.776
       0.232
      -0.286
      -0.759
      -1.198
      -1.611
      -1.971
      -2.220
      -2.299
      -2.191
      -1.936
      -1.605
      -1.252
      -0.874
      -0.429
       0.113
       0.730
       1.348
       1.882
       2.284
       2.554
       2.723
       2.813
       2.807
       2.662
       2.337
       1.831
       1.194
       0.522
      -0.075
      -0.509
      -0.739
      -0.762
      -0.605
      -0.316
       0.027
       0.322
       0.466
       0.397
       0.119
      -0.295
      -0.727
      -1.056
      -1.189
      -1.085
      -0.755
      -0.269
       0.250
       0.657
       0.839
       0.767
       0.520
       0.245
       0.090
       0.131
       0.337
       0.596
       0.781
       0.810
       0.681
       0.457
       0.233
       0.093
       0.071
       0.145
       0.245
       0.280
       0.178
      -0.086
      -0.479
      -0.916
      -1.294
      -1.528
      -1.571
      -1.419
      -1.096
      -0.646
      -0.116
       0.438
       0.957
       1.378
       1.651
       1.751
       1.688
       1.503
       1.249
       0.961
       0.651
       0.320
      -0.012
      -0.299
      -0.486
      -0.538
      -0.472
      -0.352
      -0.274
      -0.330
      -0.570
      -0.981
      -1.484
      -1.961
      -2.308
      -2.476
      -2.477
      -2.355
      -2.156
      -1.911
      -1.640
      -1.359
      -1.075
      -0.779
      -0.438
      -0.013
       0.509
       1.091
       1.659
       2.134
       2.478
       2.692
       2.797
       2.803
       2.697
       2.469
       2.132
       1.735
       1.342
       1.007
       0.753
       0.580
       0.476
       0.431
       0.446
       0.520
       0.628
       0.703
       0.634
       0.291
      -0.412
      -1.478
      -2.804
      -4.213
      -5.509
      -6.537
      -7.198
      -7.451
      -7.295
      -6.758
      -5.893
      -4.766
      -3.445
      -2.003
      -0.527
       0.880
       2.102
       3.026
       3.575
       3.731
       3.540
       3.088
       2.459
       1.706
       0.855
      -0.071
      -1.026
      -1.938
      -2.719
      -3.298
      -3.627
      -3.684
      -3.448
      -2.898
      -2.020
      -0.829
       0.612
       2.184
       3.716
       5.018
       5.916
       6.300
       6.146
       5.516
       4.533
       3.353
       2.132
       1.006
       0.076
      -0.599
      -1.000
      -1.149
      -1.099
      -0.933
      -0.745
      -0.614
      -0.584
      -0.664
      -0.840
      -1.087
      -1.379
      -1.687
      -1.989
      -2.270
      -2.517
      -2.717
      -2.856
      -2.914
      -2.867
      -2.687
      -2.337
      -1.790
      -1.042
      -0.132
       0.861
       1.833
       2.687
       3.368
       3.875
       4.248
       4.534
       4.737
       4.812
       4.678
       4.249
       3.467
       2.320
       0.845
      -0.868
      -2.689
      -4.457
      -6.006
      -7.179
      -7.850
      -7.940
      -7.434
      -6.391
      -4.943
      -3.280
      -1.606
      -0.093
       1.160
       2.139
       2.889
       3.484
       3.997
       4.484
       4.982
       5.495
       5.979
       6.322
       6.349
       5.868
       4.757
       3.039
       0.902
      -1.360
      -3.443
      -5.115
      -6.243
      -6.784
      -6.760
      -6.252
      -5.378
      -4.272
      -3.053
      -1.796
      -0.525
       0.755
       2.020
       3.206
       4.220
       4.977
       5.431
       5.590
       5.504
       5.245
       4.885
       4.495
       4.139
       3.871
       3.715
       3.651
       3.627
       3.572
       3.414
       3.091
       2.541
       1.713
       0.576
      -0.857
      -2.515
      -4.269
      -5.958
      -7.414
      -8.492
      -9.090
      -9.167
      -8.734
      -7.836
      -6.535
      -4.909
      -3.045
      -1.043
       1.002
       2.996
       4.836
       6.404
       7.575
       8.234
       8.313
       7.797
       6.726
       5.174
       3.251
       1.114
      -1.041
      -2.990
      -4.528
      -5.495
      -5.804
      -5.452
      -4.539
      -3.262
      -1.896
      -0.724
       0.031
       0.275
       0.043
      -0.531
      -1.282
      -2.061
      -2.745
      -3.224
      -3.381
      -3.093
      -2.277
      -0.944
       0.769
       2.619
       4.319
       5.620
       6.370
       6.539
       6.181
       5.393
       4.270
       2.900
       1.373
      -0.212
      -1.743
      -3.097
      -4.149
      -4.781
      -4.909
      -4.507
      -3.625
      -2.388
      -0.974
       0.439
       1.706
       2.736
       3.476
       3.882
       3.913
       3.544
       2.804
       1.795
       0.680
      -0.362
      -1.179
      -1.674
      -1.822
      -1.658
      -1.261
      -0.722
      -0.127
       0.450
       0.938
       1.274
       1.406
       1.317
       1.036
       0.635
       0.221
      -0.093
      -0.200
      -0.033
       0.408
       1.035
       1.685
       2.175
       2.357
       2.165
       1.605
       0.728
      -0.397
      -1.701
      -3.119
      -4.579
      -5.999
      -7.276
      -8.287
      -8.903
      -9.012
      -8.543
      -7.475
      -5.851
      -3.788
      -1.482
       0.817
       2.849
       4.406
       5.383
       5.801
       5.793
       5.547
       5.243
       5.005
       4.887
       4.871
       4.876
       4.788
       4.499
       3.948
       3.134
       2.097
       0.895
      -0.417
      -1.765
      -3.046
      -4.136
      -4.928
      -5.387
      -5.562
      -5.545
      -5.409
      -5.166
      -4.781
      -4.198
      -3.377
      -2.303
      -0.988
       0.534
       2.208
       3.944
       5.617
       7.077
       8.180
       8.824
       8.968
       8.625
       7.836
       6.647
       5.113
       3.316
       1.368
      -0.607
      -2.505
      -4.252
      -5.798
      -7.098
      -8.101
      -8.764
      -9.062
      -8.973
      -8.458
      -7.450
      -5.886
      -3.775
      -1.239
       1.487
       4.105
       6.310
       7.849
       8.565
       8.428
       7.542
       6.121
       4.429
       2.715
       1.158
      -0.146
      -1.180
      -1.977
      -2.589
      -3.060
      -3.421
      -3.696
      -3.915
      -4.119
      -4.335
      -4.547
      -4.686
      -4.648
      -4.343
      -3.732
      -2.850
      -1.792
      -0.687
       0.341
       1.197
       1.831
       2.247
       2.502
       2.692
       2.939
       3.348
       3.967
       4.750
       5.553
       6.171
       6.397
       6.079
       5.167
       3.727
       1.929
       0.002
      -1.817
      -3.343
      -4.464
      -5.133
      -5.340
      -5.093
      -4.413
      -3.346
      -1.962
      -0.358
       1.346
       2.995
       4.408
       5.409
       5.881
       5.801
       5.251
       4.374
       3.331
       2.256
       1.241
       0.328
      -0.487
      -1.260
      -2.085
      -3.052
      -4.202
      -5.480
      -6.737
      -7.772
      -8.394
      -8.481
      -7.996
      -6.988
      -5.575
      -3.916
      -2.199
      -0.607
       0.710
       1.669
       2.266
       2.577
       2.726
       2.841
       3.008
       3.247
       3.516
       3.752
       3.907
       3.955
       3.889
       3.698
       3.370
       2.903
       2.310
       1.617
       0.860
       0.082
      -0.668
      -1.350
      -1.940
      -2.433
      -2.827
      -3.109
      -3.252
      -3.206
      -2.905
      -2.269
      -1.224
       0.276
       2.211
       4.467
       6.825
       8.988
      10.623
      11.425
      11.185
       9.839
       7.479
       4.317
       0.636
      -3.245
      -6.989
     -10.247
     -12.683
     -14.024
     -14.119
     -12.989
     -10.820
      -7.922
      -4.654
      -1.371
       1.620
       4.069
       5.807
       6.763
       6.980
       6.599
       5.822
       4.856
       3.876
       3.005
       2.294
       1.722
       1.207
       0.647
      -0.032
      -0.851
      -1.783
      -2.780
      -3.784
      -4.722
      -5.505
      -6.024
      -6.177
      -5.902
      -5.204
      -4.159
      -2.884
      -1.507
      -0.119
       1.229
       2.517
       3.728
       4.833
       5.784
       6.517
       6.962
       7.057
       6.759
       6.043
       4.918
       3.434
       1.708
      -0.075
      -1.696
      -2.951
      -3.722
      -4.018
      -3.976
      -3.808
      -3.720
      -3.826
      -4.108
      -4.431
      -4.593
      -4.393
      -3.696
      -2.472
      -0.805
       1.124
       3.080
       4.810
       6.096
       6.794
       6.866
       6.385
       5.495
       4.366
       3.140
       1.918
       0.756
      -0.314
      -1.280
      -2.145
      -2.909
      -3.562
      -4.076
      -4.417
      -4.567
      -4.533
      -4.328
      -3.948
      -3.355
      -2.511
      -1.425
      -0.174
       1.098
       2.227
       3.068
       3.533
       3.596
       3.300
       2.740
       2.038
       1.301
       0.582
      -0.120
      -0.821
      -1.507
      -2.113
      -2.539
      -2.695
      -2.532
      -2.064
      -1.364
      -0.531
       0.330
       1.113
       1.710
       2.017
       1.961
       1.542
       0.856
       0.092
      -0.515
      -0.764
      -0.570
      -0.004
       0.735
       1.399
       1.786
       1.783
       1.376
       0.617
      -0.394
      -1.515
      -2.560
      -3.313
      -3.581
      -3.247
      -2.313
      -0.904
       0.752
       2.381
       3.714
       4.536
       4.722
       4.255
       3.237
       1.863
       0.377
      -0.994
      -2.103
      -2.899
      -3.399
      -3.637
      -3.620
      -3.325
      -2.729
      -1.844
      -0.718
       0.575
       1.963
       3.374
       4.728
       5.920
       6.822
       7.295
       7.214
       6.486
       5.082
       3.063
       0.592
      -2.092
      -4.716
      -7.021
      -8.781
      -9.819
     -10.034
      -9.421
      -8.081
      -6.199
      -3.996
      -1.678
       0.588
       2.673
       4.460
       5.831
       6.673
       6.901
       6.494
       5.525
       4.154
       2.588
       1.023
      -0.406
      -1.632
      -2.629
      -3.374
      -3.832
      -3.965
      -3.751
      -3.212
      -2.431
      -1.545
      -0.714
      -0.063
       0.356
       0.568
       0.633
       0.606
       0.515
       0.385
       0.264
       0.233
       0.382
       0.774
       1.413
       2.235
       3.136
       4.009
       4.764
       5.326
       5.611
       5.525
       4.980
       3.936
       2.429
       0.575
      -1.452
      -3.459
      -5.257
      -6.671
      -7.540
      -7.740
      -7.218
      -6.040
      -4.404
      -2.600
      -0.929
       0.375
       1.193
       1.523
       1.453
       1.113
       0.648
       0.200
      -0.098
      -0.145
       0.096
       0.569
       1.138
       1.646
       1.964
       2.031
       1.851
       1.469
       0.948
       0.357
      -0.238
      -0.777
      -1.208
      -1.491
      -1.608
      -1.548
      -1.312
      -0.901
      -0.333
       0.340
       1.024
       1.606
       1.995
       2.151
       2.087
       1.855
       1.516
       1.119
       0.689
       0.217
      -0.318
      -0.928
      -1.588
      -2.230
      -2.766
      -3.127
      -3.289
      -3.270
      -3.100
      -2.789
      -2.323
      -1.683
      -0.866
       0.095
       1.120
       2.084
       2.845
       3.291
       3.385
       3.179
       2.780
       2.300
       1.805
       1.319
       0.858
       0.462
       0.203
       0.140
       0.269
       0.502
       0.692
       0.708
       0.492
       0.091
      -0.390
      -0.848
      -1.237
      -1.570
      -1.885
      -2.195
      -2.463
      -2.622
      -2.620
      -2.471
      -2.248
      -2.050
      -1.946
      -1.938
      -1.965
      -1.930
      -1.744
      -1.349
      -0.725
       0.119
       1.148
       2.291
       3.425
       4.380
       4.974
       5.074
       4.651
       3.784
       2.612
       1.280
      -0.087
      -1.374
      -2.466
      -3.249
      -3.639
      -3.606
      -3.176
      -2.422
      -1.437
      -0.321
       0.823
       1.891
       2.787
       3.439
       3.804
       3.881
       3.710
       3.363
       2.920
       2.447
       1.980
       1.523
       1.062
       0.564
       0.001
      -0.641
      -1.347
      -2.068
      -2.740
      -3.296
      -3.697
      -3.932
      -4.018
      -3.983
      -3.847
      -3.617
      -3.289
      -2.856
      -2.320
      -1.689
      -0.975
      -0.195
       0.621
       1.417
       2.114
       2.615
       2.834
       2.721
       2.281
       1.580
       0.720
      -0.200
      -1.115
      -2.002
      -2.857
      -3.661
      -4.354
      -4.842
      -5.032
      -4.873
      -4.368
      -3.565
      -2.532
      -1.332
      -0.019
       1.351
       2.708
       3.969
       5.052
       5.903
       6.504
       6.860
       6.977
       6.847
       6.444
       5.748
       4.777
       3.602
       2.323
       1.037
      -0.197
      -1.351
      -2.409
      -3.331
      -4.052
      -4.489
      -4.582
      -4.314
      -3.718
      -2.873
      -1.873
      -0.801
       0.284
       1.331
       2.274
       3.033
       3.548
       3.802
       3.826
       3.665
       3.354
       2.896
       2.279
       1.504
       0.606
      -0.338
