Origin Time       26/2/2010 4:42:33	 
Lat.              28.5 N	
Long.             86.7 E	
Depth (Km)         28.0
Magnitude         5.4
 Region           Tibet                                                            
 Above details taken from IMD 
     
Station Code      SLG
Station Lat.       26.712  N
Station Long.      88.428  E
Station Height(m)  131.0
Site Class        C   Vs30 between 200 m/sec to 375 m/sec *  
Record Time       26.02.2010 04:43:29.979
Sampling Rate     200. Hz
 Record Duration   66.725 Sec.
 Direction         E-W (E positive)
Max. Acceleration    -11.117 cm/sec**2
     
  * For reference see Site Classification link of website 
     
 Base Line Corrected and Low Pass Filtered (Cut Off at 35 Hz) Time History
 Acceleration data in cm/sec**2
    
[...]
       0.076
      -0.016
      -0.079
      -0.107
      -0.111
      -0.107
      -0.114
      -0.140
      -0.180
      -0.215
      -0.223
      -0.201
      -0.168
      -0.159
      -0.200
      -0.281
      -0.363
      -0.394
      -0.344
      -0.227
      -0.093
       0.007
       0.048
       0.050
       0.054
       0.096
       0.186
       0.297
       0.385
       0.413
       0.378
       0.303
       0.220
       0.143
       0.068
      -0.013
      -0.096
      -0.162
      -0.191
      -0.177
      -0.135
      -0.086
      -0.050
      -0.033
      -0.033
      -0.039
      -0.035
      -0.008
       0.040
       0.089
       0.116
       0.106
       0.070
       0.035
       0.031
       0.070
       0.139
       0.210
       0.258
       0.277
       0.271
       0.246
       0.205
       0.151
       0.083
       0.006
      -0.079
      -0.168
      -0.253
      -0.324
      -0.364
      -0.357
      -0.297
      -0.196
      -0.076
       0.038
       0.128
       0.185
       0.212
       0.214
       0.196
       0.158
       0.103
       0.042
      -0.017
      -0.072
      -0.126
      -0.172
      -0.199
      -0.197
      -0.174
      -0.156
      -0.178
      -0.261
      -0.402
      -0.565
      -0.699
      -0.760
      -0.726
      -0.605
      -0.432
      -0.251
      -0.093
       0.042
       0.172
       0.316
       0.483
       0.656
       0.797
       0.868
       0.851
       0.758
       0.614
       0.439
       0.244
       0.042
      -0.142
      -0.275
      -0.337
      -0.329
      -0.271
      -0.198
      -0.144
      -0.130
      -0.164
      -0.237
      -0.332
      -0.420
      -0.477
      -0.487
      -0.443
      -0.352
      -0.225
      -0.068
       0.112
       0.308
       0.500
       0.660
       0.760
       0.785
       0.739
       0.638
       0.506
       0.366
       0.232
       0.108
      -0.013
      -0.142
      -0.278
      -0.407
      -0.502
      -0.529
      -0.473
      -0.354
      -0.220
      -0.115
      -0.059
      -0.042
      -0.039
      -0.031
      -0.019
      -0.014
      -0.031
      -0.075
      -0.138
      -0.207
      -0.265
      -0.306
      -0.338
      -0.378
      -0.425
      -0.456
      -0.427
      -0.307
      -0.102
       0.147
       0.378
       0.532
       0.577
       0.517
       0.381
       0.207
       0.027
      -0.132
      -0.254
      -0.333
      -0.374
      -0.386
      -0.381
      -0.363
      -0.322
      -0.239
      -0.101
       0.080
       0.271
       0.428
       0.529
       0.577
       0.589
       0.585
       0.569
       0.535
       0.472
       0.376
       0.258
       0.135
       0.023
      -0.068
      -0.130
      -0.151
      -0.121
      -0.030
       0.114
       0.281
       0.423
       0.496
       0.485
       0.410
       0.308
       0.206
       0.108
       0.003
      -0.109
      -0.210
      -0.272
      -0.284
      -0.269
      -0.267
      -0.304
      -0.380
      -0.482
      -0.589
      -0.689
      -0.762
      -0.788
      -0.746
      -0.630
      -0.459
      -0.264
      -0.074
       0.090
       0.212
       0.276
       0.273
       0.211
       0.123
       0.051
       0.016
       0.017
       0.031
       0.037
       0.032
       0.032
       0.057
       0.107
       0.160
       0.190
       0.182
       0.143
       0.102
       0.091
       0.122
       0.177
       0.217
       0.209
       0.146
       0.056
      -0.023
      -0.061
      -0.052
      -0.007
       0.054
       0.115
       0.164
       0.186
       0.165
       0.102
       0.023
      -0.027
      -0.010
       0.084
       0.227
       0.364
       0.447
       0.456
       0.407
       0.332
       0.261
       0.204
       0.153
       0.087
      -0.019
      -0.184
      -0.396
      -0.616
      -0.785
      -0.850
      -0.793
      -0.649
      -0.490
      -0.390
      -0.378
      -0.432
      -0.489
      -0.487
      -0.402
      -0.255
      -0.103
      -0.001
       0.021
      -0.028
      -0.112
      -0.190
      -0.234
      -0.236
      -0.202
      -0.136
      -0.038
       0.093
       0.248
       0.409
       0.567
       0.723
       0.875
       1.003
       1.068
       1.020
       0.831
       0.511
       0.113
      -0.284
      -0.606
      -0.799
      -0.846
      -0.766
      -0.608
      -0.421
      -0.236
      -0.066
       0.087
       0.215
       0.304
       0.339
       0.314
       0.235
       0.123
       0.007
      -0.088
      -0.151
      -0.181
      -0.188
      -0.189
      -0.200
      -0.233
      -0.277
      -0.302
      -0.272
      -0.175
      -0.036
       0.092
       0.164
       0.167
       0.117
       0.037
      -0.061
      -0.175
      -0.295
      -0.394
      -0.432
      -0.368
      -0.180
       0.108
       0.428
       0.699
       0.856
       0.872
       0.760
       0.554
       0.295
       0.018
      -0.247
      -0.463
      -0.591
      -0.612
      -0.542
      -0.427
      -0.321
      -0.256
      -0.234
      -0.238
      -0.253
      -0.273
      -0.309
      -0.379
      -0.491
      -0.629
      -0.763
      -0.857
      -0.887
      -0.849
      -0.755
      -0.623
      -0.461
      -0.274
      -0.073
       0.117
       0.265
       0.352
       0.382
       0.393
       0.432
       0.541
       0.736
       1.008
       1.331
       1.670
       1.980
       2.203
       2.283
       2.179
       1.885
       1.444
       0.939
       0.464
       0.089
      -0.149
      -0.237
      -0.181
      -0.002
       0.269
       0.589
       0.918
       1.220
       1.470
       1.655
       1.770
       1.804
       1.750
       1.606
       1.377
       1.069
       0.682
       0.218
      -0.308
      -0.860
      -1.379
      -1.796
      -2.057
      -2.149
      -2.106
      -1.988
      -1.867
      -1.804
      -1.832
      -1.956
      -2.151
      -2.374
      -2.569
      -2.684
      -2.693
      -2.610
      -2.479
      -2.339
      -2.201
      -2.047
      -1.849
      -1.591
      -1.279
      -0.945
      -0.636
      -0.391
      -0.226
      -0.132
      -0.089
      -0.066
      -0.033
       0.029
       0.134
       0.287
       0.489
       0.740
       1.038
       1.390
       1.802
       2.283
       2.832
       3.426
       4.019
       4.546
       4.950
       5.203
       5.303
       5.259
       5.060
       4.684
       4.126
       3.421
       2.651
       1.918
       1.301
       0.833
       0.502
       0.275
       0.118
      -0.003
      -0.113
      -0.232
      -0.364
      -0.501
      -0.631
      -0.745
      -0.843
      -0.939
      -1.058
      -1.225
      -1.453
      -1.740
      -2.072
      -2.428
      -2.784
      -3.116
      -3.412
      -3.672
      -3.906
      -4.132
      -4.362
      -4.599
      -4.832
      -5.046
      -5.222
      -5.342
      -5.396
      -5.381
      -5.302
      -5.162
      -4.952
      -4.651
      -4.243
      -3.725
      -3.116
      -2.447
      -1.749
      -1.044
      -0.332
       0.400
       1.162
       1.943
       2.709
       3.413
       4.004
       4.448
       4.734
       4.879
       4.911
       4.865
       4.769
       4.640
       4.481
       4.289
       4.055
       3.783
       3.486
       3.195
       2.945
       2.764
       2.657
       2.607
       2.574
       2.516
       2.397
       2.201
       1.933
       1.614
       1.272
       0.937
       0.646
       0.438
       0.338
       0.330
       0.359
       0.354
       0.265
       0.079
      -0.174
      -0.456
      -0.744
      -1.052
      -1.422
      -1.895
      -2.478
      -3.131
      -3.773
      -4.306
      -4.651
      -4.772
      -4.684
      -4.436
      -4.090
      -3.699
      -3.291
      -2.866
      -2.409
      -1.900
      -1.327
      -0.692
      -0.021
       0.642
       1.255
       1.799
       2.275
       2.689
       3.036
       3.301
       3.466
       3.520
       3.457
       3.272
       2.966
       2.563
       2.119
       1.714
       1.428
       1.310
       1.367
       1.566
       1.846
       2.128
       2.345
       2.454
       2.460
       2.404
       2.335
       2.281
       2.220
       2.093
       1.844
       1.455
       0.951
       0.379
      -0.214
      -0.800
      -1.372
      -1.936
      -2.505
      -3.071
      -3.607
      -4.074
      -4.440
      -4.696
      -4.856
      -4.947
      -4.983
      -4.951
      -4.819
      -4.577
      -4.251
      -3.901
      -3.588
      -3.338
      -3.135
      -2.924
      -2.639
      -2.239
      -1.715
      -1.090
      -0.395
       0.330
       1.044
       1.711
       2.308
       2.824
       3.244
       3.542
       3.681
       3.619
       3.324
       2.797
       2.073
       1.205
       0.245
      -0.756
      -1.737
      -2.608
      -3.268
      -3.635
      -3.688
      -3.479
      -3.111
      -2.686
      -2.259
      -1.825
      -1.353
      -0.825
      -0.251
       0.348
       0.967
       1.639
       2.424
       3.379
       4.508
       5.734
       6.909
       7.859
       8.449
       8.623
       8.408
       7.868
       7.063
       6.033
       4.823
       3.511
       2.205
       1.010
      -0.005
      -0.825
      -1.489
      -2.068
      -2.623
      -3.183
      -3.722
      -4.173
      -4.457
      -4.520
      -4.352
      -3.975
      -3.421
      -2.712
      -1.868
      -0.922
       0.053
       0.949
       1.649
       2.064
       2.161
       1.964
       1.539
       0.970
       0.331
      -0.327
      -0.986
      -1.647
      -2.303
      -2.916
      -3.422
      -3.748
      -3.846
      -3.710
      -3.387
      -2.957
      -2.502
      -2.074
      -1.688
      -1.322
      -0.932
      -0.470
       0.092
       0.742
       1.435
       2.121
       2.752
       3.286
       3.676
       3.859
       3.776
       3.394
       2.729
       1.851
       0.851
      -0.198
      -1.247
      -2.270
      -3.233
      -4.082
      -4.744
      -5.154
      -5.289
      -5.180
      -4.886
      -4.467
      -3.956
      -3.356
      -2.651
      -1.832
      -0.906
       0.100
       1.145
       2.197
       3.229
       4.219
       5.137
       5.926
       6.507
       6.794
       6.725
       6.293
       5.554
       4.605
       3.552
       2.474
       1.409
       0.362
      -0.673
      -1.674
      -2.586
      -3.328
      -3.819
      -3.991
      -3.806
      -3.262
      -2.414
      -1.372
      -0.306
       0.601
       1.202
       1.447
       1.394
       1.177
       0.947
       0.825
       0.873
       1.091
       1.437
       1.843
       2.240
       2.560
       2.744
       2.733
       2.471
       1.914
       1.059
      -0.024
      -1.197
      -2.289
      -3.149
      -3.688
      -3.887
      -3.777
      -3.414
      -2.867
      -2.214
      -1.537
      -0.894
      -0.295
       0.293
       0.910
       1.555
       2.159
       2.592
       2.707
       2.406
       1.691
       0.663
      -0.524
      -1.731
      -2.873
      -3.922
      -4.865
      -5.664
      -6.232
      -6.449
      -6.210
      -5.467
      -4.253
      -2.681
      -0.907
       0.911
       2.651
       4.232
       5.604
       6.714
       7.494
       7.869
       7.771
       7.170
       6.101
       4.669
       3.040
       1.396
      -0.102
      -1.355
      -2.332
      -3.055
      -3.561
      -3.868
      -3.960
      -3.805
      -3.389
      -2.745
      -1.949
      -1.095
      -0.261
       0.513
       1.208
       1.796
       2.229
       2.446
       2.402
       2.078
       1.494
       0.698
      -0.235
      -1.208
      -2.113
      -2.844
      -3.327
      -3.544
      -3.536
      -3.389
      -3.193
      -3.011
      -2.842
      -2.624
      -2.266
      -1.702
      -0.939
      -0.051
       0.859
       1.711
       2.477
       3.171
       3.822
       4.442
       5.011
       5.476
       5.761
       5.790
       5.511
       4.918
       4.044
       2.945
       1.692
       0.366
      -0.955
      -2.198
      -3.313
      -4.261
      -5.011
      -5.529
      -5.777
      -5.723
      -5.358
      -4.707
      -3.825
      -2.792
      -1.703
      -0.657
       0.260
       0.994
       1.535
       1.898
       2.108
       2.193
       2.187
       2.126
       2.048
       1.969
       1.893
       1.812
       1.722
       1.624
       1.521
       1.391
       1.190
       0.869
       0.404
      -0.183
      -0.817
      -1.399
      -1.828
      -2.039
      -2.005
      -1.741
      -1.285
      -0.694
      -0.034
       0.619
       1.199
       1.659
       1.980
       2.171
       2.259
       2.268
       2.206
       2.053
       1.771
       1.320
       0.686
      -0.099
      -0.956
      -1.786
      -2.511
      -3.093
      -3.522
      -3.797
      -3.900
      -3.794
      -3.449
      -2.873
      -2.138
      -1.366
      -0.683
      -0.187
       0.072
       0.089
      -0.100
      -0.422
      -0.789
      -1.112
      -1.325
      -1.385
      -1.269
      -0.966
      -0.461
       0.263
       1.216
       2.386
       3.725
       5.145
       6.518
       7.690
       8.507
       8.836
       8.588
       7.735
       6.315
       4.407
       2.105
      -0.489
      -3.241
      -5.949
      -8.342
     -10.129
     -11.084
     -11.117
     -10.290
      -8.777
      -6.791
      -4.522
      -2.127
       0.260
       2.506
       4.472
       6.017
       7.027
       7.442
       7.280
       6.630
       5.634
       4.449
       3.217
       2.049
       1.018
       0.160
      -0.513
      -1.010
      -1.336
      -1.494
      -1.484
      -1.325
      -1.059
      -0.756
      -0.492
      -0.329
      -0.306
      -0.428
      -0.675
      -1.021
      -1.450
      -1.958
      -2.541
      -3.175
      -3.801
      -4.333
      -4.670
      -4.727
      -4.453
      -3.841
      -2.924
      -1.775
      -0.499
       0.783
       1.953
       2.925
       3.652
       4.117
       4.311
       4.215
       3.808
       3.091
       2.124
       1.026
      -0.047
      -0.942
      -1.551
      -1.826
      -1.773
      -1.439
      -0.881
      -0.165
       0.635
       1.435
       2.134
       2.621
       2.796
       2.590
       1.996
       1.072
      -0.068
      -1.279
      -2.402
      -3.286
      -3.809
      -3.886
      -3.493
      -2.679
      -1.567
      -0.324
       0.886
       1.944
       2.795
       3.434
       3.872
       4.117
       4.166
       4.022
       3.706
       3.255
       2.706
       2.085
       1.410
       0.696
      -0.037
      -0.757
      -1.424
      -2.002
      -2.469
      -2.815
      -3.031
      -3.098
      -2.997
      -2.720
      -2.285
      -1.744
      -1.185
      -0.704
      -0.379
      -0.252
      -0.330
      -0.586
      -0.968
      -1.423
      -1.909
      -2.406
      -2.895
      -3.337
      -3.655
      -3.745
      -3.514
      -2.923
      -2.006
      -0.862
       0.383
       1.606
       2.704
       3.594
       4.212
       4.517
       4.485
       4.108
       3.408
       2.447
       1.344
       0.264
      -0.607
      -1.113
      -1.179
      -0.831
      -0.171
       0.669
       1.559
       2.375
       2.999
       3.325
       3.287
       2.896
       2.246
       1.479
       0.729
       0.079
      -0.448
      -0.864
      -1.194
      -1.454
      -1.651
      -1.783
      -1.850
      -1.858
      -1.824
      -1.756
      -1.651
      -1.489
      -1.246
      -0.912
      -0.506
      -0.087
       0.271
       0.499
       0.559
       0.453
       0.213
      -0.102
      -0.413
      -0.637
      -0.710
      -0.602
      -0.330
       0.061
       0.521
       1.017
       1.534
       2.047
       2.513
       2.861
       3.018
       2.922
       2.542
       1.880
       0.975
      -0.110
      -1.278
      -2.393
      -3.297
      -3.854
      -3.998
      -3.755
      -3.215
      -2.491
      -1.684
      -0.874
      -0.122
       0.516
       0.988
       1.259
       1.321
       1.195
       0.920
       0.536
       0.081
      -0.406
      -0.868
      -1.235
      -1.439
      -1.443
      -1.259
      -0.936
      -0.538
      -0.121
       0.278
       0.641
       0.959
       1.210
       1.364
       1.388
       1.270
       1.026
       0.700
       0.349
       0.012
      -0.305
      -0.635
      -1.004
      -1.390
      -1.721
      -1.897
      -1.851
      -1.573
      -1.114
      -0.552
       0.040
       0.615
       1.157
       1.668
       2.153
       2.599
       2.970
       3.218
       3.291
       3.154
       2.793
       2.223
       1.497
       0.707
      -0.039
      -0.655
      -1.098
      -1.363
      -1.479
      -1.492
      -1.455
      -1.415
      -1.400
      -1.411
      -1.430
      -1.427
      -1.384
      -1.301
      -1.199
      -1.101
      -1.022
      -0.960
      -0.903
      -0.836
      -0.753
      -0.654
      -0.548
      -0.439
      -0.320
      -0.171
       0.042
       0.360
       0.815
       1.413
       2.120
       2.859
       3.524
       3.995
       4.185
       4.059
       3.638
       2.984
       2.165
       1.237
       0.242
      -0.777
      -1.754
      -2.595
      -3.196
      -3.489
      -3.478
      -3.229
      -2.836
      -2.375
      -1.892
      -1.409
      -0.955
      -0.580
      -0.341
      -0.266
      -0.327
      -0.447
      -0.539
      -0.546
      -0.464
      -0.327
      -0.172
      -0.003
       0.206
       0.484
       0.814
       1.124
       1.319
       1.332
       1.155
       0.844
       0.483
       0.142
      -0.145
      -0.367
      -0.520
      -0.597
      -0.588
      -0.495
      -0.330
      -0.115
       0.123
       0.358
       0.578
       0.775
       0.937
       1.035
       1.046
       0.971
       0.844
       0.712
       0.600
       0.484
       0.301
      -0.002
      -0.436
      -0.960
      -1.506
      -2.010
      -2.420
      -2.694
      -2.794
      -2.690
      -2.376
      -1.887
      -1.293
      -0.663
      -0.031
       0.607
       1.268
       1.943
       2.578
       3.093
       3.417
       3.516
       3.416
       3.193
       2.940
       2.735
       2.619
       2.592
       2.609
       2.600
       2.501
       2.269
       1.892
       1.380
       0.757
       0.060
      -0.663
      -1.360
      -1.987
      -2.520
      -2.945
      -3.256
      -3.435
      -3.457
      -3.301
      -2.966
      -2.468
      -1.850
      -1.176
      -0.533
      -0.008
       0.343
       0.497
       0.464
       0.262
      -0.087
      -0.561
      -1.116
      -1.679
      -2.156
      -2.465
      -2.575
      -2.509
      -2.320
      -2.060
      -1.770
      -1.480
      -1.215
      -0.991
      -0.806
      -0.637
      -0.445
      -0.197
       0.124
       0.522
       0.990
       1.513
       2.051
       2.544
       2.917
       3.103
       3.071
       2.832
       2.429
       1.915
       1.351
       0.805
       0.354
       0.075
       0.020
       0.200
