Origin Time       21/9/2009 8:53:04	  UTC
Lat.              27.3 N	
Long.             91.5 E	
Depth (Km)          8.0
Magnitude         6.2
 Region           BHUTAN                                                           
 Above details taken from IMD 
    
Station Code      SLG
Station Lat.       26.712  N
Station Long.      88.428  E
Station Height(m)  131.0
Site Class        C   Vs30 between 200 m/sec to 375 m/sec *  
Record Time       21.09.2009 08:54:20.449 UTC
Sampling Rate     200. Hz
 Record Duration   74.745 Sec.
 Direction         N-S (N positive)
Max. Acceleration    -12.268 cm/sec**2
     
  * For reference see Site Classification link of website 
     
 Base Line Corrected and Low Pass Filtered (Cut Off at 35 Hz) Time History
 Acceleration data in cm/sec**2
    
[...]
       0.637
       0.606
       0.518
       0.396
       0.261
       0.129
       0.014
      -0.067
      -0.094
      -0.060
       0.030
       0.152
       0.278
       0.381
       0.444
       0.454
       0.409
       0.306
       0.147
      -0.066
      -0.325
      -0.604
      -0.870
      -1.093
      -1.259
      -1.370
      -1.433
      -1.448
      -1.406
      -1.302
      -1.139
      -0.933
      -0.698
      -0.445
      -0.182
       0.080
       0.326
       0.542
       0.715
       0.833
       0.896
       0.918
       0.920
       0.920
       0.931
       0.952
       0.976
       0.985
       0.960
       0.892
       0.782
       0.643
       0.491
       0.343
       0.211
       0.106
       0.037
       0.010
       0.015
       0.033
       0.046
       0.044
       0.026
      -0.007
      -0.057
      -0.124
      -0.206
      -0.296
      -0.381
      -0.448
      -0.480
      -0.470
      -0.421
      -0.350
      -0.278
      -0.222
      -0.182
      -0.150
      -0.116
      -0.078
      -0.038
       0.004
       0.043
       0.068
       0.058
      -0.006
      -0.126
      -0.297
      -0.502
      -0.723
      -0.938
      -1.116
      -1.228
      -1.254
      -1.188
      -1.041
      -0.834
      -0.586
      -0.312
      -0.023
       0.268
       0.539
       0.775
       0.966
       1.112
       1.216
       1.278
       1.291
       1.250
       1.157
       1.024
       0.866
       0.697
       0.527
       0.365
       0.223
       0.114
       0.051
       0.041
       0.080
       0.156
       0.252
       0.350
       0.438
       0.501
       0.534
       0.536
       0.513
       0.478
       0.437
       0.393
       0.343
       0.276
       0.185
       0.061
      -0.098
      -0.293
      -0.517
      -0.750
      -0.963
      -1.125
      -1.217
      -1.231
      -1.169
      -1.039
      -0.858
      -0.651
      -0.444
      -0.257
      -0.106
       0.001
       0.058
       0.065
       0.034
      -0.008
      -0.030
      -0.011
       0.051
       0.142
       0.239
       0.324
       0.392
       0.446
       0.487
       0.508
       0.495
       0.439
       0.339
       0.212
       0.077
      -0.046
      -0.149
      -0.231
      -0.301
      -0.372
      -0.457
      -0.558
      -0.663
      -0.743
      -0.767
      -0.712
      -0.572
      -0.360
      -0.093
       0.214
       0.546
       0.885
       1.206
       1.482
       1.681
       1.784
       1.783
       1.688
       1.525
       1.318
       1.092
       0.857
       0.618
       0.374
       0.126
      -0.121
      -0.362
      -0.592
      -0.803
      -0.985
      -1.120
      -1.194
      -1.201
      -1.149
      -1.064
      -0.976
      -0.903
      -0.844
      -0.784
      -0.708
      -0.609
      -0.487
      -0.349
      -0.209
      -0.086
       0.000
       0.031
       0.004
      -0.065
      -0.154
      -0.243
      -0.322
      -0.384
      -0.426
      -0.446
      -0.451
      -0.450
      -0.447
      -0.443
      -0.433
      -0.422
      -0.416
      -0.423
      -0.442
      -0.461
      -0.463
      -0.434
      -0.367
      -0.263
      -0.126
       0.042
       0.231
       0.432
       0.629
       0.802
       0.941
       1.047
       1.132
       1.203
       1.253
       1.265
       1.225
       1.133
       1.005
       0.867
       0.739
       0.624
       0.511
       0.384
       0.232
       0.053
      -0.149
      -0.369
      -0.592
      -0.795
      -0.952
      -1.041
      -1.051
      -0.984
      -0.856
      -0.689
      -0.509
      -0.336
      -0.188
      -0.071
       0.016
       0.083
       0.145
       0.215
       0.303
       0.401
       0.490
       0.550
       0.569
       0.547
       0.483
       0.375
       0.225
       0.041
      -0.155
      -0.333
      -0.469
      -0.555
      -0.604
      -0.631
      -0.646
      -0.646
      -0.625
      -0.588
      -0.544
      -0.506
      -0.484
      -0.479
      -0.484
      -0.487
      -0.480
      -0.462
      -0.439
      -0.411
      -0.376
      -0.331
      -0.280
      -0.231
      -0.187
      -0.141
      -0.080
       0.008
       0.130
       0.284
       0.462
       0.654
       0.847
       1.026
       1.177
       1.282
       1.322
       1.288
       1.188
       1.052
       0.920
       0.826
       0.785
       0.790
       0.825
       0.877
       0.934
       0.983
       1.007
       0.991
       0.929
       0.826
       0.695
       0.549
       0.399
       0.257
       0.128
       0.015
      -0.088
      -0.183
      -0.265
      -0.328
      -0.372
      -0.409
      -0.457
      -0.530
      -0.626
      -0.731
      -0.827
      -0.901
      -0.955
      -1.002
      -1.050
      -1.104
      -1.154
      -1.186
      -1.193
      -1.184
      -1.173
      -1.173
      -1.190
      -1.223
      -1.269
      -1.329
      -1.409
      -1.511
      -1.629
      -1.746
      -1.831
      -1.860
      -1.813
      -1.687
      -1.483
      -1.213
      -0.894
      -0.552
      -0.207
       0.125
       0.432
       0.700
       0.914
       1.061
       1.138
       1.152
       1.119
       1.049
       0.951
       0.823
       0.664
       0.468
       0.240
      -0.006
      -0.248
      -0.462
      -0.631
      -0.748
      -0.805
      -0.793
      -0.710
      -0.561
      -0.363
      -0.139
       0.094
       0.327
       0.557
       0.786
       1.010
       1.222
       1.409
       1.565
       1.681
       1.756
       1.789
       1.786
       1.757
       1.712
       1.667
       1.629
       1.598
       1.565
       1.514
       1.434
       1.312
       1.143
       0.929
       0.675
       0.389
       0.082
      -0.227
      -0.518
      -0.781
      -1.018
      -1.238
      -1.446
      -1.639
      -1.812
      -1.964
      -2.097
      -2.210
      -2.291
      -2.328
      -2.316
      -2.267
      -2.194
      -2.102
      -1.983
      -1.833
      -1.663
      -1.494
      -1.348
      -1.231
      -1.137
      -1.058
      -0.989
      -0.936
      -0.910
      -0.916
      -0.947
      -0.988
      -1.027
      -1.059
      -1.075
      -1.069
      -1.031
      -0.951
      -0.823
      -0.639
      -0.398
      -0.101
       0.245
       0.621
       0.996
       1.336
       1.618
       1.824
       1.949
       1.990
       1.951
       1.845
       1.692
       1.516
       1.328
       1.140
       0.963
       0.816
       0.713
       0.653
       0.616
       0.586
       0.563
       0.563
       0.602
       0.681
       0.792
       0.926
       1.077
       1.243
       1.423
       1.612
       1.804
       1.984
       2.130
       2.225
       2.262
       2.253
       2.218
       2.175
       2.128
       2.073
       2.012
       1.958
       1.927
       1.920
       1.930
       1.945
       1.958
       1.965
       1.957
       1.923
       1.850
       1.732
       1.562
       1.333
       1.044
       0.706
       0.351
       0.012
      -0.294
      -0.572
      -0.838
      -1.099
      -1.346
      -1.571
      -1.772
      -1.961
      -2.146
      -2.331
      -2.509
      -2.670
      -2.809
      -2.932
      -3.054
      -3.191
      -3.351
      -3.525
      -3.692
      -3.825
      -3.899
      -3.897
      -3.809
      -3.636
      -3.393
      -3.105
      -2.801
      -2.512
      -2.258
      -2.058
      -1.923
      -1.859
      -1.857
      -1.896
      -1.942
      -1.959
      -1.915
      -1.795
      -1.595
      -1.313
      -0.947
      -0.494
       0.035
       0.621
       1.235
       1.840
       2.411
       2.939
       3.433
       3.904
       4.355
       4.772
       5.147
       5.477
       5.777
       6.061
       6.338
       6.604
       6.844
       7.034
       7.145
       7.150
       7.031
       6.780
       6.404
       5.918
       5.346
       4.719
       4.067
       3.412
       2.760
       2.113
       1.473
       0.845
       0.236
      -0.357
      -0.939
      -1.519
      -2.101
      -2.680
      -3.248
      -3.799
      -4.327
      -4.831
      -5.307
      -5.749
      -6.149
      -6.497
      -6.781
      -6.989
      -7.115
      -7.155
      -7.105
      -6.961
      -6.720
      -6.383
      -5.960
      -5.460
      -4.892
      -4.268
      -3.605
      -2.930
      -2.272
      -1.656
      -1.090
      -0.577
      -0.119
       0.277
       0.611
       0.895
       1.148
       1.388
       1.634
       1.900
       2.205
       2.560
       2.970
       3.422
       3.885
       4.327
       4.720
       5.052
       5.325
       5.545
       5.715
       5.832
       5.888
       5.878
       5.806
       5.688
       5.539
       5.373
       5.201
       5.032
       4.869
       4.713
       4.553
       4.377
       4.169
       3.920
       3.629
       3.305
       2.959
       2.598
       2.221
       1.821
       1.388
       0.911
       0.396
      -0.136
      -0.653
      -1.123
      -1.522
      -1.830
      -2.036
      -2.143
      -2.159
      -2.101
      -1.982
      -1.818
      -1.625
      -1.423
      -1.239
      -1.099
      -1.027
      -1.041
      -1.150
      -1.352
      -1.637
      -1.982
      -2.366
      -2.775
      -3.205
      -3.657
      -4.132
      -4.627
      -5.132
      -5.630
      -6.104
      -6.534
      -6.904
      -7.201
      -7.419
      -7.566
      -7.657
      -7.710
      -7.737
      -7.744
      -7.729
      -7.686
      -7.606
      -7.475
      -7.282
      -7.015
      -6.661
      -6.218
      -5.693
      -5.103
      -4.470
      -3.815
      -3.149
      -2.481
      -1.819
      -1.182
      -0.594
      -0.074
       0.374
       0.752
       1.069
       1.331
       1.543
       1.716
       1.866
       2.009
       2.165
       2.345
       2.554
       2.792
       3.056
       3.341
       3.633
       3.911
       4.152
       4.330
       4.425
       4.419
       4.302
       4.072
       3.733
       3.302
       2.804
       2.270
       1.724
       1.190
       0.691
       0.254
      -0.096
      -0.342
      -0.477
      -0.505
      -0.433
      -0.274
      -0.050
       0.212
       0.479
       0.721
       0.916
       1.052
       1.120
       1.111
       1.021
       0.856
       0.624
       0.338
       0.006
      -0.365
      -0.761
      -1.170
      -1.580
      -1.982
      -2.375
      -2.755
      -3.113
      -3.430
      -3.686
      -3.864
      -3.954
      -3.946
      -3.830
      -3.592
      -3.221
      -2.710
      -2.062
      -1.285
      -0.393
       0.593
       1.640
       2.711
       3.763
       4.757
       5.655
       6.418
       7.011
       7.414
       7.615
       7.614
       7.416
       7.026
       6.444
       5.675
       4.740
       3.685
       2.571
       1.457
       0.384
      -0.617
      -1.520
      -2.299
      -2.925
      -3.378
      -3.640
      -3.703
      -3.571
      -3.257
      -2.786
      -2.187
      -1.489
      -0.719
       0.092
       0.906
       1.683
       2.388
       3.004
       3.532
       3.985
       4.376
       4.707
       4.962
       5.111
       5.119
       4.953
       4.592
       4.028
       3.270
       2.346
       1.298
       0.179
      -0.952
      -2.040
      -3.041
      -3.924
      -4.671
      -5.266
      -5.700
      -5.969
      -6.076
      -6.024
      -5.819
      -5.473
      -5.002
      -4.427
      -3.770
      -3.059
      -2.324
      -1.604
      -0.934
      -0.337
       0.183
       0.636
       1.033
       1.380
       1.683
       1.947
       2.182
       2.394
       2.596
       2.806
       3.045
       3.326
       3.642
       3.973
       4.298
       4.601
       4.876
       5.112
       5.297
       5.419
       5.478
       5.478
       5.423
       5.311
       5.131
       4.873
       4.531
       4.105
       3.604
       3.043
       2.448
       1.843
       1.254
       0.702
       0.201
      -0.239
      -0.616
      -0.931
      -1.197
      -1.427
      -1.636
      -1.823
      -1.986
      -2.121
      -2.236
      -2.349
      -2.475
      -2.622
      -2.791
      -2.976
      -3.173
      -3.377
      -3.581
      -3.765
      -3.903
      -3.970
      -3.960
      -3.884
      -3.763
      -3.613
      -3.435
      -3.219
      -2.951
      -2.630
      -2.269
      -1.884
      -1.484
      -1.071
      -0.641
      -0.195
       0.259
       0.713
       1.163
       1.616
       2.081
       2.557
       3.026
       3.462
       3.840
       4.143
       4.366
       4.515
       4.602
       4.642
       4.645
       4.622
       4.578
       4.515
       4.436
       4.344
       4.244
       4.142
       4.032
       3.907
       3.763
       3.602
       3.429
       3.248
       3.060
       2.860
       2.647
       2.425
       2.205
       1.992
       1.787
       1.592
       1.415
       1.270
       1.161
       1.079
       1.001
       0.898
       0.742
       0.514
       0.205
      -0.175
      -0.605
      -1.060
      -1.522
      -1.980
      -2.429
      -2.864
      -3.277
      -3.659
      -4.007
      -4.328
      -4.630
      -4.920
      -5.200
      -5.476
      -5.757
      -6.064
      -6.418
      -6.835
      -7.316
      -7.844
      -8.398
      -8.965
      -9.543
     -10.127
     -10.705
     -11.244
     -11.703
     -12.042
     -12.234
     -12.268
     -12.137
     -11.835
     -11.354
     -10.683
      -9.818
      -8.759
      -7.520
      -6.125
      -4.604
      -2.997
      -1.354
       0.265
       1.801
       3.206
       4.446
       5.499
       6.358
       7.022
       7.497
       7.791
       7.906
       7.846
       7.620
       7.242
       6.740
       6.146
       5.499
       4.840
       4.208
       3.643
       3.181
       2.850
       2.666
       2.636
       2.756
       3.010
       3.371
       3.800
       4.251
       4.680
       5.050
       5.343
       5.556
       5.694
       5.760
       5.759
       5.691
       5.556
       5.351
       5.075
       4.728
       4.315
       3.847
       3.341
       2.819
       2.295
       1.775
       1.261
       0.752
       0.250
      -0.240
      -0.715
      -1.174
      -1.624
      -2.072
      -2.516
      -2.944
      -3.334
      -3.661
      -3.897
      -4.014
      -3.985
      -3.796
      -3.447
      -2.951
      -2.330
      -1.605
      -0.790
       0.101
       1.044
       2.000
       2.911
       3.720
       4.381
       4.869
       5.181
       5.323
       5.300
       5.113
       4.764
       4.264
       3.638
       2.928
       2.183
       1.447
       0.763
       0.159
      -0.346
      -0.747
      -1.047
      -1.247
      -1.340
      -1.314
      -1.167
      -0.913
      -0.588
      -0.234
       0.104
       0.385
       0.567
       0.619
       0.530
       0.310
      -0.013
      -0.403
      -0.819
      -1.220
      -1.561
      -1.801
      -1.905
      -1.861
      -1.684
      -1.410
      -1.080
      -0.725
      -0.366
      -0.023
       0.286
       0.541
       0.731
       0.858
       0.929
       0.951
       0.928
       0.863
       0.768
       0.664
       0.580
       0.538
       0.545
       0.589
       0.645
       0.692
       0.721
       0.727
       0.707
       0.654
       0.559
       0.416
       0.224
      -0.014
      -0.294
      -0.606
      -0.937
      -1.279
      -1.630
      -1.997
      -2.387
      -2.791
      -3.183
      -3.524
      -3.786
      -3.963
      -4.077
      -4.163
      -4.255
      -4.371
      -4.510
      -4.656
      -4.786
      -4.882
      -4.929
      -4.917
      -4.840
      -4.682
      -4.427
      -4.067
      -3.611
      -3.083
      -2.511
      -1.908
      -1.280
      -0.621
       0.074
       0.811
       1.590
       2.402
       3.225
       4.034
       4.812
       5.548
       6.237
       6.865
       7.403
       7.817
       8.085
       8.200
       8.163
       7.972
       7.621
       7.115
       6.477
       5.751
       4.990
       4.240
       3.526
       2.861
       2.256
       1.724
       1.283
       0.946
       0.716
       0.586
       0.544
       0.570
       0.649
       0.770
       0.926
       1.120
       1.352
       1.619
       1.901
       2.165
       2.371
       2.489
       2.501
       2.398
       2.176
       1.839
       1.391
       0.845
       0.222
      -0.450
      -1.146
      -1.848
      -2.552
      -3.255
      -3.943
      -4.592
      -5.170
      -5.647
      -6.009
      -6.252
      -6.374
      -6.366
      -6.220
      -5.943
      -5.560
      -5.111
      -4.632
      -4.147
      -3.668
      -3.204
      -2.768
      -2.382
      -2.057
      -1.794
      -1.578
      -1.391
      -1.219
      -1.053
      -0.889
      -0.730
      -0.581
      -0.454
      -0.352
      -0.270
      -0.191
      -0.093
       0.038
       0.202
       0.376
       0.537
       0.667
       0.765
       0.841
       0.906
       0.957
       0.983
       0.972
       0.923
       0.846
       0.754
       0.654
       0.553
       0.457
       0.378
       0.329
       0.322
       0.362
       0.442
       0.547
       0.670
       0.818
       1.009
       1.254
       1.545
       1.855
       2.149
       2.397
       2.588
       2.718
       2.781
       2.756
       2.626
       2.383
       2.029
       1.578
       1.048
       0.467
      -0.140
      -0.746
      -1.339
      -1.911
      -2.454
      -2.952
      -3.376
      -3.690
      -3.857
      -3.852
      -3.660
      -3.279
      -2.716
      -1.997
      -1.165
      -0.284
       0.572
       1.325
       1.912
       2.293
       2.454
       2.409
       2.189
       1.835
       1.384
       0.865
       0.297
      -0.307
      -0.931
      -1.555
      -2.147
      -2.670
      -3.097
      -3.414
      -3.625
      -3.746
      -3.795
      -3.792
      -3.759
      -3.712
      -3.657
      -3.593
      -3.513
      -3.414
      -3.296
      -3.159
      -2.999
      -2.807
      -2.577
      -2.310
      -2.021
      -1.730
      -1.455
      -1.208
      -0.994
      -0.817
      -0.675
      -0.568
      -0.490
      -0.438
      -0.403
      -0.377
      -0.344
      -0.273
      -0.123
       0.140
       0.534
       1.052
       1.674
       2.369
       3.092
       3.785
       4.390
       4.855
       5.148
       5.249
       5.148
       4.847
       4.363
       3.727
       2.984
       2.177
       1.346
       0.525
      -0.244
      -0.923
      -1.476
      -1.881
      -2.128
      -2.217
      -2.154
      -1.950
      -1.625
      -1.213
      -0.756
      -0.304
       0.100
       0.428
       0.666
       0.806
       0.844
       0.784
       0.647
       0.477
       0.335
       0.275
       0.328
       0.493
       0.757
       1.112
       1.558
       2.087
       2.665
       3.227
       3.703
       4.034
       4.195
       4.177
       3.981
       3.610
       3.075
       2.406
       1.647
       0.850
       0.060
      -0.686
      -1.363
      -1.951
      -2.430
      -2.776
      -2.971
      -3.013
      -2.919
