Origin Time       21/9/2009 8:53:04	 
Lat.              27.3 N	
Long.             91.5 E	
Depth (Km)          8.0
Magnitude         6.2
 Region           BHUTAN                                                           
 Above details taken from IMD 
   
Station Code      SLG
Station Lat.       26.712
Station Long.      88.428
Station Height(m)  131.0
Site Class        C   Vs30 between 200 m/sec to 375 m/sec *  
Record Time       21.09.2009 08:54:20.449
Sampling Rate     200. Hz
 Record Duration   74.745 Sec.
 Direction         Vert. (Up positive)
Max. Acceleration      5.892 cm/sec**2
     
  * For reference see Site Classification link of website 
     
 Base Line Corrected and Low Pass Filtered (Cut Off at 35 Hz) Time History
 Acceleration data in cm/sec**2
    
[...]
      -0.048
       0.060
       0.174
       0.264
       0.303
       0.277
       0.181
       0.029
      -0.155
      -0.347
      -0.528
      -0.681
      -0.784
      -0.815
      -0.764
      -0.642
      -0.481
      -0.318
      -0.181
      -0.075
       0.004
       0.059
       0.078
       0.040
      -0.067
      -0.232
      -0.419
      -0.574
      -0.639
      -0.578
      -0.383
      -0.089
       0.238
       0.522
       0.697
       0.730
       0.620
       0.398
       0.121
      -0.141
      -0.328
      -0.404
      -0.367
      -0.239
      -0.058
       0.136
       0.308
       0.437
       0.509
       0.523
       0.484
       0.406
       0.311
       0.225
       0.169
       0.145
       0.133
       0.097
       0.008
      -0.133
      -0.298
      -0.448
      -0.557
      -0.611
      -0.598
      -0.503
      -0.310
      -0.024
       0.322
       0.661
       0.913
       1.017
       0.951
       0.742
       0.457
       0.173
      -0.039
      -0.146
      -0.152
      -0.094
      -0.020
       0.027
       0.018
      -0.063
      -0.205
      -0.372
      -0.510
      -0.565
      -0.506
      -0.338
      -0.100
       0.150
       0.352
       0.460
       0.451
       0.332
       0.128
      -0.118
      -0.365
      -0.577
      -0.726
      -0.802
      -0.817
      -0.798
      -0.774
      -0.751
      -0.703
      -0.593
      -0.394
      -0.122
       0.173
       0.422
       0.575
       0.616
       0.567
       0.469
       0.367
       0.295
       0.262
       0.255
       0.243
       0.198
       0.115
       0.006
      -0.117
      -0.262
      -0.448
      -0.676
      -0.912
      -1.091
      -1.149
      -1.051
      -0.800
      -0.437
      -0.027
       0.359
       0.666
       0.867
       0.964
       0.983
       0.956
       0.906
       0.829
       0.700
       0.489
       0.191
      -0.163
      -0.513
      -0.792
      -0.952
      -0.975
      -0.879
      -0.702
      -0.488
      -0.278
      -0.102
       0.021
       0.083
       0.098
       0.090
       0.087
       0.110
       0.167
       0.253
       0.356
       0.461
       0.549
       0.598
       0.590
       0.524
       0.415
       0.294
       0.197
       0.157
       0.193
       0.295
       0.428
       0.544
       0.600
       0.579
       0.489
       0.355
       0.212
       0.091
       0.008
      -0.039
      -0.065
      -0.091
      -0.132
      -0.184
      -0.223
      -0.220
      -0.164
      -0.068
       0.033
       0.101
       0.115
       0.080
       0.022
      -0.026
      -0.036
       0.004
       0.084
       0.183
       0.279
       0.356
       0.400
       0.391
       0.305
       0.126
      -0.136
      -0.437
      -0.715
      -0.906
      -0.965
      -0.881
      -0.681
      -0.424
      -0.175
       0.011
       0.115
       0.157
       0.179
       0.218
       0.285
       0.365
       0.427
       0.443
       0.404
       0.319
       0.201
       0.067
      -0.067
      -0.176
      -0.237
      -0.234
      -0.182
      -0.120
      -0.094
      -0.135
      -0.243
      -0.398
      -0.570
      -0.728
      -0.840
      -0.879
      -0.821
      -0.655
      -0.395
      -0.082
       0.213
       0.414
       0.471
       0.387
       0.212
       0.021
      -0.127
      -0.210
      -0.240
      -0.247
      -0.260
      -0.292
      -0.324
      -0.319
      -0.247
      -0.101
       0.082
       0.252
       0.364
       0.399
       0.360
       0.257
       0.105
      -0.080
      -0.274
      -0.449
      -0.584
      -0.671
      -0.716
      -0.736
      -0.740
      -0.728
      -0.687
      -0.602
      -0.468
      -0.289
      -0.078
       0.142
       0.343
       0.484
       0.532
       0.479
       0.355
       0.216
       0.119
       0.090
       0.123
       0.186
       0.243
       0.273
       0.282
       0.302
       0.363
       0.482
       0.647
       0.825
       0.970
       1.038
       0.999
       0.846
       0.606
       0.334
       0.096
      -0.054
      -0.092
      -0.024
       0.121
       0.313
       0.521
       0.715
       0.860
       0.916
       0.864
       0.716
       0.517
       0.318
       0.149
       0.010
      -0.111
      -0.213
      -0.271
      -0.248
      -0.127
       0.081
       0.338
       0.587
       0.775
       0.856
       0.804
       0.620
       0.341
       0.022
      -0.276
      -0.514
      -0.671
      -0.743
      -0.725
      -0.619
      -0.439
      -0.220
      -0.006
       0.161
       0.255
       0.275
       0.229
       0.138
       0.031
      -0.054
      -0.088
      -0.065
      -0.003
       0.060
       0.093
       0.072
      -0.010
      -0.149
      -0.326
      -0.513
      -0.677
      -0.788
      -0.826
      -0.778
      -0.647
      -0.450
      -0.219
       0.019
       0.246
       0.450
       0.619
       0.729
       0.752
       0.668
       0.482
       0.226
      -0.049
      -0.284
      -0.430
      -0.462
      -0.392
      -0.258
      -0.112
       0.009
       0.095
       0.149
       0.164
       0.111
      -0.039
      -0.289
      -0.590
      -0.863
      -1.022
      -1.014
      -0.835
      -0.530
      -0.173
       0.163
       0.435
       0.639
       0.803
       0.947
       1.061
       1.108
       1.053
       0.892
       0.655
       0.389
       0.131
      -0.103
      -0.318
      -0.527
      -0.744
      -0.965
      -1.158
      -1.272
      -1.256
      -1.093
      -0.805
      -0.440
      -0.052
       0.306
       0.583
       0.732
       0.723
       0.564
       0.299
      -0.001
      -0.261
      -0.419
      -0.441
      -0.324
      -0.101
       0.172
       0.428
       0.602
       0.654
       0.575
       0.392
       0.159
      -0.057
      -0.200
      -0.246
      -0.210
      -0.144
      -0.101
      -0.112
      -0.180
      -0.291
      -0.424
      -0.559
      -0.680
      -0.766
      -0.801
      -0.778
      -0.703
      -0.592
      -0.459
      -0.316
      -0.170
      -0.026
       0.109
       0.234
       0.341
       0.422
       0.469
       0.477
       0.448
       0.381
       0.267
       0.099
      -0.129
      -0.412
      -0.726
      -1.030
      -1.278
      -1.423
      -1.442
      -1.336
      -1.141
      -0.919
      -0.732
      -0.608
      -0.524
      -0.424
      -0.254
       0.002
       0.314
       0.629
       0.893
       1.072
       1.160
       1.169
       1.122
       1.043
       0.945
       0.830
       0.695
       0.547
       0.414
       0.337
       0.347
       0.436
       0.550
       0.614
       0.583
       0.469
       0.325
       0.209
       0.150
       0.144
       0.167
       0.184
       0.158
       0.069
      -0.074
      -0.231
      -0.351
      -0.391
      -0.337
      -0.204
      -0.026
       0.154
       0.299
       0.375
       0.366
       0.284
       0.169
       0.069
       0.016
       0.013
       0.034
       0.049
       0.032
      -0.029
      -0.138
      -0.281
      -0.422
      -0.512
      -0.518
      -0.448
      -0.350
      -0.280
      -0.274
      -0.331
      -0.428
      -0.539
      -0.634
      -0.678
      -0.638
      -0.495
      -0.257
       0.040
       0.342
       0.591
       0.732
       0.729
       0.575
       0.302
      -0.032
      -0.353
      -0.593
      -0.700
      -0.651
      -0.461
      -0.184
       0.102
       0.325
       0.449
       0.476
       0.437
       0.365
       0.287
       0.227
       0.204
       0.230
       0.298
       0.382
       0.463
       0.532
       0.581
       0.593
       0.540
       0.402
       0.181
      -0.096
      -0.390
      -0.661
      -0.873
      -1.005
      -1.057
      -1.048
      -1.010
      -0.967
      -0.930
      -0.889
      -0.818
      -0.689
      -0.484
      -0.212
       0.100
       0.410
       0.681
       0.883
       1.000
       1.022
       0.954
       0.813
       0.633
       0.458
       0.323
       0.244
       0.215
       0.211
       0.207
       0.195
       0.193
       0.233
       0.338
       0.501
       0.702
       0.917
       1.135
       1.349
       1.536
       1.656
       1.660
       1.503
       1.176
       0.710
       0.187
      -0.294
      -0.653
      -0.867
      -0.964
      -0.999
      -1.010
      -1.007
      -0.974
      -0.895
      -0.770
      -0.615
      -0.456
      -0.314
      -0.193
      -0.086
       0.018
       0.132
       0.264
       0.410
       0.562
       0.704
       0.825
       0.922
       0.992
       1.029
       1.015
       0.927
       0.747
       0.477
       0.145
      -0.195
      -0.479
      -0.658
      -0.711
      -0.646
      -0.499
      -0.317
      -0.155
      -0.059
      -0.059
      -0.150
      -0.298
      -0.456
      -0.585
      -0.662
      -0.669
      -0.591
      -0.414
      -0.145
       0.181
       0.503
       0.757
       0.902
       0.929
       0.858
       0.727
       0.576
       0.436
       0.314
       0.189
       0.025
      -0.206
      -0.504
      -0.838
      -1.158
      -1.415
      -1.567
      -1.584
      -1.453
      -1.177
      -0.783
      -0.326
       0.116
       0.459
       0.638
       0.627
       0.455
       0.191
      -0.069
      -0.238
      -0.262
      -0.146
       0.049
       0.229
       0.299
       0.197
      -0.091
      -0.519
      -1.004
      -1.449
      -1.777
      -1.948
      -1.961
      -1.848
      -1.654
      -1.424
      -1.181
      -0.925
      -0.636
      -0.287
       0.133
       0.615
       1.122
       1.591
       1.952
       2.145
       2.141
       1.946
       1.600
       1.157
       0.676
       0.213
      -0.180
      -0.457
      -0.588
      -0.575
      -0.454
      -0.284
      -0.120
       0.003
       0.075
       0.103
       0.102
       0.090
       0.085
       0.101
       0.138
       0.183
       0.215
       0.220
       0.199
       0.180
       0.206
       0.314
       0.507
       0.747
       0.968
       1.111
       1.153
       1.106
       0.997
       0.841
       0.644
       0.412
       0.159
      -0.086
      -0.297
      -0.455
      -0.555
      -0.591
      -0.556
      -0.447
      -0.268
      -0.033
       0.245
       0.556
       0.890
       1.225
       1.522
       1.736
       1.831
       1.790
       1.627
       1.379
       1.091
       0.804
       0.535
       0.276
       0.015
      -0.253
      -0.521
      -0.785
      -1.053
      -1.338
      -1.644
      -1.959
      -2.258
      -2.515
      -2.710
      -2.819
      -2.820
      -2.694
      -2.437
      -2.068
      -1.629
      -1.191
      -0.830
      -0.611
      -0.559
      -0.653
      -0.825
      -0.989
      -1.061
      -0.988
      -0.764
      -0.425
      -0.045
       0.290
       0.512
       0.593
       0.550
       0.436
       0.319
       0.260
       0.299
       0.449
       0.696
       0.997
       1.292
       1.521
       1.635
       1.620
       1.506
       1.355
       1.231
       1.171
       1.176
       1.220
       1.270
       1.297
       1.272
       1.169
       0.973
       0.695
       0.390
       0.138
       0.009
       0.026
       0.154
       0.316
       0.424
       0.413
       0.252
      -0.048
      -0.432
      -0.819
      -1.127
      -1.299
      -1.333
      -1.270
      -1.175
      -1.112
      -1.126
      -1.239
      -1.440
      -1.684
      -1.904
      -2.030
      -2.016
      -1.855
      -1.583
      -1.260
      -0.939
      -0.651
      -0.398
      -0.167
       0.052
       0.266
       0.475
       0.678
       0.868
       1.037
       1.166
       1.233
       1.220
       1.119
       0.942
       0.717
       0.484
       0.285
       0.153
       0.097
       0.102
       0.136
       0.166
       0.177
       0.180
       0.208
       0.295
       0.451
       0.654
       0.856
       1.009
       1.089
       1.096
       1.049
       0.967
       0.861
       0.744
       0.628
       0.519
       0.414
       0.295
       0.150
      -0.017
      -0.181
      -0.305
      -0.363
      -0.352
      -0.308
      -0.281
      -0.320
      -0.455
      -0.682
      -0.968
      -1.253
      -1.466
      -1.542
      -1.449
      -1.204
      -0.866
      -0.519
      -0.241
      -0.085
      -0.060
      -0.130
      -0.234
      -0.314
      -0.330
      -0.265
      -0.118
       0.104
       0.382
       0.682
       0.961
       1.177
       1.302
       1.327
       1.261
       1.135
       0.997
       0.900
       0.890
       0.994
       1.201
       1.461
       1.695
       1.831
       1.837
       1.721
       1.519
       1.267
       0.987
       0.693
       0.394
       0.105
      -0.166
      -0.427
      -0.695
      -0.987
      -1.297
      -1.595
      -1.850
      -2.040
      -2.159
      -2.201
      -2.154
      -2.005
      -1.755
      -1.428
      -1.068
      -0.720
      -0.416
      -0.178
      -0.015
       0.075
       0.106
       0.099
       0.070
       0.021
      -0.058
      -0.177
      -0.338
      -0.535
      -0.754
      -0.989
      -1.232
      -1.471
      -1.694
      -1.882
      -2.014
      -2.067
      -2.011
      -1.817
      -1.469
      -0.966
      -0.320
       0.450
       1.316
       2.244
       3.190
       4.093
       4.875
       5.462
       5.804
       5.892
       5.751
       5.423
       4.939
       4.310
       3.539
       2.632
       1.620
       0.562
      -0.465
      -1.384
      -2.137
      -2.697
      -3.073
      -3.302
      -3.437
      -3.524
      -3.579
      -3.590
      -3.524
      -3.347
      -3.036
      -2.598
      -2.073
      -1.528
      -1.048
      -0.705
      -0.555
      -0.617
      -0.871
      -1.255
      -1.679
      -2.052
      -2.314
      -2.453
      -2.490
      -2.458
      -2.390
      -2.320
      -2.285
      -2.317
      -2.420
      -2.549
      -2.616
      -2.520
      -2.193
      -1.635
      -0.914
      -0.136
       0.605
       1.256
       1.813
       2.298
       2.735
       3.124
       3.452
       3.694
       3.828
       3.834
       3.701
       3.438
       3.075
       2.664
       2.264
       1.921
       1.656
       1.467
       1.341
       1.255
       1.184
       1.095
       0.958
       0.757
       0.491
       0.175
      -0.173
      -0.530
      -0.873
      -1.177
      -1.408
      -1.527
      -1.507
      -1.355
      -1.122
      -0.893
      -0.753
      -0.753
      -0.890
      -1.104
      -1.305
      -1.414
      -1.394
      -1.245
      -0.990
      -0.652
      -0.256
       0.168
       0.578
       0.929
       1.175
       1.283
       1.246
       1.087
       0.851
       0.581
       0.309
       0.052
      -0.169
      -0.328
      -0.391
      -0.338
      -0.168
       0.104
       0.448
       0.831
       1.219
       1.575
       1.861
       2.044
       2.108
       2.061
       1.942
       1.806
       1.699
       1.638
       1.598
       1.524
       1.356
       1.057
       0.627
       0.096
      -0.488
      -1.079
      -1.630
      -2.093
      -2.420
      -2.573
      -2.533
      -2.307
      -1.923
      -1.432
      -0.905
      -0.421
      -0.053
       0.162
       0.231
       0.203
       0.140
       0.087
       0.045
      -0.012
      -0.112
      -0.248
      -0.370
      -0.411
      -0.326
      -0.133
       0.103
       0.299
       0.394
       0.368
       0.236
       0.032
      -0.204
      -0.431
      -0.614
      -0.733
      -0.788
      -0.805
      -0.823
      -0.877
      -0.982
      -1.128
      -1.297
      -1.474
      -1.650
      -1.811
      -1.917
      -1.910
      -1.729
      -1.340
      -0.754
      -0.032
       0.730
       1.418
       1.933
       2.217
       2.263
       2.110
       1.820
       1.462
       1.094
       0.762
       0.500
       0.337
       0.292
       0.360
       0.497
       0.632
       0.688
       0.622
       0.450
       0.240
       0.073
       0.018
       0.105
       0.322
       0.613
       0.892
       1.064
       1.057
       0.847
       0.464
      -0.028
      -0.564
      -1.101
      -1.624
      -2.127
      -2.594
      -2.985
      -3.249
      -3.339
      -3.234
      -2.948
      -2.526
      -2.023
      -1.481
      -0.917
      -0.319
       0.335
       1.065
       1.865
       2.699
       3.497
       4.162
       4.594
       4.712
       4.490
       3.977
       3.282
       2.531
       1.819
       1.184
       0.617
       0.088
      -0.427
      -0.933
      -1.411
      -1.817
      -2.102
      -2.218
      -2.143
      -1.883
      -1.465
      -0.923
      -0.294
       0.380
       1.042
       1.627
       2.082
       2.383
       2.536
       2.567
       2.504
       2.364
       2.158
       1.899
       1.605
       1.292
       0.974
       0.658
       0.359
       0.100
      -0.093
      -0.205
      -0.243
      -0.228
      -0.187
      -0.145
      -0.121
      -0.136
      -0.201
      -0.307
      -0.423
      -0.511
      -0.557
      -0.587
      -0.666
      -0.860
      -1.209
      -1.693
      -2.240
      -2.747
      -3.119
      -3.293
      -3.262
      -3.060
      -2.748
      -2.384
      -2.003
      -1.618
      -1.227
      -0.834
      -0.444
      -0.064
       0.292
       0.596
       0.803
       0.877
       0.813
       0.654
       0.463
       0.296
       0.162
       0.033
      -0.134
      -0.363
      -0.636
      -0.906
      -1.109
      -1.193
      -1.140
      -0.969
      -0.735
      -0.498
      -0.296
      -0.130
       0.032
       0.234
       0.503
       0.844
       1.236
       1.647
       2.037
       2.369
       2.614
       2.761
       2.813
       2.787
       2.702
       2.562
       2.361
       2.075
       1.683
       1.174
       0.566
      -0.094
      -0.742
      -1.317
      -1.789
      -2.165
      -2.469
      -2.711
      -2.865
      -2.883
      -2.737
      -2.439
      -2.049
      -1.642
      -1.266
      -0.927
      -0.605
      -0.284
       0.023
       0.282
       0.464
       0.564
       0.609
       0.627
       0.625
       0.577
       0.432
       0.145
      -0.301
      -0.888
      -1.561
      -2.242
      -2.834
      -3.251
      -3.432
      -3.362
      -3.066
      -2.592
      -1.983
      -1.272
      -0.487
       0.322
       1.086
       1.740
       2.244
       2.602
       2.855
       3.044
       3.193
       3.289
       3.294
       3.172
       2.901
       2.485
       1.955
       1.366
       0.797
       0.322
      -0.008
      -0.187
      -0.241
      -0.212
      -0.132
      -0.015
       0.132
       0.292
       0.449
       0.603
       0.784
       1.040
       1.389
       1.794
       2.162
       2.385
       2.381
       2.125
       1.644
       1.005
       0.289
      -0.416
      -1.031
      -1.493
      -1.774
      -1.882
      -1.855
      -1.742
      -1.578
      -1.388
      -1.190
      -0.999
      -0.816
      -0.620
      -0.373
      -0.053
       0.328
       0.727
       1.092
       1.392
       1.626
