Origin Time       21/9/2009 8:53:04	 
Lat.              27.3 N	
Long.             91.5 E	
Depth (Km)          8.0
Magnitude         6.2
 Region           BHUTAN                                                           
 Above details taken from IMD 
     
Station Code      SLG
Station Lat.       26.712  N
Station Long.      88.428  E
Station Height(m)  131.0
Site Class        C   Vs30 between 200 m/sec to 375 m/sec *  
Record Time       21.09.2009 08:54:20.449
Sampling Rate     200. Hz
 Record Duration   74.745 Sec.
 Direction         E-W (E positive)
Max. Acceleration    -11.146 cm/sec**2
     
  * For reference see Site Classification link of website 
     
 Base Line Corrected and Low Pass Filtered (Cut Off at 35 Hz) Time History
 Acceleration data in cm/sec**2
    
[...]
       0.512
       0.407
       0.290
       0.177
       0.078
      -0.007
      -0.079
      -0.139
      -0.189
      -0.234
      -0.279
      -0.321
      -0.345
      -0.336
      -0.285
      -0.199
      -0.090
       0.031
       0.150
       0.256
       0.334
       0.373
       0.374
       0.352
       0.326
       0.307
       0.288
       0.253
       0.190
       0.097
      -0.024
      -0.162
      -0.304
      -0.438
      -0.552
      -0.642
      -0.708
      -0.753
      -0.787
      -0.818
      -0.847
      -0.871
      -0.878
      -0.857
      -0.800
      -0.702
      -0.566
      -0.400
      -0.217
      -0.041
       0.103
       0.199
       0.247
       0.260
       0.253
       0.239
       0.225
       0.216
       0.212
       0.210
       0.199
       0.167
       0.105
       0.014
      -0.091
      -0.187
      -0.253
      -0.280
      -0.266
      -0.216
      -0.137
      -0.037
       0.079
       0.211
       0.357
       0.510
       0.657
       0.781
       0.873
       0.937
       0.989
       1.045
       1.099
       1.130
       1.112
       1.028
       0.881
       0.688
       0.473
       0.257
       0.047
      -0.161
      -0.371
      -0.581
      -0.770
      -0.916
      -0.999
      -1.015
      -0.974
      -0.885
      -0.753
      -0.579
      -0.364
      -0.126
       0.114
       0.339
       0.537
       0.707
       0.845
       0.948
       1.008
       1.020
       0.987
       0.922
       0.844
       0.766
       0.690
       0.613
       0.535
       0.454
       0.367
       0.266
       0.145
       0.003
      -0.149
      -0.293
      -0.409
      -0.484
      -0.521
      -0.529
      -0.518
      -0.500
      -0.477
      -0.448
      -0.414
      -0.379
      -0.356
      -0.354
      -0.378
      -0.424
      -0.480
      -0.531
      -0.560
      -0.558
      -0.523
      -0.454
      -0.354
      -0.230
      -0.098
       0.022
       0.119
       0.187
       0.226
       0.237
       0.216
       0.161
       0.080
      -0.007
      -0.076
      -0.105
      -0.091
      -0.036
       0.057
       0.181
       0.327
       0.477
       0.612
       0.714
       0.774
       0.795
       0.783
       0.742
       0.668
       0.559
       0.427
       0.302
       0.211
       0.168
       0.164
       0.178
       0.188
       0.184
       0.165
       0.135
       0.104
       0.081
       0.069
       0.060
       0.039
      -0.001
      -0.057
      -0.111
      -0.147
      -0.152
      -0.121
      -0.053
       0.046
       0.169
       0.300
       0.418
       0.499
       0.524
       0.490
       0.409
       0.300
       0.186
       0.088
       0.015
      -0.031
      -0.055
      -0.063
      -0.062
      -0.062
      -0.078
      -0.125
      -0.211
      -0.328
      -0.456
      -0.570
      -0.654
      -0.707
      -0.735
      -0.742
      -0.724
      -0.674
      -0.590
      -0.473
      -0.333
      -0.178
      -0.020
       0.134
       0.273
       0.384
       0.450
       0.460
       0.411
       0.304
       0.151
      -0.031
      -0.217
      -0.385
      -0.520
      -0.614
      -0.669
      -0.691
      -0.695
      -0.699
      -0.718
      -0.759
      -0.820
      -0.886
      -0.936
      -0.947
      -0.909
      -0.825
      -0.707
      -0.573
      -0.442
      -0.321
      -0.208
      -0.093
       0.037
       0.187
       0.359
       0.549
       0.745
       0.933
       1.100
       1.236
       1.337
       1.405
       1.443
       1.451
       1.421
       1.348
       1.228
       1.065
       0.860
       0.612
       0.322
      -0.004
      -0.356
      -0.720
      -1.078
      -1.407
      -1.679
      -1.868
      -1.953
      -1.930
      -1.811
      -1.620
      -1.381
      -1.111
      -0.828
      -0.549
      -0.292
      -0.068
       0.115
       0.253
       0.345
       0.394
       0.401
       0.372
       0.319
       0.259
       0.207
       0.167
       0.141
       0.128
       0.123
       0.122
       0.119
       0.118
       0.121
       0.131
       0.147
       0.169
       0.199
       0.233
       0.268
       0.298
       0.317
       0.316
       0.285
       0.219
       0.121
      -0.001
      -0.132
      -0.256
      -0.358
      -0.425
      -0.451
      -0.436
      -0.388
      -0.319
      -0.239
      -0.149
      -0.050
       0.050
       0.132
       0.183
       0.199
       0.187
       0.158
       0.121
       0.075
       0.022
      -0.026
      -0.045
      -0.007
       0.098
       0.257
       0.439
       0.606
       0.731
       0.803
       0.822
       0.799
       0.742
       0.653
       0.537
       0.403
       0.262
       0.127
       0.014
      -0.063
      -0.094
      -0.077
      -0.020
       0.063
       0.147
       0.209
       0.235
       0.223
       0.179
       0.109
       0.020
      -0.075
      -0.160
      -0.215
      -0.230
      -0.207
      -0.162
      -0.122
      -0.105
      -0.112
      -0.133
      -0.154
      -0.169
      -0.180
      -0.195
      -0.220
      -0.256
      -0.300
      -0.349
      -0.399
      -0.448
      -0.486
      -0.502
      -0.490
      -0.446
      -0.369
      -0.270
      -0.168
      -0.085
      -0.036
      -0.021
      -0.030
      -0.044
      -0.048
      -0.030
       0.012
       0.073
       0.153
       0.248
       0.350
       0.441
       0.505
       0.535
       0.533
       0.509
       0.470
       0.419
       0.348
       0.257
       0.150
       0.036
      -0.080
      -0.194
      -0.304
      -0.406
      -0.498
      -0.579
      -0.648
      -0.696
      -0.708
      -0.674
      -0.586
      -0.449
      -0.281
      -0.109
       0.046
       0.166
       0.249
       0.296
       0.315
       0.313
       0.301
       0.292
       0.297
       0.330
       0.389
       0.466
       0.540
       0.591
       0.603
       0.569
       0.495
       0.400
       0.308
       0.242
       0.217
       0.240
       0.309
       0.409
       0.525
       0.641
       0.748
       0.839
       0.906
       0.942
       0.939
       0.892
       0.801
       0.670
       0.507
       0.320
       0.119
      -0.085
      -0.287
      -0.491
      -0.702
      -0.918
      -1.119
      -1.281
      -1.389
      -1.437
      -1.433
      -1.386
      -1.301
      -1.176
      -1.013
      -0.825
      -0.637
      -0.476
      -0.366
      -0.315
      -0.315
      -0.337
      -0.349
      -0.329
      -0.272
      -0.179
      -0.055
       0.094
       0.257
       0.416
       0.552
       0.650
       0.702
       0.711
       0.686
       0.636
       0.572
       0.499
       0.426
       0.363
       0.312
       0.272
       0.237
       0.205
       0.186
       0.207
       0.291
       0.441
       0.639
       0.855
       1.065
       1.260
       1.435
       1.585
       1.699
       1.765
       1.777
       1.742
       1.673
       1.580
       1.468
       1.341
       1.206
       1.073
       0.952
       0.849
       0.769
       0.714
       0.685
       0.681
       0.699
       0.737
       0.785
       0.834
       0.873
       0.894
       0.897
       0.883
       0.854
       0.811
       0.752
       0.679
       0.599
       0.521
       0.445
       0.359
       0.252
       0.117
      -0.049
      -0.240
      -0.449
      -0.664
      -0.873
      -1.066
      -1.238
      -1.390
      -1.531
      -1.668
      -1.801
      -1.923
      -2.028
      -2.109
      -2.158
      -2.162
      -2.113
      -2.007
      -1.853
      -1.667
      -1.467
      -1.269
      -1.089
      -0.945
      -0.851
      -0.815
      -0.823
      -0.849
      -0.867
      -0.859
      -0.825
      -0.772
      -0.717
      -0.675
      -0.654
      -0.654
      -0.670
      -0.699
      -0.743
      -0.807
      -0.893
      -1.000
      -1.117
      -1.227
      -1.317
      -1.379
      -1.413
      -1.427
      -1.424
      -1.403
      -1.353
      -1.261
      -1.128
      -0.968
      -0.806
      -0.658
      -0.529
      -0.414
      -0.299
      -0.168
      -0.010
       0.175
       0.378
       0.592
       0.808
       1.019
       1.214
       1.390
       1.551
       1.706
       1.864
       2.028
       2.194
       2.354
       2.501
       2.630
       2.733
       2.796
       2.803
       2.745
       2.622
       2.438
       2.207
       1.948
       1.682
       1.430
       1.209
       1.034
       0.910
       0.828
       0.766
       0.704
       0.628
       0.534
       0.429
       0.320
       0.220
       0.134
       0.064
       0.011
      -0.022
      -0.031
      -0.019
       0.013
       0.056
       0.099
       0.132
       0.148
       0.144
       0.119
       0.076
       0.019
      -0.047
      -0.130
      -0.246
      -0.408
      -0.617
      -0.858
      -1.106
      -1.334
      -1.522
      -1.656
      -1.739
      -1.780
      -1.793
      -1.789
      -1.772
      -1.739
      -1.686
      -1.614
      -1.527
      -1.429
      -1.319
      -1.193
      -1.049
      -0.879
      -0.678
      -0.445
      -0.189
       0.067
       0.300
       0.490
       0.624
       0.701
       0.726
       0.712
       0.673
       0.623
       0.571
       0.518
       0.460
       0.390
       0.307
       0.215
       0.121
       0.027
      -0.064
      -0.149
      -0.224
      -0.284
      -0.327
      -0.346
      -0.345
      -0.336
      -0.339
      -0.369
      -0.432
      -0.525
      -0.637
      -0.756
      -0.869
      -0.965
      -1.038
      -1.092
      -1.132
      -1.159
      -1.158
      -1.119
      -1.043
      -0.951
      -0.864
      -0.791
      -0.732
      -0.692
      -0.682
      -0.717
      -0.808
      -0.951
      -1.128
      -1.313
      -1.483
      -1.626
      -1.740
      -1.833
      -1.913
      -1.986
      -2.047
      -2.089
      -2.103
      -2.092
      -2.067
      -2.043
      -2.033
      -2.039
      -2.051
      -2.053
      -2.033
      -1.991
      -1.933
      -1.862
      -1.773
      -1.657
      -1.502
      -1.306
      -1.076
      -0.831
      -0.592
      -0.361
      -0.130
       0.119
       0.393
       0.687
       0.984
       1.263
       1.504
       1.698
       1.848
       1.959
       2.035
       2.079
       2.095
       2.090
       2.071
       2.045
       2.019
       1.995
       1.971
       1.945
       1.919
       1.892
       1.869
       1.852
       1.846
       1.848
       1.855
       1.866
       1.887
       1.929
       2.000
       2.101
       2.221
       2.344
       2.451
       2.534
       2.587
       2.607
       2.592
       2.545
       2.479
       2.410
       2.346
       2.281
       2.200
       2.083
       1.913
       1.686
       1.409
       1.102
       0.787
       0.488
       0.221
      -0.014
      -0.228
      -0.436
      -0.642
      -0.839
      -1.019
      -1.176
      -1.309
      -1.427
      -1.536
      -1.631
      -1.698
      -1.716
      -1.678
      -1.591
      -1.471
      -1.339
      -1.217
      -1.123
      -1.069
      -1.064
      -1.108
      -1.198
      -1.321
      -1.460
      -1.597
      -1.713
      -1.790
      -1.813
      -1.773
      -1.663
      -1.473
      -1.194
      -0.827
      -0.375
       0.150
       0.733
       1.350
       1.971
       2.566
       3.110
       3.588
       3.987
       4.297
       4.501
       4.581
       4.525
       4.342
       4.055
       3.685
       3.243
       2.738
       2.185
       1.619
       1.077
       0.592
       0.176
      -0.170
      -0.450
      -0.665
      -0.819
      -0.928
      -1.020
      -1.126
      -1.263
      -1.432
      -1.622
      -1.820
      -2.016
      -2.201
      -2.367
      -2.502
      -2.597
      -2.644
      -2.646
      -2.610
      -2.548
      -2.466
      -2.367
      -2.245
      -2.086
      -1.879
      -1.621
      -1.321
      -0.994
      -0.659
      -0.337
      -0.043
       0.217
       0.446
       0.649
       0.835
       1.009
       1.173
       1.322
       1.445
       1.536
       1.597
       1.633
       1.645
       1.633
       1.594
       1.523
       1.412
       1.253
       1.035
       0.752
       0.404
       0.000
      -0.446
      -0.914
      -1.389
      -1.854
      -2.298
      -2.717
      -3.114
      -3.490
      -3.843
      -4.168
      -4.469
      -4.755
      -5.041
      -5.339
      -5.652
      -5.976
      -6.294
      -6.590
      -6.851
      -7.063
      -7.205
      -7.258
      -7.200
      -7.016
      -6.698
      -6.244
      -5.655
      -4.931
      -4.072
      -3.083
      -1.980
      -0.789
       0.455
       1.710
       2.933
       4.089
       5.158
       6.127
       6.987
       7.726
       8.335
       8.811
       9.154
       9.370
       9.463
       9.434
       9.279
       9.000
       8.611
       8.142
       7.628
       7.103
       6.592
       6.108
       5.657
       5.244
       4.877
       4.564
       4.310
       4.114
       3.975
       3.895
       3.879
       3.928
       4.037
       4.193
       4.367
       4.522
       4.613
       4.602
       4.457
       4.161
       3.708
       3.101
       2.342
       1.430
       0.373
      -0.805
      -2.070
      -3.389
      -4.726
      -6.044
      -7.301
      -8.449
      -9.437
     -10.220
     -10.767
     -11.074
     -11.146
     -11.002
     -10.666
     -10.165
      -9.529
      -8.777
      -7.920
      -6.963
      -5.915
      -4.792
      -3.625
      -2.456
      -1.328
      -0.280
       0.666
       1.493
       2.198
       2.782
       3.248
       3.592
       3.805
       3.876
       3.797
       3.571
       3.220
       2.787
       2.321
       1.868
       1.460
       1.115
       0.846
       0.655
       0.539
       0.480
       0.450
       0.428
       0.408
       0.406
       0.443
       0.532
       0.666
       0.829
       0.998
       1.145
       1.247
       1.284
       1.250
       1.150
       0.997
       0.812
       0.616
       0.422
       0.235
       0.050
      -0.140
      -0.340
      -0.550
      -0.753
      -0.923
      -1.029
      -1.043
      -0.952
      -0.758
      -0.466
      -0.089
       0.362
       0.873
       1.426
       2.003
       2.586
       3.152
       3.671
       4.102
       4.408
       4.572
       4.602
       4.527
       4.382
       4.191
       3.958
       3.674
       3.327
       2.916
       2.446
       1.926
       1.367
       0.782
       0.197
      -0.353
      -0.827
      -1.193
      -1.441
      -1.586
      -1.650
      -1.656
      -1.620
      -1.558
      -1.484
      -1.413
      -1.353
      -1.315
      -1.307
      -1.334
      -1.396
      -1.486
      -1.598
      -1.721
      -1.846
      -1.968
      -2.080
      -2.173
      -2.227
      -2.225
      -2.149
      -1.991
      -1.762
      -1.492
      -1.223
      -0.984
      -0.787
      -0.617
      -0.450
      -0.260
      -0.038
       0.209
       0.469
       0.732
       0.994
       1.245
       1.471
       1.652
       1.767
       1.806
       1.761
       1.634
       1.421
       1.109
       0.682
       0.138
      -0.501
      -1.198
      -1.918
      -2.631
      -3.324
      -3.982
      -4.587
      -5.117
      -5.555
      -5.895
      -6.142
      -6.303
      -6.381
      -6.374
      -6.286
      -6.125
      -5.905
      -5.642
      -5.346
      -5.027
      -4.689
      -4.345
      -4.013
      -3.709
      -3.441
      -3.206
      -2.995
      -2.795
      -2.589
      -2.363
      -2.106
      -1.814
      -1.487
      -1.127
      -0.736
      -0.317
       0.136
       0.630
       1.170
       1.747
       2.337
       2.900
       3.396
       3.795
       4.089
       4.284
       4.396
       4.446
       4.459
       4.462
       4.479
       4.528
       4.617
       4.743
       4.886
       5.017
       5.113
       5.162
       5.162
       5.118
       5.026
       4.877
       4.658
       4.358
       3.982
       3.544
       3.068
       2.578
       2.092
       1.627
       1.191
       0.788
       0.418
       0.083
      -0.222
      -0.503
      -0.772
      -1.045
      -1.335
      -1.648
      -1.978
      -2.307
      -2.614
      -2.888
      -3.123
      -3.315
      -3.455
      -3.532
      -3.531
      -3.428
      -3.204
      -2.850
      -2.370
      -1.781
      -1.103
      -0.351
       0.473
       1.369
       2.325
       3.302
       4.241
       5.087
       5.796
       6.344
       6.722
       6.929
       6.970
       6.853
       6.590
       6.198
       5.703
       5.130
       4.504
       3.847
       3.177
       2.509
       1.854
       1.222
       0.621
       0.045
      -0.520
      -1.096
      -1.694
      -2.311
      -2.938
      -3.558
      -4.159
      -4.719
      -5.206
      -5.575
      -5.782
      -5.799
      -5.613
      -5.232
      -4.679
      -3.988
      -3.202
      -2.359
      -1.482
      -0.584
       0.321
       1.214
       2.068
       2.847
       3.515
       4.047
       4.438
       4.698
       4.841
       4.875
       4.802
       4.624
       4.349
       3.994
       3.582
       3.133
       2.653
       2.139
       1.579
       0.965
       0.301
      -0.394
      -1.091
      -1.761
      -2.378
      -2.924
      -3.382
      -3.745
      -4.018
      -4.203
      -4.299
      -4.288
      -4.154
      -3.893
      -3.518
      -3.066
      -2.591
      -2.151
      -1.798
      -1.566
      -1.479
      -1.543
      -1.750
      -2.080
      -2.507
      -3.004
      -3.544
      -4.099
      -4.639
      -5.132
      -5.551
      -5.874
      -6.092
      -6.204
      -6.211
      -6.109
      -5.892
      -5.561
      -5.121
      -4.587
      -3.978
      -3.313
      -2.605
      -1.861
      -1.077
      -0.250
       0.620
       1.518
       2.413
       3.264
       4.041
       4.734
       5.348
       5.892
       6.366
       6.758
       7.053
       7.241
       7.319
       7.299
       7.195
       7.024
       6.807
       6.559
       6.290
       5.995
       5.661
       5.272
       4.818
       4.290
       3.687
       3.014
       2.285
       1.518
       0.732
      -0.054
      -0.823
      -1.566
      -2.280
      -2.968
      -3.640
      -4.303
      -4.955
      -5.576
      -6.138
      -6.608
      -6.954
      -7.145
      -7.156
      -6.975
      -6.604
      -6.064
      -5.379
      -4.572
      -3.653
      -2.621
      -1.483
      -0.270
       0.967
       2.169
       3.292
       4.313
       5.229
       6.043
       6.753
       7.346
       7.802
       8.104
       8.239
       8.204
       7.998
       7.633
       7.124
       6.486
       5.726
       4.853
       3.888
       2.863
       1.822
       0.806
      -0.157
      -1.050
      -1.860
      -2.570
      -3.157
      -3.597
      -3.880
      -4.009
      -4.002
      -3.888
      -3.700
      -3.471
      -3.229
      -2.997
      -2.795
      -2.641
      -2.556
      -2.556
      -2.655
      -2.858
      -3.162
      -3.560
      -4.030
      -4.534
      -5.018
