Origin Time       26/2/2010 4:42:33	  UTC
Lat.              28.5 N	
Long.             86.7 E	
Depth (Km)         28.0
Magnitude         5.4
 Region           Tibet                                                            
 Above details taken from IMD 
    
Station Code      SLG
Station Lat.       26.712  N
Station Long.      88.428  E
Station Height(m)  131.0
Site Class        C   Vs30 between 200 m/sec to 375 m/sec *  
Record Time       26.02.2010 04:43:29.979 UTC
Sampling Rate     200. Hz
 Record Duration   66.725 Sec.
 Direction         N-S (N positive)
Max. Acceleration      8.719 cm/sec**2
     
  * For reference see Site Classification link of website 
     
 Base Line Corrected and Low Pass Filtered (Cut Off at 35 Hz) Time History
 Acceleration data in cm/sec**2
    
[...]
      -0.465
      -0.513
      -0.583
      -0.637
      -0.619
      -0.502
      -0.308
      -0.092
       0.085
       0.196
       0.248
       0.257
       0.222
       0.131
      -0.018
      -0.206
      -0.397
      -0.555
      -0.660
      -0.699
      -0.663
      -0.543
      -0.343
      -0.094
       0.152
       0.341
       0.451
       0.490
       0.490
       0.475
       0.460
       0.450
       0.453
       0.479
       0.525
       0.571
       0.582
       0.529
       0.406
       0.242
       0.085
      -0.020
      -0.055
      -0.032
       0.011
       0.039
       0.037
       0.008
      -0.040
      -0.105
      -0.185
      -0.273
      -0.346
      -0.382
      -0.368
      -0.312
      -0.232
      -0.147
      -0.062
       0.029
       0.139
       0.273
       0.423
       0.557
       0.636
       0.629
       0.532
       0.372
       0.189
       0.018
      -0.127
      -0.247
      -0.356
      -0.469
      -0.592
      -0.710
      -0.800
      -0.832
      -0.798
      -0.713
      -0.613
      -0.525
      -0.455
      -0.380
      -0.272
      -0.119
       0.066
       0.246
       0.377
       0.431
       0.406
       0.330
       0.237
       0.146
       0.055
      -0.051
      -0.172
      -0.287
      -0.360
      -0.367
      -0.316
      -0.244
      -0.179
      -0.119
      -0.042
       0.067
       0.198
       0.317
       0.400
       0.442
       0.457
       0.457
       0.448
       0.437
       0.434
       0.457
       0.502
       0.543
       0.537
       0.458
       0.313
       0.140
      -0.008
      -0.094
      -0.110
      -0.071
       0.001
       0.090
       0.185
       0.269
       0.316
       0.298
       0.203
       0.046
      -0.131
      -0.282
      -0.375
      -0.418
      -0.437
      -0.462
      -0.498
      -0.520
      -0.496
      -0.405
      -0.249
      -0.050
       0.165
       0.372
       0.549
       0.676
       0.739
       0.728
       0.638
       0.471
       0.237
      -0.034
      -0.301
      -0.528
      -0.693
      -0.799
      -0.850
      -0.840
      -0.754
      -0.588
      -0.374
      -0.171
      -0.034
       0.022
       0.037
       0.080
       0.208
       0.435
       0.723
       0.997
       1.184
       1.242
       1.175
       1.012
       0.783
       0.502
       0.173
      -0.186
      -0.537
      -0.817
      -0.969
      -0.959
      -0.804
      -0.560
      -0.311
      -0.126
      -0.032
      -0.006
      -0.003
       0.008
       0.021
       0.019
      -0.009
      -0.047
      -0.068
      -0.048
       0.019
       0.112
       0.196
       0.231
       0.192
       0.083
      -0.059
      -0.173
      -0.201
      -0.127
       0.011
       0.142
       0.201
       0.158
       0.023
      -0.167
      -0.369
      -0.549
      -0.683
      -0.756
      -0.747
      -0.636
      -0.417
      -0.109
       0.235
       0.534
       0.707
       0.704
       0.536
       0.270
       0.001
      -0.192
      -0.275
      -0.260
      -0.177
      -0.064
       0.050
       0.140
       0.192
       0.204
       0.190
       0.154
       0.089
      -0.018
      -0.165
      -0.318
      -0.430
      -0.462
      -0.406
      -0.287
      -0.151
      -0.036
       0.044
       0.104
       0.181
       0.306
       0.477
       0.653
       0.767
       0.774
       0.675
       0.519
       0.365
       0.249
       0.166
       0.089
      -0.011
      -0.131
      -0.238
      -0.291
      -0.274
      -0.216
      -0.167
      -0.170
      -0.231
      -0.321
      -0.394
      -0.408
      -0.342
      -0.199
      -0.005
       0.196
       0.348
       0.394
       0.306
       0.102
      -0.152
      -0.366
      -0.474
      -0.462
      -0.363
      -0.231
      -0.113
      -0.035
      -0.006
      -0.025
      -0.076
      -0.141
      -0.204
      -0.256
      -0.295
      -0.320
      -0.334
      -0.333
      -0.313
      -0.268
      -0.204
      -0.135
      -0.079
      -0.035
       0.014
       0.090
       0.211
       0.390
       0.622
       0.884
       1.127
       1.287
       1.306
       1.163
       0.898
       0.597
       0.354
       0.219
       0.180
       0.183
       0.171
       0.114
       0.017
      -0.096
      -0.208
      -0.306
      -0.380
      -0.419
      -0.409
      -0.351
      -0.257
      -0.153
      -0.062
      -0.002
       0.013
      -0.020
      -0.108
      -0.255
      -0.453
      -0.666
      -0.827
      -0.857
      -0.705
      -0.378
       0.052
       0.472
       0.772
       0.877
       0.767
       0.479
       0.099
      -0.267
      -0.526
      -0.626
      -0.576
      -0.426
      -0.243
      -0.071
       0.086
       0.244
       0.414
       0.575
       0.685
       0.702
       0.609
       0.432
       0.233
       0.089
       0.053
       0.115
       0.209
       0.248
       0.178
      -0.003
      -0.253
      -0.523
      -0.779
      -1.001
      -1.175
      -1.274
      -1.272
      -1.156
      -0.944
      -0.681
      -0.417
      -0.198
      -0.046
       0.031
       0.042
       0.004
      -0.057
      -0.112
      -0.139
      -0.136
      -0.121
      -0.131
      -0.193
      -0.311
      -0.458
      -0.594
      -0.695
      -0.767
      -0.832
      -0.901
      -0.948
      -0.919
      -0.759
      -0.442
       0.012
       0.550
       1.103
       1.612
       2.035
       2.352
       2.556
       2.645
       2.629
       2.518
       2.330
       2.086
       1.815
       1.546
       1.308
       1.119
       0.996
       0.943
       0.946
       0.970
       0.978
       0.950
       0.900
       0.865
       0.869
       0.899
       0.903
       0.818
       0.610
       0.292
      -0.095
      -0.508
      -0.926
      -1.346
      -1.771
      -2.190
      -2.572
      -2.878
      -3.084
      -3.195
      -3.236
      -3.227
      -3.166
      -3.026
      -2.787
      -2.452
      -2.061
      -1.676
      -1.358
      -1.144
      -1.051
      -1.087
      -1.251
      -1.534
      -1.906
      -2.314
      -2.686
      -2.956
      -3.074
      -3.010
      -2.738
      -2.235
      -1.497
      -0.564
       0.462
       1.447
       2.270
       2.874
       3.281
       3.561
       3.781
       3.978
       4.155
       4.305
       4.424
       4.517
       4.598
       4.677
       4.755
       4.822
       4.863
       4.869
       4.830
       4.739
       4.589
       4.379
       4.106
       3.764
       3.338
       2.794
       2.091
       1.212
       0.183
      -0.920
      -2.000
      -2.971
      -3.779
      -4.385
      -4.762
      -4.885
      -4.746
      -4.356
      -3.748
      -2.968
      -2.076
      -1.161
      -0.336
       0.275
       0.572
       0.509
       0.096
      -0.606
      -1.507
      -2.506
      -3.501
      -4.404
      -5.138
      -5.637
      -5.847
      -5.738
      -5.308
      -4.593
      -3.670
      -2.641
      -1.612
      -0.669
       0.132
       0.760
       1.197
       1.443
       1.507
       1.407
       1.169
       0.831
       0.453
       0.097
      -0.191
      -0.394
      -0.514
      -0.545
      -0.468
      -0.254
       0.110
       0.604
       1.176
       1.747
       2.228
       2.529
       2.578
       2.349
       1.872
       1.232
       0.540
      -0.083
      -0.541
      -0.772
      -0.742
      -0.426
       0.180
       1.055
       2.130
       3.297
       4.430
       5.414
       6.164
       6.645
       6.857
       6.808
       6.489
       5.868
       4.919
       3.654
       2.142
       0.500
      -1.125
      -2.584
      -3.748
      -4.533
      -4.908
      -4.901
      -4.583
      -4.052
      -3.407
      -2.741
      -2.123
      -1.595
      -1.175
      -0.862
      -0.645
      -0.506
      -0.413
      -0.336
      -0.260
      -0.199
      -0.197
      -0.300
      -0.526
      -0.844
      -1.182
      -1.473
      -1.696
      -1.896
      -2.143
      -2.476
      -2.864
      -3.210
      -3.420
      -3.457
      -3.370
      -3.239
      -3.118
      -2.992
      -2.799
      -2.474
      -1.990
      -1.360
      -0.617
       0.214
       1.125
       2.109
       3.134
       4.131
       5.010
       5.694
       6.142
       6.349
       6.330
       6.089
       5.611
       4.877
       3.900
       2.744
       1.531
       0.406
      -0.507
      -1.142
      -1.515
      -1.694
      -1.759
      -1.760
      -1.709
      -1.594
      -1.402
      -1.135
      -0.812
      -0.467
      -0.150
       0.072
       0.127
      -0.032
      -0.396
      -0.897
      -1.441
      -1.965
      -2.454
      -2.922
      -3.371
      -3.762
      -4.022
      -4.091
      -3.958
      -3.678
      -3.344
      -3.040
      -2.802
      -2.596
      -2.346
      -1.974
      -1.438
      -0.754
       0.021
       0.816
       1.572
       2.262
       2.892
       3.482
       4.039
       4.529
       4.894
       5.077
       5.060
       4.864
       4.538
       4.121
       3.634
       3.095
       2.537
       2.002
       1.522
       1.096
       0.701
       0.329
       0.012
      -0.190
      -0.221
      -0.073
       0.204
       0.525
       0.817
       1.044
       1.208
       1.329
       1.419
       1.473
       1.470
       1.384
       1.202
       0.931
       0.591
       0.197
      -0.234
      -0.684
      -1.116
      -1.480
      -1.726
      -1.839
      -1.857
      -1.866
      -1.965
      -2.212
      -2.598
      -3.050
      -3.475
      -3.800
      -3.994
      -4.054
      -3.984
      -3.783
      -3.461
      -3.044
      -2.575
      -2.096
      -1.641
      -1.239
      -0.903
      -0.624
      -0.357
      -0.039
       0.388
       0.938
       1.567
       2.189
       2.700
       3.019
       3.095
       2.918
       2.502
       1.894
       1.165
       0.408
      -0.282
      -0.822
      -1.164
      -1.291
      -1.217
      -0.961
      -0.539
       0.035
       0.732
       1.490
       2.216
       2.809
       3.203
       3.389
       3.415
       3.354
       3.269
       3.180
       3.068
       2.885
       2.589
       2.178
       1.691
       1.185
       0.688
       0.190
      -0.350
      -0.968
      -1.668
      -2.407
      -3.109
      -3.693
      -4.102
      -4.319
      -4.349
      -4.197
      -3.855
      -3.321
      -2.631
      -1.870
      -1.153
      -0.586
      -0.233
      -0.108
      -0.184
      -0.413
      -0.744
      -1.128
      -1.517
      -1.849
      -2.048
      -2.028
      -1.726
      -1.138
      -0.326
       0.598
       1.506
       2.301
       2.926
       3.358
       3.581
       3.581
       3.347
       2.887
       2.231
       1.431
       0.564
      -0.274
      -0.983
      -1.475
      -1.695
      -1.624
      -1.277
      -0.698
       0.054
       0.903
       1.763
       2.547
       3.181
       3.617
       3.831
       3.806
       3.515
       2.924
       2.021
       0.847
      -0.492
      -1.849
      -3.086
      -4.106
      -4.862
      -5.332
      -5.495
      -5.327
      -4.797
      -3.891
      -2.626
      -1.075
       0.630
       2.295
       3.704
       4.659
       5.041
       4.834
       4.115
       3.029
       1.753
       0.465
      -0.682
      -1.584
      -2.184
      -2.457
      -2.391
      -1.971
      -1.192
      -0.087
       1.253
       2.674
       3.981
       4.993
       5.590
       5.740
       5.478
       4.863
       3.929
       2.675
       1.100
      -0.747
      -2.734
      -4.658
      -6.289
      -7.432
      -7.970
      -7.883
      -7.231
      -6.122
      -4.686
      -3.064
      -1.410
       0.123
       1.393
       2.305
       2.820
       2.957
       2.767
       2.316
       1.674
       0.915
       0.108
      -0.700
      -1.489
      -2.255
      -2.978
      -3.600
      -4.020
      -4.111
      -3.762
      -2.924
      -1.639
      -0.042
       1.663
       3.246
       4.496
       5.263
       5.480
       5.165
       4.401
       3.311
       2.037
       0.727
      -0.474
      -1.451
      -2.137
      -2.526
      -2.646
      -2.522
      -2.161
      -1.568
      -0.782
       0.115
       1.024
       1.860
       2.573
       3.153
       3.604
       3.923
       4.088
       4.060
       3.796
       3.281
       2.552
       1.706
       0.874
       0.174
      -0.331
      -0.650
      -0.854
      -1.054
      -1.361
      -1.842
      -2.492
      -3.235
      -3.966
      -4.593
      -5.053
      -5.295
      -5.261
      -4.880
      -4.103
      -2.941
      -1.477
       0.149
       1.780
       3.272
       4.520
       5.450
       6.025
       6.240
       6.126
       5.745
       5.163
       4.428
       3.560
       2.566
       1.456
       0.261
      -0.977
      -2.200
      -3.339
      -4.304
      -5.000
      -5.348
      -5.325
      -4.989
      -4.462
      -3.882
      -3.342
      -2.867
      -2.431
      -1.999
      -1.544
      -1.058
      -0.549
      -0.033
       0.457
       0.879
       1.179
       1.310
       1.237
       0.947
       0.456
      -0.186
      -0.899
      -1.595
      -2.203
      -2.687
      -3.023
      -3.178
      -3.090
      -2.682
      -1.904
      -0.773
       0.630
       2.185
       3.767
       5.263
       6.580
       7.637
       8.369
       8.719
       8.638
       8.098
       7.100
       5.703
       4.030
       2.255
       0.562
      -0.904
      -2.068
      -2.917
      -3.468
      -3.752
      -3.806
      -3.691
      -3.491
      -3.303
      -3.206
      -3.257
      -3.477
      -3.861
      -4.374
      -4.940
      -5.439
      -5.726
      -5.668
      -5.183
      -4.268
      -3.001
      -1.511
       0.071
       1.655
       3.196
       4.656
       5.961
       6.997
       7.638
       7.793
       7.431
       6.589
       5.351
       3.825
       2.133
       0.399
      -1.264
      -2.757
      -4.000
      -4.929
      -5.488
      -5.631
      -5.326
      -4.573
      -3.426
      -2.000
      -0.463
       1.004
       2.258
       3.220
       3.876
       4.246
       4.357
       4.229
       3.884
       3.349
       2.653
       1.830
       0.932
       0.038
      -0.758
      -1.380
      -1.797
      -2.026
      -2.116
      -2.110
      -2.028
      -1.876
      -1.662
      -1.407
      -1.140
      -0.874
      -0.593
      -0.281
       0.049
       0.343
       0.522
       0.519
       0.303
      -0.105
      -0.641
      -1.219
      -1.746
      -2.150
      -2.383
      -2.428
      -2.302
      -2.037
      -1.660
      -1.184
      -0.625
      -0.016
       0.589
       1.135
       1.587
       1.941
       2.204
       2.372
       2.408
       2.263
       1.905
       1.353
       0.680
      -0.002
      -0.597
      -1.047
      -1.350
      -1.525
      -1.578
      -1.489
      -1.225
      -0.777
      -0.186
       0.457
       1.041
       1.474
       1.712
       1.760
       1.662
       1.464
       1.203
       0.900
       0.569
       0.228
      -0.097
      -0.374
      -0.583
      -0.724
      -0.822
      -0.907
      -1.002
      -1.094
      -1.144
      -1.107
      -0.974
      -0.784
      -0.611
      -0.527
      -0.566
      -0.721
      -0.941
      -1.155
      -1.278
      -1.229
      -0.948
      -0.409
       0.365
       1.311
       2.355
       3.431
       4.483
       5.428
       6.140
       6.460
       6.251
       5.474
       4.215
       2.659
       1.011
      -0.582
      -2.052
      -3.379
      -4.548
      -5.527
      -6.280
      -6.781
      -7.028
      -7.031
      -6.802
      -6.355
      -5.710
      -4.899
      -3.953
      -2.896
      -1.738
      -0.492
       0.807
       2.096
       3.294
       4.325
       5.142
       5.726
       6.067
       6.143
       5.931
       5.420
       4.640
       3.655
       2.547
       1.400
       0.289
      -0.720
      -1.579
      -2.259
      -2.755
      -3.079
      -3.248
      -3.261
      -3.102
      -2.765
      -2.276
      -1.696
      -1.093
      -0.506
       0.072
       0.678
       1.328
       1.994
       2.602
       3.060
       3.300
       3.288
       3.034
       2.582
       1.993
       1.327
       0.633
      -0.058
      -0.718
      -1.319
      -1.828
      -2.208
      -2.423
      -2.455
      -2.315
      -2.045
      -1.708
      -1.373
      -1.095
      -0.908
      -0.812
      -0.777
      -0.748
      -0.670
      -0.502
      -0.230
       0.127
       0.527
       0.907
       1.195
       1.331
       1.289
       1.087
       0.786
       0.471
       0.224
       0.095
       0.083
       0.156
       0.288
       0.479
       0.742
       1.071
       1.409
       1.678
       1.814
       1.804
       1.682
       1.505
       1.319
       1.139
       0.948
       0.712
       0.391
      -0.056
      -0.660
      -1.433
      -2.357
      -3.372
      -4.383
      -5.267
      -5.901
      -6.186
      -6.069
      -5.552
      -4.690
      -3.583
      -2.341
      -1.060
       0.194
       1.375
       2.436
       3.315
       3.950
       4.304
       4.388
       4.259
       3.993
       3.644
       3.230
       2.755
       2.245
       1.761
       1.386
       1.180
       1.152
       1.253
       1.403
       1.524
       1.558
       1.461
       1.198
       0.749
       0.127
      -0.609
      -1.367
      -2.039
      -2.535
      -2.807
      -2.841
      -2.651
      -2.258
      -1.690
      -0.994
      -0.238
       0.493
       1.122
       1.593
       1.882
       1.996
       1.961
       1.803
       1.539
       1.178
       0.723
       0.183
      -0.426
      -1.074
      -1.727
      -2.355
      -2.936
      -3.460
      -3.922
      -4.310
      -4.605
      -4.765
      -4.734
      -4.448
      -3.865
      -2.990
      -1.892
      -0.689
       0.500
       1.590
       2.536
       3.312
       3.885
       4.224
       4.316
       4.185
       3.887
       3.487
       3.035
       2.555
       2.058
       1.564
       1.114
       0.758
       0.528
       0.413
       0.369
       0.342
       0.300
       0.242
       0.181
       0.112
      -0.001
      -0.215
      -0.565
      -1.034
      -1.541
      -1.967
      -2.218
      -2.257
      -2.109
      -1.820
      -1.417
      -0.905
      -0.293
       0.378
       1.023
       1.557
       1.935
       2.181
       2.356
       2.500
       2.589
       2.554
       2.321
       1.861
       1.211
       0.457
      -0.287
      -0.908
      -1.308
      -1.415
      -1.209
      -0.736
      -0.106
       0.536
       1.052
       1.335
       1.327
       1.022
       0.461
      -0.284
      -1.129
      -1.993
      -2.801
      -3.491
      -4.010
      -4.313
      -4.357
      -4.115
      -3.596
      -2.869
      -2.054
      -1.280
      -0.638
      -0.146
       0.223
       0.506
       0.699
       0.751
       0.590
       0.176
      -0.458
      -1.201
      -1.899
      -2.401
      -2.607
      -2.488
      -2.073
      -1.433
      -0.643
       0.226
