Origin Time       03/06/2011 00:53:21
Lat.              27.5 N	
Long.             88.0 E	
Depth (Km)         26.0
Magnitude         4.9
Region            India(Sikkim)-Nepar-Border                                       
 Above details taken from IMD 
   
Station Code      SLG
Station Lat.       26.712
Station Long.      88.428
Station Height(m)  131.0
Site Class        C   Vs30 between 200 m/sec to 375 m/sec *  
Record Time       03.06.2011 00:53:43.199
Sampling Rate     200. Hz
Record Duration    70.270 Sec.
Direction         Vert. (Up positi
Max. Acceleration     11.917 cm/sec**2
     
  * For reference see Site Classification link of website 
     
 Base Line Corrected and Low Pass Filtered (Cut Off at 35 Hz) Time History
 Acceleration data in cm/sec**2
    
[...]
      -0.231
      -0.323
      -0.188
       0.098
       0.429
       0.720
       0.909
       0.953
       0.820
       0.508
       0.082
      -0.334
      -0.613
      -0.706
      -0.677
      -0.656
      -0.742
      -0.926
      -1.099
      -1.139
      -0.997
      -0.717
      -0.382
      -0.039
       0.319
       0.715
       1.105
       1.357
       1.300
       0.855
       0.120
      -0.645
      -1.137
      -1.162
      -0.734
      -0.053
       0.583
       0.910
       0.807
       0.332
      -0.307
      -0.849
      -1.084
      -0.931
      -0.447
       0.214
       0.866
       1.347
       1.549
       1.430
       1.025
       0.449
      -0.123
      -0.517
      -0.618
      -0.412
       0.010
       0.485
       0.821
       0.858
       0.531
      -0.072
      -0.718
      -1.125
      -1.104
      -0.674
      -0.059
       0.438
       0.591
       0.356
      -0.153
      -0.748
      -1.259
      -1.568
      -1.611
      -1.362
      -0.843
      -0.129
       0.650
       1.330
       1.768
       1.898
       1.752
       1.444
       1.095
       0.767
       0.448
       0.092
      -0.306
      -0.673
      -0.891
      -0.887
      -0.687
      -0.420
      -0.237
      -0.222
      -0.341
      -0.465
      -0.462
      -0.287
      -0.012
       0.219
       0.282
       0.159
      -0.058
      -0.233
      -0.281
      -0.221
      -0.134
      -0.079
      -0.036
       0.079
       0.338
       0.715
       1.068
       1.217
       1.057
       0.629
       0.089
      -0.384
      -0.678
      -0.778
      -0.735
      -0.612
      -0.435
      -0.198
       0.110
       0.447
       0.713
       0.795
       0.646
       0.320
      -0.056
      -0.371
      -0.585
      -0.736
      -0.876
      -1.007
      -1.051
      -0.902
      -0.519
       0.011
       0.495
       0.731
       0.619
       0.227
      -0.255
      -0.604
      -0.666
      -0.410
       0.087
       0.678
       1.198
       1.505
       1.508
       1.191
       0.625
      -0.042
      -0.633
      -0.996
      -1.059
      -0.854
      -0.497
      -0.135
       0.117
       0.220
       0.219
       0.203
       0.240
       0.323
       0.378
       0.318
       0.118
      -0.161
      -0.402
      -0.499
      -0.398
      -0.122
       0.237
       0.549
       0.685
       0.577
       0.257
      -0.163
      -0.541
      -0.779
      -0.848
      -0.767
      -0.571
      -0.292
       0.016
       0.261
       0.341
       0.208
      -0.081
      -0.386
      -0.564
      -0.553
      -0.388
      -0.152
       0.087
       0.304
       0.495
       0.650
       0.742
       0.750
       0.668
       0.493
       0.219
      -0.134
      -0.491
      -0.729
      -0.739
      -0.497
      -0.075
       0.420
       0.912
       1.371
       1.759
       1.981
       1.902
       1.424
       0.573
      -0.480
      -1.475
      -2.186
      -2.519
      -2.529
      -2.339
      -2.026
      -1.576
      -0.939
      -0.131
       0.696
       1.292
       1.428
       1.030
       0.254
      -0.555
      -0.986
      -0.751
       0.163
       1.460
       2.636
       3.205
       2.910
       1.822
       0.293
      -1.208
      -2.278
      -2.706
      -2.487
      -1.772
      -0.796
       0.175
       0.899
       1.218
       1.108
       0.693
       0.196
      -0.159
      -0.244
      -0.075
       0.206
       0.407
       0.386
       0.126
      -0.250
      -0.543
      -0.591
      -0.376
      -0.039
       0.203
       0.201
      -0.038
      -0.367
      -0.610
      -0.672
      -0.571
      -0.394
      -0.227
      -0.117
      -0.077
      -0.106
      -0.196
      -0.321
      -0.441
      -0.513
      -0.497
      -0.361
      -0.094
       0.277
       0.661
       0.936
       0.997
       0.821
       0.468
       0.047
      -0.337
      -0.605
      -0.703
      -0.600
      -0.313
       0.084
       0.476
       0.753
       0.865
       0.821
       0.660
       0.409
       0.084
      -0.269
      -0.539
      -0.567
      -0.238
       0.404
       1.131
       1.620
       1.629
       1.125
       0.303
      -0.535
      -1.126
      -1.352
      -1.245
      -0.925
      -0.527
      -0.156
       0.140
       0.356
       0.501
       0.557
       0.477
       0.232
      -0.122
      -0.431
      -0.509
      -0.255
       0.255
       0.774
       1.006
       0.775
       0.138
      -0.647
      -1.266
      -1.514
      -1.372
      -0.962
      -0.447
       0.052
       0.471
       0.771
       0.908
       0.841
       0.569
       0.162
      -0.240
      -0.491
      -0.495
      -0.260
       0.122
       0.507
       0.767
       0.824
       0.658
       0.300
      -0.190
      -0.714
      -1.133
      -1.302
      -1.127
      -0.632
       0.022
       0.603
       0.921
       0.915
       0.665
       0.320
       0.008
      -0.203
      -0.312
      -0.348
      -0.358
      -0.385
      -0.444
      -0.493
      -0.438
      -0.199
       0.204
       0.625
       0.859
       0.775
       0.403
      -0.090
      -0.508
      -0.730
      -0.735
      -0.575
      -0.326
      -0.073
       0.110
       0.182
       0.146
       0.023
      -0.172
      -0.439
      -0.759
      -1.056
      -1.190
      -1.001
      -0.392
       0.597
       1.766
       2.789
       3.305
       3.045
       1.956
       0.280
      -1.475
      -2.694
      -2.900
      -1.975
      -0.245
       1.664
       3.090
       3.610
       3.177
       2.077
       0.757
      -0.375
      -1.068
      -1.259
      -1.013
      -0.481
       0.125
       0.545
       0.525
      -0.070
      -1.165
      -2.454
      -3.506
      -3.932
      -3.549
      -2.440
      -0.910
       0.632
       1.813
       2.409
       2.402
       1.964
       1.366
       0.849
       0.510
       0.279
      -0.001
      -0.457
      -1.083
      -1.735
      -2.189
      -2.242
      -1.801
      -0.935
       0.131
       1.083
       1.623
       1.575
       0.957
      -0.007
      -0.951
      -1.489
      -1.385
      -0.683
       0.303
       1.150
       1.564
       1.537
       1.311
       1.184
       1.296
       1.548
       1.685
       1.475
       0.848
      -0.068
      -1.014
      -1.705
      -1.928
      -1.617
      -0.879
       0.028
       0.781
       1.121
       0.954
       0.386
      -0.330
      -0.911
      -1.159
      -1.030
      -0.642
      -0.226
      -0.014
      -0.118
      -0.438
      -0.705
      -0.646
      -0.172
       0.540
       1.144
       1.332
       1.000
       0.285
      -0.522
      -1.120
      -1.297
      -0.984
      -0.261
       0.666
       1.522
       2.052
       2.104
       1.670
       0.878
      -0.048
      -0.845
      -1.286
      -1.278
      -0.908
      -0.425
      -0.107
      -0.118
      -0.420
      -0.814
      -1.065
      -1.039
      -0.754
      -0.332
       0.089
       0.419
       0.607
       0.626
       0.485
       0.259
       0.090
       0.121
       0.390
       0.780
       1.061
       1.005
       0.511
      -0.345
      -1.339
      -2.172
      -2.569
      -2.373
      -1.597
      -0.436
       0.805
       1.821
       2.402
       2.472
       2.065
       1.272
       0.228
      -0.890
      -1.866
      -2.480
      -2.566
      -2.052
      -0.983
       0.469
       2.005
       3.230
       3.747
       3.311
       1.992
       0.223
      -1.354
      -2.169
      -2.013
      -1.131
      -0.090
       0.517
       0.348
      -0.541
      -1.737
      -2.668
      -2.861
      -2.160
      -0.792
       0.734
       1.871
       2.286
       2.014
       1.421
       0.984
       1.027
       1.525
       2.109
       2.270
       1.637
       0.192
      -1.708
      -3.492
      -4.618
      -4.778
      -3.978
      -2.486
      -0.718
       0.885
       1.958
       2.289
       1.875
       0.956
      -0.008
      -0.466
      -0.013
       1.363
       3.171
       4.569
       4.740
       3.313
       0.581
      -2.596
      -5.144
      -6.195
      -5.408
      -3.073
       0.004
       2.782
       4.364
       4.310
       2.786
       0.472
      -1.732
      -3.049
      -3.100
      -1.991
      -0.227
       1.512
       2.632
       2.831
       2.180
       1.070
       0.031
      -0.493
      -0.324
       0.398
       1.324
       2.068
       2.364
       2.111
       1.357
       0.254
      -0.971
      -2.052
      -2.743
      -2.893
      -2.521
      -1.821
      -1.092
      -0.613
      -0.544
      -0.869
      -1.411
      -1.887
      -2.016
      -1.642
      -0.838
       0.106
       0.821
       1.083
       0.946
       0.702
       0.678
       1.014
       1.579
       2.068
       2.191
       1.835
       1.106
       0.267
      -0.393
      -0.689
      -0.629
      -0.395
      -0.222
      -0.246
      -0.414
      -0.538
      -0.455
      -0.165
       0.153
       0.267
       0.057
      -0.397
      -0.868
      -1.125
      -1.059
      -0.704
      -0.173
       0.428
       1.015
       1.496
       1.755
       1.697
       1.317
       0.731
       0.113
      -0.412
      -0.836
      -1.255
      -1.761
      -2.334
      -2.801
      -2.907
      -2.460
      -1.466
      -0.165
       1.052
       1.827
       2.006
       1.706
       1.232
       0.916
       0.975
       1.448
       2.202
       2.969
       3.400
       3.175
       2.147
       0.459
      -1.467
      -3.087
      -3.951
      -3.863
      -2.923
      -1.452
       0.116
       1.366
       2.027
       2.062
       1.672
       1.175
       0.814
       0.613
       0.390
      -0.080
      -0.872
      -1.840
      -2.707
      -3.224
      -3.280
      -2.909
      -2.209
      -1.275
      -0.188
       0.941
       1.953
       2.671
       2.974
       2.844
       2.369
       1.697
       0.986
       0.366
      -0.084
      -0.346
      -0.468
      -0.546
      -0.703
      -1.056
      -1.679
      -2.557
      -3.549
      -4.378
      -4.683
      -4.146
      -2.650
      -0.374
       2.227
       4.563
       6.119
       6.625
       6.109
       4.830
       3.135
       1.360
      -0.224
      -1.428
      -2.163
      -2.466
      -2.477
      -2.344
      -2.121
      -1.736
      -1.081
      -0.171
       0.769
       1.384
       1.388
       0.733
      -0.361
      -1.515
      -2.343
      -2.569
      -2.072
      -0.933
       0.550
       1.910
       2.669
       2.557
       1.662
       0.408
      -0.659
      -1.127
      -0.883
      -0.121
       0.790
       1.460
       1.607
       1.140
       0.200
      -0.874
      -1.672
      -1.893
      -1.502
      -0.746
      -0.036
       0.265
       0.009
      -0.670
      -1.434
      -1.892
      -1.771
      -1.042
       0.076
       1.204
       1.978
       2.197
       1.902
       1.348
       0.892
       0.842
       1.311
       2.151
       2.996
       3.410
       3.069
       1.909
       0.143
      -1.839
      -3.635
      -4.949
      -5.611
      -5.553
      -4.792
      -3.454
      -1.799
      -0.163
       1.142
       1.922
       2.143
       1.906
       1.409
       0.899
       0.635
       0.821
       1.527
       2.625
       3.799
       4.642
       4.801
       4.108
       2.634
       0.678
      -1.320
      -2.895
      -3.705
      -3.649
      -2.917
      -1.910
      -1.069
      -0.688
      -0.809
      -1.215
      -1.546
      -1.464
      -0.813
       0.287
       1.465
       2.228
       2.172
       1.177
      -0.507
      -2.329
      -3.646
      -3.965
      -3.132
      -1.374
       0.769
       2.618
       3.574
       3.350
       2.110
       0.441
      -0.876
      -1.213
      -0.381
       1.293
       3.137
       4.451
       4.802
       4.152
       2.776
       1.067
      -0.645
      -2.170
      -3.420
      -4.349
      -4.921
      -5.134
      -5.038
      -4.726
      -4.311
      -3.891
      -3.496
      -3.029
      -2.264
      -0.952
       0.994
       3.353
       5.626
       7.246
       7.856
       7.449
       6.335
       4.964
       3.749
       2.948
       2.588
       2.439
       2.044
       0.892
      -1.313
      -4.407
      -7.726
     -10.346
     -11.480
     -10.828
      -8.652
      -5.591
      -2.333
       0.617
       2.989
       4.662
       5.570
       5.702
       5.166
       4.227
       3.264
       2.625
       2.478
       2.742
       3.149
       3.387
       3.225
       2.570
       1.457
       0.021
      -1.532
      -2.964
      -4.078
      -4.786
      -5.106
      -5.091
      -4.749
      -4.036
      -2.929
      -1.502
       0.058
       1.504
       2.601
       3.177
       3.148
       2.559
       1.605
       0.614
      -0.071
      -0.242
       0.067
       0.596
       0.978
       0.902
       0.226
      -0.972
      -2.406
      -3.639
      -4.197
      -3.736
      -2.227
      -0.031
       2.211
       3.849
       4.511
       4.235
       3.393
       2.455
       1.749
       1.343
       1.083
       0.753
       0.228
      -0.455
      -1.144
      -1.679
      -1.988
      -2.119
      -2.198
      -2.346
      -2.633
      -3.062
      -3.607
      -4.210
      -4.766
      -5.094
      -4.963
      -4.162
      -2.575
      -0.228
       2.697
       5.863
       8.799
      10.969
      11.917
      11.419
       9.573
       6.775
       3.588
       0.567
      -1.893
      -3.630
      -4.699
      -5.281
      -5.560
      -5.620
      -5.420
      -4.875
      -3.972
      -2.824
      -1.632
      -0.584
       0.193
       0.632
       0.697
       0.393
      -0.200
      -0.916
      -1.537
      -1.869
      -1.810
      -1.371
      -0.646
       0.256
       1.253
       2.312
       3.425
       4.594
       5.782
       6.857
       7.545
       7.477
       6.348
       4.125
       1.145
      -1.962
      -4.517
      -6.047
      -6.444
      -5.949
      -5.024
      -4.160
      -3.687
      -3.651
      -3.803
      -3.737
      -3.124
      -1.918
      -0.414
       0.898
       1.594
       1.528
       0.878
       0.039
      -0.545
      -0.507
       0.340
       1.942
       3.974
       5.924
       7.250
       7.578
       6.810
       5.125
       2.896
       0.584
      -1.365
      -2.626
      -3.102
      -2.997
      -2.768
      -2.926
      -3.771
      -5.207
      -6.747
      -7.726
      -7.587
      -6.126
      -3.579
      -0.544
       2.230
       4.101
       4.769
       4.384
       3.476
       2.699
       2.510
       2.954
       3.680
       4.189
       4.128
       3.443
       2.331
       1.077
      -0.078
      -0.994
      -1.611
      -1.951
      -2.114
      -2.262
      -2.543
      -2.989
      -3.454
      -3.683
      -3.449
      -2.687
      -1.531
      -0.232
       0.961
       1.890
       2.501
       2.795
       2.778
       2.466
       1.932
       1.353
       1.001
       1.126
       1.795
       2.788
       3.665
       3.972
       3.487
       2.319
       0.815
      -0.648
      -1.852
      -2.777
      -3.524
      -4.188
      -4.784
      -5.246
      -5.469
      -5.363
      -4.894
      -4.073
      -2.943
      -1.561
      -0.010
       1.588
       3.082
       4.332
       5.266
       5.893
       6.253
       6.334
       6.025
       5.162
       3.650
       1.572
      -0.788
      -3.032
      -4.798
      -5.883
      -6.289
      -6.189
      -5.843
      -5.483
      -5.199
      -4.877
      -4.261
      -3.121
      -1.436
       0.554
       2.467
       3.988
       5.012
       5.624
       5.962
       6.089
       5.976
       5.570
       4.878
       3.973
       2.963
       1.933
       0.915
      -0.125
      -1.260
      -2.537
      -3.893
      -5.103
      -5.840
      -5.823
      -4.973
      -3.472
      -1.680
       0.018
       1.332
       2.138
       2.469
       2.488
       2.415
       2.432
       2.610
       2.884
       3.105
       3.124
       2.850
       2.263
       1.407
       0.390
      -0.633
      -1.509
      -2.150
      -2.564
      -2.810
      -2.922
      -2.885
      -2.684
      -2.391
      -2.157
      -2.109
      -2.214
      -2.273
      -2.040
      -1.397
      -0.439
       0.594
       1.470
       2.078
       2.422
       2.541
       2.433
       2.060
       1.386
       0.429
      -0.731
      -1.943
      -2.978
      -3.552
      -3.423
      -2.528
      -1.062
       0.580
       1.977
       2.841
       3.070
       2.697
       1.842
       0.711
      -0.394
      -1.135
      -1.265
      -0.775
       0.100
       0.997
       1.613
       1.824
       1.687
       1.357
       1.000
       0.741
       0.633
       0.652
       0.699
       0.643
       0.388
      -0.080
      -0.667
      -1.201
      -1.476
      -1.336
      -0.758
       0.090
       0.890
       1.299
       1.110
       0.358
      -0.708
      -1.738
      -2.429
      -2.614
      -2.275
      -1.509
      -0.487
       0.576
       1.466
       2.039
       2.272
       2.276
       2.229
       2.268
       2.403
       2.495
       2.322
       1.696
       0.587
      -0.819
      -2.144
      -2.965
      -3.020
      -2.377
      -1.443
      -0.774
      -0.787
      -1.547
      -2.752
      -3.930
      -4.686
      -4.851
      -4.473
      -3.702
      -2.706
      -1.645
      -0.680
       0.068
       0.603
       1.097
       1.810
       2.886
       4.188
       5.306
       5.761
       5.277
       3.937
       2.155
       0.495
      -0.542
      -0.698
      -0.052
       0.996
       1.876
       2.096
       1.494
       0.324
      -0.876
      -1.572
      -1.507
      -0.809
       0.112
       0.781
       0.872
       0.314
      -0.719
      -1.903
      -2.890
      -3.429
      -3.449
      -3.061
      -2.472
      -1.862
      -1.287
      -0.690
       0.016
       0.840
       1.688
       2.413
       2.903
       3.134
       3.157
       3.054
       2.902
       2.746
       2.569
       2.260
       1.625
       0.492
      -1.138
      -2.977
      -4.491
      -5.112
      -4.510
      -2.768
      -0.364
       2.034
       3.831
       4.691
       4.579
       3.686
       2.299
       0.707
      -0.842
      -2.158
      -3.126
      -3.744
      -4.135
      -4.492
      -4.948
      -5.467
      -5.829
      -5.756
      -5.069
      -3.767
      -1.980
       0.128
       2.424
       4.774
       6.965
       8.666
       9.498
       9.190
       7.732
       5.414
       2.723
       0.158
      -1.941
      -3.466
      -4.492
      -5.154
      -5.536
      -5.619
      -5.327
      -4.610
      -3.510
      -2.162
      -0.732
       0.650
       1.915
       3.027
       3.948
       4.617
       4.955
       4.883
       4.370
       3.487
       2.444
       1.542
       1.037
       0.980
       1.138
       1.072
       0.371
      -1.084
      -2.989
      -4.708
      -5.570
      -5.199
      -3.693
      -1.568
       0.480
       1.868
       2.313
       1.869
       0.836
      -0.378
      -1.378
      -1.866
