Origin Time       26/2/2010 4:42:33	 
Lat.              28.5 N	
Long.             86.7 E	
Depth (Km)         28.0
Magnitude         5.4
 Region           Tibet                                                            
 Above details taken from IMD 
   
Station Code      SLG
Station Lat.       26.712
Station Long.      88.428
Station Height(m)  131.0
Site Class        C   Vs30 between 200 m/sec to 375 m/sec *  
Record Time       26.02.2010 04:43:29.979
Sampling Rate     200. Hz
 Record Duration   66.725 Sec.
 Direction         Vert. (Up positive)
Max. Acceleration      9.533 cm/sec**2
     
  * For reference see Site Classification link of website 
     
 Base Line Corrected and Low Pass Filtered (Cut Off at 35 Hz) Time History
 Acceleration data in cm/sec**2
    
[...]
       0.619
       0.693
       0.597
       0.383
       0.140
      -0.068
      -0.220
      -0.320
      -0.365
      -0.332
      -0.198
       0.016
       0.237
       0.351
       0.270
      -0.022
      -0.439
      -0.833
      -1.057
      -1.028
      -0.755
      -0.330
       0.115
       0.451
       0.596
       0.538
       0.338
       0.097
      -0.084
      -0.150
      -0.103
       0.009
       0.115
       0.153
       0.091
      -0.048
      -0.197
      -0.277
      -0.255
      -0.160
      -0.055
       0.014
       0.048
       0.077
       0.129
       0.193
       0.235
       0.222
       0.152
       0.069
       0.045
       0.139
       0.361
       0.652
       0.911
       1.029
       0.924
       0.560
      -0.025
      -0.710
      -1.303
      -1.607
      -1.506
      -1.036
      -0.384
       0.194
       0.482
       0.412
       0.085
      -0.287
      -0.504
      -0.481
      -0.285
      -0.069
       0.040
       0.032
       0.005
       0.067
       0.245
       0.451
       0.547
       0.449
       0.180
      -0.154
      -0.436
      -0.608
      -0.679
      -0.689
      -0.660
      -0.565
      -0.350
       0.019
       0.509
       1.008
       1.349
       1.379
       1.036
       0.414
      -0.242
      -0.634
      -0.561
      -0.036
       0.707
       1.326
       1.543
       1.266
       0.613
      -0.153
      -0.752
      -0.988
      -0.823
      -0.388
       0.082
       0.361
       0.340
       0.065
      -0.313
      -0.648
      -0.871
      -0.992
      -1.044
      -1.026
      -0.911
      -0.693
      -0.424
      -0.201
      -0.111
      -0.169
      -0.305
      -0.395
      -0.326
      -0.057
       0.357
       0.789
       1.098
       1.203
       1.124
       0.961
       0.816
       0.720
       0.606
       0.376
      -0.020
      -0.535
      -1.036
      -1.362
      -1.388
      -1.078
      -0.510
       0.132
       0.631
       0.829
       0.712
       0.411
       0.109
      -0.068
      -0.121
      -0.130
      -0.161
      -0.195
      -0.150
       0.036
       0.332
       0.616
       0.762
       0.726
       0.573
       0.414
       0.322
       0.289
       0.249
       0.147
      -0.013
      -0.173
      -0.269
      -0.278
      -0.239
      -0.231
      -0.330
      -0.564
      -0.893
      -1.209
      -1.377
      -1.295
      -0.956
      -0.454
       0.055
       0.432
       0.623
       0.667
       0.643
       0.607
       0.563
       0.484
       0.359
       0.207
       0.056
      -0.094
      -0.267
      -0.476
      -0.685
      -0.816
      -0.813
      -0.680
      -0.470
      -0.235
       0.015
       0.292
       0.582
       0.829
       0.965
       0.962
       0.852
       0.720
       0.655
       0.710
       0.871
       1.072
       1.229
       1.267
       1.133
       0.803
       0.299
      -0.288
      -0.809
      -1.109
      -1.117
      -0.894
      -0.604
      -0.409
      -0.378
      -0.455
      -0.532
      -0.538
      -0.495
      -0.492
      -0.600
      -0.790
      -0.922
      -0.821
      -0.395
       0.283
       0.988
       1.453
       1.482
       1.033
       0.229
      -0.693
      -1.463
      -1.867
      -1.802
      -1.312
      -0.574
       0.155
       0.637
       0.751
       0.539
       0.176
      -0.115
      -0.159
       0.098
       0.563
       1.038
       1.322
       1.315
       1.065
       0.715
       0.402
       0.180
       0.011
      -0.168
      -0.396
      -0.666
      -0.939
      -1.158
      -1.247
      -1.119
      -0.716
      -0.073
       0.640
       1.171
       1.319
       1.064
       0.594
       0.186
       0.039
       0.162
       0.406
       0.596
       0.637
       0.536
       0.341
       0.077
      -0.255
      -0.638
      -1.006
      -1.271
      -1.377
      -1.331
      -1.189
      -1.003
      -0.788
      -0.519
      -0.168
       0.252
       0.670
       0.972
       1.059
       0.891
       0.513
       0.043
      -0.359
      -0.548
      -0.449
      -0.090
       0.410
       0.894
       1.228
       1.334
       1.200
       0.860
       0.376
      -0.178
      -0.704
      -1.089
      -1.232
      -1.088
      -0.707
      -0.227
       0.178
       0.363
       0.265
      -0.076
      -0.544
      -0.988
      -1.282
      -1.358
      -1.221
      -0.917
      -0.502
      -0.019
       0.509
       1.061
       1.595
       2.022
       2.207
       2.036
       1.505
       0.759
       0.045
      -0.416
      -0.542
      -0.404
      -0.147
       0.101
       0.284
       0.387
       0.394
       0.269
      -0.004
      -0.374
      -0.715
      -0.871
      -0.751
      -0.380
       0.098
       0.492
       0.659
       0.575
       0.341
       0.105
      -0.054
      -0.174
      -0.373
      -0.732
      -1.218
      -1.686
      -1.982
      -2.034
      -1.866
      -1.538
      -1.067
      -0.430
       0.368
       1.220
       1.911
       2.222
       2.056
       1.501
       0.783
       0.133
      -0.323
      -0.586
      -0.717
      -0.757
      -0.698
      -0.530
      -0.286
      -0.036
       0.161
       0.300
       0.413
       0.544
       0.720
       0.960
       1.256
       1.549
       1.723
       1.646
       1.259
       0.633
      -0.057
      -0.624
      -0.972
      -1.122
      -1.171
      -1.213
      -1.287
      -1.374
      -1.406
      -1.307
      -1.018
      -0.546
       0.014
       0.508
       0.781
       0.769
       0.533
       0.235
       0.056
       0.112
       0.402
       0.820
       1.191
       1.335
       1.136
       0.605
      -0.106
      -0.764
      -1.167
      -1.244
      -1.080
      -0.833
      -0.617
      -0.421
      -0.149
       0.270
       0.789
       1.259
       1.522
       1.513
       1.272
       0.881
       0.392
      -0.179
      -0.807
      -1.399
      -1.807
      -1.897
      -1.623
      -1.054
      -0.329
       0.402
       1.021
       1.438
       1.575
       1.374
       0.845
       0.117
      -0.574
      -0.982
      -0.991
      -0.688
      -0.313
      -0.117
      -0.232
      -0.630
      -1.163
      -1.640
      -1.884
      -1.773
      -1.272
      -0.474
       0.405
       1.113
       1.489
       1.545
       1.421
       1.250
       1.058
       0.779
       0.376
      -0.067
      -0.370
      -0.379
      -0.083
       0.372
       0.775
       0.976
       0.948
       0.768
       0.528
       0.283
       0.035
      -0.232
      -0.528
      -0.854
      -1.197
      -1.506
      -1.677
      -1.587
      -1.172
      -0.490
       0.280
       0.917
       1.284
       1.395
       1.399
       1.448
       1.573
       1.644
       1.470
       0.957
       0.200
      -0.556
      -1.046
      -1.118
      -0.796
      -0.258
       0.242
       0.458
       0.249
      -0.375
      -1.249
      -2.103
      -2.658
      -2.713
      -2.215
      -1.286
      -0.187
       0.769
       1.334
       1.410
       1.077
       0.533
       0.003
      -0.354
      -0.483
      -0.412
      -0.205
       0.080
       0.379
       0.597
       0.626
       0.409
       0.009
      -0.380
      -0.534
      -0.329
       0.149
       0.624
       0.766
       0.394
      -0.394
      -1.244
      -1.742
      -1.640
      -0.991
      -0.092
       0.687
       1.096
       1.099
       0.857
       0.630
       0.668
       1.114
       1.951
       2.995
       3.937
       4.447
       4.287
       3.411
       1.987
       0.346
      -1.150
      -2.223
      -2.770
      -2.873
      -2.745
      -2.629
      -2.675
      -2.871
      -3.043
      -2.948
      -2.413
      -1.427
      -0.160
       1.116
       2.129
       2.709
       2.813
       2.517
       1.965
       1.317
       0.715
       0.243
      -0.102
      -0.410
      -0.816
      -1.395
      -2.077
      -2.654
      -2.899
      -2.713
      -2.181
      -1.504
      -0.848
      -0.266
       0.281
       0.815
       1.270
       1.509
       1.425
       1.047
       0.556
       0.199
       0.151
       0.423
       0.844
       1.145
       1.101
       0.674
       0.069
      -0.358
      -0.312
       0.233
       0.979
       1.475
       1.386
       0.683
      -0.371
      -1.396
      -2.094
      -2.338
      -2.156
      -1.656
      -0.986
      -0.323
       0.152
       0.305
       0.115
      -0.307
      -0.765
      -1.060
      -1.044
      -0.636
       0.172
       1.293
       2.537
       3.641
       4.350
       4.517
       4.159
       3.425
       2.516
       1.596
       0.737
      -0.073
      -0.869
      -1.655
      -2.382
      -2.992
      -3.466
      -3.819
      -4.050
      -4.102
      -3.870
      -3.275
      -2.346
      -1.234
      -0.162
       0.690
       1.261
       1.615
       1.872
       2.106
       2.293
       2.324
       2.087
       1.547
       0.794
       0.018
      -0.556
      -0.778
      -0.641
      -0.298
       0.034
       0.200
       0.189
       0.113
       0.085
       0.110
       0.066
      -0.204
      -0.745
      -1.420
      -1.955
      -2.087
      -1.703
      -0.904
       0.045
       0.836
       1.240
       1.198
       0.829
       0.357
       0.005
      -0.095
       0.082
       0.491
       1.064
       1.721
       2.343
       2.769
       2.833
       2.443
       1.651
       0.646
      -0.334
      -1.120
      -1.673
      -2.038
      -2.254
      -2.308
      -2.170
      -1.860
      -1.465
      -1.076
      -0.700
      -0.243
       0.408
       1.264
       2.160
       2.806
       2.951
       2.554
       1.823
       1.088
       0.605
       0.430
       0.439
       0.452
       0.344
       0.095
      -0.236
      -0.566
      -0.843
      -1.079
      -1.344
      -1.723
      -2.248
      -2.864
      -3.434
      -3.816
      -3.938
      -3.827
      -3.560
      -3.170
      -2.601
      -1.756
      -0.615
       0.674
       1.831
       2.580
       2.805
       2.609
       2.262
       2.060
       2.194
       2.678
       3.370
       4.040
       4.450
       4.419
       3.877
       2.904
       1.727
       0.663
      -0.018
      -0.217
      -0.067
       0.131
       0.061
      -0.445
      -1.320
      -2.290
      -2.978
      -3.074
      -2.474
      -1.364
      -0.172
       0.594
       0.578
      -0.246
      -1.560
      -2.846
      -3.624
      -3.642
      -2.949
      -1.829
      -0.637
       0.353
       1.027
       1.412
       1.599
       1.674
       1.688
       1.664
       1.597
       1.429
       1.036
       0.282
      -0.868
      -2.231
      -3.411
      -3.970
      -3.680
      -2.672
      -1.362
      -0.191
       0.628
       1.182
       1.720
       2.416
       3.234
       3.981
       4.473
       4.672
       4.676
       4.602
       4.453
       4.081
       3.267
       1.856
      -0.128
      -2.458
      -4.766
      -6.651
      -7.780
      -7.975
      -7.286
      -6.001
      -4.560
      -3.356
      -2.546
      -1.977
      -1.309
      -0.239
       1.292
       3.066
       4.712
       5.904
       6.488
       6.481
       5.968
       5.016
       3.671
       2.011
       0.204
      -1.518
      -2.922
      -3.832
      -4.145
      -3.832
      -2.948
      -1.660
      -0.230
       1.054
       1.970
       2.424
       2.445
       2.137
       1.651
       1.168
       0.889
       0.951
       1.314
       1.720
       1.791
       1.242
       0.052
      -1.523
      -3.104
      -4.374
      -5.182
      -5.524
      -5.465
      -5.067
      -4.369
      -3.417
      -2.286
      -1.088
       0.061
       1.087
       1.971
       2.714
       3.292
       3.626
       3.618
       3.223
       2.494
       1.571
       0.648
      -0.070
      -0.387
      -0.163
       0.603
       1.706
       2.765
       3.383
       3.351
       2.739
       1.819
       0.875
       0.045
      -0.690
      -1.400
      -2.099
      -2.712
      -3.137
      -3.333
      -3.341
      -3.240
      -3.062
      -2.763
      -2.266
      -1.548
      -0.696
       0.128
       0.779
       1.203
       1.437
       1.561
       1.631
       1.671
       1.698
       1.739
       1.822
       1.935
       2.010
       1.964
       1.756
       1.423
       1.035
       0.633
       0.180
      -0.401
      -1.151
      -1.988
      -2.702
      -3.020
      -2.729
      -1.797
      -0.421
       1.034
       2.184
       2.783
       2.819
       2.493
       2.089
       1.815
       1.680
       1.516
       1.107
       0.353
      -0.653
      -1.680
      -2.488
      -2.945
      -3.054
      -2.906
      -2.592
      -2.170
      -1.687
      -1.233
      -0.938
      -0.905
      -1.116
      -1.399
      -1.513
      -1.287
      -0.722
       0.023
       0.745
       1.311
       1.697
       1.933
       2.020
       1.889
       1.440
       0.642
      -0.389
      -1.375
      -1.964
      -1.887
      -1.096
       0.181
       1.519
       2.499
       2.920
       2.911
       2.836
       3.038
       3.582
       4.165
       4.271
       3.473
       1.677
      -0.827
      -3.525
      -5.933
      -7.762
      -8.931
      -9.444
      -9.262
      -8.282
      -6.443
      -3.852
      -0.823
       2.221
       4.909
       7.028
       8.507
       9.343
       9.533
       9.068
       7.988
       6.430
       4.623
       2.819
       1.192
      -0.212
      -1.450
      -2.586
      -3.623
      -4.487
      -5.083
      -5.341
      -5.248
      -4.829
      -4.130
      -3.198
      -2.082
      -0.834
       0.474
       1.737
       2.806
       3.505
       3.701
       3.367
       2.604
       1.590
       0.512
      -0.485
      -1.295
      -1.852
      -2.153
      -2.268
      -2.317
      -2.385
      -2.447
      -2.375
      -2.037
      -1.419
      -0.674
      -0.030
       0.359
       0.502
       0.520
       0.529
       0.551
       0.537
       0.457
       0.366
       0.390
       0.657
       1.205
       1.950
       2.724
       3.362
       3.782
       4.001
       4.060
       3.926
       3.459
       2.483
       0.935
      -1.026
      -3.025
      -4.619
      -5.499
      -5.628
      -5.201
      -4.484
      -3.635
      -2.669
      -1.545
      -0.302
       0.894
       1.822
       2.342
       2.488
       2.430
       2.344
       2.275
       2.101
       1.630
       0.751
      -0.449
      -1.689
      -2.608
      -2.932
      -2.598
      -1.773
      -0.762
       0.131
       0.724
       1.019
       1.167
       1.350
       1.655
       2.003
       2.198
       2.045
       1.473
       0.593
      -0.341
      -1.043
      -1.334
      -1.228
      -0.919
      -0.662
      -0.633
      -0.850
      -1.207
      -1.572
      -1.872
      -2.098
      -2.246
      -2.263
      -2.059
      -1.577
      -0.861
      -0.058
       0.640
       1.095
       1.288
       1.319
       1.355
       1.556
       1.995
       2.613
       3.225
       3.595
       3.573
       3.210
       2.751
       2.483
       2.535
       2.774
       2.886
       2.580
       1.749
       0.484
      -1.050
      -2.732
      -4.474
      -6.139
      -7.475
      -8.191
      -8.104
      -7.255
      -5.871
      -4.216
      -2.457
      -0.653
       1.159
       2.869
       4.285
       5.217
       5.595
       5.511
       5.169
       4.777
       4.437
       4.119
       3.695
       3.020
       2.002
       0.662
      -0.857
      -2.322
      -3.490
      -4.186
      -4.353
      -4.070
      -3.521
      -2.930
      -2.474
      -2.195
      -1.982
      -1.644
      -1.029
      -0.112
       1.005
       2.161
       3.192
       3.946
       4.279
       4.063
       3.246
       1.920
       0.343
      -1.123
      -2.133
      -2.492
      -2.217
      -1.521
      -0.706
      -0.052
       0.280
       0.277
       0.044
      -0.283
      -0.611
      -0.907
      -1.155
      -1.294
      -1.228
      -0.895
      -0.344
       0.269
       0.762
       1.043
       1.169
       1.310
       1.621
       2.111
       2.602
       2.822
       2.568
       1.834
       0.808
      -0.225
      -1.021
      -1.464
      -1.578
      -1.484
      -1.339
      -1.266
      -1.308
      -1.424
      -1.524
      -1.513
      -1.332
      -0.971
      -0.476
       0.056
       0.510
       0.777
       0.801
       0.591
       0.240
      -0.107
      -0.317
      -0.343
      -0.254
      -0.185
      -0.228
      -0.369
      -0.496
      -0.491
      -0.315
      -0.033
       0.241
       0.406
       0.426
       0.341
       0.232
       0.175
       0.218
       0.375
       0.645
       1.022
       1.464
       1.876
       2.117
       2.055
       1.649
       0.995
       0.305
      -0.183
      -0.323
      -0.147
       0.150
       0.317
       0.184
      -0.253
      -0.861
      -1.470
      -1.968
      -2.326
      -2.562
      -2.684
      -2.660
      -2.440
      -2.014
      -1.437
      -0.816
      -0.253
       0.209
       0.612
       1.045
       1.568
       2.134
       2.595
       2.769
       2.567
       2.066
       1.493
       1.095
       0.979
       1.038
       1.021
       0.706
       0.059
      -0.739
      -1.416
      -1.778
      -1.803
      -1.621
      -1.395
      -1.206
      -1.026
      -0.777
      -0.428
      -0.050
       0.226
       0.300
       0.187
       0.013
      -0.066
       0.043
       0.333
       0.719
       1.081
       1.299
       1.286
       1.028
       0.596
       0.127
      -0.238
      -0.408
      -0.365
      -0.155
       0.139
       0.411
       0.565
       0.537
       0.336
       0.024
      -0.325
      -0.675
      -1.029
      -1.382
      -1.691
      -1.892
      -1.952
      -1.894
      -1.774
      -1.610
      -1.344
      -0.882
      -0.189
       0.646
       1.435
       2.008
       2.316
       2.442
       2.498
       2.526
       2.467
       2.232
       1.783
       1.167
       0.492
      -0.124
      -0.590
      -0.873
      -1.006
      -1.064
      -1.125
      -1.221
      -1.332
      -1.403
      -1.383
      -1.251
      -1.022
      -0.728
      -0.396
      -0.040
       0.330
       0.690
       1.016
       1.305
       1.567
       1.789
       1.886
       1.730
       1.250
       0.522
      -0.237
      -0.778
      -0.963
      -0.827
      -0.537
      -0.281
      -0.170
      -0.217
      -0.368
      -0.563
      -0.766
      -0.942
      -1.046
      -1.058
      -1.028
      -1.083
      -1.337
      -1.785
      -2.273
      -2.580
      -2.544
      -2.120
      -1.358
      -0.344
       0.830
       2.057
       3.183
       3.994
       4.263
       3.832
       2.719
       1.164
      -0.425
      -1.623
      -2.171
      -2.068
      -1.528
      -0.835
      -0.208
       0.244
       0.489
       0.515
       0.339
       0.041
      -0.218
      -0.262
      -0.006
       0.468
       0.928
       1.117
       0.908
       0.381
      -0.212
      -0.571
      -0.492
       0.033
       0.805
