Origin Time       18/9/2011 12:40:47	 UTC
Lat.              27.6 N	
Long.             88.2 E	
Depth (Km)         10.0
Magnitude         6.8
 Region           India(Sikkim)-Nepar-Border                                       
 Above details taken from IMD 
    
Station Code      SLG
Station Lat.       26.712  N
Station Long.      88.428  E
Station Height(m)  131.0
Site Class        C   Vs30 between 200 m/sec to 375 m/sec *  
Record Time       18.09.2011 12:40:58.379 UTC
Sampling Rate     200. Hz
 Record Duration  169.845 Sec.
 Direction         N-S (N positive)
Max. Acceleration   -201.651 cm/sec**2
     
  * For reference see Site Classification link of website 
     
 Base Line Corrected and Low Pass Filtered (Cut Off at 35 Hz) Time History
 Acceleration data in cm/sec**2
    
[...]
     -21.543
     -38.125
     -55.675
     -73.416
     -90.008
    -103.836
    -113.510
    -118.287
    -118.213
    -113.896
    -106.093
     -95.392
     -82.174
     -66.771
     -49.613
     -31.240
     -12.236
       6.858
      25.603
      43.674
      60.817
      76.794
      91.413
     104.621
     116.530
     127.245
     136.585
     143.942
     148.464
     149.429
     146.557
     140.000
     130.021
     116.614
      99.458
      78.383
      53.993
      27.870
       2.074
     -21.726
     -42.880
     -61.770
     -79.332
     -96.488
    -113.755
    -131.105
    -147.981
    -163.391
    -175.965
    -183.978
    -185.511
    -179.042
    -164.364
    -143.135
    -118.411
     -93.324
     -69.799
     -48.172
     -27.759
      -7.759
      12.160
      31.784
      50.566
      67.867
      83.185
      96.342
     107.542
     117.190
     125.608
     132.813
     138.488
     142.130
     143.286
     141.796
     137.922
     132.266
     125.479
     117.879
     109.173
      98.421
      84.357
      65.994
      43.185
      16.830
     -11.404
     -39.592
     -65.947
     -88.911
    -107.083
    -119.300
    -124.987
    -124.482
    -118.942
    -109.809
     -98.295
     -85.233
     -71.255
     -56.951
     -42.803
     -28.959
     -15.120
      -0.745
      14.482
      30.226
      45.386
      58.339
      67.373
      71.095
      68.766
      60.517
      47.362
      30.945
      13.116
      -4.495
     -20.752
     -35.117
     -47.604
     -58.625
     -68.770
     -78.590
     -88.453
     -98.456
    -108.354
    -117.558
    -125.335
    -131.125
    -134.726
    -136.155
    -135.291
    -131.686
    -124.831
    -114.710
    -102.093
     -88.218
     -74.066
     -59.848
     -45.096
     -29.211
     -12.022
       6.027
      24.030
      40.893
      55.596
      67.453
      76.351
      82.822
      87.800
      92.120
      95.998
      98.814
      99.316
      96.157
      88.507
      76.504
      61.298
      44.591
      27.933
      12.192
      -2.532
     -16.576
     -30.253
     -43.530
     -55.965
     -66.836
     -75.334
     -80.806
     -82.990
     -82.094
     -78.625
     -73.063
     -65.629
     -56.372
     -45.458
     -33.328
     -20.538
      -7.434
       5.989
      19.894
      34.283
      48.814
      62.910
      76.021
      87.867
      98.481
     108.061
     116.704
     124.133
     129.526
     131.577
     128.896
     120.705
     107.479
      90.984
      73.547
      56.955
      41.715
      27.087
      11.831
      -4.844
     -22.706
     -40.601
     -57.002
     -70.567
     -80.397
     -85.966
     -86.982
     -83.404
     -75.635
     -64.633
     -51.697
     -37.966
     -24.005
      -9.875
       4.388
      18.307
      30.922
      41.205
      48.617
      53.353
      56.092
      57.473
      57.673
      56.391
      53.213
      48.017
      41.044
      32.597
      22.744
      11.331
      -1.662
     -15.793
     -30.172
     -43.859
     -56.278
     -67.321
     -77.141
     -85.929
     -93.892
    -101.308
    -108.371
    -114.747
    -119.187
    -119.697
    -114.413
    -102.731
     -85.864
     -66.360
     -46.829
     -28.716
     -11.993
       4.107
      20.041
      35.507
      49.801
      62.447
      73.472
      83.178
      91.765
      99.108
     104.741
     107.952
     107.944
     104.044
      95.895
      83.582
      67.676
      49.216
      29.532
       9.894
      -8.838
     -26.258
     -42.083
     -55.757
     -66.480
     -73.709
     -77.659
     -79.262
     -79.579
     -79.143
     -77.779
     -74.950
     -70.279
     -63.811
     -55.921
     -47.016
     -37.329
     -26.953
     -16.078
      -5.164
       5.162
      14.438
      22.639
      30.152
      37.476
      44.875
      52.195
      58.910
      64.310
      67.711
      68.578
      66.575
      61.629
      54.013
      44.377
      33.592
      22.427
      11.241
      -0.075
     -11.815
     -24.016
     -36.154
     -47.199
     -55.983
     -61.667
     -64.059
     -63.641
     -61.297
     -57.894
     -53.950
     -49.559
     -44.538
     -38.650
     -31.758
     -23.905
     -15.332
      -6.412
       2.483
      11.114
      19.423
      27.506
      35.545
      43.715
      51.977
      59.760
      65.802
      68.500
      66.728
      60.579
      51.434
      41.283
      31.837
      24.039
      18.177
      14.269
      12.338
      12.430
      14.484
      18.195
      22.987
      28.141
      33.010
      37.221
      40.727
      43.678
      46.194
      48.207
      49.479
      49.774
      49.082
      47.746
      46.418
      45.840
      46.545
      48.564
      51.281
      53.578
      54.284
      52.694
      48.846
      43.380
      37.087
      30.454
      23.500
      16.026
       8.026
      -0.104
      -7.807
     -14.830
     -21.484
     -28.435
     -36.198
     -44.701
     -53.200
     -60.581
     -65.828
     -68.406
     -68.369
     -66.201
     -62.551
     -58.069
     -53.405
     -49.245
     -46.231
     -44.746
     -44.708
     -45.536
     -46.351
     -46.307
     -44.897
     -42.168
     -38.756
     -35.728
     -34.190
     -34.832
     -37.620
     -41.800
     -46.212
     -49.764
     -51.847
     -52.472
     -52.057
     -51.028
     -49.570
     -47.701
     -45.528
     -43.372
     -41.566
     -40.125
     -38.596
     -36.282
     -32.630
     -27.478
     -20.977
     -13.304
      -4.504
       5.415
      16.215
      27.291
      37.815
      47.131
      55.127
      62.304
      69.475
      77.276
      85.767
      94.385
     102.240
     108.532
     112.826
     115.061
     115.374
     113.929
     110.856
     106.268
     100.295
      93.091
      84.830
      75.686
      65.843
      55.515
      44.969
      34.501
      24.420
      15.075
       6.882
       0.277
      -4.434
      -7.207
      -8.245
      -7.792
      -5.918
      -2.509
       2.498
       8.804
      15.606
      21.746
      26.010
      27.397
      25.276
      19.496
      10.453
      -0.931
     -13.431
     -25.868
     -37.388
     -47.508
     -55.979
     -62.658
     -67.537
     -70.876
     -73.218
     -75.178
     -77.134
     -79.035
     -80.467
     -80.890
     -79.839
     -76.986
     -72.111
     -65.139
     -56.258
     -46.020
     -35.269
     -24.882
     -15.503
      -7.401
      -0.520
       5.350
      10.370
      14.506
      17.570
      19.455
      20.435
      21.259
      22.908
      26.100
      30.865
      36.484
      41.826
      45.843
      47.895
      47.737
      45.319
      40.644
      33.782
      24.968
      14.620
       3.239
      -8.734
     -21.007
     -33.382
     -45.592
     -57.125
     -67.163
     -74.723
     -78.976
     -79.589
     -76.878
     -71.660
     -64.836
     -56.981
     -48.176
     -38.197
     -26.872
     -14.308
      -0.861
      13.057
      27.104
      40.977
      54.311
      66.654
      77.574
      86.803
      94.302
     100.199
     104.627
     107.581
     108.858
     108.162
     105.323
     100.540
      94.456
      87.976
      81.880
      76.439
      71.307
      65.816
      59.544
      52.700
      46.000
      40.118
      35.142
      30.493
      25.353
      19.268
      12.431
       5.431
      -1.265
      -7.657
     -14.102
     -20.911
     -28.015
     -34.971
     -41.233
     -46.472
     -50.724
     -54.263
     -57.300
     -59.642
     -60.555
     -58.965
     -54.017
     -45.658
     -34.842
     -23.153
     -12.136
      -2.800
       4.407
       9.293
      11.667
      11.352
       8.393
       3.209
      -3.483
     -10.910
     -18.503
     -26.031
     -33.585
     -41.411
     -49.665
     -58.244
     -66.769
     -74.757
     -81.795
     -87.576
     -91.799
     -94.068
     -93.940
     -91.138
     -85.782
     -78.446
     -69.956
     -61.081
     -52.347
     -44.081
     -36.570
     -30.188
     -25.409
     -22.666
     -22.076
     -23.211
     -25.134
     -26.746
     -27.241
     -26.337
     -24.164
     -20.931
     -16.685
     -11.291
      -4.583
       3.463
      12.641
      22.506
      32.417
      41.621
      49.386
      55.149
      58.632
      59.867
      59.161
      57.028
      54.091
      50.978
      48.252
      46.341
      45.407
      45.198
      45.080
      44.349
      42.643
      40.166
      37.572
      35.635
      34.884
      35.418
      36.981
      39.261
      42.214
      46.148
      51.498
      58.449
      66.685
      75.433
      83.775
      90.985
      96.686
     100.807
     103.426
     104.625
     104.362
     102.368
      98.110
      90.898
      80.197
      65.996
      49.020
      30.603
      12.263
      -4.810
     -20.026
     -33.351
     -45.079
     -55.636
     -65.492
     -75.082
     -84.648
     -94.048
    -102.698
    -109.809
    -114.772
    -117.441
    -118.063
    -116.939
    -114.133
    -109.503
    -102.987
     -94.887
     -85.916
     -76.966
     -68.754
     -61.562
     -55.212
     -49.292
     -43.467
     -37.669
     -32.050
     -26.777
     -21.875
     -17.241
     -12.773
      -8.450
      -4.300
      -0.317
       3.582
       7.478
      11.264
      14.463
      16.212
      15.511
      11.631
       4.471
      -5.339
     -16.654
     -28.214
     -39.018
     -48.494
     -56.447
     -62.892
     -67.856
     -71.242
     -72.767
     -72.001
     -68.471
     -61.827
     -52.015
     -39.409
     -24.767
      -9.005
       7.084
      22.934
      38.124
      52.259
      65.021
      76.357
      86.565
      96.110
     105.214
     113.518
     120.054
     123.586
     123.101
     118.170
     109.003
      96.225
      80.562
      62.665
      43.166
      22.877
       2.850
     -15.861
     -32.567
     -47.130
     -59.860
     -71.229
     -81.634
     -91.264
     -99.974
    -107.206
    -112.111
    -113.891
    -112.179
    -107.167
     -99.394
     -89.381
     -77.431
     -63.705
     -48.453
     -32.153
     -15.410
       1.274
      17.643
      33.614
      49.070
      63.721
      77.148
      89.032
      99.289
     107.972
     115.010
     120.101
     122.866
     123.125
     120.995
     116.741
     110.502
     102.130
      91.261
      77.540
      60.880
      41.638
      20.650
      -0.888
     -21.624
     -40.331
     -56.152
     -68.695
     -77.895
     -83.758
     -86.206
     -85.183
     -80.877
     -73.782
     -64.478
     -53.329
     -40.395
     -25.668
      -9.401
       7.715
      24.606
      39.989
      52.602
      61.486
      66.265
      67.276
      65.426
      61.784
      57.176
      52.002
      46.343
      40.200
      33.686
      27.044
      20.551
      14.380
       8.539
       2.900
      -2.697
      -8.353
     -14.102
     -19.957
     -25.916
     -31.885
     -37.578
     -42.512
     -46.200
     -48.437
     -49.477
     -49.899
     -50.224
     -50.536
     -50.368
     -48.920
     -45.452
     -39.570
     -31.258
     -20.753
      -8.445
       5.103
      19.130
      32.777
      45.308
      56.277
      65.464
      72.652
      77.443
      79.317
      77.866
      73.003
      64.917
      53.793
      39.565
      21.985
       1.034
     -22.604
     -47.367
     -71.086
     -91.583
    -107.305
    -117.636
    -122.740
    -123.139
    -119.373
    -111.958
    -101.536
     -88.980
     -75.306
     -61.406
     -47.780
     -34.438
     -21.096
      -7.549
       6.009
      18.969
      30.625
      40.560
      48.803
      55.669
      61.484
      66.468
      70.807
      74.741
      78.507
      82.125
      85.215
      87.037
      86.806
      84.103
      79.085
      72.388
      64.856
      57.281
      50.242
      44.014
      38.533
      33.437
      28.215
      22.433
      15.955
       9.016
       2.079
      -4.442
     -10.424
     -16.103
     -21.925
     -28.263
     -35.155
     -42.190
     -48.620
     -53.704
     -57.057
     -58.747
     -59.047
     -58.075
     -55.632
     -51.408
     -45.385
     -38.104
     -30.577
     -23.937
     -19.079
     -16.464
     -16.095
     -17.635
     -20.587
     -24.471
     -28.911
     -33.607
     -38.282
     -42.698
     -46.738
     -50.432
     -53.907
     -57.311
     -60.699
     -63.850
     -66.045
     -66.055
     -62.565
     -54.909
     -43.650
     -30.469
     -17.314
      -5.332
       5.620
      16.530
      28.167
      40.174
      50.887
      57.962
      59.470
      54.897
      45.436
      33.367
      20.887
       9.162
      -1.863
     -12.891
     -24.452
     -36.364
     -47.712
     -57.182
     -63.476
     -65.595
     -62.976
     -55.545
     -43.753
     -28.524
     -11.053
       7.515
      26.349
      44.946
      62.976
      80.119
      96.031
     110.359
     122.764
     132.970
     140.846
     146.457
     150.029
     151.815
     151.937
     150.322
     146.765
     141.094
     133.331
     123.793
     113.079
     101.922
      90.910
      80.172
      69.251
      57.313
      43.676
      28.311
      11.922
      -4.458
     -20.039
     -34.622
     -48.544
     -62.350
     -76.486
     -91.189
    -106.499
    -122.252
    -138.004
    -153.013
    -166.433
    -177.660
    -186.578
    -193.463
    -198.558
    -201.602
    -201.651
    -197.321
    -187.361
    -171.303
    -149.865
    -124.807
     -98.293
     -72.123
     -47.282
     -23.943
      -1.841
      19.253
      39.227
      57.606
      73.771
      87.235
      97.836
     105.751
     111.324
     114.837
     116.418
     116.152
     114.294
     111.246
     107.209
     101.809
      94.121
      83.199
      68.757
      51.509
      32.968
      14.925
      -1.006
     -13.662
     -22.439
     -27.305
     -28.703
     -27.345
     -24.034
     -19.606
     -14.956
     -11.004
      -8.484
      -7.666
      -8.202
      -9.269
      -9.934
      -9.580
      -8.157
      -6.139
      -4.210
      -2.840
      -1.984
      -1.095
       0.518
       3.211
       6.731
      10.315
      13.056
      14.240
      13.459
      10.545
       5.522
      -1.344
      -9.475
     -18.052
     -26.288
     -33.711
     -40.275
     -46.227
     -51.849
     -57.281
     -62.485
     -67.316
     -71.558
     -74.879
     -76.765
     -76.569
     -73.710
     -67.906
     -59.315
     -48.482
     -36.175
     -23.175
     -10.115
       2.615
      14.860
      26.623
      37.958
      48.888
      59.358
      69.191
      78.081
      85.643
      91.573
      95.819
      98.644
     100.498
     101.744
     102.424
     102.231
     100.702
      97.509
      92.663
      86.531
      79.721
      72.896
      66.601
      61.163
      56.672
      52.979
      49.693
      46.234
      42.007
      36.611
      29.984
      22.363
      14.125
       5.633
      -2.809
     -10.957
     -18.651
     -25.874
     -32.769
     -39.578
     -46.497
     -53.533
     -60.442
     -66.795
     -72.147
     -76.203
     -78.878
     -80.181
     -80.019
     -78.136
     -74.300
     -68.603
     -61.581
     -53.982
     -46.361
     -38.832
     -31.188
     -23.238
     -15.071
      -7.021
       0.597
       7.724
      14.522
      21.075
      27.106
      31.977
      35.003
      35.888
      34.973
      33.116
      31.297
      30.169
      29.779
      29.588
      28.766
      26.603
      22.821
      17.616
      11.471
       4.925
      -1.536
      -7.418
     -12.126
     -15.007
     -15.639
     -14.191
     -11.582
      -9.184
      -8.202
      -9.139
     -11.702
     -15.132
     -18.606
     -21.473
     -23.286
     -23.748
     -22.687
     -20.065
     -15.961
     -10.536
      -4.020
       3.210
      10.527
      17.083
      22.039
      24.852
      25.411
      23.977
      21.018
      17.044
      12.487
       7.649
       2.708
      -2.211
      -6.940
     -11.231
     -14.827
     -17.618
     -19.756
     -21.669
     -23.902
     -26.860
     -30.601
     -34.802
     -38.957
     -42.650
     -45.698
     -48.100
     -49.896
     -51.079
     -51.619
     -51.528
     -50.838
     -49.468
     -47.056
     -42.880
     -36.068
     -26.053
     -13.048
       1.859
      17.055
      30.962
      42.440
      50.883
      56.152
      58.480
      58.393
      56.557
      53.597
      49.971
      45.944
      41.600
      36.835
      31.371
      24.865
      17.123
       8.273
      -1.266
     -11.020
     -20.704
     -30.241
     -39.563
     -48.410
     -56.352
     -63.007
     -68.226
     -72.056
     -74.525
     -75.452
     -74.524
     -71.601
     -67.025
     -61.618
     -56.343
     -51.905
     -48.596
     -46.458
     -45.501
     -45.705
     -46.785
     -47.969
     -48.086
     -46.023
     -41.282
     -34.233
     -25.868
     -17.244
      -8.977
      -1.047
       7.043
      15.854
      25.591
      35.878
      45.874
      54.667
      61.691
      66.924
      70.740
      73.535
      75.414
      76.178
      75.584
      73.641
      70.726
      67.488
      64.629
      62.650
      61.670
      61.427
      61.475
      61.430
      61.055
      60.136
      58.300
      55.047
      50.041
      43.463
      36.103
      29.075
      23.328
      19.266
      16.722
      15.266
      14.626
      14.867
      16.202
      18.603
      21.619
      24.614
      27.216
      29.504
      31.737
      33.901
      35.518
      35.884
      34.511
      31.436
      27.189
      22.480
      17.816
      13.285
       8.591
       3.296
      -2.914
     -10.084
     -18.041
     -26.549
     -35.419
     -44.504
     -53.607
     -62.410
     -70.480
     -77.344
     -82.599
     -85.994
     -87.490
     -87.305
     -85.910
     -83.915
     -81.862
     -79.977
     -78.065
     -75.655
     -72.321
     -67.940
     -62.667
     -56.680
     -49.998
     -42.574
     -34.558
     -26.420
     -18.762
     -11.966
      -5.968
      -0.299
       5.632
      12.241
      19.604
      27.489
      35.498
      43.198
      50.178
      56.067
      60.579
      63.593
      65.231
      65.808
      65.642
      64.794
      62.953
      59.608
      54.415
      47.498
      39.442
      30.994
      22.702
      14.724
       6.923
      -0.867
      -8.599
     -15.961
     -22.477
     -27.638
     -30.974
     -32.105
     -30.838
     -27.300
     -21.973
     -15.565
      -8.777
      -2.129
       4.071
       9.667
      14.604
      18.907
      22.639
      25.803
      28.261
      29.748
      30.003
      28.910
      26.531
      23.054
      18.726
      13.795
       8.509
       3.126
      -2.079
      -6.857
     -11.094
     -14.878
     -18.472
     -22.159
     -26.081
     -30.180
     -34.270
     -38.159
     -41.735
     -44.972
     -47.846
     -50.260
     -52.083
     -53.296
     -54.127
     -54.937
     -55.812
     -56.148
     -54.706
     -50.295
     -42.614
     -32.563
     -21.677
     -11.137
      -1.180
       8.660
      18.852
      29.341
      39.546
      48.735
