Origin Time       04/04/2011 11:31:40
Lat.              29.6 N	
Long.             80.8 E	
Depth (Km)         10.0
Magnitude         5.7
 Region           NEPAL-INDIA-BORDER-REGION                                        
 Above details taken from IMD 
   
Station Code      SND
Station Lat.       31.517
Station Long.      76.883
Station Height(m)  931.0
Site Class        A   Vs30 between 700 m/sec to 1400 m/sec * 
Record Time       04.04.2011 11:33:16.729
Sampling Rate     200. Hz
 Record Duration   80.035 Sec.
 Direction         Vert. (Up positive)
Max. Acceleration      1.103 cm/sec**2
     
  * For reference see Site Classification link of website 
     
 Base Line Corrected and Low Pass Filtered (Cut Off at 35 Hz) Time History
 Acceleration data in cm/sec**2
    
[...]
      -0.250
      -0.211
      -0.167
      -0.139
      -0.127
      -0.111
      -0.067
       0.002
       0.063
       0.087
       0.071
       0.044
       0.039
       0.066
       0.101
       0.113
       0.092
       0.062
       0.055
       0.088
       0.142
       0.184
       0.189
       0.161
       0.124
       0.101
       0.091
       0.073
       0.027
      -0.042
      -0.102
      -0.122
      -0.100
      -0.065
      -0.051
      -0.070
      -0.101
      -0.114
      -0.099
      -0.071
      -0.054
      -0.056
      -0.060
      -0.045
      -0.006
       0.035
       0.048
       0.017
      -0.040
      -0.094
      -0.123
      -0.136
      -0.154
      -0.194
      -0.244
      -0.276
      -0.272
      -0.242
      -0.215
      -0.214
      -0.236
      -0.257
      -0.251
      -0.216
      -0.171
      -0.138
      -0.115
      -0.084
      -0.028
       0.051
       0.130
       0.184
       0.215
       0.241
       0.285
       0.352
       0.420
       0.466
       0.484
       0.490
       0.507
       0.540
       0.570
       0.574
       0.547
       0.508
       0.484
       0.484
       0.490
       0.479
       0.441
       0.392
       0.357
       0.342
       0.327
       0.288
       0.217
       0.134
       0.066
       0.026
       0.000
      -0.035
      -0.091
      -0.154
      -0.201
      -0.216
      -0.205
      -0.193
      -0.198
      -0.227
      -0.267
      -0.298
      -0.308
      -0.303
      -0.302
      -0.320
      -0.351
      -0.374
      -0.372
      -0.355
      -0.346
      -0.361
      -0.389
      -0.404
      -0.390
      -0.360
      -0.338
      -0.329
      -0.311
      -0.258
      -0.169
      -0.071
       0.000
       0.036
       0.060
       0.105
       0.179
       0.260
       0.313
       0.322
       0.301
       0.281
       0.280
       0.290
       0.282
       0.234
       0.147
       0.044
      -0.050
      -0.126
      -0.197
      -0.272
      -0.346
      -0.400
      -0.420
      -0.417
      -0.417
      -0.441
      -0.486
      -0.521
      -0.520
      -0.481
      -0.431
      -0.397
      -0.383
      -0.365
      -0.322
      -0.256
      -0.193
      -0.158
      -0.153
      -0.155
      -0.141
      -0.104
      -0.062
      -0.036
      -0.029
      -0.023
       0.001
       0.043
       0.080
       0.087
       0.060
       0.026
       0.020
       0.056
       0.115
       0.163
       0.181
       0.180
       0.188
       0.216
       0.247
       0.253
       0.219
       0.164
       0.122
       0.119
       0.155
       0.201
       0.227
       0.224
       0.206
       0.195
       0.197
       0.200
       0.188
       0.158
       0.130
       0.125
       0.151
       0.191
       0.223
       0.235
       0.233
       0.233
       0.245
       0.265
       0.282
       0.289
       0.288
       0.295
       0.317
       0.351
       0.379
       0.389
       0.381
       0.369
       0.370
       0.379
       0.381
       0.357
       0.310
       0.257
       0.215
       0.178
       0.128
       0.056
      -0.029
      -0.101
      -0.144
      -0.167
      -0.191
      -0.230
      -0.275
      -0.304
      -0.302
      -0.272
      -0.238
      -0.224
      -0.227
      -0.225
      -0.194
      -0.136
      -0.078
      -0.047
      -0.048
      -0.058
      -0.052
      -0.022
       0.008
       0.008
      -0.028
      -0.078
      -0.101
      -0.079
      -0.027
       0.020
       0.040
       0.043
       0.057
       0.100
       0.161
       0.210
       0.226
       0.217
       0.209
       0.216
       0.227
       0.221
       0.188
       0.144
       0.117
       0.117
       0.123
       0.102
       0.032
      -0.069
      -0.163
      -0.214
      -0.225
      -0.228
      -0.253
      -0.299
      -0.344
      -0.361
      -0.350
      -0.338
      -0.350
      -0.386
      -0.418
      -0.420
      -0.386
      -0.342
      -0.316
      -0.319
      -0.336
      -0.345
      -0.341
      -0.339
      -0.359
      -0.406
      -0.456
      -0.477
      -0.456
      -0.409
      -0.367
      -0.348
      -0.344
      -0.329
      -0.288
      -0.228
      -0.172
      -0.133
      -0.100
      -0.047
       0.036
       0.138
       0.227
       0.283
       0.312
       0.336
       0.370
       0.404
       0.409
       0.371
       0.306
       0.253
       0.235
       0.241
       0.232
       0.183
       0.101
       0.020
      -0.034
      -0.059
      -0.082
      -0.125
      -0.183
      -0.232
      -0.247
      -0.225
      -0.189
      -0.163
      -0.149
      -0.132
      -0.094
      -0.032
       0.034
       0.081
       0.101
       0.111
       0.134
       0.175
       0.218
       0.238
       0.227
       0.205
       0.196
       0.204
       0.206
       0.168
       0.086
      -0.011
      -0.082
      -0.109
      -0.112
      -0.129
      -0.182
      -0.258
      -0.324
      -0.351
      -0.346
      -0.337
      -0.349
      -0.376
      -0.384
      -0.352
      -0.286
      -0.222
      -0.191
      -0.193
      -0.201
      -0.188
      -0.152
      -0.122
      -0.121
      -0.145
      -0.165
      -0.149
      -0.097
      -0.037
       0.001
       0.011
       0.016
       0.043
       0.099
       0.168
       0.220
       0.247
       0.268
       0.308
       0.375
       0.448
       0.493
       0.495
       0.468
       0.443
       0.439
       0.453
       0.467
       0.468
       0.460
       0.452
       0.449
       0.439
       0.405
       0.345
       0.277
       0.227
       0.209
       0.218
       0.225
       0.206
       0.164
       0.122
       0.113
       0.144
       0.192
       0.223
       0.224
       0.213
       0.217
       0.248
       0.285
       0.292
       0.255
       0.194
       0.145
       0.121
       0.105
       0.070
       0.004
      -0.073
      -0.130
      -0.156
      -0.168
      -0.200
      -0.267
      -0.349
      -0.410
      -0.428
      -0.414
      -0.401
      -0.411
      -0.435
      -0.447
      -0.424
      -0.375
      -0.331
      -0.311
      -0.307
      -0.285
      -0.221
      -0.126
      -0.036
       0.016
       0.030
       0.031
       0.049
       0.088
       0.123
       0.128
       0.101
       0.066
       0.051
       0.060
       0.070
       0.060
       0.027
      -0.001
       0.006
       0.055
       0.120
       0.162
       0.167
       0.152
       0.153
       0.185
       0.234
       0.270
       0.278
       0.273
       0.284
       0.327
       0.387
       0.435
       0.451
       0.446
       0.451
       0.484
       0.539
       0.588
       0.610
       0.609
       0.603
       0.610
       0.622
       0.618
       0.584
       0.532
       0.488
       0.471
       0.472
       0.468
       0.437
       0.386
       0.333
       0.293
       0.258
       0.206
       0.121
       0.015
      -0.082
      -0.144
      -0.176
      -0.206
      -0.263
      -0.356
      -0.466
      -0.560
      -0.621
      -0.656
      -0.692
      -0.743
      -0.801
      -0.837
      -0.836
      -0.809
      -0.784
      -0.782
      -0.792
      -0.788
      -0.751
      -0.692
      -0.646
      -0.633
      -0.641
      -0.639
      -0.605
      -0.552
      -0.509
      -0.496
      -0.508
      -0.518
      -0.510
      -0.485
      -0.469
      -0.481
      -0.523
      -0.574
      -0.608
      -0.622
      -0.633
      -0.661
      -0.705
      -0.741
      -0.742
      -0.704
      -0.652
      -0.618
      -0.610
      -0.608
      -0.582
      -0.519
      -0.439
      -0.372
      -0.334
      -0.312
      -0.275
      -0.211
      -0.134
      -0.073
      -0.043
      -0.026
       0.008
       0.074
       0.155
       0.218
       0.240
       0.229
       0.215
       0.223
       0.252
       0.279
       0.283
       0.268
       0.255
       0.264
       0.290
       0.306
       0.287
       0.236
       0.182
       0.157
       0.170
       0.199
       0.222
       0.234
       0.253
       0.300
       0.377
       0.460
       0.524
       0.562
       0.586
       0.618
       0.663
       0.707
       0.729
       0.724
       0.709
       0.705
       0.715
       0.722
       0.699
       0.640
       0.566
       0.506
       0.473
       0.452
       0.417
       0.363
       0.310
       0.290
       0.317
       0.371
       0.412
       0.417
       0.394
       0.375
       0.384
       0.418
       0.449
       0.452
       0.429
       0.403
       0.400
       0.422
       0.445
       0.446
       0.421
       0.387
       0.368
       0.368
       0.369
       0.352
       0.318
       0.290
       0.291
       0.317
       0.338
       0.322
       0.262
       0.181
       0.110
       0.061
       0.018
      -0.044
      -0.130
      -0.219
      -0.279
      -0.294
      -0.285
      -0.288
      -0.323
      -0.376
      -0.411
      -0.402
      -0.358
      -0.312
      -0.288
      -0.280
      -0.260
      -0.206
      -0.128
      -0.056
      -0.015
      -0.002
       0.008
       0.037
       0.079
       0.108
       0.107
       0.082
       0.061
       0.065
       0.087
       0.099
       0.078
       0.025
      -0.039
      -0.090
      -0.122
      -0.145
      -0.179
      -0.224
      -0.265
      -0.284
      -0.277
      -0.263
      -0.266
      -0.294
      -0.334
      -0.357
      -0.353
      -0.333
      -0.324
      -0.342
      -0.375
      -0.400
      -0.405
      -0.407
      -0.434
      -0.502
      -0.594
      -0.672
      -0.708
      -0.708
      -0.705
      -0.723
      -0.754
      -0.767
      -0.739
      -0.676
      -0.608
      -0.559
      -0.525
      -0.480
      -0.401
      -0.291
      -0.174
      -0.072
       0.013
       0.098
       0.195
       0.296
       0.380
       0.427
       0.441
       0.444
       0.460
       0.492
       0.519
       0.518
       0.484
       0.436
       0.402
       0.386
       0.367
       0.318
       0.239
       0.160
       0.120
       0.131
       0.166
       0.182
       0.159
       0.115
       0.090
       0.104
       0.145
       0.177
       0.178
       0.151
       0.123
       0.113
       0.121
       0.128
       0.118
       0.096
       0.082
       0.092
       0.118
       0.134
       0.116
       0.065
       0.010
      -0.018
      -0.011
       0.008
       0.012
      -0.006
      -0.025
      -0.021
       0.004
       0.024
       0.008
      -0.047
      -0.116
      -0.163
      -0.176
      -0.174
      -0.189
      -0.238
      -0.304
      -0.352
      -0.366
      -0.355
      -0.347
      -0.357
      -0.375
      -0.377
      -0.352
      -0.311
      -0.280
      -0.273
      -0.277
      -0.268
      -0.226
      -0.161
      -0.098
      -0.058
      -0.036
      -0.013
       0.029
       0.086
       0.139
       0.166
       0.170
       0.170
       0.192
       0.239
       0.296
       0.343
       0.375
       0.400
       0.428
       0.453
       0.458
       0.430
       0.375
       0.317
       0.280
       0.264
       0.248
       0.208
       0.140
       0.064
       0.001
      -0.043
      -0.086
      -0.147
      -0.225
      -0.295
      -0.330
      -0.324
      -0.301
      -0.292
      -0.310
      -0.339
      -0.348
      -0.320
      -0.267
      -0.217
      -0.190
      -0.177
      -0.148
      -0.082
       0.011
       0.105
       0.173
       0.215
       0.253
       0.310
       0.385
       0.462
       0.518
       0.554
       0.588
       0.639
       0.704
       0.761
       0.785
       0.775
       0.749
       0.728
       0.716
       0.694
       0.645
       0.572
       0.501
       0.455
       0.431
       0.401
       0.333
       0.227
       0.113
       0.031
      -0.005
      -0.018
      -0.048
      -0.114
      -0.202
      -0.283
      -0.337
      -0.370
      -0.403
      -0.451
      -0.507
      -0.551
      -0.567
      -0.559
      -0.544
      -0.538
      -0.537
      -0.524
      -0.485
      -0.427
      -0.377
      -0.355
      -0.358
      -0.364
      -0.350
      -0.317
      -0.288
      -0.285
      -0.306
      -0.331
      -0.334
      -0.312
      -0.283
      -0.269
      -0.271
      -0.273
      -0.251
      -0.205
      -0.155
      -0.125
      -0.117
      -0.109
      -0.076
      -0.015
       0.049
       0.086
       0.091
       0.082
       0.087
       0.112
       0.136
       0.125
       0.070
      -0.001
      -0.051
      -0.061
      -0.053
      -0.067
      -0.125
      -0.212
      -0.288
      -0.320
      -0.313
      -0.298
      -0.304
      -0.326
      -0.331
      -0.296
      -0.232
      -0.178
      -0.167
      -0.193
      -0.221
      -0.222
      -0.199
      -0.185
      -0.209
      -0.268
      -0.326
      -0.346
      -0.324
      -0.288
      -0.274
      -0.294
      -0.328
      -0.346
      -0.331
      -0.296
      -0.266
      -0.254
      -0.249
      -0.226
      -0.173
      -0.105
      -0.054
      -0.036
      -0.042
      -0.042
      -0.015
       0.033
       0.074
       0.089
       0.086
       0.091
       0.120
       0.166
       0.205
       0.218
       0.217
       0.229
       0.275
       0.350
       0.427
       0.480
       0.509
       0.538
       0.595
       0.681
       0.773
       0.842
       0.885
       0.921
       0.971
       1.036
       1.090
       1.103
       1.071
       1.020
       0.987
       0.985
       0.997
       0.987
       0.934
       0.845
       0.751
       0.672
       0.606
       0.532
       0.436
       0.328
       0.233
       0.168
       0.123
       0.068
      -0.021
      -0.143
      -0.272
      -0.381
      -0.460
      -0.524
      -0.595
      -0.677
      -0.754
      -0.803
      -0.816
      -0.808
      -0.804
      -0.816
      -0.834
      -0.833
      -0.801
      -0.748
      -0.702
      -0.680
      -0.677
      -0.673
      -0.648
      -0.607
      -0.571
      -0.564
      -0.589
      -0.626
      -0.654
      -0.667
      -0.681
      -0.716
      -0.774
      -0.828
      -0.848
      -0.820
      -0.763
      -0.708
      -0.672
      -0.643
      -0.592
      -0.500
      -0.380
      -0.264
      -0.175
      -0.106
      -0.025
       0.090
       0.237
       0.386
       0.506
       0.589
       0.653
       0.721
       0.800
       0.871
       0.914
       0.929
       0.938
       0.964
       1.002
       1.022
       0.990
       0.907
       0.801
       0.711
       0.648
       0.595
       0.531
       0.451
       0.375
       0.320
       0.286
       0.252
       0.197
       0.125
       0.056
       0.014
       0.002
       0.002
      -0.014
      -0.053
      -0.098
      -0.126
      -0.123
      -0.105
      -0.095
      -0.106
      -0.126
      -0.133
      -0.113
      -0.081
      -0.063
      -0.070
      -0.089
      -0.094
      -0.069
      -0.030
      -0.006
      -0.019
      -0.058
      -0.094
      -0.106
      -0.098
      -0.098
      -0.129
      -0.186
      -0.238
      -0.255
      -0.232
      -0.191
      -0.162
      -0.156
      -0.161
      -0.158
      -0.142
      -0.127
      -0.135
      -0.167
      -0.202
      -0.215
      -0.200
      -0.177
      -0.170
      -0.192
      -0.234
      -0.273
      -0.296
      -0.305
      -0.314
      -0.326
      -0.332
      -0.316
      -0.276
      -0.229
      -0.203
      -0.209
      -0.232
      -0.241
      -0.214
      -0.159
      -0.105
      -0.073
      -0.059
      -0.034
       0.022
       0.102
       0.174
       0.216
       0.227
       0.231
       0.252
       0.287
       0.312
       0.305
       0.268
       0.223
       0.191
       0.175
       0.159
       0.127
       0.083
       0.045
       0.028
       0.026
       0.016
      -0.023
      -0.087
      -0.151
      -0.188
      -0.197
      -0.204
      -0.235
      -0.291
      -0.350
      -0.386
      -0.395
      -0.396
      -0.409
      -0.433
      -0.440
      -0.406
      -0.333
      -0.251
      -0.193
      -0.163
      -0.134
      -0.073
       0.025
       0.133
       0.218
       0.264
       0.289
       0.323
       0.386
       0.465
       0.528
       0.556
       0.553
       0.544
       0.550
       0.566
       0.566
       0.528
       0.455
       0.376
       0.321
       0.295
       0.274
       0.225
       0.135
       0.027
      -0.064
      -0.119
      -0.153
      -0.200
      -0.280
      -0.378
      -0.461
      -0.504
      -0.513
      -0.516
      -0.533
      -0.561
      -0.580
      -0.576
      -0.553
      -0.532
      -0.523
      -0.516
      -0.490
      -0.432
      -0.353
      -0.279
      -0.229
      -0.204
      -0.181
      -0.141
      -0.083
      -0.029
       0.001
       0.002
      -0.008
      -0.007
       0.009
       0.022
       0.011
      -0.027
      -0.071
      -0.098
      -0.100
      -0.096
      -0.108
      -0.144
      -0.183
      -0.196
      -0.173
      -0.127
      -0.090
      -0.079
      -0.083
      -0.077
      -0.039
       0.025
       0.092
       0.142
       0.179
       0.227
       0.302
       0.399
       0.491
       0.554
       0.585
       0.609
       0.645
       0.695
       0.736
       0.746
       0.728
       0.707
       0.708
       0.732
       0.756
       0.754
       0.719
       0.670
       0.630
       0.605
       0.579
       0.527
       0.450
       0.368
       0.311
       0.281
       0.256
       0.207
       0.127
       0.043
      -0.015
      -0.042
      -0.059
      -0.093
      -0.146
      -0.199
      -0.224
      -0.218
      -0.199
      -0.191
      -0.203
      -0.219
      -0.219
      -0.194
      -0.154
      -0.124
      -0.120
      -0.134
      -0.145
      -0.128
      -0.082
      -0.032
      -0.003
      -0.004
      -0.019
      -0.026
      -0.017
      -0.005
      -0.013
      -0.042
      -0.073
      -0.083
      -0.066
      -0.037
      -0.017
      -0.014
      -0.019
      -0.012
       0.013
       0.045
       0.063
       0.060
       0.047
       0.045
       0.063
       0.089
       0.100
       0.085
       0.054
       0.029
       0.024
       0.029
       0.019
      -0.021
      -0.087
      -0.153
      -0.203
      -0.243
      -0.293
      -0.367
      -0.454
      -0.528
      -0.569
      -0.585
      -0.604
      -0.650
      -0.716
      -0.776
      -0.801
      -0.793
      -0.773
      -0.766
      -0.777
      -0.788
      -0.780
      -0.752
      -0.721
      -0.707
      -0.709
      -0.706
      -0.673
      -0.605
      -0.525
      -0.456
      -0.406
      -0.356
      -0.281
      -0.169
      -0.039
       0.077
       0.160
       0.222
       0.294
       0.393
       0.509
       0.614
       0.689
       0.738
       0.784
       0.844
       0.908
       0.949
       0.951
       0.924
       0.899
       0.898
       0.918
       0.931
       0.915
       0.868
       0.812
       0.768
       0.738
       0.704
       0.650
       0.580
       0.518
       0.486
       0.487
       0.498
       0.493
       0.466
       0.433
       0.419
       0.430
       0.454
       0.469
