Origin Time       09/2/2011 19:17:29	
Lat.              30.9 N	
Long.             78.2 E	
Depth (Km)         10.0
Magnitude         5.0
 Region           UTTARKASHI-UTTARAKHAND                                           
 Above details taken from IMD 
     
Station Code      SND
Station Lat.       31.517  N
Station Long.      76.883  E
Station Height(m)  931.0
Site Class        A   Vs30 between 700 m/sec to 1400 m/sec * 
Record Time       09.02.2012 19:17:46.764
Sampling Rate     200. Hz
 Record Duration   85.745 Sec.
 Direction         E-W (E positive)
Max. Acceleration      6.769 cm/sec**2
     
  * For reference see Site Classification link of website 
     
 Base Line Corrected and Low Pass Filtered (Cut Off at 35 Hz) Time History
 Acceleration data in cm/sec**2
    
[...]
      -0.379
      -0.398
      -0.432
      -0.470
      -0.498
      -0.509
      -0.510
      -0.512
      -0.520
      -0.528
      -0.522
      -0.488
      -0.414
      -0.298
      -0.150
       0.008
       0.150
       0.260
       0.333
       0.370
       0.383
       0.384
       0.384
       0.384
       0.377
       0.356
       0.319
       0.273
       0.230
       0.208
       0.215
       0.246
       0.279
       0.294
       0.288
       0.271
       0.264
       0.282
       0.329
       0.399
       0.473
       0.531
       0.559
       0.550
       0.508
       0.442
       0.365
       0.289
       0.210
       0.114
      -0.012
      -0.170
      -0.347
      -0.519
      -0.661
      -0.756
      -0.797
      -0.792
      -0.755
      -0.696
      -0.623
      -0.544
      -0.463
      -0.378
      -0.285
      -0.188
      -0.099
      -0.034
      -0.001
       0.011
       0.023
       0.057
       0.124
       0.216
       0.310
       0.385
       0.430
       0.446
       0.438
       0.412
       0.376
       0.339
       0.301
       0.254
       0.186
       0.095
      -0.006
      -0.095
      -0.152
      -0.167
      -0.150
      -0.119
      -0.092
      -0.079
      -0.076
      -0.076
      -0.075
      -0.067
      -0.051
      -0.033
      -0.028
      -0.049
      -0.100
      -0.169
      -0.236
      -0.278
      -0.281
      -0.246
      -0.189
      -0.126
      -0.070
      -0.028
      -0.004
       0.003
       0.003
       0.013
       0.043
       0.084
       0.119
       0.138
       0.145
       0.155
       0.182
       0.225
       0.272
       0.306
       0.321
       0.323
       0.319
       0.312
       0.300
       0.282
       0.261
       0.234
       0.191
       0.122
       0.024
      -0.094
      -0.210
      -0.300
      -0.348
      -0.356
      -0.340
      -0.317
      -0.304
      -0.305
      -0.320
      -0.338
      -0.339
      -0.310
      -0.249
      -0.166
      -0.078
       0.004
       0.074
       0.134
       0.188
       0.237
       0.275
       0.291
       0.278
       0.239
       0.182
       0.116
       0.052
       0.002
      -0.027
      -0.037
      -0.041
      -0.048
      -0.058
      -0.065
      -0.061
      -0.040
      -0.007
       0.032
       0.065
       0.086
       0.095
       0.095
       0.090
       0.085
       0.085
       0.093
       0.101
       0.095
       0.069
       0.024
      -0.023
      -0.054
      -0.057
      -0.027
       0.022
       0.065
       0.081
       0.056
      -0.004
      -0.085
      -0.161
      -0.207
      -0.211
      -0.184
      -0.155
      -0.153
      -0.189
      -0.245
      -0.289
      -0.290
      -0.233
      -0.123
       0.018
       0.166
       0.303
       0.419
       0.504
       0.555
       0.577
       0.575
       0.548
       0.490
       0.395
       0.271
       0.137
       0.015
      -0.077
      -0.131
      -0.157
      -0.173
      -0.198
      -0.239
      -0.299
      -0.371
      -0.445
      -0.504
      -0.537
      -0.541
      -0.524
      -0.494
      -0.456
      -0.413
      -0.360
      -0.294
      -0.210
      -0.117
      -0.032
       0.026
       0.045
       0.029
      -0.010
      -0.049
      -0.062
      -0.034
       0.033
       0.119
       0.198
       0.257
       0.299
       0.336
       0.383
       0.444
       0.509
       0.557
       0.574
       0.557
       0.506
       0.425
       0.322
       0.221
       0.143
       0.097
       0.068
       0.035
      -0.019
      -0.089
      -0.156
      -0.197
      -0.201
      -0.183
      -0.172
      -0.193
      -0.248
      -0.327
      -0.409
      -0.471
      -0.490
      -0.451
      -0.358
      -0.227
      -0.085
       0.046
       0.160
       0.263
       0.363
       0.458
       0.530
       0.558
       0.531
       0.460
       0.362
       0.260
       0.178
       0.136
       0.141
       0.180
       0.226
       0.247
       0.229
       0.174
       0.098
       0.020
      -0.051
      -0.118
      -0.187
      -0.261
      -0.334
      -0.402
      -0.458
      -0.493
      -0.496
      -0.465
      -0.413
      -0.359
      -0.320
      -0.299
      -0.291
      -0.285
      -0.272
      -0.245
      -0.205
      -0.155
      -0.103
      -0.052
      -0.007
       0.031
       0.062
       0.090
       0.113
       0.125
       0.118
       0.093
       0.065
       0.056
       0.083
       0.152
       0.253
       0.368
       0.476
       0.560
       0.615
       0.636
       0.623
       0.580
       0.523
       0.467
       0.420
       0.376
       0.327
       0.270
       0.211
       0.157
       0.116
       0.081
       0.036
      -0.031
      -0.123
      -0.227
      -0.323
      -0.396
      -0.436
      -0.436
      -0.401
      -0.345
      -0.285
      -0.235
      -0.203
      -0.187
      -0.182
      -0.182
      -0.187
      -0.205
      -0.239
      -0.287
      -0.334
      -0.367
      -0.375
      -0.347
      -0.278
      -0.172
      -0.047
       0.069
       0.153
       0.192
       0.193
       0.171
       0.144
       0.119
       0.092
       0.053
       0.001
      -0.059
      -0.114
      -0.153
      -0.165
      -0.143
      -0.088
      -0.017
       0.054
       0.111
       0.152
       0.181
       0.205
       0.227
       0.244
       0.246
       0.224
       0.178
       0.120
       0.063
       0.014
      -0.018
      -0.030
      -0.017
       0.015
       0.052
       0.077
       0.076
       0.042
      -0.022
      -0.106
      -0.198
      -0.291
      -0.382
      -0.468
      -0.543
      -0.600
      -0.629
      -0.615
      -0.547
      -0.429
      -0.282
      -0.132
       0.000
       0.111
       0.211
       0.315
       0.432
       0.556
       0.671
       0.759
       0.810
       0.826
       0.807
       0.757
       0.679
       0.582
       0.470
       0.345
       0.205
       0.049
      -0.118
      -0.279
      -0.417
      -0.519
      -0.587
      -0.638
      -0.690
      -0.746
      -0.794
      -0.817
      -0.799
      -0.731
      -0.613
      -0.458
      -0.292
      -0.140
      -0.014
       0.094
       0.200
       0.320
       0.454
       0.590
       0.704
       0.775
       0.800
       0.785
       0.741
       0.676
       0.602
       0.528
       0.458
       0.383
       0.285
       0.146
      -0.039
      -0.258
      -0.488
      -0.702
      -0.881
      -1.023
      -1.131
      -1.208
      -1.251
      -1.259
      -1.238
      -1.188
      -1.111
      -1.008
      -0.887
      -0.757
      -0.617
      -0.461
      -0.278
      -0.063
       0.185
       0.453
       0.726
       0.987
       1.223
       1.423
       1.574
       1.674
       1.736
       1.780
       1.816
       1.838
       1.829
       1.775
       1.675
       1.541
       1.386
       1.216
       1.021
       0.788
       0.511
       0.196
      -0.137
      -0.470
      -0.780
      -1.045
      -1.245
      -1.368
      -1.423
      -1.426
      -1.397
      -1.348
      -1.281
      -1.187
      -1.058
      -0.894
      -0.710
      -0.525
      -0.355
      -0.204
      -0.071
       0.049
       0.161
       0.264
       0.353
       0.420
       0.461
       0.480
       0.484
       0.478
       0.467
       0.455
       0.439
       0.409
       0.357
       0.285
       0.198
       0.104
       0.012
      -0.065
      -0.115
      -0.135
      -0.136
      -0.132
      -0.133
      -0.135
      -0.136
      -0.132
      -0.129
      -0.147
      -0.208
      -0.332
      -0.524
      -0.772
      -1.051
      -1.322
      -1.548
      -1.699
      -1.767
      -1.761
      -1.695
      -1.570
      -1.381
      -1.123
      -0.796
      -0.417
      -0.009
       0.403
       0.803
       1.181
       1.532
       1.853
       2.141
       2.394
       2.610
       2.775
       2.868
       2.867
       2.761
       2.555
       2.269
       1.931
       1.563
       1.178
       0.773
       0.347
      -0.093
      -0.526
      -0.933
      -1.300
      -1.620
      -1.886
      -2.095
      -2.246
      -2.348
      -2.407
      -2.428
      -2.397
      -2.292
      -2.092
      -1.797
      -1.425
      -1.008
      -0.576
      -0.155
       0.235
       0.587
       0.900
       1.175
       1.396
       1.535
       1.563
       1.479
       1.310
       1.100
       0.887
       0.679
       0.461
       0.208
      -0.085
      -0.400
      -0.713
      -1.009
      -1.280
      -1.514
      -1.687
      -1.774
      -1.768
      -1.684
      -1.545
      -1.373
      -1.172
      -0.940
      -0.672
      -0.373
      -0.068
       0.218
       0.468
       0.680
       0.857
       1.003
       1.119
       1.216
       1.311
       1.420
       1.544
       1.670
       1.776
       1.848
       1.877
       1.863
       1.806
       1.705
       1.564
       1.396
       1.214
       1.026
       0.828
       0.619
       0.403
       0.195
       0.010
      -0.150
      -0.293
      -0.430
      -0.570
      -0.715
      -0.855
      -0.985
      -1.111
      -1.255
      -1.435
      -1.651
      -1.879
      -2.082
      -2.217
      -2.245
      -2.139
      -1.899
      -1.555
      -1.156
      -0.747
      -0.358
       0.003
       0.335
       0.636
       0.894
       1.087
       1.193
       1.208
       1.140
       1.003
       0.815
       0.601
       0.394
       0.233
       0.136
       0.101
       0.110
       0.142
       0.188
       0.238
       0.281
       0.297
       0.259
       0.146
      -0.043
      -0.286
      -0.556
      -0.827
      -1.082
      -1.300
      -1.462
      -1.556
      -1.586
      -1.558
      -1.472
      -1.323
      -1.104
      -0.809
      -0.450
      -0.055
       0.331
       0.669
       0.933
       1.118
       1.239
       1.326
       1.413
       1.517
       1.629
       1.723
       1.779
       1.798
       1.797
       1.801
       1.826
       1.874
       1.929
       1.969
       1.972
       1.925
       1.825
       1.674
       1.480
       1.258
       1.022
       0.777
       0.517
       0.235
      -0.075
      -0.413
      -0.766
      -1.121
      -1.470
      -1.810
      -2.133
      -2.415
      -2.625
      -2.737
      -2.736
      -2.612
      -2.363
      -1.995
      -1.537
      -1.029
      -0.516
      -0.024
       0.429
       0.834
       1.185
       1.473
       1.685
       1.797
       1.787
       1.639
       1.349
       0.933
       0.428
      -0.115
      -0.639
      -1.100
      -1.465
      -1.717
      -1.859
      -1.924
      -1.955
      -1.994
      -2.057
      -2.145
      -2.251
      -2.366
      -2.475
      -2.556
      -2.582
      -2.523
      -2.348
      -2.027
      -1.550
      -0.934
      -0.223
       0.532
       1.285
       2.004
       2.667
       3.240
       3.682
       3.959
       4.066
       4.025
       3.864
       3.605
       3.269
       2.892
       2.515
       2.164
       1.840
       1.519
       1.177
       0.800
       0.387
      -0.057
      -0.532
      -1.039
      -1.574
      -2.111
      -2.611
      -3.039
      -3.370
      -3.585
      -3.663
      -3.594
      -3.390
      -3.087
      -2.731
      -2.358
      -1.985
      -1.618
      -1.256
      -0.900
      -0.556
      -0.234
       0.055
       0.303
       0.509
       0.686
       0.851
       1.028
       1.231
       1.455
       1.686
       1.909
       2.112
       2.292
       2.447
       2.571
       2.654
       2.672
       2.605
       2.445
       2.209
       1.928
       1.637
       1.364
       1.121
       0.909
       0.717
       0.529
       0.332
       0.117
      -0.113
      -0.351
      -0.587
      -0.816
      -1.047
      -1.296
      -1.573
      -1.870
      -2.165
      -2.425
      -2.610
      -2.677
      -2.594
      -2.351
      -1.962
      -1.457
      -0.866
      -0.216
       0.467
       1.160
       1.831
       2.440
       2.953
       3.344
       3.603
       3.724
       3.698
       3.515
       3.165
       2.649
       1.977
       1.178
       0.300
      -0.591
      -1.427
      -2.150
      -2.718
      -3.118
      -3.364
      -3.482
      -3.501
      -3.448
      -3.352
      -3.238
      -3.121
      -3.004
      -2.882
      -2.754
      -2.610
      -2.431
      -2.180
      -1.817
      -1.313
      -0.670
       0.083
       0.895
       1.704
       2.454
       3.104
       3.624
       4.001
       4.237
       4.347
       4.346
       4.243
       4.033
       3.712
       3.287
       2.779
       2.220
       1.650
       1.098
       0.576
       0.086
      -0.367
      -0.767
      -1.102
      -1.369
      -1.570
      -1.707
      -1.778
      -1.781
      -1.723
      -1.616
      -1.485
      -1.354
      -1.239
      -1.141
      -1.051
      -0.964
      -0.886
      -0.829
      -0.798
      -0.799
      -0.833
      -0.893
      -0.969
      -1.052
      -1.145
      -1.262
      -1.415
      -1.602
      -1.803
      -1.988
      -2.141
      -2.268
      -2.395
      -2.552
      -2.754
      -2.990
      -3.228
      -3.425
      -3.537
      -3.521
      -3.354
      -3.036
      -2.588
      -2.036
      -1.397
      -0.678
       0.122
       1.002
       1.947
       2.927
       3.889
       4.771
       5.516
       6.086
       6.474
       6.695
       6.769
       6.703
       6.493
       6.143
       5.677
       5.143
       4.579
       4.005
       3.425
       2.841
       2.255
       1.663
       1.059
       0.429
      -0.226
      -0.888
      -1.519
      -2.082
      -2.571
      -3.014
      -3.443
      -3.873
      -4.281
      -4.626
      -4.854
      -4.920
      -4.788
      -4.451
      -3.930
      -3.272
      -2.540
      -1.800
      -1.114
      -0.530
      -0.071
       0.264
       0.497
       0.654
       0.773
       0.898
       1.077
       1.347
       1.713
       2.143
       2.594
       3.028
       3.420
       3.748
       3.979
       4.087
       4.065
       3.923
       3.674
       3.316
       2.848
       2.281
       1.647
       0.987
       0.330
      -0.317
      -0.966
      -1.628
      -2.293
      -2.933
      -3.516
      -4.019
      -4.428
      -4.731
      -4.920
      -4.991
      -4.955
      -4.820
      -4.594
      -4.287
      -3.916
      -3.507
      -3.080
      -2.636
      -2.161
      -1.635
      -1.043
      -0.382
       0.342
       1.118
       1.928
       2.743
       3.517
       4.189
       4.701
       5.012
       5.107
       4.993
       4.685
       4.200
       3.556
       2.772
       1.876
       0.911
      -0.072
      -1.028
      -1.919
      -2.706
      -3.352
      -3.832
      -4.143
      -4.302
      -4.327
      -4.223
      -3.982
      -3.605
      -3.112
      -2.555
      -1.994
      -1.473
      -0.994
      -0.530
      -0.046
       0.479
       1.050
       1.659
       2.289
       2.921
       3.529
       4.095
       4.599
       5.026
       5.359
       5.574
       5.632
       5.487
       5.106
       4.495
       3.709
       2.824
       1.911
       1.019
       0.174
      -0.615
      -1.361
      -2.076
      -2.757
      -3.373
      -3.880
      -4.236
      -4.416
      -4.419
      -4.263
      -3.979
      -3.610
      -3.200
      -2.794
      -2.425
      -2.103
      -1.813
      -1.530
      -1.239
      -0.942
      -0.654
      -0.380
      -0.109
       0.179
       0.495
       0.830
       1.153
       1.436
       1.666
       1.848
       1.991
       2.096
       2.153
       2.142
       2.033
       1.800
       1.442
       0.991
       0.505
       0.047
      -0.343
      -0.647
      -0.865
      -1.007
      -1.086
      -1.116
      -1.123
      -1.136
      -1.174
      -1.234
      -1.289
      -1.313
      -1.295
      -1.237
      -1.141
      -0.995
      -0.776
      -0.455
      -0.018
       0.525
       1.134
       1.751
       2.317
       2.785
       3.121
       3.311
       3.361
       3.298
       3.160
       2.979
       2.778
       2.560
       2.318
       2.040
       1.724
       1.385
       1.050
       0.740
       0.463
       0.223
       0.023
      -0.131
      -0.233
      -0.281
      -0.288
      -0.288
      -0.327
      -0.445
      -0.663
      -0.967
      -1.319
      -1.664
      -1.949
      -2.140
      -2.219
      -2.182
      -2.021
      -1.730
      -1.313
      -0.797
      -0.231
       0.322
       0.792
       1.101
       1.188
       1.019
       0.610
       0.026
      -0.638
      -1.290
      -1.866
      -2.339
      -2.710
      -2.991
      -3.199
      -3.359
      -3.491
      -3.591
      -3.635
      -3.596
      -3.467
      -3.256
      -2.979
      -2.639
      -2.224
      -1.714
      -1.097
      -0.392
       0.355
       1.078
       1.723
       2.260
       2.679
       2.986
       3.195
       3.319
       3.353
       3.279
       3.076
       2.739
       2.297
       1.809
       1.356
       1.017
       0.842
       0.839
       0.986
       1.235
       1.532
       1.811
       2.008
       2.076
       1.997
       1.780
       1.442
       1.000
       0.473
      -0.100
      -0.660
      -1.135
      -1.459
      -1.599
      -1.560
      -1.375
      -1.078
      -0.701
      -0.276
       0.149
       0.519
       0.774
       0.861
       0.735
       0.373
      -0.220
      -0.996
      -1.870
      -2.736
      -3.484
      -4.034
      -4.345
      -4.430
      -4.341
      -4.137
      -3.853
      -3.480
      -2.978
      -2.315
      -1.512
      -0.639
       0.208
       0.955
       1.566
       2.049
       2.439
       2.794
       3.165
       3.591
       4.083
       4.620
       5.154
       5.618
       5.951
       6.114
       6.081
       5.838
       5.371
       4.682
       3.810
       2.833
       1.852
       0.962
       0.231
      -0.312
      -0.683
      -0.924
      -1.086
      -1.218
      -1.356
      -1.521
      -1.715
      -1.926
      -2.140
      -2.351
      -2.553
      -2.730
      -2.845
      -2.848
      -2.696
      -2.374
      -1.907
      -1.351
      -0.776
      -0.250
       0.176
       0.458
       0.564
       0.470
       0.166
      -0.339
      -1.015
      -1.799
      -2.604
      -3.331
      -3.893
      -4.228
      -4.301
      -4.111
      -3.695
      -3.113
      -2.433
      -1.718
      -1.012
      -0.346
       0.259
       0.783
       1.199
       1.493
       1.677
       1.782
       1.851
       1.918
       2.005
       2.117
       2.236
       2.335
       2.389
       2.384
       2.316
       2.174
       1.940
       1.601
       1.165
       0.656
       0.106
      -0.458
      -1.005
      -1.496
      -1.882
      -2.120
      -2.192
      -2.118
      -1.940
      -1.701
      -1.430
      -1.144
      -0.862
      -0.602
      -0.378
      -0.189
      -0.038
       0.075
       0.146
       0.177
       0.180
       0.169
       0.155
       0.146
       0.145
       0.161
       0.205
       0.292
       0.432
       0.626
       0.868
       1.153
       1.466
       1.782
