Origin Time       14/03/2010 6:53:21	
Lat.              31.7 N	
Long.             76.1 E	
Depth (Km)         29.0
Magnitude         4.6
 Region           HIMACHAL-PUNJAB-(HOSHIARPUR)-BORDER                              
 Above details taken from IMD 
   
Station Code      SND
Station Lat.       31.517
Station Long.      76.883
Station Height(m)  931.0
Site Class        A   Vs30 between 700 m/sec to 1400 m/sec * 
Record Time       14.03.2010 12:21:52.999
Sampling Rate     200. Hz
 Record Duration   80.170 Sec.
 Direction         Vert. (Up positive)
Max. Acceleration      2.952 cm/sec**2
     
  * For reference see Site Classification link of website 
     
 Base Line Corrected and Low Pass Filtered (Cut Off at 35 Hz) Time History
 Acceleration data in cm/sec**2
    
[...]
       0.054
       0.063
       0.068
       0.060
       0.034
      -0.013
      -0.078
      -0.157
      -0.242
      -0.332
      -0.425
      -0.506
      -0.538
      -0.482
      -0.323
      -0.088
       0.156
       0.333
       0.388
       0.316
       0.160
      -0.009
      -0.125
      -0.149
      -0.084
       0.034
       0.156
       0.246
       0.294
       0.306
       0.288
       0.236
       0.144
       0.018
      -0.121
      -0.243
      -0.314
      -0.310
      -0.232
      -0.107
       0.021
       0.108
       0.131
       0.096
       0.049
       0.044
       0.106
       0.207
       0.270
       0.225
       0.058
      -0.169
      -0.349
      -0.391
      -0.279
      -0.078
       0.118
       0.233
       0.244
       0.175
       0.078
       0.009
       0.014
       0.106
       0.261
       0.417
       0.503
       0.471
       0.325
       0.124
      -0.056
      -0.170
      -0.227
      -0.265
      -0.314
      -0.370
      -0.400
      -0.362
      -0.243
      -0.070
       0.101
       0.222
       0.266
       0.238
       0.161
       0.069
       0.003
      -0.007
       0.043
       0.123
       0.183
       0.172
       0.065
      -0.122
      -0.332
      -0.492
      -0.544
      -0.470
      -0.296
      -0.086
       0.087
       0.169
       0.148
       0.059
      -0.040
      -0.097
      -0.087
      -0.019
       0.067
       0.131
       0.152
       0.137
       0.114
       0.103
       0.096
       0.069
      -0.004
      -0.118
      -0.237
      -0.311
      -0.300
      -0.199
      -0.039
       0.139
       0.300
       0.424
       0.497
       0.507
       0.452
       0.343
       0.201
       0.052
      -0.077
      -0.170
      -0.221
      -0.233
      -0.220
      -0.203
      -0.206
      -0.240
      -0.293
      -0.329
      -0.313
      -0.235
      -0.113
       0.019
       0.139
       0.248
       0.364
       0.498
       0.627
       0.695
       0.643
       0.452
       0.162
      -0.146
      -0.386
      -0.512
      -0.530
      -0.485
      -0.429
      -0.391
      -0.377
      -0.380
      -0.396
      -0.410
      -0.404
      -0.353
      -0.246
      -0.096
       0.068
       0.212
       0.316
       0.381
       0.423
       0.453
       0.465
       0.443
       0.381
       0.286
       0.168
       0.034
      -0.108
      -0.237
      -0.324
      -0.352
      -0.334
      -0.316
      -0.344
      -0.429
      -0.530
      -0.570
      -0.485
      -0.263
       0.043
       0.340
       0.530
       0.563
       0.463
       0.321
       0.244
       0.289
       0.427
       0.564
       0.596
       0.470
       0.212
      -0.091
      -0.342
      -0.485
      -0.516
      -0.469
      -0.384
      -0.290
      -0.211
      -0.167
      -0.176
      -0.242
      -0.333
      -0.379
      -0.301
      -0.066
       0.274
       0.604
       0.808
       0.839
       0.736
       0.594
       0.498
       0.466
       0.448
       0.366
       0.182
      -0.070
      -0.310
      -0.461
      -0.497
      -0.448
      -0.380
      -0.347
      -0.362
      -0.398
      -0.419
      -0.404
      -0.350
      -0.268
      -0.174
      -0.089
      -0.025
       0.023
       0.075
       0.148
       0.239
       0.321
       0.364
       0.354
       0.294
       0.205
       0.109
       0.023
      -0.042
      -0.074
      -0.071
      -0.053
      -0.062
      -0.129
      -0.252
      -0.389
      -0.478
      -0.479
      -0.396
      -0.267
      -0.137
      -0.024
       0.079
       0.177
       0.257
       0.286
       0.253
       0.189
       0.154
       0.205
       0.347
       0.527
       0.654
       0.652
       0.497
       0.226
      -0.086
      -0.360
      -0.543
      -0.612
      -0.582
      -0.492
      -0.387
      -0.292
      -0.220
      -0.178
      -0.180
      -0.233
      -0.322
      -0.401
      -0.413
      -0.311
      -0.081
       0.239
       0.576
       0.841
       0.960
       0.908
       0.719
       0.476
       0.272
       0.154
       0.094
       0.010
      -0.163
      -0.426
      -0.707
      -0.906
      -0.959
      -0.879
      -0.743
      -0.640
      -0.610
      -0.621
      -0.596
      -0.467
      -0.216
       0.117
       0.451
       0.709
       0.855
       0.901
       0.888
       0.860
       0.839
       0.814
       0.751
       0.606
       0.360
       0.045
      -0.265
      -0.491
      -0.587
      -0.558
      -0.447
      -0.310
      -0.193
      -0.125
      -0.121
      -0.187
      -0.310
      -0.445
      -0.520
      -0.464
      -0.251
       0.080
       0.438
       0.717
       0.842
       0.793
       0.606
       0.350
       0.096
      -0.094
      -0.178
      -0.153
      -0.060
       0.024
       0.024
      -0.083
      -0.252
      -0.394
      -0.432
      -0.357
      -0.225
      -0.121
      -0.092
      -0.122
      -0.160
      -0.164
      -0.134
      -0.089
      -0.049
      -0.011
       0.040
       0.102
       0.145
       0.127
       0.032
      -0.098
      -0.190
      -0.196
      -0.127
      -0.032
       0.054
       0.142
       0.266
       0.438
       0.611
       0.703
       0.656
       0.482
       0.253
       0.053
      -0.085
      -0.180
      -0.263
      -0.342
      -0.400
      -0.423
      -0.418
      -0.400
      -0.371
      -0.298
      -0.141
       0.114
       0.410
       0.640
       0.703
       0.564
       0.277
      -0.055
      -0.319
      -0.440
      -0.390
      -0.191
       0.096
       0.380
       0.556
       0.543
       0.324
      -0.034
      -0.411
      -0.695
      -0.829
      -0.819
      -0.705
      -0.522
      -0.289
      -0.017
       0.265
       0.499
       0.628
       0.628
       0.523
       0.364
       0.189
       0.011
      -0.159
      -0.294
      -0.349
      -0.289
      -0.129
       0.067
       0.202
       0.205
       0.065
      -0.171
      -0.425
      -0.620
      -0.690
      -0.590
      -0.320
       0.056
       0.416
       0.631
       0.627
       0.430
       0.158
      -0.036
      -0.052
       0.106
       0.333
       0.488
       0.461
       0.221
      -0.177
      -0.611
      -0.938
      -1.044
      -0.896
      -0.549
      -0.125
       0.235
       0.430
       0.437
       0.305
       0.119
      -0.047
      -0.145
      -0.152
      -0.058
       0.133
       0.396
       0.672
       0.873
       0.916
       0.763
       0.459
       0.111
      -0.173
      -0.336
      -0.381
      -0.340
      -0.245
      -0.125
      -0.026
      -0.008
      -0.104
      -0.280
      -0.431
      -0.443
      -0.270
       0.026
       0.315
       0.464
       0.407
       0.172
      -0.138
      -0.398
      -0.512
      -0.454
      -0.271
      -0.056
       0.092
       0.111
       0.011
      -0.133
      -0.218
      -0.174
      -0.006
       0.219
       0.415
       0.525
       0.544
       0.503
       0.434
       0.355
       0.262
       0.155
       0.043
      -0.059
      -0.141
      -0.203
      -0.244
      -0.261
      -0.263
      -0.276
      -0.339
      -0.471
      -0.650
      -0.805
      -0.845
      -0.717
      -0.442
      -0.109
       0.180
       0.366
       0.449
       0.468
       0.462
       0.451
       0.428
       0.388
       0.351
       0.360
       0.448
       0.597
       0.733
       0.760
       0.616
       0.310
      -0.075
      -0.420
      -0.632
      -0.688
      -0.629
      -0.526
      -0.434
      -0.370
      -0.332
      -0.319
      -0.343
      -0.419
      -0.533
      -0.626
      -0.611
      -0.434
      -0.111
       0.266
       0.583
       0.768
       0.817
       0.782
       0.724
       0.671
       0.609
       0.511
       0.373
       0.215
       0.061
      -0.089
      -0.255
      -0.452
      -0.661
      -0.837
      -0.936
      -0.948
      -0.900
      -0.827
      -0.730
      -0.561
      -0.274
       0.122
       0.541
       0.862
       0.998
       0.942
       0.763
       0.560
       0.408
       0.327
       0.303
       0.314
       0.351
       0.392
       0.385
       0.276
       0.052
      -0.230
      -0.480
      -0.629
      -0.665
      -0.619
      -0.530
      -0.418
      -0.283
      -0.133
       0.009
       0.107
       0.143
       0.124
       0.080
       0.047
       0.053
       0.104
       0.182
       0.255
       0.291
       0.265
       0.171
       0.015
      -0.172
      -0.342
      -0.444
      -0.455
      -0.391
      -0.295
      -0.210
      -0.148
      -0.088
       0.003
       0.125
       0.232
       0.263
       0.202
       0.098
       0.034
       0.056
       0.138
       0.208
       0.195
       0.079
      -0.105
      -0.294
      -0.431
      -0.482
      -0.437
      -0.304
      -0.113
       0.080
       0.214
       0.256
       0.211
       0.118
       0.030
      -0.014
       0.000
       0.049
       0.082
       0.046
      -0.081
      -0.272
      -0.451
      -0.527
      -0.444
      -0.219
       0.068
       0.314
       0.449
       0.457
       0.371
       0.248
       0.139
       0.077
       0.069
       0.101
       0.151
       0.183
       0.165
       0.081
      -0.052
      -0.190
      -0.288
      -0.332
      -0.334
      -0.319
      -0.304
      -0.283
      -0.233
      -0.138
      -0.005
       0.131
       0.231
       0.279
       0.289
       0.296
       0.339
       0.440
       0.586
       0.726
       0.800
       0.766
       0.620
       0.388
       0.107
      -0.172
      -0.395
      -0.504
      -0.475
      -0.338
      -0.175
      -0.082
      -0.101
      -0.195
      -0.281
      -0.308
      -0.303
      -0.349
      -0.501
      -0.724
      -0.903
      -0.915
      -0.704
      -0.311
       0.152
       0.565
       0.841
       0.940
       0.869
       0.684
       0.489
       0.401
       0.478
       0.665
       0.804
       0.721
       0.343
      -0.251
      -0.854
      -1.254
      -1.340
      -1.149
      -0.819
      -0.497
      -0.279
      -0.197
      -0.236
      -0.349
      -0.459
      -0.472
      -0.315
       0.025
       0.480
       0.929
       1.255
       1.403
       1.396
       1.296
       1.156
       0.996
       0.803
       0.554
       0.240
      -0.117
      -0.461
      -0.725
      -0.869
      -0.898
      -0.858
      -0.809
      -0.808
      -0.883
      -1.020
      -1.160
      -1.208
      -1.068
      -0.692
      -0.132
       0.465
       0.920
       1.124
       1.093
       0.950
       0.843
       0.859
       0.980
       1.109
       1.126
       0.957
       0.602
       0.117
      -0.404
      -0.863
      -1.166
      -1.253
      -1.139
      -0.921
      -0.746
      -0.733
      -0.907
      -1.173
      -1.361
      -1.316
      -0.984
      -0.425
       0.225
       0.830
       1.310
       1.643
       1.843
       1.930
       1.918
       1.815
       1.630
       1.371
       1.044
       0.651
       0.210
      -0.244
      -0.668
      -1.037
      -1.356
      -1.636
      -1.852
      -1.939
      -1.821
      -1.476
      -0.968
      -0.434
      -0.006
       0.260
       0.411
       0.538
       0.697
       0.871
       0.996
       1.031
       0.990
       0.920
       0.838
       0.716
       0.507
       0.209
      -0.111
      -0.356
      -0.476
      -0.512
      -0.555
      -0.676
      -0.869
      -1.062
      -1.160
      -1.106
      -0.903
      -0.604
      -0.278
       0.015
       0.239
       0.376
       0.418
       0.368
       0.232
       0.024
      -0.228
      -0.459
      -0.584
      -0.530
      -0.294
       0.044
       0.346
       0.477
       0.387
       0.146
      -0.090
      -0.164
      -0.014
       0.303
       0.650
       0.887
       0.935
       0.792
       0.515
       0.182
      -0.132
      -0.360
      -0.450
      -0.385
      -0.204
       0.015
       0.194
       0.287
       0.274
       0.155
      -0.027
      -0.181
      -0.210
      -0.083
       0.139
       0.343
       0.436
       0.391
       0.229
      -0.008
      -0.284
      -0.559
      -0.773
      -0.862
      -0.804
      -0.646
      -0.474
      -0.348
      -0.256
      -0.132
       0.084
       0.398
       0.756
       1.073
       1.277
       1.337
       1.258
       1.059
       0.758
       0.380
      -0.039
      -0.464
      -0.862
      -1.195
      -1.418
      -1.495
      -1.427
      -1.264
      -1.088
      -0.983
      -0.984
      -1.045
      -1.029
      -0.780
      -0.220
       0.578
       1.411
       2.052
       2.371
       2.386
       2.206
       1.925
       1.555
       1.057
       0.433
      -0.215
      -0.728
      -0.992
      -1.009
      -0.886
      -0.757
      -0.719
      -0.796
      -0.954
      -1.115
      -1.195
      -1.129
      -0.898
      -0.542
      -0.149
       0.166
       0.314
       0.270
       0.094
      -0.096
      -0.186
      -0.118
       0.090
       0.379
       0.687
       0.959
       1.152
       1.231
       1.191
       1.062
       0.889
       0.696
       0.478
       0.223
      -0.068
      -0.379
      -0.680
      -0.950
      -1.182
      -1.377
      -1.528
      -1.604
      -1.569
      -1.403
      -1.129
      -0.800
      -0.468
      -0.157
       0.163
       0.571
       1.138
       1.842
       2.529
       2.952
       2.900
       2.324
       1.382
       0.373
      -0.404
      -0.779
      -0.776
      -0.569
      -0.379
      -0.367
      -0.592
      -1.002
      -1.460
      -1.785
      -1.816
      -1.482
      -0.853
      -0.120
       0.490
       0.832
       0.895
       0.772
       0.568
       0.349
       0.151
       0.017
       0.008
       0.158
       0.423
       0.689
       0.836
       0.807
       0.631
       0.393
       0.183
       0.054
       0.001
      -0.023
      -0.067
      -0.144
      -0.221
      -0.243
      -0.199
      -0.144
      -0.172
      -0.338
      -0.616
      -0.913
      -1.147
      -1.290
      -1.357
      -1.352
      -1.236
      -0.966
      -0.550
      -0.076
       0.335
       0.611
       0.774
       0.925
       1.161
       1.487
       1.799
       1.950
       1.847
       1.505
       1.017
       0.480
      -0.052
      -0.559
      -1.024
      -1.417
      -1.704
      -1.867
      -1.911
      -1.827
      -1.583
      -1.146
      -0.556
       0.054
       0.540
       0.855
       1.071
       1.288
       1.532
       1.714
       1.705
       1.433
       0.935
       0.338
      -0.228
      -0.695
      -1.066
      -1.367
      -1.599
      -1.718
      -1.672
      -1.438
      -1.059
      -0.627
      -0.233
       0.095
       0.396
       0.720
       1.057
       1.319
       1.395
       1.243
       0.929
       0.591
       0.348
       0.231
       0.184
       0.120
      -0.013
      -0.205
      -0.412
      -0.591
      -0.726
      -0.816
      -0.851
      -0.801
      -0.628
      -0.321
       0.071
       0.447
       0.699
       0.780
       0.727
       0.638
       0.619
       0.713
       0.881
       1.027
       1.062
       0.958
       0.744
       0.464
       0.135
      -0.246
      -0.666
      -1.070
      -1.371
      -1.494
      -1.408
      -1.137
      -0.744
      -0.307
       0.106
       0.445
       0.684
       0.815
       0.855
       0.834
       0.774
       0.677
       0.523
       0.307
       0.052
      -0.195
      -0.393
      -0.539
      -0.674
      -0.849
      -1.076
      -1.315
      -1.504
      -1.610
      -1.646
      -1.641
      -1.593
      -1.458
      -1.178
      -0.728
      -0.145
       0.485
       1.051
       1.461
       1.669
       1.694
       1.609
       1.513
       1.474
       1.476
       1.420
       1.179
       0.680
      -0.042
      -0.847
      -1.557
      -2.024
      -2.191
      -2.085
      -1.780
      -1.347
      -0.844
      -0.329
       0.130
       0.470
       0.668
       0.746
       0.768
       0.807
       0.916
       1.115
       1.379
       1.642
       1.813
       1.797
       1.534
       1.033
       0.375
      -0.310
      -0.886
      -1.246
      -1.334
      -1.166
      -0.828
      -0.448
      -0.145
       0.021
       0.055
       0.017
      -0.019
       0.010
       0.140
       0.360
       0.611
       0.795
       0.816
       0.631
       0.289
      -0.091
      -0.381
      -0.530
      -0.584
      -0.636
      -0.737
      -0.856
      -0.901
      -0.793
      -0.523
      -0.161
       0.196
       0.486
       0.700
       0.856
       0.959
       0.981
       0.900
       0.728
       0.509
       0.294
       0.099
      -0.092
      -0.301
      -0.517
      -0.691
      -0.755
      -0.681
      -0.500
      -0.301
      -0.183
      -0.200
      -0.324
      -0.454
      -0.475
      -0.340
      -0.095
       0.146
       0.282
       0.279
       0.179
       0.048
      -0.066
      -0.151
      -0.217
      -0.271
      -0.311
      -0.333
      -0.346
      -0.360
      -0.365
      -0.330
      -0.227
      -0.064
       0.113
       0.243
       0.298
       0.302
       0.319
       0.403
       0.550
       0.688
       0.722
       0.596
       0.326
      -0.011
      -0.324
      -0.556
      -0.701
      -0.793
      -0.860
      -0.901
      -0.877
      -0.736
      -0.435
       0.023
       0.577
       1.117
       1.521
       1.703
       1.650
       1.404
       1.045
       0.653
       0.299
       0.037
      -0.103
      -0.123
      -0.072
      -0.030
      -0.081
      -0.257
      -0.512
      -0.750
      -0.877
      -0.851
      -0.695
      -0.482
      -0.296
      -0.194
      -0.174
      -0.186
      -0.176
      -0.127
      -0.066
      -0.028
      -0.023
      -0.033
      -0.036
      -0.029
      -0.027
      -0.043
      -0.072
      -0.098
      -0.118
      -0.155
      -0.239
      -0.384
      -0.562
      -0.716
      -0.785
      -0.735
      -0.581
      -0.379
      -0.195
      -0.050
       0.092
       0.291
       0.567
       0.855
       1.026
       0.979
       0.726
       0.396
       0.153
       0.083
       0.138
       0.184
       0.107
      -0.109
      -0.372
      -0.550
      -0.555
      -0.386
      -0.115
       0.164
       0.387
       0.530
       0.593
       0.592
       0.557
       0.517
       0.481
       0.419
       0.290
       0.074
      -0.200
      -0.457
      -0.611
      -0.614
      -0.487
      -0.313
      -0.188
      -0.174
      -0.279
      -0.463
      -0.657
      -0.779
      -0.774
      -0.635
      -0.413
      -0.186
      -0.008
       0.121
       0.247
       0.424
       0.665
       0.915
       1.075
       1.047
       0.800
       0.395
      -0.032
      -0.335
      -0.436
      -0.368
      -0.247
      -0.195
      -0.259
      -0.394
      -0.512
      -0.539
      -0.464
      -0.326
      -0.187
      -0.084
      -0.016
       0.043
       0.123
       0.247
       0.432
       0.690
       1.002
       1.299
       1.470
       1.422
       1.138
       0.694
       0.224
      -0.139
      -0.324
