Origin Time       18/01/2011 20:23:27 UTC
Lat.              28.9 N	
Long.             64.0 E	
Depth (Km)          5.0
Magnitude         7.4
 Region           Southwestern-Pakistan                                            
 Above details taken from IMD 
    
Station Code      SND
Station Lat.       31.517  N
Station Long.      76.883  E
Station Height(m)  931.0
Site Class        A   Vs30 between 700 m/sec to 1400 m/sec * 
Record Time       18.01.2011 20:27:43.069 UTC
Sampling Rate     200. Hz
 Record Duration   82.095 Sec.
 Direction         N-S (N positive)
Max. Acceleration      3.127 cm/sec**2
     
  * For reference see Site Classification link of website 
     
 Base Line Corrected and Low Pass Filtered (Cut Off at 35 Hz) Time History
 Acceleration data in cm/sec**2
    
[...]
       0.215
       0.227
       0.126
      -0.045
      -0.159
      -0.125
       0.014
       0.126
       0.119
       0.014
      -0.093
      -0.135
      -0.116
      -0.082
      -0.076
      -0.099
      -0.128
      -0.139
      -0.127
      -0.113
      -0.117
      -0.143
      -0.174
      -0.190
      -0.188
      -0.190
      -0.212
      -0.250
      -0.282
      -0.297
      -0.308
      -0.337
      -0.381
      -0.405
      -0.373
      -0.292
      -0.220
      -0.208
      -0.252
      -0.284
      -0.244
      -0.152
      -0.095
      -0.139
      -0.245
      -0.301
      -0.234
      -0.087
       0.006
      -0.052
      -0.236
      -0.417
      -0.482
      -0.421
      -0.313
      -0.243
      -0.242
      -0.281
      -0.314
      -0.314
      -0.286
      -0.254
      -0.233
      -0.222
      -0.211
      -0.193
      -0.172
      -0.157
      -0.147
      -0.129
      -0.098
      -0.062
      -0.049
      -0.074
      -0.124
      -0.157
      -0.147
      -0.110
      -0.095
      -0.129
      -0.186
      -0.199
      -0.134
      -0.027
       0.037
       0.007
      -0.080
      -0.135
      -0.109
      -0.052
      -0.059
      -0.165
      -0.288
      -0.307
      -0.185
      -0.012
       0.081
       0.043
      -0.062
      -0.139
      -0.145
      -0.106
      -0.073
      -0.071
      -0.091
      -0.105
      -0.097
      -0.074
      -0.057
      -0.061
      -0.085
      -0.109
      -0.116
      -0.115
      -0.126
      -0.160
      -0.202
      -0.231
      -0.243
      -0.261
      -0.303
      -0.356
      -0.379
      -0.345
      -0.277
      -0.236
      -0.263
      -0.331
      -0.366
      -0.323
      -0.239
      -0.206
      -0.269
      -0.372
      -0.402
      -0.304
      -0.142
      -0.048
      -0.102
      -0.252
      -0.368
      -0.357
      -0.233
      -0.080
       0.026
       0.069
       0.083
       0.102
       0.141
       0.188
       0.227
       0.253
       0.273
       0.291
       0.306
       0.313
       0.314
       0.317
       0.337
       0.375
       0.417
       0.436
       0.421
       0.396
       0.404
       0.460
       0.532
       0.566
       0.543
       0.507
       0.526
       0.622
       0.733
       0.765
       0.681
       0.540
       0.436
       0.394
       0.343
       0.193
      -0.056
      -0.292
      -0.401
      -0.380
      -0.346
      -0.421
      -0.618
      -0.850
      -1.025
      -1.118
      -1.166
      -1.217
      -1.286
      -1.355
      -1.398
      -1.405
      -1.387
      -1.364
      -1.346
      -1.326
      -1.283
      -1.212
      -1.127
      -1.053
      -0.995
      -0.931
      -0.843
      -0.735
      -0.636
      -0.559
      -0.483
      -0.370
      -0.212
      -0.053
       0.051
       0.089
       0.116
       0.204
       0.357
       0.501
       0.558
       0.535
       0.531
       0.638
       0.843
       1.030
       1.082
       0.987
       0.850
       0.796
       0.861
       0.991
       1.100
       1.144
       1.135
       1.107
       1.087
       1.076
       1.066
       1.046
       1.019
       0.988
       0.955
       0.916
       0.869
       0.817
       0.771
       0.740
       0.725
       0.705
       0.656
       0.575
       0.491
       0.443
       0.438
       0.436
       0.391
       0.304
       0.227
       0.221
       0.282
       0.339
       0.316
       0.213
       0.109
       0.078
       0.103
       0.089
      -0.029
      -0.203
      -0.307
      -0.259
      -0.109
       0.005
      -0.006
      -0.109
      -0.206
      -0.231
      -0.193
      -0.148
      -0.135
      -0.152
      -0.171
      -0.171
      -0.153
      -0.138
      -0.145
      -0.175
      -0.204
      -0.209
      -0.190
      -0.174
      -0.184
      -0.215
      -0.234
      -0.221
      -0.187
      -0.162
      -0.154
      -0.130
      -0.052
       0.075
       0.191
       0.238
       0.222
       0.214
       0.282
       0.413
       0.514
       0.518
       0.458
       0.446
       0.561
       0.761
       0.914
       0.914
       0.780
       0.634
       0.589
       0.659
       0.773
       0.848
       0.855
       0.819
       0.783
       0.771
       0.776
       0.780
       0.774
       0.760
       0.747
       0.733
       0.709
       0.667
       0.607
       0.545
       0.496
       0.456
       0.402
       0.313
       0.198
       0.096
       0.044
       0.038
       0.037
       0.003
      -0.050
      -0.066
      -0.004
       0.115
       0.207
       0.210
       0.143
       0.090
       0.107
       0.158
       0.149
       0.035
      -0.118
      -0.189
      -0.125
       0.000
       0.056
      -0.020
      -0.172
      -0.305
      -0.368
      -0.378
      -0.378
      -0.395
      -0.422
      -0.438
      -0.426
      -0.388
      -0.341
      -0.304
      -0.277
      -0.243
      -0.184
      -0.106
      -0.034
       0.014
       0.047
       0.086
       0.139
       0.186
       0.204
       0.204
       0.223
       0.287
       0.371
       0.411
       0.369
       0.278
       0.219
       0.239
       0.297
       0.301
       0.211
       0.092
       0.057
       0.155
       0.307
       0.377
       0.294
       0.117
      -0.023
      -0.038
       0.050
       0.158
       0.213
       0.204
       0.168
       0.142
       0.139
       0.149
       0.151
       0.142
       0.128
       0.115
       0.101
       0.080
       0.048
       0.019
       0.012
       0.036
       0.075
       0.095
       0.078
       0.045
       0.041
       0.088
       0.162
       0.213
       0.216
       0.206
       0.251
       0.380
       0.546
       0.657
       0.663
       0.608
       0.588
       0.645
       0.721
       0.717
       0.603
       0.464
       0.425
       0.518
       0.646
       0.676
       0.566
       0.386
       0.232
       0.145
       0.095
       0.029
      -0.081
      -0.222
      -0.364
      -0.480
      -0.574
      -0.669
      -0.788
      -0.929
      -1.070
      -1.188
      -1.284
      -1.379
      -1.485
      -1.593
      -1.681
      -1.740
      -1.783
      -1.826
      -1.853
      -1.828
      -1.735
      -1.608
      -1.508
      -1.468
      -1.452
      -1.390
      -1.254
      -1.096
      -1.003
      -0.998
      -1.010
      -0.935
      -0.743
      -0.521
      -0.397
      -0.422
      -0.527
      -0.584
      -0.518
      -0.357
      -0.181
      -0.052
       0.023
       0.077
       0.141
       0.220
       0.304
       0.380
       0.449
       0.514
       0.578
       0.632
       0.664
       0.668
       0.651
       0.630
       0.615
       0.590
       0.523
       0.399
       0.244
       0.108
       0.016
      -0.057
      -0.167
      -0.338
      -0.528
      -0.660
      -0.699
      -0.692
      -0.730
      -0.861
      -1.033
      -1.144
      -1.150
      -1.114
      -1.141
      -1.259
      -1.377
      -1.363
      -1.186
      -0.948
      -0.786
      -0.743
      -0.750
      -0.714
      -0.604
      -0.454
      -0.314
      -0.209
      -0.127
      -0.043
       0.053
       0.145
       0.207
       0.224
       0.208
       0.185
       0.171
       0.152
       0.106
       0.029
      -0.056
      -0.122
      -0.169
      -0.223
      -0.300
      -0.378
      -0.416
      -0.404
      -0.384
      -0.418
      -0.519
      -0.633
      -0.690
      -0.680
      -0.678
      -0.762
      -0.920
      -1.049
      -1.051
      -0.934
      -0.817
      -0.823
      -0.963
      -1.133
      -1.208
      -1.147
      -1.006
      -0.876
      -0.802
      -0.773
      -0.750
      -0.709
      -0.648
      -0.575
      -0.497
      -0.410
      -0.313
      -0.210
      -0.107
      -0.006
       0.094
       0.203
       0.330
       0.467
       0.588
       0.668
       0.711
       0.749
       0.822
       0.932
       1.035
       1.081
       1.067
       1.050
       1.096
       1.211
       1.326
       1.358
       1.298
       1.219
       1.198
       1.228
       1.219
       1.098
       0.893
       0.728
       0.697
       0.765
       0.802
       0.710
       0.506
       0.283
       0.115
       0.007
      -0.086
      -0.203
      -0.346
      -0.488
      -0.596
      -0.664
      -0.709
      -0.752
      -0.797
      -0.825
      -0.812
      -0.761
      -0.699
      -0.653
      -0.621
      -0.576
      -0.501
      -0.409
      -0.334
      -0.285
      -0.233
      -0.139
      -0.007
       0.109
       0.156
       0.138
       0.121
       0.165
       0.252
       0.296
       0.234
       0.104
       0.018
       0.050
       0.157
       0.212
       0.123
      -0.081
      -0.278
      -0.361
      -0.320
      -0.223
      -0.147
      -0.121
      -0.126
      -0.124
      -0.097
      -0.046
       0.018
       0.084
       0.153
       0.225
       0.302
       0.381
       0.458
       0.537
       0.627
       0.734
       0.848
       0.943
       1.003
       1.037
       1.081
       1.166
       1.280
       1.372
       1.404
       1.393
       1.405
       1.495
       1.639
       1.752
       1.758
       1.670
       1.576
       1.543
       1.548
       1.497
       1.329
       1.100
       0.938
       0.920
       0.993
       1.027
       0.948
       0.795
       0.663
       0.611
       0.629
       0.672
       0.702
       0.713
       0.726
       0.764
       0.832
       0.912
       0.981
       1.029
       1.069
       1.120
       1.185
       1.244
       1.271
       1.263
       1.241
       1.222
       1.197
       1.144
       1.063
       0.986
       0.945
       0.933
       0.898
       0.798
       0.648
       0.520
       0.472
       0.480
       0.455
       0.338
       0.175
       0.081
       0.120
       0.235
       0.297
       0.220
       0.047
      -0.095
      -0.109
      -0.004
       0.137
       0.232
       0.260
       0.253
       0.249
       0.261
       0.275
       0.273
       0.249
       0.207
       0.157
       0.098
       0.021
      -0.079
      -0.194
      -0.305
      -0.396
      -0.474
      -0.565
      -0.686
      -0.821
      -0.926
      -0.970
      -0.967
      -0.965
      -0.992
      -1.021
      -0.984
      -0.846
      -0.648
      -0.478
      -0.386
      -0.336
      -0.239
      -0.054
       0.164
       0.311
       0.353
       0.372
       0.492
       0.746
       1.033
       1.216
       1.249
       1.200
       1.166
       1.185
       1.226
       1.236
       1.190
       1.105
       1.015
       0.940
       0.877
       0.805
       0.708
       0.596
       0.488
       0.402
       0.333
       0.258
       0.169
       0.081
       0.019
      -0.016
      -0.046
      -0.093
      -0.142
      -0.153
      -0.106
      -0.032
       0.006
      -0.025
      -0.091
      -0.116
      -0.062
       0.017
       0.033
      -0.048
      -0.152
      -0.167
      -0.053
       0.106
       0.176
       0.092
      -0.084
      -0.221
      -0.239
      -0.164
      -0.087
      -0.079
      -0.146
      -0.249
      -0.351
      -0.442
      -0.533
      -0.638
      -0.758
      -0.880
      -0.998
      -1.114
      -1.236
      -1.365
      -1.485
      -1.580
      -1.641
      -1.685
      -1.738
      -1.816
      -1.898
      -1.940
      -1.914
      -1.841
      -1.775
      -1.747
      -1.724
      -1.642
      -1.468
      -1.246
      -1.069
      -0.993
      -0.982
      -0.950
      -0.855
      -0.749
      -0.721
      -0.790
      -0.866
      -0.831
      -0.660
      -0.451
      -0.326
      -0.314
      -0.347
      -0.338
      -0.259
      -0.148
      -0.059
      -0.013
       0.007
       0.037
       0.096
       0.171
       0.234
       0.268
       0.281
       0.296
       0.325
       0.349
       0.340
       0.280
       0.190
       0.102
       0.029
      -0.049
      -0.157
      -0.286
      -0.398
      -0.463
      -0.499
      -0.560
      -0.684
      -0.847
      -0.977
      -1.034
      -1.060
      -1.137
      -1.293
      -1.457
      -1.517
      -1.431
      -1.277
      -1.190
      -1.242
      -1.374
      -1.460
      -1.418
      -1.271
      -1.101
      -0.975
      -0.898
      -0.835
      -0.755
      -0.647
      -0.520
      -0.381
      -0.232
      -0.068
       0.110
       0.292
       0.463
       0.622
       0.775
       0.929
       1.084
       1.221
       1.309
       1.333
       1.307
       1.271
       1.252
       1.227
       1.148
       0.990
       0.789
       0.614
       0.504
       0.420
       0.287
       0.065
      -0.196
      -0.412
      -0.550
      -0.674
      -0.869
      -1.138
      -1.381
      -1.487
      -1.451
      -1.389
      -1.422
      -1.569
      -1.752
      -1.882
      -1.937
      -1.956
      -1.989
      -2.050
      -2.116
      -2.156
      -2.156
      -2.135
      -2.120
      -2.122
      -2.126
      -2.099
      -2.026
      -1.924
      -1.825
      -1.740
      -1.649
      -1.524
      -1.366
      -1.204
      -1.056
      -0.905
      -0.712
      -0.458
      -0.179
       0.062
       0.237
       0.391
       0.597
       0.879
       1.171
       1.383
       1.501
       1.613
       1.824
       2.145
       2.469
       2.660
       2.680
       2.617
       2.603
       2.700
       2.869
       3.025
       3.111
       3.127
       3.105
       3.076
       3.048
       3.012
       2.955
       2.872
       2.765
       2.633
       2.473
       2.279
       2.059
       1.827
       1.604
       1.393
       1.176
       0.926
       0.639
       0.348
       0.101
      -0.086
      -0.247
      -0.430
      -0.642
      -0.834
      -0.944
      -0.966
      -0.970
      -1.042
      -1.198
      -1.367
      -1.463
      -1.479
      -1.499
      -1.606
      -1.778
      -1.895
      -1.856
      -1.683
      -1.501
      -1.418
      -1.426
      -1.437
      -1.376
      -1.239
      -1.074
      -0.920
      -0.781
      -0.643
      -0.494
      -0.340
      -0.196
      -0.063
       0.064
       0.192
       0.312
       0.410
       0.481
       0.528
       0.559
       0.576
       0.585
       0.602
       0.631
       0.652
       0.637
       0.584
       0.529
       0.501
       0.483
       0.428
       0.330
       0.249
       0.251
       0.319
       0.357
       0.277
       0.102
      -0.058
      -0.111
      -0.059
       0.019
       0.054
       0.036
       0.004
      -0.005
       0.016
       0.052
       0.087
       0.119
       0.153
       0.194
       0.239
       0.287
       0.345
       0.422
       0.516
       0.605
       0.669
       0.714
       0.774
       0.874
       1.001
       1.110
       1.175
       1.226
       1.323
       1.493
       1.685
       1.806
       1.813
       1.751
       1.714
       1.738
       1.760
       1.674
       1.453
       1.186
       1.006
       0.958
       0.951
       0.855
       0.626
       0.337
       0.090
      -0.070
      -0.168
      -0.252
      -0.342
      -0.427
      -0.481
      -0.488
      -0.461
      -0.427
      -0.406
      -0.390
      -0.360
      -0.302
      -0.234
      -0.183
      -0.162
      -0.154
      -0.134
      -0.097
      -0.063
      -0.051
      -0.044
      -0.007
       0.076
       0.175
       0.241
       0.262
       0.282
       0.358
       0.487
       0.600
       0.636
       0.615
       0.631
       0.748
       0.922
       1.034
       1.001
       0.860
       0.731
       0.704
       0.771
       0.852
       0.875
       0.818
       0.708
       0.583
       0.466
       0.357
       0.248
       0.135
       0.023
      -0.081
      -0.174
      -0.255
      -0.329
      -0.391
      -0.431
      -0.434
      -0.405
      -0.369
      -0.352
      -0.351
      -0.328
      -0.249
      -0.120
       0.008
       0.086
       0.116
       0.156
       0.260
       0.411
       0.529
       0.538
       0.448
       0.343
       0.297
       0.290
       0.230
       0.059
      -0.169
      -0.327
      -0.336
      -0.247
      -0.190
      -0.239
      -0.356
      -0.448
      -0.458
      -0.402
      -0.328
      -0.264
      -0.203
      -0.120
      -0.006
       0.127
       0.248
       0.342
       0.417
       0.494
       0.578
       0.652
       0.691
       0.690
       0.668
       0.648
       0.628
       0.586
       0.515
       0.440
       0.400
       0.403
       0.411
       0.369
       0.270
       0.167
       0.118
       0.123
       0.106
       0.000
      -0.176
      -0.325
      -0.360
      -0.304
      -0.272
      -0.372
      -0.604
      -0.859
      -1.022
      -1.061
      -1.034
      -1.020
      -1.062
      -1.147
      -1.242
      -1.320
      -1.379
      -1.423
      -1.455
      -1.475
      -1.485
      -1.493
      -1.507
      -1.522
      -1.521
      -1.489
      -1.428
      -1.358
      -1.306
      -1.282
      -1.257
      -1.188
      -1.058
      -0.899
      -0.766
      -0.682
      -0.616
      -0.506
      -0.323
      -0.111
       0.043
       0.088
       0.064
       0.066
       0.140
       0.231
       0.236
       0.119
      -0.035
      -0.094
      -0.011
       0.126
       0.181
       0.096
      -0.067
      -0.202
      -0.257
      -0.253
      -0.242
      -0.253
      -0.278
      -0.286
      -0.257
      -0.200
      -0.144
      -0.113
      -0.108
      -0.108
      -0.093
      -0.065
      -0.046
      -0.051
      -0.075
      -0.098
      -0.113
      -0.133
      -0.171
      -0.214
      -0.234
      -0.219
      -0.203
      -0.227
      -0.295
      -0.352
      -0.346
      -0.293
      -0.270
      -0.335
      -0.453
      -0.521
      -0.467
      -0.334
      -0.250
      -0.320
      -0.528
      -0.753
      -0.876
      -0.876
      -0.819
      -0.784
      -0.803
      -0.856
      -0.908
      -0.935
      -0.941
      -0.936
      -0.928
      -0.916
      -0.896
      -0.872
      -0.846
      -0.819
      -0.786
      -0.735
      -0.660
      -0.569
      -0.487
      -0.443
      -0.436
      -0.436
      -0.406
      -0.343
      -0.287
      -0.277
      -0.306
      -0.322
      -0.272
      -0.166
      -0.074
      -0.063
      -0.127
      -0.197
      -0.219
      -0.222
      -0.281
      -0.422
      -0.572
      -0.629
      -0.571
      -0.482
      -0.466
      -0.545
      -0.653
      -0.712
      -0.700
      -0.651
      -0.606
      -0.585
      -0.575
      -0.552
      -0.502
      -0.433
      -0.367
      -0.321
      -0.285
      -0.235
      -0.155
      -0.055
       0.045
       0.143
       0.259
       0.412
       0.593
       0.775
       0.946
       1.129
       1.359
       1.638
       1.914
       2.125
       2.254
       2.352
       2.483
       2.645
       2.765
       2.767
       2.666
       2.561
       2.542
       2.595
       2.604
       2.458
       2.156
       1.814
       1.559
       1.429
       1.366
       1.283
       1.138
       0.947
       0.753
       0.584
       0.443
       0.312
       0.176
       0.034
      -0.107
      -0.240
      -0.371
