Origin Time       09/2/2011 19:17:29	 UTC
Lat.              30.9 N	
Long.             78.2 E	
Depth (Km)         10.0
Magnitude         5.0
 Region           UTTARKASHI-UTTARAKHAND                                           
 Above details taken from IMD 
    
Station Code      SND
Station Lat.       31.517  N
Station Long.      76.883  E
Station Height(m)  931.0
Site Class        A   Vs30 between 700 m/sec to 1400 m/sec * 
Record Time       09.02.2012 19:17:46.764 UTC
Sampling Rate     200. Hz
 Record Duration   85.745 Sec.
 Direction         N-S (N positive)
Max. Acceleration     -6.319 cm/sec**2
     
  * For reference see Site Classification link of website 
     
 Base Line Corrected and Low Pass Filtered (Cut Off at 35 Hz) Time History
 Acceleration data in cm/sec**2
    
[...]
      -0.017
      -0.051
      -0.060
      -0.041
      -0.004
       0.033
       0.049
       0.034
      -0.002
      -0.037
      -0.051
      -0.039
      -0.003
       0.047
       0.100
       0.141
       0.159
       0.159
       0.157
       0.166
       0.184
       0.202
       0.204
       0.179
       0.127
       0.066
       0.019
       0.000
       0.008
       0.032
       0.062
       0.083
       0.079
       0.044
      -0.009
      -0.050
      -0.055
      -0.015
       0.059
       0.143
       0.206
       0.230
       0.212
       0.169
       0.118
       0.071
       0.035
       0.007
      -0.020
      -0.059
      -0.114
      -0.175
      -0.216
      -0.220
      -0.183
      -0.124
      -0.073
      -0.065
      -0.119
      -0.226
      -0.358
      -0.478
      -0.560
      -0.585
      -0.551
      -0.469
      -0.367
      -0.270
      -0.193
      -0.129
      -0.067
      -0.003
       0.056
       0.092
       0.085
       0.030
      -0.054
      -0.131
      -0.167
      -0.147
      -0.067
       0.056
       0.193
       0.306
       0.373
       0.396
       0.391
       0.372
       0.342
       0.293
       0.218
       0.115
      -0.007
      -0.124
      -0.208
      -0.243
      -0.228
      -0.175
      -0.099
      -0.027
       0.016
       0.020
      -0.002
      -0.022
      -0.010
       0.042
       0.126
       0.213
       0.273
       0.290
       0.271
       0.243
       0.227
       0.231
       0.248
       0.265
       0.266
       0.234
       0.169
       0.089
       0.022
      -0.017
      -0.029
      -0.028
      -0.035
      -0.064
      -0.114
      -0.169
      -0.204
      -0.201
      -0.154
      -0.067
       0.045
       0.156
       0.233
       0.258
       0.240
       0.209
       0.196
       0.219
       0.267
       0.312
       0.327
       0.300
       0.247
       0.193
       0.159
       0.148
       0.153
       0.161
       0.156
       0.123
       0.057
      -0.030
      -0.117
      -0.191
      -0.251
      -0.303
      -0.360
      -0.432
      -0.515
      -0.593
      -0.643
      -0.648
      -0.608
      -0.533
      -0.438
      -0.346
      -0.276
      -0.234
      -0.205
      -0.165
      -0.100
      -0.016
       0.062
       0.108
       0.105
       0.056
      -0.008
      -0.054
      -0.063
      -0.038
       0.009
       0.071
       0.139
       0.205
       0.263
       0.313
       0.362
       0.412
       0.456
       0.481
       0.471
       0.417
       0.328
       0.230
       0.155
       0.121
       0.128
       0.164
       0.210
       0.245
       0.252
       0.231
       0.201
       0.188
       0.204
       0.240
       0.273
       0.278
       0.237
       0.154
       0.048
      -0.059
      -0.155
      -0.238
      -0.311
      -0.372
      -0.428
      -0.486
      -0.550
      -0.615
      -0.670
      -0.709
      -0.732
      -0.750
      -0.776
      -0.821
      -0.880
      -0.939
      -0.977
      -0.984
      -0.954
      -0.886
      -0.783
      -0.657
      -0.532
      -0.424
      -0.332
      -0.245
      -0.156
      -0.066
       0.014
       0.070
       0.100
       0.115
       0.137
       0.187
       0.263
       0.351
       0.434
       0.501
       0.540
       0.543
       0.514
       0.477
       0.463
       0.495
       0.573
       0.675
       0.769
       0.830
       0.857
       0.874
       0.909
       0.973
       1.056
       1.139
       1.195
       1.200
       1.140
       1.026
       0.889
       0.765
       0.671
       0.603
       0.537
       0.445
       0.309
       0.134
      -0.055
      -0.221
      -0.340
      -0.404
      -0.421
      -0.411
      -0.401
      -0.412
      -0.443
      -0.472
      -0.474
      -0.440
      -0.383
      -0.333
      -0.318
      -0.344
      -0.396
      -0.438
      -0.447
      -0.419
      -0.374
      -0.331
      -0.306
      -0.310
      -0.348
      -0.417
      -0.497
      -0.565
      -0.605
      -0.619
      -0.624
      -0.637
      -0.669
      -0.713
      -0.746
      -0.739
      -0.680
      -0.565
      -0.405
      -0.218
      -0.033
       0.132
       0.278
       0.427
       0.606
       0.823
       1.069
       1.312
       1.512
       1.634
       1.658
       1.590
       1.447
       1.246
       1.000
       0.716
       0.396
       0.035
      -0.364
      -0.780
      -1.171
      -1.495
      -1.721
      -1.838
      -1.855
      -1.793
      -1.677
      -1.514
      -1.300
      -1.024
      -0.686
      -0.296
       0.132
       0.568
       0.973
       1.309
       1.553
       1.706
       1.779
       1.781
       1.713
       1.566
       1.331
       1.006
       0.614
       0.192
      -0.217
      -0.582
      -0.885
      -1.125
      -1.312
      -1.465
      -1.593
      -1.690
      -1.731
      -1.696
      -1.576
      -1.377
      -1.111
      -0.799
      -0.462
      -0.118
       0.228
       0.576
       0.918
       1.235
       1.504
       1.701
       1.804
       1.799
       1.687
       1.480
       1.201
       0.878
       0.543
       0.216
      -0.101
      -0.419
      -0.741
      -1.042
      -1.279
      -1.411
      -1.423
      -1.333
      -1.184
      -1.028
      -0.893
      -0.771
      -0.624
      -0.418
      -0.152
       0.147
       0.435
       0.670
       0.827
       0.906
       0.934
       0.952
       0.985
       1.034
       1.079
       1.090
       1.036
       0.897
       0.676
       0.396
       0.097
      -0.187
      -0.436
      -0.645
      -0.817
      -0.955
      -1.056
      -1.098
      -1.050
      -0.897
      -0.651
      -0.352
      -0.043
       0.242
       0.480
       0.658
       0.780
       0.861
       0.919
       0.963
       0.985
       0.967
       0.889
       0.735
       0.505
       0.223
      -0.073
      -0.358
      -0.619
      -0.854
      -1.058
      -1.225
      -1.352
      -1.435
      -1.461
      -1.420
      -1.309
      -1.137
      -0.918
      -0.673
      -0.423
      -0.190
       0.017
       0.200
       0.362
       0.502
       0.622
       0.727
       0.822
       0.906
       0.979
       1.042
       1.100
       1.152
       1.191
       1.207
       1.185
       1.108
       0.963
       0.757
       0.516
       0.276
       0.067
      -0.098
      -0.221
      -0.320
      -0.416
      -0.518
      -0.605
      -0.637
      -0.587
      -0.458
      -0.287
      -0.120
       0.012
       0.100
       0.156
       0.195
       0.223
       0.234
       0.216
       0.159
       0.055
      -0.108
      -0.331
      -0.593
      -0.855
      -1.075
      -1.227
      -1.301
      -1.308
      -1.266
      -1.191
      -1.086
      -0.943
      -0.760
      -0.546
      -0.325
      -0.123
       0.038
       0.137
       0.172
       0.166
       0.153
       0.161
       0.195
       0.245
       0.298
       0.346
       0.395
       0.457
       0.547
       0.669
       0.812
       0.958
       1.091
       1.195
       1.257
       1.272
       1.252
       1.219
       1.185
       1.144
       1.077
       0.965
       0.806
       0.613
       0.419
       0.261
       0.159
       0.113
       0.098
       0.082
       0.032
      -0.077
      -0.250
      -0.465
      -0.685
      -0.885
      -1.061
      -1.227
      -1.400
      -1.585
      -1.769
      -1.921
      -2.006
      -2.003
      -1.919
      -1.777
      -1.609
      -1.446
      -1.309
      -1.197
      -1.079
      -0.914
      -0.686
      -0.413
      -0.131
       0.127
       0.341
       0.498
       0.594
       0.636
       0.640
       0.623
       0.594
       0.556
       0.505
       0.441
       0.384
       0.365
       0.416
       0.546
       0.742
       0.978
       1.216
       1.414
       1.536
       1.555
       1.465
       1.277
       1.012
       0.698
       0.356
      -0.004
      -0.374
      -0.732
      -1.022
      -1.184
      -1.176
      -0.997
      -0.677
      -0.264
       0.187
       0.623
       1.009
       1.328
       1.582
       1.778
       1.926
       2.025
       2.066
       2.038
       1.940
       1.795
       1.628
       1.441
       1.210
       0.897
       0.483
      -0.021
      -0.578
      -1.133
      -1.640
      -2.076
      -2.443
      -2.751
      -3.005
      -3.207
      -3.361
      -3.469
      -3.518
      -3.474
      -3.293
      -2.947
      -2.436
      -1.796
      -1.090
      -0.380
       0.291
       0.901
       1.443
       1.904
       2.268
       2.521
       2.648
       2.640
       2.507
       2.287
       2.032
       1.790
       1.594
       1.449
       1.344
       1.246
       1.123
       0.954
       0.736
       0.473
       0.173
      -0.153
      -0.490
      -0.828
      -1.164
      -1.480
      -1.738
      -1.885
      -1.879
      -1.716
      -1.429
      -1.068
      -0.678
      -0.277
       0.141
       0.584
       1.034
       1.445
       1.757
       1.925
       1.919
       1.727
       1.355
       0.833
       0.214
      -0.433
      -1.038
      -1.537
      -1.895
      -2.102
      -2.169
      -2.103
      -1.900
      -1.565
      -1.123
      -0.625
      -0.132
       0.299
       0.630
       0.856
       0.997
       1.081
       1.127
       1.136
       1.103
       1.027
       0.911
       0.767
       0.608
       0.445
       0.276
       0.089
      -0.128
      -0.384
      -0.682
      -1.021
      -1.381
      -1.715
      -1.963
      -2.068
      -2.007
      -1.790
      -1.455
      -1.042
      -0.572
      -0.045
       0.544
       1.177
       1.810
       2.389
       2.870
       3.224
       3.434
       3.502
       3.451
       3.307
       3.087
       2.783
       2.379
       1.864
       1.247
       0.563
      -0.134
      -0.785
      -1.344
      -1.784
      -2.091
      -2.261
      -2.307
      -2.251
      -2.116
      -1.918
      -1.665
      -1.373
      -1.067
      -0.783
      -0.549
      -0.385
      -0.292
      -0.259
      -0.275
      -0.339
      -0.448
      -0.591
      -0.750
      -0.916
      -1.090
      -1.263
      -1.396
      -1.431
      -1.326
      -1.085
      -0.758
      -0.413
      -0.099
       0.167
       0.396
       0.598
       0.766
       0.877
       0.924
       0.920
       0.893
       0.863
       0.838
       0.819
       0.812
       0.823
       0.856
       0.893
       0.898
       0.825
       0.648
       0.378
       0.060
      -0.253
      -0.521
      -0.728
      -0.882
      -1.009
      -1.136
      -1.264
      -1.359
      -1.371
      -1.257
      -1.005
      -0.636
      -0.196
       0.252
       0.656
       0.992
       1.260
       1.465
       1.606
       1.676
       1.670
       1.578
       1.390
       1.105
       0.742
       0.343
      -0.041
      -0.373
      -0.642
      -0.873
      -1.116
      -1.409
      -1.761
      -2.141
      -2.509
      -2.830
      -3.089
      -3.287
      -3.429
      -3.514
      -3.515
      -3.379
      -3.049
      -2.491
      -1.715
      -0.777
       0.240
       1.248
       2.182
       3.014
       3.733
       4.335
       4.804
       5.131
       5.319
       5.371
       5.285
       5.061
       4.712
       4.266
       3.758
       3.206
       2.610
       1.953
       1.227
       0.441
      -0.367
      -1.146
      -1.849
      -2.440
      -2.889
      -3.174
      -3.293
      -3.261
      -3.098
      -2.815
      -2.414
      -1.899
      -1.280
      -0.582
       0.156
       0.882
       1.536
       2.070
       2.457
       2.692
       2.789
       2.764
       2.628
       2.374
       1.991
       1.485
       0.901
       0.309
      -0.226
      -0.666
      -1.016
      -1.311
      -1.594
      -1.889
      -2.193
      -2.499
      -2.806
      -3.122
      -3.439
      -3.730
      -3.964
      -4.128
      -4.219
      -4.224
      -4.111
      -3.842
      -3.399
      -2.792
      -2.055
      -1.240
      -0.399
       0.424
       1.188
       1.854
       2.378
       2.727
       2.889
       2.872
       2.700
       2.407
       2.034
       1.618
       1.180
       0.729
       0.269
      -0.185
      -0.618
      -1.003
      -1.311
      -1.509
      -1.575
      -1.503
      -1.308
      -1.026
      -0.719
      -0.449
      -0.255
      -0.138
      -0.069
      -0.018
       0.025
       0.052
       0.047
       0.003
      -0.065
      -0.120
      -0.110
       0.006
       0.247
       0.598
       1.022
       1.466
       1.885
       2.261
       2.598
       2.908
       3.191
       3.433
       3.623
       3.754
       3.828
       3.849
       3.816
       3.720
       3.539
       3.257
       2.867
       2.373
       1.779
       1.080
       0.276
      -0.610
      -1.533
      -2.434
      -3.260
      -3.974
      -4.561
      -5.019
      -5.339
      -5.505
      -5.496
      -5.306
      -4.941
      -4.414
      -3.735
      -2.923
      -2.009
      -1.036
      -0.048
       0.915
       1.816
       2.629
       3.332
       3.902
       4.320
       4.575
       4.680
       4.657
       4.527
       4.303
       3.997
       3.627
       3.216
       2.784
       2.346
       1.902
       1.435
       0.907
       0.279
      -0.474
      -1.357
      -2.353
      -3.413
      -4.451
      -5.348
      -5.991
      -6.315
      -6.319
      -6.050
      -5.570
      -4.931
      -4.157
      -3.267
      -2.290
      -1.287
      -0.333
       0.508
       1.204
       1.762
       2.213
       2.597
       2.942
       3.248
       3.485
       3.603
       3.559
       3.327
       2.915
       2.364
       1.729
       1.060
       0.384
      -0.288
      -0.949
      -1.575
      -2.127
      -2.549
      -2.790
      -2.819
      -2.646
      -2.313
      -1.876
      -1.389
      -0.896
      -0.426
       0.016
       0.437
       0.833
       1.175
       1.424
       1.563
       1.605
       1.582
       1.523
       1.437
       1.317
       1.150
       0.928
       0.657
       0.348
       0.009
      -0.360
      -0.746
      -1.122
      -1.449
      -1.703
      -1.880
      -2.003
      -2.098
      -2.168
      -2.179
      -2.077
      -1.834
      -1.484
      -1.104
      -0.763
      -0.479
      -0.228
       0.022
       0.280
       0.530
       0.754
       0.950
       1.130
       1.297
       1.426
       1.481
       1.447
       1.353
       1.249
       1.166
       1.096
       1.007
       0.869
       0.674
       0.443
       0.208
       0.000
      -0.164
      -0.281
      -0.354
      -0.381
      -0.367
      -0.314
      -0.218
      -0.060
       0.183
       0.517
       0.919
       1.342
       1.732
       2.044
       2.243
       2.321
       2.294
       2.191
       2.038
       1.841
       1.591
       1.269
       0.865
       0.404
      -0.063
      -0.481
      -0.822
      -1.096
      -1.328
      -1.538
      -1.727
      -1.883
      -1.984
      -1.999
      -1.900
      -1.678
      -1.354
      -0.973
      -0.579
      -0.199
       0.176
       0.567
       0.984
       1.408
       1.801
       2.130
       2.375
       2.516
       2.535
       2.432
       2.234
       1.988
       1.734
       1.485
       1.217
       0.895
       0.500
       0.051
      -0.406
      -0.832
      -1.217
      -1.581
      -1.952
      -2.354
      -2.797
      -3.278
      -3.774
      -4.251
      -4.673
      -5.013
      -5.257
      -5.387
      -5.388
      -5.253
      -4.984
      -4.592
      -4.087
      -3.477
      -2.771
      -1.980
      -1.134
      -0.279
       0.527
       1.245
       1.862
       2.390
       2.846
       3.240
       3.573
       3.834
       4.012
       4.105
       4.127
       4.100
       4.039
       3.938
       3.785
       3.567
       3.273
       2.902
       2.463
       1.979
       1.473
       0.965
       0.473
       0.013
      -0.402
      -0.765
      -1.065
      -1.279
      -1.382
      -1.357
      -1.210
      -0.971
      -0.688
      -0.414
      -0.188
      -0.020
       0.107
       0.210
       0.291
       0.331
       0.311
       0.227
       0.099
      -0.029
      -0.099
      -0.074
       0.037
       0.186
       0.304
       0.336
       0.253
       0.056
      -0.233
      -0.573
      -0.926
      -1.259
      -1.549
      -1.783
      -1.962
      -2.084
      -2.141
      -2.107
      -1.960
      -1.695
      -1.335
      -0.926
      -0.530
      -0.211
      -0.006
       0.092
       0.134
       0.182
       0.273
       0.405
       0.547
       0.656
       0.705
       0.699
       0.671
       0.662
       0.702
       0.803
       0.965
       1.176
       1.415
       1.656
       1.876
       2.060
       2.200
       2.286
       2.302
       2.227
       2.041
       1.733
       1.323
       0.857
       0.393
      -0.025
      -0.374
      -0.645
      -0.848
      -1.000
      -1.125
      -1.232
      -1.322
      -1.389
      -1.442
      -1.499
      -1.582
      -1.709
      -1.880
      -2.070
      -2.226
      -2.294
      -2.239
      -2.057
      -1.767
      -1.407
      -1.031
      -0.693
      -0.426
      -0.234
      -0.093
       0.026
       0.144
       0.269
       0.392
       0.498
       0.579
       0.643
       0.706
       0.783
       0.884
       1.010
       1.142
       1.247
       1.293
       1.270
       1.190
       1.076
       0.946
       0.810
       0.667
       0.515
       0.356
       0.200
       0.070
      -0.013
      -0.040
      -0.016
       0.044
       0.113
       0.153
       0.131
       0.037
      -0.104
      -0.250
      -0.363
      -0.427
      -0.454
      -0.471
      -0.508
      -0.579
      -0.679
      -0.789
      -0.887
      -0.956
      -0.980
      -0.954
      -0.881
      -0.775
      -0.645
      -0.486
      -0.291
      -0.063
       0.182
       0.412
       0.584
       0.662
       0.630
       0.501
       0.307
       0.081
      -0.148
      -0.357
      -0.535
      -0.684
      -0.814
      -0.919
      -0.976
      -0.957
      -0.848
      -0.661
      -0.432
      -0.206
      -0.022
       0.103
       0.175
       0.216
       0.249
       0.301
       0.405
       0.582
       0.827
       1.111
       1.405
       1.691
       1.970
       2.241
       2.492
       2.700
       2.832
       2.864
       2.795
       2.647
       2.446
       2.212
       1.956
       1.688
       1.417
       1.148
       0.882
       0.624
       0.377
       0.149
      -0.057
      -0.245
      -0.428
      -0.623
      -0.838
      -1.062
      -1.266
      -1.412
      -1.474
      -1.445
      -1.336
      -1.184
      -1.043
      -0.959
      -0.949
      -0.996
      -1.070
      -1.150
      -1.231
      -1.322
      -1.430
      -1.553
      -1.679
      -1.792
      -1.881
      -1.942
      -1.974
      -1.975
      -1.956
      -1.943
      -1.957
      -1.988
      -1.997
      -1.937
      -1.788
      -1.570
      -1.329
      -1.120
      -0.980
      -0.911
      -0.887
      -0.870
      -0.841
      -0.798
      -0.752
      -0.721
