Origin Time       09/2/2011 19:17:29	
Lat.              30.9 N	
Long.             78.2 E	
Depth (Km)         10.0
Magnitude         5.0
 Region           UTTARKASHI-UTTARAKHAND                                           
 Above details taken from IMD 
   
Station Code      SND
Station Lat.       31.517
Station Long.      76.883
Station Height(m)  931.0
Site Class        A   Vs30 between 700 m/sec to 1400 m/sec * 
Record Time       09.02.2012 19:17:46.764
Sampling Rate     200. Hz
 Record Duration   85.745 Sec.
 Direction         Vert. (Up positive)
Max. Acceleration     -3.783 cm/sec**2
     
  * For reference see Site Classification link of website 
     
 Base Line Corrected and Low Pass Filtered (Cut Off at 35 Hz) Time History
 Acceleration data in cm/sec**2
    
[...]
       0.011
      -0.027
      -0.080
      -0.114
      -0.101
      -0.031
       0.080
       0.202
       0.306
       0.374
       0.402
       0.390
       0.338
       0.258
       0.164
       0.067
      -0.031
      -0.130
      -0.221
      -0.287
      -0.312
      -0.291
      -0.238
      -0.186
      -0.171
      -0.208
      -0.275
      -0.330
      -0.331
      -0.261
      -0.132
       0.022
       0.158
       0.240
       0.255
       0.217
       0.155
       0.105
       0.088
       0.104
       0.134
       0.148
       0.125
       0.059
      -0.041
      -0.159
      -0.272
      -0.348
      -0.360
      -0.297
      -0.178
      -0.045
       0.062
       0.120
       0.130
       0.111
       0.092
       0.086
       0.095
       0.113
       0.134
       0.154
       0.164
       0.155
       0.124
       0.071
      -0.002
      -0.089
      -0.171
      -0.215
      -0.194
      -0.102
       0.041
       0.189
       0.293
       0.316
       0.259
       0.158
       0.060
      -0.003
      -0.021
      -0.007
       0.017
       0.030
       0.023
       0.002
      -0.024
      -0.047
      -0.072
      -0.106
      -0.151
      -0.205
      -0.256
      -0.289
      -0.286
      -0.244
      -0.176
      -0.100
      -0.032
       0.022
       0.056
       0.065
       0.043
      -0.007
      -0.070
      -0.127
      -0.162
      -0.172
      -0.169
      -0.174
      -0.198
      -0.228
      -0.241
      -0.213
      -0.137
      -0.021
       0.106
       0.208
       0.254
       0.237
       0.178
       0.114
       0.083
       0.104
       0.169
       0.246
       0.297
       0.299
       0.259
       0.205
       0.167
       0.158
       0.171
       0.181
       0.161
       0.103
       0.019
      -0.061
      -0.106
      -0.103
      -0.059
       0.001
       0.039
       0.027
      -0.040
      -0.142
      -0.244
      -0.316
      -0.339
      -0.306
      -0.223
      -0.111
      -0.005
       0.062
       0.072
       0.030
      -0.033
      -0.075
      -0.065
      -0.009
       0.063
       0.112
       0.117
       0.085
       0.041
       0.017
       0.035
       0.092
       0.158
       0.192
       0.167
       0.084
      -0.028
      -0.131
      -0.188
      -0.185
      -0.135
      -0.063
       0.002
       0.042
       0.044
       0.003
      -0.072
      -0.149
      -0.185
      -0.149
      -0.036
       0.127
       0.291
       0.407
       0.446
       0.415
       0.349
       0.291
       0.270
       0.283
       0.303
       0.283
       0.193
       0.036
      -0.146
      -0.296
      -0.375
      -0.374
      -0.311
      -0.223
      -0.143
      -0.093
      -0.074
      -0.076
      -0.086
      -0.092
      -0.083
      -0.049
       0.012
       0.089
       0.164
       0.220
       0.247
       0.236
       0.179
       0.078
      -0.062
      -0.221
      -0.369
      -0.473
      -0.507
      -0.468
      -0.373
      -0.250
      -0.127
      -0.020
       0.061
       0.118
       0.157
       0.178
       0.174
       0.146
       0.107
       0.081
       0.085
       0.124
       0.183
       0.239
       0.264
       0.245
       0.185
       0.094
      -0.013
      -0.122
      -0.209
      -0.247
      -0.224
      -0.157
      -0.085
      -0.053
      -0.081
      -0.160
      -0.252
      -0.312
      -0.309
      -0.244
      -0.138
      -0.013
       0.117
       0.240
       0.348
       0.429
       0.473
       0.470
       0.416
       0.317
       0.192
       0.071
      -0.026
      -0.093
      -0.136
      -0.166
      -0.196
      -0.239
      -0.301
      -0.380
      -0.469
      -0.555
      -0.618
      -0.641
      -0.620
      -0.566
      -0.500
      -0.433
      -0.362
      -0.275
      -0.158
      -0.006
       0.169
       0.344
       0.493
       0.607
       0.689
       0.749
       0.794
       0.824
       0.837
       0.819
       0.749
       0.616
       0.426
       0.216
       0.032
      -0.093
      -0.153
      -0.175
      -0.197
      -0.245
      -0.312
      -0.375
      -0.404
      -0.381
      -0.298
      -0.167
      -0.022
       0.087
       0.114
       0.042
      -0.108
      -0.288
      -0.442
      -0.524
      -0.519
      -0.437
      -0.306
      -0.150
       0.010
       0.155
       0.269
       0.342
       0.374
       0.367
       0.324
       0.254
       0.176
       0.108
       0.057
       0.014
      -0.037
      -0.104
      -0.181
      -0.244
      -0.275
      -0.271
      -0.255
      -0.256
      -0.286
      -0.333
      -0.373
      -0.385
      -0.354
      -0.273
      -0.140
       0.033
       0.219
       0.382
       0.486
       0.506
       0.447
       0.339
       0.229
       0.155
       0.135
       0.168
       0.236
       0.307
       0.341
       0.309
       0.200
       0.025
      -0.179
      -0.363
      -0.478
      -0.493
      -0.416
      -0.283
      -0.141
      -0.029
       0.033
       0.045
       0.026
       0.001
      -0.016
      -0.028
      -0.048
      -0.089
      -0.143
      -0.187
      -0.183
      -0.101
       0.058
       0.255
       0.427
       0.516
       0.491
       0.363
       0.183
       0.025
      -0.053
      -0.043
       0.016
       0.061
       0.051
      -0.011
      -0.088
      -0.138
      -0.136
      -0.092
      -0.034
       0.013
       0.046
       0.080
       0.133
       0.213
       0.315
       0.416
       0.480
       0.467
       0.361
       0.180
      -0.035
      -0.232
      -0.372
      -0.440
      -0.441
      -0.395
      -0.326
      -0.253
      -0.192
      -0.151
      -0.129
      -0.114
      -0.084
      -0.033
       0.027
       0.069
       0.064
      -0.006
      -0.134
      -0.286
      -0.414
      -0.477
      -0.460
      -0.377
      -0.265
      -0.169
      -0.130
      -0.165
      -0.259
      -0.366
      -0.438
      -0.435
      -0.346
      -0.187
       0.007
       0.200
       0.366
       0.497
       0.597
       0.675
       0.744
       0.807
       0.851
       0.840
       0.738
       0.530
       0.235
      -0.106
      -0.444
      -0.734
      -0.940
      -1.039
      -1.019
      -0.880
      -0.637
      -0.327
      -0.001
       0.288
       0.508
       0.654
       0.743
       0.804
       0.865
       0.938
       1.010
       1.050
       1.024
       0.907
       0.686
       0.370
      -0.011
      -0.402
      -0.738
      -0.962
      -1.038
      -0.973
      -0.812
      -0.625
      -0.476
      -0.388
      -0.349
      -0.328
      -0.296
      -0.235
      -0.131
       0.013
       0.176
       0.319
       0.404
       0.413
       0.348
       0.235
       0.102
      -0.029
      -0.139
      -0.208
      -0.214
      -0.151
      -0.052
       0.023
       0.017
      -0.079
      -0.222
      -0.335
      -0.350
      -0.239
      -0.037
       0.179
       0.329
       0.372
       0.311
       0.193
       0.085
       0.050
       0.120
       0.265
       0.403
       0.435
       0.308
       0.046
      -0.263
      -0.508
      -0.614
      -0.567
      -0.412
      -0.217
      -0.033
       0.119
       0.239
       0.333
       0.409
       0.468
       0.497
       0.469
       0.363
       0.179
      -0.046
      -0.262
      -0.419
      -0.485
      -0.456
      -0.352
      -0.212
      -0.068
       0.060
       0.168
       0.254
       0.320
       0.368
       0.397
       0.395
       0.344
       0.243
       0.114
       0.001
      -0.065
      -0.080
      -0.075
      -0.089
      -0.148
      -0.249
      -0.357
      -0.435
      -0.465
      -0.449
      -0.404
      -0.344
      -0.284
      -0.239
      -0.219
      -0.222
      -0.227
      -0.202
      -0.122
       0.014
       0.173
       0.302
       0.354
       0.319
       0.219
       0.087
      -0.054
      -0.184
      -0.282
      -0.327
      -0.322
      -0.289
      -0.255
      -0.233
      -0.221
      -0.206
      -0.176
      -0.128
      -0.073
      -0.030
      -0.010
      -0.004
       0.006
       0.037
       0.096
       0.178
       0.263
       0.323
       0.335
       0.300
       0.245
       0.215
       0.248
       0.353
       0.496
       0.616
       0.651
       0.576
       0.410
       0.204
       0.014
      -0.119
      -0.175
      -0.171
      -0.145
      -0.142
      -0.180
      -0.241
      -0.286
      -0.281
      -0.217
      -0.114
      -0.009
       0.072
       0.126
       0.174
       0.235
       0.308
       0.377
       0.424
       0.433
       0.396
       0.304
       0.163
      -0.009
      -0.179
      -0.315
      -0.400
      -0.442
      -0.471
      -0.522
      -0.609
      -0.705
      -0.757
      -0.713
      -0.555
      -0.306
      -0.031
       0.192
       0.306
       0.302
       0.219
       0.126
       0.089
       0.142
       0.274
       0.440
       0.584
       0.668
       0.689
       0.667
       0.622
       0.558
       0.464
       0.320
       0.119
      -0.125
      -0.376
      -0.586
      -0.714
      -0.739
      -0.658
      -0.487
      -0.264
      -0.038
       0.149
       0.279
       0.360
       0.416
       0.472
       0.552
       0.670
       0.814
       0.948
       1.027
       1.014
       0.896
       0.677
       0.373
       0.006
      -0.391
      -0.774
      -1.096
      -1.334
      -1.507
      -1.658
      -1.806
      -1.922
      -1.941
      -1.815
      -1.550
      -1.198
      -0.829
      -0.491
      -0.199
       0.061
       0.301
       0.518
       0.688
       0.787
       0.807
       0.769
       0.709
       0.674
       0.699
       0.789
       0.919
       1.051
       1.167
       1.276
       1.391
       1.509
       1.591
       1.575
       1.398
       1.033
       0.509
      -0.099
      -0.696
      -1.197
      -1.541
      -1.701
      -1.693
      -1.572
      -1.410
      -1.261
      -1.139
      -1.025
      -0.888
      -0.702
      -0.461
      -0.179
       0.113
       0.380
       0.606
       0.787
       0.929
       1.037
       1.116
       1.174
       1.222
       1.276
       1.348
       1.436
       1.520
       1.567
       1.547
       1.443
       1.248
       0.963
       0.597
       0.168
      -0.302
      -0.779
      -1.231
      -1.624
      -1.937
      -2.154
      -2.268
      -2.271
      -2.161
      -1.946
      -1.640
      -1.258
      -0.831
      -0.407
      -0.048
       0.202
       0.336
       0.379
       0.369
       0.337
       0.301
       0.268
       0.232
       0.185
       0.119
       0.035
      -0.051
      -0.104
      -0.084
       0.036
       0.247
       0.513
       0.785
       1.028
       1.220
       1.344
       1.379
       1.308
       1.121
       0.825
       0.451
       0.057
      -0.283
      -0.504
      -0.571
      -0.488
      -0.302
      -0.083
       0.095
       0.185
       0.181
       0.106
      -0.003
      -0.103
      -0.173
      -0.217
      -0.278
      -0.407
      -0.635
      -0.951
      -1.301
      -1.607
      -1.793
      -1.814
      -1.665
      -1.370
      -0.967
      -0.497
       0.000
       0.480
       0.901
       1.224
       1.417
       1.465
       1.383
       1.226
       1.067
       0.981
       1.005
       1.123
       1.263
       1.323
       1.223
       0.942
       0.520
       0.023
      -0.492
      -0.987
      -1.432
      -1.794
      -2.047
      -2.181
      -2.213
      -2.177
      -2.106
      -2.017
      -1.906
      -1.747
      -1.504
      -1.140
      -0.638
      -0.016
       0.663
       1.316
       1.870
       2.292
       2.576
       2.728
       2.747
       2.633
       2.398
       2.070
       1.682
       1.261
       0.826
       0.389
      -0.023
      -0.373
      -0.631
      -0.798
      -0.902
      -0.976
      -1.026
      -1.026
      -0.950
      -0.786
      -0.556
      -0.298
      -0.047
       0.180
       0.384
       0.567
       0.715
       0.800
       0.796
       0.700
       0.529
       0.311
       0.080
      -0.131
      -0.305
      -0.447
      -0.586
      -0.760
      -0.990
      -1.268
      -1.546
      -1.746
      -1.783
      -1.612
      -1.252
      -0.787
      -0.331
       0.022
       0.228
       0.307
       0.318
       0.322
       0.343
       0.369
       0.368
       0.314
       0.206
       0.077
      -0.018
      -0.033
       0.042
       0.180
       0.347
       0.515
       0.663
       0.764
       0.785
       0.705
       0.529
       0.299
       0.084
      -0.045
      -0.043
       0.087
       0.299
       0.535
       0.752
       0.938
       1.106
       1.273
       1.433
       1.554
       1.607
       1.582
       1.490
       1.334
       1.092
       0.737
       0.273
      -0.249
      -0.752
      -1.179
      -1.515
      -1.785
      -2.025
      -2.252
      -2.451
      -2.590
      -2.644
      -2.606
      -2.481
      -2.273
      -1.989
      -1.633
      -1.214
      -0.747
      -0.258
       0.226
       0.684
       1.117
       1.544
       1.986
       2.441
       2.877
       3.232
       3.442
       3.477
       3.362
       3.161
       2.938
       2.721
       2.490
       2.195
       1.781
       1.218
       0.523
      -0.240
      -0.984
      -1.636
      -2.164
      -2.575
      -2.902
      -3.182
      -3.434
      -3.649
      -3.783
      -3.779
      -3.586
      -3.186
      -2.602
      -1.897
      -1.163
      -0.499
       0.013
       0.322
       0.414
       0.312
       0.072
      -0.237
      -0.549
      -0.806
      -0.959
      -0.974
      -0.846
      -0.606
      -0.300
       0.040
       0.410
       0.826
       1.289
       1.764
       2.191
       2.510
       2.692
       2.743
       2.694
       2.581
       2.437
       2.285
       2.137
       1.983
       1.790
       1.515
       1.131
       0.645
       0.106
      -0.403
      -0.791
      -0.995
      -1.011
      -0.903
      -0.771
      -0.717
      -0.804
      -1.028
      -1.314
      -1.555
      -1.658
      -1.599
      -1.419
      -1.198
      -0.999
      -0.837
      -0.676
      -0.461
      -0.164
       0.196
       0.566
       0.894
       1.153
       1.338
       1.460
       1.529
       1.551
       1.519
       1.421
       1.243
       0.985
       0.662
       0.304
      -0.047
      -0.338
      -0.517
      -0.558
      -0.480
      -0.341
      -0.222
      -0.183
      -0.236
      -0.345
      -0.456
      -0.544
      -0.613
      -0.686
      -0.767
      -0.836
      -0.868
      -0.849
      -0.788
      -0.722
      -0.697
      -0.749
      -0.883
      -1.071
      -1.267
      -1.420
      -1.496
      -1.492
      -1.435
      -1.368
      -1.325
      -1.302
      -1.264
      -1.158
      -0.934
      -0.572
      -0.097
       0.421
       0.890
       1.231
       1.421
       1.503
       1.568
       1.710
       1.974
       2.321
       2.644
       2.822
       2.774
       2.497
       2.062
       1.580
       1.154
       0.837
       0.617
       0.451
       0.304
       0.173
       0.085
       0.067
       0.124
       0.229
       0.326
       0.347
       0.249
       0.034
      -0.257
      -0.571
      -0.870
      -1.147
      -1.408
      -1.654
      -1.870
      -2.015
      -2.046
      -1.936
      -1.696
      -1.371
      -1.022
      -0.703
      -0.437
      -0.210
       0.008
       0.232
       0.446
       0.614
       0.701
       0.686
       0.578
       0.419
       0.276
       0.213
       0.261
       0.401
       0.572
       0.701
       0.722
       0.592
       0.306
      -0.091
      -0.517
      -0.881
      -1.116
      -1.205
      -1.173
      -1.055
      -0.873
      -0.623
      -0.300
       0.080
       0.473
       0.825
       1.094
       1.260
       1.318
       1.269
       1.117
       0.869
       0.537
       0.146
      -0.264
      -0.650
      -0.963
      -1.160
      -1.210
      -1.103
      -0.866
      -0.557
      -0.238
       0.038
       0.247
       0.393
       0.502
       0.605
       0.709
       0.780
       0.766
       0.625
       0.354
      -0.010
      -0.401
      -0.744
      -0.969
      -1.029
      -0.902
      -0.602
      -0.181
       0.274
       0.663
       0.911
       0.997
       0.952
       0.833
       0.687
       0.539
       0.390
       0.235
       0.081
      -0.055
      -0.154
      -0.205
      -0.204
      -0.143
      -0.029
       0.108
       0.211
       0.231
       0.167
       0.062
      -0.021
      -0.045
      -0.022
      -0.008
      -0.059
      -0.200
      -0.403
      -0.610
      -0.763
      -0.820
      -0.761
      -0.591
      -0.343
      -0.077
       0.141
       0.268
       0.304
       0.278
       0.232
       0.191
       0.156
       0.110
       0.033
      -0.081
      -0.225
      -0.388
      -0.552
      -0.688
      -0.769
      -0.787
      -0.755
      -0.695
      -0.615
      -0.510
      -0.367
      -0.184
       0.036
       0.282
       0.542
       0.800
       1.037
       1.230
       1.345
       1.349
       1.226
       0.993
       0.699
       0.409
       0.173
       0.008
      -0.108
      -0.216
      -0.343
      -0.482
      -0.595
      -0.641
      -0.600
      -0.487
      -0.347
      -0.240
      -0.215
      -0.291
      -0.444
      -0.627
      -0.786
      -0.881
      -0.897
      -0.837
      -0.717
      -0.549
      -0.344
      -0.126
       0.066
       0.198
       0.262
       0.290
       0.339
       0.465
       0.687
       0.972
       1.240
       1.408
       1.429
       1.322
       1.149
       0.983
       0.874
       0.835
       0.833
       0.814
       0.735
       0.591
       0.418
       0.271
       0.193
       0.194
       0.237
       0.256
       0.185
      -0.002
      -0.269
      -0.548
      -0.775
      -0.926
      -1.005
      -1.034
      -1.032
      -1.010
      -0.975
      -0.927
      -0.863
      -0.770
      -0.623
      -0.410
      -0.145
       0.122
       0.325
       0.409
       0.355
       0.195
      -0.004
      -0.173
      -0.278
      -0.331
      -0.365
      -0.397
      -0.413
      -0.380
      -0.281
      -0.130
       0.031
       0.150
       0.189
       0.145
       0.043
      -0.083
      -0.201
      -0.302
      -0.385
      -0.456
      -0.519
      -0.567
      -0.590
      -0.570
      -0.497
      -0.364
      -0.182
       0.022
       0.205
       0.327
       0.369
       0.332
       0.225
       0.053
      -0.175
      -0.431
      -0.666
      -0.829
      -0.883
      -0.815
      -0.636
      -0.370
      -0.041
       0.332
       0.724
       1.097
       1.403
       1.604
       1.686
       1.650
       1.513
       1.304
       1.069
       0.874
       0.776
       0.802
       0.928
       1.089
       1.209
       1.240
       1.187
       1.090
       0.991
       0.903
       0.810
       0.691
       0.540
       0.374
       0.227
       0.122
       0.059
       0.009
      -0.066
      -0.195
      -0.388
      -0.633
      -0.896
      -1.132
      -1.299
      -1.387
