Origin Time       26/10/2011 16:17:32 UTC
Lat.              31.5 N 
Long.             76.8 E 
Depth (Km)          5.0
Magnitude         3.5
 Region           MANDI-HIMACHAL-PRADESH                                           
 Above details taken from IMD 
    
Station Code      SND
Station Lat.       31.517  N
Station Long.      76.883  E
Station Height(m)  931.0
Site Class        A   Vs30 between 700 m/sec to 1400 m/sec * 
Record Time       26.10.2011 16:17:04.714 UTC
Sampling Rate     200. Hz
 Record Duration   83.840 Sec.
 Direction         N-S (N positive)
Max. Acceleration    -12.831 cm/sec**2
     
  * For reference see Site Classification link of website 
     
 Base Line Corrected and Low Pass Filtered (Cut Off at 35 Hz) Time History
 Acceleration data in cm/sec**2
    
[...]
       0.001
      -0.036
      -0.047
      -0.019
       0.022
       0.039
       0.018
      -0.019
      -0.036
      -0.017
       0.016
       0.025
      -0.001
      -0.036
      -0.044
      -0.012
       0.031
       0.049
       0.025
      -0.018
      -0.042
      -0.025
       0.013
       0.032
       0.012
      -0.027
      -0.045
      -0.022
       0.021
       0.044
       0.025
      -0.020
      -0.049
      -0.037
       0.002
       0.029
       0.018
      -0.016
      -0.037
      -0.019
       0.024
       0.055
       0.043
      -0.005
      -0.047
      -0.047
      -0.010
       0.028
       0.030
      -0.001
      -0.033
      -0.031
       0.006
       0.043
       0.045
       0.008
      -0.033
      -0.043
      -0.015
       0.019
       0.025
      -0.003
      -0.035
      -0.036
       0.000
       0.041
       0.047
       0.011
      -0.037
      -0.052
      -0.024
       0.018
       0.033
       0.010
      -0.025
      -0.036
      -0.009
       0.032
       0.047
       0.019
      -0.030
      -0.057
      -0.042
      -0.003
       0.019
       0.005
      -0.028
      -0.043
      -0.019
       0.028
       0.055
       0.038
      -0.008
      -0.042
      -0.034
       0.003
       0.034
       0.030
       0.000
      -0.024
      -0.016
       0.020
       0.049
       0.039
      -0.003
      -0.041
      -0.041
      -0.009
       0.023
       0.025
      -0.001
      -0.026
      -0.021
       0.013
       0.043
       0.038
       0.000
      -0.039
      -0.043
      -0.011
       0.027
       0.036
       0.011
      -0.023
      -0.029
       0.001
       0.038
       0.047
       0.016
      -0.026
      -0.040
      -0.017
       0.022
       0.038
       0.016
      -0.022
      -0.040
      -0.017
       0.024
       0.044
       0.024
      -0.016
      -0.038
      -0.024
       0.009
       0.029
       0.017
      -0.016
      -0.033
      -0.014
       0.026
       0.049
       0.032
      -0.009
      -0.038
      -0.034
      -0.006
       0.015
       0.006
      -0.025
      -0.044
      -0.028
       0.012
       0.038
       0.023
      -0.020
      -0.055
      -0.052
      -0.017
       0.016
       0.017
      -0.012
      -0.038
      -0.031
       0.004
       0.032
       0.023
      -0.018
      -0.054
      -0.051
      -0.012
       0.029
       0.032
      -0.005
      -0.047
      -0.052
      -0.014
       0.030
       0.040
       0.007
      -0.036
      -0.049
      -0.021
       0.022
       0.037
       0.011
      -0.028
      -0.040
      -0.009
       0.035
       0.050
       0.023
      -0.021
      -0.042
      -0.025
       0.011
       0.030
       0.013
      -0.020
      -0.033
      -0.008
       0.032
       0.051
       0.030
      -0.010
      -0.033
      -0.017
       0.022
       0.044
       0.024
      -0.021
      -0.047
      -0.029
       0.018
       0.048
       0.035
      -0.009
      -0.044
      -0.041
      -0.006
       0.025
       0.022
      -0.011
      -0.039
      -0.030
       0.006
       0.035
       0.029
      -0.008
      -0.043
      -0.046
      -0.017
       0.012
       0.009
      -0.025
      -0.056
      -0.051
      -0.010
       0.033
       0.042
       0.013
      -0.026
      -0.040
      -0.016
       0.020
       0.033
       0.009
      -0.027
      -0.039
      -0.013
       0.029
       0.049
       0.030
      -0.013
      -0.041
      -0.033
      -0.001
       0.019
       0.004
      -0.030
      -0.048
      -0.027
       0.018
       0.048
       0.037
      -0.006
      -0.044
      -0.046
      -0.016
       0.012
       0.010
      -0.017
      -0.038
      -0.026
       0.011
       0.040
       0.031
      -0.010
      -0.047
      -0.046
      -0.012
       0.021
       0.019
      -0.014
      -0.042
      -0.034
       0.006
       0.043
       0.041
       0.000
      -0.045
      -0.055
      -0.025
       0.012
       0.020
      -0.005
      -0.032
      -0.030
       0.003
       0.039
       0.041
       0.003
      -0.044
      -0.060
      -0.032
       0.011
       0.029
       0.009
      -0.025
      -0.036
      -0.010
       0.031
       0.048
       0.023
      -0.020
      -0.040
      -0.022
       0.013
       0.027
       0.005
      -0.031
      -0.044
      -0.017
       0.028
       0.051
       0.029
      -0.017
      -0.045
      -0.030
       0.011
       0.038
       0.026
      -0.011
      -0.037
      -0.024
       0.016
       0.044
       0.031
      -0.013
      -0.049
      -0.046
      -0.010
       0.023
       0.022
      -0.008
      -0.035
      -0.029
       0.011
       0.046
       0.042
      -0.001
      -0.048
      -0.059
      -0.030
       0.010
       0.024
       0.004
      -0.026
      -0.032
      -0.004
       0.032
       0.040
       0.010
      -0.031
      -0.046
      -0.022
       0.016
       0.033
       0.014
      -0.022
      -0.038
      -0.015
       0.025
       0.042
       0.019
      -0.024
      -0.050
      -0.036
       0.001
       0.025
       0.014
      -0.020
      -0.039
      -0.022
       0.018
       0.039
       0.019
      -0.024
      -0.051
      -0.039
      -0.002
       0.025
       0.016
      -0.018
      -0.041
      -0.027
       0.015
       0.045
       0.034
      -0.008
      -0.042
      -0.039
      -0.006
       0.025
       0.020
      -0.017
      -0.050
      -0.045
      -0.006
       0.032
       0.032
      -0.006
      -0.046
      -0.052
      -0.017
       0.025
       0.037
       0.008
      -0.031
      -0.037
      -0.003
       0.041
       0.052
       0.022
      -0.021
      -0.038
      -0.020
       0.011
       0.019
      -0.006
      -0.041
      -0.049
      -0.019
       0.019
       0.029
       0.001
      -0.039
      -0.052
      -0.028
       0.012
       0.030
       0.011
      -0.025
      -0.040
      -0.014
       0.030
       0.051
       0.028
      -0.018
      -0.051
      -0.042
      -0.004
       0.025
       0.017
      -0.020
      -0.045
      -0.030
       0.015
       0.047
       0.036
      -0.008
      -0.044
      -0.042
      -0.003
       0.035
       0.037
       0.004
      -0.031
      -0.032
       0.000
       0.031
       0.030
      -0.007
      -0.047
      -0.056
      -0.028
       0.008
       0.015
      -0.013
      -0.045
      -0.046
      -0.012
       0.023
       0.027
      -0.007
      -0.050
      -0.064
      -0.037
       0.005
       0.024
       0.005
      -0.025
      -0.033
      -0.004
       0.034
       0.046
       0.018
      -0.030
      -0.055
      -0.037
       0.003
       0.026
       0.008
      -0.028
      -0.038
      -0.006
       0.042
       0.062
       0.033
      -0.024
      -0.058
      -0.043
       0.006
       0.041
       0.031
      -0.011
      -0.042
      -0.030
       0.012
       0.045
       0.034
      -0.013
      -0.056
      -0.058
      -0.022
       0.016
       0.020
      -0.009
      -0.038
      -0.034
       0.003
       0.039
       0.038
      -0.001
      -0.044
      -0.053
      -0.024
       0.012
       0.018
      -0.009
      -0.040
      -0.040
      -0.004
       0.036
       0.044
       0.009
      -0.036
      -0.053
      -0.028
       0.010
       0.025
       0.006
      -0.024
      -0.031
      -0.004
       0.033
       0.041
       0.008
      -0.040
      -0.062
      -0.040
       0.001
       0.021
       0.004
      -0.031
      -0.045
      -0.022
       0.021
       0.042
       0.022
      -0.023
      -0.051
      -0.037
       0.003
       0.033
       0.029
       0.001
      -0.019
      -0.008
       0.025
       0.047
       0.033
      -0.008
      -0.040
      -0.035
      -0.001
       0.026
       0.020
      -0.013
      -0.040
      -0.030
       0.013
       0.051
       0.047
       0.002
      -0.043
      -0.051
      -0.021
       0.015
       0.022
      -0.003
      -0.029
      -0.026
       0.009
       0.045
       0.045
       0.007
      -0.036
      -0.043
      -0.010
       0.031
       0.043
       0.015
      -0.023
      -0.034
      -0.005
       0.036
       0.049
       0.020
      -0.022
      -0.038
      -0.015
       0.024
       0.045
       0.035
       0.014
       0.011
       0.033
       0.056
       0.050
       0.016
      -0.010
       0.004
       0.048
       0.076
       0.054
      -0.003
      -0.042
      -0.015
       0.075
       0.165
       0.188
       0.134
       0.055
       0.012
       0.004
      -0.026
      -0.121
      -0.255
      -0.347
      -0.343
      -0.272
      -0.221
      -0.256
      -0.354
      -0.413
      -0.334
      -0.109
       0.170
       0.382
       0.457
       0.411
       0.325
       0.273
       0.277
       0.291
       0.254
       0.147
      -0.001
      -0.152
      -0.288
      -0.380
      -0.376
      -0.242
      -0.006
       0.273
       0.559
       0.801
       0.851
       0.511
      -0.212
      -0.920
      -1.031
      -0.291
       0.903
       1.751
       1.701
       0.876
      -0.066
      -0.515
      -0.398
      -0.154
      -0.271
      -0.814
      -1.395
      -1.556
      -1.183
      -0.590
      -0.253
      -0.455
      -1.079
      -1.692
      -1.840
      -1.353
      -0.436
       0.514
       1.178
       1.443
       1.359
       1.048
       0.676
       0.434
       0.457
       0.722
       1.068
       1.354
       1.564
       1.729
       1.752
       1.386
       0.459
      -0.839
      -1.947
      -2.278
      -1.676
      -0.551
       0.465
       0.997
       1.098
       0.989
       0.752
       0.310
      -0.338
      -0.996
      -1.426
      -1.585
      -1.645
      -1.773
      -1.930
      -1.885
      -1.408
      -0.467
       0.696
       1.659
       2.052
       1.787
       1.121
       0.489
       0.229
       0.366
       0.635
       0.729
       0.576
       0.392
       0.433
       0.684
       0.840
       0.631
       0.145
      -0.214
      -0.130
       0.258
       0.425
      -0.080
      -1.178
      -2.254
      -2.618
      -2.049
      -0.953
      -0.035
       0.219
      -0.165
      -0.770
      -1.141
      -1.065
      -0.625
      -0.050
       0.451
       0.781
       0.946
       1.001
       1.031
       1.133
       1.371
       1.682
       1.869
       1.743
       1.306
       0.783
       0.417
       0.241
       0.042
      -0.409
      -1.104
      -1.767
      -2.074
      -1.902
      -1.383
      -0.790
      -0.373
      -0.267
      -0.446
      -0.737
      -0.938
      -0.964
      -0.904
      -0.884
      -0.873
      -0.660
      -0.082
       0.743
       1.440
       1.681
       1.468
       1.124
       1.020
       1.296
       1.813
       2.288
       2.485
       2.295
       1.736
       0.912
      -0.008
      -0.792
      -1.210
      -1.148
      -0.714
      -0.231
      -0.084
      -0.488
      -1.325
      -2.183
      -2.594
      -2.355
      -1.668
      -0.992
      -0.690
      -0.771
      -0.948
      -0.925
      -0.639
      -0.252
       0.057
       0.250
       0.405
       0.599
       0.823
       1.012
       1.106
       1.066
       0.883
       0.614
       0.440
       0.598
       1.189
       1.998
       2.562
       2.479
       1.690
       0.526
      -0.512
      -1.043
      -1.004
      -0.647
      -0.353
      -0.371
      -0.666
      -0.974
      -1.036
      -0.812
      -0.483
      -0.280
      -0.297
      -0.456
      -0.629
      -0.763
      -0.886
      -0.997
      -0.995
      -0.745
      -0.243
       0.314
       0.637
       0.548
       0.088
      -0.544
      -1.124
      -1.512
      -1.659
      -1.586
      -1.335
      -0.958
      -0.513
      -0.073
       0.287
       0.507
       0.551
       0.415
       0.142
      -0.170
      -0.403
      -0.510
      -0.583
      -0.777
      -1.149
      -1.557
      -1.753
      -1.603
      -1.238
      -0.980
      -1.070
      -1.425
      -1.643
      -1.315
      -0.378
       0.784
       1.613
       1.797
       1.470
       1.058
       0.922
       1.128
       1.492
       1.792
       1.953
       2.041
       2.139
       2.244
       2.309
       2.355
       2.515
       2.917
       3.521
       4.091
       4.350
       4.209
       3.836
       3.519
       3.405
       3.366
       3.086
       2.322
       1.107
      -0.264
      -1.444
      -2.253
      -2.760
      -3.173
      -3.647
      -4.148
      -4.507
      -4.589
      -4.410
      -4.082
      -3.644
      -2.983
      -1.964
      -0.626
       0.752
       1.814
       2.374
       2.530
       2.553
       2.662
       2.897
       3.163
       3.359
       3.439
       3.364
       3.058
       2.473
       1.699
       0.976
       0.525
       0.341
       0.119
      -0.580
      -2.034
      -4.158
      -6.531
      -8.608
      -9.970
     -10.471
     -10.269
      -9.729
      -9.196
      -8.738
      -8.047
      -6.649
      -4.305
      -1.277
       1.772
       4.178
       5.633
       6.263
       6.409
       6.389
       6.418
       6.664
       7.268
       8.232
       9.319
      10.110
      10.227
       9.545
       8.233
       6.626
       5.059
       3.765
       2.855
       2.302
       1.913
       1.343
       0.220
      -1.656
      -4.148
      -6.812
      -9.112
     -10.710
     -11.624
     -12.136
     -12.526
     -12.831
     -12.794
     -12.025
     -10.269
      -7.588
      -4.373
      -1.140
       1.699
       3.956
       5.584
       6.558
       6.863
       6.607
       6.061
       5.528
       5.112
       4.644
       3.863
       2.723
       1.553
       0.884
       1.075
       2.036
       3.280
       4.230
       4.531
       4.175
       3.399
       2.492
       1.645
       0.896
       0.157
      -0.712
      -1.806
      -3.070
      -4.222
      -4.829
      -4.534
      -3.314
      -1.557
       0.126
       1.241
       1.641
       1.488
       1.024
       0.359
      -0.544
      -1.706
      -2.953
      -3.899
      -4.132
      -3.462
      -2.067
      -0.400
       1.071
       2.102
       2.710
       3.043
       3.227
       3.321
       3.349
       3.312
       3.170
       2.863
       2.380
       1.800
       1.236
       0.723
       0.159
      -0.630
      -1.732
      -3.019
      -4.144
      -4.717
      -4.532
      -3.711
      -2.646
      -1.791
      -1.432
      -1.541
      -1.825
      -1.912
      -1.595
      -0.963
      -0.338
      -0.058
      -0.249
      -0.730
      -1.125
      -1.110
      -0.620
       0.123
       0.775
       1.100
       1.096
       0.958
       0.924
       1.140
       1.597
       2.153
       2.593
       2.724
       2.470
       1.926
       1.312
       0.836
       0.587
       0.531
       0.589
       0.708
       0.865
       1.040
       1.207
       1.372
       1.588
       1.905
       2.293
       2.611
       2.702
       2.521
       2.202
       1.981
       2.030
       2.318
       2.611
       2.604
       2.115
       1.198
       0.104
      -0.905
      -1.743
      -2.547
      -3.533
      -4.796
      -6.195
      -7.430
      -8.229
      -8.503
      -8.357
      -7.978
      -7.514
      -7.015
      -6.451
      -5.750
      -4.849
      -3.743
      -2.509
      -1.265
      -0.109
       0.933
       1.882
       2.756
       3.546
       4.231
       4.818
       5.340
       5.823
       6.250
       6.568
       6.727
       6.701
       6.468
       5.998
       5.293
       4.476
       3.792
       3.477
       3.574
       3.862
       3.998
       3.744
       3.117
       2.317
       1.535
       0.803
       0.010
      -0.966
      -2.142
      -3.420
      -4.634
      -5.605
      -6.155
      -6.131
      -5.484
      -4.328
      -2.925
      -1.566
      -0.443
       0.399
       1.003
       1.401
       1.580
       1.518
       1.232
       0.811
       0.388
       0.108
       0.068
       0.275
       0.638
       1.004
       1.220
       1.165
       0.765
       0.009
      -1.029
      -2.178
      -3.215
      -3.959
      -4.354
      -4.486
      -4.499
      -4.489
      -4.447
      -4.284
      -3.920
      -3.345
      -2.626
      -1.845
      -1.058
      -0.301
       0.367
       0.850
       1.058
       0.973
       0.666
       0.275
      -0.044
      -0.158
       0.011
       0.477
       1.189
       2.042
       2.906
       3.660
       4.229
       4.602
       4.809
       4.868
       4.765
       4.473
       3.998
       3.403
       2.796
       2.274
       1.872
       1.539
       1.164
       0.635
      -0.099
      -0.990
      -1.900
      -2.664
      -3.175
      -3.444
      -3.577
      -3.699
      -3.875
      -4.087
      -4.271
      -4.372
      -4.378
      -4.305
      -4.171
      -3.977
      -3.697
      -3.291
      -2.710
      -1.909
      -0.887
       0.293
       1.517
       2.672
       3.693
       4.583
       5.390
       6.155
       6.868
       7.447
       7.759
       7.689
       7.188
       6.289
       5.083
       3.686
       2.221
       0.817
      -0.409
      -1.399
      -2.195
      -2.926
      -3.708
      -4.547
      -5.309
      -5.791
      -5.839
      -5.431
      -4.678
      -3.757
      -2.819
      -1.931
      -1.093
      -0.302
       0.416
       1.015
       1.468
       1.790
       2.007
       2.122
       2.119
       1.993
       1.788
       1.583
       1.430
       1.315
       1.174
       0.952
       0.642
       0.269
      -0.141
      -0.563
      -0.962
      -1.287
      -1.486
      -1.547
      -1.519
      -1.484
      -1.492
      -1.511
      -1.445
      -1.208
      -0.801
      -0.332
       0.051
       0.243
       0.249
       0.170
       0.136
       0.237
       0.484
       0.828
       1.184
       1.462
       1.583
       1.509
       1.262
       0.929
       0.623
       0.429
       0.354
       0.327
       0.252
       0.072
      -0.189
      -0.457
      -0.657
      -0.753
      -0.741
      -0.622
      -0.391
      -0.048
       0.374
       0.802
       1.163
       1.426
       1.603
       1.711
       1.743
       1.669
       1.472
       1.162
       0.771
       0.327
      -0.151
      -0.632
      -1.052
      -1.333
      -1.440
      -1.425
      -1.407
      -1.485
      -1.676
      -1.908
      -2.065
      -2.058
      -1.862
      -1.522
      -1.128
      -0.779
      -0.544
      -0.438
      -0.413
      -0.390
      -0.299
      -0.129
       0.085
       0.308
       0.548
       0.844
       1.197
       1.531
       1.707
       1.612
       1.245
       0.718
       0.178
      -0.290
      -0.684
      -1.016
      -1.254
      -1.321
      -1.174
      -0.867
      -0.531
      -0.284
      -0.144
      -0.045
       0.071
       0.186
       0.222
       0.143
       0.014
      -0.039
       0.066
       0.288
       0.494
       0.555
       0.440
       0.216
      -0.020
      -0.215
      -0.375
      -0.533
      -0.711
      -0.900
      -1.065
      -1.169
      -1.178
      -1.075
      -0.860
      -0.554
      -0.204
       0.114
       0.330
