Origin Time       14/03/2010 6:53:21	
Lat.              31.7 N	
Long.             76.1 E	
Depth (Km)         29.0
Magnitude         4.6
 Region           HIMACHAL-PUNJAB-(HOSHIARPUR)-BORDER                              
 Above details taken from IMD 
     
Station Code      SND
Station Lat.       31.517  N
Station Long.      76.883  E
Station Height(m)  931.0
Site Class        A   Vs30 between 700 m/sec to 1400 m/sec * 
Record Time       14.03.2010 12:21:52.999
Sampling Rate     200. Hz
 Record Duration   80.170 Sec.
 Direction         E-W (E positive)
Max. Acceleration      3.386 cm/sec**2
     
  * For reference see Site Classification link of website 
     
 Base Line Corrected and Low Pass Filtered (Cut Off at 35 Hz) Time History
 Acceleration data in cm/sec**2
    
[...]
      -0.007
      -0.031
      -0.041
      -0.049
      -0.073
      -0.121
      -0.184
      -0.240
      -0.261
      -0.230
      -0.147
      -0.035
       0.074
       0.153
       0.190
       0.187
       0.155
       0.111
       0.076
       0.058
       0.045
       0.019
      -0.023
      -0.065
      -0.080
      -0.050
       0.015
       0.089
       0.147
       0.182
       0.198
       0.203
       0.192
       0.158
       0.102
       0.043
       0.003
      -0.010
      -0.010
      -0.016
      -0.040
      -0.078
      -0.116
      -0.139
      -0.146
      -0.142
      -0.133
      -0.118
      -0.089
      -0.043
       0.023
       0.102
       0.189
       0.272
       0.333
       0.356
       0.335
       0.278
       0.200
       0.118
       0.045
      -0.013
      -0.051
      -0.063
      -0.041
       0.010
       0.068
       0.106
       0.109
       0.084
       0.049
       0.012
      -0.032
      -0.093
      -0.175
      -0.270
      -0.357
      -0.419
      -0.452
      -0.460
      -0.448
      -0.420
      -0.384
      -0.349
      -0.319
      -0.286
      -0.231
      -0.143
      -0.028
       0.094
       0.197
       0.264
       0.300
       0.318
       0.323
       0.303
       0.249
       0.166
       0.080
       0.013
      -0.031
      -0.057
      -0.067
      -0.054
      -0.020
       0.024
       0.057
       0.072
       0.079
       0.098
       0.145
       0.212
       0.277
       0.318
       0.321
       0.289
       0.230
       0.153
       0.072
       0.002
      -0.046
      -0.073
      -0.088
      -0.102
      -0.119
      -0.133
      -0.128
      -0.091
      -0.022
       0.061
       0.130
       0.159
       0.138
       0.074
      -0.011
      -0.087
      -0.134
      -0.156
      -0.173
      -0.211
      -0.272
      -0.337
      -0.370
      -0.342
      -0.251
      -0.121
       0.010
       0.111
       0.166
       0.177
       0.153
       0.111
       0.071
       0.049
       0.044
       0.046
       0.051
       0.059
       0.080
       0.115
       0.153
       0.172
       0.146
       0.074
      -0.021
      -0.101
      -0.142
      -0.150
      -0.144
      -0.136
      -0.128
      -0.115
      -0.101
      -0.094
      -0.093
      -0.082
      -0.046
       0.013
       0.071
       0.091
       0.059
      -0.013
      -0.093
      -0.152
      -0.174
      -0.158
      -0.114
      -0.058
      -0.015
      -0.002
      -0.019
      -0.048
      -0.057
      -0.018
       0.073
       0.195
       0.315
       0.404
       0.454
       0.468
       0.443
       0.379
       0.281
       0.176
       0.091
       0.043
       0.035
       0.055
       0.090
       0.135
       0.184
       0.234
       0.273
       0.286
       0.260
       0.196
       0.105
       0.006
      -0.082
      -0.147
      -0.189
      -0.217
      -0.241
      -0.264
      -0.278
      -0.271
      -0.239
      -0.185
      -0.122
      -0.064
      -0.023
      -0.007
      -0.016
      -0.053
      -0.115
      -0.189
      -0.247
      -0.267
      -0.250
      -0.220
      -0.206
      -0.217
      -0.239
      -0.241
      -0.204
      -0.137
      -0.070
      -0.029
      -0.014
       0.000
       0.035
       0.099
       0.174
       0.235
       0.257
       0.233
       0.172
       0.093
       0.019
      -0.032
      -0.047
      -0.022
       0.029
       0.082
       0.114
       0.117
       0.100
       0.083
       0.078
       0.086
       0.089
       0.062
      -0.006
      -0.106
      -0.212
      -0.293
      -0.325
      -0.299
      -0.218
      -0.103
       0.007
       0.080
       0.097
       0.062
      -0.004
      -0.076
      -0.122
      -0.118
      -0.056
       0.054
       0.184
       0.304
       0.394
       0.459
       0.514
       0.567
       0.604
       0.598
       0.528
       0.395
       0.221
       0.039
      -0.119
      -0.234
      -0.311
      -0.376
      -0.457
      -0.560
      -0.662
      -0.719
      -0.695
      -0.582
      -0.407
      -0.216
      -0.049
       0.081
       0.178
       0.255
       0.315
       0.356
       0.376
       0.370
       0.338
       0.279
       0.199
       0.109
       0.027
      -0.025
      -0.029
       0.016
       0.088
       0.156
       0.198
       0.206
       0.191
       0.169
       0.157
       0.155
       0.150
       0.119
       0.048
      -0.063
      -0.199
      -0.331
      -0.428
      -0.463
      -0.429
      -0.343
      -0.232
      -0.120
      -0.020
       0.062
       0.125
       0.171
       0.197
       0.197
       0.166
       0.103
       0.018
      -0.074
      -0.148
      -0.182
      -0.160
      -0.087
       0.013
       0.107
       0.165
       0.178
       0.158
       0.131
       0.116
       0.108
       0.077
       0.001
      -0.113
      -0.232
      -0.314
      -0.336
      -0.303
      -0.241
      -0.183
      -0.154
      -0.158
      -0.186
      -0.222
      -0.250
      -0.258
      -0.245
      -0.223
      -0.212
      -0.223
      -0.246
      -0.259
      -0.232
      -0.150
      -0.015
       0.144
       0.290
       0.393
       0.447
       0.464
       0.458
       0.443
       0.423
       0.400
       0.368
       0.322
       0.257
       0.171
       0.069
      -0.039
      -0.133
      -0.192
      -0.202
      -0.166
      -0.108
      -0.059
      -0.049
      -0.085
      -0.142
      -0.176
      -0.152
      -0.071
       0.031
       0.106
       0.129
       0.108
       0.073
       0.056
       0.068
       0.101
       0.136
       0.162
       0.175
       0.178
       0.175
       0.173
       0.185
       0.214
       0.247
       0.260
       0.229
       0.145
       0.026
      -0.095
      -0.188
      -0.247
      -0.287
      -0.325
      -0.361
      -0.380
      -0.367
      -0.323
      -0.259
      -0.194
      -0.141
      -0.107
      -0.087
      -0.072
      -0.056
      -0.033
       0.005
       0.068
       0.158
       0.260
       0.346
       0.389
       0.377
       0.319
       0.245
       0.181
       0.138
       0.105
       0.066
       0.018
      -0.025
      -0.045
      -0.039
      -0.018
       0.003
       0.014
       0.017
       0.021
       0.025
       0.021
       0.000
      -0.037
      -0.075
      -0.105
      -0.132
      -0.166
      -0.213
      -0.260
      -0.288
      -0.290
      -0.276
      -0.268
      -0.275
      -0.289
      -0.287
      -0.256
      -0.201
      -0.132
      -0.048
       0.059
       0.179
       0.283
       0.332
       0.309
       0.230
       0.140
       0.084
       0.084
       0.138
       0.229
       0.335
       0.439
       0.519
       0.550
       0.515
       0.422
       0.297
       0.167
       0.048
      -0.061
      -0.160
      -0.241
      -0.280
      -0.250
      -0.143
       0.012
       0.157
       0.230
       0.207
       0.102
      -0.047
      -0.204
      -0.346
      -0.459
      -0.534
      -0.559
      -0.530
      -0.453
      -0.346
      -0.224
      -0.089
       0.053
       0.182
       0.256
       0.241
       0.135
      -0.029
      -0.192
      -0.302
      -0.338
      -0.313
      -0.260
      -0.200
      -0.133
      -0.051
       0.045
       0.145
       0.234
       0.301
       0.347
       0.371
       0.375
       0.360
       0.338
       0.330
       0.355
       0.411
       0.462
       0.454
       0.354
       0.165
      -0.075
      -0.314
      -0.505
      -0.621
      -0.654
      -0.614
      -0.523
      -0.398
      -0.258
      -0.118
       0.008
       0.107
       0.168
       0.191
       0.180
       0.145
       0.096
       0.046
       0.016
       0.036
       0.127
       0.283
       0.460
       0.593
       0.632
       0.569
       0.442
       0.298
       0.167
       0.051
      -0.063
      -0.178
      -0.277
      -0.336
      -0.342
      -0.299
      -0.224
      -0.148
      -0.100
      -0.101
      -0.148
      -0.220
      -0.297
      -0.365
      -0.417
      -0.450
      -0.461
      -0.442
      -0.382
      -0.270
      -0.112
       0.069
       0.232
       0.344
       0.391
       0.387
       0.358
       0.331
       0.313
       0.295
       0.266
       0.224
       0.175
       0.120
       0.046
      -0.059
      -0.187
      -0.318
      -0.423
      -0.485
      -0.494
      -0.446
      -0.344
      -0.196
      -0.022
       0.149
       0.290
       0.392
       0.464
       0.517
       0.548
       0.541
       0.481
       0.375
       0.247
       0.133
       0.057
       0.022
       0.009
      -0.001
      -0.022
      -0.063
      -0.129
      -0.221
      -0.323
      -0.406
      -0.445
      -0.441
      -0.407
      -0.358
      -0.292
      -0.202
      -0.088
       0.034
       0.136
       0.200
       0.230
       0.247
       0.270
       0.299
       0.317
       0.310
       0.278
       0.232
       0.185
       0.143
       0.101
       0.044
      -0.034
      -0.123
      -0.204
      -0.261
      -0.294
      -0.311
      -0.312
      -0.291
      -0.240
      -0.160
      -0.066
       0.022
       0.088
       0.121
       0.127
       0.115
       0.101
       0.103
       0.130
       0.178
       0.222
       0.231
       0.185
       0.082
      -0.055
      -0.196
      -0.307
      -0.361
      -0.349
      -0.279
      -0.171
      -0.044
       0.084
       0.188
       0.248
       0.255
       0.219
       0.165
       0.111
       0.068
       0.034
       0.003
      -0.026
      -0.050
      -0.065
      -0.079
      -0.106
      -0.157
      -0.224
      -0.278
      -0.285
      -0.222
      -0.099
       0.044
       0.153
       0.190
       0.156
       0.081
       0.008
      -0.033
      -0.032
       0.008
       0.070
       0.137
       0.196
       0.231
       0.229
       0.184
       0.108
       0.023
      -0.056
      -0.124
      -0.190
      -0.258
      -0.319
      -0.356
      -0.345
      -0.279
      -0.175
      -0.069
       0.003
       0.028
       0.015
      -0.012
      -0.029
      -0.014
       0.041
       0.122
       0.191
       0.214
       0.178
       0.097
       0.002
      -0.078
      -0.127
      -0.147
      -0.151
      -0.149
      -0.144
      -0.136
      -0.123
      -0.102
      -0.066
      -0.011
       0.051
       0.095
       0.099
       0.054
      -0.026
      -0.119
      -0.200
      -0.250
      -0.265
      -0.242
      -0.182
      -0.082
       0.051
       0.202
       0.350
       0.474
       0.556
       0.591
       0.581
       0.543
       0.493
       0.440
       0.380
       0.296
       0.173
       0.004
      -0.195
      -0.395
      -0.562
      -0.671
      -0.715
      -0.695
      -0.622
      -0.513
      -0.391
      -0.278
      -0.180
      -0.093
      -0.008
       0.077
       0.152
       0.199
       0.210
       0.193
       0.169
       0.155
       0.149
       0.136
       0.111
       0.087
       0.084
       0.115
       0.169
       0.228
       0.277
       0.314
       0.341
       0.354
       0.336
       0.270
       0.159
       0.034
      -0.065
      -0.120
      -0.144
      -0.169
      -0.214
      -0.272
      -0.318
      -0.324
      -0.280
      -0.196
      -0.086
       0.036
       0.162
       0.273
       0.341
       0.346
       0.288
       0.189
       0.082
      -0.006
      -0.071
      -0.124
      -0.190
      -0.286
      -0.415
      -0.562
      -0.691
      -0.760
      -0.733
      -0.600
      -0.389
      -0.151
       0.066
       0.232
       0.340
       0.401
       0.438
       0.476
       0.540
       0.636
       0.750
       0.851
       0.912
       0.925
       0.909
       0.889
       0.861
       0.794
       0.651
       0.429
       0.166
      -0.092
      -0.319
      -0.521
      -0.723
      -0.933
      -1.137
      -1.296
      -1.377
      -1.369
      -1.280
      -1.127
      -0.933
      -0.723
      -0.530
      -0.377
      -0.271
      -0.194
      -0.117
      -0.013
       0.132
       0.304
       0.465
       0.567
       0.578
       0.494
       0.339
       0.153
      -0.022
      -0.154
      -0.234
      -0.275
      -0.302
      -0.342
      -0.406
      -0.490
      -0.575
      -0.635
      -0.663
      -0.671
      -0.685
      -0.721
      -0.778
      -0.835
      -0.860
      -0.825
      -0.719
      -0.552
      -0.333
      -0.073
       0.220
       0.524
       0.805
       1.020
       1.135
       1.142
       1.058
       0.919
       0.760
       0.596
       0.428
       0.256
       0.084
      -0.080
      -0.235
      -0.379
      -0.501
      -0.577
      -0.583
      -0.497
      -0.311
      -0.032
       0.313
       0.694
       1.078
       1.437
       1.745
       1.975
       2.106
       2.114
       1.976
       1.678
       1.230
       0.672
       0.065
      -0.530
      -1.060
      -1.490
      -1.803
      -1.996
      -2.065
      -2.000
      -1.785
      -1.413
      -0.888
      -0.229
       0.519
       1.280
       1.957
       2.466
       2.773
       2.885
       2.814
       2.558
       2.107
       1.466
       0.661
      -0.258
      -1.218
      -2.112
      -2.813
      -3.218
      -3.289
      -3.055
      -2.574
      -1.901
      -1.075
      -0.153
       0.783
       1.645
       2.368
       2.920
       3.273
       3.386
       3.212
       2.728
       1.967
       1.013
      -0.015
      -0.999
      -1.845
      -2.495
      -2.932
      -3.167
      -3.223
      -3.111
      -2.839
      -2.420
      -1.894
      -1.324
      -0.770
      -0.266
       0.182
       0.588
       0.955
       1.270
       1.499
       1.601
       1.536
       1.288
       0.867
       0.313
      -0.301
      -0.880
      -1.330
      -1.590
      -1.654
      -1.561
      -1.353
      -1.050
      -0.645
      -0.144
       0.415
       0.955
       1.386
       1.652
       1.756
       1.753
       1.708
       1.660
       1.607
       1.514
       1.328
       1.000
       0.517
      -0.092
      -0.759
      -1.405
      -1.956
      -2.351
      -2.550
      -2.546
      -2.359
      -2.016
      -1.529
      -0.898
      -0.132
       0.716
       1.542
       2.221
       2.660
       2.820
       2.709
       2.350
       1.776
       1.044
       0.241
      -0.534
      -1.199
      -1.707
      -2.040
      -2.195
      -2.175
      -1.986
      -1.647
      -1.201
      -0.712
      -0.242
       0.170
       0.512
       0.777
       0.958
       1.050
       1.068
       1.043
       1.006
       0.966
       0.899
       0.767
       0.552
       0.271
      -0.038
      -0.345
      -0.641
      -0.926
      -1.182
      -1.376
      -1.470
      -1.446
      -1.314
      -1.104
      -0.855
      -0.598
      -0.351
      -0.115
       0.119
       0.364
       0.614
       0.844
       1.012
       1.081
       1.045
       0.939
       0.823
       0.754
       0.760
       0.830
       0.935
       1.040
       1.112
       1.123
       1.062
       0.940
       0.785
       0.624
       0.453
       0.248
      -0.013
      -0.318
      -0.620
      -0.870
      -1.045
      -1.161
      -1.245
      -1.307
      -1.348
      -1.379
      -1.419
      -1.469
      -1.489
      -1.416
      -1.200
      -0.842
      -0.388
       0.092
       0.532
       0.891
       1.153
       1.317
       1.395
       1.400
       1.342
       1.216
       1.017
       0.757
       0.461
       0.155
      -0.141
      -0.401
      -0.587
      -0.675
      -0.681
      -0.654
      -0.645
      -0.658
      -0.646
      -0.543
      -0.312
       0.032
       0.420
       0.766
       1.000
       1.087
       1.025
       0.840
       0.581
       0.311
       0.092
      -0.038
      -0.073
      -0.044
       0.003
       0.026
       0.011
      -0.032
      -0.079
      -0.107
      -0.108
      -0.084
      -0.050
      -0.024
      -0.014
      -0.009
       0.013
       0.063
       0.134
       0.202
       0.249
       0.280
       0.311
       0.357
       0.403
       0.418
       0.380
       0.296
       0.194
       0.101
       0.026
      -0.035
      -0.087
      -0.130
      -0.163
      -0.195
      -0.248
      -0.347
      -0.510
      -0.730
      -0.973
      -1.189
      -1.342
      -1.419
      -1.436
      -1.426
      -1.414
      -1.399
      -1.352
      -1.244
      -1.068
      -0.847
      -0.609
      -0.362
      -0.092
       0.216
       0.560
       0.922
       1.275
       1.592
       1.840
       1.984
       1.993
       1.853
       1.588
       1.252
       0.908
       0.593
       0.307
       0.034
      -0.235
      -0.490
      -0.715
      -0.900
      -1.045
      -1.161
      -1.265
      -1.372
      -1.490
      -1.609
      -1.706
      -1.750
      -1.709
      -1.559
      -1.292
      -0.909
      -0.420
       0.155
       0.777
       1.385
       1.919
       2.334
       2.604
       2.715
       2.662
       2.455
       2.128
       1.726
       1.297
       0.880
       0.497
       0.158
      -0.133
      -0.371
      -0.540
      -0.623
      -0.603
      -0.480
      -0.267
      -0.005
       0.254
       0.460
       0.575
       0.581
       0.469
       0.250
      -0.046
      -0.369
      -0.679
      -0.956
      -1.198
      -1.400
      -1.545
      -1.601
      -1.538
      -1.354
      -1.082
      -0.780
      -0.498
      -0.246
      -0.007
       0.235
       0.467
       0.637
       0.689
       0.603
       0.399
       0.123
      -0.190
      -0.524
      -0.864
      -1.177
      -1.416
      -1.543
      -1.549
      -1.442
      -1.245
      -0.981
      -0.678
      -0.361
      -0.052
       0.237
       0.508
       0.771
       1.046
       1.342
       1.647
       1.925
       2.122
       2.189
       2.096
       1.856
       1.519
       1.156
       0.829
       0.567
       0.361
       0.184
       0.002
      -0.210
      -0.464
      -0.750
      -1.039
      -1.276
      -1.395
      -1.340
      -1.097
      -0.697
      -0.199
       0.322
       0.797
       1.165
       1.390
       1.464
       1.411
       1.272
       1.091
       0.908
       0.743
       0.600
       0.478
       0.382
       0.321
       0.292
       0.275
       0.242
       0.179
       0.089
      -0.012
      -0.119
      -0.242
      -0.402
      -0.605
      -0.838
      -1.074
      -1.303
      -1.526
      -1.736
      -1.900
      -1.970
      -1.917
      -1.758
      -1.536
      -1.298
      -1.062
      -0.815
      -0.533
      -0.212
       0.120
       0.405
       0.588
       0.634
       0.535
       0.308
       0.001
      -0.309
      -0.541
      -0.652
      -0.646
      -0.569
      -0.467
      -0.357
      -0.226
      -0.051
       0.169
       0.404
       0.609
       0.749
       0.815
       0.819
       0.785
       0.736
       0.685
       0.628
       0.552
       0.450
       0.332
       0.227
       0.160
       0.142
       0.163
       0.207
       0.268
       0.360
       0.504
       0.704
       0.930
       1.132
       1.265
       1.306
