Origin Time       18/01/2011 20:23:27
Lat.              28.9 N	
Long.             64.0 E	
Depth (Km)          5.0
Magnitude         7.4
 Region           Southwestern-Pakistan                                            
 Above details taken from IMD 
     
Station Code      SND
Station Lat.       31.517  N
Station Long.      76.883  E
Station Height(m)  931.0
Site Class        A   Vs30 between 700 m/sec to 1400 m/sec * 
Record Time       18.01.2011 20:27:43.069
Sampling Rate     200. Hz
 Record Duration   82.095 Sec.
 Direction         E-W (E positive)
Max. Acceleration     -3.115 cm/sec**2
     
  * For reference see Site Classification link of website 
     
 Base Line Corrected and Low Pass Filtered (Cut Off at 35 Hz) Time History
 Acceleration data in cm/sec**2
    
[...]
      -0.061
      -0.058
      -0.065
      -0.077
      -0.088
      -0.102
      -0.124
      -0.157
      -0.197
      -0.237
      -0.274
      -0.309
      -0.349
      -0.398
      -0.444
      -0.471
      -0.464
      -0.431
      -0.400
      -0.391
      -0.397
      -0.389
      -0.346
      -0.286
      -0.252
      -0.271
      -0.323
      -0.351
      -0.318
      -0.247
      -0.199
      -0.207
      -0.235
      -0.216
      -0.124
      -0.016
       0.023
      -0.036
      -0.134
      -0.182
      -0.149
      -0.078
      -0.028
      -0.025
      -0.045
      -0.055
      -0.034
       0.011
       0.059
       0.097
       0.126
       0.163
       0.225
       0.310
       0.401
       0.481
       0.549
       0.615
       0.691
       0.769
       0.832
       0.873
       0.897
       0.914
       0.916
       0.881
       0.799
       0.691
       0.593
       0.528
       0.473
       0.383
       0.239
       0.075
      -0.051
      -0.115
      -0.159
      -0.249
      -0.408
      -0.580
      -0.682
      -0.673
      -0.598
      -0.538
      -0.542
      -0.594
      -0.642
      -0.649
      -0.616
      -0.566
      -0.520
      -0.483
      -0.447
      -0.407
      -0.368
      -0.335
      -0.311
      -0.293
      -0.273
      -0.249
      -0.227
      -0.219
      -0.233
      -0.260
      -0.278
      -0.276
      -0.267
      -0.282
      -0.339
      -0.422
      -0.495
      -0.537
      -0.568
      -0.633
      -0.756
      -0.904
      -1.015
      -1.050
      -1.037
      -1.035
      -1.071
      -1.102
      -1.061
      -0.927
      -0.758
      -0.638
      -0.590
      -0.551
      -0.441
      -0.237
       0.011
       0.238
       0.419
       0.571
       0.722
       0.878
       1.021
       1.124
       1.177
       1.192
       1.187
       1.170
       1.131
       1.053
       0.932
       0.781
       0.622
       0.465
       0.299
       0.114
      -0.082
      -0.264
      -0.422
      -0.569
      -0.735
      -0.927
      -1.115
      -1.256
      -1.337
      -1.398
      -1.490
      -1.618
      -1.730
      -1.761
      -1.707
      -1.633
      -1.609
      -1.642
      -1.663
      -1.596
      -1.430
      -1.227
      -1.070
      -0.990
      -0.962
      -0.938
      -0.894
      -0.839
      -0.794
      -0.776
      -0.787
      -0.819
      -0.865
      -0.917
      -0.970
      -1.020
      -1.061
      -1.093
      -1.116
      -1.132
      -1.144
      -1.148
      -1.132
      -1.080
      -0.994
      -0.893
      -0.802
      -0.725
      -0.638
      -0.511
      -0.345
      -0.179
      -0.057
       0.015
       0.079
       0.186
       0.337
       0.485
       0.577
       0.613
       0.650
       0.734
       0.847
       0.912
       0.871
       0.749
       0.631
       0.575
       0.567
       0.548
       0.480
       0.369
       0.251
       0.155
       0.085
       0.025
      -0.038
      -0.105
      -0.161
      -0.190
      -0.189
      -0.173
      -0.160
      -0.155
      -0.146
      -0.117
      -0.071
      -0.024
       0.013
       0.047
       0.095
       0.157
       0.211
       0.229
       0.214
       0.201
       0.228
       0.297
       0.369
       0.400
       0.398
       0.414
       0.489
       0.603
       0.686
       0.688
       0.632
       0.593
       0.630
       0.722
       0.794
       0.778
       0.670
       0.517
       0.372
       0.252
       0.146
       0.034
      -0.092
      -0.225
      -0.348
      -0.448
      -0.520
      -0.569
      -0.595
      -0.598
      -0.569
      -0.507
      -0.419
      -0.317
      -0.206
      -0.077
       0.081
       0.267
       0.452
       0.611
       0.738
       0.861
       1.004
       1.160
       1.290
       1.355
       1.364
       1.370
       1.419
       1.502
       1.561
       1.549
       1.478
       1.412
       1.396
       1.400
       1.341
       1.174
       0.937
       0.725
       0.594
       0.529
       0.474
       0.397
       0.303
       0.222
       0.176
       0.169
       0.187
       0.217
       0.254
       0.300
       0.364
       0.445
       0.533
       0.612
       0.675
       0.732
       0.792
       0.853
       0.898
       0.917
       0.922
       0.926
       0.930
       0.909
       0.841
       0.738
       0.645
       0.599
       0.591
       0.576
       0.517
       0.432
       0.386
       0.419
       0.505
       0.569
       0.563
       0.515
       0.505
       0.585
       0.729
       0.851
       0.886
       0.833
       0.745
       0.669
       0.614
       0.558
       0.476
       0.358
       0.215
       0.062
      -0.092
      -0.246
      -0.406
      -0.571
      -0.732
      -0.878
      -1.006
      -1.123
      -1.235
      -1.331
      -1.388
      -1.388
      -1.340
      -1.276
      -1.223
      -1.172
      -1.091
      -0.952
      -0.769
      -0.586
      -0.431
      -0.285
      -0.095
       0.172
       0.486
       0.781
       1.020
       1.230
       1.474
       1.768
       2.053
       2.239
       2.294
       2.274
       2.263
       2.293
       2.324
       2.294
       2.178
       1.996
       1.786
       1.572
       1.352
       1.115
       0.856
       0.585
       0.321
       0.079
      -0.141
      -0.350
      -0.554
      -0.748
      -0.921
      -1.065
      -1.185
      -1.292
      -1.383
      -1.445
      -1.469
      -1.467
      -1.466
      -1.481
      -1.492
      -1.459
      -1.359
      -1.220
      -1.095
      -1.014
      -0.946
      -0.829
      -0.638
      -0.419
      -0.250
      -0.165
      -0.118
      -0.023
       0.158
       0.381
       0.557
       0.629
       0.609
       0.554
       0.508
       0.473
       0.422
       0.333
       0.205
       0.054
      -0.105
      -0.265
      -0.426
      -0.588
      -0.740
      -0.874
      -0.980
      -1.062
      -1.132
      -1.193
      -1.237
      -1.242
      -1.194
      -1.106
      -1.007
      -0.920
      -0.833
      -0.711
      -0.533
      -0.318
      -0.115
       0.043
       0.180
       0.350
       0.589
       0.869
       1.123
       1.313
       1.470
       1.659
       1.898
       2.126
       2.248
       2.227
       2.119
       2.014
       1.952
       1.893
       1.776
       1.574
       1.306
       1.015
       0.732
       0.461
       0.186
      -0.103
      -0.399
      -0.680
      -0.926
      -1.132
      -1.310
      -1.475
      -1.621
      -1.732
      -1.795
      -1.818
      -1.821
      -1.812
      -1.778
      -1.707
      -1.607
      -1.507
      -1.427
      -1.350
      -1.235
      -1.055
      -0.834
      -0.631
      -0.486
      -0.372
      -0.228
      -0.020
       0.210
       0.381
       0.452
       0.462
       0.501
       0.623
       0.797
       0.939
       0.985
       0.939
       0.858
       0.794
       0.764
       0.746
       0.713
       0.655
       0.579
       0.501
       0.431
       0.369
       0.315
       0.268
       0.228
       0.195
       0.165
       0.131
       0.091
       0.050
       0.023
       0.014
       0.009
      -0.019
      -0.088
      -0.184
      -0.271
      -0.332
      -0.388
      -0.481
      -0.627
      -0.792
      -0.915
      -0.967
      -0.983
      -1.028
      -1.126
      -1.233
      -1.282
      -1.258
      -1.224
      -1.255
      -1.359
      -1.463
      -1.488
      -1.417
      -1.300
      -1.197
      -1.122
      -1.054
      -0.962
      -0.839
      -0.699
      -0.562
      -0.436
      -0.315
      -0.182
      -0.034
       0.122
       0.268
       0.397
       0.519
       0.650
       0.792
       0.927
       1.030
       1.098
       1.150
       1.198
       1.233
       1.227
       1.168
       1.081
       1.013
       0.985
       0.967
       0.905
       0.778
       0.629
       0.524
       0.477
       0.435
       0.327
       0.136
      -0.077
      -0.227
      -0.286
      -0.306
      -0.368
      -0.511
      -0.707
      -0.898
      -1.044
      -1.146
      -1.228
      -1.310
      -1.396
      -1.474
      -1.532
      -1.566
      -1.576
      -1.570
      -1.546
      -1.503
      -1.439
      -1.363
      -1.288
      -1.222
      -1.157
      -1.071
      -0.954
      -0.823
      -0.706
      -0.612
      -0.521
      -0.400
      -0.241
      -0.077
       0.046
       0.112
       0.159
       0.242
       0.374
       0.513
       0.598
       0.620
       0.631
       0.688
       0.785
       0.848
       0.812
       0.689
       0.562
       0.503
       0.511
       0.528
       0.504
       0.436
       0.354
       0.285
       0.227
       0.163
       0.086
       0.007
      -0.056
      -0.096
      -0.122
      -0.150
      -0.187
      -0.229
      -0.272
      -0.314
      -0.357
      -0.400
      -0.453
      -0.525
      -0.621
      -0.721
      -0.802
      -0.859
      -0.913
      -0.983
      -1.055
      -1.095
      -1.089
      -1.069
      -1.080
      -1.118
      -1.131
      -1.069
      -0.942
      -0.808
      -0.720
      -0.678
      -0.638
      -0.562
      -0.446
      -0.312
      -0.184
      -0.072
       0.026
       0.113
       0.190
       0.262
       0.333
       0.411
       0.494
       0.577
       0.648
       0.711
       0.779
       0.868
       0.973
       1.065
       1.119
       1.142
       1.162
       1.199
       1.232
       1.216
       1.130
       1.007
       0.908
       0.863
       0.844
       0.787
       0.659
       0.496
       0.366
       0.301
       0.254
       0.150
      -0.034
      -0.236
      -0.363
      -0.381
      -0.328
      -0.267
      -0.227
      -0.196
      -0.145
      -0.061
       0.045
       0.152
       0.244
       0.324
       0.407
       0.500
       0.596
       0.676
       0.730
       0.764
       0.793
       0.821
       0.838
       0.829
       0.798
       0.763
       0.734
       0.699
       0.634
       0.535
       0.431
       0.365
       0.353
       0.362
       0.349
       0.304
       0.266
       0.281
       0.341
       0.389
       0.372
       0.307
       0.265
       0.300
       0.394
       0.469
       0.461
       0.370
       0.248
       0.143
       0.072
       0.022
      -0.032
      -0.096
      -0.163
      -0.218
      -0.253
      -0.266
      -0.259
      -0.226
      -0.163
      -0.063
       0.069
       0.221
       0.382
       0.552
       0.742
       0.967
       1.216
       1.458
       1.659
       1.812
       1.942
       2.070
       2.187
       2.246
       2.204
       2.069
       1.895
       1.737
       1.594
       1.411
       1.143
       0.808
       0.483
       0.226
       0.020
      -0.208
      -0.507
      -0.838
      -1.113
      -1.272
      -1.333
      -1.355
      -1.375
      -1.383
      -1.348
      -1.252
      -1.099
      -0.910
      -0.701
      -0.473
      -0.222
       0.050
       0.324
       0.579
       0.804
       1.008
       1.201
       1.379
       1.521
       1.612
       1.662
       1.698
       1.732
       1.747
       1.718
       1.646
       1.567
       1.524
       1.521
       1.517
       1.462
       1.359
       1.263
       1.225
       1.234
       1.219
       1.115
       0.930
       0.742
       0.625
       0.581
       0.537
       0.413
       0.185
      -0.105
      -0.398
      -0.662
      -0.901
      -1.132
      -1.365
      -1.591
      -1.791
      -1.956
      -2.084
      -2.178
      -2.233
      -2.241
      -2.195
      -2.096
      -1.955
      -1.781
      -1.572
      -1.320
      -1.022
      -0.699
      -0.388
      -0.116
       0.123
       0.353
       0.586
       0.794
       0.926
       0.955
       0.909
       0.852
       0.826
       0.810
       0.747
       0.610
       0.441
       0.314
       0.266
       0.252
       0.192
       0.053
      -0.110
      -0.208
      -0.204
      -0.132
      -0.056
      -0.007
       0.027
       0.076
       0.158
       0.262
       0.366
       0.450
       0.511
       0.559
       0.605
       0.646
       0.666
       0.649
       0.596
       0.523
       0.444
       0.354
       0.238
       0.092
      -0.071
      -0.235
      -0.405
      -0.597
      -0.810
      -1.015
      -1.171
      -1.272
      -1.356
      -1.459
      -1.571
      -1.641
      -1.628
      -1.556
      -1.492
      -1.486
      -1.516
      -1.506
      -1.396
      -1.199
      -0.993
      -0.854
      -0.799
      -0.792
      -0.785
      -0.761
      -0.729
      -0.711
      -0.717
      -0.745
      -0.786
      -0.829
      -0.866
      -0.887
      -0.889
      -0.866
      -0.818
      -0.745
      -0.651
      -0.545
      -0.430
      -0.302
      -0.152
       0.017
       0.184
       0.323
       0.434
       0.541
       0.671
       0.820
       0.949
       1.022
       1.039
       1.041
       1.069
       1.118
       1.137
       1.090
       0.998
       0.914
       0.862
       0.799
       0.666
       0.454
       0.222
       0.044
      -0.064
      -0.142
      -0.239
      -0.371
      -0.520
      -0.662
      -0.792
      -0.922
      -1.070
      -1.241
      -1.427
      -1.608
      -1.773
      -1.928
      -2.087
      -2.259
      -2.431
      -2.584
      -2.710
      -2.820
      -2.923
      -3.015
      -3.075
      -3.097
      -3.097
      -3.102
      -3.115
      -3.102
      -3.024
      -2.875
      -2.700
      -2.549
      -2.427
      -2.284
      -2.065
      -1.778
      -1.490
      -1.267
      -1.104
      -0.927
      -0.659
      -0.294
       0.095
       0.425
       0.667
       0.853
       1.034
       1.236
       1.445
       1.632
       1.776
       1.875
       1.946
       2.004
       2.054
       2.090
       2.112
       2.123
       2.129
       2.130
       2.113
       2.072
       2.015
       1.962
       1.922
       1.880
       1.802
       1.673
       1.510
       1.351
       1.210
       1.061
       0.859
       0.589
       0.292
       0.032
      -0.165
      -0.332
      -0.527
      -0.764
      -0.990
      -1.137
      -1.198
      -1.236
      -1.329
      -1.481
      -1.615
      -1.650
      -1.574
      -1.439
      -1.308
      -1.198
      -1.089
      -0.955
      -0.788
      -0.604
      -0.424
      -0.258
      -0.102
       0.058
       0.226
       0.397
       0.556
       0.697
       0.824
       0.943
       1.049
       1.130
       1.177
       1.200
       1.214
       1.218
       1.198
       1.147
       1.084
       1.047
       1.064
       1.118
       1.164
       1.167
       1.144
       1.150
       1.222
       1.333
       1.415
       1.423
       1.383
       1.371
       1.446
       1.588
       1.722
       1.782
       1.766
       1.718
       1.681
       1.669
       1.665
       1.649
       1.616
       1.574
       1.532
       1.493
       1.452
       1.401
       1.341
       1.278
       1.215
       1.149
       1.065
       0.953
       0.817
       0.676
       0.550
       0.438
       0.315
       0.155
      -0.040
      -0.238
      -0.411
      -0.564
      -0.730
      -0.933
      -1.148
      -1.323
      -1.429
      -1.491
      -1.555
      -1.631
      -1.668
      -1.614
      -1.478
      -1.341
      -1.275
      -1.275
      -1.258
      -1.151
      -0.954
      -0.733
      -0.541
      -0.385
      -0.236
      -0.065
       0.132
       0.333
       0.514
       0.667
       0.799
       0.925
       1.044
       1.145
       1.210
       1.235
       1.232
       1.218
       1.196
       1.155
       1.082
       0.986
       0.884
       0.788
       0.681
       0.536
       0.350
       0.154
      -0.004
      -0.102
      -0.169
      -0.252
      -0.367
      -0.475
      -0.522
      -0.498
      -0.457
      -0.461
      -0.520
      -0.580
      -0.570
      -0.480
      -0.364
      -0.291
      -0.288
      -0.322
      -0.348
      -0.340
      -0.307
      -0.270
      -0.243
      -0.227
      -0.213
      -0.195
      -0.172
      -0.146
      -0.118
      -0.089
      -0.056
      -0.023
       0.004
       0.021
       0.034
       0.060
       0.110
       0.177
       0.235
       0.259
       0.250
       0.234
       0.235
       0.244
       0.222
       0.140
       0.013
      -0.100
      -0.154
      -0.163
      -0.185
      -0.263
      -0.371
      -0.437
      -0.414
      -0.342
      -0.311
      -0.372
      -0.485
      -0.557
      -0.536
      -0.453
      -0.375
      -0.343
      -0.349
      -0.361
      -0.355
      -0.338
      -0.330
      -0.345
      -0.383
      -0.428
      -0.469
      -0.509
      -0.560
      -0.627
      -0.697
      -0.754
      -0.796
      -0.838
      -0.893
      -0.951
      -0.990
      -0.993
      -0.971
      -0.948
      -0.934
      -0.907
      -0.826
      -0.679
      -0.502
      -0.348
      -0.238
      -0.135
       0.015
       0.220
       0.422
       0.551
       0.592
       0.606
       0.671
       0.811
       0.971
       1.068
       1.064
       0.985
       0.887
       0.805
       0.740
       0.672
       0.589
       0.492
       0.391
       0.294
       0.202
       0.111
       0.025
      -0.048
      -0.100
      -0.134
      -0.159
      -0.188
      -0.224
      -0.258
      -0.273
      -0.269
      -0.266
      -0.289
      -0.347
      -0.417
      -0.475
      -0.523
      -0.600
      -0.739
      -0.929
      -1.113
      -1.232
      -1.282
      -1.313
      -1.372
      -1.451
      -1.484
      -1.416
      -1.266
      -1.118
      -1.037
      -1.009
      -0.955
      -0.814
      -0.603
      -0.387
      -0.216
      -0.096
       0.003
       0.103
       0.208
       0.301
       0.368
       0.404
       0.424
       0.441
       0.461
       0.474
       0.465
       0.433
       0.388
       0.347
       0.308
       0.259
       0.195
       0.128
       0.076
       0.040
      -0.004
      -0.077
      -0.171
      -0.248
      -0.277
      -0.266
      -0.257
      -0.277
      -0.305
      -0.291
      -0.220
      -0.135
      -0.100
      -0.123
      -0.138
      -0.072
       0.085
       0.263
       0.383
       0.419
       0.411
       0.418
       0.466
       0.542
       0.611
       0.652
       0.661
       0.654
       0.643
       0.632
       0.612
       0.580
       0.540
       0.507
       0.486
       0.470
       0.447
       0.416
       0.392
       0.399
       0.440
       0.488
       0.513
       0.508
       0.502
       0.529
       0.592
       0.654
       0.673
       0.646
       0.623
       0.660
       0.765
       0.883
       0.954
       0.971
       0.988
       1.055
       1.152
       1.200
       1.133
       0.972
       0.801
       0.686
       0.616
       0.535
       0.403
       0.229
       0.049
      -0.105
      -0.233
      -0.353
      -0.478
      -0.605
      -0.716
      -0.798
      -0.854
      -0.898
      -0.941
      -0.976
      -0.987
      -0.968
      -0.927
      -0.876
      -0.814
      -0.730
      -0.624
      -0.514
      -0.427
      -0.364
      -0.291
      -0.170
       0.003
