Origin Time       14/03/2010 6:53:21	 UTC
Lat.              31.7 N	
Long.             76.1 E	
Depth (Km)         29.0
Magnitude         4.6
 Region           HIMACHAL-PUNJAB-(HOSHIARPUR)-BORDER                              
 Above details taken from IMD 
    
Station Code      SND
Station Lat.       31.517  N
Station Long.      76.883  E
Station Height(m)  931.0
Site Class        A   Vs30 between 700 m/sec to 1400 m/sec * 
Record Time       14.03.2010 12:21:52.999 UTC
Sampling Rate     200. Hz
 Record Duration   80.170 Sec.
 Direction         N-S (N positive)
Max. Acceleration      3.021 cm/sec**2
     
  * For reference see Site Classification link of website 
     
 Base Line Corrected and Low Pass Filtered (Cut Off at 35 Hz) Time History
 Acceleration data in cm/sec**2
    
[...]
      -0.011
       0.057
       0.122
       0.164
       0.170
       0.141
       0.094
       0.057
       0.048
       0.068
       0.094
       0.102
       0.074
       0.005
      -0.094
      -0.196
      -0.272
      -0.305
      -0.297
      -0.258
      -0.195
      -0.123
      -0.061
      -0.025
      -0.015
      -0.015
      -0.004
       0.031
       0.087
       0.145
       0.178
       0.172
       0.134
       0.087
       0.051
       0.030
       0.016
      -0.003
      -0.035
      -0.081
      -0.135
      -0.186
      -0.227
      -0.238
      -0.200
      -0.105
       0.021
       0.125
       0.163
       0.132
       0.059
      -0.009
      -0.039
      -0.018
       0.035
       0.089
       0.112
       0.098
       0.060
       0.022
       0.003
       0.016
       0.051
       0.085
       0.088
       0.053
       0.000
      -0.035
      -0.021
       0.045
       0.139
       0.213
       0.230
       0.180
       0.088
      -0.006
      -0.067
      -0.079
      -0.052
      -0.013
       0.000
      -0.033
      -0.097
      -0.149
      -0.146
      -0.073
       0.045
       0.156
       0.203
       0.158
       0.034
      -0.120
      -0.246
      -0.303
      -0.277
      -0.184
      -0.062
       0.044
       0.107
       0.127
       0.127
       0.133
       0.158
       0.196
       0.227
       0.228
       0.193
       0.136
       0.084
       0.053
       0.046
       0.052
       0.055
       0.038
      -0.014
      -0.098
      -0.194
      -0.272
      -0.304
      -0.284
      -0.224
      -0.151
      -0.094
      -0.069
      -0.072
      -0.086
      -0.097
      -0.088
      -0.052
       0.005
       0.058
       0.070
       0.027
      -0.052
      -0.123
      -0.147
      -0.111
      -0.034
       0.039
       0.068
       0.037
      -0.035
      -0.113
      -0.167
      -0.185
      -0.169
      -0.144
      -0.138
      -0.163
      -0.198
      -0.206
      -0.163
      -0.074
       0.035
       0.132
       0.194
       0.209
       0.183
       0.132
       0.080
       0.047
       0.048
       0.085
       0.143
       0.196
       0.228
       0.237
       0.230
       0.213
       0.190
       0.165
       0.137
       0.101
       0.054
       0.003
      -0.043
      -0.075
      -0.084
      -0.066
      -0.023
       0.026
       0.059
       0.062
       0.040
       0.009
      -0.014
      -0.022
      -0.016
      -0.006
       0.002
       0.015
       0.045
       0.099
       0.166
       0.225
       0.259
       0.261
       0.230
       0.172
       0.106
       0.063
       0.069
       0.125
       0.201
       0.252
       0.243
       0.176
       0.085
       0.012
      -0.025
      -0.034
      -0.037
      -0.050
      -0.080
      -0.133
      -0.202
      -0.273
      -0.320
      -0.333
      -0.320
      -0.303
      -0.297
      -0.296
      -0.284
      -0.244
      -0.180
      -0.108
      -0.051
      -0.017
      -0.002
       0.002
       0.002
       0.004
       0.016
       0.039
       0.061
       0.062
       0.032
      -0.028
      -0.113
      -0.208
      -0.292
      -0.341
      -0.336
      -0.281
      -0.194
      -0.105
      -0.041
      -0.015
      -0.013
      -0.002
       0.042
       0.120
       0.207
       0.265
       0.269
       0.217
       0.142
       0.086
       0.077
       0.111
       0.168
       0.223
       0.259
       0.267
       0.242
       0.199
       0.164
       0.158
       0.180
       0.210
       0.215
       0.179
       0.107
       0.030
      -0.025
      -0.051
      -0.062
      -0.076
      -0.094
      -0.110
      -0.120
      -0.127
      -0.130
      -0.125
      -0.111
      -0.092
      -0.078
      -0.082
      -0.108
      -0.144
      -0.162
      -0.138
      -0.065
       0.038
       0.145
       0.230
       0.273
       0.263
       0.209
       0.137
       0.081
       0.068
       0.099
       0.146
       0.165
       0.123
       0.020
      -0.115
      -0.239
      -0.321
      -0.346
      -0.319
      -0.261
      -0.210
      -0.204
      -0.259
      -0.351
      -0.431
      -0.450
      -0.392
      -0.274
      -0.143
      -0.039
       0.024
       0.066
       0.118
       0.194
       0.283
       0.352
       0.368
       0.315
       0.210
       0.100
       0.030
       0.024
       0.072
       0.142
       0.197
       0.211
       0.175
       0.103
       0.023
      -0.040
      -0.074
      -0.082
      -0.071
      -0.055
      -0.047
      -0.048
      -0.042
      -0.013
       0.044
       0.115
       0.175
       0.202
       0.183
       0.130
       0.076
       0.058
       0.092
       0.161
       0.228
       0.261
       0.241
       0.174
       0.086
       0.008
      -0.046
      -0.084
      -0.123
      -0.173
      -0.229
      -0.285
      -0.335
      -0.372
      -0.387
      -0.372
      -0.319
      -0.227
      -0.113
      -0.015
       0.030
       0.014
      -0.037
      -0.078
      -0.076
      -0.020
       0.076
       0.179
       0.259
       0.302
       0.309
       0.284
       0.235
       0.176
       0.133
       0.121
       0.133
       0.146
       0.133
       0.087
       0.020
      -0.039
      -0.070
      -0.068
      -0.049
      -0.037
      -0.042
      -0.061
      -0.084
      -0.104
      -0.111
      -0.100
      -0.072
      -0.037
      -0.014
      -0.013
      -0.036
      -0.074
      -0.110
      -0.131
      -0.132
      -0.128
      -0.137
      -0.163
      -0.194
      -0.201
      -0.162
      -0.074
       0.040
       0.138
       0.187
       0.178
       0.136
       0.098
       0.087
       0.100
       0.116
       0.110
       0.074
       0.014
      -0.045
      -0.081
      -0.080
      -0.041
       0.031
       0.117
       0.187
       0.213
       0.185
       0.117
       0.029
      -0.064
      -0.152
      -0.222
      -0.252
      -0.231
      -0.166
      -0.084
      -0.020
       0.001
      -0.020
      -0.060
      -0.098
      -0.126
      -0.147
      -0.156
      -0.138
      -0.078
       0.021
       0.143
       0.254
       0.326
       0.342
       0.305
       0.232
       0.138
       0.037
      -0.056
      -0.121
      -0.157
      -0.171
      -0.175
      -0.161
      -0.114
      -0.029
       0.079
       0.174
       0.215
       0.182
       0.088
      -0.019
      -0.085
      -0.080
      -0.008
       0.102
       0.204
       0.255
       0.233
       0.148
       0.040
      -0.041
      -0.066
      -0.035
       0.019
       0.049
       0.028
      -0.039
      -0.112
      -0.151
      -0.139
      -0.082
      -0.001
       0.075
       0.110
       0.083
      -0.005
      -0.127
      -0.244
      -0.331
      -0.376
      -0.380
      -0.347
      -0.278
      -0.178
      -0.060
       0.055
       0.150
       0.218
       0.255
       0.249
       0.192
       0.088
      -0.033
      -0.128
      -0.162
      -0.121
      -0.018
       0.109
       0.214
       0.262
       0.253
       0.217
       0.192
       0.200
       0.238
       0.276
       0.272
       0.197
       0.060
      -0.093
      -0.205
      -0.239
      -0.197
      -0.114
      -0.040
      -0.013
      -0.043
      -0.107
      -0.165
      -0.182
      -0.147
      -0.073
       0.019
       0.098
       0.145
       0.155
       0.142
       0.127
       0.125
       0.138
       0.159
       0.170
       0.152
       0.103
       0.039
      -0.015
      -0.038
      -0.024
       0.012
       0.037
       0.015
      -0.069
      -0.192
      -0.306
      -0.366
      -0.359
      -0.304
      -0.243
      -0.219
      -0.253
      -0.329
      -0.410
      -0.462
      -0.470
      -0.437
      -0.372
      -0.286
      -0.188
      -0.079
       0.039
       0.161
       0.270
       0.350
       0.395
       0.408
       0.401
       0.378
       0.345
       0.303
       0.253
       0.201
       0.155
       0.119
       0.081
       0.030
      -0.027
      -0.068
      -0.068
      -0.023
       0.045
       0.097
       0.106
       0.069
       0.011
      -0.032
      -0.040
      -0.017
       0.022
       0.061
       0.082
       0.067
       0.008
      -0.078
      -0.154
      -0.178
      -0.134
      -0.034
       0.076
       0.147
       0.147
       0.082
      -0.016
      -0.106
      -0.163
      -0.181
      -0.165
      -0.130
      -0.098
      -0.091
      -0.105
      -0.110
      -0.067
       0.047
       0.214
       0.391
       0.525
       0.589
       0.586
       0.530
       0.435
       0.307
       0.161
       0.024
      -0.080
      -0.143
      -0.170
      -0.172
      -0.157
      -0.136
      -0.127
      -0.156
      -0.240
      -0.377
      -0.534
      -0.661
      -0.711
      -0.669
      -0.549
      -0.389
      -0.231
      -0.111
      -0.039
       0.004
       0.055
       0.139
       0.248
       0.352
       0.424
       0.451
       0.442
       0.419
       0.398
       0.381
       0.352
       0.296
       0.207
       0.090
      -0.046
      -0.184
      -0.290
      -0.331
      -0.296
      -0.206
      -0.108
      -0.047
      -0.041
      -0.079
      -0.121
      -0.128
      -0.081
       0.007
       0.112
       0.206
       0.269
       0.289
       0.275
       0.256
       0.258
       0.286
       0.313
       0.309
       0.252
       0.145
       0.011
      -0.122
      -0.235
      -0.320
      -0.376
      -0.400
      -0.394
      -0.376
      -0.371
      -0.387
      -0.406
      -0.389
      -0.311
      -0.181
      -0.040
       0.061
       0.092
       0.063
       0.016
      -0.009
       0.007
       0.052
       0.102
       0.123
       0.090
      -0.002
      -0.117
      -0.200
      -0.205
      -0.125
       0.006
       0.133
       0.211
       0.225
       0.190
       0.138
       0.089
       0.048
       0.014
      -0.010
      -0.028
      -0.050
      -0.093
      -0.154
      -0.210
      -0.225
      -0.182
      -0.096
      -0.011
       0.031
       0.014
      -0.037
      -0.073
      -0.057
       0.018
       0.124
       0.216
       0.258
       0.236
       0.171
       0.113
       0.112
       0.184
       0.291
       0.360
       0.315
       0.118
      -0.196
      -0.529
      -0.763
      -0.824
      -0.713
      -0.500
      -0.286
      -0.162
      -0.167
      -0.281
      -0.431
      -0.535
      -0.540
      -0.445
      -0.293
      -0.155
      -0.091
      -0.123
      -0.216
      -0.304
      -0.334
      -0.282
      -0.159
      -0.008
       0.119
       0.178
       0.155
       0.072
      -0.028
      -0.103
      -0.127
      -0.103
      -0.064
      -0.052
      -0.093
      -0.175
      -0.261
      -0.306
      -0.271
      -0.141
       0.063
       0.283
       0.455
       0.541
       0.546
       0.513
       0.493
       0.524
       0.602
       0.684
       0.713
       0.659
       0.536
       0.391
       0.274
       0.216
       0.221
       0.265
       0.303
       0.294
       0.222
       0.100
      -0.035
      -0.143
      -0.199
      -0.202
      -0.168
      -0.118
      -0.060
       0.009
       0.093
       0.196
       0.317
       0.441
       0.533
       0.552
       0.477
       0.324
       0.142
      -0.016
      -0.115
      -0.152
      -0.142
      -0.105
      -0.061
      -0.026
      -0.019
      -0.047
      -0.099
      -0.143
      -0.153
      -0.135
      -0.128
      -0.167
      -0.248
      -0.326
      -0.344
      -0.268
      -0.110
       0.079
       0.242
       0.346
       0.398
       0.432
       0.483
       0.566
       0.674
       0.780
       0.855
       0.878
       0.846
       0.763
       0.630
       0.445
       0.217
      -0.035
      -0.282
      -0.498
      -0.663
      -0.768
      -0.810
      -0.787
      -0.684
      -0.479
      -0.165
       0.239
       0.691
       1.135
       1.512
       1.772
       1.876
       1.811
       1.581
       1.207
       0.722
       0.171
      -0.387
      -0.890
      -1.282
      -1.533
      -1.660
      -1.713
      -1.739
      -1.739
      -1.676
      -1.506
      -1.213
      -0.810
      -0.337
       0.155
       0.611
       0.986
       1.253
       1.392
       1.395
       1.268
       1.022
       0.665
       0.201
      -0.352
      -0.951
      -1.528
      -2.012
      -2.347
      -2.503
      -2.476
      -2.282
      -1.936
      -1.442
      -0.808
      -0.074
       0.688
       1.394
       1.967
       2.340
       2.468
       2.340
       1.997
       1.524
       1.020
       0.552
       0.141
      -0.229
      -0.569
      -0.868
      -1.089
      -1.196
      -1.169
      -1.003
      -0.714
      -0.341
       0.052
       0.386
       0.609
       0.703
       0.674
       0.534
       0.282
      -0.083
      -0.546
      -1.058
      -1.542
      -1.920
      -2.146
      -2.211
      -2.128
      -1.903
      -1.537
      -1.047
      -0.478
       0.117
       0.711
       1.303
       1.890
       2.429
       2.832
       2.995
       2.853
       2.417
       1.770
       1.019
       0.247
      -0.498
      -1.187
      -1.790
      -2.269
      -2.593
      -2.744
      -2.716
      -2.511
      -2.135
      -1.596
      -0.923
      -0.175
       0.562
       1.208
       1.727
       2.128
       2.453
       2.733
       2.949
       3.021
       2.857
       2.418
       1.752
       0.964
       0.160
      -0.584
      -1.222
      -1.714
      -2.031
      -2.153
      -2.089
      -1.883
      -1.611
      -1.342
      -1.118
      -0.941
      -0.791
      -0.639
      -0.454
      -0.217
       0.072
       0.392
       0.710
       0.977
       1.148
       1.201
       1.152
       1.045
       0.923
       0.810
       0.707
       0.612
       0.519
       0.429
       0.358
       0.346
       0.435
       0.637
       0.911
       1.169
       1.309
       1.258
       0.997
       0.567
       0.051
      -0.467
      -0.922
      -1.271
      -1.487
      -1.563
      -1.524
      -1.409
      -1.251
      -1.047
      -0.780
      -0.445
      -0.066
       0.313
       0.645
       0.892
       1.031
       1.061
       1.013
       0.943
       0.900
       0.899
       0.906
       0.846
       0.643
       0.264
      -0.253
      -0.822
      -1.344
      -1.757
      -2.046
      -2.242
      -2.388
      -2.504
      -2.554
      -2.474
      -2.212
      -1.769
      -1.189
      -0.527
       0.169
       0.855
       1.483
       2.006
       2.382
       2.583
       2.599
       2.439
       2.122
       1.681
       1.157
       0.595
       0.040
      -0.465
      -0.877
      -1.151
      -1.266
      -1.235
      -1.108
      -0.935
      -0.751
      -0.573
      -0.406
      -0.255
      -0.125
      -0.023
       0.053
       0.115
       0.186
       0.288
       0.432
       0.619
       0.827
       1.015
       1.132
       1.147
       1.062
       0.909
       0.717
       0.500
       0.251
      -0.039
      -0.364
      -0.691
      -0.972
      -1.173
      -1.282
      -1.308
      -1.258
      -1.138
      -0.971
      -0.810
      -0.703
      -0.662
      -0.653
      -0.620
      -0.525
      -0.370
      -0.188
      -0.018
       0.129
       0.282
       0.486
       0.770
       1.122
       1.504
       1.871
       2.187
       2.419
       2.537
       2.522
       2.369
       2.080
       1.667
       1.145
       0.539
      -0.118
      -0.790
      -1.431
      -2.003
      -2.472
      -2.813
      -2.999
      -3.008
      -2.836
      -2.508
      -2.064
      -1.536
      -0.952
      -0.342
       0.256
       0.810
       1.300
       1.728
       2.091
       2.369
       2.521
       2.502
       2.301
       1.947
       1.490
       0.962
       0.373
      -0.262
      -0.908
      -1.507
      -2.011
      -2.390
      -2.643
      -2.778
      -2.793
      -2.666
      -2.367
      -1.881
      -1.228
      -0.457
       0.360
       1.146
       1.829
       2.365
       2.736
       2.943
       2.989
       2.876
       2.606
       2.186
       1.632
       0.995
       0.348
      -0.228
      -0.682
      -0.995
      -1.169
      -1.223
      -1.191
      -1.125
      -1.064
      -1.015
      -0.945
      -0.817
      -0.625
      -0.407
      -0.229
      -0.133
      -0.109
      -0.111
      -0.100
      -0.066
      -0.028
      -0.004
      -0.009
      -0.052
      -0.125
      -0.202
      -0.237
      -0.192
      -0.067
       0.098
       0.242
       0.314
       0.300
       0.233
       0.170
       0.161
       0.221
       0.316
       0.379
       0.345
       0.183
      -0.092
      -0.420
      -0.728
      -0.957
      -1.085
      -1.131
      -1.136
      -1.145
      -1.176
      -1.209
      -1.194
      -1.078
      -0.831
      -0.467
      -0.032
       0.411
       0.800
       1.106
       1.326
       1.472
       1.549
       1.545
       1.450
       1.261
       0.988
       0.662
       0.336
       0.063
      -0.132
      -0.257
      -0.336
      -0.383
      -0.397
      -0.378
      -0.326
      -0.238
      -0.110
       0.058
       0.251
       0.429
       0.542
       0.549
       0.451
       0.296
       0.156
       0.084
       0.091
       0.146
       0.196
       0.197
       0.137
       0.049
      -0.007
       0.016
       0.122
       0.277
       0.424
       0.510
       0.507
       0.425
       0.302
       0.187
       0.106
       0.051
      -0.009
      -0.117
      -0.296
      -0.531
      -0.764
      -0.926
      -0.964
      -0.866
      -0.658
      -0.392
      -0.120
       0.128
       0.355
       0.591
       0.854
       1.127
       1.358
       1.478
       1.436
       1.212
       0.840
       0.391
      -0.054
      -0.435
      -0.723
      -0.912
      -1.007
      -1.021
      -0.970
      -0.878
      -0.772
      -0.671
      -0.575
      -0.475
      -0.367
      -0.280
      -0.261
      -0.341
      -0.497
      -0.657
      -0.735
      -0.671
      -0.463
      -0.161
       0.158
       0.431
       0.626
       0.742
       0.785
       0.768
       0.703
       0.601
       0.468
       0.305
       0.122
      -0.047
      -0.158
      -0.175
      -0.097
       0.046
       0.203
       0.323
       0.378
       0.376
       0.343
       0.306
       0.278
       0.255
       0.218
       0.139
      -0.004
      -0.207
      -0.438
      -0.649
      -0.806
      -0.896
      -0.933
      -0.944
      -0.952
      -0.962
      -0.960
      -0.931
      -0.878
      -0.810
      -0.730
      -0.638
      -0.537
      -0.430
      -0.309
      -0.154
       0.046
       0.281
       0.503
       0.655
       0.699
       0.633
       0.492
       0.316
       0.128
      -0.069
      -0.282
      -0.512
      -0.754
      -0.989
      -1.186
      -1.298
      -1.286
      -1.139
      -0.886
      -0.582
      -0.281
      -0.017
       0.213
       0.433
       0.669
       0.918
       1.147
       1.304
       1.337
       1.217
       0.958
       0.629
       0.325
       0.120
       0.031
       0.019
