Origin Time       17/9/2010 19:21:09	
Lat.              36.5 N	
Long.             70.8 E	
Depth (Km)        167.0
Magnitude         6.5
 Region           Hindukush                                                        
 Above details taken from IMD 
     
Station Code      SND
Station Lat.       31.517  N
Station Long.      76.883  E
Station Height(m)  931.0
Site Class        A   Vs30 between 700 m/sec to 1400 m/sec * 
Record Time       18.09.2010 00:51:34.584
Sampling Rate     200. Hz
 Record Duration   80.010 Sec.
 Direction         E-W (E positive)
Max. Acceleration     -4.590 cm/sec**2
     
  * For reference see Site Classification link of website 
     
 Base Line Corrected and Low Pass Filtered (Cut Off at 35 Hz) Time History
 Acceleration data in cm/sec**2
    
[...]
       0.038
       0.035
       0.022
       0.001
      -0.027
      -0.056
      -0.086
      -0.116
      -0.145
      -0.175
      -0.205
      -0.237
      -0.268
      -0.297
      -0.323
      -0.347
      -0.371
      -0.397
      -0.421
      -0.439
      -0.449
      -0.450
      -0.444
      -0.429
      -0.402
      -0.363
      -0.313
      -0.262
      -0.214
      -0.168
      -0.122
      -0.074
      -0.026
       0.014
       0.043
       0.062
       0.075
       0.085
       0.093
       0.096
       0.091
       0.073
       0.043
       0.002
      -0.049
      -0.112
      -0.185
      -0.264
      -0.342
      -0.416
      -0.485
      -0.551
      -0.613
      -0.663
      -0.696
      -0.712
      -0.714
      -0.708
      -0.695
      -0.670
      -0.631
      -0.583
      -0.538
      -0.503
      -0.477
      -0.453
      -0.429
      -0.409
      -0.399
      -0.401
      -0.412
      -0.429
      -0.452
      -0.485
      -0.529
      -0.580
      -0.627
      -0.666
      -0.697
      -0.727
      -0.757
      -0.783
      -0.801
      -0.810
      -0.812
      -0.807
      -0.790
      -0.756
      -0.705
      -0.646
      -0.582
      -0.513
      -0.431
      -0.331
      -0.217
      -0.095
       0.027
       0.146
       0.262
       0.376
       0.485
       0.586
       0.673
       0.746
       0.805
       0.854
       0.893
       0.922
       0.945
       0.965
       0.984
       1.006
       1.027
       1.043
       1.053
       1.061
       1.074
       1.095
       1.119
       1.138
       1.143
       1.135
       1.120
       1.100
       1.077
       1.045
       1.006
       0.963
       0.921
       0.883
       0.845
       0.801
       0.750
       0.695
       0.638
       0.583
       0.523
       0.456
       0.378
       0.293
       0.207
       0.122
       0.044
      -0.028
      -0.091
      -0.144
      -0.189
      -0.228
      -0.260
      -0.284
      -0.298
      -0.303
      -0.300
      -0.290
      -0.273
      -0.250
      -0.225
      -0.199
      -0.175
      -0.151
      -0.123
      -0.092
      -0.063
      -0.042
      -0.030
      -0.026
      -0.022
      -0.016
      -0.010
      -0.007
      -0.006
      -0.007
      -0.006
       0.001
       0.012
       0.025
       0.040
       0.056
       0.075
       0.099
       0.129
       0.164
       0.203
       0.241
       0.277
       0.307
       0.332
       0.349
       0.353
       0.342
       0.318
       0.286
       0.251
       0.212
       0.167
       0.113
       0.052
      -0.013
      -0.080
      -0.149
      -0.223
      -0.299
      -0.373
      -0.440
      -0.499
      -0.548
      -0.580
      -0.595
      -0.593
      -0.581
      -0.565
      -0.546
      -0.521
      -0.487
      -0.450
      -0.418
      -0.399
      -0.389
      -0.382
      -0.371
      -0.358
      -0.352
      -0.358
      -0.373
      -0.389
      -0.402
      -0.414
      -0.435
      -0.464
      -0.500
      -0.539
      -0.580
      -0.623
      -0.663
      -0.693
      -0.708
      -0.709
      -0.702
      -0.694
      -0.684
      -0.664
      -0.629
      -0.580
      -0.523
      -0.469
      -0.424
      -0.385
      -0.348
      -0.310
      -0.274
      -0.249
      -0.242
      -0.252
      -0.276
      -0.308
      -0.341
      -0.373
      -0.405
      -0.434
      -0.458
      -0.475
      -0.486
      -0.489
      -0.485
      -0.470
      -0.441
      -0.397
      -0.339
      -0.266
      -0.180
      -0.081
       0.026
       0.132
       0.226
       0.306
       0.372
       0.428
       0.476
       0.515
       0.543
       0.562
       0.575
       0.583
       0.583
       0.571
       0.548
       0.515
       0.473
       0.421
       0.356
       0.280
       0.200
       0.122
       0.053
      -0.008
      -0.063
      -0.114
      -0.162
      -0.202
      -0.228
      -0.237
      -0.230
      -0.206
      -0.168
      -0.118
      -0.061
      -0.002
       0.055
       0.109
       0.165
       0.223
       0.283
       0.339
       0.392
       0.439
       0.480
       0.512
       0.533
       0.547
       0.557
       0.565
       0.571
       0.570
       0.561
       0.543
       0.520
       0.496
       0.472
       0.447
       0.418
       0.386
       0.352
       0.322
       0.294
       0.267
       0.233
       0.193
       0.149
       0.109
       0.079
       0.060
       0.047
       0.034
       0.021
       0.009
       0.003
       0.002
       0.007
       0.017
       0.032
       0.053
       0.080
       0.114
       0.152
       0.196
       0.247
       0.308
       0.374
       0.439
       0.497
       0.548
       0.598
       0.650
       0.704
       0.751
       0.784
       0.801
       0.805
       0.800
       0.787
       0.766
       0.733
       0.683
       0.616
       0.534
       0.444
       0.353
       0.260
       0.164
       0.057
      -0.061
      -0.188
      -0.315
      -0.435
      -0.543
      -0.637
      -0.722
      -0.797
      -0.857
      -0.896
      -0.911
      -0.903
      -0.877
      -0.834
      -0.775
      -0.701
      -0.614
      -0.519
      -0.422
      -0.323
      -0.224
      -0.124
      -0.025
       0.065
       0.139
       0.196
       0.241
       0.279
       0.310
       0.331
       0.337
       0.327
       0.309
       0.289
       0.272
       0.258
       0.246
       0.231
       0.214
       0.196
       0.180
       0.169
       0.164
       0.169
       0.182
       0.199
       0.215
       0.225
       0.229
       0.226
       0.216
       0.197
       0.166
       0.119
       0.060
      -0.004
      -0.067
      -0.126
      -0.183
      -0.240
      -0.301
      -0.362
      -0.423
      -0.479
      -0.529
      -0.573
      -0.610
      -0.638
      -0.659
      -0.671
      -0.672
      -0.660
      -0.631
      -0.586
      -0.530
      -0.469
      -0.405
      -0.344
      -0.289
      -0.243
      -0.208
      -0.183
      -0.167
      -0.157
      -0.154
      -0.162
      -0.187
      -0.229
      -0.285
      -0.349
      -0.416
      -0.488
      -0.568
      -0.657
      -0.746
      -0.827
      -0.896
      -0.952
      -1.001
      -1.045
      -1.084
      -1.117
      -1.144
      -1.168
      -1.188
      -1.202
      -1.201
      -1.179
      -1.134
      -1.071
      -0.994
      -0.907
      -0.811
      -0.711
      -0.613
      -0.520
      -0.430
      -0.336
      -0.231
      -0.117
      -0.002
       0.106
       0.206
       0.301
       0.394
       0.483
       0.556
       0.609
       0.643
       0.667
       0.685
       0.697
       0.699
       0.687
       0.667
       0.643
       0.620
       0.598
       0.577
       0.561
       0.554
       0.561
       0.577
       0.596
       0.614
       0.635
       0.662
       0.694
       0.724
       0.746
       0.760
       0.771
       0.782
       0.792
       0.797
       0.795
       0.787
       0.773
       0.751
       0.714
       0.657
       0.578
       0.482
       0.376
       0.261
       0.135
      -0.003
      -0.153
      -0.306
      -0.453
      -0.586
      -0.708
      -0.820
      -0.927
      -1.024
      -1.107
      -1.172
      -1.223
      -1.260
      -1.285
      -1.294
      -1.285
      -1.258
      -1.215
      -1.156
      -1.082
      -0.991
      -0.882
      -0.756
      -0.614
      -0.454
      -0.276
      -0.087
       0.108
       0.300
       0.488
       0.674
       0.864
       1.057
       1.251
       1.440
       1.622
       1.798
       1.968
       2.130
       2.272
       2.387
       2.472
       2.530
       2.560
       2.554
       2.500
       2.395
       2.245
       2.060
       1.851
       1.621
       1.370
       1.100
       0.820
       0.541
       0.270
       0.008
      -0.249
      -0.499
      -0.733
      -0.939
      -1.109
      -1.242
      -1.343
      -1.414
      -1.456
      -1.472
      -1.466
      -1.441
      -1.397
      -1.331
      -1.241
      -1.127
      -0.995
      -0.850
      -0.695
      -0.533
      -0.370
      -0.213
      -0.066
       0.065
       0.178
       0.274
       0.350
       0.403
       0.430
       0.426
       0.394
       0.338
       0.268
       0.188
       0.102
       0.013
      -0.075
      -0.156
      -0.231
      -0.305
      -0.380
      -0.455
      -0.531
      -0.608
      -0.686
      -0.761
      -0.827
      -0.880
      -0.921
      -0.956
      -0.990
      -1.022
      -1.048
      -1.064
      -1.067
      -1.054
      -1.025
      -0.978
      -0.912
      -0.825
      -0.717
      -0.589
      -0.444
      -0.290
      -0.135
       0.016
       0.158
       0.289
       0.401
       0.489
       0.545
       0.569
       0.565
       0.536
       0.483
       0.403
       0.297
       0.173
       0.035
      -0.114
      -0.272
      -0.439
      -0.610
      -0.777
      -0.935
      -1.080
      -1.212
      -1.327
      -1.421
      -1.494
      -1.548
      -1.582
      -1.593
      -1.570
      -1.501
      -1.380
      -1.208
      -0.989
      -0.728
      -0.431
      -0.105
       0.239
       0.592
       0.949
       1.309
       1.668
       2.016
       2.337
       2.620
       2.866
       3.075
       3.249
       3.385
       3.478
       3.526
       3.532
       3.502
       3.443
       3.360
       3.258
       3.140
       3.009
       2.864
       2.704
       2.532
       2.352
       2.169
       1.989
       1.818
       1.655
       1.496
       1.334
       1.166
       0.992
       0.816
       0.643
       0.478
       0.323
       0.181
       0.052
      -0.064
      -0.168
      -0.265
      -0.355
      -0.436
      -0.507
      -0.572
      -0.639
      -0.715
      -0.805
      -0.908
      -1.029
      -1.170
      -1.338
      -1.532
      -1.745
      -1.966
      -2.187
      -2.406
      -2.627
      -2.849
      -3.066
      -3.267
      -3.444
      -3.597
      -3.733
      -3.850
      -3.941
      -3.992
      -3.999
      -3.961
      -3.886
      -3.771
      -3.613
      -3.409
      -3.161
      -2.870
      -2.541
      -2.174
      -1.778
      -1.361
      -0.934
      -0.503
      -0.070
       0.365
       0.792
       1.201
       1.575
       1.906
       2.190
       2.426
       2.614
       2.755
       2.850
       2.897
       2.900
       2.860
       2.781
       2.668
       2.527
       2.364
       2.186
       1.999
       1.805
       1.604
       1.398
       1.191
       0.989
       0.797
       0.617
       0.448
       0.290
       0.145
       0.017
      -0.089
      -0.172
      -0.233
      -0.277
      -0.305
      -0.321
      -0.326
      -0.325
      -0.316
      -0.298
      -0.269
      -0.231
      -0.186
      -0.136
      -0.081
      -0.020
       0.046
       0.114
       0.180
       0.245
       0.309
       0.373
       0.435
       0.493
       0.543
       0.579
       0.598
       0.598
       0.576
       0.531
       0.458
       0.355
       0.220
       0.059
      -0.120
      -0.306
      -0.489
      -0.662
      -0.819
      -0.955
      -1.064
      -1.143
      -1.191
      -1.205
      -1.182
      -1.119
      -1.013
      -0.869
      -0.694
      -0.493
      -0.268
      -0.021
       0.240
       0.508
       0.777
       1.044
       1.309
       1.567
       1.812
       2.037
       2.235
       2.405
       2.543
       2.646
       2.711
       2.730
       2.701
       2.627
       2.514
       2.368
       2.193
       1.993
       1.773
       1.539
       1.293
       1.040
       0.782
       0.526
       0.276
       0.036
      -0.193
      -0.410
      -0.610
      -0.791
      -0.951
      -1.091
      -1.219
      -1.341
      -1.462
      -1.579
      -1.687
      -1.790
      -1.892
      -2.002
      -2.116
      -2.227
      -2.324
      -2.403
      -2.468
      -2.526
      -2.579
      -2.623
      -2.654
      -2.674
      -2.688
      -2.700
      -2.710
      -2.708
      -2.688
      -2.649
      -2.593
      -2.523
      -2.438
      -2.339
      -2.227
      -2.108
      -1.987
      -1.866
      -1.742
      -1.613
      -1.479
      -1.349
      -1.230
      -1.124
      -1.027
      -0.934
      -0.847
      -0.775
      -0.720
      -0.678
      -0.640
      -0.599
      -0.552
      -0.500
      -0.440
      -0.366
      -0.271
      -0.154
      -0.021
       0.117
       0.258
       0.405
       0.564
       0.737
       0.918
       1.104
       1.290
       1.478
       1.663
       1.838
       1.991
       2.114
       2.210
       2.281
       2.334
       2.369
       2.387
       2.391
       2.390
       2.389
       2.393
       2.403
       2.420
       2.445
       2.474
       2.504
       2.532
       2.556
       2.580
       2.607
       2.633
       2.652
       2.660
       2.656
       2.642
       2.620
       2.592
       2.555
       2.507
       2.447
       2.383
       2.319
       2.257
       2.193
       2.118
       2.030
       1.929
       1.815
       1.685
       1.533
       1.356
       1.160
       0.951
       0.735
       0.512
       0.282
       0.043
      -0.203
      -0.458
      -0.722
      -0.998
      -1.283
      -1.574
      -1.870
      -2.167
      -2.466
      -2.766
      -3.064
      -3.356
      -3.632
      -3.881
      -4.096
      -4.277
      -4.424
      -4.531
      -4.589
      -4.590
      -4.532
      -4.421
      -4.259
      -4.046
      -3.778
      -3.458
      -3.100
      -2.715
      -2.314
      -1.899
      -1.474
      -1.043
      -0.621
      -0.220
       0.151
       0.483
       0.770
       1.006
       1.186
       1.307
       1.375
       1.393
       1.362
       1.282
       1.159
       1.004
       0.832
       0.652
       0.464
       0.268
       0.068
      -0.124
      -0.291
      -0.421
      -0.509
      -0.554
      -0.555
      -0.508
      -0.413
      -0.276
      -0.110
       0.073
       0.265
       0.460
       0.654
       0.841
       1.014
       1.163
       1.286
       1.384
       1.462
       1.524
       1.567
       1.589
       1.584
       1.551
       1.492
       1.406
       1.289
       1.138
       0.953
       0.732
       0.480
       0.205
      -0.083
      -0.373
      -0.655
      -0.917
      -1.149
      -1.345
      -1.499
      -1.611
      -1.679
      -1.706
      -1.698
      -1.661
      -1.599
      -1.513
      -1.409
      -1.293
      -1.175
      -1.059
      -0.945
      -0.827
      -0.707
      -0.585
      -0.465
      -0.349
      -0.236
      -0.126
      -0.020
       0.079
       0.168
       0.247
       0.319
       0.389
       0.461
       0.533
       0.603
       0.669
       0.729
       0.784
       0.834
       0.878
       0.917
       0.952
       0.987
       1.025
       1.071
       1.125
       1.188
       1.260
       1.342
       1.435
       1.536
       1.637
       1.730
       1.810
       1.876
       1.925
       1.956
       1.965
       1.952
       1.920
       1.871
       1.803
       1.714
       1.603
       1.481
       1.359
       1.242
       1.127
       1.006
       0.878
       0.747
       0.622
       0.508
       0.403
       0.303
       0.207
       0.113
       0.026
      -0.056
      -0.132
      -0.206
      -0.278
      -0.347
      -0.416
      -0.489
      -0.575
      -0.678
      -0.800
      -0.936
      -1.082
      -1.238
      -1.402
      -1.573
      -1.742
      -1.898
      -2.034
      -2.148
      -2.245
      -2.328
      -2.395
      -2.442
      -2.466
      -2.470
      -2.459
      -2.434
      -2.394
      -2.332
      -2.247
      -2.139
      -2.012
      -1.868
      -1.707
      -1.528
      -1.329
      -1.114
      -0.888
      -0.654
      -0.417
      -0.180
       0.051
       0.265
       0.459
       0.635
       0.800
       0.956
       1.102
       1.236
       1.358
       1.474
       1.591
       1.708
       1.825
       1.937
       2.046
       2.155
       2.265
       2.371
       2.464
       2.539
       2.593
       2.624
       2.627
       2.598
       2.533
       2.436
       2.313
       2.168
       2.004
       1.822
       1.626
       1.420
       1.209
       0.993
       0.773
       0.554
       0.342
       0.137
      -0.061
      -0.255
      -0.445
      -0.627
      -0.791
      -0.931
      -1.044
      -1.141
      -1.232
      -1.324
      -1.418
      -1.512
      -1.608
      -1.706
      -1.810
      -1.914
      -2.012
      -2.097
      -2.167
      -2.219
      -2.252
      -2.264
      -2.256
      -2.233
      -2.203
      -2.170
      -2.135
      -2.091
      -2.032
      -1.953
      -1.857
      -1.750
      -1.631
      -1.501
      -1.358
      -1.206
      -1.051
      -0.898
      -0.746
      -0.588
      -0.418
      -0.239
      -0.054
       0.127
       0.301
       0.466
       0.621
       0.762
       0.887
       0.996
       1.091
       1.176
       1.254
       1.330
       1.404
       1.477
       1.548
       1.613
       1.670
       1.716
       1.746
       1.764
       1.774
       1.781
       1.784
       1.777
       1.760
       1.738
       1.721
       1.712
       1.709
       1.702
       1.687
       1.660
       1.622
       1.572
       1.507
       1.424
       1.324
       1.208
       1.079
       0.939
       0.788
       0.625
       0.448
       0.256
       0.048
      -0.174
      -0.408
      -0.644
      -0.873
      -1.087
      -1.283
      -1.462
      -1.622
      -1.758
      -1.866
      -1.947
      -2.004
      -2.038
      -2.044
      -2.018
      -1.959
      -1.875
      -1.774
      -1.659
      -1.529
      -1.383
      -1.223
      -1.058
      -0.895
      -0.737
      -0.585
      -0.439
      -0.308
      -0.204
      -0.135
      -0.103
      -0.102
      -0.124
      -0.163
      -0.218
      -0.287
      -0.362
      -0.434
      -0.494
      -0.537
      -0.560
      -0.559
      -0.532
      -0.477
      -0.395
      -0.287
      -0.155
       0.001
       0.178
       0.364
       0.546
       0.714
       0.862
       0.991
       1.101
       1.191
       1.255
       1.285
       1.274
       1.220
       1.127
       1.002
       0.851
       0.677
       0.484
       0.278
       0.066
      -0.145
      -0.355
      -0.566
      -0.775
      -0.977
      -1.160
      -1.313
      -1.430
      -1.509
      -1.550
      -1.553
      -1.519
      -1.456
      -1.373
      -1.279
      -1.175
      -1.059
      -0.929
      -0.788
      -0.643
      -0.505
      -0.379
      -0.260
      -0.139
      -0.011
       0.120
       0.247
       0.364
       0.478
       0.594
       0.716
       0.843
       0.971
       1.097
       1.221
       1.337
       1.442
       1.534
       1.615
       1.690
       1.759
       1.816
       1.853
       1.867
       1.861
       1.841
       1.807
       1.756
       1.684
       1.594
       1.489
       1.373
       1.247
       1.111
       0.972
       0.839
       0.718
       0.613
       0.522
       0.448
       0.393
       0.364
       0.365
       0.390
       0.429
       0.465
       0.492
       0.512
