Origin Time       26/10/2011 16:17:32
Lat.              31.5 N 
Long.             76.8 E 
Depth (Km)          5.0
Magnitude         3.5
 Region           MANDI-HIMACHAL-PRADESH                                           
 Above details taken from IMD 
   
Station Code      SND
Station Lat.       31.517
Station Long.      76.883
Station Height(m)  931.0
Site Class        A   Vs30 between 700 m/sec to 1400 m/sec * 
Record Time       26.10.2011 16:17:04.714
Sampling Rate     200. Hz
 Record Duration   83.840 Sec.
 Direction         Vert. (Up positive)
Max. Acceleration     10.872 cm/sec**2
     
  * For reference see Site Classification link of website 
     
 Base Line Corrected and Low Pass Filtered (Cut Off at 35 Hz) Time History
 Acceleration data in cm/sec**2
    
[...]
      -0.008
       0.023
       0.038
       0.024
      -0.007
      -0.026
      -0.018
       0.007
       0.021
       0.010
      -0.015
      -0.028
      -0.014
       0.014
       0.030
       0.020
      -0.006
      -0.025
      -0.018
       0.007
       0.024
       0.016
      -0.009
      -0.026
      -0.017
       0.012
       0.032
       0.026
       0.000
      -0.020
      -0.015
       0.010
       0.028
       0.018
      -0.013
      -0.035
      -0.026
       0.010
       0.042
       0.044
       0.015
      -0.016
      -0.021
       0.002
       0.031
       0.036
       0.012
      -0.016
      -0.024
      -0.005
       0.021
       0.028
       0.011
      -0.015
      -0.025
      -0.008
       0.018
       0.028
       0.014
      -0.011
      -0.020
      -0.005
       0.022
       0.036
       0.026
       0.002
      -0.011
      -0.001
       0.021
       0.031
       0.020
      -0.002
      -0.009
       0.006
       0.031
       0.040
       0.023
      -0.007
      -0.022
      -0.009
       0.020
       0.035
       0.020
      -0.012
      -0.031
      -0.020
       0.011
       0.031
       0.023
      -0.006
      -0.031
      -0.030
      -0.009
       0.009
       0.006
      -0.016
      -0.033
      -0.027
       0.000
       0.024
       0.025
       0.004
      -0.019
      -0.021
       0.000
       0.022
       0.023
       0.001
      -0.024
      -0.026
      -0.004
       0.022
       0.029
       0.010
      -0.014
      -0.021
      -0.004
       0.019
       0.024
       0.005
      -0.022
      -0.032
      -0.016
       0.012
       0.027
       0.018
      -0.006
      -0.018
      -0.007
       0.016
       0.026
       0.012
      -0.015
      -0.027
      -0.011
       0.021
       0.041
       0.031
       0.001
      -0.020
      -0.017
       0.004
       0.017
       0.009
      -0.012
      -0.023
      -0.013
       0.011
       0.026
       0.016
      -0.009
      -0.025
      -0.018
       0.007
       0.026
       0.020
      -0.007
      -0.030
      -0.026
       0.001
       0.028
       0.032
       0.010
      -0.017
      -0.024
      -0.006
       0.019
       0.025
       0.007
      -0.018
      -0.024
      -0.004
       0.022
       0.029
       0.011
      -0.013
      -0.018
       0.002
       0.026
       0.030
       0.006
      -0.023
      -0.031
      -0.011
       0.018
       0.030
       0.013
      -0.014
      -0.027
      -0.015
       0.009
       0.022
       0.011
      -0.009
      -0.018
      -0.003
       0.021
       0.032
       0.017
      -0.013
      -0.031
      -0.024
      -0.001
       0.013
       0.002
      -0.024
      -0.040
      -0.030
       0.000
       0.024
       0.022
      -0.003
      -0.025
      -0.025
      -0.005
       0.014
       0.010
      -0.013
      -0.033
      -0.027
       0.000
       0.023
       0.024
       0.002
      -0.019
      -0.019
       0.001
       0.019
       0.015
      -0.012
      -0.036
      -0.034
      -0.007
       0.023
       0.029
       0.010
      -0.016
      -0.022
      -0.004
       0.019
       0.020
      -0.006
      -0.038
      -0.045
      -0.021
       0.015
       0.032
       0.017
      -0.015
      -0.034
      -0.023
       0.006
       0.024
       0.014
      -0.011
      -0.024
      -0.009
       0.021
       0.039
       0.031
       0.006
      -0.012
      -0.008
       0.011
       0.023
       0.012
      -0.013
      -0.027
      -0.014
       0.015
       0.033
       0.024
      -0.004
      -0.026
      -0.023
       0.000
       0.020
       0.014
      -0.011
      -0.032
      -0.027
      -0.001
       0.025
       0.027
       0.006
      -0.017
      -0.018
       0.004
       0.026
       0.026
       0.003
      -0.020
      -0.018
       0.009
       0.039
       0.045
       0.021
      -0.011
      -0.024
      -0.006
       0.021
       0.030
       0.010
      -0.018
      -0.027
      -0.007
       0.024
       0.038
       0.025
       0.003
      -0.005
       0.011
       0.034
       0.038
       0.016
      -0.013
      -0.021
       0.000
       0.032
       0.047
       0.034
       0.006
      -0.011
      -0.003
       0.018
       0.030
       0.019
      -0.005
      -0.017
      -0.005
       0.020
       0.035
       0.024
      -0.003
      -0.021
      -0.012
       0.015
       0.030
       0.015
      -0.018
      -0.038
      -0.026
       0.009
       0.038
       0.037
       0.013
      -0.010
      -0.010
       0.010
       0.025
       0.017
      -0.012
      -0.036
      -0.031
      -0.001
       0.030
       0.035
       0.012
      -0.015
      -0.019
       0.003
       0.028
       0.030
       0.006
      -0.022
      -0.029
      -0.007
       0.024
       0.036
       0.023
       0.001
      -0.006
       0.008
       0.026
       0.025
       0.001
      -0.026
      -0.030
      -0.007
       0.025
       0.037
       0.020
      -0.009
      -0.023
      -0.009
       0.019
       0.032
       0.015
      -0.019
      -0.039
      -0.027
       0.007
       0.031
       0.026
      -0.001
      -0.020
      -0.013
       0.012
       0.029
       0.018
      -0.011
      -0.030
      -0.020
       0.013
       0.038
       0.036
       0.008
      -0.019
      -0.022
      -0.003
       0.015
       0.012
      -0.012
      -0.036
      -0.036
      -0.013
       0.015
       0.024
       0.012
      -0.007
      -0.011
       0.004
       0.021
       0.022
       0.001
      -0.022
      -0.025
      -0.002
       0.028
       0.039
       0.023
      -0.003
      -0.014
      -0.003
       0.017
       0.019
      -0.002
      -0.031
      -0.041
      -0.021
       0.012
       0.031
       0.023
       0.001
      -0.009
       0.002
       0.023
       0.029
       0.010
      -0.020
      -0.032
      -0.013
       0.022
       0.041
       0.031
       0.001
      -0.021
      -0.018
       0.002
       0.014
       0.003
      -0.024
      -0.041
      -0.029
       0.003
       0.028
       0.027
       0.003
      -0.021
      -0.025
      -0.010
       0.006
       0.006
      -0.009
      -0.022
      -0.015
       0.009
       0.029
       0.027
       0.004
      -0.020
      -0.024
      -0.006
       0.015
       0.017
      -0.007
      -0.035
      -0.040
      -0.017
       0.016
       0.030
       0.013
      -0.015
      -0.028
      -0.014
       0.009
       0.013
      -0.009
      -0.036
      -0.040
      -0.011
       0.030
       0.049
       0.033
      -0.002
      -0.024
      -0.018
       0.007
       0.024
       0.015
      -0.010
      -0.024
      -0.013
       0.013
       0.031
       0.028
       0.008
      -0.006
      -0.003
       0.011
       0.016
       0.002
      -0.021
      -0.031
      -0.014
       0.019
       0.044
       0.040
       0.013
      -0.015
      -0.020
      -0.001
       0.021
       0.020
      -0.002
      -0.025
      -0.025
      -0.002
       0.022
       0.026
       0.008
      -0.013
      -0.017
       0.001
       0.022
       0.024
       0.003
      -0.021
      -0.025
      -0.004
       0.025
       0.034
       0.015
      -0.016
      -0.029
      -0.015
       0.010
       0.019
      -0.001
      -0.031
      -0.042
      -0.024
       0.007
       0.023
       0.010
      -0.018
      -0.032
      -0.018
       0.011
       0.026
       0.012
      -0.019
      -0.038
      -0.028
       0.000
       0.020
       0.013
      -0.014
      -0.034
      -0.030
      -0.008
       0.008
       0.001
      -0.022
      -0.036
      -0.025
       0.003
       0.022
       0.017
      -0.008
      -0.027
      -0.021
       0.004
       0.022
       0.011
      -0.024
      -0.052
      -0.050
      -0.018
       0.015
       0.021
      -0.004
      -0.033
      -0.040
      -0.021
       0.003
       0.006
      -0.016
      -0.039
      -0.038
      -0.011
       0.020
       0.027
       0.005
      -0.024
      -0.035
      -0.019
       0.007
       0.017
       0.000
      -0.028
      -0.039
      -0.023
       0.006
       0.021
       0.009
      -0.015
      -0.027
      -0.012
       0.013
       0.022
       0.003
      -0.027
      -0.040
      -0.023
       0.011
       0.032
       0.023
      -0.006
      -0.029
      -0.027
      -0.007
       0.009
       0.003
      -0.020
      -0.038
      -0.032
      -0.006
       0.015
       0.014
      -0.008
      -0.028
      -0.026
      -0.005
       0.014
       0.011
      -0.011
      -0.032
      -0.028
      -0.002
       0.024
       0.027
       0.006
      -0.019
      -0.025
      -0.008
       0.012
       0.010
      -0.017
      -0.046
      -0.049
      -0.023
       0.008
       0.017
      -0.003
      -0.030
      -0.039
      -0.022
       0.002
       0.007
      -0.013
      -0.038
      -0.042
      -0.017
       0.017
       0.031
       0.016
      -0.014
      -0.030
      -0.019
       0.007
       0.022
       0.010
      -0.017
      -0.033
      -0.022
       0.007
       0.029
       0.024
       0.000
      -0.019
      -0.015
       0.007
       0.022
       0.012
      -0.018
      -0.040
      -0.035
      -0.008
       0.017
       0.019
       0.001
      -0.014
      -0.011
       0.007
       0.016
       0.003
      -0.025
      -0.040
      -0.027
       0.005
       0.028
       0.021
      -0.009
      -0.034
      -0.032
      -0.007
       0.015
       0.009
      -0.023
      -0.053
      -0.053
      -0.021
       0.016
       0.029
       0.009
      -0.020
      -0.030
      -0.013
       0.010
       0.013
      -0.013
      -0.045
      -0.051
      -0.023
       0.017
       0.035
       0.018
      -0.015
      -0.034
      -0.026
      -0.003
       0.007
      -0.008
      -0.031
      -0.038
      -0.017
       0.013
       0.028
       0.016
      -0.012
      -0.029
      -0.022
      -0.002
       0.006
      -0.010
      -0.039
      -0.052
      -0.035
      -0.001
       0.021
       0.015
      -0.012
      -0.032
      -0.026
       0.000
       0.021
       0.016
      -0.011
      -0.036
      -0.033
      -0.005
       0.024
       0.029
       0.006
      -0.023
      -0.034
      -0.020
       0.003
       0.011
      -0.004
      -0.025
      -0.029
      -0.010
       0.016
       0.023
       0.005
      -0.024
      -0.037
      -0.021
       0.008
       0.023
       0.011
      -0.015
      -0.029
      -0.019
       0.004
       0.016
       0.006
      -0.016
      -0.028
      -0.017
       0.005
       0.015
       0.001
      -0.023
      -0.033
      -0.015
       0.017
       0.036
       0.026
      -0.003
      -0.023
      -0.017
       0.006
       0.019
       0.007
      -0.021
      -0.038
      -0.026
       0.004
       0.025
       0.018
      -0.009
      -0.033
      -0.032
      -0.009
       0.010
       0.006
      -0.018
      -0.040
      -0.038
      -0.012
       0.015
       0.020
       0.000
      -0.024
      -0.027
      -0.005
       0.021
       0.026
       0.003
      -0.026
      -0.036
      -0.021
       0.003
       0.011
      -0.004
      -0.025
      -0.029
      -0.009
       0.014
       0.016
      -0.008
      -0.038
      -0.045
      -0.021
       0.015
       0.031
       0.015
      -0.017
      -0.037
      -0.028
      -0.001
       0.018
       0.009
      -0.017
      -0.036
      -0.027
       0.000
       0.021
       0.015
      -0.010
      -0.031
      -0.025
       0.000
       0.021
       0.014
      -0.013
      -0.035
      -0.031
      -0.003
       0.021
       0.021
      -0.001
      -0.024
      -0.023
       0.000
       0.021
       0.017
      -0.009
      -0.033
      -0.033
      -0.007
       0.021
       0.025
       0.005
      -0.019
      -0.023
      -0.004
       0.018
       0.020
      -0.002
      -0.028
      -0.034
      -0.014
       0.014
       0.025
       0.012
      -0.011
      -0.020
      -0.006
       0.016
       0.021
       0.002
      -0.025
      -0.035
      -0.018
       0.010
       0.023
       0.009
      -0.016
      -0.026
      -0.010
       0.015
       0.022
       0.000
      -0.032
      -0.045
      -0.024
       0.010
       0.029
       0.016
      -0.014
      -0.032
      -0.021
       0.007
       0.023
       0.012
      -0.017
      -0.035
      -0.025
       0.003
       0.023
       0.018
      -0.006
      -0.025
      -0.019
       0.005
       0.025
       0.021
      -0.005
      -0.026
      -0.021
       0.006
       0.031
       0.027
      -0.002
      -0.031
      -0.034
      -0.009
       0.019
       0.023
       0.001
      -0.028
      -0.035
      -0.015
       0.014
       0.025
       0.009
      -0.019
      -0.031
      -0.016
       0.012
       0.026
       0.011
      -0.007
       0.020
       0.137
       0.341
       0.573
       0.742
       0.778
       0.675
       0.494
       0.322
       0.218
       0.183
       0.186
       0.203
       0.257
       0.403
       0.676
       1.035
       1.377
       1.610
       1.717
       1.730
       1.632
       1.315
       0.631
      -0.471
      -1.858
      -3.243
      -4.331
      -4.984
      -5.261
      -5.313
      -5.232
      -5.007
      -4.604
      -4.046
      -3.413
      -2.760
      -2.075
      -1.314
      -0.467
       0.418
       1.331
       2.424
       3.961
       6.046
       8.363
      10.212
      10.872
       9.989
       7.698
       4.522
       1.231
      -1.311
      -2.416
      -1.925
      -0.427
       0.924
       0.999
      -0.597
      -3.194
      -5.426
      -6.162
      -5.321
      -3.856
      -2.853
      -2.566
      -2.304
      -1.283
       0.401
       1.654
       1.298
      -0.769
      -3.269
      -4.416
      -3.235
      -0.232
       3.065
       5.155
       5.336
       3.812
       1.319
      -1.301
      -3.358
      -4.395
      -4.188
      -2.753
      -0.331
       2.624
       5.447
       7.294
       7.355
       5.277
       1.537
      -2.587
      -5.570
      -6.427
      -5.235
      -3.018
      -1.041
       0.005
       0.304
       0.527
       1.106
       1.844
       2.171
       1.750
       0.859
       0.175
       0.185
       0.787
       1.482
       1.907
       2.144
       2.460
       2.799
       2.641
       1.447
      -0.730
      -3.112
      -4.682
      -4.896
      -4.030
      -2.870
      -2.043
      -1.555
      -0.953
       0.076
       1.286
       2.033
       1.876
       1.025
       0.194
      -0.014
       0.354
       0.668
       0.370
      -0.399
      -0.841
      -0.252
       1.198
       2.414
       2.196
       0.294
      -2.227
      -3.711
      -3.173
      -1.044
       1.210
       2.240
       1.728
       0.382
      -0.813
      -1.354
      -1.384
      -1.282
      -1.209
      -1.039
      -0.621
      -0.013
       0.562
       0.921
       1.050
       1.018
       0.850
       0.557
       0.314
       0.505
       1.439
       2.920
       4.146
       4.172
       2.667
       0.302
      -1.658
      -2.292
      -1.690
      -0.764
      -0.387
      -0.683
      -1.094
      -1.088
      -0.766
      -0.772
      -1.593
      -2.980
      -4.022
      -3.818
      -2.163
       0.281
       2.426
       3.438
       3.185
       2.165
       1.049
       0.249
      -0.173
      -0.278
      -0.031
       0.658
       1.711
       2.740
       3.177
       2.628
       1.173
      -0.611
      -1.963
      -2.374
      -1.841
      -0.830
      -0.006
       0.101
      -0.651
      -1.964
      -3.232
      -3.810
      -3.306
      -1.810
       0.086
       1.556
       1.969
       1.238
      -0.161
      -1.501
      -2.226
      -2.146
      -1.346
       0.040
       1.864
       3.762
       4.998
       4.715
       2.589
      -0.652
      -3.451
      -4.401
      -3.264
      -1.116
       0.546
       0.998
       0.746
       0.884
       1.972
       3.460
       4.160
       3.302
       1.233
      -0.842
      -1.814
      -1.470
      -0.498
       0.233
       0.411
       0.385
       0.600
       0.965
       0.806
      -0.504
      -2.814
      -5.036
      -5.808
      -4.500
      -1.754
       0.929
       2.270
       2.068
       1.177
       0.672
       0.977
       1.636
       1.832
       1.171
       0.027
      -0.801
      -0.816
      -0.243
       0.231
       0.147
      -0.284
      -0.396
       0.264
       1.417
       2.133
       1.530
      -0.419
      -2.656
      -3.680
      -2.642
      -0.058
       2.470
       3.367
       2.187
      -0.134
      -2.084
      -2.734
      -2.281
      -1.583
      -1.198
      -0.872
       0.074
       1.903
       4.002
       5.271
       4.988
       3.373
       1.350
      -0.235
      -1.198
      -1.894
      -2.598
      -3.050
      -2.669
      -1.244
       0.611
       1.734
       1.278
      -0.539
      -2.484
      -3.165
      -2.040
       0.250
       2.433
       3.517
       3.322
       2.317
       1.062
      -0.189
      -1.420
      -2.526
      -3.166
      -3.023
      -2.203
      -1.307
      -0.992
      -1.398
      -1.989
      -2.004
      -1.152
       0.087
       0.854
       0.659
      -0.180
      -0.820
      -0.619
       0.380
       1.605
       2.533
       3.092
       3.514
       3.837
       3.635
       2.352
       0.001
      -2.458
      -3.538
      -2.259
       0.949
       4.264
       5.542
       3.769
      -0.188
      -4.140
      -6.053
      -5.337
      -3.053
      -0.996
      -0.407
      -1.236
      -2.406
      -2.752
      -1.871
      -0.227
       1.433
       2.719
       3.708
       4.511
       4.840
       4.108
       2.039
      -0.803
      -3.144
      -3.829
      -2.692
      -0.746
       0.483
      -0.033
      -2.207
      -4.978
      -7.004
      -7.373
      -5.940
      -3.228
      -0.101
       2.569
       4.163
       4.476
       3.768
       2.646
       1.817
       1.800
       2.697
       4.136
       5.404
       5.747
       4.694
       2.314
      -0.739
      -3.408
      -4.668
      -4.013
      -1.734
       1.220
       3.702
       4.886
       4.574
       3.219
       1.626
       0.497
       0.055
       0.008
      -0.131
      -0.635
      -1.372
      -1.955
      -2.069
      -1.691
      -1.048
      -0.391
       0.182
       0.708
       1.193
       1.486
       1.347
       0.642
      -0.506
      -1.747
      -2.670
      -3.017
      -2.795
      -2.270
      -1.817
      -1.709
      -1.936
      -2.201
      -2.119
      -1.507
      -0.550
       0.299
       0.614
       0.260
      -0.550
      -1.431
      -2.064
      -2.330
      -2.283
      -2.038
      -1.663
      -1.149
      -0.451
       0.442
       1.464
       2.493
       3.380
       3.993
       4.267
       4.251
       4.107
       4.022
       4.064
       4.112
       3.899
       3.165
       1.798
      -0.102
      -2.245
      -4.196
      -5.477
      -5.729
      -4.928
      -3.501
      -2.173
      -1.554
      -1.745
      -2.277
      -2.473
      -1.954
      -0.863
       0.325
       1.208
       1.697
       1.933
       2.038
