Origin Time       17/9/2010 19:21:09	 UTC
Lat.              36.5 N	
Long.             70.8 E	
Depth (Km)        167.0
Magnitude         6.5
 Region           Hindukush                                                        
 Above details taken from IMD 
    
Station Code      SND
Station Lat.       31.517  N
Station Long.      76.883  E
Station Height(m)  931.0
Site Class        A   Vs30 between 700 m/sec to 1400 m/sec * 
Record Time       18.09.2010 00:51:34.584 UTC
Sampling Rate     200. Hz
 Record Duration   80.010 Sec.
 Direction         N-S (N positive)
Max. Acceleration      2.711 cm/sec**2
     
  * For reference see Site Classification link of website 
     
 Base Line Corrected and Low Pass Filtered (Cut Off at 35 Hz) Time History
 Acceleration data in cm/sec**2
    
[...]
      -0.473
      -0.376
      -0.270
      -0.165
      -0.071
       0.009
       0.081
       0.151
       0.217
       0.270
       0.304
       0.319
       0.322
       0.317
       0.303
       0.275
       0.233
       0.186
       0.143
       0.111
       0.089
       0.078
       0.080
       0.101
       0.141
       0.196
       0.261
       0.335
       0.422
       0.525
       0.642
       0.767
       0.893
       1.020
       1.153
       1.298
       1.453
       1.608
       1.752
       1.876
       1.981
       2.071
       2.145
       2.197
       2.221
       2.214
       2.182
       2.129
       2.056
       1.962
       1.845
       1.711
       1.569
       1.424
       1.275
       1.119
       0.956
       0.796
       0.646
       0.508
       0.376
       0.240
       0.095
      -0.053
      -0.196
      -0.326
      -0.441
      -0.544
      -0.639
      -0.726
      -0.804
      -0.873
      -0.934
      -0.990
      -1.041
      -1.084
      -1.117
      -1.143
      -1.165
      -1.185
      -1.201
      -1.215
      -1.228
      -1.246
      -1.271
      -1.296
      -1.316
      -1.325
      -1.327
      -1.327
      -1.330
      -1.334
      -1.334
      -1.328
      -1.317
      -1.307
      -1.297
      -1.284
      -1.260
      -1.226
      -1.188
      -1.150
      -1.115
      -1.078
      -1.035
      -0.985
      -0.933
      -0.880
      -0.822
      -0.753
      -0.672
      -0.584
      -0.494
      -0.401
      -0.298
      -0.178
      -0.045
       0.094
       0.232
       0.370
       0.516
       0.673
       0.836
       0.995
       1.142
       1.275
       1.397
       1.505
       1.589
       1.641
       1.657
       1.643
       1.606
       1.550
       1.474
       1.375
       1.254
       1.120
       0.981
       0.843
       0.707
       0.575
       0.457
       0.362
       0.297
       0.263
       0.252
       0.259
       0.283
       0.332
       0.408
       0.510
       0.630
       0.759
       0.892
       1.024
       1.149
       1.260
       1.354
       1.428
       1.479
       1.502
       1.486
       1.426
       1.322
       1.183
       1.015
       0.820
       0.595
       0.338
       0.055
      -0.243
      -0.545
      -0.842
      -1.129
      -1.398
      -1.641
      -1.847
      -2.012
      -2.140
      -2.237
      -2.311
      -2.360
      -2.382
      -2.378
      -2.352
      -2.310
      -2.255
      -2.182
      -2.086
      -1.965
      -1.823
      -1.664
      -1.495
      -1.317
      -1.134
      -0.954
      -0.785
      -0.628
      -0.479
      -0.328
      -0.172
      -0.020
       0.120
       0.242
       0.353
       0.464
       0.581
       0.700
       0.817
       0.924
       1.019
       1.103
       1.174
       1.234
       1.289
       1.341
       1.392
       1.437
       1.468
       1.484
       1.486
       1.483
       1.483
       1.483
       1.478
       1.463
       1.444
       1.431
       1.428
       1.431
       1.431
       1.424
       1.412
       1.400
       1.390
       1.373
       1.341
       1.293
       1.234
       1.171
       1.101
       1.016
       0.907
       0.776
       0.631
       0.479
       0.319
       0.142
      -0.057
      -0.274
      -0.496
      -0.719
      -0.948
      -1.189
      -1.439
      -1.681
      -1.895
      -2.074
      -2.224
      -2.355
      -2.464
      -2.540
      -2.569
      -2.551
      -2.498
      -2.419
      -2.314
      -2.175
      -2.002
      -1.805
      -1.598
      -1.391
      -1.182
      -0.967
      -0.752
      -0.552
      -0.384
      -0.252
      -0.148
      -0.058
       0.023
       0.090
       0.136
       0.162
       0.176
       0.183
       0.184
       0.175
       0.151
       0.115
       0.075
       0.034
      -0.005
      -0.047
      -0.092
      -0.133
      -0.164
      -0.184
      -0.194
      -0.198
      -0.192
      -0.170
      -0.128
      -0.069
       0.001
       0.074
       0.149
       0.226
       0.303
       0.376
       0.440
       0.497
       0.551
       0.605
       0.654
       0.689
       0.703
       0.700
       0.692
       0.691
       0.699
       0.707
       0.709
       0.707
       0.707
       0.713
       0.719
       0.717
       0.703
       0.684
       0.663
       0.642
       0.614
       0.569
       0.506
       0.428
       0.341
       0.247
       0.145
       0.030
      -0.096
      -0.230
      -0.370
      -0.514
      -0.664
      -0.821
      -0.978
      -1.125
      -1.259
      -1.383
      -1.499
      -1.602
      -1.678
      -1.714
      -1.709
      -1.678
      -1.636
      -1.586
      -1.518
      -1.420
      -1.287
      -1.129
      -0.957
      -0.776
      -0.587
      -0.394
      -0.206
      -0.034
       0.118
       0.255
       0.381
       0.494
       0.588
       0.653
       0.685
       0.692
       0.681
       0.660
       0.630
       0.593
       0.549
       0.496
       0.435
       0.365
       0.287
       0.209
       0.136
       0.074
       0.019
      -0.035
      -0.094
      -0.153
      -0.205
      -0.244
      -0.273
      -0.303
      -0.342
      -0.385
      -0.423
      -0.454
      -0.482
      -0.515
      -0.555
      -0.594
      -0.627
      -0.654
      -0.682
      -0.719
      -0.765
      -0.815
      -0.864
      -0.906
      -0.943
      -0.975
      -0.998
      -1.007
      -0.997
      -0.968
      -0.921
      -0.856
      -0.770
      -0.663
      -0.539
      -0.402
      -0.257
      -0.105
       0.059
       0.231
       0.404
       0.567
       0.715
       0.848
       0.973
       1.093
       1.206
       1.307
       1.393
       1.468
       1.533
       1.590
       1.635
       1.669
       1.694
       1.714
       1.729
       1.736
       1.729
       1.710
       1.682
       1.653
       1.625
       1.598
       1.569
       1.537
       1.504
       1.474
       1.441
       1.401
       1.348
       1.280
       1.202
       1.121
       1.036
       0.941
       0.833
       0.713
       0.588
       0.464
       0.340
       0.210
       0.074
      -0.061
      -0.185
      -0.291
      -0.380
      -0.459
      -0.533
      -0.599
      -0.649
      -0.682
      -0.700
      -0.712
      -0.723
      -0.732
      -0.734
      -0.728
      -0.720
      -0.715
      -0.712
      -0.707
      -0.695
      -0.679
      -0.664
      -0.657
      -0.656
      -0.657
      -0.660
      -0.673
      -0.700
      -0.739
      -0.777
      -0.803
      -0.814
      -0.815
      -0.811
      -0.803
      -0.788
      -0.766
      -0.735
      -0.701
      -0.662
      -0.618
      -0.567
      -0.511
      -0.458
      -0.409
      -0.360
      -0.304
      -0.238
      -0.162
      -0.083
      -0.005
       0.075
       0.158
       0.245
       0.335
       0.428
       0.526
       0.635
       0.755
       0.879
       0.992
       1.081
       1.144
       1.185
       1.212
       1.225
       1.213
       1.166
       1.081
       0.970
       0.847
       0.719
       0.581
       0.430
       0.272
       0.118
      -0.022
      -0.150
      -0.277
      -0.410
      -0.545
      -0.674
      -0.790
      -0.896
      -0.998
      -1.097
      -1.192
      -1.276
      -1.349
      -1.414
      -1.474
      -1.526
      -1.566
      -1.593
      -1.612
      -1.630
      -1.648
      -1.656
      -1.640
      -1.593
      -1.524
      -1.444
      -1.361
      -1.272
      -1.165
      -1.036
      -0.892
      -0.741
      -0.586
      -0.421
      -0.243
      -0.057
       0.124
       0.289
       0.436
       0.573
       0.699
       0.808
       0.887
       0.929
       0.936
       0.919
       0.880
       0.820
       0.740
       0.645
       0.547
       0.454
       0.367
       0.290
       0.226
       0.187
       0.180
       0.208
       0.263
       0.337
       0.423
       0.525
       0.645
       0.784
       0.931
       1.075
       1.210
       1.338
       1.462
       1.578
       1.677
       1.754
       1.812
       1.862
       1.907
       1.945
       1.963
       1.953
       1.919
       1.871
       1.817
       1.754
       1.676
       1.578
       1.461
       1.328
       1.181
       1.021
       0.852
       0.678
       0.505
       0.331
       0.157
      -0.015
      -0.177
      -0.320
      -0.437
      -0.530
      -0.604
      -0.663
      -0.702
      -0.714
      -0.694
      -0.642
      -0.567
      -0.473
      -0.360
      -0.223
      -0.064
       0.103
       0.260
       0.394
       0.505
       0.597
       0.673
       0.726
       0.745
       0.723
       0.664
       0.572
       0.454
       0.310
       0.145
      -0.038
      -0.231
      -0.431
      -0.639
      -0.856
      -1.078
      -1.298
      -1.509
      -1.707
      -1.887
      -2.048
      -2.182
      -2.283
      -2.347
      -2.379
      -2.384
      -2.363
      -2.310
      -2.217
      -2.082
      -1.915
      -1.734
      -1.551
      -1.371
      -1.187
      -0.998
      -0.812
      -0.639
      -0.492
      -0.370
      -0.268
      -0.182
      -0.116
      -0.076
      -0.065
      -0.076
      -0.102
      -0.141
      -0.197
      -0.277
      -0.380
      -0.499
      -0.627
      -0.762
      -0.902
      -1.044
      -1.178
      -1.291
      -1.374
      -1.423
      -1.438
      -1.423
      -1.377
      -1.298
      -1.182
      -1.032
      -0.854
      -0.657
      -0.445
      -0.220
       0.013
       0.247
       0.474
       0.690
       0.894
       1.081
       1.239
       1.356
       1.435
       1.490
       1.534
       1.569
       1.585
       1.568
       1.517
       1.441
       1.358
       1.275
       1.192
       1.104
       1.011
       0.919
       0.833
       0.756
       0.691
       0.641
       0.615
       0.620
       0.654
       0.705
       0.762
       0.824
       0.901
       0.997
       1.109
       1.226
       1.336
       1.440
       1.543
       1.645
       1.740
       1.812
       1.854
       1.865
       1.858
       1.840
       1.816
       1.782
       1.730
       1.661
       1.575
       1.474
       1.359
       1.231
       1.094
       0.953
       0.811
       0.665
       0.507
       0.337
       0.160
      -0.013
      -0.178
      -0.333
      -0.479
      -0.614
      -0.727
      -0.814
      -0.879
      -0.933
      -0.986
      -1.032
      -1.057
      -1.050
      -1.016
      -0.970
      -0.926
      -0.887
      -0.844
      -0.788
      -0.715
      -0.627
      -0.533
      -0.437
      -0.345
      -0.262
      -0.191
      -0.131
      -0.081
      -0.039
      -0.006
       0.013
       0.012
      -0.015
      -0.069
      -0.147
      -0.244
      -0.359
      -0.488
      -0.630
      -0.781
      -0.939
      -1.097
      -1.249
      -1.388
      -1.510
      -1.613
      -1.703
      -1.786
      -1.869
      -1.950
      -2.022
      -2.077
      -2.110
      -2.124
      -2.124
      -2.112
      -2.081
      -2.026
      -1.946
      -1.846
      -1.729
      -1.593
      -1.438
      -1.267
      -1.094
      -0.929
      -0.776
      -0.626
      -0.467
      -0.297
      -0.125
       0.038
       0.188
       0.331
       0.477
       0.627
       0.774
       0.910
       1.033
       1.148
       1.260
       1.368
       1.466
       1.544
       1.599
       1.636
       1.667
       1.695
       1.720
       1.738
       1.748
       1.753
       1.758
       1.763
       1.766
       1.765
       1.762
       1.759
       1.754
       1.736
       1.697
       1.642
       1.582
       1.525
       1.470
       1.407
       1.329
       1.230
       1.113
       0.976
       0.817
       0.636
       0.441
       0.245
       0.059
      -0.116
      -0.288
      -0.466
      -0.648
      -0.821
      -0.976
      -1.112
      -1.237
      -1.359
      -1.471
      -1.559
      -1.616
      -1.644
      -1.649
      -1.632
      -1.579
      -1.477
      -1.325
      -1.136
      -0.928
      -0.707
      -0.474
      -0.230
       0.018
       0.254
       0.471
       0.672
       0.864
       1.049
       1.220
       1.369
       1.491
       1.588
       1.660
       1.705
       1.715
       1.684
       1.615
       1.515
       1.393
       1.251
       1.089
       0.905
       0.705
       0.500
       0.298
       0.101
      -0.092
      -0.281
      -0.462
      -0.631
      -0.784
      -0.921
      -1.038
      -1.132
      -1.195
      -1.224
      -1.218
      -1.182
      -1.125
      -1.052
      -0.961
      -0.853
      -0.733
      -0.612
      -0.500
      -0.402
      -0.317
      -0.247
      -0.196
      -0.170
      -0.167
      -0.184
      -0.217
      -0.266
      -0.333
      -0.416
      -0.509
      -0.603
      -0.689
      -0.768
      -0.842
      -0.909
      -0.965
      -1.001
      -1.015
      -1.011
      -1.001
      -0.990
      -0.975
      -0.950
      -0.915
      -0.879
      -0.853
      -0.843
      -0.845
      -0.858
      -0.884
      -0.925
      -0.981
      -1.042
      -1.100
      -1.150
      -1.193
      -1.225
      -1.242
      -1.229
      -1.177
      -1.080
      -0.942
      -0.767
      -0.561
      -0.326
      -0.063
       0.221
       0.518
       0.818
       1.115
       1.403
       1.675
       1.925
       2.145
       2.333
       2.489
       2.608
       2.685
       2.711
       2.689
       2.626
       2.534
       2.421
       2.289
       2.137
       1.970
       1.795
       1.623
       1.458
       1.300
       1.144
       0.992
       0.848
       0.718
       0.602
       0.494
       0.390
       0.293
       0.210
       0.148
       0.105
       0.069
       0.033
      -0.005
      -0.042
      -0.080
      -0.126
      -0.192
      -0.277
      -0.368
      -0.450
      -0.517
      -0.575
      -0.629
      -0.675
      -0.699
      -0.688
      -0.641
      -0.574
      -0.506
      -0.448
      -0.397
      -0.348
      -0.300
      -0.256
      -0.217
      -0.185
      -0.156
      -0.129
      -0.105
      -0.085
      -0.072
      -0.066
      -0.064
      -0.067
      -0.074
      -0.088
      -0.107
      -0.130
      -0.155
      -0.181
      -0.210
      -0.238
      -0.258
      -0.268
      -0.268
      -0.267
      -0.277
      -0.300
      -0.332
      -0.361
      -0.384
      -0.406
      -0.436
      -0.476
      -0.522
      -0.563
      -0.596
      -0.622
      -0.646
      -0.670
      -0.690
      -0.708
      -0.727
      -0.754
      -0.790
      -0.828
      -0.858
      -0.878
      -0.893
      -0.913
      -0.940
      -0.965
      -0.973
      -0.954
      -0.907
      -0.844
      -0.775
      -0.701
      -0.620
      -0.531
      -0.437
      -0.341
      -0.242
      -0.131
      -0.001
       0.146
       0.301
       0.456
       0.612
       0.778
       0.961
       1.154
       1.341
       1.505
       1.640
       1.745
       1.819
       1.858
       1.857
       1.816
       1.740
       1.638
       1.510
       1.357
       1.186
       1.010
       0.842
       0.691
       0.554
       0.423
       0.295
       0.174
       0.067
      -0.021
      -0.093
      -0.152
      -0.198
      -0.229
      -0.243
      -0.247
      -0.255
      -0.274
      -0.305
      -0.339
      -0.370
      -0.396
      -0.421
      -0.448
      -0.474
      -0.494
      -0.508
      -0.518
      -0.528
      -0.542
      -0.558
      -0.578
      -0.603
      -0.633
      -0.665
      -0.691
      -0.702
      -0.695
      -0.674
      -0.643
      -0.599
      -0.535
      -0.448
      -0.344
      -0.230
      -0.115
       0.001
       0.118
       0.236
       0.350
       0.455
       0.546
       0.628
       0.706
       0.776
       0.829
       0.854
       0.848
       0.816
       0.767
       0.704
       0.627
       0.531
       0.413
       0.280
       0.137
      -0.009
      -0.161
      -0.319
      -0.477
      -0.628
      -0.762
      -0.877
      -0.974
      -1.057
      -1.121
      -1.153
      -1.146
      -1.093
      -1.000
      -0.872
      -0.710
      -0.519
      -0.303
      -0.073
       0.158
       0.384
       0.604
       0.818
       1.018
       1.187
       1.310
       1.381
       1.406
       1.392
       1.345
       1.258
       1.127
       0.956
       0.755
       0.538
       0.316
       0.096
      -0.115
      -0.311
      -0.481
      -0.617
      -0.716
      -0.776
      -0.800
      -0.794
      -0.760
      -0.703
      -0.625
      -0.529
      -0.420
      -0.307
      -0.203
      -0.120
      -0.062
      -0.029
      -0.017
      -0.023
      -0.044
      -0.079
      -0.128
      -0.191
      -0.264
      -0.339
      -0.412
      -0.482
      -0.549
      -0.611
      -0.659
      -0.685
      -0.688
      -0.672
      -0.642
      -0.599
      -0.538
      -0.461
      -0.374
      -0.284
      -0.197
      -0.113
      -0.032
       0.046
       0.117
       0.179
       0.228
       0.269
       0.304
       0.335
       0.359
       0.371
       0.368
       0.351
       0.324
       0.287
       0.241
       0.184
       0.122
       0.067
       0.027
       0.006
       0.003
       0.018
       0.054
       0.112
       0.184
       0.256
       0.316
       0.361
       0.400
       0.443
       0.492
       0.542
       0.584
       0.607
       0.607
       0.578
       0.522
       0.444
       0.352
       0.258
       0.168
       0.082
      -0.005
      -0.097
      -0.187
      -0.265
      -0.325
      -0.369
      -0.408
      -0.447
      -0.483
      -0.510
      -0.525
      -0.529
      -0.523
      -0.504
      -0.467
      -0.416
      -0.366
      -0.328
      -0.311
      -0.309
      -0.313
      -0.319
      -0.328
      -0.348
      -0.381
      -0.423
      -0.467
      -0.506
      -0.538
      -0.563
      -0.581
      -0.588
      -0.583
      -0.569
      -0.554
      -0.538
      -0.518
      -0.485
      -0.438
      -0.383
      -0.325
      -0.263
      -0.191
      -0.107
      -0.017
       0.067
       0.138
       0.194
       0.237
       0.271
       0.295
       0.310
       0.318
       0.324
       0.332
       0.345
       0.363
       0.383
       0.405
       0.432
       0.469
       0.516
       0.571
       0.626
       0.679
       0.733
       0.795
       0.866
       0.940
       1.008
       1.065
       1.116
       1.167
       1.215
       1.253
       1.273
       1.274
       1.261
       1.238
       1.201
       1.141
       1.053
       0.941
       0.818
       0.689
       0.555
       0.407
       0.242
       0.067
      -0.109
      -0.280
      -0.447
      -0.611
      -0.771
      -0.923
      -1.065
      -1.199
      -1.331
      -1.461
      -1.585
      -1.696
      -1.787
      -1.859
      -1.915
      -1.956
      -1.977
      -1.973
      -1.944
      -1.892
      -1.821
      -1.725
      -1.597
      -1.434
      -1.241
      -1.029
      -0.809
      -0.584
      -0.356
      -0.130
       0.084
       0.273
       0.431
       0.555
       0.645
       0.701
       0.726
       0.720
       0.687
       0.631
       0.555
