Origin Time       18/01/2011 20:23:27
Lat.              28.9 N	
Long.             64.0 E	
Depth (Km)          5.0
Magnitude         7.4
 Region           Southwestern-Pakistan                                            
 Above details taken from IMD 
   
Station Code      SND
Station Lat.       31.517
Station Long.      76.883
Station Height(m)  931.0
Site Class        A   Vs30 between 700 m/sec to 1400 m/sec * 
Record Time       18.01.2011 20:27:43.069
Sampling Rate     200. Hz
 Record Duration   82.095 Sec.
 Direction         Vert. (Up positive)
Max. Acceleration      1.251 cm/sec**2
     
  * For reference see Site Classification link of website 
     
 Base Line Corrected and Low Pass Filtered (Cut Off at 35 Hz) Time History
 Acceleration data in cm/sec**2
    
[...]
       0.079
       0.081
       0.060
       0.037
       0.032
       0.044
       0.041
      -0.001
      -0.068
      -0.110
      -0.092
      -0.033
       0.004
      -0.024
      -0.090
      -0.121
      -0.072
       0.014
       0.049
      -0.014
      -0.128
      -0.193
      -0.146
      -0.024
       0.077
       0.087
       0.019
      -0.064
      -0.110
      -0.112
      -0.098
      -0.097
      -0.114
      -0.136
      -0.150
      -0.152
      -0.153
      -0.157
      -0.161
      -0.154
      -0.132
      -0.101
      -0.075
      -0.059
      -0.042
       0.001
       0.083
       0.181
       0.251
       0.267
       0.248
       0.242
       0.278
       0.329
       0.337
       0.274
       0.178
       0.125
       0.150
       0.209
       0.223
       0.165
       0.088
       0.076
       0.144
       0.219
       0.209
       0.106
      -0.003
      -0.026
       0.051
       0.158
       0.223
       0.228
       0.201
       0.182
       0.187
       0.201
       0.203
       0.185
       0.159
       0.147
       0.158
       0.180
       0.190
       0.174
       0.141
       0.111
       0.094
       0.080
       0.055
       0.025
       0.010
       0.021
       0.038
       0.026
      -0.030
      -0.097
      -0.128
      -0.107
      -0.075
      -0.086
      -0.152
      -0.219
      -0.220
      -0.155
      -0.094
      -0.114
      -0.218
      -0.325
      -0.346
      -0.266
      -0.156
      -0.105
      -0.140
      -0.223
      -0.289
      -0.305
      -0.279
      -0.238
      -0.203
      -0.178
      -0.157
      -0.133
      -0.109
      -0.087
      -0.068
      -0.047
      -0.023
       0.005
       0.033
       0.057
       0.077
       0.107
       0.156
       0.219
       0.270
       0.284
       0.264
       0.243
       0.258
       0.306
       0.338
       0.303
       0.204
       0.106
       0.080
       0.128
       0.184
       0.183
       0.132
       0.109
       0.173
       0.297
       0.383
       0.361
       0.264
       0.194
       0.219
       0.318
       0.416
       0.458
       0.444
       0.409
       0.382
       0.373
       0.366
       0.343
       0.296
       0.237
       0.184
       0.144
       0.109
       0.061
      -0.001
      -0.062
      -0.102
      -0.117
      -0.124
      -0.136
      -0.149
      -0.148
      -0.131
      -0.126
      -0.157
      -0.220
      -0.270
      -0.263
      -0.208
      -0.162
      -0.183
      -0.262
      -0.328
      -0.319
      -0.255
      -0.218
      -0.277
      -0.408
      -0.517
      -0.522
      -0.429
      -0.325
      -0.296
      -0.359
      -0.459
      -0.532
      -0.553
      -0.537
      -0.516
      -0.506
      -0.504
      -0.494
      -0.468
      -0.427
      -0.377
      -0.319
      -0.249
      -0.165
      -0.075
       0.006
       0.064
       0.105
       0.148
       0.212
       0.292
       0.357
       0.381
       0.368
       0.353
       0.366
       0.397
       0.399
       0.332
       0.210
       0.098
       0.048
       0.049
       0.035
      -0.036
      -0.132
      -0.173
      -0.113
      -0.004
       0.049
      -0.009
      -0.125
      -0.194
      -0.162
      -0.065
       0.024
       0.064
       0.066
       0.068
       0.091
       0.129
       0.159
       0.165
       0.147
       0.124
       0.119
       0.132
       0.145
       0.136
       0.101
       0.058
       0.025
      -0.001
      -0.041
      -0.105
      -0.177
      -0.233
      -0.271
      -0.317
      -0.390
      -0.473
      -0.514
      -0.480
      -0.393
      -0.321
      -0.310
      -0.333
      -0.313
      -0.203
      -0.045
       0.070
       0.090
       0.058
       0.073
       0.190
       0.369
       0.508
       0.536
       0.463
       0.355
       0.269
       0.219
       0.183
       0.132
       0.056
      -0.033
      -0.122
      -0.201
      -0.273
      -0.341
      -0.401
      -0.443
      -0.461
      -0.459
      -0.457
      -0.464
      -0.474
      -0.463
      -0.414
      -0.338
      -0.270
      -0.231
      -0.211
      -0.173
      -0.093
       0.003
       0.063
       0.053
      -0.001
      -0.028
       0.018
       0.108
       0.171
       0.165
       0.129
       0.140
       0.227
       0.324
       0.335
       0.232
       0.094
       0.029
       0.080
       0.194
       0.296
       0.349
       0.370
       0.393
       0.435
       0.486
       0.530
       0.555
       0.569
       0.586
       0.615
       0.646
       0.660
       0.642
       0.596
       0.542
       0.490
       0.433
       0.354
       0.258
       0.169
       0.109
       0.067
       0.008
      -0.089
      -0.197
      -0.263
      -0.258
      -0.215
      -0.201
      -0.254
      -0.332
      -0.360
      -0.306
      -0.224
      -0.202
      -0.275
      -0.383
      -0.424
      -0.350
      -0.209
      -0.095
      -0.067
      -0.108
      -0.156
      -0.166
      -0.136
      -0.090
      -0.052
      -0.027
      -0.006
       0.018
       0.047
       0.075
       0.099
       0.117
       0.136
       0.157
       0.176
       0.181
       0.163
       0.130
       0.109
       0.115
       0.136
       0.139
       0.104
       0.051
       0.024
       0.048
       0.099
       0.120
       0.084
       0.022
       0.005
       0.068
       0.171
       0.234
       0.220
       0.174
       0.177
       0.253
       0.331
       0.313
       0.174
      -0.006
      -0.123
      -0.145
      -0.126
      -0.132
      -0.186
      -0.256
      -0.304
      -0.312
      -0.294
      -0.272
      -0.254
      -0.232
      -0.192
      -0.131
      -0.064
      -0.008
       0.030
       0.061
       0.103
       0.158
       0.211
       0.244
       0.256
       0.264
       0.276
       0.270
       0.217
       0.113
       0.002
      -0.059
      -0.052
      -0.025
      -0.046
      -0.128
      -0.208
      -0.211
      -0.131
      -0.043
      -0.030
      -0.098
      -0.164
      -0.138
      -0.010
       0.140
       0.218
       0.197
       0.123
       0.063
       0.044
       0.049
       0.046
       0.016
      -0.031
      -0.079
      -0.116
      -0.139
      -0.152
      -0.156
      -0.149
      -0.126
      -0.086
      -0.037
       0.008
       0.045
       0.087
       0.150
       0.234
       0.309
       0.343
       0.331
       0.307
       0.317
       0.367
       0.412
       0.400
       0.325
       0.242
       0.217
       0.261
       0.315
       0.318
       0.269
       0.239
       0.285
       0.386
       0.444
       0.387
       0.241
       0.111
       0.070
       0.105
       0.140
       0.114
       0.029
      -0.076
      -0.160
      -0.211
      -0.244
      -0.278
      -0.316
      -0.345
      -0.350
      -0.333
      -0.313
      -0.308
      -0.322
      -0.334
      -0.331
      -0.317
      -0.318
      -0.350
      -0.397
      -0.432
      -0.446
      -0.464
      -0.516
      -0.600
      -0.672
      -0.687
      -0.648
      -0.611
      -0.628
      -0.689
      -0.721
      -0.667
      -0.553
      -0.466
      -0.473
      -0.549
      -0.598
      -0.544
      -0.400
      -0.253
      -0.178
      -0.181
      -0.210
      -0.212
      -0.174
      -0.119
      -0.074
      -0.050
      -0.037
      -0.020
       0.004
       0.029
       0.045
       0.049
       0.047
       0.048
       0.052
       0.051
       0.037
       0.016
       0.009
       0.039
       0.104
       0.171
       0.207
       0.208
       0.208
       0.240
       0.296
       0.325
       0.283
       0.184
       0.097
       0.085
       0.144
       0.207
       0.213
       0.179
       0.181
       0.271
       0.409
       0.496
       0.469
       0.370
       0.302
       0.327
       0.416
       0.493
       0.515
       0.489
       0.454
       0.436
       0.433
       0.423
       0.389
       0.332
       0.269
       0.219
       0.184
       0.152
       0.105
       0.045
      -0.010
      -0.046
      -0.070
      -0.100
      -0.149
      -0.201
      -0.232
      -0.240
      -0.254
      -0.301
      -0.372
      -0.420
      -0.400
      -0.327
      -0.264
      -0.267
      -0.319
      -0.345
      -0.288
      -0.179
      -0.111
      -0.148
      -0.259
      -0.342
      -0.320
      -0.217
      -0.128
      -0.131
      -0.220
      -0.332
      -0.404
      -0.425
      -0.422
      -0.426
      -0.442
      -0.449
      -0.425
      -0.367
      -0.291
      -0.214
      -0.143
      -0.070
       0.011
       0.092
       0.158
       0.200
       0.229
       0.275
       0.352
       0.446
       0.518
       0.543
       0.538
       0.549
       0.607
       0.686
       0.730
       0.702
       0.627
       0.577
       0.596
       0.655
       0.679
       0.626
       0.538
       0.497
       0.535
       0.585
       0.541
       0.369
       0.143
      -0.023
      -0.084
      -0.085
      -0.102
      -0.170
      -0.268
      -0.357
      -0.414
      -0.444
      -0.471
      -0.512
      -0.567
      -0.619
      -0.647
      -0.649
      -0.638
      -0.625
      -0.610
      -0.581
      -0.532
      -0.478
      -0.435
      -0.404
      -0.362
      -0.293
      -0.211
      -0.155
      -0.147
      -0.166
      -0.157
      -0.092
      -0.001
       0.046
       0.012
      -0.065
      -0.104
      -0.062
       0.017
       0.045
      -0.015
      -0.108
      -0.130
      -0.033
       0.135
       0.272
       0.313
       0.278
       0.233
       0.231
       0.274
       0.333
       0.377
       0.399
       0.406
       0.408
       0.406
       0.393
       0.365
       0.324
       0.276
       0.226
       0.174
       0.108
       0.025
      -0.062
      -0.127
      -0.156
      -0.164
      -0.189
      -0.257
      -0.350
      -0.421
      -0.440
      -0.432
      -0.452
      -0.536
      -0.652
      -0.723
      -0.703
      -0.622
      -0.558
      -0.555
      -0.573
      -0.529
      -0.396
      -0.240
      -0.165
      -0.200
      -0.271
      -0.272
      -0.173
      -0.025
       0.101
       0.175
       0.211
       0.231
       0.245
       0.253
       0.252
       0.240
       0.226
       0.220
       0.226
       0.241
       0.253
       0.251
       0.238
       0.229
       0.235
       0.243
       0.235
       0.210
       0.192
       0.203
       0.235
       0.256
       0.236
       0.188
       0.161
       0.188
       0.247
       0.275
       0.234
       0.160
       0.132
       0.196
       0.306
       0.368
       0.331
       0.235
       0.177
       0.215
       0.315
       0.386
       0.367
       0.270
       0.156
       0.078
       0.044
       0.032
       0.020
      -0.003
      -0.031
      -0.062
      -0.098
      -0.143
      -0.195
      -0.245
      -0.281
      -0.300
      -0.310
      -0.322
      -0.341
      -0.361
      -0.365
      -0.344
      -0.317
      -0.314
      -0.354
      -0.414
      -0.446
      -0.425
      -0.371
      -0.337
      -0.355
      -0.396
      -0.396
      -0.319
      -0.205
      -0.129
      -0.122
      -0.140
      -0.106
      -0.005
       0.092
       0.095
      -0.010
      -0.138
      -0.195
      -0.165
      -0.107
      -0.087
      -0.122
      -0.182
      -0.226
      -0.238
      -0.228
      -0.220
      -0.224
      -0.232
      -0.222
      -0.179
      -0.115
      -0.055
      -0.015
       0.012
       0.045
       0.094
       0.142
       0.171
       0.179
       0.185
       0.201
       0.209
       0.176
       0.087
      -0.023
      -0.099
      -0.114
      -0.107
      -0.148
      -0.263
      -0.398
      -0.467
      -0.444
      -0.388
      -0.393
      -0.482
      -0.588
      -0.608
      -0.509
      -0.359
      -0.258
      -0.256
      -0.317
      -0.371
      -0.373
      -0.323
      -0.255
      -0.195
      -0.151
      -0.111
      -0.065
      -0.012
       0.041
       0.091
       0.139
       0.194
       0.261
       0.334
       0.400
       0.454
       0.507
       0.573
       0.656
       0.734
       0.779
       0.784
       0.775
       0.789
       0.829
       0.856
       0.820
       0.715
       0.595
       0.530
       0.535
       0.555
       0.517
       0.415
       0.314
       0.289
       0.333
       0.356
       0.275
       0.104
      -0.058
      -0.122
      -0.089
      -0.035
      -0.029
      -0.083
      -0.166
      -0.243
      -0.307
      -0.369
      -0.440
      -0.518
      -0.589
      -0.646
      -0.693
      -0.739
      -0.785
      -0.827
      -0.864
      -0.896
      -0.920
      -0.933
      -0.940
      -0.958
      -0.995
      -1.031
      -1.036
      -1.004
      -0.965
      -0.945
      -0.930
      -0.872
      -0.758
      -0.634
      -0.562
      -0.546
      -0.517
      -0.411
      -0.238
      -0.078
       0.001
       0.003
      -0.010
       0.017
       0.091
       0.185
       0.267
       0.331
       0.386
       0.444
       0.505
       0.563
       0.611
       0.647
       0.674
       0.689
       0.689
       0.679
       0.677
       0.703
       0.751
       0.796
       0.810
       0.798
       0.795
       0.822
       0.862
       0.871
       0.827
       0.767
       0.761
       0.843
       0.973
       1.069
       1.088
       1.067
       1.083
       1.165
       1.251
       1.242
       1.109
       0.929
       0.811
       0.800
       0.849
       0.887
       0.875
       0.829
       0.782
       0.752
       0.735
       0.717
       0.690
       0.657
       0.630
       0.616
       0.605
       0.581
       0.531
       0.463
       0.392
       0.325
       0.248
       0.146
       0.021
      -0.105
      -0.215
      -0.315
      -0.428
      -0.560
      -0.683
      -0.755
      -0.766
      -0.758
      -0.786
      -0.858
      -0.924
      -0.927
      -0.872
      -0.824
      -0.836
      -0.885
      -0.891
      -0.797
      -0.632
      -0.486
      -0.425
      -0.443
      -0.484
      -0.492
      -0.454
      -0.393
      -0.338
      -0.299
      -0.264
      -0.221
      -0.164
      -0.106
      -0.056
      -0.015
       0.032
       0.096
       0.179
       0.260
       0.322
       0.364
       0.405
       0.468
       0.551
       0.617
       0.632
       0.590
       0.529
       0.488
       0.468
       0.427
       0.322
       0.166
       0.026
      -0.032
      -0.012
       0.017
      -0.006
      -0.073
      -0.114
      -0.078
       0.001
       0.028
      -0.054
      -0.207
      -0.330
      -0.360
      -0.320
      -0.279
      -0.283
      -0.323
      -0.359
      -0.363
      -0.342
      -0.318
      -0.307
      -0.307
      -0.302
      -0.280
      -0.249
      -0.225
      -0.215
      -0.213
      -0.203
      -0.184
      -0.169
      -0.166
      -0.166
      -0.147
      -0.103
      -0.060
      -0.050
      -0.077
      -0.106
      -0.090
      -0.026
       0.038
       0.047
      -0.001
      -0.046
      -0.024
       0.054
       0.110
       0.072
      -0.052
      -0.168
      -0.182
      -0.087
       0.038
       0.099
       0.067
      -0.017
      -0.091
      -0.125
      -0.124
      -0.112
      -0.105
      -0.106
      -0.111
      -0.116
      -0.121
      -0.121
      -0.112
      -0.092
      -0.063
      -0.039
      -0.027
      -0.027
      -0.023
       0.005
       0.065
       0.135
       0.182
       0.188
       0.173
       0.178
       0.223
       0.282
       0.296
       0.232
       0.114
       0.014
      -0.022
      -0.023
      -0.059
      -0.170
      -0.312
      -0.395
      -0.380
      -0.329
      -0.347
      -0.480
      -0.665
      -0.790
      -0.805
      -0.754
      -0.712
      -0.717
      -0.749
      -0.765
      -0.742
      -0.693
      -0.646
      -0.623
      -0.624
      -0.628
      -0.622
      -0.606
      -0.599
      -0.616
      -0.650
      -0.680
      -0.687
      -0.675
      -0.665
      -0.665
      -0.669
      -0.662
      -0.648
      -0.646
      -0.656
      -0.647
      -0.578
      -0.448
      -0.309
      -0.217
      -0.170
      -0.109
       0.017
       0.189
       0.322
       0.351
       0.298
       0.257
       0.311
       0.458
       0.611
       0.685
       0.661
       0.589
       0.530
       0.509
       0.513
       0.514
       0.499
       0.472
       0.446
       0.427
       0.411
       0.391
       0.366
       0.345
       0.334
       0.331
       0.322
       0.287
       0.224
       0.147
       0.083
       0.036
      -0.011
      -0.087
      -0.192
      -0.289
      -0.340
      -0.346
      -0.352
      -0.405
      -0.503
      -0.585
      -0.590
      -0.519
      -0.434
      -0.390
      -0.373
      -0.329
      -0.229
      -0.125
      -0.094
      -0.154
      -0.239
      -0.270
      -0.233
      -0.175
      -0.151
      -0.168
      -0.194
      -0.194
      -0.158
      -0.099
      -0.040
       0.007
       0.051
       0.105
       0.179
       0.263
       0.341
       0.404
       0.466
       0.543
       0.635
       0.721
       0.781
       0.822
       0.864
       0.913
       0.944
       0.917
       0.826
       0.709
       0.624
       0.583
       0.543
       0.448
       0.295
       0.148
       0.077
       0.079
       0.081
       0.008
      -0.132
      -0.247
      -0.246
      -0.123
       0.036
       0.133
       0.138
       0.095
       0.070
       0.094
       0.155
       0.217
       0.259
       0.279
       0.287
       0.290
       0.283
       0.263
       0.233
       0.204
       0.186
       0.179
       0.174
       0.166
       0.168
       0.202
       0.279
       0.375
       0.449
       0.475
       0.473
       0.487
       0.538
       0.602
       0.625
       0.583
       0.517
       0.493
       0.541
       0.610
       0.625
       0.557
       0.463
       0.426
       0.463
       0.499
       0.444
       0.286
       0.111
       0.016
       0.019
       0.058
       0.061
       0.008
      -0.075
      -0.147
      -0.191
      -0.212
      -0.228
      -0.250
      -0.275
      -0.293
      -0.298
      -0.292
      -0.285
      -0.282
      -0.279
      -0.268
      -0.254
      -0.249
      -0.260
      -0.270
      -0.264
      -0.245
      -0.238
      -0.265
      -0.309
      -0.325
      -0.277
      -0.183
      -0.102
      -0.080
      -0.094
      -0.070
       0.045
       0.217
       0.353
       0.387
       0.347
       0.329
       0.409
       0.572
       0.729
       0.804
       0.791
       0.744
       0.717
       0.723
       0.735
       0.723
       0.677
       0.610
       0.543
       0.484
       0.428
       0.365
       0.293
       0.220
       0.155
       0.097
       0.037
      -0.029
      -0.094
      -0.135
      -0.134
      -0.096
      -0.058
      -0.052
      -0.076
      -0.097
      -0.084
      -0.055
      -0.059
      -0.128
      -0.235
      -0.315
      -0.337
      -0.334
      -0.365
      -0.438
      -0.488
      -0.441
      -0.306
      -0.180
      -0.159
      -0.242
      -0.333
