Origin Time       04/04/2011 11:31:40 UTC
Lat.              29.6 N	
Long.             80.8 E	
Depth (Km)         10.0
Magnitude         5.7
 Region           NEPAL-INDIA-BORDER-REGION                                        
 Above details taken from IMD 
    
Station Code      SND
Station Lat.       31.517  N
Station Long.      76.883  E
Station Height(m)  931.0
Site Class        A   Vs30 between 700 m/sec to 1400 m/sec * 
Record Time       04.04.2011 11:33:16.729 UTC
Sampling Rate     200. Hz
 Record Duration   80.035 Sec.
 Direction         N-S (N positive)
Max. Acceleration      2.963 cm/sec**2
     
  * For reference see Site Classification link of website 
     
 Base Line Corrected and Low Pass Filtered (Cut Off at 35 Hz) Time History
 Acceleration data in cm/sec**2
    
[...]
      -0.185
      -0.181
      -0.201
      -0.206
      -0.173
      -0.122
      -0.099
      -0.129
      -0.195
      -0.254
      -0.273
      -0.261
      -0.256
      -0.289
      -0.356
      -0.418
      -0.442
      -0.431
      -0.423
      -0.453
      -0.529
      -0.620
      -0.691
      -0.725
      -0.739
      -0.761
      -0.809
      -0.868
      -0.909
      -0.914
      -0.898
      -0.891
      -0.907
      -0.932
      -0.929
      -0.876
      -0.787
      -0.696
      -0.626
      -0.565
      -0.479
      -0.350
      -0.196
      -0.059
       0.036
       0.100
       0.170
       0.271
       0.396
       0.511
       0.588
       0.633
       0.678
       0.751
       0.847
       0.928
       0.960
       0.941
       0.901
       0.873
       0.863
       0.849
       0.804
       0.726
       0.638
       0.571
       0.533
       0.498
       0.435
       0.339
       0.238
       0.174
       0.162
       0.175
       0.172
       0.135
       0.087
       0.067
       0.088
       0.129
       0.148
       0.129
       0.089
       0.067
       0.083
       0.118
       0.138
       0.124
       0.089
       0.068
       0.077
       0.102
       0.106
       0.066
      -0.002
      -0.058
      -0.068
      -0.043
      -0.023
      -0.044
      -0.103
      -0.160
      -0.179
      -0.159
      -0.134
      -0.142
      -0.183
      -0.225
      -0.235
      -0.206
      -0.166
      -0.146
      -0.153
      -0.164
      -0.146
      -0.092
      -0.026
       0.013
       0.012
      -0.006
      -0.003
       0.038
       0.099
       0.140
       0.142
       0.121
       0.116
       0.146
       0.193
       0.217
       0.196
       0.146
       0.106
       0.098
       0.105
       0.094
       0.046
      -0.026
      -0.084
      -0.106
      -0.106
      -0.117
      -0.165
      -0.237
      -0.296
      -0.311
      -0.283
      -0.246
      -0.234
      -0.256
      -0.282
      -0.276
      -0.225
      -0.154
      -0.097
      -0.062
      -0.027
       0.041
       0.149
       0.269
       0.363
       0.417
       0.455
       0.517
       0.618
       0.732
       0.813
       0.842
       0.840
       0.848
       0.890
       0.946
       0.979
       0.962
       0.911
       0.861
       0.833
       0.813
       0.763
       0.665
       0.536
       0.415
       0.330
       0.268
       0.197
       0.092
      -0.037
      -0.153
      -0.225
      -0.262
      -0.299
      -0.367
      -0.461
      -0.543
      -0.580
      -0.571
      -0.552
      -0.560
      -0.597
      -0.629
      -0.619
      -0.563
      -0.496
      -0.458
      -0.453
      -0.447
      -0.399
      -0.297
      -0.169
      -0.056
       0.024
       0.096
       0.197
       0.340
       0.498
       0.626
       0.702
       0.747
       0.802
       0.892
       1.000
       1.085
       1.120
       1.116
       1.108
       1.118
       1.136
       1.126
       1.068
       0.975
       0.885
       0.825
       0.789
       0.745
       0.666
       0.559
       0.459
       0.391
       0.350
       0.296
       0.201
       0.072
      -0.050
      -0.126
      -0.152
      -0.162
      -0.197
      -0.269
      -0.346
      -0.390
      -0.388
      -0.369
      -0.379
      -0.435
      -0.509
      -0.560
      -0.567
      -0.554
      -0.563
      -0.618
      -0.699
      -0.769
      -0.801
      -0.812
      -0.843
      -0.923
      -1.040
      -1.151
      -1.227
      -1.274
      -1.328
      -1.421
      -1.543
      -1.655
      -1.723
      -1.751
      -1.772
      -1.816
      -1.873
      -1.906
      -1.886
      -1.818
      -1.741
      -1.686
      -1.651
      -1.604
      -1.514
      -1.384
      -1.247
      -1.138
      -1.060
      -0.981
      -0.867
      -0.714
      -0.556
      -0.431
      -0.353
      -0.295
      -0.223
      -0.124
      -0.025
       0.033
       0.034
       0.006
      -0.011
       0.004
       0.034
       0.043
       0.011
      -0.042
      -0.080
      -0.080
      -0.064
      -0.072
      -0.125
      -0.200
      -0.250
      -0.245
      -0.198
      -0.153
      -0.143
      -0.161
      -0.170
      -0.139
      -0.070
       0.001
       0.045
       0.067
       0.099
       0.170
       0.276
       0.386
       0.468
       0.519
       0.565
       0.640
       0.748
       0.856
       0.925
       0.944
       0.943
       0.964
       1.019
       1.086
       1.123
       1.119
       1.096
       1.097
       1.140
       1.201
       1.241
       1.237
       1.207
       1.189
       1.207
       1.248
       1.272
       1.252
       1.197
       1.144
       1.120
       1.114
       1.090
       1.026
       0.932
       0.847
       0.798
       0.785
       0.782
       0.761
       0.719
       0.684
       0.683
       0.719
       0.764
       0.788
       0.783
       0.774
       0.792
       0.837
       0.881
       0.885
       0.837
       0.765
       0.706
       0.674
       0.644
       0.584
       0.485
       0.372
       0.284
       0.235
       0.204
       0.152
       0.063
      -0.039
      -0.112
      -0.136
      -0.137
      -0.157
      -0.222
      -0.310
      -0.376
      -0.392
      -0.373
      -0.363
      -0.393
      -0.453
      -0.504
      -0.518
      -0.508
      -0.514
      -0.571
      -0.672
      -0.777
      -0.851
      -0.897
      -0.950
      -1.043
      -1.175
      -1.306
      -1.396
      -1.440
      -1.472
      -1.533
      -1.628
      -1.724
      -1.778
      -1.779
      -1.755
      -1.742
      -1.749
      -1.746
      -1.696
      -1.591
      -1.465
      -1.363
      -1.301
      -1.250
      -1.167
      -1.035
      -0.879
      -0.744
      -0.652
      -0.587
      -0.506
      -0.387
      -0.245
      -0.124
      -0.054
      -0.022
       0.015
       0.090
       0.196
       0.293
       0.350
       0.374
       0.402
       0.460
       0.537
       0.593
       0.594
       0.550
       0.502
       0.487
       0.507
       0.532
       0.529
       0.496
       0.461
       0.456
       0.485
       0.521
       0.529
       0.502
       0.470
       0.470
       0.513
       0.573
       0.616
       0.628
       0.634
       0.669
       0.746
       0.838
       0.902
       0.917
       0.904
       0.905
       0.945
       1.005
       1.042
       1.029
       0.982
       0.948
       0.954
       0.985
       0.994
       0.947
       0.856
       0.765
       0.709
       0.682
       0.647
       0.573
       0.464
       0.361
       0.299
       0.280
       0.268
       0.224
       0.149
       0.073
       0.029
       0.019
       0.010
      -0.031
      -0.108
      -0.190
      -0.243
      -0.263
      -0.279
      -0.329
      -0.422
      -0.528
      -0.608
      -0.648
      -0.669
      -0.707
      -0.775
      -0.850
      -0.892
      -0.883
      -0.847
      -0.829
      -0.851
      -0.890
      -0.897
      -0.847
      -0.756
      -0.668
      -0.615
      -0.588
      -0.549
      -0.468
      -0.359
      -0.259
      -0.200
      -0.174
      -0.147
      -0.090
      -0.007
       0.072
       0.115
       0.126
       0.137
       0.177
       0.240
       0.295
       0.312
       0.298
       0.288
       0.319
       0.392
       0.481
       0.550
       0.593
       0.635
       0.710
       0.824
       0.949
       1.040
       1.079
       1.088
       1.106
       1.151
       1.202
       1.213
       1.161
       1.068
       0.984
       0.940
       0.919
       0.876
       0.781
       0.648
       0.521
       0.433
       0.379
       0.322
       0.235
       0.125
       0.032
      -0.013
      -0.016
      -0.019
      -0.056
      -0.128
      -0.195
      -0.220
      -0.199
      -0.168
      -0.165
      -0.193
      -0.222
      -0.216
      -0.172
      -0.124
      -0.111
      -0.142
      -0.187
      -0.208
      -0.193
      -0.168
      -0.170
      -0.216
      -0.282
      -0.328
      -0.340
      -0.339
      -0.365
      -0.433
      -0.517
      -0.570
      -0.565
      -0.519
      -0.475
      -0.461
      -0.465
      -0.451
      -0.394
      -0.310
      -0.238
      -0.208
      -0.212
      -0.210
      -0.171
      -0.101
      -0.036
      -0.008
      -0.014
      -0.021
       0.004
       0.059
       0.109
       0.116
       0.075
       0.020
      -0.011
      -0.013
      -0.015
      -0.051
      -0.124
      -0.207
      -0.264
      -0.291
      -0.318
      -0.381
      -0.488
      -0.606
      -0.695
      -0.740
      -0.769
      -0.819
      -0.908
      -1.016
      -1.103
      -1.144
      -1.154
      -1.169
      -1.213
      -1.272
      -1.310
      -1.306
      -1.274
      -1.251
      -1.259
      -1.286
      -1.290
      -1.241
      -1.147
      -1.047
      -0.972
      -0.916
      -0.844
      -0.724
      -0.562
      -0.394
      -0.254
      -0.144
      -0.033
       0.112
       0.291
       0.467
       0.599
       0.682
       0.746
       0.832
       0.950
       1.074
       1.161
       1.194
       1.195
       1.206
       1.244
       1.289
       1.301
       1.260
       1.187
       1.119
       1.074
       1.036
       0.971
       0.864
       0.734
       0.621
       0.542
       0.475
       0.378
       0.234
       0.063
      -0.089
      -0.195
      -0.268
      -0.342
      -0.444
      -0.560
      -0.655
      -0.700
      -0.708
      -0.716
      -0.750
      -0.801
      -0.830
      -0.809
      -0.740
      -0.662
      -0.609
      -0.585
      -0.555
      -0.484
      -0.367
      -0.239
      -0.140
      -0.083
      -0.037
       0.039
       0.155
       0.285
       0.383
       0.432
       0.455
       0.495
       0.568
       0.653
       0.713
       0.735
       0.745
       0.786
       0.877
       0.998
       1.104
       1.168
       1.202
       1.248
       1.334
       1.451
       1.556
       1.613
       1.624
       1.627
       1.657
       1.713
       1.757
       1.749
       1.689
       1.615
       1.566
       1.540
       1.497
       1.396
       1.235
       1.055
       0.899
       0.775
       0.648
       0.482
       0.271
       0.051
      -0.136
      -0.279
      -0.410
      -0.570
      -0.772
      -0.984
      -1.162
      -1.289
      -1.385
      -1.486
      -1.606
      -1.725
      -1.808
      -1.844
      -1.851
      -1.865
      -1.900
      -1.932
      -1.921
      -1.849
      -1.736
      -1.623
      -1.539
      -1.470
      -1.378
      -1.236
      -1.058
      -0.887
      -0.754
      -0.653
      -0.550
      -0.414
      -0.256
      -0.109
      -0.004
       0.062
       0.118
       0.188
       0.268
       0.323
       0.323
       0.278
       0.227
       0.211
       0.232
       0.254
       0.242
       0.192
       0.135
       0.111
       0.131
       0.172
       0.195
       0.188
       0.174
       0.194
       0.266
       0.367
       0.456
       0.505
       0.522
       0.542
       0.592
       0.659
       0.705
       0.696
       0.636
       0.560
       0.501
       0.459
       0.402
       0.300
       0.148
      -0.025
      -0.180
      -0.305
      -0.421
      -0.564
      -0.744
      -0.932
      -1.083
      -1.170
      -1.206
      -1.228
      -1.258
      -1.280
      -1.254
      -1.150
      -0.984
      -0.803
      -0.644
      -0.507
      -0.355
      -0.157
       0.086
       0.333
       0.541
       0.698
       0.833
       0.983
       1.155
       1.320
       1.435
       1.487
       1.500
       1.514
       1.549
       1.587
       1.592
       1.542
       1.457
       1.379
       1.332
       1.300
       1.242
       1.131
       0.980
       0.833
       0.724
       0.648
       0.573
       0.468
       0.335
       0.210
       0.122
       0.074
       0.034
      -0.035
      -0.137
      -0.242
      -0.311
      -0.339
      -0.356
      -0.400
      -0.482
      -0.571
      -0.627
      -0.638
      -0.631
      -0.649
      -0.706
      -0.780
      -0.834
      -0.852
      -0.850
      -0.859
      -0.895
      -0.940
      -0.968
      -0.968
      -0.961
      -0.979
      -1.035
      -1.106
      -1.156
      -1.163
      -1.143
      -1.130
      -1.147
      -1.180
      -1.193
      -1.162
      -1.095
      -1.028
      -0.991
      -0.975
      -0.944
      -0.860
      -0.726
      -0.576
      -0.449
      -0.351
      -0.252
      -0.121
       0.045
       0.207
       0.327
       0.398
       0.451
       0.521
       0.610
       0.687
       0.717
       0.697
       0.655
       0.626
       0.616
       0.595
       0.522
       0.384
       0.210
       0.045
      -0.082
      -0.186
      -0.299
      -0.442
      -0.596
      -0.723
      -0.798
      -0.836
      -0.875
      -0.937
      -1.011
      -1.060
      -1.059
      -1.019
      -0.973
      -0.948
      -0.938
      -0.906
      -0.825
      -0.705
      -0.588
      -0.509
      -0.462
      -0.407
      -0.307
      -0.163
      -0.013
       0.104
       0.182
       0.251
       0.348
       0.482
       0.624
       0.739
       0.819
       0.893
       1.000
       1.154
       1.333
       1.499
       1.632
       1.749
       1.888
       2.066
       2.257
       2.417
       2.523
       2.593
       2.668
       2.769
       2.879
       2.953
       2.963
       2.923
       2.878
       2.856
       2.844
       2.797
       2.686
       2.529
       2.372
       2.244
       2.133
       1.999
       1.810
       1.581
       1.358
       1.174
       1.024
       0.862
       0.655
       0.406
       0.158
      -0.052
      -0.218
      -0.372
      -0.547
      -0.747
      -0.942
      -1.100
      -1.215
      -1.316
      -1.435
      -1.577
      -1.715
      -1.813
      -1.859
      -1.877
      -1.906
      -1.962
      -2.021
      -2.044
      -2.010
      -1.938
      -1.871
      -1.838
      -1.830
      -1.811
      -1.754
      -1.669
      -1.591
      -1.552
      -1.550
      -1.552
      -1.528
      -1.479
      -1.433
      -1.419
      -1.438
      -1.463
      -1.464
      -1.434
      -1.393
      -1.371
      -1.376
      -1.386
      -1.371
      -1.323
      -1.267
      -1.233
      -1.226
      -1.219
      -1.173
      -1.080
      -0.965
      -0.867
      -0.801
      -0.745
      -0.664
      -0.544
      -0.409
      -0.294
      -0.215
      -0.152
      -0.069
       0.052
       0.190
       0.309
       0.388
       0.441
       0.502
       0.592
       0.697
       0.781
       0.818
       0.816
       0.817
       0.851
       0.916
       0.973
       0.989
       0.960
       0.918
       0.901
       0.917
       0.935
       0.919
       0.858
       0.786
       0.741
       0.737
       0.745
       0.727
       0.672
       0.609
       0.580
       0.597
       0.633
       0.640
       0.605
       0.554
       0.532
       0.554
       0.595
       0.615
       0.596
       0.563
       0.554
       0.583
       0.629
       0.652
       0.634
       0.594
       0.569
       0.578
       0.608
       0.629
       0.622
       0.598
       0.587
       0.609
       0.652
       0.681
       0.669
       0.623
       0.580
       0.570
       0.594
       0.620
       0.614
       0.572
       0.521
       0.500
       0.515
       0.535
       0.523
       0.465
       0.389
       0.334
       0.314
       0.310
       0.286
       0.228
       0.152
       0.094
       0.069
       0.056
       0.017
      -0.062
      -0.160
      -0.239
      -0.281
      -0.303
      -0.341
      -0.414
      -0.507
      -0.586
      -0.632
      -0.658
      -0.700
      -0.779
      -0.878
      -0.961
      -0.999
      -0.998
      -0.988
      -0.994
      -1.013
      -1.013
      -0.966
      -0.875
      -0.774
      -0.696
      -0.645
      -0.589
      -0.494
      -0.352
      -0.191
      -0.052
       0.052
       0.146
       0.268
       0.427
       0.591
       0.712
       0.770
       0.785
       0.803
       0.845
       0.894
       0.907
       0.858
       0.765
       0.674
       0.614
       0.572
       0.508
       0.394
       0.246
       0.109
       0.019
      -0.025
      -0.056
      -0.105
      -0.172
      -0.227
      -0.241
      -0.218
      -0.193
      -0.196
      -0.228
      -0.255
      -0.245
      -0.196
      -0.142
      -0.122
      -0.142
      -0.172
      -0.170
      -0.131
      -0.085
      -0.074
      -0.109
      -0.161
      -0.189
      -0.177
      -0.150
      -0.143
      -0.169
      -0.202
      -0.206
      -0.172
      -0.125
      -0.105
      -0.128
      -0.170
      -0.193
      -0.181
      -0.150
      -0.140
      -0.171
      -0.223
      -0.253
      -0.234
      -0.184
      -0.150
      -0.164
      -0.213
      -0.251
      -0.245
      -0.204
      -0.173
      -0.186
      -0.238
      -0.289
      -0.305
      -0.294
      -0.294
      -0.336
      -0.414
      -0.484
      -0.509
      -0.489
      -0.461
      -0.463
      -0.501
      -0.545
      -0.557
      -0.524
      -0.472
      -0.439
      -0.441
      -0.456
      -0.448
      -0.402
      -0.338
      -0.290
      -0.272
      -0.267
      -0.239
      -0.171
      -0.082
      -0.010
       0.026
       0.041
       0.071
       0.134
       0.217
       0.284
       0.314
       0.314
       0.318
       0.349
       0.395
       0.420
       0.395
       0.327
       0.255
       0.209
       0.187
       0.153
       0.077
      -0.041
      -0.165
      -0.259
      -0.318
      -0.373
      -0.461
      -0.587
      -0.716
      -0.807
      -0.848
      -0.865
      -0.896
      -0.955
      -1.014
      -1.031
      -0.987
      -0.906
      -0.834
      -0.793
      -0.766
      -0.713
      -0.610
      -0.468
      -0.326
      -0.212
      -0.119
      -0.015
       0.126
       0.291
       0.442
       0.553
       0.633
       0.720
       0.846
       1.004
       1.156
       1.267
       1.334
       1.394
       1.483
       1.602
       1.716
       1.787
       1.808
       1.807
       1.819
       1.850
       1.875
       1.862
       1.806
       1.735
       1.680
       1.650
       1.617
       1.546
       1.429
       1.291
       1.168
       1.077
       0.999
       0.897
       0.754
       0.585
       0.430
       0.312
       0.223
       0.126
      -0.003
      -0.157
      -0.297
      -0.387
      -0.428
      -0.452
      -0.496
      -0.567
      -0.632
      -0.658
      -0.639
      -0.609
      -0.603
      -0.624
      -0.640
      -0.614
      -0.544
      -0.462
      -0.404
      -0.372
      -0.332
      -0.251
      -0.127
       0.002
       0.091
       0.127
       0.141
       0.173
       0.236
       0.301
       0.327
       0.295
       0.227
       0.161
       0.114
       0.068
      -0.011
      -0.139
      -0.294
      -0.439
      -0.552
      -0.647
      -0.757
      -0.903
      -1.072
      -1.223
      -1.329
      -1.394
      -1.455
      -1.543
      -1.649
      -1.733
      -1.759
      -1.732
      -1.693
      -1.675
      -1.676
