Origin Time       17/9/2010 19:21:09	
Lat.              36.5 N	
Long.             70.8 E	
Depth (Km)        167.0
Magnitude         6.5
 Region           Hindukush                                                        
 Above details taken from IMD 
   
Station Code      SND
Station Lat.       31.517
Station Long.      76.883
Station Height(m)  931.0
Site Class        A   Vs30 between 700 m/sec to 1400 m/sec * 
Record Time       18.09.2010 00:51:34.584
Sampling Rate     200. Hz
 Record Duration   80.010 Sec.
 Direction         Vert. (Up positive)
Max. Acceleration     -1.300 cm/sec**2
     
  * For reference see Site Classification link of website 
     
 Base Line Corrected and Low Pass Filtered (Cut Off at 35 Hz) Time History
 Acceleration data in cm/sec**2
    
[...]
       0.024
       0.042
       0.064
       0.084
       0.101
       0.113
       0.120
       0.123
       0.125
       0.131
       0.145
       0.167
       0.191
       0.206
       0.203
       0.182
       0.151
       0.119
       0.088
       0.057
       0.025
      -0.004
      -0.023
      -0.029
      -0.030
      -0.035
      -0.043
      -0.047
      -0.041
      -0.034
      -0.037
      -0.061
      -0.096
      -0.122
      -0.122
      -0.093
      -0.048
      -0.005
       0.023
       0.032
       0.025
       0.009
      -0.013
      -0.033
      -0.050
      -0.063
      -0.075
      -0.092
      -0.114
      -0.141
      -0.173
      -0.209
      -0.250
      -0.295
      -0.336
      -0.364
      -0.372
      -0.360
      -0.330
      -0.288
      -0.238
      -0.181
      -0.123
      -0.066
      -0.014
       0.032
       0.076
       0.122
       0.172
       0.220
       0.259
       0.284
       0.302
       0.321
       0.344
       0.369
       0.385
       0.387
       0.376
       0.359
       0.344
       0.330
       0.310
       0.278
       0.235
       0.187
       0.141
       0.099
       0.058
       0.014
      -0.034
      -0.081
      -0.123
      -0.161
      -0.192
      -0.217
      -0.233
      -0.241
      -0.243
      -0.239
      -0.231
      -0.220
      -0.209
      -0.201
      -0.193
      -0.180
      -0.154
      -0.112
      -0.061
      -0.012
       0.025
       0.047
       0.058
       0.060
       0.054
       0.038
       0.016
      -0.003
      -0.013
      -0.016
      -0.019
      -0.032
      -0.056
      -0.086
      -0.115
      -0.138
      -0.154
      -0.160
      -0.155
      -0.139
      -0.116
      -0.095
      -0.082
      -0.079
      -0.077
      -0.065
      -0.036
       0.010
       0.061
       0.107
       0.143
       0.172
       0.196
       0.217
       0.233
       0.240
       0.240
       0.233
       0.216
       0.188
       0.148
       0.102
       0.060
       0.032
       0.019
       0.017
       0.017
       0.012
       0.005
       0.000
       0.003
       0.014
       0.031
       0.053
       0.083
       0.119
       0.156
       0.186
       0.209
       0.226
       0.241
       0.258
       0.272
       0.275
       0.258
       0.217
       0.158
       0.089
       0.019
      -0.046
      -0.107
      -0.169
      -0.237
      -0.313
      -0.392
      -0.464
      -0.518
      -0.552
      -0.572
      -0.581
      -0.579
      -0.561
      -0.525
      -0.473
      -0.414
      -0.359
      -0.307
      -0.252
      -0.186
      -0.112
      -0.043
       0.005
       0.031
       0.042
       0.051
       0.061
       0.062
       0.046
       0.012
      -0.024
      -0.046
      -0.047
      -0.030
      -0.003
       0.026
       0.057
       0.090
       0.126
       0.161
       0.193
       0.221
       0.242
       0.252
       0.246
       0.226
       0.196
       0.168
       0.149
       0.140
       0.135
       0.127
       0.113
       0.095
       0.073
       0.050
       0.026
       0.004
      -0.013
      -0.021
      -0.022
      -0.022
      -0.027
      -0.039
      -0.054
      -0.069
      -0.083
      -0.095
      -0.105
      -0.106
      -0.094
      -0.069
      -0.034
       0.003
       0.037
       0.067
       0.098
       0.131
       0.168
       0.203
       0.232
       0.250
       0.262
       0.273
       0.284
       0.293
       0.296
       0.291
       0.277
       0.255
       0.223
       0.184
       0.144
       0.114
       0.099
       0.095
       0.093
       0.086
       0.068
       0.046
       0.024
       0.005
      -0.009
      -0.016
      -0.008
       0.018
       0.058
       0.100
       0.130
       0.146
       0.151
       0.153
       0.155
       0.155
       0.147
       0.132
       0.111
       0.087
       0.062
       0.034
       0.004
      -0.027
      -0.060
      -0.093
      -0.126
      -0.153
      -0.166
      -0.160
      -0.135
      -0.101
      -0.070
      -0.048
      -0.035
      -0.025
      -0.016
      -0.006
       0.003
       0.011
       0.023
       0.036
       0.042
       0.035
       0.012
      -0.020
      -0.050
      -0.072
      -0.085
      -0.092
      -0.097
      -0.103
      -0.112
      -0.120
      -0.127
      -0.130
      -0.128
      -0.120
      -0.108
      -0.097
      -0.092
      -0.093
      -0.096
      -0.098
      -0.098
      -0.098
      -0.103
      -0.118
      -0.139
      -0.161
      -0.178
      -0.190
      -0.201
      -0.213
      -0.222
      -0.224
      -0.216
      -0.207
      -0.202
      -0.203
      -0.202
      -0.192
      -0.169
      -0.136
      -0.100
      -0.065
      -0.037
      -0.014
       0.001
       0.012
       0.023
       0.038
       0.059
       0.077
       0.083
       0.069
       0.039
       0.005
      -0.023
      -0.043
      -0.058
      -0.074
      -0.091
      -0.108
      -0.124
      -0.136
      -0.145
      -0.147
      -0.142
      -0.128
      -0.106
      -0.079
      -0.049
      -0.017
       0.018
       0.053
       0.083
       0.096
       0.089
       0.067
       0.043
       0.032
       0.037
       0.050
       0.060
       0.062
       0.055
       0.039
       0.014
      -0.021
      -0.065
      -0.115
      -0.167
      -0.220
      -0.273
      -0.323
      -0.370
      -0.410
      -0.446
      -0.483
      -0.521
      -0.554
      -0.569
      -0.559
      -0.522
      -0.467
      -0.403
      -0.336
      -0.262
      -0.174
      -0.072
       0.039
       0.146
       0.241
       0.322
       0.392
       0.451
       0.501
       0.542
       0.578
       0.613
       0.646
       0.675
       0.693
       0.696
       0.689
       0.675
       0.656
       0.627
       0.586
       0.533
       0.473
       0.412
       0.352
       0.292
       0.233
       0.173
       0.111
       0.046
      -0.023
      -0.094
      -0.163
      -0.221
      -0.265
      -0.297
      -0.324
      -0.349
      -0.372
      -0.385
      -0.386
      -0.377
      -0.365
      -0.353
      -0.341
      -0.324
      -0.300
      -0.269
      -0.231
      -0.184
      -0.129
      -0.068
      -0.011
       0.032
       0.059
       0.077
       0.102
       0.143
       0.202
       0.271
       0.339
       0.400
       0.454
       0.503
       0.545
       0.575
       0.591
       0.590
       0.573
       0.544
       0.507
       0.463
       0.410
       0.347
       0.277
       0.208
       0.143
       0.088
       0.041
       0.003
      -0.029
      -0.056
      -0.079
      -0.098
      -0.114
      -0.126
      -0.135
      -0.139
      -0.136
      -0.123
      -0.100
      -0.066
      -0.023
       0.027
       0.081
       0.136
       0.191
       0.245
       0.294
       0.330
       0.348
       0.347
       0.332
       0.307
       0.277
       0.239
       0.193
       0.138
       0.072
      -0.006
      -0.096
      -0.196
      -0.297
      -0.385
      -0.449
      -0.486
      -0.501
      -0.503
      -0.500
      -0.491
      -0.475
      -0.453
      -0.428
      -0.403
      -0.369
      -0.314
      -0.232
      -0.132
      -0.032
       0.052
       0.116
       0.164
       0.204
       0.239
       0.265
       0.277
       0.276
       0.262
       0.236
       0.200
       0.157
       0.113
       0.074
       0.044
       0.018
      -0.012
      -0.050
      -0.091
      -0.126
      -0.149
      -0.163
      -0.171
      -0.177
      -0.175
      -0.167
      -0.155
      -0.151
      -0.160
      -0.179
      -0.197
      -0.205
      -0.204
      -0.203
      -0.213
      -0.236
      -0.269
      -0.306
      -0.346
      -0.391
      -0.439
      -0.484
      -0.518
      -0.536
      -0.543
      -0.544
      -0.544
      -0.546
      -0.544
      -0.532
      -0.504
      -0.453
      -0.379
      -0.288
      -0.189
      -0.093
      -0.007
       0.068
       0.133
       0.190
       0.238
       0.268
       0.275
       0.254
       0.207
       0.142
       0.070
       0.003
      -0.047
      -0.075
      -0.083
      -0.081
      -0.081
      -0.089
      -0.099
      -0.099
      -0.077
      -0.030
       0.039
       0.120
       0.207
       0.296
       0.385
       0.474
       0.563
       0.650
       0.729
       0.793
       0.837
       0.858
       0.863
       0.851
       0.821
       0.772
       0.705
       0.627
       0.543
       0.451
       0.347
       0.237
       0.130
       0.041
      -0.026
      -0.078
      -0.127
      -0.181
      -0.239
      -0.288
      -0.309
      -0.292
      -0.242
      -0.180
      -0.131
      -0.107
      -0.101
      -0.098
      -0.082
      -0.054
      -0.025
      -0.013
      -0.023
      -0.052
      -0.091
      -0.133
      -0.178
      -0.230
      -0.288
      -0.346
      -0.398
      -0.436
      -0.461
      -0.474
      -0.481
      -0.485
      -0.491
      -0.501
      -0.520
      -0.542
      -0.560
      -0.562
      -0.543
      -0.505
      -0.458
      -0.414
      -0.385
      -0.376
      -0.383
      -0.395
      -0.395
      -0.372
      -0.326
      -0.267
      -0.210
      -0.166
      -0.137
      -0.121
      -0.109
      -0.098
      -0.084
      -0.062
      -0.028
       0.020
       0.077
       0.131
       0.175
       0.211
       0.249
       0.298
       0.360
       0.428
       0.488
       0.532
       0.564
       0.591
       0.619
       0.647
       0.672
       0.693
       0.709
       0.721
       0.728
       0.732
       0.732
       0.733
       0.734
       0.735
       0.728
       0.707
       0.669
       0.616
       0.550
       0.470
       0.378
       0.279
       0.187
       0.112
       0.055
       0.005
      -0.052
      -0.124
      -0.204
      -0.280
      -0.342
      -0.386
      -0.415
      -0.429
      -0.429
      -0.416
      -0.393
      -0.368
      -0.348
      -0.333
      -0.316
      -0.292
      -0.260
      -0.223
      -0.187
      -0.156
      -0.132
      -0.112
      -0.095
      -0.081
      -0.072
      -0.073
      -0.090
      -0.128
      -0.187
      -0.264
      -0.353
      -0.450
      -0.547
      -0.634
      -0.700
      -0.742
      -0.762
      -0.765
      -0.757
      -0.738
      -0.708
      -0.662
      -0.597
      -0.515
      -0.420
      -0.320
      -0.218
      -0.116
      -0.014
       0.082
       0.161
       0.211
       0.228
       0.214
       0.179
       0.132
       0.075
       0.011
      -0.058
      -0.126
      -0.191
      -0.250
      -0.302
      -0.346
      -0.381
      -0.402
      -0.407
      -0.394
      -0.369
      -0.335
      -0.291
      -0.232
      -0.155
      -0.060
       0.043
       0.142
       0.227
       0.288
       0.322
       0.331
       0.323
       0.308
       0.297
       0.293
       0.292
       0.287
       0.273
       0.253
       0.236
       0.233
       0.246
       0.269
       0.294
       0.317
       0.340
       0.365
       0.392
       0.418
       0.444
       0.474
       0.506
       0.534
       0.540
       0.513
       0.448
       0.357
       0.254
       0.151
       0.052
      -0.046
      -0.144
      -0.239
      -0.324
      -0.392
      -0.442
      -0.474
      -0.490
      -0.492
      -0.477
      -0.445
      -0.395
      -0.331
      -0.256
      -0.176
      -0.098
      -0.029
       0.022
       0.058
       0.087
       0.122
       0.170
       0.228
       0.289
       0.345
       0.387
       0.413
       0.419
       0.410
       0.396
       0.388
       0.390
       0.399
       0.407
       0.409
       0.405
       0.401
       0.400
       0.397
       0.386
       0.360
       0.324
       0.290
       0.263
       0.242
       0.218
       0.189
       0.161
       0.148
       0.154
       0.174
       0.198
       0.218
       0.237
       0.262
       0.301
       0.352
       0.408
       0.456
       0.487
       0.493
       0.472
       0.428
       0.369
       0.296
       0.207
       0.097
      -0.037
      -0.189
      -0.348
      -0.501
      -0.642
      -0.767
      -0.873
      -0.958
      -1.019
      -1.055
      -1.069
      -1.069
      -1.059
      -1.036
      -0.989
      -0.910
      -0.797
      -0.658
      -0.506
      -0.354
      -0.209
      -0.079
       0.025
       0.096
       0.133
       0.147
       0.147
       0.135
       0.106
       0.057
      -0.010
      -0.084
      -0.159
      -0.234
      -0.316
      -0.406
      -0.498
      -0.578
      -0.634
      -0.662
      -0.667
      -0.656
      -0.632
      -0.593
      -0.538
      -0.473
      -0.404
      -0.336
      -0.266
      -0.192
      -0.116
      -0.043
       0.020
       0.073
       0.122
       0.173
       0.232
       0.298
       0.368
       0.442
       0.521
       0.603
       0.685
       0.765
       0.845
       0.930
       1.022
       1.112
       1.185
       1.226
       1.232
       1.211
       1.175
       1.130
       1.076
       1.010
       0.935
       0.857
       0.779
       0.699
       0.614
       0.525
       0.440
       0.363
       0.292
       0.220
       0.143
       0.068
       0.006
      -0.036
      -0.066
      -0.101
      -0.157
      -0.245
      -0.361
      -0.498
      -0.645
      -0.788
      -0.916
      -1.019
      -1.093
      -1.145
      -1.187
      -1.230
      -1.272
      -1.300
      -1.298
      -1.259
      -1.189
      -1.104
      -1.015
      -0.927
      -0.838
      -0.748
      -0.659
      -0.576
      -0.502
      -0.436
      -0.379
      -0.330
      -0.291
      -0.258
      -0.223
      -0.181
      -0.137
      -0.101
      -0.086
      -0.094
      -0.116
      -0.138
      -0.150
      -0.147
      -0.126
      -0.088
      -0.032
       0.035
       0.107
       0.179
       0.252
       0.332
       0.429
       0.544
       0.672
       0.797
       0.906
       0.990
       1.054
       1.105
       1.148
       1.179
       1.186
       1.162
       1.106
       1.023
       0.924
       0.821
       0.727
       0.651
       0.595
       0.549
       0.503
       0.449
       0.389
       0.333
       0.290
       0.258
       0.231
       0.198
       0.158
       0.112
       0.064
       0.016
      -0.034
      -0.084
      -0.135
      -0.185
      -0.236
      -0.291
      -0.349
      -0.405
      -0.451
      -0.484
      -0.505
      -0.523
      -0.542
      -0.560
      -0.573
      -0.576
      -0.570
      -0.556
      -0.536
      -0.512
      -0.491
      -0.480
      -0.484
      -0.495
      -0.505
      -0.506
      -0.497
      -0.487
      -0.481
      -0.480
      -0.478
      -0.469
      -0.449
      -0.416
      -0.365
      -0.291
      -0.189
      -0.063
       0.078
       0.221
       0.361
       0.496
       0.623
       0.735
       0.824
       0.884
       0.915
       0.919
       0.903
       0.869
       0.820
       0.759
       0.691
       0.622
       0.552
       0.475
       0.386
       0.288
       0.190
       0.103
       0.028
      -0.037
      -0.098
      -0.150
      -0.190
      -0.213
      -0.224
      -0.227
      -0.229
      -0.231
      -0.227
      -0.212
      -0.184
      -0.143
      -0.094
      -0.043
       0.006
       0.050
       0.085
       0.107
       0.109
       0.091
       0.060
       0.029
       0.008
      -0.007
      -0.034
      -0.093
      -0.183
      -0.279
      -0.353
      -0.401
      -0.449
      -0.518
      -0.598
      -0.654
      -0.658
      -0.607
      -0.519
      -0.411
      -0.293
      -0.172
      -0.055
       0.059
       0.184
       0.332
       0.491
       0.632
       0.727
       0.778
       0.809
       0.839
       0.867
       0.873
       0.842
       0.777
       0.690
       0.593
       0.490
       0.377
       0.248
       0.103
      -0.049
      -0.204
      -0.361
      -0.519
      -0.672
      -0.806
      -0.906
      -0.971
      -1.008
      -1.018
      -0.995
      -0.930
      -0.828
      -0.710
      -0.602
      -0.522
      -0.466
      -0.418
      -0.361
      -0.286
      -0.198
      -0.109
      -0.027
       0.045
       0.110
       0.169
       0.226
       0.287
       0.357
       0.431
       0.497
       0.539
       0.556
       0.560
       0.563
       0.570
       0.572
       0.559
       0.529
       0.489
       0.441
       0.377
       0.285
       0.167
       0.053
      -0.020
      -0.035
      -0.013
       0.008
      -0.003
      -0.046
      -0.096
      -0.128
      -0.128
      -0.098
      -0.049
       0.004
       0.042
       0.046
       0.015
      -0.040
      -0.102
      -0.169
      -0.245
      -0.340
      -0.449
      -0.557
      -0.653
      -0.734
      -0.805
      -0.872
      -0.933
      -0.980
      -1.008
      -1.012
      -0.998
      -0.971
      -0.937
      -0.901
      -0.865
      -0.827
      -0.783
      -0.721
      -0.633
      -0.515
      -0.373
      -0.224
      -0.087
       0.022
       0.096
       0.139
       0.162
       0.177
       0.197
       0.226
       0.264
       0.304
       0.335
       0.345
       0.326
       0.286
       0.240
       0.203
       0.188
       0.198
       0.232
       0.289
       0.363
       0.448
       0.532
       0.603
       0.659
       0.704
       0.744
       0.786
       0.827
       0.858
       0.876
       0.880
       0.876
       0.870
       0.862
       0.849
       0.826
       0.791
       0.744
       0.688
       0.626
       0.565
       0.512
       0.473
       0.444
       0.418
       0.381
       0.329
       0.266
       0.202
       0.149
       0.109
       0.080
       0.059
       0.039
       0.014
      -0.023
      -0.078
      -0.147
      -0.216
      -0.267
      -0.293
      -0.301
      -0.307
      -0.328
      -0.369
      -0.422
      -0.476
      -0.519
      -0.548
      -0.558
      -0.548
      -0.514
      -0.464
      -0.409
      -0.362
      -0.327
      -0.303
      -0.281
      -0.257
      -0.227
      -0.193
      -0.155
      -0.116
      -0.075
      -0.033
       0.003
       0.027
       0.038
       0.035
       0.025
       0.011
      -0.003
      -0.014
      -0.021
      -0.024
      -0.027
      -0.037
      -0.057
      -0.083
      -0.110
      -0.133
      -0.152
      -0.166
      -0.168
      -0.155
      -0.128
      -0.102
      -0.093
      -0.113
      -0.156
      -0.208
      -0.253
      -0.286
      -0.309
      -0.328
      -0.342
      -0.347
      -0.338
      -0.311
      -0.274
      -0.235
      -0.205
      -0.186
      -0.174
      -0.160
      -0.144
      -0.130
      -0.125
      -0.138
      -0.169
      -0.212
      -0.255
      -0.283
      -0.285
      -0.259
      -0.219
      -0.184
      -0.162
      -0.153
      -0.142
      -0.121
      -0.087
      -0.041
       0.016
       0.086
       0.170
       0.259
       0.336
       0.387
       0.408
       0.406
       0.394
       0.379
       0.360
       0.330
       0.281
       0.217
       0.147
       0.080
       0.023
      -0.022
      -0.052
      -0.066
      -0.068
      -0.063
      -0.052
      -0.026
