Origin Time       26/10/2011 16:17:32
Lat.              31.5 N 
Long.             76.8 E 
Depth (Km)          5.0
Magnitude         3.5
 Region           MANDI-HIMACHAL-PRADESH                                           
 Above details taken from IMD 
     
Station Code      SND
Station Lat.       31.517  N
Station Long.      76.883  E
Station Height(m)  931.0
Site Class        A   Vs30 between 700 m/sec to 1400 m/sec * 
Record Time       26.10.2011 16:17:04.714
Sampling Rate     200. Hz
 Record Duration   83.840 Sec.
 Direction         E-W (E positive)
Max. Acceleration     13.623 cm/sec**2
     
  * For reference see Site Classification link of website 
     
 Base Line Corrected and Low Pass Filtered (Cut Off at 35 Hz) Time History
 Acceleration data in cm/sec**2
    
[...]
      -0.008
      -0.023
      -0.020
       0.003
       0.028
       0.034
       0.016
      -0.010
      -0.023
      -0.015
       0.003
       0.009
      -0.003
      -0.018
      -0.020
      -0.002
       0.019
       0.023
       0.005
      -0.019
      -0.025
      -0.007
       0.019
       0.029
       0.014
      -0.010
      -0.022
      -0.011
       0.012
       0.026
       0.020
       0.003
      -0.009
      -0.005
       0.009
       0.016
       0.006
      -0.013
      -0.026
      -0.018
       0.004
       0.022
       0.022
       0.007
      -0.008
      -0.008
       0.005
       0.014
       0.005
      -0.015
      -0.027
      -0.018
       0.006
       0.024
       0.022
       0.005
      -0.007
      -0.001
       0.019
       0.033
       0.027
       0.005
      -0.014
      -0.013
       0.006
       0.023
       0.020
       0.000
      -0.018
      -0.016
       0.004
       0.022
       0.019
      -0.003
      -0.025
      -0.026
      -0.003
       0.024
       0.034
       0.021
       0.000
      -0.012
      -0.006
       0.008
       0.014
       0.005
      -0.011
      -0.019
      -0.008
       0.013
       0.024
       0.017
       0.000
      -0.009
       0.001
       0.019
       0.027
       0.011
      -0.019
      -0.037
      -0.028
      -0.001
       0.021
       0.018
      -0.005
      -0.028
      -0.031
      -0.013
       0.007
       0.011
      -0.005
      -0.020
      -0.018
       0.002
       0.022
       0.022
       0.006
      -0.010
      -0.008
       0.008
       0.021
       0.014
      -0.009
      -0.028
      -0.025
       0.000
       0.026
       0.032
       0.015
      -0.007
      -0.014
      -0.001
       0.017
       0.020
       0.001
      -0.022
      -0.025
      -0.004
       0.025
       0.038
       0.025
      -0.001
      -0.015
      -0.008
       0.012
       0.023
       0.013
      -0.008
      -0.017
      -0.006
       0.014
       0.022
       0.008
      -0.016
      -0.029
      -0.017
       0.008
       0.025
       0.017
      -0.006
      -0.019
      -0.010
       0.012
       0.026
       0.019
      -0.002
      -0.019
      -0.019
      -0.005
       0.006
       0.000
      -0.017
      -0.027
      -0.016
       0.009
       0.028
       0.027
       0.010
      -0.006
      -0.007
       0.004
       0.012
       0.003
      -0.018
      -0.031
      -0.024
       0.000
       0.022
       0.025
       0.010
      -0.008
      -0.011
       0.003
       0.019
       0.019
       0.002
      -0.016
      -0.017
       0.002
       0.023
       0.027
       0.010
      -0.012
      -0.017
       0.000
       0.023
       0.028
       0.009
      -0.017
      -0.026
      -0.010
       0.018
       0.034
       0.025
       0.003
      -0.010
       0.001
       0.024
       0.037
       0.025
      -0.001
      -0.017
      -0.010
       0.012
       0.029
       0.027
       0.010
      -0.002
       0.005
       0.022
       0.029
       0.015
      -0.008
      -0.018
      -0.002
       0.027
       0.047
       0.040
       0.014
      -0.008
      -0.009
       0.009
       0.024
       0.019
      -0.003
      -0.022
      -0.021
      -0.001
       0.021
       0.026
       0.012
      -0.005
      -0.007
       0.010
       0.028
       0.028
       0.008
      -0.013
      -0.015
       0.005
       0.028
       0.030
       0.010
      -0.014
      -0.017
       0.007
       0.035
       0.043
       0.023
      -0.005
      -0.015
       0.000
       0.025
       0.035
       0.019
      -0.009
      -0.024
      -0.013
       0.009
       0.020
       0.008
      -0.012
      -0.019
      -0.002
       0.026
       0.042
       0.034
       0.011
      -0.006
      -0.003
       0.014
       0.025
       0.017
      -0.005
      -0.018
      -0.008
       0.020
       0.043
       0.039
       0.014
      -0.009
      -0.009
       0.012
       0.032
       0.028
       0.003
      -0.019
      -0.016
       0.011
       0.037
       0.037
       0.011
      -0.017
      -0.022
      -0.001
       0.025
       0.032
       0.014
      -0.009
      -0.013
       0.006
       0.032
       0.041
       0.024
      -0.001
      -0.010
       0.004
       0.025
       0.032
       0.017
      -0.004
      -0.011
       0.005
       0.029
       0.040
       0.027
       0.004
      -0.009
      -0.003
       0.012
       0.019
       0.010
      -0.007
      -0.014
      -0.003
       0.018
       0.031
       0.027
       0.010
      -0.002
      -0.001
       0.009
       0.015
       0.006
      -0.013
      -0.025
      -0.017
       0.006
       0.025
       0.023
       0.004
      -0.012
      -0.010
       0.012
       0.031
       0.030
       0.009
      -0.012
      -0.014
       0.005
       0.025
       0.026
       0.006
      -0.016
      -0.019
       0.000
       0.022
       0.026
       0.008
      -0.014
      -0.017
       0.001
       0.024
       0.030
       0.015
      -0.004
      -0.009
       0.005
       0.021
       0.021
       0.000
      -0.023
      -0.027
      -0.007
       0.020
       0.032
       0.021
      -0.001
      -0.013
      -0.006
       0.010
       0.016
       0.001
      -0.021
      -0.030
      -0.015
       0.011
       0.025
       0.015
      -0.010
      -0.028
      -0.024
      -0.003
       0.014
       0.010
      -0.008
      -0.021
      -0.013
       0.009
       0.024
       0.019
      -0.002
      -0.020
      -0.017
       0.004
       0.022
       0.020
      -0.001
      -0.020
      -0.017
       0.007
       0.031
       0.035
       0.017
      -0.006
      -0.014
      -0.002
       0.016
       0.021
       0.009
      -0.006
      -0.006
       0.013
       0.032
       0.032
       0.010
      -0.017
      -0.027
      -0.014
       0.010
       0.019
       0.007
      -0.014
      -0.023
      -0.011
       0.012
       0.025
       0.017
      -0.003
      -0.015
      -0.006
       0.015
       0.027
       0.019
       0.000
      -0.009
       0.003
       0.025
       0.036
       0.025
       0.003
      -0.009
       0.001
       0.025
       0.039
       0.030
       0.005
      -0.012
      -0.006
       0.016
       0.034
       0.032
       0.010
      -0.010
      -0.012
       0.005
       0.022
       0.021
       0.003
      -0.016
      -0.017
       0.002
       0.022
       0.026
       0.010
      -0.011
      -0.017
      -0.005
       0.010
       0.011
      -0.003
      -0.017
      -0.016
       0.003
       0.025
       0.029
       0.012
      -0.012
      -0.022
      -0.011
       0.007
       0.014
       0.003
      -0.012
      -0.015
      -0.001
       0.019
       0.028
       0.019
       0.003
      -0.004
       0.004
       0.017
       0.020
       0.007
      -0.010
      -0.014
       0.001
       0.023
       0.032
       0.019
      -0.003
      -0.014
      -0.004
       0.017
       0.028
       0.018
      -0.004
      -0.019
      -0.012
       0.010
       0.028
       0.024
       0.003
      -0.016
      -0.015
       0.006
       0.025
       0.025
       0.005
      -0.014
      -0.012
       0.011
       0.034
       0.037
       0.018
      -0.004
      -0.009
       0.005
       0.021
       0.020
       0.005
      -0.011
      -0.009
       0.011
       0.031
       0.033
       0.016
      -0.003
      -0.008
       0.006
       0.023
       0.025
       0.009
      -0.010
      -0.014
       0.004
       0.029
       0.038
       0.023
      -0.003
      -0.018
      -0.011
       0.007
       0.017
       0.009
      -0.008
      -0.016
      -0.003
       0.021
       0.036
       0.030
       0.010
      -0.005
      -0.001
       0.014
       0.022
       0.009
      -0.017
      -0.034
      -0.024
       0.007
       0.034
       0.037
       0.016
      -0.009
      -0.015
      -0.001
       0.018
       0.021
       0.005
      -0.014
      -0.017
      -0.001
       0.018
       0.022
       0.010
      -0.004
      -0.004
       0.007
       0.018
       0.012
      -0.008
      -0.026
      -0.023
       0.000
       0.023
       0.027
       0.011
      -0.008
      -0.010
       0.007
       0.028
       0.033
       0.017
      -0.006
      -0.013
       0.000
       0.018
       0.019
      -0.002
      -0.028
      -0.038
      -0.027
      -0.011
      -0.013
      -0.040
      -0.069
      -0.070
      -0.036
       0.003
       0.007
      -0.041
      -0.120
      -0.183
      -0.206
      -0.201
      -0.208
      -0.249
      -0.301
      -0.315
      -0.266
      -0.179
      -0.108
      -0.078
      -0.059
      -0.001
       0.106
       0.200
       0.207
       0.119
       0.019
       0.008
       0.106
       0.248
       0.353
       0.414
       0.490
       0.639
       0.844
       1.030
       1.120
       1.101
       1.023
       0.953
       0.906
       0.833
       0.684
       0.488
       0.352
       0.352
       0.413
       0.356
       0.076
      -0.348
      -0.760
      -1.144
      -1.644
      -2.315
      -2.923
      -3.076
      -2.630
      -1.881
      -1.319
      -1.172
      -1.233
      -1.127
      -0.704
      -0.167
       0.135
       0.013
      -0.433
      -0.909
      -1.135
      -1.004
      -0.597
      -0.074
       0.462
       1.030
       1.712
       2.519
       3.327
       3.966
       4.346
       4.483
       4.377
       3.947
       3.134
       2.056
       0.985
       0.130
      -0.522
      -1.101
      -1.605
      -1.841
      -1.666
      -1.249
      -1.016
      -1.244
      -1.746
      -1.990
      -1.614
      -0.795
      -0.112
       0.004
      -0.346
      -0.677
      -0.636
      -0.355
      -0.309
      -0.847
      -1.857
      -2.854
      -3.359
      -3.214
      -2.615
      -1.892
      -1.254
      -0.669
       0.037
       0.972
       2.013
       2.858
       3.266
       3.262
       3.103
       3.012
       2.948
       2.653
       1.947
       0.975
       0.129
      -0.282
      -0.303
      -0.270
      -0.467
      -0.874
      -1.225
      -1.307
      -1.186
      -1.136
      -1.376
      -1.858
      -2.312
      -2.459
      -2.196
      -1.615
      -0.887
      -0.133
       0.594
       1.232
       1.655
       1.722
       1.408
       0.880
       0.410
       0.205
       0.302
       0.632
       1.148
       1.873
       2.774
       3.616
       3.975
       3.496
       2.181
       0.440
      -1.179
      -2.340
      -3.044
      -3.462
      -3.697
      -3.709
      -3.438
      -2.948
      -2.434
      -2.088
      -1.948
      -1.854
      -1.557
      -0.933
      -0.120
       0.557
       0.853
       0.826
       0.782
       0.985
       1.411
       1.817
       2.027
       2.115
       2.253
       2.420
       2.355
       1.868
       1.158
       0.733
       0.968
       1.729
       2.463
       2.655
       2.199
       1.382
       0.578
      -0.035
      -0.506
      -0.980
      -1.546
      -2.199
      -2.868
      -3.462
      -3.903
      -4.150
      -4.188
      -3.988
      -3.482
      -2.621
      -1.480
      -0.289
       0.694
       1.371
       1.843
       2.236
       2.491
       2.372
       1.719
       0.687
      -0.295
      -0.834
      -0.843
      -0.513
      -0.048
       0.523
       1.267
       2.119
       2.791
       2.957
       2.540
       1.821
       1.241
       1.046
       1.082
       0.936
       0.326
      -0.602
      -1.339
      -1.413
      -0.799
       0.038
       0.503
       0.324
      -0.295
      -0.936
      -1.349
      -1.598
      -1.854
      -2.090
      -2.012
      -1.337
      -0.157
       0.996
       1.490
       1.077
       0.095
      -0.800
      -1.139
      -0.951
      -0.654
      -0.655
      -1.007
      -1.401
      -1.439
      -0.970
      -0.190
       0.548
       1.047
       1.419
       1.937
       2.720
       3.529
       3.871
       3.320
       1.843
      -0.133
      -1.945
      -3.083
      -3.437
      -3.271
      -2.953
      -2.690
      -2.460
      -2.135
      -1.669
      -1.162
      -0.769
      -0.541
      -0.345
       0.079
       0.920
       2.114
       3.313
       4.064
       4.107
       3.548
       2.771
       2.150
       1.827
       1.750
       1.863
       2.215
       2.833
       3.538
       3.948
       3.722
       2.843
       1.656
       0.599
      -0.114
      -0.616
      -1.190
      -1.977
      -2.845
      -3.539
      -3.956
      -4.282
      -4.857
      -5.866
      -7.135
      -8.185
      -8.532
      -7.958
      -6.571
      -4.634
      -2.378
       0.016
       2.285
       4.002
       4.694
       4.133
       2.533
       0.490
      -1.344
      -2.597
      -3.276
      -3.580
      -3.612
      -3.248
      -2.238
      -0.457
       1.956
       4.641
       7.202
       9.351
      10.913
      11.752
      11.736
      10.766
       8.875
       6.287
       3.416
       0.777
      -1.165
      -2.183
      -2.398
      -2.233
      -2.171
      -2.499
      -3.200
      -4.045
      -4.761
      -5.131
      -5.036
      -4.505
      -3.781
      -3.290
      -3.434
      -4.329
      -5.697
      -7.027
      -7.872
      -8.026
      -7.492
      -6.324
      -4.548
      -2.212
       0.530
       3.421
       6.177
       8.576
      10.488
      11.878
      12.799
      13.357
      13.623
      13.524
      12.813
      11.174
       8.425
       4.692
       0.441
      -3.662
      -6.989
      -9.157
     -10.102
     -10.011
      -9.172
      -7.843
      -6.204
      -4.386
      -2.523
      -0.789
       0.599
       1.453
       1.699
       1.436
       0.908
       0.375
      -0.028
      -0.360
      -0.800
      -1.489
      -2.401
      -3.352
      -4.112
      -4.525
      -4.546
      -4.216
      -3.634
      -2.934
      -2.266
      -1.741
      -1.391
      -1.173
      -1.015
      -0.852
      -0.627
      -0.295
       0.132
       0.524
       0.657
       0.344
      -0.382
      -1.205
      -1.647
      -1.327
      -0.160
       1.622
       3.613
       5.406
       6.704
       7.370
       7.436
       7.070
       6.502
       5.938
       5.498
       5.188
       4.896
       4.393
       3.406
       1.760
      -0.487
      -3.016
      -5.365
      -7.125
      -8.081
      -8.245
      -7.783
      -6.924
      -5.879
      -4.774
      -3.625
      -2.374
      -0.986
       0.444
       1.659
       2.318
       2.168
       1.201
      -0.295
      -1.838
      -2.956
      -3.364
      -3.028
      -2.123
      -0.931
       0.267
       1.289
       2.090
       2.749
       3.391
       4.100
       4.870
       5.611
       6.215
       6.601
       6.727
       6.572
       6.130
       5.409
       4.432
       3.244
       1.919
       0.581
      -0.612
      -1.521
      -2.078
      -2.286
      -2.189
      -1.847
      -1.349
      -0.824
      -0.422
      -0.267
      -0.421
      -0.886
      -1.625
      -2.577
      -3.647
      -4.698
      -5.574
      -6.134
      -6.286
      -6.011
      -5.382
      -4.578
      -3.828
      -3.293
      -2.955
      -2.620
      -2.058
      -1.170
      -0.038
       1.148
       2.231
       3.153
       3.932
       4.580
       5.046
       5.249
       5.145
       4.781
       4.280
       3.790
       3.425
       3.205
       3.028
       2.693
       2.008
       0.913
      -0.463
      -1.840
      -2.927
      -3.534
      -3.637
      -3.356
      -2.913
      -2.555
      -2.482
      -2.759
      -3.302
      -3.939
      -4.510
      -4.922
      -5.111
      -4.992
      -4.458
      -3.461
      -2.090
      -0.559
       0.902
       2.160
       3.191
       4.011
       4.580
       4.798
       4.589
       3.990
       3.157
       2.299
       1.580
       1.093
       0.883
       0.965
       1.317
       1.857
       2.451
       2.955
       3.263
       3.315
       3.113
       2.724
       2.273
       1.901
       1.700
       1.669
       1.712
       1.690
       1.496
       1.103
       0.570
      -0.002
      -0.529
      -0.997
      -1.468
      -2.030
      -2.736
      -3.570
      -4.468
      -5.348
      -6.112
      -6.623
      -6.702
      -6.207
      -5.135
      -3.681
      -2.157
      -0.851
       0.090
       0.673
       1.002
       1.216
       1.459
       1.847
       2.414
       3.063
       3.588
       3.787
       3.597
       3.137
       2.620
       2.220
       1.983
       1.846
       1.710
       1.508
       1.229
       0.895
       0.532
       0.163
      -0.188
      -0.488
      -0.698
      -0.805
      -0.856
      -0.951
      -1.185
      -1.576
      -2.023
      -2.350
      -2.399
      -2.110
      -1.550
      -0.862
      -0.190
       0.378
       0.811
       1.090
       1.180
       1.042
       0.680
       0.172
      -0.355
      -0.794
      -1.124
      -1.424
      -1.812
      -2.363
      -3.052
      -3.763
      -4.345
      -4.659
      -4.608
      -4.153
      -3.334
      -2.272
      -1.145
      -0.121
       0.703
       1.323
       1.790
       2.149
       2.407
       2.550
       2.594
       2.610
       2.692
       2.903
       3.233
       3.602
       3.922
       4.147
       4.280
       4.337
       4.308
       4.161
       3.884
       3.512
       3.117
       2.759
       2.451
       2.144
       1.767
       1.269
       0.646
      -0.067
      -0.835
      -1.630
      -2.422
      -3.155
      -3.754
      -4.150
      -4.315
      -4.265
      -4.025
      -3.598
      -2.976
      -2.180
      -1.305
      -0.488
       0.148
       0.554
       0.754
       0.826
       0.854
       0.890
       0.936
       0.937
       0.817
       0.508
      -0.017
      -0.734
      -1.569
      -2.405
      -3.098
      -3.501
      -3.512
      -3.136
      -2.502
      -1.820
      -1.284
      -0.982
      -0.868
      -0.806
      -0.658
      -0.357
       0.078
       0.571
       1.041
       1.425
       1.689
       1.833
       1.905
       1.987
       2.147
       2.381
       2.603
       2.703
       2.632
       2.444
       2.249
       2.131
       2.097
       2.085
       2.022
       1.864
       1.589
       1.174
       0.607
      -0.082
      -0.790
      -1.378
      -1.741
      -1.886
      -1.923
      -1.990
      -2.168
      -2.448
      -2.763
      -3.039
      -3.220
      -3.257
      -3.097
      -2.703
      -2.103
      -1.413
      -0.801
      -0.394
      -0.210
      -0.166
      -0.139
      -0.034
       0.190
       0.534
       0.970
       1.436
       1.837
       2.072
       2.077
       1.860
       1.491
       1.058
       0.626
       0.228
      -0.110
      -0.348
      -0.436
      -0.340
      -0.066
       0.335
       0.785
       1.204
       1.530
       1.741
       1.850
       1.902
       1.948
       2.012
       2.072
       2.071
       1.952
       1.703
       1.359
       0.985
       0.632
       0.326
       0.053
      -0.222
      -0.545
      -0.944
      -1.403
      -1.859
      -2.224
      -2.433
      -2.469
      -2.359
      -2.142
