Origin Time       04/04/2011 11:31:40
Lat.              29.6 N	
Long.             80.8 E	
Depth (Km)         10.0
Magnitude         5.7
 Region           NEPAL-INDIA-BORDER-REGION                                        
 Above details taken from IMD 
     
Station Code      SND
Station Lat.       31.517  N
Station Long.      76.883  E
Station Height(m)  931.0
Site Class        A   Vs30 between 700 m/sec to 1400 m/sec * 
Record Time       04.04.2011 11:33:16.729
Sampling Rate     200. Hz
 Record Duration   80.035 Sec.
 Direction         E-W (E positive)
Max. Acceleration     -2.363 cm/sec**2
     
  * For reference see Site Classification link of website 
     
 Base Line Corrected and Low Pass Filtered (Cut Off at 35 Hz) Time History
 Acceleration data in cm/sec**2
    
[...]
       0.354
       0.248
       0.158
       0.092
       0.036
      -0.040
      -0.146
      -0.268
      -0.375
      -0.453
      -0.511
      -0.574
      -0.655
      -0.741
      -0.806
      -0.831
      -0.823
      -0.806
      -0.796
      -0.786
      -0.752
      -0.677
      -0.571
      -0.465
      -0.380
      -0.317
      -0.252
      -0.165
      -0.054
       0.057
       0.143
       0.195
       0.229
       0.272
       0.333
       0.396
       0.434
       0.436
       0.419
       0.404
       0.403
       0.404
       0.388
       0.351
       0.308
       0.278
       0.264
       0.248
       0.211
       0.146
       0.071
       0.006
      -0.039
      -0.071
      -0.109
      -0.156
      -0.204
      -0.234
      -0.236
      -0.216
      -0.193
      -0.183
      -0.189
      -0.205
      -0.221
      -0.235
      -0.253
      -0.280
      -0.313
      -0.341
      -0.351
      -0.347
      -0.346
      -0.360
      -0.386
      -0.405
      -0.401
      -0.374
      -0.343
      -0.324
      -0.320
      -0.309
      -0.267
      -0.193
      -0.104
      -0.029
       0.022
       0.061
       0.112
       0.184
       0.265
       0.330
       0.365
       0.380
       0.401
       0.446
       0.506
       0.559
       0.586
       0.589
       0.586
       0.592
       0.607
       0.614
       0.599
       0.562
       0.518
       0.483
       0.453
       0.411
       0.339
       0.234
       0.114
       0.002
      -0.095
      -0.188
      -0.293
      -0.409
      -0.520
      -0.604
      -0.657
      -0.694
      -0.735
      -0.784
      -0.820
      -0.820
      -0.777
      -0.709
      -0.641
      -0.578
      -0.507
      -0.410
      -0.282
      -0.138
       0.000
       0.118
       0.220
       0.322
       0.437
       0.560
       0.670
       0.746
       0.794
       0.836
       0.892
       0.961
       1.019
       1.048
       1.051
       1.051
       1.062
       1.076
       1.063
       1.004
       0.904
       0.791
       0.686
       0.588
       0.478
       0.335
       0.164
      -0.011
      -0.163
      -0.289
      -0.402
      -0.521
      -0.647
      -0.757
      -0.830
      -0.862
      -0.869
      -0.874
      -0.883
      -0.879
      -0.841
      -0.764
      -0.666
      -0.571
      -0.487
      -0.403
      -0.301
      -0.182
      -0.064
       0.025
       0.074
       0.097
       0.118
       0.146
       0.166
       0.154
       0.099
       0.015
      -0.066
      -0.123
      -0.159
      -0.194
      -0.246
      -0.314
      -0.380
      -0.430
      -0.462
      -0.492
      -0.541
      -0.610
      -0.685
      -0.744
      -0.784
      -0.820
      -0.873
      -0.942
      -1.009
      -1.050
      -1.061
      -1.061
      -1.076
      -1.113
      -1.153
      -1.174
      -1.168
      -1.150
      -1.144
      -1.153
      -1.162
      -1.146
      -1.096
      -1.022
      -0.944
      -0.871
      -0.791
      -0.689
      -0.557
      -0.406
      -0.256
      -0.124
      -0.010
       0.095
       0.203
       0.316
       0.430
       0.538
       0.640
       0.748
       0.869
       1.002
       1.134
       1.251
       1.353
       1.451
       1.557
       1.671
       1.776
       1.853
       1.900
       1.935
       1.985
       2.055
       2.121
       2.155
       2.147
       2.113
       2.080
       2.059
       2.037
       1.986
       1.892
       1.767
       1.634
       1.512
       1.391
       1.250
       1.080
       0.891
       0.707
       0.544
       0.392
       0.232
       0.054
      -0.125
      -0.280
      -0.401
      -0.503
      -0.610
      -0.734
      -0.860
      -0.962
      -1.028
      -1.065
      -1.097
      -1.138
      -1.183
      -1.211
      -1.205
      -1.167
      -1.117
      -1.076
      -1.046
      -1.012
      -0.958
      -0.886
      -0.815
      -0.763
      -0.729
      -0.691
      -0.629
      -0.542
      -0.455
      -0.388
      -0.342
      -0.294
      -0.219
      -0.112
       0.006
       0.108
       0.184
       0.247
       0.319
       0.413
       0.516
       0.604
       0.664
       0.702
       0.742
       0.799
       0.862
       0.904
       0.907
       0.881
       0.852
       0.843
       0.849
       0.848
       0.815
       0.749
       0.668
       0.589
       0.515
       0.434
       0.334
       0.216
       0.098
      -0.004
      -0.086
      -0.162
      -0.248
      -0.346
      -0.438
      -0.504
      -0.541
      -0.568
      -0.605
      -0.656
      -0.702
      -0.720
      -0.703
      -0.672
      -0.652
      -0.656
      -0.671
      -0.676
      -0.663
      -0.641
      -0.626
      -0.626
      -0.632
      -0.628
      -0.607
      -0.582
      -0.573
      -0.594
      -0.633
      -0.671
      -0.692
      -0.700
      -0.717
      -0.756
      -0.814
      -0.874
      -0.920
      -0.955
      -0.994
      -1.053
      -1.130
      -1.207
      -1.265
      -1.301
      -1.325
      -1.350
      -1.378
      -1.391
      -1.372
      -1.314
      -1.231
      -1.140
      -1.047
      -0.939
      -0.798
      -0.619
      -0.418
      -0.218
      -0.033
       0.144
       0.329
       0.522
       0.708
       0.861
       0.972
       1.049
       1.107
       1.153
       1.179
       1.170
       1.123
       1.052
       0.980
       0.919
       0.864
       0.795
       0.703
       0.598
       0.501
       0.431
       0.385
       0.345
       0.295
       0.236
       0.186
       0.160
       0.154
       0.145
       0.112
       0.054
      -0.009
      -0.052
      -0.065
      -0.061
      -0.062
      -0.077
      -0.095
      -0.096
      -0.076
      -0.049
      -0.039
      -0.052
      -0.073
      -0.079
      -0.066
      -0.049
      -0.050
      -0.075
      -0.106
      -0.122
      -0.118
      -0.108
      -0.113
      -0.138
      -0.166
      -0.178
      -0.164
      -0.137
      -0.119
      -0.121
      -0.130
      -0.124
      -0.092
      -0.047
      -0.015
      -0.010
      -0.024
      -0.030
      -0.012
       0.030
       0.075
       0.111
       0.140
       0.183
       0.258
       0.361
       0.469
       0.558
       0.620
       0.666
       0.716
       0.772
       0.816
       0.826
       0.799
       0.759
       0.736
       0.736
       0.737
       0.710
       0.646
       0.564
       0.502
       0.479
       0.480
       0.477
       0.449
       0.407
       0.378
       0.379
       0.402
       0.424
       0.423
       0.407
       0.401
       0.425
       0.478
       0.536
       0.576
       0.597
       0.616
       0.648
       0.690
       0.723
       0.729
       0.711
       0.685
       0.665
       0.648
       0.617
       0.556
       0.472
       0.384
       0.312
       0.254
       0.190
       0.101
      -0.014
      -0.139
      -0.251
      -0.340
      -0.418
      -0.502
      -0.599
      -0.698
      -0.776
      -0.821
      -0.844
      -0.863
      -0.893
      -0.929
      -0.951
      -0.946
      -0.920
      -0.890
      -0.872
      -0.859
      -0.830
      -0.771
      -0.688
      -0.602
      -0.531
      -0.473
      -0.408
      -0.322
      -0.223
      -0.133
      -0.066
      -0.019
       0.029
       0.090
       0.156
       0.206
       0.224
       0.213
       0.190
       0.169
       0.152
       0.120
       0.059
      -0.026
      -0.111
      -0.170
      -0.201
      -0.224
      -0.265
      -0.326
      -0.384
      -0.413
      -0.407
      -0.386
      -0.373
      -0.376
      -0.375
      -0.347
      -0.283
      -0.197
      -0.109
      -0.031
       0.047
       0.140
       0.255
       0.377
       0.484
       0.560
       0.616
       0.673
       0.749
       0.834
       0.907
       0.948
       0.958
       0.955
       0.956
       0.962
       0.957
       0.926
       0.868
       0.801
       0.746
       0.707
       0.673
       0.623
       0.550
       0.463
       0.381
       0.313
       0.250
       0.174
       0.080
      -0.020
      -0.106
      -0.166
      -0.210
      -0.255
      -0.311
      -0.372
      -0.421
      -0.452
      -0.475
      -0.511
      -0.567
      -0.630
      -0.677
      -0.692
      -0.684
      -0.677
      -0.688
      -0.716
      -0.738
      -0.735
      -0.711
      -0.691
      -0.693
      -0.711
      -0.722
      -0.706
      -0.667
      -0.626
      -0.600
      -0.585
      -0.561
      -0.511
      -0.438
      -0.363
      -0.306
      -0.268
      -0.233
      -0.183
      -0.122
      -0.066
      -0.033
      -0.019
      -0.004
       0.036
       0.101
       0.168
       0.211
       0.223
       0.223
       0.232
       0.259
       0.288
       0.294
       0.268
       0.222
       0.180
       0.154
       0.135
       0.102
       0.042
      -0.033
      -0.098
      -0.140
      -0.168
      -0.203
      -0.258
      -0.324
      -0.383
      -0.424
      -0.451
      -0.484
      -0.534
      -0.593
      -0.640
      -0.658
      -0.651
      -0.638
      -0.640
      -0.659
      -0.675
      -0.668
      -0.630
      -0.574
      -0.518
      -0.469
      -0.415
      -0.340
      -0.242
      -0.136
      -0.040
       0.040
       0.119
       0.214
       0.332
       0.455
       0.559
       0.632
       0.681
       0.729
       0.794
       0.870
       0.937
       0.979
       0.998
       1.016
       1.052
       1.098
       1.132
       1.135
       1.111
       1.082
       1.063
       1.048
       1.015
       0.952
       0.864
       0.775
       0.704
       0.647
       0.586
       0.502
       0.397
       0.289
       0.195
       0.118
       0.039
      -0.060
      -0.182
      -0.308
      -0.415
      -0.498
      -0.570
      -0.651
      -0.746
      -0.839
      -0.905
      -0.940
      -0.962
      -0.997
      -1.053
      -1.113
      -1.152
      -1.155
      -1.132
      -1.104
      -1.080
      -1.050
      -0.989
      -0.885
      -0.750
      -0.610
      -0.486
      -0.378
      -0.269
      -0.146
      -0.015
       0.107
       0.204
       0.282
       0.357
       0.444
       0.533
       0.607
       0.654
       0.682
       0.711
       0.757
       0.814
       0.862
       0.884
       0.881
       0.872
       0.878
       0.897
       0.913
       0.907
       0.875
       0.832
       0.794
       0.766
       0.733
       0.678
       0.599
       0.510
       0.430
       0.361
       0.292
       0.205
       0.097
      -0.023
      -0.137
      -0.235
      -0.327
      -0.433
      -0.561
      -0.703
      -0.838
      -0.955
      -1.059
      -1.169
      -1.292
      -1.418
      -1.526
      -1.602
      -1.650
      -1.692
      -1.738
      -1.779
      -1.790
      -1.750
      -1.662
      -1.549
      -1.436
      -1.332
      -1.224
      -1.093
      -0.933
      -0.759
      -0.590
      -0.436
      -0.284
      -0.116
       0.074
       0.273
       0.460
       0.627
       0.784
       0.945
       1.114
       1.278
       1.418
       1.524
       1.605
       1.678
       1.749
       1.811
       1.853
       1.870
       1.870
       1.867
       1.870
       1.873
       1.865
       1.840
       1.809
       1.789
       1.789
       1.801
       1.807
       1.796
       1.771
       1.744
       1.724
       1.701
       1.659
       1.585
       1.483
       1.370
       1.262
       1.152
       1.024
       0.865
       0.679
       0.493
       0.327
       0.184
       0.039
      -0.131
      -0.332
      -0.543
      -0.736
      -0.902
      -1.059
      -1.227
      -1.407
      -1.581
      -1.730
      -1.850
      -1.953
      -2.058
      -2.164
      -2.255
      -2.312
      -2.326
      -2.312
      -2.295
      -2.288
      -2.279
      -2.241
      -2.156
      -2.028
      -1.883
      -1.741
      -1.600
      -1.440
      -1.245
      -1.024
      -0.800
      -0.599
      -0.427
      -0.271
      -0.114
       0.049
       0.201
       0.323
       0.410
       0.477
       0.539
       0.595
       0.627
       0.614
       0.558
       0.482
       0.411
       0.350
       0.285
       0.197
       0.088
      -0.021
      -0.105
      -0.155
      -0.187
      -0.218
      -0.254
      -0.278
      -0.269
      -0.216
      -0.133
      -0.043
       0.035
       0.108
       0.192
       0.297
       0.411
       0.506
       0.564
       0.591
       0.608
       0.634
       0.667
       0.688
       0.672
       0.615
       0.535
       0.455
       0.386
       0.316
       0.224
       0.104
      -0.027
      -0.140
      -0.214
      -0.254
      -0.284
      -0.323
      -0.367
      -0.395
      -0.386
      -0.343
      -0.287
      -0.240
      -0.205
      -0.163
      -0.093
       0.012
       0.137
       0.261
       0.378
       0.501
       0.647
       0.820
       1.004
       1.172
       1.310
       1.424
       1.536
       1.656
       1.773
       1.859
       1.894
       1.886
       1.858
       1.827
       1.791
       1.729
       1.626
       1.481
       1.313
       1.138
       0.962
       0.777
       0.576
       0.366
       0.165
      -0.014
      -0.179
      -0.352
      -0.551
      -0.769
      -0.980
      -1.159
      -1.310
      -1.457
      -1.620
      -1.796
      -1.958
      -2.079
      -2.157
      -2.214
      -2.271
      -2.328
      -2.363
      -2.353
      -2.294
      -2.207
      -2.119
      -2.041
      -1.961
      -1.858
      -1.725
      -1.576
      -1.434
      -1.312
      -1.197
      -1.068
      -0.911
      -0.734
      -0.558
      -0.398
      -0.250
      -0.097
       0.074
       0.254
       0.425
       0.570
       0.691
       0.800
       0.913
       1.029
       1.134
       1.211
       1.258
       1.291
       1.324
       1.358
       1.374
       1.353
       1.296
       1.222
       1.154
       1.102
       1.048
       0.972
       0.869
       0.759
       0.667
       0.601
       0.548
       0.486
       0.409
       0.332
       0.277
       0.252
       0.245
       0.236
       0.212
       0.183
       0.163
       0.160
       0.166
       0.167
       0.153
       0.134
       0.130
       0.151
       0.186
       0.214
       0.216
       0.197
       0.175
       0.161
       0.148
       0.116
       0.056
      -0.027
      -0.113
      -0.187
      -0.250
      -0.318
      -0.401
      -0.498
      -0.591
      -0.659
      -0.698
      -0.723
      -0.749
      -0.780
      -0.803
      -0.802
      -0.773
      -0.729
      -0.688
      -0.654
      -0.613
      -0.549
      -0.458
      -0.359
      -0.274
      -0.212
      -0.160
      -0.096
      -0.010
       0.085
       0.168
       0.228
       0.273
       0.324
       0.391
       0.464
       0.522
       0.554
       0.567
       0.579
       0.601
       0.624
       0.627
       0.596
       0.536
       0.470
       0.411
       0.357
       0.288
       0.192
       0.079
      -0.031
      -0.121
      -0.192
      -0.262
      -0.341
      -0.430
      -0.512
      -0.573
      -0.612
      -0.642
      -0.676
      -0.718
      -0.755
      -0.769
      -0.755
      -0.725
      -0.699
      -0.683
      -0.665
      -0.625
      -0.553
      -0.460
      -0.373
      -0.312
      -0.277
      -0.247
      -0.205
      -0.155
      -0.116
      -0.100
      -0.099
      -0.091
      -0.060
      -0.009
       0.045
       0.091
       0.130
       0.174
       0.235
       0.311
       0.385
       0.443
       0.488
       0.539
       0.617
       0.722
       0.833
       0.922
       0.982
       1.024
       1.069
       1.123
       1.172
       1.193
       1.179
       1.143
       1.110
       1.090
       1.071
       1.025
       0.934
       0.804
       0.656
       0.507
       0.353
       0.181
      -0.017
      -0.227
      -0.423
      -0.588
      -0.723
      -0.849
      -0.981
      -1.112
      -1.222
      -1.291
      -1.318
      -1.321
      -1.317
      -1.306
      -1.268
      -1.185
      -1.059
      -0.912
      -0.771
      -0.644
      -0.519
      -0.379
      -0.222
      -0.062
       0.080
       0.197
       0.299
       0.405
       0.520
       0.630
       0.715
       0.767
       0.800
       0.832
       0.872
       0.910
       0.930
       0.927
       0.917
       0.920
       0.942
       0.965
       0.970
       0.946
       0.906
       0.872
       0.853
       0.844
       0.823
       0.782
       0.726
       0.677
       0.649
       0.636
       0.617
       0.578
       0.521
       0.464
       0.426
       0.406
       0.388
       0.353
       0.298
       0.241
       0.202
       0.188
       0.183
       0.165
       0.123
       0.067
       0.016
      -0.021
      -0.054
      -0.104
      -0.181
      -0.272
      -0.356
      -0.423
      -0.482
      -0.554
      -0.648
      -0.758
      -0.865
      -0.956
      -1.037
      -1.127
      -1.238
      -1.357
      -1.459
      -1.528
      -1.571
      -1.608
      -1.652
      -1.689
      -1.694
      -1.654
      -1.574
      -1.481
      -1.392
      -1.301
      -1.189
      -1.045
      -0.876
      -0.708
      -0.563
      -0.447
      -0.344
      -0.240
      -0.130
      -0.033
       0.033
       0.063
       0.077
       0.100
       0.140
       0.187
       0.216
       0.217
       0.200
       0.190
       0.203
       0.234
       0.266
       0.286
       0.303
       0.337
       0.400
       0.484
       0.572
       0.650
       0.724
       0.810
       0.917
       1.037
       1.146
       1.222
       1.264
       1.289
       1.314
       1.338
       1.340
       1.300
       1.218
       1.112
       1.002
       0.890
       0.760
       0.596
       0.403
       0.205
       0.029
      -0.117
      -0.248
      -0.379
      -0.514
      -0.631
      -0.706
      -0.730
      -0.717
      -0.689
      -0.657
      -0.609
      -0.524
      -0.394
      -0.236
      -0.079
       0.059
       0.181
       0.305
       0.442
       0.581
       0.700
       0.784
       0.838
       0.883
       0.933
       0.980
       1.004
       0.993
       0.954
       0.906
       0.857
       0.800
       0.716
       0.600
       0.465
       0.337
       0.231
       0.138
       0.038
      -0.087
      -0.232
      -0.377
      -0.499
      -0.592
      -0.670
      -0.756
      -0.854
      -0.946
      -1.008
      -1.030
      -1.029
      -1.032
      -1.049
      -1.072
      -1.081
      -1.066
      -1.038
      -1.014
      -1.000
      -0.984
      -0.945
      -0.876
      -0.791
      -0.711
      -0.645
      -0.583
      -0.505
      -0.401
      -0.283
      -0.175
      -0.094
      -0.032
       0.034
       0.119
       0.217
       0.305
       0.363
       0.389
       0.400
       0.414
       0.435
       0.450
       0.446
       0.422
       0.397
       0.385
       0.389
       0.392
       0.378
       0.343
       0.304
       0.279
       0.275
       0.279
       0.270
       0.238
       0.191
       0.148
       0.118
       0.097
       0.068
       0.019
      -0.047
      -0.113
