Origin Time       1/5/2013 06:57:12	 
Lat.              33.1 N	
Long.             75.8 E	
Depth (Km)         15.0
Magnitude         5.8
 Region           JK-HP-Border                                                     
 Above details taken from IMD 
   
Station Code      SOL
Station Lat.       30.908
Station Long.      77.100
Station Height(m) 1529.0
Site Class        A   Vs30 between 700 m/sec to 1400 m/sec * 
Record Time       01.05.2013 06:58:02.674
Sampling Rate     200. Hz
 Record Duration   81.505 Sec.
 Direction         Vert. (Up positive)
Max. Acceleration     -1.964 cm/sec**2
     
  * For reference see Site Classification link of website 
     
 Base Line Corrected and Low Pass Filtered (Cut Off at 35 Hz) Time History
 Acceleration data in cm/sec**2
    
[...]
      -0.013
      -0.068
      -0.122
      -0.147
      -0.117
      -0.034
       0.055
       0.104
       0.111
       0.093
       0.039
      -0.056
      -0.153
      -0.194
      -0.160
      -0.073
       0.034
       0.132
       0.186
       0.177
       0.132
       0.091
       0.065
       0.048
       0.047
       0.064
       0.076
       0.055
       0.007
      -0.047
      -0.102
      -0.150
      -0.157
      -0.098
       0.006
       0.110
       0.185
       0.216
       0.182
       0.088
      -0.017
      -0.080
      -0.103
      -0.122
      -0.154
      -0.188
      -0.223
      -0.264
      -0.295
      -0.302
      -0.291
      -0.279
      -0.255
      -0.203
      -0.131
      -0.062
      -0.001
       0.049
       0.069
       0.049
       0.016
       0.002
       0.003
      -0.007
      -0.036
      -0.069
      -0.097
      -0.110
      -0.088
      -0.028
       0.039
       0.091
       0.140
       0.198
       0.245
       0.247
       0.210
       0.166
       0.135
       0.115
       0.105
       0.093
       0.054
      -0.014
      -0.078
      -0.107
      -0.114
      -0.123
      -0.126
      -0.098
      -0.041
       0.028
       0.099
       0.161
       0.189
       0.173
       0.147
       0.148
       0.162
       0.152
       0.110
       0.058
       0.013
      -0.013
      -0.005
       0.032
       0.065
       0.065
       0.039
       0.007
      -0.035
      -0.092
      -0.143
      -0.167
      -0.172
      -0.177
      -0.173
      -0.145
      -0.110
      -0.096
      -0.104
      -0.115
      -0.123
      -0.128
      -0.119
      -0.085
      -0.045
      -0.019
      -0.013
      -0.025
      -0.065
      -0.124
      -0.164
      -0.160
      -0.123
      -0.072
      -0.005
       0.074
       0.132
       0.141
       0.125
       0.128
       0.168
       0.230
       0.290
       0.316
       0.286
       0.214
       0.154
       0.138
       0.133
       0.093
       0.018
      -0.058
      -0.115
      -0.149
      -0.160
      -0.157
      -0.162
      -0.183
      -0.192
      -0.168
      -0.130
      -0.108
      -0.096
      -0.070
      -0.026
       0.024
       0.071
       0.092
       0.056
      -0.029
      -0.086
      -0.045
       0.086
       0.227
       0.296
       0.258
       0.128
      -0.031
      -0.137
      -0.155
      -0.115
      -0.061
      -0.010
       0.034
       0.052
       0.034
       0.004
      -0.018
      -0.045
      -0.090
      -0.133
      -0.148
      -0.136
      -0.103
      -0.050
       0.008
       0.027
      -0.012
      -0.074
      -0.112
      -0.114
      -0.097
      -0.064
      -0.019
       0.027
       0.065
       0.110
       0.169
       0.219
       0.235
       0.225
       0.210
       0.190
       0.157
       0.117
       0.074
       0.023
      -0.027
      -0.040
      -0.003
       0.048
       0.066
       0.045
       0.006
      -0.043
      -0.099
      -0.150
      -0.186
      -0.211
      -0.219
      -0.189
      -0.119
      -0.042
       0.003
       0.016
       0.001
      -0.047
      -0.119
      -0.174
      -0.177
      -0.139
      -0.091
      -0.050
      -0.025
      -0.026
      -0.048
      -0.064
      -0.057
      -0.038
      -0.011
       0.037
       0.106
       0.161
       0.184
       0.198
       0.231
       0.260
       0.249
       0.189
       0.104
       0.019
      -0.041
      -0.059
      -0.046
      -0.037
      -0.048
      -0.058
      -0.063
      -0.095
      -0.174
      -0.260
      -0.293
      -0.254
      -0.165
      -0.047
       0.078
       0.183
       0.253
       0.289
       0.289
       0.242
       0.167
       0.111
       0.101
       0.113
       0.109
       0.087
       0.066
       0.047
       0.030
       0.018
       0.008
      -0.013
      -0.044
      -0.058
      -0.042
      -0.016
       0.003
       0.021
       0.039
       0.045
       0.037
       0.041
       0.059
       0.060
       0.018
      -0.047
      -0.103
      -0.134
      -0.138
      -0.111
      -0.069
      -0.046
      -0.052
      -0.063
      -0.063
      -0.074
      -0.108
      -0.141
      -0.147
      -0.133
      -0.117
      -0.100
      -0.086
      -0.089
      -0.104
      -0.095
      -0.037
       0.051
       0.134
       0.192
       0.208
       0.167
       0.076
      -0.019
      -0.087
      -0.128
      -0.149
      -0.139
      -0.093
      -0.038
       0.006
       0.048
       0.100
       0.158
       0.219
       0.297
       0.391
       0.468
       0.501
       0.487
       0.425
       0.311
       0.164
       0.037
      -0.042
      -0.095
      -0.152
      -0.213
      -0.265
      -0.300
      -0.301
      -0.249
      -0.152
      -0.054
       0.015
       0.062
       0.094
       0.091
       0.050
      -0.001
      -0.036
      -0.062
      -0.095
      -0.133
      -0.177
      -0.243
      -0.326
      -0.393
      -0.415
      -0.397
      -0.347
      -0.258
      -0.140
      -0.037
       0.021
       0.044
       0.057
       0.066
       0.080
       0.114
       0.160
       0.182
       0.160
       0.113
       0.070
       0.040
       0.029
       0.046
       0.074
       0.075
       0.040
      -0.001
      -0.027
      -0.049
      -0.072
      -0.074
      -0.042
       0.007
       0.050
       0.086
       0.112
       0.112
       0.084
       0.052
       0.034
       0.021
       0.006
       0.006
       0.018
       0.014
      -0.024
      -0.080
      -0.135
      -0.177
      -0.193
      -0.159
      -0.086
      -0.022
       0.000
      -0.008
      -0.017
      -0.012
       0.010
       0.054
       0.101
       0.121
       0.109
       0.091
       0.071
       0.022
      -0.069
      -0.166
      -0.232
      -0.258
      -0.247
      -0.205
      -0.152
      -0.118
      -0.109
      -0.101
      -0.076
      -0.042
       0.001
       0.067
       0.144
       0.200
       0.226
       0.256
       0.306
       0.354
       0.379
       0.389
       0.396
       0.391
       0.365
       0.328
       0.289
       0.248
       0.220
       0.227
       0.265
       0.294
       0.291
       0.264
       0.216
       0.126
       0.001
      -0.109
      -0.166
      -0.176
      -0.170
      -0.168
      -0.192
      -0.259
      -0.358
      -0.448
      -0.506
      -0.535
      -0.525
      -0.455
      -0.331
      -0.203
      -0.110
      -0.047
      -0.002
       0.017
       0.005
      -0.015
      -0.018
      -0.002
       0.032
       0.077
       0.107
       0.099
       0.076
       0.094
       0.170
       0.258
       0.304
       0.301
       0.275
       0.249
       0.239
       0.248
       0.261
       0.259
       0.254
       0.272
       0.294
       0.269
       0.173
       0.044
      -0.067
      -0.137
      -0.157
      -0.135
      -0.099
      -0.088
      -0.107
      -0.128
      -0.142
      -0.177
      -0.244
      -0.322
      -0.381
      -0.408
      -0.391
      -0.316
      -0.203
      -0.103
      -0.044
      -0.014
       0.008
       0.029
       0.065
       0.133
       0.214
       0.266
       0.271
       0.253
       0.232
       0.198
       0.144
       0.085
       0.028
      -0.035
      -0.098
      -0.136
      -0.136
      -0.117
      -0.088
      -0.042
       0.016
       0.062
       0.084
       0.089
       0.076
       0.031
      -0.031
      -0.070
      -0.066
      -0.043
      -0.023
      -0.011
      -0.002
       0.006
       0.029
       0.082
       0.140
       0.153
       0.113
       0.058
       0.020
      -0.007
      -0.034
      -0.053
      -0.059
      -0.050
      -0.023
       0.028
       0.080
       0.099
       0.089
       0.087
       0.107
       0.119
       0.108
       0.095
       0.098
       0.113
       0.123
       0.117
       0.078
      -0.001
      -0.098
      -0.172
      -0.213
      -0.236
      -0.247
      -0.232
      -0.194
      -0.157
      -0.122
      -0.069
       0.009
       0.088
       0.153
       0.203
       0.228
       0.208
       0.152
       0.088
       0.030
      -0.031
      -0.083
      -0.094
      -0.056
      -0.003
       0.041
       0.070
       0.080
       0.062
       0.029
       0.009
       0.012
       0.017
       0.011
       0.003
      -0.006
      -0.025
      -0.041
      -0.026
       0.022
       0.071
       0.102
       0.126
       0.153
       0.187
       0.239
       0.312
       0.374
       0.381
       0.329
       0.256
       0.189
       0.133
       0.098
       0.102
       0.123
       0.107
       0.024
      -0.102
      -0.226
      -0.309
      -0.320
      -0.258
      -0.171
      -0.117
      -0.107
      -0.097
      -0.056
       0.000
       0.045
       0.066
       0.061
       0.034
       0.013
       0.018
       0.037
       0.037
       0.012
      -0.018
      -0.051
      -0.104
      -0.169
      -0.213
      -0.217
      -0.187
      -0.125
      -0.027
       0.080
       0.149
       0.160
       0.125
       0.056
      -0.044
      -0.148
      -0.222
      -0.264
      -0.299
      -0.334
      -0.347
      -0.338
      -0.331
      -0.337
      -0.332
      -0.290
      -0.201
      -0.064
       0.101
       0.244
       0.320
       0.340
       0.341
       0.329
       0.280
       0.194
       0.110
       0.058
       0.033
       0.029
       0.048
       0.083
       0.124
       0.184
       0.285
       0.411
       0.512
       0.561
       0.568
       0.544
       0.482
       0.374
       0.229
       0.066
      -0.089
      -0.200
      -0.256
      -0.294
      -0.363
      -0.455
      -0.519
      -0.523
      -0.470
      -0.369
      -0.234
      -0.106
      -0.034
      -0.023
      -0.040
      -0.058
      -0.079
      -0.101
      -0.115
      -0.125
      -0.139
      -0.141
      -0.112
      -0.073
      -0.065
      -0.089
      -0.109
      -0.104
      -0.082
      -0.052
      -0.016
       0.009
       0.000
      -0.045
      -0.112
      -0.201
      -0.311
      -0.405
      -0.442
      -0.423
      -0.383
      -0.328
      -0.230
      -0.089
       0.060
       0.183
       0.268
       0.313
       0.318
       0.310
       0.317
       0.334
       0.339
       0.333
       0.328
       0.314
       0.271
       0.218
       0.196
       0.216
       0.255
       0.294
       0.329
       0.347
       0.332
       0.304
       0.307
       0.351
       0.408
       0.447
       0.449
       0.400
       0.305
       0.207
       0.158
       0.152
       0.144
       0.103
       0.031
      -0.068
      -0.193
      -0.321
      -0.417
      -0.482
      -0.536
      -0.583
      -0.606
      -0.607
      -0.605
      -0.604
      -0.592
      -0.565
      -0.523
      -0.454
      -0.354
      -0.256
      -0.208
      -0.215
      -0.240
      -0.266
      -0.304
      -0.362
      -0.428
      -0.491
      -0.545
      -0.574
      -0.570
      -0.550
      -0.530
      -0.486
      -0.383
      -0.227
      -0.066
       0.068
       0.182
       0.296
       0.422
       0.566
       0.718
       0.836
       0.883
       0.875
       0.857
       0.847
       0.831
       0.805
       0.784
       0.769
       0.757
       0.756
       0.770
       0.771
       0.728
       0.653
       0.580
       0.520
       0.454
       0.376
       0.299
       0.225
       0.148
       0.082
       0.035
      -0.012
      -0.090
      -0.190
      -0.277
      -0.335
      -0.369
      -0.382
      -0.376
      -0.375
      -0.402
      -0.449
      -0.498
      -0.553
      -0.622
      -0.680
      -0.691
      -0.659
      -0.616
      -0.577
      -0.544
      -0.528
      -0.534
      -0.531
      -0.483
      -0.398
      -0.317
      -0.262
      -0.228
      -0.218
      -0.231
      -0.237
      -0.203
      -0.129
      -0.048
       0.024
       0.085
       0.125
       0.138
       0.140
       0.156
       0.172
       0.169
       0.161
       0.185
       0.244
       0.312
       0.373
       0.433
       0.487
       0.528
       0.571
       0.643
       0.754
       0.890
       1.035
       1.174
       1.272
       1.309
       1.306
       1.299
       1.288
       1.250
       1.177
       1.082
       0.972
       0.846
       0.718
       0.595
       0.458
       0.281
       0.076
      -0.129
      -0.319
      -0.489
      -0.626
      -0.727
      -0.818
      -0.921
      -1.017
      -1.080
      -1.118
      -1.159
      -1.203
      -1.233
      -1.250
      -1.269
      -1.286
      -1.283
      -1.258
      -1.217
      -1.163
      -1.114
      -1.106
      -1.160
      -1.233
      -1.261
      -1.216
      -1.107
      -0.937
      -0.715
      -0.486
      -0.300
      -0.167
      -0.056
       0.057
       0.184
       0.330
       0.483
       0.612
       0.701
       0.780
       0.878
       0.979
       1.053
       1.103
       1.155
       1.216
       1.273
       1.331
       1.402
       1.474
       1.519
       1.531
       1.522
       1.498
       1.459
       1.408
       1.338
       1.219
       1.043
       0.860
       0.721
       0.622
       0.522
       0.407
       0.294
       0.194
       0.100
       0.008
      -0.087
      -0.204
      -0.353
      -0.520
      -0.689
      -0.872
      -1.073
      -1.267
      -1.421
      -1.549
      -1.677
      -1.800
      -1.892
      -1.946
      -1.964
      -1.942
      -1.869
      -1.752
      -1.595
      -1.385
      -1.124
      -0.862
      -0.655
      -0.515
      -0.420
      -0.351
      -0.289
      -0.203
      -0.082
       0.040
       0.116
       0.150
       0.173
       0.204
       0.241
       0.289
       0.355
       0.435
       0.531
       0.663
       0.838
       1.020
       1.164
       1.272
       1.376
       1.494
       1.619
       1.739
       1.830
       1.856
       1.808
       1.722
       1.631
       1.520
       1.359
       1.157
       0.954
       0.769
       0.594
       0.420
       0.235
       0.021
      -0.212
      -0.421
      -0.571
      -0.678
      -0.781
      -0.887
      -0.977
      -1.037
      -1.067
      -1.063
      -1.037
      -1.014
      -0.993
      -0.933
      -0.802
      -0.641
      -0.528
      -0.516
      -0.609
      -0.775
      -0.950
      -1.054
      -1.050
      -0.972
      -0.879
      -0.801
      -0.734
      -0.667
      -0.575
      -0.419
      -0.193
       0.060
       0.286
       0.473
       0.627
       0.736
       0.792
       0.818
       0.831
       0.809
       0.725
       0.591
       0.441
       0.292
       0.151
       0.038
      -0.031
      -0.069
      -0.094
      -0.100
      -0.080
      -0.048
      -0.015
       0.031
       0.096
       0.150
       0.160
       0.136
       0.112
       0.099
       0.092
       0.093
       0.111
       0.141
       0.177
       0.221
       0.247
       0.209
       0.101
      -0.003
      -0.020
       0.057
       0.169
       0.252
       0.271
       0.216
       0.110
       0.002
      -0.084
      -0.161
      -0.235
      -0.266
      -0.214
      -0.096
       0.027
       0.120
       0.176
       0.206
       0.228
       0.275
       0.358
       0.439
       0.475
       0.460
       0.414
       0.353
       0.299
       0.285
       0.318
       0.355
       0.351
       0.299
       0.223
       0.139
       0.058
      -0.001
      -0.031
      -0.052
      -0.081
      -0.110
      -0.142
      -0.199
      -0.290
      -0.386
      -0.453
      -0.503
      -0.562
      -0.637
      -0.717
      -0.803
      -0.886
      -0.945
      -0.967
      -0.968
      -0.954
      -0.906
      -0.821
      -0.731
      -0.668
      -0.614
      -0.542
      -0.454
      -0.371
      -0.301
      -0.249
      -0.222
      -0.204
      -0.149
      -0.035
       0.106
       0.233
       0.340
       0.444
       0.549
       0.654
       0.771
       0.902
       1.020
       1.107
       1.177
       1.248
       1.312
       1.351
       1.360
       1.339
       1.284
       1.214
       1.176
       1.185
       1.204
       1.187
       1.128
       1.041
       0.925
       0.775
       0.606
       0.439
       0.285
       0.153
       0.052
      -0.040
      -0.175
      -0.375
      -0.594
      -0.774
      -0.904
      -1.009
      -1.107
      -1.204
      -1.298
      -1.368
      -1.379
      -1.324
      -1.241
      -1.165
      -1.104
      -1.060
      -1.056
      -1.103
      -1.169
      -1.215
      -1.228
      -1.207
      -1.144
      -1.054
      -0.974
      -0.923
      -0.866
      -0.763
      -0.604
      -0.401
      -0.160
       0.108
       0.374
       0.622
       0.860
       1.080
       1.245
       1.329
       1.346
       1.333
       1.308
       1.279
       1.259
       1.242
       1.211
       1.173
       1.161
       1.182
       1.198
       1.170
       1.108
       1.040
       0.983
       0.950
       0.953
       0.974
       0.954
       0.852
       0.676
       0.460
       0.237
       0.044
      -0.077
      -0.120
      -0.129
      -0.157
      -0.220
      -0.315
      -0.443
      -0.585
      -0.710
      -0.806
      -0.904
      -1.025
      -1.153
      -1.269
      -1.385
      -1.519
      -1.662
      -1.789
      -1.880
      -1.908
      -1.846
      -1.703
      -1.531
      -1.369
      -1.208
      -1.020
      -0.809
      -0.588
      -0.365
      -0.153
       0.024
       0.162
       0.286
       0.415
       0.526
       0.601
       0.649
       0.688
       0.726
       0.770
       0.839
       0.930
       1.016
       1.082
       1.136
       1.182
       1.199
       1.183
       1.156
       1.134
       1.107
       1.066
       1.019
       0.959
       0.853
       0.678
       0.452
       0.211
      -0.015
      -0.186
      -0.263
      -0.253
      -0.214
      -0.187
      -0.169
      -0.141
      -0.108
      -0.081
      -0.054
      -0.033
      -0.038
      -0.074
      -0.116
      -0.152
      -0.200
      -0.278
      -0.372
      -0.461
      -0.534
      -0.577
      -0.572
      -0.524
      -0.466
      -0.421
      -0.381
      -0.345
      -0.336
      -0.367
      -0.420
      -0.477
      -0.534
      -0.579
      -0.580
      -0.526
      -0.439
      -0.338
      -0.219
      -0.081
       0.062
       0.218
       0.413
       0.646
       0.878
       1.073
       1.225
       1.334
       1.386
       1.383
       1.346
       1.286
       1.191
       1.070
       0.952
       0.842
       0.704
       0.514
       0.298
       0.104
      -0.035
      -0.095
      -0.076
      -0.017
       0.017
      -0.004
      -0.053
      -0.097
      -0.137
      -0.184
      -0.240
      -0.317
      -0.434
      -0.578
      -0.708
      -0.799
      -0.866
      -0.918
      -0.946
      -0.953
      -0.966
      -0.998
      -1.016
      -0.982
      -0.885
      -0.723
      -0.508
      -0.279
      -0.096
       0.014
       0.072
       0.107
       0.127
       0.144
       0.180
       0.236
       0.276
       0.277
       0.251
       0.222
       0.203
       0.197
       0.199
       0.184
       0.132
