Origin Time       1/5/2013 06:57:12	  UTC
Lat.              33.1 N	
Long.             75.8 E	
Depth (Km)         15.0
Magnitude         5.8
 Region           JK-HP-Border                                                     
 Above details taken from IMD 
    
Station Code      SOL
Station Lat.       30.908  N
Station Long.      77.100  E
Station Height(m) 1529.0
Site Class        A   Vs30 between 700 m/sec to 1400 m/sec * 
Record Time       01.05.2013 06:58:02.674 UTC
Sampling Rate     200. Hz
 Record Duration   81.505 Sec.
 Direction         N-S (N positive)
Max. Acceleration      2.736 cm/sec**2
     
  * For reference see Site Classification link of website 
     
 Base Line Corrected and Low Pass Filtered (Cut Off at 35 Hz) Time History
 Acceleration data in cm/sec**2
    
[...]
       0.465
       0.420
       0.402
       0.425
       0.465
       0.492
       0.493
       0.479
       0.471
       0.485
       0.516
       0.538
       0.532
       0.506
       0.492
       0.508
       0.549
       0.600
       0.647
       0.678
       0.687
       0.677
       0.650
       0.597
       0.511
       0.403
       0.291
       0.181
       0.061
      -0.079
      -0.239
      -0.412
      -0.594
      -0.776
      -0.948
      -1.104
      -1.241
      -1.347
      -1.404
      -1.411
      -1.374
      -1.308
      -1.229
      -1.159
      -1.105
      -1.056
      -0.992
      -0.912
      -0.829
      -0.750
      -0.671
      -0.582
      -0.482
      -0.375
      -0.273
      -0.189
      -0.124
      -0.062
       0.014
       0.099
       0.177
       0.230
       0.257
       0.265
       0.265
       0.276
       0.314
       0.381
       0.469
       0.568
       0.668
       0.755
       0.822
       0.884
       0.965
       1.069
       1.185
       1.305
       1.428
       1.557
       1.686
       1.803
       1.899
       1.963
       2.000
       2.019
       2.025
       2.004
       1.939
       1.830
       1.693
       1.543
       1.385
       1.215
       1.022
       0.791
       0.517
       0.214
      -0.092
      -0.392
      -0.693
      -0.994
      -1.287
      -1.560
      -1.800
      -2.001
      -2.164
      -2.301
      -2.419
      -2.506
      -2.543
      -2.522
      -2.453
      -2.349
      -2.226
      -2.095
      -1.959
      -1.807
      -1.637
      -1.457
      -1.277
      -1.092
      -0.894
      -0.683
      -0.469
      -0.255
      -0.044
       0.154
       0.333
       0.499
       0.658
       0.802
       0.918
       1.002
       1.060
       1.095
       1.102
       1.087
       1.067
       1.064
       1.094
       1.160
       1.252
       1.343
       1.416
       1.474
       1.524
       1.559
       1.561
       1.533
       1.501
       1.480
       1.467
       1.441
       1.382
       1.277
       1.129
       0.954
       0.771
       0.585
       0.400
       0.214
       0.024
      -0.183
      -0.410
      -0.643
      -0.871
      -1.101
      -1.343
      -1.586
      -1.807
      -1.988
      -2.125
      -2.228
      -2.315
      -2.398
      -2.474
      -2.521
      -2.519
      -2.466
      -2.372
      -2.238
      -2.063
      -1.846
      -1.593
      -1.317
      -1.039
      -0.784
      -0.559
      -0.346
      -0.119
       0.122
       0.347
       0.528
       0.658
       0.750
       0.831
       0.916
       1.005
       1.081
       1.129
       1.152
       1.152
       1.133
       1.109
       1.114
       1.175
       1.284
       1.412
       1.544
       1.681
       1.823
       1.960
       2.073
       2.145
       2.163
       2.130
       2.066
       1.991
       1.906
       1.802
       1.670
       1.511
       1.321
       1.110
       0.900
       0.719
       0.566
       0.423
       0.268
       0.093
      -0.099
      -0.296
      -0.482
      -0.647
      -0.799
      -0.947
      -1.097
      -1.252
      -1.416
      -1.581
      -1.731
      -1.854
      -1.952
      -2.030
      -2.083
      -2.099
      -2.080
      -2.039
      -1.989
      -1.934
      -1.866
      -1.771
      -1.634
      -1.457
      -1.260
      -1.063
      -0.871
      -0.681
      -0.499
      -0.332
      -0.184
      -0.056
       0.055
       0.155
       0.259
       0.376
       0.493
       0.596
       0.681
       0.754
       0.821
       0.884
       0.949
       1.018
       1.085
       1.144
       1.200
       1.260
       1.327
       1.397
       1.466
       1.524
       1.556
       1.556
       1.536
       1.513
       1.486
       1.442
       1.374
       1.280
       1.162
       1.023
       0.862
       0.675
       0.458
       0.219
      -0.017
      -0.234
      -0.430
      -0.613
      -0.777
      -0.906
      -0.992
      -1.040
      -1.060
      -1.066
      -1.073
      -1.078
      -1.071
      -1.047
      -1.019
      -0.995
      -0.961
      -0.889
      -0.765
      -0.599
      -0.412
      -0.240
      -0.115
      -0.045
      -0.011
       0.016
       0.051
       0.087
       0.119
       0.137
       0.131
       0.089
       0.015
      -0.083
      -0.196
      -0.314
      -0.428
      -0.540
      -0.658
      -0.782
      -0.894
      -0.981
      -1.046
      -1.098
      -1.140
      -1.166
      -1.171
      -1.151
      -1.099
      -1.012
      -0.896
      -0.757
      -0.591
      -0.399
      -0.196
       0.009
       0.226
       0.467
       0.729
       0.995
       1.246
       1.472
       1.664
       1.825
       1.957
       2.059
       2.114
       2.113
       2.062
       1.970
       1.839
       1.656
       1.418
       1.131
       0.814
       0.494
       0.191
      -0.093
      -0.366
      -0.630
      -0.861
      -1.036
      -1.154
      -1.228
      -1.267
      -1.273
      -1.238
      -1.148
      -0.995
      -0.797
      -0.593
      -0.414
      -0.260
      -0.114
       0.031
       0.166
       0.281
       0.363
       0.396
       0.375
       0.312
       0.232
       0.146
       0.052
      -0.056
      -0.189
      -0.345
      -0.507
      -0.644
      -0.742
      -0.813
      -0.881
      -0.958
      -1.036
      -1.096
      -1.120
      -1.096
      -1.031
      -0.944
      -0.841
      -0.706
      -0.527
      -0.310
      -0.079
       0.148
       0.361
       0.554
       0.729
       0.889
       1.033
       1.145
       1.213
       1.234
       1.212
       1.155
       1.082
       1.018
       0.966
       0.908
       0.825
       0.718
       0.600
       0.488
       0.389
       0.313
       0.264
       0.234
       0.212
       0.198
       0.193
       0.204
       0.237
       0.294
       0.360
       0.410
       0.429
       0.427
       0.420
       0.407
       0.381
       0.339
       0.283
       0.213
       0.124
       0.010
      -0.134
      -0.310
      -0.502
      -0.680
      -0.823
      -0.933
      -1.017
      -1.076
      -1.106
      -1.115
      -1.114
      -1.110
      -1.099
      -1.069
      -1.000
      -0.877
      -0.709
      -0.528
      -0.363
      -0.216
      -0.081
       0.040
       0.140
       0.214
       0.266
       0.297
       0.308
       0.298
       0.255
       0.166
       0.037
      -0.106
      -0.237
      -0.348
      -0.441
      -0.512
      -0.552
      -0.552
      -0.505
      -0.408
      -0.273
      -0.123
       0.030
       0.199
       0.397
       0.620
       0.846
       1.057
       1.244
       1.412
       1.571
       1.723
       1.849
       1.920
       1.921
       1.863
       1.765
       1.635
       1.476
       1.292
       1.088
       0.870
       0.657
       0.475
       0.330
       0.208
       0.089
      -0.026
      -0.132
      -0.236
      -0.349
      -0.471
      -0.599
      -0.725
      -0.838
      -0.932
      -1.014
      -1.098
      -1.186
      -1.263
      -1.304
      -1.294
      -1.229
      -1.119
      -0.986
      -0.854
      -0.731
      -0.606
      -0.468
      -0.325
      -0.187
      -0.053
       0.080
       0.213
       0.341
       0.458
       0.552
       0.606
       0.617
       0.597
       0.558
       0.498
       0.411
       0.303
       0.188
       0.077
      -0.021
      -0.096
      -0.143
      -0.155
      -0.129
      -0.066
       0.016
       0.093
       0.149
       0.186
       0.210
       0.221
       0.215
       0.191
       0.149
       0.091
       0.026
      -0.028
      -0.066
      -0.093
      -0.111
      -0.111
      -0.087
      -0.047
      -0.002
       0.037
       0.057
       0.048
       0.012
      -0.041
      -0.102
      -0.168
      -0.230
      -0.272
      -0.286
      -0.282
      -0.276
      -0.268
      -0.252
      -0.231
      -0.208
      -0.189
      -0.178
      -0.177
      -0.182
      -0.182
      -0.168
      -0.136
      -0.081
      -0.002
       0.092
       0.176
       0.233
       0.264
       0.274
       0.267
       0.242
       0.199
       0.137
       0.050
      -0.058
      -0.170
      -0.274
      -0.364
      -0.438
      -0.493
      -0.531
      -0.556
      -0.564
      -0.546
      -0.508
      -0.463
      -0.420
      -0.374
      -0.321
      -0.269
      -0.224
      -0.188
      -0.163
      -0.153
      -0.163
      -0.193
      -0.236
      -0.282
      -0.311
      -0.309
      -0.283
      -0.259
      -0.251
      -0.252
      -0.241
      -0.196
      -0.101
       0.050
       0.240
       0.443
       0.640
       0.826
       0.999
       1.149
       1.269
       1.364
       1.433
       1.468
       1.462
       1.411
       1.307
       1.140
       0.919
       0.673
       0.427
       0.190
      -0.040
      -0.270
      -0.501
      -0.730
      -0.940
      -1.110
      -1.227
      -1.299
      -1.339
      -1.360
      -1.374
      -1.385
      -1.383
      -1.354
      -1.306
      -1.263
      -1.236
      -1.212
      -1.165
      -1.081
      -0.962
      -0.826
      -0.695
      -0.583
      -0.478
      -0.347
      -0.167
       0.059
       0.306
       0.537
       0.725
       0.863
       0.968
       1.059
       1.141
       1.200
       1.225
       1.216
       1.177
       1.112
       1.032
       0.949
       0.865
       0.766
       0.648
       0.525
       0.415
       0.325
       0.249
       0.176
       0.092
       0.000
      -0.075
      -0.114
      -0.119
      -0.117
      -0.125
      -0.138
      -0.142
      -0.131
      -0.109
      -0.089
      -0.084
      -0.099
      -0.126
      -0.153
      -0.175
      -0.196
      -0.204
      -0.178
      -0.108
       0.000
       0.125
       0.246
       0.343
       0.408
       0.452
       0.500
       0.552
       0.582
       0.559
       0.475
       0.338
       0.174
       0.012
      -0.127
      -0.238
      -0.332
      -0.404
      -0.438
      -0.418
      -0.345
      -0.226
      -0.079
       0.065
       0.171
       0.213
       0.192
       0.122
       0.019
      -0.097
      -0.212
      -0.321
      -0.429
      -0.530
      -0.611
      -0.665
      -0.690
      -0.685
      -0.644
      -0.570
      -0.466
      -0.328
      -0.148
       0.068
       0.298
       0.520
       0.720
       0.890
       1.020
       1.115
       1.177
       1.199
       1.167
       1.082
       0.953
       0.783
       0.570
       0.330
       0.092
      -0.112
      -0.264
      -0.360
      -0.403
      -0.400
      -0.365
      -0.307
      -0.233
      -0.161
      -0.101
      -0.042
       0.037
       0.141
       0.255
       0.355
       0.423
       0.445
       0.420
       0.367
       0.323
       0.308
       0.314
       0.314
       0.285
       0.217
       0.121
       0.017
      -0.073
      -0.148
      -0.220
      -0.290
      -0.352
      -0.407
      -0.469
      -0.552
      -0.655
      -0.768
      -0.877
      -0.968
      -1.035
      -1.084
      -1.130
      -1.178
      -1.219
      -1.231
      -1.193
      -1.092
      -0.937
      -0.769
      -0.624
      -0.503
      -0.373
      -0.210
      -0.034
       0.113
       0.208
       0.263
       0.312
       0.376
       0.437
       0.455
       0.417
       0.362
       0.354
       0.419
       0.532
       0.655
       0.769
       0.884
       1.008
       1.137
       1.251
       1.329
       1.368
       1.393
       1.427
       1.467
       1.484
       1.452
       1.368
       1.251
       1.124
       1.005
       0.892
       0.767
       0.626
       0.490
       0.383
       0.300
       0.212
       0.104
      -0.021
      -0.154
      -0.293
      -0.437
      -0.582
      -0.734
      -0.906
      -1.110
      -1.344
      -1.595
      -1.835
      -2.032
      -2.163
      -2.230
      -2.257
      -2.253
      -2.215
      -2.135
      -2.014
      -1.858
      -1.677
      -1.476
      -1.246
      -0.966
      -0.627
      -0.254
       0.111
       0.446
       0.754
       1.042
       1.305
       1.539
       1.741
       1.906
       2.021
       2.081
       2.080
       2.020
       1.903
       1.747
       1.574
       1.404
       1.248
       1.109
       0.981
       0.850
       0.698
       0.518
       0.317
       0.112
      -0.076
      -0.229
      -0.337
      -0.408
      -0.448
      -0.451
      -0.411
      -0.339
      -0.254
      -0.170
      -0.086
      -0.002
       0.077
       0.148
       0.211
       0.262
       0.294
       0.301
       0.274
       0.208
       0.109
      -0.003
      -0.108
      -0.211
      -0.321
      -0.434
      -0.529
      -0.589
      -0.620
      -0.636
      -0.661
      -0.713
      -0.787
      -0.846
      -0.852
      -0.802
      -0.728
      -0.667
      -0.641
      -0.649
      -0.676
      -0.701
      -0.710
      -0.717
      -0.744
      -0.792
      -0.837
      -0.848
      -0.808
      -0.719
      -0.606
      -0.507
      -0.447
      -0.420
      -0.403
      -0.380
      -0.354
      -0.334
      -0.331
      -0.357
      -0.413
      -0.486
      -0.555
      -0.616
      -0.671
      -0.714
      -0.721
      -0.666
      -0.533
      -0.317
      -0.035
       0.285
       0.616
       0.949
       1.282
       1.602
       1.885
       2.123
       2.319
       2.481
       2.609
       2.699
       2.736
       2.705
       2.600
       2.435
       2.237
       2.028
       1.821
       1.617
       1.411
       1.183
       0.925
       0.656
       0.412
       0.214
       0.055
      -0.086
      -0.234
      -0.404
      -0.589
      -0.764
      -0.909
      -1.032
      -1.163
      -1.327
      -1.526
      -1.744
      -1.950
      -2.115
      -2.226
      -2.288
      -2.303
      -2.254
      -2.129
      -1.953
      -1.778
      -1.647
      -1.569
      -1.524
      -1.484
      -1.421
      -1.319
      -1.184
      -1.039
      -0.905
      -0.793
      -0.697
      -0.605
      -0.501
      -0.385
      -0.268
      -0.158
      -0.051
       0.053
       0.128
       0.142
       0.085
      -0.013
      -0.105
      -0.151
      -0.147
      -0.116
      -0.093
      -0.084
      -0.055
       0.032
       0.181
       0.366
       0.557
       0.737
       0.908
       1.081
       1.271
       1.474
       1.663
       1.805
       1.891
       1.932
       1.942
       1.918
       1.851
       1.727
       1.536
       1.278
       0.979
       0.674
       0.396
       0.158
      -0.041
      -0.212
      -0.372
      -0.513
      -0.604
      -0.616
      -0.542
      -0.400
      -0.214
      -0.004
       0.209
       0.402
       0.562
       0.676
       0.737
       0.740
       0.683
       0.562
       0.377
       0.150
      -0.085
      -0.312
      -0.548
      -0.820
      -1.126
      -1.439
      -1.727
      -1.971
      -2.154
      -2.261
      -2.287
      -2.236
      -2.118
      -1.957
      -1.772
      -1.565
      -1.325
      -1.052
      -0.772
      -0.517
      -0.296
      -0.106
       0.054
       0.180
       0.277
       0.355
       0.424
       0.489
       0.558
       0.633
       0.711
       0.794
       0.890
       0.989
       1.058
       1.067
       1.030
       0.990
       0.978
       0.999
       1.047
       1.114
       1.186
       1.240
       1.261
       1.252
       1.225
       1.194
       1.172
       1.160
       1.153
       1.143
       1.126
       1.096
       1.044
       0.967
       0.868
       0.749
       0.607
       0.441
       0.277
       0.148
       0.076
       0.060
       0.081
       0.110
       0.136
       0.174
       0.256
       0.382
       0.507
       0.581
       0.599
       0.595
       0.598
       0.600
       0.568
       0.462
       0.267
       0.002
      -0.291
      -0.583
      -0.871
      -1.159
      -1.429
      -1.647
      -1.783
      -1.830
      -1.803
      -1.730
      -1.643
      -1.550
      -1.432
      -1.263
      -1.044
      -0.805
      -0.577
      -0.369
      -0.178
       0.003
       0.165
       0.286
       0.353
       0.379
       0.389
       0.397
       0.382
       0.325
       0.224
       0.099
      -0.035
      -0.170
      -0.294
      -0.395
      -0.468
      -0.507
      -0.504
      -0.457
      -0.378
      -0.284
      -0.195
      -0.127
      -0.093
      -0.079
      -0.053
       0.004
       0.073
       0.119
       0.127
       0.110
       0.091
       0.081
       0.077
       0.061
       0.015
      -0.059
      -0.129
      -0.162
      -0.158
      -0.143
      -0.141
      -0.157
      -0.174
      -0.172
      -0.146
      -0.112
      -0.092
      -0.088
      -0.070
      -0.012
       0.088
       0.202
       0.302
       0.375
       0.434
       0.497
       0.565
       0.607
       0.585
       0.501
       0.397
       0.312
       0.253
       0.205
       0.161
       0.124
       0.095
       0.074
       0.059
       0.042
       0.008
      -0.050
      -0.124
      -0.201
      -0.278
      -0.350
      -0.399
      -0.403
      -0.356
      -0.267
      -0.146
      -0.003
       0.149
       0.305
       0.462
       0.614
       0.741
       0.830
       0.881
       0.902
       0.897
       0.862
       0.797
       0.702
       0.591
       0.488
       0.415
       0.372
       0.343
       0.317
       0.301
       0.301
       0.300
       0.278
       0.231
       0.165
       0.087
      -0.001
      -0.092
      -0.180
      -0.257
      -0.319
      -0.367
      -0.415
      -0.482
      -0.569
      -0.653
      -0.716
      -0.755
      -0.774
      -0.777
      -0.765
      -0.747
      -0.728
      -0.701
      -0.663
      -0.616
      -0.566
      -0.520
      -0.476
      -0.431
      -0.374
      -0.294
      -0.204
      -0.136
      -0.114
      -0.135
      -0.178
      -0.231
      -0.294
      -0.368
      -0.442
      -0.497
      -0.509
      -0.467
      -0.379
      -0.269
      -0.153
      -0.031
       0.103
       0.242
       0.374
       0.490
       0.589
       0.669
       0.725
       0.749
       0.732
       0.674
       0.598
       0.524
       0.453
       0.364
       0.254
       0.144
       0.060
       0.002
      -0.047
      -0.096
      -0.141
      -0.167
      -0.159
      -0.115
      -0.057
      -0.022
      -0.028
      -0.064
      -0.106
      -0.148
      -0.197
      -0.265
      -0.357
      -0.464
      -0.562
      -0.620
      -0.630
      -0.614
      -0.602
      -0.604
      -0.606
      -0.589
      -0.537
      -0.447
      -0.331
      -0.208
      -0.097
      -0.015
       0.023
       0.017
      -0.016
      -0.055
      -0.106
      -0.182
      -0.275
      -0.344
      -0.364
      -0.350
      -0.341
      -0.353
      -0.375
      -0.384
      -0.373
      -0.351
      -0.329
      -0.307
      -0.256
      -0.146
       0.025
       0.228
       0.429
       0.620
       0.814
       1.016
       1.216
       1.393
       1.527
       1.611
       1.656
       1.673
       1.655
       1.574
       1.410
       1.174
       0.904
       0.635
       0.386
       0.153
