Origin Time       1/5/2013 06:57:12	 
Lat.              33.1 N	
Long.             75.8 E	
Depth (Km)         15.0
Magnitude         5.8
 Region           JK-HP-Border                                                     
 Above details taken from IMD 
     
Station Code      SOL
Station Lat.       30.908  N
Station Long.      77.100  E
Station Height(m) 1529.0
Site Class        A   Vs30 between 700 m/sec to 1400 m/sec * 
Record Time       01.05.2013 06:58:02.674
Sampling Rate     200. Hz
 Record Duration   81.505 Sec.
 Direction         E-W (E positive)
Max. Acceleration      2.443 cm/sec**2
     
  * For reference see Site Classification link of website 
     
 Base Line Corrected and Low Pass Filtered (Cut Off at 35 Hz) Time History
 Acceleration data in cm/sec**2
    
[...]
       0.508
       0.470
       0.469
       0.489
       0.517
       0.553
       0.601
       0.655
       0.696
       0.709
       0.687
       0.642
       0.591
       0.552
       0.526
       0.493
       0.431
       0.329
       0.200
       0.062
      -0.072
      -0.206
      -0.349
      -0.507
      -0.680
      -0.853
      -1.012
      -1.155
      -1.287
      -1.413
      -1.526
      -1.619
      -1.684
      -1.717
      -1.715
      -1.684
      -1.633
      -1.566
      -1.476
      -1.355
      -1.205
      -1.036
      -0.863
      -0.698
      -0.541
      -0.381
      -0.206
      -0.023
       0.150
       0.298
       0.423
       0.534
       0.637
       0.729
       0.797
       0.833
       0.839
       0.827
       0.814
       0.804
       0.799
       0.797
       0.797
       0.788
       0.758
       0.705
       0.639
       0.573
       0.516
       0.476
       0.456
       0.452
       0.451
       0.446
       0.434
       0.418
       0.396
       0.363
       0.317
       0.265
       0.223
       0.206
       0.213
       0.231
       0.247
       0.262
       0.285
       0.314
       0.336
       0.333
       0.294
       0.221
       0.120
       0.004
      -0.126
      -0.277
      -0.455
      -0.650
      -0.840
      -1.005
      -1.131
      -1.216
      -1.261
      -1.269
      -1.235
      -1.151
      -1.014
      -0.837
      -0.641
      -0.443
      -0.250
      -0.066
       0.104
       0.258
       0.398
       0.515
       0.601
       0.650
       0.664
       0.651
       0.617
       0.558
       0.467
       0.338
       0.181
       0.024
      -0.102
      -0.189
      -0.252
      -0.311
      -0.374
      -0.432
      -0.467
      -0.462
      -0.412
      -0.323
      -0.211
      -0.085
       0.046
       0.173
       0.287
       0.378
       0.438
       0.459
       0.441
       0.399
       0.351
       0.313
       0.285
       0.258
       0.223
       0.172
       0.111
       0.048
      -0.013
      -0.080
      -0.161
      -0.255
      -0.352
      -0.446
      -0.540
      -0.634
      -0.722
      -0.797
      -0.855
      -0.895
      -0.913
      -0.912
      -0.899
      -0.884
      -0.875
      -0.872
      -0.859
      -0.811
      -0.717
      -0.598
      -0.486
      -0.404
      -0.347
      -0.302
      -0.257
      -0.212
      -0.173
      -0.143
      -0.119
      -0.094
      -0.066
      -0.035
      -0.002
       0.045
       0.115
       0.207
       0.314
       0.435
       0.568
       0.708
       0.844
       0.972
       1.089
       1.188
       1.260
       1.296
       1.292
       1.250
       1.177
       1.087
       0.985
       0.866
       0.716
       0.529
       0.310
       0.075
      -0.157
      -0.363
      -0.530
      -0.655
      -0.747
      -0.809
      -0.839
      -0.840
      -0.813
      -0.762
      -0.689
      -0.596
      -0.490
      -0.374
      -0.258
      -0.152
      -0.062
       0.017
       0.084
       0.132
       0.156
       0.162
       0.167
       0.187
       0.226
       0.286
       0.354
       0.414
       0.446
       0.442
       0.409
       0.359
       0.301
       0.234
       0.154
       0.052
      -0.068
      -0.187
      -0.289
      -0.368
      -0.428
      -0.471
      -0.493
      -0.488
      -0.453
      -0.394
      -0.321
      -0.252
      -0.195
      -0.148
      -0.102
      -0.048
       0.017
       0.093
       0.182
       0.281
       0.385
       0.481
       0.554
       0.584
       0.561
       0.497
       0.411
       0.320
       0.232
       0.153
       0.086
       0.035
       0.001
      -0.015
      -0.013
       0.007
       0.045
       0.097
       0.149
       0.177
       0.167
       0.121
       0.053
      -0.020
      -0.085
      -0.135
      -0.169
      -0.196
      -0.227
      -0.267
      -0.306
      -0.335
      -0.346
      -0.338
      -0.321
      -0.310
      -0.313
      -0.327
      -0.342
      -0.357
      -0.377
      -0.403
      -0.432
      -0.453
      -0.448
      -0.401
      -0.310
      -0.194
      -0.083
       0.002
       0.056
       0.085
       0.097
       0.097
       0.092
       0.086
       0.087
       0.101
       0.130
       0.169
       0.214
       0.263
       0.315
       0.365
       0.403
       0.424
       0.429
       0.420
       0.398
       0.366
       0.326
       0.279
       0.232
       0.195
       0.179
       0.188
       0.218
       0.260
       0.307
       0.353
       0.399
       0.450
       0.510
       0.571
       0.625
       0.671
       0.710
       0.744
       0.769
       0.786
       0.795
       0.790
       0.767
       0.721
       0.646
       0.540
       0.406
       0.252
       0.090
      -0.066
      -0.200
      -0.303
      -0.376
      -0.436
      -0.498
      -0.563
      -0.622
      -0.667
      -0.697
      -0.709
      -0.708
      -0.698
      -0.688
      -0.683
      -0.680
      -0.677
      -0.669
      -0.647
      -0.604
      -0.537
      -0.442
      -0.320
      -0.183
      -0.050
       0.061
       0.145
       0.204
       0.240
       0.247
       0.224
       0.180
       0.131
       0.093
       0.080
       0.086
       0.098
       0.099
       0.084
       0.060
       0.033
       0.012
       0.005
       0.008
       0.014
       0.017
       0.021
       0.035
       0.060
       0.092
       0.121
       0.146
       0.167
       0.191
       0.224
       0.268
       0.312
       0.342
       0.352
       0.345
       0.327
       0.312
       0.309
       0.320
       0.340
       0.358
       0.372
       0.387
       0.405
       0.426
       0.444
       0.438
       0.388
       0.282
       0.129
      -0.052
      -0.243
      -0.424
      -0.581
      -0.708
      -0.805
      -0.874
      -0.909
      -0.903
      -0.851
      -0.750
      -0.607
      -0.435
      -0.258
      -0.102
       0.022
       0.113
       0.175
       0.214
       0.235
       0.239
       0.227
       0.192
       0.132
       0.041
      -0.082
      -0.225
      -0.372
      -0.509
      -0.630
      -0.731
      -0.801
      -0.831
      -0.817
      -0.768
      -0.689
      -0.585
      -0.459
      -0.312
      -0.149
       0.020
       0.174
       0.292
       0.365
       0.391
       0.377
       0.337
       0.291
       0.252
       0.224
       0.202
       0.181
       0.162
       0.147
       0.138
       0.135
       0.126
       0.101
       0.060
       0.018
      -0.011
      -0.028
      -0.048
      -0.084
      -0.138
      -0.195
      -0.235
      -0.245
      -0.231
      -0.207
      -0.181
      -0.141
      -0.076
       0.011
       0.102
       0.174
       0.221
       0.246
       0.263
       0.286
       0.317
       0.349
       0.372
       0.385
       0.393
       0.398
       0.401
       0.401
       0.395
       0.376
       0.343
       0.299
       0.249
       0.194
       0.136
       0.086
       0.048
       0.021
      -0.003
      -0.028
      -0.052
      -0.068
      -0.066
      -0.038
       0.018
       0.092
       0.172
       0.247
       0.312
       0.362
       0.398
       0.422
       0.436
       0.436
       0.415
       0.369
       0.298
       0.204
       0.098
      -0.003
      -0.089
      -0.164
      -0.245
      -0.342
      -0.454
      -0.570
      -0.669
      -0.733
      -0.755
      -0.740
      -0.699
      -0.642
      -0.581
      -0.528
      -0.496
      -0.484
      -0.487
      -0.498
      -0.503
      -0.490
      -0.451
      -0.389
      -0.312
      -0.229
      -0.143
      -0.053
       0.048
       0.163
       0.284
       0.392
       0.476
       0.541
       0.596
       0.647
       0.684
       0.694
       0.669
       0.612
       0.541
       0.470
       0.400
       0.321
       0.224
       0.121
       0.031
      -0.031
      -0.061
      -0.066
      -0.059
      -0.050
      -0.035
      -0.004
       0.052
       0.133
       0.230
       0.333
       0.429
       0.502
       0.535
       0.515
       0.438
       0.305
       0.130
      -0.071
      -0.279
      -0.479
      -0.648
      -0.763
      -0.818
      -0.821
      -0.788
      -0.727
      -0.635
      -0.509
      -0.355
      -0.192
      -0.049
       0.053
       0.112
       0.144
       0.163
       0.178
       0.188
       0.189
       0.175
       0.134
       0.062
      -0.037
      -0.155
      -0.287
      -0.431
      -0.579
      -0.718
      -0.830
      -0.893
      -0.892
      -0.827
      -0.710
      -0.559
      -0.385
      -0.203
      -0.033
       0.111
       0.228
       0.323
       0.408
       0.488
       0.568
       0.640
       0.695
       0.728
       0.740
       0.734
       0.710
       0.673
       0.627
       0.577
       0.524
       0.466
       0.401
       0.329
       0.248
       0.159
       0.068
      -0.018
      -0.099
      -0.169
      -0.217
      -0.235
      -0.218
      -0.164
      -0.078
       0.032
       0.145
       0.249
       0.338
       0.416
       0.481
       0.534
       0.577
       0.609
       0.628
       0.623
       0.589
       0.518
       0.406
       0.256
       0.080
      -0.099
      -0.260
      -0.387
      -0.475
      -0.536
      -0.584
      -0.621
      -0.639
      -0.628
      -0.588
      -0.516
      -0.407
      -0.259
      -0.084
       0.088
       0.231
       0.328
       0.377
       0.388
       0.368
       0.321
       0.243
       0.141
       0.026
      -0.094
      -0.216
      -0.342
      -0.462
      -0.563
      -0.630
      -0.652
      -0.631
      -0.576
      -0.503
      -0.423
      -0.344
      -0.269
      -0.206
      -0.159
      -0.126
      -0.102
      -0.082
      -0.064
      -0.046
      -0.036
      -0.042
      -0.062
      -0.081
      -0.086
      -0.075
      -0.054
      -0.027
       0.013
       0.075
       0.165
       0.277
       0.385
       0.456
       0.475
       0.442
       0.369
       0.265
       0.142
       0.009
      -0.120
      -0.238
      -0.334
      -0.405
      -0.456
      -0.489
      -0.500
      -0.482
      -0.436
      -0.372
      -0.303
      -0.235
      -0.162
      -0.081
       0.004
       0.078
       0.126
       0.145
       0.151
       0.162
       0.181
       0.199
       0.208
       0.213
       0.224
       0.246
       0.278
       0.319
       0.368
       0.427
       0.509
       0.622
       0.766
       0.925
       1.079
       1.215
       1.328
       1.416
       1.483
       1.532
       1.564
       1.577
       1.574
       1.568
       1.571
       1.587
       1.615
       1.641
       1.645
       1.607
       1.523
       1.405
       1.271
       1.123
       0.945
       0.716
       0.425
       0.084
      -0.276
      -0.625
      -0.944
      -1.231
      -1.483
      -1.689
      -1.837
      -1.922
      -1.944
      -1.906
      -1.816
      -1.681
      -1.514
      -1.331
      -1.151
      -0.988
      -0.841
      -0.706
      -0.583
      -0.477
      -0.388
      -0.301
      -0.207
      -0.112
      -0.042
      -0.024
      -0.066
      -0.150
      -0.251
      -0.356
      -0.470
      -0.600
      -0.744
      -0.886
      -1.013
      -1.116
      -1.192
      -1.249
      -1.301
      -1.358
      -1.413
      -1.450
      -1.463
      -1.459
      -1.446
      -1.419
      -1.368
      -1.288
      -1.177
      -1.040
      -0.884
      -0.722
      -0.555
      -0.378
      -0.185
       0.018
       0.218
       0.401
       0.562
       0.704
       0.838
       0.969
       1.094
       1.207
       1.304
       1.382
       1.436
       1.461
       1.460
       1.441
       1.412
       1.369
       1.304
       1.212
       1.091
       0.947
       0.790
       0.631
       0.474
       0.319
       0.166
       0.025
      -0.097
      -0.196
      -0.281
      -0.361
      -0.442
      -0.516
      -0.561
      -0.559
      -0.511
      -0.431
      -0.325
      -0.187
      -0.010
       0.204
       0.444
       0.688
       0.915
       1.102
       1.234
       1.305
       1.313
       1.266
       1.177
       1.064
       0.940
       0.816
       0.700
       0.593
       0.490
       0.395
       0.329
       0.316
       0.359
       0.434
       0.507
       0.556
       0.575
       0.568
       0.541
       0.495
       0.431
       0.349
       0.254
       0.154
       0.054
      -0.044
      -0.149
      -0.276
      -0.446
      -0.664
      -0.914
      -1.161
      -1.381
      -1.568
      -1.730
      -1.865
      -1.968
      -2.027
      -2.036
      -1.995
      -1.915
      -1.816
      -1.719
      -1.636
      -1.572
      -1.521
      -1.474
      -1.418
      -1.347
      -1.258
      -1.158
      -1.063
      -0.994
      -0.962
      -0.959
      -0.960
      -0.937
      -0.876
      -0.773
      -0.641
      -0.504
      -0.380
      -0.280
      -0.201
      -0.137
      -0.086
      -0.045
      -0.018
      -0.014
      -0.031
      -0.059
      -0.090
      -0.120
      -0.151
      -0.179
      -0.192
      -0.185
      -0.162
      -0.125
      -0.072
       0.007
       0.119
       0.267
       0.443
       0.630
       0.815
       0.999
       1.185
       1.364
       1.515
       1.629
       1.717
       1.805
       1.908
       2.025
       2.142
       2.247
       2.336
       2.406
       2.443
       2.424
       2.336
       2.184
       1.983
       1.744
       1.467
       1.159
       0.831
       0.499
       0.178
      -0.121
      -0.390
      -0.624
      -0.817
      -0.964
      -1.067
      -1.132
      -1.161
      -1.147
      -1.089
      -0.999
      -0.896
      -0.786
      -0.657
      -0.504
      -0.339
      -0.187
      -0.065
       0.016
       0.052
       0.043
      -0.006
      -0.089
      -0.199
      -0.327
      -0.464
      -0.594
      -0.701
      -0.771
      -0.803
      -0.812
      -0.815
      -0.806
      -0.755
      -0.628
      -0.410
      -0.120
       0.199
       0.502
       0.766
       0.989
       1.168
       1.290
       1.345
       1.342
       1.309
       1.267
       1.221
       1.176
       1.143
       1.132
       1.140
       1.147
       1.130
       1.077
       0.994
       0.898
       0.807
       0.734
       0.685
       0.652
       0.612
       0.544
       0.445
       0.333
       0.222
       0.102
      -0.051
      -0.245
      -0.463
      -0.674
      -0.850
      -0.978
      -1.056
      -1.094
      -1.104
      -1.097
      -1.081
      -1.062
      -1.040
      -1.014
      -0.985
      -0.958
      -0.939
      -0.931
      -0.934
      -0.950
      -0.975
      -0.994
      -0.998
      -0.983
      -0.956
      -0.924
      -0.890
      -0.855
      -0.819
      -0.776
      -0.728
      -0.683
      -0.644
      -0.608
      -0.567
      -0.517
      -0.454
      -0.373
      -0.271
      -0.160
      -0.054
       0.044
       0.144
       0.249
       0.351
       0.440
       0.514
       0.581
       0.650
       0.719
       0.777
       0.817
       0.850
       0.891
       0.938
       0.961
       0.919
       0.799
       0.616
       0.400
       0.181
      -0.022
      -0.189
      -0.309
      -0.372
      -0.373
      -0.311
      -0.197
      -0.054
       0.094
       0.227
       0.343
       0.446
       0.537
       0.602
       0.621
       0.581
       0.487
       0.355
       0.193
       0.002
      -0.212
      -0.448
      -0.702
      -0.970
      -1.228
      -1.452
      -1.628
      -1.768
      -1.891
      -1.999
      -2.078
      -2.101
      -2.052
      -1.938
      -1.786
      -1.620
      -1.448
      -1.267
      -1.079
      -0.890
      -0.706
      -0.532
      -0.375
      -0.244
      -0.138
      -0.038
       0.081
       0.237
       0.426
       0.625
       0.805
       0.958
       1.104
       1.271
       1.465
       1.665
       1.839
       1.961
       2.019
       2.024
       1.995
       1.948
       1.885
       1.794
       1.662
       1.492
       1.298
       1.099
       0.907
       0.717
       0.516
       0.300
       0.089
      -0.081
      -0.174
      -0.171
      -0.075
       0.086
       0.271
       0.456
       0.628
       0.787
       0.930
       1.054
       1.163
       1.262
       1.350
       1.421
       1.467
       1.480
       1.451
       1.380
       1.278
       1.153
       1.001
       0.812
       0.589
       0.351
       0.125
      -0.075
      -0.245
      -0.398
      -0.547
      -0.693
      -0.830
      -0.954
      -1.067
      -1.173
      -1.271
      -1.352
      -1.410
      -1.438
      -1.432
      -1.395
      -1.343
      -1.289
      -1.238
      -1.190
      -1.141
      -1.093
      -1.040
      -0.973
      -0.892
      -0.799
      -0.704
      -0.609
      -0.513
      -0.416
      -0.323
      -0.242
      -0.185
      -0.155
      -0.148
      -0.163
      -0.203
      -0.271
      -0.363
      -0.474
      -0.593
      -0.702
      -0.781
      -0.813
      -0.803
      -0.767
      -0.718
      -0.662
      -0.597
      -0.518
      -0.420
      -0.310
      -0.205
      -0.117
      -0.046
       0.022
       0.101
       0.199
       0.320
       0.454
       0.583
       0.695
       0.795
       0.903
       1.027
       1.148
       1.231
       1.253
       1.217
       1.150
       1.083
       1.022
       0.956
       0.868
       0.758
       0.635
       0.512
       0.394
       0.278
       0.164
       0.057
      -0.031
      -0.091
      -0.120
      -0.120
      -0.091
      -0.034
       0.043
       0.124
       0.201
       0.275
       0.340
       0.381
       0.381
       0.332
       0.239
       0.114
      -0.032
      -0.186
      -0.335
      -0.466
      -0.566
      -0.630
      -0.658
      -0.661
      -0.649
      -0.621
      -0.564
      -0.464
      -0.314
      -0.130
       0.062
       0.228
       0.351
       0.426
       0.459
       0.454
       0.413
       0.344
       0.256
       0.164
       0.076
      -0.004
      -0.083
      -0.165
      -0.250
      -0.326
      -0.384
      -0.425
      -0.451
      -0.461
      -0.450
      -0.422
      -0.385
      -0.356
      -0.344
      -0.350
      -0.365
      -0.378
      -0.387
      -0.401
      -0.426
      -0.459
      -0.493
      -0.528
      -0.559
      -0.578
      -0.581
      -0.572
      -0.561
      -0.548
      -0.526
      -0.480
      -0.399
      -0.279
      -0.124
       0.055
       0.243
       0.432
       0.609
       0.766
       0.898
       1.000
       1.067
       1.090
       1.073
       1.037
       1.006
       0.994
       0.997
       1.000
       0.990
       0.957
       0.894
       0.794
       0.650
       0.461
       0.240
       0.013
      -0.201
      -0.392
      -0.560
      -0.699
      -0.802
      -0.863
      -0.876
      -0.842
      -0.775
      -0.701
      -0.640
      -0.593
      -0.545
      -0.482
      -0.408
      -0.337
      -0.287
      -0.260
      -0.251
      -0.255
      -0.273
      -0.310
      -0.360
      -0.411
      -0.453
      -0.485
      -0.506
      -0.510
