Origin Time       05/3/2012 07:41:05	
Lat.              28.7 N	
Long.             76.6 E	
Depth (Km)         14.0
Magnitude         4.9
 Region           Haryana-Delhi-Border-Region                                      
 Above details taken from IMD 
     
Station Code      SON
Station Lat.       29.000  N
Station Long.      77.010  E
Station Height(m)  230.0
Site Class        C   Vs30 between 200 m/sec to 375 m/sec *  
Record Time       05.03.2012 07:40:59.549
Sampling Rate     200. Hz
 Record Duration   81.455 Sec.
 Direction         E-W (E positive)
Max. Acceleration     26.561 cm/sec**2
     
  * For reference see Site Classification link of website 
     
 Base Line Corrected and Low Pass Filtered (Cut Off at 35 Hz) Time History
 Acceleration data in cm/sec**2
    
[...]
      -0.650
       0.270
       1.241
       2.091
       2.684
       2.962
       2.937
       2.686
       2.337
       2.039
       1.890
       1.876
       1.848
       1.584
       0.903
      -0.208
      -1.554
      -2.802
      -3.639
      -3.910
      -3.668
      -3.111
      -2.471
      -1.902
      -1.423
      -0.936
      -0.311
       0.511
       1.459
       2.352
       2.983
       3.220
       3.058
       2.593
       1.954
       1.234
       0.473
      -0.300
      -1.010
      -1.523
      -1.709
      -1.502
      -0.949
      -0.188
       0.584
       1.176
       1.477
       1.489
       1.308
       1.025
       0.656
       0.133
      -0.609
      -1.542
      -2.519
      -3.319
      -3.725
      -3.598
      -2.944
      -1.938
      -0.867
      -0.008
       0.499
       0.716
       0.841
       1.064
       1.425
       1.790
       1.957
       1.816
       1.430
       0.979
       0.643
       0.512
       0.556
       0.654
       0.661
       0.489
       0.167
      -0.186
      -0.440
      -0.544
      -0.540
      -0.518
      -0.561
      -0.718
      -0.995
      -1.343
      -1.663
      -1.836
      -1.783
      -1.507
      -1.099
      -0.697
      -0.418
      -0.286
      -0.215
      -0.061
       0.281
       0.801
       1.357
       1.762
       1.898
       1.785
       1.558
       1.372
       1.312
       1.358
       1.417
       1.390
       1.231
       0.962
       0.655
       0.394
       0.229
       0.145
       0.060
      -0.145
      -0.553
      -1.140
      -1.751
      -2.143
      -2.117
      -1.646
      -0.916
      -0.228
       0.168
       0.206
       0.019
      -0.161
      -0.138
       0.152
       0.627
       1.115
       1.426
       1.435
       1.126
       0.598
       0.011
      -0.502
      -0.887
      -1.166
      -1.382
      -1.549
      -1.627
      -1.543
      -1.250
      -0.782
      -0.246
       0.216
       0.483
       0.511
       0.364
       0.197
       0.164
       0.308
       0.514
       0.583
       0.373
      -0.114
      -0.720
      -1.186
      -1.251
      -0.776
       0.169
       1.297
       2.235
       2.698
       2.612
       2.105
       1.399
       0.702
       0.145
      -0.230
      -0.465
      -0.641
      -0.821
      -1.005
      -1.139
      -1.146
      -0.972
      -0.636
      -0.243
       0.066
       0.214
       0.250
       0.291
       0.374
       0.374
       0.077
      -0.627
      -1.620
      -2.602
      -3.248
      -3.356
      -2.901
      -2.023
      -0.983
      -0.052
       0.615
       1.053
       1.416
       1.815
       2.206
       2.426
       2.333
       1.902
       1.237
       0.494
      -0.179
      -0.664
      -0.879
      -0.791
      -0.432
       0.104
       0.699
       1.264
       1.766
       2.209
       2.563
       2.725
       2.560
       2.010
       1.170
       0.247
      -0.549
      -1.094
      -1.361
      -1.402
      -1.322
      -1.234
      -1.190
      -1.155
      -1.040
      -0.797
      -0.478
      -0.198
      -0.049
      -0.027
      -0.054
      -0.049
       0.006
       0.055
       0.011
      -0.190
      -0.550
      -1.010
      -1.489
      -1.917
      -2.229
      -2.348
      -2.168
      -1.597
      -0.628
       0.609
       1.857
       2.818
       3.273
       3.170
       2.621
       1.837
       1.040
       0.399
      -0.002
      -0.184
      -0.236
      -0.263
      -0.341
      -0.508
      -0.774
      -1.131
      -1.547
      -1.952
      -2.231
      -2.259
      -1.949
      -1.303
      -0.429
       0.498
       1.296
       1.837
       2.069
       2.013
       1.749
       1.415
       1.172
       1.135
       1.291
       1.483
       1.495
       1.186
       0.570
      -0.210
      -0.961
      -1.507
      -1.736
      -1.626
      -1.269
      -0.828
      -0.464
      -0.276
      -0.296
      -0.525
      -0.932
      -1.431
      -1.875
      -2.109
      -2.046
      -1.706
      -1.193
      -0.644
      -0.160
       0.220
       0.505
       0.713
       0.847
       0.914
       0.948
       1.005
       1.128
       1.333
       1.609
       1.921
       2.208
       2.388
       2.403
       2.256
       2.004
       1.702
       1.352
       0.906
       0.323
      -0.365
      -1.050
      -1.603
      -1.954
      -2.118
      -2.161
      -2.121
      -1.962
      -1.634
      -1.164
      -0.704
      -0.437
      -0.427
      -0.546
      -0.554
      -0.261
       0.344
       1.085
       1.708
       2.029
       2.015
       1.762
       1.407
       1.051
       0.741
       0.484
       0.269
       0.055
      -0.222
      -0.613
      -1.123
      -1.702
      -2.265
      -2.705
      -2.907
      -2.783
      -2.319
      -1.596
      -0.748
       0.094
       0.827
       1.362
       1.624
       1.596
       1.355
       1.056
       0.844
       0.772
       0.788
       0.796
       0.745
       0.653
       0.569
       0.535
       0.568
       0.666
       0.812
       0.971
       1.114
       1.245
       1.396
       1.582
       1.736
       1.690
       1.262
       0.401
      -0.724
      -1.790
      -2.506
      -2.790
      -2.784
      -2.736
      -2.817
      -3.020
      -3.179
      -3.083
      -2.601
      -1.767
      -0.790
       0.028
       0.430
       0.326
      -0.164
      -0.788
      -1.282
      -1.483
      -1.369
      -1.023
      -0.567
      -0.122
       0.217
       0.405
       0.495
       0.643
       1.008
       1.639
       2.414
       3.107
       3.498
       3.467
       3.019
       2.256
       1.318
       0.337
      -0.576
      -1.325
      -1.824
      -2.023
      -1.925
      -1.576
      -1.048
      -0.426
       0.170
       0.592
       0.713
       0.501
       0.050
      -0.456
      -0.816
      -0.876
      -0.561
       0.089
       0.918
       1.700
       2.212
       2.314
       1.979
       1.296
       0.440
      -0.371
      -0.964
      -1.267
      -1.323
      -1.223
      -1.038
      -0.779
      -0.424
       0.030
       0.526
       0.935
       1.098
       0.892
       0.328
      -0.404
      -0.987
      -1.138
      -0.766
      -0.031
       0.735
       1.191
       1.133
       0.586
      -0.228
      -0.991
      -1.443
      -1.470
      -1.122
      -0.555
       0.047
       0.544
       0.902
       1.191
       1.508
       1.883
       2.219
       2.331
       2.071
       1.425
       0.543
      -0.331
      -0.967
      -1.217
      -1.047
      -0.535
       0.141
       0.744
       1.070
       1.041
       0.727
       0.280
      -0.162
      -0.513
      -0.715
      -0.721
      -0.527
      -0.219
       0.057
       0.192
       0.185
       0.108
       0.014
      -0.123
      -0.358
      -0.688
      -1.027
      -1.264
      -1.342
      -1.251
      -0.990
      -0.564
      -0.044
       0.397
       0.545
       0.274
      -0.356
      -1.111
      -1.696
      -1.909
      -1.723
      -1.276
      -0.775
      -0.372
      -0.100
       0.114
       0.350
       0.605
       0.785
       0.777
       0.556
       0.248
       0.090
       0.293
       0.903
       1.753
       2.543
       2.973
       2.867
       2.234
       1.275
       0.298
      -0.425
      -0.787
      -0.877
      -0.902
      -1.060
      -1.426
      -1.930
      -2.401
      -2.631
      -2.445
      -1.768
      -0.698
       0.462
       1.314
       1.568
       1.215
       0.528
      -0.112
      -0.425
      -0.342
       0.020
       0.470
       0.825
       0.957
       0.834
       0.547
       0.279
       0.206
       0.389
       0.729
       1.017
       1.048
       0.722
       0.099
      -0.629
      -1.232
      -1.539
      -1.479
      -1.087
      -0.504
       0.038
       0.284
       0.099
      -0.413
      -0.928
      -1.094
      -0.754
      -0.040
       0.744
       1.307
       1.506
       1.373
       1.047
       0.675
       0.333
       0.020
      -0.279
      -0.542
      -0.712
      -0.757
      -0.678
      -0.485
      -0.186
       0.174
       0.484
       0.625
       0.567
       0.394
       0.216
       0.080
      -0.025
      -0.110
      -0.152
      -0.133
      -0.084
      -0.056
      -0.068
      -0.085
      -0.044
       0.105
       0.368
       0.703
       1.017
       1.189
       1.103
       0.687
      -0.062
      -1.051
      -2.082
      -2.895
      -3.261
      -3.080
      -2.418
      -1.482
      -0.528
       0.253
       0.807
       1.216
       1.603
       2.036
       2.482
       2.828
       2.944
       2.758
       2.297
       1.685
       1.081
       0.580
       0.141
      -0.361
      -1.004
      -1.711
      -2.287
      -2.569
      -2.572
      -2.486
      -2.522
      -2.732
      -2.948
      -2.888
      -2.358
      -1.384
      -0.194
       0.915
       1.702
       2.036
       1.880
       1.289
       0.433
      -0.404
      -0.901
      -0.855
      -0.284
       0.585
       1.455
       2.115
       2.484
       2.569
       2.391
       1.970
       1.355
       0.657
       0.031
      -0.392
      -0.574
      -0.587
      -0.566
      -0.642
      -0.886
      -1.297
      -1.792
      -2.217
      -2.380
      -2.139
      -1.498
      -0.645
       0.131
       0.601
       0.713
       0.612
       0.535
       0.670
       1.059
       1.579
       2.013
       2.141
       1.825
       1.064
       0.009
      -1.033
      -1.688
      -1.667
      -0.932
       0.263
       1.489
       2.335
       2.557
       2.142
       1.306
       0.413
      -0.184
      -0.322
      -0.126
       0.096
       0.084
      -0.197
      -0.567
      -0.801
      -0.811
      -0.703
      -0.661
      -0.784
      -1.001
      -1.154
      -1.160
      -1.080
      -1.036
      -1.077
      -1.118
      -1.002
      -0.594
       0.155
       1.171
       2.261
       3.153
       3.594
       3.454
       2.779
       1.766
       0.680
      -0.233
      -0.806
      -0.993
      -0.866
      -0.582
      -0.319
      -0.225
      -0.366
      -0.719
      -1.204
      -1.735
      -2.234
      -2.608
      -2.737
      -2.520
      -1.957
      -1.161
      -0.312
       0.424
       0.949
       1.243
       1.342
       1.333
       1.337
       1.459
       1.703
       1.940
       1.985
       1.747
       1.317
       0.918
       0.744
       0.833
       1.052
       1.187
       1.068
       0.659
       0.069
      -0.505
      -0.902
      -1.101
      -1.225
      -1.423
      -1.735
      -2.078
      -2.356
      -2.565
      -2.772
      -2.997
      -3.137
      -3.022
      -2.533
      -1.716
      -0.770
       0.080
       0.716
       1.169
       1.537
       1.882
       2.182
       2.350
       2.297
       2.006
       1.568
       1.139
       0.854
       0.758
       0.791
       0.831
       0.769
       0.580
       0.330
       0.120
       0.007
      -0.014
       0.024
       0.113
       0.267
       0.470
       0.627
       0.592
       0.283
      -0.220
      -0.696
      -0.913
      -0.766
      -0.335
       0.158
       0.470
       0.466
       0.188
      -0.180
      -0.440
      -0.488
      -0.346
      -0.108
       0.122
       0.280
       0.347
       0.337
       0.267
       0.134
      -0.068
      -0.296
      -0.422
      -0.291
       0.147
       0.742
       1.199
       1.248
       0.821
       0.085
      -0.684
      -1.270
      -1.619
      -1.820
      -2.011
      -2.295
      -2.697
      -3.173
      -3.640
      -3.999
      -4.139
      -3.976
      -3.509
      -2.864
      -2.241
      -1.776
      -1.416
      -0.948
      -0.152
       1.005
       2.320
       3.476
       4.244
       4.617
       4.789
       5.011
       5.430
       6.005
       6.563
       6.939
       7.079
       7.049
       6.979
       6.973
       7.041
       7.062
       6.846
       6.253
       5.294
       4.127
       2.941
       1.836
       0.785
      -0.299
      -1.476
      -2.734
      -4.005
      -5.187
      -6.190
      -6.998
      -7.695
      -8.399
      -9.158
      -9.894
     -10.479
     -10.832
     -10.955
     -10.855
     -10.463
      -9.644
      -8.312
      -6.566
      -4.702
      -3.084
      -1.948
      -1.275
      -0.784
      -0.058
       1.251
       3.223
       5.591
       7.879
       9.679
      10.871
      11.608
      12.077
      12.286
      12.042
      11.136
       9.511
       7.306
       4.779
       2.217
      -0.078
      -1.804
      -2.700
      -2.638
      -1.719
      -0.295
       1.125
       2.079
       2.372
       2.163
       1.839
       1.745
       1.956
       2.232
       2.150
       1.305
      -0.547
      -3.413
      -7.068
     -11.081
     -14.886
     -17.885
     -19.601
     -19.820
     -18.631
     -16.318
     -13.206
      -9.600
      -5.830
      -2.264
       0.797
       3.289
       5.458
       7.728
      10.442
      13.635
      16.969
      19.865
      21.751
      22.266
      21.296
      18.885
      15.125
      10.145
       4.177
      -2.408
      -9.113
     -15.360
     -20.556
     -24.220
     -26.134
     -26.414
     -25.451
     -23.747
     -21.750
     -19.692
     -17.500
     -14.833
     -11.275
      -6.592
      -0.900
       5.367
      11.620
      17.284
      21.887
      25.065
      26.561
      26.279
      24.366
      21.249
      17.516
      13.732
      10.331
       7.636
       5.887
       5.171
       5.279
       5.694
       5.776
       5.070
       3.521
       1.455
      -0.629
      -2.327
      -3.503
      -4.290
      -4.937
      -5.617
      -6.340
      -6.993
      -7.474
      -7.819
      -8.251
      -9.104
     -10.603
     -12.648
     -14.764
     -16.289
     -16.687
     -15.747
     -13.565
     -10.391
      -6.537
      -2.359
       1.757
       5.437
       8.368
      10.317
      11.164
      10.983
      10.089
       8.961
       8.041
       7.527
       7.284
       6.908
       5.932
       4.075
       1.437
      -1.490
      -4.008
      -5.524
      -5.817
      -5.145
      -4.152
      -3.593
      -3.964
      -5.207
      -6.668
      -7.381
      -6.575
      -4.121
      -0.610
       3.001
       5.929
       7.944
       9.334
      10.535
      11.713
      12.594
      12.644
      11.423
       8.881
       5.403
       1.645
      -1.699
      -4.090
      -5.265
      -5.298
      -4.579
      -3.688
      -3.164
      -3.268
      -3.876
      -4.614
      -5.145
      -5.404
      -5.586
      -5.898
      -6.267
      -6.288
      -5.497
      -3.793
      -1.605
       0.367
       1.640
       2.254
       2.666
       3.341
       4.404
       5.576
       6.381
       6.448
       5.696
       4.351
       2.811
       1.415
       0.263
      -0.830
      -2.209
      -4.181
      -6.795
      -9.690
     -12.078
     -12.997
     -11.781
      -8.468
      -3.844
       0.886
       4.594
       6.626
       6.988
       6.248
       5.216
       4.539
       4.455
       4.799
       5.221
       5.447
       5.447
       5.440
       5.726
       6.431
       7.315
       7.804
       7.266
       5.403
       2.511
      -0.613
      -3.064
      -4.298
      -4.375
      -3.852
      -3.419
      -3.510
      -4.147
      -5.063
      -5.946
      -6.575
      -6.804
      -6.504
      -5.620
      -4.267
      -2.750
      -1.413
      -0.456
       0.107
       0.318
       0.111
      -0.655
      -2.010
      -3.716
      -5.285
      -6.154
      -5.920
      -4.519
      -2.246
       0.376
       2.816
       4.739
       6.107
       7.132
       8.090
       9.108
      10.066
      10.670
      10.606
       9.670
       7.819
       5.192
       2.083
      -1.152
      -4.171
      -6.645
      -8.186
      -8.367
      -6.971
      -4.313
      -1.345
       0.682
       0.844
      -0.923
      -3.758
      -6.326
      -7.518
      -6.943
      -4.951
      -2.273
       0.358
       2.385
       3.454
       3.464
       2.665
       1.610
       0.854
       0.594
       0.564
       0.313
      -0.386
      -1.335
      -2.056
      -2.162
      -1.681
      -1.120
      -1.191
      -2.337
      -4.351
      -6.379
      -7.346
      -6.554
      -4.063
      -0.638
       2.703
       5.258
       6.952
       8.212
       9.522
      11.014
      12.369
      13.029
      12.536
      10.751
       7.889
       4.426
       0.969
      -1.891
      -3.741
      -4.486
      -4.388
      -3.955
      -3.711
      -3.949
      -4.582
      -5.203
      -5.350
      -4.844
      -3.956
      -3.233
      -3.092
      -3.490
      -3.930
      -3.780
      -2.661
      -0.701
       1.476
       2.987
       3.113
       1.706
      -0.646
      -2.866
      -3.922
      -3.352
      -1.459
       0.887
       2.706
       3.383
       2.945
       1.975
       1.222
       1.174
       1.881
       3.100
       4.551
       6.045
       7.486
       8.840
      10.136
      11.416
      12.582
      13.237
      12.704
      10.281
       5.645
      -0.827
      -8.012
     -14.348
     -18.415
     -19.515
     -17.937
     -14.739
     -11.201
      -8.263
      -6.243
      -4.862
      -3.486
      -1.464
       1.492
       5.055
       8.354
      10.430
      10.820
       9.847
       8.410
       7.407
       7.181
       7.380
       7.262
       6.215
       4.101
       1.246
      -1.846
      -4.790
      -7.398
      -9.557
     -11.088
     -11.753
     -11.396
     -10.063
      -8.021
      -5.687
      -3.517
      -1.875
      -0.948
      -0.743
      -1.165
      -2.066
      -3.208
      -4.247
      -4.811
      -4.679
      -3.887
      -2.691
      -1.438
      -0.450
       0.059
       0.087
      -0.050
       0.239
       1.527
       3.953
       6.995
       9.694
      11.230
      11.429
      10.813
      10.171
      10.011
      10.288
      10.547
      10.287
       9.282
       7.655
       5.708
       3.630
       1.343
      -1.381
      -4.633
      -8.179
     -11.509
     -14.071
     -15.512
     -15.778
     -15.083
     -13.812
     -12.401
     -11.177
     -10.198
      -9.189
      -7.660
      -5.175
      -1.653
       2.483
       6.425
       9.332
      10.669
      10.360
       8.710
       6.268
       3.731
       1.805
       0.974
       1.272
       2.270
       3.290
       3.691
       3.062
       1.289
      -1.438
      -4.666
      -7.818
     -10.375
     -11.988
     -12.473
     -11.776
     -10.013
      -7.498
      -4.641
      -1.689
       1.438
       5.009
       9.081
      13.193
      16.441
      17.920
      17.214
      14.634
      11.053
       7.516
       4.863
       3.521
       3.460
       4.232
       5.113
       5.332
       4.348
       2.043
      -1.248
      -4.909
      -8.302
     -10.997
     -12.859
     -13.986
     -14.513
     -14.441
     -13.579
     -11.701
      -8.788
      -5.184
      -1.499
       1.680
       4.069
       5.789
       7.212
       8.668
      10.170
      11.376
      11.836
      11.323
       9.980
       8.158
