Origin Time       05/3/2012 07:41:05	
Lat.              28.7 N	
Long.             76.6 E	
Depth (Km)         14.0
Magnitude         4.9
 Region           Haryana-Delhi-Border-Region                                      
 Above details taken from IMD 
   
Station Code      SON
Station Lat.       29.000
Station Long.      77.010
Station Height(m)  230.0
Site Class        C   Vs30 between 200 m/sec to 375 m/sec *  
Record Time       05.03.2012 07:40:59.549
Sampling Rate     200. Hz
 Record Duration   81.455 Sec.
 Direction         Vert. (Up positive)
Max. Acceleration     22.588 cm/sec**2
     
  * For reference see Site Classification link of website 
     
 Base Line Corrected and Low Pass Filtered (Cut Off at 35 Hz) Time History
 Acceleration data in cm/sec**2
    
[...]
       0.949
       0.699
      -0.287
      -1.653
      -2.887
      -3.520
      -3.335
      -2.449
      -1.204
       0.054
       1.164
       2.106
       2.797
       2.956
       2.303
       0.921
      -0.652
      -1.779
      -2.163
      -1.900
      -1.169
      -0.061
       1.245
       2.289
       2.546
       1.908
       0.847
       0.030
      -0.206
       0.005
       0.346
       0.595
       0.690
       0.662
       0.577
       0.482
       0.323
      -0.047
      -0.724
      -1.605
      -2.384
      -2.741
      -2.597
      -2.195
      -1.875
      -1.713
      -1.450
      -0.837
       0.022
       0.749
       1.087
       1.132
       1.162
       1.348
       1.696
       2.142
       2.625
       3.050
       3.234
       2.941
       2.044
       0.689
      -0.713
      -1.706
      -2.023
      -1.699
      -1.026
      -0.419
      -0.214
      -0.475
      -0.970
      -1.342
      -1.340
      -0.966
      -0.421
       0.063
       0.353
       0.415
       0.239
      -0.155
      -0.644
      -0.972
      -0.854
      -0.159
       0.945
       1.952
       2.228
       1.438
      -0.101
      -1.572
      -2.272
      -2.103
      -1.481
      -0.884
      -0.527
      -0.402
      -0.456
      -0.672
      -1.030
      -1.418
      -1.605
      -1.390
      -0.806
      -0.110
       0.494
       1.078
       1.836
       2.703
       3.249
       3.028
       2.065
       0.942
       0.365
       0.572
       1.119
       1.205
       0.256
      -1.697
      -4.068
      -6.026
      -6.842
      -6.172
      -4.230
      -1.728
       0.443
       1.635
       1.691
       0.935
      -0.010
      -0.435
       0.241
       2.152
       4.713
       6.719
       6.974
       5.083
       1.787
      -1.467
      -3.395
      -3.554
      -2.438
      -0.978
       0.145
       0.863
       1.476
       2.081
       2.314
       1.728
       0.376
      -1.103
      -1.999
      -2.080
      -1.660
      -1.219
      -1.041
      -1.135
      -1.390
      -1.674
      -1.815
      -1.592
      -0.930
      -0.123
       0.273
      -0.080
      -0.918
      -1.542
      -1.386
      -0.390
       1.104
       2.653
       3.793
       4.001
       2.894
       0.665
      -1.764
      -3.205
      -2.985
      -1.357
       0.748
       2.390
       3.142
       3.116
       2.596
       1.702
       0.438
      -0.999
      -2.080
      -2.211
      -1.187
       0.551
       2.047
       2.330
       1.051
      -1.186
      -3.133
      -3.733
      -2.796
      -0.983
       0.786
       1.902
       2.254
       2.114
       1.889
       1.850
       1.970
       1.994
       1.696
       1.022
       0.035
      -1.176
      -2.418
      -3.326
      -3.521
      -2.940
      -1.920
      -0.900
      -0.062
       0.682
       1.397
       1.939
       2.073
       1.750
       1.225
       0.910
       1.040
       1.478
       1.866
       1.968
       1.752
       1.141
      -0.103
      -2.033
      -4.120
      -5.410
      -5.251
      -3.857
      -2.193
      -1.316
      -1.690
      -2.887
      -3.874
      -3.707
      -2.204
      -0.026
       1.882
       2.980
       3.340
       3.334
       3.260
       3.244
       3.342
       3.520
       3.537
       3.052
       2.006
       0.864
       0.312
       0.632
       1.403
       1.833
       1.387
       0.119
      -1.438
      -2.632
      -3.056
      -2.775
      -2.316
      -2.314
      -2.994
      -3.932
      -4.374
      -3.854
      -2.504
      -0.813
       0.764
       1.942
       2.596
       2.835
       3.049
       3.569
       4.176
       4.165
       3.075
       1.291
      -0.227
      -0.782
      -0.437
       0.204
       0.492
       0.042
      -1.125
      -2.521
      -3.378
      -3.174
      -2.039
      -0.575
       0.753
       1.929
       3.030
       3.736
       3.429
       1.872
      -0.307
      -1.981
      -2.433
      -1.912
      -1.320
      -1.387
      -2.125
      -3.006
      -3.521
      -3.511
      -3.045
      -2.191
      -1.024
       0.241
       1.284
       1.921
       2.263
       2.605
       3.187
       4.035
       4.925
       5.441
       5.191
       4.086
       2.460
       0.870
      -0.253
      -0.771
      -0.816
      -0.690
      -0.751
      -1.248
      -2.126
      -3.002
      -3.443
      -3.343
      -3.022
      -2.907
      -3.089
      -3.195
      -2.731
      -1.611
      -0.349
       0.279
      -0.120
      -1.167
      -1.940
      -1.674
      -0.323
       1.463
       2.877
       3.554
       3.733
       3.903
       4.257
       4.472
       4.031
       2.814
       1.315
       0.219
      -0.196
      -0.168
      -0.034
       0.107
       0.313
       0.535
       0.618
       0.513
       0.338
       0.178
      -0.128
      -0.881
      -2.156
      -3.526
      -4.240
      -3.827
      -2.622
      -1.641
      -1.770
      -3.010
      -4.505
      -5.298
      -5.053
      -4.090
      -2.847
      -1.461
       0.106
       1.685
       2.806
       3.098
       2.725
       2.356
       2.643
       3.717
       5.127
       6.213
       6.536
       6.045
       4.932
       3.416
       1.691
       0.059
      -1.035
      -1.247
      -0.706
      -0.057
      -0.025
      -0.884
      -2.332
      -3.800
      -4.804
      -5.041
      -4.400
      -3.056
      -1.500
      -0.291
       0.295
       0.363
       0.209
       0.098
       0.156
       0.324
       0.350
      -0.044
      -0.881
      -1.790
      -2.285
      -2.209
      -1.902
      -1.897
      -2.450
      -3.324
      -3.940
      -3.721
      -2.412
      -0.234
       2.210
       4.252
       5.479
       5.869
       5.732
       5.541
       5.684
       6.210
       6.766
       6.833
       6.104
       4.670
       2.891
       1.112
      -0.530
      -2.071
      -3.530
      -4.773
      -5.614
      -6.055
      -6.326
      -6.609
      -6.771
      -6.416
      -5.228
      -3.220
      -0.699
       1.906
       4.143
       5.628
       6.223
       6.127
       5.701
       5.157
       4.410
       3.260
       1.694
      -0.049
      -1.701
      -3.157
      -4.373
      -5.193
      -5.465
      -5.350
      -5.346
      -5.886
      -6.928
      -7.917
      -8.113
      -7.057
      -4.875
      -2.161
       0.485
       2.842
       5.056
       7.329
       9.619
      11.538
      12.525
      12.285
      11.188
      10.088
       9.570
       9.340
       8.465
       6.210
       2.657
      -1.387
      -4.935
      -7.356
      -8.642
      -9.342
     -10.173
     -11.496
     -13.019
     -14.012
     -13.856
     -12.429
     -10.036
      -7.083
      -3.896
      -0.810
       1.819
       3.835
       5.425
       6.863
       8.078
       8.654
       8.324
       7.403
       6.577
       6.288
       6.348
       6.139
       5.159
       3.453
       1.654
       0.580
       0.689
       1.753
       2.981
       3.480
       2.774
       1.075
      -0.843
      -2.106
      -2.291
      -1.689
      -1.092
      -1.244
      -2.345
      -3.973
      -5.487
      -6.581
      -7.485
      -8.597
      -9.887
     -10.753
     -10.553
      -9.227
      -7.351
      -5.609
      -4.261
      -3.131
      -1.992
      -0.809
       0.416
       1.929
       4.185
       7.389
      10.979
      13.619
      13.917
      11.476
       7.438
       3.937
       2.713
       3.964
       6.306
       7.788
       7.117
       4.328
       0.602
      -2.604
      -4.478
      -5.164
      -5.267
      -5.100
      -4.504
      -3.394
      -2.290
      -2.024
      -2.864
      -4.051
      -4.388
      -3.287
      -1.135
       1.277
       3.442
       5.155
       6.120
       5.899
       4.404
       2.274
       0.558
      -0.035
       0.371
       0.978
       0.882
      -0.427
      -2.879
      -5.892
      -8.546
      -9.870
      -9.339
      -7.328
      -4.998
      -3.483
      -3.079
      -3.202
      -3.068
      -2.287
      -0.853
       1.167
       3.673
       6.307
       8.399
       9.293
       8.729
       6.951
       4.599
       2.495
       1.336
       1.306
       1.914
       2.342
       2.048
       1.047
      -0.349
      -1.894
      -3.373
      -4.368
      -4.356
      -3.202
      -1.447
       0.028
       0.660
       0.575
       0.413
       0.807
       1.895
       3.193
       3.995
       3.993
       3.539
       3.223
       3.205
       3.047
       2.161
       0.365
      -1.986
      -4.286
      -6.049
      -7.122
      -7.717
      -8.213
      -8.797
      -9.207
      -8.919
      -7.665
      -5.725
      -3.668
      -1.912
      -0.650
      -0.099
      -0.485
      -1.602
      -2.530
      -2.083
       0.325
       4.174
       8.119
      10.788
      11.606
      11.082
      10.279
       9.862
       9.689
       9.353
       8.892
       8.688
       8.719
       8.257
       6.469
       3.240
      -0.653
      -4.110
      -6.436
      -7.737
      -8.757
     -10.185
     -11.973
     -13.338
     -13.496
     -12.337
     -10.374
      -8.216
      -6.243
      -4.639
      -3.464
      -2.548
      -1.435
       0.440
       3.379
       7.136
      10.925
      13.715
      14.697
      13.698
      11.220
       8.059
       4.872
       2.028
      -0.251
      -1.818
      -2.725
      -3.309
      -4.024
      -5.117
      -6.447
      -7.586
      -8.141
      -8.043
      -7.586
      -7.153
      -6.896
      -6.590
      -5.772
      -4.129
      -1.860
       0.339
       1.713
       1.995
       1.573
       1.182
       1.497
       2.958
       5.673
       9.262
      12.855
      15.458
      16.493
      16.001
      14.366
      11.970
       9.140
       6.274
       3.777
       1.794
       0.079
      -1.766
      -3.853
      -5.879
      -7.487
      -8.723
     -10.055
     -11.904
     -14.153
     -16.104
     -16.958
     -16.356
     -14.537
     -12.044
      -9.267
      -6.181
      -2.522
       1.752
       6.135
       9.707
      11.637
      11.709
      10.463
       8.833
       7.578
       6.950
       6.781
       6.787
       6.754
       6.480
       5.645
       3.876
       1.145
      -1.813
      -3.684
      -3.521
      -1.655
       0.495
       1.616
       1.470
       0.674
      -0.274
      -1.439
      -2.949
      -4.440
      -5.357
      -5.696
      -6.025
      -6.629
      -6.974
      -6.287
      -4.518
      -2.489
      -1.175
      -0.995
      -1.631
      -2.225
      -1.803
      -0.009
       2.335
       3.722
       3.349
       1.928
       0.957
       1.348
       2.921
       4.949
       6.799
       8.020
       8.208
       7.159
       5.188
       3.122
       1.807
       1.459
       1.462
       0.835
      -0.988
      -3.753
      -6.596
      -8.572
      -9.144
      -8.399
      -6.898
      -5.188
      -3.384
      -1.281
       1.092
       3.114
       3.909
       3.124
       1.351
      -0.272
      -0.998
      -1.071
      -1.417
      -2.724
      -4.790
      -6.729
      -7.684
      -7.311
      -5.757
      -3.374
      -0.496
       2.619
       5.797
       8.901
      11.663
      13.581
      14.181
      13.427
      11.779
       9.786
       7.703
       5.530
       3.298
       1.081
      -1.260
      -4.098
      -7.622
     -11.480
     -14.882
     -16.996
     -17.308
     -15.887
     -13.400
     -10.647
      -7.854
      -4.530
      -0.241
       4.588
       8.930
      12.117
      14.231
      15.516
      15.817
      14.820
      12.659
       9.905
       6.948
       3.659
      -0.131
      -3.986
      -6.981
      -8.538
      -8.977
      -9.074
      -9.178
      -8.963
      -8.007
      -6.385
      -4.570
      -2.948
      -1.628
      -0.627
      -0.045
      -0.041
      -0.726
      -1.988
      -3.282
      -3.721
      -2.683
      -0.506
       1.538
       2.220
       1.425
       0.275
       0.190
       1.744
       4.299
       6.718
       8.470
      10.000
      11.979
      14.285
      15.871
      15.639
      13.358
       9.728
       5.678
       1.763
      -1.823
      -4.916
      -7.326
      -9.137
     -10.864
     -13.011
     -15.373
     -16.959
     -16.871
     -15.221
     -13.019
     -11.204
      -9.988
      -9.072
      -8.133
      -6.883
      -4.928
      -2.006
       1.545
       4.790
       6.942
       8.085
       9.052
      10.585
      12.725
      14.990
      16.898
      18.164
      18.528
      17.704
      15.643
      12.713
       9.491
       6.440
       3.830
       1.708
      -0.254
      -2.656
      -5.788
      -9.124
     -11.642
     -12.830
     -13.242
     -13.873
     -15.053
     -16.146
     -16.347
     -15.533
     -14.242
     -12.969
     -11.648
      -9.704
      -6.554
      -2.211
       2.377
       5.739
       6.992
       6.692
       6.440
       7.469
       9.637
      11.819
      13.137
      13.698
      14.190
      14.956
      15.567
      15.294
      13.881
      11.726
       9.302
       6.607
       3.277
      -0.807
      -5.175
      -9.061
     -11.973
     -13.966
     -15.390
     -16.432
     -16.899
     -16.549
     -15.670
     -15.071
     -15.178
     -15.237
     -13.783
     -10.071
      -4.876
       0.280
       4.547
       8.233
      12.007
      15.924
      19.355
      21.647
      22.588
      22.229
      20.567
      17.630
      13.779
       9.637
       5.613
       1.594
      -2.752
      -7.445
     -12.076
     -16.142
     -19.207
     -20.785
     -20.408
     -18.091
     -14.605
     -11.042
      -8.039
      -5.500
      -2.996
      -0.267
       2.671
       5.655
       8.409
      10.540
      11.693
      11.844
      11.388
      10.841
      10.348
       9.532
       7.911
       5.403
       2.350
      -0.856
      -3.986
      -6.870
      -9.239
     -10.762
     -11.205
     -10.569
      -9.187
      -7.714
      -6.773
      -6.381
      -5.820
      -4.320
      -1.847
       0.962
       3.570
       6.047
       8.737
      11.608
      14.040
      15.213
      14.608
      12.238
       8.647
       4.792
       1.693
      -0.161
      -1.137
      -2.004
      -3.048
      -3.810
      -3.845
      -3.623
      -4.405
      -7.082
     -11.133
     -14.771
     -16.125
     -14.494
     -10.752
      -6.702
      -3.938
      -3.055
      -3.606
      -4.506
      -4.517
      -2.754
       0.766
       4.958
       8.303
       9.989
      10.425
      10.571
      10.862
      10.970
      10.528
       9.806
       9.490
       9.837
      10.218
       9.584
       7.323
       3.680
      -0.462
      -4.051
      -6.310
      -7.092
      -6.947
      -6.701
      -6.840
      -7.296
      -7.802
      -8.259
      -8.662
      -8.806
      -8.331
      -7.114
      -5.422
      -3.586
      -1.620
       0.631
       2.990
       4.896
       6.012
       6.621
       7.172
       7.580
       7.314
       6.177
       4.703
       3.551
       2.710
       1.616
       0.008
      -1.634
      -2.611
      -2.754
      -2.503
      -2.369
      -2.501
      -2.802
      -3.217
      -3.669
      -3.820
      -3.258
      -2.045
      -0.885
      -0.567
      -1.281
      -2.548
      -3.708
      -4.293
      -4.033
      -2.878
      -1.198
       0.333
       1.378
       2.380
       4.039
       6.351
       8.411
       9.225
       8.450
       6.377
       3.617
       1.055
      -0.221
       0.455
       2.588
       4.612
       4.987
       3.324
       0.524
      -2.053
      -3.562
      -4.056
      -4.176
      -4.571
      -5.464
      -6.492
      -6.918
      -6.196
      -4.553
      -2.950
      -2.291
      -2.618
      -3.126
      -2.973
      -1.972
      -0.480
       1.166
       2.830
       4.215
       4.634
       3.488
       1.036
      -1.483
      -2.678
      -2.002
       0.010
       2.349
       4.279
       5.537
       5.981
       5.321
       3.407
       0.715
      -1.645
      -2.529
      -1.501
       0.850
       3.203
       4.262
       3.571
       1.785
       0.072
      -0.870
      -1.172
      -1.264
      -1.260
      -1.027
      -0.662
      -0.563
      -0.949
      -1.533
      -1.813
      -1.609
      -1.207
      -1.111
      -1.703
      -2.951
      -4.259
      -4.689
      -3.585
      -1.206
       1.330
       2.911
       3.294
       3.052
       2.732
       2.249
       1.159
      -0.602
      -2.411
      -3.408
      -3.198
      -2.066
      -0.562
       1.035
       2.765
       4.569
       5.934
       6.072
       4.473
       1.403
      -2.032
      -4.375
      -4.639
      -2.957
      -0.560
       1.006
       0.920
      -0.429
      -1.909
      -2.565
      -2.153
      -0.959
       0.655
       2.466
       4.304
       5.939
       7.041
       7.280
       6.548
       5.127
       3.489
       1.826
      -0.091
      -2.469
      -4.934
      -6.651
      -7.141
      -6.862
      -6.793
      -7.456
      -8.478
      -9.057
      -8.646
      -7.181
      -4.944
      -2.454
      -0.362
       0.888
       1.485
       2.195
       3.691
       5.909
       8.063
       9.231
       8.865
       6.956
       4.016
       1.023
      -0.886
      -0.999
       0.523
       2.744
       4.537
       5.170
       4.539
       3.050
       1.319
      -0.235
      -1.616
      -3.020
      -4.347
      -5.057
      -4.640
      -3.246
      -1.783
      -1.327
      -2.334
      -4.328
      -6.270
      -7.210
      -6.722
      -4.955
      -2.445
       0.175
       2.470
       4.344
       5.879
       6.987
       7.299
       6.535
       4.978
       3.457
       2.733
       2.868
       3.219
       2.972
       1.682
      -0.560
      -3.266
      -5.814
      -7.722
      -8.789
      -9.004
      -8.393
      -7.019
      -5.110
      -3.075
      -1.365
      -0.324
      -0.083
      -0.405
      -0.617
       0.094
       2.046
       4.672
       6.847
       7.715
       7.233
       5.995
       4.653
       3.493
       2.488
       1.597
       0.900
       0.481
       0.300
       0.222
       0.114
      -0.095
      -0.436
      -0.906
      -1.403
      -1.693
      -1.571
      -1.051
      -0.402
       0.022
      -0.027
      -0.588
      -1.482
      -2.347
      -2.765
      -2.461
      -1.412
       0.159
       1.826
       3.054
       3.413
       2.852
       1.746
       0.603
      -0.283
      -0.844
      -0.985
      -0.495
       0.717
       2.364
       3.812
       4.383
       3.726
       2.022
      -0.079
      -1.786
      -2.672
      -2.975
      -3.326
      -4.077
      -4.972
      -5.498
      -5.443
      -4.934
      -4.006
      -2.419
      -0.082
       2.450
       4.177
       4.433
       3.422
       2.018
       1.094
       0.942
       1.120
       0.877
      -0.146
      -1.563
      -2.572
      -2.547
      -1.362
       0.660
       2.873
       4.476
       4.846
       3.940
       2.428
       1.324
       1.302
       2.181
       3.076
       3.105
       2.053
       0.392
      -1.177
      -2.116
      -2.147
