Origin Time       05/3/2012 07:41:05	 UTC
Lat.              28.7 N	
Long.             76.6 E	
Depth (Km)         14.0
Magnitude         4.9
 Region           Haryana-Delhi-Border-Region                                      
 Above details taken from IMD 
    
Station Code      SON
Station Lat.       29.000  N
Station Long.      77.010  E
Station Height(m)  230.0
Site Class        C   Vs30 between 200 m/sec to 375 m/sec *  
Record Time       05.03.2012 07:40:59.549 UTC
Sampling Rate     200. Hz
 Record Duration   81.455 Sec.
 Direction         N-S (N positive)
Max. Acceleration     22.168 cm/sec**2
     
  * For reference see Site Classification link of website 
     
 Base Line Corrected and Low Pass Filtered (Cut Off at 35 Hz) Time History
 Acceleration data in cm/sec**2
    
[...]
       3.428
       3.281
       3.050
       2.836
       2.713
       2.701
       2.749
       2.728
       2.480
       1.912
       1.064
       0.113
      -0.715
      -1.248
      -1.433
      -1.340
      -1.118
      -0.927
      -0.859
      -0.888
      -0.897
      -0.765
      -0.463
      -0.081
       0.212
       0.262
       0.020
      -0.425
      -0.879
      -1.161
      -1.204
      -1.086
      -0.958
      -0.956
      -1.145
      -1.510
      -1.964
      -2.352
      -2.486
      -2.232
      -1.611
      -0.811
      -0.086
       0.393
       0.618
       0.702
       0.779
       0.915
       1.111
       1.341
       1.590
       1.837
       2.019
       2.042
       1.857
       1.517
       1.159
       0.911
       0.818
       0.843
       0.919
       0.975
       0.954
       0.818
       0.564
       0.227
      -0.140
      -0.476
      -0.712
      -0.797
      -0.741
      -0.637
      -0.599
      -0.675
      -0.809
      -0.892
      -0.863
      -0.747
      -0.633
      -0.623
      -0.777
      -1.077
      -1.421
      -1.681
      -1.791
      -1.789
      -1.754
      -1.694
      -1.495
      -1.007
      -0.187
       0.825
       1.772
       2.425
       2.677
       2.543
       2.110
       1.500
       0.866
       0.388
       0.216
       0.379
       0.728
       0.990
       0.947
       0.576
       0.056
      -0.374
      -0.560
      -0.481
      -0.209
       0.144
       0.449
       0.568
       0.402
      -0.026
      -0.547
      -0.919
      -0.980
      -0.750
      -0.414
      -0.197
      -0.233
      -0.511
      -0.892
      -1.155
      -1.081
      -0.565
       0.289
       1.193
       1.832
       2.054
       1.925
       1.641
       1.382
       1.231
       1.166
       1.103
       0.931
       0.567
       0.007
      -0.639
      -1.190
      -1.495
      -1.533
      -1.444
      -1.449
      -1.707
      -2.191
      -2.680
      -2.896
      -2.680
      -2.078
      -1.272
      -0.450
       0.273
       0.846
       1.238
       1.437
       1.464
       1.372
       1.217
       1.009
       0.714
       0.309
      -0.143
      -0.490
      -0.603
      -0.497
      -0.336
      -0.291
      -0.383
      -0.468
      -0.355
       0.044
       0.671
       1.364
       1.932
       2.216
       2.144
       1.757
       1.187
       0.593
       0.085
      -0.311
      -0.649
      -1.014
      -1.451
      -1.923
      -2.327
      -2.544
      -2.493
      -2.147
      -1.535
      -0.719
       0.196
       1.065
       1.713
       2.011
       1.947
       1.634
       1.224
       0.819
       0.456
       0.171
       0.051
       0.195
       0.599
       1.096
       1.421
       1.376
       0.968
       0.407
      -0.017
      -0.103
       0.147
       0.518
       0.701
       0.474
      -0.175
      -1.038
      -1.802
      -2.197
      -2.100
      -1.569
      -0.826
      -0.174
       0.136
       0.064
      -0.161
      -0.181
       0.235
       0.990
       1.701
       1.956
       1.594
       0.805
      -0.037
      -0.660
      -1.065
      -1.421
      -1.818
      -2.126
      -2.115
      -1.685
      -0.967
      -0.206
       0.424
       0.886
       1.209
       1.395
       1.410
       1.251
       0.989
       0.740
       0.572
       0.438
       0.225
      -0.134
      -0.572
      -0.934
      -1.098
      -1.048
      -0.834
      -0.505
      -0.103
       0.281
       0.512
       0.495
       0.268
      -0.011
      -0.166
      -0.097
       0.180
       0.556
       0.869
       0.966
       0.784
       0.377
      -0.158
      -0.776
      -1.485
      -2.228
      -2.811
      -2.991
      -2.676
      -2.027
      -1.342
      -0.839
      -0.513
      -0.195
       0.275
       0.904
       1.542
       2.006
       2.217
       2.244
       2.203
       2.120
       1.905
       1.475
       0.911
       0.447
       0.292
       0.449
       0.730
       0.928
       0.973
       0.919
       0.840
       0.751
       0.631
       0.453
       0.206
      -0.118
      -0.511
      -0.939
      -1.354
      -1.702
      -1.917
      -1.937
      -1.738
      -1.366
      -0.909
      -0.443
      -0.015
       0.328
       0.502
       0.423
       0.100
      -0.323
      -0.637
      -0.694
      -0.504
      -0.195
       0.072
       0.180
       0.077
      -0.214
      -0.567
      -0.758
      -0.571
       0.051
       0.918
       1.675
       2.006
       1.812
       1.231
       0.517
      -0.102
      -0.488
      -0.596
      -0.461
      -0.191
       0.071
       0.213
       0.207
       0.100
      -0.032
      -0.160
      -0.308
      -0.513
      -0.747
      -0.908
      -0.897
      -0.702
      -0.409
      -0.124
       0.116
       0.332
       0.517
       0.585
       0.438
       0.087
      -0.308
      -0.531
      -0.457
      -0.118
       0.336
       0.741
       0.980
       1.011
       0.872
       0.657
       0.474
       0.376
       0.356
       0.364
       0.333
       0.206
      -0.027
      -0.281
      -0.397
      -0.265
       0.065
       0.385
       0.471
       0.230
      -0.273
      -0.887
      -1.444
      -1.792
      -1.811
      -1.459
      -0.820
      -0.089
       0.506
       0.805
       0.773
       0.493
       0.090
      -0.318
      -0.619
      -0.688
      -0.433
       0.109
       0.743
       1.216
       1.391
       1.307
       1.100
       0.858
       0.590
       0.294
       0.048
      -0.022
       0.153
       0.507
       0.865
       1.046
       0.950
       0.588
       0.063
      -0.481
      -0.888
      -1.031
      -0.846
      -0.384
       0.179
       0.616
       0.766
       0.611
       0.235
      -0.268
      -0.859
      -1.507
      -2.134
      -2.603
      -2.788
      -2.651
      -2.262
      -1.761
      -1.286
      -0.893
      -0.529
      -0.098
       0.432
       0.972
       1.385
       1.604
       1.680
       1.742
       1.897
       2.152
       2.391
       2.421
       2.094
       1.419
       0.574
      -0.206
      -0.760
      -1.050
      -1.113
      -0.989
      -0.723
      -0.393
      -0.131
      -0.045
      -0.139
      -0.304
      -0.423
      -0.469
      -0.491
      -0.513
      -0.476
      -0.290
       0.065
       0.486
       0.813
       0.936
       0.867
       0.725
       0.630
       0.610
       0.584
       0.424
       0.054
      -0.503
      -1.127
      -1.669
      -2.011
      -2.101
      -1.950
      -1.606
      -1.124
      -0.557
       0.021
       0.505
       0.784
       0.791
       0.544
       0.160
      -0.194
      -0.374
      -0.352
      -0.235
      -0.195
      -0.344
      -0.672
      -1.070
      -1.390
      -1.489
      -1.269
      -0.733
      -0.024
       0.623
       1.009
       1.092
       1.010
       0.976
       1.115
       1.386
       1.630
       1.707
       1.576
       1.269
       0.810
       0.206
      -0.488
      -1.110
      -1.456
      -1.423
      -1.092
      -0.663
      -0.289
       0.026
       0.366
       0.770
       1.162
       1.410
       1.455
       1.344
       1.160
       0.934
       0.634
       0.247
      -0.141
      -0.361
      -0.256
       0.198
       0.830
       1.322
       1.363
       0.813
      -0.202
      -1.344
      -2.214
      -2.532
      -2.260
      -1.622
      -0.987
      -0.673
      -0.784
      -1.194
      -1.669
      -2.006
      -2.085
      -1.840
      -1.259
      -0.429
       0.445
       1.117
       1.442
       1.447
       1.280
       1.079
       0.883
       0.657
       0.387
       0.128
      -0.038
      -0.057
       0.097
       0.446
       0.993
       1.672
       2.337
       2.833
       3.056
       2.959
       2.522
       1.766
       0.829
      -0.019
      -0.486
      -0.445
      -0.042
       0.361
       0.395
      -0.122
      -1.103
      -2.279
      -3.346
      -4.061
      -4.257
      -3.853
      -2.910
      -1.691
      -0.618
      -0.078
      -0.202
      -0.773
      -1.360
      -1.584
      -1.329
      -0.741
      -0.070
       0.490
       0.827
       0.898
       0.748
       0.559
       0.605
       1.060
       1.811
       2.479
       2.672
       2.286
       1.591
       1.034
       0.911
       1.163
       1.444
       1.407
       0.968
       0.331
      -0.213
      -0.518
      -0.633
      -0.678
      -0.698
      -0.641
      -0.457
      -0.190
       0.034
       0.109
       0.052
      -0.037
      -0.093
      -0.162
      -0.327
      -0.575
      -0.770
      -0.762
      -0.521
      -0.161
       0.141
       0.264
       0.201
       0.016
      -0.240
      -0.571
      -0.962
      -1.308
      -1.428
      -1.220
      -0.779
      -0.322
       0.013
       0.277
       0.599
       0.973
       1.202
       1.081
       0.625
       0.084
      -0.259
      -0.293
      -0.105
       0.151
       0.382
       0.569
       0.700
       0.737
       0.634
       0.401
       0.131
      -0.042
      -0.032
       0.123
       0.300
       0.417
       0.514
       0.678
       0.873
       0.908
       0.628
       0.122
      -0.329
      -0.531
      -0.569
      -0.675
      -0.941
      -1.203
      -1.204
      -0.840
      -0.252
       0.274
       0.494
       0.345
      -0.011
      -0.296
      -0.308
      -0.051
       0.314
       0.635
       0.850
       0.930
       0.813
       0.473
       0.033
      -0.249
      -0.180
       0.185
       0.558
       0.646
       0.351
      -0.204
      -0.811
      -1.321
      -1.666
      -1.801
      -1.684
      -1.323
      -0.824
      -0.349
      -0.007
       0.214
       0.400
       0.602
       0.789
       0.879
       0.826
       0.670
       0.514
       0.429
       0.390
       0.295
       0.083
      -0.169
      -0.275
      -0.096
       0.320
       0.739
       0.904
       0.718
       0.291
      -0.157
      -0.449
      -0.525
      -0.426
      -0.241
      -0.074
      -0.015
      -0.114
      -0.346
      -0.603
      -0.750
      -0.705
      -0.484
      -0.168
       0.170
       0.488
       0.736
       0.812
       0.590
       0.031
      -0.723
      -1.398
      -1.763
      -1.798
      -1.675
      -1.579
      -1.557
      -1.536
      -1.452
      -1.297
      -1.061
      -0.671
      -0.055
       0.713
       1.388
       1.711
       1.633
       1.384
       1.293
       1.500
       1.817
       1.882
       1.479
       0.730
      -0.022
      -0.499
      -0.670
      -0.675
      -0.622
      -0.497
      -0.254
       0.059
       0.316
       0.459
       0.593
       0.883
       1.353
       1.802
       1.932
       1.582
       0.844
      -0.003
      -0.675
      -1.013
      -0.989
      -0.639
      -0.047
       0.616
       1.050
       0.932
       0.151
      -1.023
      -2.023
      -2.336
      -1.833
      -0.825
       0.194
       0.863
       1.068
       0.877
       0.395
      -0.277
      -0.998
      -1.552
      -1.707
      -1.366
      -0.661
       0.112
       0.690
       0.995
       1.113
       1.149
       1.117
       0.954
       0.623
       0.162
      -0.338
      -0.792
      -1.133
      -1.300
      -1.226
      -0.861
      -0.219
       0.571
       1.280
       1.657
       1.574
       1.083
       0.381
      -0.310
      -0.830
      -1.097
      -1.085
      -0.823
      -0.416
      -0.037
       0.139
       0.038
      -0.278
      -0.674
      -1.023
      -1.234
      -1.242
      -1.003
      -0.520
       0.134
       0.838
       1.472
       1.939
       2.160
       2.091
       1.763
       1.304
       0.904
       0.730
       0.845
       1.180
       1.564
       1.802
       1.767
       1.456
       0.972
       0.428
      -0.151
      -0.813
      -1.581
      -2.377
      -3.045
      -3.443
      -3.524
      -3.333
      -2.949
      -2.409
      -1.699
      -0.829
       0.084
       0.837
       1.262
       1.346
       1.266
       1.264
       1.457
       1.707
       1.721
       1.306
       0.573
      -0.124
      -0.439
      -0.258
       0.282
       0.937
       1.523
       1.960
       2.223
       2.286
       2.139
       1.855
       1.609
       1.579
       1.788
       2.035
       2.016
       1.563
       0.810
       0.100
      -0.276
      -0.311
      -0.247
      -0.357
      -0.752
      -1.381
      -2.167
      -3.080
      -4.065
      -4.951
      -5.476
      -5.445
      -4.878
      -4.015
      -3.159
      -2.491
      -1.985
      -1.489
      -0.852
      -0.009
       1.032
       2.215
       3.414
       4.421
       5.004
       5.051
       4.664
       4.099
       3.589
       3.218
       2.952
       2.765
       2.688
       2.742
       2.864
       2.933
       2.883
       2.738
       2.548
       2.311
       1.978
       1.559
       1.192
       1.050
       1.144
       1.177
       0.660
      -0.755
      -2.970
      -5.458
      -7.604
      -9.108
     -10.095
     -10.904
     -11.799
     -12.859
     -14.041
     -15.232
     -16.233
     -16.766
     -16.592
     -15.676
     -14.230
     -12.570
     -10.907
      -9.201
      -7.192
      -4.578
      -1.250
       2.560
       6.344
       9.592
      12.080
      13.940
      15.469
      16.873
      18.171
      19.306
      20.266
      21.086
      21.760
      22.168
      22.116
      21.424
      19.997
      17.848
      15.093
      11.944
       8.667
       5.482
       2.440
      -0.608
      -3.879
      -7.441
     -11.087
     -14.407
     -16.986
     -18.590
     -19.242
     -19.184
     -18.762
     -18.284
     -17.914
     -17.613
     -17.163
     -16.269
     -14.716
     -12.509
      -9.927
      -7.422
      -5.396
      -3.989
      -3.026
      -2.134
      -0.931
       0.835
       3.227
       6.088
       9.028
      11.502
      12.985
      13.221
      12.366
      10.966
       9.721
       9.175
       9.508
      10.536
      11.885
      13.157
      14.010
      14.193
      13.627
      12.477
      11.089
       9.759
       8.556
       7.334
       5.928
       4.286
       2.443
       0.409
      -1.853
      -4.318
      -6.805
      -9.016
     -10.710
     -11.875
     -12.748
     -13.633
     -14.621
     -15.439
     -15.596
     -14.720
     -12.790
     -10.104
      -7.074
      -4.078
      -1.387
       0.870
       2.734
       4.374
       5.966
       7.592
       9.198
      10.588
      11.448
      11.435
      10.326
       8.142
       5.145
       1.740
      -1.637
      -4.618
      -6.964
      -8.550
      -9.315
      -9.224
      -8.321
      -6.774
      -4.857
      -2.887
      -1.190
      -0.073
       0.285
      -0.019
      -0.580
      -0.875
      -0.579
       0.240
       1.180
       1.801
       1.926
       1.753
       1.703
       2.142
       3.198
       4.765
       6.597
       8.327
       9.469
       9.523
       8.232
       5.818
       2.974
       0.553
      -0.884
      -1.319
      -1.157
      -0.877
      -0.735
      -0.723
      -0.704
      -0.551
      -0.200
       0.346
       1.000
       1.547
       1.677
       1.121
      -0.132
      -1.730
      -3.090
      -3.743
      -3.651
      -3.241
      -3.148
      -3.876
      -5.583
      -8.044
     -10.734
     -12.987
     -14.218
     -14.142
     -12.866
     -10.831
      -8.607
      -6.652
      -5.135
      -3.896
      -2.582
      -0.858
       1.421
       4.188
       7.253
      10.401
      13.422
      16.069
      18.023
      18.928
      18.503
      16.676
      13.657
       9.919
       6.098
       2.818
       0.497
      -0.785
      -1.251
      -1.241
      -1.008
      -0.661
      -0.271
      -0.022
      -0.217
      -1.132
      -2.822
      -5.044
      -7.406
      -9.617
     -11.603
     -13.351
     -14.654
     -15.123
     -14.503
     -12.948
     -10.908
      -8.736
      -6.463
      -4.006
      -1.521
       0.575
       1.971
       2.796
       3.545
       4.658
       6.201
       7.874
       9.256
      10.029
      10.075
       9.456
       8.352
       7.042
       5.938
       5.521
       6.083
       7.428
       8.876
       9.665
       9.422
       8.243
       6.410
       4.133
       1.569
      -1.010
      -3.232
      -4.890
      -6.160
      -7.490
      -9.183
     -11.056
     -12.529
     -13.103
     -12.790
     -12.089
     -11.543
     -11.275
     -10.921
      -9.988
      -8.294
      -6.115
      -3.941
      -2.115
      -0.656
       0.619
       1.864
       3.084
       4.208
       5.228
       6.228
       7.252
       8.136
       8.500
       7.976
       6.556
       4.753
       3.386
       3.105
       3.995
       5.573
       7.144
       8.218
       8.691
       8.729
       8.529
       8.131
       7.407
       6.207
       4.493
       2.357
      -0.081
      -2.730
      -5.450
      -7.934
      -9.711
     -10.312
      -9.529
      -7.590
      -5.126
      -2.919
      -1.550
      -1.193
      -1.637
      -2.458
      -3.166
      -3.335
      -2.744
      -1.519
      -0.079
       1.128
       1.893
       2.286
       2.487
       2.643
       2.869
       3.288
       3.985
       4.901
       5.851
       6.660
       7.271
       7.686
       7.801
       7.375
       6.209
       4.398
       2.363
       0.616
      -0.574
      -1.328
      -2.032
      -3.054
      -4.505
      -6.224
      -7.968
      -9.595
     -11.058
     -12.243
     -12.880
     -12.669
     -11.527
      -9.750
      -7.926
      -6.628
      -6.069
      -5.942
      -5.585
      -4.407
      -2.278
       0.387
       2.913
       4.788
       5.952
       6.791
       7.853
       9.449
      11.366
      12.884
      13.169
      11.822
       9.197
       6.266
       4.087
       3.256
       3.661
       4.624
       5.264
       4.866
       3.147
       0.401
      -2.577
      -4.823
      -5.717
      -5.338
      -4.402
      -3.791
      -4.004
      -4.902
      -5.860
      -6.249
      -5.911
      -5.286
      -5.065
      -5.610
      -6.622
      -7.336
      -7.084
      -5.763
      -3.864
      -2.107
      -0.958
      -0.344
       0.279
       1.534
       3.616
       6.004
       7.648
       7.607
       5.689
       2.631
      -0.335
      -2.183
      -2.588
      -1.945
      -1.010
      -0.437
      -0.482
      -1.004
      -1.683
      -2.221
      -2.370
      -1.938
      -0.905
       0.436
       1.595
       2.278
       2.613
       2.937
       3.338
       3.498
       3.020
       1.908
       0.668
      -0.064
      -0.030
       0.468
       0.854
       0.743
       0.214
      -0.291
      -0.303
       0.367
       1.530
       2.735
       3.484
       3.419
       2.446
       0.839
      -0.764
      -1.595
      -1.211
       0.146
       1.669
       2.577
       2.667
       2.352
       2.207
       2.477
       2.962
       3.270
       3.113
       2.431
       1.325
      -0.049
      -1.563
      -3.122
      -4.643
      -6.018
      -7.083
      -7.612
      -7.356
      -6.106
      -3.775
      -0.512
