Origin Time       19/10/2008 07:56:48
Lat.              29.1 N 
Long.             76.9 E 
Depth (Km)          7.0
Magnitude         3.2
 Region           Sonipat                                                          
 Above details taken from IMD 
     
Station Code      SON
Station Lat.       29.000  N
Station Long.      77.010  E
Station Height(m)  230.0
Site Class        C   Vs30 between 200 m/sec to 375 m/sec *  
Record Time       19.10.2008 07:56:41.539
Sampling Rate     200. Hz
 Record Duration   65.320 Sec.
 Direction         E-W (E positive)
Max. Acceleration     13.117 cm/sec**2
     
  * For reference see Site Classification link of website 
     
 Base Line Corrected and Low Pass Filtered (Cut Off at 35 Hz) Time History
 Acceleration data in cm/sec**2
    
[...]
      -0.025
      -0.023
      -0.021
      -0.017
      -0.009
       0.000
       0.006
       0.007
       0.004
       0.002
       0.005
       0.013
       0.018
       0.015
       0.003
      -0.011
      -0.019
      -0.017
      -0.008
       0.002
       0.009
       0.008
      -0.001
      -0.014
      -0.024
      -0.026
      -0.018
      -0.007
       0.001
       0.001
      -0.006
      -0.012
      -0.011
      -0.005
       0.001
      -0.003
      -0.014
      -0.028
      -0.034
      -0.031
      -0.021
      -0.011
      -0.004
       0.001
       0.005
       0.008
       0.012
       0.013
       0.011
       0.004
      -0.006
      -0.014
      -0.015
      -0.011
      -0.007
      -0.004
       0.000
       0.007
       0.015
       0.020
       0.019
       0.012
       0.003
      -0.005
      -0.009
      -0.005
       0.003
       0.011
       0.014
       0.011
       0.004
      -0.003
      -0.007
      -0.006
      -0.003
       0.001
       0.003
       0.004
       0.003
       0.001
      -0.002
      -0.005
      -0.007
      -0.008
      -0.010
      -0.011
      -0.008
      -0.001
       0.008
       0.013
       0.010
      -0.001
      -0.012
      -0.018
      -0.014
      -0.002
       0.012
       0.020
       0.015
       0.000
      -0.016
      -0.024
      -0.018
      -0.005
       0.009
       0.017
       0.018
       0.012
       0.003
      -0.008
      -0.018
      -0.024
      -0.027
      -0.027
      -0.026
      -0.021
      -0.014
      -0.007
      -0.004
      -0.006
      -0.009
      -0.007
      -0.001
       0.006
       0.007
       0.002
      -0.004
      -0.009
      -0.010
      -0.009
      -0.007
      -0.004
       0.003
       0.015
       0.028
       0.034
       0.027
       0.011
      -0.008
      -0.022
      -0.027
      -0.024
      -0.018
      -0.011
      -0.008
      -0.009
      -0.014
      -0.021
      -0.027
      -0.030
      -0.027
      -0.020
      -0.011
      -0.002
       0.003
       0.004
       0.001
      -0.004
      -0.008
      -0.012
      -0.014
      -0.015
      -0.017
      -0.017
      -0.014
      -0.009
      -0.003
       0.001
       0.003
       0.004
       0.005
       0.003
       0.000
      -0.004
      -0.005
      -0.005
      -0.008
      -0.011
      -0.012
      -0.006
       0.004
       0.009
       0.007
      -0.002
      -0.011
      -0.014
      -0.012
      -0.009
      -0.008
      -0.005
       0.000
       0.007
       0.009
       0.005
      -0.004
      -0.010
      -0.011
      -0.008
      -0.010
      -0.018
      -0.028
      -0.034
      -0.030
      -0.018
      -0.006
       0.004
       0.009
       0.012
       0.014
       0.017
       0.016
       0.008
      -0.008
      -0.026
      -0.039
      -0.043
      -0.037
      -0.024
      -0.007
       0.011
       0.026
       0.033
       0.028
       0.016
       0.001
      -0.010
      -0.015
      -0.017
      -0.017
      -0.019
      -0.022
      -0.026
      -0.030
      -0.028
      -0.017
       0.000
       0.020
       0.037
       0.046
       0.045
       0.034
       0.016
       0.000
      -0.008
      -0.005
       0.002
       0.005
      -0.003
      -0.016
      -0.026
      -0.024
      -0.011
       0.003
       0.006
      -0.006
      -0.027
      -0.047
      -0.053
      -0.042
      -0.019
       0.008
       0.026
       0.027
       0.012
      -0.006
      -0.018
      -0.019
      -0.015
      -0.017
      -0.027
      -0.040
      -0.047
      -0.042
      -0.025
      -0.004
       0.014
       0.021
       0.019
       0.011
       0.004
       0.001
       0.002
       0.003
       0.004
       0.003
       0.002
       0.000
      -0.001
      -0.001
      -0.001
       0.002
       0.005
       0.007
       0.006
       0.002
      -0.004
      -0.008
      -0.009
      -0.009
      -0.008
      -0.008
      -0.007
      -0.007
      -0.009
      -0.013
      -0.018
      -0.022
      -0.022
      -0.019
      -0.013
      -0.004
       0.005
       0.013
       0.019
       0.022
       0.024
       0.026
       0.027
       0.027
       0.022
       0.011
       0.001
      -0.006
      -0.008
      -0.008
      -0.008
      -0.006
       0.001
       0.011
       0.020
       0.022
       0.016
       0.006
      -0.001
      -0.005
      -0.007
      -0.009
      -0.010
      -0.011
      -0.012
      -0.011
      -0.007
      -0.001
       0.005
       0.008
       0.006
       0.002
      -0.001
       0.001
       0.005
       0.009
       0.010
       0.007
      -0.001
      -0.010
      -0.020
      -0.028
      -0.030
      -0.024
      -0.013
      -0.002
       0.001
      -0.005
      -0.013
      -0.014
      -0.008
       0.000
       0.005
       0.010
       0.014
       0.018
       0.016
       0.008
      -0.005
      -0.018
      -0.027
      -0.032
      -0.033
      -0.029
      -0.019
      -0.006
       0.008
       0.016
       0.015
       0.007
      -0.003
      -0.010
      -0.009
       0.001
       0.015
       0.025
       0.025
       0.015
       0.000
      -0.013
      -0.019
      -0.020
      -0.020
      -0.022
      -0.024
      -0.023
      -0.019
      -0.013
      -0.009
      -0.007
      -0.007
      -0.010
      -0.013
      -0.019
      -0.026
      -0.034
      -0.039
      -0.037
      -0.024
      -0.004
       0.017
       0.031
       0.032
       0.023
       0.010
       0.001
      -0.001
       0.003
       0.006
       0.003
      -0.004
      -0.013
      -0.018
      -0.020
      -0.018
      -0.014
      -0.009
      -0.001
       0.010
       0.022
       0.030
       0.029
       0.018
      -0.001
      -0.019
      -0.029
      -0.028
      -0.019
      -0.010
      -0.002
       0.003
       0.005
       0.004
       0.001
      -0.006
      -0.016
      -0.028
      -0.040
      -0.049
      -0.048
      -0.035
      -0.013
       0.009
       0.024
       0.028
       0.020
       0.004
      -0.014
      -0.026
      -0.028
      -0.022
      -0.018
      -0.021
      -0.030
      -0.038
      -0.037
      -0.025
      -0.008
       0.006
       0.010
       0.003
      -0.008
      -0.016
      -0.017
      -0.011
      -0.004
       0.000
       0.001
      -0.001
      -0.004
      -0.011
      -0.025
      -0.048
      -0.070
      -0.076
      -0.057
      -0.020
       0.016
       0.037
       0.035
       0.017
      -0.004
      -0.020
      -0.029
      -0.033
      -0.035
      -0.030
      -0.013
       0.021
       0.062
       0.093
       0.107
       0.102
       0.080
       0.049
       0.020
       0.002
      -0.018
      -0.069
      -0.161
      -0.253
      -0.278
      -0.207
      -0.090
      -0.007
       0.006
      -0.016
      -0.022
       0.007
       0.063
       0.135
       0.207
       0.246
       0.233
       0.193
       0.165
       0.151
       0.101
      -0.021
      -0.184
      -0.306
      -0.333
      -0.283
      -0.216
      -0.167
      -0.133
      -0.089
      -0.017
       0.078
       0.154
       0.170
       0.132
       0.088
       0.073
       0.082
       0.095
       0.105
       0.102
       0.057
      -0.050
      -0.180
      -0.255
      -0.239
      -0.165
      -0.081
       0.005
       0.101
       0.184
       0.202
       0.145
       0.066
       0.020
       0.001
      -0.027
      -0.078
      -0.140
      -0.204
      -0.249
      -0.232
      -0.130
       0.017
       0.119
       0.116
       0.042
      -0.008
       0.026
       0.116
       0.194
       0.222
       0.222
       0.238
       0.292
       0.343
       0.296
       0.081
      -0.259
      -0.579
      -0.758
      -0.788
      -0.737
      -0.640
      -0.472
      -0.209
       0.106
       0.371
       0.504
       0.494
       0.395
       0.298
       0.288
       0.389
       0.536
       0.610
       0.538
       0.338
       0.078
      -0.187
      -0.425
      -0.613
      -0.744
      -0.827
      -0.850
      -0.787
      -0.618
      -0.360
      -0.061
       0.222
       0.456
       0.651
       0.807
       0.884
       0.838
       0.661
       0.397
       0.129
      -0.055
      -0.119
      -0.112
      -0.128
      -0.215
      -0.347
      -0.462
      -0.515
      -0.505
      -0.450
      -0.350
      -0.184
       0.042
       0.266
       0.402
       0.416
       0.333
       0.199
       0.036
      -0.160
      -0.370
      -0.514
      -0.490
      -0.284
      -0.010
       0.159
       0.117
      -0.095
      -0.313
      -0.366
      -0.187
       0.173
       0.608
       0.984
       1.158
       1.025
       0.624
       0.160
      -0.132
      -0.174
      -0.100
      -0.116
      -0.315
      -0.626
      -0.903
      -1.017
      -0.917
      -0.640
      -0.309
      -0.067
       0.026
       0.037
       0.086
       0.234
       0.440
       0.609
       0.663
       0.580
       0.423
       0.311
       0.329
       0.440
       0.493
       0.338
      -0.042
      -0.511
      -0.873
      -0.985
      -0.825
      -0.481
      -0.115
       0.111
       0.127
      -0.007
      -0.142
      -0.141
       0.025
       0.258
       0.413
       0.404
       0.252
       0.054
      -0.081
      -0.107
      -0.072
      -0.063
      -0.110
      -0.148
      -0.081
       0.115
       0.362
       0.539
       0.572
       0.468
       0.281
       0.054
      -0.183
      -0.369
      -0.413
      -0.272
      -0.026
       0.126
      -0.003
      -0.422
      -0.903
      -1.123
      -0.912
      -0.384
       0.157
       0.467
       0.529
       0.499
       0.523
       0.607
       0.660
       0.615
       0.481
       0.302
       0.103
      -0.109
      -0.291
      -0.364
      -0.274
      -0.073
       0.090
       0.075
      -0.139
      -0.453
      -0.721
      -0.829
      -0.733
      -0.464
      -0.119
       0.177
       0.329
       0.332
       0.273
       0.258
       0.321
       0.406
       0.428
       0.334
       0.116
      -0.164
      -0.378
      -0.395
      -0.202
       0.088
       0.340
       0.492
       0.531
       0.432
       0.190
      -0.114
      -0.347
      -0.431
      -0.390
      -0.282
      -0.142
      -0.013
       0.022
      -0.096
      -0.309
      -0.470
      -0.476
      -0.354
      -0.217
      -0.136
      -0.069
       0.091
       0.376
       0.681
       0.848
       0.796
       0.572
       0.313
       0.137
       0.048
      -0.044
      -0.188
      -0.325
      -0.377
      -0.350
      -0.354
      -0.493
      -0.741
      -0.930
      -0.867
      -0.501
       0.035
       0.530
       0.822
       0.849
       0.641
       0.323
       0.081
       0.078
       0.326
       0.651
       0.785
       0.568
       0.067
      -0.485
      -0.866
      -0.992
      -0.916
      -0.742
      -0.543
      -0.336
      -0.131
       0.041
       0.177
       0.328
       0.533
       0.725
       0.755
       0.532
       0.143
      -0.178
      -0.232
      -0.023
       0.229
       0.277
       0.045
      -0.323
      -0.586
      -0.590
      -0.362
      -0.078
       0.068
      -0.007
      -0.231
      -0.424
      -0.397
      -0.061
       0.486
       0.977
       1.140
       0.881
       0.322
      -0.302
      -0.772
      -0.940
      -0.781
      -0.424
      -0.074
       0.151
       0.274
       0.343
       0.350
       0.261
       0.086
      -0.132
      -0.353
      -0.552
      -0.697
      -0.723
      -0.574
      -0.267
       0.108
       0.458
       0.718
       0.832
       0.751
       0.502
       0.192
      -0.067
      -0.233
      -0.315
      -0.313
      -0.232
      -0.117
      -0.006
       0.131
       0.342
       0.572
       0.663
       0.496
       0.118
      -0.262
      -0.421
      -0.275
       0.058
       0.353
       0.440
       0.294
       0.017
      -0.257
      -0.419
      -0.433
      -0.340
      -0.259
      -0.323
      -0.572
      -0.866
      -0.964
      -0.740
      -0.304
       0.114
       0.391
       0.572
       0.725
       0.816
       0.765
       0.562
       0.273
      -0.024
      -0.286
      -0.481
      -0.552
      -0.430
      -0.078
       0.435
       0.908
       1.090
       0.860
       0.334
      -0.240
      -0.681
      -0.932
      -0.969
      -0.740
      -0.263
       0.279
       0.593
       0.484
       0.002
      -0.594
      -1.009
      -1.043
      -0.656
      -0.006
       0.585
       0.826
       0.665
       0.306
       0.027
      -0.008
       0.186
       0.462
       0.649
       0.664
       0.548
       0.389
       0.236
       0.075
      -0.137
      -0.429
      -0.782
      -1.100
      -1.213
      -0.946
      -0.238
       0.760
       1.746
       2.447
       2.773
       2.817
       2.737
       2.610
       2.376
       1.911
       1.147
       0.127
      -1.028
      -2.166
      -3.114
      -3.664
      -3.631
      -2.979
      -1.915
      -0.790
       0.163
       1.022
       2.021
       3.207
       4.234
       4.538
       3.704
       1.750
      -0.886
      -3.565
      -5.713
      -6.956
      -7.142
      -6.305
      -4.683
      -2.791
      -1.371
      -1.044
      -1.847
      -3.139
      -4.062
      -4.180
      -3.699
      -3.091
      -2.508
      -1.592
       0.182
       2.983
       6.422
       9.738
      12.148
      13.117
      12.452
      10.281
       7.022
       3.360
       0.156
      -1.794
      -2.150
      -1.360
      -0.568
      -0.921
      -2.755
      -5.373
      -7.615
      -8.659
      -8.371
      -7.032
      -4.909
      -2.170
       0.890
       3.722
       5.698
       6.398
       5.759
       4.053
       1.790
      -0.413
      -2.020
      -2.791
      -2.877
      -2.652
      -2.384
      -2.037
      -1.352
      -0.162
       1.319
       2.512
       2.815
       2.033
       0.565
      -0.825
      -1.518
      -1.417
      -0.886
      -0.319
       0.160
       0.580
       0.841
       0.710
       0.127
      -0.552
      -0.729
      -0.067
       1.162
       2.252
       2.582
       2.007
       0.801
      -0.651
      -2.031
      -3.053
      -3.414
      -2.932
      -1.739
      -0.316
       0.746
       1.096
       0.816
       0.297
      -0.066
      -0.084
       0.248
       0.872
       1.696
       2.514
       2.977
       2.747
       1.793
       0.552
      -0.283
      -0.239
       0.558
       1.447
       1.698
       1.058
      -0.077
      -1.001
      -1.256
      -0.963
      -0.683
      -0.919
      -1.700
      -2.584
      -3.031
      -2.762
      -1.872
      -0.718
       0.271
       0.789
       0.750
       0.308
      -0.193
      -0.350
       0.071
       0.962
       1.901
       2.373
       2.079
       1.144
       0.053
      -0.694
      -0.911
      -0.780
      -0.616
      -0.596
      -0.689
      -0.792
      -0.886
      -1.007
      -1.082
      -0.865
      -0.114
       1.120
       2.401
       3.139
       2.990
       2.073
       0.852
      -0.158
      -0.653
      -0.651
      -0.424
      -0.302
      -0.484
      -0.955
      -1.531
      -2.000
      -2.238
      -2.223
      -1.989
      -1.596
      -1.124
      -0.630
      -0.091
       0.589
       1.471
       2.428
       3.094
       3.043
       2.103
       0.558
      -0.984
      -1.930
      -2.000
      -1.298
      -0.193
       0.881
       1.585
       1.762
       1.448
       0.835
       0.175
      -0.337
      -0.614
      -0.644
      -0.434
      -0.015
       0.506
       0.930
       1.045
       0.757
       0.152
      -0.560
      -1.170
      -1.556
      -1.664
      -1.492
      -1.107
      -0.673
      -0.386
      -0.320
      -0.337
      -0.175
       0.306
       0.970
       1.457
       1.446
       0.903
       0.120
      -0.486
      -0.634
      -0.283
       0.401
       1.120
       1.531
       1.388
       0.654
      -0.448
      -1.519
      -2.147
      -2.106
      -1.473
      -0.586
       0.121
       0.333
       0.024
      -0.496
      -0.748
      -0.379
       0.589
       1.740
       2.514
       2.527
       1.774
       0.630
      -0.350
      -0.758
      -0.584
      -0.187
       0.007
      -0.147
      -0.460
      -0.668
      -0.715
      -0.741
      -0.849
      -0.959
      -0.924
      -0.730
      -0.518
      -0.391
      -0.269
       0.025
       0.549
       1.155
       1.612
       1.774
       1.641
       1.275
       0.728
       0.050
      -0.649
      -1.167
      -1.262
      -0.816
       0.001
       0.770
       1.043
       0.640
      -0.223
      -1.066
      -1.478
      -1.362
      -0.920
      -0.437
      -0.084
       0.147
       0.356
       0.588
       0.760
       0.725
       0.434
      -0.001
      -0.401
      -0.653
      -0.759
      -0.783
      -0.759
      -0.640
      -0.338
       0.171
       0.788
       1.327
       1.611
       1.526
       1.053
       0.274
      -0.627
      -1.424
      -1.937
      -2.110
      -1.991
      -1.662
      -1.186
      -0.602
       0.052
       0.719
       1.317
       1.752
       1.961
       1.937
       1.723
       1.374
       0.956
       0.540
       0.198
      -0.039
      -0.220
      -0.445
      -0.729
      -0.906
      -0.728
      -0.104
       0.789
       1.645
       2.237
       2.491
       2.411
       2.001
       1.299
       0.451
      -0.323
      -0.864
      -1.175
      -1.362
      -1.504
      -1.583
      -1.543
      -1.401
      -1.278
      -1.275
      -1.343
      -1.309
      -1.047
      -0.631
      -0.278
      -0.155
      -0.242
      -0.405
      -0.564
      -0.717
      -0.819
      -0.723
      -0.304
       0.376
       1.078
       1.558
       1.707
       1.551
       1.211
       0.859
       0.646
       0.586
       0.532
       0.331
       0.018
      -0.205
      -0.180
       0.036
       0.234
       0.237
       0.014
      -0.340
      -0.661
      -0.784
      -0.616
      -0.210
       0.240
       0.493
       0.390
      -0.063
      -0.714
      -1.327
      -1.680
      -1.644
      -1.232
      -0.578
       0.147
       0.793
       1.261
       1.508
       1.543
       1.415
       1.194
       0.941
       0.700
       0.493
       0.316
       0.122
      -0.144
      -0.486
      -0.837
      -1.099
      -1.186
      -1.035
      -0.615
       0.014
       0.658
       1.046
       0.994
       0.538
      -0.062
      -0.503
      -0.655
      -0.622
      -0.618
      -0.763
      -0.991
      -1.110
      -0.964
      -0.558
      -0.056
       0.350
       0.568
       0.621
       0.572
       0.446
       0.224
      -0.101
      -0.471
      -0.758
      -0.834
      -0.659
      -0.310
       0.089
       0.465
       0.834
       1.246
       1.685
       2.042
       2.187
       2.050
       1.636
       0.980
       0.122
      -0.863
      -1.817
      -2.514
      -2.748
      -2.427
      -1.631
      -0.600
       0.346
       0.932
       1.054
       0.824
       0.498
       0.292
       0.230
       0.147
      -0.130
      -0.575
      -0.954
      -1.009
