Origin Time       19/10/2008 07:56:48 UTC
Lat.              29.1 N 
Long.             76.9 E 
Depth (Km)          7.0
Magnitude         3.2
 Region           Sonipat                                                          
 Above details taken from IMD 
    
Station Code      SON
Station Lat.       29.000  N
Station Long.      77.010  E
Station Height(m)  230.0
Site Class        C   Vs30 between 200 m/sec to 375 m/sec *  
Record Time       19.10.2008 07:56:41.539 UTC
Sampling Rate     200. Hz
 Record Duration   65.320 Sec.
 Direction         N-S (N positive)
Max. Acceleration      9.111 cm/sec**2
     
  * For reference see Site Classification link of website 
     
 Base Line Corrected and Low Pass Filtered (Cut Off at 35 Hz) Time History
 Acceleration data in cm/sec**2
    
[...]
      -0.002
      -0.003
      -0.003
      -0.007
      -0.014
      -0.018
      -0.014
      -0.004
       0.007
       0.012
       0.010
       0.005
      -0.005
      -0.018
      -0.031
      -0.037
      -0.032
      -0.020
      -0.005
       0.003
       0.003
      -0.004
      -0.009
      -0.006
       0.006
       0.022
       0.034
       0.038
       0.036
       0.033
       0.028
       0.021
       0.012
       0.005
       0.007
       0.018
       0.032
       0.042
       0.041
       0.030
       0.015
       0.002
      -0.009
      -0.020
      -0.030
      -0.031
      -0.018
       0.006
       0.027
       0.030
       0.014
      -0.008
      -0.022
      -0.021
      -0.012
      -0.005
      -0.005
      -0.009
      -0.009
      -0.003
       0.008
       0.017
       0.023
       0.026
       0.028
       0.028
       0.025
       0.021
       0.018
       0.020
       0.024
       0.026
       0.023
       0.016
       0.008
       0.003
       0.002
       0.001
      -0.001
      -0.004
      -0.005
      -0.004
      -0.004
      -0.004
      -0.007
      -0.013
      -0.020
      -0.026
      -0.027
      -0.021
      -0.008
       0.007
       0.017
       0.016
       0.004
      -0.015
      -0.029
      -0.031
      -0.020
       0.001
       0.023
       0.037
       0.040
       0.035
       0.029
       0.025
       0.019
       0.009
      -0.001
      -0.002
       0.010
       0.026
       0.033
       0.024
       0.006
      -0.011
      -0.020
      -0.023
      -0.025
      -0.025
      -0.023
      -0.019
      -0.014
      -0.011
      -0.008
      -0.004
       0.001
       0.004
       0.005
       0.002
       0.000
       0.000
       0.003
       0.006
       0.006
       0.001
      -0.003
      -0.003
       0.005
       0.016
       0.024
       0.023
       0.015
       0.006
       0.000
      -0.002
      -0.002
      -0.001
       0.001
       0.000
      -0.005
      -0.012
      -0.016
      -0.013
      -0.005
       0.001
      -0.002
      -0.015
      -0.027
      -0.033
      -0.030
      -0.026
      -0.026
      -0.028
      -0.027
      -0.020
      -0.010
      -0.001
       0.007
       0.015
       0.027
       0.040
       0.048
       0.046
       0.034
       0.019
       0.008
       0.005
       0.008
       0.012
       0.012
       0.009
       0.006
       0.002
      -0.005
      -0.014
      -0.018
      -0.010
       0.006
       0.018
       0.016
       0.000
      -0.017
      -0.020
      -0.007
       0.013
       0.025
       0.025
       0.014
       0.002
      -0.003
       0.002
       0.011
       0.018
       0.021
       0.018
       0.008
      -0.008
      -0.022
      -0.024
      -0.009
       0.014
       0.030
       0.029
       0.018
       0.005
       0.001
       0.005
       0.011
       0.017
       0.021
       0.023
       0.023
       0.019
       0.013
       0.007
       0.004
       0.004
       0.004
       0.000
      -0.011
      -0.022
      -0.024
      -0.016
      -0.002
       0.009
       0.014
       0.016
       0.019
       0.026
       0.034
       0.040
       0.042
       0.039
       0.032
       0.023
       0.011
       0.001
      -0.005
      -0.004
       0.006
       0.017
       0.023
       0.021
       0.015
       0.011
       0.013
       0.016
       0.015
       0.008
       0.000
      -0.004
       0.000
       0.006
       0.007
       0.001
      -0.008
      -0.014
      -0.013
      -0.006
       0.006
       0.019
       0.032
       0.044
       0.048
       0.043
       0.028
       0.010
      -0.005
      -0.011
      -0.012
      -0.011
      -0.010
      -0.008
      -0.005
       0.001
       0.005
       0.005
       0.004
       0.004
       0.005
       0.005
       0.000
      -0.008
      -0.010
       0.002
       0.024
       0.045
       0.048
       0.031
       0.005
      -0.015
      -0.023
      -0.022
      -0.017
      -0.014
      -0.009
      -0.003
       0.004
       0.012
       0.017
       0.018
       0.016
       0.012
       0.013
       0.021
       0.036
       0.051
       0.058
       0.052
       0.036
       0.015
      -0.002
      -0.010
      -0.011
      -0.010
      -0.009
      -0.008
      -0.008
      -0.008
      -0.004
       0.004
       0.014
       0.020
       0.017
       0.004
      -0.010
      -0.018
      -0.018
      -0.009
       0.007
       0.026
       0.042
       0.045
       0.035
       0.020
       0.009
       0.006
       0.003
      -0.005
      -0.017
      -0.024
      -0.021
      -0.009
       0.004
       0.014
       0.019
       0.022
       0.024
       0.022
       0.016
       0.010
       0.010
       0.019
       0.030
       0.035
       0.026
       0.010
      -0.003
      -0.008
      -0.007
      -0.008
      -0.014
      -0.021
      -0.020
      -0.012
      -0.001
       0.007
       0.008
       0.005
       0.002
       0.004
       0.007
       0.009
       0.007
       0.004
       0.006
       0.012
       0.019
       0.022
       0.018
       0.006
      -0.010
      -0.025
      -0.036
      -0.037
      -0.031
      -0.022
      -0.017
      -0.015
      -0.014
      -0.011
      -0.004
       0.007
       0.018
       0.026
       0.027
       0.023
       0.016
       0.008
       0.004
       0.007
       0.015
       0.023
       0.022
       0.010
      -0.008
      -0.020
      -0.016
       0.003
       0.023
       0.034
       0.029
       0.016
       0.003
      -0.002
       0.000
       0.004
       0.006
       0.006
       0.004
       0.001
      -0.005
      -0.015
      -0.027
      -0.034
      -0.032
      -0.024
      -0.017
      -0.015
      -0.018
      -0.020
      -0.019
      -0.016
      -0.014
      -0.017
      -0.020
      -0.020
      -0.013
      -0.001
       0.010
       0.015
       0.015
       0.013
       0.009
       0.000
      -0.015
      -0.030
      -0.039
      -0.036
      -0.019
       0.006
       0.031
       0.046
       0.047
       0.034
       0.017
       0.005
       0.004
       0.008
       0.009
       0.003
      -0.005
      -0.009
      -0.009
      -0.006
      -0.006
      -0.009
      -0.015
      -0.020
      -0.019
      -0.009
       0.010
       0.030
       0.040
       0.036
       0.021
       0.002
      -0.016
      -0.031
      -0.043
      -0.050
      -0.049
      -0.042
      -0.027
      -0.009
       0.009
       0.020
       0.023
       0.017
       0.004
      -0.009
      -0.018
      -0.018
      -0.009
       0.005
       0.021
       0.030
       0.026
       0.008
      -0.014
      -0.026
      -0.019
       0.005
       0.030
       0.043
       0.037
       0.019
      -0.001
      -0.013
      -0.016
      -0.013
      -0.011
      -0.013
      -0.017
      -0.018
      -0.014
      -0.008
       0.000
       0.008
       0.016
       0.016
      -0.002
      -0.039
      -0.073
      -0.068
      -0.004
       0.096
       0.181
       0.201
       0.149
       0.051
      -0.059
      -0.156
      -0.225
      -0.246
      -0.201
      -0.089
       0.059
       0.180
       0.218
       0.164
       0.066
      -0.008
      -0.032
      -0.036
      -0.056
      -0.081
      -0.069
      -0.009
       0.053
       0.073
       0.066
       0.083
       0.133
       0.152
       0.076
      -0.083
      -0.239
      -0.316
      -0.293
      -0.175
       0.023
       0.247
       0.385
       0.349
       0.159
      -0.066
      -0.216
      -0.259
      -0.224
      -0.152
      -0.077
      -0.018
       0.038
       0.124
       0.241
       0.328
       0.294
       0.102
      -0.182
      -0.418
      -0.469
      -0.295
       0.010
       0.273
       0.364
       0.292
       0.163
       0.043
      -0.090
      -0.249
      -0.351
      -0.273
      -0.010
       0.273
       0.373
       0.224
      -0.059
      -0.284
      -0.326
      -0.195
      -0.005
       0.122
       0.141
       0.097
       0.059
       0.042
       0.008
      -0.050
      -0.064
       0.032
       0.191
       0.268
       0.169
      -0.052
      -0.239
      -0.264
      -0.127
       0.058
       0.147
       0.084
      -0.049
      -0.109
      -0.043
       0.039
      -0.015
      -0.214
      -0.385
      -0.343
      -0.066
       0.297
       0.578
       0.680
       0.583
       0.310
      -0.065
      -0.426
      -0.641
      -0.626
      -0.402
      -0.085
       0.188
       0.340
       0.378
       0.344
       0.258
       0.110
      -0.087
      -0.264
      -0.339
      -0.305
      -0.235
      -0.175
      -0.052
       0.233
       0.618
       0.844
       0.654
       0.064
      -0.584
      -0.882
      -0.692
      -0.255
       0.052
       0.056
      -0.088
      -0.092
       0.168
       0.517
       0.651
       0.443
       0.048
      -0.272
      -0.414
      -0.477
      -0.558
      -0.576
      -0.351
       0.136
       0.610
       0.708
       0.338
      -0.192
      -0.452
      -0.300
       0.020
       0.160
       0.030
      -0.140
      -0.079
       0.218
       0.496
       0.521
       0.313
       0.081
      -0.037
      -0.091
      -0.192
      -0.320
      -0.345
      -0.203
       0.004
       0.130
       0.148
       0.136
       0.134
       0.084
      -0.069
      -0.280
      -0.415
      -0.364
      -0.139
       0.124
       0.254
       0.184
      -0.002
      -0.152
      -0.175
      -0.100
      -0.014
       0.028
       0.032
       0.028
       0.035
       0.077
       0.184
       0.352
       0.489
       0.453
       0.188
      -0.187
      -0.456
      -0.498
      -0.381
      -0.265
      -0.224
      -0.167
       0.038
       0.391
       0.711
       0.765
       0.447
      -0.123
      -0.656
      -0.873
      -0.678
      -0.206
       0.278
       0.563
       0.598
       0.455
       0.235
       0.004
      -0.198
      -0.341
      -0.401
      -0.375
      -0.278
      -0.148
      -0.023
       0.083
       0.169
       0.205
       0.133
      -0.041
      -0.192
      -0.171
       0.020
       0.206
       0.206
       0.014
      -0.211
      -0.317
      -0.289
      -0.221
      -0.177
      -0.113
       0.050
       0.296
       0.481
       0.470
       0.288
       0.096
       0.025
       0.052
       0.058
      -0.016
      -0.100
      -0.062
       0.134
       0.343
       0.333
      -0.003
      -0.514
      -0.891
      -0.885
      -0.463
       0.182
       0.736
       0.915
       0.633
       0.036
      -0.606
      -1.048
      -1.113
      -0.705
       0.107
       0.978
       1.407
       1.104
       0.279
      -0.489
      -0.713
      -0.360
       0.202
       0.541
       0.455
       0.056
      -0.355
      -0.516
      -0.370
      -0.083
       0.110
       0.085
      -0.111
      -0.337
      -0.448
      -0.344
      -0.014
       0.414
       0.697
       0.628
       0.213
      -0.303
      -0.614
      -0.566
      -0.248
       0.089
       0.226
       0.124
      -0.069
      -0.149
      -0.012
       0.276
       0.535
       0.604
       0.463
       0.232
       0.034
      -0.111
      -0.240
      -0.346
      -0.366
      -0.279
      -0.179
      -0.178
      -0.258
      -0.262
      -0.078
       0.212
       0.391
       0.336
       0.132
      -0.050
      -0.144
      -0.202
      -0.256
      -0.213
       0.044
       0.453
       0.734
       0.607
       0.077
      -0.520
      -0.796
      -0.642
      -0.282
      -0.010
       0.095
       0.170
       0.333
       0.506
       0.498
       0.233
      -0.139
      -0.350
      -0.257
       0.017
       0.208
       0.180
       0.048
      -0.006
       0.024
      -0.031
      -0.275
      -0.574
      -0.662
      -0.384
       0.147
       0.633
       0.806
       0.614
       0.237
      -0.081
      -0.221
      -0.230
      -0.214
      -0.196
      -0.109
       0.066
       0.205
       0.149
      -0.094
      -0.325
      -0.369
      -0.249
      -0.110
      -0.025
       0.046
       0.126
       0.164
       0.108
      -0.006
      -0.077
      -0.033
       0.088
       0.161
       0.111
       0.018
       0.054
       0.267
       0.460
       0.342
      -0.160
      -0.743
      -0.939
      -0.525
       0.272
       0.960
       1.158
       0.807
       0.101
      -0.682
      -1.277
      -1.470
      -1.161
      -0.447
       0.388
       1.019
       1.250
       1.083
       0.631
      -0.002
      -0.709
      -1.270
      -1.370
      -0.856
       0.030
       0.764
       0.959
       0.665
       0.254
       0.023
      -0.017
       0.014
       0.105
       0.326
       0.568
       0.482
      -0.181
      -1.165
      -1.760
      -1.363
      -0.054
       1.396
       2.100
       1.715
       0.632
      -0.433
      -1.031
      -1.183
      -1.120
      -0.953
      -0.660
      -0.265
       0.132
       0.491
       0.876
       1.305
       1.616
       1.539
       0.912
      -0.157
      -1.274
      -1.935
      -1.831
      -1.062
      -0.057
       0.740
       1.109
       1.051
       0.669
       0.101
      -0.476
      -0.846
      -0.832
      -0.424
       0.123
       0.358
      -0.093
      -1.236
      -2.656
      -3.784
      -4.227
      -3.886
      -2.834
      -1.167
       0.991
       3.405
       5.729
       7.610
       8.791
       9.111
       8.444
       6.695
       3.958
       0.642
      -2.607
      -5.172
      -6.684
      -7.061
      -6.449
      -5.157
      -3.537
      -1.836
      -0.183
       1.254
       2.121
       2.022
       0.848
      -1.056
      -3.026
      -4.376
      -4.611
      -3.545
      -1.395
       1.187
       3.289
       4.124
       3.428
       1.619
      -0.408
      -1.783
      -2.141
      -1.738
      -1.157
      -0.872
      -0.998
      -1.339
      -1.588
      -1.514
      -1.021
      -0.108
       1.168
       2.670
       4.135
       5.190
       5.467
       4.775
       3.227
       1.282
      -0.375
      -1.161
      -0.926
      -0.007
       1.045
       1.764
       1.870
       1.238
      -0.095
      -1.873
      -3.660
      -4.993
      -5.552
      -5.244
      -4.199
      -2.689
      -0.999
       0.648
       2.049
       2.984
       3.309
       3.096
       2.631
       2.177
       1.740
       1.081
      -0.015
      -1.456
      -2.834
      -3.681
      -3.720
      -2.924
      -1.431
       0.456
       2.203
       3.161
       2.942
       1.761
       0.350
      -0.512
      -0.451
       0.393
       1.532
       2.363
       2.385
       1.441
      -0.115
      -1.520
      -2.049
      -1.529
      -0.475
       0.277
       0.185
      -0.622
      -1.475
      -1.684
      -1.036
       0.077
       0.966
       1.126
       0.564
      -0.234
      -0.693
      -0.592
      -0.190
       0.088
       0.094
       0.057
       0.273
       0.760
       1.243
       1.424
       1.203
       0.681
       0.015
      -0.681
      -1.325
      -1.795
      -1.945
      -1.725
      -1.262
      -0.776
      -0.389
      -0.034
       0.424
       0.978
       1.410
       1.433
       0.939
       0.135
      -0.524
      -0.632
      -0.158
       0.468
       0.685
       0.296
      -0.306
      -0.461
       0.121
       1.012
       1.397
       0.807
      -0.483
      -1.734
      -2.328
      -2.105
      -1.280
      -0.184
       0.909
       1.829
       2.483
       2.844
       2.903
       2.634
       1.995
       0.990
      -0.242
      -1.423
      -2.248
      -2.560
      -2.445
      -2.117
      -1.708
      -1.187
      -0.520
       0.142
       0.484
       0.283
      -0.351
      -1.001
      -1.223
      -0.876
      -0.223
       0.283
       0.360
       0.096
      -0.160
      -0.059
       0.551
       1.547
       2.531
       2.947
       2.358
       0.777
      -1.214
      -2.717
      -3.043
      -2.157
      -0.683
       0.546
       1.055
       0.956
       0.698
       0.639
       0.816
       1.055
       1.200
       1.206
       1.076
       0.790
       0.347
      -0.133
      -0.374
      -0.110
       0.622
       1.352
       1.442
       0.577
      -0.951
      -2.468
      -3.406
      -3.589
      -3.141
      -2.242
      -1.047
       0.201
       1.127
       1.426
       1.137
       0.661
       0.412
       0.479
       0.630
       0.615
       0.379
       0.018
      -0.377
      -0.756
      -1.034
      -1.073
      -0.772
      -0.171
       0.556
       1.225
       1.729
       2.000
       1.927
       1.408
       0.541
      -0.283
      -0.574
      -0.125
       0.791
       1.589
       1.766
       1.191
       0.098
      -1.127
      -2.139
      -2.720
      -2.789
      -2.393
      -1.683
      -0.838
       0.024
       0.845
       1.555
       2.022
       2.085
       1.658
       0.806
      -0.238
      -1.188
      -1.853
      -2.206
      -2.294
      -2.107
      -1.584
      -0.774
       0.067
       0.608
       0.690
       0.452
       0.220
       0.246
       0.525
       0.865
       1.096
       1.215
       1.315
       1.431
       1.498
       1.455
       1.334
       1.195
       1.022
       0.744
       0.360
       0.009
      -0.154
      -0.133
      -0.113
      -0.280
      -0.641
      -1.056
      -1.381
      -1.561
      -1.591
      -1.464
      -1.183
      -0.816
      -0.497
      -0.354
      -0.394
      -0.476
      -0.444
      -0.327
      -0.380
      -0.830
      -1.551
      -2.022
      -1.716
      -0.584
       0.826
       1.777
       1.897
       1.396
       0.790
       0.475
       0.534
       0.845
       1.265
       1.679
       1.934
       1.816
       1.178
       0.100
      -1.045
      -1.741
      -1.633
      -0.774
       0.410
       1.421
       1.980
       2.070
       1.779
       1.193
       0.435
      -0.276
      -0.706
      -0.777
      -0.625
      -0.459
      -0.378
      -0.328
      -0.212
      -0.017
       0.166
       0.211
       0.053
      -0.270
      -0.645
      -0.954
      -1.130
      -1.152
      -1.013
      -0.761
      -0.546
      -0.569
      -0.901
      -1.353
      -1.585
      -1.393
      -0.880
      -0.335
       0.015
       0.139
       0.164
       0.253
       0.509
       0.910
       1.318
       1.581
       1.663
       1.634
       1.532
       1.290
       0.840
       0.266
      -0.216
      -0.458
      -0.513
      -0.542
      -0.616
      -0.655
      -0.537
      -0.214
       0.262
       0.770
       1.143
       1.205
       0.851
       0.113
      -0.833
      -1.726
      -2.280
      -2.252
      -1.561
      -0.367
       0.965
       2.017
       2.495
       2.322
       1.641
       0.728
      -0.154
      -0.886
      -1.481
      -1.953
      -2.218
      -2.161
      -1.790
      -1.262
      -0.732
      -0.221
       0.335
       0.900
       1.307
       1.428
       1.340
       1.262
       1.308
       1.380
       1.288
       0.944
       0.421
      -0.097
      -0.422
      -0.452
      -0.249
      -0.028
      -0.013
      -0.280
      -0.696
      -1.013
