Origin Time       19/10/2008 07:56:48
Lat.              29.1 N 
Long.             76.9 E 
Depth (Km)          7.0
Magnitude         3.2
 Region           Sonipat                                                          
 Above details taken from IMD 
   
Station Code      SON
Station Lat.       29.000
Station Long.      77.010
Station Height(m)  230.0
Site Class        C   Vs30 between 200 m/sec to 375 m/sec *  
Record Time       19.10.2008 07:56:41.539
Sampling Rate     200. Hz
 Record Duration   65.320 Sec.
 Direction         Vert. (Up positive)
Max. Acceleration      6.881 cm/sec**2
     
  * For reference see Site Classification link of website 
     
 Base Line Corrected and Low Pass Filtered (Cut Off at 35 Hz) Time History
 Acceleration data in cm/sec**2
    
[...]
      -0.002
       0.002
       0.004
      -0.002
      -0.018
      -0.032
      -0.037
      -0.030
      -0.019
      -0.012
      -0.011
      -0.014
      -0.018
      -0.022
      -0.025
      -0.023
      -0.015
      -0.002
       0.008
       0.005
      -0.009
      -0.022
      -0.022
      -0.007
       0.014
       0.027
       0.029
       0.027
       0.027
       0.029
       0.030
       0.028
       0.027
       0.027
       0.027
       0.024
       0.015
       0.002
      -0.013
      -0.024
      -0.029
      -0.028
      -0.027
      -0.032
      -0.041
      -0.045
      -0.037
      -0.021
      -0.004
       0.002
      -0.004
      -0.015
      -0.025
      -0.027
      -0.022
      -0.012
      -0.004
       0.001
       0.000
      -0.007
      -0.015
      -0.018
      -0.012
       0.001
       0.016
       0.025
       0.029
       0.031
       0.033
       0.030
       0.019
       0.005
      -0.004
      -0.003
       0.002
       0.004
      -0.002
      -0.011
      -0.016
      -0.017
      -0.021
      -0.031
      -0.040
      -0.038
      -0.021
       0.003
       0.021
       0.024
       0.014
       0.005
       0.005
       0.013
       0.014
       0.003
      -0.011
      -0.016
      -0.006
       0.012
       0.027
       0.033
       0.030
       0.021
       0.010
       0.003
       0.003
       0.006
       0.007
       0.004
       0.000
      -0.002
       0.001
       0.010
       0.019
       0.024
       0.019
       0.005
      -0.014
      -0.029
      -0.038
      -0.039
      -0.032
      -0.020
      -0.007
      -0.001
      -0.001
      -0.001
       0.006
       0.019
       0.028
       0.029
       0.026
       0.024
       0.029
       0.034
       0.034
       0.026
       0.016
       0.007
      -0.002
      -0.012
      -0.024
      -0.031
      -0.027
      -0.013
       0.006
       0.021
       0.023
       0.013
      -0.004
      -0.018
      -0.029
      -0.036
      -0.038
      -0.027
      -0.005
       0.014
       0.017
       0.001
      -0.019
      -0.028
      -0.021
      -0.004
       0.011
       0.020
       0.024
       0.032
       0.047
       0.063
       0.067
       0.053
       0.031
       0.011
       0.001
      -0.003
      -0.007
      -0.009
      -0.008
      -0.004
       0.001
       0.002
      -0.004
      -0.015
      -0.024
      -0.027
      -0.023
      -0.015
      -0.004
       0.007
       0.014
       0.015
       0.012
       0.007
       0.002
       0.000
       0.002
       0.005
       0.004
      -0.001
      -0.004
       0.000
       0.009
       0.015
       0.016
       0.015
       0.018
       0.020
       0.016
       0.005
      -0.005
      -0.009
      -0.006
      -0.001
      -0.001
      -0.008
      -0.017
      -0.017
      -0.006
       0.009
       0.015
       0.006
      -0.014
      -0.033
      -0.040
      -0.036
      -0.024
      -0.009
       0.003
       0.007
       0.002
      -0.010
      -0.023
      -0.030
      -0.024
      -0.005
       0.018
       0.036
       0.043
       0.041
       0.036
       0.030
       0.023
       0.014
       0.002
      -0.006
      -0.006
       0.002
       0.012
       0.016
       0.013
       0.006
      -0.001
      -0.007
      -0.014
      -0.022
      -0.029
      -0.034
      -0.036
      -0.034
      -0.027
      -0.015
      -0.003
       0.005
       0.008
       0.005
      -0.002
      -0.006
      -0.001
       0.010
       0.017
       0.014
       0.004
      -0.004
      -0.005
      -0.005
      -0.007
      -0.013
      -0.017
      -0.015
      -0.007
       0.000
       0.001
      -0.006
      -0.016
      -0.024
      -0.025
      -0.021
      -0.015
      -0.009
      -0.003
       0.004
       0.010
       0.012
       0.003
      -0.011
      -0.024
      -0.029
      -0.028
      -0.022
      -0.013
       0.000
       0.013
       0.019
       0.013
       0.002
      -0.002
       0.006
       0.020
       0.030
       0.029
       0.019
       0.007
      -0.001
      -0.004
      -0.004
      -0.003
      -0.003
      -0.002
       0.002
       0.007
       0.010
       0.011
       0.011
       0.014
       0.017
       0.014
       0.002
      -0.014
      -0.025
      -0.028
      -0.027
      -0.030
      -0.038
      -0.047
      -0.046
      -0.032
      -0.012
       0.001
       0.001
      -0.008
      -0.012
      -0.005
       0.010
       0.022
       0.029
       0.029
       0.028
       0.026
       0.020
       0.013
       0.008
       0.009
       0.016
       0.024
       0.027
       0.022
       0.015
       0.012
       0.011
       0.008
      -0.004
      -0.020
      -0.031
      -0.031
      -0.026
      -0.024
      -0.024
      -0.021
      -0.014
      -0.008
      -0.005
      -0.003
       0.002
       0.009
       0.010
       0.004
      -0.005
      -0.009
      -0.005
       0.004
       0.017
       0.026
       0.031
       0.032
       0.028
       0.020
       0.005
      -0.012
      -0.026
      -0.031
      -0.023
      -0.004
       0.018
       0.031
       0.028
       0.014
      -0.004
      -0.016
      -0.022
      -0.026
      -0.029
      -0.026
      -0.013
       0.009
       0.030
       0.034
       0.015
      -0.015
      -0.038
      -0.043
      -0.038
      -0.029
      -0.018
      -0.001
       0.021
       0.038
       0.042
       0.034
       0.021
       0.009
       0.000
      -0.006
      -0.009
      -0.009
      -0.005
       0.000
       0.005
       0.006
       0.004
       0.002
       0.001
      -0.003
      -0.015
      -0.032
      -0.046
      -0.045
      -0.031
      -0.010
       0.008
       0.020
       0.028
       0.031
       0.025
       0.008
      -0.018
      -0.041
      -0.053
      -0.047
      -0.026
      -0.003
       0.012
       0.015
       0.011
       0.006
      -0.001
      -0.013
      -0.030
      -0.040
      -0.032
      -0.008
       0.020
       0.038
       0.039
       0.028
       0.011
      -0.006
      -0.017
      -0.025
      -0.031
      -0.034
      -0.031
      -0.023
      -0.016
      -0.013
      -0.016
      -0.019
      -0.020
      -0.022
      -0.028
      -0.032
      -0.031
      -0.023
      -0.016
      -0.013
      -0.010
       0.000
       0.016
       0.030
       0.035
       0.030
       0.019
       0.009
       0.004
       0.005
       0.008
       0.009
       0.003
      -0.007
      -0.012
      -0.011
      -0.004
       0.001
       0.003
      -0.001
      -0.009
      -0.019
      -0.025
      -0.026
      -0.024
      -0.024
      -0.027
      -0.030
      -0.030
      -0.026
      -0.019
      -0.012
      -0.008
      -0.006
      -0.005
      -0.003
       0.005
       0.020
       0.036
       0.042
       0.033
       0.018
       0.003
      -0.010
      -0.027
      -0.046
      -0.055
      -0.044
      -0.015
       0.023
       0.053
       0.062
       0.044
       0.010
      -0.024
      -0.040
      -0.037
      -0.024
      -0.009
       0.004
       0.016
       0.020
       0.010
      -0.013
      -0.039
      -0.056
      -0.058
      -0.047
      -0.032
      -0.019
      -0.008
       0.001
       0.008
       0.006
      -0.012
      -0.044
      -0.076
      -0.092
      -0.087
      -0.072
      -0.055
      -0.030
       0.016
       0.084
       0.156
       0.206
       0.227
       0.238
       0.265
       0.310
       0.343
       0.334
       0.291
       0.260
       0.267
       0.257
       0.094
      -0.327
      -0.937
      -1.475
      -1.655
      -1.395
      -0.883
      -0.400
      -0.094
       0.099
       0.327
       0.637
       0.919
       1.022
       0.924
       0.791
       0.829
       1.068
       1.277
       1.144
       0.585
      -0.152
      -0.723
      -0.984
      -1.033
      -1.031
      -1.085
      -1.265
      -1.578
      -1.830
      -1.627
      -0.713
       0.624
       1.643
       1.807
       1.300
       0.761
       0.581
       0.646
       0.717
       0.755
       0.794
       0.746
       0.531
       0.269
       0.127
       0.058
      -0.155
      -0.604
      -1.097
      -1.353
      -1.274
      -0.971
      -0.566
      -0.113
       0.310
       0.552
       0.453
      -0.063
      -0.866
      -1.531
      -1.541
      -0.799
       0.186
       0.783
       0.885
       0.866
       0.964
       0.952
       0.532
      -0.133
      -0.484
      -0.130
       0.774
       1.646
       1.901
       1.340
       0.292
      -0.564
      -0.676
      -0.116
       0.380
       0.079
      -0.971
      -1.965
      -2.162
      -1.542
      -0.676
      -0.154
      -0.159
      -0.436
      -0.564
      -0.299
       0.228
       0.627
       0.615
       0.321
       0.175
       0.440
       0.953
       1.369
       1.555
       1.556
       1.322
       0.714
      -0.197
      -1.086
      -1.626
      -1.677
      -1.253
      -0.494
       0.291
       0.698
       0.472
      -0.270
      -1.040
      -1.292
      -0.825
       0.010
       0.543
       0.345
      -0.343
      -0.752
      -0.259
       0.960
       1.987
       1.997
       1.060
      -0.024
      -0.567
      -0.516
      -0.240
      -0.051
       0.071
       0.357
       0.819
       1.039
       0.556
      -0.529
      -1.485
      -1.552
      -0.685
       0.264
       0.246
      -0.896
      -2.130
      -2.193
      -0.848
       0.894
       1.752
       1.295
       0.190
      -0.531
      -0.403
       0.236
       0.842
       1.231
       1.463
       1.473
       1.109
       0.450
      -0.136
      -0.303
      -0.086
       0.073
      -0.242
      -0.953
      -1.517
      -1.431
      -0.694
       0.191
       0.600
       0.289
      -0.459
      -1.158
      -1.496
      -1.310
      -0.500
       0.723
       1.648
       1.563
       0.548
      -0.470
      -0.604
       0.137
       0.959
       1.146
       0.682
       0.103
      -0.084
       0.181
       0.536
       0.566
       0.215
      -0.145
      -0.104
       0.300
       0.578
       0.315
      -0.359
      -0.935
      -1.115
      -1.087
      -1.187
      -1.443
      -1.561
      -1.273
      -0.611
       0.164
       0.847
       1.391
       1.735
       1.702
       1.178
       0.355
      -0.325
      -0.454
       0.053
       0.880
       1.485
       1.414
       0.567
      -0.680
      -1.628
      -1.747
      -1.178
      -0.632
      -0.655
      -1.080
      -1.282
      -0.864
      -0.006
       0.745
       0.942
       0.588
       0.102
      -0.068
       0.200
       0.735
       1.339
       1.846
       1.993
       1.486
       0.351
      -0.865
      -1.443
      -1.140
      -0.429
      -0.049
      -0.343
      -1.013
      -1.418
      -1.110
      -0.198
       0.748
       1.162
       0.883
       0.138
      -0.668
      -1.107
      -0.884
      -0.078
       0.796
       1.135
       0.712
      -0.165
      -0.885
      -0.919
      -0.154
       0.977
       1.731
       1.538
       0.373
      -1.196
      -2.266
      -2.080
      -0.590
       1.349
       2.484
       2.124
       0.687
      -0.741
      -1.363
      -1.130
      -0.420
       0.357
       0.776
       0.432
      -0.642
      -1.728
      -1.944
      -1.070
       0.284
       1.274
       1.429
       0.775
      -0.269
      -1.009
      -0.807
       0.362
       1.708
       2.195
       1.447
       0.014
      -1.210
      -1.685
      -1.394
      -0.665
       0.041
       0.389
       0.379
       0.242
       0.152
       0.156
       0.293
       0.576
       0.883
       0.966
       0.610
      -0.134
      -0.814
      -0.839
      -0.059
       0.995
       1.536
       1.162
       0.097
      -1.066
      -1.824
      -2.007
      -1.655
      -0.850
       0.139
       0.731
       0.440
      -0.503
      -1.222
      -1.070
      -0.280
       0.334
       0.256
      -0.267
      -0.602
      -0.434
       0.018
       0.393
       0.607
       0.831
       1.204
       1.642
       1.881
       1.719
       1.257
       0.827
       0.596
       0.369
      -0.075
      -0.635
      -1.006
      -0.990
      -0.621
      -0.187
      -0.183
      -0.912
      -2.008
      -2.574
      -2.021
      -0.650
       0.684
       1.350
       1.262
       0.656
      -0.142
      -0.754
      -0.844
      -0.348
       0.456
       1.181
       1.605
       1.673
       1.321
       0.490
      -0.605
      -1.428
      -1.545
      -1.083
      -0.591
      -0.466
      -0.678
      -0.943
      -0.857
      -0.008
       1.551
       2.938
       3.014
       1.496
      -0.658
      -2.001
      -1.694
      -0.087
       1.573
       2.081
       1.152
      -0.471
      -1.766
      -2.295
      -2.331
      -2.185
      -1.684
      -0.570
       0.726
       1.168
       0.181
      -1.572
      -2.705
      -2.379
      -0.879
       0.971
       2.604
       3.793
       4.339
       4.076
       3.115
       1.866
       0.773
       0.102
      -0.104
       0.099
       0.696
       1.604
       2.340
       2.079
       0.444
      -1.727
      -2.758
      -1.693
       0.485
       1.510
      -0.019
      -3.209
      -5.762
      -6.213
      -5.034
      -3.583
      -2.410
      -1.001
       0.980
       2.712
       2.797
       0.729
      -2.290
      -4.030
      -2.914
       0.681
       4.662
       6.881
       6.720
       5.127
       3.328
       1.812
       0.521
      -0.528
      -1.202
      -1.548
      -1.695
      -1.620
      -1.279
      -0.876
      -0.695
      -0.738
      -0.775
      -0.745
      -0.936
      -1.645
      -2.659
      -3.183
      -2.388
      -0.160
       2.597
       4.444
       4.406
       2.722
       0.591
      -0.874
      -1.382
      -1.186
      -0.482
       0.561
       1.439
       1.532
       0.785
      -0.131
      -0.473
      -0.149
       0.280
       0.206
      -0.491
      -1.467
      -2.278
      -2.571
      -2.125
      -0.977
       0.439
       1.457
       1.607
       0.931
      -0.050
      -0.649
      -0.450
       0.394
       1.181
       1.100
      -0.081
      -1.623
      -2.308
      -1.556
       0.017
       1.243
       1.435
       0.697
      -0.432
      -1.314
      -1.372
      -0.363
       1.385
       3.081
       3.929
       3.612
       2.417
       0.904
      -0.504
      -1.631
      -2.437
      -2.878
      -2.816
      -2.111
      -0.930
       0.156
       0.599
       0.398
       0.124
       0.393
       1.229
       1.895
       1.550
       0.194
      -1.183
      -1.573
      -0.991
      -0.389
      -0.488
      -0.917
      -0.733
       0.365
       1.672
       2.266
       1.840
       0.772
      -0.329
      -1.096
      -1.556
      -1.916
      -2.278
      -2.551
      -2.492
      -1.805
      -0.404
       1.327
       2.678
       3.130
       2.767
       2.150
       1.760
       1.597
       1.335
       0.765
      -0.017
      -0.791
      -1.469
      -2.175
      -3.000
      -3.622
      -3.374
      -1.925
       0.148
       1.654
       1.740
       0.603
      -0.689
      -1.062
      -0.160
       1.619
       3.524
       4.773
       4.780
       3.518
       1.677
       0.169
      -0.658
      -1.208
      -1.992
      -2.900
      -3.261
      -2.622
      -1.374
      -0.454
      -0.379
      -0.720
      -0.672
      -0.076
       0.444
       0.411
       0.217
       0.571
       1.426
       1.866
       1.122
      -0.514
      -1.906
      -2.151
      -1.390
      -0.542
      -0.310
      -0.561
      -0.689
      -0.411
      -0.059
      -0.063
      -0.300
      -0.193
       0.534
       1.451
       1.892
       1.654
       1.138
       0.946
       1.346
       2.000
       2.202
       1.454
      -0.111
      -1.733
      -2.500
      -2.095
      -1.173
      -0.723
      -0.945
      -1.046
      -0.263
       1.150
       2.084
       1.670
       0.135
      -1.419
      -2.043
      -1.667
      -0.922
      -0.499
      -0.658
      -1.062
      -1.022
      -0.146
       1.173
       2.057
       1.991
       1.314
       0.896
       1.316
       2.279
       2.784
       1.993
       0.063
      -1.877
      -2.696
      -2.263
      -1.409
      -0.965
      -1.034
      -1.182
      -1.016
      -0.499
       0.058
       0.210
      -0.223
      -0.891
      -1.143
      -0.590
       0.556
       1.670
       2.221
       2.115
       1.630
       1.110
       0.737
       0.440
      -0.034
      -0.838
      -1.740
      -2.220
      -1.943
      -1.069
      -0.103
       0.479
       0.487
       0.119
      -0.193
      -0.159
       0.129
       0.404
       0.592
       0.777
       0.878
       0.594
      -0.159
      -0.897
      -0.864
       0.196
       1.644
       2.422
       1.936
       0.452
      -1.240
      -2.419
      -2.733
      -2.201
      -1.138
      -0.071
       0.483
       0.372
      -0.052
      -0.266
      -0.013
       0.600
       1.308
       1.882
       2.220
       2.338
       2.225
       1.744
       0.757
      -0.616
      -1.899
      -2.470
      -2.035
      -0.973
      -0.137
      -0.151
      -0.892
      -1.651
      -1.789
      -1.219
      -0.339
       0.398
       0.809
       0.988
       1.097
       1.160
       1.028
       0.577
      -0.043
      -0.469
      -0.499
      -0.347
      -0.428
      -0.864
      -1.311
      -1.326
      -0.867
      -0.359
      -0.270
      -0.604
      -0.788
      -0.144
       1.391
       3.037
       3.797
       3.329
       2.163
       1.125
       0.602
       0.350
      -0.095
      -0.895
      -1.747
      -2.185
      -2.043
      -1.600
      -1.257
      -1.129
      -1.020
      -0.690
      -0.100
       0.578
       1.169
       1.648
       2.016
       2.109
       1.725
       0.871
      -0.265
      -1.507
      -2.670
      -3.398
      -3.242
      -2.025
      -0.120
       1.643
       2.464
       2.115
       1.081
       0.151
      -0.157
       0.162
       0.783
       1.358
       1.663
       1.532
       0.780
      -0.650
      -2.379
      -3.572
      -3.458
      -1.972
       0.124
       1.760
       2.261
       1.692
       0.648
      -0.204
      -0.459
      -0.098
       0.527
       0.931
       0.900
       0.615
       0.284
      -0.173
      -0.891
      -1.635
      -1.892
      -1.438
      -0.651
      -0.167
      -0.253
      -0.614
      -0.810
      -0.708
      -0.452
      -0.142
       0.237
       0.642
       0.989
       1.297
       1.650
       1.978
       2.068
       1.816
       1.368
       0.909
       0.394
      -0.335
      -1.148
      -1.602
      -1.497
      -1.207
      -1.227
      -1.522
      -1.587
      -1.111
      -0.354
       0.191
       0.339
       0.325
       0.456
       0.788
       1.089
       1.006
       0.336
      -0.673
      -1.329
      -1.036
       0.101
       1.346
       2.052
       2.179
       2.032
       1.698
       1.009
      -0.027
      -1.013
      -1.501
      -1.442
      -1.171
      -1.026
      -1.095
      -1.302
      -1.536
      -1.629
      -1.366
