Origin Time       26/02/2012 23:08:42
Lat.              29.6 N	
Long.             80.8 E	
Depth (Km)         10.0
Magnitude         4.3
 Region           Westren-nepal                                                    
 Above details taken from IMD 
     
Station Code      TAN
Station Lat.       29.074  N
Station Long.      80.112  E
Station Height(m)  265.0
Site Class        C   Vs30 between 200 m/sec to 375 m/sec *  
Record Time       26.02.2012 23:09:07.759
Sampling Rate     200. Hz
 Record Duration   65.005 Sec.
 Direction         E-W (E positive)
Max. Acceleration     -1.586 cm/sec**2
     
  * For reference see Site Classification link of website 
     
 Base Line Corrected and Low Pass Filtered (Cut Off at 35 Hz) Time History
 Acceleration data in cm/sec**2
    
[...]
      -0.031
      -0.031
      -0.019
      -0.003
       0.005
       0.001
      -0.009
      -0.016
      -0.016
      -0.008
       0.000
       0.003
       0.001
      -0.005
      -0.012
      -0.019
      -0.027
      -0.034
      -0.037
      -0.027
      -0.006
       0.020
       0.039
       0.042
       0.030
       0.007
      -0.021
      -0.048
      -0.068
      -0.073
      -0.056
      -0.019
       0.028
       0.072
       0.099
       0.103
       0.082
       0.044
       0.005
      -0.017
      -0.015
       0.003
       0.017
       0.007
      -0.028
      -0.066
      -0.075
      -0.038
       0.029
       0.094
       0.126
       0.118
       0.082
       0.039
       0.000
      -0.031
      -0.052
      -0.055
      -0.038
      -0.002
       0.037
       0.060
       0.059
       0.038
       0.012
      -0.006
      -0.008
      -0.002
      -0.001
      -0.016
      -0.052
      -0.099
      -0.138
      -0.153
      -0.136
      -0.092
      -0.038
       0.009
       0.041
       0.059
       0.069
       0.078
       0.084
       0.084
       0.071
       0.044
       0.007
      -0.027
      -0.041
      -0.023
       0.028
       0.095
       0.150
       0.167
       0.136
       0.070
      -0.006
      -0.065
      -0.092
      -0.084
      -0.050
      -0.005
       0.035
       0.057
       0.055
       0.034
       0.007
      -0.016
      -0.029
      -0.036
      -0.040
      -0.043
      -0.042
      -0.034
      -0.021
      -0.007
       0.002
       0.005
       0.004
      -0.003
      -0.017
      -0.035
      -0.050
      -0.058
      -0.060
      -0.061
      -0.067
      -0.076
      -0.075
      -0.056
      -0.022
       0.013
       0.032
       0.030
       0.014
      -0.001
      -0.006
       0.005
       0.027
       0.053
       0.073
       0.081
       0.074
       0.054
       0.027
       0.000
      -0.020
      -0.025
      -0.015
       0.012
       0.046
       0.073
       0.079
       0.059
       0.024
      -0.011
      -0.033
      -0.041
      -0.045
      -0.060
      -0.085
      -0.111
      -0.119
      -0.097
      -0.051
       0.004
       0.049
       0.076
       0.085
       0.081
       0.067
       0.041
       0.006
      -0.031
      -0.059
      -0.070
      -0.060
      -0.036
      -0.005
       0.023
       0.042
       0.052
       0.057
       0.058
       0.052
       0.038
       0.020
       0.001
      -0.017
      -0.032
      -0.040
      -0.042
      -0.039
      -0.039
      -0.045
      -0.050
      -0.050
      -0.041
      -0.028
      -0.020
      -0.020
      -0.020
      -0.009
       0.022
       0.073
       0.133
       0.185
       0.213
       0.207
       0.172
       0.124
       0.084
       0.064
       0.064
       0.068
       0.063
       0.046
       0.026
       0.016
       0.016
       0.014
      -0.004
      -0.045
      -0.102
      -0.163
      -0.215
      -0.252
      -0.268
      -0.259
      -0.226
      -0.175
      -0.115
      -0.056
      -0.006
       0.033
       0.060
       0.080
       0.098
       0.116
       0.130
       0.132
       0.114
       0.081
       0.044
       0.018
       0.008
       0.009
       0.011
       0.005
      -0.011
      -0.038
      -0.072
      -0.113
      -0.159
      -0.207
      -0.249
      -0.276
      -0.287
      -0.287
      -0.287
      -0.291
      -0.299
      -0.300
      -0.291
      -0.271
      -0.239
      -0.193
      -0.126
      -0.039
       0.058
       0.144
       0.199
       0.216
       0.200
       0.166
       0.130
       0.102
       0.089
       0.095
       0.123
       0.165
       0.212
       0.247
       0.262
       0.256
       0.233
       0.203
       0.173
       0.144
       0.114
       0.077
       0.030
      -0.028
      -0.089
      -0.143
      -0.176
      -0.179
      -0.149
      -0.095
      -0.034
       0.015
       0.036
       0.027
      -0.010
      -0.064
      -0.122
      -0.167
      -0.184
      -0.164
      -0.109
      -0.036
       0.036
       0.091
       0.124
       0.141
       0.148
       0.148
       0.140
       0.125
       0.109
       0.093
       0.079
       0.061
       0.039
       0.014
      -0.007
      -0.019
      -0.028
      -0.041
      -0.065
      -0.098
      -0.135
      -0.173
      -0.213
      -0.250
      -0.275
      -0.279
      -0.258
      -0.218
      -0.168
      -0.115
      -0.066
      -0.027
      -0.002
       0.011
       0.017
       0.031
       0.060
       0.106
       0.163
       0.223
       0.282
       0.333
       0.362
       0.350
       0.286
       0.179
       0.059
      -0.041
      -0.102
      -0.130
      -0.146
      -0.166
      -0.192
      -0.222
      -0.251
      -0.281
      -0.310
      -0.334
      -0.344
      -0.331
      -0.295
      -0.243
      -0.184
      -0.124
      -0.069
      -0.022
       0.019
       0.066
       0.129
       0.207
       0.285
       0.340
       0.360
       0.348
       0.316
       0.275
       0.231
       0.184
       0.140
       0.104
       0.083
       0.078
       0.079
       0.073
       0.049
       0.006
      -0.050
      -0.110
      -0.165
      -0.207
      -0.233
      -0.239
      -0.225
      -0.190
      -0.135
      -0.062
       0.022
       0.099
       0.151
       0.168
       0.156
       0.131
       0.111
       0.104
       0.111
       0.129
       0.152
       0.176
       0.193
       0.195
       0.175
       0.131
       0.068
      -0.004
      -0.076
      -0.140
      -0.191
      -0.230
      -0.257
      -0.269
      -0.272
      -0.273
      -0.284
      -0.308
      -0.337
      -0.357
      -0.354
      -0.328
      -0.289
      -0.247
      -0.210
      -0.179
      -0.151
      -0.123
      -0.093
      -0.056
      -0.013
       0.033
       0.078
       0.117
       0.151
       0.184
       0.217
       0.252
       0.280
       0.289
       0.272
       0.227
       0.167
       0.108
       0.067
       0.056
       0.081
       0.134
       0.197
       0.241
       0.246
       0.211
       0.157
       0.117
       0.105
       0.114
       0.119
       0.095
       0.030
      -0.064
      -0.162
      -0.231
      -0.244
      -0.193
      -0.084
       0.052
       0.179
       0.261
       0.283
       0.251
       0.185
       0.108
       0.040
      -0.011
      -0.043
      -0.063
      -0.080
      -0.103
      -0.131
      -0.149
      -0.142
      -0.107
      -0.063
      -0.040
      -0.061
      -0.122
      -0.200
      -0.263
      -0.291
      -0.277
      -0.228
      -0.155
      -0.068
       0.017
       0.080
       0.107
       0.099
       0.074
       0.061
       0.079
       0.127
       0.190
       0.243
       0.266
       0.248
       0.189
       0.102
       0.010
      -0.065
      -0.111
      -0.128
      -0.130
      -0.131
      -0.139
      -0.149
      -0.149
      -0.127
      -0.088
      -0.043
      -0.013
      -0.008
      -0.029
      -0.067
      -0.110
      -0.146
      -0.159
      -0.137
      -0.074
       0.015
       0.106
       0.165
       0.173
       0.133
       0.070
       0.015
      -0.008
       0.006
       0.041
       0.070
       0.069
       0.032
      -0.025
      -0.076
      -0.098
      -0.095
      -0.088
      -0.099
      -0.133
      -0.175
      -0.207
      -0.220
      -0.211
      -0.183
      -0.142
      -0.094
      -0.051
      -0.020
      -0.002
       0.013
       0.041
       0.090
       0.157
       0.226
       0.278
       0.304
       0.305
       0.288
       0.268
       0.255
       0.257
       0.273
       0.289
       0.288
       0.262
       0.215
       0.160
       0.112
       0.069
       0.016
      -0.067
      -0.188
      -0.339
      -0.496
      -0.623
      -0.689
      -0.678
      -0.594
      -0.466
      -0.338
      -0.249
      -0.214
      -0.225
      -0.252
      -0.266
      -0.249
      -0.202
      -0.131
      -0.048
       0.043
       0.143
       0.254
       0.374
       0.493
       0.592
       0.654
       0.664
       0.619
       0.521
       0.380
       0.216
       0.050
      -0.093
      -0.194
      -0.249
      -0.267
      -0.265
      -0.257
      -0.255
      -0.257
      -0.259
      -0.254
      -0.245
      -0.238
      -0.238
      -0.239
      -0.233
      -0.211
      -0.172
      -0.118
      -0.050
       0.034
       0.132
       0.240
       0.343
       0.426
       0.474
       0.480
       0.448
       0.387
       0.311
       0.235
       0.178
       0.151
       0.153
       0.165
       0.162
       0.126
       0.055
      -0.033
      -0.115
      -0.170
      -0.189
      -0.179
      -0.157
      -0.135
      -0.123
      -0.117
      -0.111
      -0.099
      -0.081
      -0.057
      -0.028
       0.005
       0.040
       0.073
       0.104
       0.130
       0.146
       0.139
       0.095
       0.009
      -0.111
      -0.240
      -0.349
      -0.412
      -0.416
      -0.367
      -0.280
      -0.182
      -0.099
      -0.054
      -0.055
      -0.093
      -0.142
      -0.175
      -0.172
      -0.127
      -0.041
       0.071
       0.190
       0.293
       0.359
       0.377
       0.347
       0.280
       0.187
       0.078
      -0.042
      -0.169
      -0.290
      -0.393
      -0.468
      -0.509
      -0.514
      -0.487
      -0.435
      -0.365
      -0.279
      -0.179
      -0.067
       0.053
       0.175
       0.297
       0.416
       0.530
       0.631
       0.709
       0.757
       0.772
       0.761
       0.733
       0.700
       0.662
       0.609
       0.520
       0.384
       0.201
      -0.007
      -0.207
      -0.373
      -0.495
      -0.579
      -0.638
      -0.686
      -0.733
      -0.776
      -0.809
      -0.815
      -0.779
      -0.695
      -0.564
      -0.397
      -0.210
      -0.017
       0.168
       0.332
       0.464
       0.561
       0.624
       0.657
       0.657
       0.620
       0.546
       0.451
       0.354
       0.273
       0.207
       0.140
       0.048
      -0.085
      -0.258
      -0.447
      -0.619
      -0.737
      -0.774
      -0.718
      -0.581
      -0.397
      -0.213
      -0.071
       0.008
       0.029
       0.017
       0.011
       0.042
       0.127
       0.265
       0.433
       0.594
       0.704
       0.730
       0.663
       0.517
       0.319
       0.103
      -0.101
      -0.269
      -0.386
      -0.451
      -0.482
      -0.502
      -0.529
      -0.563
      -0.594
      -0.603
      -0.581
      -0.519
      -0.416
      -0.269
      -0.081
       0.135
       0.350
       0.530
       0.648
       0.697
       0.688
       0.643
       0.583
       0.521
       0.471
       0.448
       0.459
       0.497
       0.536
       0.544
       0.492
       0.366
       0.174
      -0.056
      -0.285
      -0.472
      -0.584
      -0.602
      -0.525
      -0.371
      -0.174
       0.022
       0.173
       0.247
       0.234
       0.147
       0.021
      -0.099
      -0.174
      -0.183
      -0.128
      -0.029
       0.086
       0.188
       0.254
       0.265
       0.209
       0.092
      -0.068
      -0.240
      -0.393
      -0.506
      -0.564
      -0.561
      -0.496
      -0.380
      -0.233
      -0.083
       0.045
       0.146
       0.229
       0.312
       0.402
       0.482
       0.524
       0.506
       0.425
       0.301
       0.158
       0.017
      -0.106
      -0.197
      -0.243
      -0.245
      -0.220
      -0.195
      -0.198
      -0.245
      -0.340
      -0.476
      -0.637
      -0.800
      -0.941
      -1.044
      -1.101
      -1.106
      -1.059
      -0.961
      -0.821
      -0.657
      -0.486
      -0.315
      -0.137
       0.065
       0.298
       0.553
       0.803
       1.021
       1.186
       1.286
       1.313
       1.262
       1.139
       0.963
       0.766
       0.579
       0.421
       0.299
       0.200
       0.110
       0.016
      -0.084
      -0.192
      -0.302
      -0.407
      -0.499
      -0.564
      -0.594
      -0.587
      -0.550
      -0.492
      -0.419
      -0.336
      -0.249
      -0.163
      -0.082
       0.001
       0.095
       0.209
       0.342
       0.487
       0.627
       0.742
       0.804
       0.785
       0.672
       0.477
       0.241
       0.022
      -0.135
      -0.218
      -0.253
      -0.286
      -0.352
      -0.457
      -0.577
      -0.673
      -0.710
      -0.672
      -0.570
      -0.438
      -0.317
      -0.236
      -0.199
      -0.186
      -0.164
      -0.102
       0.013
       0.172
       0.347
       0.506
       0.629
       0.717
       0.792
       0.885
       1.013
       1.162
       1.284
       1.319
       1.223
       0.987
       0.644
       0.249
      -0.137
      -0.463
      -0.697
      -0.829
      -0.878
      -0.882
      -0.882
      -0.895
      -0.915
      -0.917
      -0.880
      -0.804
      -0.706
      -0.613
      -0.544
      -0.504
      -0.479
      -0.446
      -0.380
      -0.262
      -0.089
       0.122
       0.346
       0.554
       0.727
       0.854
       0.933
       0.963
       0.949
       0.902
       0.836
       0.764
       0.692
       0.617
       0.533
       0.437
       0.335
       0.241
       0.164
       0.102
       0.037
      -0.059
      -0.214
      -0.438
      -0.719
      -1.022
      -1.296
      -1.495
      -1.586
      -1.561
      -1.435
      -1.234
      -0.989
      -0.731
      -0.487
      -0.272
      -0.086
       0.089
       0.268
       0.456
       0.638
       0.781
       0.856
       0.854
       0.792
       0.709
       0.638
       0.600
       0.593
       0.603
       0.616
       0.620
       0.611
       0.584
       0.531
       0.435
       0.283
       0.070
      -0.191
      -0.462
      -0.693
      -0.838
      -0.865
      -0.771
      -0.572
      -0.311
      -0.040
       0.181
       0.310
       0.337
       0.285
       0.195
       0.108
       0.047
       0.014
      -0.004
      -0.017
      -0.031
      -0.038
      -0.026
       0.008
       0.054
       0.084
       0.066
      -0.015
      -0.145
      -0.284
      -0.376
      -0.377
      -0.277
      -0.108
       0.064
       0.174
       0.187
       0.114
       0.000
      -0.094
      -0.122
      -0.062
       0.075
       0.259
       0.451
       0.615
       0.725
       0.767
       0.732
       0.621
       0.445
       0.226
      -0.011
      -0.241
      -0.446
      -0.612
      -0.720
      -0.756
      -0.711
      -0.597
      -0.442
      -0.281
      -0.145
      -0.047
       0.019
       0.067
       0.114
       0.170
       0.231
       0.289
       0.330
       0.343
       0.325
       0.285
       0.241
       0.207
       0.189
       0.180
       0.170
       0.146
       0.098
       0.015
      -0.106
      -0.260
      -0.434
      -0.605
      -0.747
      -0.837
      -0.858
      -0.808
      -0.695
      -0.540
      -0.368
      -0.197
      -0.038
       0.110
       0.254
       0.397
       0.530
       0.639
       0.711
       0.741
       0.732
       0.689
       0.615
       0.512
       0.384
       0.246
       0.116
       0.009
      -0.071
      -0.133
      -0.196
      -0.275
      -0.371
      -0.474
      -0.560
      -0.606
      -0.597
      -0.528
      -0.408
      -0.257
      -0.103
       0.018
       0.070
       0.032
      -0.091
      -0.263
      -0.434
      -0.551
      -0.580
      -0.509
      -0.351
      -0.136
       0.101
       0.330
       0.532
       0.694
       0.803
       0.847
       0.822
       0.737
       0.612
       0.470
       0.329
       0.197
       0.083
      -0.007
      -0.063
      -0.084
      -0.076
      -0.050
      -0.024
      -0.013
      -0.026
      -0.066
      -0.129
      -0.210
      -0.306
      -0.414
      -0.527
      -0.633
      -0.714
      -0.752
      -0.729
      -0.638
      -0.487
      -0.296
      -0.094
       0.091
       0.239
       0.343
       0.404
       0.428
       0.425
       0.405
       0.372
       0.327
       0.278
       0.245
       0.250
       0.302
       0.383
       0.456
       0.489
       0.465
       0.390
       0.282
       0.158
       0.031
      -0.093
      -0.209
      -0.314
      -0.400
      -0.457
      -0.478
      -0.460
      -0.411
      -0.340
      -0.263
      -0.194
      -0.145
      -0.123
      -0.128
      -0.150
      -0.173
      -0.184
      -0.172
      -0.140
      -0.094
      -0.050
      -0.022
      -0.015
      -0.017
      -0.008
       0.026
       0.088
       0.161
       0.220
       0.249
       0.241
       0.205
       0.156
       0.110
       0.085
       0.092
       0.132
       0.192
       0.250
       0.285
       0.284
       0.250
       0.193
       0.128
       0.064
       0.003
      -0.058
      -0.117
      -0.169
      -0.204
      -0.219
      -0.214
      -0.198
      -0.180
      -0.163
      -0.144
      -0.117
      -0.077
      -0.024
       0.034
       0.091
       0.143
       0.190
       0.228
       0.248
       0.244
       0.210
       0.148
       0.066
      -0.025
      -0.111
      -0.180
      -0.230
      -0.267
      -0.308
      -0.366
      -0.442
      -0.521
      -0.580
      -0.596
      -0.557
      -0.462
      -0.324
      -0.167
      -0.015
       0.115
       0.219
       0.300
       0.367
       0.426
       0.479
       0.524
       0.559
       0.579
       0.577
       0.550
       0.502
       0.443
       0.383
       0.322
       0.247
       0.152
       0.036
      -0.092
      -0.218
      -0.333
      -0.432
      -0.517
      -0.586
      -0.637
      -0.666
      -0.671
      -0.655
      -0.617
      -0.560
      -0.484
      -0.389
      -0.271
      -0.121
       0.065
       0.278
       0.494
       0.681
       0.810
       0.871
       0.865
       0.801
       0.692
       0.555
       0.406
       0.258
       0.116
      -0.022
      -0.155
      -0.283
      -0.404
      -0.510
      -0.596
      -0.656
      -0.687
      -0.693
      -0.676
      -0.637
      -0.571
      -0.476
      -0.348
      -0.188
      -0.007
       0.175
       0.334
       0.452
       0.528
       0.571
       0.599
       0.628
       0.664
       0.696
       0.702
       0.656
       0.543
       0.371
       0.168
      -0.026
      -0.182
      -0.291
      -0.362
      -0.415
      -0.469
      -0.526
      -0.576
      -0.600
      -0.581
      -0.510
      -0.391
      -0.242
      -0.083
       0.066
       0.195
       0.294
       0.357
       0.381
       0.369
       0.336
       0.298
       0.269
       0.253
       0.246
       0.241
       0.236
       0.228
       0.215
       0.190
       0.144
       0.067
      -0.042
      -0.171
      -0.292
      -0.365
      -0.363
      -0.286
      -0.160
      -0.027
       0.078
       0.139
       0.167
       0.183
       0.211
       0.262
       0.329
       0.394
       0.434
       0.431
       0.378
       0.283
       0.169
       0.063
      -0.010
      -0.044
      -0.052
      -0.061
      -0.088
      -0.131
      -0.176
      -0.210
      -0.230
