Origin Time       26/02/2012 23:08:42
Lat.              29.6 N	
Long.             80.8 E	
Depth (Km)         10.0
Magnitude         4.3
 Region           Westren-nepal                                                    
 Above details taken from IMD 
   
Station Code      TAN
Station Lat.       29.074
Station Long.      80.112
Station Height(m)  265.0
Site Class        C   Vs30 between 200 m/sec to 375 m/sec *  
Record Time       26.02.2012 23:09:07.759
Sampling Rate     200. Hz
 Record Duration   65.005 Sec.
 Direction         Vert. (Up positive)
Max. Acceleration     -1.244 cm/sec**2
     
  * For reference see Site Classification link of website 
     
 Base Line Corrected and Low Pass Filtered (Cut Off at 35 Hz) Time History
 Acceleration data in cm/sec**2
    
[...]
      -0.095
      -0.134
      -0.167
      -0.180
      -0.159
      -0.096
       0.003
       0.116
       0.206
       0.243
       0.212
       0.125
       0.012
      -0.090
      -0.151
      -0.154
      -0.101
      -0.015
       0.070
       0.119
       0.117
       0.065
      -0.018
      -0.103
      -0.159
      -0.166
      -0.115
      -0.026
       0.064
       0.107
       0.079
      -0.005
      -0.093
      -0.136
      -0.117
      -0.054
       0.024
       0.090
       0.131
       0.139
       0.106
       0.037
      -0.046
      -0.097
      -0.075
       0.029
       0.175
       0.296
       0.337
       0.279
       0.144
      -0.019
      -0.160
      -0.238
      -0.235
      -0.158
      -0.030
       0.103
       0.195
       0.211
       0.149
       0.034
      -0.092
      -0.187
      -0.220
      -0.188
      -0.109
      -0.017
       0.051
       0.077
       0.062
       0.024
      -0.017
      -0.046
      -0.060
      -0.054
      -0.027
       0.020
       0.072
       0.107
       0.110
       0.088
       0.063
       0.055
       0.066
       0.077
       0.061
       0.004
      -0.084
      -0.172
      -0.230
      -0.236
      -0.187
      -0.096
       0.013
       0.107
       0.156
       0.150
       0.095
       0.015
      -0.059
      -0.096
      -0.079
      -0.010
       0.086
       0.170
       0.207
       0.184
       0.111
       0.017
      -0.072
      -0.138
      -0.168
      -0.150
      -0.080
       0.024
       0.117
       0.146
       0.089
      -0.036
      -0.173
      -0.259
      -0.265
      -0.196
      -0.080
       0.051
       0.177
       0.271
       0.304
       0.255
       0.136
      -0.009
      -0.122
      -0.163
      -0.128
      -0.044
       0.043
       0.090
       0.074
      -0.005
      -0.121
      -0.229
      -0.278
      -0.237
      -0.120
       0.024
       0.134
       0.177
       0.151
       0.082
       0.002
      -0.061
      -0.091
      -0.076
      -0.012
       0.083
       0.169
       0.200
       0.150
       0.036
      -0.090
      -0.173
      -0.181
      -0.118
      -0.020
       0.067
       0.109
       0.101
       0.054
      -0.011
      -0.077
      -0.129
      -0.154
      -0.143
      -0.102
      -0.048
      -0.004
       0.016
       0.022
       0.038
       0.081
       0.144
       0.207
       0.246
       0.245
       0.196
       0.098
      -0.035
      -0.172
      -0.267
      -0.281
      -0.201
      -0.056
       0.098
       0.203
       0.226
       0.172
       0.072
      -0.034
      -0.115
      -0.149
      -0.123
      -0.038
       0.092
       0.229
       0.319
       0.314
       0.203
       0.024
      -0.154
      -0.269
      -0.296
      -0.247
      -0.154
      -0.050
       0.043
       0.104
       0.118
       0.073
      -0.020
      -0.126
      -0.203
      -0.219
      -0.174
      -0.092
      -0.007
       0.052
       0.074
       0.064
       0.042
       0.028
       0.031
       0.047
       0.060
       0.054
       0.021
      -0.031
      -0.092
      -0.152
      -0.207
      -0.246
      -0.249
      -0.202
      -0.105
       0.018
       0.128
       0.191
       0.189
       0.127
       0.024
      -0.093
      -0.198
      -0.264
      -0.265
      -0.186
      -0.035
       0.153
       0.325
       0.434
       0.450
       0.377
       0.242
       0.091
      -0.032
      -0.093
      -0.081
      -0.010
       0.080
       0.141
       0.139
       0.074
      -0.025
      -0.120
      -0.181
      -0.196
      -0.164
      -0.099
      -0.028
       0.019
       0.014
      -0.043
      -0.121
      -0.168
      -0.146
      -0.060
       0.054
       0.152
       0.208
       0.215
       0.178
       0.104
       0.008
      -0.085
      -0.142
      -0.138
      -0.080
      -0.004
       0.041
       0.027
      -0.040
      -0.124
      -0.183
      -0.187
      -0.133
      -0.037
       0.071
       0.156
       0.194
       0.171
       0.093
      -0.016
      -0.120
      -0.184
      -0.191
      -0.138
      -0.043
       0.070
       0.172
       0.233
       0.237
       0.180
       0.080
      -0.034
      -0.132
      -0.196
      -0.221
      -0.216
      -0.190
      -0.152
      -0.115
      -0.088
      -0.074
      -0.061
      -0.038
       0.003
       0.051
       0.087
       0.093
       0.071
       0.033
      -0.001
      -0.016
      -0.002
       0.048
       0.138
       0.257
       0.369
       0.431
       0.412
       0.312
       0.165
       0.014
      -0.110
      -0.196
      -0.243
      -0.251
      -0.220
      -0.158
      -0.086
      -0.029
      -0.002
      -0.007
      -0.031
      -0.060
      -0.078
      -0.073
      -0.033
       0.044
       0.145
       0.244
       0.308
       0.312
       0.249
       0.134
       0.001
      -0.110
      -0.168
      -0.166
      -0.128
      -0.089
      -0.076
      -0.093
      -0.131
      -0.177
      -0.222
      -0.255
      -0.270
      -0.257
      -0.211
      -0.132
      -0.024
       0.101
       0.227
       0.333
       0.394
       0.390
       0.311
       0.166
      -0.015
      -0.189
      -0.321
      -0.394
      -0.407
      -0.374
      -0.307
      -0.216
      -0.116
      -0.031
       0.018
       0.029
       0.024
       0.034
       0.072
       0.126
       0.168
       0.176
       0.146
       0.092
       0.036
      -0.009
      -0.038
      -0.050
      -0.043
      -0.018
       0.014
       0.030
       0.005
      -0.065
      -0.151
      -0.200
      -0.165
      -0.046
       0.106
       0.214
       0.225
       0.140
       0.010
      -0.097
      -0.131
      -0.078
       0.036
       0.168
       0.270
       0.312
       0.280
       0.185
       0.050
      -0.091
      -0.197
      -0.231
      -0.169
      -0.024
       0.152
       0.285
       0.319
       0.249
       0.118
      -0.012
      -0.092
      -0.113
      -0.094
      -0.062
      -0.040
      -0.036
      -0.054
      -0.089
      -0.122
      -0.120
      -0.058
       0.057
       0.176
       0.237
       0.199
       0.069
      -0.105
      -0.263
      -0.356
      -0.360
      -0.281
      -0.141
       0.026
       0.179
       0.288
       0.340
       0.340
       0.304
       0.242
       0.160
       0.066
      -0.028
      -0.111
      -0.178
      -0.238
      -0.296
      -0.346
      -0.364
      -0.322
      -0.220
      -0.086
       0.029
       0.086
       0.075
       0.019
      -0.044
      -0.075
      -0.041
       0.066
       0.227
       0.394
       0.507
       0.527
       0.450
       0.307
       0.138
      -0.024
      -0.160
      -0.254
      -0.296
      -0.289
      -0.255
      -0.229
      -0.239
      -0.282
      -0.320
      -0.312
      -0.236
      -0.107
       0.042
       0.179
       0.283
       0.340
       0.336
       0.259
       0.117
      -0.058
      -0.216
      -0.303
      -0.285
      -0.161
       0.031
       0.227
       0.364
       0.400
       0.332
       0.191
       0.019
      -0.151
      -0.296
      -0.400
      -0.437
      -0.381
      -0.227
      -0.006
       0.219
       0.373
       0.411
       0.329
       0.162
      -0.035
      -0.211
      -0.321
      -0.335
      -0.240
      -0.053
       0.176
       0.373
       0.470
       0.433
       0.275
       0.044
      -0.190
      -0.360
      -0.419
      -0.352
      -0.185
       0.020
       0.189
       0.265
       0.241
       0.153
       0.057
       0.002
       0.004
       0.053
       0.126
       0.196
       0.251
       0.283
       0.292
       0.275
       0.223
       0.124
      -0.025
      -0.214
      -0.412
      -0.576
      -0.663
      -0.649
      -0.530
      -0.331
      -0.098
       0.113
       0.255
       0.303
       0.263
       0.169
       0.064
      -0.009
      -0.018
       0.044
       0.159
       0.284
       0.365
       0.356
       0.248
       0.071
      -0.118
      -0.265
      -0.343
      -0.352
      -0.311
      -0.241
      -0.157
      -0.068
       0.015
       0.078
       0.114
       0.123
       0.118
       0.107
       0.085
       0.044
      -0.018
      -0.084
      -0.125
      -0.113
      -0.042
       0.064
       0.162
       0.205
       0.174
       0.083
      -0.031
      -0.116
      -0.138
      -0.088
       0.010
       0.113
       0.179
       0.180
       0.114
       0.005
      -0.098
      -0.138
      -0.072
       0.101
       0.335
       0.556
       0.684
       0.663
       0.475
       0.145
      -0.268
      -0.667
      -0.938
      -0.989
      -0.799
      -0.439
      -0.045
       0.246
       0.356
       0.279
       0.075
      -0.170
      -0.366
      -0.441
      -0.358
      -0.128
       0.183
       0.475
       0.651
       0.664
       0.532
       0.322
       0.114
      -0.031
      -0.092
      -0.082
      -0.037
       0.002
      -0.005
      -0.079
      -0.211
      -0.357
      -0.449
      -0.424
      -0.260
       0.010
       0.305
       0.530
       0.611
       0.527
       0.310
       0.037
      -0.202
      -0.334
      -0.329
      -0.210
      -0.044
       0.093
       0.141
       0.083
      -0.061
      -0.245
      -0.415
      -0.524
      -0.540
      -0.453
      -0.276
      -0.051
       0.160
       0.304
       0.357
       0.335
       0.280
       0.236
       0.228
       0.259
       0.316
       0.378
       0.427
       0.450
       0.438
       0.385
       0.293
       0.165
       0.001
      -0.199
      -0.427
      -0.662
      -0.866
      -0.999
      -1.028
      -0.932
      -0.706
      -0.371
       0.020
       0.388
       0.647
       0.734
       0.639
       0.414
       0.150
      -0.062
      -0.163
      -0.129
       0.032
       0.283
       0.559
       0.774
       0.845
       0.717
       0.397
      -0.050
      -0.516
      -0.890
      -1.087
      -1.065
      -0.830
      -0.442
      -0.004
       0.356
       0.527
       0.459
       0.188
      -0.175
      -0.486
      -0.627
      -0.546
      -0.266
       0.130
       0.527
       0.813
       0.909
       0.793
       0.504
       0.131
      -0.218
      -0.455
      -0.534
      -0.464
      -0.294
      -0.091
       0.089
       0.213
       0.278
       0.292
       0.266
       0.203
       0.103
      -0.025
      -0.160
      -0.273
      -0.340
      -0.350
      -0.301
      -0.196
      -0.043
       0.141
       0.327
       0.468
       0.515
       0.448
       0.292
       0.112
      -0.021
      -0.061
      -0.006
       0.110
       0.234
       0.312
       0.297
       0.164
      -0.074
      -0.363
      -0.626
      -0.791
      -0.830
      -0.755
      -0.603
      -0.405
      -0.173
       0.090
       0.374
       0.648
       0.863
       0.969
       0.929
       0.745
       0.456
       0.124
      -0.180
      -0.401
      -0.505
      -0.486
      -0.365
      -0.194
      -0.037
       0.040
       0.000
      -0.152
      -0.373
      -0.595
      -0.755
      -0.807
      -0.736
      -0.550
      -0.282
       0.030
       0.334
       0.582
       0.729
       0.755
       0.672
       0.518
       0.341
       0.184
       0.069
       0.010
       0.009
       0.062
       0.139
       0.196
       0.187
       0.091
      -0.071
      -0.254
      -0.411
      -0.515
      -0.554
      -0.521
      -0.409
      -0.219
       0.025
       0.275
       0.482
       0.608
       0.637
       0.574
       0.439
       0.270
       0.114
       0.015
      -0.010
       0.023
       0.071
       0.087
       0.035
      -0.093
      -0.287
      -0.520
      -0.753
      -0.935
      -1.008
      -0.935
      -0.719
      -0.408
      -0.073
       0.226
       0.459
       0.623
       0.727
       0.773
       0.757
       0.679
       0.554
       0.407
       0.259
       0.118
      -0.023
      -0.175
      -0.344
      -0.524
      -0.696
      -0.827
      -0.881
      -0.835
      -0.688
      -0.468
      -0.222
       0.006
       0.186
       0.309
       0.383
       0.430
       0.488
       0.593
       0.756
       0.953
       1.123
       1.193
       1.113
       0.866
       0.481
       0.023
      -0.421
      -0.764
      -0.946
      -0.962
      -0.869
      -0.763
      -0.726
      -0.781
      -0.881
      -0.940
      -0.881
      -0.673
      -0.336
       0.065
       0.449
       0.738
       0.880
       0.869
       0.745
       0.582
       0.453
       0.389
       0.379
       0.376
       0.335
       0.231
       0.066
      -0.129
      -0.303
      -0.405
      -0.396
      -0.277
      -0.086
       0.110
       0.250
       0.297
       0.250
       0.140
       0.000
      -0.139
      -0.260
      -0.357
      -0.428
      -0.481
      -0.517
      -0.529
      -0.499
      -0.411
      -0.266
      -0.084
       0.108
       0.282
       0.428
       0.548
       0.641
       0.699
       0.708
       0.657
       0.549
       0.394
       0.210
       0.017
      -0.163
      -0.310
      -0.411
      -0.466
      -0.484
      -0.486
      -0.488
      -0.493
      -0.496
      -0.483
      -0.442
      -0.359
      -0.224
      -0.031
       0.207
       0.466
       0.714
       0.910
       1.013
       0.988
       0.819
       0.523
       0.145
      -0.257
      -0.629
      -0.934
      -1.148
      -1.244
      -1.202
      -1.024
      -0.750
      -0.444
      -0.165
       0.067
       0.267
       0.456
       0.638
       0.795
       0.895
       0.917
       0.852
       0.701
       0.470
       0.180
      -0.124
      -0.375
      -0.510
      -0.499
      -0.362
      -0.159
       0.035
       0.153
       0.161
       0.060
      -0.106
      -0.267
      -0.350
      -0.305
      -0.129
       0.134
       0.411
       0.627
       0.730
       0.706
       0.579
       0.393
       0.195
       0.015
      -0.128
      -0.235
      -0.311
      -0.371
      -0.425
      -0.475
      -0.513
      -0.525
      -0.501
      -0.441
      -0.360
      -0.274
      -0.196
      -0.117
      -0.016
       0.124
       0.294
       0.456
       0.556
       0.554
       0.446
       0.266
       0.069
      -0.089
      -0.171
      -0.168
      -0.097
       0.006
       0.097
       0.144
       0.137
       0.092
       0.036
      -0.006
      -0.027
      -0.036
      -0.044
      -0.057
      -0.069
      -0.078
      -0.087
      -0.101
      -0.122
      -0.144
      -0.157
      -0.151
      -0.115
      -0.041
       0.073
       0.222
       0.387
       0.538
       0.633
       0.635
       0.522
       0.301
       0.007
      -0.301
      -0.552
      -0.693
      -0.698
      -0.579
      -0.377
      -0.151
       0.042
       0.161
       0.195
       0.165
       0.116
       0.093
       0.120
       0.190
       0.269
       0.318
       0.313
       0.258
       0.173
       0.078
      -0.014
      -0.092
      -0.140
      -0.141
      -0.092
      -0.010
       0.060
       0.077
       0.026
      -0.071
      -0.170
      -0.237
      -0.264
      -0.260
      -0.246
      -0.240
      -0.253
      -0.284
      -0.317
      -0.325
      -0.284
      -0.184
      -0.037
       0.122
       0.258
       0.342
       0.371
       0.356
       0.319
       0.284
       0.267
       0.269
       0.268
       0.226
       0.108
      -0.098
      -0.362
      -0.626
      -0.820
      -0.894
      -0.834
      -0.659
      -0.407
      -0.122
       0.153
       0.385
       0.559
       0.679
       0.762
       0.827
       0.880
       0.907
       0.877
       0.759
       0.536
       0.222
      -0.139
      -0.482
      -0.737
      -0.852
      -0.814
      -0.655
      -0.440
      -0.239
      -0.101
      -0.040
      -0.045
      -0.084
      -0.121
      -0.119
      -0.055
       0.069
       0.224
       0.362
       0.448
       0.473
       0.449
       0.392
       0.314
       0.223
       0.133
       0.059
       0.009
      -0.019
      -0.046
      -0.097
      -0.190
      -0.321
      -0.463
      -0.572
      -0.609
      -0.552
      -0.412
      -0.221
      -0.015
       0.175
       0.327
       0.425
       0.454
       0.419
       0.341
       0.248
       0.162
       0.093
       0.043
       0.009
      -0.016
      -0.041
      -0.086
      -0.162
      -0.267
      -0.372
      -0.437
      -0.434
      -0.365
      -0.262
      -0.161
      -0.082
      -0.027
       0.014
       0.055
       0.104
       0.162
       0.228
       0.294
       0.349
       0.384
       0.397
       0.392
       0.373
       0.337
       0.269
       0.154
      -0.010
      -0.201
      -0.386
      -0.523
      -0.586
      -0.561
      -0.455
      -0.293
      -0.110
       0.056
       0.173
       0.223
       0.205
       0.126
       0.007
      -0.124
      -0.232
      -0.284
      -0.270
      -0.199
      -0.102
      -0.006
       0.071
       0.124
       0.157
       0.171
       0.168
       0.154
       0.135
       0.115
       0.090
       0.056
       0.011
      -0.033
      -0.061
      -0.068
      -0.070
      -0.091
      -0.149
      -0.237
      -0.326
      -0.383
      -0.387
      -0.332
      -0.217
      -0.046
       0.165
       0.385
       0.576
       0.705
       0.761
       0.749
       0.688
       0.601
       0.506
       0.411
       0.311
       0.197
       0.061
      -0.094
      -0.257
      -0.408
      -0.528
      -0.604
      -0.634
      -0.624
      -0.586
      -0.531
      -0.460
      -0.359
      -0.211
      -0.018
       0.198
       0.394
       0.529
       0.579
       0.547
       0.457
       0.339
       0.225
       0.136
       0.087
       0.076
       0.082
       0.074
       0.023
      -0.071
      -0.181
      -0.269
      -0.304
      -0.281
      -0.220
      -0.145
      -0.078
      -0.028
      -0.005
      -0.016
      -0.063
      -0.132
      -0.197
      -0.230
      -0.218
      -0.165
      -0.092
      -0.023
       0.021
       0.037
       0.029
       0.013
       0.005
       0.019
       0.058
       0.118
       0.188
       0.258
       0.321
       0.370
       0.391
       0.362
       0.267
       0.103
      -0.111
      -0.333
      -0.512
      -0.613
      -0.627
      -0.570
      -0.465
      -0.329
      -0.176
      -0.022
       0.116
       0.220
       0.284
       0.317
       0.337
       0.358
       0.378
       0.377
       0.339
       0.257
       0.150
       0.047
      -0.025
      -0.058
      -0.068
      -0.077
      -0.103
      -0.144
      -0.187
      -0.222
      -0.244
      -0.254
      -0.248
      -0.209
      -0.125
       0.008
       0.168
       0.320
       0.433
       0.490
       0.488
       0.430
       0.323
       0.178
       0.017
      -0.125
      -0.210
      -0.219
      -0.159
      -0.061
       0.033
       0.093
       0.111
       0.092
       0.045
      -0.026
      -0.117
      -0.214
      -0.290
      -0.317
      -0.283
      -0.202
      -0.104
      -0.011
       0.069
       0.138
       0.198
       0.243
       0.267
       0.270
       0.260
