Origin Time       09/01/2013 07:44:20 UTC
Lat.              29.75 N
Long.             81.74 E
Depth (Km)         34.0
Magnitude         5.0
 Region           NEPAL                                                            
 Above details taken from IIT 
    
Station Code      TAN
Station Lat.       29.074  N
Station Long.      80.112  E
Station Height(m)  265.0
Site Class        C   Vs30 between 200 m/sec to 375 m/sec *  
Record Time       09.01.2013 07:44:54.194 UTC
Sampling Rate     200. Hz
 Record Duration   65.190 Sec.
 Direction         N-S (N positive)
Max. Acceleration      2.963 cm/sec**2
     
  * For reference see Site Classification link of website 
     
 Base Line Corrected and Low Pass Filtered (Cut Off at 35 Hz) Time History
 Acceleration data in cm/sec**2
    
[...]
      -0.272
      -0.274
      -0.249
      -0.195
      -0.120
      -0.036
       0.042
       0.097
       0.126
       0.136
       0.139
       0.145
       0.157
       0.170
       0.174
       0.164
       0.139
       0.108
       0.078
       0.055
       0.037
       0.019
      -0.003
      -0.032
      -0.064
      -0.093
      -0.115
      -0.129
      -0.136
      -0.143
      -0.155
      -0.172
      -0.189
      -0.195
      -0.182
      -0.146
      -0.091
      -0.025
       0.039
       0.094
       0.133
       0.158
       0.164
       0.151
       0.116
       0.065
       0.009
      -0.036
      -0.057
      -0.054
      -0.034
      -0.011
       0.006
       0.013
       0.014
       0.011
       0.008
       0.003
      -0.006
      -0.018
      -0.033
      -0.049
      -0.063
      -0.074
      -0.076
      -0.071
      -0.059
      -0.040
      -0.014
       0.019
       0.056
       0.090
       0.119
       0.143
       0.162
       0.175
       0.179
       0.172
       0.155
       0.134
       0.110
       0.087
       0.060
       0.029
      -0.007
      -0.041
      -0.066
      -0.072
      -0.056
      -0.019
       0.029
       0.073
       0.103
       0.114
       0.111
       0.101
       0.095
       0.099
       0.116
       0.143
       0.170
       0.192
       0.202
       0.198
       0.181
       0.149
       0.105
       0.053
       0.002
      -0.039
      -0.063
      -0.074
      -0.077
      -0.075
      -0.064
      -0.037
       0.003
       0.045
       0.071
       0.069
       0.040
      -0.006
      -0.050
      -0.080
      -0.093
      -0.090
      -0.075
      -0.051
      -0.016
       0.028
       0.070
       0.103
       0.120
       0.127
       0.136
       0.159
       0.198
       0.246
       0.288
       0.309
       0.301
       0.266
       0.215
       0.157
       0.098
       0.041
      -0.016
      -0.074
      -0.133
      -0.188
      -0.234
      -0.268
      -0.286
      -0.287
      -0.272
      -0.239
      -0.190
      -0.134
      -0.082
      -0.046
      -0.028
      -0.023
      -0.022
      -0.018
      -0.008
       0.010
       0.035
       0.065
       0.091
       0.104
       0.095
       0.067
       0.030
      -0.003
      -0.029
      -0.049
      -0.068
      -0.088
      -0.110
      -0.132
      -0.156
      -0.178
      -0.192
      -0.191
      -0.170
      -0.129
      -0.073
      -0.010
       0.056
       0.122
       0.184
       0.233
       0.261
       0.266
       0.251
       0.224
       0.187
       0.141
       0.083
       0.016
      -0.053
      -0.117
      -0.173
      -0.216
      -0.245
      -0.257
      -0.258
      -0.257
      -0.259
      -0.267
      -0.273
      -0.268
      -0.248
      -0.208
      -0.149
      -0.073
       0.014
       0.100
       0.169
       0.211
       0.223
       0.212
       0.189
       0.164
       0.147
       0.139
       0.133
       0.121
       0.098
       0.063
       0.019
      -0.029
      -0.073
      -0.106
      -0.121
      -0.114
      -0.091
      -0.060
      -0.026
       0.010
       0.053
       0.109
       0.176
       0.241
       0.287
       0.303
       0.289
       0.255
       0.209
       0.158
       0.104
       0.048
      -0.007
      -0.060
      -0.108
      -0.148
      -0.183
      -0.215
      -0.247
      -0.277
      -0.300
      -0.314
      -0.320
      -0.319
      -0.310
      -0.287
      -0.249
      -0.201
      -0.148
      -0.095
      -0.044
       0.003
       0.044
       0.081
       0.117
       0.158
       0.205
       0.254
       0.297
       0.326
       0.334
       0.318
       0.280
       0.224
       0.155
       0.083
       0.014
      -0.049
      -0.108
      -0.168
      -0.233
      -0.300
      -0.359
      -0.400
      -0.417
      -0.414
      -0.399
      -0.380
      -0.362
      -0.344
      -0.321
      -0.287
      -0.240
      -0.179
      -0.106
      -0.024
       0.059
       0.133
       0.188
       0.221
       0.231
       0.221
       0.194
       0.152
       0.097
       0.036
      -0.026
      -0.078
      -0.113
      -0.126
      -0.123
      -0.115
      -0.111
      -0.114
      -0.121
      -0.124
      -0.115
      -0.092
      -0.059
      -0.022
       0.017
       0.058
       0.105
       0.153
       0.196
       0.232
       0.262
       0.291
       0.316
       0.326
       0.308
       0.259
       0.185
       0.099
       0.017
      -0.051
      -0.097
      -0.114
      -0.102
      -0.069
      -0.032
      -0.010
      -0.015
      -0.042
      -0.069
      -0.071
      -0.034
       0.038
       0.131
       0.228
       0.314
       0.385
       0.440
       0.478
       0.500
       0.506
       0.498
       0.480
       0.453
       0.420
       0.379
       0.327
       0.260
       0.182
       0.095
       0.004
      -0.089
      -0.179
      -0.256
      -0.305
      -0.318
      -0.294
      -0.245
      -0.188
      -0.134
      -0.091
      -0.055
      -0.024
       0.005
       0.033
       0.064
       0.102
       0.148
       0.196
       0.232
       0.239
       0.209
       0.144
       0.059
      -0.033
      -0.122
      -0.205
      -0.286
      -0.374
      -0.473
      -0.588
      -0.716
      -0.856
      -1.003
      -1.153
      -1.304
      -1.453
      -1.600
      -1.745
      -1.886
      -2.017
      -2.128
      -2.203
      -2.226
      -2.184
      -2.073
      -1.898
      -1.673
      -1.413
      -1.130
      -0.835
      -0.536
      -0.238
       0.059
       0.360
       0.668
       0.983
       1.292
       1.575
       1.815
       2.001
       2.124
       2.179
       2.163
       2.075
       1.919
       1.699
       1.424
       1.104
       0.758
       0.409
       0.079
      -0.215
      -0.463
      -0.659
      -0.797
      -0.872
      -0.881
      -0.827
      -0.719
      -0.565
      -0.368
      -0.126
       0.164
       0.496
       0.853
       1.211
       1.545
       1.839
       2.078
       2.245
       2.320
       2.286
       2.139
       1.891
       1.564
       1.183
       0.767
       0.331
      -0.111
      -0.542
      -0.943
      -1.297
      -1.589
      -1.807
      -1.946
      -2.002
      -1.983
      -1.900
      -1.766
      -1.596
      -1.399
      -1.182
      -0.951
      -0.708
      -0.461
      -0.215
       0.027
       0.267
       0.504
       0.736
       0.957
       1.158
       1.329
       1.454
       1.520
       1.516
       1.440
       1.299
       1.111
       0.898
       0.686
       0.495
       0.344
       0.246
       0.211
       0.232
       0.289
       0.354
       0.397
       0.397
       0.349
       0.260
       0.143
       0.013
      -0.112
      -0.214
      -0.269
      -0.254
      -0.156
       0.026
       0.278
       0.568
       0.860
       1.118
       1.317
       1.453
       1.534
       1.577
       1.594
       1.593
       1.575
       1.533
       1.461
       1.353
       1.208
       1.020
       0.786
       0.499
       0.159
      -0.225
      -0.631
      -1.031
      -1.400
      -1.719
      -1.978
      -2.178
      -2.328
      -2.436
      -2.509
      -2.546
      -2.545
      -2.500
      -2.402
      -2.244
      -2.022
      -1.742
      -1.422
      -1.088
      -0.762
      -0.460
      -0.191
       0.040
       0.227
       0.374
       0.490
       0.584
       0.664
       0.725
       0.758
       0.757
       0.725
       0.671
       0.606
       0.534
       0.459
       0.384
       0.320
       0.277
       0.263
       0.275
       0.299
       0.314
       0.299
       0.246
       0.161
       0.060
      -0.039
      -0.122
      -0.180
      -0.211
      -0.217
      -0.211
      -0.205
      -0.213
      -0.237
      -0.271
      -0.296
      -0.290
      -0.240
      -0.144
      -0.013
       0.145
       0.318
       0.501
       0.684
       0.857
       1.006
       1.124
       1.206
       1.253
       1.268
       1.257
       1.226
       1.175
       1.098
       0.992
       0.855
       0.686
       0.490
       0.276
       0.057
      -0.148
      -0.319
      -0.447
      -0.534
      -0.592
      -0.632
      -0.664
      -0.688
      -0.695
      -0.676
      -0.625
      -0.541
      -0.431
      -0.306
      -0.180
      -0.067
       0.019
       0.066
       0.071
       0.038
      -0.022
      -0.093
      -0.161
      -0.216
      -0.258
      -0.292
      -0.330
      -0.379
      -0.442
      -0.520
      -0.607
      -0.696
      -0.777
      -0.844
      -0.893
      -0.919
      -0.922
      -0.898
      -0.845
      -0.767
      -0.672
      -0.568
      -0.468
      -0.383
      -0.324
      -0.301
      -0.319
      -0.374
      -0.453
      -0.533
      -0.585
      -0.588
      -0.536
      -0.442
      -0.330
      -0.228
      -0.155
      -0.118
      -0.103
      -0.087
      -0.037
       0.075
       0.261
       0.514
       0.801
       1.075
       1.294
       1.426
       1.456
       1.386
       1.231
       1.012
       0.756
       0.488
       0.230
      -0.006
      -0.227
      -0.445
      -0.662
      -0.867
      -1.028
      -1.107
      -1.073
      -0.913
      -0.633
      -0.257
       0.184
       0.653
       1.106
       1.499
       1.794
       1.966
       2.009
       1.936
       1.771
       1.547
       1.298
       1.053
       0.831
       0.635
       0.452
       0.260
       0.038
      -0.226
      -0.527
      -0.843
      -1.144
      -1.398
      -1.579
      -1.676
      -1.687
      -1.613
      -1.457
      -1.223
      -0.925
      -0.583
      -0.225
       0.119
       0.425
       0.672
       0.850
       0.957
       0.998
       0.984
       0.928
       0.847
       0.750
       0.643
       0.522
       0.380
       0.211
       0.012
      -0.216
      -0.464
      -0.713
      -0.942
      -1.133
      -1.271
      -1.347
      -1.356
      -1.300
      -1.187
      -1.033
      -0.857
      -0.678
      -0.512
      -0.366
      -0.242
      -0.135
      -0.043
       0.039
       0.114
       0.181
       0.235
       0.271
       0.286
       0.279
       0.251
       0.212
       0.173
       0.156
       0.178
       0.252
       0.379
       0.546
       0.730
       0.900
       1.022
       1.068
       1.022
       0.887
       0.681
       0.435
       0.180
      -0.056
      -0.261
      -0.438
      -0.594
      -0.735
      -0.856
      -0.950
      -1.013
      -1.046
      -1.046
      -1.004
      -0.905
      -0.738
      -0.506
      -0.232
       0.049
       0.304
       0.515
       0.676
       0.791
       0.867
       0.909
       0.926
       0.926
       0.918
       0.905
       0.888
       0.861
       0.819
       0.753
       0.657
       0.528
       0.367
       0.187
       0.000
      -0.180
      -0.344
      -0.482
      -0.586
      -0.650
      -0.671
      -0.657
      -0.618
      -0.569
      -0.516
      -0.465
      -0.416
      -0.368
      -0.320
      -0.271
      -0.220
      -0.162
      -0.091
       0.001
       0.121
       0.269
       0.442
       0.633
       0.829
       1.013
       1.166
       1.267
       1.303
       1.270
       1.172
       1.021
       0.832
       0.616
       0.375
       0.100
      -0.219
      -0.581
      -0.963
      -1.326
      -1.629
      -1.838
      -1.939
      -1.928
      -1.813
      -1.606
      -1.328
      -1.008
      -0.683
      -0.388
      -0.146
       0.030
       0.145
       0.212
       0.249
       0.275
       0.304
       0.345
       0.400
       0.466
       0.536
       0.594
       0.620
       0.593
       0.498
       0.340
       0.139
      -0.071
      -0.257
      -0.397
      -0.483
      -0.516
      -0.505
      -0.461
      -0.399
      -0.334
      -0.279
      -0.240
      -0.221
      -0.216
      -0.214
      -0.200
      -0.166
      -0.111
      -0.036
       0.054
       0.154
       0.253
       0.337
       0.397
       0.428
       0.441
       0.453
       0.484
       0.542
       0.627
       0.729
       0.837
       0.934
       1.002
       1.024
       0.991
       0.906
       0.775
       0.607
       0.407
       0.177
      -0.070
      -0.316
      -0.541
      -0.732
      -0.883
      -0.993
      -1.063
      -1.096
      -1.094
      -1.054
      -0.971
      -0.836
      -0.650
      -0.426
      -0.192
       0.029
       0.223
       0.392
       0.540
       0.667
       0.773
       0.858
       0.924
       0.973
       1.000
       1.001
       0.974
       0.919
       0.835
       0.712
       0.537
       0.301
       0.007
      -0.328
      -0.676
      -1.004
      -1.283
      -1.486
      -1.600
      -1.624
      -1.573
      -1.474
      -1.353
      -1.237
      -1.135
      -1.048
      -0.964
      -0.869
      -0.746
      -0.582
      -0.370
      -0.107
       0.196
       0.512
       0.809
       1.053
       1.221
       1.308
       1.321
       1.270
       1.169
       1.035
       0.884
       0.733
       0.592
       0.454
       0.303
       0.122
      -0.094
      -0.339
      -0.599
      -0.857
      -1.100
      -1.311
      -1.471
      -1.568
      -1.599
      -1.567
      -1.479
      -1.340
      -1.147
      -0.892
      -0.565
      -0.158
       0.321
       0.849
       1.391
       1.906
       2.356
       2.704
       2.914
       2.963
       2.848
       2.584
       2.203
       1.745
       1.245
       0.737
       0.254
      -0.176
      -0.533
      -0.812
      -1.020
      -1.169
      -1.273
      -1.338
      -1.368
      -1.363
      -1.323
      -1.247
      -1.132
      -0.975
      -0.782
      -0.566
      -0.341
      -0.123
       0.079
       0.256
       0.404
       0.516
       0.584
       0.600
       0.564
       0.487
       0.386
       0.281
       0.180
       0.088
       0.009
      -0.051
      -0.084
      -0.088
      -0.067
      -0.033
       0.003
       0.034
       0.059
       0.080
       0.104
       0.133
       0.164
       0.188
       0.197
       0.192
       0.180
       0.161
       0.123
       0.050
      -0.065
      -0.211
      -0.368
      -0.513
      -0.632
      -0.711
      -0.735
      -0.694
      -0.587
      -0.429
      -0.244
      -0.055
       0.128
       0.298
       0.452
       0.580
       0.669
       0.704
       0.680
       0.603
       0.486
       0.346
       0.192
       0.027
      -0.144
      -0.312
      -0.462
      -0.584
      -0.673
      -0.740
      -0.800
      -0.862
      -0.925
      -0.979
      -1.004
      -0.981
      -0.891
      -0.722
      -0.474
      -0.163
       0.181
       0.521
       0.824
       1.067
       1.242
       1.344
       1.376
       1.338
       1.236
       1.074
       0.864
       0.622
       0.368
       0.119
      -0.115
      -0.328
      -0.518
      -0.678
      -0.796
      -0.860
      -0.864
      -0.809
      -0.699
      -0.548
      -0.372
      -0.197
      -0.046
       0.065
       0.134
       0.168
       0.181
       0.180
       0.171
       0.157
       0.142
       0.131
       0.122
       0.105
       0.075
       0.036
       0.003
      -0.005
       0.020
       0.073
       0.141
       0.209
       0.265
       0.303
       0.318
       0.307
       0.275
       0.229
       0.179
       0.126
       0.064
      -0.011
      -0.097
      -0.180
      -0.240
      -0.269
      -0.267
      -0.244
      -0.208
      -0.162
      -0.113
      -0.070
      -0.045
      -0.046
      -0.071
      -0.111
      -0.156
      -0.195
      -0.220
      -0.227
      -0.209
      -0.163
      -0.090
       0.006
       0.112
       0.217
       0.311
       0.389
       0.454
       0.516
       0.588
       0.673
       0.763
       0.841
       0.892
       0.908
       0.892
       0.855
       0.805
       0.750
       0.690
       0.625
       0.553
       0.468
       0.367
       0.248
       0.118
      -0.013
      -0.129
      -0.215
      -0.261
      -0.262
      -0.222
      -0.147
      -0.046
       0.072
       0.201
       0.330
       0.452
       0.555
       0.627
       0.655
       0.632
       0.560
       0.450
       0.314
       0.167
       0.018
      -0.128
      -0.269
      -0.410
      -0.553
      -0.690
      -0.799
      -0.861
      -0.862
      -0.805
      -0.703
      -0.572
      -0.432
      -0.304
      -0.205
      -0.148
      -0.133
      -0.156
      -0.212
      -0.298
      -0.417
      -0.564
      -0.733
      -0.913
      -1.095
      -1.270
      -1.423
      -1.534
      -1.584
      -1.559
      -1.455
      -1.281
      -1.056
      -0.799
      -0.530
      -0.265
      -0.013
       0.216
       0.415
       0.577
       0.701
       0.785
       0.832
       0.843
       0.820
       0.768
       0.690
       0.585
       0.446
       0.265
       0.048
      -0.191
      -0.423
      -0.620
      -0.761
      -0.833
      -0.834
      -0.765
      -0.637
      -0.462
      -0.258
      -0.037
       0.192
       0.427
       0.664
       0.899
       1.119
       1.313
       1.471
       1.584
       1.642
       1.635
       1.556
       1.414
       1.226
       1.020
       0.818
       0.635
       0.476
       0.340
       0.226
       0.130
       0.050
      -0.019
      -0.078
      -0.122
      -0.141
      -0.129
      -0.089
      -0.028
       0.048
       0.132
       0.210
       0.266
       0.281
       0.248
       0.164
       0.034
      -0.132
      -0.313
      -0.486
      -0.628
      -0.720
      -0.755
      -0.732
      -0.664
      -0.567
      -0.466
      -0.377
      -0.309
      -0.261
      -0.224
      -0.188
      -0.142
      -0.084
      -0.018
       0.047
       0.102
       0.139
       0.149
       0.127
       0.074
      -0.004
      -0.089
      -0.167
      -0.228
      -0.271
      -0.303
      -0.331
      -0.363
      -0.401
      -0.443
      -0.483
      -0.518
      -0.542
      -0.551
      -0.541
      -0.512
      -0.469
      -0.424
      -0.390
      -0.378
      -0.385
      -0.402
      -0.412
      -0.400
      -0.358
      -0.278
      -0.160
      -0.005
       0.180
       0.383
       0.587
       0.779
       0.950
       1.093
       1.198
       1.251
       1.248
       1.193
       1.102
       0.992
       0.868
       0.725
       0.555
       0.349
       0.109
      -0.155
      -0.427
      -0.685
      -0.903
      -1.061
      -1.147
      -1.162
      -1.112
      -1.004
      -0.849
      -0.658
      -0.443
      -0.223
      -0.012
       0.172
       0.318
       0.417
       0.471
       0.484
       0.462
       0.412
       0.343
       0.267
       0.196
       0.135
       0.081
       0.019
      -0.064
      -0.173
      -0.301
      -0.433
      -0.550
      -0.636
      -0.679
      -0.676
      -0.630
      -0.549
      -0.443
      -0.324
      -0.205
      -0.095
      -0.006
       0.058
       0.092
       0.099
       0.079
       0.033
      -0.034
      -0.112
      -0.182
      -0.223
      -0.218
      -0.161
      -0.058
       0.079
       0.239
       0.410
       0.580
       0.729
