Origin Time       26/02/2012 23:08:42 UTC
Lat.              29.6 N	
Long.             80.8 E	
Depth (Km)         10.0
Magnitude         4.3
 Region           Westren-nepal                                                    
 Above details taken from IMD 
    
Station Code      TAN
Station Lat.       29.074  N
Station Long.      80.112  E
Station Height(m)  265.0
Site Class        C   Vs30 between 200 m/sec to 375 m/sec *  
Record Time       26.02.2012 23:09:07.759 UTC
Sampling Rate     200. Hz
 Record Duration   65.005 Sec.
 Direction         N-S (N positive)
Max. Acceleration      3.185 cm/sec**2
     
  * For reference see Site Classification link of website 
     
 Base Line Corrected and Low Pass Filtered (Cut Off at 35 Hz) Time History
 Acceleration data in cm/sec**2
    
[...]
      -0.061
      -0.052
      -0.035
      -0.007
       0.026
       0.056
       0.074
       0.081
       0.081
       0.081
       0.081
       0.078
       0.067
       0.049
       0.031
       0.018
       0.015
       0.016
       0.016
       0.008
      -0.006
      -0.023
      -0.036
      -0.040
      -0.036
      -0.025
      -0.011
       0.002
       0.013
       0.021
       0.025
       0.025
       0.024
       0.025
       0.027
       0.021
      -0.001
      -0.042
      -0.092
      -0.130
      -0.137
      -0.105
      -0.040
       0.037
       0.102
       0.142
       0.158
       0.159
       0.155
       0.147
       0.135
       0.115
       0.089
       0.063
       0.044
       0.036
       0.036
       0.039
       0.037
       0.024
       0.001
      -0.033
      -0.071
      -0.106
      -0.131
      -0.141
      -0.129
      -0.096
      -0.048
      -0.001
       0.030
       0.037
       0.029
       0.022
       0.028
       0.042
       0.055
       0.054
       0.041
       0.028
       0.024
       0.034
       0.056
       0.083
       0.106
       0.117
       0.112
       0.092
       0.062
       0.026
      -0.013
      -0.052
      -0.082
      -0.093
      -0.083
      -0.060
      -0.040
      -0.038
      -0.056
      -0.085
      -0.112
      -0.131
      -0.143
      -0.152
      -0.156
      -0.145
      -0.109
      -0.048
       0.023
       0.086
       0.125
       0.135
       0.120
       0.092
       0.059
       0.034
       0.027
       0.043
       0.078
       0.117
       0.141
       0.138
       0.106
       0.053
      -0.008
      -0.062
      -0.100
      -0.116
      -0.106
      -0.069
      -0.012
       0.050
       0.097
       0.114
       0.096
       0.054
       0.008
      -0.026
      -0.045
      -0.057
      -0.072
      -0.092
      -0.107
      -0.104
      -0.081
      -0.052
      -0.039
      -0.057
      -0.103
      -0.161
      -0.206
      -0.219
      -0.196
      -0.144
      -0.075
       0.002
       0.078
       0.145
       0.194
       0.219
       0.222
       0.213
       0.200
       0.187
       0.173
       0.156
       0.135
       0.113
       0.089
       0.059
       0.020
      -0.032
      -0.092
      -0.152
      -0.206
      -0.249
      -0.280
      -0.298
      -0.299
      -0.280
      -0.238
      -0.174
      -0.094
      -0.004
       0.086
       0.167
       0.232
       0.273
       0.289
       0.285
       0.273
       0.267
       0.274
       0.294
       0.315
       0.325
       0.318
       0.289
       0.240
       0.174
       0.097
       0.015
      -0.057
      -0.106
      -0.128
      -0.129
      -0.124
      -0.133
      -0.165
      -0.216
      -0.270
      -0.306
      -0.308
      -0.275
      -0.215
      -0.140
      -0.061
       0.018
       0.090
       0.147
       0.184
       0.202
       0.211
       0.215
       0.216
       0.214
       0.211
       0.210
       0.213
       0.211
       0.195
       0.165
       0.128
       0.091
       0.053
       0.009
      -0.042
      -0.094
      -0.131
      -0.148
      -0.150
      -0.152
      -0.162
      -0.183
      -0.207
      -0.226
      -0.239
      -0.244
      -0.243
      -0.233
      -0.215
      -0.193
      -0.173
      -0.158
      -0.146
      -0.132
      -0.114
      -0.094
      -0.071
      -0.045
      -0.008
       0.044
       0.114
       0.194
       0.268
       0.316
       0.328
       0.307
       0.264
       0.213
       0.161
       0.110
       0.066
       0.031
       0.004
      -0.023
      -0.064
      -0.125
      -0.204
      -0.289
      -0.366
      -0.420
      -0.443
      -0.435
      -0.403
      -0.360
      -0.317
      -0.277
      -0.236
      -0.186
      -0.125
      -0.056
       0.012
       0.075
       0.128
       0.172
       0.207
       0.233
       0.249
       0.251
       0.238
       0.208
       0.163
       0.103
       0.035
      -0.033
      -0.090
      -0.130
      -0.152
      -0.159
      -0.160
      -0.160
      -0.161
      -0.159
      -0.148
      -0.122
      -0.081
      -0.030
       0.018
       0.049
       0.058
       0.051
       0.041
       0.045
       0.071
       0.122
       0.189
       0.255
       0.300
       0.309
       0.279
       0.219
       0.144
       0.070
       0.010
      -0.028
      -0.039
      -0.027
       0.001
       0.035
       0.065
       0.080
       0.079
       0.062
       0.031
      -0.008
      -0.048
      -0.085
      -0.115
      -0.136
      -0.148
      -0.152
      -0.146
      -0.132
      -0.113
      -0.099
      -0.097
      -0.110
      -0.133
      -0.157
      -0.173
      -0.175
      -0.160
      -0.126
      -0.076
      -0.011
       0.064
       0.142
       0.218
       0.286
       0.339
       0.376
       0.394
       0.396
       0.384
       0.359
       0.316
       0.252
       0.167
       0.069
      -0.028
      -0.111
      -0.179
      -0.238
      -0.292
      -0.342
      -0.384
      -0.412
      -0.422
      -0.412
      -0.382
      -0.334
      -0.269
      -0.187
      -0.089
       0.019
       0.130
       0.233
       0.318
       0.382
       0.424
       0.442
       0.435
       0.401
       0.345
       0.272
       0.184
       0.078
      -0.050
      -0.195
      -0.338
      -0.456
      -0.531
      -0.559
      -0.547
      -0.509
      -0.452
      -0.381
      -0.302
      -0.221
      -0.141
      -0.060
       0.021
       0.102
       0.181
       0.256
       0.333
       0.416
       0.502
       0.584
       0.645
       0.671
       0.649
       0.578
       0.463
       0.319
       0.163
       0.011
      -0.127
      -0.243
      -0.333
      -0.391
      -0.417
      -0.416
      -0.394
      -0.362
      -0.324
      -0.286
      -0.250
      -0.216
      -0.175
      -0.115
      -0.022
       0.102
       0.241
       0.372
       0.473
       0.529
       0.535
       0.493
       0.416
       0.316
       0.206
       0.088
      -0.038
      -0.169
      -0.300
      -0.422
      -0.529
      -0.617
      -0.677
      -0.699
      -0.679
      -0.620
      -0.532
      -0.429
      -0.323
      -0.220
      -0.122
      -0.026
       0.069
       0.160
       0.233
       0.277
       0.289
       0.281
       0.273
       0.277
       0.292
       0.312
       0.332
       0.346
       0.344
       0.310
       0.228
       0.097
      -0.066
      -0.233
      -0.376
      -0.476
      -0.520
      -0.505
      -0.435
      -0.322
      -0.182
      -0.033
       0.111
       0.240
       0.341
       0.403
       0.423
       0.409
       0.383
       0.366
       0.372
       0.401
       0.443
       0.486
       0.518
       0.523
       0.478
       0.362
       0.169
      -0.083
      -0.353
      -0.591
      -0.758
      -0.837
      -0.833
      -0.770
      -0.681
      -0.603
      -0.558
      -0.549
      -0.555
      -0.548
      -0.503
      -0.410
      -0.275
      -0.111
       0.065
       0.238
       0.394
       0.517
       0.599
       0.638
       0.639
       0.616
       0.583
       0.554
       0.539
       0.540
       0.549
       0.542
       0.491
       0.375
       0.191
      -0.043
      -0.289
      -0.503
      -0.643
      -0.683
      -0.620
      -0.471
      -0.270
      -0.055
       0.138
       0.279
       0.347
       0.339
       0.265
       0.154
       0.043
      -0.030
      -0.039
       0.026
       0.153
       0.313
       0.469
       0.585
       0.628
       0.580
       0.436
       0.218
      -0.032
      -0.256
      -0.404
      -0.451
      -0.404
      -0.300
      -0.187
      -0.109
      -0.091
      -0.139
      -0.241
      -0.370
      -0.500
      -0.602
      -0.657
      -0.651
      -0.579
      -0.452
      -0.294
      -0.136
      -0.008
       0.070
       0.093
       0.069
       0.022
      -0.017
      -0.022
       0.023
       0.115
       0.236
       0.357
       0.446
       0.484
       0.459
       0.372
       0.234
       0.067
      -0.098
      -0.227
      -0.291
      -0.281
      -0.207
      -0.099
       0.007
       0.077
       0.093
       0.053
      -0.027
      -0.120
      -0.196
      -0.228
      -0.201
      -0.118
       0.003
       0.133
       0.247
       0.323
       0.349
       0.321
       0.246
       0.138
       0.019
      -0.085
      -0.154
      -0.176
      -0.151
      -0.091
      -0.014
       0.059
       0.111
       0.128
       0.110
       0.071
       0.037
       0.032
       0.066
       0.126
       0.188
       0.235
       0.263
       0.278
       0.284
       0.271
       0.222
       0.125
      -0.021
      -0.205
      -0.406
      -0.594
      -0.737
      -0.811
      -0.802
      -0.721
      -0.592
      -0.450
      -0.324
      -0.232
      -0.175
      -0.148
      -0.130
      -0.096
      -0.021
       0.109
       0.294
       0.513
       0.735
       0.923
       1.046
       1.079
       1.015
       0.864
       0.653
       0.417
       0.190
      -0.005
      -0.157
      -0.272
      -0.368
      -0.465
      -0.574
      -0.691
      -0.798
      -0.872
      -0.897
      -0.863
      -0.773
      -0.638
      -0.477
      -0.306
      -0.141
       0.012
       0.150
       0.266
       0.356
       0.423
       0.476
       0.530
       0.594
       0.664
       0.720
       0.740
       0.710
       0.627
       0.493
       0.318
       0.118
      -0.085
      -0.265
      -0.396
      -0.457
      -0.444
      -0.366
      -0.245
      -0.102
       0.039
       0.152
       0.215
       0.216
       0.158
       0.063
      -0.040
      -0.123
      -0.161
      -0.143
      -0.069
       0.038
       0.148
       0.226
       0.251
       0.220
       0.151
       0.073
       0.014
      -0.008
       0.009
       0.048
       0.083
       0.088
       0.049
      -0.029
      -0.126
      -0.211
      -0.254
      -0.241
      -0.177
      -0.083
       0.012
       0.085
       0.125
       0.131
       0.109
       0.063
      -0.002
      -0.080
      -0.157
      -0.218
      -0.247
      -0.232
      -0.174
      -0.084
       0.020
       0.116
       0.182
       0.202
       0.172
       0.102
       0.012
      -0.076
      -0.140
      -0.168
      -0.150
      -0.086
       0.011
       0.118
       0.212
       0.278
       0.312
       0.323
       0.325
       0.332
       0.356
       0.398
       0.446
       0.478
       0.467
       0.395
       0.257
       0.066
      -0.149
      -0.353
      -0.516
      -0.626
      -0.686
      -0.717
      -0.740
      -0.767
      -0.798
      -0.822
      -0.828
      -0.811
      -0.771
      -0.710
      -0.628
      -0.525
      -0.403
      -0.257
      -0.085
       0.113
       0.328
       0.539
       0.725
       0.870
       0.973
       1.040
       1.078
       1.081
       1.042
       0.949
       0.799
       0.593
       0.344
       0.065
      -0.227
      -0.510
      -0.756
      -0.945
      -1.066
      -1.129
      -1.148
      -1.139
      -1.106
      -1.039
      -0.923
      -0.746
      -0.500
      -0.194
       0.153
       0.511
       0.848
       1.135
       1.354
       1.497
       1.562
       1.549
       1.464
       1.322
       1.145
       0.951
       0.739
       0.495
       0.201
      -0.153
      -0.558
      -0.989
      -1.402
      -1.751
      -1.999
      -2.126
      -2.135
      -2.042
      -1.864
      -1.617
      -1.321
      -0.997
      -0.664
      -0.337
      -0.022
       0.283
       0.584
       0.886
       1.190
       1.484
       1.741
       1.926
       2.009
       1.976
       1.830
       1.588
       1.275
       0.928
       0.585
       0.283
       0.042
      -0.137
      -0.271
      -0.380
      -0.489
      -0.613
      -0.759
      -0.920
      -1.065
      -1.159
      -1.168
      -1.080
      -0.904
      -0.670
      -0.420
      -0.197
      -0.038
       0.034
       0.018
      -0.066
      -0.179
      -0.278
      -0.333
      -0.337
      -0.305
      -0.258
      -0.215
      -0.178
      -0.141
      -0.100
      -0.051
       0.004
       0.064
       0.131
       0.209
       0.302
       0.412
       0.540
       0.685
       0.834
       0.963
       1.035
       1.012
       0.881
       0.658
       0.385
       0.111
      -0.124
      -0.302
      -0.429
      -0.530
      -0.637
      -0.765
      -0.905
      -1.024
      -1.087
      -1.074
      -0.983
      -0.823
      -0.605
      -0.343
      -0.060
       0.215
       0.459
       0.660
       0.813
       0.911
       0.944
       0.912
       0.826
       0.710
       0.591
       0.479
       0.373
       0.259
       0.121
      -0.050
      -0.254
      -0.483
      -0.716
      -0.925
      -1.083
      -1.172
      -1.189
      -1.143
      -1.043
      -0.893
      -0.688
      -0.426
      -0.114
       0.228
       0.577
       0.912
       1.219
       1.485
       1.699
       1.851
       1.937
       1.954
       1.905
       1.784
       1.586
       1.303
       0.935
       0.492
      -0.006
      -0.533
      -1.062
      -1.560
      -1.996
      -2.341
      -2.573
      -2.684
      -2.673
      -2.544
      -2.306
      -1.966
      -1.535
      -1.021
      -0.438
       0.196
       0.848
       1.478
       2.047
       2.524
       2.886
       3.113
       3.185
       3.091
       2.828
       2.409
       1.853
       1.192
       0.464
      -0.284
      -0.997
      -1.627
      -2.137
      -2.505
      -2.723
      -2.796
      -2.733
      -2.545
      -2.245
      -1.846
      -1.367
      -0.843
      -0.315
       0.176
       0.599
       0.941
       1.201
       1.392
       1.528
       1.616
       1.656
       1.636
       1.548
       1.395
       1.192
       0.965
       0.738
       0.525
       0.333
       0.160
      -0.002
      -0.162
      -0.327
      -0.491
      -0.637
      -0.740
      -0.781
      -0.752
      -0.662
      -0.528
      -0.371
      -0.213
      -0.073
       0.038
       0.116
       0.164
       0.187
       0.194
       0.195
       0.202
       0.223
       0.263
       0.318
       0.378
       0.427
       0.450
       0.436
       0.381
       0.287
       0.160
       0.015
      -0.126
      -0.245
      -0.329
      -0.385
      -0.429
      -0.478
      -0.536
      -0.594
      -0.631
      -0.634
      -0.596
      -0.519
      -0.409
      -0.277
      -0.132
       0.017
       0.161
       0.301
       0.437
       0.566
       0.675
       0.747
       0.769
       0.746
       0.689
       0.614
       0.530
       0.437
       0.332
       0.213
       0.080
      -0.068
      -0.229
      -0.397
      -0.561
      -0.707
      -0.825
      -0.906
      -0.949
      -0.956
      -0.925
      -0.855
      -0.745
      -0.598
      -0.426
      -0.240
      -0.049
       0.139
       0.311
       0.452
       0.546
       0.590
       0.595
       0.583
       0.575
       0.579
       0.589
       0.583
       0.542
       0.454
       0.319
       0.149
      -0.038
      -0.224
      -0.398
      -0.554
      -0.685
      -0.786
      -0.851
      -0.874
      -0.851
      -0.778
      -0.658
      -0.501
      -0.322
      -0.136
       0.047
       0.216
       0.369
       0.502
       0.613
       0.703
       0.767
       0.802
       0.803
       0.770
       0.707
       0.620
       0.518
       0.402
       0.273
       0.130
      -0.027
      -0.196
      -0.368
      -0.534
      -0.682
      -0.802
      -0.890
      -0.940
      -0.947
      -0.908
      -0.820
      -0.683
      -0.504
      -0.299
      -0.090
       0.093
       0.229
       0.314
       0.363
       0.404
       0.466
       0.559
       0.669
       0.770
       0.838
       0.860
       0.827
       0.732
       0.574
       0.365
       0.136
      -0.076
      -0.239
      -0.347
      -0.407
      -0.436
      -0.448
      -0.453
      -0.451
      -0.437
      -0.396
      -0.314
      -0.185
      -0.015
       0.175
       0.352
       0.486
       0.550
       0.534
       0.441
       0.290
       0.110
      -0.066
      -0.212
      -0.318
      -0.388
      -0.429
      -0.448
      -0.452
      -0.446
      -0.432
      -0.410
      -0.374
      -0.315
      -0.221
      -0.089
       0.078
       0.268
       0.464
       0.642
       0.773
       0.828
       0.787
       0.647
       0.428
       0.168
      -0.084
      -0.286
      -0.407
      -0.443
      -0.414
      -0.352
      -0.289
      -0.241
      -0.213
      -0.202
      -0.203
      -0.207
      -0.201
      -0.171
      -0.108
      -0.016
       0.097
       0.216
       0.333
       0.438
       0.520
       0.566
       0.561
       0.499
       0.382
       0.228
       0.062
      -0.091
      -0.218
      -0.316
      -0.391
      -0.448
      -0.489
      -0.513
      -0.518
      -0.500
      -0.454
      -0.377
      -0.271
      -0.147
      -0.025
       0.069
       0.118
       0.123
       0.100
       0.071
       0.058
       0.070
       0.109
       0.167
       0.230
       0.280
       0.304
       0.296
       0.263
       0.213
       0.151
       0.076
      -0.012
      -0.106
      -0.195
      -0.266
      -0.308
      -0.317
      -0.296
      -0.250
      -0.183
      -0.098
       0.003
       0.115
       0.231
       0.339
       0.429
       0.492
       0.526
       0.532
       0.510
       0.457
       0.371
       0.257
       0.128
      -0.004
      -0.129
      -0.242
      -0.340
      -0.417
      -0.467
      -0.489
      -0.486
      -0.462
      -0.417
      -0.350
      -0.255
      -0.130
       0.020
       0.183
       0.336
       0.455
       0.524
       0.539
       0.509
       0.450
       0.377
       0.305
       0.244
       0.196
       0.155
       0.116
       0.074
       0.033
      -0.005
      -0.041
      -0.080
      -0.125
      -0.172
      -0.220
      -0.267
      -0.315
      -0.365
      -0.414
      -0.448
      -0.452
      -0.418
      -0.350
      -0.263
      -0.179
      -0.108
      -0.055
      -0.011
       0.030
       0.071
       0.108
       0.136
       0.153
       0.156
       0.144
       0.120
       0.095
       0.083
       0.093
       0.121
       0.149
       0.156
       0.135
       0.092
       0.042
       0.001
      -0.022
      -0.028
      -0.020
      -0.004
       0.012
       0.023
       0.030
       0.039
       0.062
       0.104
       0.159
       0.209
       0.234
       0.224
       0.183
       0.128
       0.076
       0.041
       0.021
       0.008
      -0.006
      -0.026
      -0.051
      -0.077
      -0.106
      -0.139
      -0.175
      -0.208
      -0.228
      -0.224
      -0.188
      -0.119
      -0.022
       0.090
       0.203
       0.301
       0.369
       0.397
       0.384
       0.333
       0.253
       0.157
       0.054
      -0.050
      -0.154
      -0.259
      -0.362
      -0.456
      -0.530
      -0.572
      -0.571
      -0.522
      -0.430
      -0.306
      -0.164
      -0.017
       0.121
       0.240
       0.332
       0.392
