Origin Time       04/04/2011 11:31:40
Lat.              29.6 N	
Long.             80.8 E	
Depth (Km)         10.0
Magnitude         5.7
 Region           NEPAL-INDIA-BORDER-REGION                                        
 Above details taken from IMD 
     
Station Code      TAN
Station Lat.       29.074  N
Station Long.      80.112  E
Station Height(m)  265.0
Site Class        C   Vs30 between 200 m/sec to 375 m/sec *  
Record Time       04.04.2011 11:31:48.584
Sampling Rate     200. Hz
 Record Duration   86.670 Sec.
 Direction         E-W (E positive)
Max. Acceleration    -12.412 cm/sec**2
     
  * For reference see Site Classification link of website 
     
 Base Line Corrected and Low Pass Filtered (Cut Off at 35 Hz) Time History
 Acceleration data in cm/sec**2
    
[...]
       0.293
      -0.328
      -1.037
      -1.782
      -2.515
      -3.198
      -3.774
      -4.156
      -4.241
      -3.963
      -3.349
      -2.524
      -1.666
      -0.933
      -0.395
      -0.021
       0.294
       0.668
       1.177
       1.826
       2.566
       3.315
       3.988
       4.516
       4.861
       5.024
       5.050
       5.007
       4.939
       4.841
       4.654
       4.305
       3.749
       3.001
       2.136
       1.253
       0.442
      -0.252
      -0.842
      -1.380
      -1.914
      -2.460
      -2.984
      -3.422
      -3.714
      -3.829
      -3.772
      -3.571
      -3.253
      -2.839
      -2.329
      -1.711
      -0.971
      -0.120
       0.789
       1.654
       2.350
       2.768
       2.850
       2.620
       2.191
       1.730
       1.396
       1.262
       1.282
       1.318
       1.211
       0.858
       0.248
      -0.549
      -1.426
      -2.277
      -3.034
      -3.672
      -4.187
      -4.574
      -4.811
      -4.872
      -4.751
      -4.471
      -4.063
      -3.546
      -2.928
      -2.231
      -1.519
      -0.889
      -0.431
      -0.188
      -0.145
      -0.243
      -0.420
      -0.625
      -0.830
      -1.024
      -1.211
      -1.400
      -1.590
      -1.765
      -1.896
      -1.966
      -1.984
      -1.967
      -1.921
      -1.823
      -1.646
      -1.392
      -1.100
      -0.821
      -0.572
      -0.315
       0.011
       0.443
       0.948
       1.432
       1.782
       1.918
       1.827
       1.561
       1.193
       0.775
       0.320
      -0.179
      -0.719
      -1.277
      -1.823
      -2.346
      -2.854
      -3.343
      -3.779
      -4.104
      -4.265
      -4.246
      -4.063
      -3.737
      -3.281
      -2.688
      -1.943
      -1.041
      -0.010
       1.065
       2.048
       2.794
       3.208
       3.299
       3.169
       2.965
       2.814
       2.786
       2.871
       2.987
       2.998
       2.767
       2.228
       1.424
       0.503
      -0.355
      -1.021
      -1.461
      -1.723
      -1.883
      -2.000
      -2.086
      -2.117
      -2.051
      -1.858
      -1.529
      -1.086
      -0.582
      -0.094
       0.305
       0.570
       0.699
       0.729
       0.697
       0.623
       0.498
       0.292
      -0.021
      -0.443
      -0.943
      -1.454
      -1.885
      -2.152
      -2.206
      -2.064
      -1.801
      -1.518
      -1.298
      -1.179
      -1.147
      -1.147
      -1.103
      -0.953
      -0.696
      -0.409
      -0.218
      -0.228
      -0.449
      -0.779
      -1.064
      -1.182
      -1.100
      -0.874
      -0.608
      -0.413
      -0.382
      -0.568
      -0.974
      -1.547
      -2.191
      -2.806
      -3.313
      -3.678
      -3.899
      -3.992
      -3.972
      -3.830
      -3.521
      -2.972
      -2.126
      -0.994
       0.326
       1.684
       2.946
       4.047
       5.002
       5.867
       6.692
       7.488
       8.215
       8.796
       9.134
       9.145
       8.784
       8.061
       7.033
       5.790
       4.422
       3.009
       1.610
       0.263
      -0.995
      -2.124
      -3.075
      -3.796
      -4.249
      -4.417
      -4.309
      -3.948
      -3.364
      -2.603
      -1.717
      -0.758
       0.241
       1.262
       2.299
       3.329
       4.301
       5.136
       5.753
       6.092
       6.132
       5.884
       5.381
       4.650
       3.698
       2.513
       1.094
      -0.507
      -2.164
      -3.708
      -4.981
      -5.888
      -6.392
      -6.495
      -6.216
      -5.608
      -4.768
      -3.824
      -2.889
      -2.024
      -1.229
      -0.463
       0.316
       1.129
       1.956
       2.738
       3.402
       3.895
       4.216
       4.412
       4.550
       4.679
       4.811
       4.920
       4.953
       4.832
       4.483
       3.870
       3.021
       2.025
       0.992
       0.017
      -0.838
      -1.528
      -2.018
      -2.281
      -2.310
      -2.129
      -1.800
      -1.409
      -1.041
      -0.747
      -0.520
      -0.305
      -0.032
       0.340
       0.795
       1.261
       1.637
       1.839
       1.841
       1.686
       1.458
       1.231
       1.035
       0.848
       0.627
       0.334
      -0.041
      -0.474
      -0.905
      -1.252
      -1.444
      -1.451
      -1.300
      -1.071
      -0.859
      -0.735
      -0.699
      -0.695
      -0.642
      -0.503
      -0.311
      -0.166
      -0.177
      -0.404
      -0.824
      -1.340
      -1.833
      -2.218
      -2.483
      -2.676
      -2.865
      -3.081
      -3.290
      -3.399
      -3.303
      -2.926
      -2.263
      -1.389
      -0.447
       0.383
       0.942
       1.146
       1.025
       0.720
       0.423
       0.298
       0.419
       0.764
       1.247
       1.773
       2.260
       2.649
       2.892
       2.958
       2.833
       2.524
       2.060
       1.482
       0.842
       0.196
      -0.397
      -0.884
      -1.212
      -1.345
      -1.275
      -1.020
      -0.600
      -0.016
       0.749
       1.702
       2.798
       3.923
       4.921
       5.642
       5.975
       5.859
       5.283
       4.305
       3.051
       1.694
       0.390
      -0.766
      -1.755
      -2.594
      -3.283
      -3.788
      -4.060
      -4.074
      -3.851
      -3.461
      -3.003
      -2.567
      -2.207
      -1.921
      -1.665
      -1.370
      -0.966
      -0.402
       0.349
       1.270
       2.284
       3.261
       4.048
       4.523
       4.639
       4.437
       4.028
       3.544
       3.088
       2.694
       2.332
       1.939
       1.465
       0.890
       0.208
      -0.583
      -1.477
      -2.443
      -3.407
      -4.268
      -4.925
      -5.309
      -5.392
      -5.200
      -4.803
      -4.288
      -3.738
      -3.214
      -2.757
      -2.385
      -2.088
      -1.816
      -1.477
      -0.966
      -0.210
       0.792
       1.955
       3.128
       4.158
       4.939
       5.440
       5.683
       5.699
       5.486
       5.009
       4.236
       3.176
       1.892
       0.481
      -0.964
      -2.361
      -3.634
      -4.704
      -5.500
      -5.986
      -6.162
      -6.045
      -5.637
      -4.928
      -3.924
      -2.681
      -1.301
       0.082
       1.338
       2.368
       3.130
       3.659
       4.056
       4.437
       4.854
       5.248
       5.466
       5.345
       4.788
       3.809
       2.503
       0.999
      -0.593
      -2.201
      -3.786
      -5.316
      -6.756
      -8.051
      -9.123
      -9.878
     -10.230
     -10.132
      -9.604
      -8.719
      -7.561
      -6.186
      -4.607
      -2.818
      -0.831
       1.287
       3.417
       5.413
       7.134
       8.468
       9.339
       9.716
       9.624
       9.154
       8.444
       7.623
       6.744
       5.755
       4.532
       2.972
       1.072
      -1.045
      -3.184
      -5.158
      -6.840
      -8.162
      -9.068
      -9.484
      -9.336
      -8.610
      -7.393
      -5.858
      -4.196
      -2.551
      -0.992
       0.467
       1.841
       3.146
       4.375
       5.499
       6.479
       7.282
       7.876
       8.211
       8.214
       7.805
       6.939
       5.629
       3.940
       1.968
      -0.178
      -2.359
      -4.407
      -6.138
      -7.408
      -8.164
      -8.451
      -8.394
      -8.131
      -7.762
      -7.301
      -6.682
      -5.800
      -4.586
      -3.072
      -1.399
       0.246
       1.732
       3.041
       4.253
       5.451
       6.629
       7.660
       8.351
       8.526
       8.098
       7.088
       5.596
       3.767
       1.770
      -0.225
      -2.060
      -3.618
      -4.827
      -5.660
      -6.114
      -6.203
      -5.974
      -5.504
      -4.905
      -4.296
      -3.773
      -3.356
      -2.976
      -2.496
      -1.789
      -0.805
       0.390
       1.639
       2.751
       3.560
       3.972
       3.995
       3.735
       3.350
       2.977
       2.667
       2.379
       2.036
       1.587
       1.030
       0.386
      -0.328
      -1.103
      -1.914
      -2.716
      -3.448
      -4.048
      -4.461
      -4.648
      -4.597
      -4.329
      -3.889
      -3.331
      -2.719
      -2.131
      -1.655
      -1.356
      -1.243
      -1.235
      -1.196
      -0.998
      -0.598
      -0.065
       0.448
       0.784
       0.847
       0.631
       0.203
      -0.331
      -0.857
      -1.273
      -1.500
      -1.494
      -1.255
      -0.823
      -0.260
       0.360
       0.952
       1.435
       1.756
       1.932
       2.057
       2.252
       2.581
       3.002
       3.386
       3.587
       3.520
       3.190
       2.678
       2.096
       1.545
       1.098
       0.794
       0.640
       0.616
       0.681
       0.788
       0.904
       1.032
       1.206
       1.465
       1.804
       2.159
       2.427
       2.509
       2.355
       1.979
       1.441
       0.822
       0.184
      -0.440
      -1.029
      -1.555
      -1.957
      -2.154
      -2.083
      -1.723
      -1.116
      -0.348
       0.462
       1.195
       1.760
       2.128
       2.335
       2.462
       2.581
       2.711
       2.795
       2.714
       2.345
       1.640
       0.679
      -0.338
      -1.164
      -1.596
      -1.547
      -1.060
      -0.298
       0.514
       1.160
       1.503
       1.527
       1.320
       1.000
       0.633
       0.198
      -0.376
      -1.121
      -1.974
      -2.768
      -3.297
      -3.397
      -3.002
      -2.166
      -1.041
       0.170
       1.273
       2.134
       2.703
       3.005
       3.090
       2.994
       2.723
       2.274
       1.653
       0.889
       0.039
      -0.817
      -1.589
      -2.195
      -2.584
      -2.724
      -2.590
      -2.166
      -1.474
      -0.585
       0.390
       1.352
       2.243
       3.038
       3.735
       4.345
       4.893
       5.422
       5.950
       6.439
       6.785
       6.855
       6.555
       5.875
       4.904
       3.791
       2.688
       1.695
       0.827
       0.031
      -0.766
      -1.617
      -2.534
      -3.510
      -4.527
      -5.558
      -6.539
      -7.352
      -7.853
      -7.915
      -7.473
      -6.542
      -5.212
      -3.631
      -1.985
      -0.458
       0.809
       1.756
       2.406
       2.839
       3.164
       3.483
       3.866
       4.316
       4.747
       5.005
       4.923
       4.384
       3.367
       1.944
       0.258
      -1.510
      -3.167
      -4.533
      -5.476
      -5.943
      -5.961
      -5.611
      -4.984
      -4.157
      -3.203
      -2.215
      -1.315
      -0.621
      -0.187
       0.024
       0.119
       0.203
       0.322
       0.444
       0.504
       0.464
       0.355
       0.258
       0.256
       0.380
       0.589
       0.780
       0.827
       0.617
       0.091
      -0.728
      -1.727
      -2.730
      -3.550
      -4.056
      -4.220
      -4.131
      -3.956
      -3.861
      -3.916
      -4.043
      -4.041
      -3.687
      -2.853
      -1.582
      -0.070
       1.411
       2.623
       3.438
       3.858
       3.994
       4.011
       4.066
       4.259
       4.591
       4.973
       5.270
       5.363
       5.210
       4.846
       4.346
       3.772
       3.146
       2.457
       1.703
       0.916
       0.170
      -0.429
      -0.778
      -0.817
      -0.553
      -0.062
       0.556
       1.227
       1.920
       2.634
       3.359
       4.058
       4.666
       5.100
       5.283
       5.173
       4.788
       4.199
       3.502
       2.774
       2.045
       1.313
       0.582
      -0.113
      -0.694
      -1.076
      -1.210
      -1.120
      -0.912
      -0.748
      -0.798
      -1.179
      -1.912
      -2.904
      -3.983
      -4.967
      -5.728
      -6.223
      -6.480
      -6.558
      -6.526
      -6.457
      -6.417
      -6.453
      -6.564
      -6.696
      -6.752
      -6.611
      -6.165
      -5.346
      -4.170
      -2.743
      -1.262
       0.028
       0.897
       1.199
       0.928
       0.238
      -0.602
      -1.300
      -1.654
      -1.609
      -1.244
      -0.699
      -0.108
       0.428
       0.829
       1.018
       0.934
       0.558
      -0.050
      -0.743
      -1.320
      -1.590
      -1.439
      -0.853
       0.101
       1.303
       2.596
       3.796
       4.715
       5.219
       5.288
       5.030
       4.634
       4.276
       4.045
       3.910
       3.755
       3.440
       2.864
       1.994
       0.865
      -0.443
      -1.815
      -3.107
      -4.154
      -4.802
      -4.966
      -4.675
      -4.089
      -3.444
      -2.969
      -2.808
      -2.989
      -3.458
      -4.123
      -4.881
      -5.611
      -6.162
      -6.379
      -6.172
      -5.570
      -4.715
      -3.801
      -2.987
      -2.342
      -1.849
      -1.457
      -1.126
      -0.835
      -0.560
      -0.250
       0.156
       0.686
       1.303
       1.919
       2.455
       2.909
       3.375
       3.997
       4.880
       6.021
       7.289
       8.479
       9.381
       9.852
       9.838
       9.368
       8.525
       7.426
       6.188
       4.912
       3.652
       2.415
       1.170
      -0.130
      -1.532
      -3.059
      -4.686
      -6.336
      -7.900
      -9.286
     -10.444
     -11.366
     -12.039
     -12.412
     -12.396
     -11.895
     -10.859
      -9.308
      -7.338
      -5.106
      -2.810
      -0.649
       1.228
       2.770
       4.038
       5.150
       6.205
       7.220
       8.131
       8.825
       9.191
       9.152
       8.684
       7.813
       6.616
       5.199
       3.686
       2.182
       0.770
      -0.505
      -1.622
      -2.564
      -3.307
      -3.816
      -4.066
      -4.066
      -3.864
      -3.541
      -3.170
      -2.789
      -2.395
      -1.956
      -1.438
      -0.827
      -0.136
       0.603
       1.339
       2.009
       2.557
       2.959
       3.239
       3.447
       3.615
       3.706
       3.620
       3.221
       2.399
       1.126
      -0.519
      -2.330
      -4.018
      -5.270
      -5.846
      -5.637
      -4.683
      -3.144
      -1.242
       0.779
       2.689
       4.304
       5.522
       6.351
       6.900
       7.311
       7.683
       8.026
       8.267
       8.296
       8.028
       7.430
       6.532
       5.394
       4.065
       2.559
       0.872
      -0.975
      -2.899
      -4.775
      -6.476
      -7.924
      -9.092
      -9.980
     -10.598
     -10.951
     -11.034
     -10.818
     -10.248
      -9.267
      -7.872
      -6.155
      -4.299
      -2.521
      -0.991
       0.237
       1.242
       2.192
       3.260
       4.521
       5.893
       7.153
       8.029
       8.303
       7.880
       6.801
       5.223
       3.375
       1.501
      -0.208
      -1.659
      -2.864
      -3.887
      -4.780
      -5.546
      -6.152
      -6.565
      -6.776
      -6.799
      -6.646
      -6.295
      -5.681
      -4.715
      -3.323
      -1.499
       0.652
       2.920
       5.032
       6.745
       7.915
       8.551
       8.782
       8.787
       8.710
       8.602
       8.406
       7.994
       7.223
       5.999
       4.332
       2.355
       0.301
      -1.564
      -3.023
      -3.958
      -4.367
      -4.330
      -3.965
      -3.381
      -2.651
      -1.797
      -0.818
       0.275
       1.431
       2.552
       3.517
       4.227
       4.636
       4.771
       4.714
       4.574
       4.452
       4.398
       4.387
       4.324
       4.092
       3.606
       2.868
       1.975
       1.079
       0.321
      -0.228
      -0.577
      -0.799
      -0.997
      -1.260
      -1.637
      -2.116
      -2.633
      -3.091
      -3.395
      -3.465
      -3.238
      -2.674
      -1.771
      -0.573
       0.837
       2.345
       3.817
       5.103
       6.055
       6.564
       6.592
       6.207
       5.566
       4.855
       4.216
       3.687
       3.194
       2.604
       1.795
       0.727
      -0.538
      -1.847
      -3.007
      -3.842
      -4.243
      -4.194
      -3.774
      -3.107
      -2.313
      -1.472
      -0.631
       0.178
       0.910
       1.516
       1.947
       2.172
       2.187
       2.023
       1.747
       1.459
       1.257
       1.201
       1.279
       1.408
       1.479
       1.408
       1.160
       0.749
       0.211
      -0.412
      -1.083
      -1.767
      -2.427
      -3.034
      -3.560
      -3.981
      -4.272
      -4.400
      -4.333
      -4.048
      -3.545
      -2.869
      -2.116
      -1.417
      -0.897
      -0.629
      -0.613
      -0.783
      -1.037
      -1.279
      -1.450
      -1.549
      -1.626
      -1.749
      -1.956
      -2.225
      -2.477
      -2.614
      -2.560
      -2.300
      -1.874
      -1.369
      -0.879
      -0.487
      -0.243
      -0.163
      -0.234
      -0.421
      -0.689
      -0.998
      -1.311
      -1.593
      -1.809
      -1.933
      -1.945
      -1.837
      -1.631
      -1.388
      -1.183
      -1.058
      -0.989
      -0.896
      -0.693
      -0.348
       0.097
       0.539
       0.862
       0.970
       0.819
       0.421
      -0.161
      -0.825
      -1.455
      -1.951
      -2.260
      -2.387
      -2.388
      -2.342
      -2.315
      -2.328
      -2.354
      -2.348
      -2.285
      -2.187
      -2.114
      -2.106
      -2.143
      -2.140
      -1.990
      -1.622
      -1.037
      -0.315
       0.407
       0.965
       1.218
       1.105
       0.678
       0.102
      -0.407
      -0.657
      -0.548
      -0.114
       0.496
       1.075
       1.446
       1.535
       1.391
       1.134
       0.879
       0.680
       0.538
       0.448
       0.439
       0.556
       0.822
       1.207
       1.636
       2.029
       2.333
       2.522
       2.589
       2.541
       2.397
       2.199
       1.997
       1.833
       1.717
       1.616
       1.457
       1.155
       0.657
      -0.023
      -0.802
      -1.566
      -2.214
      -2.690
      -2.975
      -3.069
      -2.981
      -2.734
      -2.379
      -1.990
      -1.628
      -1.322
      -1.059
      -0.802
      -0.508
      -0.131
       0.368
       1.006
       1.752
       2.513
       3.146
       3.509
       3.516
       3.161
       2.517
       1.703
       0.860
       0.129
      -0.370
      -0.576
      -0.505
      -0.249
       0.057
       0.271
       0.292
       0.078
      -0.347
      -0.894
      -1.435
      -1.838
      -1.994
      -1.846
      -1.397
      -0.708
       0.105
       0.895
       1.519
       1.875
       1.943
       1.784
       1.516
       1.257
       1.078
       0.978
       0.897
       0.745
       0.448
      -0.023
      -0.643
      -1.354
      -2.079
      -2.736
      -3.248
      -3.562
      -3.667
      -3.601
      -3.432
      -3.213
      -2.965
      -2.670
      -2.304
      -1.871
      -1.409
      -0.983
      -0.649
      -0.428
      -0.302
      -0.215
      -0.094
       0.122
       0.461
       0.899
       1.378
       1.831
       2.205
