Origin Time       04/04/2011 11:31:40
Lat.              29.6 N	
Long.             80.8 E	
Depth (Km)         10.0
Magnitude         5.7
 Region           NEPAL-INDIA-BORDER-REGION                                        
 Above details taken from IMD 
   
Station Code      TAN
Station Lat.       29.074
Station Long.      80.112
Station Height(m)  265.0
Site Class        C   Vs30 between 200 m/sec to 375 m/sec *  
Record Time       04.04.2011 11:31:48.584
Sampling Rate     200. Hz
 Record Duration   86.670 Sec.
 Direction         Vert. (Up positive)
Max. Acceleration     -7.795 cm/sec**2
     
  * For reference see Site Classification link of website 
     
 Base Line Corrected and Low Pass Filtered (Cut Off at 35 Hz) Time History
 Acceleration data in cm/sec**2
    
[...]
       0.434
      -0.203
      -0.720
      -1.074
      -1.248
      -1.212
      -0.948
      -0.511
      -0.066
       0.173
       0.073
      -0.309
      -0.729
      -0.900
      -0.671
      -0.113
       0.543
       1.047
       1.245
       1.108
       0.696
       0.125
      -0.449
      -0.850
      -0.926
      -0.624
      -0.042
       0.591
       1.011
       1.052
       0.728
       0.231
      -0.167
      -0.262
      -0.038
       0.320
       0.534
       0.411
      -0.041
      -0.625
      -1.086
      -1.255
      -1.111
      -0.754
      -0.341
      -0.039
       0.006
      -0.281
      -0.832
      -1.408
      -1.686
      -1.426
      -0.627
       0.441
       1.374
       1.838
       1.719
       1.135
       0.321
      -0.501
      -1.192
      -1.678
      -1.900
      -1.797
      -1.345
      -0.612
       0.227
       0.931
       1.297
       1.243
       0.837
       0.239
      -0.382
      -0.906
      -1.254
      -1.358
      -1.147
      -0.599
       0.204
       1.054
       1.685
       1.882
       1.572
       0.854
      -0.035
      -0.804
      -1.198
      -1.089
      -0.544
       0.200
       0.835
       1.128
       1.025
       0.639
       0.143
      -0.320
      -0.675
      -0.881
      -0.902
      -0.741
      -0.479
      -0.264
      -0.214
      -0.304
      -0.337
      -0.050
       0.705
       1.843
       3.043
       3.877
       3.981
       3.195
       1.626
      -0.363
      -2.251
      -3.506
      -3.765
      -2.976
      -1.446
       0.246
       1.450
       1.691
       0.860
      -0.719
      -2.411
      -3.527
      -3.607
      -2.598
      -0.851
       1.058
       2.552
       3.250
       3.043
       2.087
       0.725
      -0.611
      -1.531
      -1.807
      -1.448
      -0.685
       0.138
       0.716
       0.892
       0.689
       0.266
      -0.172
      -0.451
      -0.480
      -0.263
       0.113
       0.503
       0.747
       0.732
       0.448
       0.005
      -0.411
      -0.644
      -0.646
      -0.496
      -0.328
      -0.233
      -0.211
      -0.209
      -0.193
      -0.174
      -0.154
      -0.062
       0.229
       0.779
       1.450
       1.925
       1.879
       1.203
       0.094
      -1.041
      -1.820
      -2.056
      -1.778
      -1.141
      -0.316
       0.524
       1.195
       1.513
       1.383
       0.878
       0.244
      -0.225
      -0.343
      -0.133
       0.208
       0.435
       0.398
       0.106
      -0.301
      -0.639
      -0.762
      -0.625
      -0.297
       0.070
       0.313
       0.333
       0.142
      -0.157
      -0.427
      -0.560
      -0.497
      -0.225
       0.229
       0.780
       1.282
       1.555
       1.458
       0.968
       0.198
      -0.665
      -1.449
      -2.057
      -2.452
      -2.604
      -2.474
      -2.049
      -1.387
      -0.615
       0.129
       0.775
       1.333
       1.829
       2.218
       2.364
       2.126
       1.492
       0.627
      -0.195
      -0.731
      -0.873
      -0.659
      -0.217
       0.288
       0.669
       0.737
       0.361
      -0.437
      -1.431
      -2.237
      -2.470
      -1.932
      -0.717
       0.814
       2.171
       2.924
       2.859
       2.051
       0.825
      -0.391
      -1.248
      -1.606
      -1.536
      -1.221
      -0.832
      -0.470
      -0.179
       0.005
       0.056
       0.013
       0.001
       0.171
       0.570
       1.058
       1.383
       1.355
       0.992
       0.504
       0.129
      -0.045
      -0.116
      -0.251
      -0.515
      -0.822
      -1.006
      -0.969
      -0.741
      -0.442
      -0.198
      -0.069
      -0.053
      -0.112
      -0.203
      -0.284
      -0.317
      -0.293
      -0.258
      -0.300
      -0.488
      -0.803
      -1.128
      -1.298
      -1.194
      -0.805
      -0.231
       0.372
       0.847
       1.061
       0.926
       0.435
      -0.288
      -0.994
      -1.385
      -1.258
      -0.633
       0.238
       0.992
       1.332
       1.154
       0.543
      -0.312
      -1.197
      -1.905
      -2.237
      -2.052
      -1.350
      -0.336
       0.639
       1.232
       1.283
       0.875
       0.270
      -0.234
      -0.419
      -0.207
       0.343
       1.059
       1.699
       2.014
       1.840
       1.165
       0.160
      -0.872
      -1.604
      -1.805
      -1.430
      -0.655
       0.193
       0.769
       0.877
       0.557
       0.061
      -0.304
      -0.342
      -0.052
       0.418
       0.882
       1.200
       1.300
       1.165
       0.836
       0.419
       0.065
      -0.106
      -0.084
       0.026
       0.077
      -0.009
      -0.195
      -0.377
      -0.469
      -0.442
      -0.310
      -0.078
       0.258
       0.672
       1.061
       1.273
       1.201
       0.869
       0.428
       0.047
      -0.205
      -0.388
      -0.604
      -0.875
      -1.104
      -1.145
      -0.920
      -0.485
       0.007
       0.409
       0.656
       0.768
       0.792
       0.742
       0.590
       0.308
      -0.075
      -0.455
      -0.694
      -0.692
      -0.463
      -0.140
       0.085
       0.059
      -0.245
      -0.721
      -1.188
      -1.471
      -1.455
      -1.079
      -0.342
       0.674
       1.770
       2.643
       3.001
       2.721
       1.931
       0.954
       0.133
      -0.324
      -0.393
      -0.166
       0.236
       0.691
       1.050
       1.148
       0.868
       0.232
      -0.584
      -1.329
      -1.814
      -1.990
      -1.916
      -1.658
      -1.245
      -0.686
      -0.037
       0.580
       1.016
       1.159
       0.972
       0.482
      -0.223
      -1.001
      -1.648
      -1.939
      -1.705
      -0.938
       0.160
       1.223
       1.860
       1.817
       1.094
      -0.046
      -1.175
      -1.885
      -1.955
      -1.435
      -0.599
       0.190
       0.636
       0.597
       0.097
      -0.714
      -1.605
      -2.306
      -2.561
      -2.218
      -1.304
      -0.062
       1.122
       1.860
       1.921
       1.325
       0.326
      -0.707
      -1.442
      -1.704
      -1.514
      -1.028
      -0.430
       0.144
       0.628
       0.992
       1.202
       1.221
       1.044
       0.737
       0.433
       0.270
       0.317
       0.537
       0.817
       1.042
       1.145
       1.114
       0.960
       0.698
       0.355
      -0.004
      -0.273
      -0.336
      -0.133
       0.307
       0.869
       1.394
       1.723
       1.752
       1.461
       0.932
       0.340
      -0.098
      -0.215
       0.022
       0.469
       0.862
       0.947
       0.598
      -0.117
      -0.968
      -1.669
      -1.987
      -1.830
      -1.266
      -0.486
       0.263
       0.767
       0.913
       0.729
       0.359
      -0.012
      -0.231
      -0.228
      -0.021
       0.301
       0.595
       0.708
       0.517
       0.001
      -0.733
      -1.474
      -2.001
      -2.186
      -2.043
      -1.694
      -1.283
      -0.902
      -0.585
      -0.343
      -0.208
      -0.233
      -0.450
      -0.819
      -1.211
      -1.438
      -1.333
      -0.823
       0.019
       0.981
       1.784
       2.180
       2.048
       1.425
       0.490
      -0.505
      -1.321
      -1.791
      -1.850
      -1.545
      -1.012
      -0.445
      -0.041
       0.071
      -0.111
      -0.439
      -0.678
      -0.616
      -0.187
       0.480
       1.140
       1.565
       1.676
       1.570
       1.440
       1.464
       1.704
       2.090
       2.463
       2.655
       2.564
       2.197
       1.642
       1.025
       0.458
       0.029
      -0.177
      -0.089
       0.293
       0.827
       1.234
       1.228
       0.704
      -0.155
      -0.960
      -1.333
      -1.117
      -0.437
       0.414
       1.152
       1.613
       1.766
       1.660
       1.385
       1.056
       0.787
       0.644
       0.597
       0.525
       0.284
      -0.197
      -0.857
      -1.532
      -2.037
      -2.251
      -2.163
      -1.864
      -1.513
      -1.273
      -1.249
      -1.441
      -1.737
      -1.969
      -1.999
      -1.794
      -1.419
      -0.980
      -0.549
      -0.129
       0.337
       0.915
       1.622
       2.366
       2.941
       3.085
       2.596
       1.436
      -0.215
      -1.997
      -3.482
      -4.308
      -4.287
      -3.469
      -2.133
      -0.715
       0.333
       0.705
       0.374
      -0.403
      -1.212
      -1.672
      -1.591
      -1.001
      -0.093
       0.878
       1.673
       2.120
       2.141
       1.779
       1.195
       0.619
       0.249
       0.157
       0.265
       0.421
       0.501
       0.469
       0.368
       0.261
       0.185
       0.127
       0.030
      -0.169
      -0.486
      -0.851
      -1.107
      -1.078
      -0.669
       0.071
       0.982
       1.875
       2.616
       3.132
       3.369
       3.249
       2.715
       1.813
       0.749
      -0.180
      -0.738
      -0.891
      -0.812
      -0.758
      -0.901
      -1.240
      -1.638
      -1.926
      -1.997
      -1.823
      -1.444
      -0.952
      -0.466
      -0.089
       0.147
       0.291
       0.433
       0.624
       0.832
       0.974
       0.978
       0.825
       0.531
       0.113
      -0.426
      -1.047
      -1.640
      -2.019
      -1.995
      -1.468
      -0.488
       0.750
       1.974
       2.910
       3.364
       3.273
       2.738
       1.983
       1.263
       0.734
       0.372
       0.002
      -0.561
      -1.376
      -2.339
      -3.261
      -3.978
      -4.409
      -4.524
      -4.310
      -3.777
      -2.997
      -2.118
      -1.310
      -0.677
      -0.194
       0.272
       0.872
       1.672
       2.618
       3.565
       4.333
       4.743
       4.648
       3.991
       2.855
       1.467
       0.115
      -0.973
      -1.714
      -2.176
      -2.503
      -2.825
      -3.198
      -3.596
      -3.911
      -3.969
      -3.571
      -2.588
      -1.066
       0.725
       2.364
       3.453
       3.783
       3.419
       2.648
       1.831
       1.265
       1.095
       1.308
       1.759
       2.210
       2.398
       2.123
       1.321
       0.100
      -1.275
      -2.450
      -3.089
      -2.994
      -2.188
      -0.911
       0.452
       1.491
       1.906
       1.620
       0.825
      -0.072
      -0.608
      -0.479
       0.313
       1.464
       2.527
       3.104
       2.966
       2.083
       0.601
      -1.186
      -2.876
      -4.036
      -4.349
      -3.740
      -2.422
      -0.822
       0.566
       1.328
       1.256
       0.411
      -0.881
      -2.126
      -2.836
      -2.723
      -1.817
      -0.428
       1.007
       2.110
       2.669
       2.637
       2.072
       1.094
      -0.105
      -1.243
      -2.000
      -2.127
      -1.554
      -0.422
       0.966
       2.239
       3.076
       3.292
       2.903
       2.120
       1.286
       0.749
       0.715
       1.152
       1.799
       2.289
       2.331
       1.835
       0.934
      -0.082
      -0.876
      -1.160
      -0.766
       0.302
       1.862
       3.577
       5.043
       5.903
       5.944
       5.156
       3.733
       2.008
       0.350
      -0.957
      -1.797
      -2.228
      -2.411
      -2.511
      -2.629
      -2.778
      -2.905
      -2.930
      -2.779
      -2.431
      -1.946
      -1.474
      -1.186
      -1.169
      -1.358
      -1.559
      -1.568
      -1.280
      -0.719
       0.012
       0.798
       1.529
       2.089
       2.348
       2.220
       1.731
       1.046
       0.407
       0.026
      -0.011
       0.228
       0.558
       0.756
       0.644
       0.163
      -0.610
      -1.489
      -2.250
      -2.695
      -2.685
      -2.156
      -1.127
       0.282
       1.852
       3.292
       4.333
       4.822
       4.751
       4.222
       3.373
       2.345
       1.298
       0.416
      -0.123
      -0.237
      -0.016
       0.269
       0.273
      -0.260
      -1.353
      -2.763
      -4.058
      -4.783
      -4.644
      -3.623
      -1.974
      -0.098
       1.614
       2.906
       3.674
       3.919
       3.709
       3.175
       2.518
       1.973
       1.695
       1.645
       1.570
       1.140
       0.170
      -1.232
      -2.682
      -3.700
      -3.944
      -3.362
      -2.193
      -0.838
       0.319
       1.047
       1.312
       1.249
       1.084
       1.032
       1.225
       1.684
       2.334
       3.022
       3.541
       3.667
       3.219
       2.129
       0.479
      -1.507
      -3.525
      -5.289
      -6.596
      -7.350
      -7.539
      -7.193
      -6.355
      -5.065
      -3.375
      -1.393
       0.682
       2.558
       3.915
       4.530
       4.386
       3.715
       2.906
       2.330
       2.160
       2.324
       2.597
       2.766
       2.742
       2.530
       2.132
       1.476
       0.459
      -0.943
      -2.617
      -4.333
      -5.837
      -6.948
      -7.565
      -7.629
      -7.080
      -5.885
      -4.112
      -1.963
       0.267
       2.304
       3.987
       5.267
       6.145
       6.617
       6.665
       6.302
       5.620
       4.786
       3.966
       3.223
       2.486
       1.622
       0.543
      -0.729
      -2.087
      -3.415
      -4.624
      -5.664
      -6.519
      -7.188
      -7.647
      -7.795
      -7.443
      -6.387
      -4.563
      -2.161
       0.395
       2.612
       4.135
       4.871
       4.943
       4.549
       3.848
       2.958
       2.043
       1.334
       1.018
       1.076
       1.228
       1.074
       0.334
      -0.990
      -2.653
      -4.325
      -5.720
      -6.622
      -6.865
      -6.348
      -5.093
      -3.276
      -1.209
       0.740
       2.238
       3.063
       3.134
       2.514
       1.426
       0.222
      -0.706
      -1.072
      -0.811
      -0.084
       0.807
       1.558
       1.930
       1.779
       1.080
      -0.035
      -1.259
      -2.181
      -2.450
      -1.943
      -0.825
       0.524
       1.666
       2.223
       1.960
       0.824
      -1.016
      -3.172
      -5.118
      -6.337
      -6.495
      -5.545
      -3.747
      -1.573
       0.439
       1.849
       2.429
       2.216
       1.488
       0.671
       0.182
       0.266
       0.892
       1.782
       2.538
       2.817
       2.440
       1.437
       0.024
      -1.446
      -2.587
      -3.118
      -2.986
      -2.382
      -1.648
      -1.143
      -1.106
      -1.553
      -2.240
      -2.743
      -2.644
      -1.725
      -0.076
       1.933
       3.803
       5.099
       5.598
       5.333
       4.536
       3.529
       2.606
       1.947
       1.578
       1.385
       1.179
       0.772
       0.047
      -1.010
      -2.289
      -3.566
      -4.535
      -4.877
      -4.377
      -3.043
      -1.177
       0.706
       2.100
       2.743
       2.695
       2.229
       1.630
       1.060
       0.551
       0.095
      -0.273
      -0.487
      -0.510
      -0.377
      -0.168
       0.041
       0.206
       0.308
       0.331
       0.251
       0.058
      -0.227
      -0.551
      -0.832
      -0.992
      -0.987
      -0.825
      -0.564
      -0.277
      -0.032
       0.133
       0.228
       0.329
       0.564
       1.064
       1.874
       2.904
       3.943
       4.741
       5.083
       4.842
       3.980
       2.533
       0.620
      -1.538
      -3.609
      -5.210
      -6.027
      -5.945
      -5.094
      -3.771
      -2.296
      -0.894
       0.310
       1.242
       1.845
       2.115
       2.148
       2.108
       2.151
       2.332
       2.592
       2.797
       2.809
       2.528
       1.918
       1.014
      -0.083
      -1.216
      -2.216
      -2.943
      -3.324
      -3.357
      -3.084
      -2.549
      -1.802
      -0.933
      -0.087
       0.575
       0.943
       1.002
       0.818
       0.508
       0.192
      -0.019
      -0.048
       0.138
       0.507
       0.959
       1.367
       1.639
       1.757
       1.766
       1.727
       1.681
       1.657
       1.668
       1.702
       1.693
       1.541
       1.157
       0.539
      -0.203
      -0.898
      -1.392
      -1.611
      -1.560
      -1.274
      -0.799
      -0.198
       0.421
       0.943
       1.323
       1.635
       2.031
       2.645
       3.496
       4.454
       5.267
       5.644
       5.366
       4.374
       2.805
       0.959
      -0.804
      -2.172
      -2.953
      -3.105
      -2.747
      -2.150
      -1.674
      -1.640
      -2.164
      -3.084
      -4.018
      -4.537
      -4.332
      -3.309
      -1.599
       0.481
       2.499
       4.007
       4.674
       4.408
       3.404
       2.055
       0.780
      -0.142
      -0.626
      -0.742
      -0.643
      -0.488
      -0.381
      -0.345
      -0.340
      -0.306
      -0.232
      -0.164
      -0.181
      -0.323
      -0.552
      -0.759
      -0.823
      -0.658
      -0.223
       0.491
       1.457
       2.552
       3.509
       3.972
       3.668
       2.608
       1.153
      -0.115
      -0.657
      -0.213
       1.102
       2.844
       4.395
       5.145
       4.691
       3.009
       0.519
      -2.038
      -3.892
      -4.563
      -4.020
      -2.631
      -0.969
       0.402
       1.095
       0.988
       0.254
      -0.700
      -1.380
      -1.397
      -0.647
       0.633
       1.960
       2.815
       2.851
       2.028
       0.614
      -0.922
      -2.087
      -2.540
      -2.199
      -1.256
      -0.083
       0.931
       1.526
       1.637
       1.352
       0.829
       0.222
      -0.352
      -0.805
      -1.090
      -1.201
      -1.176
      -1.058
      -0.857
      -0.543
      -0.081
       0.492
       1.023
       1.277
       1.039
       0.246
      -0.959
      -2.277
      -3.393
      -4.098
      -4.333
      -4.152
      -3.659
      -2.990
      -2.317
      -1.831
      -1.668
      -1.814
      -2.087
      -2.219
      -1.996
      -1.368
      -0.449
       0.549
       1.407
       1.950
       2.055
       1.678
       0.870
      -0.210
      -1.329
      -2.253
      -2.809
      -2.921
      -2.613
      -1.983
      -1.171
      -0.322
       0.440
       1.041
       1.459
       1.709
       1.829
       1.871
       1.927
       2.108
       2.478
       2.974
       3.378
       3.408
       2.870
       1.766
       0.278
      -1.339
      -2.875
      -4.191
      -5.154
      -5.584
      -5.294
      -4.225
      -2.555
      -0.683
       0.939
       2.023
       2.561
       2.769
       2.899
       3.069
       3.196
       3.074
       2.503
       1.405
      -0.134
      -1.887
      -3.533
      -4.717
      -5.119
      -4.564
      -3.122
      -1.133
       0.892
       2.456
       3.262
       3.286
       2.740
       1.957
       1.250
       0.813
       0.704
       0.866
       1.166
       1.413
       1.390
       0.914
      -0.076
      -1.449
      -2.887
      -4.002
      -4.511
      -4.388
      -3.874
      -3.306
      -2.872
      -2.481
      -1.854
      -0.773
