Origin Time       09/01/2013 07:44:20
Lat.              29.75 N
Long.             81.74 E
Depth (Km)         34.0
Magnitude         5.0
 Region           NEPAL                                                            
 Above details taken from IIT 
   
Station Code      TAN
Station Lat.       29.074
Station Long.      80.112
Station Height(m)  265.0
Site Class        C   Vs30 between 200 m/sec to 375 m/sec *  
Record Time       09.01.2013 07:44:54.194
Sampling Rate     200. Hz
 Record Duration   65.190 Sec.
 Direction         Vert. (Up positive)
Max. Acceleration     -1.940 cm/sec**2
     
  * For reference see Site Classification link of website 
     
 Base Line Corrected and Low Pass Filtered (Cut Off at 35 Hz) Time History
 Acceleration data in cm/sec**2
    
[...]
      -0.049
      -0.050
      -0.034
       0.003
       0.058
       0.116
       0.162
       0.187
       0.189
       0.168
       0.120
       0.047
      -0.039
      -0.111
      -0.137
      -0.105
      -0.021
       0.088
       0.185
       0.237
       0.220
       0.138
       0.016
      -0.102
      -0.180
      -0.202
      -0.178
      -0.128
      -0.065
       0.005
       0.075
       0.129
       0.149
       0.130
       0.082
       0.024
      -0.033
      -0.082
      -0.118
      -0.129
      -0.109
      -0.064
      -0.013
       0.027
       0.048
       0.055
       0.055
       0.050
       0.035
       0.012
      -0.013
      -0.026
      -0.014
       0.025
       0.082
       0.133
       0.154
       0.135
       0.083
       0.022
      -0.031
      -0.068
      -0.095
      -0.119
      -0.139
      -0.148
      -0.139
      -0.115
      -0.082
      -0.048
      -0.018
       0.010
       0.032
       0.040
       0.030
       0.006
      -0.019
      -0.027
      -0.005
       0.051
       0.131
       0.208
       0.248
       0.226
       0.140
       0.017
      -0.106
      -0.193
      -0.231
      -0.223
      -0.179
      -0.114
      -0.049
      -0.014
      -0.030
      -0.097
      -0.182
      -0.242
      -0.249
      -0.207
      -0.145
      -0.089
      -0.046
      -0.003
       0.051
       0.112
       0.170
       0.212
       0.237
       0.248
       0.244
       0.216
       0.161
       0.087
       0.012
      -0.046
      -0.081
      -0.096
      -0.102
      -0.107
      -0.113
      -0.118
      -0.121
      -0.122
      -0.123
      -0.122
      -0.117
      -0.100
      -0.063
      -0.004
       0.074
       0.159
       0.241
       0.306
       0.336
       0.312
       0.228
       0.104
      -0.027
      -0.135
      -0.209
      -0.252
      -0.260
      -0.222
      -0.132
      -0.010
       0.100
       0.155
       0.139
       0.071
      -0.015
      -0.091
      -0.142
      -0.154
      -0.116
      -0.024
       0.101
       0.223
       0.305
       0.327
       0.290
       0.205
       0.087
      -0.043
      -0.160
      -0.234
      -0.248
      -0.200
      -0.112
      -0.018
       0.046
       0.064
       0.046
       0.017
      -0.001
      -0.004
       0.003
       0.010
       0.018
       0.029
       0.046
       0.068
       0.093
       0.123
       0.160
       0.205
       0.248
       0.276
       0.275
       0.234
       0.149
       0.030
      -0.101
      -0.215
      -0.283
      -0.287
      -0.229
      -0.127
      -0.013
       0.080
       0.126
       0.116
       0.063
      -0.004
      -0.057
      -0.076
      -0.060
      -0.020
       0.028
       0.070
       0.099
       0.114
       0.118
       0.111
       0.091
       0.051
      -0.006
      -0.070
      -0.122
      -0.147
      -0.147
      -0.135
      -0.124
      -0.112
      -0.087
      -0.047
      -0.004
       0.021
       0.017
      -0.011
      -0.039
      -0.048
      -0.035
      -0.003
       0.037
       0.080
       0.116
       0.134
       0.119
       0.073
       0.008
      -0.056
      -0.106
      -0.139
      -0.158
      -0.163
      -0.151
      -0.125
      -0.090
      -0.057
      -0.034
      -0.030
      -0.050
      -0.091
      -0.136
      -0.164
      -0.163
      -0.136
      -0.105
      -0.083
      -0.069
      -0.043
       0.009
       0.081
       0.148
       0.186
       0.181
       0.137
       0.064
      -0.020
      -0.099
      -0.151
      -0.158
      -0.117
      -0.042
       0.041
       0.112
       0.160
       0.180
       0.171
       0.128
       0.059
      -0.021
      -0.086
      -0.119
      -0.119
      -0.095
      -0.058
      -0.017
       0.026
       0.062
       0.085
       0.096
       0.103
       0.116
       0.131
       0.136
       0.114
       0.062
      -0.006
      -0.064
      -0.085
      -0.059
       0.008
       0.094
       0.168
       0.199
       0.170
       0.085
      -0.034
      -0.153
      -0.242
      -0.278
      -0.251
      -0.165
      -0.035
       0.111
       0.238
       0.316
       0.327
       0.275
       0.186
       0.093
       0.020
      -0.022
      -0.036
      -0.032
      -0.021
      -0.015
      -0.019
      -0.027
      -0.022
       0.010
       0.066
       0.123
       0.154
       0.148
       0.115
       0.068
       0.011
      -0.057
      -0.132
      -0.194
      -0.224
      -0.217
      -0.186
      -0.148
      -0.113
      -0.081
      -0.048
      -0.012
       0.028
       0.071
       0.111
       0.142
       0.159
       0.163
       0.151
       0.113
       0.045
      -0.048
      -0.142
      -0.209
      -0.233
      -0.221
      -0.193
      -0.165
      -0.134
      -0.082
       0.005
       0.115
       0.217
       0.275
       0.271
       0.210
       0.108
      -0.012
      -0.130
      -0.222
      -0.271
      -0.270
      -0.230
      -0.173
      -0.125
      -0.104
      -0.111
      -0.134
      -0.158
      -0.164
      -0.139
      -0.076
       0.018
       0.122
       0.200
       0.226
       0.200
       0.144
       0.091
       0.060
       0.055
       0.066
       0.081
       0.091
       0.080
       0.033
      -0.056
      -0.165
      -0.253
      -0.279
      -0.224
      -0.105
       0.042
       0.172
       0.258
       0.290
       0.274
       0.228
       0.170
       0.111
       0.053
      -0.004
      -0.056
      -0.093
      -0.103
      -0.084
      -0.040
       0.014
       0.063
       0.098
       0.112
       0.098
       0.055
      -0.013
      -0.092
      -0.157
      -0.182
      -0.148
      -0.050
       0.094
       0.242
       0.342
       0.359
       0.289
       0.160
       0.015
      -0.114
      -0.208
      -0.260
      -0.263
      -0.214
      -0.125
      -0.029
       0.028
       0.016
      -0.063
      -0.171
      -0.254
      -0.275
      -0.228
      -0.134
      -0.025
       0.070
       0.138
       0.172
       0.176
       0.156
       0.122
       0.080
       0.036
      -0.010
      -0.057
      -0.099
      -0.127
      -0.132
      -0.110
      -0.059
       0.012
       0.085
       0.132
       0.124
       0.051
      -0.070
      -0.199
      -0.293
      -0.324
      -0.284
      -0.181
      -0.036
       0.122
       0.254
       0.324
       0.311
       0.220
       0.075
      -0.088
      -0.240
      -0.360
      -0.435
      -0.456
      -0.418
      -0.327
      -0.199
      -0.059
       0.061
       0.134
       0.146
       0.102
       0.022
      -0.067
      -0.135
      -0.158
      -0.126
      -0.050
       0.046
       0.134
       0.193
       0.218
       0.211
       0.182
       0.143
       0.108
       0.088
       0.086
       0.098
       0.115
       0.121
       0.106
       0.070
       0.026
      -0.005
      -0.005
       0.030
       0.089
       0.152
       0.199
       0.215
       0.198
       0.157
       0.114
       0.095
       0.117
       0.181
       0.268
       0.349
       0.397
       0.392
       0.327
       0.213
       0.071
      -0.067
      -0.172
      -0.222
      -0.211
      -0.155
      -0.089
      -0.054
      -0.072
      -0.136
      -0.213
      -0.254
      -0.225
      -0.121
       0.028
       0.169
       0.255
       0.262
       0.195
       0.088
      -0.015
      -0.075
      -0.067
       0.004
       0.108
       0.199
       0.235
       0.190
       0.069
      -0.097
      -0.264
      -0.387
      -0.437
      -0.409
      -0.327
      -0.227
      -0.150
      -0.119
      -0.141
      -0.203
      -0.278
      -0.331
      -0.332
      -0.260
      -0.121
       0.057
       0.232
       0.360
       0.410
       0.373
       0.260
       0.102
      -0.053
      -0.159
      -0.180
      -0.114
       0.013
       0.157
       0.270
       0.317
       0.290
       0.205
       0.090
      -0.018
      -0.092
      -0.112
      -0.081
      -0.017
       0.049
       0.092
       0.100
       0.079
       0.044
       0.014
       0.007
       0.030
       0.074
       0.113
       0.114
       0.051
      -0.080
      -0.247
      -0.395
      -0.464
      -0.413
      -0.246
      -0.010
       0.219
       0.369
       0.393
       0.286
       0.077
      -0.178
      -0.408
      -0.541
      -0.528
      -0.364
      -0.096
       0.193
       0.410
       0.490
       0.420
       0.243
       0.035
      -0.127
      -0.197
      -0.171
      -0.079
       0.031
       0.115
       0.152
       0.145
       0.119
       0.103
       0.115
       0.155
       0.206
       0.245
       0.251
       0.209
       0.116
      -0.023
      -0.184
      -0.333
      -0.431
      -0.444
      -0.360
      -0.194
       0.016
       0.219
       0.368
       0.429
       0.393
       0.276
       0.119
      -0.025
      -0.103
      -0.085
       0.021
       0.171
       0.302
       0.361
       0.319
       0.187
       0.007
      -0.158
      -0.256
      -0.262
      -0.189
      -0.079
       0.018
       0.057
       0.016
      -0.098
      -0.247
      -0.372
      -0.411
      -0.323
      -0.115
       0.157
       0.404
       0.543
       0.525
       0.362
       0.111
      -0.152
      -0.361
      -0.482
      -0.510
      -0.462
      -0.370
      -0.277
      -0.224
      -0.232
      -0.297
      -0.386
      -0.461
      -0.493
      -0.478
      -0.434
      -0.391
      -0.369
      -0.374
      -0.389
      -0.384
      -0.332
      -0.220
      -0.051
       0.155
       0.360
       0.514
       0.561
       0.472
       0.267
       0.019
      -0.172
      -0.233
      -0.149
       0.034
       0.236
       0.392
       0.470
       0.476
       0.433
       0.360
       0.272
       0.181
       0.104
       0.055
       0.044
       0.063
       0.099
       0.143
       0.202
       0.292
       0.424
       0.586
       0.739
       0.831
       0.820
       0.691
       0.468
       0.205
      -0.041
      -0.231
      -0.351
      -0.412
      -0.434
      -0.440
      -0.449
      -0.466
      -0.479
      -0.457
      -0.370
      -0.207
       0.013
       0.249
       0.460
       0.627
       0.756
       0.868
       0.986
       1.125
       1.287
       1.454
       1.582
       1.610
       1.481
       1.171
       0.700
       0.131
      -0.456
      -0.979
      -1.375
      -1.611
      -1.693
      -1.665
      -1.583
      -1.494
      -1.415
      -1.330
      -1.210
      -1.033
      -0.801
      -0.540
      -0.288
      -0.080
       0.073
       0.180
       0.259
       0.320
       0.357
       0.364
       0.333
       0.268
       0.169
       0.030
      -0.152
      -0.371
      -0.601
      -0.798
      -0.928
      -0.982
      -0.978
      -0.951
      -0.930
      -0.936
      -0.968
      -0.998
      -0.977
      -0.853
      -0.607
      -0.268
       0.095
       0.409
       0.635
       0.769
       0.828
       0.827
       0.781
       0.708
       0.632
       0.578
       0.561
       0.584
       0.634
       0.690
       0.725
       0.718
       0.666
       0.585
       0.498
       0.421
       0.348
       0.264
       0.161
       0.045
      -0.063
      -0.143
      -0.189
      -0.209
      -0.210
      -0.189
      -0.134
      -0.038
       0.089
       0.218
       0.318
       0.375
       0.394
       0.388
       0.369
       0.340
       0.300
       0.254
       0.222
       0.228
       0.286
       0.391
       0.519
       0.640
       0.725
       0.757
       0.727
       0.639
       0.506
       0.341
       0.147
      -0.082
      -0.356
      -0.673
      -1.009
      -1.331
      -1.606
      -1.804
      -1.898
      -1.863
      -1.686
      -1.385
      -1.014
      -0.643
      -0.322
      -0.069
       0.126
       0.278
       0.395
       0.489
       0.571
       0.643
       0.682
       0.651
       0.521
       0.295
       0.011
      -0.281
      -0.534
      -0.714
      -0.801
      -0.789
      -0.685
      -0.504
      -0.273
      -0.026
       0.207
       0.402
       0.548
       0.654
       0.742
       0.842
       0.970
       1.124
       1.277
       1.392
       1.426
       1.346
       1.141
       0.824
       0.432
       0.010
      -0.399
      -0.757
      -1.039
      -1.228
      -1.319
      -1.321
      -1.253
      -1.135
      -0.981
      -0.793
      -0.568
      -0.307
      -0.018
       0.282
       0.571
       0.824
       1.023
       1.156
       1.223
       1.224
       1.160
       1.032
       0.846
       0.614
       0.350
       0.069
      -0.211
      -0.468
      -0.675
      -0.808
      -0.851
      -0.815
      -0.726
      -0.623
      -0.529
      -0.451
      -0.375
      -0.286
      -0.169
      -0.019
       0.162
       0.357
       0.547
       0.707
       0.813
       0.842
       0.777
       0.616
       0.388
       0.141
      -0.070
      -0.217
      -0.305
      -0.363
      -0.427
      -0.522
      -0.651
      -0.799
      -0.937
      -1.031
      -1.057
      -1.006
      -0.886
      -0.713
      -0.499
      -0.254
       0.006
       0.260
       0.494
       0.708
       0.910
       1.107
       1.288
       1.424
       1.479
       1.429
       1.279
       1.052
       0.774
       0.467
       0.143
      -0.190
      -0.530
      -0.877
      -1.224
      -1.547
      -1.802
      -1.940
      -1.923
      -1.740
      -1.411
      -0.979
      -0.501
      -0.039
       0.349
       0.616
       0.740
       0.738
       0.656
       0.548
       0.453
       0.387
       0.351
       0.349
       0.383
       0.443
       0.504
       0.531
       0.498
       0.411
       0.301
       0.210
       0.161
       0.160
       0.198
       0.268
       0.359
       0.458
       0.536
       0.567
       0.534
       0.442
       0.312
       0.175
       0.055
      -0.041
      -0.122
      -0.198
      -0.278
      -0.363
      -0.446
      -0.515
      -0.552
      -0.540
      -0.471
      -0.354
      -0.213
      -0.077
       0.033
       0.106
       0.143
       0.151
       0.137
       0.106
       0.059
      -0.004
      -0.080
      -0.162
      -0.240
      -0.300
      -0.327
      -0.308
      -0.239
      -0.129
       0.004
       0.139
       0.259
       0.353
       0.416
       0.437
       0.403
       0.306
       0.152
      -0.030
      -0.197
      -0.310
      -0.354
      -0.334
      -0.268
      -0.175
      -0.070
       0.028
       0.102
       0.134
       0.113
       0.040
      -0.071
      -0.193
      -0.294
      -0.354
      -0.366
      -0.342
      -0.301
      -0.252
      -0.193
      -0.109
       0.013
       0.171
       0.344
       0.493
       0.586
       0.613
       0.592
       0.556
       0.518
       0.457
       0.341
       0.160
      -0.056
      -0.253
      -0.397
      -0.493
      -0.567
      -0.634
      -0.677
      -0.663
      -0.570
      -0.410
      -0.226
      -0.064
       0.048
       0.107
       0.126
       0.126
       0.132
       0.161
       0.218
       0.292
       0.357
       0.385
       0.355
       0.269
       0.148
       0.023
      -0.080
      -0.157
      -0.215
      -0.270
      -0.326
      -0.381
      -0.430
      -0.474
      -0.514
      -0.541
      -0.534
      -0.476
      -0.363
      -0.217
      -0.078
       0.019
       0.065
       0.087
       0.133
       0.239
       0.405
       0.596
       0.754
       0.833
       0.804
       0.663
       0.427
       0.135
      -0.150
      -0.363
      -0.457
      -0.418
      -0.267
      -0.051
       0.171
       0.345
       0.432
       0.427
       0.354
       0.258
       0.183
       0.157
       0.181
       0.242
       0.312
       0.361
       0.351
       0.249
       0.052
      -0.205
      -0.459
      -0.649
      -0.740
      -0.738
      -0.669
      -0.554
      -0.409
      -0.246
      -0.092
       0.016
       0.046
      -0.008
      -0.119
      -0.233
      -0.302
      -0.298
      -0.233
      -0.147
      -0.087
      -0.083
      -0.141
      -0.237
      -0.339
      -0.413
      -0.437
      -0.397
      -0.294
      -0.137
       0.048
       0.231
       0.377
       0.465
       0.485
       0.440
       0.344
       0.217
       0.079
      -0.048
      -0.144
      -0.199
      -0.213
      -0.198
      -0.173
      -0.157
      -0.163
      -0.192
      -0.229
      -0.254
      -0.257
      -0.245
      -0.225
      -0.180
      -0.068
       0.140
       0.425
       0.717
       0.937
       1.041
       1.034
       0.949
       0.814
       0.631
       0.401
       0.145
      -0.090
      -0.254
      -0.319
      -0.297
      -0.222
      -0.130
      -0.051
      -0.006
      -0.001
      -0.027
      -0.060
      -0.066
      -0.020
       0.079
       0.207
       0.322
       0.388
       0.383
       0.313
       0.206
       0.100
       0.030
       0.012
       0.045
       0.115
       0.200
       0.276
       0.317
       0.304
       0.231
       0.115
      -0.011
      -0.117
      -0.185
      -0.215
      -0.218
      -0.207
      -0.192
      -0.175
      -0.157
      -0.131
      -0.092
      -0.039
       0.019
       0.061
       0.067
       0.029
      -0.038
      -0.107
      -0.152
      -0.155
      -0.108
      -0.009
       0.135
       0.302
       0.449
       0.523
       0.480
       0.304
       0.016
      -0.334
      -0.687
      -0.993
      -1.224
      -1.369
      -1.429
      -1.399
      -1.269
      -1.036
      -0.714
      -0.344
       0.018
       0.321
       0.542
       0.676
       0.733
       0.725
       0.668
       0.582
       0.484
       0.380
       0.262
       0.111
      -0.094
      -0.360
      -0.667
      -0.968
      -1.200
      -1.305
      -1.247
      -1.025
      -0.671
      -0.245
       0.187
       0.566
       0.847
       1.004
       1.029
       0.940
       0.788
       0.641
       0.544
       0.494
       0.443
       0.341
       0.177
      -0.018
      -0.203
      -0.363
      -0.498
      -0.602
      -0.633
      -0.543
      -0.317
       0.002
       0.329
       0.586
       0.739
       0.796
       0.778
       0.695
       0.562
       0.415
       0.301
       0.257
       0.281
       0.332
       0.362
       0.342
       0.279
       0.199
       0.125
       0.063
       0.007
      -0.043
      -0.080
      -0.101
      -0.119
      -0.159
      -0.244
      -0.366
      -0.486
      -0.561
      -0.576
      -0.547
      -0.502
      -0.452
      -0.395
      -0.327
      -0.256
      -0.194
      -0.141
      -0.077
       0.025
       0.173
       0.341
       0.476
       0.527
       0.477
       0.341
       0.157
      -0.043
      -0.238
      -0.413
      -0.550
      -0.638
      -0.680
      -0.696
      -0.709
      -0.723
      -0.720
      -0.666
      -0.539
      -0.341
      -0.101
       0.147
       0.375
       0.572
       0.735
       0.855
       0.924
       0.930
       0.870
       0.747
       0.565
       0.330
       0.054
      -0.240
      -0.518
      -0.744
      -0.892
      -0.959
      -0.960
