Origin Time       09/01/2013 07:44:20
Lat.              29.75 N
Long.             81.74 E
Depth (Km)         34.0
Magnitude         5.0
 Region           NEPAL                                                            
 Above details taken from IIT 
     
Station Code      TAN
Station Lat.       29.074  N
Station Long.      80.112  E
Station Height(m)  265.0
Site Class        C   Vs30 between 200 m/sec to 375 m/sec *  
Record Time       09.01.2013 07:44:54.194
Sampling Rate     200. Hz
 Record Duration   65.190 Sec.
 Direction         E-W (E positive)
Max. Acceleration      3.686 cm/sec**2
     
  * For reference see Site Classification link of website 
     
 Base Line Corrected and Low Pass Filtered (Cut Off at 35 Hz) Time History
 Acceleration data in cm/sec**2
    
[...]
      -0.104
      -0.067
      -0.025
       0.025
       0.083
       0.147
       0.208
       0.259
       0.294
       0.307
       0.298
       0.270
       0.229
       0.186
       0.153
       0.138
       0.141
       0.151
       0.146
       0.106
       0.025
      -0.087
      -0.206
      -0.306
      -0.369
      -0.392
      -0.380
      -0.345
      -0.295
      -0.239
      -0.179
      -0.120
      -0.069
      -0.028
       0.002
       0.031
       0.069
       0.122
       0.184
       0.245
       0.293
       0.320
       0.323
       0.303
       0.265
       0.222
       0.185
       0.162
       0.151
       0.141
       0.116
       0.067
      -0.006
      -0.089
      -0.168
      -0.227
      -0.259
      -0.265
      -0.253
      -0.229
      -0.199
      -0.168
      -0.143
      -0.128
      -0.120
      -0.108
      -0.078
      -0.025
       0.045
       0.112
       0.159
       0.180
       0.183
       0.178
       0.173
       0.169
       0.163
       0.157
       0.149
       0.137
       0.116
       0.087
       0.055
       0.027
       0.004
      -0.019
      -0.047
      -0.080
      -0.112
      -0.136
      -0.141
      -0.129
      -0.109
      -0.092
      -0.084
      -0.080
      -0.070
      -0.051
      -0.027
      -0.006
       0.010
       0.024
       0.040
       0.055
       0.065
       0.064
       0.052
       0.038
       0.027
       0.024
       0.023
       0.017
       0.002
      -0.023
      -0.049
      -0.066
      -0.068
      -0.056
      -0.036
      -0.013
       0.011
       0.035
       0.053
       0.064
       0.065
       0.060
       0.051
       0.040
       0.023
       0.004
      -0.012
      -0.017
      -0.009
       0.004
       0.009
      -0.003
      -0.031
      -0.067
      -0.094
      -0.099
      -0.083
      -0.056
      -0.030
      -0.012
       0.006
       0.030
       0.059
       0.078
       0.075
       0.049
       0.013
      -0.015
      -0.024
      -0.017
       0.002
       0.029
       0.064
       0.104
       0.138
       0.155
       0.150
       0.129
       0.103
       0.082
       0.070
       0.064
       0.059
       0.049
       0.031
       0.007
      -0.021
      -0.048
      -0.068
      -0.079
      -0.080
      -0.074
      -0.064
      -0.052
      -0.036
      -0.015
       0.006
       0.019
       0.020
       0.011
       0.000
      -0.007
      -0.006
       0.006
       0.028
       0.055
       0.080
       0.096
       0.096
       0.080
       0.058
       0.038
       0.026
       0.015
       0.000
      -0.019
      -0.033
      -0.038
      -0.033
      -0.023
      -0.013
      -0.002
       0.006
       0.001
      -0.027
      -0.078
      -0.137
      -0.180
      -0.187
      -0.157
      -0.109
      -0.063
      -0.034
      -0.018
      -0.006
       0.011
       0.037
       0.070
       0.103
       0.128
       0.135
       0.126
       0.105
       0.084
       0.071
       0.067
       0.069
       0.071
       0.065
       0.049
       0.022
      -0.017
      -0.067
      -0.122
      -0.173
      -0.208
      -0.219
      -0.202
      -0.162
      -0.116
      -0.075
      -0.050
      -0.037
      -0.029
      -0.020
      -0.007
       0.009
       0.030
       0.058
       0.091
       0.123
       0.141
       0.142
       0.131
       0.114
       0.094
       0.067
       0.031
      -0.012
      -0.051
      -0.080
      -0.093
      -0.092
      -0.082
      -0.070
      -0.064
      -0.070
      -0.091
      -0.124
      -0.158
      -0.180
      -0.177
      -0.151
      -0.110
      -0.069
      -0.038
      -0.017
      -0.004
       0.011
       0.031
       0.055
       0.080
       0.102
       0.123
       0.146
       0.169
       0.183
       0.177
       0.150
       0.109
       0.067
       0.033
       0.009
      -0.006
      -0.013
      -0.012
      -0.005
       0.000
      -0.005
      -0.022
      -0.046
      -0.068
      -0.075
      -0.066
      -0.045
      -0.026
      -0.018
      -0.027
      -0.043
      -0.059
      -0.065
      -0.061
      -0.045
      -0.018
       0.019
       0.060
       0.094
       0.113
       0.113
       0.100
       0.077
       0.050
       0.022
      -0.001
      -0.013
      -0.009
       0.011
       0.041
       0.069
       0.085
       0.086
       0.073
       0.050
       0.020
      -0.013
      -0.048
      -0.082
      -0.109
      -0.127
      -0.136
      -0.138
      -0.135
      -0.126
      -0.106
      -0.072
      -0.028
       0.015
       0.045
       0.054
       0.044
       0.027
       0.014
       0.011
       0.014
       0.021
       0.032
       0.052
       0.083
       0.118
       0.147
       0.162
       0.159
       0.140
       0.108
       0.068
       0.023
      -0.017
      -0.044
      -0.052
      -0.044
      -0.029
      -0.021
      -0.030
      -0.056
      -0.086
      -0.105
      -0.105
      -0.091
      -0.073
      -0.061
      -0.058
      -0.057
      -0.054
      -0.043
      -0.027
      -0.012
       0.000
       0.011
       0.025
       0.043
       0.061
       0.070
       0.067
       0.055
       0.042
       0.037
       0.041
       0.053
       0.069
       0.084
       0.091
       0.087
       0.073
       0.055
       0.043
       0.039
       0.042
       0.042
       0.031
       0.006
      -0.030
      -0.069
      -0.101
      -0.116
      -0.111
      -0.091
      -0.073
      -0.071
      -0.090
      -0.121
      -0.150
      -0.165
      -0.160
      -0.137
      -0.100
      -0.058
      -0.020
       0.009
       0.024
       0.031
       0.037
       0.049
       0.069
       0.096
       0.122
       0.143
       0.155
       0.160
       0.163
       0.163
       0.161
       0.152
       0.134
       0.103
       0.062
       0.019
      -0.016
      -0.040
      -0.057
      -0.074
      -0.095
      -0.119
      -0.138
      -0.145
      -0.139
      -0.129
      -0.122
      -0.124
      -0.132
      -0.141
      -0.146
      -0.142
      -0.121
      -0.077
      -0.014
       0.055
       0.112
       0.143
       0.145
       0.127
       0.101
       0.079
       0.062
       0.050
       0.037
       0.016
      -0.012
      -0.043
      -0.069
      -0.083
      -0.086
      -0.082
      -0.079
      -0.079
      -0.084
      -0.090
      -0.093
      -0.090
      -0.074
      -0.044
       0.000
       0.051
       0.096
       0.128
       0.141
       0.138
       0.124
       0.105
       0.088
       0.078
       0.081
       0.098
       0.120
       0.136
       0.134
       0.116
       0.092
       0.074
       0.065
       0.059
       0.045
       0.020
      -0.014
      -0.046
      -0.067
      -0.075
      -0.073
      -0.066
      -0.058
      -0.049
      -0.042
      -0.041
      -0.051
      -0.068
      -0.084
      -0.087
      -0.069
      -0.034
       0.007
       0.042
       0.063
       0.074
       0.081
       0.088
       0.087
       0.072
       0.038
      -0.010
      -0.064
      -0.113
      -0.148
      -0.164
      -0.155
      -0.121
      -0.064
       0.004
       0.069
       0.118
       0.141
       0.138
       0.114
       0.074
       0.025
      -0.026
      -0.070
      -0.094
      -0.090
      -0.059
      -0.006
       0.053
       0.102
       0.127
       0.119
       0.080
       0.017
      -0.053
      -0.118
      -0.169
      -0.201
      -0.213
      -0.203
      -0.174
      -0.130
      -0.079
      -0.033
       0.001
       0.022
       0.033
       0.039
       0.038
       0.025
       0.003
      -0.018
      -0.027
      -0.020
      -0.001
       0.018
       0.027
       0.021
       0.005
      -0.016
      -0.038
      -0.061
      -0.090
      -0.120
      -0.143
      -0.153
      -0.148
      -0.132
      -0.112
      -0.095
      -0.084
      -0.082
      -0.086
      -0.090
      -0.088
      -0.074
      -0.048
      -0.015
       0.019
       0.049
       0.074
       0.100
       0.128
       0.159
       0.185
       0.198
       0.195
       0.179
       0.156
       0.129
       0.101
       0.074
       0.053
       0.045
       0.049
       0.057
       0.061
       0.056
       0.039
       0.014
      -0.015
      -0.044
      -0.072
      -0.093
      -0.102
      -0.096
      -0.080
      -0.062
      -0.047
      -0.031
      -0.009
       0.015
       0.033
       0.034
       0.019
      -0.004
      -0.025
      -0.039
      -0.042
      -0.036
      -0.024
      -0.015
      -0.018
      -0.034
      -0.058
      -0.078
      -0.084
      -0.078
      -0.070
      -0.072
      -0.087
      -0.112
      -0.134
      -0.146
      -0.146
      -0.136
      -0.123
      -0.108
      -0.093
      -0.077
      -0.062
      -0.048
      -0.036
      -0.024
      -0.013
       0.000
       0.020
       0.046
       0.076
       0.100
       0.110
       0.104
       0.086
       0.065
       0.048
       0.038
       0.037
       0.045
       0.061
       0.079
       0.093
       0.099
       0.092
       0.071
       0.040
       0.011
      -0.003
       0.009
       0.049
       0.113
       0.187
       0.250
       0.284
       0.284
       0.254
       0.212
       0.174
       0.152
       0.147
       0.149
       0.149
       0.140
       0.123
       0.102
       0.080
       0.058
       0.039
       0.025
       0.017
       0.013
       0.003
      -0.023
      -0.068
      -0.120
      -0.164
      -0.191
      -0.200
      -0.189
      -0.159
      -0.109
      -0.042
       0.031
       0.096
       0.140
       0.154
       0.133
       0.077
      -0.004
      -0.096
      -0.176
      -0.223
      -0.228
      -0.196
      -0.144
      -0.093
      -0.062
      -0.061
      -0.091
      -0.148
      -0.220
      -0.290
      -0.341
      -0.360
      -0.342
      -0.290
      -0.216
      -0.139
      -0.078
      -0.045
      -0.037
      -0.038
      -0.029
       0.005
       0.062
       0.127
       0.180
       0.210
       0.218
       0.217
       0.223
       0.247
       0.290
       0.338
       0.372
       0.375
       0.342
       0.287
       0.229
       0.189
       0.176
       0.191
       0.226
       0.266
       0.295
       0.296
       0.262
       0.197
       0.117
       0.040
      -0.020
      -0.058
      -0.077
      -0.087
      -0.097
      -0.115
      -0.145
      -0.182
      -0.217
      -0.244
      -0.262
      -0.278
      -0.296
      -0.319
      -0.343
      -0.361
      -0.369
      -0.365
      -0.348
      -0.318
      -0.272
      -0.212
      -0.137
      -0.057
       0.019
       0.078
       0.118
       0.140
       0.150
       0.150
       0.143
       0.135
       0.135
       0.143
       0.155
       0.160
       0.151
       0.126
       0.085
       0.027
      -0.047
      -0.131
      -0.212
      -0.270
      -0.288
      -0.257
      -0.183
      -0.087
       0.005
       0.075
       0.127
       0.175
       0.239
       0.327
       0.435
       0.554
       0.667
       0.764
       0.833
       0.869
       0.870
       0.845
       0.809
       0.775
       0.743
       0.697
       0.612
       0.473
       0.281
       0.061
      -0.157
      -0.341
      -0.474
      -0.553
      -0.586
      -0.587
      -0.570
      -0.549
      -0.536
      -0.539
      -0.559
      -0.588
      -0.612
      -0.613
      -0.577
      -0.500
      -0.390
      -0.262
      -0.133
      -0.016
       0.085
       0.165
       0.217
       0.236
       0.219
       0.174
       0.110
       0.041
      -0.025
      -0.077
      -0.108
      -0.106
      -0.069
      -0.004
       0.075
       0.151
       0.217
       0.273
       0.325
       0.376
       0.429
       0.481
       0.533
       0.580
       0.620
       0.650
       0.667
       0.674
       0.673
       0.666
       0.650
       0.620
       0.574
       0.508
       0.420
       0.313
       0.192
       0.068
      -0.042
      -0.121
      -0.155
      -0.139
      -0.075
       0.035
       0.188
       0.380
       0.596
       0.813
       1.008
       1.164
       1.273
       1.332
       1.336
       1.283
       1.172
       1.009
       0.807
       0.582
       0.344
       0.092
      -0.176
      -0.465
      -0.766
      -1.062
      -1.334
      -1.565
      -1.751
      -1.891
      -1.984
      -2.025
      -2.014
      -1.960
      -1.879
      -1.781
      -1.662
      -1.503
      -1.284
      -1.001
      -0.670
      -0.326
      -0.001
       0.273
       0.477
       0.601
       0.642
       0.600
       0.473
       0.262
      -0.035
      -0.408
      -0.836
      -1.284
      -1.711
      -2.083
      -2.374
      -2.579
      -2.706
      -2.774
      -2.794
      -2.769
      -2.687
      -2.537
      -2.309
      -1.995
      -1.594
      -1.105
      -0.538
       0.086
       0.733
       1.366
       1.947
       2.447
       2.844
       3.122
       3.265
       3.263
       3.118
       2.846
       2.473
       2.030
       1.545
       1.041
       0.534
       0.031
      -0.466
      -0.952
      -1.411
      -1.824
      -2.168
      -2.432
      -2.611
      -2.703
      -2.707
      -2.626
      -2.470
      -2.254
      -1.988
      -1.672
      -1.300
      -0.864
      -0.365
       0.186
       0.774
       1.380
       1.979
       2.541
       3.029
       3.402
       3.629
       3.686
       3.563
       3.263
       2.807
       2.233
       1.592
       0.936
       0.308
      -0.256
      -0.727
      -1.085
      -1.327
      -1.468
      -1.538
      -1.568
      -1.581
      -1.585
      -1.574
      -1.533
      -1.439
      -1.272
      -1.023
      -0.694
      -0.299
       0.139
       0.589
       1.017
       1.387
       1.671
       1.856
       1.947
       1.968
       1.952
       1.933
       1.931
       1.954
       1.990
       2.014
       1.995
       1.909
       1.751
       1.537
       1.295
       1.047
       0.801
       0.559
       0.323
       0.105
      -0.070
      -0.181
      -0.220
      -0.202
      -0.152
      -0.100
      -0.070
      -0.072
      -0.104
      -0.159
      -0.229
      -0.308
      -0.387
      -0.460
      -0.521
      -0.579
      -0.649
      -0.746
      -0.866
      -0.983
      -1.061
      -1.074
      -1.016
      -0.901
      -0.758
      -0.614
      -0.492
      -0.407
      -0.369
      -0.383
      -0.452
      -0.578
      -0.755
      -0.966
      -1.185
      -1.376
      -1.509
      -1.567
      -1.549
      -1.469
      -1.348
      -1.208
      -1.073
      -0.957
      -0.865
      -0.782
      -0.678
      -0.522
      -0.298
      -0.014
       0.304
       0.623
       0.917
       1.165
       1.356
       1.476
       1.519
       1.482
       1.373
       1.210
       1.023
       0.847
       0.702
       0.588
       0.481
       0.349
       0.164
      -0.083
      -0.379
      -0.695
      -0.997
      -1.254
      -1.437
      -1.522
      -1.497
      -1.362
      -1.131
      -0.824
      -0.458
      -0.048
       0.381
       0.792
       1.140
       1.392
       1.537
       1.595
       1.600
       1.583
       1.562
       1.541
       1.514
       1.469
       1.383
       1.226
       0.971
       0.610
       0.162
      -0.326
      -0.800
      -1.209
      -1.517
      -1.708
      -1.788
      -1.781
      -1.730
      -1.674
      -1.638
      -1.624
      -1.615
      -1.581
      -1.493
      -1.329
      -1.081
      -0.754
      -0.365
       0.058
       0.482
       0.870
       1.187
       1.407
       1.519
       1.524
       1.439
       1.290
       1.112
       0.941
       0.805
       0.711
       0.652
       0.609
       0.564
       0.504
       0.419
       0.305
       0.162
       0.002
      -0.156
      -0.299
      -0.416
      -0.504
      -0.556
      -0.561
      -0.508
      -0.391
      -0.224
      -0.040
       0.122
       0.229
       0.274
       0.267
       0.234
       0.198
       0.174
       0.166
       0.170
       0.179
       0.192
       0.216
       0.258
       0.320
       0.392
       0.460
       0.502
       0.498
       0.435
       0.307
       0.133
      -0.053
      -0.204
      -0.282
      -0.269
      -0.179
      -0.043
       0.100
       0.221
       0.303
       0.340
       0.330
       0.275
       0.183
       0.069
      -0.046
      -0.144
      -0.220
      -0.277
      -0.323
      -0.362
      -0.395
      -0.419
      -0.424
      -0.398
      -0.327
      -0.208
      -0.049
       0.136
       0.328
       0.510
       0.657
       0.748
       0.767
       0.712
       0.601
       0.463
       0.326
       0.210
       0.127
       0.078
       0.057
       0.048
       0.030
      -0.021
      -0.125
      -0.286
      -0.487
      -0.693
      -0.869
      -0.989
      -1.044
      -1.034
      -0.965
      -0.843
      -0.680
      -0.493
      -0.301
      -0.122
       0.029
       0.146
       0.231
       0.294
       0.349
       0.409
       0.476
       0.543
       0.599
       0.631
       0.626
       0.576
       0.484
       0.360
       0.219
       0.072
      -0.071
      -0.210
      -0.347
      -0.487
      -0.638
      -0.804
      -0.982
      -1.161
      -1.321
      -1.441
      -1.505
      -1.506
      -1.451
      -1.354
      -1.230
      -1.094
      -0.956
      -0.814
      -0.662
      -0.485
      -0.269
      -0.008
       0.290
       0.604
       0.902
       1.155
       1.343
       1.455
       1.494
       1.467
       1.390
       1.282
       1.163
       1.048
       0.944
       0.854
       0.772
       0.687
       0.590
       0.477
       0.352
       0.221
       0.084
      -0.061
      -0.214
      -0.371
      -0.517
      -0.641
      -0.732
      -0.791
      -0.826
      -0.844
      -0.845
      -0.817
      -0.744
      -0.618
      -0.446
      -0.253
      -0.068
       0.084
       0.187
       0.235
       0.238
       0.221
       0.215
       0.243
       0.312
       0.411
       0.518
       0.604
       0.648
       0.636
       0.569
       0.462
       0.331
       0.194
       0.061
      -0.061
      -0.175
      -0.291
      -0.422
      -0.570
      -0.727
      -0.872
      -0.983
      -1.040
      -1.038
      -0.978
      -0.871
      -0.732
      -0.575
      -0.412
      -0.249
      -0.085
       0.085
       0.260
       0.432
       0.584
       0.704
       0.790
       0.860
       0.932
       1.014
       1.096
       1.164
       1.207
       1.216
       1.179
       1.085
       0.927
       0.716
       0.475
       0.229
      -0.008
      -0.232
      -0.448
      -0.648
      -0.814
      -0.920
      -0.951
      -0.912
      -0.822
      -0.707
      -0.584
      -0.459
      -0.332
      -0.203
      -0.070
       0.069
       0.215
       0.370
       0.526
       0.672
       0.793
       0.876
       0.913
       0.908
       0.870
       0.810
       0.732
       0.631
       0.498
       0.322
       0.103
      -0.151
      -0.427
      -0.710
      -0.977
      -1.206
      -1.370
      -1.445
      -1.422
      -1.302
      -1.102
      -0.849
