Origin Time       04/04/2011 11:31:40 UTC
Lat.              29.6 N	
Long.             80.8 E	
Depth (Km)         10.0
Magnitude         5.7
 Region           NEPAL-INDIA-BORDER-REGION                                        
 Above details taken from IMD 
    
Station Code      TAN
Station Lat.       29.074  N
Station Long.      80.112  E
Station Height(m)  265.0
Site Class        C   Vs30 between 200 m/sec to 375 m/sec *  
Record Time       04.04.2011 11:31:48.584 UTC
Sampling Rate     200. Hz
 Record Duration   86.670 Sec.
 Direction         N-S (N positive)
Max. Acceleration     11.191 cm/sec**2
     
  * For reference see Site Classification link of website 
     
 Base Line Corrected and Low Pass Filtered (Cut Off at 35 Hz) Time History
 Acceleration data in cm/sec**2
    
[...]
      -0.077
       0.140
       0.218
       0.167
       0.023
      -0.166
      -0.361
      -0.549
      -0.740
      -0.953
      -1.192
      -1.430
      -1.620
      -1.724
      -1.738
      -1.701
      -1.661
      -1.648
      -1.650
      -1.633
      -1.562
      -1.417
      -1.201
      -0.934
      -0.655
      -0.411
      -0.241
      -0.153
      -0.127
      -0.132
      -0.150
      -0.178
      -0.221
      -0.285
      -0.373
      -0.482
      -0.597
      -0.689
      -0.723
      -0.679
      -0.566
      -0.425
      -0.302
      -0.229
      -0.212
      -0.231
      -0.246
      -0.210
      -0.078
       0.165
       0.494
       0.847
       1.154
       1.367
       1.466
       1.432
       1.233
       0.834
       0.238
      -0.496
      -1.268
      -1.993
      -2.630
      -3.177
      -3.626
      -3.941
      -4.066
      -3.961
      -3.618
      -3.067
      -2.354
      -1.536
      -0.671
       0.179
       0.951
       1.591
       2.056
       2.334
       2.447
       2.444
       2.370
       2.231
       1.978
       1.545
       0.895
       0.055
      -0.890
      -1.836
      -2.688
      -3.381
      -3.886
      -4.202
      -4.339
      -4.294
      -4.040
      -3.539
      -2.774
      -1.765
      -0.583
       0.677
       1.907
       3.015
       3.931
       4.616
       5.059
       5.268
       5.249
       5.011
       4.574
       3.978
       3.271
       2.501
       1.717
       0.982
       0.376
      -0.029
      -0.206
      -0.195
      -0.077
       0.076
       0.238
       0.435
       0.716
       1.126
       1.681
       2.359
       3.104
       3.836
       4.459
       4.886
       5.056
       4.954
       4.602
       4.038
       3.290
       2.377
       1.325
       0.188
      -0.937
      -1.925
      -2.656
      -3.050
      -3.089
      -2.825
      -2.363
      -1.820
      -1.282
      -0.781
      -0.292
       0.235
       0.838
       1.516
       2.233
       2.918
       3.488
       3.858
       3.958
       3.751
       3.253
       2.531
       1.685
       0.809
      -0.032
      -0.809
      -1.510
      -2.122
      -2.617
      -2.959
      -3.112
      -3.058
      -2.796
      -2.348
      -1.756
      -1.065
      -0.315
       0.463
       1.242
       1.987
       2.660
       3.227
       3.673
       3.993
       4.179
       4.220
       4.108
       3.850
       3.453
       2.917
       2.226
       1.365
       0.344
      -0.801
      -2.018
      -3.251
      -4.447
      -5.553
      -6.516
      -7.277
      -7.778
      -7.963
      -7.810
      -7.344
      -6.641
      -5.815
      -4.978
      -4.213
      -3.569
      -3.069
      -2.718
      -2.505
      -2.393
      -2.319
      -2.207
      -1.989
      -1.618
      -1.084
      -0.400
       0.403
       1.293
       2.239
       3.208
       4.158
       5.029
       5.743
       6.229
       6.442
       6.372
       6.037
       5.476
       4.753
       3.963
       3.219
       2.604
       2.132
       1.741
       1.325
       0.785
       0.067
      -0.817
      -1.792
      -2.743
      -3.539
      -4.065
      -4.245
      -4.050
      -3.495
      -2.634
      -1.552
      -0.356
       0.849
       1.975
       2.951
       3.711
       4.198
       4.384
       4.291
       3.995
       3.604
       3.225
       2.946
       2.812
       2.819
       2.909
       2.997
       3.004
       2.887
       2.645
       2.309
       1.920
       1.524
       1.167
       0.892
       0.738
       0.725
       0.850
       1.079
       1.339
       1.539
       1.593
       1.447
       1.092
       0.570
      -0.035
      -0.613
      -1.057
      -1.292
      -1.279
      -1.001
      -0.459
       0.324
       1.288
       2.323
       3.286
       4.036
       4.472
       4.547
       4.277
       3.729
       3.004
       2.215
       1.456
       0.768
       0.138
      -0.490
      -1.180
      -1.970
      -2.851
      -3.762
      -4.613
      -5.312
      -5.784
      -5.973
      -5.850
      -5.417
      -4.724
      -3.858
      -2.915
      -1.961
      -1.009
      -0.039
       0.980
       2.068
       3.216
       4.377
       5.449
       6.284
       6.719
       6.637
       6.010
       4.908
       3.472
       1.873
       0.280
      -1.172
      -2.393
      -3.342
      -4.018
      -4.455
      -4.704
      -4.806
      -4.785
      -4.644
      -4.383
      -4.023
      -3.594
      -3.114
      -2.571
      -1.935
      -1.189
      -0.367
       0.455
       1.188
       1.774
       2.190
       2.452
       2.594
       2.669
       2.737
       2.854
       3.048
       3.300
       3.547
       3.697
       3.658
       3.367
       2.799
       1.969
       0.924
      -0.262
      -1.490
      -2.644
      -3.608
      -4.292
      -4.653
      -4.717
      -4.561
      -4.285
      -3.978
      -3.685
      -3.405
      -3.097
      -2.696
      -2.145
      -1.426
      -0.581
       0.290
       1.062
       1.617
       1.866
       1.777
       1.391
       0.823
       0.232
      -0.240
      -0.525
      -0.652
      -0.723
      -0.858
      -1.142
      -1.594
      -2.174
      -2.808
      -3.419
      -3.937
      -4.276
      -4.331
      -3.989
      -3.191
      -1.975
      -0.497
       1.011
       2.306
       3.204
       3.610
       3.520
       3.003
       2.170
       1.154
       0.080
      -0.965
      -1.945
      -2.875
      -3.796
      -4.733
      -5.670
      -6.538
      -7.232
      -7.646
      -7.717
      -7.430
      -6.806
      -5.870
      -4.649
      -3.180
      -1.533
       0.187
       1.860
       3.376
       4.659
       5.683
       6.450
       6.970
       7.226
       7.160
       6.694
       5.773
       4.406
       2.680
       0.747
      -1.203
      -2.972
      -4.397
      -5.388
      -5.941
      -6.105
      -5.944
      -5.508
      -4.845
      -4.020
      -3.119
      -2.226
      -1.401
      -0.671
      -0.056
       0.420
       0.723
       0.826
       0.721
       0.422
      -0.048
      -0.660
      -1.384
      -2.185
      -3.011
      -3.781
      -4.399
      -4.776
      -4.857
      -4.623
      -4.089
      -3.306
      -2.348
      -1.292
      -0.193
       0.923
       2.057
       3.218
       4.397
       5.553
       6.597
       7.402
       7.828
       7.755
       7.120
       5.948
       4.354
       2.525
       0.671
      -1.031
      -2.467
      -3.594
      -4.424
      -4.995
      -5.349
      -5.512
      -5.514
      -5.394
      -5.193
      -4.915
      -4.504
      -3.869
      -2.953
      -1.782
      -0.463
       0.869
       2.102
       3.151
       3.930
       4.329
       4.250
       3.671
       2.696
       1.539
       0.460
      -0.308
      -0.625
      -0.473
       0.050
       0.749
       1.384
       1.734
       1.661
       1.156
       0.329
      -0.625
      -1.487
      -2.068
      -2.245
      -1.991
      -1.384
      -0.577
       0.251
       0.960
       1.480
       1.809
       1.969
       1.986
       1.895
       1.749
       1.621
       1.571
       1.616
       1.721
       1.809
       1.781
       1.542
       1.033
       0.258
      -0.703
      -1.726
      -2.677
      -3.444
      -3.952
      -4.158
      -4.060
      -3.696
      -3.121
      -2.377
      -1.475
      -0.404
       0.842
       2.234
       3.690
       5.084
       6.274
       7.137
       7.601
       7.659
       7.360
       6.767
       5.929
       4.883
       3.678
       2.392
       1.127
      -0.011
      -0.954
      -1.698
      -2.318
      -2.922
      -3.594
      -4.337
      -5.070
      -5.679
      -6.069
      -6.180
      -5.978
      -5.443
      -4.585
      -3.456
      -2.158
      -0.822
       0.431
       1.506
       2.345
       2.933
       3.309
       3.556
       3.770
       3.999
       4.219
       4.354
       4.334
       4.141
       3.805
       3.377
       2.880
       2.297
       1.599
       0.792
      -0.043
      -0.776
      -1.278
      -1.487
      -1.420
      -1.150
      -0.758
      -0.306
       0.181
       0.701
       1.262
       1.859
       2.452
       2.963
       3.303
       3.406
       3.259
       2.899
       2.396
       1.827
       1.252
       0.702
       0.179
      -0.321
      -0.780
      -1.144
      -1.335
      -1.279
      -0.941
      -0.341
       0.454
       1.341
       2.209
       2.965
       3.542
       3.907
       4.055
       4.010
       3.817
       3.536
       3.217
       2.896
       2.585
       2.274
       1.912
       1.400
       0.628
      -0.465
      -1.835
      -3.326
      -4.720
      -5.811
      -6.449
      -6.564
      -6.149
      -5.247
      -3.935
      -2.326
      -0.576
       1.132
       2.632
       3.822
       4.704
       5.368
       5.933
       6.480
       7.018
       7.491
       7.804
       7.850
       7.534
       6.812
       5.717
       4.368
       2.939
       1.597
       0.453
      -0.441
      -1.067
      -1.429
      -1.555
      -1.517
      -1.413
      -1.324
      -1.271
      -1.204
      -1.036
      -0.688
      -0.139
       0.554
       1.283
       1.931
       2.411
       2.681
       2.725
       2.542
       2.153
       1.610
       1.001
       0.422
      -0.054
      -0.407
      -0.658
      -0.835
      -0.948
      -0.980
      -0.901
      -0.689
      -0.337
       0.138
       0.695
       1.271
       1.783
       2.141
       2.260
       2.090
       1.640
       0.996
       0.295
      -0.327
      -0.790
      -1.089
      -1.285
      -1.466
      -1.719
      -2.106
      -2.647
      -3.317
      -4.045
      -4.729
      -5.258
      -5.533
      -5.476
      -5.045
      -4.260
      -3.212
      -2.068
      -1.013
      -0.183
       0.389
       0.765
       1.061
       1.382
       1.794
       2.305
       2.863
       3.367
       3.702
       3.782
       3.584
       3.150
       2.555
       1.873
       1.170
       0.502
      -0.083
      -0.545
      -0.860
      -1.022
      -1.046
      -0.971
      -0.855
      -0.756
      -0.712
      -0.730
      -0.799
      -0.902
      -1.027
      -1.169
      -1.325
      -1.503
      -1.728
      -2.039
      -2.469
      -3.034
      -3.720
      -4.484
      -5.273
      -6.036
      -6.727
      -7.300
      -7.708
      -7.896
      -7.812
      -7.428
      -6.756
      -5.859
      -4.833
      -3.783
      -2.805
      -1.956
      -1.245
      -0.631
      -0.045
       0.563
       1.185
       1.739
       2.100
       2.150
       1.834
       1.174
       0.258
      -0.792
      -1.858
      -2.846
      -3.712
      -4.477
      -5.208
      -5.973
      -6.789
      -7.581
      -8.198
      -8.464
      -8.252
      -7.525
      -6.351
      -4.885
      -3.334
      -1.901
      -0.733
       0.138
       0.783
       1.326
       1.879
       2.494
       3.169
       3.859
       4.494
       4.984
       5.238
       5.202
       4.886
       4.365
       3.759
       3.195
       2.782
       2.588
       2.635
       2.884
       3.233
       3.539
       3.641
       3.403
       2.748
       1.692
       0.361
      -1.034
      -2.259
      -3.142
      -3.636
      -3.827
      -3.876
      -3.936
      -4.081
      -4.278
      -4.393
      -4.248
      -3.678
      -2.598
      -1.049
       0.797
       2.688
       4.369
       5.653
       6.454
       6.773
       6.661
       6.201
       5.492
       4.655
       3.832
       3.151
       2.693
       2.463
       2.405
       2.437
       2.488
       2.505
       2.440
       2.241
       1.859
       1.266
       0.474
      -0.462
      -1.447
      -2.377
      -3.168
      -3.788
      -4.257
      -4.620
      -4.909
      -5.121
      -5.238
      -5.236
      -5.091
      -4.771
      -4.242
      -3.491
      -2.548
      -1.480
      -0.355
       0.784
       1.926
       3.064
       4.176
       5.225
       6.172
       6.979
       7.600
       7.980
       8.066
       7.822
       7.244
       6.355
       5.194
       3.813
       2.285
       0.710
      -0.805
      -2.176
      -3.351
      -4.306
      -5.034
      -5.531
      -5.812
      -5.912
      -5.881
      -5.746
      -5.485
      -5.025
      -4.283
      -3.240
      -1.981
      -0.693
       0.404
       1.150
       1.509
       1.569
       1.489
       1.428
       1.499
       1.755
       2.190
       2.739
       3.293
       3.735
       3.980
       4.017
       3.905
       3.740
       3.601
       3.503
       3.387
       3.148
       2.685
       1.946
       0.951
      -0.216
      -1.439
      -2.621
      -3.714
      -4.717
      -5.635
      -6.433
      -7.014
      -7.250
      -7.036
      -6.346
      -5.251
      -3.893
      -2.431
      -0.980
       0.411
       1.751
       3.055
       4.312
       5.464
       6.426
       7.109
       7.441
       7.380
       6.935
       6.170
       5.186
       4.091
       2.966
       1.858
       0.774
      -0.294
      -1.345
      -2.352
      -3.267
      -4.046
      -4.670
      -5.153
      -5.511
      -5.737
      -5.781
      -5.582
      -5.105
      -4.370
      -3.441
      -2.395
      -1.284
      -0.121
       1.118
       2.475
       3.976
       5.593
       7.237
       8.764
      10.013
      10.850
      11.191
      11.011
      10.331
       9.201
       7.689
       5.865
       3.800
       1.577
      -0.691
      -2.859
      -4.774
      -6.310
      -7.398
      -8.039
      -8.284
      -8.216
      -7.921
      -7.463
      -6.871
      -6.131
      -5.204
      -4.061
      -2.727
      -1.290
       0.120
       1.378
       2.394
       3.123
       3.564
       3.746
       3.724
       3.574
       3.373
       3.176
       3.005
       2.853
       2.700
       2.528
       2.325
       2.092
       1.845
       1.633
       1.532
       1.632
       1.998
       2.632
       3.450
       4.303
       5.028
       5.495
       5.634
       5.418
       4.853
       3.978
       2.865
       1.619
       0.349
      -0.853
      -1.927
      -2.836
      -3.553
      -4.069
      -4.387
      -4.528
      -4.523
      -4.396
      -4.159
      -3.809
      -3.330
      -2.714
      -1.977
      -1.171
      -0.380
       0.308
       0.829
       1.161
       1.333
       1.409
       1.474
       1.600
       1.811
       2.057
       2.231
       2.205
       1.888
       1.258
       0.363
      -0.696
      -1.796
      -2.811
      -3.632
      -4.187
      -4.460
      -4.500
      -4.405
      -4.279
      -4.188
      -4.138
      -4.086
      -3.959
      -3.668
      -3.122
      -2.252
      -1.054
       0.387
       1.919
       3.371
       4.614
       5.590
       6.305
       6.801
       7.129
       7.324
       7.392
       7.293
       6.943
       6.250
       5.146
       3.619
       1.701
      -0.528
      -2.945
      -5.368
      -7.564
      -9.287
     -10.354
     -10.713
     -10.456
      -9.769
      -8.854
      -7.850
      -6.804
      -5.694
      -4.473
      -3.122
      -1.677
      -0.234
       1.083
       2.160
       2.921
       3.345
       3.454
       3.306
       2.976
       2.535
       2.042
       1.546
       1.098
       0.765
       0.617
       0.701
       1.000
       1.415
       1.780
       1.919
       1.725
       1.212
       0.509
      -0.205
      -0.782
      -1.158
      -1.350
      -1.422
      -1.450
      -1.503
      -1.636
      -1.884
      -2.243
      -2.666
      -3.068
      -3.340
      -3.373
      -3.087
      -2.461
      -1.561
      -0.526
       0.479
       1.312
       1.885
       2.163
       2.156
       1.904
       1.479
       0.984
       0.536
       0.229
       0.102
       0.131
       0.247
       0.373
       0.441
       0.407
       0.256
       0.008
      -0.278
      -0.513
      -0.622
      -0.567
      -0.378
      -0.133
       0.067
       0.126
      -0.019
      -0.379
      -0.907
      -1.496
      -2.006
      -2.292
      -2.236
      -1.780
      -0.932
       0.227
       1.568
       2.939
       4.185
       5.165
       5.777
       5.971
       5.766
       5.241
       4.507
       3.678
       2.838
       2.028
       1.250
       0.477
      -0.326
      -1.175
      -2.057
      -2.922
      -3.709
      -4.358
      -4.815
      -5.030
      -4.957
      -4.568
      -3.869
      -2.912
      -1.797
      -0.652
       0.384
       1.192
       1.700
       1.889
       1.794
       1.482
       1.041
       0.568
       0.151
      -0.165
      -0.403
      -0.655
      -1.030
      -1.585
      -2.268
      -2.931
      -3.381
      -3.459
      -3.090
      -2.312
      -1.260
      -0.137
       0.843
       1.508
       1.768
       1.625
       1.155
       0.489
      -0.218
      -0.823
      -1.223
      -1.389
      -1.361
      -1.219
      -1.042
      -0.873
      -0.720
      -0.569
      -0.401
      -0.203
       0.037
       0.336
       0.719
       1.210
       1.808
       2.459
       3.057
       3.472
       3.605
       3.424
       2.968
       2.317
       1.557
       0.767
       0.008
      -0.678
      -1.278
      -1.792
      -2.223
      -2.547
      -2.721
      -2.698
      -2.458
      -2.030
      -1.488
      -0.937
      -0.479
      -0.193
      -0.111
      -0.215
      -0.445
      -0.723
      -0.981
      -1.164
      -1.238
      -1.201
      -1.092
      -0.994
      -0.995
      -1.134
      -1.369
      -1.589
      -1.670
      -1.539
      -1.205
      -0.753
      -0.299
       0.041
       0.190
       0.137
      -0.054
      -0.251
      -0.307
      -0.111
       0.356
       1.019
       1.742
       2.381
       2.829
       3.027
       2.963
       2.673
       2.232
       1.739
       1.283
       0.915
       0.633
       0.400
       0.163
      -0.116
      -0.454
      -0.848
      -1.269
      -1.671
      -2.001
      -2.219
      -2.303
      -2.250
      -2.067
      -1.769
      -1.383
      -0.941
      -0.479
      -0.012
       0.463
       0.960
       1.474
       1.969
       2.381
       2.650
       2.735
       2.636
       2.380
       2.012
       1.582
       1.144
       0.753
       0.452
       0.259
       0.159
       0.122
       0.117
       0.119
       0.104
       0.044
      -0.094
      -0.338
      -0.699
      -1.156
      -1.656
      -2.124
      -2.477
      -2.650
      -2.607
      -2.349
      -1.912
      -1.352
      -0.733
      -0.113
       0.468
       0.989
       1.443
       1.832
       2.163
       2.446
       2.688
       2.886
       3.032
       3.121
       3.164
       3.184
       3.194
       3.188
       3.126
       2.940
       2.563
       1.961
       1.162
       0.259
      -0.626
      -1.375
      -1.902
      -2.158
      -2.135
      -1.872
      -1.450
      -0.965
      -0.495
      -0.076
       0.286
       0.591
       0.840
       1.034
       1.183
       1.299
       1.388
       1.456
       1.512
       1.571
       1.640
       1.712
       1.761
       1.764
       1.706
