Origin Time       1/5/2013 06:57:12	 
Lat.              33.1 N	
Long.             75.8 E	
Depth (Km)         15.0
Magnitude         5.8
 Region           JK-HP-Border                                                     
 Above details taken from IMD 
     
Station Code      TAR
Station Lat.       31.447  N
Station Long.      74.931  E
Station Height(m)  237.0
Site Class        C   Vs30 between 200 m/sec to 375 m/sec *  
Record Time       01.05.2013 06:57:32.999
Sampling Rate     200. Hz
 Record Duration  101.165 Sec.
 Direction         E-W (E positive)
Max. Acceleration     12.133 cm/sec**2
     
  * For reference see Site Classification link of website 
     
 Base Line Corrected and Low Pass Filtered (Cut Off at 35 Hz) Time History
 Acceleration data in cm/sec**2
    
[...]
      -0.471
      -0.351
      -0.243
      -0.168
      -0.128
      -0.113
      -0.110
      -0.107
      -0.100
      -0.083
      -0.047
       0.018
       0.117
       0.252
       0.410
       0.566
       0.690
       0.766
       0.800
       0.815
       0.825
       0.828
       0.807
       0.744
       0.630
       0.464
       0.257
       0.032
      -0.178
      -0.337
      -0.421
      -0.428
      -0.380
      -0.310
      -0.258
      -0.245
      -0.273
      -0.313
      -0.325
      -0.278
      -0.174
      -0.046
       0.061
       0.111
       0.104
       0.063
       0.026
       0.012
       0.013
       0.007
      -0.028
      -0.089
      -0.152
      -0.185
      -0.170
      -0.108
      -0.011
       0.107
       0.240
       0.379
       0.505
       0.591
       0.611
       0.561
       0.447
       0.283
       0.085
      -0.135
      -0.358
      -0.564
      -0.724
      -0.821
      -0.851
      -0.834
      -0.795
      -0.749
      -0.700
      -0.637
      -0.552
      -0.450
      -0.354
      -0.292
      -0.282
      -0.310
      -0.330
      -0.287
      -0.148
       0.082
       0.366
       0.652
       0.901
       1.092
       1.223
       1.298
       1.317
       1.284
       1.205
       1.091
       0.944
       0.764
       0.543
       0.284
      -0.002
      -0.295
      -0.572
      -0.820
      -1.032
      -1.213
      -1.364
      -1.480
      -1.552
      -1.577
      -1.552
      -1.477
      -1.354
      -1.189
      -1.004
      -0.822
      -0.656
      -0.497
      -0.328
      -0.141
       0.057
       0.249
       0.419
       0.558
       0.665
       0.747
       0.816
       0.877
       0.927
       0.960
       0.979
       0.992
       1.007
       1.023
       1.031
       1.025
       1.006
       0.978
       0.946
       0.908
       0.854
       0.765
       0.624
       0.423
       0.168
      -0.120
      -0.417
      -0.693
      -0.924
      -1.098
      -1.213
      -1.274
      -1.283
      -1.243
      -1.161
      -1.051
      -0.930
      -0.804
      -0.676
      -0.540
      -0.391
      -0.225
      -0.041
       0.158
       0.359
       0.549
       0.719
       0.868
       1.000
       1.111
       1.190
       1.219
       1.192
       1.117
       1.008
       0.871
       0.693
       0.457
       0.163
      -0.155
      -0.451
      -0.680
      -0.826
      -0.904
      -0.940
      -0.949
      -0.928
      -0.858
      -0.728
      -0.547
      -0.341
      -0.131
       0.080
       0.299
       0.522
       0.723
       0.861
       0.908
       0.868
       0.771
       0.650
       0.515
       0.356
       0.159
      -0.063
      -0.277
      -0.450
      -0.569
      -0.642
      -0.681
      -0.691
      -0.665
      -0.593
      -0.475
      -0.329
      -0.185
      -0.065
       0.030
       0.116
       0.218
       0.349
       0.509
       0.683
       0.844
       0.961
       1.008
       0.966
       0.832
       0.623
       0.370
       0.117
      -0.094
      -0.246
      -0.350
      -0.434
      -0.525
      -0.627
      -0.727
      -0.800
      -0.830
      -0.821
      -0.786
      -0.735
      -0.662
      -0.549
      -0.387
      -0.189
       0.020
       0.225
       0.431
       0.643
       0.852
       1.021
       1.109
       1.089
       0.962
       0.756
       0.505
       0.234
      -0.049
      -0.341
      -0.627
      -0.881
      -1.078
      -1.199
      -1.234
      -1.187
      -1.065
      -0.880
      -0.646
      -0.380
      -0.104
       0.163
       0.409
       0.627
       0.811
       0.953
       1.052
       1.117
       1.157
       1.180
       1.179
       1.149
       1.079
       0.959
       0.779
       0.528
       0.212
      -0.148
      -0.514
      -0.849
      -1.123
      -1.321
      -1.444
      -1.504
      -1.520
      -1.509
      -1.477
      -1.420
      -1.324
      -1.177
      -0.975
      -0.733
      -0.470
      -0.201
       0.071
       0.343
       0.613
       0.882
       1.157
       1.440
       1.716
       1.944
       2.078
       2.084
       1.961
       1.741
       1.476
       1.212
       0.972
       0.745
       0.510
       0.262
       0.020
      -0.184
      -0.340
      -0.471
      -0.610
      -0.777
      -0.956
      -1.112
      -1.212
      -1.249
      -1.242
      -1.213
      -1.170
      -1.102
      -0.986
      -0.807
      -0.565
      -0.274
       0.044
       0.358
       0.631
       0.832
       0.941
       0.965
       0.942
       0.920
       0.941
       1.013
       1.106
       1.164
       1.138
       1.006
       0.776
       0.470
       0.108
      -0.298
      -0.727
      -1.144
      -1.496
      -1.734
      -1.838
      -1.824
      -1.744
      -1.648
      -1.565
      -1.489
      -1.390
      -1.228
      -0.977
      -0.630
      -0.207
       0.250
       0.698
       1.102
       1.438
       1.694
       1.857
       1.921
       1.891
       1.791
       1.655
       1.520
       1.408
       1.316
       1.215
       1.072
       0.863
       0.596
       0.294
      -0.012
      -0.302
      -0.568
      -0.805
      -1.009
      -1.171
      -1.275
      -1.299
      -1.231
      -1.077
      -0.864
      -0.627
      -0.394
      -0.172
       0.036
       0.224
       0.370
       0.444
       0.433
       0.349
       0.224
       0.100
       0.011
      -0.021
       0.011
       0.092
       0.185
       0.242
       0.226
       0.127
      -0.030
      -0.202
      -0.348
      -0.451
      -0.515
      -0.556
      -0.585
      -0.607
      -0.628
      -0.657
      -0.690
      -0.701
      -0.648
      -0.499
      -0.266
       0.005
       0.252
       0.431
       0.526
       0.535
       0.470
       0.349
       0.207
       0.093
       0.041
       0.048
       0.076
       0.077
       0.027
      -0.061
      -0.148
      -0.198
      -0.200
      -0.170
      -0.137
      -0.129
      -0.165
      -0.254
      -0.402
      -0.594
      -0.790
      -0.935
      -0.995
      -0.970
      -0.894
      -0.802
      -0.717
      -0.644
      -0.593
      -0.577
      -0.611
      -0.700
      -0.834
      -0.974
      -1.062
      -1.045
      -0.897
      -0.639
      -0.325
      -0.020
       0.227
       0.387
       0.460
       0.475
       0.479
       0.517
       0.612
       0.744
       0.861
       0.913
       0.878
       0.775
       0.640
       0.502
       0.359
       0.197
      -0.005
      -0.249
      -0.519
      -0.787
      -1.026
      -1.212
      -1.328
      -1.364
      -1.316
      -1.188
      -0.988
      -0.730
      -0.437
      -0.139
       0.135
       0.371
       0.574
       0.765
       0.957
       1.150
       1.323
       1.446
       1.493
       1.451
       1.334
       1.173
       1.013
       0.897
       0.849
       0.869
       0.931
       0.991
       1.010
       0.969
       0.881
       0.788
       0.740
       0.777
       0.903
       1.095
       1.311
       1.523
       1.712
       1.865
       1.960
       1.977
       1.906
       1.761
       1.574
       1.376
       1.184
       0.993
       0.787
       0.556
       0.304
       0.049
      -0.190
      -0.393
      -0.540
      -0.611
      -0.595
      -0.502
      -0.355
      -0.178
       0.007
       0.189
       0.357
       0.500
       0.613
       0.702
       0.782
       0.873
       0.979
       1.081
       1.138
       1.105
       0.956
       0.700
       0.384
       0.062
      -0.224
      -0.458
      -0.640
      -0.783
      -0.901
      -1.002
      -1.092
      -1.164
      -1.210
      -1.225
      -1.213
      -1.181
      -1.124
      -1.027
      -0.867
      -0.637
      -0.356
      -0.054
       0.242
       0.520
       0.783
       1.039
       1.283
       1.489
       1.616
       1.619
       1.471
       1.173
       0.755
       0.260
      -0.265
      -0.775
      -1.241
      -1.657
      -2.037
      -2.399
      -2.736
      -3.019
      -3.210
      -3.287
      -3.257
      -3.140
      -2.957
      -2.708
      -2.388
      -1.999
      -1.561
      -1.113
      -0.697
      -0.339
      -0.051
       0.172
       0.340
       0.460
       0.538
       0.573
       0.561
       0.484
       0.327
       0.096
      -0.177
      -0.440
      -0.651
      -0.798
      -0.906
      -1.006
      -1.113
      -1.206
      -1.247
      -1.204
      -1.064
      -0.834
      -0.526
      -0.147
       0.299
       0.802
       1.337
       1.869
       2.365
       2.806
       3.181
       3.475
       3.671
       3.752
       3.712
       3.554
       3.290
       2.929
       2.483
       1.956
       1.361
       0.719
       0.073
      -0.512
      -0.974
      -1.267
      -1.385
      -1.369
      -1.286
      -1.196
      -1.123
      -1.049
      -0.935
      -0.758
      -0.528
      -0.280
      -0.054
       0.130
       0.280
       0.413
       0.534
       0.632
       0.683
       0.674
       0.613
       0.519
       0.405
       0.265
       0.090
      -0.111
      -0.310
      -0.477
      -0.600
      -0.680
      -0.714
      -0.689
      -0.596
      -0.441
      -0.257
      -0.087
       0.034
       0.092
       0.097
       0.076
       0.054
       0.050
       0.080
       0.161
       0.309
       0.528
       0.792
       1.052
       1.260
       1.395
       1.477
       1.549
       1.652
       1.792
       1.938
       2.041
       2.069
       2.032
       1.972
       1.918
       1.858
       1.743
       1.535
       1.238
       0.902
       0.577
       0.275
      -0.039
      -0.417
      -0.884
      -1.412
      -1.942
      -2.424
      -2.840
      -3.211
      -3.557
      -3.884
      -4.181
      -4.434
      -4.635
      -4.770
      -4.815
      -4.746
      -4.554
      -4.255
      -3.880
      -3.462
      -3.018
      -2.549
      -2.056
      -1.538
      -0.999
      -0.437
       0.148
       0.753
       1.360
       1.940
       2.460
       2.897
       3.235
       3.463
       3.571
       3.557
       3.431
       3.211
       2.903
       2.506
       2.013
       1.436
       0.815
       0.203
      -0.353
      -0.828
      -1.217
      -1.514
      -1.712
      -1.800
      -1.784
      -1.693
      -1.564
      -1.419
      -1.248
      -1.016
      -0.686
      -0.254
       0.250
       0.778
       1.285
       1.745
       2.149
       2.490
       2.754
       2.908
       2.908
       2.709
       2.291
       1.671
       0.899
       0.039
      -0.855
      -1.749
      -2.630
      -3.485
      -4.292
      -5.008
      -5.586
      -5.987
      -6.193
      -6.198
      -6.004
      -5.620
      -5.066
      -4.377
      -3.591
      -2.742
      -1.850
      -0.930
      -0.008
       0.876
       1.676
       2.372
       2.971
       3.489
       3.922
       4.231
       4.357
       4.255
       3.911
       3.344
       2.585
       1.677
       0.671
      -0.371
      -1.391
      -2.341
      -3.189
      -3.911
      -4.477
      -4.854
      -5.015
      -4.948
      -4.665
      -4.184
      -3.518
      -2.672
      -1.656
      -0.502
       0.714
       1.883
       2.882
       3.609
       4.013
       4.100
       3.921
       3.540
       3.024
       2.420
       1.760
       1.061
       0.337
      -0.393
      -1.102
      -1.759
      -2.338
      -2.807
      -3.138
      -3.308
      -3.312
      -3.156
      -2.840
      -2.355
      -1.693
      -0.867
       0.094
       1.152
       2.273
       3.416
       4.518
       5.496
       6.266
       6.773
       7.007
       6.999
       6.804
       6.468
       6.006
       5.412
       4.680
       3.826
       2.894
       1.936
       0.993
       0.100
      -0.717
      -1.424
      -1.979
      -2.337
      -2.460
      -2.330
      -1.968
      -1.423
      -0.754
      -0.010
       0.786
       1.612
       2.442
       3.231
       3.932
       4.499
       4.893
       5.071
       4.999
       4.670
       4.112
       3.388
       2.575
       1.747
       0.959
       0.238
      -0.414
      -1.007
      -1.549
      -2.029
      -2.425
      -2.708
      -2.846
      -2.815
      -2.605
      -2.239
      -1.770
      -1.274
      -0.824
      -0.462
      -0.200
      -0.026
       0.069
       0.082
      -0.010
      -0.231
      -0.594
      -1.088
      -1.687
      -2.357
      -3.054
      -3.725
      -4.301
      -4.714
      -4.909
      -4.854
      -4.546
      -4.004
      -3.266
      -2.382
      -1.399
      -0.361
       0.684
       1.683
       2.585
       3.346
       3.929
       4.303
       4.434
       4.285
       3.828
       3.047
       1.956
       0.604
      -0.930
      -2.548
      -4.150
      -5.638
      -6.917
      -7.895
      -8.495
      -8.670
      -8.416
      -7.761
      -6.756
      -5.450
      -3.900
      -2.181
      -0.390
       1.374
       3.039
       4.565
       5.922
       7.061
       7.911
       8.401
       8.478
       8.126
       7.360
       6.229
       4.805
       3.175
       1.423
      -0.380
      -2.165
      -3.858
      -5.378
      -6.657
      -7.665
      -8.405
      -8.879
      -9.054
      -8.845
      -8.156
      -6.944
      -5.260
      -3.234
      -1.022
       1.246
       3.477
       5.595
       7.518
       9.163
      10.463
      11.392
      11.948
      12.133
      11.936
      11.343
      10.361
       9.034
       7.427
       5.615
       3.662
       1.638
      -0.373
      -2.259
      -3.905
      -5.234
      -6.228
      -6.911
      -7.310
      -7.423
      -7.226
      -6.703
      -5.873
      -4.793
      -3.540
      -2.192
      -0.817
       0.524
       1.762
       2.824
       3.649
       4.213
       4.523
       4.607
       4.493
       4.190
       3.695
       3.003
       2.128
       1.118
       0.054
      -0.978
      -1.913
      -2.721
      -3.395
      -3.928
      -4.308
      -4.532
      -4.617
      -4.595
      -4.500
      -4.357
      -4.182
      -3.977
      -3.735
      -3.456
      -3.161
      -2.895
      -2.712
      -2.654
      -2.733
      -2.936
      -3.226
      -3.541
      -3.791
      -3.876
      -3.721
      -3.299
      -2.645
      -1.832
      -0.935
       0.001
       0.974
       2.016
       3.158
       4.394
       5.655
       6.829
       7.799
       8.473
       8.795
       8.737
       8.301
       7.533
       6.522
       5.379
       4.204
       3.062
       1.979
       0.962
       0.014
      -0.853
      -1.628
      -2.308
      -2.899
      -3.407
      -3.838
      -4.193
      -4.479
      -4.715
      -4.935
      -5.177
      -5.461
      -5.779
      -6.099
      -6.380
      -6.577
      -6.649
      -6.553
      -6.260
      -5.769
      -5.099
      -4.277
      -3.323
      -2.261
      -1.124
       0.036
       1.162
       2.203
       3.120
       3.875
       4.424
       4.726
       4.772
       4.602
       4.283
       3.878
       3.422
       2.910
       2.324
       1.654
       0.932
       0.226
      -0.387
      -0.856
      -1.180
      -1.394
      -1.537
      -1.618
      -1.596
      -1.403
      -0.984
      -0.352
       0.415
       1.224
       2.021
       2.809
       3.610
       4.421
       5.197
       5.871
       6.379
       6.699
       6.850
       6.878
       6.829
       6.727
       6.581
       6.406
       6.228
       6.061
       5.892
       5.685
       5.402
       5.034
       4.591
       4.075
       3.450
       2.652
       1.625
       0.353
      -1.119
      -2.690
      -4.234
      -5.639
      -6.837
      -7.800
      -8.513
      -8.951
      -9.089
      -8.928
      -8.507
      -7.873
      -7.051
      -6.047
      -4.880
      -3.605
      -2.298
      -1.026
       0.174
       1.284
       2.291
       3.181
       3.942
       4.564
       5.035
       5.345
       5.488
       5.475
       5.324
       5.049
       4.648
       4.102
       3.382
       2.466
       1.355
       0.078
      -1.300
      -2.690
      -4.000
      -5.157
      -6.113
      -6.828
      -7.272
      -7.423
      -7.276
      -6.836
      -6.116
      -5.122
      -3.864
      -2.367
      -0.684
       1.108
       2.918
       4.661
       6.262
       7.655
       8.790
       9.629
      10.150
      10.353
      10.263
       9.921
       9.365
       8.615
       7.675
       6.553
       5.269
       3.848
       2.296
       0.611
      -1.184
      -3.004
      -4.718
      -6.210
      -7.420
      -8.349
      -9.020
      -9.437
      -9.588
      -9.474
      -9.141
      -8.660
      -8.084
      -7.418
      -6.638
      -5.741
      -4.759
      -3.749
      -2.760
      -1.840
      -1.051
      -0.482
      -0.221
      -0.312
      -0.708
      -1.280
      -1.860
      -2.316
      -2.572
      -2.607
      -2.417
      -1.997
      -1.341
      -0.466
       0.586
       1.744
       2.923
       4.035
       5.006
       5.785
       6.347
       6.684
       6.801
       6.708
       6.417
       5.941
       5.300
       4.515
       3.615
       2.636
       1.629
       0.662
      -0.196
      -0.895
      -1.418
      -1.771
      -1.981
      -2.082
      -2.126
      -2.170
      -2.269
      -2.457
      -2.728
      -3.053
      -3.389
      -3.701
      -3.972
      -4.191
      -4.340
      -4.377
      -4.247
      -3.899
      -3.305
      -2.474
      -1.453
      -0.309
       0.877
       2.027
       3.068
       3.947
       4.638
       5.149
       5.517
       5.776
       5.934
       5.964
       5.827
       5.500
       4.980
       4.256
       3.311
       2.136
       0.767
      -0.701
      -2.143
      -3.439
      -4.505
      -5.303
      -5.832
      -6.117
      -6.188
      -6.071
      -5.785
      -5.336
      -4.706
      -3.857
      -2.743
      -1.357
       0.246
       1.954
       3.631
       5.158
       6.454
       7.486
       8.253
       8.765
       9.026
       9.019
       8.720
       8.113
       7.198
       5.988
       4.509
       2.810
       0.976
      -0.872
      -2.604
      -4.127
      -5.414
      -6.495
      -7.422
      -8.214
      -8.841
      -9.226
      -9.279
      -8.931
      -8.148
      -6.958
      -5.448
      -3.763
      -2.072
      -0.533
       0.737
       1.685
       2.325
       2.726
       2.985
       3.182
       3.344
       3.448
       3.447
       3.311
       3.044
       2.698
       2.364
       2.136
       2.056
       2.093
       2.154
       2.146
       1.997
       1.670
       1.146
       0.432
      -0.423
      -1.328
      -2.182
      -2.898
      -3.419
      -3.717
      -3.784
      -3.645
      -3.356
      -2.989
      -2.597
      -2.192
      -1.735
      -1.168
      -0.447
       0.419
       1.365
       2.306
       3.168
       3.903
       4.483
       4.893
       5.120
       5.166
       5.035
       4.729
       4.235
       3.540
       2.643
       1.575
       0.405
      -0.784
      -1.911
      -2.907
      -3.712
      -4.292
      -4.656
      -4.865
      -5.000
      -5.102
      -5.137
      -5.003
