Origin Time       1/5/2013 06:57:12	 
Lat.              33.1 N	
Long.             75.8 E	
Depth (Km)         15.0
Magnitude         5.8
 Region           JK-HP-Border                                                     
 Above details taken from IMD 
   
Station Code      TAR
Station Lat.       31.447
Station Long.      74.931
Station Height(m)  237.0
Site Class        C   Vs30 between 200 m/sec to 375 m/sec *  
Record Time       01.05.2013 06:57:32.999
Sampling Rate     200. Hz
 Record Duration  101.165 Sec.
 Direction         Vert. (Up positive)
Max. Acceleration    -10.352 cm/sec**2
     
  * For reference see Site Classification link of website 
     
 Base Line Corrected and Low Pass Filtered (Cut Off at 35 Hz) Time History
 Acceleration data in cm/sec**2
    
[...]
      -0.039
      -0.061
       0.045
       0.338
       0.774
       1.203
       1.438
       1.362
       0.992
       0.472
      -0.004
      -0.308
      -0.432
      -0.458
      -0.466
      -0.480
      -0.480
      -0.466
      -0.486
      -0.606
      -0.837
      -1.091
      -1.200
      -1.022
      -0.540
       0.103
       0.693
       1.075
       1.236
       1.279
       1.329
       1.442
       1.582
       1.665
       1.634
       1.505
       1.353
       1.238
       1.142
       0.966
       0.604
       0.035
      -0.633
      -1.221
      -1.575
      -1.652
      -1.524
      -1.316
      -1.124
      -0.961
      -0.785
      -0.566
      -0.341
      -0.193
      -0.179
      -0.268
      -0.349
      -0.292
      -0.033
       0.392
       0.862
       1.238
       1.422
       1.387
       1.168
       0.849
       0.541
       0.336
       0.259
       0.248
       0.195
       0.033
      -0.221
      -0.491
      -0.712
      -0.875
      -1.023
      -1.197
      -1.384
      -1.509
      -1.478
      -1.250
      -0.877
      -0.491
      -0.228
      -0.181
      -0.369
      -0.752
      -1.244
      -1.731
      -2.086
      -2.194
      -1.986
      -1.483
      -0.804
      -0.139
       0.327
       0.488
       0.360
       0.060
      -0.244
      -0.411
      -0.372
      -0.142
       0.215
       0.625
       1.026
       1.370
       1.623
       1.775
       1.836
       1.841
       1.843
       1.888
       1.986
       2.084
       2.086
       1.901
       1.493
       0.903
       0.236
      -0.398
      -0.939
      -1.383
      -1.738
      -1.981
      -2.070
      -2.005
      -1.850
      -1.699
      -1.612
      -1.571
      -1.495
      -1.304
      -0.979
      -0.575
      -0.186
       0.113
       0.289
       0.331
       0.234
      -0.002
      -0.334
      -0.661
      -0.858
      -0.845
      -0.642
      -0.357
      -0.111
       0.021
       0.026
      -0.083
      -0.280
      -0.528
      -0.760
      -0.895
      -0.859
      -0.629
      -0.245
       0.210
       0.648
       1.001
       1.223
       1.292
       1.223
       1.084
       0.981
       0.998
       1.132
       1.283
       1.310
       1.136
       0.809
       0.470
       0.256
       0.202
       0.229
       0.229
       0.171
       0.140
       0.265
       0.603
       1.075
       1.519
       1.794
       1.842
       1.685
       1.372
       0.955
       0.494
       0.061
      -0.283
      -0.524
      -0.703
      -0.877
      -1.068
      -1.248
      -1.382
      -1.466
      -1.536
      -1.643
      -1.817
      -2.048
      -2.295
      -2.509
      -2.664
      -2.746
      -2.725
      -2.549
      -2.187
      -1.674
      -1.094
      -0.515
       0.047
       0.615
       1.194
       1.735
       2.156
       2.401
       2.485
       2.490
       2.493
       2.498
       2.424
       2.178
       1.748
       1.231
       0.766
       0.440
       0.243
       0.088
      -0.114
      -0.391
      -0.699
      -0.957
      -1.105
      -1.124
      -1.032
      -0.852
      -0.615
      -0.359
      -0.134
       0.020
       0.077
       0.030
      -0.108
      -0.300
      -0.493
      -0.635
      -0.687
      -0.620
      -0.430
      -0.145
       0.173
       0.445
       0.614
       0.662
       0.606
       0.465
       0.227
      -0.149
      -0.682
      -1.309
      -1.888
      -2.265
      -2.368
      -2.247
      -2.032
      -1.846
      -1.730
      -1.636
      -1.479
      -1.201
      -0.803
      -0.318
       0.236
       0.876
       1.621
       2.443
       3.243
       3.879
       4.236
       4.281
       4.075
       3.709
       3.249
       2.703
       2.071
       1.398
       0.784
       0.323
       0.016
      -0.249
      -0.631
      -1.233
      -2.037
      -2.904
      -3.633
      -4.051
      -4.076
      -3.725
      -3.070
      -2.182
      -1.123
       0.019
       1.110
       1.994
       2.557
       2.780
       2.746
       2.585
       2.380
       2.117
       1.708
       1.073
       0.224
      -0.730
      -1.627
      -2.327
      -2.772
      -2.979
      -2.993
      -2.838
      -2.514
      -2.041
      -1.474
      -0.887
      -0.318
       0.257
       0.914
       1.721
       2.662
       3.610
       4.377
       4.801
       4.822
       4.484
       3.887
       3.109
       2.174
       1.066
      -0.200
      -1.539
      -2.805
      -3.844
      -4.558
      -4.943
      -5.087
      -5.116
      -5.113
      -5.060
      -4.852
      -4.388
      -3.645
      -2.700
      -1.671
      -0.655
       0.324
       1.302
       2.302
       3.268
       4.052
       4.497
       4.551
       4.304
       3.931
       3.571
       3.247
       2.879
       2.376
       1.742
       1.083
       0.532
       0.132
      -0.188
      -0.539
      -0.956
      -1.351
      -1.574
      -1.534
      -1.275
      -0.946
      -0.678
      -0.484
      -0.261
       0.111
       0.649
       1.242
       1.725
       2.002
       2.101
       2.136
       2.203
       2.311
       2.386
       2.328
       2.067
       1.587
       0.924
       0.136
      -0.706
      -1.532
      -2.270
      -2.854
      -3.245
      -3.454
      -3.529
      -3.527
      -3.471
      -3.320
      -2.980
      -2.371
      -1.504
      -0.505
       0.454
       1.241
       1.812
       2.205
       2.484
       2.699
       2.843
       2.855
       2.685
       2.358
       1.976
       1.657
       1.441
       1.270
       1.033
       0.664
       0.205
      -0.217
      -0.483
      -0.561
      -0.501
      -0.370
      -0.194
       0.029
       0.298
       0.574
       0.789
       0.876
       0.827
       0.708
       0.626
       0.650
       0.767
       0.888
       0.897
       0.704
       0.276
      -0.351
      -1.092
      -1.855
      -2.562
      -3.146
      -3.539
      -3.699
      -3.623
      -3.351
      -2.941
      -2.444
      -1.896
      -1.325
      -0.766
      -0.258
       0.177
       0.574
       1.011
       1.560
       2.202
       2.803
       3.164
       3.112
       2.584
       1.645
       0.438
      -0.883
      -2.195
      -3.401
      -4.398
      -5.079
      -5.361
      -5.212
      -4.655
      -3.733
      -2.490
      -0.972
       0.734
       2.469
       4.024
       5.214
       5.952
       6.249
       6.154
       5.707
       4.940
       3.918
       2.771
       1.661
       0.723
      -0.013
      -0.623
      -1.231
      -1.918
      -2.673
      -3.419
      -4.070
      -4.585
      -4.977
      -5.283
      -5.513
      -5.609
      -5.458
      -4.948
      -4.048
      -2.862
      -1.605
      -0.512
       0.281
       0.789
       1.130
       1.424
       1.706
       1.936
       2.055
       2.043
       1.934
       1.792
       1.692
       1.692
       1.826
       2.089
       2.442
       2.820
       3.148
       3.356
       3.378
       3.169
       2.711
       2.025
       1.161
       0.175
      -0.886
      -1.984
      -3.061
      -4.020
      -4.744
      -5.132
      -5.145
      -4.827
      -4.284
      -3.631
      -2.944
      -2.241
      -1.521
      -0.806
      -0.158
       0.346
       0.674
       0.876
       1.086
       1.459
       2.098
       2.984
       3.973
       4.856
       5.455
       5.694
       5.609
       5.305
       4.879
       4.368
       3.732
       2.899
       1.839
       0.623
      -0.593
      -1.641
      -2.427
      -2.974
      -3.372
      -3.701
      -3.977
      -4.165
      -4.225
      -4.164
      -4.033
      -3.889
      -3.749
      -3.569
      -3.273
      -2.806
      -2.166
      -1.403
      -0.571
       0.311
       1.261
       2.290
       3.361
       4.382
       5.227
       5.760
       5.867
       5.487
       4.655
       3.518
       2.309
       1.250
       0.449
      -0.120
      -0.546
      -0.876
      -1.084
      -1.130
      -1.034
      -0.874
      -0.730
      -0.621
      -0.491
      -0.241
       0.211
       0.878
       1.679
       2.455
       3.024
       3.251
       3.085
       2.556
       1.742
       0.748
      -0.308
      -1.297
      -2.112
      -2.697
      -3.057
      -3.233
      -3.262
      -3.159
      -2.918
      -2.532
      -2.002
      -1.351
      -0.624
       0.105
       0.754
       1.256
       1.571
       1.680
       1.570
       1.248
       0.758
       0.201
      -0.288
      -0.600
      -0.704
      -0.654
      -0.549
      -0.468
      -0.439
      -0.450
      -0.480
      -0.536
      -0.646
      -0.820
      -1.029
      -1.223
      -1.366
      -1.453
      -1.475
      -1.388
      -1.126
      -0.650
       0.015
       0.781
       1.537
       2.193
       2.717
       3.127
       3.434
       3.604
       3.561
       3.246
       2.675
       1.938
       1.136
       0.340
      -0.430
      -1.195
      -1.998
      -2.879
      -3.822
      -4.730
      -5.448
      -5.849
      -5.901
      -5.658
      -5.188
      -4.499
      -3.548
      -2.312
      -0.851
       0.688
       2.130
       3.353
       4.335
       5.145
       5.863
       6.484
       6.888
       6.924
       6.527
       5.775
       4.837
       3.884
       3.020
       2.279
       1.660
       1.146
       0.704
       0.269
      -0.236
      -0.846
      -1.506
      -2.101
      -2.539
      -2.820
      -3.022
      -3.224
      -3.436
      -3.596
      -3.627
      -3.518
      -3.344
      -3.211
      -3.160
      -3.128
      -3.008
      -2.770
      -2.519
      -2.429
      -2.612
      -3.041
      -3.566
      -3.994
      -4.171
      -4.008
      -3.449
      -2.428
      -0.897
       1.082
       3.274
       5.335
       6.957
       8.001
       8.513
       8.652
       8.575
       8.354
       7.969
       7.366
       6.531
       5.495
       4.285
       2.894
       1.319
      -0.388
      -2.109
      -3.724
      -5.159
      -6.374
      -7.306
      -7.841
      -7.861
      -7.336
      -6.390
      -5.264
      -4.221
      -3.415
      -2.828
      -2.299
      -1.649
      -0.808
       0.163
       1.128
       1.959
       2.579
       2.946
       3.011
       2.735
       2.142
       1.365
       0.614
       0.080
      -0.123
       0.045
       0.560
       1.325
       2.163
       2.858
       3.238
       3.231
       2.866
       2.237
       1.477
       0.720
       0.050
      -0.536
      -1.118
      -1.773
      -2.494
      -3.169
      -3.637
      -3.777
      -3.566
      -3.070
      -2.383
      -1.588
      -0.755
       0.043
       0.755
       1.379
       1.964
       2.559
       3.161
       3.695
       4.058
       4.176
       4.035
       3.655
       3.051
       2.208
       1.099
      -0.280
      -1.886
      -3.619
      -5.342
      -6.885
      -8.064
      -8.714
      -8.737
      -8.120
      -6.917
      -5.231
      -3.217
      -1.086
       0.933
       2.654
       3.993
       4.967
       5.644
       6.065
       6.197
       5.969
       5.359
       4.479
       3.559
       2.852
       2.489
       2.419
       2.444
       2.356
       2.061
       1.621
       1.175
       0.814
       0.499
       0.108
      -0.459
      -1.209
      -2.050
      -2.838
      -3.448
      -3.836
      -4.051
      -4.166
      -4.196
      -4.072
      -3.722
      -3.163
      -2.512
      -1.910
      -1.423
      -1.017
      -0.603
      -0.105
       0.511
       1.233
       2.005
       2.733
       3.313
       3.684
       3.834
       3.765
       3.451
       2.862
       2.015
       1.018
       0.047
      -0.726
      -1.202
      -1.389
      -1.393
      -1.356
      -1.366
      -1.397
      -1.357
      -1.203
      -0.988
      -0.793
      -0.629
      -0.416
      -0.054
       0.484
       1.114
       1.674
       2.003
       2.007
       1.683
       1.092
       0.314
      -0.585
      -1.547
      -2.504
      -3.345
      -3.919
      -4.101
      -3.889
      -3.444
      -3.002
      -2.718
      -2.572
      -2.396
      -2.008
      -1.321
      -0.386
       0.644
       1.585
       2.289
       2.697
       2.846
       2.835
       2.782
       2.784
       2.884
       3.060
       3.253
       3.409
       3.502
       3.527
       3.478
       3.339
       3.083
       2.692
       2.167
       1.515
       0.728
      -0.197
      -1.210
      -2.193
      -3.001
      -3.540
      -3.823
      -3.954
      -4.059
      -4.196
      -4.323
      -4.324
      -4.077
      -3.541
      -2.812
      -2.073
      -1.479
      -1.056
      -0.705
      -0.314
       0.155
       0.654
       1.136
       1.627
       2.210
       2.918
       3.634
       4.111
       4.120
       3.599
       2.666
       1.511
       0.288
      -0.895
      -1.923
      -2.652
      -2.954
      -2.774
      -2.164
      -1.251
      -0.197
       0.832
       1.657
       2.117
       2.122
       1.706
       1.003
       0.156
      -0.731
      -1.589
      -2.339
      -2.897
      -3.200
      -3.244
      -3.051
      -2.616
      -1.867
      -0.720
       0.839
       2.689
       4.609
       6.359
       7.765
       8.736
       9.240
       9.259
       8.795
       7.887
       6.619
       5.079
       3.321
       1.382
      -0.700
      -2.862
      -5.011
      -7.009
      -8.686
      -9.857
     -10.352
     -10.064
      -9.016
      -7.403
      -5.537
      -3.707
      -2.070
      -0.645
       0.611
       1.747
       2.808
       3.816
       4.739
       5.485
       5.941
       6.036
       5.759
       5.142
       4.236
       3.102
       1.828
       0.522
      -0.707
      -1.787
      -2.697
      -3.434
      -3.972
      -4.247
      -4.195
      -3.810
      -3.182
      -2.472
      -1.848
      -1.424
      -1.209
      -1.106
      -0.960
      -0.647
      -0.148
       0.447
       1.002
       1.430
       1.748
       2.049
       2.397
       2.741
       2.945
       2.890
       2.561
       2.046
       1.473
       0.963
       0.601
       0.432
       0.463
       0.664
       0.954
       1.187
       1.181
       0.800
       0.046
      -0.929
      -1.910
      -2.730
      -3.319
      -3.672
      -3.796
      -3.692
      -3.385
      -2.965
      -2.551
      -2.220
      -1.934
      -1.575
      -1.037
      -0.303
       0.555
       1.445
       2.312
       3.130
       3.856
       4.390
       4.582
       4.299
       3.513
       2.349
       1.050
      -0.130
      -1.026
      -1.583
      -1.817
      -1.772
      -1.511
      -1.127
      -0.728
      -0.398
      -0.149
       0.087
       0.408
       0.866
       1.425
       1.990
       2.459
       2.760
       2.847
       2.687
       2.284
       1.713
       1.104
       0.585
       0.218
      -0.022
      -0.243
      -0.569
      -1.064
      -1.670
      -2.245
      -2.655
      -2.858
      -2.911
      -2.894
      -2.853
      -2.784
      -2.659
      -2.459
      -2.201
      -1.963
      -1.853
      -1.933
      -2.118
      -2.183
      -1.887
      -1.127
       0.006
       1.296
       2.514
       3.497
       4.162
       4.490
       4.518
       4.323
       3.994
       3.601
       3.205
       2.857
       2.579
       2.339
       2.044
       1.587
       0.916
       0.065
      -0.873
      -1.796
      -2.605
      -3.199
      -3.485
      -3.428
      -3.081
      -2.552
      -1.942
      -1.320
      -0.749
      -0.324
      -0.133
      -0.189
      -0.399
      -0.600
      -0.651
      -0.513
      -0.255
       0.006
       0.172
       0.214
       0.173
       0.136
       0.158
       0.192
       0.103
      -0.206
      -0.705
      -1.250
      -1.700
      -2.004
      -2.192
      -2.329
      -2.479
      -2.695
      -3.001
      -3.360
      -3.645
      -3.691
      -3.381
      -2.726
      -1.870
      -1.029
      -0.391
      -0.024
       0.173
       0.401
       0.815
       1.403
       2.002
       2.440
       2.680
       2.857
       3.166
       3.693
       4.331
       4.851
       5.059
       4.877
       4.323
       3.442
       2.291
       0.947
      -0.478
      -1.833
      -2.939
      -3.647
      -3.931
      -3.926
      -3.837
      -3.787
      -3.760
      -3.673
      -3.474
      -3.178
      -2.816
      -2.396
      -1.920
      -1.411
      -0.898
      -0.374
       0.216
       0.921
       1.728
       2.570
       3.402
       4.242
       5.130
       6.050
       6.912
       7.621
       8.105
       8.266
       7.943
       6.963
       5.255
       2.920
       0.207
      -2.570
      -5.107
      -7.158
      -8.559
      -9.253
      -9.301
      -8.861
      -8.117
      -7.229
      -6.323
      -5.471
      -4.639
      -3.659
      -2.324
      -0.564
       1.437
       3.322
       4.762
       5.635
       6.051
       6.227
       6.317
       6.323
       6.118
       5.571
       4.671
       3.568
       2.509
       1.680
       1.091
       0.586
      -0.034
      -0.889
      -1.968
      -3.148
      -4.222
      -4.948
      -5.130
      -4.697
      -3.742
      -2.463
      -1.066
       0.277
       1.422
       2.251
       2.689
       2.736
       2.470
       2.046
       1.684
       1.600
       1.911
       2.543
       3.245
       3.695
       3.662
       3.106
       2.163
       1.033
      -0.123
      -1.207
      -2.132
      -2.783
      -3.065
      -2.999
      -2.752
      -2.563
      -2.596
      -2.842
      -3.116
      -3.173
      -2.863
      -2.209
      -1.346
      -0.403
       0.564
       1.537
       2.465
       3.249
       3.766
       3.931
       3.760
       3.375
       2.928
       2.505
       2.097
       1.652
       1.154
       0.640
       0.168
      -0.239
      -0.611
      -0.984
      -1.326
      -1.530
      -1.503
      -1.284
      -1.044
      -0.960
      -1.059
      -1.198
      -1.195
      -0.999
      -0.747
      -0.651
      -0.821
      -1.175
      -1.498
      -1.601
      -1.444
      -1.138
      -0.845
      -0.669
      -0.621
      -0.651
      -0.713
      -0.786
      -0.848
      -0.846
      -0.715
      -0.431
      -0.044
       0.344
       0.640
       0.808
       0.863
       0.841
       0.780
       0.720
       0.688
       0.667
       0.586
       0.367
       0.003
      -0.401
      -0.687
      -0.758
      -0.643
      -0.462
      -0.333
      -0.317
      -0.420
      -0.633
      -0.934
      -1.268
      -1.525
      -1.570
      -1.306
      -0.725
       0.069
       0.879
       1.485
       1.728
       1.576
       1.142
       0.639
       0.267
       0.118
       0.137
       0.196
       0.185
       0.066
      -0.142
      -0.410
      -0.723
      -1.084
      -1.485
      -1.871
      -2.147
      -2.209
      -1.988
      -1.486
      -0.790
      -0.037
       0.675
       1.349
       2.063
       2.859
       3.668
       4.340
       4.744
       4.838
       4.649
       4.210
       3.523
       2.597
       1.501
       0.382
      -0.583
      -1.260
      -1.615
      -1.724
      -1.725
      -1.722
