Origin Time       1/5/2013 06:57:12	  UTC
Lat.              33.1 N	
Long.             75.8 E	
Depth (Km)         15.0
Magnitude         5.8
 Region           JK-HP-Border                                                     
 Above details taken from IMD 
    
Station Code      TAR
Station Lat.       31.447  N
Station Long.      74.931  E
Station Height(m)  237.0
Site Class        C   Vs30 between 200 m/sec to 375 m/sec *  
Record Time       01.05.2013 06:57:32.999 UTC
Sampling Rate     200. Hz
 Record Duration  101.165 Sec.
 Direction         N-S (N positive)
Max. Acceleration      9.257 cm/sec**2
     
  * For reference see Site Classification link of website 
     
 Base Line Corrected and Low Pass Filtered (Cut Off at 35 Hz) Time History
 Acceleration data in cm/sec**2
    
[...]
      -0.136
      -0.095
      -0.041
       0.018
       0.076
       0.132
       0.194
       0.277
       0.389
       0.521
       0.651
       0.747
       0.791
       0.779
       0.721
       0.630
       0.516
       0.384
       0.240
       0.088
      -0.068
      -0.229
      -0.402
      -0.588
      -0.764
      -0.888
      -0.914
      -0.824
      -0.644
      -0.430
      -0.223
      -0.036
       0.155
       0.374
       0.622
       0.871
       1.078
       1.209
       1.245
       1.189
       1.051
       0.847
       0.602
       0.346
       0.104
      -0.112
      -0.308
      -0.498
      -0.690
      -0.870
      -1.005
      -1.071
      -1.064
      -1.011
      -0.947
      -0.900
      -0.880
      -0.883
      -0.894
      -0.897
      -0.869
      -0.791
      -0.646
      -0.427
      -0.146
       0.167
       0.460
       0.681
       0.789
       0.779
       0.680
       0.543
       0.415
       0.324
       0.274
       0.249
       0.225
       0.185
       0.118
       0.021
      -0.100
      -0.229
      -0.344
      -0.427
      -0.471
      -0.484
      -0.487
      -0.504
      -0.555
      -0.635
      -0.717
      -0.764
      -0.745
      -0.646
      -0.473
      -0.246
       0.013
       0.278
       0.525
       0.730
       0.877
       0.958
       0.975
       0.942
       0.876
       0.791
       0.690
       0.566
       0.419
       0.257
       0.094
      -0.053
      -0.172
      -0.255
      -0.300
      -0.314
      -0.308
      -0.289
      -0.252
      -0.188
      -0.090
       0.034
       0.166
       0.283
       0.371
       0.425
       0.446
       0.441
       0.421
       0.398
       0.381
       0.367
       0.345
       0.302
       0.230
       0.129
       0.010
      -0.113
      -0.224
      -0.309
      -0.361
      -0.382
      -0.379
      -0.360
      -0.328
      -0.286
      -0.236
      -0.181
      -0.112
      -0.013
       0.127
       0.301
       0.481
       0.637
       0.751
       0.821
       0.855
       0.859
       0.834
       0.783
       0.718
       0.655
       0.605
       0.563
       0.514
       0.439
       0.341
       0.235
       0.143
       0.073
       0.013
      -0.062
      -0.169
      -0.305
      -0.448
      -0.575
      -0.680
      -0.775
      -0.874
      -0.966
      -1.017
      -0.989
      -0.865
      -0.673
      -0.472
      -0.324
      -0.254
      -0.247
      -0.263
      -0.270
      -0.255
      -0.213
      -0.144
      -0.048
       0.060
       0.152
       0.195
       0.177
       0.115
       0.045
       0.002
      -0.007
       0.003
       0.012
       0.006
      -0.009
      -0.026
      -0.038
      -0.045
      -0.054
      -0.065
      -0.072
      -0.061
      -0.027
       0.021
       0.060
       0.068
       0.045
       0.014
       0.012
       0.060
       0.150
       0.245
       0.294
       0.260
       0.136
      -0.060
      -0.293
      -0.529
      -0.734
      -0.883
      -0.962
      -0.970
      -0.917
      -0.822
      -0.704
      -0.576
      -0.440
      -0.291
      -0.120
       0.071
       0.269
       0.452
       0.600
       0.696
       0.731
       0.702
       0.615
       0.486
       0.338
       0.193
       0.074
      -0.003
      -0.034
      -0.033
      -0.033
      -0.060
      -0.125
      -0.209
      -0.283
      -0.318
      -0.301
      -0.241
      -0.156
      -0.064
       0.023
       0.104
       0.176
       0.231
       0.261
       0.256
       0.215
       0.139
       0.036
      -0.083
      -0.202
      -0.302
      -0.370
      -0.401
      -0.398
      -0.366
      -0.311
      -0.233
      -0.130
      -0.001
       0.150
       0.319
       0.493
       0.652
       0.775
       0.844
       0.858
       0.828
       0.766
       0.684
       0.585
       0.469
       0.332
       0.171
      -0.011
      -0.204
      -0.388
      -0.535
      -0.613
      -0.600
      -0.501
      -0.349
      -0.185
      -0.038
       0.086
       0.198
       0.304
       0.399
       0.468
       0.503
       0.503
       0.476
       0.431
       0.372
       0.297
       0.206
       0.096
      -0.025
      -0.143
      -0.233
      -0.272
      -0.246
      -0.156
      -0.018
       0.143
       0.300
       0.438
       0.552
       0.643
       0.707
       0.728
       0.683
       0.557
       0.354
       0.089
      -0.209
      -0.521
      -0.833
      -1.134
      -1.412
      -1.641
      -1.795
      -1.855
      -1.822
      -1.717
      -1.569
      -1.398
      -1.212
      -1.008
      -0.774
      -0.499
      -0.179
       0.180
       0.556
       0.909
       1.196
       1.374
       1.419
       1.330
       1.130
       0.857
       0.556
       0.263
       0.002
      -0.218
      -0.400
      -0.552
      -0.680
      -0.787
      -0.870
      -0.918
      -0.922
      -0.874
      -0.773
      -0.630
      -0.459
      -0.274
      -0.086
       0.094
       0.256
       0.402
       0.534
       0.656
       0.758
       0.818
       0.815
       0.744
       0.621
       0.474
       0.325
       0.182
       0.037
      -0.119
      -0.278
      -0.414
      -0.494
      -0.501
      -0.448
      -0.369
      -0.301
      -0.263
      -0.242
      -0.205
      -0.118
       0.034
       0.239
       0.462
       0.658
       0.782
       0.811
       0.748
       0.616
       0.446
       0.268
       0.111
       0.004
      -0.025
       0.035
       0.172
       0.353
       0.536
       0.682
       0.771
       0.796
       0.762
       0.686
       0.590
       0.506
       0.458
       0.454
       0.482
       0.514
       0.523
       0.495
       0.433
       0.359
       0.301
       0.281
       0.307
       0.362
       0.416
       0.434
       0.388
       0.271
       0.099
      -0.091
      -0.263
      -0.388
      -0.452
      -0.458
      -0.417
      -0.344
      -0.250
      -0.142
      -0.024
       0.098
       0.215
       0.323
       0.424
       0.520
       0.611
       0.689
       0.740
       0.752
       0.724
       0.662
       0.579
       0.488
       0.405
       0.347
       0.331
       0.364
       0.438
       0.530
       0.606
       0.641
       0.624
       0.567
       0.496
       0.432
       0.384
       0.342
       0.297
       0.245
       0.193
       0.152
       0.125
       0.113
       0.112
       0.122
       0.140
       0.155
       0.138
       0.063
      -0.075
      -0.247
      -0.407
      -0.518
      -0.567
      -0.576
      -0.573
      -0.582
      -0.613
      -0.664
      -0.731
      -0.817
      -0.927
      -1.064
      -1.229
      -1.422
      -1.637
      -1.870
      -2.114
      -2.364
      -2.613
      -2.847
      -3.049
      -3.203
      -3.301
      -3.333
      -3.290
      -3.153
      -2.910
      -2.562
      -2.129
      -1.642
      -1.131
      -0.617
      -0.112
       0.383
       0.871
       1.362
       1.864
       2.379
       2.895
       3.388
       3.825
       4.168
       4.390
       4.471
       4.410
       4.221
       3.926
       3.551
       3.110
       2.612
       2.062
       1.470
       0.860
       0.268
      -0.272
      -0.739
      -1.130
      -1.449
      -1.704
      -1.896
      -2.025
      -2.100
      -2.142
      -2.173
      -2.197
      -2.198
      -2.154
      -2.056
      -1.915
      -1.744
      -1.553
      -1.343
      -1.121
      -0.910
      -0.737
      -0.620
      -0.549
      -0.494
      -0.425
      -0.333
      -0.233
      -0.143
      -0.065
       0.026
       0.165
       0.366
       0.610
       0.846
       1.024
       1.122
       1.151
       1.137
       1.095
       1.014
       0.872
       0.658
       0.386
       0.088
      -0.201
      -0.456
      -0.659
      -0.800
      -0.867
      -0.850
      -0.757
      -0.608
      -0.430
      -0.244
      -0.058
       0.134
       0.338
       0.550
       0.756
       0.946
       1.115
       1.268
       1.411
       1.538
       1.634
       1.671
       1.621
       1.459
       1.164
       0.723
       0.142
      -0.551
      -1.316
      -2.111
      -2.895
      -3.636
      -4.304
      -4.874
      -5.326
      -5.639
      -5.793
      -5.776
      -5.586
      -5.226
      -4.708
      -4.050
      -3.280
      -2.432
      -1.539
      -0.632
       0.264
       1.122
       1.916
       2.619
       3.213
       3.686
       4.026
       4.211
       4.223
       4.048
       3.690
       3.173
       2.537
       1.840
       1.140
       0.492
      -0.066
      -0.512
      -0.845
      -1.078
      -1.229
      -1.303
      -1.290
      -1.171
      -0.939
      -0.609
      -0.227
       0.153
       0.476
       0.710
       0.843
       0.876
       0.811
       0.656
       0.429
       0.163
      -0.107
      -0.366
      -0.618
      -0.881
      -1.167
      -1.462
      -1.733
      -1.938
      -2.043
      -2.028
      -1.884
      -1.602
      -1.170
      -0.591
       0.112
       0.896
       1.719
       2.552
       3.384
       4.197
       4.950
       5.582
       6.037
       6.281
       6.314
       6.155
       5.828
       5.353
       4.747
       4.034
       3.254
       2.468
       1.734
       1.091
       0.546
       0.084
      -0.312
      -0.639
      -0.875
      -0.992
      -0.974
      -0.839
      -0.628
      -0.388
      -0.155
       0.047
       0.197
       0.270
       0.236
       0.082
      -0.185
      -0.536
      -0.947
      -1.405
      -1.911
      -2.461
      -3.027
      -3.560
      -4.002
      -4.307
      -4.457
      -4.456
      -4.317
      -4.040
      -3.614
      -3.028
      -2.290
      -1.428
      -0.486
       0.503
       1.528
       2.583
       3.645
       4.656
       5.530
       6.191
       6.593
       6.725
       6.579
       6.142
       5.401
       4.365
       3.083
       1.646
       0.153
      -1.311
      -2.693
      -3.961
      -5.084
      -6.022
      -6.726
      -7.149
      -7.259
      -7.049
      -6.535
      -5.754
      -4.756
      -3.603
      -2.369
      -1.138
       0.014
       1.033
       1.901
       2.626
       3.217
       3.676
       3.989
       4.141
       4.119
       3.918
       3.535
       2.969
       2.224
       1.327
       0.328
      -0.697
      -1.659
      -2.485
      -3.127
      -3.569
      -3.818
      -3.879
      -3.744
      -3.397
      -2.825
      -2.047
      -1.116
      -0.103
       0.932
       1.963
       2.984
       3.985
       4.923
       5.731
       6.348
       6.749
       6.949
       6.987
       6.895
       6.682
       6.339
       5.848
       5.199
       4.401
       3.478
       2.470
       1.420
       0.369
      -0.662
      -1.659
      -2.613
      -3.498
      -4.274
      -4.899
      -5.355
      -5.653
      -5.824
      -5.891
      -5.861
      -5.725
      -5.479
      -5.133
      -4.702
      -4.203
      -3.647
      -3.050
      -2.438
      -1.840
      -1.282
      -0.773
      -0.315
       0.092
       0.438
       0.705
       0.874
       0.948
       0.959
       0.974
       1.069
       1.301
       1.684
       2.187
       2.736
       3.246
       3.644
       3.880
       3.936
       3.821
       3.564
       3.204
       2.781
       2.323
       1.838
       1.318
       0.750
       0.135
      -0.504
      -1.131
      -1.708
      -2.215
      -2.644
      -2.990
      -3.234
      -3.350
      -3.315
      -3.129
      -2.823
      -2.439
      -2.019
      -1.588
      -1.167
      -0.783
      -0.471
      -0.259
      -0.151
      -0.127
      -0.154
      -0.202
      -0.252
      -0.291
      -0.302
      -0.259
      -0.126
       0.124
       0.500
       0.982
       1.528
       2.085
       2.609
       3.064
       3.427
       3.672
       3.771
       3.693
       3.410
       2.905
       2.184
       1.284
       0.271
      -0.766
      -1.736
      -2.568
      -3.226
      -3.707
      -4.030
      -4.219
      -4.300
      -4.297
      -4.237
      -4.136
      -3.994
      -3.794
      -3.512
      -3.131
      -2.651
      -2.089
      -1.463
      -0.791
      -0.088
       0.623
       1.313
       1.952
       2.514
       2.981
       3.335
       3.557
       3.636
       3.581
       3.418
       3.181
       2.893
       2.569
       2.221
       1.869
       1.542
       1.268
       1.044
       0.828
       0.559
       0.189
      -0.286
      -0.841
      -1.442
      -2.055
      -2.639
      -3.118
      -3.399
      -3.406
      -3.134
      -2.657
      -2.091
      -1.531
      -1.017
      -0.558
      -0.162
       0.145
       0.331
       0.390
       0.346
       0.244
       0.117
      -0.024
      -0.192
      -0.414
      -0.706
      -1.060
      -1.446
      -1.823
      -2.166
      -2.453
      -2.650
      -2.699
      -2.538
      -2.146
      -1.569
      -0.896
      -0.217
       0.412
       0.965
       1.416
       1.718
       1.805
       1.617
       1.129
       0.373
      -0.563
      -1.558
      -2.501
      -3.318
      -3.966
      -4.417
      -4.648
      -4.652
      -4.451
      -4.077
      -3.558
      -2.906
      -2.132
      -1.271
      -0.381
       0.482
       1.292
       2.065
       2.837
       3.642
       4.492
       5.380
       6.278
       7.148
       7.941
       8.595
       9.052
       9.257
       9.168
       8.758
       8.033
       7.033
       5.839
       4.551
       3.264
       2.038
       0.892
      -0.188
      -1.215
      -2.187
      -3.077
      -3.851
      -4.478
      -4.939
      -5.232
      -5.367
      -5.358
      -5.209
      -4.918
      -4.494
      -3.974
      -3.419
      -2.884
      -2.394
      -1.933
      -1.471
      -0.984
      -0.472
       0.043
       0.528
       0.950
       1.276
       1.480
       1.545
       1.459
       1.227
       0.875
       0.456
       0.040
      -0.304
      -0.521
      -0.586
      -0.500
      -0.298
      -0.036
       0.222
       0.431
       0.585
       0.696
       0.778
       0.837
       0.893
       0.986
       1.160
       1.433
       1.787
       2.176
       2.559
       2.900
       3.178
       3.382
       3.511
       3.563
       3.528
       3.385
       3.125
       2.760
       2.309
       1.776
       1.138
       0.366
      -0.537
      -1.531
      -2.557
      -3.561
      -4.504
      -5.339
      -6.007
      -6.447
      -6.627
      -6.555
      -6.263
      -5.794
      -5.196
      -4.523
      -3.818
      -3.097
      -2.340
      -1.503
      -0.555
       0.506
       1.659
       2.872
       4.099
       5.262
       6.257
       6.985
       7.391
       7.469
       7.243
       6.740
       5.981
       5.001
       3.864
       2.656
       1.456
       0.326
      -0.682
      -1.505
      -2.074
      -2.339
      -2.296
      -1.986
      -1.466
      -0.793
      -0.029
       0.738
       1.397
       1.846
       2.032
       1.968
       1.721
       1.382
       1.042
       0.768
       0.595
       0.523
       0.524
       0.547
       0.518
       0.360
       0.017
      -0.519
      -1.202
      -1.957
      -2.724
      -3.477
      -4.211
      -4.920
      -5.572
      -6.113
      -6.493
      -6.682
      -6.684
      -6.533
      -6.281
      -5.988
      -5.702
      -5.453
      -5.242
      -5.047
      -4.836
      -4.577
      -4.243
      -3.815
      -3.268
      -2.581
      -1.752
      -0.820
       0.140
       1.040
       1.809
       2.410
       2.840
       3.119
       3.281
       3.361
       3.380
       3.330
       3.188
       2.932
       2.570
       2.140
       1.697
       1.303
       1.013
       0.873
       0.907
       1.100
       1.399
       1.727
       2.012
       2.200
       2.271
       2.235
       2.128
       1.994
       1.868
       1.766
       1.681
       1.606
       1.547
       1.524
       1.569
       1.715
       1.986
       2.374
       2.834
       3.286
       3.650
       3.858
       3.877
       3.700
       3.342
       2.833
       2.216
       1.548
       0.900
       0.328
      -0.145
      -0.533
      -0.873
      -1.204
      -1.547
      -1.903
      -2.250
      -2.555
      -2.785
      -2.921
      -2.964
      -2.938
      -2.884
      -2.848
      -2.864
      -2.947
      -3.096
      -3.285
      -3.469
      -3.583
      -3.563
      -3.374
      -3.016
      -2.507
      -1.865
      -1.095
      -0.192
       0.838
       1.961
       3.105
       4.177
       5.094
       5.805
       6.300
       6.593
       6.698
       6.619
       6.352
       5.900
       5.278
       4.509
       3.615
       2.616
       1.531
       0.388
      -0.782
      -1.945
      -3.060
      -4.081
      -4.953
      -5.620
      -6.040
      -6.203
      -6.143
      -5.929
      -5.636
      -5.322
      -5.017
      -4.729
      -4.443
      -4.133
      -3.777
      -3.374
      -2.951
      -2.558
      -2.244
      -2.035
      -1.920
      -1.848
      -1.738
      -1.509
      -1.104
      -0.517
       0.196
       0.949
       1.654
       2.262
       2.764
       3.172
       3.493
       3.719
       3.826
       3.778
       3.540
       3.095
       2.461
       1.697
       0.884
       0.101
      -0.596
      -1.180
      -1.652
      -2.030
      -2.344
      -2.626
      -2.909
      -3.217
      -3.554
      -3.891
      -4.156
      -4.254
      -4.105
      -3.677
      -2.996
      -2.131
      -1.162
      -0.161
       0.818
       1.730
       2.528
       3.175
       3.651
       3.961
       4.123
       4.159
       4.084
       3.914
       3.666
       3.355
       2.997
       2.609
       2.206
       1.811
       1.443
       1.123
       0.867
       0.675
       0.538
       0.442
       0.383
       0.359
       0.350
       0.310
       0.190
      -0.028
      -0.315
      -0.607
      -0.839
      -0.962
      -0.952
      -0.814
      -0.574
      -0.287
      -0.013
       0.202
       0.340
       0.416
       0.461
       0.520
       0.624
       0.779
       0.950
       1.082
       1.128
       1.079
       0.952
       0.762
       0.517
       0.227
      -0.076
      -0.348
      -0.549
      -0.666
      -0.714
      -0.726
      -0.746
      -0.815
      -0.950
      -1.127
      -1.282
      -1.341
      -1.246
      -0.967
      -0.490
       0.191
       1.058
       2.044
       3.033
       3.894
       4.530
       4.893
       4.980
       4.820
       4.465
       3.976
       3.395
       2.741
       2.029
       1.295
       0.607
       0.034
      -0.385
      -0.656
      -0.820
      -0.939
      -1.096
      -1.378
      -1.839
      -2.456
      -3.136
      -3.763
      -4.258
      -4.596
      -4.784
      -4.815
      -4.659
      -4.287
      -3.706
      -2.973
      -2.170
      -1.360
      -0.569
       0.209
       0.971
       1.682
       2.275
       2.679
       2.868
       2.868
       2.737
       2.525
       2.263
       1.978
       1.701
       1.460
       1.271
       1.130
       1.021
       0.927
       0.832
       0.724
       0.602
