Origin Time       14/12/2005 07:09:48
Lat.              30.9 N 
Long.             79.3 E 
Depth (Km)         25.7
Magnitude         5.2
 Region           Chamoli-Uttarakhand                                              
 Above details taken from IMD 
   
Station Code      TEH
Station Lat.       30.374
Station Long.      78.430
Station Height(m) 1870.0
Site Class        A   Vs30 between 700 m/sec to 1400 m/sec * 
Record Time       14.12.2005 07:10:10.514
Sampling Rate     200. Hz
 Record Duration   31.435 Sec.
 Direction         Vert. (Up positive)
Max. Acceleration      5.708 cm/sec**2
     
  * For reference see Site Classification link of website 
     
 Base Line Corrected and Low Pass Filtered (Cut Off at 35 Hz) Time History
 Acceleration data in cm/sec**2
    
[...]
      -1.696
      -1.510
      -1.285
      -1.079
      -0.903
      -0.733
      -0.552
      -0.376
      -0.246
      -0.194
      -0.223
      -0.298
      -0.369
      -0.390
      -0.334
      -0.187
       0.052
       0.380
       0.784
       1.229
       1.644
       1.927
       1.986
       1.783
       1.367
       0.853
       0.369
      -0.006
      -0.255
      -0.406
      -0.490
      -0.523
      -0.517
      -0.495
      -0.480
      -0.477
      -0.455
      -0.366
      -0.185
       0.063
       0.297
       0.423
       0.383
       0.193
      -0.074
      -0.336
      -0.548
      -0.724
      -0.914
      -1.153
      -1.418
      -1.626
      -1.673
      -1.497
      -1.126
      -0.673
      -0.279
      -0.033
       0.070
       0.117
       0.215
       0.420
       0.709
       1.001
       1.218
       1.331
       1.366
       1.380
       1.412
       1.453
       1.447
       1.349
       1.175
       1.009
       0.945
       1.009
       1.123
       1.151
       0.991
       0.633
       0.159
      -0.326
      -0.757
      -1.117
      -1.410
      -1.623
      -1.716
      -1.654
      -1.448
      -1.161
      -0.878
      -0.663
      -0.534
      -0.464
      -0.424
      -0.405
      -0.419
      -0.473
      -0.546
      -0.605
      -0.632
      -0.634
      -0.631
      -0.625
      -0.581
      -0.430
      -0.108
       0.382
       0.942
       1.410
       1.641
       1.576
       1.281
       0.899
       0.562
       0.325
       0.173
       0.074
       0.028
       0.062
       0.183
       0.346
       0.466
       0.481
       0.388
       0.248
       0.142
       0.113
       0.135
       0.139
       0.069
      -0.081
      -0.277
      -0.490
      -0.731
      -1.032
      -1.386
      -1.702
      -1.828
      -1.652
      -1.184
      -0.567
       0.008
       0.410
       0.619
       0.687
       0.681
       0.638
       0.568
       0.483
       0.409
       0.369
       0.360
       0.358
       0.352
       0.362
       0.421
       0.542
       0.708
       0.897
       1.110
       1.363
       1.641
       1.857
       1.887
       1.645
       1.141
       0.479
      -0.196
      -0.773
      -1.225
      -1.590
      -1.906
      -2.145
      -2.235
      -2.134
      -1.890
      -1.624
      -1.448
      -1.381
      -1.342
      -1.217
      -0.945
      -0.549
      -0.112
       0.282
       0.592
       0.836
       1.069
       1.345
       1.675
       2.007
       2.240
       2.283
       2.113
       1.773
       1.340
       0.866
       0.362
      -0.182
      -0.750
      -1.285
      -1.703
      -1.939
      -1.976
      -1.838
      -1.560
      -1.178
      -0.738
      -0.306
       0.057
       0.317
       0.492
       0.619
       0.716
       0.760
       0.698
       0.503
       0.202
      -0.138
      -0.459
      -0.729
      -0.942
      -1.084
      -1.118
      -1.007
      -0.746
      -0.380
      -0.003
       0.289
       0.434
       0.429
       0.313
       0.140
      -0.043
      -0.196
      -0.267
      -0.212
      -0.026
       0.241
       0.510
       0.727
       0.904
       1.106
       1.379
       1.688
       1.925
       1.977
       1.803
       1.453
       1.023
       0.588
       0.177
      -0.207
      -0.553
      -0.832
      -1.014
      -1.088
      -1.059
      -0.947
      -0.792
      -0.652
      -0.590
      -0.633
      -0.736
      -0.801
      -0.733
      -0.525
      -0.272
      -0.106
      -0.093
      -0.178
      -0.241
      -0.201
      -0.062
       0.107
       0.236
       0.288
       0.267
       0.194
       0.088
      -0.038
      -0.158
      -0.231
      -0.233
      -0.196
      -0.194
      -0.293
      -0.487
      -0.692
      -0.791
      -0.717
      -0.500
      -0.245
      -0.048
       0.063
       0.137
       0.260
       0.492
       0.835
       1.216
       1.518
       1.625
       1.486
       1.157
       0.781
       0.518
       0.452
       0.547
       0.667
       0.671
       0.504
       0.224
      -0.039
      -0.185
      -0.217
      -0.240
      -0.367
      -0.617
      -0.889
      -1.040
      -1.008
      -0.863
      -0.744
      -0.743
      -0.820
      -0.843
      -0.695
      -0.370
       0.021
       0.333
       0.485
       0.497
       0.453
       0.437
       0.476
       0.533
       0.537
       0.428
       0.205
      -0.069
      -0.297
      -0.397
      -0.351
      -0.211
      -0.065
       0.027
       0.071
       0.128
       0.258
       0.459
       0.663
       0.786
       0.789
       0.691
       0.549
       0.404
       0.257
       0.078
      -0.146
      -0.385
      -0.573
      -0.663
      -0.672
      -0.690
      -0.807
      -1.043
      -1.323
      -1.526
      -1.562
      -1.433
      -1.214
      -0.997
      -0.816
      -0.647
      -0.454
      -0.244
      -0.060
       0.063
       0.152
       0.276
       0.490
       0.772
       1.030
       1.169
       1.165
       1.078
       0.996
       0.947
       0.882
       0.721
       0.429
       0.057
      -0.287
      -0.503
      -0.559
      -0.496
      -0.368
      -0.187
       0.080
       0.459
       0.920
       1.377
       1.735
       1.926
       1.931
       1.756
       1.424
       0.969
       0.447
      -0.074
      -0.534
      -0.903
      -1.180
      -1.362
      -1.437
      -1.393
      -1.243
      -1.033
      -0.820
      -0.643
      -0.512
      -0.424
      -0.378
      -0.384
      -0.447
      -0.547
      -0.635
      -0.657
      -0.584
      -0.426
      -0.225
      -0.015
       0.211
       0.485
       0.816
       1.145
       1.350
       1.326
       1.064
       0.663
       0.251
      -0.104
      -0.405
      -0.668
      -0.852
      -0.876
      -0.700
      -0.392
      -0.118
      -0.029
      -0.151
      -0.373
      -0.539
      -0.558
      -0.459
      -0.348
      -0.319
      -0.396
      -0.529
      -0.626
      -0.596
      -0.371
       0.055
       0.608
       1.141
       1.502
       1.605
       1.464
       1.166
       0.799
       0.403
      -0.009
      -0.399
      -0.669
      -0.699
      -0.448
      -0.012
       0.406
       0.622
       0.608
       0.501
       0.488
       0.654
       0.913
       1.094
       1.079
       0.886
       0.634
       0.430
       0.287
       0.140
      -0.070
      -0.331
      -0.553
      -0.633
      -0.526
      -0.278
      -0.001
       0.202
       0.287
       0.273
       0.201
       0.092
      -0.057
      -0.247
      -0.448
      -0.615
      -0.737
      -0.857
      -1.037
      -1.292
      -1.551
      -1.695
      -1.638
      -1.393
      -1.058
      -0.753
      -0.549
      -0.438
      -0.349
      -0.203
       0.033
       0.326
       0.616
       0.867
       1.095
       1.341
       1.609
       1.836
       1.916
       1.771
       1.411
       0.936
       0.480
       0.134
      -0.091
      -0.255
      -0.439
      -0.677
      -0.939
      -1.157
      -1.282
      -1.314
      -1.282
      -1.201
      -1.050
      -0.795
      -0.441
      -0.056
       0.263
       0.468
       0.584
       0.687
       0.825
       0.977
       1.060
       1.002
       0.801
       0.532
       0.296
       0.169
       0.148
       0.158
       0.098
      -0.083
      -0.341
      -0.555
      -0.607
      -0.463
      -0.196
       0.069
       0.247
       0.333
       0.383
       0.450
       0.545
       0.635
       0.678
       0.651
       0.554
       0.400
       0.203
      -0.020
      -0.242
      -0.421
      -0.510
      -0.480
      -0.350
      -0.190
      -0.091
      -0.114
      -0.246
      -0.424
      -0.582
      -0.703
      -0.816
      -0.956
      -1.126
      -1.292
      -1.418
      -1.480
      -1.472
      -1.389
      -1.230
      -1.016
      -0.786
      -0.582
      -0.407
      -0.222
       0.027
       0.360
       0.735
       1.072
       1.304
       1.424
       1.476
       1.514
       1.545
       1.517
       1.374
       1.118
       0.842
       0.680
       0.715
       0.916
       1.147
       1.248
       1.136
       0.845
       0.495
       0.202
       0.003
      -0.154
      -0.357
      -0.651
      -1.006
      -1.335
      -1.552
      -1.629
      -1.594
      -1.505
      -1.404
      -1.297
      -1.164
      -0.996
      -0.821
      -0.689
      -0.637
      -0.655
      -0.677
      -0.626
      -0.455
      -0.176
       0.150
       0.443
       0.651
       0.766
       0.819
       0.845
       0.855
       0.831
       0.755
       0.635
       0.518
       0.466
       0.513
       0.646
       0.814
       0.971
       1.106
       1.247
       1.433
       1.668
       1.908
       2.077
       2.103
       1.955
       1.652
       1.238
       0.760
       0.256
      -0.230
      -0.622
      -0.837
      -0.840
      -0.686
      -0.507
      -0.431
      -0.505
      -0.677
      -0.855
      -0.994
      -1.116
      -1.270
      -1.452
      -1.590
      -1.599
      -1.458
      -1.249
      -1.095
      -1.054
      -1.062
      -0.983
      -0.725
      -0.340
       0.001
       0.126
      -0.005
      -0.275
      -0.500
      -0.565
      -0.485
      -0.354
      -0.244
      -0.145
      -0.012
       0.157
       0.292
       0.304
       0.172
      -0.035
      -0.199
      -0.234
      -0.122
       0.089
       0.321
       0.521
       0.676
       0.809
       0.948
       1.095
       1.221
       1.279
       1.232
       1.077
       0.841
       0.563
       0.269
      -0.022
      -0.285
      -0.477
      -0.546
      -0.465
      -0.272
      -0.068
       0.024
      -0.072
      -0.332
      -0.651
      -0.903
      -1.010
      -0.957
      -0.772
      -0.488
      -0.147
       0.201
       0.486
       0.633
       0.596
       0.386
       0.078
      -0.223
      -0.437
      -0.568
      -0.696
      -0.905
      -1.184
      -1.407
      -1.427
      -1.196
      -0.828
      -0.506
      -0.332
      -0.240
      -0.056
       0.349
       0.939
       1.521
       1.862
       1.847
       1.553
       1.187
       0.945
       0.882
       0.894
       0.813
       0.559
       0.216
      -0.017
       0.011
       0.279
       0.602
       0.775
       0.730
       0.579
       0.505
       0.602
       0.794
       0.901
       0.796
       0.501
       0.146
      -0.153
      -0.369
      -0.547
      -0.719
      -0.868
      -0.952
      -0.951
      -0.900
      -0.860
      -0.869
      -0.919
      -0.976
      -1.019
      -1.062
      -1.130
      -1.229
      -1.329
      -1.382
      -1.359
      -1.269
      -1.136
      -0.972
      -0.778
      -0.565
      -0.373
      -0.261
      -0.272
      -0.399
      -0.575
      -0.714
      -0.771
      -0.774
      -0.812
      -0.975
      -1.284
      -1.637
      -1.856
      -1.782
      -1.365
      -0.672
       0.170
       1.060
       1.961
       2.863
       3.708
       4.370
       4.711
       4.677
       4.354
       3.934
       3.598
       3.398
       3.232
       2.942
       2.447
       1.807
       1.190
       0.752
       0.549
       0.528
       0.582
       0.626
       0.639
       0.654
       0.705
       0.781
       0.818
       0.744
       0.524
       0.196
      -0.152
      -0.436
      -0.634
      -0.782
      -0.935
      -1.130
      -1.381
      -1.684
      -2.025
      -2.372
      -2.675
      -2.882
      -2.979
      -2.999
      -3.008
      -3.055
      -3.135
      -3.178
      -3.088
      -2.792
      -2.290
      -1.653
      -0.992
      -0.419
      -0.017
       0.172
       0.152
      -0.031
      -0.305
      -0.595
      -0.844
      -1.020
      -1.110
      -1.111
      -1.032
      -0.879
      -0.655
      -0.367
      -0.042
       0.259
       0.446
       0.448
       0.249
      -0.085
      -0.426
      -0.649
      -0.691
      -0.568
      -0.342
      -0.064
       0.258
       0.655
       1.142
       1.668
       2.120
       2.387
       2.439
       2.337
       2.184
       2.052
       1.951
       1.854
       1.742
       1.620
       1.496
       1.363
       1.212
       1.058
       0.948
       0.921
       0.982
       1.079
       1.125
       1.039
       0.778
       0.369
      -0.089
      -0.455
      -0.614
      -0.550
      -0.351
      -0.152
      -0.059
      -0.103
      -0.250
      -0.448
      -0.680
      -0.963
      -1.320
      -1.739
      -2.171
      -2.535
      -2.743
      -2.719
      -2.424
      -1.871
      -1.129
      -0.294
       0.560
       1.412
       2.270
       3.116
       3.865
       4.389
       4.581
       4.428
       4.014
       3.484
       2.967
       2.518
       2.121
       1.727
       1.315
       0.894
       0.480
       0.052
      -0.446
      -1.067
      -1.802
      -2.559
      -3.199
      -3.618
      -3.807
      -3.847
      -3.822
      -3.735
      -3.506
      -3.062
      -2.432
      -1.757
      -1.196
      -0.828
      -0.617
      -0.473
      -0.353
      -0.301
      -0.418
      -0.760
      -1.270
      -1.784
      -2.113
      -2.161
      -1.982
      -1.736
      -1.577
      -1.548
      -1.561
      -1.460
      -1.135
      -0.577
       0.138
       0.918
       1.707
       2.491
       3.253
       3.953
       4.537
       4.974
       5.282
       5.504
       5.664
       5.708
       5.523
       5.015
       4.186
       3.137
       2.007
       0.907
      -0.100
      -0.983
      -1.711
      -2.248
      -2.571
      -2.698
      -2.690
      -2.618
      -2.518
      -2.379
      -2.163
      -1.848
      -1.450
      -1.008
      -0.553
      -0.101
       0.335
       0.725
       1.023
       1.188
       1.203
       1.072
       0.800
       0.386
      -0.154
      -0.769
      -1.385
      -1.937
      -2.403
      -2.806
      -3.167
      -3.464
      -3.617
      -3.549
      -3.254
      -2.823
      -2.399
      -2.090
      -1.895
      -1.717
      -1.438
      -1.019
      -0.517
      -0.025
       0.403
       0.772
       1.122
       1.473
       1.792
       1.998
       2.009
       1.802
       1.431
       0.998
       0.593
       0.262
       0.018
      -0.138
      -0.191
      -0.123
       0.061
       0.314
       0.559
       0.741
       0.869
       0.999
       1.178
       1.394
       1.574
       1.641
       1.577
       1.433
       1.278
       1.126
       0.943
       0.703
       0.452
       0.298
       0.340
       0.596
       0.978
       1.344
       1.579
       1.649
       1.598
       1.491
       1.354
       1.151
       0.810
       0.283
      -0.394
      -1.106
      -1.705
      -2.094
      -2.269
      -2.298
      -2.257
      -2.166
      -1.980
      -1.634
      -1.116
      -0.502
       0.065
       0.450
       0.598
       0.549
       0.392
       0.208
       0.025
      -0.168
      -0.386
      -0.615
      -0.799
      -0.858
      -0.713
      -0.324
       0.276
       0.974
       1.626
       2.130
       2.458
       2.627
       2.646
       2.509
       2.225
       1.838
       1.419
       1.008
       0.580
       0.072
      -0.552
      -1.252
      -1.923
      -2.449
      -2.753
      -2.806
      -2.615
      -2.218
      -1.693
      -1.147
      -0.680
      -0.353
      -0.181
      -0.146
      -0.209
      -0.311
      -0.391
      -0.401
      -0.345
      -0.277
      -0.267
      -0.339
      -0.454
      -0.564
      -0.665
      -0.810
      -1.052
      -1.382
      -1.717
      -1.965
      -2.087
      -2.124
      -2.155
      -2.240
      -2.382
      -2.521
      -2.554
      -2.373
      -1.909
      -1.174
      -0.282
       0.590
       1.299
       1.821
       2.255
       2.716
       3.234
       3.730
       4.074
       4.179
       4.058
       3.818
       3.575
       3.375
       3.156
       2.814
       2.286
       1.621
       0.956
       0.440
       0.158
       0.113
       0.256
       0.521
       0.847
       1.176
       1.437
       1.564
       1.533
       1.373
       1.140
       0.867
       0.546
       0.151
      -0.317
      -0.814
      -1.271
      -1.634
      -1.885
      -2.035
      -2.107
      -2.118
      -2.072
      -1.969
      -1.807
      -1.573
      -1.234
      -0.757
      -0.143
       0.532
       1.124
       1.476
       1.505
       1.252
       0.853
       0.447
       0.093
      -0.253
      -0.678
      -1.216
      -1.820
      -2.404
      -2.918
      -3.362
      -3.757
      -4.103
      -4.343
      -4.376
      -4.131
      -3.632
      -2.995
      -2.367
      -1.844
      -1.448
      -1.147
      -0.892
      -0.635
      -0.346
      -0.019
       0.327
       0.661
       0.964
       1.222
       1.420
       1.527
       1.513
       1.371
       1.153
       0.958
       0.875
       0.923
       1.045
       1.158
       1.217
       1.257
       1.360
       1.605
       2.026
       2.595
       3.225
       3.817
       4.314
       4.723
       5.074
       5.368
       5.572
       5.638
       5.536
       5.270
       4.860
       4.314
       3.613
       2.739
       1.714
       0.608
      -0.485
      -1.485
      -2.351
      -3.088
      -3.699
      -4.149
      -4.365
      -4.307
      -4.029
      -3.671
      -3.393
      -3.274
      -3.277
      -3.287
      -3.188
      -2.937
      -2.579
      -2.232
      -2.014
      -1.959
      -2.002
      -2.027
      -1.936
      -1.691
      -1.318
      -0.896
      -0.510
      -0.210
      -0.003
       0.129
       0.217
       0.319
       0.503
       0.809
       1.207
       1.598
       1.862
       1.934
       1.849
       1.723
       1.677
       1.740
       1.828
       1.819
       1.640
       1.319
       0.950
       0.617
       0.334
       0.041
      -0.336
      -0.803
      -1.268
      -1.587
      -1.661
      -1.505
      -1.245
      -1.037
      -0.985
      -1.098
      -1.288
      -1.405
      -1.321
      -0.997
      -0.502
       0.018
       0.418
       0.629
       0.682
       0.655
       0.612
       0.589
       0.625
       0.758
       0.997
       1.310
       1.639
       1.931
       2.152
       2.291
       2.336
       2.255
       2.020
       1.636
       1.159
       0.670
       0.220
      -0.193
      -0.618
      -1.102
      -1.660
      -2.259
      -2.820
      -3.238
      -3.425
      -3.353
      -3.073
      -2.682
      -2.281
      -1.932
      -1.651
      -1.433
      -1.268
      -1.142
      -1.027
      -0.871
      -0.625
      -0.279
       0.108
       0.431
       0.603
       0.599
       0.463
       0.278
       0.123
       0.044
       0.054
       0.143
       0.282
       0.430
       0.554
       0.646
       0.729
       0.848
       1.042
       1.308
       1.587
       1.785
       1.836
       1.741
       1.545
       1.296
       1.007
       0.665
       0.269
      -0.146
      -0.505
      -0.738
      -0.818
      -0.787
      -0.727
      -0.705
      -0.725
      -0.731
      -0.650
      -0.456
      -0.199
       0.041
       0.203
       0.285
       0.322
       0.350
