Origin Time       03/5/2010 17:15:08	
Lat.              30.4 N	
Long.             78.4 E	
Depth (Km)          8.0
Magnitude         3.5
 Region           Uttarakhand                                                      
 Above details taken from IMD 
   
Station Code      TEH
Station Lat.       30.374
Station Long.      78.430
Station Height(m) 1894.0
Site Class        A   Vs30 between 700 m/sec to 1400 m/sec * 
Record Time       03.05.2010 17:15:24.214
Sampling Rate     200. Hz
 Record Duration   86.615 Sec.
 Direction         Vert. (Up positive)
Max. Acceleration     32.978 cm/sec**2
     
  * For reference see Site Classification link of website 
     
 Base Line Corrected and Low Pass Filtered (Cut Off at 35 Hz) Time History
 Acceleration data in cm/sec**2
    
[...]
      -0.005
       0.007
       0.013
       0.008
      -0.002
      -0.006
       0.001
       0.010
       0.012
       0.007
       0.002
       0.001
       0.004
       0.006
       0.004
       0.001
       0.000
       0.003
       0.006
       0.006
       0.002
       0.000
       0.002
       0.007
       0.011
       0.012
       0.010
       0.008
       0.007
       0.005
      -0.001
      -0.010
      -0.015
      -0.010
       0.002
       0.010
       0.009
       0.001
      -0.004
       0.000
       0.009
       0.013
       0.007
      -0.002
      -0.005
       0.004
       0.016
       0.016
       0.004
      -0.011
      -0.014
      -0.004
       0.011
       0.017
       0.013
       0.005
       0.004
       0.012
       0.019
       0.015
       0.003
      -0.005
      -0.002
       0.006
       0.009
       0.000
      -0.013
      -0.016
      -0.006
       0.010
       0.017
       0.010
      -0.002
      -0.005
       0.004
       0.015
       0.017
       0.007
      -0.004
      -0.006
       0.000
       0.006
       0.005
      -0.002
      -0.008
      -0.007
      -0.001
       0.005
       0.005
       0.004
       0.005
       0.010
       0.015
       0.017
       0.013
       0.009
       0.007
       0.008
       0.009
       0.007
       0.005
       0.007
       0.012
       0.015
       0.011
       0.003
       0.001
       0.008
       0.018
       0.021
       0.012
      -0.002
      -0.009
      -0.004
       0.006
       0.011
       0.004
      -0.006
      -0.010
      -0.004
       0.004
       0.007
       0.001
      -0.004
       0.002
       0.018
       0.032
       0.030
       0.013
      -0.004
      -0.006
       0.006
       0.016
       0.013
      -0.001
      -0.012
      -0.007
       0.009
       0.022
       0.022
       0.012
       0.006
       0.012
       0.023
       0.028
       0.021
       0.009
       0.000
       0.002
       0.009
       0.014
       0.011
       0.003
       0.000
       0.003
       0.008
       0.010
       0.010
       0.011
       0.016
       0.021
       0.020
       0.017
       0.015
       0.017
       0.020
       0.017
       0.008
       0.001
       0.004
       0.013
       0.018
       0.014
       0.004
      -0.002
       0.002
       0.011
       0.013
       0.005
      -0.007
      -0.010
      -0.001
       0.014
       0.024
       0.021
       0.013
       0.011
       0.018
       0.029
       0.032
       0.025
       0.014
       0.011
       0.017
       0.024
       0.021
       0.007
      -0.008
      -0.010
       0.002
       0.015
       0.019
       0.011
       0.001
      -0.001
       0.007
       0.015
       0.016
       0.009
       0.003
       0.004
       0.011
       0.016
       0.016
       0.014
       0.012
       0.012
       0.010
       0.004
      -0.006
      -0.012
      -0.009
       0.000
       0.006
       0.007
       0.005
       0.007
       0.014
       0.020
       0.018
       0.009
       0.000
      -0.003
       0.000
       0.004
       0.006
       0.005
       0.006
       0.009
       0.012
       0.008
       0.001
      -0.002
       0.003
       0.013
       0.020
       0.016
       0.006
       0.001
       0.007
       0.018
       0.023
       0.016
       0.005
       0.004
       0.013
       0.024
       0.025
       0.013
      -0.003
      -0.011
      -0.005
       0.007
       0.014
       0.013
       0.008
       0.009
       0.016
       0.020
       0.015
       0.004
      -0.001
       0.005
       0.017
       0.022
       0.013
      -0.004
      -0.012
      -0.006
       0.007
       0.014
       0.011
       0.004
       0.000
       0.002
       0.004
       0.001
      -0.004
      -0.003
       0.005
       0.017
       0.020
       0.012
       0.000
      -0.004
       0.002
       0.011
       0.014
       0.008
       0.000
      -0.001
       0.006
       0.013
       0.011
       0.003
      -0.002
       0.001
       0.008
       0.008
       0.000
      -0.006
      -0.002
       0.012
       0.025
       0.027
       0.017
       0.006
       0.004
       0.009
       0.011
       0.005
      -0.006
      -0.011
      -0.005
       0.006
       0.011
       0.004
      -0.009
      -0.016
      -0.009
       0.006
       0.015
       0.012
       0.004
       0.003
       0.013
       0.021
       0.017
       0.002
      -0.012
      -0.011
       0.002
       0.013
       0.010
      -0.005
      -0.016
      -0.010
       0.005
       0.014
       0.010
      -0.003
      -0.013
      -0.010
       0.001
       0.012
       0.016
       0.015
       0.013
       0.012
       0.009
       0.003
       0.000
       0.003
       0.011
       0.016
       0.012
       0.002
      -0.004
       0.000
       0.011
       0.017
       0.014
       0.005
       0.002
       0.008
       0.016
       0.017
       0.009
       0.001
       0.002
       0.012
       0.020
       0.014
      -0.001
      -0.014
      -0.013
      -0.001
       0.009
       0.009
       0.001
      -0.004
       0.000
       0.009
       0.013
       0.005
      -0.007
      -0.010
       0.000
       0.016
       0.023
       0.013
      -0.004
      -0.013
      -0.006
       0.012
       0.024
       0.024
       0.014
       0.005
       0.004
       0.009
       0.013
       0.013
       0.010
       0.010
       0.012
       0.014
       0.012
       0.008
       0.006
       0.007
       0.010
       0.010
       0.007
       0.004
       0.004
       0.004
      -0.001
      -0.009
      -0.012
      -0.005
       0.009
       0.020
       0.019
       0.010
       0.001
       0.000
       0.006
       0.008
       0.001
      -0.010
      -0.015
      -0.009
       0.002
       0.007
       0.002
      -0.004
      -0.004
       0.005
       0.016
       0.018
       0.012
       0.004
       0.004
       0.011
       0.016
       0.014
       0.006
       0.003
       0.007
       0.015
       0.019
       0.014
       0.005
       0.002
       0.009
       0.019
       0.021
       0.010
      -0.004
      -0.008
       0.002
       0.016
       0.019
       0.010
      -0.003
      -0.008
      -0.003
       0.003
       0.002
      -0.007
      -0.012
      -0.006
       0.005
       0.011
       0.008
       0.003
       0.001
       0.004
       0.007
       0.004
      -0.002
      -0.005
      -0.001
       0.006
       0.011
       0.008
       0.004
       0.004
       0.010
       0.013
       0.006
      -0.006
      -0.012
      -0.005
       0.011
       0.022
       0.018
       0.003
      -0.010
      -0.008
       0.006
       0.021
       0.026
       0.024
       0.023
       0.028
       0.032
       0.028
       0.015
       0.003
       0.002
       0.012
       0.019
       0.014
       0.000
      -0.007
       0.001
       0.017
       0.026
       0.017
      -0.002
      -0.015
      -0.010
       0.008
       0.022
       0.021
       0.008
      -0.001
       0.000
       0.007
       0.010
       0.006
      -0.002
      -0.004
       0.002
       0.014
       0.021
       0.020
       0.013
       0.008
       0.007
       0.007
       0.004
      -0.001
      -0.003
      -0.001
       0.005
       0.009
       0.009
       0.007
       0.006
       0.006
       0.004
       0.001
      -0.002
       0.000
       0.005
       0.009
       0.007
      -0.001
      -0.006
      -0.001
       0.013
       0.023
       0.019
       0.002
      -0.012
      -0.011
       0.003
       0.016
       0.015
       0.004
      -0.005
      -0.004
       0.003
       0.004
      -0.004
      -0.013
      -0.011
       0.003
       0.016
       0.015
       0.002
      -0.008
      -0.005
       0.009
       0.018
       0.011
      -0.009
      -0.024
      -0.022
      -0.005
       0.010
       0.008
      -0.005
      -0.015
      -0.012
      -0.001
       0.006
       0.002
      -0.008
      -0.011
      -0.002
       0.015
       0.025
       0.025
       0.018
       0.014
       0.015
       0.016
       0.013
       0.009
       0.006
       0.008
       0.013
       0.014
       0.009
       0.004
       0.005
       0.011
       0.015
       0.012
       0.004
       0.002
       0.009
       0.021
       0.028
       0.024
       0.014
       0.005
       0.002
       0.004
       0.004
       0.000
      -0.002
       0.004
       0.014
       0.018
       0.010
      -0.004
      -0.009
       0.001
       0.017
       0.025
       0.019
       0.004
      -0.004
       0.000
       0.008
       0.007
      -0.003
      -0.011
      -0.004
       0.013
       0.026
       0.023
       0.006
      -0.010
      -0.011
       0.002
       0.016
       0.019
       0.012
       0.007
       0.009
       0.017
       0.021
       0.016
       0.007
       0.003
       0.007
       0.014
       0.015
       0.009
       0.002
       0.003
       0.012
       0.020
       0.020
       0.013
       0.005
       0.002
       0.002
       0.001
      -0.003
      -0.005
       0.000
       0.011
       0.018
       0.014
       0.001
      -0.008
      -0.008
      -0.001
       0.002
      -0.004
      -0.013
      -0.014
      -0.007
       0.001
       0.001
      -0.006
      -0.010
      -0.001
       0.014
       0.024
       0.019
       0.005
      -0.003
       0.001
       0.010
       0.013
       0.004
      -0.009
      -0.011
       0.000
       0.012
       0.012
       0.001
      -0.011
      -0.013
      -0.003
       0.008
       0.013
       0.009
       0.003
       0.003
       0.009
       0.012
       0.004
      -0.011
      -0.021
      -0.017
      -0.004
       0.006
       0.005
      -0.006
      -0.013
      -0.008
       0.003
       0.010
       0.007
       0.000
      -0.002
       0.000
       0.001
      -0.005
      -0.013
      -0.017
      -0.012
      -0.004
       0.000
      -0.002
      -0.005
      -0.006
      -0.003
       0.000
      -0.001
      -0.004
      -0.005
      -0.004
      -0.003
      -0.005
      -0.010
      -0.010
      -0.003
       0.008
       0.014
       0.009
      -0.003
      -0.011
      -0.007
       0.003
       0.008
       0.001
      -0.010
      -0.014
      -0.003
       0.016
       0.028
       0.024
       0.008
      -0.007
      -0.011
      -0.005
       0.002
       0.002
      -0.002
      -0.004
       0.003
       0.012
       0.016
       0.011
       0.002
      -0.001
       0.005
       0.011
       0.008
      -0.003
      -0.013
      -0.012
      -0.001
       0.010
       0.013
       0.008
       0.001
       0.001
       0.008
       0.014
       0.013
       0.005
      -0.002
      -0.003
      -0.001
       0.002
       0.002
       0.001
       0.001
       0.000
      -0.002
      -0.005
      -0.006
      -0.002
       0.004
       0.007
       0.002
      -0.007
      -0.010
      -0.005
       0.003
       0.006
       0.002
      -0.005
      -0.006
       0.000
       0.006
       0.005
      -0.003
      -0.008
      -0.006
       0.002
       0.007
       0.003
      -0.005
      -0.009
      -0.004
       0.007
       0.013
       0.007
      -0.006
      -0.013
      -0.004
       0.013
       0.025
       0.022
       0.011
       0.003
       0.005
       0.010
       0.011
       0.004
      -0.004
      -0.003
       0.005
       0.009
       0.004
      -0.008
      -0.015
      -0.013
      -0.006
      -0.001
      -0.002
      -0.006
      -0.007
      -0.002
       0.004
       0.006
       0.002
      -0.002
       0.000
       0.007
       0.012
       0.013
       0.012
       0.012
       0.015
       0.015
       0.009
      -0.001
      -0.007
      -0.003
       0.007
       0.014
       0.012
       0.006
       0.004
       0.009
       0.015
       0.015
       0.009
       0.004
       0.006
       0.012
       0.015
       0.007
      -0.007
      -0.016
      -0.012
       0.002
       0.013
       0.014
       0.005
      -0.002
      -0.001
       0.005
       0.008
       0.001
      -0.013
      -0.020
      -0.013
       0.000
       0.007
       0.001
      -0.009
      -0.010
       0.003
       0.019
       0.023
       0.014
       0.002
       0.002
       0.015
       0.027
       0.026
       0.012
       0.000
       0.002
       0.016
       0.028
       0.025
       0.010
      -0.003
      -0.003
       0.008
       0.018
       0.019
       0.011
       0.004
       0.003
       0.006
       0.008
       0.009
       0.008
       0.010
       0.012
       0.013
       0.011
       0.008
       0.006
       0.005
       0.003
      -0.003
      -0.011
      -0.013
      -0.007
       0.001
       0.001
      -0.005
      -0.011
      -0.006
       0.007
       0.018
       0.014
       0.000
      -0.011
      -0.005
       0.013
       0.025
       0.020
       0.002
      -0.010
      -0.007
       0.006
       0.017
       0.014
       0.000
      -0.011
      -0.010
       0.001
       0.008
       0.004
      -0.005
      -0.008
       0.001
       0.013
       0.016
       0.005
      -0.006
      -0.003
       0.013
       0.021
       0.005
      -0.022
      -0.032
      -0.033
      -0.120
      -0.488
      -1.364
      -2.904
      -5.106
      -7.784
     -10.567
     -12.920
     -14.169
     -13.653
     -10.989
      -6.300
      -0.173
       6.699
      13.855
      21.006
      27.539
      32.119
      32.978
      28.904
      20.164
       8.555
      -3.466
     -13.822
     -21.281
     -25.301
     -25.788
     -23.030
     -17.699
     -10.759
      -3.392
       3.058
       7.396
       9.285
       9.707
      10.357
      12.109
      13.971
      13.787
      10.242
       4.221
      -1.841
      -5.951
      -7.870
      -8.612
      -8.988
      -8.916
      -8.075
      -6.855
      -6.259
      -6.804
      -7.700
      -7.356
      -4.806
      -0.612
       3.626
       6.609
       8.149
       8.763
       8.658
       7.320
       4.208
      -0.238
      -4.417
      -6.549
      -5.965
      -3.538
      -0.946
       0.483
       0.409
      -0.655
      -1.857
      -2.445
      -2.085
      -1.046
      -0.078
       0.178
      -0.123
       0.026
       1.610
       4.485
       7.171
       7.940
       6.252
       3.137
       0.189
      -1.746
      -2.859
      -3.530
      -3.538
      -2.313
       0.106
       2.639
       3.902
       3.392
       1.901
       0.742
       0.576
       0.971
       1.007
       0.250
      -0.866
      -1.539
      -1.445
      -1.071
      -1.220
      -2.183
      -3.382
      -3.879
      -3.215
      -1.774
      -0.374
       0.415
       0.534
       0.185
      -0.449
      -1.175
      -1.636
      -1.420
      -0.410
       1.053
       2.383
       3.125
       3.138
       2.527
       1.549
       0.548
      -0.144
      -0.378
      -0.258
      -0.005
       0.235
       0.437
       0.593
       0.647
       0.557
       0.356
       0.116
      -0.107
      -0.237
      -0.143
       0.272
       0.877
       1.296
       1.199
       0.640
       0.054
      -0.155
      -0.008
       0.083
      -0.268
      -1.086
      -2.117
      -3.128
      -4.031
      -4.727
      -4.953
      -4.406
      -3.035
      -1.187
       0.584
       1.862
       2.579
       2.917
       3.051
       2.971
       2.552
       1.776
       0.859
       0.126
      -0.271
      -0.480
      -0.755
      -1.121
      -1.280
      -0.883
       0.108
       1.364
       2.481
       3.250
       3.640
       3.598
       3.005
       1.859
       0.410
      -0.959
      -1.987
      -2.659
      -3.121
      -3.521
      -3.918
      -4.256
      -4.351
      -3.955
      -2.927
      -1.415
       0.143
       1.262
       1.708
       1.633
       1.468
       1.635
       2.277
       3.152
       3.816
       3.955
       3.601
       3.028
       2.446
       1.817
       1.004
       0.040
      -0.799
      -1.253
      -1.381
      -1.553
      -2.084
      -2.883
      -3.482
      -3.408
      -2.548
      -1.206
       0.128
       1.029
       1.265
       0.808
      -0.166
      -1.289
      -2.077
      -2.122
      -1.292
       0.174
       1.770
       2.948
       3.340
       2.886
       1.834
       0.617
      -0.343
      -0.794
      -0.716
      -0.272
       0.277
       0.676
       0.781
       0.622
       0.362
       0.159
       0.052
      -0.016
      -0.106
      -0.251
      -0.514
      -1.008
      -1.792
      -2.704
      -3.343
      -3.281
      -2.366
      -0.848
       0.764
       1.991
       2.596
       2.605
       2.193
       1.565
       0.887
       0.276
      -0.169
      -0.341
      -0.160
       0.343
       0.958
       1.387
       1.437
       1.152
       0.768
       0.548
       0.647
       1.094
       1.790
       2.495
       2.854
       2.560
       1.551
       0.041
      -1.659
      -3.359
      -5.012
      -6.518
      -7.563
      -7.707
      -6.681
      -4.615
      -1.984
       0.666
       2.976
       4.789
       6.003
       6.426
       5.820
       4.090
       1.429
      -1.712
      -4.821
      -7.478
      -9.378
     -10.271
     -10.000
      -8.639
      -6.531
      -4.077
      -1.446
       1.493
       4.858
       8.362
      11.211
      12.451
      11.493
       8.497
       4.431
       0.781
      -1.029
      -0.359
       2.206
       5.057
       6.410
       5.253
       1.769
      -2.944
      -7.523
     -10.874
     -12.384
     -11.896
      -9.622
      -6.066
      -1.915
       2.162
       5.704
       8.526
      10.600
      11.902
      12.373
      12.055
      11.199
      10.168
       9.161
       8.058
       6.549
       4.435
       1.763
      -1.285
      -4.558
      -7.945
     -11.249
     -14.097
     -16.027
     -16.665
     -15.897
     -13.946
     -11.334
      -8.677
      -6.400
      -4.604
      -3.177
      -1.977
      -0.848
       0.430
       2.024
       3.820
       5.426
       6.525
       7.191
       7.777
       8.459
       8.984
       8.921
       8.108
       6.751
       5.115
       3.297
       1.380
      -0.312
      -1.300
      -1.365
      -0.784
      -0.099
       0.313
       0.406
       0.300
       0.106
      -0.086
      -0.162
      -0.060
       0.140
       0.283
       0.297
       0.241
       0.174
       0.056
      -0.194
      -0.556
      -0.891
      -1.060
      -1.041
      -0.940
      -0.907
      -1.023
      -1.218
      -1.278
      -0.993
      -0.364
       0.326
       0.701
       0.594
       0.152
      -0.375
      -0.871
      -1.369
      -1.871
      -2.270
      -2.470
      -2.486
      -2.377
      -2.107
      -1.581
      -0.820
      -0.063
       0.352
       0.197
      -0.538
      -1.668
      -2.875
      -3.769
      -4.017
      -3.515
      -2.458
      -1.191
       0.012
       1.018
       1.739
       2.069
       1.973
       1.580
       1.115
       0.732
       0.460
       0.292
       0.248
       0.321
       0.428
       0.481
       0.504
       0.624
       0.911
       1.265
       1.471
       1.384
       1.029
       0.547
       0.092
      -0.218
