Origin Time       04/04/2011 11:31:40
Lat.              29.6 N	
Long.             80.8 E	
Depth (Km)         10.0
Magnitude         5.7
 Region           NEPAL-INDIA-BORDER-REGION                                        
 Above details taken from IMD 
   
Station Code      TEH
Station Lat.       30.374
Station Long.      78.430
Station Height(m) 1894.0
Site Class        A   Vs30 between 700 m/sec to 1400 m/sec * 
Record Time       04.04.2011 11:32:22.099
Sampling Rate     200. Hz
 Record Duration   89.825 Sec.
 Direction         Vert. (Up positive)
Max. Acceleration     -4.093 cm/sec**2
     
  * For reference see Site Classification link of website 
     
 Base Line Corrected and Low Pass Filtered (Cut Off at 35 Hz) Time History
 Acceleration data in cm/sec**2
    
[...]
       0.301
       0.223
       0.122
      -0.007
      -0.165
      -0.342
      -0.525
      -0.700
      -0.842
      -0.928
      -0.948
      -0.905
      -0.803
      -0.646
      -0.441
      -0.204
       0.052
       0.309
       0.552
       0.772
       0.974
       1.164
       1.328
       1.441
       1.488
       1.464
       1.373
       1.226
       1.049
       0.870
       0.707
       0.570
       0.470
       0.413
       0.393
       0.391
       0.385
       0.359
       0.304
       0.227
       0.144
       0.072
       0.019
      -0.015
      -0.031
      -0.032
      -0.033
      -0.049
      -0.084
      -0.136
      -0.206
      -0.301
      -0.423
      -0.569
      -0.732
      -0.907
      -1.082
      -1.249
      -1.403
      -1.544
      -1.659
      -1.728
      -1.730
      -1.653
      -1.499
      -1.297
      -1.093
      -0.928
      -0.808
      -0.719
      -0.645
      -0.580
      -0.515
      -0.431
      -0.316
      -0.165
       0.013
       0.208
       0.405
       0.596
       0.783
       0.968
       1.147
       1.309
       1.439
       1.525
       1.558
       1.549
       1.524
       1.513
       1.524
       1.553
       1.589
       1.625
       1.645
       1.632
       1.576
       1.484
       1.365
       1.227
       1.077
       0.917
       0.743
       0.553
       0.349
       0.140
      -0.068
      -0.264
      -0.426
      -0.527
      -0.558
      -0.523
      -0.440
      -0.335
      -0.244
      -0.204
      -0.229
      -0.313
      -0.439
      -0.587
      -0.741
      -0.891
      -1.032
      -1.162
      -1.266
      -1.329
      -1.346
      -1.322
      -1.262
      -1.172
      -1.063
      -0.944
      -0.821
      -0.694
      -0.572
      -0.468
      -0.383
      -0.307
      -0.223
      -0.117
       0.022
       0.196
       0.390
       0.587
       0.774
       0.935
       1.055
       1.122
       1.146
       1.144
       1.126
       1.096
       1.063
       1.033
       1.004
       0.964
       0.902
       0.813
       0.693
       0.537
       0.347
       0.134
      -0.088
      -0.300
      -0.488
      -0.652
      -0.805
      -0.960
      -1.106
      -1.223
      -1.295
      -1.319
      -1.305
      -1.268
      -1.224
      -1.178
      -1.123
      -1.048
      -0.951
      -0.838
      -0.709
      -0.553
      -0.365
      -0.147
       0.086
       0.313
       0.508
       0.657
       0.768
       0.859
       0.943
       1.023
       1.103
       1.181
       1.244
       1.276
       1.267
       1.220
       1.135
       1.018
       0.881
       0.740
       0.606
       0.485
       0.380
       0.283
       0.177
       0.048
      -0.097
      -0.238
      -0.357
      -0.445
      -0.498
      -0.520
      -0.525
      -0.529
      -0.538
      -0.550
      -0.559
      -0.562
      -0.551
      -0.515
      -0.452
      -0.366
      -0.266
      -0.159
      -0.058
       0.030
       0.106
       0.173
       0.230
       0.267
       0.280
       0.265
       0.212
       0.115
      -0.018
      -0.165
      -0.300
      -0.397
      -0.436
      -0.409
      -0.325
      -0.204
      -0.056
       0.115
       0.310
       0.524
       0.750
       0.968
       1.146
       1.254
       1.285
       1.251
       1.175
       1.074
       0.966
       0.868
       0.789
       0.735
       0.713
       0.723
       0.749
       0.770
       0.767
       0.737
       0.682
       0.608
       0.524
       0.436
       0.339
       0.229
       0.115
       0.015
      -0.062
      -0.120
      -0.166
      -0.208
      -0.256
      -0.310
      -0.364
      -0.414
      -0.468
      -0.544
      -0.654
      -0.792
      -0.944
      -1.089
      -1.208
      -1.289
      -1.331
      -1.340
      -1.317
      -1.263
      -1.192
      -1.118
      -1.046
      -0.980
      -0.921
      -0.868
      -0.806
      -0.716
      -0.595
      -0.458
      -0.323
      -0.204
      -0.098
       0.008
       0.131
       0.277
       0.430
       0.564
       0.660
       0.714
       0.728
       0.711
       0.673
       0.615
       0.538
       0.448
       0.370
       0.334
       0.351
       0.412
       0.497
       0.585
       0.652
       0.682
       0.669
       0.614
       0.524
       0.409
       0.291
       0.193
       0.127
       0.085
       0.058
       0.033
      -0.006
      -0.067
      -0.146
      -0.238
      -0.341
      -0.459
      -0.590
      -0.726
      -0.864
      -0.999
      -1.125
      -1.236
      -1.333
      -1.419
      -1.496
      -1.559
      -1.607
      -1.634
      -1.630
      -1.588
      -1.511
      -1.407
      -1.279
      -1.123
      -0.943
      -0.749
      -0.557
      -0.384
      -0.251
      -0.166
      -0.116
      -0.078
      -0.041
      -0.009
       0.009
       0.012
       0.004
      -0.005
      -0.005
       0.010
       0.038
       0.079
       0.143
       0.234
       0.343
       0.457
       0.575
       0.709
       0.866
       1.041
       1.228
       1.429
       1.651
       1.893
       2.129
       2.309
       2.386
       2.339
       2.171
       1.903
       1.565
       1.198
       0.839
       0.507
       0.199
      -0.089
      -0.347
      -0.564
      -0.734
      -0.856
      -0.930
      -0.959
      -0.952
      -0.919
      -0.863
      -0.783
      -0.688
      -0.584
      -0.469
      -0.344
      -0.224
      -0.136
      -0.098
      -0.110
      -0.166
      -0.266
      -0.412
      -0.605
      -0.832
      -1.067
      -1.286
      -1.478
      -1.648
      -1.794
      -1.904
      -1.969
      -1.993
      -1.988
      -1.947
      -1.850
      -1.684
      -1.454
      -1.169
      -0.837
      -0.463
      -0.054
       0.378
       0.824
       1.277
       1.733
       2.187
       2.617
       2.986
       3.262
       3.428
       3.480
       3.412
       3.222
       2.924
       2.550
       2.134
       1.706
       1.291
       0.910
       0.573
       0.281
       0.040
      -0.146
      -0.277
      -0.356
      -0.387
      -0.380
      -0.358
      -0.338
      -0.324
      -0.301
      -0.254
      -0.173
      -0.056
       0.091
       0.255
       0.422
       0.580
       0.716
       0.810
       0.855
       0.855
       0.820
       0.748
       0.628
       0.458
       0.243
      -0.008
      -0.287
      -0.579
      -0.861
      -1.118
      -1.343
      -1.533
      -1.684
      -1.795
      -1.859
      -1.876
      -1.853
      -1.799
      -1.711
      -1.569
      -1.362
      -1.109
      -0.845
      -0.598
      -0.382
      -0.209
      -0.081
       0.009
       0.074
       0.126
       0.166
       0.193
       0.209
       0.218
       0.230
       0.254
       0.290
       0.318
       0.319
       0.287
       0.230
       0.153
       0.046
      -0.099
      -0.280
      -0.479
      -0.663
      -0.804
      -0.889
      -0.923
      -0.917
      -0.878
      -0.818
      -0.753
      -0.694
      -0.628
      -0.535
      -0.409
      -0.266
      -0.117
       0.033
       0.189
       0.350
       0.514
       0.672
       0.808
       0.903
       0.948
       0.948
       0.919
       0.885
       0.869
       0.880
       0.902
       0.916
       0.910
       0.878
       0.816
       0.714
       0.567
       0.373
       0.131
      -0.148
      -0.438
      -0.711
      -0.949
      -1.147
      -1.299
      -1.395
      -1.428
      -1.402
      -1.324
      -1.217
      -1.113
      -1.049
      -1.049
      -1.115
      -1.231
      -1.362
      -1.456
      -1.474
      -1.401
      -1.249
      -1.034
      -0.771
      -0.470
      -0.134
       0.235
       0.624
       1.007
       1.349
       1.627
       1.837
       1.982
       2.073
       2.117
       2.123
       2.093
       2.036
       1.968
       1.900
       1.820
       1.706
       1.543
       1.336
       1.101
       0.858
       0.630
       0.428
       0.251
       0.098
      -0.024
      -0.105
      -0.145
      -0.160
      -0.170
      -0.203
      -0.275
      -0.380
      -0.481
      -0.535
      -0.528
      -0.480
      -0.430
      -0.399
      -0.379
      -0.340
      -0.257
      -0.134
      -0.005
       0.108
       0.222
       0.368
       0.558
       0.771
       0.974
       1.151
       1.294
       1.401
       1.468
       1.493
       1.464
       1.369
       1.190
       0.908
       0.519
       0.044
      -0.472
      -0.982
      -1.460
      -1.886
      -2.235
      -2.486
      -2.637
      -2.703
      -2.694
      -2.612
      -2.458
      -2.246
      -1.991
      -1.701
      -1.383
      -1.037
      -0.669
      -0.289
       0.082
       0.431
       0.759
       1.066
       1.344
       1.583
       1.787
       1.961
       2.099
       2.180
       2.181
       2.092
       1.918
       1.676
       1.386
       1.064
       0.719
       0.361
       0.013
      -0.304
      -0.580
      -0.810
      -0.992
      -1.126
      -1.223
      -1.289
      -1.319
      -1.302
      -1.245
      -1.168
      -1.082
      -0.988
      -0.884
      -0.773
      -0.659
      -0.545
      -0.435
      -0.328
      -0.218
      -0.104
       0.007
       0.111
       0.210
       0.301
       0.367
       0.396
       0.387
       0.346
       0.267
       0.137
      -0.045
      -0.265
      -0.504
      -0.746
      -0.982
      -1.210
      -1.433
      -1.651
      -1.862
      -2.069
      -2.270
      -2.450
      -2.571
      -2.590
      -2.485
      -2.253
      -1.904
      -1.449
      -0.913
      -0.324
       0.283
       0.862
       1.365
       1.764
       2.063
       2.288
       2.460
       2.588
       2.678
       2.740
       2.785
       2.821
       2.851
       2.871
       2.871
       2.830
       2.730
       2.545
       2.258
       1.869
       1.407
       0.914
       0.427
      -0.029
      -0.434
      -0.777
      -1.058
      -1.278
      -1.423
      -1.473
      -1.415
      -1.256
      -1.013
      -0.711
      -0.381
      -0.053
       0.255
       0.527
       0.754
       0.934
       1.075
       1.191
       1.285
       1.358
       1.405
       1.417
       1.383
       1.299
       1.180
       1.040
       0.887
       0.723
       0.555
       0.394
       0.238
       0.071
      -0.119
      -0.328
      -0.535
      -0.708
      -0.826
      -0.892
      -0.932
      -0.969
      -1.008
      -1.042
      -1.070
      -1.087
      -1.086
      -1.058
      -1.008
      -0.951
      -0.895
      -0.837
      -0.770
      -0.691
      -0.607
      -0.529
      -0.465
      -0.407
      -0.338
      -0.247
      -0.142
      -0.039
       0.059
       0.157
       0.258
       0.365
       0.489
       0.636
       0.797
       0.943
       1.049
       1.097
       1.083
       1.010
       0.900
       0.780
       0.671
       0.579
       0.493
       0.397
       0.279
       0.143
       0.001
      -0.137
      -0.278
      -0.423
      -0.568
      -0.709
      -0.854
      -1.017
      -1.196
      -1.380
      -1.565
      -1.757
      -1.962
      -2.178
      -2.400
      -2.627
      -2.861
      -3.101
      -3.329
      -3.507
      -3.583
      -3.523
      -3.331
      -3.039
      -2.675
      -2.260
      -1.808
      -1.334
      -0.852
      -0.376
       0.078
       0.504
       0.903
       1.270
       1.584
       1.817
       1.960
       2.019
       2.005
       1.931
       1.813
       1.666
       1.499
       1.314
       1.113
       0.907
       0.721
       0.590
       0.542
       0.583
       0.690
       0.831
       0.985
       1.137
       1.269
       1.363
       1.413
       1.417
       1.383
       1.322
       1.252
       1.192
       1.144
       1.102
       1.066
       1.042
       1.034
       1.038
       1.050
       1.068
       1.098
       1.144
       1.210
       1.271
       1.280
       1.193
       1.007
       0.753
       0.465
       0.159
      -0.157
      -0.462
      -0.720
      -0.905
      -1.015
      -1.075
      -1.107
      -1.113
      -1.081
      -1.007
      -0.912
      -0.820
      -0.737
      -0.656
      -0.575
      -0.494
      -0.409
      -0.316
      -0.223
      -0.137
      -0.061
       0.002
       0.040
       0.030
      -0.036
      -0.148
      -0.288
      -0.434
      -0.570
      -0.684
      -0.780
      -0.865
      -0.938
      -0.991
      -1.012
      -0.991
      -0.922
      -0.813
      -0.678
      -0.532
      -0.374
      -0.204
      -0.030
       0.126
       0.250
       0.333
       0.372
       0.370
       0.335
       0.267
       0.163
       0.028
      -0.120
      -0.255
      -0.369
      -0.469
      -0.567
      -0.665
      -0.752
      -0.804
      -0.801
      -0.744
      -0.656
      -0.560
      -0.464
      -0.359
      -0.233
      -0.076
       0.122
       0.364
       0.647
       0.962
       1.303
       1.659
       2.007
       2.328
       2.614
       2.864
       3.076
       3.246
       3.375
       3.466
       3.512
       3.502
       3.432
       3.306
       3.130
       2.905
       2.634
       2.318
       1.956
       1.547
       1.095
       0.600
       0.058
      -0.516
      -1.085
      -1.605
      -2.053
      -2.429
      -2.740
      -2.994
      -3.202
      -3.380
      -3.538
      -3.686
      -3.822
      -3.938
      -4.023
      -4.073
      -4.093
      -4.079
      -4.014
      -3.879
      -3.671
      -3.405
      -3.106
      -2.800
      -2.517
      -2.269
      -2.047
      -1.819
      -1.556
      -1.240
      -0.866
      -0.444
       0.007
       0.467
       0.920
       1.346
       1.721
       2.020
       2.228
       2.344
       2.369
       2.317
       2.210
       2.070
       1.905
       1.722
       1.540
       1.380
       1.254
       1.156
       1.077
       1.005
       0.933
       0.861
       0.792
       0.730
       0.677
       0.640
       0.629
       0.644
       0.672
       0.690
       0.692
       0.676
       0.637
       0.565
       0.458
       0.323
       0.166
      -0.006
      -0.195
      -0.405
      -0.638
      -0.881
      -1.100
      -1.262
      -1.351
      -1.367
      -1.320
      -1.224
      -1.094
      -0.936
      -0.745
      -0.523
      -0.289
      -0.073
       0.106
       0.242
       0.346
       0.428
       0.503
       0.572
       0.626
       0.658
       0.673
       0.683
       0.700
       0.725
       0.751
       0.767
       0.756
       0.716
       0.662
       0.608
       0.556
       0.505
       0.461
       0.433
       0.421
       0.416
       0.411
       0.402
       0.386
       0.356
       0.311
       0.257
       0.201
       0.155
       0.128
       0.127
       0.153
       0.212
       0.314
       0.456
       0.614
       0.757
       0.869
       0.942
       0.962
       0.913
       0.791
       0.607
       0.388
       0.164
      -0.038
      -0.199
      -0.314
      -0.378
      -0.385
      -0.334
      -0.239
      -0.125
      -0.016
       0.066
       0.098
       0.062
      -0.046
      -0.216
      -0.432
      -0.672
      -0.910
      -1.124
      -1.306
      -1.450
      -1.550
      -1.602
      -1.612
      -1.589
      -1.539
      -1.471
      -1.396
      -1.326
      -1.264
      -1.210
      -1.167
      -1.134
      -1.098
      -1.040
      -0.947
      -0.812
      -0.633
      -0.416
      -0.175
       0.075
       0.326
       0.569
       0.790
       0.981
       1.142
       1.282
       1.412
       1.541
       1.683
       1.836
       1.979
       2.081
       2.125
       2.109
       2.032
       1.890
       1.680
       1.406
       1.079
       0.722
       0.376
       0.079
      -0.143
      -0.278
      -0.321
      -0.275
      -0.156
       0.008
       0.187
       0.349
       0.468
       0.532
       0.549
       0.536
       0.504
       0.462
       0.422
       0.395
       0.386
       0.395
       0.415
       0.436
       0.438
       0.403
       0.327
       0.217
       0.083
      -0.062
      -0.203
      -0.333
      -0.456
      -0.571
      -0.671
      -0.746
      -0.793
      -0.816
      -0.817
      -0.807
      -0.804
      -0.824
      -0.863
      -0.912
      -0.966
      -1.031
      -1.111
      -1.200
      -1.287
      -1.364
      -1.428
      -1.481
      -1.526
      -1.555
      -1.551
      -1.502
      -1.405
      -1.260
      -1.066
      -0.821
      -0.540
      -0.235
       0.084
       0.404
       0.703
       0.954
       1.138
       1.246
       1.272
       1.219
       1.099
       0.938
       0.760
       0.588
       0.448
       0.358
       0.324
       0.337
       0.381
       0.435
       0.480
       0.512
       0.535
       0.547
       0.534
       0.479
       0.376
       0.231
       0.057
      -0.131
      -0.313
      -0.476
      -0.618
      -0.746
      -0.853
      -0.927
      -0.957
      -0.940
      -0.882
      -0.806
      -0.740
      -0.704
      -0.694
      -0.689
      -0.676
      -0.651
      -0.614
      -0.571
      -0.529
      -0.487
      -0.436
      -0.356
      -0.237
      -0.079
       0.110
       0.313
       0.512
       0.697
       0.866
       1.015
       1.135
       1.225
       1.294
       1.352
       1.405
       1.454
       1.509
       1.574
       1.643
       1.707
       1.756
       1.789
       1.796
       1.769
       1.696
       1.567
       1.371
       1.105
       0.782
       0.424
       0.062
      -0.278
      -0.572
      -0.816
      -1.019
      -1.182
      -1.288
      -1.326
      -1.307
      -1.257
      -1.200
      -1.147
      -1.106
      -1.084
      -1.082
      -1.096
      -1.123
      -1.154
      -1.178
      -1.189
      -1.189
      -1.187
      -1.190
      -1.204
      -1.237
      -1.280
      -1.313
      -1.317
      -1.289
      -1.236
      -1.159
      -1.055
      -0.928
      -0.794
      -0.671
      -0.576
      -0.522
      -0.507
      -0.526
      -0.574
      -0.658
      -0.779
      -0.927
      -1.091
      -1.264
      -1.430
      -1.565
      -1.643
      -1.649
      -1.583
      -1.445
      -1.238
      -0.974
      -0.671
      -0.352
      -0.042
       0.237
       0.479
       0.696
       0.910
       1.132
       1.368
       1.612
       1.855
       2.080
       2.274
       2.434
       2.556
       2.630
       2.648
       2.619
       2.559
       2.479
       2.388
       2.294
       2.204
       2.121
       2.046
       1.986
       1.952
       1.946
       1.961
       1.985
       2.006
       2.013
       2.005
       1.985
       1.950
       1.887
       1.786
       1.641
       1.452
       1.212
       0.921
       0.592
       0.243
      -0.119
      -0.502
      -0.911
      -1.341
      -1.779
      -2.202
      -2.584
      -2.905
      -3.157
      -3.340
      -3.452
      -3.494
      -3.475
      -3.405
      -3.291
      -3.138
      -2.956
      -2.752
      -2.520
      -2.247
      -1.920
      -1.534
      -1.092
      -0.615
      -0.135
       0.322
       0.739
       1.106
       1.403
       1.618
       1.751
       1.811
