Origin Time       27/11/2012 12:15:15
Lat.              30.9 N	
Long.             78.4 E	
Depth (Km)         12.0
Magnitude         4.8
 Region           Uttarkashi-Uttarakhand                                           
 Above details taken from IMD 
     
Station Code      TEH
Station Lat.       30.374  N
Station Long.      78.430  E
Station Height(m) 1894.0
Site Class        A   Vs30 between 700 m/sec to 1400 m/sec * 
Record Time       27.11.2012 12:15:06.199
Sampling Rate     200. Hz
 Record Duration   80.020 Sec.
 Direction         E-W (E positive)
Max. Acceleration     -2.692 cm/sec**2
     
  * For reference see Site Classification link of website 
     
 Base Line Corrected and Low Pass Filtered (Cut Off at 35 Hz) Time History
 Acceleration data in cm/sec**2
    
[...]
      -0.111
      -0.052
       0.037
       0.130
       0.195
       0.212
       0.173
       0.093
       0.002
      -0.065
      -0.085
      -0.055
       0.013
       0.091
       0.146
       0.150
       0.083
      -0.054
      -0.240
      -0.436
      -0.602
      -0.705
      -0.730
      -0.680
      -0.567
      -0.404
      -0.211
      -0.010
       0.171
       0.306
       0.373
       0.365
       0.289
       0.163
       0.015
      -0.124
      -0.224
      -0.265
      -0.241
      -0.167
      -0.071
       0.013
       0.055
       0.045
      -0.002
      -0.061
      -0.105
      -0.119
      -0.095
      -0.036
       0.051
       0.160
       0.281
       0.397
       0.493
       0.554
       0.570
       0.540
       0.470
       0.377
       0.283
       0.206
       0.157
       0.137
       0.137
       0.144
       0.144
       0.118
       0.057
      -0.041
      -0.162
      -0.273
      -0.340
      -0.334
      -0.247
      -0.097
       0.080
       0.238
       0.342
       0.377
       0.346
       0.266
       0.155
       0.030
      -0.094
      -0.212
      -0.318
      -0.407
      -0.480
      -0.539
      -0.587
      -0.626
      -0.648
      -0.644
      -0.608
      -0.539
      -0.442
      -0.321
      -0.181
      -0.022
       0.147
       0.311
       0.445
       0.523
       0.530
       0.466
       0.349
       0.205
       0.059
      -0.068
      -0.163
      -0.220
      -0.247
      -0.264
      -0.290
      -0.331
      -0.376
      -0.403
      -0.397
      -0.351
      -0.269
      -0.164
      -0.047
       0.063
       0.151
       0.206
       0.231
       0.239
       0.245
       0.258
       0.276
       0.292
       0.302
       0.306
       0.308
       0.310
       0.310
       0.302
       0.287
       0.268
       0.250
       0.232
       0.212
       0.188
       0.162
       0.137
       0.115
       0.103
       0.104
       0.122
       0.146
       0.162
       0.158
       0.129
       0.074
      -0.004
      -0.105
      -0.217
      -0.318
      -0.383
      -0.393
      -0.356
      -0.294
      -0.237
      -0.206
      -0.208
      -0.239
      -0.279
      -0.303
      -0.290
      -0.231
      -0.138
      -0.034
       0.063
       0.136
       0.171
       0.156
       0.090
      -0.011
      -0.109
      -0.169
      -0.173
      -0.131
      -0.068
      -0.007
       0.030
       0.031
      -0.009
      -0.086
      -0.180
      -0.270
      -0.337
      -0.374
      -0.377
      -0.343
      -0.265
      -0.139
       0.027
       0.205
       0.359
       0.459
       0.499
       0.492
       0.464
       0.437
       0.419
       0.401
       0.370
       0.316
       0.248
       0.180
       0.123
       0.081
       0.044
      -0.004
      -0.077
      -0.179
      -0.305
      -0.435
      -0.550
      -0.631
      -0.672
      -0.678
      -0.663
      -0.635
      -0.594
      -0.538
      -0.460
      -0.361
      -0.250
      -0.137
      -0.031
       0.065
       0.151
       0.227
       0.291
       0.339
       0.369
       0.385
       0.396
       0.410
       0.432
       0.462
       0.493
       0.519
       0.526
       0.502
       0.440
       0.337
       0.200
       0.037
      -0.139
      -0.310
      -0.453
      -0.551
      -0.596
      -0.592
      -0.544
      -0.460
      -0.345
      -0.205
      -0.045
       0.125
       0.293
       0.445
       0.562
       0.629
       0.636
       0.593
       0.526
       0.468
       0.442
       0.451
       0.471
       0.462
       0.390
       0.246
       0.044
      -0.183
      -0.402
      -0.584
      -0.708
      -0.761
      -0.736
      -0.632
      -0.462
      -0.253
      -0.054
       0.086
       0.132
       0.081
      -0.040
      -0.184
      -0.304
      -0.370
      -0.371
      -0.317
      -0.229
      -0.133
      -0.048
       0.018
       0.065
       0.092
       0.096
       0.071
       0.017
      -0.057
      -0.135
      -0.199
      -0.241
      -0.266
      -0.285
      -0.305
      -0.319
      -0.311
      -0.267
      -0.186
      -0.084
       0.015
       0.087
       0.121
       0.124
       0.115
       0.114
       0.131
       0.166
       0.203
       0.223
       0.214
       0.183
       0.142
       0.107
       0.081
       0.059
       0.035
       0.007
      -0.014
      -0.011
       0.032
       0.118
       0.238
       0.372
       0.493
       0.579
       0.614
       0.594
       0.525
       0.420
       0.299
       0.181
       0.082
       0.010
      -0.032
      -0.051
      -0.053
      -0.046
      -0.038
      -0.036
      -0.047
      -0.083
      -0.146
      -0.230
      -0.315
      -0.377
      -0.399
      -0.381
      -0.339
      -0.298
      -0.277
      -0.278
      -0.292
      -0.311
      -0.331
      -0.347
      -0.356
      -0.349
      -0.317
      -0.255
      -0.167
      -0.064
       0.039
       0.129
       0.204
       0.263
       0.305
       0.325
       0.318
       0.284
       0.236
       0.197
       0.191
       0.227
       0.295
       0.366
       0.412
       0.417
       0.382
       0.320
       0.242
       0.155
       0.055
      -0.056
      -0.170
      -0.273
      -0.353
      -0.403
      -0.433
      -0.460
      -0.498
      -0.550
      -0.601
      -0.626
      -0.603
      -0.514
      -0.354
      -0.134
       0.113
       0.340
       0.502
       0.573
       0.552
       0.459
       0.323
       0.164
      -0.002
      -0.163
      -0.305
      -0.413
      -0.481
      -0.509
      -0.504
      -0.478
      -0.442
      -0.412
      -0.403
      -0.423
      -0.464
      -0.497
      -0.496
      -0.447
      -0.361
      -0.260
      -0.159
      -0.066
       0.015
       0.082
       0.132
       0.166
       0.190
       0.217
       0.257
       0.315
       0.386
       0.453
       0.491
       0.484
       0.431
       0.347
       0.250
       0.159
       0.088
       0.057
       0.089
       0.192
       0.353
       0.534
       0.688
       0.775
       0.767
       0.658
       0.465
       0.225
      -0.012
      -0.198
      -0.303
      -0.324
      -0.281
      -0.206
      -0.133
      -0.089
      -0.083
      -0.105
      -0.139
      -0.170
      -0.195
      -0.207
      -0.192
      -0.135
      -0.028
       0.112
       0.254
       0.362
       0.411
       0.387
       0.291
       0.133
      -0.062
      -0.257
      -0.415
      -0.502
      -0.504
      -0.426
      -0.289
      -0.129
       0.023
       0.141
       0.211
       0.226
       0.186
       0.106
       0.008
      -0.073
      -0.110
      -0.089
      -0.020
       0.070
       0.146
       0.181
       0.170
       0.121
       0.051
      -0.021
      -0.080
      -0.115
      -0.121
      -0.094
      -0.038
       0.032
       0.099
       0.148
       0.182
       0.214
       0.260
       0.332
       0.424
       0.520
       0.597
       0.633
       0.621
       0.564
       0.478
       0.378
       0.270
       0.155
       0.030
      -0.101
      -0.225
      -0.320
      -0.372
      -0.386
      -0.382
      -0.386
      -0.419
      -0.480
      -0.552
      -0.608
      -0.632
      -0.625
      -0.601
      -0.580
      -0.566
      -0.551
      -0.522
      -0.474
      -0.419
      -0.377
      -0.360
      -0.369
      -0.398
      -0.435
      -0.460
      -0.454
      -0.409
      -0.330
      -0.234
      -0.144
      -0.075
      -0.032
      -0.006
       0.019
       0.061
       0.129
       0.218
       0.313
       0.399
       0.477
       0.565
       0.683
       0.829
       0.979
       1.095
       1.146
       1.122
       1.039
       0.928
       0.826
       0.760
       0.736
       0.743
       0.752
       0.729
       0.651
       0.509
       0.318
       0.111
      -0.070
      -0.183
      -0.204
      -0.140
      -0.027
       0.088
       0.168
       0.195
       0.171
       0.108
       0.021
      -0.080
      -0.185
      -0.287
      -0.375
      -0.445
      -0.496
      -0.527
      -0.540
      -0.538
      -0.533
      -0.539
      -0.562
      -0.591
      -0.602
      -0.574
      -0.505
      -0.417
      -0.339
      -0.290
      -0.263
      -0.235
      -0.175
      -0.065
       0.089
       0.263
       0.421
       0.533
       0.586
       0.583
       0.546
       0.497
       0.454
       0.420
       0.386
       0.347
       0.303
       0.258
       0.215
       0.176
       0.148
       0.137
       0.149
       0.188
       0.248
       0.317
       0.380
       0.421
       0.430
       0.407
       0.356
       0.287
       0.205
       0.112
       0.011
      -0.088
      -0.166
      -0.205
      -0.197
      -0.150
      -0.088
      -0.048
      -0.057
      -0.130
      -0.258
      -0.414
      -0.572
      -0.711
      -0.829
      -0.936
      -1.053
      -1.195
      -1.364
      -1.549
      -1.725
      -1.868
      -1.957
      -1.976
      -1.919
      -1.786
      -1.577
      -1.310
      -1.013
      -0.730
      -0.508
      -0.373
      -0.329
      -0.346
      -0.379
      -0.390
      -0.360
      -0.289
      -0.191
      -0.075
       0.051
       0.181
       0.309
       0.429
       0.534
       0.624
       0.700
       0.760
       0.808
       0.854
       0.916
       1.013
       1.153
       1.317
       1.470
       1.576
       1.618
       1.611
       1.581
       1.552
       1.531
       1.505
       1.459
       1.376
       1.241
       1.051
       0.817
       0.569
       0.342
       0.165
       0.054
       0.004
       0.002
       0.027
       0.062
       0.092
       0.103
       0.082
       0.012
      -0.112
      -0.284
      -0.480
      -0.668
      -0.818
      -0.922
      -0.993
      -1.056
      -1.120
      -1.176
      -1.203
      -1.180
      -1.106
      -0.997
      -0.880
      -0.776
      -0.698
      -0.643
      -0.595
      -0.529
      -0.424
      -0.274
      -0.088
       0.114
       0.303
       0.452
       0.539
       0.555
       0.509
       0.424
       0.328
       0.247
       0.202
       0.208
       0.269
       0.373
       0.500
       0.628
       0.749
       0.873
       1.008
       1.156
       1.302
       1.424
       1.501
       1.521
       1.479
       1.376
       1.212
       0.991
       0.714
       0.387
       0.024
      -0.347
      -0.689
      -0.965
      -1.150
      -1.244
      -1.269
      -1.253
      -1.223
      -1.191
      -1.156
      -1.111
      -1.055
      -0.995
      -0.944
      -0.906
      -0.876
      -0.841
      -0.792
      -0.722
      -0.632
      -0.527
      -0.424
      -0.347
      -0.316
      -0.340
      -0.414
      -0.526
      -0.664
      -0.820
      -0.979
      -1.116
      -1.196
      -1.187
      -1.078
      -0.884
      -0.638
      -0.383
      -0.150
       0.049
       0.213
       0.343
       0.436
       0.480
       0.466
       0.388
       0.259
       0.108
      -0.023
      -0.091
      -0.066
       0.060
       0.276
       0.558
       0.876
       1.203
       1.511
       1.776
       1.979
       2.117
       2.203
       2.257
       2.292
       2.306
       2.291
       2.232
       2.110
       1.912
       1.634
       1.285
       0.893
       0.492
       0.119
      -0.199
      -0.451
      -0.634
      -0.758
      -0.832
      -0.869
      -0.874
      -0.853
      -0.815
      -0.777
      -0.754
      -0.752
      -0.766
      -0.780
      -0.788
      -0.786
      -0.783
      -0.797
      -0.849
      -0.951
      -1.103
      -1.278
      -1.432
      -1.518
      -1.505
      -1.391
      -1.196
      -0.950
      -0.686
      -0.426
      -0.189
       0.016
       0.189
       0.328
       0.427
       0.477
       0.473
       0.419
       0.332
       0.244
       0.182
       0.165
       0.187
       0.223
       0.245
       0.241
       0.219
       0.205
       0.224
       0.292
       0.398
       0.521
       0.640
       0.748
       0.850
       0.959
       1.079
       1.212
       1.354
       1.497
       1.623
       1.699
       1.694
       1.595
       1.409
       1.157
       0.864
       0.559
       0.268
       0.014
      -0.197
      -0.368
      -0.514
      -0.638
      -0.738
      -0.801
      -0.824
      -0.814
      -0.792
      -0.789
      -0.833
      -0.940
      -1.105
      -1.304
      -1.503
      -1.667
      -1.773
      -1.809
      -1.770
      -1.655
      -1.469
      -1.222
      -0.928
      -0.611
      -0.295
      -0.006
       0.236
       0.418
       0.534
       0.588
       0.591
       0.568
       0.539
       0.511
       0.477
       0.419
       0.335
       0.241
       0.166
       0.119
       0.081
       0.015
      -0.102
      -0.260
      -0.411
      -0.497
      -0.479
      -0.345
      -0.114
       0.174
       0.472
       0.736
       0.937
       1.070
       1.154
       1.219
       1.294
       1.395
       1.520
       1.650
       1.757
       1.815
       1.806
       1.726
       1.591
       1.423
       1.245
       1.065
       0.885
       0.712
       0.552
       0.406
       0.260
       0.087
      -0.128
      -0.375
      -0.621
      -0.826
      -0.961
      -1.027
      -1.051
      -1.073
      -1.133
      -1.258
      -1.455
      -1.706
      -1.981
      -2.242
      -2.461
      -2.618
      -2.692
      -2.666
      -2.530
      -2.295
      -1.989
      -1.652
      -1.312
      -0.978
      -0.640
      -0.279
       0.120
       0.550
       0.984
       1.367
       1.644
       1.779
       1.766
       1.625
       1.393
       1.107
       0.806
       0.524
       0.280
       0.075
      -0.104
      -0.265
      -0.404
      -0.497
      -0.519
      -0.457
      -0.324
      -0.148
       0.042
       0.225
       0.390
       0.545
       0.707
       0.890
       1.092
       1.292
       1.464
       1.587
       1.646
       1.631
       1.534
       1.361
       1.124
       0.839
       0.521
       0.181
      -0.179
      -0.550
      -0.917
      -1.249
      -1.512
      -1.671
      -1.702
      -1.601
      -1.382
      -1.080
      -0.746
      -0.426
      -0.155
       0.057
       0.221
       0.349
       0.444
       0.494
       0.482
       0.398
       0.237
       0.000
      -0.301
      -0.641
      -0.982
      -1.287
      -1.526
      -1.679
      -1.735
      -1.687
      -1.536
      -1.292
      -0.974
      -0.594
      -0.167
       0.288
       0.736
       1.133
       1.442
       1.643
       1.734
       1.727
       1.643
       1.510
       1.357
       1.201
       1.050
       0.904
       0.763
       0.636
       0.529
       0.443
       0.367
       0.291
       0.211
       0.133
       0.063
      -0.001
      -0.067
      -0.146
      -0.240
      -0.329
      -0.379
      -0.355
      -0.249
      -0.083
       0.099
       0.253
       0.354
       0.397
       0.392
       0.349
       0.275
       0.179
       0.074
      -0.021
      -0.100
      -0.178
      -0.287
      -0.461
      -0.709
      -1.003
      -1.284
      -1.492
      -1.586
      -1.562
      -1.446
      -1.280
      -1.105
      -0.946
      -0.805
      -0.673
      -0.538
      -0.399
      -0.263
      -0.139
      -0.038
       0.036
       0.092
       0.148
       0.222
       0.329
       0.466
       0.622
       0.778
       0.916
       1.019
       1.076
       1.076
       1.012
       0.883
       0.706
       0.512
       0.340
       0.215
       0.144
       0.118
       0.121
       0.147
       0.204
       0.300
       0.428
       0.552
       0.622
       0.594
       0.459
       0.253
       0.044
      -0.102
      -0.144
      -0.084
       0.040
       0.166
       0.241
       0.239
       0.165
       0.045
      -0.093
      -0.226
      -0.348
      -0.457
      -0.549
      -0.617
      -0.649
      -0.644
      -0.607
      -0.557
      -0.519
      -0.522
      -0.583
      -0.686
      -0.784
      -0.815
      -0.732
      -0.532
      -0.254
       0.040
       0.284
       0.427
       0.444
       0.339
       0.141
      -0.112
      -0.380
      -0.631
      -0.839
      -0.982
      -1.043
      -1.014
      -0.901
      -0.724
      -0.514
      -0.308
      -0.144
      -0.044
      -0.002
       0.018
       0.063
       0.168
       0.347
       0.592
       0.882
       1.190
       1.482
       1.723
       1.883
       1.951
       1.937
       1.867
       1.758
       1.617
       1.445
       1.252
       1.055
       0.873
       0.717
       0.587
       0.477
       0.380
       0.289
       0.196
       0.099
       0.001
      -0.094
      -0.183
      -0.275
      -0.390
      -0.552
      -0.766
      -1.013
      -1.251
      -1.426
      -1.498
      -1.455
      -1.316
      -1.120
      -0.907
      -0.709
      -0.543
      -0.410
      -0.299
      -0.194
      -0.082
       0.041
       0.168
       0.286
       0.382
       0.445
       0.467
       0.438
       0.353
       0.217
       0.053
      -0.115
      -0.270
      -0.407
      -0.525
      -0.621
      -0.690
      -0.722
      -0.712
      -0.661
      -0.574
      -0.463
      -0.346
      -0.234
      -0.129
      -0.011
       0.140
       0.335
       0.557
       0.772
       0.944
       1.050
       1.084
       1.056
       0.980
       0.869
       0.737
       0.600
       0.473
       0.366
       0.274
       0.186
       0.085
      -0.046
      -0.219
      -0.432
      -0.665
      -0.890
      -1.087
      -1.249
      -1.384
      -1.493
      -1.557
      -1.536
      -1.389
      -1.102
      -0.705
      -0.265
       0.137
       0.441
       0.618
       0.678
       0.658
       0.603
       0.554
       0.533
       0.553
       0.614
       0.707
       0.815
       0.917
       0.988
       1.009
       0.970
       0.870
       0.716
       0.509
       0.252
      -0.052
      -0.382
      -0.702
      -0.967
      -1.142
      -1.219
      -1.213
      -1.158
      -1.087
      -1.022
      -0.971
      -0.917
      -0.835
      -0.704
      -0.513
      -0.268
       0.014
       0.307
       0.581
       0.815
       1.004
       1.149
       1.246
       1.281
       1.235
       1.095
       0.867
       0.573
       0.251
      -0.053
      -0.289
      -0.412
      -0.401
      -0.271
      -0.079
       0.102
       0.216
       0.249
       0.218
       0.153
       0.071
      -0.025
      -0.136
      -0.255
      -0.369
      -0.471
      -0.566
      -0.662
      -0.763
      -0.856
      -0.921
      -0.935
      -0.885
      -0.769
      -0.596
      -0.387
      -0.164
       0.054
       0.267
       0.483
       0.713
       0.953
       1.176
       1.346
       1.431
       1.424
       1.334
       1.184
       0.991
       0.765
       0.511
       0.235
      -0.049
      -0.321
      -0.566
      -0.777
      -0.948
      -1.074
      -1.143
      -1.147
      -1.081
      -0.957
      -0.789
      -0.593
      -0.383
      -0.170
       0.033
       0.217
       0.376
       0.504
       0.592
       0.625
       0.587
       0.466
