Origin Time       04/04/2011 11:31:40
Lat.              29.6 N	
Long.             80.8 E	
Depth (Km)         10.0
Magnitude         5.7
 Region           NEPAL-INDIA-BORDER-REGION                                        
 Above details taken from IMD 
     
Station Code      TEH
Station Lat.       30.374  N
Station Long.      78.430  E
Station Height(m) 1894.0
Site Class        A   Vs30 between 700 m/sec to 1400 m/sec * 
Record Time       04.04.2011 11:32:22.099
Sampling Rate     200. Hz
 Record Duration   89.825 Sec.
 Direction         E-W (E positive)
Max. Acceleration     -6.483 cm/sec**2
     
  * For reference see Site Classification link of website 
     
 Base Line Corrected and Low Pass Filtered (Cut Off at 35 Hz) Time History
 Acceleration data in cm/sec**2
    
[...]
       0.172
       0.170
       0.173
       0.170
       0.154
       0.123
       0.080
       0.034
      -0.007
      -0.038
      -0.061
      -0.075
      -0.082
      -0.088
      -0.107
      -0.150
      -0.217
      -0.302
      -0.399
      -0.500
      -0.600
      -0.694
      -0.785
      -0.874
      -0.959
      -1.037
      -1.104
      -1.157
      -1.197
      -1.228
      -1.252
      -1.269
      -1.278
      -1.279
      -1.278
      -1.268
      -1.237
      -1.173
      -1.077
      -0.956
      -0.817
      -0.667
      -0.513
      -0.358
      -0.199
      -0.036
       0.134
       0.306
       0.475
       0.632
       0.770
       0.881
       0.962
       1.006
       1.005
       0.966
       0.901
       0.825
       0.742
       0.655
       0.564
       0.471
       0.375
       0.282
       0.196
       0.123
       0.068
       0.039
       0.046
       0.092
       0.174
       0.285
       0.421
       0.577
       0.744
       0.909
       1.059
       1.180
       1.261
       1.304
       1.320
       1.315
       1.293
       1.260
       1.226
       1.195
       1.161
       1.109
       1.030
       0.917
       0.773
       0.604
       0.417
       0.217
       0.005
      -0.214
      -0.433
      -0.649
      -0.865
      -1.080
      -1.283
      -1.459
      -1.597
      -1.685
      -1.713
      -1.678
      -1.583
      -1.438
      -1.254
      -1.044
      -0.826
      -0.615
      -0.421
      -0.249
      -0.098
       0.034
       0.149
       0.243
       0.308
       0.340
       0.343
       0.319
       0.272
       0.209
       0.139
       0.068
      -0.005
      -0.081
      -0.154
      -0.211
      -0.239
      -0.225
      -0.165
      -0.068
       0.049
       0.175
       0.306
       0.433
       0.539
       0.609
       0.639
       0.634
       0.607
       0.571
       0.534
       0.501
       0.467
       0.432
       0.400
       0.370
       0.335
       0.284
       0.211
       0.113
      -0.010
      -0.152
      -0.297
      -0.430
      -0.540
      -0.616
      -0.656
      -0.666
      -0.660
      -0.640
      -0.599
      -0.527
      -0.424
      -0.296
      -0.154
      -0.012
       0.110
       0.194
       0.231
       0.220
       0.171
       0.103
       0.034
      -0.028
      -0.080
      -0.117
      -0.131
      -0.117
      -0.079
      -0.025
       0.045
       0.126
       0.212
       0.288
       0.344
       0.369
       0.355
       0.303
       0.219
       0.109
      -0.016
      -0.144
      -0.261
      -0.356
      -0.429
      -0.482
      -0.521
      -0.562
      -0.622
      -0.711
      -0.828
      -0.967
      -1.115
      -1.257
      -1.373
      -1.455
      -1.500
      -1.510
      -1.487
      -1.433
      -1.352
      -1.250
      -1.132
      -0.999
      -0.850
      -0.679
      -0.485
      -0.273
      -0.057
       0.155
       0.355
       0.534
       0.681
       0.791
       0.867
       0.915
       0.940
       0.943
       0.926
       0.888
       0.834
       0.773
       0.719
       0.678
       0.651
       0.634
       0.621
       0.605
       0.579
       0.541
       0.496
       0.441
       0.372
       0.287
       0.191
       0.089
      -0.017
      -0.121
      -0.212
      -0.276
      -0.308
      -0.307
      -0.272
      -0.207
      -0.114
       0.005
       0.142
       0.283
       0.408
       0.498
       0.542
       0.531
       0.464
       0.347
       0.195
       0.021
      -0.166
      -0.353
      -0.524
      -0.664
      -0.767
      -0.827
      -0.843
      -0.818
      -0.757
      -0.669
      -0.567
      -0.470
      -0.395
      -0.349
      -0.324
      -0.312
      -0.303
      -0.287
      -0.252
      -0.191
      -0.104
       0.002
       0.116
       0.221
       0.304
       0.357
       0.383
       0.387
       0.372
       0.346
       0.315
       0.281
       0.240
       0.186
       0.118
       0.032
      -0.074
      -0.195
      -0.320
      -0.437
      -0.540
      -0.624
      -0.682
      -0.710
      -0.714
      -0.700
      -0.675
      -0.644
      -0.608
      -0.560
      -0.487
      -0.379
      -0.228
      -0.027
       0.225
       0.521
       0.845
       1.178
       1.501
       1.795
       2.041
       2.232
       2.363
       2.431
       2.426
       2.341
       2.178
       1.948
       1.667
       1.358
       1.042
       0.737
       0.457
       0.217
       0.027
      -0.112
      -0.206
      -0.264
      -0.290
      -0.288
      -0.262
      -0.215
      -0.150
      -0.072
       0.011
       0.088
       0.147
       0.180
       0.179
       0.150
       0.103
       0.044
      -0.032
      -0.122
      -0.223
      -0.327
      -0.430
      -0.530
      -0.622
      -0.699
      -0.752
      -0.768
      -0.735
      -0.650
      -0.520
      -0.353
      -0.160
       0.049
       0.258
       0.456
       0.640
       0.807
       0.953
       1.079
       1.182
       1.259
       1.308
       1.332
       1.337
       1.319
       1.276
       1.206
       1.120
       1.024
       0.921
       0.812
       0.701
       0.594
       0.498
       0.413
       0.340
       0.268
       0.187
       0.086
      -0.043
      -0.209
      -0.414
      -0.647
      -0.884
      -1.103
      -1.287
      -1.429
      -1.524
      -1.580
      -1.607
      -1.609
      -1.588
      -1.541
      -1.469
      -1.368
      -1.230
      -1.053
      -0.847
      -0.628
      -0.417
      -0.231
      -0.084
       0.023
       0.092
       0.126
       0.122
       0.079
      -0.001
      -0.118
      -0.267
      -0.436
      -0.599
      -0.733
      -0.828
      -0.880
      -0.895
      -0.885
      -0.856
      -0.811
      -0.743
      -0.648
      -0.527
      -0.384
      -0.224
      -0.057
       0.112
       0.279
       0.445
       0.604
       0.744
       0.856
       0.939
       0.990
       1.010
       1.004
       0.987
       0.968
       0.954
       0.945
       0.939
       0.928
       0.906
       0.875
       0.842
       0.810
       0.777
       0.733
       0.671
       0.582
       0.461
       0.316
       0.159
      -0.002
      -0.165
      -0.328
      -0.489
      -0.642
      -0.785
      -0.910
      -1.006
      -1.067
      -1.098
      -1.103
      -1.090
      -1.063
      -1.025
      -0.979
      -0.930
      -0.896
      -0.890
      -0.920
      -0.979
      -1.063
      -1.170
      -1.294
      -1.424
      -1.545
      -1.645
      -1.718
      -1.757
      -1.760
      -1.726
      -1.651
      -1.532
      -1.364
      -1.151
      -0.900
      -0.620
      -0.329
      -0.037
       0.253
       0.545
       0.835
       1.112
       1.363
       1.578
       1.748
       1.866
       1.926
       1.934
       1.897
       1.826
       1.732
       1.628
       1.520
       1.410
       1.302
       1.195
       1.087
       0.969
       0.842
       0.709
       0.581
       0.465
       0.371
       0.305
       0.260
       0.229
       0.208
       0.201
       0.212
       0.234
       0.262
       0.290
       0.318
       0.345
       0.372
       0.394
       0.398
       0.369
       0.294
       0.172
       0.005
      -0.201
      -0.437
      -0.694
      -0.968
      -1.259
      -1.558
      -1.842
      -2.085
      -2.270
      -2.392
      -2.456
      -2.471
      -2.450
      -2.400
      -2.322
      -2.220
      -2.100
      -1.964
      -1.816
      -1.666
      -1.519
      -1.374
      -1.225
      -1.068
      -0.908
      -0.748
      -0.591
      -0.440
      -0.294
      -0.148
       0.005
       0.168
       0.337
       0.511
       0.690
       0.872
       1.052
       1.223
       1.383
       1.524
       1.635
       1.709
       1.742
       1.739
       1.706
       1.654
       1.590
       1.509
       1.404
       1.271
       1.123
       0.976
       0.845
       0.739
       0.659
       0.597
       0.542
       0.487
       0.435
       0.386
       0.340
       0.296
       0.252
       0.198
       0.121
       0.012
      -0.121
      -0.272
      -0.431
      -0.586
      -0.730
      -0.858
      -0.968
      -1.058
      -1.121
      -1.153
      -1.158
      -1.139
      -1.101
      -1.047
      -0.977
      -0.882
      -0.752
      -0.589
      -0.405
      -0.217
      -0.040
       0.119
       0.255
       0.379
       0.504
       0.637
       0.774
       0.911
       1.041
       1.158
       1.256
       1.334
       1.398
       1.457
       1.513
       1.561
       1.581
       1.547
       1.441
       1.265
       1.041
       0.793
       0.543
       0.308
       0.095
      -0.096
      -0.268
      -0.421
      -0.552
      -0.662
      -0.760
      -0.855
      -0.952
      -1.048
      -1.134
      -1.199
      -1.228
      -1.217
      -1.164
      -1.066
      -0.919
      -0.731
      -0.514
      -0.284
      -0.047
       0.189
       0.418
       0.634
       0.831
       0.997
       1.121
       1.201
       1.240
       1.241
       1.209
       1.150
       1.077
       0.999
       0.918
       0.836
       0.751
       0.658
       0.556
       0.445
       0.334
       0.228
       0.129
       0.039
      -0.034
      -0.087
      -0.121
      -0.136
      -0.135
      -0.124
      -0.115
      -0.112
      -0.117
      -0.134
      -0.172
      -0.237
      -0.330
      -0.448
      -0.586
      -0.730
      -0.861
      -0.968
      -1.051
      -1.105
      -1.122
      -1.094
      -1.015
      -0.886
      -0.712
      -0.508
      -0.295
      -0.100
       0.055
       0.151
       0.186
       0.176
       0.148
       0.127
       0.124
       0.145
       0.200
       0.293
       0.429
       0.607
       0.824
       1.068
       1.326
       1.585
       1.836
       2.069
       2.280
       2.466
       2.631
       2.771
       2.880
       2.949
       2.974
       2.952
       2.886
       2.787
       2.670
       2.539
       2.392
       2.224
       2.034
       1.820
       1.574
       1.293
       0.979
       0.640
       0.285
      -0.070
      -0.414
      -0.735
      -1.030
      -1.296
      -1.532
      -1.737
      -1.908
      -2.038
      -2.122
      -2.166
      -2.183
      -2.185
      -2.179
      -2.175
      -2.183
      -2.207
      -2.239
      -2.270
      -2.296
      -2.316
      -2.331
      -2.342
      -2.350
      -2.351
      -2.350
      -2.354
      -2.371
      -2.400
      -2.428
      -2.443
      -2.440
      -2.421
      -2.385
      -2.332
      -2.252
      -2.129
      -1.952
      -1.722
      -1.448
      -1.133
      -0.782
      -0.406
      -0.016
       0.381
       0.775
       1.156
       1.515
       1.839
       2.118
       2.345
       2.517
       2.634
       2.699
       2.709
       2.668
       2.587
       2.482
       2.359
       2.219
       2.064
       1.900
       1.731
       1.561
       1.393
       1.233
       1.086
       0.956
       0.845
       0.755
       0.682
       0.619
       0.559
       0.506
       0.461
       0.428
       0.404
       0.380
       0.337
       0.262
       0.148
      -0.002
      -0.188
      -0.418
      -0.694
      -1.011
      -1.359
      -1.726
      -2.100
      -2.470
      -2.824
      -3.156
      -3.450
      -3.690
      -3.858
      -3.938
      -3.916
      -3.785
      -3.548
      -3.219
      -2.812
      -2.343
      -1.833
      -1.305
      -0.772
      -0.236
       0.308
       0.858
       1.401
       1.921
       2.392
       2.789
       3.096
       3.303
       3.405
       3.401
       3.299
       3.110
       2.842
       2.500
       2.088
       1.615
       1.091
       0.533
      -0.037
      -0.592
      -1.112
      -1.583
      -1.996
      -2.341
      -2.610
      -2.792
      -2.878
      -2.860
      -2.737
      -2.513
      -2.192
      -1.782
      -1.297
      -0.755
      -0.174
       0.426
       1.021
       1.581
       2.085
       2.518
       2.868
       3.122
       3.279
       3.353
       3.356
       3.296
       3.170
       2.974
       2.703
       2.360
       1.956
       1.504
       1.009
       0.483
      -0.051
      -0.560
      -1.017
      -1.408
      -1.734
      -1.999
      -2.210
      -2.373
      -2.488
      -2.552
      -2.566
      -2.535
      -2.461
      -2.343
      -2.186
      -1.998
      -1.794
      -1.589
      -1.396
      -1.218
      -1.043
      -0.857
      -0.653
      -0.439
      -0.224
      -0.012
       0.194
       0.397
       0.603
       0.817
       1.041
       1.267
       1.492
       1.712
       1.921
       2.112
       2.280
       2.418
       2.516
       2.561
       2.552
       2.496
       2.402
       2.276
       2.120
       1.932
       1.707
       1.444
       1.152
       0.845
       0.532
       0.223
      -0.071
      -0.332
      -0.547
      -0.709
      -0.819
      -0.880
      -0.898
      -0.880
      -0.829
      -0.749
      -0.642
      -0.507
      -0.339
      -0.134
       0.099
       0.340
       0.571
       0.778
       0.954
       1.092
       1.196
       1.274
       1.331
       1.361
       1.347
       1.270
       1.106
       0.839
       0.464
      -0.011
      -0.570
      -1.197
      -1.869
      -2.560
      -3.248
      -3.914
      -4.539
      -5.101
      -5.585
      -5.978
      -6.268
      -6.441
      -6.483
      -6.383
      -6.131
      -5.723
      -5.166
      -4.479
      -3.688
      -2.820
      -1.906
      -0.973
      -0.041
       0.872
       1.743
       2.546
       3.260
       3.868
       4.347
       4.674
       4.834
       4.830
       4.678
       4.403
       4.032
       3.594
       3.108
       2.586
       2.036
       1.466
       0.891
       0.329
      -0.187
      -0.626
      -0.968
      -1.198
      -1.307
      -1.285
      -1.140
      -0.888
      -0.543
      -0.117
       0.375
       0.910
       1.455
       1.980
       2.460
       2.876
       3.217
       3.480
       3.664
       3.764
       3.777
       3.695
       3.511
       3.227
       2.859
       2.431
       1.957
       1.445
       0.898
       0.327
      -0.258
      -0.854
      -1.453
      -2.047
      -2.622
      -3.157
      -3.628
      -4.007
      -4.271
      -4.401
      -4.381
      -4.202
      -3.869
      -3.404
      -2.830
      -2.164
      -1.425
      -0.631
       0.194
       1.023
       1.822
       2.558
       3.209
       3.759
       4.200
       4.521
       4.719
       4.797
       4.762
       4.624
       4.397
       4.096
       3.730
       3.306
       2.838
       2.342
       1.832
       1.321
       0.818
       0.333
      -0.128
      -0.559
      -0.951
      -1.295
      -1.592
      -1.848
      -2.069
      -2.256
      -2.405
      -2.519
      -2.598
      -2.645
      -2.668
      -2.673
      -2.661
      -2.627
      -2.567
      -2.485
      -2.387
      -2.282
      -2.182
      -2.100
      -2.046
      -2.027
      -2.050
      -2.117
      -2.223
      -2.355
      -2.495
      -2.623
      -2.713
      -2.744
      -2.703
      -2.589
      -2.409
      -2.179
      -1.915
      -1.632
      -1.335
      -1.021
      -0.695
      -0.365
      -0.039
       0.276
       0.573
       0.846
       1.089
       1.303
       1.484
       1.623
       1.712
       1.747
       1.726
       1.653
       1.542
       1.403
       1.241
       1.060
       0.870
       0.682
       0.500
       0.325
       0.166
       0.040
      -0.037
      -0.059
      -0.033
       0.033
       0.125
       0.234
       0.359
       0.500
       0.653
       0.812
       0.977
       1.155
       1.349
       1.553
       1.754
       1.931
       2.065
       2.145
       2.180
       2.179
       2.144
       2.067
       1.941
       1.768
       1.548
       1.278
       0.961
       0.613
       0.258
      -0.075
      -0.360
      -0.583
      -0.740
      -0.839
      -0.886
      -0.887
      -0.853
      -0.796
      -0.727
      -0.653
      -0.583
      -0.529
      -0.492
      -0.466
      -0.442
      -0.418
      -0.393
      -0.375
      -0.371
      -0.387
      -0.417
      -0.457
      -0.500
      -0.547
      -0.601
      -0.667
      -0.752
      -0.857
      -0.977
      -1.105
      -1.234
      -1.358
      -1.466
      -1.543
      -1.580
      -1.576
      -1.528
      -1.428
      -1.266
      -1.040
      -0.751
      -0.408
      -0.028
       0.362
       0.738
       1.085
       1.394
       1.668
       1.918
       2.153
       2.370
       2.558
       2.707
       2.809
       2.854
       2.834
       2.744
       2.584
       2.348
       2.032
       1.637
       1.182
       0.690
       0.192
      -0.283
      -0.708
      -1.068
      -1.353
      -1.561
      -1.691
      -1.755
      -1.772
      -1.760
      -1.733
      -1.703
      -1.680
      -1.665
      -1.661
      -1.674
      -1.705
      -1.751
      -1.802
      -1.848
      -1.889
      -1.922
      -1.938
      -1.926
      -1.877
      -1.778
      -1.624
      -1.422
      -1.184
      -0.922
      -0.644
      -0.362
      -0.089
       0.161
       0.371
       0.523
       0.605
       0.624
       0.601
       0.556
       0.507
       0.467
       0.455
       0.491
       0.589
       0.747
       0.947
       1.160
       1.376
       1.608
       1.876
       2.177
       2.483
       2.761
       2.985
       3.138
       3.210
       3.199
       3.107
       2.932
       2.674
       2.343
       1.964
       1.565
       1.159
       0.751
       0.333
      -0.102
      -0.556
      -1.020
      -1.481
      -1.927
      -2.349
      -2.729
      -3.055
      -3.319
      -3.516
      -3.638
      -3.672
      -3.614
      -3.466
      -3.230
      -2.910
      -2.517
      -2.068
      -1.585
      -1.090
      -0.600
      -0.125
       0.329
       0.752
       1.127
       1.442
       1.696
       1.897
       2.050
       2.147
       2.187
       2.173
       2.115
       2.019
       1.897
       1.753
       1.591
       1.411
       1.219
       1.021
       0.816
       0.604
       0.386
       0.174
      -0.020
      -0.177
      -0.281
      -0.314
      -0.271
      -0.154
       0.026
       0.256
       0.513
       0.772
       1.014
       1.226
       1.390
       1.490
       1.518
       1.476
       1.373
       1.217
       1.018
       0.777
       0.486
       0.137
      -0.263
      -0.696
      -1.133
      -1.540
      -1.886
      -2.143
      -2.304
      -2.370
      -2.346
      -2.234
      -2.039
      -1.776
      -1.467
      -1.136
      -0.801
      -0.469
      -0.137
       0.200
       0.534
       0.847
       1.124
       1.349
       1.510
       1.603
       1.639
       1.643
       1.636
       1.629
       1.617
       1.587
       1.518
       1.393
       1.210
       0.976
       0.700
       0.392
       0.064
      -0.268
      -0.592
      -0.904
      -1.193
      -1.447
      -1.653
      -1.801
      -1.895
      -1.947
      -1.983
      -2.016
      -2.045
      -2.054
      -2.034
      -1.984
      -1.906
      -1.800
