Origin Time       20/06/2011 06:27:18
Lat.              30.5 N	
Long.             79.4 E	
Depth (Km)         12.0
Magnitude         4.6
 Region           Chamoli-Uttarakhand                                              
 Above details taken from IMD 
   
Station Code      TEH
Station Lat.       30.374
Station Long.      78.430
Station Height(m) 1894.0
Site Class        A   Vs30 between 700 m/sec to 1400 m/sec * 
Record Time       20.06.2011 06:27:06.529
Sampling Rate     200. Hz
 Record Duration   93.285 Sec.
 Direction         Vert. (Up positive)
Max. Acceleration     -7.476 cm/sec**2
     
  * For reference see Site Classification link of website 
     
 Base Line Corrected and Low Pass Filtered (Cut Off at 35 Hz) Time History
 Acceleration data in cm/sec**2
    
[...]
       0.371
       0.319
       0.351
       0.387
       0.351
       0.215
       0.008
      -0.212
      -0.397
      -0.529
      -0.609
      -0.644
      -0.633
      -0.565
      -0.428
      -0.216
       0.047
       0.313
       0.522
       0.618
       0.568
       0.373
       0.071
      -0.267
      -0.573
      -0.799
      -0.925
      -0.953
      -0.888
      -0.737
      -0.508
      -0.218
       0.103
       0.416
       0.680
       0.857
       0.909
       0.822
       0.621
       0.366
       0.126
      -0.056
      -0.162
      -0.188
      -0.137
      -0.007
       0.195
       0.441
       0.684
       0.867
       0.952
       0.929
       0.808
       0.607
       0.340
       0.026
      -0.312
      -0.627
      -0.866
      -0.985
      -0.980
      -0.887
      -0.770
      -0.689
      -0.678
      -0.725
      -0.779
      -0.767
      -0.643
      -0.412
      -0.133
       0.106
       0.237
       0.237
       0.138
      -0.001
      -0.134
      -0.230
      -0.271
      -0.237
      -0.114
       0.094
       0.357
       0.623
       0.838
       0.976
       1.054
       1.105
       1.139
       1.131
       1.049
       0.887
       0.674
       0.454
       0.259
       0.094
      -0.060
      -0.216
      -0.370
      -0.493
      -0.554
      -0.541
      -0.463
      -0.351
      -0.236
      -0.138
      -0.065
      -0.029
      -0.061
      -0.195
      -0.428
      -0.704
      -0.937
      -1.055
      -1.041
      -0.931
      -0.779
      -0.615
      -0.437
      -0.230
       0.002
       0.241
       0.468
       0.669
       0.827
       0.918
       0.928
       0.870
       0.779
       0.688
       0.603
       0.505
       0.377
       0.233
       0.122
       0.082
       0.110
       0.162
       0.200
       0.222
       0.255
       0.323
       0.411
       0.461
       0.399
       0.187
      -0.138
      -0.477
      -0.729
      -0.848
      -0.854
      -0.808
      -0.754
      -0.694
      -0.600
      -0.448
      -0.247
      -0.026
       0.188
       0.372
       0.487
       0.481
       0.318
       0.016
      -0.352
      -0.687
      -0.912
      -1.001
      -0.967
      -0.828
      -0.601
      -0.315
      -0.031
       0.184
       0.300
       0.348
       0.395
       0.492
       0.641
       0.796
       0.878
       0.818
       0.590
       0.230
      -0.174
      -0.518
      -0.725
      -0.781
      -0.727
      -0.618
      -0.486
      -0.327
      -0.124
       0.131
       0.424
       0.714
       0.938
       1.040
       0.995
       0.814
       0.527
       0.175
      -0.175
      -0.433
      -0.508
      -0.363
      -0.050
       0.309
       0.587
       0.718
       0.717
       0.649
       0.567
       0.488
       0.405
       0.309
       0.198
       0.068
      -0.091
      -0.285
      -0.497
      -0.677
      -0.767
      -0.744
      -0.645
      -0.547
      -0.522
      -0.597
      -0.747
      -0.910
      -1.011
      -0.992
      -0.836
      -0.558
      -0.196
       0.200
       0.569
       0.841
       0.957
       0.891
       0.669
       0.358
       0.035
      -0.240
      -0.430
      -0.517
      -0.488
      -0.339
      -0.091
       0.217
       0.541
       0.831
       1.030
       1.079
       0.937
       0.615
       0.180
      -0.261
      -0.613
      -0.818
      -0.868
      -0.784
      -0.587
      -0.301
       0.044
       0.405
       0.733
       0.977
       1.089
       1.036
       0.819
       0.471
       0.047
      -0.395
      -0.805
      -1.128
      -1.303
      -1.275
      -1.023
      -0.594
      -0.086
       0.380
       0.720
       0.896
       0.906
       0.767
       0.498
       0.131
      -0.288
      -0.688
      -0.983
      -1.102
      -1.034
      -0.827
      -0.555
      -0.271
       0.010
       0.294
       0.569
       0.794
       0.914
       0.912
       0.836
       0.777
       0.805
       0.933
       1.107
       1.240
       1.261
       1.148
       0.934
       0.678
       0.427
       0.207
       0.026
      -0.112
      -0.210
      -0.278
      -0.334
      -0.394
      -0.466
      -0.549
      -0.633
      -0.714
      -0.798
      -0.894
      -1.004
      -1.121
      -1.231
      -1.314
      -1.341
      -1.280
      -1.106
      -0.823
      -0.463
      -0.086
       0.239
       0.464
       0.581
       0.616
       0.598
       0.550
       0.479
       0.384
       0.263
       0.119
      -0.042
      -0.209
      -0.374
      -0.528
      -0.664
      -0.768
      -0.823
      -0.808
      -0.713
      -0.552
      -0.363
      -0.183
      -0.021
       0.144
       0.343
       0.589
       0.866
       1.129
       1.323
       1.411
       1.387
       1.271
       1.085
       0.850
       0.593
       0.348
       0.148
       0.009
      -0.076
      -0.125
      -0.156
      -0.179
      -0.201
      -0.229
      -0.256
      -0.261
      -0.215
      -0.106
       0.047
       0.211
       0.360
       0.468
       0.500
       0.410
       0.174
      -0.183
      -0.587
      -0.944
      -1.184
      -1.287
      -1.281
      -1.206
      -1.085
      -0.913
      -0.671
      -0.357
       0.003
       0.356
       0.648
       0.854
       0.990
       1.087
       1.161
       1.195
       1.165
       1.065
       0.910
       0.718
       0.496
       0.234
      -0.074
      -0.403
      -0.691
      -0.869
      -0.902
      -0.804
      -0.624
      -0.415
      -0.212
      -0.029
       0.134
       0.266
       0.351
       0.373
       0.336
       0.260
       0.163
       0.047
      -0.098
      -0.286
      -0.506
      -0.710
      -0.827
      -0.807
      -0.662
      -0.449
      -0.235
      -0.049
       0.116
       0.279
       0.441
       0.573
       0.639
       0.620
       0.537
       0.433
       0.341
       0.270
       0.220
       0.202
       0.233
       0.326
       0.472
       0.633
       0.764
       0.828
       0.809
       0.703
       0.512
       0.246
      -0.071
      -0.402
      -0.714
      -0.976
      -1.159
      -1.244
      -1.232
      -1.139
      -0.977
      -0.750
      -0.458
      -0.116
       0.244
       0.575
       0.822
       0.943
       0.911
       0.719
       0.379
      -0.082
      -0.619
      -1.176
      -1.680
      -2.046
      -2.194
      -2.077
      -1.711
      -1.159
      -0.506
       0.168
       0.798
       1.330
       1.720
       1.933
       1.951
       1.788
       1.489
       1.112
       0.705
       0.295
      -0.091
      -0.420
      -0.646
      -0.726
      -0.637
      -0.402
      -0.087
       0.227
       0.483
       0.661
       0.766
       0.795
       0.734
       0.567
       0.313
       0.032
      -0.196
      -0.315
      -0.313
      -0.217
      -0.058
       0.143
       0.370
       0.596
       0.773
       0.842
       0.756
       0.504
       0.116
      -0.364
      -0.888
      -1.408
      -1.855
      -2.154
      -2.251
      -2.133
      -1.828
      -1.375
      -0.814
      -0.179
       0.493
       1.153
       1.734
       2.164
       2.383
       2.363
       2.123
       1.723
       1.242
       0.736
       0.233
      -0.248
      -0.671
      -0.974
      -1.107
      -1.058
      -0.868
      -0.619
      -0.398
      -0.246
      -0.136
       0.001
       0.209
       0.464
       0.682
       0.768
       0.680
       0.454
       0.174
      -0.084
      -0.296
      -0.489
      -0.702
      -0.940
      -1.155
      -1.271
      -1.233
      -1.049
      -0.788
      -0.527
      -0.303
      -0.114
       0.051
       0.178
       0.229
       0.174
       0.023
      -0.163
      -0.288
      -0.276
      -0.115
       0.138
       0.400
       0.611
       0.759
       0.865
       0.946
       0.985
       0.931
       0.743
       0.433
       0.088
      -0.163
      -0.216
      -0.053
       0.246
       0.548
       0.734
       0.745
       0.573
       0.238
      -0.224
      -0.764
      -1.322
      -1.843
      -2.271
      -2.550
      -2.636
      -2.527
      -2.259
      -1.873
      -1.394
      -0.835
      -0.228
       0.365
       0.874
       1.248
       1.476
       1.569
       1.538
       1.390
       1.135
       0.807
       0.460
       0.156
      -0.047
      -0.113
      -0.051
       0.096
       0.281
       0.486
       0.706
       0.929
       1.119
       1.250
       1.325
       1.374
       1.422
       1.458
       1.428
       1.271
       0.967
       0.553
       0.108
      -0.292
      -0.595
      -0.766
      -0.784
      -0.644
      -0.377
      -0.060
       0.199
       0.297
       0.189
      -0.081
      -0.406
      -0.675
      -0.833
      -0.890
      -0.901
      -0.907
      -0.896
      -0.808
      -0.600
      -0.304
      -0.023
       0.127
       0.093
      -0.096
      -0.365
      -0.647
      -0.913
      -1.159
      -1.374
      -1.531
      -1.606
      -1.595
      -1.500
      -1.321
      -1.060
      -0.743
      -0.399
      -0.034
       0.370
       0.832
       1.336
       1.829
       2.234
       2.476
       2.520
       2.392
       2.185
       2.004
       1.879
       1.728
       1.423
       0.923
       0.341
      -0.131
      -0.355
      -0.328
      -0.139
       0.111
       0.347
       0.512
       0.554
       0.442
       0.165
      -0.262
      -0.790
      -1.315
      -1.710
      -1.890
      -1.868
      -1.745
      -1.628
      -1.570
      -1.563
      -1.582
      -1.620
      -1.672
      -1.718
      -1.727
      -1.689
      -1.607
      -1.458
      -1.200
      -0.824
      -0.394
      -0.011
       0.268
       0.461
       0.621
       0.775
       0.903
       0.969
       0.943
       0.818
       0.625
       0.444
       0.381
       0.518
       0.841
       1.246
       1.607
       1.861
       2.013
       2.085
       2.071
       1.950
       1.733
       1.477
       1.254
       1.134
       1.166
       1.371
       1.715
       2.103
       2.410
       2.546
       2.488
       2.269
       1.932
       1.502
       1.008
       0.508
       0.084
      -0.204
      -0.349
      -0.384
      -0.362
      -0.339
      -0.372
      -0.507
      -0.769
      -1.162
      -1.684
      -2.298
      -2.909
      -3.375
      -3.568
      -3.447
      -3.074
      -2.573
      -2.062
      -1.616
      -1.275
      -1.068
      -1.013
      -1.099
      -1.262
      -1.403
      -1.423
      -1.275
      -0.979
      -0.620
      -0.294
      -0.058
       0.094
       0.201
       0.284
       0.324
       0.277
       0.122
      -0.108
      -0.315
      -0.385
      -0.248
       0.076
       0.497
       0.906
       1.224
       1.413
       1.468
       1.402
       1.227
       0.959
       0.631
       0.310
       0.078
      -0.015
       0.011
       0.092
       0.181
       0.286
       0.453
       0.695
       0.959
       1.153
       1.221
       1.169
       1.028
       0.812
       0.539
       0.257
       0.064
       0.063
       0.296
       0.701
       1.142
       1.492
       1.721
       1.883
       2.028
       2.115
       2.042
       1.731
       1.183
       0.436
      -0.475
      -1.502
      -2.545
      -3.450
      -4.080
      -4.367
      -4.314
      -3.934
      -3.233
      -2.246
      -1.077
       0.124
       1.231
       2.173
       2.907
       3.384
       3.569
       3.472
       3.138
       2.616
       1.946
       1.192
       0.451
      -0.180
      -0.652
      -0.981
      -1.222
      -1.426
      -1.635
      -1.875
      -2.159
      -2.471
      -2.762
      -2.959
      -3.007
      -2.889
      -2.639
      -2.335
      -2.090
      -1.994
      -2.062
      -2.210
      -2.314
      -2.293
      -2.151
      -1.952
      -1.764
      -1.607
      -1.454
      -1.258
      -0.986
      -0.644
      -0.258
       0.151
       0.583
       1.048
       1.560
       2.121
       2.723
       3.351
       3.994
       4.640
       5.273
       5.860
       6.345
       6.655
       6.709
       6.438
       5.834
       4.977
       4.021
       3.124
       2.376
       1.765
       1.195
       0.560
      -0.198
      -1.063
      -1.974
      -2.865
      -3.690
      -4.410
      -4.984
      -5.369
      -5.537
      -5.473
      -5.169
      -4.625
      -3.866
      -2.969
      -2.041
      -1.179
      -0.429
       0.188
       0.634
       0.850
       0.813
       0.580
       0.263
      -0.037
      -0.263
      -0.388
      -0.403
      -0.326
      -0.196
      -0.048
       0.120
       0.346
       0.664
       1.067
       1.514
       1.959
       2.374
       2.731
       2.975
       3.029
       2.844
       2.434
       1.859
       1.186
       0.460
      -0.277
      -0.957
      -1.500
      -1.852
      -2.031
      -2.116
      -2.201
      -2.344
      -2.542
      -2.752
      -2.927
      -3.041
      -3.099
      -3.123
      -3.125
      -3.071
      -2.889
      -2.513
      -1.926
      -1.173
      -0.342
       0.474
       1.212
       1.855
       2.419
       2.931
       3.394
       3.781
       4.061
       4.233
       4.357
       4.535
       4.847
       5.269
       5.654
       5.808
       5.592
       4.970
       4.000
       2.794
       1.472
       0.118
      -1.243
      -2.628
      -4.034
      -5.390
      -6.538
      -7.284
      -7.476
      -7.073
      -6.152
      -4.887
      -3.481
      -2.109
      -0.892
       0.099
       0.828
       1.277
       1.467
       1.465
       1.364
       1.241
       1.135
       1.057
       0.997
       0.920
       0.765
       0.485
       0.088
      -0.358
      -0.787
      -1.154
      -1.418
      -1.508
      -1.347
      -0.922
      -0.299
       0.409
       1.108
       1.740
       2.264
       2.633
       2.812
       2.800
       2.632
       2.346
       1.967
       1.512
       0.990
       0.405
      -0.242
      -0.916
      -1.541
      -2.026
      -2.325
      -2.468
      -2.528
      -2.583
      -2.678
      -2.817
      -2.961
      -3.032
      -2.937
      -2.598
      -2.006
      -1.243
      -0.460
       0.197
       0.659
       0.961
       1.204
       1.484
       1.828
       2.178
       2.441
       2.561
       2.559
       2.495
       2.410
       2.298
       2.144
       1.965
       1.811
       1.731
       1.737
       1.795
       1.848
       1.852
       1.791
       1.683
       1.571
       1.495
       1.456
       1.394
       1.206
       0.808
       0.190
      -0.580
      -1.381
      -2.089
      -2.637
      -3.041
      -3.367
      -3.667
      -3.937
      -4.128
      -4.207
      -4.183
      -4.090
      -3.954
      -3.761
      -3.466
      -3.033
      -2.477
      -1.871
      -1.308
      -0.853
      -0.519
      -0.280
      -0.097
       0.070
       0.252
       0.477
       0.760
       1.109
       1.523
       2.002
       2.549
       3.165
       3.824
       4.473
       5.044
       5.479
       5.742
       5.805
       5.644
       5.227
       4.524
       3.541
       2.357
       1.124
       0.013
      -0.859
      -1.473
      -1.888
      -2.198
      -2.480
      -2.745
      -2.937
      -2.974
      -2.810
      -2.461
      -1.990
      -1.466
      -0.943
      -0.470
      -0.100
       0.110
       0.140
       0.021
      -0.175
      -0.373
      -0.528
      -0.636
      -0.712
      -0.771
      -0.821
      -0.862
      -0.900
      -0.939
      -0.973
      -0.968
      -0.878
      -0.685
      -0.422
      -0.154
       0.079
       0.282
       0.475
       0.643
       0.732
       0.692
       0.515
       0.253
      -0.019
      -0.233
      -0.352
      -0.368
      -0.287
      -0.137
       0.036
       0.197
       0.330
       0.438
       0.509
       0.504
       0.387
       0.169
      -0.067
      -0.214
      -0.206
      -0.066
       0.112
       0.226
       0.228
       0.129
      -0.022
      -0.163
      -0.241
      -0.225
      -0.110
       0.094
       0.367
       0.666
       0.928
       1.103
       1.189
       1.243
       1.343
       1.532
       1.783
       2.010
       2.113
       2.028
       1.746
       1.308
       0.774
       0.211
      -0.325
      -0.802
      -1.198
      -1.491
      -1.648
      -1.659
      -1.562
      -1.435
      -1.351
      -1.335
      -1.361
      -1.385
      -1.392
      -1.388
      -1.373
      -1.312
      -1.152
      -0.878
      -0.549
      -0.265
      -0.115
      -0.141
      -0.338
      -0.668
      -1.062
      -1.424
      -1.652
      -1.673
      -1.461
      -1.050
      -0.505
       0.105
       0.720
       1.301
       1.817
       2.247
       2.576
       2.784
       2.837
       2.706
       2.393
       1.968
       1.552
       1.272
       1.187
       1.260
       1.378
       1.416
       1.293
       0.994
       0.548
      -0.010
      -0.649
      -1.339
      -2.026
      -2.634
      -3.113
      -3.469
      -3.749
      -3.967
      -4.063
      -3.941
      -3.568
      -3.012
      -2.404
      -1.858
      -1.418
      -1.063
      -0.739
      -0.396
      -0.015
       0.385
       0.759
       1.082
       1.393
       1.776
       2.287
       2.886
       3.460
       3.894
       4.135
       4.185
       4.075
       3.841
       3.518
       3.135
       2.723
       2.322
       1.977
       1.708
       1.482
       1.240
       0.942
       0.603
       0.263
      -0.059
      -0.371
      -0.688
      -1.007
      -1.318
      -1.632
      -1.970
      -2.328
      -2.664
      -2.929
      -3.110
      -3.217
      -3.246
      -3.155
      -2.912
      -2.527
      -2.036
      -1.460
      -0.809
      -0.125
       0.490
       0.929
       1.157
       1.236
       1.272
       1.336
       1.438
       1.542
       1.611
       1.615
       1.533
       1.348
       1.054
       0.660
       0.185
      -0.326
      -0.799
      -1.149
      -1.326
      -1.335
      -1.227
      -1.069
      -0.928
      -0.843
      -0.808
      -0.764
      -0.640
      -0.415
      -0.149
       0.059
       0.128
       0.049
      -0.123
      -0.315
      -0.481
      -0.606
      -0.691
      -0.725
      -0.692
      -0.576
      -0.391
      -0.177
       0.007
       0.116
       0.150
       0.148
       0.154
       0.176
       0.183
       0.135
       0.015
      -0.159
      -0.337
      -0.463
      -0.501
      -0.451
      -0.334
      -0.179
       0.005
       0.217
       0.463
       0.746
       1.061
       1.397
       1.734
       2.038
       2.261
       2.352
       2.279
       2.045
       1.693
       1.298
       0.933
       0.642
       0.424
       0.250
       0.099
      -0.038
      -0.161
      -0.272
      -0.370
      -0.433
      -0.433
      -0.364
      -0.261
      -0.182
      -0.172
      -0.237
      -0.346
      -0.464
      -0.575
      -0.678
      -0.765
      -0.811
      -0.806
      -0.774
      -0.756
      -0.771
      -0.787
      -0.740
      -0.591
      -0.355
      -0.089
       0.150
       0.339
       0.480
       0.564
       0.558
       0.437
