Origin Time       27/11/2012 12:15:15
Lat.              30.9 N	
Long.             78.4 E	
Depth (Km)         12.0
Magnitude         4.8
 Region           Uttarkashi-Uttarakhand                                           
 Above details taken from IMD 
   
Station Code      TEH
Station Lat.       30.374
Station Long.      78.430
Station Height(m) 1894.0
Site Class        A   Vs30 between 700 m/sec to 1400 m/sec * 
Record Time       27.11.2012 12:15:06.199
Sampling Rate     200. Hz
 Record Duration   80.020 Sec.
 Direction         Vert. (Up positive)
Max. Acceleration      1.932 cm/sec**2
     
  * For reference see Site Classification link of website 
     
 Base Line Corrected and Low Pass Filtered (Cut Off at 35 Hz) Time History
 Acceleration data in cm/sec**2
    
[...]
      -0.447
      -0.288
      -0.054
       0.193
       0.399
       0.523
       0.545
       0.468
       0.316
       0.118
      -0.092
      -0.288
      -0.439
      -0.522
      -0.516
      -0.420
      -0.256
      -0.077
       0.063
       0.136
       0.153
       0.144
       0.136
       0.136
       0.137
       0.123
       0.093
       0.065
       0.061
       0.094
       0.152
       0.210
       0.242
       0.232
       0.174
       0.074
      -0.053
      -0.188
      -0.300
      -0.349
      -0.300
      -0.147
       0.087
       0.351
       0.589
       0.746
       0.792
       0.727
       0.577
       0.372
       0.127
      -0.153
      -0.464
      -0.787
      -1.077
      -1.270
      -1.316
      -1.204
      -0.965
      -0.651
      -0.305
       0.038
       0.353
       0.612
       0.785
       0.846
       0.796
       0.669
       0.522
       0.397
       0.300
       0.207
       0.100
      -0.012
      -0.096
      -0.127
      -0.119
      -0.124
      -0.186
      -0.288
      -0.352
      -0.295
      -0.096
       0.183
       0.439
       0.591
       0.625
       0.577
       0.488
       0.366
       0.185
      -0.076
      -0.396
      -0.716
      -0.963
      -1.090
      -1.080
      -0.945
      -0.699
      -0.358
       0.051
       0.460
       0.771
       0.900
       0.831
       0.627
       0.388
       0.196
       0.066
      -0.036
      -0.149
      -0.264
      -0.325
      -0.277
      -0.127
       0.052
       0.172
       0.200
       0.179
       0.201
       0.337
       0.578
       0.839
       1.021
       1.065
       0.970
       0.765
       0.478
       0.125
      -0.274
      -0.673
      -0.995
      -1.171
      -1.173
      -1.044
      -0.862
      -0.696
      -0.571
      -0.465
      -0.339
      -0.172
       0.029
       0.234
       0.411
       0.545
       0.627
       0.649
       0.608
       0.509
       0.361
       0.172
      -0.052
      -0.296
      -0.531
      -0.717
      -0.818
      -0.810
      -0.701
      -0.527
      -0.331
      -0.147
       0.007
       0.123
       0.201
       0.255
       0.314
       0.408
       0.556
       0.746
       0.936
       1.068
       1.102
       1.025
       0.842
       0.556
       0.164
      -0.330
      -0.884
      -1.407
      -1.763
      -1.827
      -1.549
      -0.995
      -0.308
       0.362
       0.916
       1.307
       1.525
       1.566
       1.435
       1.165
       0.819
       0.480
       0.215
       0.050
      -0.023
      -0.029
      -0.007
      -0.006
      -0.073
      -0.232
      -0.468
      -0.733
      -0.960
      -1.088
      -1.077
      -0.931
      -0.687
      -0.395
      -0.092
       0.200
       0.464
       0.664
       0.749
       0.675
       0.446
       0.126
      -0.193
      -0.439
      -0.578
      -0.598
      -0.490
      -0.256
       0.068
       0.411
       0.680
       0.805
       0.763
       0.596
       0.376
       0.170
       0.008
      -0.115
      -0.216
      -0.310
      -0.389
      -0.436
      -0.433
      -0.385
      -0.307
      -0.216
      -0.111
       0.015
       0.161
       0.313
       0.450
       0.550
       0.605
       0.611
       0.563
       0.444
       0.241
      -0.036
      -0.343
      -0.620
      -0.817
      -0.907
      -0.900
      -0.832
      -0.738
      -0.633
      -0.504
      -0.330
      -0.104
       0.151
       0.393
       0.577
       0.677
       0.697
       0.658
       0.569
       0.421
       0.203
      -0.071
      -0.356
      -0.593
      -0.742
      -0.792
      -0.756
      -0.654
      -0.494
      -0.295
      -0.094
       0.056
       0.123
       0.120
       0.101
       0.120
       0.202
       0.331
       0.458
       0.524
       0.483
       0.327
       0.087
      -0.178
      -0.402
      -0.532
      -0.553
      -0.490
      -0.387
      -0.282
      -0.193
      -0.115
      -0.025
       0.105
       0.286
       0.493
       0.669
       0.746
       0.679
       0.469
       0.169
      -0.137
      -0.371
      -0.489
      -0.493
      -0.421
      -0.321
      -0.226
      -0.136
      -0.033
       0.092
       0.214
       0.290
       0.291
       0.229
       0.151
       0.113
       0.145
       0.233
       0.325
       0.369
       0.332
       0.212
       0.022
      -0.217
      -0.480
      -0.739
      -0.961
      -1.109
      -1.151
      -1.072
      -0.881
      -0.605
      -0.280
       0.059
       0.378
       0.642
       0.817
       0.883
       0.831
       0.686
       0.496
       0.314
       0.172
       0.071
      -0.009
      -0.095
      -0.205
      -0.340
      -0.482
      -0.600
      -0.655
      -0.617
      -0.480
      -0.283
      -0.112
      -0.055
      -0.151
      -0.361
      -0.587
      -0.729
      -0.735
      -0.617
      -0.430
      -0.225
      -0.027
       0.164
       0.340
       0.479
       0.558
       0.566
       0.514
       0.422
       0.314
       0.204
       0.097
      -0.004
      -0.096
      -0.171
      -0.228
      -0.267
      -0.282
      -0.256
      -0.180
      -0.061
       0.077
       0.196
       0.270
       0.294
       0.288
       0.278
       0.269
       0.239
       0.164
       0.045
      -0.083
      -0.163
      -0.151
      -0.030
       0.182
       0.458
       0.779
       1.123
       1.450
       1.699
       1.811
       1.764
       1.571
       1.269
       0.888
       0.443
      -0.060
      -0.598
      -1.111
      -1.515
      -1.736
      -1.734
      -1.514
      -1.119
      -0.628
      -0.138
       0.266
       0.541
       0.689
       0.740
       0.723
       0.658
       0.550
       0.407
       0.246
       0.088
      -0.056
      -0.194
      -0.351
      -0.544
      -0.772
      -0.999
      -1.164
      -1.210
      -1.122
      -0.957
      -0.810
      -0.754
      -0.788
      -0.831
      -0.780
      -0.572
      -0.226
       0.178
       0.551
       0.837
       1.006
       1.047
       0.962
       0.780
       0.559
       0.367
       0.253
       0.228
       0.272
       0.347
       0.419
       0.473
       0.505
       0.520
       0.530
       0.559
       0.616
       0.687
       0.721
       0.663
       0.481
       0.209
      -0.063
      -0.227
      -0.223
      -0.077
       0.124
       0.282
       0.343
       0.307
       0.216
       0.122
       0.061
       0.046
       0.073
       0.138
       0.233
       0.343
       0.432
       0.450
       0.346
       0.103
      -0.240
      -0.602
      -0.901
      -1.088
      -1.143
      -1.059
      -0.835
      -0.499
      -0.115
       0.236
       0.488
       0.626
       0.675
       0.669
       0.610
       0.468
       0.213
      -0.145
      -0.546
      -0.905
      -1.143
      -1.219
      -1.147
      -0.991
      -0.821
      -0.663
      -0.493
      -0.272
       0.006
       0.292
       0.504
       0.578
       0.504
       0.330
       0.128
      -0.045
      -0.159
      -0.209
      -0.205
      -0.170
      -0.135
      -0.123
      -0.156
      -0.257
      -0.444
      -0.701
      -0.958
      -1.114
      -1.093
      -0.891
      -0.579
      -0.242
       0.082
       0.415
       0.784
       1.164
       1.474
       1.634
       1.612
       1.439
       1.177
       0.881
       0.584
       0.306
       0.060
      -0.131
      -0.253
      -0.301
      -0.291
      -0.246
      -0.196
      -0.159
      -0.140
      -0.122
      -0.090
      -0.052
      -0.027
      -0.024
      -0.031
      -0.023
       0.011
       0.059
       0.106
       0.142
       0.172
       0.198
       0.213
       0.199
       0.149
       0.077
       0.006
      -0.062
      -0.152
      -0.284
      -0.453
      -0.624
      -0.751
      -0.794
      -0.732
      -0.571
      -0.342
      -0.091
       0.130
       0.275
       0.320
       0.273
       0.170
       0.057
      -0.032
      -0.078
      -0.086
      -0.077
      -0.085
      -0.137
      -0.239
      -0.377
      -0.526
      -0.661
      -0.762
      -0.815
      -0.817
      -0.778
      -0.720
      -0.659
      -0.586
      -0.459
      -0.239
       0.070
       0.406
       0.679
       0.833
       0.866
       0.833
       0.808
       0.841
       0.934
       1.046
       1.108
       1.071
       0.917
       0.675
       0.399
       0.134
      -0.098
      -0.298
      -0.463
      -0.574
      -0.625
      -0.638
      -0.652
      -0.690
      -0.733
      -0.727
      -0.611
      -0.355
       0.013
       0.411
       0.741
       0.923
       0.925
       0.778
       0.569
       0.403
       0.348
       0.400
       0.496
       0.571
       0.593
       0.555
       0.451
       0.259
      -0.041
      -0.437
      -0.859
      -1.194
      -1.346
      -1.284
      -1.062
      -0.771
      -0.486
      -0.240
      -0.026
       0.167
       0.332
       0.442
       0.471
       0.412
       0.287
       0.130
      -0.027
      -0.178
      -0.340
      -0.530
      -0.732
      -0.889
      -0.937
      -0.858
      -0.698
      -0.534
      -0.422
      -0.356
      -0.288
      -0.175
      -0.014
       0.163
       0.330
       0.492
       0.671
       0.871
       1.066
       1.221
       1.320
       1.374
       1.407
       1.434
       1.434
       1.360
       1.178
       0.894
       0.553
       0.211
      -0.086
      -0.309
      -0.455
      -0.545
      -0.607
      -0.658
      -0.691
      -0.702
      -0.702
      -0.723
      -0.794
      -0.922
      -1.082
      -1.223
      -1.304
      -1.314
      -1.271
      -1.203
      -1.119
      -1.010
      -0.852
      -0.622
      -0.310
       0.058
       0.429
       0.738
       0.932
       0.992
       0.919
       0.723
       0.412
       0.000
      -0.468
      -0.909
      -1.226
      -1.342
      -1.233
      -0.934
      -0.526
      -0.101
       0.268
       0.552
       0.756
       0.896
       0.974
       0.979
       0.902
       0.749
       0.556
       0.391
       0.325
       0.396
       0.592
       0.863
       1.156
       1.427
       1.639
       1.748
       1.699
       1.446
       0.995
       0.431
      -0.096
      -0.437
      -0.514
      -0.354
      -0.069
       0.200
       0.341
       0.319
       0.175
      -0.014
      -0.189
      -0.333
      -0.466
      -0.620
      -0.811
      -1.025
      -1.232
      -1.402
      -1.507
      -1.522
      -1.426
      -1.214
      -0.923
      -0.625
      -0.398
      -0.288
      -0.285
      -0.319
      -0.299
      -0.166
       0.076
       0.365
       0.619
       0.779
       0.823
       0.778
       0.697
       0.640
       0.639
       0.692
       0.751
       0.749
       0.633
       0.402
       0.119
      -0.133
      -0.296
      -0.357
      -0.341
      -0.279
      -0.196
      -0.106
      -0.031
      -0.004
      -0.050
      -0.159
      -0.284
      -0.380
      -0.434
      -0.469
      -0.508
      -0.546
      -0.547
      -0.475
      -0.323
      -0.116
       0.111
       0.339
       0.578
       0.834
       1.078
       1.242
       1.260
       1.112
       0.838
       0.509
       0.187
      -0.098
      -0.335
      -0.511
      -0.607
      -0.617
      -0.567
      -0.514
      -0.506
      -0.550
      -0.596
      -0.572
      -0.447
      -0.258
      -0.099
      -0.049
      -0.125
      -0.271
      -0.408
      -0.479
      -0.464
      -0.379
      -0.249
      -0.100
       0.051
       0.186
       0.294
       0.374
       0.448
       0.540
       0.657
       0.774
       0.843
       0.802
       0.609
       0.262
      -0.184
      -0.633
      -0.992
      -1.194
      -1.216
      -1.074
      -0.811
      -0.492
      -0.183
       0.068
       0.239
       0.339
       0.400
       0.464
       0.558
       0.684
       0.826
       0.954
       1.042
       1.091
       1.127
       1.175
       1.217
       1.194
       1.041
       0.749
       0.376
       0.012
      -0.275
      -0.475
      -0.608
      -0.675
      -0.640
      -0.475
      -0.228
      -0.017
       0.029
      -0.138
      -0.454
      -0.780
      -0.991
      -1.047
      -1.004
      -0.957
      -0.949
      -0.944
      -0.865
      -0.665
      -0.382
      -0.123
      -0.004
      -0.081
      -0.319
      -0.620
      -0.884
      -1.054
      -1.121
      -1.096
      -0.988
      -0.807
      -0.569
      -0.301
      -0.030
       0.227
       0.469
       0.696
       0.877
       0.960
       0.915
       0.776
       0.626
       0.549
       0.577
       0.676
       0.774
       0.808
       0.757
       0.646
       0.518
       0.401
       0.303
       0.224
       0.169
       0.155
       0.194
       0.282
       0.391
       0.479
       0.503
       0.434
       0.270
       0.049
      -0.163
      -0.306
      -0.366
      -0.374
      -0.371
      -0.377
      -0.399
      -0.434
      -0.479
      -0.516
      -0.532
      -0.534
      -0.536
      -0.539
      -0.521
      -0.459
      -0.358
      -0.248
      -0.160
      -0.089
       0.006
       0.170
       0.409
       0.658
       0.811
       0.788
       0.567
       0.198
      -0.230
      -0.616
      -0.889
      -1.031
      -1.068
      -1.038
      -0.942
      -0.746
      -0.417
       0.039
       0.563
       1.073
       1.497
       1.791
       1.932
       1.905
       1.705
       1.349
       0.889
       0.401
      -0.027
      -0.324
      -0.459
      -0.453
      -0.361
      -0.249
      -0.168
      -0.136
      -0.149
      -0.189
      -0.241
      -0.296
      -0.333
      -0.328
      -0.276
      -0.203
      -0.146
      -0.125
      -0.128
      -0.133
      -0.133
      -0.142
      -0.182
      -0.257
      -0.340
      -0.379
      -0.337
      -0.231
      -0.118
      -0.053
      -0.048
      -0.069
      -0.072
      -0.038
       0.018
       0.065
       0.095
       0.141
       0.243
       0.398
       0.553
       0.638
       0.618
       0.497
       0.296
       0.038
      -0.256
      -0.545
      -0.773
      -0.895
      -0.900
      -0.811
      -0.662
      -0.479
      -0.275
      -0.058
       0.170
       0.410
       0.649
       0.848
       0.955
       0.939
       0.808
       0.605
       0.387
       0.197
       0.057
      -0.032
      -0.081
      -0.114
      -0.169
      -0.282
      -0.460
      -0.667
      -0.842
      -0.929
      -0.898
      -0.754
      -0.536
      -0.304
      -0.105
       0.052
       0.193
       0.343
       0.497
       0.618
       0.660
       0.590
       0.406
       0.149
      -0.115
      -0.325
      -0.447
      -0.484
      -0.464
      -0.424
      -0.390
      -0.359
      -0.309
      -0.220
      -0.091
       0.071
       0.262
       0.467
       0.654
       0.772
       0.786
       0.709
       0.602
       0.538
       0.550
       0.609
       0.650
       0.622
       0.519
       0.374
       0.227
       0.104
       0.009
      -0.058
      -0.082
      -0.030
       0.117
       0.324
       0.501
       0.547
       0.410
       0.116
      -0.250
      -0.589
      -0.838
      -0.977
      -1.023
      -0.995
      -0.904
      -0.765
      -0.616
      -0.503
      -0.457
      -0.469
      -0.489
      -0.453
      -0.322
      -0.117
       0.095
       0.241
       0.291
       0.280
       0.272
       0.313
       0.393
       0.456
       0.439
       0.318
       0.116
      -0.132
      -0.402
      -0.682
      -0.951
      -1.164
      -1.259
      -1.187
      -0.945
      -0.582
      -0.186
       0.165
       0.431
       0.607
       0.706
       0.748
       0.748
       0.721
       0.684
       0.659
       0.668
       0.713
       0.757
       0.743
       0.636
       0.451
       0.240
       0.063
      -0.048
      -0.101
      -0.134
      -0.187
      -0.276
      -0.398
      -0.535
      -0.660
      -0.733
      -0.723
      -0.621
      -0.451
      -0.255
      -0.066
       0.105
       0.263
       0.415
       0.555
       0.670
       0.741
       0.753
       0.684
       0.517
       0.265
      -0.021
      -0.275
      -0.457
      -0.560
      -0.602
      -0.603
      -0.580
      -0.544
      -0.511
      -0.492
      -0.486
      -0.479
      -0.447
      -0.379
      -0.275
      -0.143
       0.006
       0.155
       0.270
       0.312
       0.270
       0.163
       0.033
      -0.077
      -0.137
      -0.138
      -0.082
       0.021
       0.152
       0.293
       0.429
       0.550
       0.647
       0.701
       0.693
       0.620
       0.504
       0.381
       0.276
       0.197
       0.154
       0.167
       0.243
       0.357
       0.447
       0.456
       0.370
       0.229
       0.096
       0.012
      -0.019
      -0.016
       0.007
       0.043
       0.084
       0.120
       0.154
       0.189
       0.214
       0.198
       0.120
      -0.018
      -0.184
      -0.338
      -0.446
      -0.486
      -0.453
      -0.362
      -0.247
      -0.160
      -0.156
      -0.263
      -0.453
      -0.653
      -0.793
      -0.841
      -0.800
      -0.683
      -0.504
      -0.280
      -0.039
       0.184
       0.356
       0.451
       0.462
       0.398
       0.289
       0.165
       0.051
      -0.038
      -0.088
      -0.080
       0.005
       0.166
       0.379
       0.589
       0.732
       0.774
       0.730
       0.652
       0.595
       0.570
       0.539
       0.450
       0.276
       0.041
      -0.194
      -0.361
      -0.433
      -0.427
      -0.392
      -0.361
      -0.330
      -0.275
      -0.183
      -0.075
       0.014
       0.059
       0.061
       0.034
      -0.016
      -0.100
      -0.239
      -0.432
      -0.636
      -0.777
      -0.803
      -0.710
      -0.542
      -0.351
      -0.181
      -0.051
       0.035
       0.084
       0.090
       0.043
      -0.057
      -0.179
      -0.277
      -0.322
      -0.311
      -0.256
      -0.158
      -0.004
       0.214
       0.477
       0.736
       0.925
       0.989
       0.919
       0.765
       0.601
       0.496
       0.466
       0.482
       0.485
       0.425
       0.279
       0.057
      -0.205
      -0.452
      -0.625
      -0.691
      -0.659
      -0.576
      -0.505
      -0.485
      -0.515
      -0.561
      -0.579
      -0.539
      -0.433
      -0.272
      -0.080
       0.112
       0.272
       0.389
       0.470
       0.525
       0.548
       0.528
       0.464
       0.370
       0.265
       0.167
       0.096
       0.075
       0.106
       0.160
       0.182
       0.130
       0.007
      -0.132
      -0.213
      -0.190
      -0.083
       0.042
       0.134
       0.188
       0.239
       0.317
       0.414
       0.479
       0.453
       0.314
       0.105
      -0.095
      -0.225
      -0.284
      -0.322
      -0.395
      -0.512
      -0.622
      -0.650
      -0.551
      -0.349
      -0.121
       0.056
       0.146
       0.153
       0.094
      -0.014
      -0.166
      -0.341
      -0.494
      -0.564
      -0.506
      -0.325
      -0.070
       0.197
       0.430
       0.616
