Origin Time       04/04/2011 11:31:40 UTC
Lat.              29.6 N	
Long.             80.8 E	
Depth (Km)         10.0
Magnitude         5.7
 Region           NEPAL-INDIA-BORDER-REGION                                        
 Above details taken from IMD 
    
Station Code      TEH
Station Lat.       30.374  N
Station Long.      78.430  E
Station Height(m) 1894.0
Site Class        A   Vs30 between 700 m/sec to 1400 m/sec * 
Record Time       04.04.2011 11:32:22.099 UTC
Sampling Rate     200. Hz
 Record Duration   89.825 Sec.
 Direction         N-S (N positive)
Max. Acceleration     -5.922 cm/sec**2
     
  * For reference see Site Classification link of website 
     
 Base Line Corrected and Low Pass Filtered (Cut Off at 35 Hz) Time History
 Acceleration data in cm/sec**2
    
[...]
      -0.230
      -0.171
      -0.135
      -0.121
      -0.128
      -0.153
      -0.202
      -0.279
      -0.383
      -0.513
      -0.667
      -0.842
      -1.032
      -1.230
      -1.426
      -1.610
      -1.771
      -1.905
      -2.006
      -2.078
      -2.131
      -2.177
      -2.230
      -2.294
      -2.369
      -2.447
      -2.524
      -2.589
      -2.630
      -2.632
      -2.584
      -2.478
      -2.321
      -2.125
      -1.902
      -1.661
      -1.404
      -1.127
      -0.827
      -0.504
      -0.164
       0.179
       0.514
       0.836
       1.141
       1.422
       1.668
       1.873
       2.037
       2.168
       2.271
       2.354
       2.419
       2.465
       2.481
       2.456
       2.380
       2.250
       2.076
       1.880
       1.684
       1.506
       1.358
       1.246
       1.169
       1.115
       1.072
       1.030
       0.989
       0.950
       0.911
       0.878
       0.857
       0.857
       0.878
       0.909
       0.940
       0.961
       0.970
       0.963
       0.930
       0.853
       0.721
       0.530
       0.286
       0.001
      -0.308
      -0.619
      -0.916
      -1.190
      -1.439
      -1.660
      -1.844
      -1.985
      -2.081
      -2.139
      -2.167
      -2.167
      -2.136
      -2.065
      -1.949
      -1.790
      -1.598
      -1.383
      -1.155
      -0.916
      -0.668
      -0.413
      -0.156
       0.097
       0.341
       0.573
       0.790
       0.995
       1.189
       1.376
       1.553
       1.709
       1.825
       1.888
       1.893
       1.845
       1.754
       1.630
       1.480
       1.311
       1.125
       0.924
       0.705
       0.460
       0.182
      -0.131
      -0.468
      -0.818
      -1.166
      -1.498
      -1.796
      -2.045
      -2.238
      -2.378
      -2.471
      -2.524
      -2.535
      -2.497
      -2.408
      -2.266
      -2.072
      -1.826
      -1.533
      -1.206
      -0.856
      -0.493
      -0.127
       0.230
       0.564
       0.868
       1.142
       1.387
       1.600
       1.775
       1.903
       1.975
       1.986
       1.936
       1.835
       1.697
       1.539
       1.371
       1.194
       1.008
       0.816
       0.631
       0.467
       0.329
       0.218
       0.142
       0.111
       0.136
       0.216
       0.348
       0.525
       0.742
       0.991
       1.256
       1.515
       1.745
       1.932
       2.065
       2.142
       2.157
       2.111
       2.004
       1.833
       1.591
       1.277
       0.903
       0.488
       0.052
      -0.394
      -0.835
      -1.258
      -1.650
      -2.005
      -2.325
      -2.614
      -2.873
      -3.099
      -3.288
      -3.435
      -3.534
      -3.579
      -3.562
      -3.478
      -3.327
      -3.112
      -2.834
      -2.500
      -2.129
      -1.739
      -1.342
      -0.943
      -0.548
      -0.167
       0.183
       0.491
       0.752
       0.965
       1.137
       1.272
       1.374
       1.449
       1.505
       1.542
       1.552
       1.525
       1.458
       1.352
       1.207
       1.027
       0.820
       0.603
       0.392
       0.201
       0.038
      -0.090
      -0.177
      -0.221
      -0.232
      -0.223
      -0.209
      -0.195
      -0.181
      -0.163
      -0.141
      -0.116
      -0.088
      -0.060
      -0.041
      -0.037
      -0.051
      -0.078
      -0.110
      -0.142
      -0.173
      -0.203
      -0.235
      -0.274
      -0.321
      -0.373
      -0.414
      -0.428
      -0.400
      -0.330
      -0.229
      -0.111
       0.017
       0.145
       0.260
       0.348
       0.399
       0.408
       0.374
       0.301
       0.205
       0.106
       0.018
      -0.059
      -0.132
      -0.207
      -0.281
      -0.344
      -0.383
      -0.392
      -0.368
      -0.309
      -0.214
      -0.085
       0.069
       0.241
       0.434
       0.647
       0.879
       1.122
       1.370
       1.623
       1.880
       2.133
       2.368
       2.571
       2.725
       2.816
       2.833
       2.773
       2.640
       2.453
       2.225
       1.963
       1.665
       1.331
       0.975
       0.610
       0.240
      -0.139
      -0.531
      -0.933
      -1.329
      -1.696
      -2.008
      -2.245
      -2.398
      -2.474
      -2.491
      -2.470
      -2.429
      -2.372
      -2.297
      -2.206
      -2.103
      -1.993
      -1.875
      -1.736
      -1.564
      -1.346
      -1.086
      -0.805
      -0.536
      -0.308
      -0.128
       0.007
       0.110
       0.187
       0.244
       0.285
       0.320
       0.356
       0.402
       0.459
       0.525
       0.595
       0.658
       0.702
       0.720
       0.712
       0.689
       0.662
       0.629
       0.588
       0.543
       0.503
       0.480
       0.477
       0.496
       0.545
       0.631
       0.762
       0.934
       1.133
       1.332
       1.500
       1.605
       1.625
       1.555
       1.403
       1.182
       0.903
       0.569
       0.185
      -0.235
      -0.667
      -1.092
      -1.491
      -1.852
      -2.156
      -2.391
      -2.548
      -2.635
      -2.669
      -2.666
      -2.638
      -2.585
      -2.512
      -2.419
      -2.304
      -2.161
      -1.983
      -1.768
      -1.510
      -1.199
      -0.832
      -0.414
       0.037
       0.507
       0.986
       1.461
       1.912
       2.313
       2.643
       2.898
       3.085
       3.212
       3.278
       3.275
       3.199
       3.056
       2.855
       2.603
       2.302
       1.958
       1.580
       1.177
       0.759
       0.343
      -0.046
      -0.384
      -0.659
      -0.873
      -1.039
      -1.176
      -1.297
      -1.414
      -1.536
      -1.666
      -1.796
      -1.907
      -1.982
      -2.007
      -1.971
      -1.864
      -1.682
      -1.431
      -1.122
      -0.767
      -0.384
       0.008
       0.383
       0.722
       1.008
       1.232
       1.390
       1.482
       1.520
       1.525
       1.521
       1.524
       1.533
       1.533
       1.511
       1.454
       1.349
       1.185
       0.951
       0.650
       0.297
      -0.092
      -0.502
      -0.917
      -1.318
      -1.685
      -2.002
      -2.253
      -2.429
      -2.527
      -2.554
      -2.517
      -2.424
      -2.273
      -2.055
      -1.754
      -1.360
      -0.879
      -0.326
       0.278
       0.909
       1.537
       2.132
       2.667
       3.128
       3.515
       3.839
       4.113
       4.339
       4.511
       4.614
       4.637
       4.565
       4.388
       4.101
       3.719
       3.267
       2.770
       2.251
       1.728
       1.210
       0.701
       0.200
      -0.293
      -0.778
      -1.258
      -1.735
      -2.203
      -2.646
      -3.044
      -3.374
      -3.616
      -3.760
      -3.794
      -3.712
      -3.511
      -3.201
      -2.806
      -2.352
      -1.862
      -1.357
      -0.859
      -0.391
       0.027
       0.377
       0.651
       0.843
       0.954
       0.983
       0.925
       0.776
       0.539
       0.223
      -0.160
      -0.596
      -1.077
      -1.593
      -2.124
      -2.637
      -3.091
      -3.456
      -3.722
      -3.897
      -3.993
      -4.017
      -3.975
      -3.870
      -3.705
      -3.484
      -3.216
      -2.906
      -2.554
      -2.157
      -1.718
      -1.250
      -0.772
      -0.305
       0.135
       0.540
       0.905
       1.217
       1.464
       1.639
       1.741
       1.775
       1.749
       1.671
       1.560
       1.438
       1.325
       1.233
       1.166
       1.120
       1.092
       1.079
       1.077
       1.081
       1.086
       1.092
       1.104
       1.121
       1.135
       1.133
       1.107
       1.051
       0.960
       0.833
       0.681
       0.524
       0.382
       0.269
       0.188
       0.135
       0.106
       0.092
       0.079
       0.053
       0.004
      -0.069
      -0.165
      -0.284
      -0.429
      -0.593
      -0.760
      -0.918
      -1.059
      -1.176
      -1.260
      -1.296
      -1.274
      -1.196
      -1.069
      -0.908
      -0.730
      -0.555
      -0.399
      -0.274
      -0.185
      -0.125
      -0.085
      -0.056
      -0.038
      -0.035
      -0.055
      -0.097
      -0.159
      -0.232
      -0.308
      -0.376
      -0.424
      -0.431
      -0.376
      -0.245
      -0.033
       0.251
       0.595
       0.984
       1.401
       1.834
       2.261
       2.657
       2.998
       3.269
       3.462
       3.572
       3.589
       3.504
       3.326
       3.074
       2.770
       2.431
       2.073
       1.712
       1.363
       1.033
       0.731
       0.467
       0.254
       0.098
      -0.005
      -0.071
      -0.110
      -0.119
      -0.089
      -0.015
       0.098
       0.239
       0.395
       0.552
       0.691
       0.796
       0.856
       0.869
       0.831
       0.746
       0.620
       0.464
       0.286
       0.083
      -0.149
      -0.415
      -0.711
      -1.022
      -1.328
      -1.620
      -1.892
      -2.133
      -2.327
      -2.460
      -2.532
      -2.556
      -2.542
      -2.495
      -2.412
      -2.289
      -2.119
      -1.895
      -1.619
      -1.297
      -0.940
      -0.563
      -0.174
       0.219
       0.608
       0.982
       1.325
       1.631
       1.901
       2.140
       2.343
       2.506
       2.624
       2.702
       2.742
       2.740
       2.685
       2.566
       2.378
       2.131
       1.841
       1.528
       1.207
       0.894
       0.600
       0.329
       0.075
      -0.169
      -0.407
      -0.637
      -0.859
      -1.076
      -1.298
      -1.538
      -1.809
      -2.111
      -2.433
      -2.748
      -3.023
      -3.234
      -3.361
      -3.395
      -3.343
      -3.221
      -3.056
      -2.875
      -2.698
      -2.533
      -2.377
      -2.223
      -2.066
      -1.897
      -1.708
      -1.495
      -1.262
      -1.025
      -0.803
      -0.621
      -0.499
      -0.451
      -0.479
      -0.574
      -0.720
      -0.899
      -1.092
      -1.285
      -1.462
      -1.615
      -1.736
      -1.821
      -1.867
      -1.863
      -1.797
      -1.655
      -1.434
      -1.135
      -0.763
      -0.330
       0.150
       0.656
       1.171
       1.674
       2.151
       2.586
       2.969
       3.298
       3.577
       3.815
       4.020
       4.194
       4.336
       4.438
       4.496
       4.505
       4.464
       4.377
       4.257
       4.111
       3.942
       3.745
       3.517
       3.256
       2.962
       2.640
       2.297
       1.939
       1.574
       1.210
       0.858
       0.531
       0.245
       0.024
      -0.117
      -0.177
      -0.170
      -0.116
      -0.031
       0.066
       0.156
       0.222
       0.250
       0.235
       0.178
       0.084
      -0.038
      -0.179
      -0.332
      -0.492
      -0.651
      -0.802
      -0.947
      -1.095
      -1.262
      -1.466
      -1.720
      -2.025
      -2.370
      -2.743
      -3.130
      -3.511
      -3.864
      -4.171
      -4.421
      -4.611
      -4.739
      -4.801
      -4.796
      -4.723
      -4.584
      -4.374
      -4.086
      -3.707
      -3.231
      -2.663
      -2.025
      -1.346
      -0.659
       0.008
       0.629
       1.187
       1.674
       2.089
       2.438
       2.730
       2.982
       3.206
       3.411
       3.597
       3.762
       3.901
       4.005
       4.066
       4.073
       4.018
       3.900
       3.723
       3.497
       3.224
       2.900
       2.528
       2.119
       1.691
       1.264
       0.848
       0.451
       0.076
      -0.270
      -0.581
      -0.850
      -1.072
      -1.243
      -1.364
      -1.441
      -1.486
      -1.510
      -1.520
      -1.514
      -1.493
      -1.459
      -1.412
      -1.350
      -1.276
      -1.198
      -1.127
      -1.071
      -1.039
      -1.037
      -1.070
      -1.133
      -1.212
      -1.290
      -1.355
      -1.408
      -1.451
      -1.485
      -1.500
      -1.481
      -1.420
      -1.318
      -1.180
      -1.005
      -0.790
      -0.536
      -0.251
       0.057
       0.372
       0.679
       0.961
       1.206
       1.406
       1.557
       1.653
       1.690
       1.671
       1.600
       1.479
       1.302
       1.056
       0.734
       0.343
      -0.094
      -0.547
      -0.991
      -1.399
      -1.752
      -2.030
      -2.229
      -2.351
      -2.404
      -2.401
      -2.359
      -2.299
      -2.234
      -2.166
      -2.086
      -1.979
      -1.836
      -1.647
      -1.409
      -1.118
      -0.778
      -0.405
      -0.023
       0.347
       0.691
       0.997
       1.250
       1.431
       1.529
       1.541
       1.468
       1.318
       1.109
       0.869
       0.630
       0.414
       0.231
       0.077
      -0.054
      -0.164
      -0.248
      -0.298
      -0.301
      -0.240
      -0.097
       0.142
       0.479
       0.904
       1.404
       1.957
       2.538
       3.117
       3.666
       4.161
       4.581
       4.907
       5.128
       5.239
       5.246
       5.163
       5.005
       4.780
       4.498
       4.172
       3.825
       3.469
       3.101
       2.701
       2.249
       1.731
       1.135
       0.463
      -0.277
      -1.062
      -1.867
      -2.665
      -3.427
      -4.127
      -4.735
      -5.229
      -5.593
      -5.823
      -5.922
      -5.894
      -5.743
      -5.478
      -5.113
      -4.673
      -4.180
      -3.658
      -3.134
      -2.637
      -2.189
      -1.809
      -1.502
      -1.267
      -1.091
      -0.949
      -0.814
      -0.659
      -0.469
      -0.246
      -0.003
       0.240
       0.457
       0.617
       0.692
       0.665
       0.540
       0.336
       0.080
      -0.197
      -0.464
      -0.695
      -0.868
      -0.964
      -0.969
      -0.879
      -0.698
      -0.448
      -0.154
       0.160
       0.478
       0.793
       1.101
       1.397
       1.670
       1.912
       2.119
       2.287
       2.407
       2.466
       2.456
       2.372
       2.220
       2.008
       1.752
       1.463
       1.153
       0.832
       0.513
       0.210
      -0.067
      -0.310
      -0.516
      -0.688
      -0.831
      -0.953
      -1.062
      -1.168
      -1.278
      -1.390
      -1.493
      -1.571
      -1.609
      -1.594
      -1.515
      -1.367
      -1.152
      -0.879
      -0.558
      -0.196
       0.198
       0.615
       1.043
       1.466
       1.868
       2.238
       2.565
       2.834
       3.030
       3.142
       3.174
       3.138
       3.050
       2.926
       2.787
       2.647
       2.510
       2.365
       2.194
       1.977
       1.703
       1.363
       0.952
       0.468
      -0.080
      -0.670
      -1.267
      -1.839
      -2.363
      -2.826
      -3.214
      -3.517
      -3.729
      -3.850
      -3.884
      -3.835
      -3.707
      -3.505
      -3.238
      -2.922
      -2.575
      -2.217
      -1.859
      -1.508
      -1.172
      -0.864
      -0.595
      -0.374
      -0.200
      -0.061
       0.057
       0.160
       0.245
       0.310
       0.358
       0.395
       0.422
       0.441
       0.452
       0.463
       0.483
       0.517
       0.562
       0.609
       0.650
       0.682
       0.712
       0.747
       0.795
       0.856
       0.930
       1.009
       1.083
       1.149
       1.210
       1.270
       1.332
       1.396
       1.466
       1.552
       1.660
       1.789
       1.933
       2.084
       2.231
       2.360
       2.459
       2.512
       2.511
       2.455
       2.347
       2.183
       1.959
       1.673
       1.339
       0.971
       0.584
       0.190
      -0.201
      -0.582
      -0.947
      -1.294
      -1.621
      -1.922
      -2.194
      -2.434
      -2.638
      -2.799
      -2.907
      -2.948
      -2.916
      -2.817
      -2.670
      -2.499
      -2.326
      -2.166
      -2.033
      -1.928
      -1.849
      -1.788
      -1.744
      -1.717
      -1.708
      -1.710
      -1.712
      -1.700
      -1.664
      -1.597
      -1.490
      -1.334
      -1.128
      -0.881
      -0.612
      -0.335
      -0.059
       0.216
       0.494
       0.782
       1.087
       1.411
       1.749
       2.095
       2.435
       2.756
       3.042
       3.280
       3.465
       3.593
       3.662
       3.676
       3.642
       3.571
       3.473
       3.354
       3.215
       3.052
       2.859
       2.635
       2.386
       2.115
       1.818
       1.488
       1.123
       0.726
       0.308
      -0.121
      -0.552
      -0.978
      -1.387
      -1.768
      -2.109
      -2.405
      -2.651
      -2.839
      -2.958
      -3.005
      -2.981
      -2.894
      -2.750
      -2.559
      -2.337
      -2.100
      -1.860
      -1.625
      -1.399
      -1.191
      -1.006
      -0.841
      -0.692
      -0.554
      -0.430
      -0.330
      -0.259
      -0.211
      -0.175
      -0.140
      -0.099
      -0.045
       0.030
       0.125
       0.229
       0.330
       0.421
       0.505
       0.583
       0.660
       0.739
       0.826
       0.926
       1.035
       1.143
       1.237
       1.306
       1.337
       1.319
       1.238
       1.090
       0.884
       0.638
       0.371
       0.097
      -0.170
      -0.416
      -0.630
      -0.810
      -0.961
      -1.080
      -1.168
      -1.228
      -1.267
      -1.291
      -1.292
      -1.251
      -1.146
      -0.960
      -0.691
      -0.345
       0.065
       0.515
       0.971
       1.397
       1.767
       2.070
       2.298
       2.441
       2.488
       2.438
       2.298
       2.084
       1.808
       1.486
       1.135
       0.774
       0.423
       0.096
      -0.202
      -0.468
      -0.703
      -0.908
      -1.088
      -1.249
      -1.394
      -1.519
      -1.619
      -1.689
      -1.724
      -1.723
      -1.683
      -1.605
      -1.487
      -1.330
      -1.138
      -0.922
      -0.697
      -0.480
      -0.280
      -0.101
       0.058
       0.196
       0.309
       0.388
       0.430
       0.442
       0.435
       0.418
       0.398
       0.379
       0.362
       0.340
       0.305
       0.251
       0.183
       0.113
       0.050
      -0.001
      -0.039
      -0.065
      -0.081
      -0.083
      -0.074
      -0.056
      -0.032
      -0.010
       0.001
      -0.009
      -0.040
      -0.080
      -0.121
      -0.163
      -0.215
      -0.290
      -0.394
      -0.531
      -0.696
      -0.883
      -1.076
      -1.256
      -1.404
      -1.506
      -1.557
      -1.555
      -1.498
      -1.391
      -1.247
      -1.090
      -0.939
      -0.807
      -0.694
      -0.598
      -0.508
      -0.413
      -0.303
      -0.181
      -0.056
       0.059
       0.155
       0.227
       0.276
       0.299
       0.295
       0.268
       0.226
       0.179
       0.137
       0.104
       0.078
       0.057
       0.040
       0.026
       0.020
       0.027
       0.051
       0.093
       0.152
       0.229
       0.329
       0.455
       0.614
       0.810
       1.040
       1.297
       1.561
       1.809
       2.017
