Origin Time       27/11/2012 12:15:15 UTC
Lat.              30.9 N	
Long.             78.4 E	
Depth (Km)         12.0
Magnitude         4.8
 Region           Uttarkashi-Uttarakhand                                           
 Above details taken from IMD 
    
Station Code      TEH
Station Lat.       30.374  N
Station Long.      78.430  E
Station Height(m) 1894.0
Site Class        A   Vs30 between 700 m/sec to 1400 m/sec * 
Record Time       27.11.2012 12:15:06.199 UTC
Sampling Rate     200. Hz
 Record Duration   80.020 Sec.
 Direction         N-S (N positive)
Max. Acceleration      2.749 cm/sec**2
     
  * For reference see Site Classification link of website 
     
 Base Line Corrected and Low Pass Filtered (Cut Off at 35 Hz) Time History
 Acceleration data in cm/sec**2
    
[...]
      -0.042
       0.021
       0.080
       0.115
       0.113
       0.072
      -0.004
      -0.101
      -0.202
      -0.288
      -0.347
      -0.374
      -0.375
      -0.356
      -0.325
      -0.283
      -0.234
      -0.184
      -0.146
      -0.124
      -0.115
      -0.103
      -0.074
      -0.028
       0.028
       0.083
       0.135
       0.191
       0.255
       0.321
       0.367
       0.373
       0.331
       0.247
       0.140
       0.030
      -0.066
      -0.145
      -0.205
      -0.246
      -0.260
      -0.241
      -0.189
      -0.122
      -0.065
      -0.042
      -0.066
      -0.129
      -0.210
      -0.286
      -0.342
      -0.372
      -0.373
      -0.346
      -0.300
      -0.244
      -0.190
      -0.143
      -0.102
      -0.065
      -0.026
       0.016
       0.055
       0.079
       0.081
       0.067
       0.060
       0.082
       0.133
       0.191
       0.225
       0.220
       0.184
       0.144
       0.111
       0.077
       0.022
      -0.057
      -0.142
      -0.206
      -0.227
      -0.204
      -0.148
      -0.072
       0.013
       0.099
       0.177
       0.237
       0.282
       0.327
       0.385
       0.457
       0.527
       0.570
       0.568
       0.517
       0.434
       0.344
       0.268
       0.212
       0.173
       0.142
       0.113
       0.080
       0.040
      -0.010
      -0.072
      -0.140
      -0.202
      -0.246
      -0.267
      -0.266
      -0.248
      -0.215
      -0.172
      -0.130
      -0.101
      -0.096
      -0.111
      -0.129
      -0.126
      -0.090
      -0.029
       0.034
       0.074
       0.076
       0.041
      -0.022
      -0.092
      -0.149
      -0.170
      -0.146
      -0.082
       0.000
       0.069
       0.099
       0.080
       0.020
      -0.060
      -0.134
      -0.174
      -0.163
      -0.104
      -0.022
       0.043
       0.057
       0.005
      -0.104
      -0.240
      -0.366
      -0.450
      -0.474
      -0.434
      -0.333
      -0.187
      -0.027
       0.105
       0.171
       0.158
       0.079
      -0.028
      -0.119
      -0.164
      -0.150
      -0.084
       0.017
       0.134
       0.245
       0.326
       0.364
       0.354
       0.306
       0.238
       0.165
       0.100
       0.049
       0.012
      -0.008
      -0.008
       0.009
       0.034
       0.047
       0.032
      -0.019
      -0.094
      -0.174
      -0.238
      -0.282
      -0.307
      -0.310
      -0.276
      -0.187
      -0.034
       0.172
       0.400
       0.607
       0.751
       0.806
       0.767
       0.644
       0.464
       0.255
       0.046
      -0.149
      -0.323
      -0.472
      -0.587
      -0.657
      -0.674
      -0.645
      -0.590
      -0.527
      -0.467
      -0.409
      -0.346
      -0.279
      -0.209
      -0.135
      -0.054
       0.036
       0.136
       0.243
       0.347
       0.431
       0.471
       0.454
       0.378
       0.261
       0.135
       0.031
      -0.026
      -0.026
       0.029
       0.126
       0.241
       0.345
       0.413
       0.430
       0.394
       0.316
       0.205
       0.071
      -0.081
      -0.244
      -0.402
      -0.524
      -0.579
      -0.546
      -0.435
      -0.276
      -0.112
       0.019
       0.095
       0.108
       0.060
      -0.045
      -0.193
      -0.357
      -0.495
      -0.569
      -0.560
      -0.474
      -0.335
      -0.181
      -0.043
       0.051
       0.082
       0.041
      -0.065
      -0.204
      -0.327
      -0.383
      -0.349
      -0.234
      -0.076
       0.089
       0.239
       0.374
       0.501
       0.614
       0.689
       0.704
       0.653
       0.557
       0.446
       0.350
       0.279
       0.227
       0.179
       0.126
       0.069
       0.015
      -0.035
      -0.088
      -0.150
      -0.220
      -0.280
      -0.306
      -0.282
      -0.220
      -0.149
      -0.099
      -0.078
      -0.078
      -0.088
      -0.106
      -0.139
      -0.185
      -0.230
      -0.245
      -0.209
      -0.120
      -0.003
       0.110
       0.194
       0.241
       0.258
       0.255
       0.238
       0.205
       0.157
       0.101
       0.046
      -0.003
      -0.052
      -0.114
      -0.204
      -0.322
      -0.452
      -0.566
      -0.631
      -0.629
      -0.565
      -0.458
      -0.334
      -0.213
      -0.110
      -0.032
       0.025
       0.063
       0.085
       0.094
       0.092
       0.089
       0.097
       0.126
       0.175
       0.227
       0.253
       0.235
       0.171
       0.075
      -0.031
      -0.127
      -0.200
      -0.242
      -0.244
      -0.197
      -0.093
       0.059
       0.234
       0.392
       0.498
       0.535
       0.509
       0.442
       0.361
       0.285
       0.220
       0.171
       0.143
       0.143
       0.176
       0.234
       0.303
       0.360
       0.382
       0.359
       0.289
       0.187
       0.074
      -0.025
      -0.085
      -0.090
      -0.044
       0.027
       0.094
       0.136
       0.147
       0.136
       0.113
       0.082
       0.046
       0.012
      -0.012
      -0.020
      -0.019
      -0.022
      -0.040
      -0.068
      -0.094
      -0.104
      -0.088
      -0.045
       0.012
       0.068
       0.109
       0.126
       0.120
       0.090
       0.043
      -0.012
      -0.059
      -0.079
      -0.058
       0.002
       0.085
       0.172
       0.252
       0.326
       0.392
       0.439
       0.449
       0.407
       0.319
       0.215
       0.132
       0.096
       0.105
       0.137
       0.172
       0.201
       0.226
       0.246
       0.257
       0.250
       0.217
       0.154
       0.067
      -0.035
      -0.139
      -0.233
      -0.306
      -0.350
      -0.366
      -0.360
      -0.340
      -0.311
      -0.281
      -0.264
      -0.278
      -0.335
      -0.432
      -0.543
      -0.638
      -0.696
      -0.726
      -0.755
      -0.807
      -0.886
      -0.981
      -1.083
      -1.186
      -1.290
      -1.378
      -1.421
      -1.386
      -1.253
      -1.037
      -0.775
      -0.513
      -0.287
      -0.111
       0.017
       0.110
       0.184
       0.258
       0.352
       0.486
       0.670
       0.893
       1.124
       1.328
       1.483
       1.586
       1.643
       1.667
       1.662
       1.627
       1.560
       1.464
       1.345
       1.208
       1.056
       0.894
       0.725
       0.560
       0.416
       0.313
       0.258
       0.233
       0.197
       0.112
      -0.037
      -0.223
      -0.395
      -0.499
      -0.496
      -0.383
      -0.183
       0.067
       0.325
       0.554
       0.721
       0.808
       0.809
       0.739
       0.628
       0.509
       0.401
       0.307
       0.211
       0.100
      -0.029
      -0.174
      -0.336
      -0.515
      -0.711
      -0.908
      -1.084
      -1.219
      -1.304
      -1.347
      -1.370
      -1.394
      -1.436
      -1.498
      -1.577
      -1.658
      -1.724
      -1.763
      -1.762
      -1.710
      -1.596
      -1.411
      -1.164
      -0.881
      -0.595
      -0.327
      -0.080
       0.159
       0.404
       0.652
       0.886
       1.085
       1.231
       1.314
       1.319
       1.228
       1.034
       0.751
       0.416
       0.082
      -0.205
      -0.424
      -0.580
      -0.689
      -0.768
      -0.823
      -0.857
      -0.873
      -0.873
      -0.851
      -0.795
      -0.693
      -0.546
      -0.365
      -0.177
       0.000
       0.158
       0.301
       0.432
       0.548
       0.642
       0.718
       0.784
       0.852
       0.928
       1.009
       1.087
       1.151
       1.192
       1.201
       1.168
       1.080
       0.932
       0.725
       0.477
       0.215
      -0.024
      -0.214
      -0.341
      -0.410
      -0.431
      -0.416
      -0.377
      -0.324
      -0.258
      -0.173
      -0.069
       0.047
       0.155
       0.237
       0.286
       0.307
       0.306
       0.282
       0.227
       0.148
       0.065
       0.006
      -0.013
      -0.002
       0.009
      -0.007
      -0.072
      -0.190
      -0.338
      -0.477
      -0.558
      -0.549
      -0.454
      -0.316
      -0.201
      -0.166
      -0.232
      -0.376
      -0.555
      -0.725
      -0.865
      -0.972
      -1.065
      -1.162
      -1.269
      -1.372
      -1.444
      -1.456
      -1.386
      -1.225
      -0.978
      -0.660
      -0.295
       0.084
       0.440
       0.737
       0.954
       1.097
       1.193
       1.283
       1.394
       1.529
       1.665
       1.771
       1.831
       1.848
       1.834
       1.789
       1.709
       1.589
       1.434
       1.250
       1.040
       0.801
       0.533
       0.250
      -0.019
      -0.237
      -0.370
      -0.408
      -0.367
      -0.285
      -0.213
      -0.195
      -0.251
      -0.368
      -0.516
      -0.668
      -0.800
      -0.898
      -0.947
      -0.935
      -0.861
      -0.747
      -0.630
      -0.552
      -0.534
      -0.567
      -0.624
      -0.679
      -0.712
      -0.709
      -0.658
      -0.553
      -0.397
      -0.208
      -0.019
       0.130
       0.212
       0.224
       0.190
       0.143
       0.110
       0.100
       0.113
       0.150
       0.215
       0.306
       0.402
       0.470
       0.488
       0.459
       0.413
       0.381
       0.379
       0.402
       0.433
       0.456
       0.462
       0.443
       0.400
       0.336
       0.267
       0.212
       0.182
       0.172
       0.165
       0.136
       0.067
      -0.055
      -0.225
      -0.419
      -0.594
      -0.701
      -0.702
      -0.595
      -0.414
      -0.221
      -0.076
      -0.015
      -0.040
      -0.135
      -0.276
      -0.444
      -0.620
      -0.781
      -0.897
      -0.940
      -0.891
      -0.755
      -0.556
      -0.326
      -0.102
       0.080
       0.184
       0.188
       0.090
      -0.082
      -0.278
      -0.447
      -0.556
      -0.592
      -0.556
      -0.448
      -0.266
      -0.019
       0.265
       0.542
       0.771
       0.930
       1.019
       1.050
       1.033
       0.972
       0.869
       0.731
       0.571
       0.401
       0.233
       0.083
      -0.029
      -0.091
      -0.099
      -0.061
       0.008
       0.094
       0.182
       0.260
       0.317
       0.348
       0.349
       0.317
       0.249
       0.150
       0.031
      -0.087
      -0.185
      -0.251
      -0.283
      -0.281
      -0.251
      -0.200
      -0.148
      -0.115
      -0.111
      -0.131
      -0.160
      -0.179
      -0.177
      -0.150
      -0.098
      -0.015
       0.103
       0.253
       0.422
       0.590
       0.737
       0.845
       0.904
       0.913
       0.882
       0.823
       0.740
       0.630
       0.491
       0.321
       0.124
      -0.095
      -0.324
      -0.542
      -0.724
      -0.848
      -0.912
      -0.938
      -0.963
      -1.020
      -1.116
      -1.237
      -1.362
      -1.471
      -1.557
      -1.617
      -1.641
      -1.617
      -1.532
      -1.376
      -1.150
      -0.849
      -0.467
      -0.001
       0.533
       1.093
       1.625
       2.071
       2.394
       2.576
       2.620
       2.544
       2.378
       2.164
       1.950
       1.774
       1.645
       1.538
       1.403
       1.194
       0.878
       0.456
      -0.035
      -0.535
      -0.979
      -1.322
      -1.548
      -1.669
      -1.711
      -1.703
      -1.670
      -1.633
      -1.608
      -1.586
      -1.529
      -1.383
      -1.108
      -0.707
      -0.230
       0.243
       0.640
       0.916
       1.061
       1.085
       1.006
       0.850
       0.643
       0.413
       0.176
      -0.064
      -0.313
      -0.574
      -0.845
      -1.113
      -1.357
      -1.551
      -1.669
      -1.684
      -1.574
      -1.334
      -0.980
      -0.551
      -0.100
       0.317
       0.660
       0.910
       1.071
       1.161
       1.196
       1.186
       1.147
       1.096
       1.043
       0.985
       0.904
       0.779
       0.610
       0.422
       0.256
       0.146
       0.110
       0.150
       0.254
       0.405
       0.567
       0.695
       0.749
       0.716
       0.611
       0.458
       0.275
       0.058
      -0.202
      -0.497
      -0.796
      -1.051
      -1.223
      -1.287
      -1.239
      -1.095
      -0.891
      -0.677
      -0.502
      -0.397
      -0.361
      -0.364
      -0.364
      -0.328
      -0.249
      -0.142
      -0.023
       0.103
       0.243
       0.398
       0.552
       0.670
       0.706
       0.632
       0.449
       0.189
      -0.102
      -0.379
      -0.605
      -0.753
      -0.808
      -0.773
      -0.667
      -0.520
      -0.365
      -0.228
      -0.119
      -0.035
       0.038
       0.116
       0.219
       0.363
       0.550
       0.774
       1.016
       1.258
       1.481
       1.667
       1.802
       1.876
       1.883
       1.819
       1.672
       1.433
       1.098
       0.686
       0.239
      -0.189
      -0.556
      -0.851
      -1.095
      -1.326
      -1.574
      -1.848
      -2.133
      -2.397
      -2.606
      -2.730
      -2.740
      -2.623
      -2.379
      -2.032
      -1.613
      -1.146
      -0.649
      -0.130
       0.398
       0.914
       1.388
       1.796
       2.131
       2.397
       2.600
       2.727
       2.749
       2.643
       2.406
       2.062
       1.648
       1.195
       0.722
       0.235
      -0.252
      -0.713
      -1.116
      -1.431
      -1.638
      -1.718
      -1.661
      -1.469
      -1.168
      -0.803
      -0.422
      -0.061
       0.257
       0.520
       0.714
       0.829
       0.867
       0.846
       0.799
       0.755
       0.734
       0.738
       0.756
       0.768
       0.755
       0.710
       0.634
       0.520
       0.344
       0.081
      -0.279
      -0.713
      -1.171
      -1.598
      -1.955
      -2.221
      -2.386
      -2.444
      -2.391
      -2.232
      -1.981
      -1.653
      -1.264
      -0.834
      -0.392
       0.020
       0.353
       0.564
       0.634
       0.578
       0.434
       0.257
       0.094
      -0.017
      -0.062
      -0.049
      -0.002
       0.046
       0.065
       0.033
      -0.052
      -0.174
      -0.292
      -0.356
      -0.332
      -0.218
      -0.054
       0.099
       0.193
       0.214
       0.188
       0.153
       0.138
       0.153
       0.201
       0.290
       0.436
       0.653
       0.936
       1.253
       1.552
       1.784
       1.909
       1.905
       1.760
       1.486
       1.122
       0.733
       0.403
       0.203
       0.165
       0.276
       0.484
       0.726
       0.951
       1.127
       1.238
       1.270
       1.207
       1.040
       0.783
       0.483
       0.202
      -0.012
      -0.138
      -0.186
      -0.181
      -0.147
      -0.118
      -0.129
      -0.219
      -0.413
      -0.704
      -1.056
      -1.410
      -1.718
      -1.949
      -2.099
      -2.172
      -2.166
      -2.069
      -1.869
      -1.566
      -1.189
      -0.785
      -0.406
      -0.094
       0.129
       0.267
       0.342
       0.375
       0.374
       0.339
       0.278
       0.216
       0.182
       0.187
       0.214
       0.231
       0.212
       0.148
       0.058
      -0.018
      -0.038
       0.017
       0.134
       0.266
       0.360
       0.384
       0.345
       0.277
       0.212
       0.147
       0.051
      -0.112
      -0.354
      -0.645
      -0.928
      -1.138
      -1.230
      -1.189
      -1.018
      -0.732
      -0.355
       0.065
       0.454
       0.732
       0.853
       0.824
       0.702
       0.558
       0.447
       0.389
       0.381
       0.408
       0.446
       0.471
       0.460
       0.398
       0.288
       0.140
      -0.031
      -0.210
      -0.387
      -0.552
      -0.699
      -0.814
      -0.883
      -0.894
      -0.841
      -0.735
      -0.606
      -0.493
      -0.422
      -0.389
      -0.368
      -0.330
      -0.261
      -0.162
      -0.037
       0.106
       0.265
       0.431
       0.590
       0.722
       0.812
       0.862
       0.887
       0.911
       0.953
       1.014
       1.075
       1.105
       1.079
       0.989
       0.837
       0.627
       0.357
       0.033
      -0.324
      -0.670
      -0.951
      -1.120
      -1.148
      -1.034
      -0.800
      -0.474
      -0.094
       0.304
       0.678
       0.985
       1.188
       1.271
       1.238
       1.117
       0.942
       0.748
       0.566
       0.415
       0.304
       0.225
       0.159
       0.084
      -0.022
      -0.168
      -0.346
      -0.529
      -0.683
      -0.780
      -0.809
      -0.780
      -0.716
      -0.636
      -0.551
      -0.457
      -0.349
      -0.238
      -0.148
      -0.106
      -0.138
      -0.257
      -0.457
      -0.709
      -0.963
      -1.156
      -1.233
      -1.155
      -0.918
      -0.554
      -0.132
       0.265
       0.563
       0.720
       0.733
       0.632
       0.459
       0.255
       0.057
      -0.106
      -0.210
      -0.243
      -0.209
      -0.121
      -0.004
       0.120
       0.232
       0.322
       0.380
       0.403
       0.390
       0.347
       0.286
       0.217
       0.146
       0.078
       0.018
      -0.026
      -0.049
      -0.047
      -0.028
      -0.005
       0.003
      -0.012
      -0.049
      -0.092
      -0.126
      -0.141
      -0.134
      -0.102
      -0.045
       0.038
       0.133
       0.203
       0.200
       0.094
      -0.109
      -0.357
      -0.579
      -0.709
      -0.716
      -0.606
      -0.408
      -0.159
       0.099
       0.329
       0.496
       0.583
       0.590
       0.532
       0.423
       0.282
       0.123
      -0.035
      -0.175
      -0.283
      -0.349
      -0.366
      -0.329
      -0.236
      -0.091
       0.080
       0.238
       0.346
       0.381
       0.343
       0.245
       0.115
      -0.014
      -0.107
      -0.142
      -0.119
      -0.060
      -0.003
       0.011
      -0.048
      -0.192
      -0.410
      -0.666
      -0.910
      -1.081
      -1.129
      -1.026
      -0.773
      -0.405
       0.019
       0.431
       0.773
       1.014
       1.151
       1.195
       1.161
       1.062
       0.917
       0.752
       0.594
       0.454
       0.325
       0.188
       0.035
      -0.127
      -0.283
      -0.427
      -0.566
      -0.715
      -0.886
      -1.072
      -1.244
      -1.360
      -1.381
      -1.287
      -1.085
      -0.804
      -0.485
      -0.174
       0.089
       0.282
       0.408
       0.483
       0.529
       0.557
       0.567
       0.542
       0.471
       0.354
       0.206
       0.052
      -0.074
      -0.142
      -0.131
      -0.049
       0.075
       0.194
       0.267
       0.270
       0.206
       0.092
      -0.045
      -0.178
      -0.279
      -0.318
      -0.275
      -0.150
       0.032
       0.231
       0.413
       0.561
       0.683
       0.794
       0.898
       0.978
       1.001
       0.940
       0.798
       0.605
       0.402
       0.219
