Origin Time       20/06/2011 06:27:18 UTC
Lat.              30.5 N	
Long.             79.4 E	
Depth (Km)         12.0
Magnitude         4.6
 Region           Chamoli-Uttarakhand                                              
 Above details taken from IMD 
    
Station Code      TEH
Station Lat.       30.374  N
Station Long.      78.430  E
Station Height(m) 1894.0
Site Class        A   Vs30 between 700 m/sec to 1400 m/sec * 
Record Time       20.06.2011 06:27:06.529 UTC
Sampling Rate     200. Hz
 Record Duration   93.285 Sec.
 Direction         N-S (N positive)
Max. Acceleration     -8.158 cm/sec**2
     
  * For reference see Site Classification link of website 
     
 Base Line Corrected and Low Pass Filtered (Cut Off at 35 Hz) Time History
 Acceleration data in cm/sec**2
    
[...]
       0.021
       0.012
       0.001
       0.003
       0.031
       0.088
       0.161
       0.225
       0.255
       0.236
       0.168
       0.072
      -0.024
      -0.096
      -0.133
      -0.137
      -0.123
      -0.112
      -0.116
      -0.143
      -0.192
      -0.259
      -0.340
      -0.425
      -0.497
      -0.530
      -0.505
      -0.423
      -0.302
      -0.167
      -0.042
       0.063
       0.141
       0.182
       0.183
       0.149
       0.102
       0.076
       0.105
       0.202
       0.357
       0.534
       0.693
       0.805
       0.858
       0.850
       0.783
       0.654
       0.465
       0.230
      -0.023
      -0.252
      -0.417
      -0.495
      -0.481
      -0.399
      -0.288
      -0.187
      -0.120
      -0.092
      -0.092
      -0.106
      -0.119
      -0.120
      -0.104
      -0.073
      -0.038
      -0.009
       0.010
       0.028
       0.058
       0.106
       0.164
       0.215
       0.242
       0.239
       0.209
       0.155
       0.081
      -0.008
      -0.102
      -0.179
      -0.220
      -0.211
      -0.161
      -0.098
      -0.050
      -0.031
      -0.036
      -0.051
      -0.066
      -0.077
      -0.088
      -0.102
      -0.115
      -0.121
      -0.117
      -0.106
      -0.098
      -0.101
      -0.116
      -0.134
      -0.140
      -0.126
      -0.095
      -0.058
      -0.025
       0.001
       0.020
       0.027
       0.021
       0.002
      -0.020
      -0.028
      -0.010
       0.030
       0.076
       0.110
       0.119
       0.102
       0.071
       0.044
       0.041
       0.079
       0.162
       0.266
       0.355
       0.398
       0.390
       0.352
       0.307
       0.265
       0.218
       0.158
       0.097
       0.056
       0.054
       0.085
       0.123
       0.140
       0.129
       0.106
       0.098
       0.122
       0.169
       0.209
       0.215
       0.180
       0.129
       0.094
       0.096
       0.127
       0.158
       0.161
       0.116
       0.018
      -0.127
      -0.307
      -0.500
      -0.672
      -0.792
      -0.841
      -0.817
      -0.735
      -0.612
      -0.469
      -0.328
      -0.213
      -0.140
      -0.104
      -0.080
      -0.033
       0.045
       0.135
       0.202
       0.224
       0.208
       0.177
       0.157
       0.160
       0.178
       0.197
       0.200
       0.176
       0.121
       0.042
      -0.051
      -0.138
      -0.205
      -0.237
      -0.234
      -0.207
      -0.183
      -0.192
      -0.251
      -0.354
      -0.474
      -0.573
      -0.618
      -0.590
      -0.498
      -0.370
      -0.237
      -0.120
      -0.021
       0.070
       0.163
       0.256
       0.339
       0.397
       0.419
       0.402
       0.348
       0.265
       0.172
       0.093
       0.058
       0.078
       0.145
       0.232
       0.308
       0.353
       0.369
       0.362
       0.337
       0.295
       0.240
       0.184
       0.141
       0.127
       0.149
       0.203
       0.278
       0.361
       0.442
       0.518
       0.584
       0.621
       0.605
       0.512
       0.340
       0.112
      -0.126
      -0.330
      -0.468
      -0.526
      -0.508
      -0.431
      -0.323
      -0.212
      -0.123
      -0.072
      -0.060
      -0.084
      -0.135
      -0.206
      -0.286
      -0.363
      -0.421
      -0.447
      -0.436
      -0.391
      -0.327
      -0.264
      -0.223
      -0.212
      -0.223
      -0.232
      -0.215
      -0.165
      -0.090
      -0.007
       0.072
       0.135
       0.177
       0.193
       0.181
       0.148
       0.103
       0.055
       0.003
      -0.053
      -0.115
      -0.178
      -0.229
      -0.253
      -0.233
      -0.164
      -0.056
       0.061
       0.153
       0.193
       0.176
       0.112
       0.020
      -0.079
      -0.167
      -0.228
      -0.248
      -0.220
      -0.145
      -0.034
       0.095
       0.226
       0.346
       0.446
       0.520
       0.561
       0.559
       0.508
       0.407
       0.272
       0.132
       0.023
      -0.028
      -0.003
       0.091
       0.228
       0.370
       0.477
       0.519
       0.474
       0.337
       0.124
      -0.133
      -0.387
      -0.586
      -0.687
      -0.670
      -0.543
      -0.336
      -0.089
       0.165
       0.398
       0.582
       0.687
       0.688
       0.581
       0.392
       0.172
      -0.031
      -0.186
      -0.287
      -0.343
      -0.362
      -0.350
      -0.313
      -0.269
      -0.251
      -0.293
      -0.417
      -0.609
      -0.832
      -1.029
      -1.151
      -1.174
      -1.096
      -0.940
      -0.734
      -0.509
      -0.293
      -0.114
       0.008
       0.067
       0.077
       0.063
       0.056
       0.079
       0.136
       0.219
       0.310
       0.395
       0.462
       0.508
       0.530
       0.530
       0.514
       0.495
       0.484
       0.486
       0.497
       0.501
       0.478
       0.423
       0.344
       0.262
       0.202
       0.176
       0.178
       0.188
       0.183
       0.159
       0.132
       0.127
       0.165
       0.247
       0.359
       0.476
       0.577
       0.646
       0.668
       0.627
       0.510
       0.317
       0.069
      -0.193
      -0.421
      -0.580
      -0.660
      -0.672
      -0.636
      -0.571
      -0.485
      -0.385
      -0.281
      -0.183
      -0.096
      -0.022
       0.045
       0.113
       0.183
       0.253
       0.323
       0.394
       0.470
       0.544
       0.597
       0.604
       0.548
       0.429
       0.269
       0.105
      -0.031
      -0.127
      -0.196
      -0.267
      -0.363
      -0.482
      -0.598
      -0.677
      -0.705
      -0.693
      -0.664
      -0.636
      -0.611
      -0.577
      -0.520
      -0.438
      -0.337
      -0.232
      -0.129
      -0.025
       0.083
       0.195
       0.306
       0.411
       0.511
       0.604
       0.688
       0.756
       0.797
       0.801
       0.768
       0.694
       0.579
       0.418
       0.210
      -0.040
      -0.309
      -0.564
      -0.770
      -0.903
      -0.962
      -0.961
      -0.921
      -0.854
      -0.770
      -0.677
      -0.583
      -0.493
      -0.412
      -0.346
      -0.298
      -0.262
      -0.221
      -0.149
      -0.026
       0.152
       0.366
       0.595
       0.817
       1.018
       1.188
       1.314
       1.386
       1.398
       1.346
       1.229
       1.040
       0.774
       0.431
       0.032
      -0.374
      -0.730
      -0.989
      -1.137
      -1.195
      -1.198
      -1.182
      -1.160
      -1.129
      -1.074
      -0.983
      -0.849
      -0.668
      -0.438
      -0.170
       0.107
       0.349
       0.513
       0.574
       0.541
       0.446
       0.331
       0.224
       0.136
       0.061
      -0.002
      -0.051
      -0.078
      -0.085
      -0.086
      -0.103
      -0.151
      -0.222
      -0.295
      -0.349
      -0.377
      -0.383
      -0.376
      -0.354
      -0.309
      -0.235
      -0.131
      -0.008
       0.126
       0.265
       0.410
       0.560
       0.705
       0.833
       0.929
       0.981
       0.985
       0.943
       0.858
       0.738
       0.590
       0.419
       0.232
       0.032
      -0.177
      -0.387
      -0.582
      -0.738
      -0.832
      -0.846
      -0.767
      -0.591
      -0.327
       0.004
       0.363
       0.701
       0.967
       1.123
       1.155
       1.069
       0.890
       0.649
       0.370
       0.077
      -0.207
      -0.458
      -0.667
      -0.844
      -1.011
      -1.182
      -1.348
      -1.478
      -1.533
      -1.488
      -1.354
      -1.175
      -1.007
      -0.884
      -0.803
      -0.735
      -0.650
      -0.538
      -0.403
      -0.247
      -0.051
       0.206
       0.528
       0.884
       1.220
       1.484
       1.654
       1.744
       1.790
       1.816
       1.825
       1.802
       1.735
       1.624
       1.477
       1.296
       1.078
       0.821
       0.536
       0.248
      -0.011
      -0.210
      -0.330
      -0.378
      -0.385
      -0.392
      -0.433
      -0.525
      -0.665
      -0.837
      -1.019
      -1.179
      -1.280
      -1.288
      -1.184
      -0.975
      -0.699
      -0.408
      -0.152
       0.050
       0.215
       0.378
       0.566
       0.773
       0.974
       1.144
       1.270
       1.351
       1.373
       1.310
       1.132
       0.825
       0.401
      -0.109
      -0.658
      -1.200
      -1.689
      -2.095
      -2.400
      -2.605
      -2.711
      -2.708
      -2.574
      -2.293
      -1.879
      -1.383
      -0.869
      -0.394
       0.014
       0.356
       0.643
       0.892
       1.124
       1.368
       1.643
       1.949
       2.250
       2.486
       2.592
       2.522
       2.261
       1.829
       1.273
       0.662
       0.065
      -0.460
      -0.883
      -1.198
      -1.420
      -1.576
      -1.703
      -1.830
      -1.977
      -2.150
      -2.341
      -2.543
      -2.749
      -2.950
      -3.123
      -3.238
      -3.248
      -3.103
      -2.759
      -2.210
      -1.494
      -0.682
       0.156
       0.986
       1.800
       2.597
       3.348
       4.008
       4.532
       4.903
       5.124
       5.204
       5.142
       4.935
       4.588
       4.125
       3.592
       3.046
       2.526
       2.040
       1.568
       1.104
       0.672
       0.321
       0.078
      -0.075
      -0.196
      -0.348
      -0.578
      -0.901
      -1.301
      -1.734
      -2.128
      -2.402
      -2.499
      -2.401
      -2.126
      -1.714
      -1.227
      -0.750
      -0.367
      -0.129
      -0.033
      -0.033
      -0.080
      -0.144
      -0.214
      -0.287
      -0.365
      -0.448
      -0.542
      -0.648
      -0.761
      -0.877
      -0.995
      -1.121
      -1.256
      -1.394
      -1.526
      -1.644
      -1.734
      -1.769
      -1.708
      -1.513
      -1.179
      -0.741
      -0.262
       0.178
       0.500
       0.645
       0.588
       0.352
       0.003
      -0.371
      -0.686
      -0.880
      -0.926
      -0.834
      -0.648
      -0.436
      -0.263
      -0.171
      -0.173
      -0.255
      -0.398
      -0.570
      -0.741
      -0.876
      -0.949
      -0.941
      -0.846
      -0.669
      -0.431
      -0.165
       0.093
       0.310
       0.469
       0.565
       0.602
       0.594
       0.572
       0.577
       0.655
       0.837
       1.128
       1.506
       1.927
       2.339
       2.690
       2.939
       3.068
       3.079
       2.996
       2.853
       2.688
       2.531
       2.397
       2.275
       2.128
       1.897
       1.519
       0.963
       0.247
      -0.566
      -1.390
      -2.143
      -2.756
      -3.174
      -3.355
      -3.269
      -2.930
      -2.409
      -1.826
      -1.319
      -0.986
      -0.856
      -0.895
      -1.041
      -1.237
      -1.431
      -1.572
      -1.604
      -1.484
      -1.214
      -0.836
      -0.419
      -0.021
       0.317
       0.572
       0.722
       0.735
       0.587
       0.291
      -0.099
      -0.508
      -0.886
      -1.225
      -1.539
      -1.829
      -2.065
      -2.208
      -2.226
      -2.106
      -1.849
      -1.466
      -0.969
      -0.373
       0.309
       1.069
       1.884
       2.709
       3.481
       4.151
       4.699
       5.131
       5.459
       5.696
       5.853
       5.939
       5.945
       5.830
       5.534
       5.004
       4.217
       3.191
       1.984
       0.692
      -0.563
      -1.660
      -2.511
      -3.075
      -3.355
      -3.377
      -3.188
      -2.852
      -2.449
      -2.064
      -1.775
      -1.634
      -1.668
      -1.864
      -2.168
      -2.500
      -2.779
      -2.954
      -3.017
      -3.005
      -2.978
      -2.988
      -3.060
      -3.184
      -3.319
      -3.403
      -3.365
      -3.131
      -2.652
      -1.919
      -0.979
       0.074
       1.120
       2.042
       2.750
       3.194
       3.362
       3.277
       2.990
       2.564
       2.057
       1.517
       0.986
       0.509
       0.140
      -0.073
      -0.096
       0.067
       0.373
       0.747
       1.109
       1.394
       1.565
       1.610
       1.523
       1.312
       0.993
       0.597
       0.163
      -0.270
      -0.656
      -0.950
      -1.115
      -1.137
      -1.022
      -0.789
      -0.470
      -0.119
       0.183
       0.346
       0.307
       0.051
      -0.389
      -0.950
      -1.559
      -2.142
      -2.632
      -2.965
      -3.095
      -2.994
      -2.661
      -2.127
      -1.445
      -0.675
       0.132
       0.939
       1.717
       2.427
       3.021
       3.457
       3.717
       3.809
       3.747
       3.542
       3.188
       2.680
       2.026
       1.250
       0.383
      -0.551
      -1.539
      -2.560
      -3.567
      -4.479
      -5.200
      -5.647
      -5.772
      -5.574
      -5.090
      -4.375
      -3.484
      -2.466
      -1.361
      -0.207
       0.956
       2.075
       3.089
       3.948
       4.643
       5.212
       5.711
       6.183
       6.634
       7.039
       7.363
       7.579
       7.661
       7.565
       7.220
       6.554
       5.541
       4.223
       2.688
       1.025
      -0.710
      -2.465
      -4.165
      -5.693
      -6.915
      -7.734
      -8.129
      -8.158
      -7.914
      -7.478
      -6.915
      -6.290
      -5.697
      -5.234
      -4.954
      -4.833
      -4.786
      -4.720
      -4.570
      -4.294
      -3.858
      -3.223
      -2.364
      -1.298
      -0.103
       1.096
       2.159
       2.979
       3.514
       3.793
       3.876
       3.819
       3.667
       3.465
       3.274
       3.156
       3.155
       3.281
       3.526
       3.871
       4.287
       4.725
       5.119
       5.405
       5.540
       5.517
       5.359
       5.108
       4.810
       4.491
       4.144
       3.728
       3.184
       2.463
       1.547
       0.453
      -0.773
      -2.067
      -3.361
      -4.591
      -5.695
      -6.614
      -7.299
      -7.712
      -7.842
      -7.714
      -7.380
      -6.908
      -6.363
      -5.788
      -5.208
      -4.637
      -4.092
      -3.601
      -3.190
      -2.859
      -2.572
      -2.265
      -1.879
      -1.386
      -0.787
      -0.099
       0.662
       1.483
       2.351
       3.231
       4.070
       4.799
       5.350
       5.677
       5.770
       5.656
       5.385
       5.017
       4.611
       4.213
       3.847
       3.515
       3.191
       2.844
       2.447
       1.991
       1.484
       0.948
       0.411
      -0.107
      -0.607
      -1.114
      -1.656
      -2.235
      -2.816
      -3.327
      -3.682
      -3.810
      -3.675
      -3.289
      -2.697
      -1.963
      -1.157
      -0.351
       0.385
       0.992
       1.426
       1.665
       1.698
       1.526
       1.174
       0.688
       0.136
      -0.419
      -0.935
      -1.406
      -1.842
      -2.250
      -2.614
      -2.900
      -3.078
      -3.145
      -3.125
      -3.050
      -2.930
      -2.743
      -2.453
      -2.034
      -1.489
      -0.854
      -0.196
       0.411
       0.915
       1.310
       1.630
       1.927
       2.251
       2.641
       3.118
       3.684
       4.306
       4.921
       5.435
       5.744
       5.762
       5.441
       4.790
       3.873
       2.786
       1.641
       0.543
      -0.414
      -1.164
      -1.674
      -1.962
      -2.075
      -2.070
      -1.993
      -1.874
      -1.737
      -1.591
      -1.435
      -1.251
      -1.016
      -0.702
      -0.293
       0.209
       0.772
       1.333
       1.817
       2.162
       2.345
       2.382
       2.318
       2.185
       1.986
       1.706
       1.331
       0.864
       0.322
      -0.277
      -0.924
      -1.602
      -2.271
      -2.869
      -3.323
      -3.573
      -3.588
      -3.374
      -2.964
      -2.403
      -1.734
      -1.004
      -0.275
       0.371
       0.859
       1.145
       1.231
       1.142
       0.905
       0.540
       0.067
      -0.477
      -1.045
      -1.591
      -2.075
      -2.469
      -2.748
      -2.892
      -2.895
      -2.771
      -2.552
      -2.281
      -2.008
      -1.785
      -1.659
      -1.656
      -1.764
      -1.936
      -2.100
      -2.176
      -2.094
      -1.799
      -1.270
      -0.535
       0.320
       1.174
       1.906
       2.433
       2.720
       2.766
       2.590
       2.227
       1.732
       1.184
       0.672
       0.269
       0.015
      -0.081
      -0.023
       0.187
       0.543
       1.018
       1.557
       2.091
       2.561
       2.936
       3.211
       3.392
       3.495
       3.535
       3.522
       3.452
       3.306
       3.053
       2.674
       2.179
       1.610
       1.014
       0.422
      -0.165
      -0.749
      -1.320
      -1.844
      -2.286
      -2.625
      -2.853
      -2.961
      -2.940
      -2.803
      -2.607
      -2.440
      -2.376
      -2.437
      -2.585
      -2.745
      -2.837
      -2.803
      -2.604
      -2.235
      -1.723
      -1.127
      -0.522
       0.018
       0.448
       0.761
       0.991
       1.188
       1.390
       1.612
       1.846
       2.078
       2.293
       2.478
       2.623
       2.728
       2.800
       2.839
       2.833
       2.762
       2.616
       2.402
       2.139
       1.840
       1.514
       1.162
       0.780
       0.360
      -0.090
      -0.533
      -0.897
      -1.109
      -1.126
      -0.961
      -0.664
      -0.299
       0.068
       0.378
       0.575
       0.622
       0.507
       0.239
      -0.160
      -0.662
      -1.226
      -1.796
      -2.316
      -2.739
      -3.037
      -3.191
      -3.189
      -3.034
      -2.747
      -2.366
      -1.934
      -1.493
      -1.080
      -0.725
      -0.460
      -0.311
      -0.306
      -0.466
      -0.792
      -1.242
      -1.733
      -2.168
      -2.463
      -2.573
      -2.491
      -2.240
      -1.867
      -1.429
      -0.973
      -0.533
      -0.127
       0.231
       0.525
       0.740
       0.869
       0.927
       0.943
       0.960
       1.017
       1.154
       1.399
       1.761
       2.220
       2.721
       3.183
       3.517
       3.651
       3.556
       3.250
       2.787
       2.237
       1.664
       1.113
       0.621
       0.212
      -0.098
      -0.304
      -0.411
      -0.424
      -0.353
      -0.211
      -0.025
       0.163
       0.309
       0.389
       0.411
       0.404
       0.402
       0.425
       0.473
       0.535
       0.588
       0.617
       0.610
       0.568
       0.500
       0.419
       0.342
       0.277
       0.232
       0.209
       0.200
       0.190
       0.171
       0.146
       0.139
       0.179
       0.277
       0.422
       0.582
       0.728
       0.840
       0.911
       0.932
       0.890
       0.776
       0.599
       0.380
       0.140
      -0.112
      -0.375
      -0.655
      -0.955
      -1.276
      -1.622
      -1.992
      -2.378
      -2.764
      -3.131
      -3.460
      -3.741
