Origin Time       14/12/2005 07:09:48
Lat.              30.9 N 
Long.             79.3 E 
Depth (Km)         25.7
Magnitude         5.2
 Region           Chamoli-Uttarakhand                                              
 Above details taken from IMD 
     
Station Code      TEH
Station Lat.       30.374  N
Station Long.      78.430  E
Station Height(m) 1870.0
Site Class        A   Vs30 between 700 m/sec to 1400 m/sec * 
Record Time       14.12.2005 07:10:10.514
Sampling Rate     200. Hz
 Record Duration   31.435 Sec.
 Direction         E-W (E positive)
Max. Acceleration     -7.039 cm/sec**2
     
  * For reference see Site Classification link of website 
     
 Base Line Corrected and Low Pass Filtered (Cut Off at 35 Hz) Time History
 Acceleration data in cm/sec**2
    
[...]
      -0.644
      -0.685
      -0.695
      -0.713
      -0.757
      -0.811
      -0.839
      -0.807
      -0.699
      -0.529
      -0.333
      -0.156
      -0.025
       0.056
       0.116
       0.191
       0.306
       0.454
       0.595
       0.686
       0.707
       0.675
       0.627
       0.595
       0.590
       0.595
       0.580
       0.519
       0.408
       0.267
       0.136
       0.051
       0.031
       0.063
       0.107
       0.109
       0.034
      -0.117
      -0.308
      -0.491
      -0.632
      -0.719
      -0.756
      -0.750
      -0.711
      -0.646
      -0.564
      -0.476
      -0.390
      -0.311
      -0.243
      -0.188
      -0.142
      -0.096
      -0.045
       0.008
       0.050
       0.074
       0.081
       0.077
       0.070
       0.060
       0.048
       0.038
       0.045
       0.084
       0.163
       0.275
       0.404
       0.534
       0.653
       0.741
       0.789
       0.795
       0.775
       0.738
       0.682
       0.595
       0.480
       0.353
       0.238
       0.154
       0.101
       0.066
       0.024
      -0.040
      -0.120
      -0.196
      -0.242
      -0.246
      -0.212
      -0.157
      -0.097
      -0.048
      -0.016
      -0.003
      -0.006
      -0.022
      -0.050
      -0.096
      -0.166
      -0.257
      -0.357
      -0.440
      -0.483
      -0.476
      -0.419
      -0.320
      -0.198
      -0.071
       0.051
       0.173
       0.303
       0.435
       0.538
       0.573
       0.517
       0.382
       0.208
       0.039
      -0.097
      -0.200
      -0.288
      -0.381
      -0.488
      -0.601
      -0.695
      -0.747
      -0.743
      -0.698
      -0.638
      -0.593
      -0.570
      -0.552
      -0.513
      -0.429
      -0.305
      -0.166
      -0.051
       0.016
       0.040
       0.050
       0.071
       0.116
       0.172
       0.216
       0.225
       0.184
       0.100
      -0.001
      -0.082
      -0.116
      -0.100
      -0.060
      -0.027
      -0.013
       0.002
       0.052
       0.158
       0.317
       0.505
       0.692
       0.851
       0.956
       0.991
       0.953
       0.852
       0.720
       0.593
       0.504
       0.462
       0.450
       0.440
       0.411
       0.354
       0.276
       0.189
       0.111
       0.049
       0.005
      -0.024
      -0.041
      -0.051
      -0.069
      -0.120
      -0.218
      -0.359
      -0.525
      -0.693
      -0.846
      -0.965
      -1.038
      -1.054
      -1.009
      -0.904
      -0.751
      -0.572
      -0.395
      -0.239
      -0.104
       0.033
       0.201
       0.406
       0.628
       0.823
       0.958
       1.019
       1.008
       0.942
       0.842
       0.737
       0.653
       0.606
       0.594
       0.590
       0.556
       0.448
       0.241
      -0.058
      -0.401
      -0.721
      -0.961
      -1.104
      -1.174
      -1.206
      -1.226
      -1.238
      -1.244
      -1.246
      -1.244
      -1.222
      -1.153
      -1.026
      -0.850
      -0.651
      -0.437
      -0.205
       0.048
       0.296
       0.480
       0.543
       0.472
       0.315
       0.160
       0.081
       0.100
       0.185
       0.289
       0.385
       0.465
       0.518
       0.523
       0.475
       0.405
       0.374
       0.425
       0.553
       0.709
       0.827
       0.865
       0.823
       0.736
       0.653
       0.598
       0.565
       0.536
       0.501
       0.461
       0.415
       0.346
       0.240
       0.099
      -0.051
      -0.189
      -0.311
      -0.430
      -0.551
      -0.657
      -0.719
      -0.711
      -0.632
      -0.498
      -0.325
      -0.121
       0.109
       0.347
       0.564
       0.732
       0.838
       0.881
       0.861
       0.771
       0.608
       0.388
       0.139
      -0.101
      -0.306
      -0.471
      -0.607
      -0.721
      -0.815
      -0.885
      -0.935
      -0.977
      -1.022
      -1.067
      -1.097
      -1.100
      -1.076
      -1.039
      -1.003
      -0.960
      -0.890
      -0.777
      -0.631
      -0.488
      -0.387
      -0.342
      -0.334
      -0.329
      -0.303
      -0.257
      -0.204
      -0.150
      -0.086
      -0.003
       0.092
       0.170
       0.210
       0.228
       0.280
       0.425
       0.684
       1.020
       1.365
       1.655
       1.849
       1.928
       1.891
       1.751
       1.547
       1.334
       1.151
       0.999
       0.844
       0.658
       0.450
       0.262
       0.137
       0.098
       0.131
       0.203
       0.265
       0.272
       0.200
       0.057
      -0.135
      -0.353
      -0.586
      -0.818
      -1.030
      -1.199
      -1.306
      -1.330
      -1.253
      -1.072
      -0.818
      -0.553
      -0.345
      -0.236
      -0.211
      -0.216
      -0.190
      -0.101
       0.040
       0.190
       0.296
       0.314
       0.227
       0.062
      -0.121
      -0.256
      -0.304
      -0.289
      -0.278
      -0.332
      -0.454
      -0.582
      -0.626
      -0.532
      -0.322
      -0.075
       0.115
       0.196
       0.179
       0.124
       0.099
       0.142
       0.244
       0.356
       0.425
       0.414
       0.330
       0.216
       0.135
       0.138
       0.233
       0.387
       0.536
       0.619
       0.609
       0.528
       0.435
       0.391
       0.423
       0.514
       0.609
       0.652
       0.608
       0.476
       0.283
       0.069
      -0.135
      -0.306
      -0.425
      -0.478
      -0.458
      -0.373
      -0.235
      -0.057
       0.148
       0.360
       0.542
       0.650
       0.650
       0.547
       0.388
       0.236
       0.125
       0.049
      -0.015
      -0.072
      -0.115
      -0.145
      -0.187
      -0.271
      -0.401
      -0.554
      -0.691
      -0.787
      -0.836
      -0.853
      -0.852
      -0.828
      -0.751
      -0.593
      -0.354
      -0.079
       0.164
       0.316
       0.353
       0.286
       0.147
      -0.030
      -0.209
      -0.355
      -0.427
      -0.398
      -0.266
      -0.065
       0.146
       0.306
       0.387
       0.400
       0.388
       0.392
       0.431
       0.492
       0.546
       0.569
       0.554
       0.506
       0.429
       0.314
       0.152
      -0.055
      -0.282
      -0.493
      -0.659
      -0.765
      -0.805
      -0.775
      -0.672
      -0.501
      -0.283
      -0.056
       0.134
       0.257
       0.313
       0.327
       0.332
       0.350
       0.377
       0.395
       0.385
       0.343
       0.281
       0.217
       0.163
       0.117
       0.070
       0.013
      -0.052
      -0.112
      -0.145
      -0.128
      -0.045
       0.094
       0.253
       0.382
       0.438
       0.413
       0.327
       0.213
       0.090
      -0.031
      -0.133
      -0.187
      -0.170
      -0.091
       0.003
       0.065
       0.074
       0.047
       0.015
      -0.001
      -0.006
      -0.013
      -0.025
      -0.034
      -0.032
      -0.016
       0.011
       0.037
       0.046
       0.014
      -0.075
      -0.219
      -0.400
      -0.591
      -0.755
      -0.858
      -0.893
      -0.892
      -0.913
      -0.996
      -1.132
      -1.269
      -1.344
      -1.318
      -1.181
      -0.947
      -0.636
      -0.283
       0.061
       0.342
       0.530
       0.636
       0.707
       0.790
       0.897
       1.007
       1.093
       1.146
       1.175
       1.183
       1.152
       1.050
       0.856
       0.585
       0.292
       0.044
      -0.119
      -0.203
      -0.249
      -0.295
      -0.353
      -0.409
      -0.438
      -0.430
      -0.395
      -0.345
      -0.279
      -0.176
      -0.012
       0.211
       0.448
       0.632
       0.704
       0.654
       0.518
       0.362
       0.239
       0.169
       0.136
       0.104
       0.042
      -0.065
      -0.202
      -0.335
      -0.432
      -0.479
      -0.495
      -0.513
      -0.563
      -0.649
      -0.754
      -0.845
      -0.886
      -0.852
      -0.730
      -0.517
      -0.229
       0.097
       0.407
       0.647
       0.787
       0.834
       0.815
       0.746
       0.620
       0.420
       0.158
      -0.122
      -0.354
      -0.495
      -0.543
      -0.524
      -0.470
      -0.392
      -0.287
      -0.148
       0.024
       0.210
       0.377
       0.494
       0.542
       0.513
       0.415
       0.267
       0.103
      -0.038
      -0.118
      -0.121
      -0.054
       0.054
       0.165
       0.247
       0.293
       0.324
       0.368
       0.444
       0.545
       0.648
       0.727
       0.774
       0.808
       0.861
       0.945
       1.031
       1.049
       0.930
       0.652
       0.261
      -0.153
      -0.497
      -0.735
      -0.887
      -1.008
      -1.131
      -1.252
      -1.339
      -1.364
      -1.311
      -1.174
      -0.962
      -0.703
      -0.452
      -0.267
      -0.183
      -0.179
      -0.187
      -0.137
       0.000
       0.193
       0.384
       0.523
       0.597
       0.623
       0.632
       0.651
       0.684
       0.716
       0.728
       0.707
       0.661
       0.603
       0.547
       0.505
       0.490
       0.516
       0.577
       0.649
       0.693
       0.676
       0.594
       0.476
       0.362
       0.281
       0.229
       0.180
       0.101
      -0.036
      -0.246
      -0.519
      -0.821
      -1.106
      -1.343
      -1.532
      -1.688
      -1.818
      -1.912
      -1.953
      -1.937
      -1.876
      -1.789
      -1.685
      -1.561
      -1.415
      -1.254
      -1.095
      -0.952
      -0.821
      -0.677
      -0.496
      -0.260
       0.019
       0.310
       0.575
       0.781
       0.917
       0.982
       0.989
       0.955
       0.903
       0.854
       0.828
       0.837
       0.887
       0.978
       1.104
       1.251
       1.391
       1.496
       1.540
       1.522
       1.458
       1.361
       1.220
       1.014
       0.731
       0.395
       0.055
      -0.248
      -0.503
      -0.729
      -0.946
      -1.146
      -1.294
      -1.347
      -1.297
      -1.176
      -1.036
      -0.917
      -0.821
      -0.731
      -0.629
      -0.516
      -0.405
      -0.300
      -0.189
      -0.055
       0.097
       0.233
       0.317
       0.345
       0.357
       0.407
       0.522
       0.674
       0.803
       0.859
       0.846
       0.809
       0.797
       0.820
       0.854
       0.871
       0.872
       0.875
       0.896
       0.923
       0.927
       0.883
       0.780
       0.627
       0.442
       0.243
       0.038
      -0.175
      -0.399
      -0.629
      -0.845
      -1.016
      -1.119
      -1.153
      -1.140
      -1.100
      -1.043
      -0.960
      -0.844
      -0.702
      -0.561
      -0.455
      -0.414
      -0.445
      -0.529
      -0.638
      -0.749
      -0.864
      -0.996
      -1.154
      -1.329
      -1.490
      -1.603
      -1.646
      -1.619
      -1.534
      -1.393
      -1.174
      -0.847
      -0.396
       0.156
       0.740
       1.281
       1.727
       2.072
       2.339
       2.549
       2.703
       2.789
       2.796
       2.724
       2.577
       2.353
       2.048
       1.655
       1.182
       0.661
       0.154
      -0.263
      -0.536
      -0.654
      -0.641
      -0.538
      -0.375
      -0.173
       0.042
       0.223
       0.320
       0.311
       0.229
       0.148
       0.139
       0.223
       0.370
       0.529
       0.670
       0.794
       0.915
       1.022
       1.075
       1.035
       0.893
       0.688
       0.475
       0.291
       0.151
       0.064
       0.038
       0.070
       0.140
       0.221
       0.282
       0.297
       0.248
       0.127
      -0.071
      -0.339
      -0.666
      -1.028
      -1.400
      -1.750
      -2.045
      -2.265
      -2.410
      -2.505
      -2.578
      -2.637
      -2.665
      -2.633
      -2.527
      -2.370
      -2.210
      -2.107
      -2.107
      -2.215
      -2.407
      -2.641
      -2.890
      -3.148
      -3.422
      -3.707
      -3.968
      -4.139
      -4.158
      -3.995
      -3.662
      -3.200
      -2.646
      -2.028
      -1.379
      -0.742
      -0.166
       0.324
       0.735
       1.104
       1.472
       1.859
       2.254
       2.623
       2.928
       3.135
       3.219
       3.169
       3.002
       2.755
       2.473
       2.203
       1.983
       1.841
       1.791
       1.828
       1.932
       2.079
       2.249
       2.426
       2.598
       2.747
       2.847
       2.873
       2.815
       2.686
       2.522
       2.365
       2.239
       2.140
       2.030
       1.853
       1.560
       1.140
       0.629
       0.098
      -0.374
      -0.725
      -0.923
      -0.968
      -0.876
      -0.672
      -0.390
      -0.063
       0.282
       0.630
       0.968
       1.270
       1.501
       1.634
       1.674
       1.663
       1.662
       1.712
       1.809
       1.899
       1.916
       1.831
       1.662
       1.464
       1.299
       1.208
       1.204
       1.274
       1.385
       1.492
       1.556
       1.546
       1.449
       1.266
       1.004
       0.670
       0.254
      -0.255
      -0.854
      -1.507
      -2.157
      -2.744
      -3.238
      -3.664
      -4.083
      -4.563
      -5.129
      -5.747
      -6.339
      -6.801
      -7.039
      -6.984
      -6.615
      -5.967
      -5.111
      -4.133
      -3.112
      -2.114
      -1.189
      -0.371
       0.316
       0.855
       1.228
       1.429
       1.470
       1.393
       1.254
       1.107
       0.975
       0.848
       0.695
       0.488
       0.222
      -0.077
      -0.362
      -0.583
      -0.703
      -0.712
      -0.619
      -0.447
      -0.221
       0.027
       0.277
       0.522
       0.767
       1.000
       1.183
       1.261
       1.191
       0.972
       0.646
       0.286
      -0.035
      -0.272
      -0.420
      -0.494
      -0.504
      -0.438
      -0.270
       0.015
       0.399
       0.830
       1.250
       1.626
       1.959
       2.264
       2.545
       2.783
       2.946
       3.005
       2.943
       2.764
       2.490
       2.152
       1.781
       1.405
       1.041
       0.699
       0.376
       0.058
      -0.269
      -0.605
      -0.931
      -1.209
      -1.406
      -1.514
      -1.558
      -1.585
      -1.629
      -1.693
      -1.756
      -1.800
      -1.831
      -1.881
      -1.980
      -2.118
      -2.247
      -2.301
      -2.240
      -2.068
      -1.822
      -1.539
      -1.232
      -0.890
      -0.501
      -0.066
       0.396
       0.864
       1.328
       1.790
       2.247
       2.671
       3.013
       3.231
       3.308
       3.256
       3.099
       2.846
       2.478
       1.962
       1.273
       0.430
      -0.496
      -1.402
      -2.187
      -2.773
      -3.119
      -3.217
      -3.098
      -2.818
      -2.445
      -2.043
      -1.648
      -1.266
      -0.884
      -0.493
      -0.084
       0.356
       0.848
       1.403
       1.989
       2.535
       2.961
       3.224
       3.328
       3.310
       3.217
       3.087
       2.961
       2.879
       2.873
       2.954
       3.094
       3.233
       3.299
       3.239
       3.029
       2.683
       2.235
       1.719
       1.151
       0.525
      -0.164
      -0.889
      -1.574
      -2.109
      -2.401
      -2.406
      -2.136
      -1.633
      -0.955
      -0.178
       0.594
       1.234
       1.635
       1.755
       1.626
       1.321
       0.908
       0.419
      -0.137
      -0.747
      -1.377
      -1.979
      -2.520
      -2.994
      -3.409
      -3.767
      -4.052
      -4.235
      -4.289
      -4.182
      -3.893
      -3.414
      -2.767
      -2.007
      -1.208
      -0.450
       0.198
       0.688
       0.997
       1.120
       1.077
       0.907
       0.669
       0.416
       0.176
      -0.053
      -0.295
      -0.573
      -0.895
      -1.248
      -1.613
      -1.975
      -2.325
      -2.644
      -2.896
      -3.032
      -3.015
      -2.839
      -2.532
      -2.145
      -1.735
      -1.343
      -0.975
      -0.605
      -0.195
       0.279
       0.806
       1.339
       1.811
       2.151
       2.310
       2.276
       2.073
       1.735
       1.283
       0.731
       0.102
      -0.555
      -1.162
      -1.636
      -1.930
      -2.044
      -2.017
      -1.895
      -1.705
      -1.453
      -1.136
      -0.752
      -0.308
       0.184
       0.689
       1.155
       1.505
       1.671
       1.626
       1.417
       1.148
       0.938
       0.873
       0.985
       1.257
       1.642
       2.079
       2.517
       2.914
       3.243
       3.482
       3.619
       3.643
       3.546
       3.322
       2.970
       2.493
       1.894
       1.187
       0.403
      -0.407
      -1.176
      -1.829
      -2.300
      -2.549
      -2.567
      -2.382
      -2.033
      -1.557
      -0.979
      -0.319
       0.395
       1.140
       1.908
       2.708
       3.546
       4.391
       5.165
       5.762
       6.093
       6.127
       5.888
       5.427
       4.789
       3.996
       3.065
       2.022
       0.913
      -0.206
      -1.276
      -2.250
      -3.098
      -3.798
      -4.335
      -4.702
      -4.896
      -4.927
      -4.799
      -4.513
      -4.065
      -3.468
      -2.754
      -1.987
      -1.243
      -0.598
      -0.100
       0.235
       0.412
       0.431
       0.285
      -0.032
      -0.500
      -1.073
      -1.689
      -2.282
      -2.793
      -3.178
      -3.411
      -3.478
      -3.387
      -3.168
      -2.866
      -2.524
      -2.156
      -1.739
      -1.237
      -0.636
       0.032
       0.691
       1.264
       1.712
       2.047
       2.317
       2.567
       2.808
       3.009
       3.098
       2.998
       2.658
       2.094
       1.385
       0.645
      -0.020
      -0.553
      -0.958
      -1.284
      -1.585
      -1.891
      -2.185
      -2.424
      -2.576
      -2.648
      -2.682
      -2.717
      -2.761
      -2.795
      -2.781
      -2.675
      -2.427
      -2.000
      -1.394
      -0.646
       0.186
       1.043
       1.884
       2.676
       3.387
       3.978
       4.407
       4.629
       4.613
       4.368
       3.949
       3.441
       2.932
       2.494
       2.176
       1.995
       1.936
       1.955
       1.983
       1.950
       1.804
       1.534
       1.174
       0.784
       0.415
       0.092
      -0.191
      -0.446
      -0.671
      -0.848
      -0.954
      -0.982
      -0.949
      -0.891
      -0.850
      -0.850
      -0.887
      -0.938
      -0.985
      -1.036
      -1.123
      -1.292
      -1.576
      -1.970
      -2.431
      -2.900
      -3.331
      -3.703
      -4.008
      -4.236
      -4.367
      -4.376
      -4.253
      -3.992
      -3.592
      -3.039
      -2.325
      -1.466
      -0.513
       0.472
       1.443
       2.385
       3.293
       4.132
       4.830
       5.304
       5.498
       5.411
       5.092
       4.621
       4.082
       3.528
       2.980
       2.429
