Origin Time       20/06/2011 06:27:18
Lat.              30.5 N	
Long.             79.4 E	
Depth (Km)         12.0
Magnitude         4.6
 Region           Chamoli-Uttarakhand                                              
 Above details taken from IMD 
     
Station Code      TEH
Station Lat.       30.374  N
Station Long.      78.430  E
Station Height(m) 1894.0
Site Class        A   Vs30 between 700 m/sec to 1400 m/sec * 
Record Time       20.06.2011 06:27:06.529
Sampling Rate     200. Hz
 Record Duration   93.285 Sec.
 Direction         E-W (E positive)
Max. Acceleration      7.181 cm/sec**2
     
  * For reference see Site Classification link of website 
     
 Base Line Corrected and Low Pass Filtered (Cut Off at 35 Hz) Time History
 Acceleration data in cm/sec**2
    
[...]
       0.015
       0.138
       0.287
       0.455
       0.622
       0.763
       0.858
       0.897
       0.877
       0.805
       0.698
       0.576
       0.459
       0.358
       0.268
       0.173
       0.064
      -0.054
      -0.165
      -0.253
      -0.305
      -0.315
      -0.282
      -0.212
      -0.117
      -0.015
       0.077
       0.148
       0.200
       0.242
       0.278
       0.310
       0.335
       0.351
       0.357
       0.349
       0.324
       0.284
       0.234
       0.175
       0.109
       0.038
      -0.037
      -0.119
      -0.207
      -0.298
      -0.381
      -0.440
      -0.452
      -0.407
      -0.313
      -0.191
      -0.065
       0.047
       0.134
       0.188
       0.210
       0.210
       0.207
       0.223
       0.272
       0.355
       0.455
       0.548
       0.612
       0.635
       0.610
       0.543
       0.440
       0.311
       0.156
      -0.021
      -0.216
      -0.409
      -0.574
      -0.690
      -0.751
      -0.776
      -0.795
      -0.828
      -0.870
      -0.898
      -0.894
      -0.854
      -0.785
      -0.702
      -0.620
      -0.558
      -0.523
      -0.504
      -0.470
      -0.385
      -0.217
       0.037
       0.353
       0.687
       0.997
       1.250
       1.424
       1.508
       1.499
       1.408
       1.256
       1.072
       0.877
       0.675
       0.461
       0.229
      -0.006
      -0.218
      -0.382
      -0.489
      -0.546
      -0.578
      -0.613
      -0.671
      -0.753
      -0.836
      -0.885
      -0.876
      -0.801
      -0.674
      -0.525
      -0.387
      -0.279
      -0.206
      -0.160
      -0.124
      -0.075
       0.006
       0.128
       0.281
       0.444
       0.597
       0.721
       0.801
       0.835
       0.829
       0.795
       0.744
       0.684
       0.611
       0.511
       0.368
       0.183
      -0.020
      -0.205
      -0.340
      -0.416
      -0.443
      -0.453
      -0.481
      -0.555
      -0.672
      -0.808
      -0.919
      -0.963
      -0.910
      -0.764
      -0.550
      -0.308
      -0.075
       0.122
       0.268
       0.366
       0.432
       0.488
       0.553
       0.631
       0.704
       0.744
       0.726
       0.646
       0.520
       0.372
       0.224
       0.092
      -0.020
      -0.119
      -0.221
      -0.342
      -0.482
      -0.620
      -0.722
      -0.754
      -0.707
      -0.608
      -0.504
      -0.440
      -0.430
      -0.456
      -0.483
      -0.476
      -0.418
      -0.317
      -0.197
      -0.080
       0.027
       0.124
       0.217
       0.308
       0.388
       0.446
       0.473
       0.472
       0.455
       0.438
       0.434
       0.442
       0.456
       0.458
       0.431
       0.370
       0.284
       0.190
       0.111
       0.064
       0.055
       0.084
       0.137
       0.201
       0.269
       0.340
       0.416
       0.497
       0.576
       0.633
       0.646
       0.602
       0.503
       0.358
       0.179
      -0.025
      -0.255
      -0.511
      -0.784
      -1.048
      -1.267
      -1.415
      -1.487
      -1.499
      -1.476
      -1.437
      -1.384
      -1.308
      -1.189
      -1.015
      -0.788
      -0.525
      -0.250
       0.008
       0.231
       0.409
       0.545
       0.645
       0.712
       0.757
       0.792
       0.830
       0.874
       0.915
       0.931
       0.898
       0.806
       0.668
       0.514
       0.372
       0.254
       0.148
       0.034
      -0.097
      -0.233
      -0.342
      -0.399
      -0.397
      -0.349
      -0.281
      -0.214
      -0.163
      -0.135
      -0.130
      -0.134
      -0.122
      -0.064
       0.067
       0.277
       0.538
       0.798
       1.000
       1.106
       1.103
       0.994
       0.798
       0.541
       0.253
      -0.022
      -0.243
      -0.378
      -0.425
      -0.408
      -0.362
      -0.319
      -0.298
      -0.300
      -0.319
      -0.340
      -0.356
      -0.362
      -0.358
      -0.349
      -0.345
      -0.348
      -0.349
      -0.324
      -0.250
      -0.118
       0.059
       0.250
       0.412
       0.513
       0.547
       0.537
       0.512
       0.487
       0.453
       0.390
       0.284
       0.141
      -0.021
      -0.186
      -0.356
      -0.537
      -0.727
      -0.901
      -1.029
      -1.092
      -1.088
      -1.029
      -0.928
      -0.790
      -0.613
      -0.391
      -0.129
       0.158
       0.450
       0.723
       0.958
       1.136
       1.244
       1.270
       1.209
       1.059
       0.831
       0.551
       0.256
      -0.015
      -0.229
      -0.372
      -0.459
      -0.521
      -0.591
      -0.684
      -0.796
      -0.908
      -0.994
      -1.038
      -1.037
      -1.002
      -0.945
      -0.880
      -0.816
      -0.758
      -0.702
      -0.639
      -0.555
      -0.437
      -0.280
      -0.092
       0.101
       0.274
       0.415
       0.534
       0.651
       0.782
       0.930
       1.086
       1.239
       1.376
       1.496
       1.600
       1.685
       1.745
       1.768
       1.741
       1.646
       1.467
       1.195
       0.835
       0.409
      -0.049
      -0.498
      -0.906
      -1.255
      -1.542
      -1.769
      -1.939
      -2.046
      -2.085
      -2.050
      -1.943
      -1.774
      -1.560
      -1.304
      -1.003
      -0.658
      -0.286
       0.082
       0.412
       0.677
       0.864
       0.980
       1.040
       1.058
       1.042
       0.998
       0.931
       0.847
       0.752
       0.654
       0.561
       0.476
       0.399
       0.327
       0.257
       0.182
       0.098
      -0.001
      -0.122
      -0.275
      -0.468
      -0.690
      -0.909
      -1.083
      -1.181
      -1.205
      -1.177
      -1.123
      -1.053
      -0.953
      -0.800
      -0.588
      -0.328
      -0.034
       0.289
       0.637
       0.998
       1.347
       1.648
       1.862
       1.968
       1.965
       1.866
       1.690
       1.454
       1.178
       0.876
       0.559
       0.235
      -0.081
      -0.375
      -0.630
      -0.833
      -0.976
      -1.059
      -1.092
      -1.090
      -1.064
      -1.015
      -0.939
      -0.828
      -0.678
      -0.495
      -0.297
      -0.100
       0.098
       0.305
       0.527
       0.748
       0.933
       1.046
       1.067
       1.007
       0.901
       0.797
       0.730
       0.710
       0.709
       0.682
       0.578
       0.373
       0.085
      -0.236
      -0.530
      -0.752
      -0.881
      -0.924
      -0.907
      -0.866
      -0.829
      -0.811
      -0.806
      -0.801
      -0.782
      -0.742
      -0.685
      -0.617
      -0.533
      -0.422
      -0.271
      -0.078
       0.138
       0.342
       0.492
       0.561
       0.541
       0.454
       0.337
       0.237
       0.191
       0.213
       0.279
       0.347
       0.382
       0.378
       0.353
       0.339
       0.356
       0.404
       0.458
       0.488
       0.472
       0.409
       0.315
       0.214
       0.125
       0.060
       0.015
      -0.024
      -0.070
      -0.125
      -0.177
      -0.208
      -0.205
      -0.172
      -0.128
      -0.096
      -0.089
      -0.106
      -0.140
      -0.185
      -0.231
      -0.272
      -0.300
      -0.305
      -0.272
      -0.196
      -0.087
       0.032
       0.133
       0.196
       0.212
       0.180
       0.113
       0.023
      -0.084
      -0.218
      -0.399
      -0.630
      -0.887
      -1.112
      -1.243
      -1.242
      -1.117
      -0.912
      -0.679
      -0.453
      -0.244
      -0.034
       0.204
       0.484
       0.794
       1.103
       1.366
       1.545
       1.614
       1.565
       1.416
       1.192
       0.912
       0.581
       0.199
      -0.228
      -0.669
      -1.072
      -1.380
      -1.563
      -1.633
      -1.631
      -1.596
      -1.536
      -1.432
      -1.250
      -0.974
      -0.617
      -0.222
       0.164
       0.503
       0.775
       0.968
       1.078
       1.112
       1.088
       1.025
       0.934
       0.810
       0.642
       0.423
       0.154
      -0.150
      -0.471
      -0.788
      -1.072
      -1.288
      -1.402
      -1.392
      -1.258
      -1.031
      -0.768
      -0.543
      -0.412
      -0.394
      -0.466
      -0.585
      -0.713
      -0.833
      -0.946
      -1.050
      -1.124
      -1.134
      -1.046
      -0.848
      -0.552
      -0.175
       0.266
       0.759
       1.287
       1.828
       2.352
       2.832
       3.247
       3.580
       3.806
       3.890
       3.814
       3.590
       3.270
       2.913
       2.565
       2.243
       1.940
       1.631
       1.296
       0.927
       0.518
       0.069
      -0.417
      -0.925
      -1.425
      -1.886
      -2.284
      -2.609
      -2.862
      -3.049
      -3.169
      -3.217
      -3.196
      -3.128
      -3.043
      -2.966
      -2.906
      -2.863
      -2.837
      -2.824
      -2.821
      -2.823
      -2.822
      -2.797
      -2.718
      -2.554
      -2.295
      -1.963
      -1.611
      -1.293
      -1.043
      -0.851
      -0.683
      -0.492
      -0.237
       0.112
       0.574
       1.148
       1.816
       2.547
       3.296
       4.002
       4.602
       5.042
       5.293
       5.348
       5.219
       4.936
       4.538
       4.069
       3.572
       3.086
       2.635
       2.229
       1.868
       1.550
       1.269
       1.010
       0.746
       0.454
       0.125
      -0.236
      -0.609
      -0.960
      -1.250
      -1.442
      -1.500
      -1.405
      -1.156
      -0.785
      -0.357
       0.039
       0.319
       0.430
       0.368
       0.175
      -0.075
      -0.307
      -0.471
      -0.550
      -0.569
      -0.575
      -0.615
      -0.709
      -0.843
      -0.980
      -1.077
      -1.108
      -1.076
      -1.006
      -0.933
      -0.883
      -0.868
      -0.900
      -0.983
      -1.115
      -1.276
      -1.443
      -1.610
      -1.793
      -2.013
      -2.254
      -2.434
      -2.427
      -2.133
      -1.548
      -0.779
       0.000
       0.626
       1.000
       1.103
       0.980
       0.700
       0.337
      -0.039
      -0.363
      -0.582
      -0.661
      -0.584
      -0.349
       0.024
       0.486
       0.968
       1.400
       1.726
       1.920
       1.988
       1.967
       1.903
       1.833
       1.781
       1.759
       1.765
       1.775
       1.752
       1.666
       1.520
       1.342
       1.181
       1.084
       1.083
       1.181
       1.352
       1.544
       1.692
       1.737
       1.649
       1.433
       1.118
       0.736
       0.321
      -0.098
      -0.508
      -0.912
      -1.319
      -1.724
      -2.101
      -2.426
      -2.693
      -2.911
      -3.095
      -3.250
      -3.366
      -3.424
      -3.411
      -3.320
      -3.157
      -2.935
      -2.670
      -2.381
      -2.089
      -1.811
      -1.572
      -1.402
      -1.330
      -1.373
      -1.528
      -1.762
      -2.016
      -2.221
      -2.321
      -2.293
      -2.147
      -1.910
      -1.613
      -1.271
      -0.884
      -0.431
       0.109
       0.740
       1.443
       2.172
       2.870
       3.484
       3.981
       4.355
       4.612
       4.751
       4.753
       4.591
       4.253
       3.767
       3.210
       2.690
       2.307
       2.111
       2.090
       2.184
       2.311
       2.393
       2.369
       2.205
       1.903
       1.503
       1.074
       0.701
       0.455
       0.374
       0.450
       0.639
       0.879
       1.101
       1.248
       1.289
       1.223
       1.075
       0.886
       0.686
       0.485
       0.269
       0.018
      -0.277
      -0.610
      -0.969
      -1.340
      -1.724
      -2.127
      -2.557
      -3.011
      -3.465
      -3.878
      -4.204
      -4.404
      -4.457
      -4.370
      -4.167
      -3.873
      -3.498
      -3.049
      -2.549
      -2.052
      -1.637
      -1.381
      -1.320
      -1.426
      -1.615
      -1.785
      -1.862
      -1.812
      -1.634
      -1.343
      -0.969
      -0.553
      -0.145
       0.209
       0.479
       0.666
       0.795
       0.897
       0.991
       1.075
       1.122
       1.094
       0.968
       0.747
       0.477
       0.238
       0.115
       0.171
       0.430
       0.864
       1.416
       2.021
       2.631
       3.210
       3.730
       4.167
       4.517
       4.793
       5.002
       5.132
       5.149
       5.011
       4.679
       4.133
       3.376
       2.433
       1.353
       0.207
      -0.913
      -1.905
      -2.672
      -3.149
      -3.313
      -3.182
      -2.805
      -2.258
      -1.640
      -1.072
      -0.670
      -0.507
      -0.597
      -0.899
      -1.358
      -1.914
      -2.499
      -3.025
      -3.393
      -3.528
      -3.411
      -3.103
      -2.715
      -2.373
      -2.170
      -2.145
      -2.291
      -2.553
      -2.828
      -2.984
      -2.909
      -2.564
      -1.988
      -1.276
      -0.524
       0.200
       0.865
       1.450
       1.917
       2.213
       2.284
       2.100
       1.671
       1.050
       0.326
      -0.389
      -0.979
      -1.337
      -1.386
      -1.107
      -0.552
       0.193
       1.050
       1.975
       2.946
       3.926
       4.853
       5.659
       6.299
       6.763
       7.060
       7.181
       7.100
       6.794
       6.275
       5.593
       4.831
       4.077
       3.408
       2.873
       2.467
       2.129
       1.759
       1.255
       0.550
      -0.367
      -1.442
      -2.577
      -3.659
      -4.586
      -5.280
      -5.706
      -5.871
      -5.819
      -5.605
      -5.275
      -4.861
      -4.393
      -3.921
      -3.518
      -3.261
      -3.187
      -3.268
      -3.424
      -3.552
      -3.561
      -3.390
      -3.021
      -2.477
      -1.812
      -1.104
      -0.438
       0.106
       0.477
       0.669
       0.713
       0.662
       0.578
       0.510
       0.477
       0.455
       0.391
       0.226
      -0.073
      -0.502
      -1.019
      -1.562
      -2.076
      -2.524
      -2.872
      -3.080
      -3.103
      -2.910
      -2.500
      -1.903
      -1.169
      -0.356
       0.479
       1.287
       2.023
       2.655
       3.171
       3.586
       3.916
       4.164
       4.307
       4.327
       4.228
       4.049
       3.846
       3.658
       3.490
       3.311
       3.086
       2.805
       2.486
       2.164
       1.866
       1.601
       1.368
       1.166
       1.003
       0.886
       0.819
       0.794
       0.804
       0.841
       0.904
       0.984
       1.066
       1.133
       1.169
       1.170
       1.143
       1.115
       1.119
       1.185
       1.328
       1.536
       1.764
       1.937
       1.966
       1.779
       1.342
       0.666
      -0.194
      -1.153
      -2.118
      -3.017
      -3.808
      -4.477
      -5.031
      -5.490
      -5.874
      -6.187
      -6.416
      -6.537
      -6.528
      -6.382
      -6.113
      -5.758
      -5.358
      -4.948
      -4.551
      -4.183
      -3.853
      -3.549
      -3.233
      -2.850
      -2.345
      -1.680
      -0.857
       0.070
       1.009
       1.856
       2.531
       3.003
       3.306
       3.520
       3.723
       3.958
       4.223
       4.482
       4.697
       4.838
       4.896
       4.866
       4.743
       4.509
       4.150
       3.669
       3.095
       2.480
       1.887
       1.376
       0.988
       0.745
       0.644
       0.658
       0.737
       0.814
       0.825
       0.730
       0.533
       0.275
       0.024
      -0.153
      -0.222
      -0.189
      -0.097
       0.008
       0.103
       0.194
       0.301
       0.429
       0.550
       0.604
       0.545
       0.367
       0.111
      -0.161
      -0.398
      -0.580
      -0.723
      -0.866
      -1.054
      -1.316
      -1.637
      -1.964
      -2.218
      -2.331
      -2.284
      -2.110
      -1.877
      -1.642
      -1.432
      -1.240
      -1.057
      -0.885
      -0.738
      -0.629
      -0.553
      -0.493
      -0.431
      -0.360
      -0.283
      -0.205
      -0.124
      -0.043
       0.022
       0.046
      -0.002
      -0.138
      -0.353
      -0.621
      -0.907
      -1.189
      -1.461
      -1.733
      -2.026
      -2.350
      -2.685
      -2.977
      -3.153
      -3.161
      -2.994
      -2.694
      -2.315
      -1.900
      -1.468
      -1.034
      -0.623
      -0.266
       0.014
       0.220
       0.368
       0.492
       0.640
       0.862
       1.197
       1.656
       2.219
       2.844
       3.473
       4.043
       4.492
       4.782
       4.910
       4.909
       4.823
       4.683
       4.485
       4.205
       3.822
       3.353
       2.854
       2.394
       2.023
       1.752
       1.557
       1.400
       1.255
       1.115
       0.982
       0.850
       0.709
       0.558
       0.409
       0.269
       0.131
      -0.027
      -0.234
      -0.509
      -0.851
      -1.240
      -1.645
      -2.033
      -2.378
      -2.656
      -2.850
      -2.945
      -2.935
      -2.832
      -2.661
      -2.459
      -2.260
      -2.089
      -1.962
      -1.894
      -1.901
      -1.999
      -2.205
      -2.522
      -2.926
      -3.365
      -3.769
      -4.080
      -4.263
      -4.296
      -4.157
      -3.821
      -3.279
      -2.550
      -1.693
      -0.784
       0.115
       0.967
       1.757
       2.473
       3.095
       3.605
       3.990
       4.247
       4.375
       4.378
       4.263
       4.045
       3.740
       3.363
       2.921
       2.420
       1.882
       1.350
       0.878
       0.502
       0.228
       0.030
      -0.130
      -0.282
      -0.444
      -0.613
      -0.777
      -0.914
      -0.998
      -1.010
      -0.943
      -0.814
      -0.662
      -0.527
      -0.440
      -0.403
      -0.385
      -0.337
      -0.215
       0.010
       0.335
       0.736
       1.169
       1.578
       1.905
       2.111
       2.175
       2.097
       1.900
       1.616
       1.284
       0.934
       0.585
       0.243
      -0.092
      -0.424
      -0.757
      -1.086
      -1.403
      -1.699
      -1.970
      -2.215
      -2.422
      -2.564
      -2.600
      -2.493
      -2.232
      -1.842
      -1.374
      -0.879
      -0.397
       0.041
       0.420
       0.740
       1.011
       1.251
       1.472
       1.665
       1.790
       1.789
       1.613
       1.266
       0.812
       0.344
      -0.057
      -0.357
      -0.569
      -0.736
      -0.897
      -1.067
      -1.234
      -1.370
      -1.445
      -1.444
      -1.384
      -1.299
      -1.223
      -1.173
      -1.137
      -1.091
      -1.005
      -0.855
      -0.624
      -0.315
       0.048
       0.431
       0.804
       1.150
       1.464
       1.744
       1.972
       2.124
       2.170
       2.095
       1.888
       1.557
       1.132
       0.664
       0.212
      -0.175
      -0.470
      -0.668
      -0.786
      -0.858
      -0.917
      -0.978
      -1.025
      -1.026
      -0.943
      -0.745
