Origin Time       14/12/2005 07:09:48 UTC
Lat.              30.9 N 
Long.             79.3 E 
Depth (Km)         25.7
Magnitude         5.2
 Region           Chamoli-Uttarakhand                                              
 Above details taken from IMD 
    
Station Code      TEH
Station Lat.       30.374  N
Station Long.      78.430  E
Station Height(m) 1870.0
Site Class        A   Vs30 between 700 m/sec to 1400 m/sec * 
Record Time       14.12.2005 07:10:10.514 UTC
Sampling Rate     200. Hz
 Record Duration   31.435 Sec.
 Direction         N-S (N positive)
Max. Acceleration     -7.454 cm/sec**2
     
  * For reference see Site Classification link of website 
     
 Base Line Corrected and Low Pass Filtered (Cut Off at 35 Hz) Time History
 Acceleration data in cm/sec**2
    
[...]
       0.600
       0.612
       0.588
       0.551
       0.530
       0.530
       0.526
       0.477
       0.353
       0.165
      -0.039
      -0.199
      -0.270
      -0.248
      -0.169
      -0.082
      -0.022
       0.003
      -0.001
      -0.021
      -0.052
      -0.091
      -0.141
      -0.196
      -0.232
      -0.214
      -0.120
       0.046
       0.249
       0.445
       0.593
       0.669
       0.676
       0.642
       0.589
       0.525
       0.441
       0.337
       0.220
       0.087
      -0.076
      -0.272
      -0.477
      -0.643
      -0.727
      -0.715
      -0.632
      -0.537
      -0.487
      -0.511
      -0.600
      -0.730
      -0.876
      -1.014
      -1.116
      -1.153
      -1.108
      -0.969
      -0.735
      -0.419
      -0.048
       0.341
       0.709
       1.026
       1.265
       1.413
       1.476
       1.469
       1.405
       1.294
       1.136
       0.925
       0.658
       0.348
       0.037
      -0.218
      -0.375
      -0.423
      -0.386
      -0.304
      -0.216
      -0.153
      -0.133
      -0.170
      -0.279
      -0.464
      -0.698
      -0.932
      -1.111
      -1.195
      -1.174
      -1.062
      -0.897
      -0.727
      -0.588
      -0.493
      -0.423
      -0.337
      -0.196
       0.018
       0.290
       0.579
       0.840
       1.040
       1.169
       1.229
       1.216
       1.118
       0.934
       0.696
       0.463
       0.287
       0.182
       0.127
       0.084
       0.028
      -0.045
      -0.113
      -0.143
      -0.114
      -0.030
       0.083
       0.187
       0.259
       0.293
       0.300
       0.293
       0.273
       0.237
       0.178
       0.095
      -0.009
      -0.123
      -0.240
      -0.353
      -0.459
      -0.556
      -0.637
      -0.695
      -0.731
      -0.752
      -0.768
      -0.782
      -0.775
      -0.724
      -0.618
      -0.474
      -0.323
      -0.187
      -0.065
       0.054
       0.184
       0.318
       0.444
       0.546
       0.622
       0.686
       0.754
       0.822
       0.861
       0.842
       0.754
       0.616
       0.468
       0.352
       0.288
       0.263
       0.237
       0.167
       0.027
      -0.187
      -0.454
      -0.736
      -0.990
      -1.174
      -1.272
      -1.285
      -1.235
      -1.146
      -1.038
      -0.920
      -0.787
      -0.637
      -0.469
      -0.286
      -0.081
       0.153
       0.416
       0.684
       0.925
       1.098
       1.175
       1.145
       1.029
       0.879
       0.754
       0.694
       0.696
       0.728
       0.749
       0.746
       0.742
       0.769
       0.824
       0.861
       0.832
       0.725
       0.573
       0.412
       0.247
       0.061
      -0.156
      -0.399
      -0.652
      -0.891
      -1.085
      -1.211
      -1.262
      -1.239
      -1.147
      -0.984
      -0.752
      -0.473
      -0.187
       0.050
       0.194
       0.231
       0.179
       0.071
      -0.063
      -0.209
      -0.359
      -0.509
      -0.650
      -0.763
      -0.822
      -0.812
      -0.744
      -0.659
      -0.595
      -0.572
      -0.577
      -0.579
      -0.544
      -0.459
      -0.329
      -0.175
      -0.017
       0.130
       0.254
       0.342
       0.385
       0.384
       0.354
       0.323
       0.326
       0.396
       0.550
       0.776
       1.040
       1.286
       1.451
       1.491
       1.403
       1.220
       0.987
       0.741
       0.508
       0.313
       0.177
       0.103
       0.076
       0.056
      -0.005
      -0.152
      -0.396
      -0.714
      -1.053
      -1.349
      -1.540
      -1.586
      -1.476
      -1.242
      -0.937
      -0.617
      -0.325
      -0.088
       0.082
       0.187
       0.243
       0.277
       0.325
       0.418
       0.566
       0.741
       0.896
       0.993
       1.031
       1.034
       1.014
       0.967
       0.878
       0.744
       0.571
       0.381
       0.201
       0.067
      -0.004
      -0.022
      -0.025
      -0.053
      -0.127
      -0.243
      -0.384
      -0.531
      -0.673
      -0.804
      -0.913
      -0.982
      -1.000
      -0.976
      -0.929
      -0.869
      -0.792
      -0.681
      -0.532
      -0.368
      -0.246
      -0.220
      -0.303
      -0.451
      -0.582
      -0.626
      -0.560
      -0.402
      -0.193
       0.032
       0.261
       0.496
       0.730
       0.935
       1.071
       1.113
       1.065
       0.959
       0.838
       0.742
       0.690
       0.682
       0.706
       0.756
       0.824
       0.900
       0.956
       0.961
       0.886
       0.722
       0.482
       0.203
      -0.071
      -0.304
      -0.477
      -0.589
      -0.646
      -0.666
      -0.672
      -0.688
      -0.737
      -0.831
      -0.965
      -1.109
      -1.218
      -1.242
      -1.158
      -0.976
      -0.731
      -0.464
      -0.201
       0.044
       0.263
       0.442
       0.559
       0.604
       0.590
       0.550
       0.521
       0.533
       0.594
       0.688
       0.784
       0.852
       0.883
       0.886
       0.872
       0.847
       0.815
       0.786
       0.767
       0.765
       0.765
       0.730
       0.606
       0.368
       0.038
      -0.331
      -0.689
      -1.012
      -1.296
      -1.544
      -1.759
      -1.935
      -2.053
      -2.086
      -2.012
      -1.833
      -1.571
      -1.260
      -0.935
      -0.621
      -0.331
      -0.074
       0.140
       0.295
       0.381
       0.405
       0.386
       0.351
       0.319
       0.297
       0.279
       0.264
       0.260
       0.285
       0.354
       0.463
       0.598
       0.749
       0.918
       1.103
       1.282
       1.411
       1.440
       1.344
       1.144
       0.902
       0.692
       0.554
       0.476
       0.414
       0.326
       0.192
       0.024
      -0.155
      -0.316
      -0.447
      -0.549
      -0.623
      -0.662
      -0.653
      -0.591
      -0.488
      -0.362
      -0.232
      -0.106
       0.014
       0.134
       0.244
       0.307
       0.274
       0.117
      -0.151
      -0.472
      -0.773
      -1.000
      -1.130
      -1.170
      -1.131
      -1.024
      -0.862
      -0.677
      -0.511
      -0.391
      -0.314
      -0.248
      -0.175
      -0.102
      -0.050
      -0.028
      -0.025
      -0.011
       0.028
       0.085
       0.139
       0.171
       0.182
       0.182
       0.184
       0.203
       0.249
       0.316
       0.365
       0.340
       0.196
      -0.071
      -0.413
      -0.749
      -1.004
      -1.150
      -1.207
      -1.211
      -1.180
      -1.098
      -0.942
      -0.711
      -0.430
      -0.141
       0.117
       0.307
       0.404
       0.406
       0.335
       0.234
       0.155
       0.146
       0.233
       0.412
       0.650
       0.902
       1.128
       1.301
       1.409
       1.453
       1.439
       1.371
       1.265
       1.147
       1.048
       0.986
       0.954
       0.919
       0.844
       0.693
       0.459
       0.163
      -0.147
      -0.419
      -0.620
      -0.741
      -0.793
      -0.795
      -0.767
      -0.723
      -0.676
      -0.642
      -0.636
      -0.662
      -0.710
      -0.761
      -0.795
      -0.793
      -0.737
      -0.611
      -0.415
      -0.168
       0.104
       0.370
       0.604
       0.790
       0.931
       1.035
       1.105
       1.134
       1.108
       1.017
       0.858
       0.643
       0.398
       0.154
      -0.068
      -0.255
      -0.399
      -0.484
      -0.495
      -0.431
      -0.309
      -0.157
       0.007
       0.180
       0.352
       0.502
       0.596
       0.608
       0.539
       0.411
       0.260
       0.104
      -0.055
      -0.220
      -0.388
      -0.547
      -0.683
      -0.784
      -0.845
      -0.858
      -0.814
      -0.709
      -0.557
      -0.392
      -0.248
      -0.144
      -0.073
      -0.028
      -0.010
      -0.030
      -0.091
      -0.181
      -0.270
      -0.328
      -0.337
      -0.308
      -0.267
      -0.239
      -0.233
      -0.237
      -0.237
      -0.225
      -0.203
      -0.183
      -0.170
      -0.159
      -0.130
      -0.071
       0.018
       0.123
       0.232
       0.342
       0.447
       0.536
       0.600
       0.637
       0.656
       0.673
       0.699
       0.723
       0.715
       0.639
       0.489
       0.297
       0.109
      -0.041
      -0.142
      -0.194
      -0.192
      -0.137
      -0.036
       0.081
       0.175
       0.215
       0.197
       0.147
       0.098
       0.073
       0.081
       0.122
       0.192
       0.276
       0.350
       0.383
       0.352
       0.245
       0.073
      -0.128
      -0.305
      -0.409
      -0.417
      -0.337
      -0.203
      -0.056
       0.075
       0.184
       0.275
       0.340
       0.355
       0.307
       0.204
       0.075
      -0.047
      -0.142
      -0.208
      -0.257
      -0.317
      -0.406
      -0.525
      -0.652
      -0.757
      -0.820
      -0.839
      -0.824
      -0.782
      -0.711
      -0.598
      -0.432
      -0.215
       0.041
       0.319
       0.602
       0.858
       1.041
       1.100
       0.995
       0.724
       0.337
      -0.072
      -0.398
      -0.572
      -0.590
      -0.502
      -0.372
      -0.243
      -0.130
      -0.027
       0.057
       0.087
       0.018
      -0.161
      -0.408
      -0.644
      -0.794
      -0.829
      -0.769
      -0.671
      -0.592
      -0.559
      -0.559
      -0.566
      -0.575
      -0.608
      -0.694
      -0.842
      -1.023
      -1.192
      -1.305
      -1.338
      -1.300
      -1.222
      -1.146
      -1.111
      -1.133
      -1.200
      -1.275
      -1.312
      -1.274
      -1.136
      -0.890
      -0.537
      -0.090
       0.420
       0.953
       1.464
       1.923
       2.311
       2.620
       2.842
       2.974
       3.028
       3.032
       3.026
       3.038
       3.075
       3.126
       3.171
       3.191
       3.161
       3.054
       2.856
       2.573
       2.238
       1.901
       1.614
       1.405
       1.270
       1.180
       1.114
       1.066
       1.034
       0.988
       0.868
       0.612
       0.191
      -0.360
      -0.962
      -1.525
      -1.990
      -2.349
      -2.621
      -2.829
      -2.992
      -3.128
      -3.263
      -3.419
      -3.603
      -3.797
      -3.964
      -4.068
      -4.093
      -4.052
      -3.977
      -3.898
      -3.824
      -3.740
      -3.622
      -3.443
      -3.187
      -2.849
      -2.425
      -1.921
      -1.355
      -0.768
      -0.212
       0.272
       0.670
       0.989
       1.242
       1.445
       1.614
       1.774
       1.955
       2.189
       2.507
       2.923
       3.410
       3.906
       4.324
       4.583
       4.630
       4.458
       4.107
       3.650
       3.163
       2.708
       2.326
       2.039
       1.854
       1.765
       1.752
       1.776
       1.779
       1.698
       1.491
       1.155
       0.724
       0.248
      -0.219
      -0.640
      -0.992
      -1.257
      -1.415
      -1.456
      -1.400
      -1.299
      -1.210
      -1.164
      -1.155
      -1.163
      -1.162
      -1.136
      -1.082
      -1.005
      -0.905
      -0.774
      -0.607
      -0.416
      -0.227
      -0.064
       0.058
       0.140
       0.194
       0.237
       0.285
       0.353
       0.458
       0.617
       0.837
       1.096
       1.351
       1.555
       1.674
       1.694
       1.615
       1.453
       1.230
       0.962
       0.648
       0.280
      -0.146
      -0.625
      -1.149
      -1.711
      -2.296
      -2.884
      -3.447
      -3.945
      -4.329
      -4.547
      -4.558
      -4.344
      -3.914
      -3.314
      -2.613
      -1.894
      -1.225
      -0.651
      -0.194
       0.134
       0.324
       0.366
       0.257
       0.014
      -0.318
      -0.680
      -1.020
      -1.302
      -1.504
      -1.618
      -1.653
      -1.635
      -1.590
      -1.524
      -1.417
      -1.232
      -0.935
      -0.514
       0.008
       0.579
       1.141
       1.660
       2.124
       2.526
       2.841
       3.027
       3.038
       2.860
       2.535
       2.152
       1.818
       1.603
       1.515
       1.505
       1.508
       1.481
       1.419
       1.340
       1.243
       1.088
       0.814
       0.383
      -0.190
      -0.842
      -1.492
      -2.064
      -2.512
      -2.820
      -2.993
      -3.035
      -2.943
      -2.725
      -2.417
      -2.077
      -1.757
      -1.488
      -1.282
      -1.143
      -1.063
      -1.019
      -0.979
      -0.900
      -0.737
      -0.458
      -0.058
       0.438
       0.993
       1.571
       2.141
       2.674
       3.143
       3.527
       3.819
       4.019
       4.132
       4.167
       4.134
       4.051
       3.945
       3.855
       3.809
       3.821
       3.883
       3.969
       4.037
       4.042
       3.957
       3.788
       3.567
       3.316
       3.032
       2.702
       2.317
       1.879
       1.394
       0.872
       0.336
      -0.166
      -0.566
      -0.803
      -0.853
      -0.734
      -0.492
      -0.185
       0.114
       0.322
       0.360
       0.176
      -0.236
      -0.843
      -1.590
      -2.417
      -3.278
      -4.149
      -5.014
      -5.840
      -6.567
      -7.117
      -7.425
      -7.454
      -7.217
      -6.765
      -6.179
      -5.535
      -4.902
      -4.339
      -3.892
      -3.585
      -3.393
      -3.247
      -3.062
      -2.775
      -2.375
      -1.903
      -1.427
      -1.002
      -0.660
      -0.422
      -0.304
      -0.304
      -0.376
      -0.425
      -0.343
      -0.046
       0.487
       1.219
       2.062
       2.909
       3.659
       4.250
       4.661
       4.905
       5.009
       5.004
       4.923
       4.807
       4.708
       4.677
       4.739
       4.867
       5.001
       5.076
       5.051
       4.910
       4.643
       4.235
       3.662
       2.906
       1.977
       0.925
      -0.168
      -1.202
      -2.097
      -2.799
      -3.290
      -3.571
      -3.650
      -3.536
      -3.249
      -2.830
      -2.339
      -1.842
      -1.406
      -1.094
      -0.960
      -1.024
      -1.265
      -1.627
      -2.051
      -2.484
      -2.884
      -3.217
      -3.455
      -3.588
      -3.629
      -3.616
      -3.611
      -3.664
      -3.789
      -3.964
      -4.142
      -4.274
      -4.316
      -4.226
      -3.972
      -3.533
      -2.907
      -2.110
      -1.182
      -0.169
       0.884
       1.942
       2.972
       3.942
       4.819
       5.570
       6.166
       6.582
       6.806
       6.836
       6.691
       6.416
       6.081
       5.765
       5.528
       5.381
       5.287
       5.173
       4.961
       4.595
       4.067
       3.427
       2.753
       2.098
       1.458
       0.780
       0.001
      -0.902
      -1.888
      -2.862
      -3.712
      -4.373
      -4.845
      -5.170
      -5.381
      -5.468
      -5.388
      -5.106
      -4.624
      -3.980
      -3.230
      -2.417
      -1.568
      -0.705
       0.141
       0.918
       1.559
       1.991
       2.157
       2.044
       1.693
       1.185
       0.602
       0.005
      -0.576
      -1.128
      -1.641
      -2.099
      -2.487
      -2.800
      -3.040
      -3.197
      -3.238
      -3.118
      -2.814
      -2.339
      -1.729
      -1.035
      -0.309
       0.402
       1.061
       1.642
       2.129
       2.513
       2.796
       3.001
       3.163
       3.323
       3.518
       3.775
       4.090
       4.422
       4.712
       4.900
       4.951
       4.843
       4.573
       4.140
       3.546
       2.797
       1.924
       0.992
       0.094
      -0.679
      -1.268
      -1.669
      -1.929
      -2.119
      -2.301
      -2.504
      -2.737
      -2.997
      -3.281
      -3.579
      -3.873
      -4.147
      -4.396
      -4.620
      -4.818
      -4.977
      -5.063
      -5.022
      -4.799
      -4.369
      -3.752
      -2.994
      -2.146
      -1.248
      -0.342
       0.521
       1.284
       1.885
       2.272
       2.413
       2.329
       2.101
       1.864
       1.756
       1.856
       2.151
       2.547
       2.922
       3.173
       3.236
       3.077
       2.687
       2.093
       1.352
       0.550
      -0.218
      -0.857
      -1.300
      -1.521
      -1.535
      -1.377
      -1.101
      -0.774
      -0.462
      -0.204
      -0.003
       0.161
       0.312
       0.471
       0.657
       0.890
       1.174
       1.496
       1.823
       2.115
       2.324
       2.413
       2.373
       2.226
       2.014
       1.785
       1.578
       1.407
       1.237
       1.005
       0.646
       0.128
      -0.539
      -1.305
      -2.082
      -2.775
      -3.313
      -3.660
      -3.798
      -3.712
      -3.395
      -2.872
      -2.223
      -1.560
      -0.997
      -0.604
      -0.388
      -0.308
      -0.323
      -0.420
      -0.606
      -0.870
      -1.172
      -1.450
      -1.657
      -1.769
      -1.775
      -1.673
      -1.455
      -1.128
      -0.722
      -0.299
       0.067
       0.322
       0.448
       0.462
       0.398
       0.293
       0.181
       0.093
       0.067
       0.148
       0.370
       0.723
       1.149
       1.563
       1.894
       2.106
       2.198
       2.187
       2.077
       1.851
       1.485
       0.988
       0.418
      -0.140
      -0.604
      -0.921
      -1.074
      -1.074
      -0.944
      -0.704
      -0.356
       0.104
       0.670
       1.313
       1.978
       2.585
       3.049
       3.306
       3.332
       3.147
       2.803
       2.361
       1.882
       1.417
       1.000
       0.647
       0.362
       0.140
      -0.034
      -0.180
      -0.312
      -0.432
      -0.528
      -0.588
      -0.612
      -0.619
      -0.643
      -0.722
      -0.873
      -1.086
      -1.328
      -1.560
      -1.751
      -1.885
      -1.961
      -1.983
      -1.952
      -1.859
      -1.703
      -1.500
      -1.290
      -1.121
      -1.033
      -1.042
      -1.126
      -1.232
      -1.298
      -1.287
      -1.198
      -1.054
      -0.881
      -0.695
      -0.501
      -0.298
      -0.080
       0.153
       0.393
       0.627
       0.837
       1.013
       1.148
       1.240
       1.286
       1.271
       1.175
       0.988
       0.725
       0.425
       0.143
      -0.072
      -0.187
      -0.196
      -0.123
      -0.001
       0.140
       0.281
       0.417
       0.553
       0.708
       0.899
       1.129
       1.389
       1.664
       1.940
       2.200
       2.416
       2.552
       2.565
       2.422
       2.112
       1.667
       1.153
       0.647
       0.200
      -0.170
      -0.484
      -0.781
      -1.095
      -1.423
      -1.727
      -1.957
      -2.087
      -2.130
      -2.119
      -2.092
      -2.068
      -2.045
      -2.006
      -1.936
      -1.834
      -1.699
      -1.532
      -1.330
      -1.104
      -0.869
      -0.635
      -0.397
      -0.151
       0.081
       0.253
       0.309
       0.211
