Origin Time       03/5/2010 17:15:08	
Lat.              30.4 N	
Long.             78.4 E	
Depth (Km)          8.0
Magnitude         3.5
 Region           Uttarakhand                                                      
 Above details taken from IMD 
     
Station Code      TEH
Station Lat.       30.374  N
Station Long.      78.430  E
Station Height(m) 1894.0
Site Class        A   Vs30 between 700 m/sec to 1400 m/sec * 
Record Time       03.05.2010 17:15:24.214
Sampling Rate     200. Hz
 Record Duration   86.615 Sec.
 Direction         E-W (E positive)
Max. Acceleration     23.223 cm/sec**2
     
  * For reference see Site Classification link of website 
     
 Base Line Corrected and Low Pass Filtered (Cut Off at 35 Hz) Time History
 Acceleration data in cm/sec**2
    
[...]
      -0.002
      -0.003
      -0.002
      -0.001
      -0.002
      -0.005
      -0.009
      -0.011
      -0.011
      -0.010
      -0.009
      -0.009
      -0.008
      -0.008
      -0.008
      -0.005
      -0.001
       0.004
       0.007
       0.007
       0.005
       0.001
      -0.001
       0.000
       0.005
       0.010
       0.012
       0.009
       0.002
      -0.005
      -0.010
      -0.011
      -0.007
      -0.001
       0.005
       0.007
       0.005
      -0.003
      -0.011
      -0.016
      -0.013
      -0.005
       0.003
       0.005
       0.001
      -0.007
      -0.011
      -0.008
      -0.002
       0.002
       0.003
       0.003
       0.004
       0.007
       0.005
      -0.003
      -0.010
      -0.010
       0.000
       0.010
       0.014
       0.008
      -0.002
      -0.006
      -0.004
       0.003
       0.009
       0.011
       0.012
       0.011
       0.011
       0.010
       0.006
       0.000
      -0.006
      -0.007
      -0.003
       0.005
       0.010
       0.010
       0.005
       0.000
      -0.002
       0.001
       0.005
       0.009
       0.010
       0.008
       0.005
       0.002
       0.003
       0.008
       0.013
       0.015
       0.011
       0.004
      -0.001
      -0.001
       0.002
       0.003
       0.001
      -0.003
      -0.006
      -0.003
       0.004
       0.009
       0.009
       0.006
       0.004
       0.005
       0.008
       0.010
       0.010
       0.009
       0.008
       0.007
       0.007
       0.006
       0.004
       0.000
      -0.004
      -0.006
      -0.007
      -0.007
      -0.005
      -0.003
      -0.001
       0.001
       0.002
       0.002
       0.001
       0.000
      -0.001
      -0.002
      -0.003
      -0.006
      -0.007
      -0.005
      -0.002
       0.001
       0.002
       0.001
       0.000
       0.001
       0.004
       0.007
       0.007
       0.003
       0.001
       0.001
       0.005
       0.006
       0.004
      -0.002
      -0.008
      -0.010
      -0.010
      -0.008
      -0.006
      -0.004
      -0.003
      -0.003
      -0.003
      -0.003
      -0.003
      -0.004
      -0.005
      -0.007
      -0.007
      -0.006
      -0.005
      -0.002
       0.000
       0.003
       0.005
       0.005
       0.007
       0.011
       0.016
       0.018
       0.016
       0.010
       0.005
       0.005
       0.007
       0.007
       0.004
       0.000
       0.001
       0.005
       0.008
       0.004
      -0.004
      -0.009
      -0.005
       0.005
       0.013
       0.013
       0.004
      -0.005
      -0.009
      -0.006
       0.000
       0.004
       0.005
       0.005
       0.006
       0.006
       0.006
       0.004
       0.000
      -0.004
      -0.004
       0.000
       0.006
       0.009
       0.007
       0.001
      -0.005
      -0.006
      -0.002
       0.003
       0.007
       0.008
       0.005
       0.001
       0.000
       0.003
       0.006
       0.007
       0.004
      -0.001
      -0.002
       0.001
       0.005
       0.004
      -0.001
      -0.005
      -0.003
       0.005
       0.012
       0.012
       0.006
      -0.001
      -0.001
       0.006
       0.014
       0.015
       0.009
       0.001
      -0.001
       0.002
       0.007
       0.008
       0.005
       0.001
      -0.002
      -0.002
      -0.002
      -0.006
      -0.010
      -0.013
      -0.011
      -0.004
       0.004
       0.006
       0.001
      -0.003
       0.000
       0.009
       0.017
       0.017
       0.007
      -0.004
      -0.009
      -0.005
       0.003
       0.008
       0.006
       0.001
      -0.003
      -0.004
      -0.003
      -0.001
       0.000
       0.002
       0.005
       0.006
       0.003
      -0.001
      -0.005
      -0.008
      -0.008
      -0.007
      -0.003
       0.002
       0.005
       0.004
       0.000
      -0.006
      -0.010
      -0.008
      -0.003
      -0.001
      -0.005
      -0.012
      -0.015
      -0.010
       0.000
       0.008
       0.007
       0.000
      -0.005
      -0.004
       0.002
       0.005
       0.003
      -0.003
      -0.008
      -0.009
      -0.007
      -0.003
       0.001
       0.003
       0.005
       0.004
       0.001
      -0.003
      -0.007
      -0.007
      -0.003
       0.002
       0.004
       0.000
      -0.008
      -0.013
      -0.010
       0.000
       0.010
       0.014
       0.012
       0.009
       0.008
       0.008
       0.006
       0.000
      -0.007
      -0.012
      -0.013
      -0.010
      -0.006
      -0.005
      -0.005
      -0.003
       0.001
       0.005
       0.006
       0.004
      -0.001
      -0.004
      -0.003
       0.001
       0.007
       0.012
       0.015
       0.012
       0.006
      -0.003
      -0.009
      -0.008
      -0.002
       0.005
       0.009
       0.010
       0.009
       0.008
       0.007
       0.006
       0.005
       0.004
       0.005
       0.007
       0.008
       0.005
       0.000
      -0.005
      -0.006
      -0.002
       0.005
       0.012
       0.014
       0.011
       0.007
       0.006
       0.008
       0.009
       0.008
       0.006
       0.007
       0.012
       0.018
       0.020
       0.017
       0.013
       0.010
       0.010
       0.009
       0.007
       0.005
       0.005
       0.007
       0.009
       0.008
       0.007
       0.007
       0.012
       0.020
       0.025
       0.023
       0.015
       0.004
      -0.002
      -0.002
       0.004
       0.009
       0.011
       0.005
      -0.005
      -0.014
      -0.016
      -0.012
      -0.005
      -0.001
      -0.001
      -0.005
      -0.009
      -0.008
       0.000
       0.009
       0.012
       0.005
      -0.006
      -0.011
      -0.005
       0.007
       0.014
       0.009
      -0.003
      -0.013
      -0.014
      -0.008
      -0.004
      -0.005
      -0.009
      -0.007
      -0.001
       0.004
       0.002
      -0.006
      -0.013
      -0.013
      -0.006
       0.002
       0.006
       0.007
       0.008
       0.009
       0.011
       0.009
       0.005
       0.001
      -0.001
       0.002
       0.007
       0.010
       0.009
       0.002
      -0.007
      -0.013
      -0.012
      -0.006
       0.002
       0.004
       0.000
      -0.007
      -0.012
      -0.012
      -0.008
      -0.006
      -0.007
      -0.011
      -0.013
      -0.010
      -0.002
       0.004
       0.004
      -0.003
      -0.011
      -0.013
      -0.009
      -0.003
       0.000
      -0.001
      -0.005
      -0.008
      -0.007
      -0.005
      -0.005
      -0.009
      -0.014
      -0.014
      -0.010
      -0.003
       0.001
      -0.001
      -0.009
      -0.017
      -0.019
      -0.016
      -0.011
      -0.009
      -0.011
      -0.014
      -0.014
      -0.013
      -0.013
      -0.017
      -0.019
      -0.015
      -0.003
       0.010
       0.015
       0.008
      -0.003
      -0.010
      -0.007
       0.000
       0.004
       0.002
      -0.004
      -0.008
      -0.006
      -0.001
       0.003
       0.002
       0.000
      -0.001
      -0.001
      -0.001
      -0.004
      -0.008
      -0.010
      -0.008
      -0.002
       0.004
       0.008
       0.008
       0.006
       0.001
      -0.005
      -0.011
      -0.014
      -0.011
      -0.006
      -0.001
      -0.002
      -0.007
      -0.012
      -0.013
      -0.011
      -0.007
      -0.006
      -0.005
      -0.003
       0.000
       0.001
      -0.001
      -0.006
      -0.010
      -0.009
      -0.005
       0.000
       0.000
      -0.003
      -0.007
      -0.008
      -0.008
      -0.006
      -0.005
      -0.003
      -0.001
       0.002
       0.003
      -0.001
      -0.008
      -0.015
      -0.016
      -0.012
      -0.006
      -0.002
      -0.002
       0.000
       0.004
       0.012
       0.018
       0.017
       0.009
       0.001
      -0.002
       0.004
       0.011
       0.013
       0.007
      -0.002
      -0.005
      -0.003
       0.001
       0.004
       0.004
       0.004
       0.004
       0.003
      -0.002
      -0.006
      -0.006
      -0.003
      -0.002
      -0.005
      -0.009
      -0.012
      -0.011
      -0.008
      -0.007
      -0.007
      -0.008
      -0.006
      -0.004
      -0.003
      -0.005
      -0.009
      -0.009
      -0.004
       0.005
       0.009
       0.006
      -0.003
      -0.011
      -0.011
      -0.002
       0.008
       0.009
       0.002
      -0.008
      -0.013
      -0.010
      -0.005
      -0.003
      -0.002
      -0.001
       0.003
       0.008
       0.010
       0.008
       0.004
       0.001
       0.000
       0.000
       0.000
      -0.002
      -0.006
      -0.007
      -0.006
      -0.003
      -0.001
      -0.001
      -0.003
      -0.004
      -0.003
      -0.003
      -0.004
      -0.005
      -0.003
       0.000
       0.004
       0.005
       0.005
       0.005
       0.005
       0.004
       0.003
       0.001
      -0.001
       0.000
       0.003
       0.004
       0.002
      -0.002
      -0.003
      -0.002
       0.001
       0.002
      -0.001
      -0.005
      -0.006
      -0.004
       0.001
       0.003
       0.001
      -0.001
       0.000
       0.007
       0.014
       0.015
       0.008
      -0.001
      -0.005
      -0.003
      -0.012
      -0.059
      -0.176
      -0.380
      -0.668
      -1.011
      -1.353
      -1.615
      -1.703
      -1.543
      -1.132
      -0.559
       0.001
       0.360
       0.388
       0.047
      -0.627
      -1.563
      -2.655
      -3.740
      -4.573
      -4.857
      -4.316
      -2.801
      -0.378
       2.619
       5.650
       8.159
       9.751
      10.257
       9.658
       8.032
       5.587
       2.724
      -0.050
      -2.332
      -3.994
      -5.147
      -5.923
      -6.297
      -6.114
      -5.264
      -3.799
      -1.888
       0.308
       2.639
       4.847
       6.512
       7.211
       6.807
       5.584
       4.094
       2.855
       2.131
       1.892
       1.854
       1.541
       0.437
      -1.719
      -4.660
      -7.622
      -9.739
     -10.510
      -9.965
      -8.424
      -6.166
      -3.352
      -0.235
       2.648
       4.612
       5.197
       4.424
       2.672
       0.352
      -2.241
      -4.771
      -6.675
      -7.293
      -6.284
      -3.939
      -1.047
       1.593
       3.569
       4.882
       5.672
       5.977
       5.726
       4.907
       3.694
       2.405
       1.356
       0.701
       0.375
       0.162
      -0.168
      -0.717
      -1.395
      -1.961
      -2.163
      -1.883
      -1.208
      -0.379
       0.329
       0.743
       0.855
       0.802
       0.797
       1.023
       1.548
       2.279
       2.992
       3.444
       3.501
       3.233
       2.883
       2.728
       2.904
       3.320
       3.731
       3.910
       3.771
       3.349
       2.682
       1.729
       0.405
      -1.317
      -3.325
      -5.373
      -7.167
      -8.474
      -9.185
      -9.315
      -8.954
      -8.208
      -7.180
      -5.969
      -4.676
      -3.387
      -2.169
      -1.075
      -0.164
       0.521
       0.992
       1.348
       1.732
       2.241
       2.852
       3.430
       3.820
       3.947
       3.832
       3.543
       3.143
       2.717
       2.413
       2.418
       2.854
       3.678
       4.656
       5.446
       5.735
       5.359
       4.373
       3.018
       1.606
       0.369
      -0.633
      -1.484
      -2.311
      -3.180
      -4.056
      -4.827
      -5.348
      -5.484
      -5.171
      -4.462
      -3.516
      -2.521
      -1.603
      -0.797
      -0.091
       0.528
       1.045
       1.420
       1.610
       1.579
       1.319
       0.852
       0.240
      -0.407
      -0.950
      -1.262
      -1.288
      -1.063
      -0.662
      -0.155
       0.394
       0.874
       1.119
       0.986
       0.459
      -0.323
      -1.139
      -1.787
      -2.154
      -2.211
      -2.005
      -1.626
      -1.171
      -0.688
      -0.145
       0.542
       1.430
       2.459
       3.429
       4.082
       4.236
       3.883
       3.192
       2.410
       1.731
       1.211
       0.773
       0.289
      -0.328
      -1.067
      -1.815
      -2.405
      -2.671
      -2.516
      -1.964
      -1.169
      -0.372
       0.195
       0.422
       0.360
       0.184
       0.090
       0.214
       0.589
       1.147
       1.734
       2.146
       2.179
       1.721
       0.822
      -0.280
      -1.249
      -1.804
      -1.862
      -1.559
      -1.151
      -0.850
      -0.731
      -0.736
      -0.764
      -0.755
      -0.700
      -0.593
      -0.393
      -0.051
       0.425
       0.929
       1.304
       1.432
       1.292
       0.955
       0.548
       0.206
       0.036
       0.066
       0.222
       0.360
       0.363
       0.225
       0.063
       0.026
       0.182
       0.462
       0.707
       0.761
       0.555
       0.128
      -0.393
      -0.861
      -1.161
      -1.238
      -1.100
      -0.805
      -0.428
      -0.022
       0.413
       0.936
       1.621
       2.484
       3.427
       4.204
       4.446
       3.761
       1.919
      -0.947
      -4.287
      -7.333
      -9.475
     -10.561
     -10.917
     -11.073
     -11.362
     -11.619
     -11.148
      -9.010
      -4.543
       2.127
       9.907
      17.051
      21.838
      23.223
      21.175
      16.638
      11.176
       6.426
       3.540
       2.824
       3.766
       5.362
       6.520
       6.373
       4.486
       0.990
      -3.423
      -7.714
     -10.889
     -12.343
     -11.995
     -10.200
      -7.567
      -4.814
      -2.668
      -1.748
      -2.355
      -4.259
      -6.665
      -8.501
      -8.914
      -7.674
      -5.194
      -2.210
       0.625
       2.914
       4.450
       5.090
       4.761
       3.556
       1.781
      -0.135
      -1.797
      -2.955
      -3.525
      -3.547
      -3.148
      -2.516
      -1.867
      -1.416
      -1.328
      -1.679
      -2.412
      -3.359
      -4.300
      -5.042
      -5.469
      -5.549
      -5.307
      -4.796
      -4.091
      -3.283
      -2.470
      -1.730
      -1.078
      -0.420
       0.448
       1.757
       3.628
       6.003
       8.680
      11.389
      13.824
      15.666
      16.649
      16.670
      15.856
      14.501
      12.926
      11.374
       9.990
       8.835
       7.892
       7.061
       6.174
       5.048
       3.544
       1.613
      -0.689
      -3.187
      -5.620
      -7.693
      -9.169
      -9.925
      -9.979
      -9.469
      -8.605
      -7.619
      -6.710
      -6.005
      -5.554
      -5.348
      -5.342
      -5.460
      -5.587
      -5.580
      -5.304
      -4.679
      -3.711
      -2.488
      -1.167
       0.070
       1.053
       1.668
       1.864
       1.638
       1.017
       0.078
      -1.042
      -2.154
      -3.078
      -3.700
      -4.003
      -4.039
      -3.870
      -3.527
      -3.016
      -2.361
      -1.631
      -0.923
      -0.329
       0.105
       0.378
       0.516
       0.554
       0.551
       0.609
       0.848
       1.346
       2.081
       2.925
       3.697
       4.232
       4.423
       4.228
       3.672
       2.856
       1.951
       1.161
       0.650
       0.480
       0.606
       0.910
       1.254
       1.516
       1.596
       1.431
       1.013
       0.398
      -0.313
      -1.014
      -1.628
      -2.118
      -2.464
      -2.643
      -2.624
      -2.381
      -1.923
      -1.292
      -0.567
       0.162
       0.808
       1.297
       1.567
       1.561
       1.247
       0.652
      -0.114
      -0.882
      -1.479
      -1.787
      -1.755
      -1.387
      -0.726
       0.129
       1.020
       1.767
       2.248
       2.464
       2.526
       2.590
       2.760
       3.044
       3.377
       3.672
       3.877
       3.994
       4.077
       4.206
       4.443
       4.785
       5.145
       5.375
       5.327
       4.922
       4.182
       3.208
       2.126
       1.028
      -0.032
      -1.020
      -1.888
      -2.581
      -3.059
      -3.322
      -3.409
      -3.385
      -3.321
      -3.283
      -3.333
      -3.508
      -3.797
      -4.131
      -4.413
      -4.569
      -4.599
      -4.574
      -4.601
      -4.762
      -5.065
      -5.435
      -5.737
      -5.838
      -5.662
      -5.222
      -4.608
      -3.939
      -3.311
      -2.758
      -2.253
      -1.734
      -1.143
      -0.462
       0.263
       0.927
       1.410
       1.641
       1.633
       1.478
       1.281
       1.115
       1.007
       0.963
       0.988
       1.090
       1.270
       1.517
       1.816
       2.149
       2.497
       2.837
       3.154
       3.444
       3.707
       3.943
       4.134
       4.242
       4.227
       4.072
       3.801
       3.485
       3.207
       3.016
       2.903
       2.802
       2.640
       2.384
       2.068
       1.776
       1.592
       1.552
       1.628
       1.746
       1.825
       1.809
       1.673
       1.418
       1.049
       0.568
      -0.025
      -0.720
      -1.490
      -2.280
      -3.009
      -3.578
      -3.894
      -3.912
      -3.659
      -3.244
      -2.812
      -2.482
      -2.289
      -2.183
      -2.074
      -1.892
      -1.614
      -1.258
      -0.859
      -0.452
      -0.062
       0.301
       0.634
       0.931
       1.175
       1.328
       1.349
       1.216
       0.942
       0.576
       0.186
      -0.160
      -0.425
      -0.611
      -0.749
      -0.870
      -0.971
      -0.995
      -0.870
      -0.559
      -0.103
       0.389
       0.793
       1.018
       1.031
       0.845
       0.500
       0.046
      -0.452
      -0.922
      -1.301
      -1.549
      -1.664
      -1.687
      -1.694
      -1.761
      -1.931
      -2.187
      -2.463
      -2.674
      -2.757
      -2.678
      -2.438
      -2.059
      -1.589
      -1.094
      -0.650
      -0.310
      -0.082
       0.078
       0.242
       0.473
       0.792
       1.171
       1.555
       1.884
       2.119
       2.249
       2.291
       2.273
       2.221
       2.153
       2.078
       1.998
       1.910
       1.808
       1.699
       1.610
       1.580
       1.636
       1.762
       1.901
       1.988
       1.987
       1.906
       1.774
       1.617
       1.437
       1.225
       0.975
       0.687
       0.361
       0.003
      -0.367
      -0.707
      -0.974
      -1.145
      -1.222
      -1.225
      -1.181
      -1.134
      -1.149
      -1.296
      -1.610
      -2.062
      -2.567
      -3.022
      -3.350
      -3.516
      -3.520
      -3.387
      -3.165
      -2.919
      -2.712
      -2.573
      -2.476
      -2.346
      -2.103
      -1.713
      -1.212
      -0.692
      -0.257
       0.023
       0.139
       0.141
       0.123
       0.197
       0.455
       0.930
       1.570
       2.260
       2.869
       3.315
       3.580
       3.703
       3.733
       3.695
       3.584
       3.381
       3.076
       2.674
       2.188
       1.641
       1.067
       0.527
       0.094
      -0.171
      -0.250
