Origin Time       09/1/2013 01:41:52	
Lat.              25.4 N	
Long.             94.9 E	
Depth (Km)         89.0
Magnitude         5.9
 Region           Myanmar-India-Border-Region                                      
 Above details taken from IMD 
     
Station Code      TZP
Station Lat.       26.619  N
Station Long.      92.797  E
Station Height(m)   76.0
Site Class        B   Vs30 between 375 m/sec to 700 m/sec *  
Record Time       09.01.2013 01:42:39.859
Sampling Rate     200. Hz
 Record Duration   73.675 Sec.
 Direction         E-W (E positive)
Max. Acceleration    -12.502 cm/sec**2
     
  * For reference see Site Classification link of website 
     
 Base Line Corrected and Low Pass Filtered (Cut Off at 35 Hz) Time History
 Acceleration data in cm/sec**2
    
[...]
       0.311
       0.205
       0.050
      -0.056
      -0.072
      -0.050
      -0.082
      -0.207
      -0.360
      -0.423
      -0.331
      -0.133
       0.048
       0.122
       0.099
       0.079
       0.169
       0.397
       0.687
       0.900
       0.928
       0.760
       0.483
       0.210
      -0.001
      -0.162
      -0.291
      -0.351
      -0.267
      -0.013
       0.322
       0.564
       0.570
       0.313
      -0.100
      -0.501
      -0.761
      -0.847
      -0.815
      -0.755
      -0.713
      -0.661
      -0.524
      -0.271
       0.038
       0.277
       0.364
       0.340
       0.333
       0.436
       0.600
       0.668
       0.504
       0.108
      -0.379
      -0.771
      -0.941
      -0.874
      -0.658
      -0.413
      -0.234
      -0.157
      -0.173
      -0.255
      -0.372
      -0.490
      -0.556
      -0.493
      -0.233
       0.208
       0.682
       0.960
       0.890
       0.525
       0.104
      -0.118
      -0.044
       0.208
       0.423
       0.471
       0.401
       0.383
       0.539
       0.801
       0.928
       0.682
       0.041
      -0.727
      -1.219
      -1.171
      -0.656
      -0.016
       0.397
       0.460
       0.314
       0.209
       0.306
       0.583
       0.879
       1.005
       0.862
       0.495
       0.070
      -0.229
      -0.310
      -0.218
      -0.087
      -0.048
      -0.151
      -0.346
      -0.527
      -0.623
      -0.644
      -0.660
      -0.717
      -0.781
      -0.774
      -0.651
      -0.458
      -0.303
      -0.267
      -0.343
      -0.439
      -0.444
      -0.292
      -0.001
       0.335
       0.595
       0.682
       0.562
       0.289
       0.008
      -0.100
       0.077
       0.478
       0.869
       0.990
       0.732
       0.218
      -0.288
      -0.556
      -0.523
      -0.298
      -0.060
       0.063
       0.041
      -0.069
      -0.177
      -0.200
      -0.106
       0.059
       0.178
       0.127
      -0.115
      -0.418
      -0.572
      -0.432
      -0.031
       0.443
       0.761
       0.800
       0.606
       0.363
       0.268
       0.388
       0.609
       0.714
       0.561
       0.183
      -0.241
      -0.529
      -0.609
      -0.524
      -0.369
      -0.229
      -0.147
      -0.143
      -0.227
      -0.400
      -0.621
      -0.797
      -0.820
      -0.630
      -0.263
       0.166
       0.507
       0.636
       0.497
       0.131
      -0.324
      -0.691
      -0.831
      -0.708
      -0.399
      -0.033
       0.273
       0.467
       0.560
       0.597
       0.619
       0.649
       0.669
       0.624
       0.449
       0.140
      -0.194
      -0.381
      -0.309
      -0.052
       0.149
       0.039
      -0.451
      -1.115
      -1.584
      -1.582
      -1.111
      -0.427
       0.164
       0.516
       0.694
       0.857
       1.083
       1.290
       1.305
       1.016
       0.493
      -0.030
      -0.291
      -0.164
       0.252
       0.702
       0.937
       0.856
       0.533
       0.131
      -0.220
      -0.474
      -0.650
      -0.768
      -0.814
      -0.751
      -0.563
      -0.296
      -0.059
       0.034
      -0.048
      -0.200
      -0.239
      -0.056
       0.287
       0.592
       0.681
       0.523
       0.238
      -0.007
      -0.111
      -0.073
       0.048
       0.177
       0.278
       0.368
       0.497
       0.682
       0.850
       0.851
       0.571
       0.044
      -0.539
      -0.940
      -1.023
      -0.826
      -0.516
      -0.277
      -0.206
      -0.286
      -0.423
      -0.521
      -0.526
      -0.438
      -0.309
      -0.209
      -0.177
      -0.183
      -0.140
       0.012
       0.231
       0.394
       0.395
       0.241
       0.037
      -0.111
      -0.176
      -0.203
      -0.242
      -0.298
      -0.339
      -0.342
      -0.309
      -0.248
      -0.150
      -0.007
       0.166
       0.323
       0.421
       0.449
       0.426
       0.374
       0.300
       0.197
       0.059
      -0.119
      -0.333
      -0.571
      -0.791
      -0.906
      -0.824
      -0.513
      -0.051
       0.390
       0.630
       0.604
       0.410
       0.251
       0.275
       0.452
       0.612
       0.579
       0.305
      -0.105
      -0.462
      -0.599
      -0.456
      -0.112
       0.249
       0.443
       0.396
       0.187
      -0.019
      -0.111
      -0.135
      -0.231
      -0.471
      -0.755
      -0.872
      -0.686
      -0.245
       0.264
       0.647
       0.810
       0.770
       0.587
       0.309
      -0.033
      -0.376
      -0.603
      -0.593
      -0.317
       0.112
       0.488
       0.618
       0.416
      -0.053
      -0.607
      -1.028
      -1.145
      -0.895
      -0.345
       0.342
       0.958
       1.345
       1.451
       1.326
       1.073
       0.779
       0.495
       0.245
       0.048
      -0.076
      -0.113
      -0.085
      -0.056
      -0.097
      -0.230
      -0.396
      -0.485
      -0.407
      -0.161
       0.155
       0.408
       0.497
       0.408
       0.199
      -0.030
      -0.199
      -0.282
      -0.316
      -0.355
      -0.428
      -0.526
      -0.620
      -0.670
      -0.634
      -0.485
      -0.245
      -0.002
       0.122
       0.055
      -0.150
      -0.325
      -0.290
       0.000
       0.381
       0.560
       0.330
      -0.234
      -0.787
      -0.940
      -0.551
       0.168
       0.816
       1.113
       1.076
       0.941
       0.897
       0.907
       0.778
       0.395
      -0.117
      -0.464
      -0.431
      -0.082
       0.258
       0.237
      -0.253
      -0.980
      -1.514
      -1.514
      -0.963
      -0.183
       0.389
       0.479
       0.146
      -0.297
      -0.517
      -0.383
      -0.023
       0.318
       0.477
       0.480
       0.468
       0.541
       0.660
       0.690
       0.521
       0.152
      -0.294
      -0.640
      -0.740
      -0.561
      -0.187
       0.229
       0.556
       0.746
       0.830
       0.865
       0.854
       0.713
       0.347
      -0.230
      -0.842
      -1.257
      -1.342
      -1.138
      -0.778
      -0.384
      -0.001
       0.359
       0.672
       0.900
       1.052
       1.214
       1.487
       1.859
       2.159
       2.171
       1.809
       1.188
       0.521
      -0.047
      -0.510
      -0.924
      -1.295
      -1.546
      -1.570
      -1.315
      -0.822
      -0.215
       0.334
       0.648
       0.605
       0.200
      -0.436
      -1.099
      -1.605
      -1.857
      -1.845
      -1.610
      -1.197
      -0.629
       0.090
       0.925
       1.766
       2.432
       2.738
       2.583
       2.014
       1.206
       0.386
      -0.271
      -0.702
      -0.953
      -1.120
      -1.277
      -1.415
      -1.426
      -1.169
      -0.609
       0.083
       0.588
       0.657
       0.313
      -0.148
      -0.400
      -0.359
      -0.259
      -0.444
      -1.058
      -1.880
      -2.482
      -2.559
      -2.155
      -1.599
      -1.213
      -1.072
      -1.006
      -0.818
      -0.501
      -0.256
      -0.308
      -0.676
      -1.111
      -1.250
      -0.866
      -0.026
       0.951
       1.684
       1.928
       1.693
       1.206
       0.788
       0.673
       0.886
       1.233
       1.435
       1.314
       0.918
       0.476
       0.230
       0.255
       0.426
       0.525
       0.415
       0.140
      -0.113
      -0.151
       0.068
       0.393
       0.553
       0.328
      -0.319
      -1.202
      -1.997
      -2.411
      -2.322
      -1.825
      -1.154
      -0.535
      -0.060
       0.347
       0.852
       1.581
       2.496
       3.370
       3.894
       3.874
       3.380
       2.720
       2.218
       1.976
       1.841
       1.603
       1.244
       0.968
       0.991
       1.292
       1.579
       1.492
       0.866
      -0.162
      -1.242
      -2.007
      -2.280
      -2.167
      -1.982
      -2.040
      -2.433
      -2.948
      -3.192
      -2.858
      -1.951
      -0.836
      -0.031
       0.107
      -0.413
      -1.247
      -1.957
      -2.242
      -2.035
      -1.423
      -0.543
       0.476
       1.493
       2.362
       2.990
       3.386
       3.642
       3.833
       3.903
       3.670
       2.936
       1.657
       0.020
      -1.626
      -2.965
      -3.874
      -4.433
      -4.768
      -4.905
      -4.750
      -4.212
      -3.323
      -2.258
      -1.247
      -0.453
       0.116
       0.602
       1.200
       2.001
       2.905
       3.670
       4.088
       4.147
       4.024
       3.936
       3.955
       3.952
       3.693
       3.010
       1.935
       0.711
      -0.353
      -1.075
      -1.503
      -1.845
      -2.292
      -2.869
      -3.434
      -3.799
      -3.890
      -3.822
      -3.814
      -4.026
      -4.430
      -4.821
      -4.924
      -4.511
      -3.478
      -1.877
       0.075
       2.021
       3.559
       4.386
       4.431
       3.881
       3.068
       2.284
       1.647
       1.105
       0.538
      -0.140
      -0.919
      -1.692
      -2.290
      -2.543
      -2.362
      -1.815
      -1.142
      -0.648
      -0.542
      -0.823
      -1.318
      -1.835
      -2.286
      -2.693
      -3.069
      -3.324
      -3.274
      -2.742
      -1.662
      -0.113
       1.728
       3.657
       5.491
       7.063
       8.201
       8.729
       8.549
       7.730
       6.528
       5.294
       4.304
       3.619
       3.092
       2.506
       1.754
       0.911
       0.170
      -0.292
      -0.425
      -0.312
      -0.106
       0.073
       0.213
       0.389
       0.652
       0.923
       1.005
       0.707
      -0.007
      -0.990
      -2.003
      -2.843
      -3.389
      -3.585
      -3.389
      -2.757
      -1.683
      -0.280
       1.157
       2.181
       2.334
       1.374
      -0.569
      -3.001
      -5.295
      -6.978
      -7.890
      -8.134
      -7.895
      -7.299
      -6.369
      -5.066
      -3.353
      -1.302
       0.801
       2.477
       3.266
       3.005
       1.957
       0.636
      -0.512
      -1.321
      -1.828
      -2.034
      -1.794
      -0.965
       0.369
       1.864
       3.113
       3.895
       4.252
       4.402
       4.543
       4.688
       4.596
       3.924
       2.528
       0.679
      -1.057
      -2.184
      -2.605
      -2.611
      -2.576
      -2.621
      -2.536
      -2.017
      -0.999
       0.235
       1.242
       1.735
       1.748
       1.572
       1.559
       1.946
       2.743
       3.743
       4.633
       5.166
       5.261
       4.983
       4.422
       3.580
       2.344
       0.588
      -1.643
      -4.013
      -5.958
      -6.965
      -6.874
      -5.986
      -4.867
      -3.995
      -3.487
      -3.077
      -2.339
      -0.994
       0.875
       2.845
       4.384
       5.120
       5.002
       4.263
       3.264
       2.309
       1.528
       0.839
       0.004
      -1.224
      -2.928
      -4.903
      -6.687
      -7.725
      -7.633
      -6.396
      -4.419
      -2.360
      -0.832
      -0.115
      -0.080
      -0.336
      -0.496
      -0.379
      -0.032
       0.382
       0.744
       1.061
       1.464
       2.105
       3.031
       4.097
       5.002
       5.418
       5.136
       4.164
       2.719
       1.118
      -0.337
      -1.436
      -2.085
      -2.302
      -2.195
      -1.867
      -1.289
      -0.289
       1.289
       3.354
       5.466
       6.971
       7.305
       6.275
       4.173
       1.647
      -0.569
      -1.945
      -2.315
      -1.874
      -1.022
      -0.152
       0.516
       0.969
       1.314
       1.648
       1.971
       2.174
       2.089
       1.567
       0.568
      -0.804
      -2.356
      -3.913
      -5.369
      -6.627
      -7.497
      -7.718
      -7.118
      -5.815
      -4.217
      -2.798
      -1.780
      -1.021
      -0.183
       0.972
       2.420
       3.911
       5.126
       5.816
       5.898
       5.485
       4.837
       4.215
       3.723
       3.221
       2.391
       0.932
      -1.215
      -3.774
      -6.228
      -8.044
      -8.893
      -8.769
      -7.979
      -6.981
      -6.122
      -5.438
      -4.668
      -3.475
      -1.706
       0.480
       2.684
       4.461
       5.534
       5.890
       5.715
       5.229
       4.571
       3.791
       2.910
       1.969
       1.052
       0.259
      -0.352
      -0.851
      -1.473
      -2.486
      -3.956
      -5.569
      -6.726
      -6.885
      -5.923
      -4.195
      -2.243
      -0.358
       1.583
       3.887
       6.595
       9.219
      10.918
      11.018
       9.490
       7.011
       4.556
       2.822
       1.911
       1.425
       0.863
      -0.007
      -1.006
      -1.663
      -1.508
      -0.369
       1.484
       3.440
       4.877
       5.485
       5.380
       4.950
       4.549
       4.262
       3.866
       3.011
       1.482
      -0.623
      -2.911
      -4.860
      -6.051
      -6.330
      -5.834
      -4.864
      -3.701
      -2.535
      -1.513
      -0.833
      -0.701
      -1.159
      -1.935
      -2.513
      -2.442
      -1.676
      -0.675
      -0.164
      -0.699
      -2.321
      -4.487
      -6.330
      -7.100
      -6.570
      -5.176
      -3.803
      -3.351
      -4.295
      -6.480
      -9.205
     -11.501
     -12.502
     -11.771
      -9.459
      -6.214
      -2.869
      -0.071
       1.963
       3.462
       4.882
       6.561
       8.451
      10.106
      10.979
      10.812
       9.846
       8.660
       7.763
       7.236
       6.706
       5.664
       3.871
       1.555
      -0.719
      -2.357
      -3.000
      -2.589
      -1.277
       0.687
       2.981
       5.184
       6.804
       7.430
       6.949
       5.631
       3.988
       2.477
       1.264
       0.232
      -0.809
      -1.911
      -2.957
      -3.800
      -4.372
      -4.648
      -4.541
      -3.909
      -2.711
      -1.166
       0.278
       1.146
       1.160
       0.320
      -1.140
      -2.857
      -4.462
      -5.676
      -6.356
      -6.443
      -5.891
      -4.670
      -2.876
      -0.804
       1.092
       2.374
       2.825
       2.568
       2.012
       1.616
       1.623
       1.938
       2.254
       2.308
       2.081
       1.831
       1.953
       2.748
       4.219
       5.976
       7.331
       7.568
       6.291
       3.661
       0.331
      -2.918
      -5.590
      -7.612
      -9.095
     -10.009
     -10.083
      -9.015
      -6.750
      -3.587
      -0.092
       3.063
       5.274
       6.179
       5.776
       4.409
       2.630
       1.017
       0.010
      -0.188
       0.368
       1.440
       2.719
       3.922
       4.838
       5.326
       5.283
       4.621
       3.279
       1.289
      -1.167
      -3.763
      -6.111
      -7.868
      -8.837
      -9.025
      -8.650
      -8.028
      -7.391
      -6.739
      -5.829
      -4.320
      -2.024
       0.836
       3.570
       5.292
       5.434
       4.122
       2.122
       0.426
      -0.210
       0.514
       2.445
       5.071
       7.633
       9.316
       9.551
       8.302
       6.117
       3.807
       1.953
       0.607
      -0.585
      -1.988
      -3.659
      -5.343
      -6.712
      -7.581
      -7.939
      -7.836
      -7.300
      -6.361
      -5.123
      -3.792
      -2.627
      -1.870
      -1.641
      -1.851
      -2.176
      -2.197
      -1.639
      -0.486
       1.102
       2.970
       4.996
       6.975
       8.537
       9.274
       9.021
       8.032
       6.870
       6.053
       5.736
       5.665
       5.402
       4.604
       3.203
       1.426
      -0.313
      -1.596
      -2.201
      -2.201
      -1.904
      -1.654
      -1.628
      -1.766
      -1.861
      -1.771
      -1.599
      -1.702
      -2.467
      -3.945
      -5.630
      -6.628
      -6.186
      -4.214
      -1.394
       1.206
       2.689
       2.687
       1.383
      -0.668
      -2.770
      -4.312
      -4.924
      -4.535
      -3.333
      -1.701
      -0.114
       1.023
       1.547
       1.572
       1.367
       1.154
       0.994
       0.784
       0.360
      -0.343
      -1.187
      -1.856
      -2.041
      -1.638
      -0.808
       0.151
       0.995
       1.661
       2.248
       2.898
       3.661
       4.419
       4.901
       4.828
       4.117
       2.979
       1.826
       1.037
       0.771
       0.955
       1.402
       1.934
       2.403
       2.654
       2.541
       2.025
       1.216
       0.256
      -0.838
      -2.177
      -3.784
      -5.399
      -6.554
      -6.848
      -6.215
      -4.960
      -3.596
      -2.588
      -2.114
      -1.977
      -1.726
      -0.959
       0.377
       1.920
       3.134
       3.684
       3.659
       3.470
       3.516
       3.908
       4.447
       4.813
       4.755
       4.145
       2.947
       1.215
      -0.862
      -2.944
      -4.633
      -5.613
      -5.765
      -5.172
      -4.070
      -2.765
      -1.550
      -0.626
      -0.031
       0.326
       0.557
       0.656
       0.488
      -0.086
      -1.003
      -1.932
      -2.438
      -2.274
      -1.549
      -0.627
       0.146
       0.636
       0.934
       1.208
       1.509
       1.665
       1.349
       0.334
      -1.256
      -2.900
      -3.946
      -3.974
      -3.024
      -1.545
      -0.130
       0.787
       1.089
       0.938
       0.591
       0.228
      -0.142
      -0.644
      -1.405
      -2.377
      -3.240
      -3.517
      -2.810
      -1.011
       1.649
       4.679
       7.489
       9.568
      10.643
      10.711
       9.949
       8.597
       6.893
       5.054
       3.250
       1.607
       0.225
      -0.819
      -1.527
      -2.025
      -2.470
      -2.865
      -2.946
      -2.343
      -0.952
       0.746
       1.793
       1.342
      -0.663
      -3.307
      -5.262
      -5.666
      -4.621
      -2.966
      -1.588
      -0.863
      -0.601
      -0.413
      -0.135
       0.017
      -0.346
      -1.421
      -2.973
      -4.424
      -5.207
      -5.122
      -4.429
      -3.629
      -3.097
      -2.871
      -2.746
      -2.551
      -2.323
      -2.222
      -2.310
      -2.428
      -2.323
      -1.854
      -1.101
      -0.264
       0.520
       1.249
       1.967
       2.650
       3.210
       3.632
       4.076
       4.793
       5.858
       6.967
       7.515
       6.988
       5.392
       3.346
       1.734
       1.137
       1.482
       2.161
       2.522
       2.329
       1.839
       1.492
       1.499
       1.688
       1.659
       1.091
      -0.046
      -1.472
      -2.726
      -3.363
      -3.149
      -2.177
      -0.790
       0.632
       1.862
       2.836
       3.484
       3.621
       3.016
       1.624
      -0.245
      -2.003
      -3.113
      -3.414
      -3.181
      -2.893
      -2.889
      -3.190
      -3.577
      -3.824
      -3.882
      -3.899
      -4.075
      -4.493
      -5.054
      -5.555
      -5.810
      -5.673
      -5.016
      -3.783
      -2.129
      -0.481
