Origin Time       09/1/2013 01:41:52	
Lat.              25.4 N	
Long.             94.9 E	
Depth (Km)         89.0
Magnitude         5.9
 Region           Myanmar-India-Border-Region                                      
 Above details taken from IMD 
   
Station Code      TZP
Station Lat.       26.619
Station Long.      92.797
Station Height(m)   76.0
Site Class        B   Vs30 between 375 m/sec to 700 m/sec *  
Record Time       09.01.2013 01:42:39.859
Sampling Rate     200. Hz
 Record Duration   73.675 Sec.
 Direction         Vert. (Up positive)
Max. Acceleration     13.305 cm/sec**2
     
  * For reference see Site Classification link of website 
     
 Base Line Corrected and Low Pass Filtered (Cut Off at 35 Hz) Time History
 Acceleration data in cm/sec**2
    
[...]
      -0.524
      -1.034
      -1.227
      -1.144
      -1.024
      -1.026
      -1.025
      -0.686
       0.227
       1.565
       2.785
       3.271
       2.753
       1.487
       0.053
      -1.035
      -1.592
      -1.708
      -1.538
      -1.150
      -0.563
       0.125
       0.713
       0.986
       0.854
       0.427
      -0.018
      -0.183
       0.059
       0.559
       0.979
       1.028
       0.660
       0.076
      -0.447
      -0.754
      -0.860
      -0.857
      -0.778
      -0.559
      -0.132
       0.441
       0.943
       1.123
       0.862
       0.243
      -0.507
      -1.136
      -1.456
      -1.403
      -1.058
      -0.602
      -0.185
       0.164
       0.495
       0.807
       1.001
       0.967
       0.702
       0.315
      -0.073
      -0.415
      -0.716
      -0.943
      -0.982
      -0.713
      -0.148
       0.527
       1.063
       1.330
       1.375
       1.318
       1.205
       0.973
       0.550
      -0.045
      -0.677
      -1.156
      -1.341
      -1.218
      -0.910
      -0.570
      -0.266
       0.035
       0.350
       0.584
       0.571
       0.221
      -0.386
      -1.024
      -1.434
      -1.440
      -1.038
      -0.394
       0.248
       0.689
       0.860
       0.788
       0.512
       0.071
      -0.436
      -0.795
      -0.760
      -0.223
       0.661
       1.548
       2.117
       2.238
       1.982
       1.508
       0.945
       0.335
      -0.331
      -1.045
      -1.720
      -2.205
      -2.360
      -2.138
      -1.612
      -0.955
      -0.385
      -0.073
      -0.055
      -0.201
      -0.290
      -0.155
       0.232
       0.765
       1.282
       1.614
       1.617
       1.218
       0.485
      -0.341
      -0.907
      -0.902
      -0.236
       0.840
       1.812
       2.161
       1.678
       0.603
      -0.535
      -1.264
      -1.449
      -1.292
      -1.106
      -1.046
      -1.027
      -0.860
      -0.481
      -0.039
       0.243
       0.285
       0.224
       0.265
       0.464
       0.669
       0.647
       0.258
      -0.455
      -1.299
      -2.015
      -2.370
      -2.230
      -1.604
      -0.641
       0.426
       1.374
       2.064
       2.456
       2.551
       2.345
       1.865
       1.238
       0.692
       0.420
       0.417
       0.468
       0.319
      -0.119
      -0.721
      -1.270
      -1.617
      -1.739
      -1.686
      -1.485
      -1.112
      -0.578
      -0.024
       0.303
       0.210
      -0.273
      -0.914
      -1.428
      -1.610
      -1.350
      -0.633
       0.398
       1.410
       2.019
       2.043
       1.641
       1.171
       0.920
       0.923
       1.029
       1.090
       1.080
       1.052
       1.006
       0.827
       0.380
      -0.347
      -1.184
      -1.870
      -2.195
      -2.092
      -1.663
      -1.136
      -0.761
      -0.680
      -0.889
      -1.294
      -1.789
      -2.261
      -2.546
      -2.426
      -1.736
      -0.496
       1.029
       2.446
       3.429
       3.845
       3.735
       3.205
       2.400
       1.548
       0.955
       0.858
       1.238
       1.782
       2.060
       1.791
       1.016
       0.067
      -0.653
      -0.926
      -0.848
      -0.721
      -0.817
      -1.211
      -1.794
      -2.417
      -3.008
      -3.572
      -4.079
      -4.382
      -4.266
      -3.578
      -2.353
      -0.826
       0.677
       1.887
       2.694
       3.141
       3.317
       3.239
       2.865
       2.221
       1.517
       1.074
       1.096
       1.477
       1.822
       1.722
       1.078
       0.231
      -0.243
       0.059
       1.056
       2.220
       2.893
       2.681
       1.656
       0.264
      -0.987
      -1.819
      -2.264
      -2.508
      -2.683
      -2.785
      -2.733
      -2.488
      -2.127
      -1.837
      -1.824
      -2.163
      -2.705
      -3.123
      -3.114
      -2.594
      -1.734
      -0.819
      -0.086
       0.341
       0.440
       0.299
       0.132
       0.234
       0.819
       1.842
       2.963
       3.728
       3.857
       3.429
       2.804
       2.363
       2.285
       2.493
       2.764
       2.897
       2.809
       2.506
       1.996
       1.202
      -0.014
      -1.708
      -3.676
      -5.437
      -6.477
      -6.594
      -6.053
      -5.365
      -4.871
      -4.502
      -3.908
      -2.795
      -1.167
       0.691
       2.441
       3.896
       5.062
       6.009
       6.704
       6.953
       6.494
       5.199
       3.248
       1.118
      -0.625
      -1.630
      -1.910
      -1.738
      -1.400
      -0.994
      -0.434
       0.368
       1.320
       2.130
       2.481
       2.260
       1.651
       0.993
       0.504
       0.104
      -0.523
      -1.658
      -3.276
      -4.986
      -6.217
      -6.535
      -5.867
      -4.512
      -2.952
      -1.596
      -0.614
       0.060
       0.591
       1.077
       1.469
       1.648
       1.593
       1.468
       1.522
       1.856
       2.309
       2.570
       2.435
       1.976
       1.489
       1.287
       1.499
       1.997
       2.483
       2.694
       2.558
       2.171
       1.622
       0.877
      -0.151
      -1.435
      -2.747
      -3.768
      -4.285
      -4.320
      -4.093
      -3.878
      -3.852
      -4.044
      -4.350
      -4.577
      -4.500
      -3.964
      -2.986
      -1.765
      -0.549
       0.569
       1.709
       3.060
       4.627
       6.117
       7.095
       7.298
       6.845
       6.112
       5.362
       4.478
       3.099
       1.080
      -1.189
      -2.969
      -3.731
      -3.550
      -2.956
      -2.430
      -2.046
      -1.581
      -0.915
      -0.272
      -0.070
      -0.544
      -1.521
      -2.540
      -3.142
      -3.109
      -2.519
      -1.689
      -1.028
      -0.809
      -0.972
      -1.132
      -0.846
       0.052
       1.357
       2.672
       3.679
       4.273
       4.500
       4.414
       4.005
       3.229
       2.104
       0.767
      -0.522
      -1.454
      -1.775
      -1.403
      -0.487
       0.640
       1.611
       2.192
       2.364
       2.248
       1.979
       1.614
       1.135
       0.492
      -0.363
      -1.453
      -2.730
      -4.014
      -5.017
      -5.499
      -5.453
      -5.136
      -4.865
      -4.752
      -4.622
      -4.210
      -3.435
      -2.471
      -1.562
      -0.781
       0.030
       1.110
       2.553
       4.200
       5.738
       6.925
       7.757
       8.420
       9.089
       9.752
      10.205
      10.185
       9.507
       8.124
       6.095
       3.533
       0.600
      -2.455
      -5.302
      -7.604
      -9.129
      -9.817
      -9.788
      -9.271
      -8.469
      -7.445
      -6.178
      -4.767
      -3.580
      -3.074
      -3.398
      -4.175
      -4.753
      -4.718
      -4.137
      -3.305
      -2.290
      -0.814
       1.409
       4.248
       7.126
       9.434
      10.948
      11.816
      12.166
      11.857
      10.661
       8.620
       6.136
       3.691
       1.544
      -0.321
      -2.020
      -3.602
      -5.013
      -6.176
      -7.090
      -7.857
      -8.590
      -9.278
      -9.755
      -9.808
      -9.306
      -8.249
      -6.740
      -4.943
      -3.052
      -1.260
       0.270
       1.455
       2.345
       3.154
       4.165
       5.530
       7.120
       8.592
       9.591
       9.928
       9.577
       8.598
       7.066
       5.048
       2.611
      -0.109
      -2.798
      -4.967
      -6.177
      -6.341
      -5.829
      -5.209
      -4.856
      -4.769
      -4.736
      -4.650
      -4.623
      -4.822
      -5.221
      -5.544
      -5.423
      -4.587
      -2.958
      -0.651
       2.036
       4.665
       6.765
       8.016
       8.394
       8.184
       7.807
       7.571
       7.509
       7.432
       7.122
       6.507
       5.682
       4.770
       3.763
       2.504
       0.830
      -1.230
      -3.406
      -5.348
      -6.839
      -7.874
      -8.550
      -8.914
      -8.937
      -8.582
      -7.885
      -6.958
      -5.936
      -4.918
      -3.920
      -2.841
      -1.493
       0.279
       2.450
       4.776
       6.903
       8.544
       9.571
       9.978
       9.778
       8.972
       7.632
       5.971
       4.300
       2.862
       1.716
       0.797
       0.059
      -0.473
      -0.829
      -1.229
      -2.010
      -3.347
      -5.001
      -6.358
      -6.812
      -6.207
      -4.985
      -3.901
      -3.531
      -3.927
      -4.631
      -5.048
      -4.864
      -4.216
      -3.505
      -3.032
      -2.738
      -2.220
      -1.015
       1.027
       3.518
       5.692
       6.890
       7.010
       6.520
       6.027
       5.792
       5.619
       5.179
       4.396
       3.538
       2.949
       2.697
       2.488
       1.895
       0.686
      -1.057
      -3.045
      -4.956
      -6.545
      -7.699
      -8.459
      -8.962
      -9.280
      -9.286
      -8.701
      -7.342
      -5.360
      -3.191
      -1.222
       0.549
       2.503
       4.977
       7.814
      10.305
      11.624
      11.367
       9.745
       7.353
       4.818
       2.571
       0.784
      -0.560
      -1.507
      -1.979
      -1.781
      -0.786
       0.855
       2.698
       4.203
       4.970
       4.847
       3.908
       2.371
       0.508
      -1.417
      -3.178
      -4.596
      -5.561
      -6.085
      -6.315
      -6.447
      -6.543
      -6.437
      -5.876
      -4.806
      -3.497
      -2.362
      -1.644
      -1.272
      -0.991
      -0.599
      -0.047
       0.644
       1.516
       2.663
       4.072
       5.476
       6.402
       6.451
       5.598
       4.242
       2.946
       2.103
       1.803
       1.898
       2.130
       2.219
       1.951
       1.295
       0.438
      -0.327
      -0.785
      -0.948
      -1.052
      -1.370
      -1.968
      -2.591
      -2.849
      -2.552
      -1.904
      -1.360
      -1.276
      -1.656
      -2.188
      -2.526
      -2.560
      -2.482
      -2.610
      -3.134
      -3.968
      -4.800
      -5.244
      -4.979
      -3.838
      -1.851
       0.760
       3.599
       6.165
       7.968
       8.694
       8.314
       7.054
       5.218
       3.040
       0.684
      -1.588
      -3.329
      -4.057
      -3.571
      -2.161
      -0.488
       0.781
       1.349
       1.394
       1.336
       1.446
       1.613
       1.442
       0.571
      -1.051
      -3.132
      -5.232
      -6.990
      -8.173
      -8.616
      -8.209
      -6.981
      -5.137
      -2.940
      -0.563
       1.910
       4.323
       6.386
       7.816
       8.560
       8.824
       8.886
       8.895
       8.815
       8.519
       7.899
       6.939
       5.723
       4.397
       3.082
       1.763
       0.280
      -1.521
      -3.556
      -5.459
      -6.833
      -7.560
      -7.842
      -7.937
      -7.922
      -7.741
      -7.420
      -7.134
      -7.029
      -7.036
      -6.886
      -6.299
      -5.132
      -3.433
      -1.429
       0.549
       2.251
       3.686
       5.069
       6.546
       8.003
       9.155
       9.800
       9.944
       9.722
       9.247
       8.527
       7.481
       6.003
       4.031
       1.592
      -1.165
      -3.940
      -6.289
      -7.758
      -8.111
      -7.456
      -6.171
      -4.735
      -3.591
      -3.019
      -2.965
      -2.988
      -2.550
      -1.498
      -0.232
       0.664
       0.942
       0.798
       0.501
       0.039
      -0.831
      -2.191
      -3.669
      -4.571
      -4.344
      -2.950
      -0.839
       1.366
       3.184
       4.356
       4.794
       4.519
       3.636
       2.331
       0.926
      -0.091
      -0.215
       0.711
       2.229
       3.465
       3.708
       2.905
       1.595
       0.407
      -0.370
      -0.800
      -1.023
      -1.058
      -0.867
      -0.506
      -0.169
      -0.050
      -0.193
      -0.476
      -0.757
      -1.050
      -1.555
      -2.474
      -3.762
      -5.040
      -5.773
      -5.575
      -4.400
      -2.505
      -0.240
       2.153
       4.564
       6.869
       8.761
       9.748
       9.377
       7.534
       4.573
       1.132
      -2.198
      -5.055
      -7.249
      -8.621
      -8.991
      -8.218
      -6.323
      -3.616
      -0.722
       1.617
       2.946
       3.381
       3.502
       3.860
       4.515
       5.010
       4.761
       3.521
       1.548
      -0.557
      -2.151
      -2.840
      -2.633
      -1.869
      -0.947
      -0.069
       0.790
       1.714
       2.642
       3.341
       3.573
       3.291
       2.668
       1.938
       1.222
       0.508
      -0.218
      -0.878
      -1.382
      -1.753
      -2.091
      -2.393
      -2.524
      -2.423
      -2.300
      -2.512
      -3.213
      -4.149
      -4.802
      -4.732
      -3.801
      -2.169
      -0.148
       1.971
       4.013
       5.891
       7.469
       8.443
       8.377
       6.942
       4.228
       0.892
      -2.022
      -3.597
      -3.572
      -2.482
      -1.269
      -0.660
      -0.804
      -1.349
      -1.817
      -1.964
      -1.933
      -2.111
      -2.777
      -3.803
      -4.722
      -5.155
      -5.215
      -5.408
      -6.060
      -6.840
      -6.906
      -5.577
      -2.883
       0.512
       3.889
       6.944
       9.701
      12.017
      13.305
      12.842
      10.419
       6.731
       3.092
       0.689
      -0.101
       0.177
       0.549
       0.321
      -0.534
      -1.543
      -2.223
      -2.439
      -2.388
      -2.365
      -2.583
      -3.143
      -4.075
      -5.328
      -6.759
      -8.134
      -9.164
      -9.545
      -9.017
      -7.483
      -5.102
      -2.257
       0.583
       2.997
       4.685
       5.502
       5.517
       5.062
       4.675
       4.889
       5.959
       7.712
       9.637
      11.138
      11.755
      11.225
       9.485
       6.708
       3.328
      -0.058
      -2.938
      -5.088
      -6.595
      -7.704
      -8.618
      -9.374
      -9.824
      -9.778
      -9.206
      -8.311
      -7.323
      -6.246
      -4.865
      -3.043
      -0.965
       0.929
       2.198
       2.625
       2.307
       1.648
       1.210
       1.428
       2.335
       3.547
       4.601
       5.355
       6.097
       7.214
       8.716
      10.063
      10.484
       9.523
       7.340
       4.549
       1.821
      -0.373
      -1.815
      -2.576
      -3.052
      -3.797
      -5.124
      -6.831
      -8.364
      -9.267
      -9.458
      -9.127
      -8.455
      -7.470
      -6.129
      -4.480
      -2.716
      -1.095
       0.194
       1.157
       2.018
       3.134
       4.743
       6.686
       8.339
       8.962
       8.266
       6.679
       5.018
       3.860
       3.189
       2.608
       1.815
       0.877
       0.094
      -0.352
      -0.603
      -0.983
      -1.653
      -2.396
      -2.787
      -2.624
      -2.235
      -2.325
      -3.435
      -5.438
      -7.511
      -8.651
      -8.355
      -6.925
      -5.169
      -3.743
      -2.682
      -1.503
       0.240
       2.465
       4.575
       5.905
       6.202
       5.750
       5.110
       4.697
       4.517
       4.230
       3.483
       2.264
       0.990
       0.239
       0.313
       0.976
       1.596
       1.587
       0.831
      -0.263
      -1.105
      -1.412
      -1.391
      -1.462
      -1.812
      -2.240
      -2.433
      -2.326
      -2.168
      -2.260
      -2.656
      -3.088
      -3.153
      -2.617
      -1.617
      -0.576
       0.133
       0.508
       0.911
       1.685
       2.746
       3.546
       3.486
       2.436
       0.942
      -0.093
      -0.015
       1.137
       2.691
       3.824
       4.087
       3.547
       2.543
       1.349
       0.104
      -1.038
      -1.811
      -2.001
      -1.718
      -1.456
      -1.777
      -2.860
      -4.333
      -5.566
      -6.134
      -6.029
      -5.482
      -4.653
      -3.513
      -1.986
      -0.142
       1.724
       3.183
       3.912
       3.966
       3.814
       3.977
       4.504
       4.832
       4.274
       2.725
       0.847
      -0.424
      -0.583
       0.150
       1.078
       1.571
       1.493
       1.193
       1.101
       1.268
       1.281
       0.624
      -0.836
      -2.679
      -4.246
      -5.120
      -5.358
      -5.302
      -5.191
      -4.954
      -4.346
      -3.268
      -1.923
      -0.654
       0.342
       1.141
       1.968
       2.956
       3.987
       4.724
       4.832
       4.290
       3.545
       3.253
       3.702
       4.463
       4.705
       3.906
       2.265
       0.463
      -0.889
      -1.606
      -1.882
      -2.007
      -2.122
      -2.188
      -2.148
      -2.089
      -2.236
      -2.784
      -3.736
      -4.833
      -5.594
      -5.503
      -4.306
      -2.232
       0.072
       1.925
       2.998
       3.386
       3.390
       3.283
       3.207
       3.171
       3.085
       2.855
       2.509
       2.208
       2.091
       2.080
       1.868
       1.168
       0.017
      -1.173
      -1.922
      -2.107
      -2.099
      -2.431
      -3.295
      -4.370
      -5.135
      -5.278
      -4.816
      -3.948
      -2.884
      -1.754
      -0.582
       0.694
       2.092
       3.431
       4.369
       4.676
       4.510
       4.334
       4.512
       4.967
       5.240
       4.899
       3.900
       2.599
       1.440
       0.603
      -0.063
      -0.806
      -1.716
      -2.697
      -3.625
      -4.444
      -5.114
      -5.543
      -5.667
      -5.555
      -5.325
      -4.919
      -4.052
      -2.531
      -0.613
       1.012
       1.716
       1.494
       1.090
       1.481
       3.070
       5.269
       6.889
       7.053
       5.861
       4.250
       3.204
       2.984
       3.017
       2.454
       0.891
      -1.312
      -3.307
      -4.367
      -4.372
      -3.843
      -3.497
      -3.681
      -4.106
      -4.139
      -3.376
      -2.004
      -0.638
       0.190
       0.411
       0.368
       0.420
       0.632
       0.830
       0.908
       1.022
       1.416
       2.063
       2.543
       2.359
       1.408
       0.132
      -0.813
      -1.034
      -0.593
       0.192
       1.036
       1.784
       2.356
       2.673
       2.642
       2.162
       1.222
       0.020
      -1.037
      -1.559
      -1.476
      -1.092
      -0.809
      -0.779
      -0.817
      -0.662
      -0.296
       0.009
      -0.029
      -0.401
      -0.807
      -0.974
      -0.946
      -1.026
      -1.453
      -2.159
      -2.825
      -3.131
      -2.956
      -2.412
      -1.742
      -1.155
      -0.659
      -0.050
       0.881
       2.068
       3.126
       3.635
       3.479
       2.918
       2.350
       2.002
       1.812
       1.548
       1.051
       0.370
      -0.329
      -0.959
      -1.576
      -2.227
      -2.794
      -3.042
      -2.821
      -2.192
      -1.361
      -0.554
       0.066
       0.429
       0.585
       0.684
       0.919
       1.415
       2.108
       2.690
       2.708
       1.862
