Origin Time       09/1/2013 01:41:52	 UTC
Lat.              25.4 N	
Long.             94.9 E	
Depth (Km)         89.0
Magnitude         5.9
 Region           Myanmar-India-Border-Region                                      
 Above details taken from IMD 
    
Station Code      TZP
Station Lat.       26.619  N
Station Long.      92.797  E
Station Height(m)   76.0
Site Class        B   Vs30 between 375 m/sec to 700 m/sec *  
Record Time       09.01.2013 01:42:39.859 UTC
Sampling Rate     200. Hz
 Record Duration   73.675 Sec.
 Direction         N-S (N positive)
Max. Acceleration     16.689 cm/sec**2
     
  * For reference see Site Classification link of website 
     
 Base Line Corrected and Low Pass Filtered (Cut Off at 35 Hz) Time History
 Acceleration data in cm/sec**2
    
[...]
       0.986
       0.675
       0.359
       0.161
       0.105
       0.146
       0.220
       0.270
       0.244
       0.107
      -0.115
      -0.322
      -0.397
      -0.290
      -0.049
       0.225
       0.456
       0.629
       0.749
       0.783
       0.641
       0.261
      -0.277
      -0.726
      -0.796
      -0.368
       0.383
       1.068
       1.335
       1.099
       0.571
       0.085
      -0.142
      -0.126
      -0.047
      -0.072
      -0.232
      -0.409
      -0.453
      -0.316
      -0.110
      -0.029
      -0.189
      -0.528
      -0.836
      -0.910
      -0.703
      -0.348
      -0.056
       0.038
      -0.054
      -0.219
      -0.351
      -0.429
      -0.489
      -0.547
      -0.569
      -0.507
      -0.372
      -0.241
      -0.201
      -0.254
      -0.294
      -0.181
       0.123
       0.488
       0.678
       0.529
       0.083
      -0.416
      -0.679
      -0.564
      -0.171
       0.229
       0.388
       0.249
      -0.018
      -0.147
       0.019
       0.407
       0.765
       0.850
       0.597
       0.167
      -0.174
      -0.229
       0.014
       0.378
       0.625
       0.622
       0.427
       0.225
       0.168
       0.264
       0.393
       0.430
       0.356
       0.264
       0.269
       0.405
       0.589
       0.670
       0.530
       0.162
      -0.320
      -0.735
      -0.912
      -0.776
      -0.386
       0.087
       0.447
       0.565
       0.427
       0.128
      -0.184
      -0.381
      -0.422
      -0.355
      -0.275
      -0.240
      -0.224
      -0.157
      -0.006
       0.162
       0.218
       0.080
      -0.195
      -0.430
      -0.441
      -0.159
       0.316
       0.753
       0.904
       0.640
       0.028
      -0.704
      -1.295
      -1.583
      -1.538
      -1.225
      -0.746
      -0.234
       0.160
       0.312
       0.206
      -0.035
      -0.218
      -0.221
      -0.080
       0.056
       0.078
       0.012
      -0.023
       0.067
       0.268
       0.493
       0.667
       0.770
       0.800
       0.745
       0.591
       0.367
       0.149
      -0.004
      -0.107
      -0.234
      -0.427
      -0.636
      -0.743
      -0.663
      -0.410
      -0.082
       0.201
       0.367
       0.400
       0.321
       0.171
       0.001
      -0.124
      -0.159
      -0.114
      -0.046
      -0.007
       0.009
       0.053
       0.162
       0.315
       0.447
       0.486
       0.391
       0.163
      -0.148
      -0.451
      -0.645
      -0.677
      -0.577
      -0.435
      -0.341
      -0.307
      -0.270
      -0.158
       0.007
       0.101
       0.000
      -0.275
      -0.526
      -0.503
      -0.112
       0.477
       0.929
       0.988
       0.683
       0.308
       0.204
       0.496
       1.007
       1.386
       1.362
       0.925
       0.314
      -0.165
      -0.335
      -0.238
      -0.054
       0.039
      -0.030
      -0.206
      -0.373
      -0.440
      -0.398
      -0.327
      -0.341
      -0.511
      -0.809
      -1.108
      -1.246
      -1.124
      -0.768
      -0.321
       0.049
       0.261
       0.347
       0.391
       0.428
       0.411
       0.268
       0.003
      -0.262
      -0.363
      -0.223
       0.070
       0.320
       0.359
       0.167
      -0.118
      -0.301
      -0.274
      -0.077
       0.149
       0.277
       0.274
       0.191
       0.107
       0.056
       0.012
      -0.075
      -0.229
      -0.418
      -0.578
      -0.659
      -0.646
      -0.550
      -0.377
      -0.134
       0.139
       0.361
       0.442
       0.363
       0.208
       0.117
       0.186
       0.409
       0.683
       0.891
       0.962
       0.895
       0.730
       0.506
       0.252
       0.004
      -0.174
      -0.218
      -0.114
       0.059
       0.181
       0.178
       0.073
      -0.055
      -0.146
      -0.199
      -0.241
      -0.286
      -0.322
      -0.317
      -0.240
      -0.074
       0.154
       0.351
       0.397
       0.240
      -0.038
      -0.240
      -0.200
       0.085
       0.423
       0.575
       0.443
       0.159
      -0.016
       0.078
       0.352
       0.535
       0.405
      -0.028
      -0.546
      -0.898
      -0.967
      -0.791
      -0.493
      -0.200
      -0.018
      -0.019
      -0.211
      -0.513
      -0.773
      -0.848
      -0.708
      -0.452
      -0.226
      -0.100
      -0.020
       0.103
       0.294
       0.495
       0.639
       0.713
       0.744
       0.748
       0.706
       0.593
       0.420
       0.231
       0.049
      -0.150
      -0.397
      -0.658
      -0.819
      -0.767
      -0.499
      -0.153
       0.101
       0.187
       0.170
       0.177
       0.273
       0.401
       0.441
       0.303
      -0.007
      -0.387
      -0.694
      -0.806
      -0.677
      -0.354
       0.050
       0.414
       0.665
       0.794
       0.820
       0.766
       0.655
       0.519
       0.391
       0.286
       0.206
       0.159
       0.167
       0.226
       0.270
       0.193
      -0.056
      -0.375
      -0.542
      -0.398
      -0.014
       0.298
       0.201
      -0.396
      -1.239
      -1.890
      -2.027
      -1.644
      -1.013
      -0.478
      -0.243
      -0.297
      -0.446
      -0.435
      -0.101
       0.514
       1.166
       1.545
       1.480
       1.057
       0.549
       0.208
       0.079
       0.007
      -0.186
      -0.497
      -0.741
      -0.719
      -0.416
      -0.018
       0.244
       0.268
       0.145
       0.069
       0.176
       0.445
       0.702
       0.750
       0.511
       0.094
      -0.299
      -0.541
      -0.684
      -0.857
      -1.072
      -1.133
      -0.784
       0.026
       1.019
       1.771
       2.020
       1.830
       1.462
       1.107
       0.752
       0.291
      -0.259
      -0.693
      -0.775
      -0.475
      -0.028
       0.247
       0.201
      -0.053
      -0.270
      -0.295
      -0.170
      -0.065
      -0.127
      -0.362
      -0.634
      -0.763
      -0.651
      -0.356
      -0.055
       0.091
       0.066
       0.017
       0.119
       0.405
       0.715
       0.821
       0.602
       0.123
      -0.434
      -0.881
      -1.108
      -1.105
      -0.951
      -0.777
      -0.690
      -0.692
      -0.666
      -0.472
      -0.076
       0.394
       0.713
       0.694
       0.304
      -0.313
      -0.915
      -1.292
      -1.357
      -1.163
      -0.833
      -0.472
      -0.130
       0.191
       0.493
       0.744
       0.877
       0.823
       0.583
       0.269
       0.065
       0.118
       0.438
       0.883
       1.259
       1.427
       1.346
       1.054
       0.642
       0.232
      -0.059
      -0.171
      -0.139
      -0.047
       0.042
       0.131
       0.250
       0.392
       0.497
       0.513
       0.446
       0.347
       0.256
       0.174
       0.078
      -0.056
      -0.247
      -0.493
      -0.736
      -0.850
      -0.701
      -0.266
       0.291
       0.689
       0.720
       0.413
       0.006
      -0.258
      -0.312
      -0.264
      -0.233
      -0.216
      -0.123
       0.065
       0.215
       0.122
      -0.292
      -0.857
      -1.225
      -1.114
      -0.530
       0.218
       0.729
       0.778
       0.430
      -0.056
      -0.448
      -0.689
      -0.865
      -1.048
      -1.168
      -1.061
      -0.641
      -0.032
       0.482
       0.663
       0.512
       0.261
       0.162
       0.267
       0.383
       0.272
      -0.097
      -0.473
      -0.502
      -0.030
       0.733
       1.322
       1.345
       0.771
      -0.058
      -0.675
      -0.815
      -0.546
      -0.150
       0.114
       0.159
       0.068
      -0.023
      -0.046
      -0.036
      -0.069
      -0.187
      -0.357
      -0.499
      -0.528
      -0.397
      -0.108
       0.291
       0.718
       1.076
       1.289
       1.338
       1.270
       1.137
       0.911
       0.484
      -0.227
      -1.141
      -1.980
      -2.420
      -2.310
      -1.778
      -1.148
      -0.720
      -0.602
      -0.684
      -0.759
      -0.668
      -0.375
       0.047
       0.494
       0.882
       1.162
       1.300
       1.260
       1.041
       0.700
       0.346
       0.082
      -0.062
      -0.113
      -0.093
       0.020
       0.265
       0.602
       0.874
       0.853
       0.389
      -0.459
      -1.424
      -2.192
      -2.592
      -2.668
      -2.576
      -2.429
      -2.238
      -1.973
      -1.651
      -1.334
      -1.060
      -0.806
      -0.539
      -0.290
      -0.145
      -0.147
      -0.224
      -0.226
      -0.041
       0.318
       0.756
       1.206
       1.707
       2.357
       3.191
       4.114
       4.942
       5.533
       5.844
       5.889
       5.624
       4.920
       3.663
       1.901
      -0.067
      -1.777
      -2.810
      -3.025
      -2.644
      -2.112
      -1.817
      -1.865
      -2.074
      -2.141
      -1.865
      -1.274
      -0.604
      -0.160
      -0.120
      -0.425
      -0.816
      -1.006
      -0.854
      -0.404
       0.224
       0.967
       1.856
       2.910
       4.006
       4.856
       5.131
       4.669
       3.616
       2.382
       1.411
       0.922
       0.794
       0.695
       0.353
      -0.236
      -0.822
      -1.110
      -1.010
      -0.722
      -0.598
      -0.891
      -1.593
      -2.473
      -3.268
      -3.858
      -4.327
      -4.880
      -5.682
      -6.695
      -7.621
      -8.007
      -7.491
      -6.042
      -4.028
      -2.034
      -0.557
       0.235
       0.538
       0.722
       1.084
       1.704
       2.479
       3.245
       3.853
       4.194
       4.212
       3.952
       3.567
       3.208
       2.879
       2.402
       1.577
       0.401
      -0.868
      -1.887
      -2.490
      -2.793
      -3.047
      -3.388
      -3.715
      -3.774
      -3.352
      -2.410
      -1.078
       0.424
       1.844
       2.926
       3.461
       3.406
       2.969
       2.537
       2.444
       2.761
       3.286
       3.738
       3.973
       4.036
       4.037
       4.021
       3.975
       3.894
       3.789
       3.581
       3.057
       1.994
       0.395
      -1.412
      -2.928
      -3.783
      -3.919
      -3.520
      -2.785
      -1.770
      -0.435
       1.170
       2.801
       4.086
       4.730
       4.653
       3.985
       2.936
       1.670
       0.254
      -1.296
      -2.915
      -4.396
      -5.415
      -5.673
      -5.108
      -3.995
      -2.830
      -2.036
      -1.721
      -1.674
      -1.624
      -1.498
      -1.458
      -1.688
      -2.147
      -2.558
      -2.632
      -2.331
      -1.913
      -1.718
      -1.866
      -2.148
      -2.198
      -1.807
      -1.093
      -0.401
      -0.045
      -0.130
      -0.562
      -1.173
      -1.824
      -2.412
      -2.821
      -2.899
      -2.529
      -1.725
      -0.665
       0.418
       1.386
       2.257
       3.098
       3.873
       4.387
       4.405
       3.843
       2.868
       1.806
       0.936
       0.357
       0.011
      -0.178
      -0.199
       0.003
       0.402
       0.820
       0.993
       0.740
       0.080
      -0.776
      -1.535
      -1.947
      -1.879
      -1.351
      -0.517
       0.401
       1.207
       1.805
       2.206
       2.490
       2.757
       3.087
       3.514
       4.008
       4.468
       4.745
       4.690
       4.205
       3.278
       2.005
       0.595
      -0.697
      -1.703
      -2.447
      -3.091
      -3.718
      -4.161
      -4.070
      -3.230
      -1.824
      -0.379
       0.589
       0.943
       0.985
       1.175
       1.736
       2.477
       2.943
       2.762
       1.913
       0.733
      -0.305
      -0.857
      -0.883
      -0.651
      -0.581
      -1.007
      -1.953
      -3.082
      -3.881
      -3.993
      -3.465
      -2.716
      -2.253
      -2.357
      -2.963
      -3.754
      -4.363
      -4.544
      -4.241
      -3.550
      -2.612
      -1.517
      -0.290
       1.043
       2.375
       3.543
       4.435
       5.112
       5.802
       6.728
       7.892
       8.989
       9.554
       9.211
       7.863
       5.721
       3.225
       0.919
      -0.720
      -1.489
      -1.607
      -1.627
      -2.072
      -3.027
      -4.026
      -4.388
      -3.771
      -2.478
      -1.224
      -0.574
      -0.551
      -0.717
      -0.607
      -0.085
       0.641
       1.310
       1.876
       2.509
       3.326
       4.144
       4.525
       4.109
       2.934
       1.450
       0.218
      -0.454
      -0.695
      -0.955
      -1.703
      -3.105
      -4.906
      -6.577
      -7.621
      -7.807
      -7.211
      -6.087
      -4.726
      -3.379
      -2.295
      -1.738
      -1.933
      -2.926
      -4.491
      -6.185
      -7.525
      -8.163
      -7.970
      -7.008
      -5.476
      -3.643
      -1.763
       0.016
       1.695
       3.349
       4.953
       6.267
       6.882
       6.457
       4.965
       2.756
       0.390
      -1.660
      -3.214
      -4.357
      -5.223
      -5.776
      -5.785
      -5.036
      -3.591
      -1.897
      -0.615
      -0.286
      -1.052
      -2.579
      -4.199
      -5.168
      -4.948
      -3.400
      -0.820
       2.240
       5.276
       8.050
      10.575
      12.900
      14.914
      16.308
      16.689
      15.746
      13.390
       9.847
       5.683
       1.692
      -1.326
      -2.841
      -2.795
      -1.600
       0.071
       1.614
       2.735
       3.488
       4.109
       4.771
       5.430
       5.819
       5.558
       4.347
       2.156
      -0.657
      -3.421
      -5.424
      -6.239
      -5.888
      -4.754
      -3.323
      -1.974
      -0.906
      -0.174
       0.274
       0.550
       0.754
       0.887
       0.857
       0.585
       0.117
      -0.397
      -0.815
      -1.096
      -1.281
      -1.404
      -1.441
      -1.337
      -1.085
      -0.811
      -0.815
      -1.505
      -3.208
      -5.910
      -9.123
     -12.017
     -13.820
     -14.239
     -13.572
     -12.410
     -11.169
      -9.824
      -8.055
      -5.643
      -2.752
       0.134
       2.517
       4.167
       5.163
       5.718
       5.997
       6.063
       5.947
       5.712
       5.426
       5.086
       4.576
       3.694
       2.244
       0.169
      -2.306
      -4.643
      -6.156
      -6.309
      -4.956
      -2.399
       0.752
       3.820
       6.290
       7.963
       8.976
       9.660
      10.305
      10.968
      11.435
      11.344
      10.353
       8.280
       5.163
       1.283
      -2.841
      -6.498
      -8.933
      -9.603
      -8.427
      -5.871
      -2.751
       0.156
       2.448
       4.125
       5.307
       5.898
       5.548
       3.990
       1.465
      -1.165
      -2.824
      -2.894
      -1.632
       0.019
       1.113
       1.375
       1.340
       1.881
       3.472
       5.760
       7.744
       8.385
       7.210
       4.502
       1.028
      -2.415
      -5.308
      -7.431
      -8.741
      -9.298
      -9.277
      -8.925
      -8.384
      -7.544
      -6.132
      -4.023
      -1.507
       0.741
       2.006
       1.935
       0.718
      -1.071
      -2.799
      -4.038
      -4.592
      -4.407
      -3.515
      -2.087
      -0.469
       0.917
       1.781
       2.108
       2.090
       1.890
       1.451
       0.552
      -0.958
      -2.962
      -5.071
      -6.788
      -7.681
      -7.479
      -6.128
      -3.816
      -0.978
       1.764
       3.768
       4.590
       4.192
       2.986
       1.656
       0.793
       0.576
       0.705
       0.644
       0.040
      -0.976
      -1.831
      -1.890
      -0.885
       0.903
       2.830
       4.275
       4.945
       4.958
       4.681
       4.471
       4.446
       4.425
       4.093
       3.267
       2.047
       0.734
      -0.401
      -1.283
      -1.981
      -2.502
      -2.674
      -2.253
      -1.161
       0.382
       1.959
       3.171
       3.775
       3.687
       2.914
       1.536
      -0.228
      -1.981
      -3.264
      -3.788
      -3.640
      -3.238
      -3.026
      -3.109
      -3.087
      -2.269
      -0.155
       3.100
       6.610
       9.186
      10.041
       9.261
       7.684
       6.254
       5.406
       4.918
       4.288
       3.227
       1.852
       0.483
      -0.703
      -1.826
      -3.136
      -4.708
      -6.293
      -7.480
      -8.005
      -7.922
      -7.486
      -6.885
      -6.063
      -4.801
      -2.953
      -0.644
       1.732
       3.699
       4.936
       5.431
       5.475
       5.488
       5.751
       6.193
       6.387
       5.773
       4.003
       1.179
      -2.153
      -5.235
      -7.425
      -8.433
      -8.401
      -7.805
      -7.248
      -7.212
      -7.849
      -8.897
      -9.765
      -9.792
      -8.555
      -6.108
      -2.985
       0.025
       2.215
       3.245
       3.255
       2.739
       2.240
       2.023
       1.960
       1.741
       1.240
       0.700
       0.550
       1.028
       1.942
       2.786
       3.083
       2.679
       1.787
       0.798
       0.089
      -0.071
       0.504
       1.882
       3.918
       6.167
       7.967
       8.681
       7.999
       6.140
       3.825
       1.991
       1.328
       1.895
       3.059
       3.829
       3.415
       1.693
      -0.680
      -2.579
      -3.021
      -1.768
       0.434
       2.174
       2.162
       0.038
      -3.323
      -6.261
      -7.305
      -6.046
      -3.344
      -0.741
       0.518
       0.169
      -1.106
      -2.332
      -2.919
      -2.860
      -2.423
      -1.755
      -0.819
       0.366
       1.513
       2.126
       1.818
       0.635
      -0.868
      -1.899
      -1.896
      -0.901
       0.420
       1.147
       0.663
      -0.959
      -2.990
      -4.466
      -4.726
      -3.735
      -2.044
      -0.440
       0.517
       0.817
       0.955
       1.501
       2.615
       3.909
       4.777
       4.900
       4.456
       3.889
       3.467
       3.078
       2.420
       1.370
       0.165
      -0.728
      -0.942
      -0.425
       0.566
       1.651
       2.516
       2.990
       3.037
       2.740
       2.296
       1.993
       2.083
       2.590
       3.202
       3.387
       2.687
       0.995
      -1.375
      -3.841
      -5.847
      -7.139
      -7.874
      -8.453
      -9.156
      -9.866
     -10.119
      -9.460
      -7.800
      -5.490
      -3.064
      -0.859
       1.177
       3.325
       5.698
       7.934
       9.293
       9.159
       7.549
       5.198
       3.106
       1.867
       1.303
       0.680
      -0.651
      -2.703
      -4.827
      -6.204
      -6.420
      -5.679
      -4.555
      -3.538
      -2.778
      -2.159
      -1.531
      -0.861
      -0.177
       0.533
       1.294
       2.000
       2.347
       2.021
       1.016
      -0.200
      -0.922
      -0.659
       0.526
       2.067
       3.259
       3.688
       3.444
       3.040
       3.072
       3.849
       5.186
       6.485
