Origin Time       11/8/2009 21:43:39 
Lat.              24.4 N 
Long.             94.8 E 
Depth (Km)         22.0
Magnitude         5.6
 Region           MYANMAR-INDIA(MANIPUR)BORDER                                     
 Above details taken from IMD 
     
Station Code      TEJ
Station Lat.       26.619  N
Station Long.      92.797  E
Station Height(m)   76.0
Site Class        B   Vs30 between 375 m/sec to 700 m/sec *  
Record Time       11.08.2009 21:44:49.324
Sampling Rate     200. Hz
 Record Duration   65.305 Sec.
 Direction         E-W (E positive)
Max. Acceleration      6.191 cm/sec**2
     
  * For reference see Site Classification link of website 
     
 Base Line Corrected and Low Pass Filtered (Cut Off at 35 Hz) Time History
 Acceleration data in cm/sec**2
    
[...]
      -0.408
      -0.466
      -0.490
      -0.467
      -0.399
      -0.313
      -0.238
      -0.187
      -0.140
      -0.073
       0.016
       0.099
       0.139
       0.119
       0.050
      -0.038
      -0.105
      -0.106
      -0.014
       0.156
       0.345
       0.478
       0.513
       0.458
       0.358
       0.265
       0.204
       0.173
       0.145
       0.091
       0.001
      -0.102
      -0.170
      -0.171
      -0.112
      -0.037
       0.015
       0.036
       0.041
       0.046
       0.055
       0.059
       0.053
       0.032
      -0.003
      -0.046
      -0.083
      -0.090
      -0.054
       0.018
       0.097
       0.148
       0.148
       0.097
       0.014
      -0.077
      -0.159
      -0.223
      -0.263
      -0.269
      -0.229
      -0.140
      -0.021
       0.088
       0.148
       0.145
       0.094
       0.038
       0.019
       0.055
       0.129
       0.205
       0.249
       0.250
       0.222
       0.184
       0.152
       0.133
       0.128
       0.133
       0.145
       0.157
       0.160
       0.140
       0.082
      -0.028
      -0.186
      -0.363
      -0.508
      -0.568
      -0.517
      -0.373
      -0.189
      -0.024
       0.082
       0.118
       0.096
       0.045
      -0.003
      -0.026
      -0.028
      -0.035
      -0.076
      -0.146
      -0.200
      -0.182
      -0.075
       0.076
       0.188
       0.197
       0.101
      -0.046
      -0.166
      -0.200
      -0.144
      -0.050
       0.007
      -0.027
      -0.142
      -0.275
      -0.350
      -0.322
      -0.195
      -0.012
       0.177
       0.332
       0.435
       0.486
       0.495
       0.465
       0.394
       0.280
       0.141
       0.021
      -0.031
       0.006
       0.103
       0.188
       0.192
       0.091
      -0.077
      -0.239
      -0.324
      -0.307
      -0.211
      -0.087
       0.018
       0.084
       0.111
       0.111
       0.093
       0.067
       0.043
       0.026
       0.012
      -0.013
      -0.065
      -0.143
      -0.219
      -0.247
      -0.188
      -0.052
       0.098
       0.172
       0.109
      -0.077
      -0.300
      -0.445
      -0.430
      -0.251
       0.026
       0.300
       0.491
       0.567
       0.548
       0.474
       0.367
       0.220
       0.027
      -0.188
      -0.359
      -0.423
      -0.361
      -0.219
      -0.073
       0.030
       0.095
       0.152
       0.215
       0.256
       0.243
       0.173
       0.083
       0.027
       0.029
       0.076
       0.128
       0.141
       0.097
       0.004
      -0.103
      -0.180
      -0.201
      -0.168
      -0.107
      -0.040
       0.019
       0.066
       0.100
       0.110
       0.088
       0.036
      -0.029
      -0.077
      -0.086
      -0.055
      -0.016
      -0.007
      -0.046
      -0.113
      -0.155
      -0.124
      -0.013
       0.122
       0.191
       0.135
      -0.038
      -0.259
      -0.442
      -0.548
      -0.588
      -0.586
      -0.540
      -0.419
      -0.205
       0.063
       0.291
       0.379
       0.281
       0.033
      -0.261
      -0.483
      -0.551
      -0.458
      -0.270
      -0.077
       0.054
       0.108
       0.107
       0.087
       0.070
       0.068
       0.089
       0.134
       0.194
       0.244
       0.255
       0.206
       0.093
      -0.066
      -0.236
      -0.362
      -0.379
      -0.244
       0.020
       0.319
       0.527
       0.565
       0.458
       0.316
       0.255
       0.316
       0.445
       0.540
       0.515
       0.351
       0.092
      -0.172
      -0.352
      -0.397
      -0.312
      -0.154
       0.011
       0.133
       0.191
       0.180
       0.102
      -0.026
      -0.169
      -0.279
      -0.316
      -0.276
      -0.199
      -0.143
      -0.150
      -0.211
      -0.266
      -0.244
      -0.110
       0.100
       0.308
       0.443
       0.476
       0.418
       0.295
       0.126
      -0.068
      -0.256
      -0.392
      -0.438
      -0.386
      -0.270
      -0.155
      -0.094
      -0.098
      -0.134
      -0.158
      -0.146
      -0.094
      -0.001
       0.126
       0.254
       0.320
       0.265
       0.089
      -0.140
      -0.320
      -0.375
      -0.286
      -0.085
       0.179
       0.451
       0.682
       0.836
       0.896
       0.868
       0.771
       0.619
       0.422
       0.192
      -0.028
      -0.181
      -0.222
      -0.167
      -0.077
      -0.014
       0.025
       0.103
       0.272
       0.506
       0.701
       0.738
       0.570
       0.258
      -0.066
      -0.272
      -0.311
      -0.234
      -0.158
      -0.185
      -0.356
      -0.627
      -0.903
      -1.088
      -1.125
      -1.020
      -0.829
      -0.617
      -0.435
      -0.300
      -0.206
      -0.141
      -0.100
      -0.082
      -0.078
      -0.073
      -0.052
      -0.013
       0.034
       0.083
       0.139
       0.224
       0.345
       0.467
       0.515
       0.413
       0.141
      -0.233
      -0.579
      -0.762
      -0.710
      -0.441
      -0.047
       0.353
       0.668
       0.849
       0.891
       0.815
       0.656
       0.466
       0.310
       0.252
       0.321
       0.483
       0.647
       0.719
       0.662
       0.513
       0.345
       0.211
       0.122
       0.066
       0.024
      -0.022
      -0.087
      -0.177
      -0.280
      -0.378
      -0.469
      -0.566
      -0.670
      -0.747
      -0.750
      -0.665
      -0.540
      -0.466
      -0.502
      -0.631
      -0.763
      -0.797
      -0.698
      -0.513
      -0.334
      -0.230
      -0.195
      -0.156
      -0.024
       0.234
       0.564
       0.869
       1.081
       1.206
       1.295
       1.377
       1.421
       1.367
       1.188
       0.919
       0.632
       0.379
       0.168
      -0.022
      -0.203
      -0.363
      -0.462
      -0.465
      -0.366
      -0.198
      -0.016
       0.135
       0.247
       0.336
       0.408
       0.442
       0.392
       0.229
      -0.035
      -0.346
      -0.658
      -0.950
      -1.227
      -1.469
      -1.621
      -1.618
      -1.454
      -1.210
      -1.032
      -1.038
      -1.244
      -1.544
      -1.770
      -1.780
      -1.537
      -1.120
      -0.680
      -0.353
      -0.192
      -0.154
      -0.158
      -0.151
      -0.144
      -0.179
      -0.277
      -0.406
      -0.503
      -0.522
      -0.459
      -0.333
      -0.140
       0.161
       0.613
       1.196
       1.806
       2.291
       2.538
       2.527
       2.330
       2.064
       1.840
       1.721
       1.706
       1.744
       1.772
       1.748
       1.664
       1.532
       1.372
       1.204
       1.055
       0.942
       0.855
       0.753
       0.588
       0.339
       0.038
      -0.245
      -0.447
      -0.557
      -0.632
      -0.754
      -0.969
      -1.239
      -1.459
      -1.538
      -1.482
      -1.412
      -1.488
      -1.794
      -2.257
      -2.685
      -2.881
      -2.779
      -2.470
      -2.131
      -1.904
      -1.819
      -1.813
      -1.784
      -1.662
      -1.432
      -1.129
      -0.811
      -0.525
      -0.297
      -0.125
       0.008
       0.118
       0.219
       0.316
       0.409
       0.488
       0.550
       0.604
       0.678
       0.812
       1.038
       1.349
       1.689
       1.962
       2.094
       2.086
       2.027
       2.034
       2.150
       2.307
       2.384
       2.315
       2.143
       1.988
       1.943
       2.011
       2.104
       2.112
       1.973
       1.723
       1.479
       1.363
       1.413
       1.553
       1.638
       1.554
       1.285
       0.911
       0.545
       0.268
       0.087
      -0.051
      -0.236
      -0.550
      -1.018
      -1.577
      -2.097
      -2.455
      -2.609
      -2.617
      -2.579
      -2.556
      -2.537
      -2.463
      -2.285
      -2.012
      -1.722
      -1.530
      -1.535
      -1.765
      -2.138
      -2.501
      -2.705
      -2.688
      -2.496
      -2.238
      -2.002
      -1.819
      -1.667
      -1.517
      -1.340
      -1.107
      -0.784
      -0.343
       0.201
       0.784
       1.304
       1.651
       1.736
       1.520
       1.048
       0.469
       0.000
      -0.150
       0.116
       0.737
       1.531
       2.289
       2.851
       3.134
       3.108
       2.784
       2.227
       1.578
       1.023
       0.714
       0.681
       0.809
       0.902
       0.805
       0.511
       0.166
      -0.037
       0.011
       0.259
       0.546
       0.722
       0.751
       0.697
       0.638
       0.585
       0.484
       0.290
       0.039
      -0.142
      -0.103
       0.248
       0.888
       1.668
       2.362
       2.761
       2.759
       2.404
       1.851
       1.279
       0.804
       0.444
       0.154
      -0.129
      -0.439
      -0.759
      -1.034
      -1.204
      -1.250
      -1.210
      -1.160
      -1.168
      -1.274
      -1.497
      -1.852
      -2.349
      -2.967
      -3.628
      -4.198
      -4.529
      -4.531
      -4.218
      -3.704
      -3.143
      -2.657
      -2.290
      -2.008
      -1.739
      -1.429
      -1.068
      -0.676
      -0.271
       0.155
       0.615
       1.091
       1.507
       1.743
       1.693
       1.327
       0.740
       0.126
      -0.297
      -0.387
      -0.132
       0.363
       0.945
       1.479
       1.881
       2.123
       2.231
       2.285
       2.404
       2.701
       3.218
       3.889
       4.541
       4.954
       4.944
       4.440
       3.526
       2.426
       1.433
       0.790
       0.603
       0.807
       1.207
       1.555
       1.616
       1.227
       0.346
      -0.902
      -2.239
      -3.324
      -3.893
      -3.888
      -3.463
      -2.893
      -2.428
      -2.177
      -2.098
      -2.059
      -1.939
      -1.692
      -1.357
      -1.011
      -0.724
      -0.532
      -0.455
      -0.489
      -0.589
      -0.655
      -0.573
      -0.304
       0.053
       0.294
       0.241
      -0.130
      -0.649
      -1.051
      -1.147
      -0.954
      -0.678
      -0.567
      -0.747
      -1.174
      -1.696
      -2.156
      -2.435
      -2.444
      -2.124
      -1.494
      -0.708
      -0.037
       0.231
      -0.048
      -0.789
      -1.717
      -2.514
      -2.986
      -3.138
      -3.104
      -3.011
      -2.857
      -2.510
      -1.815
      -0.717
       0.658
       2.030
       3.070
       3.544
       3.426
       2.922
       2.381
       2.137
       2.354
       2.956
       3.673
       4.172
       4.204
       3.713
       2.846
       1.878
       1.097
       0.706
       0.775
       1.239
       1.926
       2.608
       3.061
       3.133
       2.786
       2.120
       1.353
       0.731
       0.428
       0.459
       0.686
       0.911
       0.981
       0.840
       0.505
       0.008
      -0.641
      -1.429
      -2.289
      -3.083
      -3.650
      -3.910
      -3.925
      -3.857
      -3.839
      -3.870
      -3.803
      -3.459
      -2.769
      -1.853
      -0.958
      -0.330
      -0.085
      -0.169
      -0.397
      -0.553
      -0.492
      -0.216
       0.119
       0.306
       0.220
      -0.102
      -0.495
      -0.792
      -0.919
      -0.895
      -0.766
      -0.549
      -0.226
       0.206
       0.695
       1.134
       1.423
       1.567
       1.702
       2.021
       2.611
       3.348
       3.942
       4.118
       3.796
       3.140
       2.458
       2.022
       1.929
       2.068
       2.205
       2.128
       1.761
       1.205
       0.671
       0.365
       0.374
       0.618
       0.892
       0.981
       0.797
       0.440
       0.128
       0.045
       0.220
       0.515
       0.727
       0.725
       0.523
       0.263
       0.124
       0.195
       0.411
       0.580
       0.494
       0.041
      -0.741
      -1.684
      -2.550
      -3.093
      -3.140
      -2.677
      -1.897
      -1.135
      -0.717
      -0.811
      -1.374
      -2.229
      -3.164
      -3.992
      -4.564
      -4.790
      -4.668
      -4.306
      -3.865
      -3.447
      -3.023
      -2.475
      -1.723
      -0.818
       0.068
       0.755
       1.143
       1.236
       1.096
       0.813
       0.498
       0.279
       0.260
       0.458
       0.770
       1.030
       1.111
       1.011
       0.848
       0.783
       0.918
       1.233
       1.593
       1.808
       1.746
       1.422
       1.021
       0.805
       0.944
       1.407
       1.998
       2.527
       2.946
       3.343
       3.811
       4.329
       4.754
       4.914
       4.708
       4.160
       3.397
       2.601
       1.925
       1.433
       1.066
       0.694
       0.214
      -0.359
      -0.903
      -1.290
      -1.505
      -1.674
      -1.966
      -2.463
      -3.113
      -3.779
      -4.329
      -4.674
      -4.762
      -4.577
      -4.163
      -3.654
      -3.234
      -3.052
      -3.122
      -3.303
      -3.385
      -3.234
      -2.911
      -2.652
      -2.720
      -3.200
      -3.913
      -4.503
      -4.666
      -4.327
      -3.645
      -2.865
      -2.155
      -1.558
      -1.053
      -0.622
      -0.249
       0.123
       0.615
       1.353
       2.373
       3.553
       4.640
       5.386
       5.700
       5.718
       5.705
       5.851
       6.101
       6.191
       5.859
       5.073
       4.083
       3.253
       2.829
       2.814
       3.015
       3.197
       3.218
       3.077
       2.889
       2.797
       2.864
       3.012
       3.057
       2.829
       2.284
       1.510
       0.649
      -0.191
      -0.946
      -1.561
      -1.977
      -2.168
      -2.185
      -2.155
      -2.214
      -2.434
      -2.794
      -3.207
      -3.586
      -3.894
      -4.161
      -4.447
      -4.783
      -5.139
      -5.417
      -5.493
      -5.253
      -4.633
      -3.663
      -2.507
      -1.435
      -0.728
      -0.525
      -0.753
      -1.166
      -1.497
      -1.593
      -1.453
      -1.178
      -0.888
      -0.660
      -0.507
      -0.377
      -0.183
       0.134
       0.571
       1.054
       1.490
       1.807
       1.988
       2.059
       2.082
       2.116
       2.182
       2.233
       2.175
       1.929
       1.504
       1.019
       0.653
       0.546
       0.712
       1.034
       1.336
       1.492
       1.505
       1.494
       1.620
       1.977
       2.543
       3.179
       3.689
       3.893
       3.686
       3.079
       2.176
       1.131
       0.099
      -0.775
      -1.357
      -1.548
      -1.346
      -0.897
      -0.448
      -0.224
      -0.310
      -0.616
      -0.943
      -1.097
      -0.974
      -0.600
      -0.109
       0.329
       0.592
       0.672
       0.659
       0.655
       0.684
       0.666
       0.490
       0.122
      -0.361
      -0.822
      -1.157
      -1.343
      -1.418
      -1.441
      -1.476
      -1.571
      -1.719
      -1.802
      -1.627
      -1.058
      -0.160
       0.772
       1.367
       1.392
       0.874
       0.060
      -0.737
      -1.284
      -1.494
      -1.402
      -1.112
      -0.751
      -0.439
      -0.272
      -0.309
      -0.563
      -0.993
      -1.500
      -1.942
      -2.176
      -2.134
      -1.880
      -1.602
      -1.516
      -1.734
      -2.191
      -2.688
      -3.013
      -3.050
      -2.807
      -2.363
      -1.799
      -1.161
      -0.460
       0.318
       1.181
       2.100
       2.989
       3.728
       4.217
       4.435
       4.442
       4.332
       4.179
       4.004
       3.788
       3.508
       3.167
       2.805
       2.488
       2.280
       2.209
       2.244
       2.307
       2.326
       2.296
       2.284
       2.364
       2.546
       2.738
       2.785
       2.535
       1.922
       1.002
      -0.067
      -1.097
      -1.941
      -2.532
      -2.870
      -3.000
      -2.986
      -2.921
      -2.900
      -2.986
      -3.165
      -3.363
      -3.512
      -3.620
      -3.763
      -4.019
      -4.390
      -4.780
      -5.035
      -5.028
      -4.720
      -4.174
      -3.512
      -2.858
      -2.305
      -1.912
      -1.719
      -1.738
      -1.925
      -2.147
      -2.208
      -1.924
      -1.225
      -0.199
       0.943
       1.984
       2.794
       3.355
       3.713
       3.907
       3.942
       3.829
       3.620
       3.414
       3.323
       3.424
       3.736
       4.206
       4.706
       5.064
       5.137
       4.878
       4.346
       3.660
       2.923
       2.190
       1.473
       0.762
       0.037
      -0.717
      -1.478
      -2.170
      -2.670
      -2.878
      -2.787
      -2.501
      -2.158
      -1.820
      -1.457
      -1.045
      -0.673
      -0.532
      -0.777
      -1.378
      -2.102
      -2.626
      -2.717
      -2.346
      -1.688
      -1.020
      -0.553
      -0.333
      -0.251
      -0.157
       0.023
       0.253
       0.453
       0.580
       0.641
       0.638
       0.535
       0.284
      -0.093
      -0.465
      -0.659
      -0.576
      -0.275
       0.063
       0.287
       0.402
       0.556
       0.898
       1.412
       1.899
       2.102
       1.869
       1.236
       0.393
      -0.408
      -0.948
      -1.113
      -0.925
      -0.528
      -0.131
       0.077
       0.005
      -0.301
      -0.698
      -1.035
      -1.237
      -1.327
      -1.374
      -1.423
      -1.454
      -1.401
      -1.189
      -0.770
      -0.145
       0.634
       1.459
       2.184
       2.675
       2.872
       2.832
       2.699
       2.620
       2.658
       2.761
       2.808
       2.671
       2.266
       1.586
       0.736
      -0.068
      -0.558
      -0.534
       0.014
       0.861
       1.642
       2.026
       1.881
       1.302
       0.505
      -0.338
      -1.178
      -2.054
      -2.982
      -3.870
      -4.535
      -4.799
      -4.601
      -4.043
      -3.347
      -2.737
      -2.329
      -2.091
      -1.906
      -1.688
      -1.464
      -1.331
      -1.344
      -1.426
      -1.414
      -1.187
      -0.771
      -0.314
       0.047
       0.299
       0.565
       0.994
       1.600
       2.196
       2.473
       2.198
       1.389
       0.345
      -0.503
      -0.820
      -0.526
       0.201
       1.050
       1.746
       2.150
       2.286
       2.305
       2.396
       2.676
       3.115
       3.534
       3.703
       3.481
       2.898
       2.144
       1.458
       0.997
       0.761
       0.627
       0.452
       0.170
      -0.184
      -0.534
      -0.836
      -1.114
      -1.412
      -1.735
      -2.019
      -2.172
      -2.145
      -1.966
      -1.721
      -1.528
      -1.499
      -1.701
      -2.084
      -2.458
      -2.564
      -2.247
      -1.593
      -0.909
      -0.547
      -0.683
      -1.215
      -1.843
      -2.264
      -2.338
      -2.138
      -1.857
      -1.666
      -1.600
      -1.546
      -1.340
      -0.903
      -0.326
       0.185
       0.467
       0.509
       0.447
       0.454
       0.641
       1.038
       1.617
       2.315
       3.010
       3.521
