Origin Time       21/9/2009 8:53:04	  UTC
Lat.              27.3 N	
Long.             91.5 E	
Depth (Km)          8.0
Magnitude         6.2
 Region           BHUTAN                                                           
 Above details taken from IMD 
    
Station Code      TEJ
Station Lat.       26.619  N
Station Long.      92.797  E
Station Height(m)   76.0
Site Class        B   Vs30 between 375 m/sec to 700 m/sec *  
Record Time       21.09.2009 08:53:34.909 UTC
Sampling Rate     200. Hz
 Record Duration   79.815 Sec.
 Direction         N-S (N positive)
Max. Acceleration     16.966 cm/sec**2
     
  * For reference see Site Classification link of website 
     
 Base Line Corrected and Low Pass Filtered (Cut Off at 35 Hz) Time History
 Acceleration data in cm/sec**2
    
[...]
      -0.714
      -0.644
      -0.611
      -0.646
      -0.759
      -0.934
      -1.128
      -1.280
      -1.334
      -1.253
      -1.044
      -0.762
      -0.490
      -0.311
      -0.259
      -0.299
      -0.349
      -0.326
      -0.196
       0.010
       0.221
       0.365
       0.407
       0.354
       0.251
       0.148
       0.085
       0.067
       0.067
       0.041
      -0.039
      -0.167
      -0.304
      -0.394
      -0.398
      -0.314
      -0.180
      -0.045
       0.059
       0.134
       0.209
       0.316
       0.471
       0.662
       0.857
       1.018
       1.113
       1.128
       1.070
       0.964
       0.849
       0.770
       0.759
       0.829
       0.964
       1.125
       1.259
       1.321
       1.294
       1.200
       1.090
       1.020
       1.019
       1.080
       1.166
       1.231
       1.241
       1.185
       1.076
       0.944
       0.813
       0.691
       0.565
       0.408
       0.199
      -0.070
      -0.391
      -0.746
      -1.095
      -1.387
      -1.566
      -1.601
      -1.509
      -1.357
      -1.229
      -1.191
      -1.259
      -1.391
      -1.520
      -1.589
      -1.581
      -1.529
      -1.485
      -1.482
      -1.504
      -1.492
      -1.372
      -1.104
      -0.715
      -0.304
       0.011
       0.154
       0.134
       0.035
      -0.033
      -0.005
       0.103
       0.220
       0.270
       0.229
       0.141
       0.079
       0.098
       0.192
       0.299
       0.341
       0.271
       0.103
      -0.098
      -0.242
      -0.261
      -0.136
       0.098
       0.372
       0.613
       0.776
       0.852
       0.870
       0.872
       0.903
       0.987
       1.125
       1.291
       1.448
       1.554
       1.575
       1.507
       1.375
       1.234
       1.142
       1.120
       1.133
       1.105
       0.966
       0.702
       0.363
       0.039
      -0.196
      -0.316
      -0.350
      -0.352
      -0.369
      -0.419
      -0.497
      -0.582
      -0.647
      -0.659
      -0.591
      -0.438
      -0.236
      -0.064
      -0.007
      -0.106
      -0.322
      -0.555
      -0.700
      -0.710
      -0.620
      -0.519
      -0.491
      -0.564
      -0.706
      -0.855
      -0.954
      -0.982
      -0.943
      -0.855
      -0.733
      -0.579
      -0.398
      -0.205
      -0.032
       0.089
       0.140
       0.135
       0.109
       0.096
       0.111
       0.136
       0.138
       0.083
      -0.043
      -0.232
      -0.456
      -0.672
      -0.834
      -0.911
      -0.904
      -0.850
      -0.800
      -0.785
      -0.795
      -0.790
      -0.730
      -0.608
      -0.451
      -0.301
      -0.182
      -0.096
      -0.023
       0.060
       0.172
       0.318
       0.491
       0.663
       0.794
       0.852
       0.844
       0.809
       0.801
       0.846
       0.930
       1.015
       1.081
       1.129
       1.173
       1.211
       1.214
       1.151
       1.016
       0.848
       0.707
       0.644
       0.660
       0.712
       0.735
       0.685
       0.568
       0.426
       0.309
       0.243
       0.222
       0.216
       0.200
       0.163
       0.103
       0.017
      -0.103
      -0.259
      -0.432
      -0.590
      -0.705
      -0.775
      -0.820
      -0.864
      -0.909
      -0.928
      -0.888
      -0.771
      -0.599
      -0.421
      -0.274
      -0.162
      -0.055
       0.075
       0.225
       0.357
       0.418
       0.370
       0.210
      -0.027
      -0.284
      -0.502
      -0.644
      -0.704
      -0.712
      -0.717
      -0.766
      -0.887
      -1.065
      -1.245
      -1.359
      -1.357
      -1.244
      -1.073
      -0.908
      -0.781
      -0.674
      -0.538
      -0.339
      -0.087
       0.163
       0.342
       0.406
       0.355
       0.232
       0.103
       0.027
       0.032
       0.103
       0.193
       0.247
       0.231
       0.159
       0.090
       0.094
       0.216
       0.442
       0.707
       0.931
       1.057
       1.078
       1.035
       0.983
       0.965
       0.995
       1.058
       1.121
       1.148
       1.120
       1.041
       0.949
       0.897
       0.922
       1.015
       1.114
       1.129
       1.002
       0.750
       0.469
       0.276
       0.231
       0.279
       0.284
       0.121
      -0.228
      -0.645
      -0.950
      -1.026
      -0.891
      -0.684
      -0.560
      -0.593
      -0.742
      -0.887
      -0.918
      -0.793
      -0.558
      -0.313
      -0.162
      -0.159
      -0.294
      -0.495
      -0.673
      -0.758
      -0.732
      -0.617
      -0.466
      -0.325
      -0.225
      -0.176
      -0.178
      -0.227
      -0.314
      -0.424
      -0.533
      -0.610
      -0.628
      -0.575
      -0.459
      -0.312
      -0.186
      -0.123
      -0.132
      -0.178
      -0.198
      -0.135
       0.030
       0.260
       0.491
       0.658
       0.726
       0.692
       0.582
       0.434
       0.291
       0.184
       0.130
       0.129
       0.172
       0.240
       0.307
       0.346
       0.337
       0.284
       0.217
       0.178
       0.193
       0.243
       0.276
       0.238
       0.122
      -0.017
      -0.089
      -0.027
       0.158
       0.388
       0.559
       0.598
       0.487
       0.248
      -0.075
      -0.421
      -0.712
      -0.869
      -0.854
      -0.701
      -0.507
      -0.385
      -0.398
      -0.517
      -0.646
      -0.682
      -0.581
      -0.389
      -0.209
      -0.133
      -0.188
      -0.318
      -0.428
      -0.446
      -0.369
      -0.255
      -0.184
      -0.209
      -0.326
      -0.478
      -0.586
      -0.587
      -0.462
      -0.246
      -0.009
       0.171
       0.247
       0.219
       0.137
       0.072
       0.082
       0.186
       0.355
       0.534
       0.665
       0.711
       0.665
       0.560
       0.462
       0.448
       0.554
       0.746
       0.930
       1.012
       0.970
       0.869
       0.817
       0.883
       1.045
       1.202
       1.246
       1.122
       0.861
       0.549
       0.268
       0.051
      -0.124
      -0.305
      -0.519
      -0.747
      -0.927
      -0.988
      -0.897
      -0.685
      -0.437
      -0.253
      -0.200
      -0.279
      -0.430
      -0.563
      -0.603
      -0.519
      -0.344
      -0.155
      -0.036
      -0.036
      -0.137
      -0.253
      -0.281
      -0.161
       0.072
       0.305
       0.409
       0.317
       0.069
      -0.216
      -0.409
      -0.447
      -0.353
      -0.213
      -0.114
      -0.101
      -0.159
      -0.240
      -0.299
      -0.313
      -0.282
      -0.215
      -0.121
      -0.013
       0.101
       0.209
       0.301
       0.371
       0.410
       0.407
       0.353
       0.252
       0.141
       0.070
       0.076
       0.150
       0.231
       0.239
       0.127
      -0.093
      -0.350
      -0.556
      -0.649
      -0.617
      -0.493
      -0.321
      -0.134
       0.064
       0.285
       0.534
       0.792
       1.012
       1.140
       1.140
       1.014
       0.798
       0.554
       0.339
       0.191
       0.119
       0.111
       0.151
       0.221
       0.305
       0.381
       0.424
       0.421
       0.383
       0.345
       0.342
       0.379
       0.423
       0.419
       0.335
       0.184
       0.017
      -0.108
      -0.167
      -0.181
      -0.201
      -0.276
      -0.430
      -0.651
      -0.897
      -1.114
      -1.252
      -1.287
      -1.242
      -1.173
      -1.143
      -1.184
      -1.275
      -1.362
      -1.392
      -1.344
      -1.227
      -1.067
      -0.893
      -0.731
      -0.597
      -0.495
      -0.416
      -0.334
      -0.223
      -0.070
       0.116
       0.303
       0.446
       0.502
       0.456
       0.329
       0.173
       0.038
      -0.059
      -0.140
      -0.244
      -0.377
      -0.499
      -0.536
      -0.431
      -0.187
       0.125
       0.392
       0.511
       0.432
       0.180
      -0.156
      -0.463
      -0.656
      -0.709
      -0.660
      -0.583
      -0.552
      -0.599
      -0.696
      -0.755
      -0.673
      -0.388
       0.058
       0.522
       0.822
       0.851
       0.647
       0.382
       0.261
       0.393
       0.728
       1.095
       1.315
       1.312
       1.149
       0.981
       0.951
       1.113
       1.407
       1.709
       1.907
       1.962
       1.909
       1.813
       1.714
       1.599
       1.438
       1.220
       0.987
       0.807
       0.722
       0.713
       0.709
       0.636
       0.467
       0.225
      -0.032
      -0.252
      -0.404
      -0.485
      -0.513
      -0.514
      -0.513
      -0.523
      -0.542
      -0.562
      -0.575
      -0.586
      -0.612
      -0.669
      -0.753
      -0.844
      -0.919
      -0.978
      -1.047
      -1.157
      -1.312
      -1.475
      -1.595
      -1.639
      -1.619
      -1.574
      -1.533
      -1.489
      -1.401
      -1.226
      -0.950
      -0.602
      -0.243
       0.062
       0.266
       0.348
       0.317
       0.223
       0.149
       0.183
       0.368
       0.667
       0.981
       1.210
       1.317
       1.338
       1.357
       1.446
       1.621
       1.837
       2.018
       2.104
       2.089
       2.015
       1.942
       1.898
       1.866
       1.804
       1.676
       1.478
       1.243
       1.006
       0.781
       0.552
       0.292
      -0.002
      -0.302
      -0.567
      -0.778
      -0.951
      -1.126
      -1.332
      -1.562
      -1.784
      -1.952
      -2.030
      -2.002
      -1.880
      -1.706
      -1.546
      -1.463
      -1.484
      -1.577
      -1.659
      -1.640
      -1.478
      -1.214
      -0.951
      -0.792
      -0.772
      -0.839
      -0.887
      -0.823
      -0.630
      -0.367
      -0.136
      -0.017
      -0.024
      -0.102
      -0.170
      -0.169
      -0.094
       0.013
       0.102
       0.152
       0.185
       0.252
       0.400
       0.648
       0.977
       1.347
       1.720
       2.076
       2.426
       2.796
       3.214
       3.689
       4.214
       4.765
       5.311
       5.821
       6.264
       6.616
       6.858
       6.984
       6.999
       6.926
       6.795
       6.635
       6.469
       6.295
       6.091
       5.806
       5.378
       4.754
       3.914
       2.874
       1.680
       0.395
      -0.916
      -2.195
      -3.390
      -4.457
      -5.368
      -6.115
      -6.720
      -7.230
      -7.694
      -8.146
      -8.592
      -9.010
      -9.367
      -9.633
      -9.794
      -9.853
      -9.832
      -9.748
      -9.608
      -9.400
      -9.112
      -8.746
      -8.324
      -7.875
      -7.410
      -6.916
      -6.368
      -5.741
      -5.036
      -4.271
      -3.471
      -2.662
      -1.863
      -1.093
      -0.361
       0.337
       1.021
       1.710
       2.398
       3.050
       3.614
       4.050
       4.351
       4.554
       4.710
       4.858
       5.007
       5.144
       5.270
       5.407
       5.585
       5.816
       6.075
       6.323
       6.541
       6.751
       7.000
       7.316
       7.671
       7.975
       8.123
       8.055
       7.798
       7.442
       7.083
       6.766
       6.472
       6.131
       5.673
       5.052
       4.267
       3.349
       2.351
       1.337
       0.370
      -0.503
      -1.268
      -1.948
      -2.582
      -3.182
      -3.713
      -4.098
      -4.259
      -4.162
      -3.839
      -3.365
      -2.821
      -2.262
      -1.719
      -1.218
      -0.798
      -0.504
      -0.379
      -0.456
      -0.760
      -1.303
      -2.068
      -3.002
      -4.024
      -5.047
      -6.005
      -6.864
      -7.616
      -8.266
      -8.830
      -9.326
      -9.772
     -10.167
     -10.486
     -10.681
     -10.703
     -10.525
     -10.153
      -9.618
      -8.958
      -8.203
      -7.374
      -6.498
      -5.604
      -4.721
      -3.867
      -3.042
      -2.240
      -1.452
      -0.662
       0.164
       1.076
       2.129
       3.345
       4.694
       6.091
       7.412
       8.540
       9.406
      10.012
      10.420
      10.708
      10.924
      11.054
      11.045
      10.859
      10.513
      10.093
       9.716
       9.488
       9.470
       9.667
      10.033
      10.483
      10.916
      11.240
      11.395
      11.355
      11.117
      10.687
      10.069
       9.260
       8.264
       7.094
       5.787
       4.389
       2.940
       1.469
      -0.004
      -1.437
      -2.765
      -3.927
      -4.914
      -5.795
      -6.679
      -7.646
      -8.670
      -9.623
     -10.339
     -10.709
     -10.736
     -10.519
     -10.205
      -9.921
      -9.731
      -9.632
      -9.574
      -9.517
      -9.464
      -9.476
      -9.635
      -9.986
     -10.499
     -11.066
     -11.549
     -11.834
     -11.872
     -11.671
     -11.269
     -10.699
      -9.992
      -9.192
      -8.374
      -7.632
      -7.041
      -6.604
      -6.249
      -5.851
      -5.297
      -4.529
      -3.552
      -2.414
      -1.182
       0.084
       1.334
       2.533
       3.666
       4.739
       5.782
       6.825
       7.876
       8.895
       9.815
      10.590
      11.244
      11.868
      12.571
      13.398
      14.300
      15.161
      15.874
      16.392
      16.731
      16.921
      16.966
      16.839
      16.513
      15.978
      15.246
      14.329
      13.232
      11.967
      10.573
       9.117
       7.662
       6.228
       4.786
       3.302
       1.780
       0.267
      -1.178
      -2.523
      -3.769
      -4.929
      -6.001
      -6.967
      -7.818
      -8.580
      -9.303
     -10.032
     -10.777
     -11.513
     -12.200
     -12.813
     -13.347
     -13.824
     -14.265
     -14.660
     -14.957
     -15.064
     -14.897
     -14.408
     -13.596
     -12.489
     -11.123
      -9.555
      -7.885
      -6.252
      -4.784
      -3.542
      -2.498
      -1.580
      -0.746
      -0.027
       0.498
       0.778
       0.845
       0.817
       0.839
       1.005
       1.329
       1.767
       2.270
       2.835
       3.496
       4.284
       5.169
       6.053
       6.807
       7.339
       7.634
       7.753
       7.786
       7.797
       7.794
       7.740
       7.570
       7.226
       6.675
       5.929
       5.050
       4.141
       3.320
       2.685
       2.283
       2.096
       2.038
       1.990
       1.849
       1.580
       1.233
       0.910
       0.691
       0.572
       0.452
       0.194
      -0.274
      -0.896
      -1.496
      -1.857
      -1.829
      -1.395
      -0.666
       0.185
       1.006
       1.711
       2.268
       2.657
       2.841
       2.765
       2.400
       1.773
       0.972
       0.117
      -0.692
      -1.410
      -2.047
      -2.640
      -3.210
      -3.737
      -4.159
      -4.405
      -4.426
      -4.223
      -3.845
      -3.377
      -2.903
      -2.485
      -2.149
      -1.891
      -1.692
      -1.533
      -1.420
      -1.375
      -1.425
      -1.579
      -1.810
      -2.063
      -2.277
      -2.396
      -2.384
      -2.209
      -1.846
      -1.270
      -0.478
       0.487
       1.534
       2.546
       3.422
       4.116
       4.644
       5.053
       5.382
       5.625
       5.723
       5.593
       5.178
       4.490
       3.617
       2.687
       1.806
       1.010
       0.275
      -0.442
      -1.147
      -1.782
      -2.255
      -2.500
      -2.519
      -2.384
      -2.197
      -2.047
      -1.978
      -1.999
      -2.089
      -2.217
      -2.343
      -2.427
      -2.420
      -2.261
      -1.883
      -1.248
      -0.380
       0.627
       1.643
       2.562
       3.342
       3.998
       4.559
       5.031
       5.386
       5.586
       5.602
       5.427
       5.068
       4.540
       3.881
       3.159
       2.474
       1.914
       1.514
       1.239
       1.008
       0.742
       0.393
      -0.054
      -0.596
      -1.226
      -1.929
      -2.677
      -3.433
      -4.160
      -4.842
      -5.488
      -6.121
      -6.760
      -7.394
      -7.984
      -8.469
      -8.786
      -8.885
      -8.755
      -8.427
      -7.975
      -7.494
      -7.058
      -6.702
      -6.417
      -6.181
      -5.972
      -5.779
      -5.583
      -5.354
      -5.042
      -4.589
      -3.946
      -3.090
      -2.047
      -0.908
       0.187
       1.100
       1.766
       2.242
       2.694
       3.313
       4.215
       5.390
       6.727
       8.090
       9.380
      10.542
      11.534
      12.295
      12.732
      12.760
      12.333
      11.474
      10.282
       8.916
       7.560
       6.379
       5.479
       4.885
       4.545
       4.360
       4.213
       4.007
       3.672
       3.177
       2.519
       1.715
       0.788
      -0.235
      -1.328
      -2.470
      -3.645
      -4.839
      -6.032
      -7.182
      -8.225
      -9.091
      -9.737
     -10.178
     -10.474
     -10.697
     -10.873
     -10.980
     -10.971
     -10.828
     -10.586
     -10.302
     -10.007
      -9.675
      -9.247
      -8.684
      -8.005
      -7.274
      -6.551
      -5.838
      -5.069
      -4.154
      -3.026
      -1.690
      -0.212
       1.305
       2.765
       4.108
       5.320
       6.408
       7.363
       8.144
       8.683
       8.926
       8.873
       8.595
       8.204
       7.814
       7.492
       7.247
       7.044
       6.840
       6.622
       6.426
       6.329
       6.399
       6.658
       7.048
       7.454
       7.744
       7.827
       7.678
       7.335
       6.866
       6.331
       5.749
       5.089
       4.284
       3.271
       2.033
       0.617
      -0.856
      -2.219
      -3.312
      -4.049
      -4.467
      -4.716
      -4.973
      -5.348
      -5.830
      -6.316
      -6.703
      -6.975
      -7.214
      -7.540
      -8.024
      -8.640
      -9.292
      -9.872
     -10.322
     -10.640
     -10.848
     -10.955
     -10.940
     -10.767
     -10.389
      -9.774
      -8.918
      -7.876
      -6.772
      -5.767
      -4.988
      -4.464
      -4.107
      -3.754
      -3.241
      -2.470
      -1.425
      -0.158
       1.250
       2.726
       4.223
       5.729
       7.263
       8.849
      10.488
      12.127
      13.662
      14.957
      15.888
      16.380
      16.439
      16.154
      15.670
      15.132
      14.613
      14.073
      13.379
      12.384
      11.018
       9.340
       7.530
       5.815
       4.372
       3.252
       2.372
       1.585
       0.785
      -0.020
      -0.709
      -1.122
      -1.156
      -0.841
      -0.339
       0.117
       0.328
       0.227
      -0.115
      -0.547
      -0.947
      -1.297
      -1.680
      -2.215
      -2.962
      -3.879
      -4.837
      -5.693
      -6.380
      -6.940
      -7.483
      -8.099
      -8.784
      -9.434
      -9.897
     -10.052
      -9.865
      -9.398
      -8.769
      -8.096
      -7.455
      -6.868
      -6.315
      -5.770
      -5.220
      -4.686
      -4.203
      -3.800
      -3.481
      -3.216
