Origin Time       11/8/2009 21:43:39  UTC
Lat.              24.4 N 
Long.             94.8 E 
Depth (Km)         22.0
Magnitude         5.6
 Region           MYANMAR-INDIA(MANIPUR)BORDER                                     
 Above details taken from IMD 
    
Station Code      TEJ
Station Lat.       26.619  N
Station Long.      92.797  E
Station Height(m)   76.0
Site Class        B   Vs30 between 375 m/sec to 700 m/sec *  
Record Time       11.08.2009 21:44:49.324 UTC
Sampling Rate     200. Hz
 Record Duration   65.305 Sec.
 Direction         N-S (N positive)
Max. Acceleration      5.450 cm/sec**2
     
  * For reference see Site Classification link of website 
     
 Base Line Corrected and Low Pass Filtered (Cut Off at 35 Hz) Time History
 Acceleration data in cm/sec**2
    
[...]
      -0.518
      -0.421
      -0.258
      -0.061
       0.119
       0.227
       0.240
       0.186
       0.124
       0.107
       0.146
       0.206
       0.241
       0.228
       0.168
       0.073
      -0.053
      -0.204
      -0.351
      -0.440
      -0.425
      -0.308
      -0.145
      -0.013
       0.035
       0.000
      -0.072
      -0.128
      -0.134
      -0.096
      -0.043
      -0.014
      -0.030
      -0.080
      -0.126
      -0.126
      -0.067
       0.015
       0.053
       0.002
      -0.122
      -0.247
      -0.290
      -0.205
      -0.012
       0.219
       0.412
       0.513
       0.516
       0.457
       0.388
       0.357
       0.375
       0.410
       0.410
       0.335
       0.187
       0.020
      -0.086
      -0.069
       0.078
       0.290
       0.459
       0.485
       0.337
       0.069
      -0.206
      -0.382
      -0.410
      -0.317
      -0.181
      -0.084
      -0.079
      -0.172
      -0.323
      -0.465
      -0.526
      -0.467
      -0.308
      -0.121
       0.007
       0.031
      -0.031
      -0.126
      -0.204
      -0.247
      -0.258
      -0.245
      -0.217
      -0.189
      -0.182
      -0.202
      -0.233
      -0.241
      -0.202
      -0.125
      -0.042
       0.017
       0.038
       0.033
       0.017
      -0.004
      -0.032
      -0.069
      -0.100
      -0.093
      -0.024
       0.092
       0.201
       0.244
       0.204
       0.124
       0.071
       0.084
       0.146
       0.200
       0.197
       0.138
       0.061
       0.008
      -0.003
       0.022
       0.081
       0.172
       0.289
       0.396
       0.447
       0.419
       0.336
       0.258
       0.225
       0.230
       0.228
       0.183
       0.098
       0.011
      -0.043
      -0.054
      -0.039
      -0.022
      -0.017
      -0.028
      -0.053
      -0.101
      -0.174
      -0.257
      -0.314
      -0.307
      -0.234
      -0.147
      -0.115
      -0.171
      -0.279
      -0.364
      -0.378
      -0.329
      -0.265
      -0.220
      -0.186
      -0.140
      -0.072
      -0.014
      -0.005
      -0.048
      -0.098
      -0.082
       0.032
       0.207
       0.356
       0.401
       0.331
       0.197
       0.075
       0.011
       0.008
       0.040
       0.079
       0.110
       0.123
       0.112
       0.068
      -0.012
      -0.113
      -0.203
      -0.242
      -0.215
      -0.150
      -0.100
      -0.109
      -0.170
      -0.235
      -0.246
      -0.178
      -0.057
       0.064
       0.136
       0.145
       0.104
       0.043
      -0.012
      -0.040
      -0.029
       0.022
       0.112
       0.228
       0.347
       0.430
       0.441
       0.375
       0.265
       0.166
       0.115
       0.108
       0.109
       0.087
       0.044
       0.012
       0.024
       0.084
       0.151
       0.170
       0.111
      -0.009
      -0.133
      -0.209
      -0.220
      -0.196
      -0.181
      -0.204
      -0.253
      -0.290
      -0.279
      -0.218
      -0.140
      -0.086
      -0.074
      -0.081
      -0.067
      -0.014
       0.052
       0.073
       0.015
      -0.092
      -0.168
      -0.147
      -0.034
       0.089
       0.133
       0.070
      -0.050
      -0.148
      -0.172
      -0.127
      -0.057
       0.001
       0.027
       0.018
      -0.022
      -0.082
      -0.137
      -0.162
      -0.149
      -0.117
      -0.091
      -0.079
      -0.065
      -0.035
       0.002
       0.019
      -0.003
      -0.050
      -0.080
      -0.051
       0.042
       0.157
       0.228
       0.206
       0.096
      -0.055
      -0.184
      -0.256
      -0.267
      -0.227
      -0.144
      -0.019
       0.135
       0.287
       0.389
       0.410
       0.355
       0.279
       0.244
       0.272
       0.317
       0.298
       0.177
      -0.009
      -0.168
      -0.224
      -0.171
      -0.066
       0.019
       0.040
       0.002
      -0.064
      -0.127
      -0.169
      -0.188
      -0.186
      -0.172
      -0.151
      -0.124
      -0.079
      -0.005
       0.091
       0.177
       0.216
       0.188
       0.111
       0.020
      -0.058
      -0.129
      -0.215
      -0.327
      -0.439
      -0.495
      -0.455
      -0.319
      -0.143
      -0.006
       0.043
       0.011
      -0.040
      -0.046
       0.012
       0.092
       0.134
       0.108
       0.044
      -0.006
      -0.014
       0.003
       0.001
      -0.041
      -0.102
      -0.129
      -0.085
       0.017
       0.122
       0.163
       0.109
      -0.019
      -0.154
      -0.215
      -0.149
       0.034
       0.254
       0.395
       0.380
       0.228
       0.043
      -0.052
      -0.001
       0.163
       0.346
       0.459
       0.467
       0.393
       0.300
       0.248
       0.255
       0.286
       0.275
       0.178
       0.003
      -0.196
      -0.354
      -0.440
      -0.455
      -0.421
      -0.353
      -0.258
      -0.150
      -0.063
      -0.029
      -0.049
      -0.076
      -0.056
       0.023
       0.112
       0.132
       0.032
      -0.173
      -0.414
      -0.603
      -0.678
      -0.624
      -0.474
      -0.295
      -0.148
      -0.061
      -0.017
       0.025
       0.094
       0.192
       0.301
       0.398
       0.470
       0.509
       0.510
       0.478
       0.429
       0.384
       0.346
       0.294
       0.204
       0.072
      -0.076
      -0.194
      -0.244
      -0.216
      -0.134
      -0.053
      -0.026
      -0.083
      -0.203
      -0.331
      -0.395
      -0.346
      -0.183
       0.041
       0.235
       0.317
       0.256
       0.089
      -0.105
      -0.245
      -0.282
      -0.217
      -0.092
       0.031
       0.104
       0.122
       0.115
       0.123
       0.155
       0.187
       0.180
       0.109
      -0.024
      -0.189
      -0.341
      -0.438
      -0.453
      -0.386
      -0.265
      -0.126
      -0.003
       0.078
       0.101
       0.054
      -0.063
      -0.232
      -0.405
      -0.517
      -0.502
      -0.339
      -0.069
       0.217
       0.432
       0.540
       0.568
       0.570
       0.583
       0.600
       0.595
       0.547
       0.464
       0.368
       0.279
       0.207
       0.145
       0.084
       0.017
      -0.050
      -0.103
      -0.132
      -0.136
      -0.125
      -0.111
      -0.103
      -0.103
      -0.116
      -0.148
      -0.199
      -0.265
      -0.335
      -0.401
      -0.453
      -0.476
      -0.442
      -0.328
      -0.142
       0.064
       0.213
       0.250
       0.178
       0.050
      -0.065
      -0.124
      -0.120
      -0.064
       0.019
       0.105
       0.156
       0.142
       0.062
      -0.047
      -0.133
      -0.167
      -0.165
      -0.167
      -0.203
      -0.269
      -0.332
      -0.357
      -0.322
      -0.232
      -0.113
      -0.005
       0.057
       0.057
       0.021
       0.006
       0.074
       0.244
       0.467
       0.645
       0.684
       0.557
       0.318
       0.076
      -0.078
      -0.114
      -0.062
       0.022
       0.099
       0.160
       0.205
       0.226
       0.209
       0.142
       0.040
      -0.060
      -0.126
      -0.150
      -0.164
      -0.208
      -0.293
      -0.385
      -0.422
      -0.368
      -0.241
      -0.103
      -0.012
       0.023
       0.039
       0.079
       0.150
       0.214
       0.225
       0.173
       0.090
       0.029
       0.023
       0.068
       0.132
       0.180
       0.186
       0.145
       0.078
       0.023
       0.020
       0.075
       0.150
       0.179
       0.117
      -0.038
      -0.232
      -0.390
      -0.452
      -0.408
      -0.295
      -0.171
      -0.080
      -0.028
       0.006
       0.054
       0.129
       0.219
       0.290
       0.302
       0.233
       0.100
      -0.048
      -0.154
      -0.189
      -0.169
      -0.134
      -0.112
      -0.096
      -0.052
       0.044
       0.178
       0.287
       0.298
       0.180
      -0.021
      -0.213
      -0.315
      -0.311
      -0.241
      -0.164
      -0.120
      -0.127
      -0.186
      -0.279
      -0.369
      -0.397
      -0.323
      -0.158
       0.022
       0.123
       0.085
      -0.072
      -0.267
      -0.407
      -0.439
      -0.362
      -0.206
      -0.014
       0.175
       0.322
       0.393
       0.376
       0.292
       0.182
       0.080
       0.003
      -0.044
      -0.055
      -0.020
       0.055
       0.136
       0.176
       0.137
       0.020
      -0.127
      -0.242
      -0.285
      -0.263
      -0.222
      -0.219
      -0.277
      -0.374
      -0.453
      -0.462
      -0.385
      -0.247
      -0.110
      -0.036
      -0.068
      -0.200
      -0.371
      -0.490
      -0.475
      -0.303
      -0.027
       0.237
       0.366
       0.294
       0.053
      -0.238
      -0.440
      -0.476
      -0.370
      -0.223
      -0.144
      -0.184
      -0.313
      -0.450
      -0.524
      -0.512
      -0.434
      -0.329
      -0.222
      -0.128
      -0.057
      -0.024
      -0.039
      -0.079
      -0.101
      -0.062
       0.047
       0.182
       0.285
       0.324
       0.321
       0.333
       0.404
       0.521
       0.618
       0.624
       0.519
       0.358
       0.235
       0.218
       0.310
       0.451
       0.569
       0.627
       0.647
       0.688
       0.778
       0.880
       0.911
       0.808
       0.585
       0.327
       0.127
       0.032
       0.034
       0.095
       0.185
       0.297
       0.436
       0.602
       0.770
       0.900
       0.960
       0.952
       0.909
       0.869
       0.835
       0.766
       0.611
       0.356
       0.061
      -0.156
      -0.182
       0.023
       0.382
       0.745
       0.971
       0.999
       0.873
       0.692
       0.542
       0.456
       0.405
       0.327
       0.164
      -0.109
      -0.473
      -0.874
      -1.235
      -1.485
      -1.589
      -1.561
      -1.461
      -1.359
      -1.299
      -1.286
      -1.308
      -1.350
      -1.401
      -1.448
      -1.465
      -1.421
      -1.287
      -1.055
      -0.751
      -0.427
      -0.138
       0.089
       0.271
       0.447
       0.646
       0.860
       1.044
       1.135
       1.091
       0.925
       0.709
       0.541
       0.492
       0.567
       0.718
       0.885
       1.044
       1.216
       1.435
       1.688
       1.897
       1.957
       1.811
       1.500
       1.141
       0.845
       0.644
       0.488
       0.308
       0.095
      -0.081
      -0.132
      -0.040
       0.116
       0.213
       0.180
       0.038
      -0.148
      -0.332
      -0.517
      -0.717
      -0.916
      -1.085
      -1.209
      -1.308
      -1.408
      -1.508
      -1.581
      -1.598
      -1.553
      -1.467
      -1.375
      -1.312
      -1.306
      -1.374
      -1.508
      -1.668
      -1.801
      -1.873
      -1.894
      -1.908
      -1.941
      -1.954
      -1.845
      -1.513
      -0.934
      -0.206
       0.488
       0.964
       1.126
       0.990
       0.637
       0.149
      -0.406
      -0.941
      -1.331
      -1.447
      -1.229
      -0.732
      -0.097
       0.517
       1.012
       1.363
       1.595
       1.738
       1.792
       1.726
       1.510
       1.148
       0.707
       0.300
       0.032
      -0.054
       0.002
       0.109
       0.179
       0.182
       0.147
       0.144
       0.238
       0.445
       0.715
       0.943
       1.027
       0.925
       0.679
       0.399
       0.208
       0.201
       0.403
       0.773
       1.216
       1.626
       1.925
       2.085
       2.135
       2.124
       2.086
       2.001
       1.809
       1.449
       0.894
       0.171
      -0.635
      -1.382
      -1.903
      -2.066
      -1.838
      -1.322
      -0.708
      -0.197
       0.087
       0.133
       0.018
      -0.162
      -0.355
      -0.563
      -0.822
      -1.157
      -1.558
      -1.978
      -2.327
      -2.481
      -2.328
      -1.837
      -1.094
      -0.274
       0.453
       1.001
       1.376
       1.624
       1.762
       1.748
       1.520
       1.053
       0.414
      -0.240
      -0.713
      -0.854
      -0.630
      -0.151
       0.384
       0.784
       0.956
       0.922
       0.772
       0.591
       0.421
       0.273
       0.152
       0.081
       0.086
       0.179
       0.339
       0.528
       0.723
       0.942
       1.229
       1.606
       2.023
       2.366
       2.513
       2.419
       2.155
       1.862
       1.668
       1.612
       1.628
       1.599
       1.427
       1.072
       0.566
      -0.007
      -0.539
      -0.929
      -1.119
      -1.114
      -0.997
      -0.904
      -0.977
      -1.293
      -1.812
      -2.397
      -2.889
      -3.194
      -3.318
      -3.341
      -3.340
      -3.335
      -3.287
      -3.160
      -2.974
      -2.806
      -2.717
      -2.687
      -2.629
      -2.474
      -2.248
      -2.052
      -1.977
      -2.025
      -2.116
      -2.148
      -2.069
      -1.875
      -1.591
      -1.239
      -0.846
      -0.452
      -0.103
       0.171
       0.379
       0.558
       0.760
       1.020
       1.341
       1.684
       1.971
       2.114
       2.067
       1.860
       1.601
       1.445
       1.536
       1.944
       2.638
       3.487
       4.308
       4.939
       5.310
       5.450
       5.436
       5.304
       5.012
       4.495
       3.761
       2.959
       2.319
       2.021
       2.065
       2.250
       2.270
       1.888
       1.069
       0.005
      -0.992
      -1.675
      -2.005
      -2.172
      -2.459
      -3.048
      -3.890
      -4.735
      -5.292
      -5.403
      -5.107
      -4.583
      -4.008
      -3.465
      -2.944
      -2.416
      -1.918
      -1.578
      -1.547
      -1.872
      -2.417
      -2.888
      -2.981
      -2.557
      -1.729
      -0.791
      -0.031
       0.445
       0.744
       1.082
       1.614
       2.319
       3.014
       3.458
       3.479
       3.054
       2.310
       1.451
       0.676
       0.113
      -0.182
      -0.203
       0.024
       0.441
       0.949
       1.435
       1.816
       2.078
       2.272
       2.453
       2.629
       2.734
       2.682
       2.444
       2.090
       1.750
       1.519
       1.397
       1.304
       1.163
       0.961
       0.744
       0.558
       0.395
       0.193
      -0.127
      -0.610
      -1.250
      -1.986
      -2.715
      -3.309
      -3.653
      -3.704
      -3.526
      -3.269
      -3.097
      -3.101
      -3.265
      -3.496
      -3.678
      -3.710
      -3.523
      -3.082
      -2.398
      -1.534
      -0.607
       0.238
       0.857
       1.155
       1.113
       0.802
       0.375
       0.009
      -0.170
      -0.149
      -0.041
      -0.010
      -0.155
      -0.431
      -0.657
      -0.623
      -0.228
       0.445
       1.166
       1.699
       1.942
       1.963
       1.929
       1.962
       2.051
       2.062
       1.847
       1.366
       0.742
       0.215
       0.017
       0.249
       0.818
       1.478
       1.958
       2.096
       1.910
       1.566
       1.266
       1.137
       1.190
       1.357
       1.544
       1.673
       1.680
       1.522
       1.191
       0.740
       0.288
      -0.027
      -0.140
      -0.117
      -0.144
      -0.419
      -1.015
      -1.788
      -2.434
      -2.646
      -2.309
      -1.574
      -0.766
      -0.178
       0.108
       0.226
       0.367
       0.596
       0.795
       0.780
       0.479
       0.003
      -0.441
      -0.718
      -0.868
      -1.067
      -1.478
      -2.114
      -2.791
      -3.219
      -3.157
      -2.550
      -1.561
      -0.488
       0.373
       0.857
       0.979
       0.888
       0.766
       0.718
       0.752
       0.809
       0.818
       0.715
       0.446
      -0.004
      -0.569
      -1.086
      -1.354
      -1.256
      -0.824
      -0.229
       0.342
       0.810
       1.249
       1.819
       2.619
       3.575
       4.440
       4.904
       4.740
       3.923
       2.663
       1.342
       0.364
      -0.020
       0.156
       0.576
       0.797
       0.496
      -0.345
      -1.418
      -2.255
      -2.490
      -2.058
      -1.226
      -0.446
      -0.111
      -0.343
      -0.943
      -1.512
      -1.698
      -1.415
      -0.886
      -0.496
      -0.548
      -1.091
      -1.915
      -2.692
      -3.153
      -3.186
      -2.838
      -2.241
      -1.556
      -0.947
      -0.572
      -0.531
      -0.801
      -1.207
      -1.488
      -1.433
      -0.991
      -0.316
       0.303
       0.576
       0.378
      -0.170
      -0.783
      -1.207
      -1.400
      -1.500
      -1.648
      -1.815
      -1.811
      -1.460
      -0.769
       0.057
       0.751
       1.155
       1.281
       1.249
       1.146
       0.971
       0.684
       0.330
       0.084
       0.162
       0.656
       1.435
       2.216
       2.740
       2.919
       2.847
       2.694
       2.560
       2.411
       2.114
       1.554
       0.740
      -0.150
      -0.823
      -1.009
      -0.595
       0.301
       1.374
       2.279
       2.792
       2.898
       2.770
       2.649
       2.701
       2.935
       3.187
       3.213
       2.821
       2.016
       1.039
       0.253
      -0.068
       0.079
       0.420
       0.581
       0.339
      -0.258
      -0.949
      -1.452
      -1.629
      -1.546
      -1.400
      -1.401
      -1.670
      -2.196
      -2.865
      -3.520
      -4.033
      -4.332
      -4.389
      -4.204
      -3.813
      -3.307
      -2.833
      -2.535
      -2.470
      -2.565
      -2.661
      -2.605
      -2.335
      -1.894
      -1.385
      -0.903
      -0.500
      -0.178
       0.108
       0.433
       0.869
       1.444
       2.102
       2.713
       3.127
       3.265
       3.167
       2.968
       2.807
       2.744
       2.743
       2.717
       2.615
       2.459
       2.348
       2.405
       2.707
       3.221
       3.795
       4.211
       4.268
       3.853
       2.982
       1.799
       0.532
      -0.579
      -1.379
      -1.850
      -2.105
      -2.317
      -2.621
      -3.052
      -3.526
      -3.873
      -3.905
      -3.501
      -2.675
      -1.610
      -0.621
      -0.032
      -0.014
      -0.484
      -1.132
      -1.594
      -1.663
      -1.399
      -1.057
      -0.869
      -0.857
      -0.828
      -0.559
      -0.019
       0.557
       0.818
       0.554
      -0.154
      -0.987
      -1.615
      -1.917
      -2.016
      -2.123
      -2.322
      -2.480
      -2.349
      -1.769
      -0.793
       0.353
       1.403
       2.186
       2.655
       2.829
       2.720
       2.311
       1.608
       0.702
      -0.208
      -0.875
      -1.116
      -0.890
      -0.305
       0.469
       1.299
       2.118
       2.888
       3.530
       3.917
       3.940
       3.591
       2.994
       2.344
       1.804
       1.443
       1.242
       1.134
       1.064
       1.013
       0.994
       1.024
       1.099
       1.175
       1.183
       1.047
