Origin Time       21/9/2009 8:53:04	 
Lat.              27.3 N	
Long.             91.5 E	
Depth (Km)          8.0
Magnitude         6.2
 Region           BHUTAN                                                           
 Above details taken from IMD 
     
Station Code      TEJ
Station Lat.       26.619  N
Station Long.      92.797  E
Station Height(m)   76.0
Site Class        B   Vs30 between 375 m/sec to 700 m/sec *  
Record Time       21.09.2009 08:53:34.909
Sampling Rate     200. Hz
 Record Duration   79.815 Sec.
 Direction         E-W (E positive)
Max. Acceleration    -13.430 cm/sec**2
     
  * For reference see Site Classification link of website 
     
 Base Line Corrected and Low Pass Filtered (Cut Off at 35 Hz) Time History
 Acceleration data in cm/sec**2
    
[...]
      -1.231
      -1.125
      -0.955
      -0.745
      -0.524
      -0.326
      -0.182
      -0.114
      -0.128
      -0.203
      -0.293
      -0.341
      -0.309
      -0.201
      -0.063
       0.042
       0.081
       0.072
       0.064
       0.103
       0.194
       0.300
       0.370
       0.374
       0.316
       0.228
       0.147
       0.102
       0.112
       0.186
       0.315
       0.478
       0.642
       0.771
       0.844
       0.868
       0.870
       0.887
       0.937
       1.002
       1.037
       0.995
       0.862
       0.669
       0.473
       0.330
       0.264
       0.269
       0.326
       0.414
       0.521
       0.630
       0.716
       0.755
       0.740
       0.693
       0.650
       0.637
       0.645
       0.636
       0.566
       0.406
       0.164
      -0.115
      -0.370
      -0.544
      -0.616
      -0.612
      -0.593
      -0.629
      -0.766
      -1.008
      -1.311
      -1.604
      -1.814
      -1.901
      -1.870
      -1.757
      -1.604
      -1.435
      -1.257
      -1.070
      -0.881
      -0.707
      -0.565
      -0.461
      -0.382
      -0.309
      -0.232
      -0.153
      -0.090
      -0.062
      -0.074
      -0.112
      -0.139
      -0.110
       0.004
       0.198
       0.429
       0.642
       0.789
       0.854
       0.853
       0.823
       0.806
       0.833
       0.910
       1.022
       1.142
       1.237
       1.281
       1.248
       1.129
       0.939
       0.719
       0.526
       0.402
       0.352
       0.351
       0.356
       0.335
       0.281
       0.209
       0.148
       0.117
       0.115
       0.120
       0.102
       0.044
      -0.043
      -0.131
      -0.193
      -0.222
      -0.243
      -0.287
      -0.370
      -0.477
      -0.571
      -0.617
      -0.603
      -0.546
      -0.484
      -0.452
      -0.459
      -0.487
      -0.495
      -0.444
      -0.320
      -0.147
       0.027
       0.153
       0.212
       0.216
       0.194
       0.165
       0.124
       0.061
      -0.018
      -0.078
      -0.073
       0.026
       0.210
       0.431
       0.623
       0.734
       0.755
       0.735
       0.752
       0.868
       1.078
       1.304
       1.443
       1.426
       1.253
       0.984
       0.707
       0.496
       0.387
       0.365
       0.365
       0.308
       0.145
      -0.115
      -0.403
      -0.630
      -0.733
      -0.708
      -0.597
      -0.461
      -0.341
      -0.240
      -0.137
      -0.011
       0.126
       0.227
       0.231
       0.100
      -0.148
      -0.442
      -0.682
      -0.793
      -0.760
      -0.632
      -0.497
      -0.436
      -0.488
      -0.635
      -0.817
      -0.961
      -1.023
      -1.002
      -0.941
      -0.906
      -0.951
      -1.091
      -1.285
      -1.455
      -1.533
      -1.494
      -1.369
      -1.208
      -1.048
      -0.900
      -0.766
      -0.651
      -0.572
      -0.527
      -0.494
      -0.441
      -0.351
      -0.244
      -0.163
      -0.149
      -0.202
      -0.282
      -0.327
      -0.282
      -0.120
       0.151
       0.499
       0.870
       1.205
       1.442
       1.532
       1.468
       1.299
       1.117
       1.020
       1.053
       1.186
       1.338
       1.431
       1.439
       1.393
       1.348
       1.338
       1.361
       1.387
       1.392
       1.378
       1.366
       1.362
       1.339
       1.252
       1.070
       0.795
       0.462
       0.110
      -0.235
      -0.565
      -0.881
      -1.178
      -1.448
      -1.685
      -1.880
      -2.027
      -2.114
      -2.129
      -2.066
      -1.934
      -1.765
      -1.616
      -1.549
      -1.603
      -1.768
      -1.989
      -2.187
      -2.300
      -2.303
      -2.217
      -2.084
      -1.951
      -1.841
      -1.755
      -1.671
      -1.570
      -1.450
      -1.336
      -1.264
      -1.255
      -1.292
      -1.315
      -1.249
      -1.046
      -0.710
      -0.288
       0.159
       0.594
       1.010
       1.415
       1.813
       2.196
       2.537
       2.807
       2.985
       3.071
       3.085
       3.054
       2.998
       2.916
       2.797
       2.629
       2.415
       2.171
       1.918
       1.679
       1.473
       1.309
       1.187
       1.094
       1.019
       0.949
       0.864
       0.738
       0.538
       0.243
      -0.147
      -0.599
      -1.065
      -1.491
      -1.841
      -2.101
      -2.278
      -2.385
      -2.430
      -2.409
      -2.317
      -2.165
      -1.989
      -1.844
      -1.776
      -1.807
      -1.922
      -2.077
      -2.222
      -2.306
      -2.295
      -2.172
      -1.947
      -1.658
      -1.358
      -1.102
      -0.918
      -0.796
      -0.692
      -0.568
      -0.418
      -0.280
      -0.211
      -0.244
      -0.358
      -0.481
      -0.517
      -0.390
      -0.068
       0.437
       1.093
       1.861
       2.703
       3.567
       4.388
       5.094
       5.626
       5.945
       6.032
       5.879
       5.498
       4.922
       4.210
       3.434
       2.655
       1.913
       1.224
       0.588
       0.011
      -0.496
      -0.911
      -1.212
      -1.389
      -1.460
      -1.468
      -1.482
      -1.572
      -1.781
      -2.109
      -2.510
      -2.913
      -3.253
      -3.494
      -3.645
      -3.742
      -3.834
      -3.952
      -4.101
      -4.261
      -4.404
      -4.516
      -4.593
      -4.631
      -4.608
      -4.496
      -4.268
      -3.920
      -3.464
      -2.916
      -2.287
      -1.585
      -0.826
      -0.049
       0.690
       1.323
       1.788
       2.044
       2.076
       1.909
       1.606
       1.253
       0.946
       0.765
       0.763
       0.946
       1.277
       1.700
       2.177
       2.718
       3.374
       4.204
       5.233
       6.417
       7.643
       8.759
       9.613
      10.097
      10.169
       9.871
       9.305
       8.607
       7.894
       7.232
       6.626
       6.044
       5.447
       4.803
       4.104
       3.365
       2.624
       1.919
       1.270
       0.651
       0.013
      -0.699
      -1.511
      -2.423
      -3.415
      -4.463
      -5.536
      -6.596
      -7.606
      -8.545
      -9.417
     -10.234
     -10.993
     -11.660
     -12.186
     -12.531
     -12.674
     -12.623
     -12.390
     -11.982
     -11.398
     -10.637
      -9.708
      -8.635
      -7.446
      -6.174
      -4.862
      -3.573
      -2.381
      -1.360
      -0.561
       0.011
       0.400
       0.693
       0.996
       1.398
       1.944
       2.619
       3.365
       4.110
       4.800
       5.420
       5.991
       6.551
       7.134
       7.763
       8.434
       9.120
       9.774
      10.342
      10.774
      11.044
      11.157
      11.144
      11.038
      10.851
      10.564
      10.126
       9.469
       8.544
       7.351
       5.955
       4.468
       3.015
       1.698
       0.574
      -0.358
      -1.149
      -1.880
      -2.622
      -3.393
      -4.141
      -4.768
      -5.191
      -5.399
      -5.466
      -5.516
      -5.650
      -5.901
      -6.219
      -6.506
      -6.657
      -6.607
      -6.340
      -5.891
      -5.318
      -4.687
      -4.053
      -3.461
      -2.951
      -2.574
      -2.379
      -2.400
      -2.625
      -2.996
      -3.431
      -3.853
      -4.220
      -4.517
      -4.727
      -4.810
      -4.696
      -4.317
      -3.644
      -2.716
      -1.632
      -0.514
       0.531
       1.446
       2.227
       2.892
       3.452
       3.893
       4.185
       4.314
       4.301
       4.205
       4.090
       3.994
       3.909
       3.793
       3.594
       3.282
       2.865
       2.378
       1.870
       1.383
       0.943
       0.568
       0.281
       0.117
       0.111
       0.273
       0.572
       0.928
       1.249
       1.465
       1.558
       1.567
       1.546
       1.533
       1.519
       1.475
       1.385
       1.277
       1.210
       1.239
       1.378
       1.590
       1.807
       1.966
       2.042
       2.047
       2.016
       1.974
       1.914
       1.799
       1.577
       1.209
       0.679
      -0.005
      -0.804
      -1.653
      -2.458
      -3.123
      -3.583
      -3.839
      -3.952
      -4.002
      -4.032
      -4.023
      -3.916
      -3.666
      -3.288
      -2.874
      -2.543
      -2.384
      -2.398
      -2.508
      -2.603
      -2.610
      -2.515
      -2.356
      -2.184
      -2.037
      -1.922
      -1.827
      -1.716
      -1.536
      -1.221
      -0.719
      -0.021
       0.809
       1.650
       2.377
       2.915
       3.275
       3.521
       3.719
       3.893
       4.023
       4.075
       4.035
       3.929
       3.818
       3.777
       3.865
       4.101
       4.443
       4.805
       5.090
       5.227
       5.188
       4.978
       4.602
       4.052
       3.319
       2.426
       1.436
       0.440
      -0.488
      -1.314
      -2.043
      -2.696
      -3.283
      -3.793
      -4.206
      -4.496
      -4.642
      -4.624
      -4.429
      -4.068
      -3.583
      -3.048
      -2.551
      -2.165
      -1.935
      -1.887
      -2.034
      -2.386
      -2.938
      -3.652
      -4.449
      -5.228
      -5.888
      -6.359
      -6.618
      -6.671
      -6.541
      -6.245
      -5.793
      -5.195
      -4.469
      -3.637
      -2.717
      -1.721
      -0.675
       0.374
       1.355
       2.202
       2.889
       3.446
       3.940
       4.437
       4.960
       5.487
       5.966
       6.360
       6.656
       6.868
       7.004
       7.063
       7.046
       6.966
       6.849
       6.715
       6.563
       6.380
       6.165
       5.934
       5.716
       5.530
       5.378
       5.244
       5.103
       4.918
       4.643
       4.244
       3.714
       3.082
       2.395
       1.686
       0.956
       0.171
      -0.711
      -1.707
      -2.784
      -3.860
      -4.832
      -5.612
      -6.157
      -6.474
      -6.601
      -6.576
      -6.425
      -6.156
      -5.772
      -5.292
      -4.748
      -4.190
      -3.674
      -3.257
      -2.995
      -2.928
      -3.077
      -3.430
      -3.941
      -4.544
      -5.162
      -5.737
      -6.242
      -6.676
      -7.052
      -7.364
      -7.579
      -7.645
      -7.512
      -7.158
      -6.592
      -5.838
      -4.920
      -3.864
      -2.700
      -1.475
      -0.247
       0.919
       1.964
       2.844
       3.552
       4.112
       4.555
       4.897
       5.118
       5.186
       5.093
       4.885
       4.660
       4.531
       4.577
       4.809
       5.179
       5.616
       6.067
       6.520
       6.998
       7.526
       8.104
       8.683
       9.178
       9.493
       9.555
       9.329
       8.829
       8.101
       7.213
       6.231
       5.197
       4.128
       3.025
       1.895
       0.771
      -0.288
      -1.206
      -1.920
      -2.407
      -2.688
      -2.811
      -2.826
      -2.777
      -2.711
      -2.693
      -2.803
      -3.103
      -3.608
      -4.260
      -4.946
      -5.542
      -5.965
      -6.195
      -6.269
      -6.237
      -6.129
      -5.940
      -5.637
      -5.194
      -4.622
      -3.974
      -3.325
      -2.742
      -2.256
      -1.862
      -1.535
      -1.249
      -0.991
      -0.765
      -0.589
      -0.491
      -0.497
      -0.612
      -0.818
      -1.084
      -1.375
      -1.671
      -1.966
      -2.256
      -2.524
      -2.730
      -2.812
      -2.721
      -2.438
      -1.994
      -1.450
      -0.870
      -0.292
       0.277
       0.847
       1.422
       1.993
       2.558
       3.140
       3.783
       4.519
       5.335
       6.154
       6.868
       7.384
       7.666
       7.747
       7.710
       7.646
       7.607
       7.585
       7.515
       7.309
       6.894
       6.244
       5.385
       4.390
       3.353
       2.368
       1.510
       0.824
       0.319
      -0.025
      -0.246
      -0.358
      -0.342
      -0.151
       0.238
       0.772
       1.321
       1.723
       1.852
       1.662
       1.194
       0.541
      -0.183
      -0.885
      -1.505
      -2.015
      -2.418
      -2.733
      -3.003
      -3.281
      -3.610
      -3.999
      -4.419
      -4.804
      -5.078
      -5.164
      -5.011
      -4.621
      -4.069
      -3.501
      -3.083
      -2.949
      -3.168
      -3.734
      -4.578
      -5.572
      -6.551
      -7.349
      -7.855
      -8.055
      -8.028
      -7.882
      -7.678
      -7.399
      -6.956
      -6.256
      -5.272
      -4.081
      -2.842
      -1.726
      -0.828
      -0.128
       0.487
       1.146
       1.920
       2.789
       3.651
       4.369
       4.830
       4.980
       4.849
       4.538
       4.184
       3.906
       3.760
       3.733
       3.776
       3.854
       3.983
       4.216
       4.608
       5.169
       5.851
       6.563
       7.215
       7.758
       8.198
       8.579
       8.930
       9.231
       9.417
       9.412
       9.177
       8.735
       8.159
       7.530
       6.890
       6.220
       5.463
       4.572
       3.558
       2.489
       1.461
       0.548
      -0.228
      -0.908
      -1.567
      -2.290
      -3.126
      -4.078
      -5.109
      -6.181
      -7.280
      -8.412
      -9.568
     -10.701
     -11.721
     -12.534
     -13.085
     -13.371
     -13.430
     -13.300
     -12.985
     -12.456
     -11.682
     -10.681
      -9.547
      -8.439
      -7.531
      -6.949
      -6.714
      -6.725
      -6.781
      -6.656
      -6.188
      -5.350
      -4.259
      -3.105
      -2.056
      -1.177
      -0.430
       0.263
       0.937
       1.552
       2.030
       2.330
       2.497
       2.644
       2.877
       3.231
       3.666
       4.111
       4.520
       4.896
       5.270
       5.677
       6.131
       6.618
       7.090
       7.475
       7.711
       7.771
       7.682
       7.504
       7.283
       7.021
       6.681
       6.216
       5.608
       4.879
       4.083
       3.290
       2.574
       1.995
       1.584
       1.322
       1.154
       1.012
       0.853
       0.682
       0.543
       0.490
       0.558
       0.749
       1.042
       1.408
       1.824
       2.267
       2.706
       3.085
       3.324
       3.348
       3.123
       2.677
       2.094
       1.473
       0.889
       0.367
      -0.110
      -0.567
      -1.010
      -1.405
      -1.706
      -1.879
      -1.925
      -1.871
      -1.755
      -1.605
      -1.437
      -1.263
      -1.090
      -0.923
      -0.764
      -0.624
      -0.529
      -0.520
      -0.622
      -0.811
      -1.010
      -1.123
      -1.105
      -1.002
      -0.946
      -1.083
      -1.505
      -2.195
      -3.050
      -3.926
      -4.698
      -5.298
      -5.711
      -5.959
      -6.077
      -6.091
      -6.005
      -5.792
      -5.414
      -4.843
      -4.097
      -3.256
      -2.446
      -1.794
      -1.372
      -1.161
      -1.072
      -0.985
      -0.809
      -0.503
      -0.078
       0.427
       0.960
       1.473
       1.927
       2.307
       2.638
       2.977
       3.385
       3.886
       4.441
       4.963
       5.372
       5.651
       5.861
       6.101
       6.443
       6.873
       7.308
       7.640
       7.804
       7.797
       7.664
       7.457
       7.203
       6.889
       6.467
       5.875
       5.069
       4.045
       2.853
       1.591
       0.374
      -0.701
      -1.587
      -2.302
      -2.903
      -3.443
      -3.942
      -4.394
      -4.790
      -5.138
      -5.450
      -5.713
      -5.878
      -5.885
      -5.722
      -5.455
      -5.226
      -5.194
      -5.465
      -6.037
      -6.797
      -7.581
      -8.248
      -8.733
      -9.047
      -9.223
      -9.263
      -9.114
      -8.698
      -7.956
      -6.885
      -5.540
      -4.024
      -2.471
      -1.029
       0.172
       1.060
       1.645
       2.011
       2.278
       2.556
       2.916
       3.390
       3.972
       4.623
       5.275
       5.846
       6.260
       6.472
       6.467
       6.258
       5.870
       5.336
       4.705
       4.045
       3.441
       2.976
       2.703
       2.624
       2.683
       2.787
       2.844
       2.797
       2.621
       2.320
       1.904
       1.383
       0.767
       0.068
      -0.672
      -1.361
      -1.859
      -2.025
      -1.796
      -1.239
      -0.532
       0.114
       0.536
       0.670
       0.536
       0.201
      -0.266
      -0.814
      -1.405
      -2.004
      -2.577
      -3.090
      -3.519
      -3.843
      -4.039
      -4.068
      -3.880
      -3.424
      -2.676
      -1.669
      -0.505
       0.679
       1.753
       2.648
       3.357
       3.902
       4.283
       4.450
       4.322
       3.843
       3.037
       2.018
       0.949
      -0.038
      -0.908
      -1.723
      -2.579
      -3.508
      -4.416
      -5.103
      -5.347
      -5.030
      -4.224
      -3.188
      -2.271
      -1.756
      -1.727
      -2.029
      -2.360
      -2.437
      -2.143
      -1.570
      -0.927
      -0.399
      -0.031
       0.276
       0.683
       1.298
       2.102
       2.951
       3.651
       4.045
       4.089
       3.855
       3.474
       3.051
       2.602
       2.060
       1.339
       0.412
      -0.641
      -1.653
      -2.426
      -2.795
      -2.677
      -2.099
      -1.177
      -0.080
       1.044
       2.106
       3.073
       3.932
       4.646
       5.165
       5.450
       5.497
       5.317
       4.901
       4.216
       3.243
       2.030
       0.704
      -0.571
      -1.655
      -2.468
      -2.989
      -3.238
      -3.255
      -3.089
      -2.783
      -2.350
      -1.773
      -1.023
      -0.104
       0.915
       1.896
       2.674
       3.129
       3.238
       3.069
       2.730
       2.302
       1.800
       1.187
       0.412
      -0.531
      -1.583
      -2.620
      -3.497
      -4.099
      -4.374
      -4.339
      -4.058
      -3.625
      -3.160
      -2.793
      -2.640
      -2.745
      -3.049
      -3.392
      -3.589
      -3.520
      -3.188
      -2.709
      -2.235
      -1.871
      -1.623
      -1.424
      -1.183
      -0.853
      -0.449
      -0.023
       0.379
       0.755
       1.135
       1.551
       2.003
       2.448
       2.825
       3.084
       3.222
       3.282
       3.326
       3.387
       3.428
       3.350
       3.039
       2.433
       1.578
       0.620
      -0.252
      -0.875
      -1.172
      -1.145
      -0.829
      -0.244
       0.603
       1.676
       2.865
       3.996
       4.901
       5.475
       5.697
       5.583
       5.134
       4.329
       3.163
       1.703
       0.093
      -1.484
      -2.869
      -3.973
      -4.775
      -5.292
      -5.537
      -5.502
      -5.162
      -4.501
      -3.547
      -2.388
      -1.163
      -0.031
       0.882
       1.520
       1.918
       2.169
       2.365
       2.519
       2.536
       2.253
       1.530
       0.349
      -1.135
      -2.635
      -3.847
      -4.583
      -4.832
      -4.728
      -4.457
