Origin Time       29/12/2009 09:01:42
Lat.              24.5°N	
Long.             94.8°E	
Depth (Km)         80.0
Magnitude         5.5
 Region           MYANMAR-INDIA(MANIPUR)-BORDER                                    
 Above details taken from IMD 
   
Station Code      TEJ
Station Lat.       26.619
Station Long.      92.797
Station Height(m)   76.0
Site Class        B   Vs30 between 375 m/sec to 700 m/sec *  
Record Time       29.12.2009 09:02:53.334
Sampling Rate     200. Hz
 Record Duration   67.605 Sec.
 Direction         Vert. (Up positive)
Max. Acceleration      7.721 cm/sec**2
     
  * For reference see Site Classification link of website 
     
 Base Line Corrected and Low Pass Filtered (Cut Off at 35 Hz) Time History
 Acceleration data in cm/sec**2
    
[...]
      -0.523
      -0.257
       0.004
       0.188
       0.280
       0.315
       0.338
       0.373
       0.409
       0.420
       0.401
       0.385
       0.405
       0.468
       0.539
       0.558
       0.454
       0.180
      -0.236
      -0.664
      -0.939
      -0.975
      -0.820
      -0.596
      -0.390
      -0.221
      -0.075
       0.034
       0.065
      -0.003
      -0.125
      -0.221
      -0.237
      -0.174
      -0.068
       0.059
       0.212
       0.396
       0.582
       0.706
       0.704
       0.553
       0.288
      -0.018
      -0.287
      -0.465
      -0.532
      -0.510
      -0.430
      -0.290
      -0.057
       0.272
       0.611
       0.815
       0.795
       0.583
       0.290
       0.003
      -0.260
      -0.528
      -0.807
      -1.065
      -1.244
      -1.295
      -1.184
      -0.889
      -0.418
       0.169
       0.751
       1.192
       1.412
       1.408
       1.236
       0.976
       0.703
       0.468
       0.273
       0.075
      -0.168
      -0.445
      -0.681
      -0.787
      -0.732
      -0.572
      -0.411
      -0.331
      -0.345
      -0.394
      -0.396
      -0.286
      -0.056
       0.236
       0.495
       0.632
       0.622
       0.509
       0.360
       0.207
       0.042
      -0.132
      -0.267
      -0.290
      -0.175
       0.034
       0.244
       0.372
       0.381
       0.285
       0.118
      -0.094
      -0.333
      -0.555
      -0.686
      -0.656
      -0.456
      -0.145
       0.178
       0.429
       0.578
       0.663
       0.721
       0.729
       0.601
       0.273
      -0.207
      -0.675
      -0.939
      -0.907
      -0.654
      -0.368
      -0.202
      -0.167
      -0.159
      -0.078
       0.095
       0.307
       0.491
       0.602
       0.629
       0.577
       0.454
       0.275
       0.074
      -0.126
      -0.325
      -0.530
      -0.687
      -0.690
      -0.470
      -0.088
       0.286
       0.502
       0.524
       0.413
       0.245
       0.058
      -0.120
      -0.241
      -0.251
      -0.134
       0.074
       0.320
       0.545
       0.671
       0.606
       0.309
      -0.148
      -0.607
      -0.922
      -1.032
      -0.952
      -0.723
      -0.415
      -0.141
      -0.046
      -0.204
      -0.525
      -0.774
      -0.742
      -0.408
       0.052
       0.433
       0.660
       0.799
       0.928
       1.021
       0.966
       0.682
       0.213
      -0.281
      -0.626
      -0.738
      -0.649
      -0.467
      -0.296
      -0.175
      -0.079
       0.038
       0.202
       0.407
       0.645
       0.905
       1.137
       1.242
       1.111
       0.720
       0.162
      -0.397
      -0.819
      -1.053
      -1.139
      -1.138
      -1.073
      -0.922
      -0.669
      -0.342
      -0.003
       0.286
       0.474
       0.530
       0.467
       0.344
       0.229
       0.158
       0.125
       0.123
       0.162
       0.242
       0.317
       0.300
       0.143
      -0.093
      -0.262
      -0.242
      -0.042
       0.225
       0.433
       0.522
       0.502
       0.416
       0.313
       0.226
       0.141
       0.009
      -0.201
      -0.440
      -0.594
      -0.578
      -0.433
      -0.301
      -0.293
      -0.380
      -0.435
      -0.368
      -0.211
      -0.082
      -0.067
      -0.159
      -0.273
      -0.325
      -0.289
      -0.203
      -0.131
      -0.108
      -0.111
      -0.092
      -0.016
       0.090
       0.159
       0.141
       0.066
       0.030
       0.119
       0.321
       0.520
       0.581
       0.448
       0.194
      -0.028
      -0.094
       0.001
       0.139
       0.168
       0.018
      -0.232
      -0.402
      -0.351
      -0.103
       0.164
       0.253
       0.100
      -0.185
      -0.392
      -0.361
      -0.092
       0.249
       0.440
       0.347
       0.013
      -0.380
      -0.621
      -0.602
      -0.356
      -0.005
       0.328
       0.576
       0.727
       0.793
       0.780
       0.682
       0.494
       0.234
      -0.054
      -0.312
      -0.482
      -0.523
      -0.428
      -0.241
      -0.053
       0.025
      -0.073
      -0.317
      -0.585
      -0.734
      -0.703
      -0.549
      -0.378
      -0.244
      -0.124
       0.020
       0.169
       0.248
       0.213
       0.122
       0.107
       0.255
       0.523
       0.775
       0.891
       0.837
       0.643
       0.366
       0.073
      -0.163
      -0.296
      -0.342
      -0.352
      -0.356
      -0.327
      -0.239
      -0.113
      -0.007
       0.053
       0.089
       0.124
       0.147
       0.121
       0.030
      -0.109
      -0.260
      -0.386
      -0.455
      -0.451
      -0.381
      -0.280
      -0.190
      -0.128
      -0.067
       0.027
       0.162
       0.305
       0.411
       0.450
       0.405
       0.266
       0.032
      -0.238
      -0.407
      -0.320
       0.062
       0.566
       0.898
       0.846
       0.438
      -0.091
      -0.486
      -0.632
      -0.584
      -0.473
      -0.367
      -0.232
      -0.009
       0.276
       0.500
       0.538
       0.387
       0.173
       0.046
       0.048
       0.085
       0.026
      -0.169
      -0.412
      -0.568
      -0.573
      -0.482
      -0.405
      -0.417
      -0.476
      -0.451
      -0.230
       0.154
       0.505
       0.601
       0.366
      -0.059
      -0.420
      -0.528
      -0.371
      -0.077
       0.212
       0.446
       0.634
       0.761
       0.757
       0.562
       0.214
      -0.161
      -0.418
      -0.470
      -0.308
      -0.012
       0.269
       0.371
       0.217
      -0.110
      -0.405
      -0.479
      -0.288
       0.037
       0.308
       0.419
       0.394
       0.303
       0.167
      -0.059
      -0.387
      -0.729
      -0.922
      -0.873
      -0.646
      -0.404
      -0.251
      -0.141
       0.044
       0.349
       0.675
       0.856
       0.797
       0.564
       0.342
       0.288
       0.412
       0.571
       0.576
       0.315
      -0.191
      -0.803
      -1.320
      -1.563
      -1.450
      -1.016
      -0.380
       0.308
       0.907
       1.325
       1.521
       1.505
       1.330
       1.087
       0.863
       0.678
       0.469
       0.154
      -0.292
      -0.806
      -1.267
      -1.566
      -1.660
      -1.574
      -1.343
      -0.969
      -0.437
       0.201
       0.806
       1.196
       1.242
       0.933
       0.400
      -0.129
      -0.423
      -0.373
      -0.053
       0.321
       0.533
       0.500
       0.296
       0.068
      -0.092
      -0.180
      -0.247
      -0.322
      -0.367
      -0.284
       0.031
       0.602
       1.289
       1.798
       1.836
       1.323
       0.504
      -0.190
      -0.426
      -0.197
       0.200
       0.405
       0.239
      -0.211
      -0.715
      -1.092
      -1.314
      -1.463
      -1.596
      -1.659
      -1.509
      -1.051
      -0.353
       0.366
       0.873
       1.077
       1.058
       0.962
       0.879
       0.798
       0.663
       0.450
       0.191
      -0.068
      -0.308
      -0.562
      -0.882
      -1.275
      -1.644
      -1.814
      -1.651
      -1.171
      -0.552
      -0.004
       0.382
       0.674
       0.997
       1.388
       1.737
       1.884
       1.778
       1.547
       1.397
       1.421
       1.488
       1.328
       0.745
      -0.206
      -1.219
      -1.925
      -2.119
      -1.865
      -1.396
      -0.913
      -0.481
      -0.064
       0.346
       0.655
       0.705
       0.397
      -0.189
      -0.792
      -1.114
      -1.013
      -0.617
      -0.259
      -0.252
      -0.663
      -1.238
      -1.583
      -1.462
      -0.960
      -0.367
       0.076
       0.338
       0.529
       0.714
       0.824
       0.756
       0.540
       0.380
       0.507
       0.978
       1.613
       2.107
       2.207
       1.848
       1.168
       0.401
      -0.285
      -0.869
      -1.387
      -1.814
      -2.029
      -1.914
      -1.474
      -0.865
      -0.296
       0.116
       0.403
       0.646
       0.861
       0.965
       0.854
       0.500
      -0.019
      -0.572
      -1.050
      -1.397
      -1.585
      -1.582
      -1.340
      -0.829
      -0.083
       0.760
       1.496
       1.946
       2.048
       1.852
       1.438
       0.848
       0.117
      -0.661
      -1.317
      -1.665
      -1.601
      -1.161
      -0.519
       0.100
       0.533
       0.753
       0.838
       0.894
       0.975
       1.063
       1.085
       0.952
       0.609
       0.074
      -0.541
      -1.062
      -1.324
      -1.256
      -0.903
      -0.394
       0.117
       0.482
       0.593
       0.413
       0.016
      -0.410
      -0.644
      -0.583
      -0.318
      -0.065
       0.028
      -0.019
      -0.094
      -0.148
      -0.246
      -0.466
      -0.750
      -0.892
      -0.665
      -0.001
       0.931
       1.798
       2.260
       2.117
       1.409
       0.409
      -0.509
      -1.084
      -1.266
      -1.157
      -0.877
      -0.515
      -0.157
       0.102
       0.200
       0.165
       0.108
       0.155
       0.350
       0.626
       0.872
       1.027
       1.073
       0.982
       0.710
       0.266
      -0.268
      -0.787
      -1.210
      -1.465
      -1.462
      -1.119
      -0.432
       0.476
       1.371
       2.010
       2.262
       2.162
       1.846
       1.439
       0.990
       0.478
      -0.117
      -0.742
      -1.264
      -1.561
      -1.655
      -1.719
      -1.905
      -2.169
      -2.265
      -1.927
      -1.076
       0.089
       1.190
       1.894
       2.115
       2.007
       1.808
       1.659
       1.563
       1.451
       1.260
       0.967
       0.568
       0.052
      -0.618
      -1.464
      -2.397
      -3.188
      -3.570
      -3.421
      -2.867
      -2.176
      -1.566
      -1.078
      -0.633
      -0.164
       0.319
       0.765
       1.173
       1.599
       2.075
       2.519
       2.732
       2.490
       1.689
       0.450
      -0.869
      -1.823
      -2.119
      -1.786
      -1.128
      -0.484
      -0.001
       0.372
       0.723
       1.014
       1.122
       0.984
       0.683
       0.363
       0.097
      -0.148
      -0.426
      -0.735
      -1.026
      -1.250
      -1.392
      -1.442
      -1.381
      -1.207
      -0.939
      -0.607
      -0.224
       0.194
       0.581
       0.829
       0.864
       0.739
       0.639
       0.762
       1.176
       1.786
       2.461
       3.130
       3.764
       4.282
       4.506
       4.219
       3.268
       1.664
      -0.349
      -2.347
      -3.895
      -4.741
      -4.885
      -4.526
      -3.933
      -3.324
      -2.777
      -2.247
      -1.649
      -0.923
      -0.046
       0.959
       1.990
       2.868
       3.420
       3.581
       3.401
       2.976
       2.388
       1.687
       0.902
       0.079
      -0.659
      -1.123
      -1.215
      -1.067
      -0.974
      -1.147
      -1.505
      -1.725
      -1.464
      -0.600
       0.680
       1.955
       2.767
       2.855
       2.265
       1.292
       0.259
      -0.686
      -1.601
      -2.567
      -3.468
      -3.983
      -3.801
      -2.878
      -1.485
      -0.035
       1.122
       1.789
       1.910
       1.560
       0.938
       0.344
       0.072
       0.250
       0.761
       1.307
       1.611
       1.578
       1.324
       1.041
       0.839
       0.666
       0.371
      -0.167
      -0.935
      -1.771
      -2.450
      -2.808
      -2.834
      -2.644
      -2.351
      -1.959
      -1.391
      -0.640
       0.139
       0.717
       0.965
       0.944
       0.809
       0.653
       0.439
       0.088
      -0.385
      -0.836
      -1.103
      -1.134
      -1.005
      -0.831
      -0.690
      -0.624
      -0.654
      -0.773
      -0.925
      -1.045
      -1.075
      -0.942
      -0.541
       0.202
       1.251
       2.426
       3.469
       4.140
       4.315
       3.989
       3.201
       1.975
       0.380
      -1.359
      -2.847
      -3.681
      -3.649
      -2.835
      -1.555
      -0.168
       1.100
       2.200
       3.136
       3.825
       4.086
       3.778
       2.926
       1.735
       0.460
      -0.729
      -1.783
      -2.702
      -3.443
      -3.911
      -4.029
      -3.822
      -3.420
      -2.971
      -2.537
      -2.065
      -1.459
      -0.676
       0.243
       1.185
       2.004
       2.573
       2.844
       2.878
       2.797
       2.697
       2.602
       2.470
       2.258
       2.001
       1.822
       1.838
       2.015
       2.142
       1.962
       1.335
       0.307
      -0.917
      -2.068
      -2.942
      -3.500
      -3.855
      -4.131
      -4.326
      -4.286
      -3.813
      -2.841
      -1.556
      -0.341
       0.469
       0.796
       0.813
       0.764
       0.793
       0.884
       0.908
       0.735
       0.369
      -0.017
      -0.209
      -0.115
       0.211
       0.684
       1.305
       2.148
       3.217
       4.326
       5.092
       5.096
       4.118
       2.311
       0.138
      -1.912
      -3.577
      -4.859
      -5.831
      -6.456
      -6.600
      -6.204
      -5.375
      -4.314
      -3.144
      -1.846
      -0.353
       1.278
       2.838
       4.111
       5.072
       5.893
       6.718
       7.440
       7.721
       7.233
       5.935
       4.150
       2.390
       1.039
       0.150
      -0.492
      -1.142
      -1.940
      -2.927
      -4.088
      -5.308
      -6.320
      -6.792
      -6.522
      -5.558
      -4.132
      -2.499
      -0.867
       0.546
       1.481
       1.747
       1.368
       0.589
      -0.274
      -0.980
      -1.374
      -1.353
      -0.885
      -0.026
       1.081
       2.223
       3.129
       3.544
       3.356
       2.691
       1.846
       1.118
       0.656
       0.436
       0.355
       0.336
       0.361
       0.422
       0.470
       0.440
       0.326
       0.208
       0.179
       0.230
       0.206
      -0.113
      -0.824
      -1.777
      -2.629
      -3.062
      -2.964
      -2.422
      -1.607
      -0.679
       0.218
       0.951
       1.439
       1.684
       1.724
       1.572
       1.189
       0.553
      -0.266
      -1.087
      -1.720
      -2.093
      -2.269
      -2.353
      -2.392
      -2.397
      -2.407
      -2.468
      -2.517
      -2.327
      -1.640
      -0.418
       1.004
       2.074
       2.421
       2.160
       1.793
       1.808
       2.310
       3.002
       3.474
       3.529
       3.272
       2.930
       2.609
       2.218
       1.619
       0.815
      -0.002
      -0.570
      -0.721
      -0.475
      -0.032
       0.317
       0.332
      -0.053
      -0.706
      -1.426
      -2.068
      -2.575
      -2.915
      -3.043
      -2.916
      -2.509
      -1.846
      -1.032
      -0.255
       0.298
       0.546
       0.543
       0.422
       0.360
       0.573
       1.222
       2.237
       3.283
       3.986
       4.203
       4.051
       3.724
       3.323
       2.836
       2.208
       1.387
       0.337
      -0.918
      -2.225
      -3.328
      -4.023
      -4.311
      -4.369
      -4.385
      -4.430
      -4.426
      -4.206
      -3.630
      -2.686
      -1.490
      -0.233
       0.878
       1.679
       2.152
       2.447
       2.748
       3.074
       3.211
       2.894
       2.088
       1.079
       0.293
      -0.013
       0.087
       0.276
       0.235
      -0.121
      -0.593
      -0.850
      -0.678
      -0.148
       0.426
       0.713
       0.595
       0.196
      -0.321
      -0.940
      -1.735
      -2.654
      -3.431
      -3.777
      -3.618
      -3.136
      -2.576
      -2.076
      -1.625
      -1.140
      -0.572
       0.031
       0.579
       1.087
       1.681
       2.431
       3.195
       3.695
       3.751
       3.408
       2.856
       2.267
       1.730
       1.303
       1.086
       1.194
       1.648
       2.307
       2.913
       3.228
       3.134
       2.657
       1.900
       0.985
       0.025
      -0.879
      -1.666
      -2.346
      -2.980
      -3.599
      -4.160
      -4.586
      -4.807
      -4.749
      -4.333
      -3.536
      -2.456
      -1.278
      -0.167
       0.776
       1.453
       1.744
       1.568
       0.997
       0.263
      -0.373
      -0.777
      -0.960
      -0.949
      -0.678
      -0.015
       1.090
       2.489
       3.861
       4.871
       5.350
       5.332
       4.927
       4.173
       2.999
       1.347
      -0.644
      -2.601
      -4.091
      -4.886
      -5.077
      -4.959
      -4.805
      -4.704
      -4.557
      -4.165
      -3.365
      -2.138
      -0.665
       0.759
       1.919
       2.800
       3.514
       4.083
       4.354
       4.123
       3.331
       2.164
       0.983
       0.142
      -0.197
      -0.120
       0.130
       0.281
       0.133
      -0.354
      -1.022
      -1.578
      -1.770
      -1.523
      -0.961
      -0.300
       0.248
       0.542
       0.533
       0.296
       0.001
      -0.176
      -0.151
       0.035
       0.259
       0.394
       0.384
       0.261
       0.121
       0.075
       0.199
       0.471
       0.754
       0.895
       0.856
       0.753
       0.740
       0.888
       1.194
       1.643
       2.183
       2.635
       2.697
       2.114
       0.854
      -0.819
      -2.447
      -3.597
      -4.078
      -4.007
      -3.677
      -3.337
      -3.039
      -2.656
      -2.026
      -1.127
      -0.134
       0.714
       1.284
       1.590
       1.710
       1.719
       1.674
       1.584
       1.397
       1.043
       0.522
      -0.070
      -0.574
      -0.825
      -0.730
      -0.338
       0.178
       0.620
       0.850
       0.794
       0.444
      -0.118
      -0.705
      -1.098
      -1.201
      -1.136
      -1.179
      -1.531
      -2.096
      -2.499
      -2.341
      -1.487
      -0.171
       1.154
       2.097
       2.554
       2.726
       2.898
       3.149
       3.275
       2.993
       2.213
       1.150
       0.209
      -0.258
      -0.184
       0.195
       0.534
       0.599
       0.334
      -0.217
      -0.999
      -1.968
      -3.037
      -4.014
      -4.594
      -4.472
      -3.538
      -2.014
      -0.370
       0.947
       1.739
       2.083
       2.149
       1.998
       1.562
       0.802
      -0.133
      -0.943
      -1.351
      -1.275
      -0.838
      -0.251
       0.344
       0.931
       1.564
       2.243
       2.852
       3.204
       3.164
       2.757
       2.171
       1.640
       1.256
       0.882
       0.256
      -0.775
      -2.088
      -3.335
      -4.149
      -4.380
      -4.174
      -3.823
      -3.505
      -3.136
      -2.481
      -1.420
      -0.114
       1.096
       1.965
       2.495
       2.826
       3.019
       2.993
       2.624
       1.872
       0.850
      -0.148
      -0.738
      -0.686
      -0.119
       0.549
       0.961
       1.063
       1.063
       1.175
       1.394
       1.467
       1.101
       0.280
      -0.649
