Origin Time       21/9/2009 8:53:04	 
Lat.              27.3 N	
Long.             91.5 E	
Depth (Km)          8.0
Magnitude         6.2
 Region           BHUTAN                                                           
 Above details taken from IMD 
   
Station Code      TEJ
Station Lat.       26.619
Station Long.      92.797
Station Height(m)   76.0
Site Class        B   Vs30 between 375 m/sec to 700 m/sec *  
Record Time       21.09.2009 08:53:34.909
Sampling Rate     200. Hz
 Record Duration   79.815 Sec.
 Direction         Vert. (Up positive)
Max. Acceleration      7.884 cm/sec**2
     
  * For reference see Site Classification link of website 
     
 Base Line Corrected and Low Pass Filtered (Cut Off at 35 Hz) Time History
 Acceleration data in cm/sec**2
    
[...]
      -0.732
      -0.794
      -0.819
      -0.810
      -0.768
      -0.691
      -0.582
      -0.450
      -0.306
      -0.153
       0.022
       0.230
       0.453
       0.644
       0.742
       0.711
       0.558
       0.333
       0.092
      -0.140
      -0.372
      -0.619
      -0.861
      -1.028
      -1.039
      -0.858
      -0.545
      -0.226
      -0.018
       0.045
       0.023
       0.012
       0.068
       0.176
       0.273
       0.302
       0.246
       0.119
      -0.049
      -0.232
      -0.396
      -0.506
      -0.533
      -0.478
      -0.368
      -0.243
      -0.124
       0.006
       0.179
       0.414
       0.676
       0.895
       0.996
       0.949
       0.783
       0.573
       0.397
       0.295
       0.241
       0.172
       0.034
      -0.170
      -0.390
      -0.571
      -0.699
      -0.796
      -0.875
      -0.916
      -0.867
      -0.686
      -0.380
      -0.009
       0.340
       0.600
       0.756
       0.832
       0.861
       0.850
       0.775
       0.604
       0.330
      -0.011
      -0.347
      -0.598
      -0.709
      -0.669
      -0.503
      -0.255
       0.038
       0.338
       0.601
       0.773
       0.809
       0.695
       0.460
       0.160
      -0.145
      -0.417
      -0.656
      -0.882
      -1.108
      -1.308
      -1.423
      -1.397
      -1.220
      -0.932
      -0.604
      -0.307
      -0.087
       0.044
       0.103
       0.122
       0.135
       0.169
       0.248
       0.387
       0.585
       0.812
       1.013
       1.123
       1.090
       0.894
       0.550
       0.109
      -0.360
      -0.788
      -1.125
      -1.341
      -1.428
      -1.395
      -1.265
      -1.059
      -0.792
      -0.460
      -0.056
       0.399
       0.843
       1.196
       1.393
       1.420
       1.310
       1.118
       0.895
       0.664
       0.431
       0.198
      -0.019
      -0.201
      -0.327
      -0.388
      -0.386
      -0.326
      -0.204
      -0.007
       0.267
       0.592
       0.898
       1.105
       1.164
       1.085
       0.920
       0.726
       0.537
       0.367
       0.220
       0.099
      -0.010
      -0.132
      -0.289
      -0.475
      -0.654
      -0.773
      -0.797
      -0.715
      -0.547
      -0.326
      -0.097
       0.096
       0.221
       0.271
       0.265
       0.235
       0.205
       0.178
       0.142
       0.094
       0.044
       0.014
       0.012
       0.021
       0.009
      -0.060
      -0.205
      -0.404
      -0.591
      -0.676
      -0.591
      -0.347
      -0.050
       0.152
       0.160
      -0.008
      -0.227
      -0.341
      -0.259
       0.005
       0.344
       0.617
       0.727
       0.662
       0.497
       0.343
       0.274
       0.304
       0.390
       0.470
       0.493
       0.420
       0.217
      -0.131
      -0.591
      -1.055
      -1.381
      -1.467
      -1.313
      -1.010
      -0.674
      -0.361
      -0.058
       0.280
       0.665
       1.041
       1.303
       1.358
       1.179
       0.819
       0.388
      -0.005
      -0.301
      -0.502
      -0.638
      -0.731
      -0.782
      -0.779
      -0.717
      -0.604
      -0.450
      -0.261
      -0.044
       0.182
       0.384
       0.527
       0.590
       0.578
       0.514
       0.419
       0.303
       0.164
       0.001
      -0.169
      -0.317
      -0.415
      -0.454
      -0.450
      -0.430
      -0.403
      -0.353
      -0.258
      -0.110
       0.075
       0.272
       0.470
       0.675
       0.893
       1.101
       1.250
       1.294
       1.226
       1.085
       0.935
       0.836
       0.802
       0.792
       0.722
       0.518
       0.164
      -0.283
      -0.732
      -1.104
      -1.361
      -1.494
      -1.514
      -1.439
      -1.287
      -1.077
      -0.817
      -0.497
      -0.111
       0.313
       0.691
       0.914
       0.908
       0.684
       0.330
      -0.039
      -0.336
      -0.524
      -0.606
      -0.601
      -0.530
      -0.411
      -0.269
      -0.131
      -0.028
       0.027
       0.052
       0.102
       0.233
       0.453
       0.696
       0.857
       0.863
       0.715
       0.489
       0.279
       0.143
       0.081
       0.038
      -0.050
      -0.212
      -0.415
      -0.579
      -0.620
      -0.492
      -0.217
       0.123
       0.414
       0.556
       0.518
       0.347
       0.141
      -0.004
      -0.042
      -0.005
       0.018
      -0.062
      -0.260
      -0.497
      -0.648
      -0.642
      -0.507
      -0.353
      -0.281
      -0.320
      -0.405
      -0.434
      -0.335
      -0.125
       0.112
       0.281
       0.349
       0.349
       0.337
       0.340
       0.344
       0.315
       0.234
       0.108
      -0.039
      -0.186
      -0.310
      -0.376
      -0.347
      -0.218
      -0.047
       0.067
       0.044
      -0.119
      -0.335
      -0.476
      -0.448
      -0.249
       0.032
       0.273
       0.391
       0.372
       0.258
       0.101
      -0.074
      -0.261
      -0.461
      -0.654
      -0.806
      -0.885
      -0.878
      -0.781
      -0.595
      -0.332
      -0.029
       0.247
       0.434
       0.505
       0.486
       0.431
       0.385
       0.356
       0.321
       0.257
       0.173
       0.107
       0.107
       0.193
       0.348
       0.522
       0.663
       0.737
       0.735
       0.664
       0.539
       0.381
       0.222
       0.106
       0.061
       0.073
       0.086
       0.042
      -0.058
      -0.153
      -0.169
      -0.092
       0.016
       0.070
       0.029
      -0.062
      -0.103
      -0.016
       0.196
       0.435
       0.569
       0.507
       0.257
      -0.087
      -0.403
      -0.623
      -0.744
      -0.803
      -0.825
      -0.801
      -0.711
      -0.545
      -0.314
      -0.030
       0.295
       0.638
       0.939
       1.095
       1.014
       0.680
       0.195
      -0.271
      -0.572
      -0.669
      -0.629
      -0.558
      -0.524
      -0.518
      -0.486
      -0.386
      -0.225
      -0.058
       0.062
       0.127
       0.181
       0.287
       0.477
       0.720
       0.926
       0.992
       0.868
       0.587
       0.258
       0.000
      -0.128
      -0.156
      -0.176
      -0.275
      -0.473
      -0.717
      -0.906
      -0.957
      -0.842
      -0.609
      -0.350
      -0.155
      -0.067
      -0.066
      -0.088
      -0.063
       0.052
       0.246
       0.456
       0.594
       0.581
       0.389
       0.054
      -0.328
      -0.642
      -0.802
      -0.788
      -0.649
      -0.463
      -0.294
      -0.145
       0.027
       0.272
       0.589
       0.900
       1.088
       1.068
       0.844
       0.514
       0.211
       0.033
      -0.005
       0.037
       0.066
       0.009
      -0.155
      -0.392
      -0.634
      -0.828
      -0.962
      -1.073
      -1.200
      -1.339
      -1.426
      -1.373
      -1.131
      -0.733
      -0.288
       0.074
       0.270
       0.301
       0.244
       0.202
       0.249
       0.388
       0.561
       0.689
       0.723
       0.673
       0.598
       0.575
       0.645
       0.790
       0.930
       0.969
       0.851
       0.598
       0.299
       0.067
      -0.007
       0.107
       0.368
       0.676
       0.909
       0.984
       0.888
       0.675
       0.420
       0.172
      -0.058
      -0.279
      -0.491
      -0.686
      -0.864
      -1.038
      -1.220
      -1.392
      -1.502
      -1.489
      -1.323
      -1.020
      -0.626
      -0.200
       0.199
       0.519
       0.719
       0.788
       0.748
       0.647
       0.534
       0.449
       0.418
       0.447
       0.515
       0.579
       0.592
       0.541
       0.457
       0.403
       0.438
       0.575
       0.757
       0.867
       0.778
       0.429
      -0.133
      -0.763
      -1.284
      -1.567
      -1.582
      -1.394
      -1.115
      -0.838
      -0.600
      -0.385
      -0.156
       0.100
       0.354
       0.543
       0.603
       0.518
       0.329
       0.121
      -0.014
      -0.025
       0.078
       0.222
       0.318
       0.319
       0.248
       0.176
       0.169
       0.244
       0.379
       0.540
       0.707
       0.857
       0.947
       0.908
       0.692
       0.324
      -0.097
      -0.445
      -0.638
      -0.664
      -0.581
      -0.475
      -0.417
      -0.429
      -0.481
      -0.517
      -0.491
      -0.396
      -0.256
      -0.109
       0.011
       0.081
       0.089
       0.035
      -0.066
      -0.182
      -0.267
      -0.272
      -0.177
      -0.006
       0.166
       0.246
       0.179
      -0.015
      -0.232
      -0.355
      -0.329
      -0.212
      -0.129
      -0.182
      -0.358
      -0.532
      -0.553
      -0.356
      -0.010
       0.341
       0.573
       0.658
       0.650
       0.616
       0.589
       0.555
       0.492
       0.397
       0.291
       0.204
       0.144
       0.110
       0.099
       0.116
       0.166
       0.235
       0.281
       0.256
       0.134
      -0.054
      -0.218
      -0.269
      -0.177
      -0.007
       0.121
       0.113
      -0.045
      -0.294
      -0.552
      -0.767
      -0.933
      -1.061
      -1.157
      -1.211
      -1.216
      -1.174
      -1.092
      -0.962
      -0.771
      -0.517
      -0.237
      -0.005
       0.108
       0.084
      -0.022
      -0.110
      -0.105
       0.004
       0.166
       0.321
       0.443
       0.548
       0.670
       0.821
       0.967
       1.045
       1.008
       0.868
       0.702
       0.608
       0.651
       0.820
       1.034
       1.170
       1.116
       0.823
       0.328
      -0.250
      -0.748
      -1.030
      -1.044
      -0.847
      -0.561
      -0.295
      -0.082
       0.115
       0.335
       0.560
       0.718
       0.742
       0.632
       0.453
       0.277
       0.123
      -0.044
      -0.267
      -0.548
      -0.841
      -1.081
      -1.213
      -1.215
      -1.095
      -0.885
      -0.633
      -0.387
      -0.185
      -0.039
       0.060
       0.130
       0.181
       0.214
       0.211
       0.153
       0.024
      -0.167
      -0.386
      -0.579
      -0.704
      -0.756
      -0.767
      -0.778
      -0.799
      -0.790
      -0.687
      -0.454
      -0.121
       0.222
       0.476
       0.586
       0.567
       0.473
       0.364
       0.280
       0.241
       0.254
       0.325
       0.453
       0.630
       0.833
       1.036
       1.216
       1.362
       1.467
       1.517
       1.493
       1.381
       1.189
       0.947
       0.710
       0.535
       0.457
       0.477
       0.567
       0.696
       0.840
       0.990
       1.139
       1.273
       1.364
       1.380
       1.289
       1.068
       0.721
       0.281
      -0.191
      -0.622
      -0.952
      -1.134
      -1.142
      -0.974
      -0.666
      -0.300
       0.021
       0.216
       0.255
       0.156
      -0.038
      -0.293
      -0.589
      -0.904
      -1.198
      -1.419
      -1.532
      -1.536
      -1.456
      -1.321
      -1.146
      -0.935
      -0.688
      -0.415
      -0.149
       0.056
       0.139
       0.071
      -0.121
      -0.369
      -0.602
      -0.792
      -0.966
      -1.171
      -1.430
      -1.714
      -1.950
      -2.052
      -1.943
      -1.581
      -0.969
      -0.156
       0.777
       1.734
       2.619
       3.338
       3.811
       3.976
       3.826
       3.420
       2.866
       2.286
       1.772
       1.371
       1.091
       0.920
       0.846
       0.867
       0.985
       1.191
       1.437
       1.641
       1.717
       1.614
       1.328
       0.888
       0.335
      -0.303
      -0.996
      -1.704
      -2.359
      -2.876
      -3.184
      -3.253
      -3.111
      -2.832
      -2.498
      -2.165
      -1.852
      -1.569
      -1.338
      -1.204
      -1.201
      -1.315
      -1.469
      -1.540
      -1.419
      -1.071
      -0.566
      -0.047
       0.344
       0.531
       0.529
       0.412
       0.254
       0.085
      -0.118
      -0.399
      -0.778
      -1.212
      -1.607
      -1.840
      -1.815
      -1.500
      -0.942
      -0.245
       0.461
       1.059
       1.476
       1.697
       1.750
       1.682
       1.529
       1.316
       1.053
       0.737
       0.355
      -0.094
      -0.576
      -1.013
      -1.309
      -1.387
      -1.223
      -0.841
      -0.290
       0.381
       1.117
       1.850
       2.494
       2.970
       3.224
       3.221
       2.951
       2.423
       1.670
       0.743
      -0.280
      -1.298
      -2.200
      -2.906
      -3.372
      -3.584
      -3.530
      -3.195
      -2.576
      -1.711
      -0.692
       0.342
       1.240
       1.887
       2.240
       2.318
       2.175
       1.873
       1.472
       1.030
       0.603
       0.250
       0.024
      -0.034
       0.087
       0.352
       0.668
       0.905
       0.961
       0.810
       0.517
       0.194
      -0.075
      -0.272
      -0.436
      -0.621
      -0.859
      -1.151
      -1.494
      -1.901
      -2.407
      -3.039
      -3.771
      -4.515
      -5.148
      -5.561
      -5.689
      -5.508
      -5.006
      -4.176
      -3.024
      -1.599
       0.008
       1.684
       3.332
       4.862
       6.184
       7.191
       7.777
       7.884
       7.526
       6.789
       5.794
       4.645
       3.412
       2.145
       0.899
      -0.246
      -1.196
      -1.871
      -2.228
      -2.274
      -2.047
      -1.594
      -0.961
      -0.209
       0.578
       1.296
       1.848
       2.172
       2.261
       2.157
       1.932
       1.653
       1.356
       1.043
       0.691
       0.281
      -0.177
      -0.650
      -1.100
      -1.507
      -1.867
      -2.169
      -2.399
      -2.543
      -2.595
      -2.551
      -2.402
      -2.136
      -1.749
      -1.252
      -0.695
      -0.164
       0.243
       0.459
       0.485
       0.391
       0.268
       0.161
       0.050
      -0.105
      -0.294
      -0.449
      -0.476
      -0.298
       0.122
       0.773
       1.585
       2.445
       3.235
       3.852
       4.212
       4.259
       3.971
       3.356
       2.472
       1.425
       0.336
      -0.712
      -1.699
      -2.637
      -3.516
      -4.279
      -4.834
      -5.099
      -5.043
      -4.693
      -4.111
      -3.345
      -2.426
      -1.399
      -0.357
       0.564
       1.245
       1.636
       1.779
       1.760
       1.650
       1.467
       1.204
       0.891
       0.602
       0.416
       0.363
       0.418
       0.550
       0.747
       1.021
       1.376
       1.768
       2.102
       2.275
       2.228
       1.971
       1.553
       1.016
       0.385
      -0.299
      -0.963
      -1.521
      -1.926
      -2.183
      -2.325
      -2.390
      -2.408
      -2.387
      -2.294
      -2.047
      -1.567
      -0.849
      -0.002
       0.799
       1.409
       1.762
       1.865
       1.756
       1.476
       1.074
       0.615
       0.164
      -0.239
      -0.590
      -0.896
      -1.151
      -1.330
      -1.407
      -1.387
      -1.313
      -1.238
      -1.173
      -1.072
      -0.863
      -0.514
      -0.068
       0.355
       0.609
       0.589
       0.293
      -0.174
      -0.650
      -0.999
      -1.178
      -1.239
      -1.278
      -1.372
      -1.553
      -1.822
      -2.152
      -2.485
      -2.736
      -2.821
      -2.691
      -2.359
      -1.889
      -1.356
      -0.812
      -0.280
       0.219
       0.658
       1.018
       1.306
       1.553
       1.789
       2.026
       2.252
       2.451
       2.614
       2.743
       2.856
       2.967
       3.051
       3.029
       2.791
       2.265
       1.457
       0.432
      -0.718
      -1.899
      -2.994
      -3.855
      -4.323
      -4.293
      -3.770
      -2.874
      -1.781
      -0.644
       0.454
       1.499
       2.511
       3.499
       4.422
       5.179
       5.658
       5.784
       5.558
       5.044
       4.333
       3.519
       2.685
       1.914
       1.288
       0.857
       0.607
       0.460
       0.314
       0.090
      -0.238
      -0.645
      -1.083
      -1.516
      -1.935
      -2.346
      -2.755
      -3.152
      -3.510
      -3.791
      -3.970
      -4.039
      -3.991
      -3.816
      -3.517
      -3.142
      -2.760
      -2.417
      -2.082
      -1.667
      -1.095
      -0.368
       0.423
       1.138
       1.671
       2.010
       2.237
       2.468
       2.771
       3.116
       3.393
       3.476
       3.296
       2.869
       2.264
       1.550
       0.767
      -0.044
      -0.819
      -1.471
      -1.940
      -2.206
      -2.283
      -2.201
      -2.010
      -1.772
      -1.539
      -1.334
      -1.156
      -0.999
      -0.861
      -0.738
      -0.625
      -0.517
      -0.427
      -0.394
      -0.470
      -0.681
      -0.989
      -1.285
      -1.421
      -1.288
      -0.872
      -0.266
       0.387
       0.968
       1.428
       1.788
       2.103
       2.403
       2.659
       2.791
       2.735
       2.495
       2.147
       1.784
       1.455
       1.158
       0.877
       0.626
       0.445
       0.339
       0.247
       0.059
      -0.297
      -0.786
      -1.269
      -1.593
      -1.673
      -1.522
      -1.212
      -0.822
      -0.411
      -0.033
       0.257
       0.424
       0.487
       0.523
       0.644
       0.920
       1.338
       1.793
       2.147
       2.313
       2.304
       2.220
       2.168
       2.185
       2.216
       2.156
       1.923
       1.504
       0.953
       0.355
      -0.221
      -0.738
      -1.178
      -1.518
      -1.730
      -1.799
      -1.745
      -1.620
      -1.489
      -1.421
      -1.470
      -1.649
      -1.912
      -2.150
      -2.229
      -2.037
      -1.525
      -0.724
       0.267
       1.320
       2.306
       3.129
       3.738
       4.131
       4.311
       4.247
       3.862
       3.072
       1.856
       0.316
      -1.341
      -2.891
      -4.194
      -5.237
      -6.076
      -6.746
      -7.200
      -7.314
      -6.944
      -6.000
      -4.508
      -2.635
      -0.656
       1.127
       2.479
       3.282
       3.532
       3.301
       2.696
       1.834
       0.844
      -0.126
      -0.905
      -1.332
      -1.303
      -0.825
      -0.011
       0.965
       1.946
       2.841
       3.616
       4.268
       4.798
       5.196
       5.418
       5.393
       5.046
       4.345
       3.339
       2.136
       0.872
      -0.316
      -1.297
      -1.973
      -2.307
      -2.336
      -2.143
      -1.802
      -1.351
      -0.803
      -0.188
       0.432
       0.982
       1.384
       1.575
       1.523
       1.239
       0.774
       0.190
      -0.464
      -1.161
      -1.902
      -2.686
      -3.464
      -4.126
      -4.521
      -4.524
      -4.095
      -3.322
      -2.389
      -1.502
      -0.786
      -0.248
       0.189
       0.606
       1.019
       1.372
       1.587
       1.630
       1.523
       1.326
       1.113
