Origin Time       11/8/2009 21:43:39 
Lat.              24.4 N 
Long.             94.8 E 
Depth (Km)         22.0
Magnitude         5.6
 Region           MYANMAR-INDIA(MANIPUR)BORDER                                     
 Above details taken from IMD 
   
Station Code      TEJ
Station Lat.       26.619
Station Long.      92.797
Station Height(m)   76.0
Site Class        B   Vs30 between 375 m/sec to 700 m/sec *  
Record Time       11.08.2009 21:44:49.324
Sampling Rate     200. Hz
 Record Duration   65.305 Sec.
 Direction         Vert. (Up positive)
Max. Acceleration      4.253 cm/sec**2
     
  * For reference see Site Classification link of website 
     
 Base Line Corrected and Low Pass Filtered (Cut Off at 35 Hz) Time History
 Acceleration data in cm/sec**2
    
[...]
       0.020
       0.025
       0.126
       0.285
       0.442
       0.558
       0.631
       0.678
       0.705
       0.688
       0.577
       0.338
      -0.009
      -0.378
      -0.657
      -0.769
      -0.713
      -0.548
      -0.348
      -0.167
      -0.039
       0.020
       0.032
       0.060
       0.175
       0.390
       0.624
       0.748
       0.674
       0.419
       0.076
      -0.259
      -0.541
      -0.771
      -0.947
      -1.046
      -1.041
      -0.924
      -0.703
      -0.389
       0.001
       0.413
       0.757
       0.942
       0.934
       0.782
       0.580
       0.402
       0.262
       0.137
       0.008
      -0.121
      -0.231
      -0.315
      -0.374
      -0.412
      -0.431
      -0.420
      -0.350
      -0.199
       0.009
       0.196
       0.275
       0.216
       0.079
      -0.014
       0.037
       0.250
       0.531
       0.739
       0.763
       0.590
       0.297
      -0.003
      -0.243
      -0.427
      -0.602
      -0.791
      -0.952
      -1.000
      -0.861
      -0.531
      -0.086
       0.351
       0.671
       0.811
       0.783
       0.656
       0.514
       0.406
       0.312
       0.181
      -0.012
      -0.231
      -0.404
      -0.485
      -0.490
      -0.476
      -0.495
      -0.551
      -0.603
      -0.593
      -0.474
      -0.242
       0.053
       0.319
       0.473
       0.497
       0.464
       0.469
       0.551
       0.657
       0.691
       0.582
       0.327
      -0.006
      -0.322
      -0.535
      -0.605
      -0.541
      -0.392
      -0.221
      -0.078
       0.014
       0.058
       0.069
       0.057
       0.033
       0.019
       0.035
       0.079
       0.123
       0.122
       0.050
      -0.083
      -0.226
      -0.327
      -0.355
      -0.305
      -0.193
      -0.039
       0.119
       0.235
       0.277
       0.252
       0.209
       0.202
       0.248
       0.316
       0.362
       0.362
       0.333
       0.297
       0.254
       0.177
       0.056
      -0.092
      -0.234
      -0.351
      -0.442
      -0.501
      -0.497
      -0.397
      -0.201
       0.039
       0.246
       0.357
       0.339
       0.188
      -0.065
      -0.335
      -0.506
      -0.495
      -0.314
      -0.066
       0.141
       0.262
       0.326
       0.370
       0.388
       0.336
       0.206
       0.058
      -0.016
       0.020
       0.115
       0.178
       0.150
       0.040
      -0.100
      -0.208
      -0.244
      -0.206
      -0.131
      -0.066
      -0.038
      -0.052
      -0.113
      -0.231
      -0.402
      -0.582
      -0.692
      -0.659
      -0.466
      -0.180
       0.095
       0.291
       0.428
       0.576
       0.765
       0.939
       0.995
       0.865
       0.576
       0.226
      -0.077
      -0.274
      -0.367
      -0.393
      -0.384
      -0.352
      -0.292
      -0.191
      -0.049
       0.103
       0.218
       0.255
       0.210
       0.109
      -0.014
      -0.140
      -0.271
      -0.403
      -0.512
      -0.555
      -0.501
      -0.349
      -0.132
       0.107
       0.322
       0.471
       0.509
       0.403
       0.159
      -0.158
      -0.443
      -0.599
      -0.586
      -0.439
      -0.236
      -0.056
       0.044
       0.051
       0.001
      -0.028
       0.034
       0.179
       0.305
       0.286
       0.085
      -0.198
      -0.385
      -0.347
      -0.092
       0.250
       0.531
       0.682
       0.719
       0.684
       0.594
       0.449
       0.258
       0.039
      -0.182
      -0.379
      -0.527
      -0.607
      -0.606
      -0.519
      -0.356
      -0.147
       0.063
       0.230
       0.333
       0.383
       0.414
       0.451
       0.491
       0.491
       0.410
       0.250
       0.070
      -0.041
      -0.015
       0.150
       0.375
       0.524
       0.481
       0.218
      -0.185
      -0.586
      -0.855
      -0.935
      -0.848
      -0.666
      -0.467
      -0.313
      -0.245
      -0.264
      -0.319
      -0.321
      -0.202
       0.031
       0.292
       0.466
       0.481
       0.356
       0.189
       0.091
       0.101
       0.147
       0.110
      -0.069
      -0.334
      -0.550
      -0.604
      -0.469
      -0.206
       0.091
       0.348
       0.528
       0.634
       0.689
       0.719
       0.740
       0.752
       0.743
       0.693
       0.575
       0.362
       0.034
      -0.389
      -0.836
      -1.207
      -1.416
      -1.430
      -1.259
      -0.928
      -0.459
       0.094
       0.618
       0.980
       1.091
       0.963
       0.704
       0.461
       0.335
       0.330
       0.369
       0.369
       0.308
       0.214
       0.104
      -0.049
      -0.286
      -0.608
      -0.945
      -1.180
      -1.219
      -1.052
      -0.770
      -0.511
      -0.366
      -0.327
      -0.312
      -0.227
      -0.023
       0.269
       0.556
       0.731
       0.735
       0.592
       0.394
       0.233
       0.144
       0.094
       0.033
      -0.055
      -0.141
      -0.177
      -0.139
      -0.025
       0.138
       0.316
       0.470
       0.572
       0.613
       0.606
       0.568
       0.505
       0.408
       0.268
       0.102
      -0.041
      -0.111
      -0.089
      -0.014
       0.045
       0.030
      -0.072
      -0.230
      -0.399
      -0.543
      -0.640
      -0.683
      -0.683
      -0.660
      -0.628
      -0.571
      -0.444
      -0.201
       0.151
       0.528
       0.797
       0.847
       0.662
       0.328
      -0.012
      -0.233
      -0.290
      -0.216
      -0.078
       0.072
       0.211
       0.326
       0.395
       0.371
       0.228
      -0.001
      -0.214
      -0.287
      -0.158
       0.132
       0.457
       0.666
       0.654
       0.424
       0.086
      -0.193
      -0.287
      -0.182
       0.005
       0.099
      -0.020
      -0.327
      -0.652
      -0.778
      -0.593
      -0.164
       0.303
       0.600
       0.644
       0.504
       0.330
       0.232
       0.215
       0.203
       0.121
      -0.046
      -0.254
      -0.460
      -0.645
      -0.805
      -0.913
      -0.918
      -0.767
      -0.438
       0.036
       0.560
       0.989
       1.192
       1.128
       0.868
       0.542
       0.236
      -0.039
      -0.311
      -0.579
      -0.792
      -0.894
      -0.868
      -0.754
      -0.608
      -0.470
      -0.350
      -0.226
      -0.073
       0.109
       0.278
       0.377
       0.381
       0.326
       0.268
       0.223
       0.131
      -0.094
      -0.465
      -0.873
      -1.137
      -1.140
      -0.917
      -0.611
      -0.349
      -0.149
       0.047
       0.259
       0.407
       0.360
       0.061
      -0.396
      -0.804
      -0.960
      -0.781
      -0.343
       0.164
       0.544
       0.721
       0.758
       0.779
       0.841
       0.895
       0.852
       0.660
       0.348
      -0.006
      -0.314
      -0.534
      -0.678
      -0.772
      -0.806
      -0.714
      -0.430
       0.048
       0.642
       1.243
       1.753
       2.076
       2.115
       1.806
       1.186
       0.414
      -0.291
      -0.752
      -0.923
      -0.899
      -0.860
      -0.952
      -1.183
      -1.419
      -1.497
      -1.364
      -1.116
      -0.915
      -0.865
      -0.936
      -1.003
      -0.935
      -0.689
      -0.331
       0.017
       0.260
       0.382
       0.431
       0.469
       0.539
       0.649
       0.778
       0.872
       0.885
       0.820
       0.734
       0.679
       0.648
       0.599
       0.530
       0.499
       0.561
       0.688
       0.778
       0.751
       0.638
       0.555
       0.598
       0.746
       0.869
       0.842
       0.639
       0.339
       0.032
      -0.263
      -0.585
      -0.949
      -1.291
      -1.507
      -1.531
      -1.384
      -1.125
      -0.784
      -0.353
       0.158
       0.679
       1.112
       1.398
       1.529
       1.518
       1.385
       1.174
       0.960
       0.794
       0.646
       0.406
      -0.009
      -0.561
      -1.099
      -1.467
      -1.617
      -1.608
      -1.517
      -1.355
      -1.079
      -0.680
      -0.246
       0.077
       0.199
       0.167
       0.132
       0.226
       0.451
       0.660
       0.655
       0.329
      -0.242
      -0.816
      -1.131
      -1.070
      -0.725
      -0.304
       0.032
       0.251
       0.412
       0.570
       0.709
       0.767
       0.708
       0.555
       0.369
       0.212
       0.129
       0.154
       0.281
       0.456
       0.582
       0.566
       0.353
      -0.064
      -0.629
      -1.211
      -1.634
      -1.767
      -1.613
      -1.319
      -1.084
      -1.028
      -1.132
      -1.257
      -1.223
      -0.892
      -0.225
       0.691
       1.661
       2.456
       2.892
       2.888
       2.462
       1.704
       0.753
      -0.212
      -1.002
      -1.451
      -1.479
      -1.120
      -0.512
       0.152
       0.698
       1.019
       1.101
       1.004
       0.825
       0.649
       0.512
       0.399
       0.266
       0.068
      -0.232
      -0.670
      -1.260
      -1.952
      -2.609
      -3.028
      -3.032
      -2.545
      -1.628
      -0.451
       0.780
       1.882
       2.711
       3.160
       3.153
       2.673
       1.795
       0.706
      -0.327
      -1.035
      -1.263
      -1.051
      -0.608
      -0.185
       0.073
       0.179
       0.253
       0.407
       0.671
       0.962
       1.123
       0.997
       0.537
      -0.146
      -0.829
      -1.298
      -1.443
      -1.265
      -0.818
      -0.148
       0.698
       1.623
       2.461
       3.020
       3.176
       2.926
       2.355
       1.579
       0.715
      -0.120
      -0.806
      -1.245
      -1.386
      -1.254
      -0.941
      -0.580
      -0.300
      -0.181
      -0.247
      -0.478
      -0.831
      -1.256
      -1.686
      -2.028
      -2.177
      -2.065
      -1.699
      -1.161
      -0.549
       0.085
       0.722
       1.320
       1.758
       1.881
       1.629
       1.111
       0.556
       0.157
      -0.041
      -0.137
      -0.279
      -0.570
      -1.020
      -1.550
      -2.042
      -2.397
      -2.564
      -2.525
      -2.256
      -1.715
      -0.895
       0.106
       1.076
       1.783
       2.095
       2.036
       1.746
       1.385
       1.054
       0.782
       0.563
       0.410
       0.371
       0.499
       0.796
       1.190
       1.558
       1.792
       1.829
       1.656
       1.284
       0.732
       0.027
      -0.784
      -1.623
      -2.375
      -2.914
      -3.174
      -3.195
      -3.084
      -2.910
      -2.656
      -2.285
      -1.844
      -1.475
      -1.303
      -1.314
      -1.341
      -1.176
      -0.730
      -0.114
       0.436
       0.729
       0.764
       0.716
       0.798
       1.091
       1.501
       1.846
       2.007
       2.000
       1.939
       1.952
       2.111
       2.400
       2.702
       2.849
       2.719
       2.333
       1.825
       1.321
       0.857
       0.408
      -0.051
      -0.516
      -0.984
      -1.453
      -1.904
      -2.295
      -2.575
      -2.688
      -2.580
      -2.236
      -1.743
      -1.293
      -1.098
      -1.245
      -1.619
      -1.933
      -1.880
      -1.317
      -0.374
       0.599
       1.239
       1.394
       1.199
       0.944
       0.846
       0.921
       1.036
       1.054
       0.953
       0.829
       0.790
       0.843
       0.867
       0.717
       0.363
      -0.060
      -0.342
      -0.352
      -0.120
       0.201
       0.456
       0.593
       0.676
       0.794
       0.958
       1.090
       1.088
       0.903
       0.555
       0.106
      -0.370
      -0.794
      -1.082
      -1.147
      -0.917
      -0.380
       0.379
       1.184
       1.841
       2.226
       2.334
       2.236
       2.001
       1.643
       1.138
       0.491
      -0.234
      -0.922
      -1.458
      -1.764
      -1.834
      -1.758
      -1.689
      -1.765
      -2.012
      -2.339
      -2.602
      -2.698
      -2.594
      -2.309
      -1.869
      -1.324
      -0.763
      -0.307
      -0.046
       0.061
       0.189
       0.526
       1.107
       1.737
       2.103
       1.987
       1.419
       0.666
       0.054
      -0.222
      -0.185
      -0.010
       0.128
       0.197
       0.295
       0.539
       0.921
       1.281
       1.403
       1.170
       0.630
      -0.058
      -0.729
      -1.246
      -1.497
      -1.425
      -1.103
      -0.752
      -0.601
      -0.693
      -0.836
      -0.770
      -0.382
       0.212
       0.773
       1.113
       1.207
       1.177
       1.176
       1.267
       1.382
       1.403
       1.281
       1.095
       0.987
       1.029
       1.118
       1.026
       0.588
      -0.121
      -0.799
      -1.132
      -1.024
      -0.654
      -0.307
      -0.149
      -0.136
      -0.137
      -0.134
      -0.285
      -0.777
      -1.619
      -2.577
      -3.326
      -3.659
      -3.579
      -3.235
      -2.782
      -2.274
      -1.659
      -0.869
       0.066
       0.979
       1.621
       1.805
       1.549
       1.088
       0.726
       0.624
       0.706
       0.765
       0.663
       0.452
       0.312
       0.401
       0.759
       1.325
       1.999
       2.692
       3.341
       3.887
       4.236
       4.253
       3.838
       3.015
       1.951
       0.871
      -0.056
      -0.777
      -1.335
      -1.812
      -2.262
      -2.655
      -2.903
      -2.929
      -2.728
      -2.358
      -1.892
      -1.379
      -0.843
      -0.297
       0.224
       0.634
       0.797
       0.588
      -0.008
      -0.856
      -1.698
      -2.269
      -2.402
      -2.109
      -1.544
      -0.888
      -0.210
       0.545
       1.438
       2.402
       3.218
       3.652
       3.629
       3.271
       2.780
       2.262
       1.684
       0.963
       0.084
      -0.864
      -1.747
      -2.455
      -2.919
      -3.103
      -3.005
      -2.670
      -2.188
      -1.664
      -1.170
      -0.720
      -0.299
       0.079
       0.351
       0.437
       0.313
       0.072
      -0.100
      -0.038
       0.274
       0.684
       0.972
       1.020
       0.902
       0.825
       0.955
       1.281
       1.623
       1.776
       1.661
       1.384
       1.131
       1.014
       0.980
       0.851
       0.477
      -0.137
      -0.813
      -1.321
      -1.529
      -1.458
      -1.234
      -0.963
      -0.672
      -0.348
      -0.008
       0.281
       0.457
       0.515
       0.494
       0.408
       0.232
      -0.047
      -0.357
      -0.562
      -0.570
      -0.427
      -0.306
      -0.389
      -0.737
      -1.253
      -1.724
      -1.934
      -1.764
      -1.241
      -0.519
       0.211
       0.791
       1.127
       1.182
       0.976
       0.577
       0.078
      -0.435
      -0.874
      -1.140
      -1.148
      -0.904
      -0.546
      -0.270
      -0.192
      -0.261
      -0.321
      -0.255
      -0.074
       0.142
       0.339
       0.511
       0.630
       0.610
       0.366
      -0.095
      -0.645
      -1.118
      -1.416
      -1.536
      -1.504
      -1.282
      -0.782
       0.031
       1.034
       1.967
       2.577
       2.755
       2.580
       2.244
       1.939
       1.769
       1.711
       1.644
       1.427
       1.004
       0.448
      -0.087
      -0.475
      -0.696
      -0.832
      -0.972
      -1.125
      -1.198
      -1.090
      -0.785
      -0.382
      -0.026
       0.167
       0.149
      -0.053
      -0.340
      -0.558
      -0.575
      -0.366
      -0.056
       0.173
       0.220
       0.143
       0.100
       0.212
       0.489
       0.858
       1.230
       1.547
       1.756
       1.782
       1.535
       0.968
       0.131
      -0.827
      -1.732
      -2.466
      -2.979
      -3.245
      -3.220
      -2.890
      -2.336
      -1.704
      -1.109
      -0.548
       0.056
       0.725
       1.348
       1.734
       1.755
       1.450
       1.016
       0.691
       0.626
       0.798
       1.025
       1.080
       0.848
       0.443
       0.173
       0.332
       0.944
       1.695
       2.155
       2.095
       1.621
       1.031
       0.574
       0.328
       0.223
       0.138
      -0.017
      -0.261
      -0.540
      -0.780
      -0.955
      -1.104
      -1.300
      -1.574
      -1.869
      -2.064
      -2.072
      -1.921
      -1.728
      -1.583
      -1.462
      -1.244
      -0.822
      -0.222
       0.374
       0.736
       0.761
       0.549
       0.298
       0.123
      -0.006
      -0.166
      -0.344
      -0.419
      -0.250
       0.208
       0.833
       1.390
       1.680
       1.675
       1.510
       1.340
       1.230
       1.157
       1.084
       0.985
       0.826
       0.565
       0.187
      -0.253
      -0.653
      -0.923
      -1.060
      -1.147
      -1.275
      -1.461
      -1.638
      -1.731
      -1.724
      -1.660
      -1.593
      -1.529
      -1.412
      -1.164
      -0.746
      -0.195
       0.385
       0.874
       1.189
       1.306
       1.263
       1.163
       1.137
       1.265
       1.513
       1.745
       1.827
       1.729
       1.538
       1.372
       1.272
       1.155
       0.885
       0.374
      -0.338
      -1.096
      -1.719
      -2.074
      -2.100
      -1.792
      -1.214
      -0.531
       0.014
       0.228
       0.103
      -0.173
      -0.347
      -0.274
       0.003
       0.309
       0.455
       0.329
      -0.055
      -0.570
      -1.017
      -1.220
      -1.119
      -0.800
      -0.415
      -0.051
       0.345
       0.889
       1.602
       2.314
       2.742
       2.703
       2.248
       1.612
       1.009
       0.478
      -0.082
      -0.748
      -1.449
      -2.012
      -2.288
      -2.225
      -1.867
      -1.317
      -0.706
      -0.150
       0.293
       0.648
       0.975
       1.269
       1.422
       1.302
       0.911
       0.438
       0.149
       0.186
       0.453
       0.683
       0.626
       0.227
      -0.337
      -0.788
      -0.929
      -0.746
      -0.381
      -0.031
       0.147
       0.094
      -0.135
      -0.406
      -0.592
      -0.675
      -0.764
      -1.001
      -1.415
      -1.865
      -2.131
      -2.086
      -1.796
      -1.443
      -1.148
      -0.866
      -0.449
       0.189
       0.941
       1.536
       1.709
       1.386
       0.758
       0.182
      -0.009
       0.311
       0.990
       1.688
       2.080
       2.049
       1.730
       1.392
       1.221
       1.189
       1.088
       0.713
       0.066
      -0.600
      -0.939
      -0.797
      -0.358
      -0.041
      -0.197
      -0.850
      -1.677
      -2.233
      -2.244
      -1.769
      -1.117
      -0.621
      -0.436
      -0.498
      -0.635
      -0.695
      -0.631
      -0.492
      -0.357
      -0.272
      -0.215
      -0.132
       0.030
       0.309
       0.728
       1.266
       1.812
       2.184
       2.226
       1.914
       1.370
       0.793
       0.352
       0.102
      -0.022
