Origin Time       29/12/2009 09:01:42
Lat.              24.5°N	
Long.             94.8°E	
Depth (Km)         80.0
Magnitude         5.5
 Region           MYANMAR-INDIA(MANIPUR)-BORDER                                    
 Above details taken from IMD 
     
Station Code      TEJ
Station Lat.       26.619  N
Station Long.      92.797  E
Station Height(m)   76.0
Site Class        B   Vs30 between 375 m/sec to 700 m/sec *  
Record Time       29.12.2009 09:02:53.334
Sampling Rate     200. Hz
 Record Duration   67.605 Sec.
 Direction         E-W (E positive)
Max. Acceleration     -7.422 cm/sec**2
     
  * For reference see Site Classification link of website 
     
 Base Line Corrected and Low Pass Filtered (Cut Off at 35 Hz) Time History
 Acceleration data in cm/sec**2
    
[...]
       0.022
      -0.009
      -0.136
      -0.336
      -0.528
      -0.608
      -0.507
      -0.239
       0.102
       0.379
       0.484
       0.383
       0.132
      -0.158
      -0.373
      -0.440
      -0.352
      -0.158
       0.063
       0.239
       0.334
       0.350
       0.319
       0.274
       0.239
       0.210
       0.163
       0.060
      -0.112
      -0.325
      -0.508
      -0.578
      -0.487
      -0.255
       0.032
       0.257
       0.336
       0.259
       0.095
      -0.047
      -0.087
      -0.022
       0.086
       0.174
       0.231
       0.291
       0.377
       0.455
       0.451
       0.316
       0.081
      -0.154
      -0.273
      -0.214
      -0.003
       0.258
       0.452
       0.523
       0.503
       0.465
       0.449
       0.425
       0.333
       0.158
      -0.045
      -0.189
      -0.220
      -0.152
      -0.048
       0.036
       0.086
       0.124
       0.172
       0.217
       0.214
       0.126
      -0.034
      -0.201
      -0.292
      -0.268
      -0.169
      -0.102
      -0.163
      -0.366
      -0.614
      -0.769
      -0.757
      -0.623
      -0.477
      -0.401
      -0.388
      -0.371
      -0.299
      -0.193
      -0.140
      -0.218
      -0.420
      -0.629
      -0.686
      -0.500
      -0.132
       0.245
       0.469
       0.490
       0.382
       0.274
       0.257
       0.335
       0.442
       0.490
       0.430
       0.281
       0.109
      -0.021
      -0.084
      -0.096
      -0.087
      -0.084
      -0.091
      -0.095
      -0.063
       0.032
       0.178
       0.313
       0.356
       0.268
       0.090
      -0.078
      -0.144
      -0.082
       0.062
       0.208
       0.288
       0.270
       0.169
       0.047
      -0.018
       0.026
       0.163
       0.307
       0.354
       0.256
       0.056
      -0.150
      -0.284
      -0.322
      -0.293
      -0.231
      -0.151
      -0.041
       0.102
       0.251
       0.353
       0.360
       0.272
       0.134
       0.003
      -0.091
      -0.149
      -0.180
      -0.193
      -0.206
      -0.254
      -0.367
      -0.530
      -0.675
      -0.716
      -0.605
      -0.367
      -0.079
       0.168
       0.305
       0.304
       0.188
       0.028
      -0.087
      -0.093
       0.017
       0.191
       0.347
       0.411
       0.348
       0.179
      -0.037
      -0.232
      -0.370
      -0.449
      -0.484
      -0.461
      -0.344
      -0.120
       0.150
       0.341
       0.344
       0.167
      -0.054
      -0.156
      -0.067
       0.148
       0.347
       0.414
       0.327
       0.153
      -0.019
      -0.140
      -0.216
      -0.272
      -0.297
      -0.230
      -0.008
       0.343
       0.681
       0.809
       0.616
       0.181
      -0.266
      -0.494
      -0.427
      -0.167
       0.112
       0.299
       0.391
       0.429
       0.413
       0.281
      -0.007
      -0.384
      -0.677
      -0.711
      -0.444
      -0.011
       0.359
       0.489
       0.363
       0.114
      -0.081
      -0.114
       0.021
       0.259
       0.521
       0.748
       0.894
       0.925
       0.812
       0.549
       0.168
      -0.243
      -0.569
      -0.726
      -0.724
      -0.647
      -0.592
      -0.591
      -0.603
      -0.575
      -0.497
      -0.419
      -0.409
      -0.489
      -0.612
      -0.680
      -0.610
      -0.396
      -0.118
       0.116
       0.248
       0.306
       0.377
       0.532
       0.761
       0.977
       1.064
       0.954
       0.678
       0.349
       0.099
       0.004
       0.054
       0.176
       0.298
       0.382
       0.414
       0.364
       0.191
      -0.120
      -0.517
      -0.879
      -1.080
      -1.056
      -0.832
      -0.489
      -0.111
       0.243
       0.527
       0.685
       0.662
       0.450
       0.115
      -0.219
      -0.430
      -0.476
      -0.409
      -0.334
      -0.332
      -0.416
      -0.536
      -0.635
      -0.691
      -0.725
      -0.774
      -0.863
      -0.970
      -1.036
      -0.993
      -0.811
      -0.528
      -0.231
      -0.019
       0.044
      -0.035
      -0.182
      -0.295
      -0.309
      -0.240
      -0.166
      -0.152
      -0.182
      -0.163
       0.005
       0.331
       0.712
       0.997
       1.094
       1.036
       0.956
       0.981
       1.141
       1.345
       1.461
       1.410
       1.222
       0.991
       0.798
       0.662
       0.554
       0.456
       0.391
       0.396
       0.458
       0.493
       0.401
       0.165
      -0.102
      -0.227
      -0.119
       0.147
       0.386
       0.464
       0.395
       0.308
       0.320
       0.442
       0.597
       0.694
       0.704
       0.666
       0.640
       0.649
       0.666
       0.627
       0.485
       0.252
       0.005
      -0.171
      -0.262
      -0.354
      -0.560
      -0.906
      -1.271
      -1.452
      -1.326
      -0.959
      -0.580
      -0.422
      -0.547
      -0.806
      -0.961
      -0.878
      -0.640
      -0.479
      -0.577
      -0.920
      -1.313
      -1.535
      -1.502
      -1.302
      -1.093
      -0.965
      -0.899
      -0.815
      -0.678
      -0.531
      -0.462
      -0.527
      -0.709
      -0.938
      -1.144
      -1.292
      -1.385
      -1.420
      -1.374
      -1.222
      -0.973
      -0.689
      -0.450
      -0.305
      -0.250
      -0.243
      -0.228
      -0.159
      -0.018
       0.175
       0.359
       0.461
       0.436
       0.303
       0.137
       0.035
       0.069
       0.263
       0.587
       0.962
       1.268
       1.397
       1.326
       1.162
       1.092
       1.245
       1.578
       1.886
       1.952
       1.715
       1.304
       0.922
       0.678
       0.515
       0.292
      -0.070
      -0.507
      -0.856
      -0.978
      -0.844
      -0.543
      -0.213
       0.054
       0.253
       0.455
       0.726
       1.054
       1.343
       1.478
       1.421
       1.248
       1.095
       1.062
       1.141
       1.245
       1.283
       1.226
       1.087
       0.874
       0.560
       0.132
      -0.354
      -0.774
      -1.007
      -1.030
      -0.922
      -0.791
      -0.673
      -0.513
      -0.247
       0.114
       0.451
       0.619
       0.545
       0.274
      -0.065
      -0.338
      -0.468
      -0.460
      -0.378
      -0.300
      -0.268
      -0.293
      -0.374
      -0.528
      -0.761
      -1.028
      -1.223
      -1.238
      -1.055
      -0.766
      -0.520
      -0.421
      -0.485
      -0.666
      -0.914
      -1.197
      -1.489
      -1.737
      -1.873
      -1.848
      -1.663
      -1.370
      -1.048
      -0.759
      -0.536
      -0.394
      -0.349
      -0.429
      -0.648
      -0.961
      -1.246
      -1.344
      -1.134
      -0.592
       0.206
       1.119
       1.988
       2.661
       3.025
       3.027
       2.683
       2.071
       1.298
       0.489
      -0.230
      -0.742
      -0.972
      -0.906
      -0.605
      -0.175
       0.281
       0.715
       1.157
       1.672
       2.304
       3.030
       3.768
       4.420
       4.897
       5.132
       5.078
       4.710
       4.028
       3.082
       1.979
       0.868
      -0.107
      -0.871
      -1.436
      -1.865
      -2.210
      -2.456
      -2.524
      -2.334
      -1.892
      -1.337
      -0.897
      -0.764
      -0.958
      -1.313
      -1.595
      -1.685
      -1.658
      -1.698
      -1.943
      -2.393
      -2.941
      -3.444
      -3.748
      -3.702
      -3.205
      -2.302
      -1.230
      -0.337
       0.070
      -0.126
      -0.808
      -1.687
      -2.431
      -2.817
      -2.820
      -2.598
      -2.366
      -2.261
      -2.289
      -2.376
      -2.451
      -2.488
      -2.471
      -2.345
      -2.016
      -1.416
      -0.571
       0.393
       1.324
       2.149
       2.913
       3.734
       4.681
       5.683
       6.536
       7.030
       7.069
       6.712
       6.089
       5.299
       4.368
       3.302
       2.175
       1.152
       0.426
       0.120
       0.208
       0.542
       0.942
       1.290
       1.558
       1.761
       1.914
       2.041
       2.196
       2.458
       2.862
       3.356
       3.802
       4.042
       3.968
       3.575
       2.959
       2.275
       1.664
       1.176
       0.746
       0.226
      -0.538
      -1.614
      -2.947
      -4.375
      -5.689
      -6.670
      -7.128
      -6.964
      -6.245
      -5.231
      -4.276
      -3.664
      -3.491
      -3.682
      -4.093
      -4.600
      -5.103
      -5.473
      -5.529
      -5.109
      -4.189
      -2.942
      -1.679
      -0.688
      -0.103
       0.118
       0.098
      -0.074
      -0.385
      -0.851
      -1.437
      -2.031
      -2.498
      -2.759
      -2.829
      -2.772
      -2.635
      -2.394
      -1.983
      -1.357
      -0.568
       0.240
       0.912
       1.396
       1.790
       2.273
       2.965
       3.818
       4.623
       5.118
       5.119
       4.606
       3.725
       2.737
       1.918
       1.480
       1.524
       2.059
       3.028
       4.308
       5.669
       6.753
       7.161
       6.637
       5.235
       3.336
       1.474
       0.097
      -0.604
      -0.714
      -0.478
      -0.150
       0.124
       0.351
       0.638
       1.064
       1.551
       1.845
       1.651
       0.828
      -0.481
      -1.907
      -3.058
      -3.724
      -3.952
      -3.932
      -3.824
      -3.634
      -3.260
      -2.637
      -1.867
      -1.199
      -0.859
      -0.882
      -1.074
      -1.144
      -0.907
      -0.398
       0.162
       0.512
       0.510
       0.199
      -0.242
      -0.631
      -0.908
      -1.156
      -1.534
      -2.142
      -2.941
      -3.750
      -4.353
      -4.615
      -4.529
      -4.177
      -3.654
      -3.028
      -2.351
      -1.677
      -1.084
      -0.672
      -0.529
      -0.649
      -0.851
      -0.798
      -0.157
       1.179
       2.957
       4.650
       5.723
       5.894
       5.245
       4.126
       2.953
       2.039
       1.505
       1.294
       1.234
       1.145
       0.929
       0.610
       0.293
       0.083
       0.030
       0.109
       0.269
       0.456
       0.623
       0.702
       0.624
       0.381
       0.084
      -0.069
       0.102
       0.651
       1.489
       2.452
       3.386
       4.200
       4.861
       5.354
       5.637
       5.607
       5.102
       3.970
       2.191
      -0.037
      -2.320
      -4.235
      -5.527
      -6.207
      -6.492
      -6.631
      -6.737
      -6.734
      -6.449
      -5.772
      -4.760
      -3.599
      -2.471
      -1.434
      -0.427
       0.639
       1.801
       3.037
       4.308
       5.553
       6.634
       7.301
       7.278
       6.431
       4.914
       3.146
       1.626
       0.666
       0.219
      -0.081
      -0.661
      -1.686
      -2.898
      -3.771
      -3.908
      -3.356
      -2.574
      -2.069
      -2.018
      -2.177
      -2.130
      -1.650
      -0.854
      -0.081
       0.408
       0.626
       0.827
       1.278
       2.026
       2.852
       3.406
       3.415
       2.805
       1.695
       0.316
      -1.083
      -2.281
      -3.121
      -3.554
      -3.670
      -3.681
      -3.832
      -4.257
      -4.876
      -5.405
      -5.491
      -4.918
      -3.750
      -2.310
      -0.995
      -0.052
       0.508
       0.838
       1.105
       1.392
       1.713
       2.050
       2.367
       2.586
       2.600
       2.355
       1.933
       1.554
       1.462
       1.782
       2.427
       3.113
       3.457
       3.138
       2.059
       0.419
      -1.372
      -2.885
      -3.869
      -4.302
      -4.289
      -3.907
      -3.146
      -1.952
      -0.339
       1.528
       3.331
       4.684
       5.275
       5.013
       4.096
       2.946
       2.015
       1.569
       1.552
       1.653
       1.542
       1.133
       0.666
       0.517
       0.880
       1.575
       2.156
       2.230
       1.715
       0.847
      -0.030
      -0.686
      -1.063
      -1.208
      -1.177
      -1.005
      -0.729
      -0.451
      -0.354
      -0.631
      -1.334
      -2.260
      -3.006
      -3.194
      -2.715
      -1.803
      -0.879
      -0.283
      -0.076
      -0.054
       0.048
       0.323
       0.618
       0.670
       0.322
      -0.367
      -1.178
      -1.871
      -2.304
      -2.443
      -2.320
      -1.979
      -1.478
      -0.901
      -0.347
       0.087
       0.333
       0.355
       0.150
      -0.242
      -0.735
      -1.202
      -1.526
      -1.681
      -1.774
      -1.983
      -2.402
      -2.925
      -3.279
      -3.197
      -2.594
      -1.607
      -0.491
       0.532
       1.377
       2.082
       2.708
       3.249
       3.616
       3.718
       3.575
       3.346
       3.231
       3.325
       3.547
       3.734
       3.792
       3.754
       3.689
       3.568
       3.249
       2.624
       1.745
       0.806
      -0.032
      -0.769
      -1.506
      -2.251
      -2.783
      -2.753
      -1.946
      -0.511
       1.084
       2.330
       3.002
       3.271
       3.510
       3.948
       4.460
       4.662
       4.226
       3.128
       1.639
       0.089
      -1.356
      -2.744
      -4.175
      -5.604
      -6.788
      -7.422
      -7.358
      -6.706
      -5.747
      -4.749
      -3.831
      -2.977
      -2.144
      -1.364
      -0.758
      -0.452
      -0.464
      -0.657
      -0.813
      -0.792
      -0.637
      -0.532
      -0.639
      -0.945
      -1.243
      -1.263
      -0.856
      -0.094
       0.765
       1.402
       1.573
       1.200
       0.396
      -0.584
      -1.459
      -2.043
      -2.291
      -2.264
      -2.046
      -1.688
      -1.201
      -0.597
       0.079
       0.760
       1.412
       2.068
       2.781
       3.510
       4.070
       4.223
       3.867
       3.145
       2.371
       1.829
       1.606
       1.572
       1.500
       1.223
       0.743
       0.219
      -0.148
      -0.250
      -0.127
       0.082
       0.243
       0.299
       0.294
       0.355
       0.649
       1.295
       2.275
       3.411
       4.432
       5.090
       5.242
       4.878
       4.106
       3.115
       2.097
       1.170
       0.331
      -0.496
      -1.343
      -2.111
      -2.606
      -2.684
      -2.399
      -2.025
      -1.889
      -2.149
      -2.681
      -3.171
      -3.338
      -3.107
      -2.606
      -2.036
      -1.558
      -1.260
      -1.169
      -1.253
      -1.401
      -1.453
      -1.315
      -1.056
      -0.893
      -1.020
      -1.453
      -2.017
      -2.500
      -2.797
      -2.942
      -3.012
      -3.040
      -3.003
      -2.888
      -2.730
      -2.593
      -2.515
      -2.462
      -2.341
      -2.053
      -1.562
      -0.947
      -0.378
      -0.019
       0.100
       0.121
       0.281
       0.755
       1.552
       2.526
       3.486
       4.297
       4.903
       5.281
       5.387
       5.164
       4.614
       3.842
       3.050
       2.452
       2.178
       2.220
       2.425
       2.559
       2.405
       1.878
       1.082
       0.257
      -0.339
      -0.552
      -0.366
       0.106
       0.668
       1.075
       1.099
       0.629
      -0.214
      -1.052
      -1.411
      -1.006
       0.031
       1.167
       1.766
       1.479
       0.449
      -0.793
      -1.660
      -1.827
      -1.343
      -0.524
       0.259
       0.737
       0.798
       0.479
      -0.080
      -0.682
      -1.153
      -1.418
      -1.540
      -1.670
      -1.946
      -2.390
      -2.881
      -3.211
      -3.196
      -2.779
      -2.052
      -1.208
      -0.446
       0.105
       0.412
       0.521
       0.521
       0.515
       0.585
       0.739
       0.872
       0.807
       0.441
      -0.113
      -0.536
      -0.506
       0.041
       0.823
       1.371
       1.323
       0.645
      -0.377
      -1.341
      -1.967
      -2.209
      -2.186
      -2.038
      -1.823
      -1.531
      -1.152
      -0.731
      -0.344
      -0.043
       0.153
       0.229
       0.156
      -0.075
      -0.396
      -0.634
      -0.577
      -0.092
       0.753
       1.669
       2.279
       2.339
       1.897
       1.244
       0.712
       0.476
       0.514
       0.715
       0.999
       1.338
       1.699
       1.992
       2.104
       1.985
       1.710
       1.430
       1.243
       1.102
       0.852
       0.366
      -0.325
      -1.000
      -1.365
      -1.255
      -0.778
      -0.290
      -0.191
      -0.690
      -1.666
      -2.737
      -3.444
      -3.466
      -2.750
      -1.529
      -0.222
       0.751
       1.168
       1.115
       0.927
       0.968
       1.402
       2.114
       2.833
       3.311
       3.445
       3.269
       2.874
       2.346
       1.740
       1.104
       0.518
       0.105
      -0.028
       0.104
       0.323
       0.385
       0.146
      -0.350
      -0.962
      -1.607
      -2.327
      -3.176
      -4.051
      -4.667
      -4.725
      -4.146
      -3.164
      -2.180
      -1.480
      -1.053
      -0.652
      -0.030
       0.845
       1.762
       2.412
       2.566
       2.162
       1.286
       0.138
      -0.998
      -1.806
      -2.052
      -1.703
      -0.981
      -0.255
       0.153
       0.129
      -0.200
      -0.591
      -0.849
      -0.924
      -0.888
      -0.826
      -0.746
      -0.548
      -0.091
       0.704
       1.765
       2.867
       3.716
       4.078
       3.893
       3.328
       2.722
       2.434
       2.636
       3.166
       3.570
       3.367
       2.369
       0.841
      -0.653
      -1.623
      -1.961
      -1.946
      -1.960
      -2.160
      -2.379
      -2.308
      -1.794
      -1.003
      -0.335
      -0.156
      -0.546
      -1.250
      -1.856
      -2.056
      -1.790
      -1.226
      -0.630
      -0.253
      -0.262
      -0.691
      -1.395
      -2.094
      -2.481
      -2.352
      -1.674
      -0.579
       0.657
       1.651
       2.028
       1.605
       0.566
      -0.583
      -1.277
      -1.240
      -0.629
       0.108
       0.554
       0.562
       0.278
      -0.014
      -0.095
       0.092
       0.474
       0.956
       1.478
       1.995
       2.410
       2.571
       2.348
       1.730
       0.848
      -0.074
      -0.804
      -1.167
      -1.097
      -0.674
      -0.131
       0.219
       0.136
      -0.413
      -1.202
      -1.839
      -1.953
      -1.389
      -0.315
       0.836
       1.596
       1.736
       1.405
       1.015
       0.947
       1.275
       1.727
       1.905
       1.605
       0.968
       0.351
       0.032
       0.008
       0.027
      -0.186
      -0.711
      -1.381
      -1.912
      -2.086
      -1.874
      -1.411
      -0.885
      -0.417
      -0.010
       0.418
       0.941
       1.549
       2.116
       2.479
       2.562
       2.438
       2.265
       2.132
       1.984
       1.680
       1.151
       0.499
      -0.057
      -0.365
      -0.486
