Origin Time       29/12/2009 09:01:42 UTC
Lat.              24.5°N	
Long.             94.8°E	
Depth (Km)         80.0
Magnitude         5.5
 Region           MYANMAR-INDIA(MANIPUR)-BORDER                                    
 Above details taken from IMD 
    
Station Code      TEJ
Station Lat.       26.619  N
Station Long.      92.797  E
Station Height(m)   76.0
Site Class        B   Vs30 between 375 m/sec to 700 m/sec *  
Record Time       29.12.2009 09:02:53.334 UTC
Sampling Rate     200. Hz
 Record Duration   67.605 Sec.
 Direction         N-S (N positive)
Max. Acceleration     -8.494 cm/sec**2
     
  * For reference see Site Classification link of website 
     
 Base Line Corrected and Low Pass Filtered (Cut Off at 35 Hz) Time History
 Acceleration data in cm/sec**2
    
[...]
      -0.341
      -0.208
      -0.189
      -0.239
      -0.242
      -0.094
       0.216
       0.593
       0.891
       1.003
       0.919
       0.724
       0.529
       0.397
       0.307
       0.202
       0.053
      -0.095
      -0.157
      -0.085
       0.074
       0.208
       0.229
       0.144
       0.051
       0.046
       0.132
       0.220
       0.206
       0.067
      -0.129
      -0.292
      -0.388
      -0.442
      -0.482
      -0.490
      -0.407
      -0.216
       0.021
       0.182
       0.178
       0.022
      -0.177
      -0.300
      -0.289
      -0.175
      -0.031
       0.085
       0.153
       0.185
       0.196
       0.196
       0.192
       0.188
       0.182
       0.162
       0.116
       0.035
      -0.077
      -0.204
      -0.325
      -0.416
      -0.452
      -0.421
      -0.338
      -0.246
      -0.185
      -0.170
      -0.187
      -0.206
      -0.208
      -0.188
      -0.144
      -0.068
       0.052
       0.209
       0.364
       0.451
       0.413
       0.245
       0.008
      -0.197
      -0.276
      -0.192
       0.009
       0.214
       0.310
       0.244
       0.060
      -0.127
      -0.206
      -0.141
       0.005
       0.117
       0.111
      -0.017
      -0.205
      -0.378
      -0.487
      -0.502
      -0.403
      -0.188
       0.099
       0.363
       0.495
       0.449
       0.277
       0.106
       0.069
       0.215
       0.481
       0.724
       0.808
       0.683
       0.411
       0.126
      -0.037
      -0.008
       0.185
       0.429
       0.587
       0.569
       0.385
       0.133
      -0.065
      -0.141
      -0.113
      -0.059
      -0.051
      -0.114
      -0.225
      -0.354
      -0.487
      -0.609
      -0.678
      -0.634
      -0.442
      -0.152
       0.103
       0.181
       0.035
      -0.238
      -0.461
      -0.496
      -0.351
      -0.163
      -0.076
      -0.114
      -0.166
      -0.094
       0.132
       0.403
       0.555
       0.496
       0.264
      -0.015
      -0.221
      -0.301
      -0.273
      -0.184
      -0.085
      -0.029
      -0.061
      -0.192
      -0.372
      -0.506
      -0.504
      -0.339
      -0.058
       0.243
       0.461
       0.516
       0.383
       0.110
      -0.183
      -0.359
      -0.342
      -0.162
       0.065
       0.218
       0.246
       0.187
       0.130
       0.147
       0.263
       0.455
       0.665
       0.818
       0.827
       0.629
       0.237
      -0.227
      -0.575
      -0.665
      -0.496
      -0.212
       0.000
       0.031
      -0.092
      -0.258
      -0.368
      -0.400
      -0.384
      -0.352
      -0.300
      -0.213
      -0.097
       0.011
       0.073
       0.081
       0.069
       0.093
       0.198
       0.377
       0.570
       0.696
       0.709
       0.623
       0.489
       0.342
       0.167
      -0.070
      -0.359
      -0.620
      -0.743
      -0.674
      -0.459
      -0.222
      -0.085
      -0.098
      -0.215
      -0.337
      -0.366
      -0.265
      -0.072
       0.117
       0.208
       0.157
      -0.010
      -0.205
      -0.327
      -0.314
      -0.178
       0.006
       0.152
       0.215
       0.212
       0.188
       0.175
       0.172
       0.164
       0.151
       0.142
       0.144
       0.153
       0.165
       0.177
       0.178
       0.154
       0.095
       0.027
      -0.003
       0.034
       0.115
       0.164
       0.117
      -0.021
      -0.165
      -0.219
      -0.156
      -0.047
       0.003
      -0.053
      -0.163
      -0.222
      -0.152
       0.037
       0.253
       0.371
       0.303
       0.050
      -0.301
      -0.618
      -0.792
      -0.774
      -0.585
      -0.299
      -0.014
       0.183
       0.256
       0.242
       0.230
       0.302
       0.471
       0.660
       0.746
       0.647
       0.380
       0.053
      -0.208
      -0.334
      -0.335
      -0.256
      -0.136
      -0.005
       0.086
       0.072
      -0.078
      -0.310
      -0.496
      -0.514
      -0.342
      -0.078
       0.139
       0.222
       0.193
       0.138
       0.119
       0.121
       0.075
      -0.065
      -0.255
      -0.385
      -0.356
      -0.168
       0.070
       0.221
       0.216
       0.099
      -0.033
      -0.108
      -0.119
      -0.099
      -0.084
      -0.097
      -0.160
      -0.285
      -0.443
      -0.544
      -0.475
      -0.185
       0.243
       0.623
       0.779
       0.669
       0.413
       0.196
       0.141
       0.238
       0.377
       0.451
       0.428
       0.350
       0.268
       0.195
       0.117
       0.033
      -0.027
      -0.024
       0.052
       0.178
       0.301
       0.358
       0.292
       0.078
      -0.253
      -0.608
      -0.872
      -0.964
      -0.867
      -0.621
      -0.293
       0.046
       0.329
       0.491
       0.485
       0.314
       0.051
      -0.184
      -0.278
      -0.200
      -0.021
       0.139
       0.195
       0.145
       0.046
      -0.043
      -0.103
      -0.144
      -0.167
      -0.146
      -0.061
       0.058
       0.123
       0.043
      -0.193
      -0.474
      -0.618
      -0.504
      -0.181
       0.150
       0.269
       0.107
      -0.198
      -0.401
      -0.334
      -0.032
       0.297
       0.431
       0.294
       0.002
      -0.240
      -0.288
      -0.163
      -0.005
       0.046
      -0.042
      -0.183
      -0.250
      -0.167
       0.049
       0.317
       0.544
       0.666
       0.654
       0.517
       0.309
       0.121
       0.037
       0.082
       0.196
       0.260
       0.178
      -0.055
      -0.338
      -0.526
      -0.520
      -0.326
      -0.054
       0.157
       0.219
       0.143
       0.010
      -0.090
      -0.126
      -0.124
      -0.139
      -0.194
      -0.262
      -0.299
      -0.281
      -0.222
      -0.143
      -0.045
       0.087
       0.243
       0.368
       0.387
       0.271
       0.075
      -0.093
      -0.147
      -0.079
       0.050
       0.156
       0.178
       0.098
      -0.053
      -0.203
      -0.269
      -0.201
      -0.011
       0.220
       0.379
       0.382
       0.222
      -0.020
      -0.225
      -0.318
      -0.314
      -0.292
      -0.319
      -0.388
      -0.436
      -0.410
      -0.311
      -0.191
      -0.110
      -0.089
      -0.100
      -0.097
      -0.060
      -0.034
      -0.089
      -0.237
      -0.385
      -0.386
      -0.156
       0.233
       0.585
       0.715
       0.577
       0.289
       0.033
      -0.082
      -0.076
      -0.042
      -0.051
      -0.106
      -0.161
      -0.186
      -0.176
      -0.136
      -0.060
       0.048
       0.154
       0.206
       0.173
       0.074
      -0.031
      -0.088
      -0.069
       0.014
       0.112
       0.163
       0.114
      -0.035
      -0.214
      -0.313
      -0.257
      -0.068
       0.136
       0.232
       0.193
       0.117
       0.149
       0.348
       0.634
       0.830
       0.791
       0.497
       0.056
      -0.371
      -0.655
      -0.756
      -0.705
      -0.567
      -0.405
      -0.262
      -0.173
      -0.165
      -0.246
      -0.395
      -0.556
      -0.646
      -0.586
      -0.342
       0.032
       0.399
       0.604
       0.575
       0.372
       0.156
       0.064
       0.116
       0.210
       0.226
       0.142
       0.058
       0.103
       0.302
       0.524
       0.580
       0.378
       0.014
      -0.293
      -0.363
      -0.178
       0.131
       0.391
       0.487
       0.391
       0.139
      -0.194
      -0.501
      -0.668
      -0.610
      -0.327
       0.079
       0.446
       0.619
       0.531
       0.241
      -0.093
      -0.296
      -0.265
      -0.036
       0.225
       0.318
       0.137
      -0.256
      -0.676
      -0.944
      -1.001
      -0.921
      -0.821
      -0.773
      -0.780
      -0.818
      -0.875
      -0.966
      -1.094
      -1.220
      -1.266
      -1.159
      -0.890
      -0.540
      -0.241
      -0.084
      -0.055
      -0.054
       0.013
       0.144
       0.227
       0.135
      -0.154
      -0.517
      -0.766
      -0.786
      -0.613
      -0.383
      -0.212
      -0.101
       0.025
       0.214
       0.421
       0.555
       0.582
       0.574
       0.634
       0.786
       0.931
       0.935
       0.754
       0.496
       0.349
       0.446
       0.769
       1.161
       1.424
       1.437
       1.215
       0.884
       0.601
       0.470
       0.507
       0.657
       0.850
       1.047
       1.239
       1.417
       1.546
       1.582
       1.510
       1.369
       1.233
       1.162
       1.160
       1.166
       1.113
       0.980
       0.808
       0.667
       0.612
       0.652
       0.755
       0.862
       0.906
       0.836
       0.639
       0.348
       0.032
      -0.249
      -0.468
      -0.631
      -0.752
      -0.832
      -0.867
      -0.875
      -0.908
      -1.021
      -1.222
      -1.450
      -1.604
      -1.606
      -1.437
      -1.137
      -0.776
      -0.429
      -0.155
       0.017
       0.092
       0.104
       0.087
       0.057
      -0.002
      -0.131
      -0.373
      -0.752
      -1.253
      -1.801
      -2.263
      -2.491
      -2.391
      -1.980
      -1.397
      -0.834
      -0.438
      -0.230
      -0.121
       0.013
       0.233
       0.488
       0.655
       0.620
       0.373
       0.028
      -0.240
      -0.308
      -0.195
      -0.040
      -0.004
      -0.144
      -0.375
      -0.534
      -0.498
      -0.263
       0.068
       0.361
       0.531
       0.556
       0.456
       0.276
       0.086
      -0.028
      -0.017
       0.069
       0.072
      -0.167
      -0.664
      -1.227
      -1.567
      -1.500
      -1.082
      -0.555
      -0.149
       0.068
       0.190
       0.338
       0.547
       0.762
       0.922
       1.037
       1.179
       1.397
       1.653
       1.820
       1.760
       1.417
       0.868
       0.288
      -0.154
      -0.396
      -0.522
      -0.676
      -0.937
      -1.237
      -1.407
      -1.321
      -1.003
      -0.617
      -0.328
      -0.171
      -0.036
       0.206
       0.560
       0.881
       0.990
       0.844
       0.579
       0.402
       0.416
       0.532
       0.557
       0.363
       0.004
      -0.317
      -0.397
      -0.159
       0.322
       0.890
       1.408
       1.813
       2.120
       2.374
       2.593
       2.735
       2.716
       2.477
       2.037
       1.501
       1.012
       0.672
       0.508
       0.480
       0.517
       0.561
       0.581
       0.569
       0.520
       0.414
       0.201
      -0.164
      -0.661
      -1.154
      -1.427
      -1.326
      -0.892
      -0.361
      -0.007
       0.063
      -0.025
      -0.022
       0.216
       0.600
       0.870
       0.800
       0.367
      -0.254
      -0.833
      -1.242
      -1.500
      -1.696
      -1.892
      -2.070
      -2.150
      -2.061
      -1.808
      -1.492
      -1.269
      -1.259
      -1.477
      -1.827
      -2.169
      -2.412
      -2.558
      -2.679
      -2.833
      -3.014
      -3.153
      -3.171
      -3.032
      -2.768
      -2.464
      -2.223
      -2.114
      -2.133
      -2.199
      -2.209
      -2.115
      -1.970
      -1.880
      -1.907
      -1.989
      -1.955
      -1.623
      -0.908
       0.124
       1.259
       2.189
       2.633
       2.472
       1.842
       1.104
       0.668
       0.764
       1.323
       2.036
       2.558
       2.715
       2.586
       2.408
       2.410
       2.673
       3.128
       3.640
       4.114
       4.522
       4.865
       5.130
       5.283
       5.290
       5.152
       4.915
       4.648
       4.411
       4.232
       4.102
       3.994
       3.869
       3.672
       3.341
       2.845
       2.232
       1.656
       1.323
       1.383
       1.805
       2.337
       2.607
       2.316
       1.427
       0.216
      -0.869
      -1.481
      -1.591
      -1.490
      -1.552
      -1.939
      -2.481
      -2.814
      -2.663
      -2.042
      -1.255
      -0.710
      -0.701
      -1.259
      -2.157
      -3.050
      -3.650
      -3.869
      -3.829
      -3.758
      -3.846
      -4.142
      -4.560
      -4.955
      -5.211
      -5.292
      -5.228
      -5.092
      -4.978
      -4.999
      -5.245
      -5.715
      -6.270
      -6.677
      -6.726
      -6.343
      -5.620
      -4.747
      -3.914
      -3.237
      -2.735
      -2.359
      -2.045
      -1.748
      -1.429
      -1.034
      -0.495
       0.223
       1.068
       1.890
       2.499
       2.749
       2.621
       2.253
       1.917
       1.894
       2.331
       3.140
       4.036
       4.705
       4.969
       4.846
       4.480
       4.023
       3.578
       3.207
       2.975
       2.952
       3.170
       3.575
       4.021
       4.338
       4.426
       4.323
       4.180
       4.172
       4.390
       4.796
       5.243
       5.567
       5.674
       5.571
       5.329
       5.002
       4.568
       3.956
       3.124
       2.143
       1.191
       0.475
       0.109
       0.060
       0.174
       0.279
       0.285
       0.205
       0.088
      -0.078
      -0.407
      -1.051
      -2.071
      -3.349
      -4.633
      -5.675
      -6.379
      -6.832
      -7.211
      -7.643
      -8.115
      -8.477
      -8.494
      -7.952
      -6.772
      -5.103
      -3.305
      -1.792
      -0.833
      -0.449
      -0.443
      -0.534
      -0.472
      -0.123
       0.481
       1.117
       1.418
       1.017
      -0.237
      -2.128
      -4.096
      -5.468
      -5.787
      -5.035
      -3.639
      -2.248
      -1.404
      -1.289
      -1.665
      -2.056
      -2.050
      -1.529
      -0.691
       0.117
       0.644
       0.885
       1.068
       1.474
       2.230
       3.218
       4.174
       4.889
       5.350
       5.708
       6.130
       6.649
       7.122
       7.320
       7.076
       6.397
       5.465
       4.525
       3.739
       3.106
       2.504
       1.802
       0.971
       0.114
      -0.597
      -1.013
      -1.078
      -0.857
      -0.506
      -0.191
      -0.004
       0.105
       0.292
       0.697
       1.305
       1.905
       2.208
       2.039
       1.464
       0.751
       0.181
      -0.150
      -0.389
      -0.798
      -1.534
      -2.512
      -3.454
      -4.090
      -4.341
      -4.366
      -4.421
      -4.652
      -4.966
      -5.079
      -4.721
      -3.835
      -2.612
      -1.348
      -0.253
       0.643
       1.395
       1.973
       2.201
       1.874
       1.003
      -0.078
      -0.854
      -0.986
      -0.568
      -0.066
       0.047
      -0.336
      -0.902
      -1.217
      -1.092
      -0.708
      -0.405
      -0.360
      -0.451
      -0.393
       0.013
       0.720
       1.459
       1.899
       1.809
       1.170
       0.188
      -0.782
      -1.404
      -1.554
      -1.411
      -1.337
      -1.590
      -2.102
      -2.504
      -2.400
      -1.642
      -0.392
       1.033
       2.347
       3.370
       3.969
       4.003
       3.374
       2.165
       0.723
      -0.428
      -0.847
      -0.461
       0.350
       0.949
       0.829
      -0.053
      -1.219
      -1.966
      -1.826
      -0.888
       0.287
       1.097
       1.349
       1.383
       1.760
       2.762
       4.109
       5.117
       5.186
       4.234
       2.722
       1.303
       0.395
       0.012
      -0.099
      -0.189
      -0.355
      -0.583
      -0.857
      -1.192
      -1.575
      -1.909
      -2.070
      -2.019
      -1.856
      -1.734
      -1.713
      -1.700
      -1.548
      -1.222
      -0.847
      -0.606
      -0.586
      -0.701
      -0.774
      -0.680
      -0.444
      -0.220
      -0.186
      -0.436
      -0.949
      -1.608
      -2.247
      -2.676
      -2.703
      -2.199
      -1.173
       0.173
       1.497
       2.451
       2.820
       2.604
       2.008
       1.366
       1.001
       1.075
       1.477
       1.849
       1.761
       0.971
      -0.421
      -2.010
      -3.318
      -4.041
      -4.173
      -3.927
      -3.568
      -3.245
      -2.927
      -2.443
      -1.629
      -0.461
       0.894
       2.148
       3.034
       3.431
       3.398
       3.130
       2.843
       2.667
       2.595
       2.514
       2.286
       1.845
       1.251
       0.668
       0.276
       0.169
       0.311
       0.577
       0.840
       1.034
       1.147
       1.161
       1.009
       0.599
      -0.092
      -0.925
      -1.608
      -1.816
      -1.382
      -0.444
       0.588
       1.239
       1.248
       0.734
       0.101
      -0.243
      -0.148
       0.233
       0.616
       0.812
       0.811
       0.714
       0.616
       0.548
       0.491
       0.388
       0.129
      -0.437
      -1.394
      -2.629
      -3.793
      -4.456
      -4.381
      -3.702
      -2.858
      -2.317
      -2.279
      -2.562
      -2.743
      -2.430
      -1.470
      -0.007
       1.604
       2.926
       3.580
       3.411
       2.606
       1.680
       1.251
       1.691
       2.863
       4.151
       4.792
       4.319
       2.818
       0.838
      -0.957
      -2.149
      -2.702
      -2.833
      -2.781
      -2.646
      -2.405
      -2.053
      -1.708
      -1.583
      -1.812
      -2.306
      -2.782
      -2.964
      -2.775
      -2.344
      -1.836
      -1.264
      -0.465
       0.747
       2.371
       4.112
       5.476
       6.027
       5.658
       4.668
       3.605
       2.957
       2.899
       3.233
       3.534
       3.398
       2.643
       1.375
      -0.089
      -1.363
      -2.139
      -2.298
      -1.969
      -1.484
      -1.199
      -1.285
      -1.643
      -2.008
      -2.184
      -2.193
      -2.229
      -2.450
      -2.814
      -3.076
      -2.966
      -2.404
      -1.578
      -0.843
      -0.500
      -0.607
      -0.970
      -1.309
      -1.471
      -1.532
      -1.696
      -2.093
      -2.620
      -2.949
      -2.679
      -1.550
       0.374
       2.660
       4.640
       5.704
       5.615
       4.666
       3.508
       2.748
       2.567
       2.665
       2.547
       1.926
       0.891
      -0.244
      -1.232
      -2.045
      -2.763
      -3.365
      -3.659
      -3.436
      -2.693
      -1.694
      -0.797
      -0.196
       0.202
       0.668
       1.414
       2.443
       3.580
       4.619
       5.414
       5.870
       5.912
       5.516
       4.800
       4.030
       3.507
       3.383
       3.524
       3.540
       2.990
       1.659
      -0.274
      -2.311
      -3.926
      -4.854
      -5.188
      -5.230
      -5.263
      -5.410
      -5.628
      -5.777
      -5.687
      -5.208
      -4.261
      -2.890
      -1.301
       0.188
       1.274
       1.803
       1.821
       1.517
       1.100
       0.735
       0.520
       0.487
       0.572
       0.602
       0.369
      -0.247
      -1.180
      -2.214
      -3.088
      -3.600
      -3.650
      -3.246
      -2.492
      -1.562
      -0.648
       0.092
       0.579
