Origin Time       09/1/2013 01:41:52	
Lat.              25.4 N	
Long.             94.9 E	
Depth (Km)         89.0
Magnitude         5.9
 Region           Myanmar-India-Border-Region                                      
 Above details taken from IMD 
   
Station Code      TIN
Station Lat.       27.503
Station Long.      95.332
Station Height(m)  137.0
Site Class        C   Vs30 between 200 m/sec to 375 m/sec *  
Record Time       09.01.2013 07:11:35.489
Sampling Rate     200. Hz
 Record Duration  109.375 Sec.
 Direction         Vert. (Up positive)
Max. Acceleration      5.436 cm/sec**2
     
  * For reference see Site Classification link of website 
     
 Base Line Corrected and Low Pass Filtered (Cut Off at 35 Hz) Time History
 Acceleration data in cm/sec**2
    
[...]
       0.236
       1.046
       1.693
       1.869
       1.439
       0.521
      -0.621
      -1.705
      -2.453
      -2.599
      -2.004
      -0.841
       0.374
       1.054
       0.981
       0.511
       0.297
       0.724
       1.592
       2.285
       2.264
       1.454
       0.272
      -0.704
      -1.135
      -1.080
      -0.835
      -0.637
      -0.487
      -0.214
       0.280
       0.811
       1.003
       0.626
      -0.119
      -0.697
      -0.682
      -0.136
       0.450
       0.587
       0.209
      -0.291
      -0.413
       0.052
       0.866
       1.518
       1.552
       0.846
      -0.290
      -1.282
      -1.640
      -1.221
      -0.236
       0.938
       1.898
       2.256
       1.750
       0.446
      -1.194
      -2.570
      -3.287
      -3.250
      -2.540
      -1.318
       0.138
       1.434
       2.172
       2.122
       1.321
       0.082
      -1.104
      -1.776
      -1.728
      -1.109
      -0.288
       0.391
       0.768
       0.850
       0.694
       0.322
      -0.266
      -0.997
      -1.612
      -1.695
      -0.920
       0.578
       2.134
       2.955
       2.668
       1.509
       0.027
      -1.303
      -2.208
      -2.539
      -2.238
      -1.416
      -0.339
       0.730
       1.659
       2.387
       2.790
       2.696
       2.058
       1.039
      -0.091
      -1.139
      -2.022
      -2.631
      -2.760
      -2.238
      -1.156
       0.055
       0.841
       0.883
       0.309
      -0.396
      -0.732
      -0.467
       0.295
       1.223
       1.880
       1.841
       0.919
      -0.602
      -2.008
      -2.576
      -2.067
      -0.832
       0.503
       1.427
       1.715
       1.393
       0.677
      -0.067
      -0.435
      -0.205
       0.455
       1.011
       0.920
       0.108
      -0.870
      -1.234
      -0.630
       0.566
       1.567
       1.759
       1.057
      -0.169
      -1.371
      -2.049
      -1.884
      -0.856
       0.664
       1.960
       2.326
       1.553
       0.123
      -1.144
      -1.696
      -1.526
      -0.930
      -0.140
       0.750
       1.581
       2.050
       1.920
       1.285
       0.529
       0.034
      -0.050
       0.186
       0.519
       0.682
       0.483
      -0.043
      -0.616
      -0.916
      -0.846
      -0.575
      -0.349
      -0.280
      -0.278
      -0.124
       0.348
       1.042
       1.554
       1.432
       0.589
      -0.535
      -1.310
      -1.432
      -1.105
      -0.746
      -0.552
      -0.397
      -0.083
       0.355
       0.659
       0.615
       0.299
       0.026
       0.088
       0.523
       1.085
       1.393
       1.167
       0.451
      -0.377
      -0.865
      -0.824
      -0.428
       0.008
       0.275
       0.337
       0.226
      -0.030
      -0.400
      -0.821
      -1.163
      -1.226
      -0.824
       0.053
       1.111
       1.851
       1.895
       1.268
       0.381
      -0.302
      -0.548
      -0.395
      -0.032
       0.315
       0.446
       0.273
      -0.108
      -0.437
      -0.416
       0.108
       0.958
       1.593
       1.398
       0.171
      -1.616
      -3.070
      -3.426
      -2.453
      -0.514
       1.649
       3.214
       3.572
       2.571
       0.623
      -1.458
      -2.857
      -3.142
      -2.382
      -1.006
       0.375
       1.159
       1.040
       0.262
      -0.493
      -0.630
      -0.117
       0.545
       0.791
       0.414
      -0.387
      -1.192
      -1.580
      -1.294
      -0.396
       0.705
       1.447
       1.450
       0.721
      -0.381
      -1.347
      -1.767
      -1.496
      -0.681
       0.364
       1.314
       1.900
       1.929
       1.344
       0.311
      -0.783
      -1.492
      -1.508
      -0.800
       0.320
       1.248
       1.336
       0.337
      -1.312
      -2.692
      -3.009
      -2.087
      -0.391
       1.340
       2.480
       2.716
       2.106
       1.068
       0.202
      -0.049
       0.314
       0.847
       0.977
       0.380
      -0.835
      -2.170
      -2.941
      -2.584
      -1.002
       1.219
       3.030
       3.503
       2.393
       0.245
      -1.929
      -3.117
      -2.727
      -0.876
       1.617
       3.624
       4.263
       3.268
       1.074
      -1.348
      -2.893
      -2.904
      -1.588
       0.128
       1.214
       1.131
       0.021
      -1.491
      -2.644
      -2.884
      -2.101
      -0.694
       0.651
       1.368
       1.313
       0.735
       0.029
      -0.453
      -0.479
       0.017
       0.864
       1.701
       2.148
       1.999
       1.316
       0.400
      -0.330
      -0.573
      -0.374
      -0.137
      -0.343
      -1.169
      -2.319
      -3.207
      -3.320
      -2.521
      -1.096
       0.405
       1.439
       1.718
       1.328
       0.658
       0.184
       0.194
       0.605
       1.009
       0.970
       0.361
      -0.558
      -1.360
      -1.719
      -1.521
      -0.830
       0.153
       1.109
       1.657
       1.497
       0.598
      -0.730
      -1.941
      -2.511
      -2.196
      -1.151
       0.150
       1.149
       1.488
       1.189
       0.629
       0.312
       0.565
       1.308
       2.081
       2.388
       2.067
       1.324
       0.407
      -0.617
      -1.685
      -2.482
      -2.588
      -1.961
      -1.118
      -0.731
      -1.048
      -1.745
      -2.249
      -2.144
      -1.332
      -0.018
       1.382
       2.358
       2.498
       1.678
       0.174
      -1.396
      -2.308
      -2.136
      -1.040
       0.336
       1.339
       1.715
       1.631
       1.379
       1.152
       1.034
       1.066
       1.221
       1.353
       1.242
       0.746
      -0.078
      -0.976
      -1.628
      -1.812
      -1.513
      -0.908
      -0.279
       0.095
       0.075
      -0.244
      -0.599
      -0.765
      -0.713
      -0.562
      -0.437
      -0.370
      -0.266
       0.054
       0.724
       1.637
       2.413
       2.595
       1.973
       0.760
      -0.492
      -1.220
      -1.224
      -0.784
      -0.409
      -0.451
      -0.912
      -1.534
      -1.980
      -1.985
      -1.486
      -0.659
       0.190
       0.827
       1.189
       1.322
       1.284
       1.151
       1.049
       1.114
       1.369
       1.655
       1.700
       1.286
       0.366
      -0.896
      -2.173
      -3.070
      -3.291
      -2.807
      -1.896
      -0.981
      -0.372
      -0.084
       0.134
       0.591
       1.378
       2.236
       2.703
       2.445
       1.549
       0.512
      -0.085
       0.025
       0.596
       1.038
       0.824
      -0.140
      -1.445
      -2.445
      -2.639
      -1.915
      -0.580
       0.752
       1.393
       0.938
      -0.412
      -1.877
      -2.560
      -2.041
      -0.600
       1.062
       2.312
       2.852
       2.688
       1.984
       0.982
      -0.019
      -0.743
      -1.045
      -0.959
      -0.634
      -0.265
      -0.033
      -0.028
      -0.167
      -0.222
       0.001
       0.488
       1.007
       1.279
       1.170
       0.740
       0.167
      -0.348
      -0.664
      -0.748
      -0.680
      -0.574
      -0.496
      -0.431
      -0.301
      -0.014
       0.468
       1.064
       1.593
       1.874
       1.819
       1.406
       0.626
      -0.469
      -1.670
      -2.644
      -3.134
      -3.101
      -2.655
      -1.883
      -0.779
       0.638
       2.167
       3.405
       3.896
       3.367
       1.930
       0.079
      -1.544
      -2.452
      -2.440
      -1.557
      -0.077
       1.492
       2.522
       2.570
       1.644
       0.185
      -1.215
      -2.085
      -2.210
      -1.659
      -0.733
       0.193
       0.848
       1.117
       0.966
       0.431
      -0.302
      -0.897
      -1.069
      -0.776
      -0.190
       0.520
       1.270
       1.946
       2.316
       2.146
       1.423
       0.406
      -0.556
      -1.239
      -1.604
      -1.709
      -1.634
      -1.475
      -1.310
      -1.095
      -0.647
       0.194
       1.315
       2.286
       2.600
       2.010
       0.690
      -0.858
      -2.050
      -2.459
      -1.964
      -0.780
       0.640
       1.778
       2.251
       1.979
       1.242
       0.511
       0.151
       0.241
       0.646
       1.160
       1.522
       1.434
       0.758
      -0.290
      -1.253
      -1.772
      -1.745
      -1.230
      -0.370
       0.529
       1.012
       0.744
      -0.211
      -1.401
      -2.276
      -2.474
      -1.926
      -0.848
       0.340
       1.172
       1.372
       1.013
       0.445
       0.061
       0.067
       0.405
       0.827
       1.041
       0.835
       0.183
      -0.717
      -1.486
      -1.766
      -1.454
      -0.760
       0.012
       0.722
       1.376
       1.915
       2.128
       1.849
       1.164
       0.345
      -0.388
      -0.977
      -1.417
      -1.583
      -1.274
      -0.428
       0.752
       1.891
       2.629
       2.714
       2.023
       0.666
      -0.930
      -2.160
      -2.604
      -2.256
      -1.423
      -0.434
       0.527
       1.350
       1.883
       1.954
       1.478
       0.523
      -0.694
      -1.813
      -2.391
      -2.119
      -1.066
       0.316
       1.455
       1.922
       1.567
       0.574
      -0.538
      -1.139
      -0.929
      -0.212
       0.339
       0.278
      -0.221
      -0.556
      -0.276
       0.501
       1.203
       1.289
       0.662
      -0.317
      -1.148
      -1.520
      -1.402
      -0.904
      -0.141
       0.763
       1.606
       2.118
       2.082
       1.464
       0.457
      -0.595
      -1.341
      -1.558
      -1.226
      -0.512
       0.317
       0.999
       1.331
       1.164
       0.427
      -0.755
      -1.956
      -2.593
      -2.301
      -1.220
       0.087
       1.017
       1.280
       0.956
       0.354
      -0.192
      -0.462
      -0.398
      -0.064
       0.439
       0.996
       1.443
       1.599
       1.389
       0.950
       0.559
       0.416
       0.460
       0.410
       0.037
      -0.558
      -0.956
      -0.739
       0.107
       1.069
       1.402
       0.706
      -0.698
      -1.963
      -2.371
      -1.896
      -1.129
      -0.698
      -0.742
      -0.908
      -0.743
      -0.093
       0.795
       1.481
       1.657
       1.335
       0.794
       0.314
      -0.061
      -0.512
      -1.197
      -2.008
      -2.611
      -2.720
      -2.311
      -1.593
      -0.824
      -0.145
       0.456
       1.058
       1.686
       2.223
       2.473
       2.309
       1.754
       0.928
      -0.048
      -1.058
      -1.926
      -2.381
      -2.145
      -1.147
       0.288
       1.481
       1.747
       0.861
      -0.734
      -2.174
      -2.710
      -2.139
      -0.848
       0.481
       1.249
       1.182
       0.375
      -0.822
      -1.971
      -2.698
      -2.802
      -2.280
      -1.301
      -0.133
       0.929
       1.634
       1.858
       1.672
       1.331
       1.121
       1.140
       1.182
       0.882
       0.062
      -1.041
      -1.941
      -2.311
      -2.215
      -1.949
      -1.703
      -1.403
      -0.860
      -0.025
       0.919
       1.694
       2.146
       2.292
       2.203
       1.884
       1.309
       0.543
      -0.199
      -0.642
      -0.620
      -0.198
       0.366
       0.787
       0.892
       0.613
      -0.056
      -1.014
      -1.980
      -2.542
      -2.381
      -1.470
      -0.110
       1.191
       1.918
       1.793
       0.950
      -0.082
      -0.662
      -0.419
       0.524
       1.612
       2.147
       1.657
       0.153
      -1.870
      -3.695
      -4.750
      -4.825
      -4.032
      -2.660
      -1.070
       0.377
       1.455
       2.215
       2.912
       3.670
       4.224
       4.072
       2.946
       1.109
      -0.813
      -2.244
      -2.882
      -2.686
      -1.836
      -0.733
       0.130
       0.478
       0.421
       0.261
       0.141
      -0.037
      -0.376
      -0.762
      -0.922
      -0.646
       0.071
       1.029
       1.886
       2.284
       2.010
       1.104
      -0.185
      -1.530
      -2.592
      -3.021
      -2.577
      -1.374
       0.052
       1.058
       1.338
       1.024
       0.439
      -0.118
      -0.376
      -0.109
       0.694
       1.686
       2.339
       2.286
       1.537
       0.415
      -0.633
      -1.239
      -1.284
      -0.993
      -0.805
      -1.068
      -1.788
      -2.627
      -3.130
      -2.973
      -2.106
      -0.788
       0.493
       1.246
       1.270
       0.792
       0.337
       0.400
       1.142
       2.292
       3.300
       3.651
       3.139
       1.963
       0.583
      -0.525
      -1.074
      -1.025
      -0.525
       0.194
       0.873
       1.272
       1.215
       0.643
      -0.340
      -1.439
      -2.215
      -2.297
      -1.641
      -0.585
       0.379
       0.892
       0.861
       0.428
      -0.095
      -0.339
      -0.080
       0.573
       1.251
       1.601
       1.500
       0.991
       0.132
      -0.976
      -2.037
      -2.573
      -2.242
      -1.161
       0.139
       1.066
       1.281
       0.796
      -0.075
      -0.829
      -0.999
      -0.488
       0.287
       0.639
       0.127
      -1.094
      -2.343
      -2.806
      -1.974
       0.070
       2.621
       4.666
       5.436
       4.848
       3.443
       1.924
       0.722
      -0.071
      -0.569
      -0.998
      -1.614
      -2.493
      -3.334
      -3.590
      -2.929
      -1.576
      -0.190
       0.636
       0.748
       0.419
       0.076
       0.074
       0.625
       1.758
       3.245
       4.582
       5.144
       4.496
       2.701
       0.412
      -1.415
      -2.104
      -1.694
      -0.828
      -0.179
       0.003
      -0.150
      -0.419
      -0.649
      -0.698
      -0.458
       0.009
       0.448
       0.606
       0.462
       0.213
       0.067
       0.078
       0.179
       0.310
       0.444
       0.522
       0.416
       0.024
      -0.610
      -1.270
      -1.668
      -1.599
      -1.070
      -0.320
       0.335
       0.741
       1.008
       1.359
       1.885
       2.474
       2.938
       3.148
       3.013
       2.423
       1.322
      -0.160
      -1.693
      -2.879
      -3.392
      -3.076
      -2.019
      -0.579
       0.716
       1.360
       1.064
      -0.098
      -1.630
      -2.758
      -2.829
      -1.742
      -0.023
       1.534
       2.342
       2.240
       1.457
       0.481
      -0.141
      -0.087
       0.491
       1.050
       1.083
       0.497
      -0.374
      -1.073
      -1.297
      -0.986
      -0.284
       0.491
       0.943
       0.787
       0.050
      -0.902
      -1.573
      -1.601
      -0.929
       0.161
       1.166
       1.594
       1.253
       0.373
      -0.539
      -1.016
      -0.874
      -0.246
       0.517
       1.012
       0.949
       0.289
      -0.706
      -1.569
      -1.879
      -1.512
      -0.702
       0.136
       0.659
       0.725
       0.404
      -0.065
      -0.365
      -0.286
       0.095
       0.415
       0.274
      -0.439
      -1.409
      -2.071
      -1.954
      -0.968
       0.520
       1.871
       2.522
       2.281
       1.368
       0.202
      -0.836
      -1.453
      -1.422
      -0.695
       0.410
       1.248
       1.262
       0.401
      -0.852
      -1.866
      -2.282
      -2.161
      -1.839
      -1.651
      -1.694
      -1.777
      -1.599
      -1.009
      -0.152
       0.588
       0.824
       0.432
      -0.313
      -0.877
      -0.818
      -0.100
       0.912
       1.715
       1.965
       1.582
       0.709
      -0.335
      -1.130
      -1.335
      -0.959
      -0.418
      -0.244
      -0.659
      -1.420
      -2.081
      -2.341
      -2.162
      -1.633
      -0.833
       0.149
       1.147
       1.931
       2.290
       2.097
       1.349
       0.231
      -0.891
      -1.641
      -1.888
      -1.836
      -1.801
      -1.925
      -2.065
      -1.958
      -1.444
      -0.603
       0.282
       0.878
       1.005
       0.770
       0.475
       0.368
       0.434
       0.444
       0.204
      -0.269
      -0.775
      -1.080
      -1.020
      -0.546
       0.258
       1.201
       2.056
       2.611
       2.679
       2.160
       1.157
       0.005
      -0.905
      -1.365
      -1.411
      -1.178
      -0.794
      -0.418
      -0.246
      -0.344
      -0.506
      -0.429
      -0.098
       0.119
      -0.159
      -0.879
      -1.537
      -1.613
      -0.972
       0.106
       1.172
       1.888
       2.165
       2.146
       2.032
       1.910
       1.745
       1.525
       1.358
       1.370
       1.557
       1.749
       1.712
       1.268
       0.378
      -0.816
      -2.020
      -2.923
      -3.390
      -3.504
      -3.396
      -3.051
      -2.327
      -1.201
       0.081
       1.143
       1.738
       1.852
       1.610
       1.159
       0.645
       0.201
      -0.079
      -0.142
       0.063
       0.555
       1.202
       1.688
       1.703
       1.185
       0.347
      -0.500
      -1.102
      -1.302
      -1.043
      -0.402
       0.427
       1.229
       1.871
       2.309
       2.525
       2.513
       2.313
       1.995
       1.564
       0.965
       0.209
      -0.539
      -1.080
      -1.374
      -1.555
      -1.754
      -1.956
      -2.044
      -1.950
      -1.750
      -1.578
      -1.439
      -1.126
      -0.362
       0.921
       2.427
       3.620
       4.022
       3.482
       2.269
       0.921
      -0.025
      -0.291
       0.066
       0.758
       1.449
       1.862
       1.794
       1.132
      -0.036
      -1.357
      -2.320
      -2.551
      -2.041
      -1.138
      -0.330
       0.007
      -0.221
      -0.780
      -1.220
      -1.125
      -0.367
       0.801
       1.870
       2.360
       2.097
       1.304
       0.442
      -0.089
      -0.140
       0.189
       0.626
       0.820
       0.482
      -0.402
      -1.458
      -2.108
      -1.962
      -1.097
       0.015
       0.831
       1.042
       0.684
       0.067
      -0.425
      -0.542
      -0.283
       0.163
       0.575
       0.792
       0.722
       0.375
      -0.068
      -0.286
      -0.044
       0.559
       1.113
       1.194
       0.668
      -0.268
      -1.258
      -1.954
      -2.098
      -1.620
      -0.771
      -0.072
       0.021
      -0.490
      -1.126
      -1.323
      -0.849
       0.116
       1.164
       1.871
       1.938
       1.301
       0.179
      -1.022
      -1.903
      -2.201
      -1.867
      -1.087
      -0.221
       0.417
       0.763
       0.988
       1.259
       1.556
       1.727
       1.669
       1.404
       0.996
       0.479
      -0.076
      -0.503
      -0.623
      -0.405
      -0.016
       0.293
       0.307
      -0.065
      -0.731
      -1.401
      -1.722
      -1.524
      -0.965
      -0.408
      -0.157
      -0.296
      -0.718
      -1.203
      -1.470
      -1.281
      -0.630
       0.156
       0.604
       0.476
      -0.013
      -0.346
