Origin Time       07/1/2013 05:32:46	
Lat.              28.1 N	
Long.             94.3 E	
Depth (Km)         10.0
Magnitude         4.5
 Region           Arunachal-Pradesh                                                
 Above details taken from IMD 
   
Station Code      TIN
Station Lat.       27.503
Station Long.      95.332
Station Height(m)  137.0
Site Class        C   Vs30 between 200 m/sec to 375 m/sec *  
Record Time       07.01.2013 11:02:34.289
Sampling Rate     200. Hz
 Record Duration   65.150 Sec.
 Direction         Vert. (Up positive)
Max. Acceleration      1.675 cm/sec**2
     
  * For reference see Site Classification link of website 
     
 Base Line Corrected and Low Pass Filtered (Cut Off at 35 Hz) Time History
 Acceleration data in cm/sec**2
    
[...]
      -0.307
      -0.352
      -0.346
      -0.274
      -0.138
       0.033
       0.187
       0.282
       0.298
       0.215
       0.016
      -0.253
      -0.462
      -0.478
      -0.282
       0.017
       0.275
       0.397
       0.338
       0.095
      -0.248
      -0.507
      -0.501
      -0.188
       0.299
       0.747
       0.980
       0.919
       0.607
       0.199
      -0.133
      -0.316
      -0.409
      -0.493
      -0.554
      -0.509
      -0.323
      -0.076
       0.102
       0.152
       0.116
       0.086
       0.113
       0.165
       0.160
       0.067
      -0.042
      -0.045
       0.081
       0.212
       0.207
       0.060
      -0.103
      -0.164
      -0.106
       0.022
       0.169
       0.282
       0.285
       0.129
      -0.137
      -0.386
      -0.502
      -0.454
      -0.289
      -0.104
       0.001
      -0.027
      -0.148
      -0.254
      -0.272
      -0.211
      -0.120
      -0.017
       0.109
       0.248
       0.354
       0.383
       0.316
       0.163
      -0.020
      -0.112
       0.000
       0.289
       0.570
       0.644
       0.475
       0.189
      -0.067
      -0.246
      -0.367
      -0.437
      -0.425
      -0.304
      -0.097
       0.116
       0.233
       0.196
       0.059
      -0.040
       0.012
       0.193
       0.377
       0.460
       0.415
       0.259
       0.012
      -0.269
      -0.486
      -0.563
      -0.519
      -0.441
      -0.379
      -0.312
      -0.193
      -0.011
       0.203
       0.395
       0.495
       0.458
       0.317
       0.172
       0.079
      -0.014
      -0.189
      -0.412
      -0.539
      -0.480
      -0.311
      -0.198
      -0.224
      -0.329
      -0.383
      -0.295
      -0.074
       0.181
       0.352
       0.383
       0.314
       0.220
       0.139
       0.073
       0.035
       0.062
       0.147
       0.217
       0.208
       0.123
       0.011
      -0.093
      -0.172
      -0.191
      -0.107
       0.068
       0.260
       0.407
       0.495
       0.520
       0.453
       0.281
       0.058
      -0.125
      -0.217
      -0.227
      -0.182
      -0.107
      -0.034
      -0.011
      -0.056
      -0.149
      -0.268
      -0.396
      -0.482
      -0.438
      -0.231
       0.030
       0.176
       0.152
       0.072
       0.086
       0.226
       0.400
       0.499
       0.463
       0.284
       0.005
      -0.275
      -0.442
      -0.446
      -0.329
      -0.183
      -0.089
      -0.093
      -0.189
      -0.308
      -0.348
      -0.259
      -0.099
       0.024
       0.069
       0.090
       0.149
       0.239
       0.297
       0.269
       0.158
       0.032
      -0.006
       0.101
       0.281
       0.363
       0.220
      -0.108
      -0.457
      -0.685
      -0.744
      -0.640
      -0.390
      -0.055
       0.248
       0.406
       0.395
       0.277
       0.142
       0.067
       0.100
       0.234
       0.382
       0.431
       0.322
       0.093
      -0.176
      -0.415
      -0.560
      -0.566
      -0.451
      -0.304
      -0.203
      -0.131
      -0.008
       0.193
       0.398
       0.507
       0.460
       0.242
      -0.123
      -0.539
      -0.830
      -0.845
      -0.586
      -0.208
       0.111
       0.290
       0.337
       0.290
       0.179
       0.041
      -0.071
      -0.094
       0.035
       0.319
       0.645
       0.808
       0.670
       0.291
      -0.115
      -0.358
      -0.391
      -0.265
      -0.056
       0.149
       0.250
       0.191
       0.020
      -0.155
      -0.252
      -0.257
      -0.180
      -0.040
       0.110
       0.195
       0.192
       0.156
       0.140
       0.135
       0.101
       0.050
       0.031
       0.051
       0.040
      -0.076
      -0.298
      -0.545
      -0.715
      -0.727
      -0.563
      -0.260
       0.123
       0.542
       0.934
       1.165
       1.067
       0.599
      -0.049
      -0.553
      -0.705
      -0.541
      -0.232
       0.083
       0.338
       0.465
       0.384
       0.091
      -0.305
      -0.651
      -0.841
      -0.832
      -0.637
      -0.329
      -0.041
       0.115
       0.121
       0.063
       0.048
       0.139
       0.329
       0.539
       0.638
       0.514
       0.178
      -0.212
      -0.455
      -0.432
      -0.165
       0.207
       0.491
       0.529
       0.311
       0.004
      -0.170
      -0.119
       0.059
       0.184
       0.153
      -0.011
      -0.212
      -0.347
      -0.352
      -0.226
      -0.029
       0.153
       0.252
       0.237
       0.105
      -0.104
      -0.305
      -0.404
      -0.376
      -0.278
      -0.182
      -0.126
      -0.124
      -0.179
      -0.258
      -0.269
      -0.136
       0.113
       0.355
       0.486
       0.481
       0.348
       0.084
      -0.281
      -0.641
      -0.861
      -0.885
      -0.739
      -0.467
      -0.090
       0.335
       0.685
       0.846
       0.817
       0.695
       0.571
       0.457
       0.319
       0.125
      -0.103
      -0.291
      -0.346
      -0.226
      -0.003
       0.189
       0.266
       0.245
       0.175
       0.063
      -0.096
      -0.245
      -0.281
      -0.163
       0.033
       0.185
       0.221
       0.148
       0.022
      -0.079
      -0.080
       0.025
       0.158
       0.220
       0.176
       0.060
      -0.084
      -0.237
      -0.366
      -0.413
      -0.351
      -0.236
      -0.159
      -0.166
      -0.230
      -0.278
      -0.234
      -0.053
       0.219
       0.434
       0.436
       0.203
      -0.114
      -0.322
      -0.333
      -0.186
       0.044
       0.295
       0.500
       0.587
       0.528
       0.367
       0.191
       0.074
       0.048
       0.101
       0.166
       0.145
      -0.009
      -0.247
      -0.457
      -0.553
      -0.515
      -0.372
      -0.182
      -0.033
       0.002
      -0.074
      -0.166
      -0.181
      -0.098
       0.028
       0.120
       0.108
      -0.041
      -0.270
      -0.433
      -0.405
      -0.196
       0.069
       0.286
       0.441
       0.528
       0.461
       0.152
      -0.336
      -0.774
      -0.927
      -0.729
      -0.299
       0.153
       0.448
       0.503
       0.352
       0.112
      -0.093
      -0.176
      -0.091
       0.167
       0.537
       0.871
       1.007
       0.876
       0.552
       0.181
      -0.113
      -0.270
      -0.300
      -0.269
      -0.268
      -0.325
      -0.367
      -0.289
      -0.069
       0.204
       0.410
       0.474
       0.373
       0.117
      -0.229
      -0.529
      -0.627
      -0.472
      -0.172
       0.074
       0.111
      -0.074
      -0.343
      -0.504
      -0.461
      -0.293
      -0.167
      -0.177
      -0.258
      -0.289
      -0.215
      -0.056
       0.169
       0.454
       0.741
       0.898
       0.815
       0.506
       0.114
      -0.184
      -0.258
      -0.096
       0.184
       0.384
       0.356
       0.111
      -0.206
      -0.436
      -0.493
      -0.369
      -0.116
       0.138
       0.217
       0.020
      -0.384
      -0.776
      -0.931
      -0.746
      -0.288
       0.248
       0.634
       0.743
       0.613
       0.374
       0.111
      -0.171
      -0.446
      -0.602
      -0.541
      -0.320
      -0.113
      -0.034
      -0.036
      -0.001
       0.128
       0.332
       0.580
       0.831
       0.998
       0.968
       0.697
       0.276
      -0.133
      -0.392
      -0.446
      -0.332
      -0.158
      -0.044
      -0.044
      -0.114
      -0.171
      -0.176
      -0.141
      -0.090
      -0.050
      -0.046
      -0.092
      -0.161
      -0.216
      -0.270
      -0.376
      -0.536
      -0.654
      -0.624
      -0.446
      -0.218
      -0.040
       0.071
       0.156
       0.258
       0.389
       0.516
       0.583
       0.545
       0.413
       0.242
       0.080
      -0.055
      -0.146
      -0.159
      -0.089
      -0.001
       0.030
      -0.001
      -0.031
      -0.028
      -0.032
      -0.081
      -0.140
      -0.134
      -0.051
       0.049
       0.096
       0.071
      -0.010
      -0.100
      -0.120
       0.007
       0.270
       0.537
       0.643
       0.522
       0.240
      -0.075
      -0.332
      -0.486
      -0.508
      -0.369
      -0.077
       0.278
       0.522
       0.471
       0.067
      -0.546
      -1.086
      -1.315
      -1.172
      -0.755
      -0.217
       0.291
       0.636
       0.731
       0.596
       0.360
       0.178
       0.129
       0.188
       0.263
       0.251
       0.105
      -0.121
      -0.294
      -0.322
      -0.240
      -0.166
      -0.171
      -0.227
      -0.269
      -0.270
      -0.221
      -0.089
       0.171
       0.540
       0.910
       1.115
       1.026
       0.633
       0.104
      -0.271
      -0.275
       0.051
       0.405
       0.471
       0.150
      -0.401
      -0.931
      -1.247
      -1.266
      -0.999
      -0.539
      -0.033
       0.376
       0.603
       0.637
       0.517
       0.328
       0.178
       0.141
       0.213
       0.319
       0.368
       0.293
       0.077
      -0.217
      -0.449
      -0.486
      -0.316
      -0.076
       0.064
       0.037
      -0.097
      -0.227
      -0.268
      -0.190
      -0.028
       0.128
       0.191
       0.154
       0.094
       0.078
       0.075
       0.008
      -0.127
      -0.213
      -0.127
       0.113
       0.327
       0.304
      -0.025
      -0.519
      -0.927
      -1.059
      -0.878
      -0.455
       0.113
       0.705
       1.135
       1.201
       0.853
       0.288
      -0.184
      -0.382
      -0.335
      -0.173
       0.002
       0.130
       0.171
       0.122
       0.045
       0.030
       0.127
       0.307
       0.477
       0.520
       0.356
       0.019
      -0.328
      -0.484
      -0.348
       0.017
       0.430
       0.686
       0.644
       0.311
      -0.143
      -0.480
      -0.565
      -0.444
      -0.251
      -0.087
       0.002
      -0.034
      -0.245
      -0.579
      -0.840
      -0.814
      -0.447
       0.108
       0.604
       0.836
       0.734
       0.379
      -0.054
      -0.408
      -0.633
      -0.773
      -0.874
      -0.925
      -0.891
      -0.764
      -0.554
      -0.269
       0.068
       0.383
       0.573
       0.580
       0.431
       0.206
      -0.017
      -0.182
      -0.264
      -0.283
      -0.283
      -0.271
      -0.208
      -0.082
       0.020
      -0.026
      -0.225
      -0.428
      -0.460
      -0.283
       0.003
       0.272
       0.474
       0.626
       0.746
       0.831
       0.869
       0.881
       0.927
       1.054
       1.238
       1.373
       1.346
       1.145
       0.868
       0.634
       0.482
       0.367
       0.226
       0.038
      -0.147
      -0.237
      -0.154
       0.082
       0.348
       0.507
       0.502
       0.357
       0.094
      -0.269
      -0.660
      -0.947
      -1.051
      -1.032
      -1.036
      -1.133
      -1.267
      -1.329
      -1.261
      -1.090
      -0.888
      -0.741
      -0.696
      -0.705
      -0.639
      -0.404
      -0.052
       0.249
       0.367
       0.312
       0.191
       0.118
       0.159
       0.324
       0.562
       0.765
       0.815
       0.656
       0.329
      -0.057
      -0.378
      -0.557
      -0.609
      -0.628
      -0.701
      -0.827
      -0.909
      -0.843
      -0.596
      -0.213
       0.215
       0.590
       0.828
       0.893
       0.808
       0.654
       0.514
       0.438
       0.442
       0.516
       0.614
       0.665
       0.601
       0.405
       0.131
      -0.115
      -0.208
      -0.074
       0.243
       0.561
       0.668
       0.476
       0.098
      -0.254
      -0.429
      -0.429
      -0.359
      -0.330
      -0.390
      -0.502
      -0.576
      -0.540
      -0.404
      -0.255
      -0.188
      -0.237
      -0.352
      -0.417
      -0.299
       0.051
       0.512
       0.849
       0.893
       0.695
       0.472
       0.418
       0.566
       0.796
       0.944
       0.902
       0.656
       0.268
      -0.159
      -0.528
      -0.789
      -0.949
      -1.052
      -1.143
      -1.226
      -1.244
      -1.098
      -0.738
      -0.247
       0.172
       0.344
       0.255
       0.057
      -0.051
       0.043
       0.308
       0.598
       0.740
       0.639
       0.322
      -0.098
      -0.500
      -0.786
      -0.860
      -0.655
      -0.224
       0.235
       0.501
       0.500
       0.342
       0.197
       0.176
       0.297
       0.521
       0.779
       0.987
       1.073
       0.993
       0.738
       0.344
      -0.101
      -0.475
      -0.707
      -0.833
      -0.924
      -0.968
      -0.852
      -0.501
      -0.002
       0.430
       0.606
       0.505
       0.254
       0.021
      -0.109
      -0.174
      -0.251
      -0.346
      -0.367
      -0.240
      -0.037
       0.066
      -0.043
      -0.297
      -0.537
      -0.655
      -0.631
      -0.464
      -0.135
       0.329
       0.804
       1.107
       1.107
       0.814
       0.364
      -0.052
      -0.294
      -0.338
      -0.243
      -0.074
       0.140
       0.362
       0.477
       0.348
      -0.041
      -0.504
      -0.790
      -0.806
      -0.717
      -0.754
      -0.921
      -0.917
      -0.424
       0.500
       1.372
       1.675
       1.319
       0.683
       0.224
       0.094
       0.132
       0.141
       0.083
       0.007
      -0.087
      -0.231
      -0.400
      -0.520
      -0.586
      -0.684
      -0.866
      -1.033
      -1.014
      -0.726
      -0.244
       0.284
       0.735
       1.033
       1.126
       0.989
       0.659
       0.252
      -0.069
      -0.170
      -0.031
       0.218
       0.375
       0.307
       0.031
      -0.329
      -0.639
      -0.798
      -0.740
      -0.437
       0.037
       0.516
       0.826
       0.898
       0.759
       0.472
       0.109
      -0.209
      -0.323
      -0.149
       0.233
       0.607
       0.754
       0.573
       0.120
      -0.422
      -0.842
      -1.016
      -0.970
      -0.834
      -0.710
      -0.612
      -0.516
      -0.421
      -0.336
      -0.224
      -0.028
       0.249
       0.516
       0.653
       0.598
       0.388
       0.138
      -0.027
      -0.044
       0.038
       0.093
       0.010
      -0.220
      -0.510
      -0.732
      -0.773
      -0.583
      -0.199
       0.267
       0.680
       0.930
       0.933
       0.659
       0.217
      -0.130
      -0.130
       0.218
       0.634
       0.794
       0.594
       0.180
      -0.233
      -0.515
      -0.633
      -0.596
      -0.446
      -0.250
      -0.089
      -0.012
      -0.035
      -0.139
      -0.274
      -0.372
      -0.369
      -0.238
       0.006
       0.315
       0.596
       0.729
       0.641
       0.379
       0.084
      -0.110
      -0.153
      -0.050
       0.179
       0.484
       0.749
       0.830
       0.666
       0.330
      -0.034
      -0.310
      -0.451
      -0.475
      -0.435
      -0.391
      -0.387
      -0.437
      -0.529
      -0.632
      -0.690
      -0.648
      -0.505
      -0.333
      -0.211
      -0.149
      -0.084
       0.037
       0.205
       0.373
       0.500
       0.553
       0.500
       0.342
       0.136
      -0.038
      -0.138
      -0.174
      -0.171
      -0.143
      -0.118
      -0.141
      -0.239
      -0.377
      -0.475
      -0.458
      -0.298
      -0.020
       0.312
       0.613
       0.816
       0.898
       0.867
       0.723
       0.470
       0.153
      -0.141
      -0.334
      -0.404
      -0.369
      -0.254
      -0.091
       0.055
       0.102
       0.018
      -0.146
      -0.296
      -0.386
      -0.442
      -0.515
      -0.589
      -0.547
      -0.263
       0.230
       0.658
       0.686
       0.257
      -0.302
      -0.560
      -0.372
       0.038
       0.334
       0.358
       0.180
      -0.032
      -0.157
      -0.183
      -0.184
      -0.254
      -0.408
      -0.530
      -0.441
      -0.075
       0.414
       0.759
       0.810
       0.644
       0.457
       0.358
       0.289
       0.130
      -0.141
      -0.388
      -0.434
      -0.234
       0.066
       0.250
       0.196
      -0.068
      -0.434
      -0.782
      -0.976
      -0.875
      -0.435
       0.193
       0.734
       0.977
       0.902
       0.631
       0.317
       0.086
       0.032
       0.171
       0.402
       0.560
       0.541
       0.372
       0.148
      -0.059
      -0.222
      -0.330
      -0.392
      -0.448
      -0.543
      -0.676
      -0.783
      -0.776
      -0.602
      -0.284
       0.075
       0.316
       0.326
       0.132
      -0.104
      -0.224
      -0.194
      -0.091
       0.011
       0.098
       0.181
       0.249
       0.260
       0.177
      -0.012
      -0.257
      -0.441
      -0.429
      -0.179
       0.200
       0.529
       0.687
       0.655
       0.484
       0.235
      -0.034
      -0.273
      -0.440
      -0.474
      -0.291
       0.123
       0.594
       0.824
       0.644
       0.190
      -0.231
      -0.429
      -0.443
      -0.410
      -0.404
      -0.412
      -0.395
      -0.329
      -0.219
      -0.115
      -0.087
      -0.155
      -0.251
      -0.263
      -0.122
       0.162
       0.494
       0.717
       0.690
       0.396
       0.009
      -0.220
      -0.172
       0.034
       0.171
       0.125
      -0.026
      -0.144
      -0.183
      -0.203
      -0.266
      -0.356
      -0.380
      -0.257
       0.005
       0.280
       0.418
       0.367
       0.224
       0.137
       0.166
       0.247
       0.281
       0.218
       0.071
      -0.116
      -0.288
      -0.401
      -0.444
      -0.439
      -0.391
      -0.264
      -0.034
       0.245
       0.460
       0.543
       0.518
       0.455
       0.390
       0.318
       0.223
       0.115
       0.032
       0.017
       0.071
       0.117
       0.037
      -0.207
      -0.485
      -0.587
      -0.408
      -0.048
       0.286
       0.436
       0.361
       0.107
      -0.228
      -0.495
      -0.543
      -0.306
       0.131
       0.575
       0.827
       0.783
       0.477
       0.067
      -0.263
      -0.436
      -0.508
      -0.562
      -0.575
      -0.443
      -0.159
       0.095
       0.106
      -0.136
      -0.396
      -0.400
      -0.109
       0.226
       0.275
      -0.068
      -0.572
      -0.849
      -0.664
      -0.108
       0.492
       0.816
       0.736
       0.335
      -0.179
      -0.559
      -0.629
      -0.387
      -0.013
       0.265
       0.348
       0.287
       0.164
       0.003
      -0.181
      -0.309
      -0.268
      -0.016
       0.357
       0.696
       0.873
       0.841
       0.625
       0.315
       0.034
      -0.114
      -0.111
      -0.034
       0.010
      -0.033
      -0.121
      -0.163
      -0.110
      -0.014
       0.013
      -0.083
      -0.240
      -0.342
      -0.338
      -0.278
      -0.244
      -0.262
      -0.289
      -0.248
      -0.091
       0.147
       0.328
       0.298
