Origin Time       1/7/2012 04:13:52	 
Lat.              25.7 N	
Long.             94.6 E	
Depth (Km)         50.0
Magnitude         5.8
 Region           Phek-Nagaland                                                    
 Above details taken from IMD 
   
Station Code      TIN
Station Lat.       27.503
Station Long.      95.332
Station Height(m)  137.0
Site Class        C   Vs30 between 200 m/sec to 375 m/sec *  
Record Time       01.07.2012 09:50:24.869
Sampling Rate     200. Hz
 Record Duration   65.000 Sec.
 Direction         Vert. (Up positive)
Max. Acceleration      4.046 cm/sec**2
     
  * For reference see Site Classification link of website 
     
 Base Line Corrected and Low Pass Filtered (Cut Off at 35 Hz) Time History
 Acceleration data in cm/sec**2
    
      -0.244
      -0.119
       0.095
       0.280
       0.355
       0.302
       0.140
      -0.106
      -0.392
      -0.641
      -0.751
      -0.665
      -0.426
      -0.160
       0.012
       0.059
       0.026
      -0.036
      -0.108
      -0.181
      -0.227
      -0.229
      -0.216
      -0.218
      -0.198
      -0.063
       0.217
       0.506
       0.569
       0.278
      -0.248
      -0.721
      -0.905
      -0.763
      -0.427
      -0.059
       0.249
       0.479
       0.647
       0.748
       0.740
       0.571
       0.223
      -0.234
      -0.644
      -0.841
      -0.746
      -0.426
      -0.036
       0.302
       0.564
       0.772
       0.888
       0.786
       0.353
      -0.360
      -1.100
      -1.539
      -1.476
      -0.948
      -0.191
       0.504
       0.943
       1.088
       1.024
       0.851
       0.619
       0.348
       0.097
      -0.022
       0.068
       0.307
       0.527
       0.587
       0.455
       0.179
      -0.170
      -0.485
      -0.634
      -0.552
      -0.347
      -0.239
      -0.356
      -0.588
      -0.695
      -0.539
      -0.203
       0.108
       0.237
       0.165
      -0.013
      -0.168
      -0.207
      -0.101
       0.130
       0.446
       0.772
       0.988
       0.973
       0.690
       0.236
      -0.213
      -0.499
      -0.543
      -0.353
      -0.016
       0.304
       0.421
       0.238
      -0.172
      -0.602
      -0.840
      -0.788
      -0.480
      -0.013
       0.508
       0.981
       1.279
       1.278
       0.941
       0.378
      -0.218
      -0.697
      -0.997
      -1.083
      -0.891
      -0.393
       0.294
       0.926
       1.279
       1.272
       0.947
       0.388
      -0.302
      -0.956
      -1.362
      -1.353
      -0.916
      -0.201
       0.547
       1.102
       1.333
       1.220
       0.804
       0.146
      -0.648
      -1.380
      -1.788
      -1.688
      -1.123
      -0.372
       0.207
       0.391
       0.195
      -0.171
      -0.446
      -0.455
      -0.184
       0.223
       0.558
       0.649
       0.454
       0.082
      -0.258
      -0.379
      -0.228
       0.084
       0.365
       0.463
       0.335
       0.041
      -0.291
      -0.486
      -0.395
      -0.010
       0.497
       0.871
       0.955
       0.746
       0.322
      -0.242
      -0.844
      -1.307
      -1.425
      -1.113
      -0.480
       0.254
       0.873
       1.226
       1.206
       0.773
       0.037
      -0.700
      -1.083
      -0.943
      -0.420
       0.162
       0.537
       0.616
       0.442
       0.103
      -0.267
      -0.509
      -0.512
      -0.300
       0.000
       0.256
       0.398
       0.419
       0.358
       0.301
       0.343
       0.503
       0.672
       0.680
       0.422
      -0.066
      -0.637
      -1.092
      -1.240
      -0.967
      -0.328
       0.422
       0.943
       1.030
       0.738
       0.306
      -0.054
      -0.267
      -0.346
      -0.286
      -0.062
       0.284
       0.607
       0.735
       0.612
       0.352
       0.141
       0.072
       0.072
       0.008
      -0.162
      -0.337
      -0.362
      -0.151
       0.278
       0.828
       1.351
       1.654
       1.558
       1.023
       0.212
      -0.588
      -1.136
      -1.343
      -1.248
      -0.956
      -0.595
      -0.274
      -0.041
       0.113
       0.220
       0.298
       0.377
       0.499
       0.656
       0.725
       0.545
       0.086
      -0.474
      -0.872
      -0.950
      -0.720
      -0.280
       0.263
       0.778
       1.089
       1.047
       0.657
       0.110
      -0.353
      -0.605
      -0.666
      -0.597
      -0.427
      -0.199
      -0.029
      -0.035
      -0.184
      -0.265
      -0.061
       0.436
       1.013
       1.409
       1.491
       1.289
       0.900
       0.413
      -0.108
      -0.615
      -1.058
      -1.384
      -1.515
      -1.356
      -0.861
      -0.120
       0.630
       1.137
       1.298
       1.196
       0.979
       0.751
       0.554
       0.404
       0.284
       0.132
      -0.112
      -0.423
      -0.686
      -0.774
      -0.605
      -0.153
       0.536
       1.293
       1.834
       1.912
       1.476
       0.685
      -0.245
      -1.162
      -1.957
      -2.466
      -2.483
      -1.891
      -0.789
       0.529
       1.694
       2.385
       2.408
       1.773
       0.736
      -0.263
      -0.817
      -0.756
      -0.213
       0.487
       1.013
       1.167
       0.929
       0.422
      -0.185
      -0.747
      -1.147
      -1.270
      -1.031
      -0.460
       0.250
       0.830
       1.085
       0.997
       0.698
       0.359
       0.097
      -0.056
      -0.119
      -0.135
      -0.154
      -0.204
      -0.242
      -0.147
       0.180
       0.694
       1.178
       1.392
       1.220
       0.697
      -0.078
      -0.963
      -1.719
      -2.016
      -1.635
      -0.689
       0.390
       1.108
       1.200
       0.710
      -0.106
      -0.922
      -1.441
      -1.497
      -1.126
      -0.537
       0.041
       0.482
       0.746
       0.803
       0.615
       0.217
      -0.246
      -0.595
      -0.728
      -0.661
      -0.487
      -0.308
      -0.185
      -0.097
       0.047
       0.338
       0.751
       1.111
       1.172
       0.774
      -0.038
      -1.015
      -1.819
      -2.183
      -2.015
      -1.404
      -0.532
       0.387
       1.132
       1.501
       1.365
       0.740
      -0.184
      -1.093
      -1.644
      -1.604
      -0.973
      -0.007
       0.899
       1.422
       1.464
       1.134
       0.632
       0.134
      -0.243
      -0.449
      -0.488
      -0.382
      -0.133
       0.247
       0.645
       0.832
       0.624
       0.067
      -0.535
      -0.828
      -0.660
      -0.177
       0.291
       0.450
       0.209
      -0.272
      -0.704
      -0.860
      -0.699
      -0.327
       0.099
       0.441
       0.578
       0.446
       0.092
      -0.322
      -0.616
      -0.695
      -0.559
      -0.274
       0.041
       0.230
       0.188
      -0.051
      -0.318
      -0.440
      -0.360
      -0.168
      -0.020
      -0.020
      -0.139
      -0.239
      -0.200
      -0.012
       0.245
       0.503
       0.734
       0.905
       0.956
       0.845
       0.574
       0.167
      -0.352
      -0.922
      -1.398
      -1.597
      -1.418
      -0.928
      -0.313
       0.253
       0.685
       0.959
       1.027
       0.817
       0.332
      -0.279
      -0.793
      -1.058
      -1.059
      -0.861
      -0.533
      -0.139
       0.230
       0.472
       0.541
       0.480
       0.379
       0.282
       0.148
      -0.086
      -0.398
      -0.657
      -0.728
      -0.602
      -0.408
      -0.276
      -0.216
      -0.146
      -0.030
       0.039
      -0.057
      -0.314
      -0.575
      -0.660
      -0.492
      -0.113
       0.386
       0.888
       1.233
       1.249
       0.855
       0.153
      -0.581
      -1.034
      -1.029
      -0.630
      -0.088
       0.336
       0.541
       0.581
       0.526
       0.361
       0.051
      -0.349
      -0.690
      -0.868
      -0.914
      -0.929
      -0.930
      -0.838
      -0.597
      -0.250
       0.116
       0.451
       0.711
       0.796
       0.601
       0.150
      -0.362
      -0.696
      -0.713
      -0.418
       0.092
       0.662
       1.092
       1.191
       0.884
       0.276
      -0.377
      -0.805
      -0.865
      -0.608
      -0.216
       0.110
       0.236
       0.103
      -0.238
      -0.598
      -0.715
      -0.445
       0.074
       0.512
       0.624
       0.417
       0.062
      -0.303
      -0.628
      -0.865
      -0.915
      -0.696
      -0.237
       0.313
       0.740
       0.859
       0.615
       0.136
      -0.317
      -0.508
      -0.367
       0.000
       0.418
       0.747
       0.907
       0.856
       0.612
       0.297
       0.087
       0.072
       0.157
       0.154
      -0.023
      -0.266
      -0.391
      -0.336
      -0.220
      -0.194
      -0.270
      -0.321
      -0.240
      -0.056
       0.096
       0.117
       0.017
      -0.139
      -0.309
      -0.454
      -0.487
      -0.309
       0.037
       0.316
       0.268
      -0.159
      -0.765
      -1.271
      -1.501
      -1.404
      -0.980
      -0.272
       0.566
       1.282
       1.655
       1.611
       1.203
       0.522
      -0.314
      -1.102
      -1.564
      -1.505
      -0.969
      -0.246
       0.324
       0.557
       0.489
       0.295
       0.163
       0.202
       0.410
       0.693
       0.908
       0.929
       0.689
       0.237
      -0.244
      -0.500
      -0.371
       0.069
       0.561
       0.853
       0.859
       0.639
       0.283
      -0.146
      -0.561
      -0.816
      -0.769
      -0.402
       0.118
       0.532
       0.646
       0.451
       0.093
      -0.257
      -0.502
      -0.607
      -0.522
      -0.197
       0.313
       0.794
       0.994
       0.823
       0.425
       0.037
      -0.205
      -0.305
      -0.285
      -0.112
       0.222
       0.595
       0.797
       0.719
       0.477
       0.329
       0.439
       0.727
       0.927
       0.810
       0.359
      -0.251
      -0.810
      -1.185
      -1.317
      -1.201
      -0.892
      -0.523
      -0.236
      -0.052
       0.158
       0.544
       1.077
       1.510
       1.570
       1.206
       0.646
       0.205
       0.034
       0.052
       0.068
      -0.058
      -0.337
      -0.672
      -0.913
      -0.928
      -0.670
      -0.216
       0.279
       0.661
       0.859
       0.886
       0.798
       0.636
       0.409
       0.107
      -0.265
      -0.634
      -0.851
      -0.788
      -0.464
      -0.061
       0.221
       0.322
       0.314
       0.278
       0.230
       0.170
       0.135
       0.150
       0.161
       0.078
      -0.128
      -0.397
      -0.665
      -0.907
      -1.085
      -1.085
      -0.787
      -0.213
       0.422
       0.825
       0.815
       0.415
      -0.197
      -0.814
      -1.275
      -1.478
      -1.373
      -0.971
      -0.384
       0.201
       0.591
       0.693
       0.549
       0.293
       0.073
      -0.004
       0.128
       0.483
       0.984
       1.425
       1.537
       1.172
       0.446
      -0.317
      -0.819
      -0.983
      -0.927
      -0.799
      -0.674
      -0.569
      -0.511
      -0.531
      -0.619
      -0.681
      -0.561
      -0.131
       0.601
       1.430
       2.010
       2.020
       1.338
       0.116
      -1.275
      -2.386
      -2.848
      -2.496
      -1.454
      -0.099
       1.096
       1.766
       1.793
       1.287
       0.495
      -0.298
      -0.848
      -1.013
      -0.806
      -0.374
       0.079
       0.396
       0.510
       0.439
       0.242
      -0.003
      -0.214
      -0.321
      -0.296
      -0.162
       0.049
       0.323
       0.648
       0.950
       1.089
       0.943
       0.510
      -0.064
      -0.565
      -0.821
      -0.764
      -0.417
       0.128
       0.733
       1.248
       1.568
       1.686
       1.656
       1.487
       1.089
       0.353
      -0.666
      -1.680
      -2.292
      -2.248
      -1.595
      -0.635
       0.277
       0.906
       1.184
       1.122
       0.736
       0.055
      -0.794
      -1.559
      -1.949
      -1.775
      -1.062
      -0.048
       0.890
       1.365
       1.122
       0.182
      -1.111
      -2.222
      -2.684
      -2.349
      -1.431
      -0.317
       0.679
       1.401
       1.759
       1.671
       1.141
       0.363
      -0.345
      -0.728
      -0.715
      -0.383
       0.145
       0.726
       1.167
       1.279
       0.996
       0.448
      -0.127
      -0.561
      -0.842
      -1.060
      -1.276
      -1.470
      -1.554
      -1.406
      -0.914
      -0.059
       1.015
       2.025
       2.671
       2.745
       2.147
       0.894
      -0.805
      -2.508
      -3.681
      -3.952
      -3.258
      -1.780
       0.159
       2.127
       3.584
       4.046
       3.321
       1.623
      -0.534
      -2.544
      -3.850
      -4.037
      -2.974
      -0.962
       1.294
       2.958
       3.446
       2.681
       1.074
      -0.698
      -1.976
      -2.338
      -1.722
      -0.446
       0.905
       1.740
       1.764
       1.125
       0.267
      -0.381
      -0.619
      -0.488
      -0.139
       0.277
       0.647
       0.875
       0.852
       0.516
      -0.018
      -0.418
      -0.338
       0.244
       0.933
       1.216
       0.877
       0.099
      -0.760
      -1.420
      -1.726
      -1.577
      -0.912
       0.186
       1.423
       2.358
       2.610
       2.042
       0.823
      -0.651
      -1.897
      -2.479
      -2.173
      -1.107
       0.229
       1.210
       1.429
       0.923
       0.098
      -0.571
      -0.821
      -0.695
      -0.414
      -0.171
      -0.002
       0.187
       0.497
       0.920
       1.328
       1.538
       1.399
       0.857
      -0.005
      -0.950
      -1.667
      -1.915
      -1.649
      -1.021
      -0.279
       0.322
       0.594
       0.476
       0.076
      -0.374
      -0.624
      -0.494
       0.079
       0.971
       1.820
       2.155
       1.708
       0.638
      -0.559
      -1.377
      -1.549
      -1.078
      -0.160
       0.871
       1.619
       1.777
       1.288
       0.385
      -0.530
      -1.111
      -1.255
      -1.104
      -0.876
      -0.683
      -0.525
      -0.392
      -0.299
      -0.211
      -0.028
       0.302
       0.699
       1.025
       1.198
       1.204
       1.042
       0.764
       0.510
       0.398
       0.357
       0.194
      -0.126
      -0.346
      -0.172
       0.362
       0.861
       0.903
       0.390
      -0.412
      -1.103
      -1.403
      -1.263
      -0.809
      -0.231
       0.304
       0.662
       0.742
       0.508
       0.028
      -0.536
      -1.002
      -1.220
      -1.090
      -0.585
       0.179
       0.905
       1.214
       0.861
      -0.068
      -1.144
      -1.808
      -1.673
      -0.745
       0.602
       1.838
       2.550
       2.593
       2.046
       1.094
      -0.042
      -1.104
      -1.820
      -2.035
      -1.807
      -1.376
      -0.997
      -0.810
      -0.802
      -0.858
      -0.825
      -0.564
      -0.028
       0.678
       1.327
       1.691
       1.677
       1.349
       0.832
       0.197
      -0.529
      -1.234
      -1.655
      -1.508
      -0.753
       0.289
       1.112
       1.374
       1.112
       0.641
       0.258
       0.042
      -0.103
      -0.260
      -0.404
      -0.472
      -0.483
      -0.530
      -0.643
      -0.696
      -0.499
      -0.013
       0.587
       1.054
       1.277
       1.284
       1.100
       0.692
       0.098
      -0.468
      -0.752
      -0.697
      -0.509
      -0.452
      -0.601
      -0.779
      -0.726
      -0.305
       0.390
       1.099
       1.562
       1.668
       1.462
       1.067
       0.626
       0.309
       0.253
       0.449
       0.696
       0.737
       0.454
      -0.083
      -0.690
      -1.152
      -1.260
      -0.902
      -0.181
       0.576
       1.033
       1.077
       0.826
       0.443
       0.000
      -0.451
      -0.776
      -0.804
      -0.482
       0.057
       0.586
       0.926
       0.992
       0.782
       0.375
      -0.072
      -0.371
      -0.401
      -0.179
       0.132
       0.295
       0.129
      -0.360
      -0.930
      -1.259
      -1.204
      -0.932
      -0.739
      -0.715
      -0.642
      -0.240
       0.482
       1.197
       1.553
       1.466
       1.115
       0.710
       0.332
      -0.003
      -0.237
      -0.310
      -0.291
      -0.383
      -0.724
      -1.184
      -1.413
      -1.122
      -0.339
       0.580
       1.184
       1.236
       0.846
       0.362
       0.099
       0.132
       0.301
       0.381
       0.232
      -0.177
      -0.807
      -1.525
      -2.050
      -2.032
      -1.299
      -0.038
       1.278
       2.170
       2.391
       1.974
       1.157
       0.274
      -0.371
      -0.634
      -0.581
      -0.404
      -0.275
      -0.257
      -0.318
      -0.388
      -0.404
      -0.331
      -0.176
       0.016
       0.165
       0.154
      -0.103
      -0.562
      -1.011
      -1.190
      -0.984
      -0.487
       0.117
       0.675
       1.060
       1.116
       0.728
      -0.013
      -0.780
      -1.207
      -1.137
      -0.685
      -0.088
       0.449
       0.818
       0.990
       0.958
       0.692
       0.148
      -0.616
      -1.354
      -1.692
      -1.384
      -0.536
       0.440
       1.133
       1.404
       1.369
       1.171
       0.844
       0.415
       0.027
      -0.135
      -0.040
       0.144
       0.232
       0.201
       0.147
       0.090
      -0.090
      -0.496
      -1.042
      -1.480
      -1.597
      -1.368
      -0.920
      -0.399
       0.127
       0.640
       1.087
       1.351
       1.315
       0.972
       0.442
      -0.124
      -0.648
      -1.104
      -1.403
      -1.365
      -0.859
       0.022
       0.935
       1.476
       1.440
       0.928
       0.242
      -0.349
      -0.735
      -0.921
      -0.900
      -0.654
      -0.244
       0.150
       0.357
       0.342
       0.201
       0.013
      -0.231
      -0.532
      -0.763
      -0.712
      -0.269
       0.408
       0.961
       1.082
       0.721
       0.074
      -0.609
      -1.189
      -1.623
      -1.857
      -1.806
      -1.442
      -0.866
      -0.243
       0.317
       0.792
       1.166
       1.352
       1.229
       0.790
       0.197
      -0.316
      -0.624
      -0.768
      -0.840
      -0.827
      -0.619
      -0.156
       0.447
       0.940
       1.129
       1.012
       0.755
       0.558
       0.547
       0.730
       1.002
       1.172
       1.048
       0.572
      -0.094
      -0.638
      -0.825
      -0.684
      -0.478
      -0.471
      -0.721
      -1.063
      -1.252
      -1.119
      -0.638
       0.083
       0.837
       1.391
       1.568
       1.324
       0.781
       0.182
      -0.242
      -0.416
      -0.431
      -0.393
      -0.276
       0.009
       0.421
       0.756
       0.866
       0.841
       0.873
       0.934
       0.727
       0.018
      -1.009
      -1.811
      -1.938
      -1.408
      -0.642
      -0.084
       0.120
       0.110
       0.071
       0.038
      -0.071
      -0.235
      -0.219
       0.210
       0.954
       1.534
       1.476
       0.748
      -0.242
      -1.044
      -1.484
      -1.609
      -1.462
      -1.061
      -0.527
      -0.076
       0.176
       0.346
       0.636
       1.077
       1.441
       1.423
       0.913
       0.111
      -0.590
      -0.891
      -0.807
      -0.645
      -0.710
      -1.021
      -1.309
      -1.289
      -0.907
      -0.343
       0.175
       0.531
       0.762
       0.990
       1.320
       1.744
       2.126
       2.270
       2.027
       1.379
       0.480
      -0.392
      -0.958
      -1.101
      -0.940
