Origin Time       1/7/2012 04:13:52	 
Lat.              25.7 N	
Long.             94.6 E	
Depth (Km)         50.0
Magnitude         5.8
 Region           Phek-Nagaland                                                    
 Above details taken from IMD 
     
Station Code      TIN
Station Lat.       27.503  N
Station Long.      95.332  E
Station Height(m)  137.0
Site Class        C   Vs30 between 200 m/sec to 375 m/sec *  
Record Time       01.07.2012 09:50:24.869
Sampling Rate     200. Hz
 Record Duration   65.000 Sec.
 Direction         E-W (E positive)
Max. Acceleration     -9.378 cm/sec**2
     
  * For reference see Site Classification link of website 
     
 Base Line Corrected and Low Pass Filtered (Cut Off at 35 Hz) Time History
 Acceleration data in cm/sec**2
    
[...]
       1.281
       0.835
       0.254
      -0.354
      -0.865
      -1.196
      -1.331
      -1.293
      -1.124
      -0.861
      -0.535
      -0.173
       0.201
       0.564
       0.884
       1.116
       1.213
       1.150
       0.950
       0.668
       0.368
       0.088
      -0.154
      -0.351
      -0.492
      -0.559
      -0.540
      -0.436
      -0.265
      -0.055
       0.154
       0.329
       0.453
       0.527
       0.565
       0.570
       0.524
       0.386
       0.132
      -0.218
      -0.591
      -0.894
      -1.060
      -1.072
      -0.961
      -0.777
      -0.557
      -0.316
      -0.060
       0.188
       0.390
       0.510
       0.546
       0.536
       0.539
       0.604
       0.734
       0.896
       1.040
       1.128
       1.141
       1.067
       0.894
       0.614
       0.246
      -0.160
      -0.537
      -0.827
      -1.001
      -1.070
      -1.063
      -0.997
      -0.875
      -0.690
      -0.444
      -0.156
       0.132
       0.365
       0.501
       0.531
       0.464
       0.317
       0.103
      -0.160
      -0.435
      -0.663
      -0.788
      -0.771
      -0.615
      -0.353
      -0.038
       0.261
       0.476
       0.547
       0.443
       0.181
      -0.174
      -0.542
      -0.854
      -1.068
      -1.165
      -1.136
      -0.982
      -0.722
      -0.403
      -0.092
       0.142
       0.272
       0.316
       0.322
       0.343
       0.416
       0.550
       0.726
       0.903
       1.033
       1.071
       1.004
       0.854
       0.663
       0.466
       0.275
       0.096
      -0.052
      -0.125
      -0.092
       0.036
       0.194
       0.295
       0.272
       0.107
      -0.152
      -0.414
      -0.586
      -0.613
      -0.495
      -0.282
      -0.054
       0.115
       0.181
       0.141
       0.024
      -0.122
      -0.251
      -0.338
      -0.378
      -0.385
      -0.375
      -0.365
      -0.366
      -0.370
      -0.345
      -0.250
      -0.059
       0.218
       0.534
       0.831
       1.060
       1.189
       1.200
       1.094
       0.892
       0.635
       0.363
       0.103
      -0.147
      -0.400
      -0.656
      -0.889
      -1.059
      -1.125
      -1.067
      -0.897
      -0.663
      -0.433
      -0.255
      -0.139
      -0.062
       0.005
       0.078
       0.150
       0.212
       0.260
       0.301
       0.346
       0.397
       0.438
       0.452
       0.434
       0.396
       0.355
       0.314
       0.259
       0.162
       0.001
      -0.219
      -0.474
      -0.725
      -0.935
      -1.054
      -1.043
      -0.882
      -0.591
      -0.214
       0.198
       0.592
       0.923
       1.150
       1.246
       1.198
       1.007
       0.696
       0.308
      -0.092
      -0.439
      -0.689
      -0.826
      -0.856
      -0.799
      -0.689
      -0.569
      -0.490
      -0.497
      -0.598
      -0.765
      -0.942
      -1.082
      -1.145
      -1.109
      -0.969
      -0.740
      -0.449
      -0.133
       0.173
       0.443
       0.664
       0.835
       0.964
       1.056
       1.117
       1.149
       1.154
       1.130
       1.079
       1.013
       0.953
       0.921
       0.924
       0.941
       0.927
       0.834
       0.632
       0.332
      -0.030
      -0.406
      -0.746
      -1.000
      -1.129
      -1.121
      -1.001
      -0.816
      -0.620
      -0.453
      -0.331
      -0.246
      -0.167
      -0.061
       0.093
       0.288
       0.486
       0.640
       0.716
       0.708
       0.633
       0.514
       0.363
       0.183
      -0.022
      -0.241
      -0.461
      -0.660
      -0.809
      -0.875
      -0.833
      -0.679
      -0.439
      -0.172
       0.053
       0.185
       0.196
       0.089
      -0.108
      -0.347
      -0.566
      -0.712
      -0.751
      -0.681
      -0.529
      -0.342
      -0.161
      -0.006
       0.121
       0.225
       0.316
       0.401
       0.492
       0.595
       0.702
       0.798
       0.869
       0.912
       0.939
       0.971
       1.017
       1.069
       1.106
       1.108
       1.063
       0.953
       0.763
       0.481
       0.109
      -0.335
      -0.806
      -1.231
      -1.539
      -1.687
      -1.684
      -1.580
      -1.441
      -1.310
      -1.188
      -1.046
      -0.854
      -0.609
      -0.338
      -0.079
       0.132
       0.273
       0.333
       0.325
       0.285
       0.266
       0.313
       0.450
       0.663
       0.901
       1.088
       1.156
       1.059
       0.789
       0.368
      -0.148
      -0.684
      -1.158
      -1.503
      -1.668
      -1.636
      -1.428
      -1.091
      -0.687
      -0.275
       0.101
       0.426
       0.704
       0.940
       1.125
       1.235
       1.251
       1.175
       1.039
       0.880
       0.720
       0.565
       0.407
       0.237
       0.055
      -0.129
      -0.296
      -0.422
      -0.485
      -0.479
      -0.419
      -0.335
      -0.243
      -0.143
      -0.042
       0.037
       0.057
      -0.012
      -0.169
      -0.369
      -0.544
      -0.633
      -0.611
      -0.499
      -0.355
      -0.246
      -0.216
      -0.271
      -0.382
      -0.506
      -0.600
      -0.636
      -0.601
      -0.504
      -0.370
      -0.232
      -0.117
      -0.032
       0.023
       0.052
       0.059
       0.053
       0.049
       0.074
       0.168
       0.357
       0.624
       0.903
       1.101
       1.143
       1.012
       0.755
       0.453
       0.177
      -0.028
      -0.146
      -0.173
      -0.110
       0.025
       0.197
       0.358
       0.465
       0.501
       0.473
       0.420
       0.386
       0.401
       0.450
       0.483
       0.440
       0.277
      -0.010
      -0.377
      -0.749
      -1.050
      -1.236
      -1.302
      -1.267
      -1.157
      -0.992
      -0.790
      -0.570
      -0.355
      -0.170
      -0.030
       0.060
       0.104
       0.114
       0.105
       0.093
       0.089
       0.090
       0.076
       0.026
      -0.073
      -0.214
      -0.365
      -0.475
      -0.504
      -0.450
      -0.355
      -0.286
      -0.295
      -0.387
      -0.511
      -0.588
      -0.548
      -0.365
      -0.057
       0.331
       0.735
       1.099
       1.383
       1.571
       1.664
       1.673
       1.609
       1.483
       1.306
       1.093
       0.853
       0.592
       0.309
      -0.001
      -0.329
      -0.648
      -0.920
      -1.118
      -1.232
      -1.255
      -1.180
      -0.999
      -0.711
      -0.326
       0.129
       0.605
       1.047
       1.402
       1.618
       1.659
       1.509
       1.182
       0.715
       0.160
      -0.424
      -0.984
      -1.476
      -1.867
      -2.126
      -2.225
      -2.142
      -1.874
      -1.454
      -0.949
      -0.447
      -0.022
       0.295
       0.523
       0.718
       0.918
       1.123
       1.292
       1.375
       1.334
       1.159
       0.870
       0.508
       0.137
      -0.164
      -0.332
      -0.339
      -0.208
       0.002
       0.217
       0.370
       0.418
       0.364
       0.260
       0.182
       0.197
       0.316
       0.493
       0.653
       0.736
       0.718
       0.610
       0.443
       0.239
       0.013
      -0.221
      -0.450
      -0.655
      -0.822
      -0.932
      -0.972
      -0.946
      -0.871
      -0.777
      -0.700
      -0.664
      -0.677
      -0.717
      -0.758
      -0.775
      -0.767
      -0.747
      -0.739
      -0.755
      -0.781
      -0.773
      -0.679
      -0.471
      -0.158
       0.216
       0.593
       0.914
       1.126
       1.190
       1.097
       0.879
       0.609
       0.385
       0.290
       0.368
       0.598
       0.914
       1.219
       1.413
       1.430
       1.259
       0.946
       0.558
       0.162
      -0.202
      -0.512
      -0.756
      -0.916
      -0.972
      -0.917
      -0.763
      -0.546
      -0.299
      -0.049
       0.179
       0.351
       0.423
       0.355
       0.134
      -0.213
      -0.623
      -1.011
      -1.299
      -1.441
      -1.431
      -1.299
      -1.103
      -0.898
      -0.702
      -0.493
      -0.237
       0.063
       0.360
       0.589
       0.710
       0.727
       0.680
       0.623
       0.607
       0.668
       0.819
       1.038
       1.262
       1.407
       1.400
       1.225
       0.936
       0.625
       0.384
       0.260
       0.241
       0.263
       0.247
       0.135
      -0.090
      -0.414
      -0.804
      -1.210
      -1.577
      -1.841
      -1.948
      -1.871
      -1.623
      -1.252
      -0.821
      -0.378
       0.049
       0.450
       0.813
       1.122
       1.359
       1.518
       1.605
       1.629
       1.594
       1.492
       1.309
       1.031
       0.658
       0.212
      -0.271
      -0.743
      -1.161
      -1.494
      -1.713
      -1.784
      -1.677
      -1.384
      -0.936
      -0.388
       0.192
       0.748
       1.248
       1.679
       2.017
       2.221
       2.242
       2.049
       1.653
       1.104
       0.472
      -0.179
      -0.813
      -1.410
      -1.948
      -2.390
      -2.688
      -2.802
      -2.721
      -2.469
      -2.090
      -1.638
      -1.159
      -0.688
      -0.255
       0.100
       0.337
       0.431
       0.390
       0.248
       0.069
      -0.069
      -0.093
       0.051
       0.380
       0.872
       1.464
       2.063
       2.565
       2.872
       2.920
       2.697
       2.259
       1.711
       1.172
       0.735
       0.442
       0.282
       0.202
       0.125
      -0.023
      -0.283
      -0.643
      -1.051
      -1.438
      -1.736
      -1.898
      -1.901
      -1.755
      -1.505
      -1.224
      -1.001
      -0.893
      -0.903
      -0.983
      -1.069
      -1.112
      -1.095
      -1.019
      -0.880
      -0.654
      -0.320
       0.121
       0.623
       1.113
       1.518
       1.786
       1.891
       1.826
       1.609
       1.282
       0.904
       0.535
       0.213
      -0.047
      -0.245
      -0.376
      -0.414
      -0.329
      -0.122
       0.169
       0.474
       0.727
       0.887
       0.950
       0.936
       0.858
       0.700
       0.423
      -0.004
      -0.564
      -1.176
      -1.718
      -2.065
      -2.132
      -1.893
      -1.373
      -0.640
       0.198
       1.002
       1.615
       1.902
       1.791
       1.290
       0.482
      -0.493
      -1.478
      -2.330
      -2.947
      -3.268
      -3.272
      -2.976
      -2.421
      -1.663
      -0.774
       0.152
       1.007
       1.697
       2.171
       2.420
       2.476
       2.379
       2.166
       1.875
       1.540
       1.192
       0.839
       0.464
       0.048
      -0.399
      -0.820
      -1.133
      -1.269
      -1.192
      -0.917
      -0.497
      -0.016
       0.435
       0.782
       0.976
       1.004
       0.893
       0.706
       0.519
       0.402
       0.404
       0.537
       0.757
       0.981
       1.114
       1.094
       0.906
       0.590
       0.218
      -0.133
      -0.411
      -0.597
      -0.706
      -0.770
      -0.818
      -0.866
      -0.908
      -0.922
      -0.885
      -0.780
      -0.602
      -0.359
      -0.083
       0.181
       0.389
       0.528
       0.601
       0.615
       0.558
       0.405
       0.148
      -0.184
      -0.520
      -0.776
      -0.902
      -0.897
      -0.794
      -0.631
      -0.428
      -0.184
       0.113
       0.463
       0.840
       1.192
       1.454
       1.580
       1.552
       1.374
       1.061
       0.630
       0.105
      -0.476
      -1.048
      -1.527
      -1.834
      -1.924
      -1.787
      -1.445
      -0.949
      -0.374
       0.206
       0.733
       1.187
       1.572
       1.900
       2.156
       2.291
       2.251
       2.011
       1.598
       1.071
       0.492
      -0.107
      -0.724
      -1.364
      -2.001
      -2.573
      -2.984
      -3.161
      -3.094
      -2.845
      -2.512
      -2.182
      -1.903
      -1.679
      -1.477
      -1.248
      -0.940
      -0.506
       0.075
       0.783
       1.547
       2.269
       2.851
       3.217
       3.325
       3.171
       2.778
       2.188
       1.457
       0.658
      -0.128
      -0.832
      -1.405
      -1.831
      -2.124
      -2.313
      -2.424
      -2.461
      -2.395
      -2.189
      -1.831
      -1.344
      -0.762
      -0.114
       0.583
       1.306
       2.022
       2.666
       3.154
       3.407
       3.383
       3.088
       2.565
       1.872
       1.077
       0.257
      -0.497
      -1.090
      -1.445
      -1.524
      -1.336
      -0.937
      -0.406
       0.167
       0.704
       1.145
       1.452
       1.603
       1.587
       1.409
       1.089
       0.665
       0.178
      -0.333
      -0.827
      -1.264
      -1.608
      -1.833
      -1.931
      -1.912
      -1.806
      -1.658
      -1.530
      -1.490
      -1.602
      -1.890
      -2.318
      -2.796
      -3.218
      -3.494
      -3.575
      -3.457
      -3.170
      -2.757
      -2.250
      -1.662
      -0.977
      -0.172
       0.767
       1.840
       3.018
       4.242
       5.416
       6.418
       7.102
       7.328
       6.998
       6.073
       4.580
       2.612
       0.327
      -2.074
      -4.381
      -6.402
      -7.979
      -8.995
      -9.378
      -9.105
      -8.217
      -6.832
      -5.134
      -3.337
      -1.632
      -0.158
       1.013
       1.865
       2.427
       2.750
       2.887
       2.867
       2.698
       2.386
       1.967
       1.497
       1.047
       0.682
       0.446
       0.363
       0.435
       0.647
       0.965
       1.345
       1.742
       2.113
       2.410
       2.587
       2.601
       2.428
       2.068
       1.561
       0.978
       0.396
      -0.128
      -0.577
      -0.958
      -1.289
      -1.578
      -1.816
      -1.987
      -2.070
      -2.045
      -1.896
      -1.612
      -1.178
      -0.592
       0.123
       0.909
       1.684
       2.365
       2.896
       3.257
       3.449
       3.479
       3.346
       3.061
       2.647
       2.143
       1.590
       1.023
       0.467
      -0.072
      -0.591
      -1.083
      -1.527
      -1.891
      -2.140
      -2.234
      -2.127
      -1.777
      -1.162
      -0.314
       0.678
       1.678
       2.543
       3.154
       3.449
       3.424
       3.115
       2.578
       1.868
       1.033
       0.124
      -0.792
      -1.627
      -2.288
      -2.711
      -2.869
      -2.770
      -2.446
      -1.954
      -1.363
      -0.753
      -0.211
       0.189
       0.400
       0.417
       0.283
       0.078
      -0.111
      -0.214
      -0.199
      -0.069
       0.153
       0.441
       0.783
       1.172
       1.595
       2.023
       2.404
       2.666
       2.740
       2.587
       2.198
       1.592
       0.821
      -0.030
      -0.847
      -1.513
      -1.937
      -2.075
      -1.932
      -1.557
      -1.031
      -0.446
       0.111
       0.587
       0.965
       1.256
       1.478
       1.644
       1.761
       1.827
       1.832
       1.751
       1.551
       1.211
       0.750
       0.229
      -0.267
      -0.661
      -0.914
      -1.039
      -1.096
      -1.162
      -1.306
      -1.570
      -1.955
      -2.423
      -2.927
      -3.420
      -3.861
      -4.204
      -4.401
      -4.421
      -4.252
      -3.901
      -3.383
      -2.717
      -1.921
      -1.017
      -0.034
       0.985
       1.985
       2.904
       3.674
       4.233
       4.536
       4.560
       4.312
       3.820
       3.143
       2.367
       1.583
       0.847
       0.173
      -0.452
      -1.028
      -1.526
      -1.892
      -2.074
      -2.045
      -1.816
      -1.437
      -0.983
      -0.542
      -0.198
      -0.010
      -0.001
      -0.152
      -0.404
      -0.678
      -0.901
      -1.025
      -1.033
      -0.931
      -0.751
      -0.542
      -0.355
      -0.216
      -0.102
       0.044
       0.271
       0.574
       0.891
       1.133
       1.219
       1.092
       0.733
       0.174
      -0.497
      -1.151
      -1.651
      -1.905
      -1.902
      -1.693
      -1.349
      -0.927
      -0.460
       0.029
       0.521
       1.002
       1.461
       1.893
       2.287
       2.615
       2.842
       2.931
       2.854
       2.596
       2.163
       1.584
       0.921
       0.252
      -0.348
      -0.815
      -1.097
      -1.150
      -0.952
      -0.532
       0.025
       0.602
       1.085
       1.396
       1.501
       1.400
       1.120
       0.725
       0.313
      -0.008
      -0.176
      -0.196
      -0.123
      -0.024
       0.065
       0.143
       0.218
       0.283
       0.317
       0.292
       0.199
       0.050
      -0.133
      -0.333
      -0.530
      -0.707
      -0.854
      -0.983
      -1.124
      -1.293
      -1.469
      -1.590
      -1.572
      -1.349
      -0.905
      -0.275
       0.462
       1.193
       1.781
       2.094
       2.053
       1.659
       0.994
       0.185
      -0.642
      -1.393
      -2.014
      -2.483
      -2.799
      -2.978
      -3.045
      -3.033
      -2.974
      -2.890
      -2.787
      -2.655
      -2.475
      -2.223
      -1.882
      -1.449
      -0.944
      -0.402
       0.126
       0.584
       0.928
       1.141
       1.238
       1.260
       1.263
       1.293
       1.370
       1.484
       1.605
       1.685
       1.660
       1.465
       1.084
       0.577
       0.075
      -0.281
      -0.407
      -0.311
      -0.077
       0.187
       0.399
       0.536
       0.632
       0.745
       0.927
       1.188
       1.488
       1.737
       1.832
       1.697
       1.300
       0.645
      -0.226
      -1.250
      -2.332
      -3.355
      -4.185
      -4.712
      -4.875
      -4.669
      -4.120
      -3.265
      -2.153
      -0.864
       0.490
       1.772
       2.850
       3.609
       3.976
       3.926
       3.487
       2.723
       1.730
       0.622
      -0.469
      -1.404
      -2.055
      -2.327
      -2.186
      -1.668
      -0.863
       0.124
       1.201
       2.300
       3.367
       4.346
       5.175
       5.786
       6.114
       6.093
       5.665
       4.796
       3.509
       1.899
       0.131
      -1.599
      -3.101
      -4.241
      -4.956
      -5.257
      -5.201
      -4.863
      -4.311
      -3.595
      -2.757
      -1.842
      -0.905
      -0.016
       0.743
       1.297
       1.594
       1.613
       1.377
       0.959
       0.468
       0.014
      -0.317
      -0.470
      -0.429
      -0.217
       0.114
       0.489
       0.827
       1.056
       1.135
       1.058
       0.856
       0.584
       0.317
       0.142
       0.143
       0.379
       0.863
       1.550
       2.341
       3.107
       3.706
       4.020
       3.985
       3.596
       2.913
       2.025
       1.018
      -0.053
      -1.154
      -2.254
      -3.302
      -4.238
      -4.992
      -5.495
      -5.685
      -5.528
      -5.023
      -4.212
      -3.173
      -2.011
      -0.847
