Origin Time       07/1/2013 05:32:46	
Lat.              28.1 N	
Long.             94.3 E	
Depth (Km)         10.0
Magnitude         4.5
 Region           Arunachal-Pradesh                                                
 Above details taken from IMD 
     
Station Code      TIN
Station Lat.       27.503  N
Station Long.      95.332  E
Station Height(m)  137.0
Site Class        C   Vs30 between 200 m/sec to 375 m/sec *  
Record Time       07.01.2013 11:02:34.289
Sampling Rate     200. Hz
 Record Duration   65.150 Sec.
 Direction         E-W (E positive)
Max. Acceleration      6.977 cm/sec**2
     
  * For reference see Site Classification link of website 
     
 Base Line Corrected and Low Pass Filtered (Cut Off at 35 Hz) Time History
 Acceleration data in cm/sec**2
    
[...]
       0.107
       0.123
       0.112
       0.069
       0.006
      -0.052
      -0.088
      -0.103
      -0.101
      -0.080
      -0.036
       0.021
       0.051
       0.012
      -0.100
      -0.223
      -0.254
      -0.129
       0.102
       0.286
       0.290
       0.119
      -0.083
      -0.162
      -0.086
       0.047
       0.119
       0.101
       0.061
       0.064
       0.100
       0.103
       0.035
      -0.069
      -0.138
      -0.137
      -0.092
      -0.052
      -0.042
      -0.053
      -0.069
      -0.093
      -0.128
      -0.162
      -0.166
      -0.124
      -0.057
      -0.013
      -0.025
      -0.080
      -0.135
      -0.150
      -0.121
      -0.073
      -0.037
      -0.021
       0.004
       0.076
       0.177
       0.227
       0.152
      -0.006
      -0.101
      -0.023
       0.180
       0.344
       0.360
       0.275
       0.214
       0.237
       0.277
       0.239
       0.112
      -0.017
      -0.063
      -0.030
       0.001
      -0.032
      -0.113
      -0.174
      -0.170
      -0.116
      -0.064
      -0.042
      -0.044
      -0.047
      -0.047
      -0.061
      -0.101
      -0.158
      -0.205
      -0.221
      -0.210
      -0.189
      -0.166
      -0.130
      -0.063
       0.034
       0.122
       0.141
       0.076
      -0.015
      -0.029
       0.084
       0.256
       0.346
       0.261
       0.046
      -0.149
      -0.204
      -0.127
      -0.027
       0.002
      -0.024
      -0.019
       0.069
       0.190
       0.250
       0.207
       0.104
       0.016
      -0.026
      -0.038
      -0.047
      -0.059
      -0.063
      -0.060
      -0.067
      -0.094
      -0.127
      -0.144
      -0.138
      -0.126
      -0.121
      -0.119
      -0.095
      -0.035
       0.046
       0.105
       0.104
       0.041
      -0.035
      -0.057
       0.002
       0.090
       0.109
       0.017
      -0.107
      -0.128
       0.004
       0.188
       0.275
       0.232
       0.165
       0.188
       0.284
       0.336
       0.260
       0.103
      -0.026
      -0.066
      -0.052
      -0.053
      -0.091
      -0.127
      -0.119
      -0.065
      -0.008
       0.011
      -0.014
      -0.053
      -0.085
      -0.107
      -0.130
      -0.152
      -0.155
      -0.127
      -0.077
      -0.031
      -0.015
      -0.023
      -0.029
      -0.013
       0.018
       0.021
      -0.042
      -0.153
      -0.232
      -0.184
       0.002
       0.219
       0.316
       0.235
       0.069
      -0.024
       0.031
       0.174
       0.278
       0.277
       0.211
       0.168
       0.178
       0.192
       0.140
       0.016
      -0.117
      -0.196
      -0.212
      -0.205
      -0.207
      -0.212
      -0.209
      -0.204
      -0.214
      -0.240
      -0.264
      -0.261
      -0.225
      -0.164
      -0.091
      -0.017
       0.053
       0.113
       0.152
       0.153
       0.114
       0.060
       0.044
       0.116
       0.259
       0.379
       0.371
       0.227
       0.067
       0.023
       0.101
       0.181
       0.158
       0.056
      -0.006
       0.043
       0.146
       0.182
       0.100
      -0.037
      -0.133
      -0.162
      -0.176
      -0.222
      -0.278
      -0.274
      -0.179
      -0.034
       0.083
       0.124
       0.096
       0.041
      -0.002
      -0.013
       0.002
       0.031
       0.064
       0.090
       0.092
       0.057
      -0.009
      -0.075
      -0.106
      -0.093
      -0.065
      -0.073
      -0.143
      -0.242
      -0.286
      -0.208
      -0.030
       0.138
       0.186
       0.112
       0.027
       0.043
       0.169
       0.303
       0.338
       0.266
       0.173
       0.137
       0.150
       0.145
       0.071
      -0.050
      -0.164
      -0.237
      -0.280
      -0.316
      -0.347
      -0.351
      -0.316
      -0.255
      -0.190
      -0.124
      -0.043
       0.058
       0.154
       0.210
       0.221
       0.215
       0.223
       0.249
       0.267
       0.239
       0.154
       0.048
      -0.009
       0.023
       0.100
       0.109
      -0.018
      -0.214
      -0.325
      -0.264
      -0.100
       0.023
       0.048
       0.051
       0.129
       0.273
       0.368
       0.326
       0.181
       0.055
       0.026
       0.063
       0.074
       0.007
      -0.100
      -0.172
      -0.171
      -0.129
      -0.100
      -0.105
      -0.123
      -0.128
      -0.115
      -0.094
      -0.071
      -0.046
      -0.020
       0.000
       0.006
      -0.003
      -0.021
      -0.034
      -0.027
      -0.006
      -0.002
      -0.055
      -0.160
      -0.252
      -0.243
      -0.102
       0.100
       0.235
       0.227
       0.123
       0.048
       0.081
       0.189
       0.265
       0.248
       0.181
       0.154
       0.202
       0.264
       0.252
       0.138
      -0.022
      -0.154
      -0.231
      -0.274
      -0.307
      -0.328
      -0.315
      -0.267
      -0.207
      -0.153
      -0.101
      -0.038
       0.036
       0.096
       0.119
       0.100
       0.063
       0.036
       0.024
       0.009
      -0.029
      -0.086
      -0.123
      -0.088
       0.029
       0.165
       0.214
       0.129
      -0.006
      -0.045
       0.064
       0.218
       0.269
       0.187
       0.081
       0.062
       0.122
       0.157
       0.098
      -0.018
      -0.100
      -0.109
      -0.087
      -0.102
      -0.163
      -0.212
      -0.190
      -0.096
       0.011
       0.073
       0.077
       0.052
       0.033
       0.034
       0.047
       0.065
       0.088
       0.113
       0.132
       0.125
       0.087
       0.028
      -0.029
      -0.070
      -0.101
      -0.148
      -0.231
      -0.326
      -0.359
      -0.254
      -0.020
       0.221
       0.316
       0.219
       0.030
      -0.094
      -0.075
       0.035
       0.116
       0.106
       0.050
       0.030
       0.073
       0.119
       0.097
       0.003
      -0.098
      -0.145
      -0.141
      -0.125
      -0.123
      -0.126
      -0.117
      -0.099
      -0.085
      -0.070
      -0.033
       0.040
       0.129
       0.199
       0.226
       0.218
       0.199
       0.186
       0.172
       0.134
       0.056
      -0.040
      -0.097
      -0.068
       0.032
       0.107
       0.059
      -0.113
      -0.284
      -0.318
      -0.196
      -0.030
       0.065
       0.081
       0.102
       0.176
       0.242
       0.204
       0.054
      -0.103
      -0.151
      -0.077
       0.030
       0.076
       0.046
      -0.008
      -0.031
      -0.014
       0.012
       0.026
       0.038
       0.073
       0.137
       0.204
       0.234
       0.205
       0.123
       0.016
      -0.093
      -0.187
      -0.255
      -0.288
      -0.277
      -0.232
      -0.187
      -0.177
      -0.208
      -0.231
      -0.165
       0.037
       0.316
       0.530
       0.558
       0.411
       0.229
       0.156
       0.211
       0.294
       0.292
       0.192
       0.074
       0.015
       0.012
      -0.003
      -0.081
      -0.201
      -0.302
      -0.341
      -0.328
      -0.294
      -0.249
      -0.179
      -0.080
       0.022
       0.095
       0.135
       0.163
       0.187
       0.190
       0.145
       0.051
      -0.058
      -0.140
      -0.171
      -0.168
      -0.171
      -0.207
      -0.256
      -0.255
      -0.162
      -0.013
       0.082
       0.037
      -0.101
      -0.188
      -0.121
       0.050
       0.187
       0.222
       0.224
       0.301
       0.466
       0.616
       0.644
       0.548
       0.422
       0.347
       0.323
       0.282
       0.187
       0.067
      -0.013
      -0.025
       0.003
       0.029
       0.043
       0.059
       0.088
       0.117
       0.125
       0.105
       0.069
       0.038
       0.027
       0.031
       0.033
       0.025
       0.013
       0.006
      -0.009
      -0.067
      -0.193
      -0.364
      -0.499
      -0.501
      -0.344
      -0.116
       0.031
       0.009
      -0.125
      -0.222
      -0.174
      -0.010
       0.143
       0.185
       0.129
       0.067
       0.062
       0.089
       0.075
      -0.011
      -0.129
      -0.224
      -0.277
      -0.304
      -0.326
      -0.342
      -0.342
      -0.330
      -0.322
      -0.325
      -0.322
      -0.292
      -0.237
      -0.184
      -0.161
      -0.161
      -0.146
      -0.085
       0.012
       0.104
       0.152
       0.158
       0.166
       0.236
       0.382
       0.535
       0.580
       0.467
       0.290
       0.204
       0.275
       0.409
       0.460
       0.390
       0.292
       0.273
       0.322
       0.331
       0.219
       0.020
      -0.163
      -0.269
      -0.330
      -0.409
      -0.524
      -0.627
      -0.662
      -0.622
      -0.555
      -0.508
      -0.495
      -0.493
      -0.485
      -0.481
      -0.494
      -0.521
      -0.541
      -0.530
      -0.483
      -0.402
      -0.285
      -0.124
       0.086
       0.334
       0.584
       0.775
       0.855
       0.829
       0.776
       0.785
       0.873
       0.945
       0.872
       0.604
       0.226
      -0.120
      -0.348
      -0.484
      -0.598
      -0.709
      -0.745
      -0.625
      -0.358
      -0.046
       0.198
       0.344
       0.438
       0.520
       0.574
       0.538
       0.373
       0.091
      -0.261
      -0.633
      -0.971
      -1.213
      -1.300
      -1.213
      -0.986
      -0.692
      -0.395
      -0.134
       0.083
       0.256
       0.379
       0.441
       0.439
       0.400
       0.377
       0.410
       0.482
       0.521
       0.468
       0.367
       0.358
       0.560
       0.929
       1.285
       1.470
       1.485
       1.452
       1.459
       1.467
       1.374
       1.152
       0.872
       0.621
       0.411
       0.176
      -0.138
      -0.507
      -0.839
      -1.060
      -1.162
      -1.193
      -1.197
      -1.178
      -1.111
      -0.983
      -0.812
      -0.629
      -0.458
      -0.305
      -0.174
      -0.080
      -0.041
      -0.052
      -0.082
      -0.087
      -0.052
      -0.002
       0.017
      -0.029
      -0.114
      -0.153
      -0.071
       0.111
       0.258
       0.224
      -0.015
      -0.336
      -0.578
      -0.675
      -0.680
      -0.677
      -0.673
      -0.598
      -0.394
      -0.099
       0.170
       0.314
       0.330
       0.285
       0.239
       0.204
       0.167
       0.132
       0.122
       0.148
       0.198
       0.253
       0.317
       0.413
       0.550
       0.708
       0.848
       0.941
       0.989
       1.008
       1.007
       0.972
       0.877
       0.705
       0.468
       0.211
      -0.030
      -0.275
      -0.600
      -1.055
      -1.571
      -1.966
      -2.096
      -1.978
      -1.760
      -1.570
      -1.401
      -1.157
      -0.788
      -0.363
       0.003
       0.275
       0.519
       0.809
       1.127
       1.373
       1.458
       1.382
       1.203
       0.974
       0.701
       0.374
       0.009
      -0.344
      -0.630
      -0.823
      -0.933
      -0.979
      -0.972
      -0.908
      -0.784
      -0.610
      -0.412
      -0.211
      -0.020
       0.160
       0.315
       0.408
       0.394
       0.265
       0.076
      -0.063
      -0.072
       0.032
       0.143
       0.169
       0.126
       0.132
       0.290
       0.586
       0.896
       1.106
       1.208
       1.285
       1.400
       1.520
       1.546
       1.406
       1.117
       0.753
       0.372
      -0.005
      -0.371
      -0.694
      -0.918
      -1.019
      -1.026
      -0.991
      -0.940
      -0.867
      -0.759
      -0.619
      -0.465
      -0.310
      -0.159
      -0.020
       0.087
       0.125
       0.065
      -0.089
      -0.283
      -0.435
      -0.489
      -0.465
      -0.442
      -0.463
      -0.458
      -0.299
       0.058
       0.491
       0.810
       0.931
       0.936
       0.969
       1.079
       1.196
       1.233
       1.195
       1.165
       1.205
       1.284
       1.316
       1.237
       1.056
       0.827
       0.586
       0.336
       0.075
      -0.170
      -0.361
      -0.472
      -0.508
      -0.496
      -0.475
      -0.488
      -0.569
      -0.731
      -0.960
      -1.227
      -1.494
      -1.725
      -1.909
      -2.066
      -2.239
      -2.453
      -2.672
      -2.805
      -2.750
      -2.481
      -2.081
      -1.695
      -1.412
      -1.190
      -0.902
      -0.470
       0.055
       0.532
       0.858
       1.047
       1.188
       1.337
       1.462
       1.486
       1.381
       1.199
       1.008
       0.842
       0.687
       0.532
       0.395
       0.308
       0.282
       0.309
       0.380
       0.504
       0.690
       0.928
       1.183
       1.427
       1.648
       1.849
       2.018
       2.112
       2.081
       1.907
       1.617
       1.274
       0.938
       0.613
       0.216
      -0.356
      -1.108
      -1.891
      -2.494
      -2.822
      -2.956
      -3.037
      -3.122
      -3.153
      -3.080
      -2.951
      -2.882
      -2.933
      -3.049
      -3.115
      -3.062
      -2.903
      -2.674
      -2.357
      -1.879
      -1.175
      -0.258
       0.786
       1.852
       2.873
       3.828
       4.709
       5.494
       6.145
       6.625
       6.909
       6.977
       6.810
       6.393
       5.737
       4.885
       3.913
       2.908
       1.940
       1.041
       0.217
      -0.508
      -1.066
      -1.389
      -1.484
      -1.456
      -1.442
      -1.501
      -1.578
      -1.580
      -1.502
      -1.465
      -1.627
      -2.032
      -2.564
      -3.042
      -3.370
      -3.574
      -3.720
      -3.818
      -3.809
      -3.640
      -3.316
      -2.888
      -2.399
      -1.865
      -1.290
      -0.701
      -0.148
       0.326
       0.713
       1.030
       1.296
       1.512
       1.674
       1.782
       1.854
       1.911
       1.966
       2.013
       2.039
       2.023
       1.927
       1.700
       1.316
       0.817
       0.307
      -0.125
      -0.481
      -0.830
      -1.201
      -1.488
      -1.506
      -1.161
      -0.555
       0.065
       0.487
       0.675
       0.748
       0.823
       0.892
       0.837
       0.565
       0.116
      -0.358
      -0.703
      -0.872
      -0.921
      -0.930
      -0.920
      -0.840
      -0.638
      -0.333
      -0.017
       0.207
       0.292
       0.266
       0.190
       0.105
       0.010
      -0.124
      -0.322
      -0.581
      -0.875
      -1.168
      -1.436
      -1.656
      -1.808
      -1.858
      -1.776
      -1.548
      -1.192
      -0.742
      -0.222
       0.383
       1.099
       1.907
       2.686
       3.241
       3.418
       3.215
       2.788
       2.320
       1.887
       1.441
       0.915
       0.332
      -0.204
      -0.612
      -0.902
      -1.149
      -1.404
      -1.640
      -1.784
      -1.791
      -1.672
      -1.467
      -1.202
      -0.879
      -0.512
      -0.144
       0.176
       0.430
       0.631
       0.790
       0.898
       0.934
       0.895
       0.796
       0.666
       0.527
       0.387
       0.247
       0.118
       0.029
       0.027
       0.134
       0.301
       0.403
       0.334
       0.110
      -0.128
      -0.248
      -0.258
      -0.291
      -0.448
      -0.683
      -0.838
      -0.801
      -0.611
      -0.413
      -0.322
      -0.328
      -0.348
      -0.330
      -0.294
      -0.279
      -0.271
      -0.204
      -0.035
       0.204
       0.435
       0.600
       0.696
       0.752
       0.790
       0.808
       0.790
       0.730
       0.644
       0.557
       0.482
       0.413
       0.332
       0.232
       0.123
       0.014
      -0.100
      -0.236
      -0.398
      -0.532
      -0.535
      -0.313
       0.121
       0.616
       0.967
       1.054
       0.912
       0.662
       0.387
       0.064
      -0.373
      -0.924
      -1.481
      -1.899
      -2.118
      -2.191
      -2.208
      -2.200
      -2.113
      -1.870
      -1.447
      -0.891
      -0.282
       0.321
       0.898
       1.425
       1.857
       2.144
       2.276
       2.285
       2.210
       2.066
       1.855
       1.592
       1.310
       1.034
       0.763
       0.467
       0.107
      -0.328
      -0.787
      -1.169
      -1.384
      -1.426
      -1.389
      -1.380
      -1.409
      -1.380
      -1.215
      -0.964
      -0.771
      -0.723
      -0.746
      -0.689
      -0.482
      -0.208
      -0.009
       0.061
       0.064
       0.088
       0.145
       0.177
       0.136
       0.046
      -0.019
      -0.004
       0.082
       0.187
       0.273
       0.333
       0.380
       0.414
       0.427
       0.402
       0.330
       0.216
       0.089
      -0.009
      -0.047
      -0.016
       0.078
       0.222
       0.401
       0.585
       0.724
       0.780
       0.758
       0.729
       0.790
       0.977
       1.193
       1.258
       1.044
       0.590
       0.074
      -0.335
      -0.600
      -0.798
      -1.008
      -1.207
      -1.294
      -1.194
      -0.935
      -0.612
      -0.302
      -0.022
       0.234
       0.445
       0.563
       0.556
       0.440
       0.263
       0.066
      -0.126
      -0.285
      -0.372
      -0.352
      -0.229
      -0.057
       0.097
       0.193
       0.233
       0.242
       0.238
       0.217
       0.156
       0.032
      -0.140
      -0.291
      -0.341
      -0.282
      -0.215
      -0.268
      -0.459
      -0.653
      -0.674
      -0.476
      -0.182
       0.043
       0.151
       0.218
       0.325
       0.447
       0.493
       0.431
       0.339
       0.327
       0.423
       0.549
       0.609
       0.570
       0.478
       0.385
       0.303
       0.207
       0.081
      -0.063
      -0.194
      -0.304
      -0.409
      -0.534
      -0.678
      -0.820
      -0.930
      -0.991
      -1.004
      -0.976
      -0.901
      -0.767
      -0.575
      -0.359
      -0.169
      -0.030
       0.086
       0.248
       0.509
       0.828
       1.075
       1.112
       0.925
       0.649
       0.462
       0.434
       0.482
       0.462
       0.304
       0.076
      -0.085
      -0.096
       0.010
       0.127
       0.182
       0.181
       0.175
       0.180
       0.151
       0.039
      -0.140
      -0.306
      -0.380
      -0.359
      -0.300
      -0.264
      -0.267
      -0.289
      -0.295
      -0.267
      -0.201
      -0.101
       0.032
       0.187
       0.335
       0.431
       0.436
       0.344
       0.192
       0.034
      -0.123
      -0.327
      -0.622
      -0.956
      -1.189
      -1.222
      -1.100
      -0.968
      -0.920
      -0.900
      -0.779
      -0.506
      -0.171
       0.092
       0.244
       0.368
       0.568
       0.850
       1.119
       1.274
       1.291
       1.221
       1.126
       1.036
       0.950
       0.864
       0.796
       0.762
       0.757
       0.740
       0.658
       0.480
       0.216
      -0.097
      -0.413
      -0.696
      -0.924
