Origin Time       1/7/2012 04:13:52	  UTC
Lat.              25.7 N	
Long.             94.6 E	
Depth (Km)         50.0
Magnitude         5.8
 Region           Phek-Nagaland                                                    
 Above details taken from IMD 
    
Station Code      TIN
Station Lat.       27.503  N
Station Long.      95.332  E
Station Height(m)  137.0
Site Class        C   Vs30 between 200 m/sec to 375 m/sec *  
Record Time       01.07.2012 09:50:24.869 UTC
Sampling Rate     200. Hz
 Record Duration   65.000 Sec.
 Direction         N-S (N positive)
Max. Acceleration      8.941 cm/sec**2
     
  * For reference see Site Classification link of website 
     
 Base Line Corrected and Low Pass Filtered (Cut Off at 35 Hz) Time History
 Acceleration data in cm/sec**2
    
[...]
      -0.157
      -0.290
      -0.395
      -0.456
      -0.465
      -0.419
      -0.328
      -0.214
      -0.100
       0.006
       0.108
       0.217
       0.333
       0.441
       0.510
       0.514
       0.449
       0.335
       0.201
       0.060
      -0.086
      -0.237
      -0.385
      -0.509
      -0.582
      -0.584
      -0.506
      -0.367
      -0.205
      -0.066
       0.021
       0.047
       0.024
      -0.017
      -0.048
      -0.055
      -0.050
      -0.054
      -0.077
      -0.112
      -0.150
      -0.191
      -0.235
      -0.272
      -0.277
      -0.234
      -0.140
      -0.011
       0.134
       0.275
       0.398
       0.494
       0.559
       0.588
       0.578
       0.537
       0.482
       0.427
       0.374
       0.311
       0.230
       0.127
       0.010
      -0.103
      -0.193
      -0.250
      -0.277
      -0.282
      -0.264
      -0.211
      -0.116
       0.012
       0.145
       0.247
       0.285
       0.242
       0.117
      -0.066
      -0.265
      -0.436
      -0.552
      -0.612
      -0.633
      -0.637
      -0.631
      -0.611
      -0.566
      -0.490
      -0.378
      -0.225
      -0.035
       0.180
       0.395
       0.583
       0.718
       0.787
       0.794
       0.749
       0.670
       0.569
       0.455
       0.330
       0.195
       0.051
      -0.095
      -0.235
      -0.364
      -0.485
      -0.600
      -0.710
      -0.808
      -0.882
      -0.918
      -0.908
      -0.849
      -0.748
      -0.617
      -0.458
      -0.266
      -0.040
       0.201
       0.420
       0.575
       0.646
       0.634
       0.554
       0.428
       0.275
       0.115
      -0.039
      -0.174
      -0.275
      -0.326
      -0.312
      -0.239
      -0.126
       0.000
       0.115
       0.195
       0.221
       0.193
       0.136
       0.085
       0.062
       0.070
       0.106
       0.166
       0.246
       0.328
       0.390
       0.419
       0.416
       0.398
       0.382
       0.384
       0.405
       0.429
       0.425
       0.359
       0.218
       0.011
      -0.213
      -0.384
      -0.438
      -0.352
      -0.155
       0.090
       0.319
       0.491
       0.581
       0.586
       0.520
       0.406
       0.265
       0.104
      -0.068
      -0.236
      -0.382
      -0.486
      -0.539
      -0.537
      -0.492
      -0.418
      -0.330
      -0.232
      -0.124
      -0.007
       0.106
       0.204
       0.279
       0.328
       0.348
       0.330
       0.266
       0.162
       0.047
      -0.038
      -0.064
      -0.025
       0.058
       0.147
       0.205
       0.202
       0.127
      -0.003
      -0.147
      -0.248
      -0.263
      -0.185
      -0.049
       0.086
       0.163
       0.142
       0.007
      -0.224
      -0.514
      -0.809
      -1.066
      -1.249
      -1.337
      -1.320
      -1.201
      -1.003
      -0.759
      -0.500
      -0.248
      -0.021
       0.162
       0.292
       0.381
       0.454
       0.542
       0.657
       0.785
       0.895
       0.951
       0.928
       0.830
       0.682
       0.525
       0.399
       0.327
       0.309
       0.328
       0.347
       0.330
       0.258
       0.135
      -0.019
      -0.182
      -0.336
      -0.461
      -0.541
      -0.571
      -0.561
      -0.527
      -0.483
      -0.436
      -0.393
      -0.359
      -0.330
      -0.299
      -0.259
      -0.213
      -0.170
      -0.131
      -0.086
      -0.016
       0.093
       0.247
       0.428
       0.599
       0.720
       0.769
       0.750
       0.691
       0.621
       0.553
       0.487
       0.412
       0.317
       0.199
       0.067
      -0.058
      -0.157
      -0.226
      -0.271
      -0.307
      -0.339
      -0.360
      -0.356
      -0.316
      -0.246
      -0.158
      -0.059
       0.061
       0.219
       0.415
       0.623
       0.798
       0.901
       0.911
       0.827
       0.668
       0.463
       0.252
       0.069
      -0.065
      -0.147
      -0.179
      -0.167
      -0.123
      -0.066
      -0.022
      -0.005
      -0.004
       0.007
       0.058
       0.164
       0.315
       0.480
       0.618
       0.690
       0.678
       0.584
       0.427
       0.241
       0.060
      -0.086
      -0.179
      -0.218
      -0.224
      -0.222
      -0.225
      -0.232
      -0.229
      -0.202
      -0.144
      -0.058
       0.044
       0.142
       0.218
       0.265
       0.281
       0.254
       0.169
       0.018
      -0.187
      -0.417
      -0.638
      -0.822
      -0.946
      -1.003
      -1.001
      -0.955
      -0.863
      -0.710
      -0.475
      -0.154
       0.222
       0.597
       0.909
       1.110
       1.177
       1.112
       0.940
       0.701
       0.444
       0.216
       0.046
      -0.060
      -0.116
      -0.146
      -0.171
      -0.204
      -0.244
      -0.281
      -0.294
      -0.258
      -0.153
       0.019
       0.226
       0.420
       0.551
       0.583
       0.506
       0.335
       0.112
      -0.107
      -0.270
      -0.346
      -0.329
      -0.243
      -0.129
      -0.034
       0.018
       0.032
       0.039
       0.070
       0.131
       0.202
       0.248
       0.239
       0.161
       0.017
      -0.171
      -0.369
      -0.536
      -0.626
      -0.609
      -0.478
      -0.254
       0.012
       0.258
       0.425
       0.481
       0.423
       0.283
       0.118
      -0.009
      -0.054
      -0.006
       0.106
       0.231
       0.308
       0.286
       0.144
      -0.098
      -0.371
      -0.580
      -0.637
      -0.504
      -0.208
       0.168
       0.519
       0.761
       0.853
       0.806
       0.667
       0.501
       0.366
       0.296
       0.296
       0.349
       0.424
       0.486
       0.504
       0.449
       0.301
       0.065
      -0.223
      -0.496
      -0.687
      -0.752
      -0.691
      -0.541
      -0.369
      -0.239
      -0.189
      -0.224
      -0.315
      -0.426
      -0.523
      -0.582
      -0.579
      -0.494
      -0.320
      -0.079
       0.178
       0.378
       0.457
       0.379
       0.156
      -0.152
      -0.447
      -0.624
      -0.617
      -0.427
      -0.117
       0.212
       0.459
       0.556
       0.485
       0.276
      -0.007
      -0.297
      -0.547
      -0.738
      -0.865
      -0.930
      -0.934
      -0.881
      -0.782
      -0.653
      -0.509
      -0.358
      -0.197
      -0.022
       0.162
       0.332
       0.453
       0.496
       0.457
       0.350
       0.193
       0.008
      -0.179
      -0.326
      -0.401
      -0.399
      -0.352
      -0.301
      -0.276
      -0.286
      -0.320
      -0.346
      -0.327
      -0.239
      -0.086
       0.091
       0.233
       0.278
       0.190
      -0.024
      -0.306
      -0.557
      -0.675
      -0.592
      -0.309
       0.094
       0.483
       0.724
       0.740
       0.537
       0.198
      -0.157
      -0.405
      -0.468
      -0.329
      -0.038
       0.307
       0.599
       0.752
       0.731
       0.562
       0.320
       0.087
      -0.078
      -0.158
      -0.159
      -0.103
      -0.019
       0.062
       0.114
       0.122
       0.080
       0.002
      -0.080
      -0.125
      -0.102
      -0.016
       0.096
       0.177
       0.177
       0.072
      -0.121
      -0.353
      -0.563
      -0.709
      -0.774
      -0.763
      -0.684
      -0.543
      -0.349
      -0.122
       0.093
       0.233
       0.243
       0.105
      -0.137
      -0.394
      -0.574
      -0.628
      -0.571
      -0.469
      -0.386
      -0.351
      -0.341
      -0.301
      -0.183
       0.023
       0.271
       0.478
       0.559
       0.471
       0.245
      -0.037
      -0.285
      -0.437
      -0.469
      -0.386
      -0.220
      -0.025
       0.133
       0.205
       0.177
       0.069
      -0.068
      -0.162
      -0.151
      -0.010
       0.219
       0.454
       0.612
       0.648
       0.563
       0.396
       0.197
       0.004
      -0.162
      -0.290
      -0.375
      -0.422
      -0.447
      -0.462
      -0.468
      -0.454
      -0.408
      -0.325
      -0.199
      -0.028
       0.177
       0.392
       0.588
       0.732
       0.795
       0.756
       0.628
       0.462
       0.325
       0.256
       0.257
       0.302
       0.354
       0.363
       0.287
       0.111
      -0.133
      -0.382
      -0.569
      -0.650
      -0.619
      -0.504
      -0.350
      -0.199
      -0.074
       0.012
       0.052
       0.054
       0.044
       0.056
       0.104
       0.165
       0.190
       0.137
       0.000
      -0.190
      -0.379
      -0.514
      -0.561
      -0.519
      -0.409
      -0.264
      -0.121
      -0.019
       0.016
      -0.025
      -0.122
      -0.238
      -0.341
      -0.413
      -0.447
      -0.449
      -0.427
      -0.386
      -0.315
      -0.191
       0.008
       0.282
       0.607
       0.934
       1.206
       1.372
       1.400
       1.285
       1.048
       0.723
       0.351
      -0.024
      -0.359
      -0.623
      -0.809
      -0.931
      -1.008
      -1.057
      -1.092
      -1.116
      -1.125
      -1.098
      -1.000
      -0.809
      -0.532
      -0.203
       0.130
       0.434
       0.698
       0.919
       1.082
       1.162
       1.133
       1.001
       0.805
       0.603
       0.447
       0.363
       0.330
       0.295
       0.199
       0.019
      -0.223
      -0.466
      -0.644
      -0.708
      -0.647
      -0.492
      -0.306
      -0.158
      -0.105
      -0.170
      -0.342
      -0.567
      -0.769
      -0.879
      -0.873
      -0.775
      -0.633
      -0.499
      -0.410
      -0.376
      -0.377
      -0.374
      -0.337
      -0.257
      -0.145
      -0.016
       0.102
       0.176
       0.178
       0.109
       0.000
      -0.107
      -0.192
      -0.253
      -0.293
      -0.309
      -0.298
      -0.261
      -0.195
      -0.086
       0.085
       0.325
       0.626
       0.971
       1.335
       1.685
       1.986
       2.211
       2.345
       2.382
       2.323
       2.176
       1.958
       1.689
       1.383
       1.044
       0.679
       0.306
      -0.047
      -0.364
      -0.648
      -0.916
      -1.174
      -1.399
      -1.544
      -1.566
      -1.452
      -1.239
      -0.999
      -0.800
      -0.672
      -0.601
      -0.543
      -0.453
      -0.307
      -0.101
       0.160
       0.465
       0.795
       1.123
       1.427
       1.687
       1.893
       2.029
       2.079
       2.041
       1.930
       1.779
       1.607
       1.413
       1.177
       0.881
       0.520
       0.119
      -0.265
      -0.556
      -0.687
      -0.639
      -0.456
      -0.240
      -0.115
      -0.172
      -0.434
      -0.840
      -1.273
      -1.610
      -1.765
      -1.703
      -1.444
      -1.044
      -0.577
      -0.111
       0.295
       0.596
       0.758
       0.777
       0.678
       0.488
       0.221
      -0.125
      -0.542
      -0.989
      -1.403
      -1.712
      -1.846
      -1.748
      -1.388
      -0.784
      -0.014
       0.802
       1.524
       2.026
       2.224
       2.091
       1.656
       0.990
       0.186
      -0.642
      -1.372
      -1.904
      -2.189
      -2.244
      -2.125
      -1.892
      -1.587
      -1.241
      -0.885
      -0.549
      -0.247
       0.020
       0.250
       0.420
       0.491
       0.425
       0.205
      -0.150
      -0.583
      -1.013
      -1.363
      -1.587
      -1.682
      -1.686
      -1.648
      -1.606
      -1.571
      -1.521
      -1.421
      -1.242
      -0.978
      -0.654
      -0.318
      -0.026
       0.168
       0.219
       0.114
      -0.109
      -0.370
      -0.570
      -0.623
      -0.483
      -0.143
       0.364
       0.967
       1.568
       2.065
       2.385
       2.507
       2.469
       2.341
       2.194
       2.063
       1.946
       1.818
       1.651
       1.423
       1.122
       0.765
       0.395
       0.082
      -0.098
      -0.084
       0.145
       0.562
       1.098
       1.652
       2.114
       2.381
       2.385
       2.126
       1.674
       1.156
       0.715
       0.454
       0.395
       0.474
       0.574
       0.586
       0.447
       0.168
      -0.181
      -0.501
      -0.708
      -0.760
      -0.670
      -0.492
      -0.295
      -0.146
      -0.089
      -0.132
      -0.241
      -0.353
      -0.405
      -0.370
      -0.266
      -0.140
      -0.030
       0.059
       0.144
       0.235
       0.310
       0.326
       0.249
       0.082
      -0.124
      -0.296
      -0.373
      -0.343
      -0.242
      -0.135
      -0.078
      -0.097
      -0.174
      -0.259
      -0.302
      -0.290
      -0.264
      -0.295
      -0.458
      -0.795
      -1.297
      -1.889
      -2.453
      -2.862
      -3.025
      -2.896
      -2.472
      -1.780
      -0.902
       0.023
       0.813
       1.306
       1.410
       1.130
       0.552
      -0.188
      -0.945
      -1.598
      -2.066
      -2.307
      -2.316
      -2.118
      -1.748
      -1.229
      -0.560
       0.246
       1.106
       1.856
       2.288
       2.223
       1.574
       0.363
      -1.265
      -3.056
      -4.689
      -5.851
      -6.294
      -5.863
      -4.524
      -2.383
       0.295
       3.126
       5.689
       7.626
       8.722
       8.941
       8.398
       7.291
       5.813
       4.111
       2.310
       0.550
      -1.011
      -2.236
      -3.049
      -3.448
      -3.483
      -3.210
      -2.670
      -1.887
      -0.900
       0.213
       1.330
       2.306
       2.990
       3.261
       3.058
       2.407
       1.440
       0.355
      -0.641
      -1.400
      -1.853
      -2.001
      -1.882
      -1.555
      -1.091
      -0.555
      -0.002
       0.527
       0.989
       1.339
       1.531
       1.542
       1.372
       1.025
       0.494
      -0.226
      -1.095
      -1.997
      -2.751
      -3.182
      -3.192
      -2.802
      -2.138
      -1.359
      -0.590
       0.107
       0.720
       1.247
       1.671
       1.962
       2.097
       2.085
       1.970
       1.807
       1.619
       1.376
       1.018
       0.505
      -0.147
      -0.860
      -1.526
      -2.031
      -2.283
      -2.241
      -1.935
      -1.460
      -0.950
      -0.521
      -0.235
      -0.090
      -0.042
      -0.040
      -0.061
      -0.111
      -0.191
      -0.252
      -0.203
       0.037
       0.470
       0.993
       1.441
       1.671
       1.619
       1.330
       0.918
       0.516
       0.215
       0.037
      -0.054
      -0.118
      -0.199
      -0.288
      -0.331
      -0.251
       0.000
       0.413
       0.911
       1.378
       1.695
       1.785
       1.636
       1.292
       0.826
       0.316
      -0.174
      -0.612
      -0.988
      -1.313
      -1.605
      -1.888
      -2.176
      -2.455
      -2.665
      -2.711
      -2.503
      -2.010
      -1.290
      -0.479
       0.254
       0.761
       0.959
       0.856
       0.550
       0.197
      -0.050
      -0.104
       0.022
       0.230
       0.389
       0.397
       0.230
      -0.044
      -0.304
      -0.425
      -0.316
       0.059
       0.661
       1.373
       2.028
       2.457
       2.540
       2.237
       1.607
       0.782
      -0.066
      -0.779
      -1.252
      -1.459
      -1.447
      -1.325
      -1.210
      -1.167
      -1.175
      -1.152
      -1.017
      -0.728
      -0.298
       0.219
       0.736
       1.149
       1.363
       1.315
       1.004
       0.496
      -0.085
      -0.597
      -0.927
      -1.031
      -0.952
      -0.784
      -0.626
      -0.534
      -0.511
      -0.521
      -0.514
      -0.441
      -0.262
       0.051
       0.505
       1.069
       1.663
       2.164
       2.445
       2.416
       2.057
       1.422
       0.628
      -0.177
      -0.860
      -1.326
      -1.545
      -1.538
      -1.361
      -1.079
      -0.742
      -0.374
       0.022
       0.446
       0.885
       1.305
       1.653
       1.871
       1.914
       1.770
       1.455
       1.006
       0.469
      -0.096
      -0.612
      -0.990
      -1.152
      -1.073
      -0.810
      -0.485
      -0.225
      -0.105
      -0.125
      -0.230
      -0.351
      -0.431
      -0.440
      -0.368
      -0.229
      -0.051
       0.129
       0.272
       0.347
       0.351
       0.312
       0.275
       0.275
       0.328
       0.425
       0.545
       0.656
       0.731
       0.770
       0.797
       0.825
       0.830
       0.755
       0.559
       0.254
      -0.105
      -0.444
      -0.703
      -0.847
      -0.870
      -0.798
      -0.680
      -0.572
      -0.523
      -0.573
      -0.731
      -0.967
      -1.209
      -1.373
      -1.403
      -1.282
      -1.024
      -0.663
      -0.240
       0.203
       0.636
       1.036
       1.379
       1.636
       1.775
       1.770
       1.614
       1.337
       1.012
       0.738
       0.594
       0.585
       0.633
       0.609
       0.394
      -0.060
      -0.705
      -1.409
      -2.005
      -2.352
      -2.391
      -2.153
      -1.740
      -1.267
      -0.820
      -0.437
      -0.126
       0.121
       0.327
       0.531
       0.764
       1.024
       1.272
       1.450
       1.508
       1.425
       1.221
       0.959
       0.730
       0.614
       0.635
       0.743
       0.838
       0.819
       0.627
       0.264
      -0.214
      -0.716
      -1.150
      -1.454
      -1.609
      -1.632
      -1.554
      -1.394
      -1.170
      -0.910
      -0.653
      -0.436
      -0.292
      -0.242
      -0.286
      -0.398
      -0.529
      -0.626
      -0.647
      -0.573
      -0.409
      -0.178
       0.079
       0.317
       0.494
       0.573
       0.540
       0.417
       0.263
       0.144
       0.098
       0.106
       0.107
       0.040
      -0.113
      -0.317
      -0.511
      -0.644
      -0.703
      -0.717
      -0.729
      -0.760
      -0.793
      -0.779
      -0.672
      -0.454
      -0.143
       0.213
       0.551
       0.815
       0.968
       0.989
       0.867
       0.610
       0.255
      -0.124
      -0.442
      -0.632
      -0.664
      -0.548
      -0.325
      -0.052
       0.213
       0.433
       0.586
       0.661
       0.656
       0.591
       0.498
       0.402
       0.314
       0.234
       0.159
       0.085
       0.004
      -0.101
      -0.238
      -0.399
      -0.552
      -0.638
      -0.590
      -0.361
       0.045
       0.561
       1.074
       1.462
       1.636
       1.560
       1.267
       0.846
       0.420
       0.103
      -0.038
      -0.013
       0.092
       0.151
       0.051
      -0.262
      -0.759
      -1.334
      -1.852
      -2.191
      -2.277
      -2.085
      -1.638
      -1.002
      -0.270
       0.459
       1.111
       1.635
       2.008
       2.222
       2.274
       2.160
       1.876
       1.431
       0.853
       0.189
      -0.514
      -1.208
      -1.848
      -2.383
      -2.763
      -2.934
      -2.859
      -2.537
      -2.035
      -1.481
