Origin Time       07/07/2008 02:50:36
Lat.              26.1 N 
Long.             95.1 E 
Depth (Km)         73.0
Magnitude         5.1
 Region           Nagaland-Myanmar                                                 
 Above details taken from IMD 
   
Station Code      TIN
Station Lat.       27.503
Station Long.      95.332
Station Height(m)    0.0
Site Class        C   Vs30 between 200 m/sec to 375 m/sec *  
Record Time       07.07.2008 02:51:13.869
Sampling Rate     200. Hz
 Record Duration   66.100 Sec.
 Direction         Vert. (Up positive)
Max. Acceleration     -2.263 cm/sec**2
     
  * For reference see Site Classification link of website 
     
 Base Line Corrected and Low Pass Filtered (Cut Off at 35 Hz) Time History
 Acceleration data in cm/sec**2
    
[...]
      -0.488
      -0.437
      -0.262
       0.013
       0.297
       0.483
       0.508
       0.391
       0.196
      -0.010
      -0.184
      -0.297
      -0.327
      -0.268
      -0.145
      -0.019
       0.051
       0.057
       0.039
       0.038
       0.044
       0.011
      -0.079
      -0.181
      -0.217
      -0.150
      -0.015
       0.109
       0.165
       0.139
       0.052
      -0.071
      -0.198
      -0.277
      -0.253
      -0.110
       0.099
       0.288
       0.394
       0.401
       0.322
       0.164
      -0.056
      -0.294
      -0.476
      -0.526
      -0.406
      -0.136
       0.201
       0.487
       0.623
       0.564
       0.336
       0.014
      -0.323
      -0.621
      -0.848
      -0.970
      -0.934
      -0.706
      -0.316
       0.133
       0.502
       0.695
       0.699
       0.579
       0.425
       0.299
       0.210
       0.135
       0.046
      -0.065
      -0.173
      -0.238
      -0.232
      -0.165
      -0.082
      -0.026
      -0.006
       0.000
       0.016
       0.043
       0.069
       0.077
       0.052
      -0.009
      -0.092
      -0.155
      -0.148
      -0.046
       0.122
       0.283
       0.360
       0.318
       0.177
      -0.016
      -0.215
      -0.380
      -0.461
      -0.407
      -0.196
       0.124
       0.445
       0.651
       0.671
       0.510
       0.234
      -0.073
      -0.334
      -0.493
      -0.514
      -0.390
      -0.159
       0.103
       0.300
       0.359
       0.266
       0.075
      -0.125
      -0.258
      -0.298
      -0.266
      -0.198
      -0.128
      -0.084
      -0.083
      -0.122
      -0.169
      -0.182
      -0.135
      -0.026
       0.122
       0.276
       0.395
       0.445
       0.409
       0.286
       0.090
      -0.148
      -0.378
      -0.542
      -0.590
      -0.498
      -0.270
       0.053
       0.388
       0.619
       0.652
       0.460
       0.105
      -0.300
      -0.634
      -0.805
      -0.764
      -0.520
      -0.147
       0.246
       0.560
       0.733
       0.727
       0.522
       0.139
      -0.325
      -0.710
      -0.865
      -0.719
      -0.332
       0.135
       0.503
       0.654
       0.579
       0.352
       0.075
      -0.180
      -0.393
      -0.559
      -0.653
      -0.633
      -0.473
      -0.204
       0.085
       0.293
       0.360
       0.283
       0.111
      -0.083
      -0.221
      -0.244
      -0.134
       0.067
       0.282
       0.436
       0.493
       0.443
       0.285
       0.030
      -0.267
      -0.502
      -0.569
      -0.429
      -0.140
       0.175
       0.395
       0.457
       0.361
       0.157
      -0.088
      -0.308
      -0.461
      -0.534
      -0.538
      -0.484
      -0.375
      -0.205
       0.026
       0.294
       0.546
       0.715
       0.743
       0.616
       0.383
       0.124
      -0.092
      -0.253
      -0.386
      -0.523
      -0.663
      -0.762
      -0.760
      -0.622
      -0.354
      -0.008
       0.340
       0.618
       0.768
       0.761
       0.596
       0.313
      -0.016
      -0.309
      -0.493
      -0.524
      -0.391
      -0.121
       0.214
       0.524
       0.731
       0.790
       0.686
       0.428
       0.049
      -0.376
      -0.752
      -0.986
      -1.019
      -0.848
      -0.517
      -0.111
       0.272
       0.535
       0.616
       0.508
       0.270
       0.006
      -0.173
      -0.186
      -0.015
       0.276
       0.566
       0.731
       0.713
       0.538
       0.282
       0.022
      -0.189
      -0.315
      -0.329
      -0.222
      -0.027
       0.184
       0.330
       0.364
       0.286
       0.120
      -0.107
      -0.361
      -0.583
      -0.702
      -0.682
      -0.543
      -0.338
      -0.130
       0.034
       0.129
       0.157
       0.151
       0.147
       0.155
       0.159
       0.141
       0.102
       0.066
       0.057
       0.076
       0.092
       0.060
      -0.048
      -0.218
      -0.403
      -0.535
      -0.554
      -0.431
      -0.198
       0.060
       0.248
       0.323
       0.303
       0.244
       0.204
       0.216
       0.271
       0.324
       0.322
       0.232
       0.071
      -0.098
      -0.210
      -0.249
      -0.264
      -0.311
      -0.395
      -0.458
      -0.420
      -0.244
       0.037
       0.318
       0.477
       0.429
       0.192
      -0.122
      -0.369
      -0.457
      -0.385
      -0.218
      -0.032
       0.122
       0.234
       0.315
       0.384
       0.448
       0.485
       0.454
       0.311
       0.055
      -0.253
      -0.508
      -0.620
      -0.559
      -0.366
      -0.119
       0.105
       0.254
       0.310
       0.289
       0.212
       0.085
      -0.092
      -0.289
      -0.434
      -0.455
      -0.343
      -0.158
       0.025
       0.167
       0.259
       0.284
       0.215
       0.054
      -0.141
      -0.285
      -0.337
      -0.321
      -0.292
      -0.262
      -0.188
      -0.021
       0.213
       0.409
       0.454
       0.317
       0.078
      -0.126
      -0.177
      -0.037
       0.238
       0.538
       0.748
       0.787
       0.623
       0.281
      -0.147
      -0.535
      -0.787
      -0.876
      -0.833
      -0.692
      -0.467
      -0.185
       0.090
       0.273
       0.325
       0.280
       0.211
       0.174
       0.181
       0.217
       0.265
       0.316
       0.351
       0.337
       0.234
       0.037
      -0.220
      -0.468
      -0.652
      -0.745
      -0.740
      -0.622
      -0.385
      -0.065
       0.253
       0.473
       0.548
       0.478
       0.292
       0.044
      -0.184
      -0.300
      -0.257
      -0.081
       0.139
       0.322
       0.427
       0.458
       0.423
       0.307
       0.085
      -0.227
      -0.539
      -0.724
      -0.698
      -0.476
      -0.147
       0.195
       0.500
       0.743
       0.890
       0.888
       0.704
       0.359
      -0.073
      -0.494
      -0.805
      -0.923
      -0.813
      -0.519
      -0.157
       0.138
       0.280
       0.273
       0.193
       0.126
       0.112
       0.138
       0.167
       0.178
       0.169
       0.139
       0.084
       0.015
      -0.023
       0.021
       0.154
       0.308
       0.386
       0.343
       0.220
       0.104
       0.058
       0.075
       0.097
       0.075
      -0.001
      -0.115
      -0.255
      -0.426
      -0.620
      -0.798
      -0.889
      -0.834
      -0.611
      -0.243
       0.210
       0.660
       1.011
       1.180
       1.125
       0.861
       0.470
       0.081
      -0.172
      -0.208
      -0.031
       0.265
       0.535
       0.642
       0.512
       0.158
      -0.324
      -0.792
      -1.120
      -1.250
      -1.204
      -1.033
      -0.776
      -0.456
      -0.120
       0.152
       0.291
       0.287
       0.199
       0.130
       0.178
       0.388
       0.709
       1.009
       1.136
       1.002
       0.611
       0.047
      -0.562
      -1.069
      -1.350
      -1.351
      -1.119
      -0.761
      -0.371
      -0.006
       0.279
       0.400
       0.284
      -0.050
      -0.462
      -0.747
      -0.755
      -0.458
       0.061
       0.662
       1.195
       1.518
       1.534
       1.231
       0.710
       0.147
      -0.283
      -0.484
      -0.472
      -0.330
      -0.153
       0.001
       0.120
       0.221
       0.317
       0.398
       0.438
       0.423
       0.361
       0.276
       0.180
       0.058
      -0.119
      -0.372
      -0.688
      -1.017
      -1.279
      -1.384
      -1.262
      -0.906
      -0.390
       0.148
       0.568
       0.783
       0.775
       0.564
       0.193
      -0.257
      -0.642
      -0.787
      -0.590
      -0.092
       0.537
       1.091
       1.411
       1.412
       1.088
       0.515
      -0.162
      -0.771
      -1.165
      -1.270
      -1.113
      -0.804
      -0.488
      -0.264
      -0.139
      -0.056
       0.051
       0.196
       0.341
       0.435
       0.449
       0.382
       0.237
       0.015
      -0.260
      -0.520
      -0.659
      -0.592
      -0.302
       0.153
       0.664
       1.111
       1.385
       1.407
       1.151
       0.654
       0.017
      -0.625
      -1.126
      -1.362
      -1.267
      -0.866
      -0.282
       0.298
       0.700
       0.823
       0.649
       0.235
      -0.295
      -0.765
      -0.996
      -0.881
      -0.452
       0.133
       0.661
       0.968
       0.997
       0.786
       0.422
       0.003
      -0.373
      -0.614
      -0.651
      -0.472
      -0.136
       0.245
       0.561
       0.750
       0.811
       0.762
       0.605
       0.328
      -0.059
      -0.503
      -0.921
      -1.232
      -1.370
      -1.298
      -1.014
      -0.563
      -0.019
       0.551
       1.090
       1.532
       1.784
       1.749
       1.389
       0.783
       0.117
      -0.406
      -0.671
      -0.685
      -0.550
      -0.392
      -0.293
      -0.273
      -0.302
      -0.341
      -0.367
      -0.375
      -0.370
      -0.362
      -0.365
      -0.381
      -0.394
      -0.388
      -0.373
      -0.382
      -0.428
      -0.458
      -0.367
      -0.078
       0.361
       0.781
       0.988
       0.882
       0.518
       0.068
      -0.281
      -0.402
      -0.277
       0.015
       0.352
       0.618
       0.748
       0.731
       0.591
       0.360
       0.062
      -0.274
      -0.582
      -0.755
      -0.702
      -0.418
      -0.004
       0.392
       0.660
       0.763
       0.710
       0.518
       0.211
      -0.160
      -0.518
      -0.784
      -0.895
      -0.807
      -0.511
      -0.049
       0.471
       0.908
       1.155
       1.168
       0.960
       0.586
       0.131
      -0.303
      -0.611
      -0.724
      -0.621
      -0.339
       0.022
       0.302
       0.348
       0.110
      -0.308
      -0.710
      -0.928
      -0.898
      -0.664
      -0.319
       0.053
       0.396
       0.678
       0.887
       1.018
       1.062
       0.998
       0.794
       0.438
      -0.021
      -0.480
      -0.815
      -0.938
      -0.826
      -0.523
      -0.133
       0.205
       0.358
       0.267
      -0.027
      -0.402
      -0.720
      -0.877
      -0.830
      -0.587
      -0.208
       0.209
       0.562
       0.785
       0.880
       0.900
       0.893
       0.863
       0.772
       0.573
       0.248
      -0.173
      -0.624
      -1.014
      -1.248
      -1.260
      -1.043
      -0.668
      -0.260
       0.053
       0.203
       0.210
       0.158
       0.147
       0.243
       0.438
       0.643
       0.720
       0.564
       0.183
      -0.287
      -0.657
      -0.791
      -0.680
      -0.428
      -0.167
       0.008
       0.065
       0.016
      -0.100
      -0.236
      -0.342
      -0.376
      -0.307
      -0.125
       0.148
       0.457
       0.721
       0.850
       0.765
       0.440
      -0.073
      -0.631
      -1.053
      -1.196
      -1.024
      -0.608
      -0.090
       0.382
       0.714
       0.884
       0.920
       0.854
       0.701
       0.488
       0.267
       0.101
       0.008
      -0.057
      -0.147
      -0.262
      -0.342
      -0.328
      -0.230
      -0.121
      -0.071
      -0.099
      -0.162
      -0.198
      -0.166
      -0.069
       0.056
       0.160
       0.204
       0.170
       0.051
      -0.140
      -0.367
      -0.570
      -0.678
      -0.637
      -0.428
      -0.073
       0.365
       0.795
       1.115
       1.246
       1.157
       0.872
       0.464
       0.035
      -0.331
      -0.594
      -0.768
      -0.897
      -1.013
      -1.116
      -1.164
      -1.090
      -0.825
      -0.338
       0.314
       0.973
       1.419
       1.471
       1.098
       0.457
      -0.168
      -0.506
      -0.437
      -0.035
       0.482
       0.878
       1.004
       0.833
       0.422
      -0.148
      -0.795
      -1.419
      -1.897
      -2.099
      -1.943
      -1.432
      -0.662
       0.200
       0.974
       1.513
       1.740
       1.650
       1.307
       0.822
       0.322
      -0.084
      -0.319
      -0.349
      -0.197
       0.042
       0.223
       0.217
      -0.011
      -0.390
      -0.781
      -1.059
      -1.158
      -1.086
      -0.892
      -0.634
      -0.347
      -0.048
       0.245
       0.489
       0.631
       0.638
       0.534
       0.399
       0.327
       0.380
       0.543
       0.728
       0.818
       0.732
       0.465
       0.087
      -0.286
      -0.540
      -0.609
      -0.488
      -0.242
       0.033
       0.240
       0.307
       0.194
      -0.103
      -0.536
      -0.998
      -1.339
      -1.421
      -1.191
      -0.705
      -0.112
       0.424
       0.800
       1.006
       1.101
       1.160
       1.232
       1.324
       1.402
       1.408
       1.277
       0.988
       0.582
       0.140
      -0.268
      -0.619
      -0.918
      -1.177
      -1.398
      -1.558
      -1.612
      -1.515
      -1.269
      -0.936
      -0.612
      -0.375
      -0.253
      -0.214
      -0.182
      -0.053
       0.242
       0.672
       1.103
       1.358
       1.330
       1.040
       0.621
       0.240
       0.024
       0.015
       0.175
       0.419
       0.646
       0.760
       0.670
       0.314
      -0.306
      -1.082
      -1.805
      -2.249
      -2.263
      -1.835
      -1.075
      -0.152
       0.767
       1.521
       1.949
       1.930
       1.458
       0.689
      -0.108
      -0.666
      -0.824
      -0.572
      -0.028
       0.604
       1.095
       1.250
       0.991
       0.399
      -0.316
      -0.909
      -1.200
      -1.130
      -0.769
      -0.287
       0.117
       0.291
       0.207
      -0.042
      -0.306
      -0.462
      -0.474
      -0.369
      -0.199
      -0.006
       0.169
       0.278
       0.266
       0.099
      -0.199
      -0.538
      -0.804
      -0.912
      -0.821
      -0.514
      -0.004
       0.632
       1.239
       1.634
       1.701
       1.456
       1.032
       0.588
       0.235
      -0.001
      -0.145
      -0.248
      -0.359
      -0.521
      -0.758
      -1.059
      -1.381
      -1.655
      -1.806
      -1.770
      -1.495
      -0.963
      -0.220
       0.596
       1.289
       1.699
       1.799
       1.695
       1.531
       1.378
       1.195
       0.906
       0.497
       0.040
      -0.361
      -0.633
      -0.753
      -0.723
      -0.572
      -0.356
      -0.164
      -0.077
      -0.136
      -0.319
      -0.550
      -0.734
      -0.818
      -0.809
      -0.742
      -0.628
      -0.449
      -0.188
       0.139
       0.493
       0.833
       1.124
       1.327
       1.411
       1.370
       1.222
       1.004
       0.754
       0.511
       0.311
       0.178
       0.111
       0.061
      -0.052
      -0.295
      -0.678
      -1.142
      -1.593
      -1.932
      -2.071
      -1.948
      -1.542
      -0.889
      -0.072
       0.789
       1.549
       2.056
       2.185
       1.913
       1.351
       0.700
       0.148
      -0.216
      -0.399
      -0.452
      -0.418
      -0.328
      -0.215
      -0.117
      -0.075
      -0.104
      -0.197
      -0.338
      -0.507
      -0.685
      -0.846
      -0.963
      -1.014
      -0.986
      -0.875
      -0.682
      -0.415
      -0.086
       0.279
       0.630
       0.901
       1.041
       1.061
       1.032
       1.042
       1.129
       1.246
       1.281
       1.119
       0.707
       0.101
      -0.567
      -1.154
      -1.568
      -1.804
      -1.910
      -1.924
      -1.823
      -1.530
      -1.005
      -0.334
       0.276
       0.643
       0.747
       0.720
       0.697
       0.712
       0.720
       0.675
       0.558
       0.357
       0.075
      -0.228
      -0.419
      -0.371
      -0.061
       0.391
       0.788
       0.977
       0.909
       0.625
       0.204
      -0.265
      -0.680
      -0.936
      -0.968
      -0.787
      -0.483
      -0.184
      -0.001
       0.021
      -0.098
      -0.297
      -0.492
      -0.582
      -0.487
      -0.205
       0.171
       0.500
       0.683
       0.714
       0.655
       0.565
       0.463
       0.343
       0.222
       0.146
       0.164
       0.274
       0.416
       0.497
       0.434
       0.204
      -0.134
      -0.450
      -0.603
      -0.505
      -0.173
       0.279
       0.690
       0.927
       0.929
       0.728
       0.415
       0.100
      -0.141
      -0.287
      -0.353
      -0.364
      -0.348
      -0.353
      -0.436
      -0.636
      -0.937
      -1.253
      -1.459
      -1.462
      -1.247
      -0.873
      -0.427
       0.022
       0.436
       0.804
       1.139
       1.457
       1.732
       1.881
       1.803
       1.444
       0.839
       0.104
      -0.617
      -1.200
      -1.559
      -1.643
      -1.437
      -0.989
      -0.407
       0.165
       0.588
       0.769
       0.702
       0.475
       0.232
       0.101
       0.143
       0.333
       0.571
       0.711
       0.632
       0.309
      -0.147
      -0.534
      -0.661
      -0.452
       0.008
       0.508
       0.825
       0.844
       0.592
       0.181
      -0.274
      -0.690
      -1.000
      -1.139
      -1.058
      -0.746
      -0.241
       0.358
       0.894
       1.204
       1.194
       0.893
       0.431
      -0.049
      -0.458
      -0.775
      -1.002
      -1.130
      -1.127
      -0.963
      -0.643
      -0.209
       0.261
       0.684
       0.978
       1.071
       0.930
       0.592
       0.174
      -0.174
      -0.344
      -0.331
      -0.213
      -0.086
       0.014
       0.112
       0.229
       0.313
       0.254
      -0.025
      -0.473
      -0.923
      -1.194
      -1.190
      -0.920
      -0.458
       0.105
       0.661
       1.089
       1.286
       1.221
       0.947
       0.563
       0.157
      -0.215
      -0.502
      -0.645
      -0.601
      -0.375
      -0.038
       0.291
       0.486
       0.469
       0.246
      -0.107
      -0.489
      -0.808
      -0.992
      -0.973
      -0.705
      -0.201
       0.429
       0.995
       1.297
       1.209
       0.736
       0.010
      -0.745
      -1.296
      -1.503
      -1.378
      -1.056
      -0.694
      -0.368
      -0.061
       0.260
       0.573
       0.790
       0.830
       0.697
       0.491
       0.340
       0.311
       0.370
       0.419
       0.367
       0.182
      -0.100
      -0.407
      -0.657
      -0.782
      -0.751
      -0.591
      -0.384
      -0.224
      -0.163
      -0.180
      -0.198
      -0.140
       0.016
       0.242
       0.496
       0.758
       1.016
       1.226
       1.316
       1.235
       0.991
       0.629
       0.184
      -0.344
      -0.941
      -1.535
      -1.985
      -2.143
      -1.934
      -1.414
      -0.739
      -0.091
       0.401
       0.701
       0.841
       0.878
       0.855
       0.796
       0.720
       0.658
       0.650
       0.720
       0.849
       0.969
       0.995
       0.857
       0.518
      -0.011
      -0.654
      -1.271
      -1.692
