Origin Time       09/1/2013 01:41:52	
Lat.              25.4 N	
Long.             94.9 E	
Depth (Km)         89.0
Magnitude         5.9
 Region           Myanmar-India-Border-Region                                      
 Above details taken from IMD 
     
Station Code      TIN
Station Lat.       27.503  N
Station Long.      95.332  E
Station Height(m)  137.0
Site Class        C   Vs30 between 200 m/sec to 375 m/sec *  
Record Time       09.01.2013 07:11:35.489
Sampling Rate     200. Hz
 Record Duration  109.375 Sec.
 Direction         E-W (E positive)
Max. Acceleration      7.847 cm/sec**2
     
  * For reference see Site Classification link of website 
     
 Base Line Corrected and Low Pass Filtered (Cut Off at 35 Hz) Time History
 Acceleration data in cm/sec**2
    
[...]
      -0.467
      -0.635
      -0.880
      -1.202
      -1.543
      -1.824
      -1.969
      -1.925
      -1.665
      -1.200
      -0.586
       0.077
       0.680
       1.142
       1.434
       1.556
       1.510
       1.289
       0.900
       0.390
      -0.142
      -0.582
      -0.854
      -0.951
      -0.925
      -0.853
      -0.807
      -0.853
      -1.024
      -1.298
      -1.594
      -1.806
      -1.846
      -1.671
      -1.299
      -0.798
      -0.276
       0.164
       0.457
       0.596
       0.610
       0.531
       0.368
       0.112
      -0.227
      -0.579
      -0.826
      -0.852
      -0.606
      -0.121
       0.510
       1.183
       1.825
       2.406
       2.916
       3.327
       3.575
       3.573
       3.262
       2.646
       1.807
       0.867
      -0.079
      -0.985
      -1.838
      -2.607
      -3.210
      -3.541
      -3.520
      -3.134
      -2.452
      -1.599
      -0.718
       0.071
       0.695
       1.119
       1.329
       1.321
       1.097
       0.687
       0.167
      -0.340
      -0.699
      -0.836
      -0.786
      -0.664
      -0.589
      -0.604
      -0.650
      -0.620
      -0.436
      -0.098
       0.332
       0.775
       1.177
       1.502
       1.708
       1.729
       1.509
       1.050
       0.433
      -0.203
      -0.724
      -1.051
      -1.165
      -1.096
      -0.900
      -0.655
      -0.441
      -0.312
      -0.275
      -0.280
      -0.246
      -0.099
       0.176
       0.514
       0.795
       0.903
       0.782
       0.443
      -0.049
      -0.611
      -1.144
      -1.549
      -1.732
      -1.634
      -1.244
      -0.623
       0.120
       0.861
       1.504
       1.992
       2.300
       2.422
       2.359
       2.118
       1.715
       1.189
       0.602
       0.033
      -0.457
      -0.841
      -1.136
      -1.383
      -1.607
      -1.794
      -1.893
      -1.855
      -1.667
      -1.366
      -1.009
      -0.640
      -0.270
       0.122
       0.558
       1.027
       1.464
       1.778
       1.901
       1.820
       1.563
       1.168
       0.652
       0.025
      -0.673
      -1.351
      -1.885
      -2.167
      -2.138
      -1.787
      -1.142
      -0.271
       0.707
       1.642
       2.385
       2.837
       2.958
       2.774
       2.354
       1.790
       1.170
       0.559
       0.008
      -0.446
      -0.765
      -0.926
      -0.935
      -0.843
      -0.727
      -0.657
      -0.660
      -0.714
      -0.763
      -0.730
      -0.546
      -0.187
       0.282
       0.702
       0.873
       0.649
       0.025
      -0.832
      -1.660
      -2.211
      -2.340
      -2.029
      -1.358
      -0.451
       0.553
       1.531
       2.379
       3.004
       3.322
       3.265
       2.801
       1.959
       0.851
      -0.329
      -1.357
      -2.051
      -2.340
      -2.281
      -2.015
      -1.697
      -1.432
      -1.262
      -1.190
      -1.217
      -1.349
      -1.562
      -1.761
      -1.796
      -1.526
      -0.900
       0.006
       1.024
       1.975
       2.740
       3.280
       3.592
       3.668
       3.480
       3.005
       2.267
       1.354
       0.416
      -0.380
      -0.922
      -1.194
      -1.266
      -1.230
      -1.134
      -0.956
      -0.628
      -0.107
       0.579
       1.325
       1.998
       2.498
       2.773
       2.794
       2.538
       1.979
       1.118
       0.019
      -1.178
      -2.288
      -3.143
      -3.641
      -3.764
      -3.573
      -3.160
      -2.605
      -1.931
      -1.106
      -0.087
       1.099
       2.301
       3.277
       3.798
       3.779
       3.324
       2.664
       2.010
       1.446
       0.923
       0.339
      -0.368
      -1.180
      -2.002
      -2.701
      -3.158
      -3.319
      -3.212
      -2.919
      -2.535
      -2.114
      -1.665
      -1.162
      -0.580
       0.082
       0.801
       1.523
       2.174
       2.674
       2.948
       2.935
       2.583
       1.874
       0.863
      -0.299
      -1.399
      -2.237
      -2.709
      -2.849
      -2.803
      -2.745
      -2.770
      -2.828
      -2.744
      -2.308
      -1.392
      -0.031
       1.582
       3.166
       4.467
       5.324
       5.683
       5.561
       5.007
       4.087
       2.877
       1.470
      -0.010
      -1.410
      -2.566
      -3.358
      -3.749
      -3.795
      -3.619
      -3.338
      -2.997
      -2.551
      -1.914
      -1.036
       0.040
       1.182
       2.217
       2.998
       3.444
       3.559
       3.392
       2.993
       2.390
       1.589
       0.598
      -0.549
      -1.781
      -2.991
      -4.057
      -4.859
      -5.294
      -5.296
      -4.865
      -4.076
      -3.040
      -1.865
      -0.640
       0.547
       1.590
       2.382
       2.844
       2.957
       2.758
       2.324
       1.739
       1.097
       0.501
       0.043
      -0.236
      -0.366
      -0.422
      -0.469
      -0.526
      -0.563
      -0.531
      -0.388
      -0.115
       0.263
       0.681
       1.035
       1.219
       1.161
       0.867
       0.431
      -0.006
      -0.327
      -0.485
      -0.510
      -0.461
      -0.379
      -0.251
      -0.025
       0.347
       0.856
       1.413
       1.864
       2.050
       1.866
       1.305
       0.453
      -0.553
      -1.571
      -2.474
      -3.167
      -3.587
      -3.710
      -3.548
      -3.128
      -2.478
      -1.613
      -0.534
       0.740
       2.131
       3.477
       4.555
       5.162
       5.199
       4.704
       3.834
       2.804
       1.806
       0.953
       0.261
      -0.321
      -0.873
      -1.461
      -2.108
      -2.776
      -3.376
      -3.809
      -4.015
      -3.996
      -3.816
      -3.554
      -3.265
      -2.949
      -2.557
      -2.019
      -1.288
      -0.371
       0.653
       1.649
       2.479
       3.062
       3.389
       3.504
       3.450
       3.228
       2.804
       2.161
       1.363
       0.556
      -0.092
      -0.484
      -0.626
      -0.599
      -0.503
      -0.417
      -0.384
      -0.413
      -0.489
      -0.593
      -0.704
      -0.804
      -0.871
      -0.889
      -0.846
      -0.743
      -0.604
      -0.474
      -0.403
      -0.431
      -0.570
      -0.789
      -1.012
      -1.133
      -1.062
      -0.773
      -0.322
       0.172
       0.578
       0.815
       0.897
       0.923
       1.021
       1.268
       1.649
       2.073
       2.420
       2.591
       2.534
       2.224
       1.647
       0.805
      -0.239
      -1.339
      -2.294
      -2.931
      -3.168
      -3.032
      -2.627
      -2.060
      -1.393
      -0.635
       0.222
       1.139
       1.999
       2.619
       2.809
       2.447
       1.553
       0.299
      -1.051
      -2.247
      -3.128
      -3.643
      -3.806
      -3.654
      -3.223
      -2.550
      -1.701
      -0.788
       0.049
       0.694
       1.107
       1.335
       1.480
       1.635
       1.840
       2.068
       2.264
       2.407
       2.535
       2.725
       3.029
       3.415
       3.758
       3.889
       3.677
       3.095
       2.221
       1.183
       0.100
      -0.953
      -1.929
      -2.774
      -3.411
      -3.756
      -3.759
      -3.439
      -2.873
      -2.166
      -1.425
      -0.754
      -0.250
       0.020
       0.032
      -0.187
      -0.567
      -1.009
      -1.396
      -1.616
      -1.569
      -1.200
      -0.528
       0.328
       1.177
       1.827
       2.177
       2.249
       2.158
       2.030
       1.925
       1.798
       1.539
       1.041
       0.281
      -0.657
      -1.599
      -2.337
      -2.703
      -2.620
      -2.132
      -1.388
      -0.596
       0.045
       0.413
       0.504
       0.418
       0.298
       0.260
       0.354
       0.554
       0.783
       0.948
       0.990
       0.902
       0.729
       0.545
       0.427
       0.435
       0.594
       0.872
       1.180
       1.385
       1.351
       0.982
       0.264
      -0.725
      -1.841
      -2.901
      -3.724
      -4.165
      -4.145
      -3.658
      -2.758
      -1.547
      -0.163
       1.228
       2.473
       3.461
       4.137
       4.485
       4.512
       4.236
       3.683
       2.890
       1.907
       0.790
      -0.390
      -1.543
      -2.554
      -3.304
      -3.699
      -3.708
      -3.363
      -2.729
      -1.862
      -0.794
       0.442
       1.750
       2.928
       3.719
       3.942
       3.593
       2.834
       1.875
       0.872
      -0.096
      -0.962
      -1.634
      -2.001
      -1.996
      -1.635
      -1.000
      -0.203
       0.656
       1.490
       2.208
       2.718
       2.933
       2.804
       2.345
       1.639
       0.827
       0.067
      -0.514
      -0.850
      -0.946
      -0.862
      -0.700
      -0.567
      -0.549
      -0.684
      -0.959
      -1.323
      -1.709
      -2.059
      -2.342
      -2.550
      -2.681
      -2.723
      -2.652
      -2.441
      -2.076
      -1.576
      -0.988
      -0.379
       0.182
       0.634
       0.933
       1.072
       1.095
       1.085
       1.118
       1.224
       1.369
       1.469
       1.441
       1.244
       0.909
       0.514
       0.159
      -0.068
      -0.106
       0.066
       0.425
       0.909
       1.427
       1.874
       2.151
       2.193
       1.985
       1.557
       0.980
       0.340
      -0.279
      -0.816
      -1.235
      -1.516
      -1.645
      -1.623
      -1.480
      -1.274
      -1.058
      -0.859
      -0.667
      -0.463
      -0.243
      -0.033
       0.154
       0.348
       0.618
       1.006
       1.460
       1.820
       1.880
       1.492
       0.651
      -0.498
      -1.724
      -2.805
      -3.577
      -3.932
      -3.813
      -3.227
      -2.269
      -1.122
      -0.005
       0.896
       1.495
       1.817
       1.957
       2.010
       2.023
       1.989
       1.891
       1.738
       1.562
       1.391
       1.213
       0.970
       0.583
       0.010
      -0.719
      -1.501
      -2.196
      -2.669
      -2.838
      -2.711
      -2.401
      -2.088
      -1.945
      -2.052
      -2.355
      -2.703
      -2.958
      -3.090
      -3.175
      -3.307
      -3.493
      -3.624
      -3.539
      -3.105
      -2.285
      -1.141
       0.195
       1.575
       2.873
       3.992
       4.851
       5.369
       5.490
       5.215
       4.612
       3.790
       2.854
       1.872
       0.893
      -0.008
      -0.731
      -1.191
      -1.391
      -1.428
      -1.440
      -1.520
      -1.664
      -1.801
      -1.855
      -1.812
      -1.708
      -1.566
      -1.357
      -1.014
      -0.512
       0.088
       0.656
       1.068
       1.275
       1.302
       1.206
       1.019
       0.751
       0.433
       0.146
      -0.013
      -0.004
       0.124
       0.277
       0.393
       0.480
       0.604
       0.831
       1.179
       1.603
       2.000
       2.227
       2.141
       1.656
       0.805
      -0.251
      -1.270
      -2.020
      -2.357
      -2.263
      -1.834
      -1.229
      -0.581
       0.051
       0.690
       1.376
       2.100
       2.778
       3.279
       3.478
       3.298
       2.733
       1.834
       0.707
      -0.494
      -1.590
      -2.414
      -2.862
      -2.922
      -2.663
      -2.195
      -1.626
      -1.028
      -0.426
       0.183
       0.792
       1.355
       1.779
       1.945
       1.771
       1.264
       0.537
      -0.235
      -0.895
      -1.350
      -1.586
      -1.642
      -1.573
      -1.410
      -1.139
      -0.715
      -0.110
       0.638
       1.423
       2.103
       2.575
       2.826
       2.932
       3.006
       3.126
       3.294
       3.441
       3.456
       3.229
       2.692
       1.817
       0.611
      -0.866
      -2.474
      -3.985
      -5.153
      -5.819
      -5.985
      -5.791
      -5.402
      -4.903
      -4.260
      -3.376
      -2.186
      -0.722
       0.873
       2.388
       3.591
       4.303
       4.462
       4.160
       3.607
       3.040
       2.612
       2.351
       2.180
       1.982
       1.672
       1.228
       0.688
       0.119
      -0.404
      -0.818
      -1.072
      -1.129
      -0.951
      -0.519
       0.141
       0.932
       1.683
       2.197
       2.314
       1.988
       1.315
       0.494
      -0.259
      -0.798
      -1.081
      -1.150
      -1.087
      -0.969
      -0.832
      -0.677
      -0.496
      -0.315
      -0.197
      -0.219
      -0.439
      -0.869
      -1.470
      -2.166
      -2.879
      -3.557
      -4.163
      -4.659
      -4.986
      -5.081
      -4.909
      -4.473
      -3.803
      -2.925
      -1.857
      -0.625
       0.719
       2.088
       3.380
       4.499
       5.374
       5.963
       6.242
       6.201
       5.822
       5.092
       4.029
       2.710
       1.281
      -0.082
      -1.223
      -2.043
      -2.519
      -2.698
      -2.658
      -2.488
      -2.278
      -2.126
      -2.134
      -2.370
      -2.827
      -3.402
      -3.931
      -4.249
      -4.268
      -4.008
      -3.571
      -3.086
      -2.654
      -2.314
      -2.027
      -1.696
      -1.218
      -0.559
       0.217
       0.971
       1.576
       2.003
       2.355
       2.816
       3.536
       4.536
       5.687
       6.768
       7.544
       7.847
       7.609
       6.852
       5.649
       4.087
       2.261
       0.279
      -1.738
      -3.641
      -5.249
      -6.351
      -6.773
      -6.460
      -5.508
      -4.133
      -2.591
      -1.103
       0.192
       1.251
       2.099
       2.780
       3.306
       3.659
       3.801
       3.714
       3.405
       2.911
       2.267
       1.495
       0.596
      -0.417
      -1.478
      -2.445
      -3.130
      -3.375
      -3.136
      -2.512
      -1.688
      -0.839
      -0.064
       0.625
       1.241
       1.760
       2.092
       2.120
       1.779
       1.097
       0.190
      -0.787
      -1.683
      -2.379
      -2.809
      -2.968
      -2.898
      -2.669
      -2.349
      -1.993
      -1.623
      -1.223
      -0.751
      -0.165
       0.537
       1.298
       1.999
       2.509
       2.739
       2.680
       2.391
       1.945
       1.392
       0.751
       0.040
      -0.694
      -1.372
      -1.907
      -2.239
      -2.360
      -2.305
      -2.135
      -1.906
      -1.657
      -1.396
      -1.099
      -0.728
      -0.263
       0.280
       0.837
       1.316
       1.633
       1.755
       1.714
       1.585
       1.433
       1.286
       1.134
       0.962
       0.764
       0.547
       0.326
       0.117
      -0.061
      -0.193
      -0.287
      -0.380
      -0.532
      -0.796
      -1.179
      -1.629
      -2.055
      -2.360
      -2.461
      -2.312
      -1.907
      -1.289
      -0.542
       0.226
       0.910
       1.430
       1.756
       1.913
       1.976
       2.031
       2.146
       2.324
       2.503
       2.599
       2.568
       2.430
       2.245
       2.044
       1.798
       1.427
       0.853
       0.060
      -0.888
      -1.864
      -2.722
      -3.328
      -3.584
      -3.454
      -2.984
      -2.287
      -1.490
      -0.674
       0.131
       0.914
       1.637
       2.231
       2.619
       2.767
       2.692
       2.441
       2.053
       1.537
       0.883
       0.081
      -0.863
      -1.903
      -2.953
      -3.895
      -4.612
      -5.013
      -5.050
      -4.722
      -4.087
      -3.254
      -2.361
      -1.519
      -0.771
      -0.084
       0.620
       1.382
       2.153
       2.787
       3.119
       3.071
       2.698
       2.164
       1.650
       1.275
       1.088
       1.115
       1.388
       1.917
       2.632
       3.382
       4.018
       4.456
       4.667
       4.613
       4.208
       3.347
       1.992
       0.234
      -1.705
      -3.540
      -5.023
      -6.019
      -6.518
      -6.596
      -6.364
      -5.917
      -5.302
      -4.528
      -3.589
      -2.498
      -1.293
      -0.040
       1.170
       2.241
       3.091
       3.677
       3.992
       4.055
       3.905
       3.581
       3.109
       2.493
       1.726
       0.825
      -0.151
      -1.100
      -1.897
      -2.427
      -2.606
      -2.393
      -1.817
      -0.991
      -0.107
       0.614
       0.995
       0.963
       0.548
      -0.153
      -1.022
      -1.950
      -2.848
      -3.640
      -4.251
      -4.613
      -4.670
      -4.390
      -3.759
      -2.783
      -1.516
      -0.063
       1.434
       2.821
       3.954
       4.721
       5.054
       4.955
       4.480
       3.715
       2.755
       1.701
       0.659
      -0.270
      -1.023
      -1.594
      -2.023
      -2.347
      -2.558
      -2.597
      -2.400
      -1.952
      -1.318
      -0.637
      -0.085
       0.194
       0.161
      -0.107
      -0.463
      -0.775
      -0.965
      -0.993
      -0.830
      -0.450
       0.140
       0.877
       1.651
       2.357
       2.943
       3.414
       3.784
       4.023
       4.048
       3.781
       3.217
       2.456
       1.666
       1.002
       0.542
       0.269
       0.118
       0.033
       0.000
       0.028
       0.124
       0.267
       0.406
       0.485
       0.477
       0.392
       0.270
       0.153
       0.064
       0.005
      -0.045
      -0.115
      -0.223
      -0.366
      -0.526
      -0.679
      -0.797
      -0.852
      -0.814
      -0.665
      -0.411
      -0.098
       0.194
       0.373
       0.380
       0.229
      -0.002
      -0.207
      -0.295
      -0.217
       0.019
       0.368
       0.775
       1.200
       1.605
       1.934
       2.096
       1.990
       1.565
       0.862
       0.012
      -0.819
      -1.498
      -1.948
      -2.147
      -2.105
      -1.848
      -1.407
      -0.812
      -0.088
       0.727
       1.565
       2.325
       2.884
       3.124
       2.970
       2.412
       1.521
       0.427
      -0.711
      -1.751
      -2.602
      -3.215
      -3.567
      -3.643
      -3.458
      -3.089
      -2.672
      -2.341
      -2.147
      -2.035
      -1.890
      -1.622
      -1.210
      -0.709
      -0.205
       0.225
       0.545
       0.761
       0.911
       1.068
       1.318
       1.742
       2.387
       3.236
       4.194
       5.090
       5.720
       5.915
       5.594
       4.776
       3.557
       2.093
       0.570
      -0.829
      -1.960
      -2.749
      -3.192
      -3.328
      -3.221
      -2.926
      -2.489
      -1.945
      -1.340
      -0.735
      -0.202
       0.203
       0.457
       0.582
       0.632
       0.663
       0.702
       0.735
       0.725
       0.631
       0.433
       0.142
      -0.215
      -0.599
      -0.972
      -1.281
      -1.468
      -1.505
      -1.411
      -1.244
      -1.056
      -0.860
      -0.645
      -0.399
      -0.132
       0.126
       0.337
       0.481
       0.562
       0.595
       0.582
       0.493
       0.281
      -0.082
      -0.570
      -1.115
      -1.634
      -2.071
      -2.405
      -2.635
      -2.751
