Origin Time       07/1/2013 05:32:46	 UTC
Lat.              28.1 N	
Long.             94.3 E	
Depth (Km)         10.0
Magnitude         4.5
 Region           Arunachal-Pradesh                                                
 Above details taken from IMD 
    
Station Code      TIN
Station Lat.       27.503  N
Station Long.      95.332  E
Station Height(m)  137.0
Site Class        C   Vs30 between 200 m/sec to 375 m/sec *  
Record Time       07.01.2013 11:02:34.289 UTC
Sampling Rate     200. Hz
 Record Duration   65.150 Sec.
 Direction         N-S (N positive)
Max. Acceleration     -3.859 cm/sec**2
     
  * For reference see Site Classification link of website 
     
 Base Line Corrected and Low Pass Filtered (Cut Off at 35 Hz) Time History
 Acceleration data in cm/sec**2
    
[...]
      -0.042
       0.008
       0.056
       0.083
       0.081
       0.056
       0.020
      -0.014
      -0.037
      -0.044
      -0.034
      -0.015
      -0.001
       0.000
      -0.010
      -0.024
      -0.032
      -0.030
      -0.020
      -0.018
      -0.039
      -0.084
      -0.132
      -0.156
      -0.141
      -0.097
      -0.043
       0.007
       0.047
       0.074
       0.089
       0.090
       0.078
       0.063
       0.060
       0.084
       0.127
       0.168
       0.179
       0.150
       0.085
       0.000
      -0.087
      -0.155
      -0.184
      -0.168
      -0.123
      -0.071
      -0.030
      -0.003
       0.013
       0.020
       0.024
       0.032
       0.053
       0.087
       0.127
       0.159
       0.162
       0.124
       0.052
      -0.026
      -0.071
      -0.061
      -0.007
       0.055
       0.092
       0.089
       0.053
      -0.002
      -0.062
      -0.116
      -0.156
      -0.166
      -0.135
      -0.069
       0.004
       0.053
       0.062
       0.037
      -0.011
      -0.071
      -0.129
      -0.167
      -0.167
      -0.129
      -0.068
      -0.011
       0.023
       0.025
       0.002
      -0.028
      -0.044
      -0.035
      -0.002
       0.044
       0.094
       0.138
       0.160
       0.146
       0.095
       0.032
      -0.016
      -0.032
      -0.018
       0.010
       0.035
       0.053
       0.067
       0.080
       0.083
       0.064
       0.020
      -0.030
      -0.053
      -0.026
       0.039
       0.106
       0.138
       0.123
       0.070
       0.007
      -0.044
      -0.071
      -0.077
      -0.072
      -0.066
      -0.063
      -0.069
      -0.090
      -0.129
      -0.178
      -0.222
      -0.241
      -0.217
      -0.146
      -0.044
       0.056
       0.124
       0.148
       0.137
       0.111
       0.090
       0.087
       0.110
       0.154
       0.203
       0.242
       0.256
       0.233
       0.167
       0.064
      -0.048
      -0.131
      -0.164
      -0.154
      -0.130
      -0.116
      -0.125
      -0.151
      -0.185
      -0.215
      -0.229
      -0.219
      -0.181
      -0.113
      -0.022
       0.070
       0.133
       0.151
       0.134
       0.100
       0.068
       0.042
       0.030
       0.034
       0.052
       0.070
       0.075
       0.064
       0.042
       0.016
       0.000
       0.003
       0.028
       0.065
       0.099
       0.120
       0.124
       0.112
       0.079
       0.027
      -0.032
      -0.082
      -0.110
      -0.110
      -0.089
      -0.060
      -0.034
      -0.015
      -0.004
      -0.003
      -0.017
      -0.050
      -0.092
      -0.122
      -0.125
      -0.108
      -0.085
      -0.070
      -0.061
      -0.050
      -0.036
      -0.021
      -0.012
      -0.008
      -0.005
       0.005
       0.032
       0.078
       0.137
       0.197
       0.242
       0.255
       0.224
       0.150
       0.055
      -0.028
      -0.070
      -0.065
      -0.028
       0.015
       0.041
       0.039
       0.013
      -0.032
      -0.091
      -0.162
      -0.225
      -0.250
      -0.213
      -0.123
      -0.016
       0.071
       0.123
       0.146
       0.148
       0.132
       0.104
       0.076
       0.060
       0.060
       0.072
       0.084
       0.088
       0.072
       0.029
      -0.038
      -0.114
      -0.176
      -0.204
      -0.187
      -0.134
      -0.072
      -0.032
      -0.032
      -0.064
      -0.102
      -0.117
      -0.089
      -0.015
       0.089
       0.193
       0.269
       0.299
       0.281
       0.219
       0.128
       0.033
      -0.041
      -0.081
      -0.090
      -0.086
      -0.089
      -0.109
      -0.145
      -0.182
      -0.203
      -0.195
      -0.161
      -0.110
      -0.056
      -0.008
       0.024
       0.034
       0.030
       0.026
       0.038
       0.072
       0.120
       0.173
       0.221
       0.253
       0.258
       0.235
       0.193
       0.153
       0.129
       0.124
       0.129
       0.128
       0.106
       0.053
      -0.022
      -0.103
      -0.169
      -0.210
      -0.223
      -0.206
      -0.167
      -0.123
      -0.093
      -0.084
      -0.087
      -0.081
      -0.057
      -0.015
       0.029
       0.061
       0.072
       0.068
       0.062
       0.059
       0.053
       0.039
       0.019
      -0.003
      -0.031
      -0.066
      -0.101
      -0.121
      -0.116
      -0.094
      -0.069
      -0.051
      -0.043
      -0.039
      -0.031
      -0.005
       0.044
       0.108
       0.165
       0.194
       0.186
       0.153
       0.106
       0.056
       0.012
      -0.015
      -0.017
       0.004
       0.039
       0.071
       0.085
       0.074
       0.043
      -0.002
      -0.057
      -0.120
      -0.181
      -0.216
      -0.206
      -0.157
      -0.098
      -0.060
      -0.056
      -0.075
      -0.092
      -0.086
      -0.047
       0.014
       0.072
       0.105
       0.104
       0.080
       0.049
       0.028
       0.027
       0.043
       0.061
       0.067
       0.060
       0.050
       0.048
       0.052
       0.057
       0.060
       0.062
       0.069
       0.081
       0.091
       0.089
       0.067
       0.019
      -0.042
      -0.092
      -0.113
      -0.105
      -0.089
      -0.081
      -0.085
      -0.095
      -0.110
      -0.124
      -0.130
      -0.118
      -0.088
      -0.052
      -0.029
      -0.028
      -0.042
      -0.050
      -0.028
       0.031
       0.112
       0.192
       0.250
       0.276
       0.260
       0.202
       0.117
       0.037
      -0.009
      -0.014
       0.007
       0.031
       0.038
       0.018
      -0.026
      -0.080
      -0.125
      -0.147
      -0.144
      -0.116
      -0.061
       0.016
       0.097
       0.155
       0.163
       0.110
       0.014
      -0.088
      -0.161
      -0.188
      -0.178
      -0.146
      -0.102
      -0.047
       0.013
       0.055
       0.057
       0.024
      -0.015
      -0.031
      -0.014
       0.027
       0.075
       0.112
       0.121
       0.089
       0.016
      -0.080
      -0.171
      -0.228
      -0.228
      -0.171
      -0.079
       0.013
       0.075
       0.096
       0.081
       0.042
      -0.006
      -0.040
      -0.042
      -0.006
       0.052
       0.107
       0.130
       0.111
       0.062
       0.016
      -0.001
       0.011
       0.035
       0.058
       0.074
       0.077
       0.048
      -0.030
      -0.150
      -0.272
      -0.337
      -0.311
      -0.200
      -0.043
       0.108
       0.208
       0.231
       0.176
       0.075
      -0.024
      -0.077
      -0.059
       0.020
       0.123
       0.203
       0.230
       0.202
       0.135
       0.054
      -0.014
      -0.043
      -0.022
       0.037
       0.099
       0.124
       0.092
       0.007
      -0.101
      -0.190
      -0.233
      -0.228
      -0.198
      -0.168
      -0.145
      -0.123
      -0.090
      -0.045
       0.004
       0.043
       0.065
       0.069
       0.059
       0.044
       0.029
       0.020
       0.023
       0.043
       0.079
       0.117
       0.139
       0.135
       0.111
       0.080
       0.051
       0.025
      -0.003
      -0.038
      -0.084
      -0.134
      -0.171
      -0.174
      -0.139
      -0.079
      -0.005
       0.072
       0.142
       0.190
       0.206
       0.201
       0.195
       0.200
       0.219
       0.243
       0.267
       0.285
       0.288
       0.263
       0.200
       0.109
       0.016
      -0.040
      -0.041
       0.000
       0.047
       0.070
       0.065
       0.046
       0.024
       0.005
      -0.005
       0.005
       0.039
       0.081
       0.103
       0.092
       0.056
       0.020
       0.005
       0.016
       0.042
       0.062
       0.059
       0.030
      -0.013
      -0.052
      -0.076
      -0.083
      -0.082
      -0.083
      -0.101
      -0.145
      -0.212
      -0.280
      -0.329
      -0.347
      -0.335
      -0.308
      -0.295
      -0.321
      -0.389
      -0.472
      -0.535
      -0.555
      -0.543
      -0.521
      -0.503
      -0.486
      -0.454
      -0.393
      -0.298
      -0.175
      -0.040
       0.091
       0.207
       0.302
       0.380
       0.445
       0.510
       0.580
       0.656
       0.726
       0.770
       0.769
       0.710
       0.593
       0.434
       0.262
       0.104
      -0.028
      -0.139
      -0.249
      -0.376
      -0.530
      -0.704
      -0.880
      -1.025
      -1.114
      -1.138
      -1.104
      -1.025
      -0.908
      -0.770
      -0.634
      -0.520
      -0.432
      -0.351
      -0.255
      -0.134
       0.006
       0.156
       0.314
       0.486
       0.667
       0.833
       0.947
       0.993
       0.989
       0.973
       0.970
       0.981
       0.993
       0.996
       0.985
       0.949
       0.870
       0.729
       0.521
       0.264
      -0.008
      -0.249
      -0.414
      -0.479
      -0.452
      -0.370
      -0.286
      -0.242
      -0.256
      -0.316
      -0.387
      -0.433
      -0.437
      -0.412
      -0.383
      -0.376
      -0.394
      -0.429
      -0.466
      -0.494
      -0.516
      -0.531
      -0.532
      -0.493
      -0.390
      -0.224
      -0.017
       0.199
       0.405
       0.595
       0.762
       0.899
       1.001
       1.070
       1.105
       1.092
       1.019
       0.878
       0.675
       0.432
       0.181
      -0.048
      -0.235
      -0.382
      -0.501
      -0.609
      -0.715
      -0.816
      -0.902
      -0.960
      -0.977
      -0.952
      -0.894
      -0.818
      -0.733
      -0.638
      -0.518
      -0.350
      -0.120
       0.170
       0.482
       0.770
       0.995
       1.144
       1.217
       1.220
       1.168
       1.086
       1.001
       0.915
       0.808
       0.658
       0.456
       0.215
      -0.043
      -0.289
      -0.497
      -0.640
      -0.703
      -0.679
      -0.585
      -0.456
      -0.335
      -0.251
      -0.212
      -0.207
      -0.219
      -0.240
      -0.263
      -0.281
      -0.286
      -0.268
      -0.214
      -0.121
       0.003
       0.131
       0.232
       0.282
       0.273
       0.212
       0.111
      -0.011
      -0.128
      -0.211
      -0.246
      -0.243
      -0.229
      -0.242
      -0.303
      -0.417
      -0.564
      -0.717
      -0.853
      -0.950
      -0.988
      -0.948
      -0.825
      -0.631
      -0.382
      -0.091
       0.235
       0.577
       0.902
       1.169
       1.343
       1.406
       1.364
       1.247
       1.095
       0.943
       0.800
       0.663
       0.526
       0.388
       0.251
       0.123
       0.013
      -0.071
      -0.126
      -0.159
      -0.179
      -0.200
      -0.230
      -0.270
      -0.310
      -0.332
      -0.328
      -0.302
      -0.269
      -0.246
      -0.261
      -0.342
      -0.506
      -0.735
      -0.976
      -1.164
      -1.256
      -1.242
      -1.135
      -0.960
      -0.745
      -0.519
      -0.297
      -0.077
       0.157
       0.423
       0.734
       1.085
       1.445
       1.762
       1.983
       2.074
       2.025
       1.849
       1.569
       1.220
       0.836
       0.437
       0.030
      -0.378
      -0.766
      -1.100
      -1.342
      -1.464
      -1.450
      -1.303
      -1.050
      -0.729
      -0.372
      -0.008
       0.331
       0.597
       0.744
       0.743
       0.609
       0.396
       0.178
       0.023
      -0.038
      -0.013
       0.057
       0.122
       0.138
       0.079
      -0.051
      -0.222
      -0.384
      -0.497
      -0.550
      -0.556
      -0.539
      -0.523
      -0.522
      -0.542
      -0.573
      -0.592
      -0.579
      -0.538
      -0.490
      -0.462
      -0.477
      -0.542
      -0.642
      -0.743
      -0.798
      -0.766
      -0.628
      -0.397
      -0.116
       0.152
       0.342
       0.406
       0.325
       0.115
      -0.175
      -0.478
      -0.731
      -0.889
      -0.940
      -0.893
      -0.760
      -0.553
      -0.283
       0.038
       0.389
       0.739
       1.037
       1.220
       1.237
       1.077
       0.776
       0.401
       0.026
      -0.285
      -0.490
      -0.578
      -0.571
      -0.503
      -0.401
      -0.274
      -0.121
       0.063
       0.275
       0.489
       0.660
       0.739
       0.699
       0.549
       0.324
       0.070
      -0.166
      -0.350
      -0.464
      -0.505
      -0.474
      -0.371
      -0.209
      -0.019
       0.163
       0.314
       0.430
       0.518
       0.586
       0.645
       0.709
       0.796
       0.915
       1.063
       1.214
       1.330
       1.375
       1.337
       1.234
       1.089
       0.920
       0.732
       0.531
       0.330
       0.141
      -0.031
      -0.181
      -0.300
      -0.371
      -0.376
      -0.305
      -0.164
       0.037
       0.279
       0.541
       0.798
       1.024
       1.186
       1.258
       1.236
       1.147
       1.037
       0.940
       0.866
       0.806
       0.748
       0.695
       0.654
       0.631
       0.627
       0.635
       0.646
       0.650
       0.636
       0.587
       0.481
       0.306
       0.071
      -0.198
      -0.483
      -0.784
      -1.112
      -1.481
      -1.894
      -2.342
      -2.804
      -3.241
      -3.602
      -3.827
      -3.859
      -3.669
      -3.268
      -2.714
      -2.088
      -1.474
      -0.933
      -0.502
      -0.188
       0.024
       0.163
       0.255
       0.314
       0.343
       0.349
       0.349
       0.380
       0.484
       0.690
       0.994
       1.357
       1.711
       1.987
       2.139
       2.152
       2.034
       1.799
       1.469
       1.071
       0.632
       0.177
      -0.273
      -0.699
      -1.084
      -1.408
      -1.645
      -1.770
      -1.766
      -1.632
      -1.376
      -1.007
      -0.541
      -0.009
       0.541
       1.064
       1.523
       1.888
       2.137
       2.248
       2.216
       2.050
       1.782
       1.454
       1.109
       0.775
       0.462
       0.168
      -0.107
      -0.364
      -0.595
      -0.793
      -0.952
      -1.071
      -1.156
      -1.213
      -1.232
      -1.193
      -1.078
      -0.895
      -0.679
      -0.481
      -0.334
      -0.247
      -0.207
      -0.206
      -0.247
      -0.343
      -0.500
      -0.700
      -0.901
      -1.051
      -1.109
      -1.056
      -0.891
      -0.634
      -0.318
       0.011
       0.317
       0.578
       0.779
       0.906
       0.957
       0.950
       0.912
       0.866
       0.825
       0.801
       0.804
       0.835
       0.878
       0.915
       0.926
       0.895
       0.814
       0.688
       0.531
       0.356
       0.166
      -0.042
      -0.262
      -0.472
      -0.644
      -0.756
      -0.804
      -0.799
      -0.750
      -0.657
      -0.517
      -0.337
      -0.143
       0.020
       0.107
       0.082
      -0.064
      -0.314
      -0.623
      -0.929
      -1.169
      -1.293
      -1.282
      -1.142
      -0.891
      -0.546
      -0.127
       0.340
       0.819
       1.276
       1.676
       1.995
       2.214
       2.314
       2.271
       2.072
       1.726
       1.273
       0.769
       0.269
      -0.188
      -0.570
      -0.856
      -1.029
      -1.085
      -1.039
      -0.921
      -0.766
      -0.605
      -0.451
      -0.314
      -0.216
      -0.189
      -0.249
      -0.372
      -0.500
      -0.571
      -0.552
      -0.448
      -0.289
      -0.109
       0.066
       0.221
       0.345
       0.430
       0.460
       0.426
       0.329
       0.187
       0.030
      -0.114
      -0.214
      -0.247
      -0.204
      -0.095
       0.052
       0.198
       0.300
       0.324
       0.251
       0.092
      -0.114
      -0.321
      -0.492
      -0.616
      -0.708
      -0.796
      -0.892
      -0.980
      -1.027
      -1.021
      -0.974
      -0.910
      -0.835
      -0.734
      -0.580
      -0.355
      -0.057
       0.287
       0.628
       0.909
       1.089
       1.160
       1.133
       1.025
       0.848
       0.617
       0.362
       0.121
      -0.070
      -0.200
      -0.279
      -0.324
      -0.350
      -0.356
      -0.335
      -0.276
      -0.172
      -0.017
       0.187
       0.429
       0.672
       0.861
       0.938
       0.872
       0.669
       0.378
       0.073
      -0.166
      -0.286
      -0.283
      -0.204
      -0.123
      -0.103
      -0.172
      -0.316
      -0.491
      -0.646
      -0.743
      -0.758
      -0.682
      -0.522
      -0.313
      -0.117
       0.004
       0.027
      -0.013
      -0.040
       0.022
       0.209
       0.496
       0.810
       1.066
       1.204
       1.202
       1.075
       0.861
       0.610
       0.375
       0.193
       0.077
       0.011
      -0.040
      -0.102
      -0.180
      -0.251
      -0.284
      -0.252
      -0.145
       0.020
       0.211
       0.401
       0.569
       0.692
       0.738
       0.680
       0.517
       0.275
      -0.008
      -0.300
      -0.580
      -0.826
      -1.030
      -1.196
      -1.332
      -1.436
      -1.492
      -1.469
      -1.339
      -1.084
      -0.709
      -0.248
       0.243
       0.696
       1.044
       1.240
       1.275
       1.187
       1.054
       0.943
       0.890
       0.885
       0.889
       0.852
       0.727
       0.491
       0.159
      -0.217
      -0.569
      -0.839
      -1.000
      -1.053
      -1.026
      -0.958
      -0.890
      -0.847
      -0.830
      -0.815
      -0.770
      -0.668
      -0.498
      -0.267
      -0.001
       0.276
       0.541
       0.767
       0.924
       0.993
       0.978
       0.899
       0.772
       0.599
       0.381
       0.127
      -0.147
      -0.416
      -0.649
      -0.813
      -0.883
      -0.855
      -0.746
      -0.595
      -0.446
      -0.338
      -0.296
      -0.326
      -0.420
      -0.559
      -0.712
      -0.838
      -0.891
      -0.844
      -0.694
      -0.461
      -0.180
       0.110
       0.375
       0.593
       0.759
       0.878
       0.956
       1.000
       1.025
       1.050
       1.090
       1.141
       1.185
       1.205
       1.187
       1.123
       1.006
       0.832
       0.608
       0.349
       0.086
      -0.154
      -0.354
      -0.511
      -0.629
      -0.707
      -0.745
      -0.748
      -0.730
      -0.701
      -0.650
      -0.547
      -0.380
      -0.171
       0.042
       0.223
       0.346
       0.391
       0.352
       0.247
       0.108
      -0.030
      -0.145
      -0.238
      -0.324
      -0.416
      -0.509
      -0.583
      -0.615
      -0.592
      -0.515
      -0.396
      -0.254
      -0.113
      -0.003
       0.058
       0.068
       0.041
      -0.008
      -0.068
      -0.128
      -0.174
      -0.184
      -0.150
      -0.072
       0.041
       0.182
       0.336
       0.474
       0.565
       0.596
       0.583
       0.563
       0.575
       0.637
       0.730
       0.805
       0.815
       0.743
       0.607
       0.446
       0.298
       0.187
