Origin Time       07/07/2008 02:50:36
Lat.              26.1 N 
Long.             95.1 E 
Depth (Km)         73.0
Magnitude         5.1
 Region           Nagaland-Myanmar                                                 
 Above details taken from IMD 
     
Station Code      TIN
Station Lat.       27.503  N
Station Long.      95.332  E
Station Height(m)    0.0
Site Class        C   Vs30 between 200 m/sec to 375 m/sec *  
Record Time       07.07.2008 02:51:13.869
Sampling Rate     200. Hz
 Record Duration   66.100 Sec.
 Direction         E-W (E positive)
Max. Acceleration     -7.364 cm/sec**2
     
  * For reference see Site Classification link of website 
     
 Base Line Corrected and Low Pass Filtered (Cut Off at 35 Hz) Time History
 Acceleration data in cm/sec**2
    
[...]
       0.413
       0.380
       0.323
       0.251
       0.171
       0.094
       0.036
       0.011
       0.025
       0.064
       0.104
       0.122
       0.107
       0.065
       0.012
      -0.038
      -0.079
      -0.116
      -0.151
      -0.188
      -0.226
      -0.257
      -0.269
      -0.251
      -0.197
      -0.121
      -0.039
       0.031
       0.084
       0.126
       0.163
       0.192
       0.202
       0.182
       0.136
       0.081
       0.036
       0.011
       0.000
      -0.013
      -0.038
      -0.075
      -0.118
      -0.154
      -0.171
      -0.157
      -0.108
      -0.031
       0.052
       0.118
       0.153
       0.163
       0.164
       0.169
       0.179
       0.189
       0.190
       0.183
       0.169
       0.147
       0.116
       0.073
       0.025
      -0.017
      -0.043
      -0.053
      -0.051
      -0.044
      -0.036
      -0.019
       0.013
       0.063
       0.117
       0.154
       0.157
       0.122
       0.059
      -0.013
      -0.075
      -0.113
      -0.119
      -0.099
      -0.068
      -0.048
      -0.055
      -0.094
      -0.154
      -0.208
      -0.232
      -0.216
      -0.159
      -0.073
       0.027
       0.123
       0.195
       0.232
       0.238
       0.221
       0.194
       0.161
       0.119
       0.056
      -0.035
      -0.150
      -0.275
      -0.394
      -0.495
      -0.565
      -0.594
      -0.565
      -0.468
      -0.308
      -0.110
       0.091
       0.260
       0.382
       0.454
       0.484
       0.483
       0.465
       0.444
       0.431
       0.429
       0.432
       0.428
       0.398
       0.328
       0.214
       0.065
      -0.103
      -0.271
      -0.414
      -0.507
      -0.536
      -0.506
      -0.440
      -0.368
      -0.314
      -0.283
      -0.266
      -0.244
      -0.202
      -0.131
      -0.031
       0.095
       0.231
       0.354
       0.431
       0.438
       0.366
       0.233
       0.079
      -0.054
      -0.141
      -0.178
      -0.175
      -0.145
      -0.094
      -0.030
       0.033
       0.074
       0.074
       0.028
      -0.048
      -0.119
      -0.156
      -0.147
      -0.098
      -0.031
       0.034
       0.078
       0.096
       0.087
       0.056
       0.010
      -0.039
      -0.081
      -0.104
      -0.099
      -0.060
       0.011
       0.100
       0.183
       0.231
       0.226
       0.163
       0.056
      -0.069
      -0.180
      -0.247
      -0.255
      -0.203
      -0.104
       0.016
       0.130
       0.210
       0.245
       0.239
       0.206
       0.162
       0.119
       0.083
       0.056
       0.038
       0.024
       0.006
      -0.019
      -0.047
      -0.067
      -0.070
      -0.056
      -0.040
      -0.034
      -0.050
      -0.089
      -0.140
      -0.188
      -0.222
      -0.235
      -0.227
      -0.197
      -0.145
      -0.080
      -0.019
       0.016
       0.015
      -0.015
      -0.057
      -0.098
      -0.130
      -0.148
      -0.142
      -0.099
      -0.012
       0.106
       0.230
       0.333
       0.405
       0.446
       0.462
       0.451
       0.413
       0.349
       0.264
       0.166
       0.056
      -0.062
      -0.178
      -0.272
      -0.321
      -0.316
      -0.269
      -0.207
      -0.157
      -0.141
      -0.168
      -0.232
      -0.319
      -0.405
      -0.471
      -0.498
      -0.474
      -0.394
      -0.261
      -0.088
       0.107
       0.300
       0.467
       0.586
       0.645
       0.642
       0.579
       0.469
       0.334
       0.202
       0.095
       0.026
      -0.013
      -0.043
      -0.082
      -0.131
      -0.173
      -0.187
      -0.162
      -0.108
      -0.047
      -0.002
       0.008
      -0.020
      -0.084
      -0.177
      -0.285
      -0.393
      -0.477
      -0.504
      -0.450
      -0.314
      -0.128
       0.058
       0.198
       0.272
       0.293
       0.287
       0.275
       0.265
       0.262
       0.270
       0.291
       0.317
       0.323
       0.284
       0.193
       0.068
      -0.059
      -0.160
      -0.230
      -0.277
      -0.309
      -0.325
      -0.316
      -0.268
      -0.182
      -0.066
       0.058
       0.174
       0.268
       0.332
       0.362
       0.355
       0.315
       0.250
       0.170
       0.084
       0.001
      -0.072
      -0.131
      -0.169
      -0.182
      -0.167
      -0.129
      -0.081
      -0.035
       0.002
       0.028
       0.047
       0.056
       0.055
       0.044
       0.031
       0.025
       0.030
       0.046
       0.064
       0.074
       0.064
       0.032
      -0.020
      -0.079
      -0.133
      -0.175
      -0.207
      -0.232
      -0.243
      -0.226
      -0.167
      -0.067
       0.052
       0.157
       0.215
       0.213
       0.153
       0.052
      -0.064
      -0.167
      -0.235
      -0.253
      -0.221
      -0.149
      -0.055
       0.043
       0.134
       0.212
       0.277
       0.327
       0.357
       0.360
       0.325
       0.245
       0.127
      -0.014
      -0.157
      -0.282
      -0.375
      -0.427
      -0.429
      -0.379
      -0.284
      -0.169
      -0.062
       0.013
       0.045
       0.038
       0.007
      -0.028
      -0.042
      -0.013
       0.071
       0.198
       0.341
       0.461
       0.525
       0.516
       0.434
       0.292
       0.114
      -0.069
      -0.227
      -0.337
      -0.387
      -0.381
      -0.330
      -0.251
      -0.157
      -0.059
       0.032
       0.103
       0.144
       0.148
       0.117
       0.054
      -0.030
      -0.118
      -0.186
      -0.212
      -0.183
      -0.105
       0.008
       0.132
       0.250
       0.346
       0.413
       0.444
       0.432
       0.376
       0.280
       0.157
       0.021
      -0.117
      -0.245
      -0.347
      -0.407
      -0.409
      -0.360
      -0.284
      -0.216
      -0.181
      -0.178
      -0.186
      -0.177
      -0.135
      -0.066
       0.014
       0.088
       0.148
       0.191
       0.211
       0.202
       0.160
       0.096
       0.032
      -0.008
      -0.007
       0.035
       0.095
       0.147
       0.168
       0.156
       0.124
       0.093
       0.080
       0.088
       0.108
       0.124
       0.123
       0.102
       0.060
      -0.001
      -0.078
      -0.162
      -0.242
      -0.299
      -0.318
      -0.286
      -0.205
      -0.099
      -0.001
       0.062
       0.078
       0.061
       0.034
       0.021
       0.033
       0.060
       0.082
       0.079
       0.039
      -0.034
      -0.124
      -0.200
      -0.231
      -0.198
      -0.099
       0.046
       0.208
       0.354
       0.452
       0.482
       0.432
       0.302
       0.114
      -0.096
      -0.283
      -0.414
      -0.472
      -0.461
      -0.396
      -0.298
      -0.193
      -0.102
      -0.038
       0.003
       0.041
       0.098
       0.182
       0.283
       0.377
       0.436
       0.446
       0.405
       0.322
       0.215
       0.105
       0.015
      -0.045
      -0.078
      -0.101
      -0.139
      -0.212
      -0.324
      -0.455
      -0.567
      -0.613
      -0.556
      -0.389
      -0.143
       0.125
       0.358
       0.512
       0.573
       0.548
       0.461
       0.335
       0.197
       0.073
      -0.014
      -0.055
      -0.058
      -0.045
      -0.040
      -0.057
      -0.097
      -0.151
      -0.199
      -0.227
      -0.229
      -0.208
      -0.174
      -0.143
      -0.127
      -0.134
      -0.155
      -0.178
      -0.190
      -0.183
      -0.157
      -0.117
      -0.070
      -0.024
       0.011
       0.030
       0.032
       0.025
       0.022
       0.035
       0.063
       0.094
       0.115
       0.116
       0.093
       0.046
      -0.017
      -0.088
      -0.152
      -0.192
      -0.197
      -0.164
      -0.099
      -0.012
       0.085
       0.182
       0.270
       0.339
       0.386
       0.410
       0.415
       0.399
       0.357
       0.285
       0.180
       0.046
      -0.105
      -0.260
      -0.404
      -0.523
      -0.607
      -0.640
      -0.610
      -0.513
      -0.360
      -0.176
       0.005
       0.162
       0.291
       0.395
       0.477
       0.526
       0.524
       0.457
       0.328
       0.154
      -0.033
      -0.199
      -0.313
      -0.358
      -0.335
      -0.262
      -0.174
      -0.106
      -0.076
      -0.083
      -0.110
      -0.133
      -0.133
      -0.104
      -0.055
      -0.002
       0.039
       0.061
       0.064
       0.047
       0.002
      -0.073
      -0.173
      -0.278
      -0.366
      -0.416
      -0.417
      -0.372
      -0.287
      -0.175
      -0.051
       0.070
       0.172
       0.242
       0.276
       0.277
       0.249
       0.199
       0.134
       0.061
      -0.013
      -0.085
      -0.152
      -0.215
      -0.272
      -0.310
      -0.312
      -0.264
      -0.164
      -0.023
       0.137
       0.288
       0.396
       0.435
       0.390
       0.274
       0.120
      -0.031
      -0.139
      -0.188
      -0.182
      -0.141
      -0.092
      -0.058
      -0.059
      -0.109
      -0.208
      -0.340
      -0.473
      -0.566
      -0.584
      -0.511
      -0.353
      -0.132
       0.132
       0.420
       0.718
       1.002
       1.246
       1.424
       1.521
       1.537
       1.482
       1.372
       1.215
       1.015
       0.778
       0.520
       0.269
       0.047
      -0.132
      -0.267
      -0.363
      -0.429
      -0.467
      -0.475
      -0.440
      -0.348
      -0.193
       0.014
       0.243
       0.453
       0.603
       0.667
       0.643
       0.551
       0.431
       0.324
       0.253
       0.215
       0.184
       0.133
       0.042
      -0.094
      -0.259
      -0.425
      -0.562
      -0.646
      -0.664
      -0.618
      -0.530
      -0.431
      -0.355
      -0.317
      -0.319
      -0.340
      -0.357
      -0.348
      -0.299
      -0.209
      -0.081
       0.076
       0.253
       0.439
       0.618
       0.772
       0.888
       0.963
       0.996
       0.984
       0.915
       0.764
       0.512
       0.158
      -0.272
      -0.730
      -1.167
      -1.541
      -1.827
      -2.006
      -2.061
      -1.973
      -1.738
      -1.370
      -0.900
      -0.375
       0.154
       0.632
       1.020
       1.294
       1.449
       1.497
       1.459
       1.359
       1.213
       1.025
       0.798
       0.536
       0.246
      -0.065
      -0.391
      -0.715
      -1.009
      -1.239
      -1.373
      -1.397
      -1.325
      -1.188
      -1.023
      -0.854
      -0.692
      -0.537
      -0.385
      -0.232
      -0.075
       0.079
       0.211
       0.301
       0.337
       0.328
       0.295
       0.260
       0.228
       0.192
       0.139
       0.058
      -0.056
      -0.209
      -0.400
      -0.623
      -0.851
      -1.052
      -1.193
      -1.257
      -1.251
      -1.201
      -1.134
      -1.072
      -1.026
      -0.995
      -0.976
      -0.958
      -0.928
      -0.872
      -0.771
      -0.612
      -0.387
      -0.109
       0.195
       0.498
       0.787
       1.055
       1.297
       1.501
       1.660
       1.770
       1.829
       1.836
       1.787
       1.685
       1.529
       1.310
       1.006
       0.595
       0.080
      -0.495
      -1.052
      -1.502
      -1.766
      -1.792
      -1.553
      -1.064
      -0.392
       0.343
       1.002
       1.473
       1.701
       1.690
       1.484
       1.144
       0.732
       0.300
      -0.108
      -0.461
      -0.733
      -0.910
      -0.994
      -1.010
      -0.998
      -0.996
      -1.021
      -1.064
      -1.101
      -1.123
      -1.141
      -1.172
      -1.209
      -1.205
      -1.083
      -0.777
      -0.266
       0.407
       1.158
       1.889
       2.523
       3.016
       3.345
       3.478
       3.368
       2.976
       2.310
       1.442
       0.488
      -0.437
      -1.255
      -1.920
      -2.404
      -2.677
      -2.724
      -2.552
      -2.199
      -1.719
      -1.169
      -0.594
      -0.036
       0.463
       0.871
       1.173
       1.386
       1.550
       1.701
       1.856
       1.999
       2.095
       2.101
       1.979
       1.701
       1.263
       0.694
       0.060
      -0.553
      -1.069
      -1.441
      -1.661
      -1.741
      -1.696
      -1.536
      -1.268
      -0.911
      -0.503
      -0.092
       0.273
       0.550
       0.701
       0.703
       0.554
       0.275
      -0.084
      -0.459
      -0.784
      -1.007
      -1.094
      -1.036
      -0.852
      -0.585
      -0.302
      -0.069
       0.071
       0.114
       0.092
       0.056
       0.054
       0.106
       0.210
       0.351
       0.515
       0.699
       0.907
       1.138
       1.373
       1.582
       1.731
       1.799
       1.778
       1.679
       1.522
       1.341
       1.166
       1.010
       0.853
       0.651
       0.356
      -0.064
      -0.616
      -1.282
      -2.016
      -2.747
      -3.393
      -3.879
      -4.150
      -4.184
      -3.971
      -3.504
      -2.786
      -1.835
      -0.698
       0.554
       1.831
       3.040
       4.095
       4.932
       5.508
       5.790
       5.740
       5.315
       4.476
       3.213
       1.569
      -0.349
      -2.366
      -4.263
      -5.823
      -6.882
      -7.364
      -7.273
      -6.680
      -5.696
      -4.457
      -3.091
      -1.702
      -0.353
       0.930
       2.131
       3.216
       4.117
       4.752
       5.063
       5.025
       4.650
       3.969
       3.036
       1.941
       0.807
      -0.233
      -1.068
      -1.634
      -1.916
      -1.934
      -1.744
      -1.419
      -1.036
      -0.654
      -0.307
      -0.006
       0.247
       0.455
       0.626
       0.766
       0.874
       0.937
       0.935
       0.852
       0.685
       0.437
       0.114
      -0.268
      -0.668
      -1.017
      -1.238
      -1.288
      -1.167
      -0.918
      -0.604
      -0.303
      -0.080
       0.031
       0.042
      -0.003
      -0.058
      -0.101
      -0.136
      -0.178
      -0.233
      -0.298
      -0.365
      -0.429
      -0.483
      -0.517
      -0.516
      -0.473
      -0.403
      -0.331
      -0.287
      -0.293
      -0.359
      -0.484
      -0.651
      -0.837
      -1.018
      -1.173
      -1.275
      -1.287
      -1.170
      -0.905
      -0.506
      -0.025
       0.472
       0.929
       1.322
       1.647
       1.909
       2.097
       2.198
       2.208
       2.145
       2.035
       1.897
       1.731
       1.532
       1.303
       1.054
       0.795
       0.524
       0.222
      -0.136
      -0.570
      -1.088
      -1.681
      -2.321
      -2.943
      -3.442
      -3.689
      -3.575
      -3.059
      -2.196
      -1.116
       0.017
       1.055
       1.884
       2.427
       2.649
       2.558
       2.216
       1.718
       1.178
       0.702
       0.368
       0.203
       0.189
       0.268
       0.376
       0.448
       0.432
       0.287
      -0.009
      -0.447
      -0.977
      -1.509
      -1.937
      -2.165
      -2.136
      -1.837
      -1.297
      -0.581
       0.219
       1.001
       1.670
       2.152
       2.403
       2.414
       2.207
       1.829
       1.331
       0.760
       0.145
      -0.494
      -1.133
      -1.743
      -2.275
      -2.675
      -2.893
      -2.908
      -2.742
      -2.451
      -2.101
      -1.743
      -1.392
      -1.040
      -0.667
      -0.267
       0.148
       0.561
       0.960
       1.341
       1.700
       2.008
       2.224
       2.318
       2.298
       2.201
       2.062
       1.881
       1.622
       1.242
       0.728
       0.110
      -0.548
      -1.167
      -1.676
      -2.029
      -2.210
      -2.228
      -2.103
      -1.861
      -1.533
      -1.157
      -0.773
      -0.410
      -0.068
       0.291
       0.723
       1.269
       1.916
       2.591
       3.181
       3.572
       3.681
       3.469
       2.942
       2.139
       1.113
      -0.070
      -1.335
      -2.583
      -3.693
      -4.538
      -5.011
      -5.037
      -4.588
      -3.682
      -2.403
      -0.899
       0.637
       2.020
       3.107
       3.821
       4.137
       4.059
       3.616
       2.865
       1.902
       0.832
      -0.250
      -1.274
      -2.174
      -2.876
      -3.299
      -3.393
      -3.160
      -2.645
      -1.921
      -1.063
      -0.144
       0.760
       1.564
       2.198
       2.612
       2.799
       2.789
       2.641
       2.417
       2.153
       1.844
       1.461
       0.976
       0.389
      -0.258
      -0.892
      -1.420
      -1.769
      -1.911
      -1.869
      -1.707
      -1.493
      -1.276
      -1.071
      -0.865
      -0.634
      -0.360
      -0.039
       0.326
       0.723
       1.129
       1.502
       1.775
       1.877
       1.752
       1.399
       0.884
       0.336
      -0.103
      -0.324
      -0.289
      -0.038
       0.330
       0.693
       0.939
       0.997
       0.851
       0.522
       0.054
      -0.504
      -1.093
      -1.638
      -2.067
      -2.326
      -2.397
      -2.288
      -2.018
      -1.606
      -1.072
      -0.450
       0.205
       0.820
       1.309
       1.589
       1.608
       1.363
       0.904
       0.320
      -0.283
      -0.801
      -1.144
      -1.247
      -1.083
      -0.672
      -0.085
       0.570
       1.181
       1.654
       1.933
       1.998
       1.866
       1.595
       1.264
       0.954
       0.716
       0.560
       0.466
       0.396
       0.313
       0.188
       0.011
      -0.215
      -0.466
      -0.708
      -0.895
      -0.989
      -0.977
      -0.872
      -0.710
      -0.528
      -0.359
      -0.232
      -0.169
      -0.190
      -0.310
      -0.528
      -0.827
      -1.163
      -1.471
      -1.680
      -1.734
      -1.606
      -1.298
      -0.838
      -0.281
       0.294
       0.791
       1.136
       1.303
       1.321
       1.239
       1.098
       0.918
       0.703
       0.460
       0.207
      -0.035
      -0.257
      -0.460
      -0.645
      -0.807
      -0.929
      -0.995
      -0.997
      -0.942
      -0.839
      -0.693
      -0.498
      -0.253
       0.037
       0.351
       0.657
       0.927
       1.141
       1.292
       1.379
       1.409
       1.389
       1.332
       1.243
       1.117
       0.931
       0.661
       0.299
      -0.132
      -0.586
      -1.013
      -1.374
      -1.648
      -1.832
      -1.934
      -1.967
      -1.934
      -1.830
      -1.637
      -1.332
      -0.898
      -0.339
       0.314
       0.992
       1.611
       2.085
       2.356
       2.393
       2.190
       1.764
       1.157
       0.434
      -0.316
      -1.003
      -1.556
      -1.943
      -2.166
      -2.248
      -2.211
      -2.063
      -1.796
      -1.401
      -0.881
      -0.255
       0.446
       1.181
       1.894
       2.510
       2.944
       3.124
       3.018
       2.640
       2.044
       1.308
       0.517
      -0.249
      -0.918
      -1.437
      -1.779
