Origin Time       07/07/2008 02:50:36 UTC
Lat.              26.1 N 
Long.             95.1 E 
Depth (Km)         73.0
Magnitude         5.1
 Region           Nagaland-Myanmar                                                 
 Above details taken from IMD 
    
Station Code      TIN
Station Lat.       27.503  N
Station Long.      95.332  E
Station Height(m)    0.0
Site Class        C   Vs30 between 200 m/sec to 375 m/sec *  
Record Time       07.07.2008 02:51:13.869 UTC
Sampling Rate     200. Hz
 Record Duration   66.100 Sec.
 Direction         N-S (N positive)
Max. Acceleration     -8.440 cm/sec**2
     
  * For reference see Site Classification link of website 
     
 Base Line Corrected and Low Pass Filtered (Cut Off at 35 Hz) Time History
 Acceleration data in cm/sec**2
    
[...]
      -0.445
      -0.508
      -0.515
      -0.474
      -0.407
      -0.331
      -0.256
      -0.176
      -0.084
       0.027
       0.157
       0.305
       0.462
       0.610
       0.718
       0.752
       0.686
       0.519
       0.276
       0.000
      -0.259
      -0.458
      -0.571
      -0.594
      -0.544
      -0.454
      -0.355
      -0.270
      -0.199
      -0.126
      -0.030
       0.100
       0.256
       0.415
       0.550
       0.635
       0.657
       0.612
       0.508
       0.365
       0.207
       0.053
      -0.085
      -0.202
      -0.292
      -0.355
      -0.395
      -0.418
      -0.432
      -0.445
      -0.452
      -0.443
      -0.404
      -0.327
      -0.212
      -0.072
       0.078
       0.217
       0.325
       0.383
       0.379
       0.310
       0.190
       0.044
      -0.091
      -0.183
      -0.212
      -0.175
      -0.089
       0.022
       0.126
       0.201
       0.235
       0.233
       0.208
       0.173
       0.135
       0.088
       0.029
      -0.045
      -0.126
      -0.204
      -0.272
      -0.328
      -0.376
      -0.412
      -0.429
      -0.417
      -0.375
      -0.311
      -0.238
      -0.162
      -0.075
       0.031
       0.156
       0.287
       0.409
       0.512
       0.597
       0.665
       0.715
       0.738
       0.719
       0.647
       0.519
       0.341
       0.129
      -0.101
      -0.326
      -0.523
      -0.663
      -0.726
      -0.701
      -0.599
      -0.449
      -0.286
      -0.143
      -0.037
       0.025
       0.047
       0.043
       0.035
       0.051
       0.112
       0.219
       0.350
       0.466
       0.527
       0.506
       0.400
       0.230
       0.033
      -0.152
      -0.292
      -0.365
      -0.370
      -0.320
      -0.245
      -0.179
      -0.149
      -0.167
      -0.225
      -0.296
      -0.344
      -0.336
      -0.256
      -0.114
       0.055
       0.204
       0.293
       0.304
       0.249
       0.161
       0.081
       0.035
       0.031
       0.059
       0.100
       0.139
       0.166
       0.178
       0.171
       0.136
       0.069
      -0.024
      -0.120
      -0.192
      -0.215
      -0.185
      -0.120
      -0.048
       0.004
       0.024
       0.011
      -0.030
      -0.087
      -0.142
      -0.172
      -0.154
      -0.076
       0.050
       0.190
       0.300
       0.346
       0.317
       0.232
       0.120
       0.013
      -0.074
      -0.132
      -0.163
      -0.170
      -0.159
      -0.141
      -0.126
      -0.123
      -0.129
      -0.131
      -0.112
      -0.063
       0.014
       0.107
       0.197
       0.269
       0.317
       0.339
       0.342
       0.335
       0.324
       0.311
       0.290
       0.254
       0.194
       0.104
      -0.007
      -0.124
      -0.221
      -0.275
      -0.270
      -0.210
      -0.110
       0.003
       0.100
       0.156
       0.156
       0.105
       0.023
      -0.056
      -0.110
      -0.133
      -0.144
      -0.170
      -0.228
      -0.311
      -0.392
      -0.443
      -0.444
      -0.388
      -0.275
      -0.114
       0.078
       0.272
       0.435
       0.540
       0.568
       0.515
       0.395
       0.237
       0.081
      -0.040
      -0.110
      -0.137
      -0.143
      -0.150
      -0.169
      -0.194
      -0.211
      -0.209
      -0.184
      -0.141
      -0.085
      -0.018
       0.061
       0.152
       0.244
       0.320
       0.359
       0.345
       0.274
       0.166
       0.049
      -0.052
      -0.129
      -0.190
      -0.243
      -0.290
      -0.324
      -0.339
      -0.332
      -0.308
      -0.265
      -0.202
      -0.111
       0.007
       0.142
       0.266
       0.350
       0.370
       0.321
       0.215
       0.079
      -0.055
      -0.163
      -0.234
      -0.271
      -0.277
      -0.258
      -0.215
      -0.155
      -0.084
      -0.007
       0.076
       0.167
       0.265
       0.360
       0.433
       0.458
       0.417
       0.308
       0.154
      -0.009
      -0.141
      -0.217
      -0.224
      -0.170
      -0.075
       0.034
       0.134
       0.208
       0.246
       0.249
       0.225
       0.189
       0.157
       0.136
       0.123
       0.102
       0.062
       0.003
      -0.062
      -0.118
      -0.160
      -0.194
      -0.229
      -0.271
      -0.311
      -0.335
      -0.328
      -0.281
      -0.198
      -0.091
       0.019
       0.107
       0.155
       0.157
       0.122
       0.071
       0.027
       0.010
       0.027
       0.072
       0.132
       0.187
       0.216
       0.203
       0.140
       0.038
      -0.073
      -0.154
      -0.172
      -0.122
      -0.028
       0.066
       0.118
       0.109
       0.045
      -0.050
      -0.148
      -0.227
      -0.270
      -0.270
      -0.232
      -0.172
      -0.109
      -0.063
      -0.039
      -0.031
      -0.020
       0.020
       0.112
       0.259
       0.437
       0.603
       0.704
       0.705
       0.594
       0.385
       0.116
      -0.161
      -0.393
      -0.542
      -0.592
      -0.554
      -0.456
      -0.334
      -0.223
      -0.155
      -0.146
      -0.186
      -0.237
      -0.251
      -0.199
      -0.081
       0.073
       0.225
       0.338
       0.385
       0.347
       0.227
       0.055
      -0.113
      -0.214
      -0.208
      -0.102
       0.057
       0.202
       0.280
       0.265
       0.167
       0.016
      -0.146
      -0.270
      -0.313
      -0.249
      -0.081
       0.145
       0.360
       0.491
       0.499
       0.385
       0.194
      -0.008
      -0.156
      -0.210
      -0.163
      -0.042
       0.102
       0.214
       0.253
       0.208
       0.097
      -0.043
      -0.174
      -0.266
      -0.296
      -0.256
      -0.161
      -0.048
       0.035
       0.054
       0.004
      -0.093
      -0.200
      -0.284
      -0.325
      -0.315
      -0.257
      -0.159
      -0.045
       0.057
       0.117
       0.120
       0.071
       0.001
      -0.049
      -0.048
       0.012
       0.115
       0.228
       0.321
       0.376
       0.382
       0.336
       0.243
       0.122
       0.004
      -0.082
      -0.119
      -0.117
      -0.105
      -0.118
      -0.175
      -0.274
      -0.392
      -0.493
      -0.544
      -0.527
      -0.444
      -0.315
      -0.169
      -0.031
       0.076
       0.140
       0.157
       0.135
       0.089
       0.046
       0.034
       0.072
       0.153
       0.242
       0.283
       0.232
       0.076
      -0.155
      -0.398
      -0.585
      -0.667
      -0.629
      -0.487
      -0.279
      -0.051
       0.156
       0.310
       0.403
       0.439
       0.435
       0.414
       0.395
       0.388
       0.392
       0.389
       0.359
       0.277
       0.131
      -0.070
      -0.296
      -0.502
      -0.644
      -0.695
      -0.653
      -0.537
      -0.380
      -0.213
      -0.060
       0.069
       0.176
       0.270
       0.364
       0.465
       0.569
       0.660
       0.712
       0.695
       0.593
       0.410
       0.177
      -0.062
      -0.262
      -0.390
      -0.434
      -0.404
      -0.330
      -0.249
      -0.198
      -0.193
      -0.227
      -0.274
      -0.309
      -0.312
      -0.276
      -0.202
      -0.103
       0.002
       0.097
       0.177
       0.247
       0.321
       0.402
       0.483
       0.552
       0.591
       0.588
       0.532
       0.422
       0.271
       0.098
      -0.072
      -0.213
      -0.305
      -0.339
      -0.322
      -0.282
      -0.252
      -0.258
      -0.303
      -0.361
      -0.392
      -0.359
      -0.240
      -0.045
       0.190
       0.416
       0.588
       0.676
       0.671
       0.580
       0.432
       0.262
       0.103
      -0.027
      -0.118
      -0.166
      -0.168
      -0.132
      -0.081
      -0.046
      -0.051
      -0.099
      -0.171
      -0.235
      -0.270
      -0.272
      -0.249
      -0.217
      -0.183
      -0.150
      -0.125
      -0.118
      -0.141
      -0.197
      -0.269
      -0.322
      -0.319
      -0.240
      -0.091
       0.099
       0.294
       0.466
       0.605
       0.708
       0.770
       0.785
       0.744
       0.648
       0.502
       0.316
       0.100
      -0.131
      -0.359
      -0.556
      -0.695
      -0.757
      -0.741
      -0.670
      -0.576
      -0.496
      -0.452
      -0.440
      -0.430
      -0.382
      -0.271
      -0.096
       0.121
       0.346
       0.546
       0.687
       0.741
       0.699
       0.580
       0.424
       0.272
       0.145
       0.037
      -0.075
      -0.210
      -0.368
      -0.532
      -0.672
      -0.758
      -0.766
      -0.690
      -0.546
      -0.369
      -0.198
      -0.067
       0.005
       0.026
       0.028
       0.050
       0.122
       0.249
       0.404
       0.548
       0.641
       0.657
       0.589
       0.444
       0.241
       0.001
      -0.252
      -0.497
      -0.719
      -0.906
      -1.046
      -1.130
      -1.145
      -1.084
      -0.948
      -0.751
      -0.522
      -0.298
      -0.105
       0.043
       0.142
       0.188
       0.174
       0.098
      -0.027
      -0.172
      -0.302
      -0.397
      -0.454
      -0.480
      -0.476
      -0.438
      -0.356
      -0.229
      -0.064
       0.122
       0.303
       0.442
       0.501
       0.459
       0.325
       0.144
      -0.030
      -0.152
      -0.214
      -0.235
      -0.248
      -0.278
      -0.329
      -0.384
      -0.418
      -0.405
      -0.333
      -0.204
      -0.033
       0.159
       0.356
       0.544
       0.711
       0.842
       0.918
       0.917
       0.823
       0.635
       0.375
       0.089
      -0.168
      -0.347
      -0.418
      -0.369
      -0.202
       0.071
       0.435
       0.869
       1.340
       1.808
       2.235
       2.596
       2.878
       3.078
       3.187
       3.192
       3.072
       2.811
       2.410
       1.891
       1.299
       0.694
       0.146
      -0.281
      -0.543
      -0.629
      -0.571
      -0.430
      -0.270
      -0.134
      -0.031
       0.055
       0.153
       0.282
       0.443
       0.622
       0.792
       0.928
       1.003
       1.002
       0.916
       0.747
       0.500
       0.192
      -0.150
      -0.486
      -0.782
      -1.022
      -1.218
      -1.392
      -1.564
      -1.727
      -1.854
      -1.908
      -1.850
      -1.659
      -1.332
      -0.892
      -0.379
       0.161
       0.685
       1.160
       1.561
       1.861
       2.035
       2.062
       1.932
       1.656
       1.254
       0.751
       0.160
      -0.508
      -1.238
      -1.996
      -2.732
      -3.387
      -3.911
      -4.265
      -4.429
      -4.396
      -4.170
      -3.769
      -3.218
      -2.550
      -1.803
      -1.018
      -0.237
       0.503
       1.170
       1.736
       2.175
       2.458
       2.558
       2.452
       2.138
       1.646
       1.037
       0.386
      -0.244
      -0.829
      -1.377
      -1.921
      -2.497
      -3.127
      -3.807
      -4.502
      -5.151
      -5.678
      -6.006
      -6.077
      -5.859
      -5.347
      -4.564
      -3.553
      -2.378
      -1.113
       0.165
       1.389
       2.514
       3.514
       4.385
       5.124
       5.720
       6.139
       6.338
       6.281
       5.953
       5.372
       4.583
       3.647
       2.636
       1.625
       0.677
      -0.171
      -0.906
      -1.529
      -2.027
      -2.361
      -2.476
      -2.331
      -1.918
      -1.269
      -0.455
       0.435
       1.303
       2.064
       2.648
       3.012
       3.130
       3.005
       2.660
       2.146
       1.530
       0.878
       0.243
      -0.345
      -0.870
      -1.320
      -1.671
      -1.893
      -1.957
      -1.855
      -1.596
      -1.211
      -0.738
      -0.223
       0.275
       0.686
       0.933
       0.957
       0.740
       0.322
      -0.208
      -0.738
      -1.170
      -1.425
      -1.456
      -1.248
      -0.818
      -0.228
       0.426
       1.038
       1.518
       1.818
       1.936
       1.906
       1.777
       1.595
       1.389
       1.172
       0.946
       0.721
       0.530
       0.414
       0.400
       0.473
       0.576
       0.641
       0.622
       0.515
       0.344
       0.135
      -0.105
      -0.381
      -0.679
      -0.949
      -1.123
      -1.147
      -1.019
      -0.790
      -0.539
      -0.335
      -0.214
      -0.179
      -0.216
      -0.302
      -0.412
      -0.518
      -0.594
      -0.618
      -0.582
      -0.504
      -0.423
      -0.387
      -0.433
      -0.575
      -0.795
      -1.055
      -1.309
      -1.518
      -1.659
      -1.724
      -1.711
      -1.604
      -1.374
      -0.979
      -0.396
       0.367
       1.257
       2.184
       3.038
       3.711
       4.112
       4.186
       3.925
       3.373
       2.616
       1.758
       0.886
       0.062
      -0.682
      -1.342
      -1.931
      -2.470
      -2.969
      -3.422
      -3.808
      -4.096
      -4.246
      -4.214
      -3.962
      -3.473
      -2.756
      -1.846
      -0.787
       0.381
       1.619
       2.879
       4.093
       5.176
       6.036
       6.595
       6.792
       6.584
       5.939
       4.840
       3.299
       1.375
      -0.804
      -3.045
      -5.117
      -6.798
      -7.929
      -8.440
      -8.350
      -7.734
      -6.692
      -5.341
      -3.804
      -2.208
      -0.657
       0.781
       2.068
       3.169
       4.045
       4.662
       5.017
       5.141
       5.081
       4.871
       4.520
       4.019
       3.360
       2.559
       1.665
       0.765
      -0.045
      -0.688
      -1.142
      -1.433
      -1.614
      -1.724
      -1.773
      -1.748
      -1.646
      -1.484
      -1.293
      -1.100
      -0.918
      -0.754
      -0.610
      -0.482
      -0.351
      -0.181
       0.061
       0.402
       0.848
       1.392
       1.999
       2.606
       3.124
       3.468
       3.570
       3.392
       2.913
       2.116
       1.005
      -0.378
      -1.940
      -3.539
      -5.021
      -6.242
      -7.101
      -7.541
      -7.546
      -7.119
      -6.272
      -5.036
      -3.479
      -1.718
       0.096
       1.804
       3.278
       4.434
       5.238
       5.695
       5.830
       5.665
       5.204
       4.442
       3.388
       2.102
       0.705
      -0.645
      -1.794
      -2.628
      -3.089
      -3.180
      -2.951
      -2.486
      -1.885
      -1.241
      -0.628
      -0.098
       0.312
       0.573
       0.680
       0.653
       0.540
       0.414
       0.343
       0.369
       0.486
       0.652
       0.819
       0.957
       1.056
       1.104
       1.076
       0.937
       0.670
       0.303
      -0.104
      -0.484
      -0.792
      -1.002
      -1.100
      -1.073
      -0.921
      -0.678
      -0.414
      -0.217
      -0.157
      -0.255
      -0.488
      -0.808
      -1.160
      -1.476
      -1.679
      -1.690
      -1.463
      -1.001
      -0.368
       0.340
       1.028
       1.628
       2.102
       2.421
       2.545
       2.427
       2.044
       1.419
       0.636
      -0.193
      -0.955
      -1.559
      -1.952
      -2.120
      -2.084
      -1.896
      -1.613
      -1.276
      -0.897
      -0.461
       0.038
       0.581
       1.133
       1.673
       2.212
       2.768
       3.318
       3.780
       4.032
       3.967
       3.543
       2.801
       1.835
       0.764
      -0.299
      -1.259
      -2.039
      -2.585
      -2.868
      -2.894
      -2.700
      -2.344
      -1.890
      -1.382
      -0.840
      -0.271
       0.305
       0.840
       1.264
       1.499
       1.490
       1.230
       0.762
       0.187
      -0.369
      -0.777
      -0.951
      -0.858
      -0.529
      -0.035
       0.528
       1.063
       1.487
       1.743
       1.806
       1.684
       1.402
       0.998
       0.506
      -0.043
      -0.617
      -1.182
      -1.703
      -2.146
      -2.481
      -2.691
      -2.779
      -2.751
      -2.612
      -2.349
      -1.941
      -1.384
      -0.710
       0.016
       0.722
       1.367
       1.950
       2.482
       2.951
       3.302
       3.446
       3.300
       2.828
       2.055
       1.057
      -0.062
      -1.193
      -2.227
      -3.074
      -3.662
      -3.944
      -3.884
      -3.474
      -2.755
      -1.828
      -0.831
       0.108
       0.907
       1.529
       1.970
       2.231
       2.307
       2.189
       1.880
       1.407
       0.839
       0.270
      -0.205
      -0.523
      -0.670
      -0.681
      -0.609
      -0.502
      -0.378
      -0.236
      -0.070
       0.110
       0.263
       0.340
       0.313
       0.205
       0.085
       0.035
       0.099
       0.255
       0.432
       0.544
       0.529
       0.365
       0.073
      -0.288
      -0.634
      -0.880
      -0.961
      -0.861
      -0.608
      -0.271
       0.071
       0.354
       0.542
       0.621
       0.574
       0.378
       0.025
      -0.442
      -0.927
      -1.311
      -1.505
      -1.482
      -1.272
      -0.925
      -0.483
       0.031
       0.607
       1.221
       1.835
       2.395
       2.838
       3.108
       3.162
       2.980
       2.572
       1.982
       1.274
       0.512
      -0.251
      -0.970
      -1.598
      -2.083
      -2.387
      -2.510
      -2.491
      -2.390
      -2.251
      -2.093
      -1.902
      -1.656
      -1.334
      -0.934
      -0.479
      -0.016
       0.401
       0.735
       0.976
       1.147
       1.277
       1.385
       1.468
       1.503
       1.464
       1.338
       1.122
       0.826
       0.472
       0.095
      -0.259
      -0.536
      -0.691
      -0.700
      -0.581
      -0.392
      -0.212
      -0.108
      -0.112
      -0.223
      -0.410
      -0.632
      -0.844
      -1.005
      -1.078
      -1.041
      -0.880
      -0.602
      -0.229
       0.205
       0.661
       1.104
       1.506
       1.840
       2.085
       2.233
       2.292
       2.280
       2.204
       2.054
       1.813
       1.471
       1.035
       0.522
      -0.052
      -0.675
      -1.325
      -1.962
      -2.523
      -2.940
      -3.167
      -3.193
      -3.036
      -2.727
      -2.293
      -1.759
      -1.154
      -0.519
       0.094
       0.635
       1.072
       1.390
       1.591
       1.674
       1.629
       1.447
       1.141
       0.749
       0.319
      -0.115
      -0.543
      -0.965
      -1.369
      -1.703
      -1.899
      -1.897
      -1.676
      -1.255
      -0.685
      -0.034
       0.619
       1.189
       1.599
       1.799
       1.789
       1.614
       1.344
       1.038
       0.723
       0.394
       0.043
      -0.324
      -0.674
      -0.960
      -1.140
      -1.188
      -1.101
      -0.898
      -0.615
      -0.298
       0.006
       0.266
       0.476
       0.649
       0.803
       0.942
       1.054
       1.119
       1.123
       1.057
       0.915
       0.694
       0.396
       0.037
      -0.351
      -0.725
      -1.047
      -1.289
