Origin Time       09/1/2013 01:41:52	 UTC
Lat.              25.4 N	
Long.             94.9 E	
Depth (Km)         89.0
Magnitude         5.9
 Region           Myanmar-India-Border-Region                                      
 Above details taken from IMD 
    
Station Code      TIN
Station Lat.       27.503  N
Station Long.      95.332  E
Station Height(m)  137.0
Site Class        C   Vs30 between 200 m/sec to 375 m/sec *  
Record Time       09.01.2013 07:11:35.489 UTC
Sampling Rate     200. Hz
 Record Duration  109.375 Sec.
 Direction         N-S (N positive)
Max. Acceleration    -10.662 cm/sec**2
     
  * For reference see Site Classification link of website 
     
 Base Line Corrected and Low Pass Filtered (Cut Off at 35 Hz) Time History
 Acceleration data in cm/sec**2
    
[...]
       1.020
       1.180
       1.206
       1.160
       1.069
       0.943
       0.788
       0.610
       0.414
       0.213
       0.028
      -0.127
      -0.263
      -0.416
      -0.623
      -0.890
      -1.181
      -1.425
      -1.561
      -1.576
      -1.517
      -1.460
      -1.461
      -1.540
      -1.660
      -1.742
      -1.679
      -1.374
      -0.776
       0.098
       1.144
       2.178
       2.967
       3.312
       3.138
       2.524
       1.656
       0.743
      -0.052
      -0.670
      -1.153
      -1.598
      -2.078
      -2.576
      -2.976
      -3.123
      -2.910
      -2.354
      -1.604
      -0.874
      -0.335
      -0.033
       0.115
       0.261
       0.544
       1.023
       1.661
       2.328
       2.853
       3.097
       3.022
       2.700
       2.282
       1.924
       1.721
       1.664
       1.641
       1.502
       1.133
       0.508
      -0.308
      -1.188
      -1.973
      -2.512
      -2.716
      -2.606
      -2.327
      -2.083
      -2.024
      -2.163
      -2.387
      -2.538
      -2.496
      -2.205
      -1.665
      -0.917
      -0.032
       0.905
       1.808
       2.610
       3.251
       3.661
       3.770
       3.543
       3.021
       2.327
       1.610
       0.974
       0.453
       0.031
      -0.319
      -0.605
      -0.819
      -0.943
      -0.952
      -0.814
      -0.510
      -0.057
       0.477
       0.980
       1.321
       1.403
       1.188
       0.704
       0.043
      -0.666
      -1.281
      -1.678
      -1.781
      -1.585
      -1.156
      -0.615
      -0.092
       0.309
       0.533
       0.579
       0.490
       0.333
       0.170
       0.046
      -0.016
      -0.022
      -0.011
      -0.047
      -0.185
      -0.439
      -0.764
      -1.050
      -1.154
      -0.965
      -0.484
       0.155
       0.755
       1.162
       1.318
       1.256
       1.039
       0.735
       0.411
       0.144
       0.006
       0.028
       0.170
       0.324
       0.366
       0.212
      -0.149
      -0.647
      -1.155
      -1.524
      -1.623
      -1.378
      -0.801
       0.019
       0.931
       1.761
       2.349
       2.586
       2.441
       1.959
       1.244
       0.433
      -0.343
      -0.993
      -1.492
      -1.874
      -2.188
      -2.449
      -2.616
      -2.603
      -2.316
      -1.685
      -0.699
       0.557
       1.884
       3.006
       3.638
       3.596
       2.872
       1.655
       0.264
      -0.956
      -1.737
      -1.958
      -1.658
      -0.997
      -0.181
       0.612
       1.263
       1.708
       1.928
       1.929
       1.733
       1.376
       0.921
       0.455
       0.076
      -0.132
      -0.136
       0.031
       0.275
       0.490
       0.612
       0.642
       0.608
       0.503
       0.272
      -0.152
      -0.803
      -1.634
      -2.510
      -3.228
      -3.585
      -3.462
      -2.880
      -1.997
      -1.026
      -0.141
       0.589
       1.185
       1.702
       2.173
       2.587
       2.910
       3.119
       3.208
       3.166
       2.947
       2.476
       1.703
       0.677
      -0.427
      -1.352
      -1.863
      -1.862
      -1.428
      -0.787
      -0.209
       0.108
       0.114
      -0.098
      -0.374
      -0.603
      -0.772
      -0.933
      -1.128
      -1.353
      -1.555
      -1.683
      -1.706
      -1.629
      -1.478
      -1.290
      -1.091
      -0.896
      -0.706
      -0.497
      -0.220
       0.182
       0.722
       1.340
       1.896
       2.212
       2.139
       1.635
       0.806
      -0.134
      -0.956
      -1.514
      -1.775
      -1.786
      -1.619
      -1.345
      -1.027
      -0.726
      -0.484
      -0.311
      -0.169
       0.023
       0.350
       0.840
       1.426
       1.951
       2.235
       2.154
       1.692
       0.938
       0.064
      -0.740
      -1.327
      -1.643
      -1.728
      -1.670
      -1.552
      -1.411
      -1.243
      -1.028
      -0.761
      -0.455
      -0.135
       0.173
       0.447
       0.666
       0.807
       0.873
       0.908
       0.993
       1.203
       1.539
       1.908
       2.168
       2.205
       1.990
       1.572
       1.038
       0.458
      -0.140
      -0.766
      -1.439
      -2.141
      -2.808
      -3.345
      -3.650
      -3.648
      -3.304
      -2.639
      -1.727
      -0.678
       0.359
       1.223
       1.771
       1.933
       1.728
       1.249
       0.622
      -0.019
      -0.535
      -0.810
      -0.781
      -0.472
      -0.001
       0.469
       0.799
       0.937
       0.923
       0.837
       0.740
       0.657
       0.578
       0.468
       0.284
       0.006
      -0.325
      -0.607
      -0.722
      -0.610
      -0.298
       0.114
       0.510
       0.797
       0.911
       0.809
       0.469
      -0.085
      -0.764
      -1.425
      -1.915
      -2.133
      -2.056
      -1.724
      -1.203
      -0.565
       0.103
       0.697
       1.123
       1.331
       1.330
       1.169
       0.914
       0.626
       0.352
       0.126
      -0.042
      -0.169
      -0.296
      -0.453
      -0.640
      -0.809
      -0.897
      -0.846
      -0.613
      -0.162
       0.511
       1.349
       2.232
       3.000
       3.503
       3.644
       3.395
       2.787
       1.891
       0.798
      -0.379
      -1.502
      -2.427
      -3.050
      -3.334
      -3.318
      -3.092
      -2.756
      -2.387
      -2.024
      -1.680
      -1.357
      -1.054
      -0.760
      -0.439
      -0.038
       0.491
       1.150
       1.884
       2.593
       3.184
       3.612
       3.880
       3.995
       3.904
       3.499
       2.691
       1.510
       0.123
      -1.222
      -2.298
      -2.960
      -3.179
      -3.028
      -2.644
      -2.172
      -1.721
      -1.342
      -1.030
      -0.752
      -0.464
      -0.134
       0.239
       0.609
       0.895
       1.025
       0.979
       0.788
       0.508
       0.180
      -0.163
      -0.494
      -0.783
      -1.007
      -1.154
      -1.219
      -1.200
      -1.092
      -0.893
      -0.609
      -0.260
       0.128
       0.525
       0.891
       1.172
       1.305
       1.257
       1.041
       0.703
       0.293
      -0.155
      -0.610
      -1.030
      -1.370
      -1.602
      -1.735
      -1.824
      -1.957
      -2.214
      -2.613
      -3.076
      -3.427
      -3.457
      -3.004
      -2.033
      -0.657
       0.885
       2.314
       3.417
       4.121
       4.489
       4.645
       4.691
       4.659
       4.528
       4.270
       3.875
       3.348
       2.699
       1.936
       1.069
       0.112
      -0.908
      -1.950
      -2.958
      -3.857
      -4.556
      -4.950
      -4.941
      -4.477
      -3.603
      -2.478
      -1.344
      -0.440
       0.091
       0.252
       0.175
       0.037
      -0.030
       0.012
       0.120
       0.219
       0.255
       0.234
       0.244
       0.418
       0.859
       1.565
       2.403
       3.147
       3.558
       3.472
       2.859
       1.844
       0.661
      -0.431
      -1.240
      -1.691
      -1.813
      -1.704
      -1.478
      -1.212
      -0.914
      -0.533
      -0.006
       0.669
       1.398
       2.021
       2.381
       2.412
       2.181
       1.845
       1.556
       1.387
       1.312
       1.254
       1.150
       0.987
       0.799
       0.628
       0.479
       0.304
       0.029
      -0.400
      -0.981
      -1.663
      -2.367
      -3.011
      -3.524
      -3.863
      -4.021
      -4.013
      -3.846
      -3.514
      -3.004
      -2.327
      -1.533
      -0.704
       0.063
       0.685
       1.100
       1.259
       1.132
       0.725
       0.109
      -0.574
      -1.132
      -1.387
      -1.240
      -0.720
       0.019
       0.760
       1.320
       1.630
       1.756
       1.827
       1.947
       2.140
       2.366
       2.564
       2.673
       2.645
       2.463
       2.158
       1.799
       1.465
       1.198
       0.974
       0.696
       0.231
      -0.514
      -1.526
      -2.689
      -3.832
      -4.792
      -5.449
      -5.742
      -5.683
      -5.333
      -4.755
      -3.966
      -2.936
      -1.637
      -0.112
       1.505
       3.023
       4.259
       5.097
       5.506
       5.515
       5.168
       4.501
       3.550
       2.371
       1.054
      -0.279
      -1.491
      -2.451
      -3.054
      -3.244
      -3.024
      -2.467
      -1.704
      -0.890
      -0.165
       0.369
       0.664
       0.723
       0.601
       0.382
       0.144
      -0.065
      -0.238
      -0.390
      -0.529
      -0.644
      -0.730
      -0.814
      -0.945
      -1.143
      -1.367
      -1.535
      -1.572
      -1.436
      -1.137
      -0.725
      -0.278
       0.137
       0.497
       0.837
       1.229
       1.730
       2.327
       2.913
       3.328
       3.424
       3.126
       2.465
       1.561
       0.589
      -0.277
      -0.900
      -1.216
      -1.237
      -1.044
      -0.769
      -0.557
      -0.532
      -0.750
      -1.185
      -1.741
      -2.291
      -2.709
      -2.899
      -2.811
      -2.460
      -1.923
      -1.314
      -0.734
      -0.215
       0.283
       0.844
       1.528
       2.306
       3.051
       3.587
       3.776
       3.579
       3.051
       2.294
       1.421
       0.533
      -0.282
      -0.966
      -1.497
      -1.886
      -2.135
      -2.214
      -2.078
      -1.714
      -1.188
      -0.628
      -0.158
       0.170
       0.388
       0.597
       0.912
       1.419
       2.139
       3.011
       3.892
       4.596
       4.947
       4.842
       4.289
       3.398
       2.329
       1.230
       0.198
      -0.725
      -1.527
      -2.194
      -2.688
      -2.953
      -2.944
      -2.657
      -2.141
      -1.491
      -0.831
      -0.288
       0.040
       0.110
      -0.058
      -0.397
      -0.814
      -1.209
      -1.496
      -1.624
      -1.594
      -1.454
      -1.274
      -1.110
      -0.981
      -0.854
      -0.669
      -0.367
       0.076
       0.641
       1.275
       1.907
       2.465
       2.901
       3.203
       3.404
       3.543
       3.632
       3.639
       3.499
       3.136
       2.488
       1.529
       0.296
      -1.106
      -2.516
      -3.764
      -4.704
      -5.257
      -5.419
      -5.247
      -4.803
      -4.137
      -3.300
      -2.377
      -1.483
      -0.720
      -0.135
       0.272
       0.517
       0.600
       0.505
       0.238
      -0.131
      -0.458
      -0.569
      -0.339
       0.253
       1.111
       2.062
       2.910
       3.500
       3.754
       3.684
       3.376
       2.943
       2.481
       2.037
       1.607
       1.155
       0.628
      -0.022
      -0.822
      -1.741
      -2.661
      -3.398
      -3.770
      -3.674
      -3.137
      -2.297
      -1.355
      -0.487
       0.224
       0.792
       1.285
       1.769
       2.283
       2.812
       3.270
       3.507
       3.357
       2.732
       1.664
       0.318
      -1.040
      -2.117
      -2.697
      -2.714
      -2.270
      -1.577
      -0.874
      -0.336
      -0.023
       0.116
       0.189
       0.291
       0.457
       0.650
       0.773
       0.708
       0.387
      -0.131
      -0.648
      -0.909
      -0.726
      -0.084
       0.838
       1.731
       2.297
       2.390
       2.063
       1.501
       0.895
       0.359
      -0.074
      -0.414
      -0.667
      -0.830
      -0.907
      -0.919
      -0.893
      -0.852
      -0.802
      -0.755
      -0.726
      -0.737
      -0.807
      -0.944
      -1.138
      -1.353
      -1.534
      -1.621
      -1.558
      -1.313
      -0.880
      -0.296
       0.359
       0.975
       1.446
       1.711
       1.771
       1.666
       1.431
       1.082
       0.629
       0.121
      -0.345
      -0.641
      -0.676
      -0.453
      -0.075
       0.312
       0.599
       0.771
       0.906
       1.120
       1.478
       1.940
       2.366
       2.593
       2.507
       2.085
       1.393
       0.543
      -0.348
      -1.195
      -1.950
      -2.585
      -3.082
      -3.434
      -3.654
      -3.775
      -3.834
      -3.853
      -3.831
      -3.743
      -3.558
      -3.257
      -2.845
      -2.335
      -1.720
      -0.964
      -0.008
       1.183
       2.594
       4.131
       5.631
       6.884
       7.670
       7.815
       7.243
       6.006
       4.268
       2.241
       0.132
      -1.899
      -3.732
      -5.277
      -6.451
      -7.174
      -7.380
      -7.046
      -6.222
      -5.027
      -3.620
      -2.173
      -0.845
       0.251
       1.088
       1.732
       2.297
       2.872
       3.449
       3.926
       4.171
       4.105
       3.745
       3.187
       2.545
       1.905
       1.315
       0.808
       0.417
       0.156
      -0.013
      -0.183
      -0.441
      -0.793
      -1.141
      -1.327
      -1.228
      -0.831
      -0.253
       0.310
       0.665
       0.692
       0.378
      -0.203
      -0.924
      -1.653
      -2.274
      -2.701
      -2.876
      -2.759
      -2.316
      -1.531
      -0.440
       0.857
       2.213
       3.489
       4.586
       5.447
       6.023
       6.224
       5.911
       4.931
       3.212
       0.844
      -1.910
      -4.686
      -7.128
      -8.988
     -10.159
     -10.662
     -10.591
     -10.046
      -9.087
      -7.731
      -5.981
      -3.869
      -1.489
       0.987
       3.334
       5.322
       6.781
       7.647
       7.972
       7.895
       7.572
       7.114
       6.546
       5.812
       4.836
       3.592
       2.144
       0.640
      -0.747
      -1.864
      -2.614
      -2.974
      -2.992
      -2.774
      -2.452
      -2.150
      -1.949
      -1.882
      -1.931
      -2.055
      -2.213
      -2.374
      -2.512
      -2.588
      -2.552
      -2.365
      -2.026
      -1.574
      -1.042
      -0.422
       0.327
       1.232
       2.257
       3.303
       4.233
       4.932
       5.332
       5.411
       5.172
       4.620
       3.770
       2.680
       1.462
       0.268
      -0.771
      -1.603
      -2.265
      -2.841
      -3.392
      -3.901
      -4.281
      -4.434
      -4.306
      -3.919
      -3.344
      -2.665
      -1.951
      -1.245
      -0.579
       0.017
       0.506
       0.844
       0.999
       0.968
       0.782
       0.498
       0.171
      -0.148
      -0.423
      -0.633
      -0.781
      -0.879
      -0.912
      -0.808
      -0.446
       0.274
       1.361
       2.701
       4.084
       5.270
       6.055
       6.322
       6.054
       5.315
       4.224
       2.919
       1.533
       0.173
      -1.084
      -2.186
      -3.092
      -3.769
      -4.189
      -4.327
      -4.163
      -3.695
      -2.967
      -2.093
      -1.230
      -0.540
      -0.141
      -0.102
      -0.444
      -1.139
      -2.108
      -3.222
      -4.312
      -5.188
      -5.675
      -5.647
      -5.053
      -3.908
      -2.292
      -0.353
       1.695
       3.625
       5.280
       6.612
       7.641
       8.366
       8.717
       8.582
       7.884
       6.635
       4.951
       3.022
       1.053
      -0.793
      -2.427
      -3.832
      -5.019
      -5.978
      -6.642
      -6.894
      -6.631
      -5.819
      -4.519
      -2.867
      -1.031
       0.808
       2.479
       3.824
       4.719
       5.092
       4.925
       4.247
       3.119
       1.637
      -0.060
      -1.800
      -3.395
      -4.674
      -5.501
      -5.791
      -5.523
      -4.741
      -3.539
      -2.043
      -0.390
       1.285
       2.862
       4.257
       5.417
       6.290
       6.807
       6.878
       6.427
       5.439
       3.999
       2.289
       0.558
      -0.927
      -1.948
      -2.387
      -2.256
      -1.685
      -0.892
      -0.102
       0.515
       0.888
       1.027
       0.981
       0.787
       0.452
      -0.025
      -0.639
      -1.366
      -2.168
      -2.991
      -3.758
      -4.371
      -4.737
      -4.795
      -4.539
      -4.011
      -3.265
      -2.332
      -1.204
       0.122
       1.587
       3.046
       4.307
       5.209
       5.674
       5.717
       5.406
       4.811
       3.969
       2.879
       1.537
      -0.012
      -1.640
      -3.159
      -4.386
      -5.224
      -5.697
      -5.908
      -5.968
      -5.915
      -5.684
      -5.159
      -4.269
      -3.071
      -1.738
      -0.476
       0.576
       1.392
       2.026
       2.550
       3.012
       3.432
       3.827
       4.218
       4.597
       4.886
       4.940
       4.619
       3.880
       2.815
       1.598
       0.399
      -0.679
      -1.593
      -2.330
      -2.884
      -3.266
      -3.497
      -3.591
      -3.542
      -3.326
      -2.933
      -2.390
      -1.755
      -1.084
      -0.395
       0.332
       1.129
       2.000
       2.893
       3.714
       4.354
       4.718
       4.752
       4.479
       4.007
       3.490
       3.045
       2.698
       2.379
       1.982
       1.439
       0.764
       0.045
      -0.590
      -1.032
      -1.220
      -1.149
      -0.857
      -0.416
       0.076
       0.517
       0.827
       0.973
       0.959
       0.804
       0.535
       0.184
      -0.216
      -0.649
      -1.112
      -1.600
      -2.064
      -2.413
      -2.542
      -2.392
      -1.976
      -1.360
      -0.619
       0.196
       1.060
       1.945
       2.805
       3.570
       4.172
       4.557
       4.685
       4.537
       4.131
       3.518
       2.766
       1.921
       0.997
      -0.014
      -1.107
      -2.229
      -3.275
      -4.104
      -4.598
      -4.700
      -4.426
      -3.856
      -3.096
      -2.248
      -1.380
      -0.538
       0.227
       0.835
       1.204
       1.292
       1.129
       0.814
       0.478
       0.242
       0.188
       0.338
       0.638
       0.978
       1.222
       1.259
       1.029
       0.552
      -0.078
      -0.716
      -1.215
      -1.485
      -1.520
      -1.383
      -1.161
      -0.933
      -0.743
      -0.609
      -0.538
      -0.549
      -0.665
      -0.896
      -1.230
      -1.635
      -2.072
      -2.499
      -2.875
      -3.147
      -3.250
      -3.105
      -2.636
      -1.797
      -0.608
       0.837
       2.383
       3.829
       4.956
       5.574
       5.568
       4.939
       3.786
       2.260
       0.512
      -1.308
      -3.036
      -4.477
      -5.442
      -5.790
      -5.480
      -4.573
      -3.219
      -1.614
       0.045
       1.597
       2.929
       3.965
       4.656
       4.989
       4.991
       4.710
       4.180
       3.419
       2.441
       1.277
      -0.014
      -1.350
      -2.639
      -3.787
      -4.715
      -5.360
      -5.671
      -5.616
      -5.201
      -4.482
      -3.547
      -2.488
      -1.380
      -0.280
       0.758
       1.690
       2.476
       3.083
       3.472
       3.613
       3.497
       3.149
       2.621
       1.989
       1.356
       0.838
       0.541
       0.511
       0.728
       1.116
       1.560
       1.930
