Origin Time       15/2/2009 07:35:55  UTC
Lat.              26.0 N 
Long.             90.2 E 
Depth (Km)         39.3
Magnitude         4.4
 Region           Assam-Meghalaya-Border                                           
 Above details taken from IMD 
    
Station Code      tur
Station Lat.       25.511  N
Station Long.      90.220  E
Station Height(m)  376.2
Site Class        B   Vs30 between 375 m/sec to 700 m/sec *  
Record Time       15.02.2009 19:36:00.899 UTC
Sampling Rate     200. Hz
 Record Duration   68.430 Sec.
 Direction         N-S (N positive)
Max. Acceleration    -10.503 cm/sec**2
     
  * For reference see Site Classification link of website 
     
 Base Line Corrected and Low Pass Filtered (Cut Off at 35 Hz) Time History
 Acceleration data in cm/sec**2
    
[...]
      -0.233
      -0.298
      -0.502
      -0.718
      -0.834
      -0.801
      -0.637
      -0.393
      -0.112
       0.175
       0.436
       0.632
       0.733
       0.751
       0.732
       0.725
       0.751
       0.792
       0.807
       0.766
       0.665
       0.532
       0.416
       0.378
       0.466
       0.696
       1.018
       1.324
       1.472
       1.346
       0.914
       0.260
      -0.445
      -1.023
      -1.365
      -1.471
      -1.420
      -1.305
      -1.178
      -1.033
      -0.831
      -0.539
      -0.166
       0.224
       0.538
       0.709
       0.735
       0.683
       0.625
       0.592
       0.560
       0.496
       0.403
       0.335
       0.353
       0.473
       0.636
       0.729
       0.645
       0.347
      -0.107
      -0.576
      -0.899
      -0.977
      -0.819
      -0.543
      -0.298
      -0.190
      -0.232
      -0.368
      -0.522
      -0.640
      -0.704
      -0.717
      -0.688
      -0.614
      -0.487
      -0.290
      -0.005
       0.381
       0.846
       1.307
       1.638
       1.726
       1.534
       1.123
       0.609
       0.106
      -0.306
      -0.585
      -0.706
      -0.672
      -0.539
      -0.406
      -0.362
      -0.424
      -0.525
      -0.559
      -0.458
      -0.228
       0.068
       0.350
       0.552
       0.627
       0.535
       0.259
      -0.168
      -0.645
      -1.034
      -1.231
      -1.220
      -1.063
      -0.853
      -0.657
      -0.490
      -0.334
      -0.169
       0.010
       0.195
       0.368
       0.506
       0.575
       0.544
       0.406
       0.195
      -0.015
      -0.137
      -0.100
       0.121
       0.493
       0.922
       1.282
       1.464
       1.426
       1.209
       0.913
       0.643
       0.453
       0.339
       0.258
       0.170
       0.054
      -0.094
      -0.263
      -0.416
      -0.493
      -0.434
      -0.221
       0.088
       0.371
       0.498
       0.398
       0.110
      -0.235
      -0.480
      -0.523
      -0.369
      -0.119
       0.082
       0.110
      -0.076
      -0.428
      -0.840
      -1.202
      -1.438
      -1.518
      -1.455
      -1.288
      -1.068
      -0.839
      -0.617
      -0.399
      -0.177
       0.038
       0.216
       0.326
       0.369
       0.383
       0.432
       0.561
       0.773
       1.017
       1.216
       1.303
       1.257
       1.115
       0.939
       0.786
       0.678
       0.604
       0.534
       0.427
       0.251
      -0.002
      -0.296
      -0.562
      -0.728
      -0.763
      -0.701
      -0.622
      -0.597
      -0.639
      -0.694
      -0.684
      -0.564
      -0.360
      -0.145
       0.015
       0.105
       0.161
       0.222
       0.296
       0.347
       0.331
       0.230
       0.068
      -0.100
      -0.222
      -0.276
      -0.284
      -0.286
      -0.311
      -0.359
      -0.395
      -0.369
      -0.238
       0.009
       0.341
       0.687
       0.960
       1.085
       1.035
       0.847
       0.612
       0.414
       0.273
       0.140
      -0.037
      -0.240
      -0.375
      -0.347
      -0.149
       0.117
       0.313
       0.355
       0.260
       0.106
      -0.029
      -0.109
      -0.131
      -0.113
      -0.084
      -0.082
      -0.132
      -0.223
      -0.307
      -0.332
      -0.289
      -0.230
      -0.236
      -0.360
      -0.582
      -0.832
      -1.038
      -1.175
      -1.254
      -1.282
      -1.243
      -1.107
      -0.865
      -0.549
      -0.210
       0.105
       0.383
       0.630
       0.854
       1.038
       1.154
       1.185
       1.152
       1.098
       1.062
       1.048
       1.022
       0.938
       0.765
       0.521
       0.267
       0.083
       0.020
       0.075
       0.193
       0.298
       0.341
       0.327
       0.318
       0.382
       0.537
       0.719
       0.823
       0.772
       0.572
       0.296
       0.023
      -0.211
      -0.416
      -0.615
      -0.808
      -0.972
      -1.101
      -1.215
      -1.337
      -1.450
      -1.488
      -1.380
      -1.117
      -0.779
      -0.493
      -0.355
      -0.382
      -0.513
      -0.660
      -0.747
      -0.719
      -0.540
      -0.204
       0.243
       0.705
       1.061
       1.216
       1.159
       0.972
       0.791
       0.728
       0.805
       0.950
       1.058
       1.062
       0.957
       0.784
       0.586
       0.387
       0.205
       0.065
      -0.007
      -0.002
       0.038
       0.038
      -0.066
      -0.277
      -0.522
      -0.698
      -0.738
      -0.654
      -0.527
      -0.457
      -0.493
      -0.611
      -0.744
      -0.843
      -0.910
      -0.975
      -1.043
      -1.061
      -0.955
      -0.682
      -0.276
       0.164
       0.520
       0.725
       0.789
       0.795
       0.838
       0.972
       1.181
       1.396
       1.524
       1.487
       1.257
       0.886
       0.503
       0.262
       0.249
       0.426
       0.638
       0.709
       0.540
       0.159
      -0.298
      -0.678
      -0.886
      -0.917
      -0.827
      -0.693
      -0.581
      -0.545
      -0.609
      -0.759
      -0.938
      -1.065
      -1.072
      -0.940
      -0.704
      -0.442
      -0.221
      -0.059
       0.088
       0.276
       0.504
       0.700
       0.778
       0.710
       0.547
       0.366
       0.200
       0.027
      -0.179
      -0.387
      -0.508
      -0.459
      -0.244
       0.026
       0.207
       0.227
       0.142
       0.091
       0.184
       0.416
       0.666
       0.793
       0.726
       0.499
       0.211
      -0.055
      -0.265
      -0.425
      -0.537
      -0.571
      -0.500
      -0.352
      -0.217
      -0.189
      -0.278
      -0.396
      -0.429
      -0.327
      -0.134
       0.059
       0.188
       0.250
       0.281
       0.326
       0.399
       0.484
       0.533
       0.501
       0.375
       0.194
       0.026
      -0.073
      -0.090
      -0.054
       0.000
       0.058
       0.119
       0.178
       0.217
       0.216
       0.172
       0.100
       0.018
      -0.061
      -0.122
      -0.142
      -0.086
       0.065
       0.287
       0.490
       0.559
       0.421
       0.114
      -0.221
      -0.427
      -0.433
      -0.293
      -0.134
      -0.059
      -0.092
      -0.185
      -0.268
      -0.300
      -0.282
      -0.256
      -0.272
      -0.352
      -0.467
      -0.560
      -0.601
      -0.622
      -0.685
      -0.823
      -0.991
      -1.095
      -1.052
      -0.834
      -0.484
      -0.086
       0.262
       0.485
       0.560
       0.528
       0.457
       0.409
       0.416
       0.478
       0.582
       0.703
       0.825
       0.941
       1.043
       1.105
       1.094
       0.986
       0.790
       0.539
       0.277
       0.045
      -0.121
      -0.200
      -0.203
      -0.169
      -0.147
      -0.168
      -0.224
      -0.282
      -0.312
      -0.320
      -0.347
      -0.422
      -0.516
      -0.535
      -0.381
      -0.032
       0.416
       0.786
       0.914
       0.751
       0.397
       0.029
      -0.214
      -0.303
      -0.295
      -0.260
      -0.224
      -0.177
      -0.115
      -0.063
      -0.054
      -0.093
      -0.148
      -0.174
      -0.150
      -0.087
      -0.007
       0.083
       0.189
       0.297
       0.351
       0.270
       0.005
      -0.406
      -0.834
      -1.137
      -1.260
      -1.262
      -1.249
      -1.264
      -1.253
      -1.121
      -0.831
      -0.441
      -0.069
       0.190
       0.312
       0.338
       0.337
       0.370
       0.476
       0.662
       0.885
       1.058
       1.078
       0.883
       0.509
       0.086
      -0.224
      -0.316
      -0.191
       0.051
       0.268
       0.353
       0.287
       0.140
       0.023
       0.010
       0.099
       0.230
       0.344
       0.423
       0.478
       0.512
       0.499
       0.400
       0.212
      -0.004
      -0.146
      -0.131
       0.049
       0.321
       0.570
       0.705
       0.686
       0.526
       0.268
      -0.028
      -0.299
      -0.488
      -0.569
      -0.565
      -0.538
      -0.550
      -0.622
      -0.723
      -0.803
      -0.837
      -0.832
      -0.816
      -0.801
      -0.765
      -0.679
      -0.535
      -0.378
      -0.282
      -0.298
      -0.417
      -0.565
      -0.646
      -0.584
      -0.341
       0.074
       0.619
       1.240
       1.897
       2.564
       3.204
       3.766
       4.212
       4.546
       4.805
       5.011
       5.132
       5.094
       4.831
       4.337
       3.670
       2.925
       2.171
       1.410
       0.574
      -0.425
      -1.615
      -2.929
      -4.211
      -5.293
      -6.063
      -6.501
      -6.659
      -6.627
      -6.494
      -6.325
      -6.156
      -5.983
      -5.764
      -5.439
      -4.972
      -4.380
      -3.741
      -3.153
      -2.677
      -2.310
      -2.000
      -1.690
      -1.359
      -1.021
      -0.706
      -0.441
      -0.229
      -0.045
       0.162
       0.461
       0.910
       1.519
       2.247
       3.025
       3.795
       4.532
       5.223
       5.835
       6.304
       6.570
       6.629
       6.534
       6.356
       6.108
       5.744
       5.207
       4.501
       3.707
       2.939
       2.267
       1.673
       1.076
       0.416
      -0.283
      -0.908
      -1.344
      -1.563
      -1.660
      -1.793
      -2.074
      -2.500
      -2.949
      -3.258
      -3.307
      -3.081
      -2.675
      -2.250
      -1.974
      -1.943
      -2.142
      -2.457
      -2.732
      -2.848
      -2.764
      -2.498
      -2.090
      -1.573
      -0.980
      -0.367
       0.172
       0.552
       0.735
       0.755
       0.690
       0.618
       0.582
       0.584
       0.594
       0.571
       0.473
       0.285
       0.029
      -0.243
      -0.465
      -0.582
      -0.563
      -0.417
      -0.200
       0.001
       0.111
       0.117
       0.093
       0.159
       0.418
       0.894
       1.517
       2.166
       2.733
       3.161
       3.438
       3.554
       3.482
       3.196
       2.703
       2.049
       1.283
       0.432
      -0.491
      -1.451
      -2.371
      -3.150
      -3.707
      -4.006
      -4.053
      -3.877
      -3.529
      -3.086
      -2.639
      -2.252
      -1.936
      -1.661
      -1.406
      -1.181
      -1.019
      -0.940
      -0.939
      -0.979
      -1.005
      -0.951
      -0.776
      -0.487
      -0.155
       0.126
       0.286
       0.321
       0.288
       0.254
       0.248
       0.251
       0.235
       0.209
       0.216
       0.307
       0.510
       0.841
       1.303
       1.883
       2.531
       3.170
       3.727
       4.172
       4.528
       4.835
       5.105
       5.299
       5.361
       5.270
       5.061
       4.795
       4.498
       4.143
       3.683
       3.105
       2.455
       1.818
       1.269
       0.837
       0.485
       0.129
      -0.322
      -0.898
      -1.536
      -2.085
      -2.385
      -2.357
      -2.035
      -1.535
      -0.996
      -0.547
      -0.320
      -0.441
      -0.991
      -1.935
      -3.105
      -4.267
      -5.233
      -5.947
      -6.485
      -6.964
      -7.438
      -7.862
      -8.132
      -8.157
      -7.919
      -7.475
      -6.927
      -6.364
      -5.819
      -5.258
      -4.622
      -3.889
      -3.107
      -2.366
      -1.732
      -1.207
      -0.726
      -0.223
       0.321
       0.875
       1.403
       1.897
       2.380
       2.869
       3.360
       3.833
       4.274
       4.676
       5.033
       5.340
       5.608
       5.871
       6.163
       6.464
       6.679
       6.679
       6.391
       5.860
       5.233
       4.686
       4.330
       4.192
       4.230
       4.374
       4.539
       4.623
       4.526
       4.193
       3.663
       3.062
       2.526
       2.118
       1.794
       1.459
       1.043
       0.540
      -0.018
      -0.592
      -1.157
      -1.687
      -2.148
      -2.494
      -2.693
      -2.766
      -2.798
      -2.904
      -3.155
      -3.532
      -3.953
      -4.335
      -4.630
      -4.819
      -4.891
      -4.838
      -4.680
      -4.464
      -4.250
      -4.077
      -3.945
      -3.814
      -3.631
      -3.363
      -3.014
      -2.615
      -2.186
      -1.723
      -1.213
      -0.668
      -0.146
       0.269
       0.511
       0.571
       0.506
       0.419
       0.396
       0.452
       0.521
       0.512
       0.385
       0.183
       0.014
      -0.002
       0.212
       0.663
       1.266
       1.878
       2.336
       2.505
       2.306
       1.735
       0.876
      -0.115
      -1.059
      -1.816
      -2.327
      -2.597
      -2.663
      -2.564
      -2.337
      -2.025
      -1.664
      -1.259
      -0.764
      -0.119
       0.689
       1.595
       2.469
       3.183
       3.666
       3.917
       3.993
       3.966
       3.905
       3.865
       3.883
       3.985
       4.170
       4.406
       4.631
       4.774
       4.793
       4.707
       4.589
       4.524
       4.559
       4.683
       4.833
       4.939
       4.944
       4.808
       4.500
       3.981
       3.203
       2.130
       0.768
      -0.811
      -2.484
      -4.113
      -5.597
      -6.895
      -8.011
      -8.954
      -9.711
     -10.241
     -10.503
     -10.493
     -10.273
      -9.956
      -9.660
      -9.428
      -9.183
      -8.770
      -8.068
      -7.094
      -5.998
      -4.953
      -4.031
      -3.169
      -2.241
      -1.175
      -0.005
       1.163
       2.218
       3.102
       3.804
       4.354
       4.801
       5.208
       5.628
       6.069
       6.489
       6.825
       7.037
       7.124
       7.098
       6.958
       6.692
       6.319
       5.903
       5.534
       5.275
       5.123
       5.006
       4.815
       4.456
       3.880
       3.098
       2.178
       1.236
       0.414
      -0.169
      -0.470
      -0.541
      -0.510
      -0.518
      -0.669
      -0.988
      -1.410
      -1.806
      -2.045
      -2.068
      -1.913
      -1.686
      -1.494
      -1.395
      -1.391
      -1.457
      -1.577
      -1.756
      -2.008
      -2.330
      -2.704
      -3.106
      -3.520
      -3.935
      -4.323
      -4.629
      -4.785
      -4.753
      -4.556
      -4.264
      -3.954
      -3.668
      -3.408
      -3.159
      -2.900
      -2.597
      -2.198
      -1.662
      -0.992
      -0.266
       0.393
       0.877
       1.153
       1.260
       1.271
       1.253
       1.242
       1.251
       1.278
       1.330
       1.444
       1.681
       2.088
       2.633
       3.206
       3.668
       3.928
       3.979
       3.871
       3.676
       3.457
       3.268
       3.152
       3.118
       3.126
       3.077
       2.868
       2.452
       1.883
       1.277
       0.725
       0.245
      -0.195
      -0.611
      -0.979
      -1.267
      -1.468
      -1.616
      -1.750
      -1.893
      -2.043
      -2.183
      -2.297
      -2.370
      -2.378
      -2.291
      -2.093
      -1.816
      -1.544
      -1.359
      -1.293
      -1.297
      -1.295
      -1.244
      -1.165
      -1.105
      -1.086
      -1.064
      -0.963
      -0.726
      -0.359
       0.081
       0.529
       0.957
       1.371
       1.775
       2.148
       2.445
       2.628
       2.677
       2.589
       2.369
       2.030
       1.594
       1.097
       0.584
       0.106
      -0.282
      -0.521
      -0.574
      -0.454
      -0.243
      -0.066
      -0.037
      -0.212
      -0.578
      -1.064
      -1.579
      -2.033
      -2.357
      -2.509
      -2.477
      -2.272
      -1.929
      -1.499
      -1.037
      -0.596
      -0.226
       0.026
       0.132
       0.092
      -0.067
      -0.291
      -0.510
      -0.642
      -0.603
      -0.339
       0.156
       0.825
       1.554
       2.186
       2.574
       2.639
       2.405
       1.985
       1.519
       1.115
       0.805
       0.553
       0.288
      -0.030
      -0.380
      -0.703
      -0.955
      -1.136
      -1.264
      -1.325
      -1.254
      -0.977
      -0.484
       0.138
       0.734
       1.150
       1.304
       1.207
       0.944
       0.641
       0.423
       0.371
       0.505
       0.789
       1.155
       1.529
       1.836
       2.006
       1.986
       1.767
       1.407
       1.031
       0.772
       0.693
       0.745
       0.804
       0.757
       0.559
       0.228
      -0.181
      -0.605
      -0.983
      -1.268
      -1.459
      -1.598
      -1.736
      -1.873
      -1.939
      -1.833
      -1.519
      -1.089
      -0.721
      -0.564
      -0.630
      -0.807
      -0.970
      -1.089
      -1.245
      -1.530
      -1.949
      -2.389
      -2.687
      -2.738
      -2.566
      -2.308
      -2.114
      -2.025
      -1.948
      -1.731
      -1.299
      -0.735
      -0.231
       0.028
      -0.031
      -0.357
      -0.824
      -1.299
      -1.673
      -1.855
      -1.777
      -1.415
      -0.806
      -0.049
       0.742
       1.490
       2.172
       2.800
       3.381
       3.890
       4.284
       4.529
       4.617
       4.559
       4.359
       4.020
       3.577
       3.125
       2.798
       2.698
       2.826
       3.063
       3.219
       3.124
       2.712
       2.055
       1.325
       0.709
       0.309
       0.103
      -0.013
      -0.149
      -0.351
      -0.585
      -0.789
      -0.932
      -1.037
      -1.158
      -1.333
      -1.572
      -1.862
      -2.183
      -2.500
      -2.758
      -2.905
      -2.930
      -2.884
      -2.835
      -2.815
      -2.790
      -2.702
      -2.528
      -2.316
      -2.158
      -2.128
      -2.234
      -2.401
      -2.507
      -2.442
      -2.167
      -1.735
      -1.255
      -0.830
      -0.498
      -0.213
       0.118
       0.545
       1.015
       1.377
       1.493
       1.345
       1.077
       0.913
       1.028
       1.464
       2.112
       2.783
       3.290
       3.516
       3.444
       3.146
       2.743
       2.359
       2.075
       1.896
       1.752
       1.529
       1.132
       0.537
      -0.208
      -1.016
      -1.806
      -2.518
      -3.121
      -3.592
      -3.914
      -4.064
      -4.026
      -3.797
      -3.400
      -2.880
      -2.287
      -1.659
      -1.018
      -0.383
       0.206
       0.683
       0.979
       1.078
       1.045
       1.012
       1.120
       1.443
       1.943
       2.481
       2.883
       3.040
       2.964
       2.784
       2.658
       2.689
       2.877
       3.137
       3.349
       3.389
       3.175
       2.697
       2.035
       1.339
       0.765
       0.403
       0.237
       0.161
       0.043
      -0.209
      -0.598
      -1.065
      -1.536
      -1.964
      -2.324
      -2.585
      -2.700
      -2.640
      -2.452
      -2.262
      -2.219
      -2.393
      -2.715
      -3.006
      -3.081
      -2.859
      -2.401
      -1.854
      -1.354
      -0.966
      -0.701
      -0.578
      -0.648
      -0.957
      -1.477
      -2.071
