Origin Time       29/12/2009 09:01:42
Lat.              24.5°N	
Long.             94.8°E	
Depth (Km)         80.0
Magnitude         5.5
 Region           MYANMAR-INDIA(MANIPUR)-BORDER                                    
 Above details taken from IMD 
     
Station Code      TUR
Station Lat.       25.511  N
Station Long.      90.220  E
Station Height(m)  376.2
Site Class        B   Vs30 between 375 m/sec to 700 m/sec *  
Record Time       29.12.2009 09:03:26.384
Sampling Rate     200. Hz
 Record Duration   70.640 Sec.
 Direction         E-W (E positive)
Max. Acceleration      8.366 cm/sec**2
     
  * For reference see Site Classification link of website 
     
 Base Line Corrected and Low Pass Filtered (Cut Off at 35 Hz) Time History
 Acceleration data in cm/sec**2
    
[...]
      -0.251
      -0.115
      -0.005
       0.018
      -0.063
      -0.213
      -0.359
      -0.441
      -0.438
      -0.374
      -0.300
      -0.254
      -0.239
      -0.217
      -0.142
       0.001
       0.180
       0.330
       0.394
       0.359
       0.250
       0.124
       0.038
       0.027
       0.086
       0.166
       0.190
       0.102
      -0.103
      -0.357
      -0.551
      -0.592
      -0.452
      -0.180
       0.129
       0.379
       0.515
       0.532
       0.485
       0.457
       0.514
       0.650
       0.785
       0.819
       0.695
       0.442
       0.143
      -0.114
      -0.268
      -0.299
      -0.226
      -0.099
       0.015
       0.065
       0.039
      -0.036
      -0.124
      -0.202
      -0.260
      -0.288
      -0.275
      -0.222
      -0.161
      -0.137
      -0.178
      -0.273
      -0.378
      -0.446
      -0.449
      -0.389
      -0.285
      -0.157
      -0.024
       0.095
       0.190
       0.255
       0.292
       0.296
       0.262
       0.189
       0.099
       0.031
       0.015
       0.050
       0.100
       0.129
       0.120
       0.080
       0.028
      -0.015
      -0.024
       0.026
       0.140
       0.286
       0.398
       0.415
       0.315
       0.124
      -0.105
      -0.319
      -0.479
      -0.562
      -0.559
      -0.489
      -0.402
      -0.358
      -0.395
      -0.501
      -0.616
      -0.672
      -0.626
      -0.487
      -0.310
      -0.169
      -0.118
      -0.168
      -0.280
      -0.377
      -0.382
      -0.249
       0.007
       0.313
       0.568
       0.683
       0.616
       0.399
       0.125
      -0.085
      -0.140
      -0.019
       0.212
       0.438
       0.551
       0.513
       0.364
       0.196
       0.094
       0.095
       0.167
       0.227
       0.182
      -0.019
      -0.342
      -0.670
      -0.859
      -0.814
      -0.542
      -0.151
       0.220
       0.465
       0.566
       0.577
       0.586
       0.645
       0.738
       0.792
       0.727
       0.506
       0.160
      -0.231
      -0.567
      -0.763
      -0.781
      -0.645
      -0.438
      -0.262
      -0.180
      -0.189
      -0.226
      -0.219
      -0.131
       0.027
       0.213
       0.381
       0.496
       0.543
       0.529
       0.485
       0.452
       0.451
       0.470
       0.468
       0.401
       0.247
       0.031
      -0.197
      -0.380
      -0.487
      -0.512
      -0.471
      -0.387
      -0.293
      -0.220
      -0.190
      -0.205
      -0.254
      -0.315
      -0.361
      -0.370
      -0.330
      -0.245
      -0.139
      -0.041
       0.025
       0.050
       0.032
      -0.033
      -0.147
      -0.295
      -0.437
      -0.524
      -0.537
      -0.494
      -0.424
      -0.322
      -0.153
       0.108
       0.432
       0.735
       0.924
       0.947
       0.809
       0.560
       0.271
       0.020
      -0.127
      -0.133
      -0.016
       0.165
       0.335
       0.433
       0.428
       0.315
       0.122
      -0.094
      -0.264
      -0.338
      -0.313
      -0.238
      -0.187
      -0.216
      -0.341
      -0.528
      -0.719
      -0.858
      -0.905
      -0.840
      -0.651
      -0.350
       0.019
       0.366
       0.597
       0.658
       0.564
       0.381
       0.179
      -0.004
      -0.173
      -0.362
      -0.599
      -0.869
      -1.104
      -1.208
      -1.122
      -0.863
      -0.525
      -0.216
       0.006
       0.158
       0.304
       0.500
       0.755
       1.039
       1.306
       1.525
       1.692
       1.819
       1.920
       1.998
       2.031
       1.984
       1.833
       1.592
       1.310
       1.042
       0.794
       0.513
       0.118
      -0.426
      -1.058
      -1.641
      -2.035
      -2.161
      -2.027
      -1.709
      -1.318
      -0.964
      -0.728
      -0.630
      -0.636
      -0.684
      -0.740
      -0.821
      -0.967
      -1.191
      -1.439
      -1.608
      -1.601
      -1.387
      -1.027
      -0.648
      -0.374
      -0.260
      -0.265
      -0.289
      -0.234
      -0.044
       0.283
       0.715
       1.189
       1.618
       1.911
       1.996
       1.863
       1.569
       1.227
       0.949
       0.801
       0.779
       0.824
       0.860
       0.829
       0.700
       0.476
       0.189
      -0.109
      -0.350
      -0.478
      -0.472
      -0.362
      -0.217
      -0.109
      -0.081
      -0.121
      -0.172
      -0.160
      -0.035
       0.205
       0.497
       0.738
       0.820
       0.671
       0.288
      -0.254
      -0.822
      -1.272
      -1.510
      -1.531
      -1.415
      -1.286
      -1.233
      -1.259
      -1.286
      -1.212
      -0.979
      -0.600
      -0.141
       0.323
       0.740
       1.077
       1.323
       1.470
       1.513
       1.447
       1.277
       1.023
       0.725
       0.430
       0.185
       0.025
      -0.032
       0.019
       0.173
       0.404
       0.673
       0.937
       1.163
       1.340
       1.465
       1.527
       1.499
       1.341
       1.018
       0.520
      -0.121
      -0.811
      -1.414
      -1.793
      -1.879
      -1.706
      -1.395
      -1.100
      -0.944
      -0.987
      -1.222
      -1.585
      -1.980
      -2.304
      -2.485
      -2.507
      -2.408
      -2.248
      -2.071
      -1.868
      -1.578
      -1.129
      -0.493
       0.279
       1.065
       1.723
       2.159
       2.367
       2.417
       2.415
       2.447
       2.540
       2.668
       2.778
       2.820
       2.755
       2.555
       2.213
       1.765
       1.290
       0.878
       0.585
       0.399
       0.255
       0.084
      -0.159
      -0.472
      -0.813
      -1.124
      -1.350
      -1.463
      -1.465
      -1.382
      -1.251
      -1.110
      -0.991
      -0.919
      -0.911
      -0.975
      -1.110
      -1.294
      -1.483
      -1.618
      -1.642
      -1.541
      -1.352
      -1.159
      -1.049
      -1.071
      -1.209
      -1.384
      -1.490
      -1.450
      -1.252
      -0.950
      -0.613
      -0.275
       0.072
       0.444
       0.821
       1.150
       1.375
       1.487
       1.537
       1.612
       1.791
       2.089
       2.439
       2.694
       2.700
       2.369
       1.741
       0.973
       0.256
      -0.274
      -0.577
      -0.678
      -0.622
      -0.441
      -0.159
       0.193
       0.575
       0.943
       1.251
       1.433
       1.407
       1.102
       0.508
      -0.297
      -1.166
      -1.953
      -2.575
      -3.034
      -3.385
      -3.677
      -3.917
      -4.050
      -3.998
      -3.711
      -3.217
      -2.623
      -2.049
      -1.559
      -1.126
      -0.670
      -0.141
       0.440
       1.002
       1.491
       1.911
       2.328
       2.823
       3.446
       4.175
       4.901
       5.443
       5.608
       5.291
       4.543
       3.559
       2.589
       1.815
       1.285
       0.937
       0.683
       0.488
       0.366
       0.337
       0.369
       0.388
       0.327
       0.183
       0.029
      -0.031
       0.076
       0.347
       0.709
       1.048
       1.256
       1.261
       1.041
       0.619
       0.049
      -0.597
      -1.234
      -1.788
      -2.207
      -2.487
      -2.664
      -2.782
      -2.867
      -2.925
      -2.951
      -2.948
      -2.916
      -2.843
      -2.720
      -2.549
      -2.363
      -2.200
      -2.074
      -1.954
      -1.779
      -1.491
      -1.073
      -0.561
      -0.035
       0.401
       0.648
       0.651
       0.442
       0.149
      -0.045
      -0.004
       0.288
       0.730
       1.181
       1.546
       1.798
       1.937
       1.951
       1.810
       1.512
       1.111
       0.711
       0.422
       0.304
       0.346
       0.472
       0.592
       0.642
       0.619
       0.571
       0.564
       0.621
       0.694
       0.678
       0.465
       0.004
      -0.668
      -1.442
      -2.185
      -2.783
      -3.166
      -3.315
      -3.246
      -2.994
      -2.610
      -2.151
      -1.680
      -1.249
      -0.873
      -0.525
      -0.151
       0.283
       0.766
       1.254
       1.696
       2.067
       2.379
       2.660
       2.934
       3.208
       3.460
       3.641
       3.686
       3.542
       3.193
       2.666
       2.029
       1.368
       0.768
       0.296
      -0.009
      -0.139
      -0.119
      -0.011
       0.101
       0.126
      -0.002
      -0.307
      -0.779
      -1.390
      -2.102
      -2.854
      -3.547
      -4.051
      -4.233
      -4.003
      -3.346
      -2.333
      -1.117
       0.102
       1.128
       1.833
       2.193
       2.278
       2.186
       1.986
       1.696
       1.313
       0.855
       0.376
      -0.059
      -0.403
      -0.643
      -0.772
      -0.767
      -0.585
      -0.191
       0.394
       1.072
       1.691
       2.104
       2.233
       2.093
       1.762
       1.334
       0.878
       0.430
       0.012
      -0.347
      -0.597
      -0.695
      -0.639
      -0.486
      -0.335
      -0.270
      -0.321
      -0.458
      -0.630
      -0.811
      -1.007
      -1.244
      -1.541
      -1.908
      -2.334
      -2.769
      -3.120
      -3.278
      -3.169
      -2.806
      -2.288
      -1.757
      -1.330
      -1.061
      -0.935
      -0.901
      -0.907
      -0.921
      -0.921
      -0.865
      -0.700
      -0.395
       0.017
       0.449
       0.821
       1.112
       1.359
       1.605
       1.854
       2.074
       2.238
       2.331
       2.342
       2.249
       2.032
       1.725
       1.434
       1.300
       1.411
       1.749
       2.188
       2.563
       2.751
       2.704
       2.439
       1.995
       1.418
       0.759
       0.104
      -0.431
      -0.726
      -0.709
      -0.396
       0.101
       0.609
       0.954
       1.012
       0.750
       0.228
      -0.426
      -1.057
      -1.548
      -1.851
      -1.990
      -2.021
      -1.981
      -1.876
      -1.706
      -1.515
      -1.390
      -1.422
      -1.635
      -1.962
      -2.267
      -2.410
      -2.311
      -1.977
      -1.493
      -0.969
      -0.489
      -0.071
       0.326
       0.763
       1.263
       1.787
       2.241
       2.522
       2.558
       2.328
       1.860
       1.224
       0.519
      -0.148
      -0.687
      -1.030
      -1.128
      -0.961
      -0.561
      -0.044
       0.413
       0.632
       0.514
       0.086
      -0.528
      -1.173
      -1.717
      -2.081
      -2.221
      -2.109
      -1.728
      -1.083
      -0.220
       0.769
       1.762
       2.625
       3.251
       3.577
       3.597
       3.362
       2.958
       2.482
       2.021
       1.639
       1.382
       1.277
       1.320
       1.450
       1.552
       1.499
       1.214
       0.729
       0.175
      -0.287
      -0.571
      -0.710
      -0.835
      -1.081
      -1.514
      -2.106
      -2.750
      -3.311
      -3.666
      -3.739
      -3.536
      -3.138
      -2.676
      -2.287
      -2.081
      -2.107
      -2.350
      -2.724
      -3.095
      -3.313
      -3.258
      -2.896
      -2.297
      -1.591
      -0.883
      -0.178
       0.617
       1.585
       2.687
       3.744
       4.520
       4.859
       4.739
       4.235
       3.445
       2.466
       1.431
       0.539
       0.015
       0.001
       0.461
       1.171
       1.817
       2.152
       2.105
       1.790
       1.404
       1.116
       1.016
       1.119
       1.397
       1.777
       2.133
       2.319
       2.225
       1.837
       1.244
       0.597
       0.032
      -0.379
      -0.653
      -0.859
      -1.077
      -1.349
      -1.668
      -2.009
      -2.351
      -2.700
      -3.071
      -3.468
      -3.875
      -4.265
      -4.602
      -4.844
      -4.936
      -4.828
      -4.512
      -4.034
      -3.481
      -2.921
      -2.368
      -1.787
      -1.149
      -0.474
       0.162
       0.670
       1.020
       1.269
       1.527
       1.869
       2.279
       2.654
       2.873
       2.856
       2.594
       2.125
       1.522
       0.891
       0.381
       0.164
       0.390
       1.108
       2.221
       3.486
       4.600
       5.306
       5.492
       5.208
       4.620
       3.928
       3.294
       2.813
       2.526
       2.421
       2.426
       2.406
       2.203
       1.706
       0.933
       0.039
      -0.750
      -1.251
      -1.396
      -1.240
      -0.908
      -0.545
      -0.287
      -0.244
      -0.458
      -0.877
      -1.368
      -1.774
      -1.993
      -2.009
      -1.880
      -1.681
      -1.460
      -1.224
      -0.971
      -0.728
      -0.569
      -0.591
      -0.853
      -1.334
      -1.934
      -2.538
      -3.074
      -3.530
      -3.923
      -4.271
      -4.597
      -4.945
      -5.359
      -5.840
      -6.309
      -6.632
      -6.679
      -6.393
      -5.813
      -5.069
      -4.337
      -3.782
      -3.483
      -3.385
      -3.309
      -3.035
      -2.415
      -1.451
      -0.294
       0.842
       1.789
       2.493
       3.012
       3.449
       3.875
       4.289
       4.641
       4.889
       5.040
       5.143
       5.235
       5.311
       5.330
       5.272
       5.174
       5.130
       5.235
       5.535
       6.005
       6.575
       7.157
       7.675
       8.068
       8.302
       8.366
       8.263
       7.985
       7.510
       6.820
       5.936
       4.945
       3.972
       3.122
       2.406
       1.731
       0.962
       0.019
      -1.056
      -2.118
      -3.027
      -3.741
      -4.331
      -4.906
      -5.504
      -6.043
      -6.370
      -6.368
      -6.037
      -5.504
      -4.952
      -4.547
      -4.378
      -4.458
      -4.742
      -5.148
      -5.585
      -5.972
      -6.260
      -6.447
      -6.559
      -6.615
      -6.590
      -6.425
      -6.064
      -5.510
      -4.826
      -4.106
      -3.425
      -2.807
      -2.243
      -1.716
      -1.217
      -0.739
      -0.280
       0.153
       0.547
       0.892
       1.197
       1.482
       1.771
       2.080
       2.428
       2.840
       3.324
       3.844
       4.305
       4.601
       4.685
       4.612
       4.518
       4.517
       4.609
       4.655
       4.466
       3.937
       3.128
       2.241
       1.492
       1.001
       0.753
       0.658
       0.623
       0.594
       0.551
       0.480
       0.360
       0.168
      -0.109
      -0.461
      -0.868
      -1.317
      -1.811
      -2.348
      -2.887
      -3.332
      -3.555
      -3.452
      -2.987
      -2.202
      -1.201
      -0.113
       0.936
       1.832
       2.480
       2.819
       2.839
       2.596
       2.213
       1.844
       1.609
       1.553
       1.636
       1.768
       1.867
       1.896
       1.863
       1.789
       1.676
       1.513
       1.298
       1.064
       0.875
       0.790
       0.835
       0.993
       1.211
       1.415
       1.523
       1.464
       1.206
       0.786
       0.290
      -0.202
      -0.672
      -1.174
      -1.787
      -2.567
      -3.502
      -4.503
      -5.399
      -5.976
      -6.060
      -5.614
      -4.781
      -3.827
      -3.002
      -2.423
      -2.031
      -1.656
      -1.127
      -0.350
       0.650
       1.742
       2.735
       3.446
       3.766
       3.705
       3.368
       2.891
       2.384
       1.907
       1.484
       1.142
       0.918
       0.854
       0.968
       1.233
       1.584
       1.922
       2.138
       2.149
       1.934
       1.546
       1.080
       0.601
       0.093
      -0.532
      -1.359
      -2.378
      -3.447
      -4.323
      -4.773
      -4.675
      -4.065
      -3.121
      -2.094
      -1.250
      -0.810
      -0.887
      -1.441
      -2.270
      -3.082
      -3.626
      -3.808
      -3.715
      -3.522
      -3.360
      -3.248
      -3.115
      -2.898
      -2.604
      -2.293
      -2.012
      -1.724
      -1.329
      -0.734
       0.064
       0.963
       1.805
       2.465
       2.922
       3.271
       3.655
       4.178
       4.835
       5.514
       6.064
       6.372
       6.410
       6.226
       5.916
       5.592
       5.334
       5.161
       5.018
       4.804
       4.424
       3.834
       3.059
       2.187
       1.329
       0.572
      -0.048
      -0.540
      -0.929
      -1.204
      -1.316
      -1.210
      -0.890
      -0.465
      -0.125
      -0.049
      -0.304
      -0.795
      -1.325
      -1.708
      -1.879
      -1.905
      -1.916
      -2.023
      -2.279
      -2.690
      -3.241
      -3.896
      -4.577
      -5.174
      -5.592
      -5.786
      -5.770
      -5.582
      -5.262
      -4.837
      -4.320
      -3.720
      -3.052
      -2.358
      -1.685
      -1.051
      -0.431
       0.219
       0.904
       1.561
       2.082
       2.381
       2.434
       2.284
       2.011
       1.723
       1.535
       1.545
       1.788
       2.209
       2.693
       3.120
       3.409
       3.517
       3.431
       3.155
       2.729
       2.223
       1.719
       1.284
       0.946
       0.691
       0.485
       0.313
       0.203
       0.210
       0.360
       0.605
       0.814
       0.842
       0.592
       0.068
      -0.641
      -1.397
      -2.056
      -2.520
      -2.768
      -2.860
      -2.897
      -2.945
      -2.996
      -2.974
      -2.799
      -2.437
      -1.919
      -1.314
      -0.690
      -0.085
       0.502
       1.083
       1.651
       2.159
       2.531
       2.689
       2.583
       2.215
       1.654
       1.042
       0.563
       0.372
       0.522
       0.931
       1.421
       1.797
       1.939
       1.843
       1.608
       1.375
       1.252
       1.265
       1.358
       1.431
       1.415
       1.309
       1.180
       1.112
       1.144
       1.240
       1.317
       1.292
       1.129
       0.833
       0.423
      -0.088
      -0.686
      -1.320
      -1.895
      -2.303
      -2.480
      -2.458
      -2.365
      -2.373
      -2.616
      -3.113
      -3.758
      -4.380
      -4.834
      -5.066
      -5.098
      -4.974
      -4.700
      -4.253
      -3.619
      -2.837
      -1.992
      -1.161
      -0.384
       0.350
       1.063
       1.765
       2.438
       3.047
       3.540
       3.858
       3.949
       3.811
       3.510
       3.174
       2.917
       2.777
       2.683
       2.511
       2.175
       1.703
       1.226
       0.904
       0.836
       1.010
       1.329
       1.676
       1.971
       2.182
       2.284
       2.236
       1.993
       1.556
       1.006
       0.476
       0.084
      -0.138
      -0.250
      -0.373
      -0.622
      -1.056
      -1.659
      -2.345
      -2.984
      -3.425
      -3.542
      -3.269
      -2.641
      -1.785
      -0.883
      -0.107
       0.424
       0.666
       0.631
       0.365
      -0.066
      -0.593
      -1.150
      -1.680
      -2.127
      -2.432
      -2.542
      -2.428
      -2.106
      -1.630
      -1.063
      -0.451
       0.170
       0.748
       1.200
       1.444
       1.453
       1.291
