Origin Time       3/9/2009 19:51:08	 
Lat.              24.3 N	
Long.             94.6 E	
Depth (Km)        100.0
Magnitude         5.9
 Region           MYANMAR-India-Manipuir-Border                                    
 Above details taken from IMD 
     
Station Code      tur
Station Lat.       25.511  N
Station Long.      90.220  E
Station Height(m)  376.2
Site Class        A   Vs30 between 700 m/sec to 1400 m/sec * 
Record Time       03.09.2009 00:57:05.054
Sampling Rate     200. Hz
 Record Duration   71.210 Sec.
 Direction         E-W (E positive)
Max. Acceleration     10.786 cm/sec**2
     
  * For reference see Site Classification link of website 
     
 Base Line Corrected and Low Pass Filtered (Cut Off at 35 Hz) Time History
 Acceleration data in cm/sec**2
    
[...]
      -0.141
      -0.069
       0.008
       0.093
       0.176
       0.236
       0.267
       0.287
       0.325
       0.386
       0.438
       0.435
       0.343
       0.167
      -0.045
      -0.224
      -0.317
      -0.316
      -0.252
      -0.167
      -0.090
      -0.027
       0.027
       0.082
       0.141
       0.188
       0.199
       0.156
       0.070
      -0.034
      -0.127
      -0.193
      -0.218
      -0.196
      -0.129
      -0.037
       0.056
       0.132
       0.176
       0.188
       0.182
       0.175
       0.169
       0.151
       0.105
       0.039
      -0.024
      -0.069
      -0.102
      -0.145
      -0.218
      -0.328
      -0.459
      -0.567
      -0.603
      -0.552
      -0.443
      -0.329
      -0.250
      -0.216
      -0.206
      -0.177
      -0.086
       0.086
       0.306
       0.503
       0.609
       0.603
       0.518
       0.414
       0.342
       0.315
       0.299
       0.248
       0.141
      -0.004
      -0.154
      -0.286
      -0.389
      -0.451
      -0.441
      -0.340
      -0.157
       0.059
       0.242
       0.333
       0.315
       0.222
       0.126
       0.079
       0.079
       0.084
       0.056
      -0.003
      -0.068
      -0.113
      -0.126
      -0.110
      -0.076
      -0.043
      -0.021
      -0.005
       0.016
       0.043
       0.065
       0.072
       0.066
       0.063
       0.083
       0.146
       0.249
       0.365
       0.450
       0.471
       0.416
       0.286
       0.092
      -0.135
      -0.345
      -0.480
      -0.507
      -0.435
      -0.309
      -0.189
      -0.122
      -0.123
      -0.168
      -0.206
      -0.191
      -0.112
       0.005
       0.108
       0.147
       0.102
      -0.004
      -0.116
      -0.180
      -0.175
      -0.122
      -0.065
      -0.041
      -0.059
      -0.100
      -0.133
      -0.147
      -0.158
      -0.190
      -0.237
      -0.272
      -0.270
      -0.237
      -0.197
      -0.162
      -0.131
      -0.100
      -0.072
      -0.046
      -0.011
       0.041
       0.101
       0.150
       0.178
       0.193
       0.213
       0.258
       0.334
       0.422
       0.484
       0.484
       0.415
       0.304
       0.191
       0.116
       0.104
       0.161
       0.263
       0.359
       0.404
       0.379
       0.297
       0.195
       0.119
       0.104
       0.149
       0.206
       0.207
       0.110
      -0.068
      -0.263
      -0.400
      -0.440
      -0.388
      -0.287
      -0.188
      -0.129
      -0.124
      -0.167
      -0.237
      -0.297
      -0.300
      -0.226
      -0.098
       0.028
       0.101
       0.101
       0.042
      -0.036
      -0.085
      -0.070
       0.003
       0.081
       0.102
       0.043
      -0.068
      -0.177
      -0.241
      -0.243
      -0.197
      -0.141
      -0.117
      -0.147
      -0.223
      -0.322
      -0.415
      -0.470
      -0.465
      -0.402
      -0.305
      -0.200
      -0.092
       0.030
       0.163
       0.283
       0.358
       0.374
       0.337
       0.278
       0.235
       0.247
       0.329
       0.471
       0.642
       0.810
       0.940
       0.998
       0.957
       0.818
       0.617
       0.408
       0.245
       0.152
       0.120
       0.111
       0.085
       0.026
      -0.054
      -0.131
      -0.192
      -0.231
      -0.254
      -0.269
      -0.293
      -0.343
      -0.428
      -0.538
      -0.651
      -0.730
      -0.735
      -0.648
      -0.501
      -0.373
      -0.337
      -0.410
      -0.552
      -0.692
      -0.764
      -0.734
      -0.609
      -0.440
      -0.293
      -0.204
      -0.147
      -0.062
       0.092
       0.299
       0.495
       0.604
       0.591
       0.487
       0.368
       0.307
       0.337
       0.432
       0.533
       0.570
       0.490
       0.282
      -0.005
      -0.279
      -0.449
      -0.471
      -0.369
      -0.214
      -0.091
      -0.052
      -0.090
      -0.143
      -0.139
      -0.045
       0.117
       0.288
       0.407
       0.438
       0.389
       0.303
       0.229
       0.188
       0.167
       0.136
       0.077
      -0.018
      -0.144
      -0.287
      -0.414
      -0.492
      -0.520
      -0.531
      -0.562
      -0.612
      -0.634
      -0.567
      -0.374
      -0.058
       0.331
       0.713
       1.008
       1.156
       1.141
       0.994
       0.785
       0.598
       0.496
       0.490
       0.541
       0.589
       0.581
       0.488
       0.316
       0.116
      -0.048
      -0.139
      -0.168
      -0.184
      -0.224
      -0.293
      -0.362
      -0.389
      -0.336
      -0.193
       0.012
       0.228
       0.418
       0.563
       0.652
       0.667
       0.599
       0.462
       0.290
       0.101
      -0.105
      -0.342
      -0.610
      -0.889
      -1.137
      -1.301
      -1.347
      -1.289
      -1.186
      -1.109
      -1.083
      -1.083
      -1.053
      -0.942
      -0.726
      -0.429
      -0.116
       0.131
       0.262
       0.277
       0.220
       0.139
       0.062
      -0.012
      -0.101
      -0.226
      -0.378
      -0.512
      -0.566
      -0.494
      -0.282
       0.052
       0.459
       0.871
       1.222
       1.480
       1.650
       1.760
       1.829
       1.849
       1.793
       1.629
       1.347
       0.987
       0.638
       0.403
       0.335
       0.407
       0.524
       0.560
       0.413
       0.053
      -0.456
      -0.979
      -1.379
      -1.581
      -1.587
      -1.463
      -1.293
      -1.147
      -1.050
      -0.981
      -0.888
      -0.726
      -0.478
      -0.176
       0.106
       0.275
       0.266
       0.099
      -0.123
      -0.273
      -0.279
      -0.169
      -0.047
      -0.025
      -0.160
      -0.427
      -0.738
      -0.991
      -1.123
      -1.120
      -1.016
      -0.868
      -0.732
      -0.634
      -0.557
      -0.461
      -0.319
      -0.143
       0.043
       0.231
       0.440
       0.691
       0.989
       1.308
       1.598
       1.798
       1.871
       1.827
       1.721
       1.606
       1.503
       1.397
       1.258
       1.055
       0.762
       0.381
      -0.045
      -0.441
      -0.744
      -0.937
      -1.047
      -1.112
      -1.149
      -1.149
      -1.084
      -0.935
      -0.718
      -0.488
      -0.311
      -0.229
      -0.232
      -0.263
      -0.246
      -0.124
       0.112
       0.405
       0.663
       0.808
       0.809
       0.692
       0.520
       0.367
       0.296
       0.321
       0.403
       0.477
       0.489
       0.425
       0.314
       0.202
       0.129
       0.092
       0.048
      -0.058
      -0.236
      -0.428
      -0.549
      -0.548
      -0.443
      -0.301
      -0.199
      -0.180
      -0.239
      -0.332
      -0.414
      -0.487
      -0.588
      -0.749
      -0.948
      -1.121
      -1.202
      -1.174
      -1.072
      -0.958
      -0.869
      -0.786
      -0.651
      -0.416
      -0.095
       0.241
       0.508
       0.663
       0.723
       0.758
       0.862
       1.112
       1.519
       2.007
       2.439
       2.684
       2.667
       2.402
       1.965
       1.459
       0.961
       0.503
       0.074
      -0.349
      -0.767
      -1.154
      -1.457
      -1.621
      -1.623
      -1.490
      -1.291
      -1.095
      -0.933
      -0.795
      -0.656
      -0.481
      -0.234
       0.111
       0.536
       0.969
       1.304
       1.450
       1.390
       1.191
       0.977
       0.852
       0.833
       0.826
       0.691
       0.339
      -0.202
      -0.795
      -1.263
      -1.482
      -1.446
      -1.275
      -1.153
      -1.226
      -1.530
      -1.987
      -2.451
      -2.770
      -2.828
      -2.582
      -2.070
      -1.389
      -0.657
       0.025
       0.589
       0.996
       1.226
       1.277
       1.167
       0.938
       0.664
       0.420
       0.249
       0.152
       0.113
       0.142
       0.283
       0.589
       1.080
       1.717
       2.391
       2.959
       3.300
       3.379
       3.261
       3.060
       2.859
       2.676
       2.471
       2.197
       1.837
       1.438
       1.101
       0.920
       0.923
       1.027
       1.073
       0.890
       0.384
      -0.416
      -1.354
      -2.223
      -2.855
      -3.190
      -3.257
      -3.124
      -2.850
      -2.474
      -2.016
      -1.480
      -0.879
      -0.272
       0.229
       0.497
       0.454
       0.101
      -0.488
      -1.198
      -1.898
      -2.462
      -2.790
      -2.829
      -2.606
      -2.239
      -1.904
      -1.768
      -1.907
      -2.281
      -2.770
      -3.225
      -3.516
      -3.564
      -3.357
      -2.952
      -2.428
      -1.842
      -1.220
      -0.581
       0.033
       0.558
       0.944
       1.180
       1.296
       1.341
       1.357
       1.375
       1.420
       1.522
       1.700
       1.941
       2.203
       2.453
       2.695
       2.961
       3.284
       3.673
       4.109
       4.537
       4.878
       5.061
       5.088
       5.041
       5.035
       5.122
       5.236
       5.212
       4.857
       4.049
       2.816
       1.335
      -0.141
      -1.410
      -2.393
      -3.132
      -3.711
      -4.182
      -4.531
      -4.695
      -4.606
      -4.241
      -3.652
      -2.954
      -2.286
      -1.767
      -1.458
      -1.339
      -1.317
      -1.278
      -1.158
      -0.963
      -0.754
      -0.591
      -0.504
      -0.486
      -0.507
      -0.543
      -0.604
      -0.754
      -1.080
      -1.640
      -2.412
      -3.285
      -4.097
      -4.698
      -5.003
      -5.011
      -4.783
      -4.391
      -3.883
      -3.264
      -2.508
      -1.577
      -0.462
       0.772
       1.987
       3.021
       3.779
       4.273
       4.604
       4.897
       5.239
       5.643
       6.049
       6.365
       6.530
       6.541
       6.436
       6.242
       5.948
       5.506
       4.862
       3.989
       2.916
       1.742
       0.606
      -0.348
      -1.018
      -1.363
      -1.420
      -1.280
      -1.052
      -0.828
      -0.682
      -0.690
      -0.925
      -1.420
      -2.130
      -2.940
      -3.701
      -4.271
      -4.558
      -4.551
      -4.329
      -4.011
      -3.682
      -3.348
      -2.949
      -2.421
      -1.752
      -1.010
      -0.318
       0.198
       0.478
       0.551
       0.516
       0.476
       0.501
       0.599
       0.728
       0.804
       0.736
       0.470
       0.022
      -0.516
      -1.021
      -1.390
      -1.585
      -1.642
      -1.638
      -1.631
      -1.628
      -1.589
      -1.470
      -1.251
      -0.953
      -0.612
      -0.257
       0.113
       0.517
       0.954
       1.366
       1.657
       1.757
       1.676
       1.506
       1.371
       1.379
       1.591
       2.003
       2.539
       3.061
       3.397
       3.392
       2.970
       2.173
       1.168
       0.189
      -0.541
      -0.881
      -0.799
      -0.367
       0.266
       0.910
       1.389
       1.587
       1.464
       1.060
       0.473
      -0.168
      -0.758
      -1.251
      -1.658
      -2.002
      -2.281
      -2.483
      -2.614
      -2.706
      -2.791
      -2.872
      -2.923
      -2.914
      -2.838
      -2.722
      -2.625
      -2.602
      -2.665
      -2.757
      -2.755
      -2.511
      -1.914
      -0.957
       0.242
       1.481
       2.551
       3.306
       3.674
       3.649
       3.284
       2.691
       2.003
       1.332
       0.746
       0.293
       0.027
       0.007
       0.269
       0.810
       1.579
       2.489
       3.426
       4.270
       4.917
       5.297
       5.384
       5.216
       4.887
       4.523
       4.243
       4.117
       4.147
       4.264
       4.346
       4.272
       3.972
       3.465
       2.825
       2.140
       1.460
       0.779
       0.035
      -0.856
      -1.932
      -3.121
      -4.236
      -5.051
      -5.406
      -5.288
      -4.856
      -4.372
      -4.082
      -4.080
      -4.263
      -4.395
      -4.255
      -3.768
      -3.047
      -2.328
      -1.850
      -1.734
      -1.938
      -2.296
      -2.627
      -2.828
      -2.916
      -3.001
      -3.221
      -3.673
      -4.348
      -5.121
      -5.789
      -6.146
      -6.036
      -5.390
      -4.243
      -2.742
      -1.112
       0.428
       1.724
       2.719
       3.426
       3.905
       4.236
       4.487
       4.698
       4.877
       5.032
       5.176
       5.328
       5.498
       5.678
       5.819
       5.836
       5.629
       5.151
       4.452
       3.678
       3.001
       2.523
       2.221
       1.956
       1.555
       0.912
       0.058
      -0.854
      -1.630
      -2.138
      -2.372
      -2.453
      -2.562
      -2.836
      -3.308
      -3.920
      -4.568
      -5.145
      -5.539
      -5.646
      -5.407
      -4.856
      -4.107
      -3.299
      -2.544
      -1.926
      -1.515
      -1.357
      -1.458
      -1.782
      -2.263
      -2.829
      -3.403
      -3.908
      -4.274
      -4.451
      -4.417
      -4.193
      -3.840
      -3.443
      -3.080
      -2.793
      -2.562
      -2.299
      -1.876
      -1.188
      -0.229
       0.898
       2.046
       3.122
       4.132
       5.140
       6.204
       7.334
       8.472
       9.501
      10.284
      10.719
      10.786
      10.547
      10.110
       9.589
       9.058
       8.541
       8.016
       7.449
       6.814
       6.088
       5.242
       4.248
       3.101
       1.829
       0.480
      -0.877
      -2.155
      -3.256
      -4.096
      -4.631
      -4.864
      -4.837
      -4.621
      -4.310
      -4.005
      -3.799
      -3.755
      -3.890
      -4.169
      -4.525
      -4.893
      -5.242
      -5.561
      -5.830
      -5.999
      -6.002
      -5.796
      -5.373
      -4.763
      -4.026
      -3.248
      -2.517
      -1.900
      -1.430
      -1.112
      -0.914
      -0.767
      -0.588
      -0.334
      -0.037
       0.227
       0.393
       0.442
       0.398
       0.299
       0.167
       0.006
      -0.191
      -0.420
      -0.655
      -0.858
      -0.996
      -1.039
      -0.952
      -0.710
      -0.321
       0.161
       0.671
       1.175
       1.699
       2.303
       3.032
       3.871
       4.736
       5.509
       6.106
       6.517
       6.793
       6.975
       7.056
       6.987
       6.732
       6.298
       5.732
       5.097
       4.456
       3.868
       3.378
       2.998
       2.689
       2.361
       1.913
       1.279
       0.467
      -0.458
      -1.406
      -2.282
      -2.988
      -3.450
      -3.665
      -3.722
      -3.758
      -3.889
      -4.154
      -4.516
      -4.894
      -5.203
      -5.384
      -5.435
      -5.394
      -5.310
      -5.194
      -5.023
      -4.760
      -4.381
      -3.893
      -3.323
      -2.705
      -2.054
      -1.367
      -0.652
       0.041
       0.630
       1.035
       1.207
       1.147
       0.898
       0.551
       0.220
      -0.011
      -0.123
      -0.161
      -0.195
      -0.276
      -0.430
      -0.661
      -0.958
      -1.292
      -1.612
      -1.828
      -1.823
      -1.491
      -0.788
       0.235
       1.452
       2.706
       3.846
       4.748
       5.339
       5.609
       5.597
       5.354
       4.920
       4.331
       3.643
       2.943
       2.336
       1.915
       1.732
       1.773
       1.958
       2.177
       2.325
       2.328
       2.142
       1.755
       1.182
       0.455
      -0.386
      -1.285
      -2.159
      -2.907
      -3.449
      -3.757
      -3.867
      -3.857
      -3.810
      -3.765
      -3.705
      -3.587
      -3.404
      -3.220
      -3.130
      -3.186
      -3.368
      -3.606
      -3.823
      -3.946
      -3.902
      -3.634
      -3.128
      -2.436
      -1.658
      -0.925
      -0.357
      -0.030
       0.056
      -0.025
      -0.154
      -0.206
      -0.080
       0.288
       0.912
       1.755
       2.727
       3.705
       4.562
       5.208
       5.617
       5.831
       5.921
       5.952
       5.951
       5.901
       5.748
       5.434
       4.945
       4.337
       3.713
       3.160
       2.704
       2.303
       1.878
       1.335
       0.610
      -0.281
      -1.224
      -2.052
      -2.642
      -2.982
      -3.171
      -3.347
      -3.612
      -3.978
      -4.367
      -4.655
      -4.730
      -4.549
      -4.164
      -3.707
      -3.340
      -3.178
      -3.223
      -3.359
      -3.429
      -3.319
      -3.012
      -2.575
      -2.122
      -1.762
      -1.564
      -1.524
      -1.576
      -1.632
      -1.623
      -1.517
      -1.304
      -0.996
      -0.602
      -0.121
       0.470
       1.186
       1.980
       2.730
       3.291
       3.570
       3.579
       3.416
       3.208
       3.040
       2.932
       2.856
       2.770
       2.664
       2.567
       2.526
       2.582
       2.734
       2.938
       3.116
       3.212
       3.223
       3.197
       3.188
       3.223
       3.300
       3.408
       3.528
       3.627
       3.664
       3.606
       3.439
       3.152
       2.731
       2.158
       1.426
       0.550
      -0.419
      -1.392
      -2.263
      -2.948
      -3.410
      -3.648
      -3.694
      -3.611
      -3.503
      -3.481
      -3.611
      -3.876
      -4.185
      -4.411
      -4.439
      -4.214
      -3.771
      -3.233
      -2.765
      -2.499
      -2.481
      -2.652
      -2.878
      -3.018
      -2.998
      -2.852
      -2.707
      -2.708
      -2.934
      -3.354
      -3.824
      -4.145
      -4.149
      -3.779
      -3.114
      -2.315
      -1.539
      -0.877
      -0.332
       0.153
       0.661
       1.248
       1.909
       2.579
       3.181
       3.664
       4.032
       4.329
       4.621
       4.953
       5.328
       5.701
       6.016
       6.236
       6.357
       6.391
       6.338
       6.182
       5.894
       5.454
       4.866
       4.177
       3.455
       2.758
       2.111
       1.518
       0.969
       0.445
      -0.088
      -0.663
      -1.296
      -1.983
      -2.703
      -3.422
      -4.066
      -4.538
      -4.745
      -4.637
      -4.223
      -3.565
      -2.765
      -1.945
      -1.230
      -0.719
      -0.476
      -0.529
      -0.841
      -1.305
      -1.752
      -2.008
      -1.960
      -1.597
      -1.026
      -0.431
      -0.010
       0.108
      -0.102
      -0.578
      -1.221
      -1.929
      -2.615
      -3.226
      -3.747
      -4.185
      -4.534
      -4.753
      -4.779
      -4.558
      -4.071
      -3.350
      -2.481
      -1.588
      -0.790
      -0.158
       0.305
       0.654
       0.971
       1.320
       1.717
       2.135
       2.548
       2.968
       3.446
       4.017
       4.658
       5.279
       5.767
       6.037
       6.070
       5.910
       5.630
       5.278
       4.853
       4.323
       3.671
       2.915
       2.100
       1.300
       0.593
       0.047
      -0.325
      -0.576
      -0.790
      -1.038
      -1.359
      -1.766
      -2.252
