Origin Time       3/9/2009 19:51:08	  UTC
Lat.              24.3 N	
Long.             94.6 E	
Depth (Km)        100.0
Magnitude         5.9
 Region           MYANMAR-India-Manipuir-Border                                    
 Above details taken from IMD 
    
Station Code      tur
Station Lat.       25.511  N
Station Long.      90.220  E
Station Height(m)  376.2
Site Class        A   Vs30 between 700 m/sec to 1400 m/sec * 
Record Time       03.09.2009 00:57:05.054 UTC
Sampling Rate     200. Hz
 Record Duration   71.210 Sec.
 Direction         N-S (N positive)
Max. Acceleration     -8.443 cm/sec**2
     
  * For reference see Site Classification link of website 
     
 Base Line Corrected and Low Pass Filtered (Cut Off at 35 Hz) Time History
 Acceleration data in cm/sec**2
    
[...]
       0.231
       0.102
      -0.032
      -0.151
      -0.246
      -0.313
      -0.343
      -0.327
      -0.281
      -0.241
      -0.242
      -0.278
      -0.309
      -0.300
      -0.248
      -0.181
      -0.125
      -0.086
      -0.048
       0.005
       0.073
       0.137
       0.174
       0.171
       0.130
       0.051
      -0.072
      -0.234
      -0.408
      -0.538
      -0.577
      -0.518
      -0.402
      -0.297
      -0.248
      -0.251
      -0.264
      -0.241
      -0.168
      -0.071
       0.015
       0.072
       0.118
       0.187
       0.311
       0.487
       0.671
       0.798
       0.819
       0.728
       0.562
       0.375
       0.214
       0.113
       0.090
       0.133
       0.205
       0.273
       0.335
       0.414
       0.519
       0.603
       0.591
       0.437
       0.170
      -0.127
      -0.374
      -0.545
      -0.657
      -0.732
      -0.757
      -0.698
      -0.540
      -0.322
      -0.125
      -0.019
      -0.016
      -0.067
      -0.110
      -0.112
      -0.094
      -0.098
      -0.156
      -0.256
      -0.347
      -0.371
      -0.294
      -0.120
       0.116
       0.361
       0.551
       0.634
       0.583
       0.413
       0.177
      -0.046
      -0.183
      -0.204
      -0.130
      -0.019
       0.077
       0.137
       0.160
       0.148
       0.095
       0.006
      -0.098
      -0.187
      -0.243
      -0.269
      -0.279
      -0.287
      -0.300
      -0.315
      -0.326
      -0.331
      -0.338
      -0.363
      -0.414
      -0.478
      -0.523
      -0.503
      -0.395
      -0.214
      -0.016
       0.140
       0.230
       0.275
       0.307
       0.343
       0.371
       0.377
       0.361
       0.332
       0.303
       0.274
       0.242
       0.207
       0.183
       0.193
       0.241
       0.301
       0.325
       0.282
       0.179
       0.059
      -0.032
      -0.059
      -0.018
       0.069
       0.165
       0.241
       0.291
       0.332
       0.378
       0.412
       0.387
       0.266
       0.053
      -0.184
      -0.345
      -0.364
      -0.249
      -0.084
       0.037
       0.070
       0.047
       0.040
       0.104
       0.232
       0.352
       0.372
       0.243
       0.003
      -0.244
      -0.398
      -0.424
      -0.358
      -0.264
      -0.187
      -0.140
      -0.124
      -0.145
      -0.215
      -0.331
      -0.468
      -0.586
      -0.651
      -0.643
      -0.568
      -0.452
      -0.328
      -0.230
      -0.174
      -0.144
      -0.097
       0.010
       0.189
       0.405
       0.592
       0.686
       0.657
       0.526
       0.350
       0.188
       0.077
       0.023
       0.027
       0.087
       0.196
       0.319
       0.405
       0.412
       0.330
       0.201
       0.106
       0.125
       0.289
       0.534
       0.731
       0.766
       0.612
       0.337
       0.045
      -0.191
      -0.353
      -0.457
      -0.517
      -0.537
      -0.515
      -0.464
      -0.421
      -0.419
      -0.466
      -0.531
      -0.575
      -0.576
      -0.548
      -0.517
      -0.490
      -0.438
      -0.308
      -0.062
       0.280
       0.633
       0.885
       0.960
       0.863
       0.670
       0.472
       0.318
       0.193
       0.051
      -0.137
      -0.341
      -0.491
      -0.521
      -0.423
      -0.250
      -0.089
      -0.013
      -0.054
      -0.198
      -0.394
      -0.572
      -0.662
      -0.608
      -0.389
      -0.038
       0.357
       0.680
       0.853
       0.874
       0.814
       0.764
       0.785
       0.870
       0.960
       0.978
       0.877
       0.661
       0.376
       0.069
      -0.241
      -0.558
      -0.886
      -1.193
      -1.414
      -1.472
      -1.333
      -1.025
      -0.627
      -0.221
       0.145
       0.458
       0.717
       0.904
       0.989
       0.944
       0.766
       0.488
       0.169
      -0.128
      -0.372
      -0.566
      -0.729
      -0.872
      -0.991
      -1.076
      -1.113
      -1.079
      -0.952
      -0.737
      -0.481
      -0.250
      -0.094
      -0.027
      -0.032
      -0.071
      -0.090
      -0.041
       0.100
       0.324
       0.597
       0.865
       1.075
       1.183
       1.167
       1.032
       0.802
       0.503
       0.163
      -0.198
      -0.560
      -0.908
      -1.223
      -1.476
      -1.631
      -1.660
      -1.553
      -1.324
      -1.008
      -0.663
      -0.356
      -0.137
      -0.011
       0.061
       0.139
       0.256
       0.397
       0.504
       0.522
       0.427
       0.239
       0.003
      -0.236
      -0.438
      -0.574
      -0.628
      -0.604
      -0.522
      -0.400
      -0.235
      -0.020
       0.240
       0.521
       0.782
       0.972
       1.058
       1.038
       0.953
       0.860
       0.793
       0.747
       0.696
       0.629
       0.564
       0.525
       0.515
       0.498
       0.420
       0.250
       0.020
      -0.186
      -0.283
      -0.243
      -0.116
       0.021
       0.120
       0.185
       0.256
       0.373
       0.555
       0.796
       1.071
       1.338
       1.547
       1.648
       1.607
       1.424
       1.132
       0.788
       0.451
       0.168
      -0.032
      -0.156
      -0.253
      -0.407
      -0.689
      -1.101
      -1.565
      -1.960
      -2.187
      -2.222
      -2.126
      -1.989
      -1.864
      -1.731
      -1.520
      -1.189
      -0.764
      -0.332
       0.013
       0.217
       0.277
       0.223
       0.111
       0.003
      -0.048
      -0.023
       0.059
       0.161
       0.255
       0.346
       0.473
       0.670
       0.933
       1.209
       1.425
       1.545
       1.580
       1.571
       1.545
       1.505
       1.431
       1.312
       1.164
       1.036
       0.991
       1.053
       1.179
       1.279
       1.273
       1.144
       0.939
       0.732
       0.563
       0.417
       0.247
       0.013
      -0.278
      -0.589
      -0.884
      -1.154
      -1.403
      -1.618
      -1.754
      -1.754
      -1.571
      -1.208
      -0.722
      -0.219
       0.199
       0.473
       0.599
       0.584
       0.401
      -0.007
      -0.672
      -1.536
      -2.450
      -3.230
      -3.732
      -3.915
      -3.832
      -3.584
      -3.256
      -2.897
      -2.513
      -2.097
      -1.634
      -1.119
      -0.577
      -0.064
       0.343
       0.589
       0.674
       0.658
       0.638
       0.703
       0.887
       1.149
       1.400
       1.556
       1.593
       1.542
       1.472
       1.444
       1.498
       1.646
       1.879
       2.157
       2.405
       2.527
       2.451
       2.178
       1.788
       1.386
       1.048
       0.795
       0.622
       0.534
       0.546
       0.669
       0.892
       1.174
       1.447
       1.634
       1.684
       1.588
       1.376
       1.085
       0.731
       0.304
      -0.205
      -0.764
      -1.282
      -1.644
      -1.776
      -1.686
      -1.450
      -1.146
      -0.811
      -0.434
       0.004
       0.487
       0.950
       1.276
       1.338
       1.056
       0.448
      -0.357
      -1.161
      -1.789
      -2.154
      -2.296
      -2.327
      -2.362
      -2.456
      -2.606
      -2.792
      -3.011
      -3.279
      -3.602
      -3.954
      -4.268
      -4.452
      -4.422
      -4.126
      -3.560
      -2.747
      -1.727
      -0.560
       0.660
       1.802
       2.729
       3.351
       3.658
       3.720
       3.644
       3.510
       3.339
       3.100
       2.753
       2.297
       1.787
       1.311
       0.967
       0.827
       0.912
       1.185
       1.560
       1.933
       2.211
       2.327
       2.247
       1.977
       1.560
       1.057
       0.545
       0.100
      -0.209
      -0.349
      -0.348
      -0.275
      -0.194
      -0.119
      -0.019
       0.133
       0.316
       0.452
       0.444
       0.228
      -0.189
      -0.721
      -1.229
      -1.585
      -1.730
      -1.713
      -1.655
      -1.682
      -1.843
      -2.089
      -2.324
      -2.476
      -2.551
      -2.599
      -2.659
      -2.709
      -2.684
      -2.520
      -2.207
      -1.816
      -1.477
      -1.319
      -1.396
      -1.652
      -1.964
      -2.199
      -2.268
      -2.131
      -1.776
      -1.209
      -0.452
       0.452
       1.429
       2.383
       3.225
       3.896
       4.381
       4.709
       4.927
       5.078
       5.183
       5.224
       5.167
       4.999
       4.754
       4.487
       4.229
       3.956
       3.605
       3.116
       2.468
       1.692
       0.857
       0.045
      -0.683
      -1.307
      -1.823
      -2.205
      -2.399
      -2.360
      -2.115
      -1.777
      -1.513
      -1.452
      -1.624
      -1.939
      -2.256
      -2.461
      -2.523
      -2.476
      -2.376
      -2.255
      -2.112
      -1.920
      -1.659
      -1.336
      -1.018
      -0.811
      -0.820
      -1.086
      -1.541
      -2.020
      -2.329
      -2.326
      -1.983
      -1.381
      -0.653
       0.071
       0.695
       1.172
       1.497
       1.706
       1.852
       1.989
       2.164
       2.405
       2.699
       2.965
       3.083
       2.944
       2.518
       1.879
       1.172
       0.554
       0.123
      -0.120
      -0.248
      -0.347
      -0.459
      -0.570
      -0.622
      -0.547
      -0.299
       0.114
       0.619
       1.107
       1.489
       1.729
       1.848
       1.895
       1.921
       1.946
       1.957
       1.900
       1.714
       1.354
       0.820
       0.143
      -0.628
      -1.433
      -2.196
      -2.823
      -3.205
      -3.261
      -2.983
      -2.465
      -1.874
      -1.387
      -1.129
      -1.148
      -1.427
      -1.919
      -2.568
      -3.318
      -4.090
      -4.762
      -5.209
      -5.378
      -5.319
      -5.137
      -4.876
      -4.474
      -3.821
      -2.885
      -1.780
      -0.718
       0.122
       0.682
       1.019
       1.227
       1.360
       1.434
       1.481
       1.581
       1.825
       2.245
       2.773
       3.244
       3.473
       3.340
       2.870
       2.248
       1.737
       1.546
       1.724
       2.164
       2.684
       3.124
       3.405
       3.528
       3.549
       3.543
       3.560
       3.605
       3.638
       3.598
       3.434
       3.143
       2.784
       2.462
       2.276
       2.268
       2.398
       2.555
       2.595
       2.386
       1.857
       1.036
       0.050
      -0.914
      -1.685
      -2.172
      -2.388
      -2.427
      -2.413
      -2.448
      -2.588
      -2.836
      -3.146
      -3.428
      -3.583
      -3.559
      -3.382
      -3.144
      -2.930
      -2.773
      -2.634
      -2.440
      -2.119
      -1.647
      -1.074
      -0.526
      -0.149
      -0.028
      -0.117
      -0.243
      -0.183
       0.212
       0.936
       1.811
       2.571
       2.987
       2.966
       2.586
       2.046
       1.561
       1.261
       1.140
       1.102
       1.040
       0.904
       0.703
       0.457
       0.173
      -0.151
      -0.503
      -0.858
      -1.193
      -1.496
      -1.754
      -1.937
      -2.003
      -1.924
      -1.716
      -1.475
      -1.351
      -1.494
      -1.964
      -2.695
      -3.513
      -4.203
      -4.586
      -4.566
      -4.141
      -3.395
      -2.469
      -1.539
      -0.774
      -0.292
      -0.126
      -0.217
      -0.440
      -0.639
      -0.655
      -0.380
       0.202
       1.006
       1.892
       2.712
       3.330
       3.626
       3.518
       3.023
       2.279
       1.495
       0.849
       0.403
       0.094
      -0.218
      -0.660
      -1.270
      -1.950
      -2.493
      -2.667
      -2.322
      -1.463
      -0.243
       1.106
       2.359
       3.374
       4.102
       4.569
       4.834
       4.951
       4.947
       4.835
       4.631
       4.377
       4.139
       3.968
       3.865
       3.779
       3.640
       3.413
       3.112
       2.779
       2.444
       2.092
       1.658
       1.065
       0.289
      -0.586
      -1.367
      -1.834
      -1.860
      -1.491
      -0.939
      -0.480
      -0.311
      -0.466
      -0.824
      -1.215
      -1.533
      -1.784
      -2.055
      -2.434
      -2.939
      -3.506
      -4.014
      -4.354
      -4.485
      -4.451
      -4.348
      -4.284
      -4.332
      -4.509
      -4.764
      -5.002
      -5.125
      -5.071
      -4.836
      -4.454
      -3.968
      -3.417
      -2.835
      -2.258
      -1.734
      -1.311
      -1.016
      -0.839
      -0.724
      -0.606
      -0.441
      -0.226
       0.021
       0.293
       0.618
       1.051
       1.631
       2.353
       3.155
       3.961
       4.721
       5.429
       6.091
       6.693
       7.187
       7.520
       7.671
       7.670
       7.569
       7.403
       7.154
       6.770
       6.212
       5.495
       4.690
       3.874
       3.096
       2.364
       1.680
       1.061
       0.556
       0.217
       0.077
       0.131
       0.352
       0.698
       1.104
       1.458
       1.615
       1.448
       0.921
       0.095
      -0.925
      -2.056
      -3.262
      -4.515
      -5.742
      -6.811
      -7.586
      -8.011
      -8.141
      -8.108
      -8.036
      -7.994
      -8.005
      -8.075
      -8.197
      -8.341
      -8.443
      -8.433
      -8.250
      -7.841
      -7.143
      -6.109
      -4.751
      -3.183
      -1.612
      -0.273
       0.674
       1.212
       1.472
       1.657
       1.944
       2.414
       3.040
       3.724
       4.360
       4.874
       5.247
       5.492
       5.603
       5.540
       5.268
       4.825
       4.332
       3.937
       3.727
       3.692
       3.757
       3.842
       3.896
       3.886
       3.774
       3.501
       3.020
       2.337
       1.552
       0.842
       0.389
       0.297
       0.528
       0.894
       1.123
       0.974
       0.340
      -0.699
      -1.920
      -3.046
      -3.831
      -4.123
      -3.890
      -3.218
      -2.273
      -1.251
      -0.329
       0.358
       0.722
       0.728
       0.403
      -0.169
      -0.862
      -1.544
      -2.103
      -2.457
      -2.551
      -2.362
      -1.917
      -1.311
      -0.697
      -0.238
      -0.031
      -0.073
      -0.271
      -0.487
      -0.586
      -0.482
      -0.152
       0.356
       0.953
       1.538
       2.026
       2.359
       2.531
       2.585
       2.601
       2.646
       2.750
       2.897
       3.043
       3.140
       3.156
       3.088
       2.955
       2.787
       2.609
       2.441
       2.308
       2.232
       2.209
       2.217
       2.230
       2.248
       2.281
       2.307
       2.241
       1.955
       1.339
       0.370
      -0.871
      -2.227
      -3.511
      -4.554
      -5.235
      -5.513
      -5.461
      -5.251
      -5.096
      -5.146
      -5.417
      -5.789
      -6.069
      -6.085
      -5.776
      -5.224
      -4.616
      -4.146
      -3.910
      -3.852
      -3.799
      -3.550
      -2.985
      -2.118
      -1.096
      -0.120
       0.648
       1.156
       1.470
       1.729
       2.064
       2.554
       3.204
       3.954
       4.684
       5.222
       5.383
       5.042
       4.216
       3.094
       1.973
       1.155
       0.836
       1.052
       1.682
       2.512
       3.324
       3.964
       4.355
       4.462
       4.257
       3.727
       2.903
       1.888
       0.844
      -0.038
      -0.589
      -0.707
      -0.404
       0.189
       0.852
       1.364
       1.597
       1.572
       1.437
       1.363
       1.423
       1.549
       1.589
       1.407
       0.965
       0.335
      -0.349
      -0.953
      -1.415
      -1.766
      -2.111
      -2.567
      -3.188
      -3.940
      -4.708
      -5.350
      -5.738
      -5.799
      -5.548
      -5.101
      -4.652
      -4.406
      -4.477
      -4.819
      -5.225
      -5.441
      -5.296
      -4.779
      -3.998
      -3.090
      -2.160
      -1.282
      -0.512
       0.117
       0.626
       1.095
       1.636
       2.335
       3.194
       4.103
       4.881
       5.356
       5.447
       5.206
       4.786
       4.361
       4.044
       3.843
       3.684
       3.485
       3.216
       2.910
       2.630
       2.438
       2.369
       2.429
       2.575
       2.730
       2.804
       2.740
       2.521
       2.168
       1.727
       1.255
       0.799
       0.371
      -0.057
      -0.518
      -0.993
      -1.387
      -1.574
      -1.487
      -1.184
      -0.835
      -0.637
      -0.710
      -1.071
      -1.677
      -2.482
      -3.442
      -4.459
      -5.352
      -5.893
      -5.917
      -5.410
      -4.523
      -3.498
      -2.549
      -1.793
      -1.246
      -0.875
      -0.638
      -0.479
      -0.315
      -0.055
       0.362
       0.915
       1.503
       1.979
       2.199
       2.063
       1.549
       0.713
      -0.315
      -1.373
      -2.306
      -3.003
      -3.419
      -3.565
      -3.473
      -3.172
      -2.687
      -2.061
      -1.367
      -0.694
      -0.112
       0.348
       0.698
       0.978
       1.233
       1.501
       1.810
       2.188
       2.660
       3.243
       3.936
       4.724
       5.573
       6.423
       7.174
       7.709
       7.932
       7.811
       7.374
       6.668
       5.733
       4.606
       3.355
       2.094
       0.962
       0.062
      -0.590
      -1.074
      -1.519
      -2.034
      -2.667
      -3.400
      -4.161
      -4.851
      -5.375
      -5.680
      -5.778
      -5.743
      -5.676
      -5.650
      -5.662
      -5.615
      -5.371
      -4.850
      -4.088
      -3.210
      -2.330
      -1.476
      -0.611
       0.299
       1.230
       2.116
       2.886
       3.500
       3.942
       4.197
       4.234
       4.026
       3.585
       2.986
       2.345
       1.752
       1.219
       0.678
       0.039
      -0.737
      -1.595
      -2.418
      -3.090
      -3.541
      -3.743
      -3.686
      -3.384
      -2.907
      -2.369
      -1.885
      -1.514
      -1.255
      -1.074
      -0.930
      -0.764
      -0.497
      -0.052
       0.594
       1.372
       2.144
       2.758
       3.123
       3.248
       3.233
       3.205
       3.250
       3.375
       3.509
       3.554
       3.431
       3.119
       2.666
       2.161
       1.683
       1.258
       0.859
       0.449
       0.034
      -0.327
      -0.559
      -0.633
      -0.596
      -0.544
      -0.555
      -0.633
      -0.717
      -0.726
      -0.626
      -0.433
      -0.194
       0.043
       0.243
       0.394
       0.510
       0.620
       0.744
       0.879
       0.997
       1.054
       1.006
       0.827
       0.542
       0.228
      -0.007
      -0.090
      -0.027
       0.089
       0.119
      -0.038
      -0.394
      -0.865
      -1.331
      -1.704
      -1.956
      -2.094
      -2.141
      -2.126
      -2.095
      -2.112
      -2.238
      -2.516
      -2.952
      -3.494
      -4.042
      -4.506
      -4.860
      -5.150
