Origin Time       11/8/2009 21:43:39 
Lat.              24.4 N 
Long.             94.8 E 
Depth (Km)         22.0
Magnitude         5.6
 Region           MYANMAR-INDIA(MANIPUR)BORDER                                     
 Above details taken from IMD 
   
Station Code      tur
Station Lat.       25.511
Station Long.      90.220
Station Height(m)  372.0
Site Class        B   Vs30 between 375 m/sec to 700 m/sec *  
Record Time       11.08.2009 17:55:50.219
Sampling Rate     200. Hz
 Record Duration   74.930 Sec.
 Direction         Vert. (Up positive)
Max. Acceleration     12.564 cm/sec**2
     
  * For reference see Site Classification link of website 
     
 Base Line Corrected and Low Pass Filtered (Cut Off at 35 Hz) Time History
 Acceleration data in cm/sec**2
    
[...]
      -0.164
      -0.039
       0.033
       0.017
      -0.092
      -0.263
      -0.455
      -0.640
      -0.798
      -0.917
      -0.984
      -0.991
      -0.935
      -0.817
      -0.646
      -0.447
      -0.260
      -0.109
       0.028
       0.206
       0.457
       0.737
       0.952
       1.038
       1.019
       0.991
       1.028
       1.124
       1.192
       1.136
       0.919
       0.579
       0.199
      -0.130
      -0.354
      -0.469
      -0.515
      -0.532
      -0.522
      -0.453
      -0.308
      -0.118
       0.044
       0.123
       0.119
       0.079
       0.063
       0.114
       0.245
       0.439
       0.635
       0.738
       0.665
       0.404
       0.025
      -0.380
      -0.754
      -1.094
      -1.400
      -1.633
      -1.711
      -1.562
      -1.180
      -0.649
      -0.106
       0.324
       0.594
       0.743
       0.842
       0.914
       0.904
       0.728
       0.383
      -0.012
      -0.272
      -0.281
      -0.075
       0.181
       0.312
       0.235
      -0.002
      -0.276
      -0.472
      -0.556
      -0.581
      -0.619
      -0.678
      -0.665
      -0.455
      -0.011
       0.555
       1.035
       1.261
       1.205
       0.975
       0.721
       0.540
       0.435
       0.358
       0.271
       0.190
       0.154
       0.182
       0.231
       0.220
       0.090
      -0.146
      -0.403
      -0.583
      -0.630
      -0.555
      -0.406
      -0.233
      -0.083
       0.006
       0.011
      -0.046
      -0.092
      -0.041
       0.140
       0.380
       0.529
       0.456
       0.152
      -0.238
      -0.489
      -0.440
      -0.103
       0.332
       0.605
       0.535
       0.121
      -0.473
      -1.023
      -1.365
      -1.458
      -1.344
      -1.083
      -0.714
      -0.269
       0.195
       0.584
       0.797
       0.780
       0.554
       0.211
      -0.132
      -0.379
      -0.477
      -0.416
      -0.213
       0.089
       0.413
       0.653
       0.710
       0.556
       0.254
      -0.063
      -0.272
      -0.330
      -0.273
      -0.172
      -0.062
       0.072
       0.254
       0.468
       0.643
       0.686
       0.552
       0.289
       0.030
      -0.070
       0.069
       0.390
       0.730
       0.919
       0.876
       0.650
       0.368
       0.142
       0.014
      -0.053
      -0.126
      -0.254
      -0.427
      -0.585
      -0.666
      -0.649
      -0.558
      -0.441
      -0.333
      -0.241
      -0.156
      -0.072
       0.007
       0.078
       0.147
       0.228
       0.325
       0.401
       0.360
       0.092
      -0.437
      -1.103
      -1.646
      -1.814
      -1.532
      -0.962
      -0.394
      -0.041
       0.086
       0.136
       0.264
       0.496
       0.724
       0.801
       0.665
       0.397
       0.173
       0.146
       0.351
       0.681
       0.965
       1.069
       0.966
       0.721
       0.431
       0.169
      -0.035
      -0.185
      -0.296
      -0.398
      -0.524
      -0.690
      -0.881
      -1.048
      -1.136
      -1.104
      -0.947
      -0.696
      -0.402
      -0.103
       0.207
       0.568
       0.990
       1.400
       1.655
       1.640
       1.365
       0.983
       0.693
       0.610
       0.693
       0.785
       0.719
       0.429
      -0.017
      -0.470
      -0.802
      -0.983
      -1.083
      -1.194
      -1.333
      -1.415
      -1.336
      -1.078
      -0.746
      -0.493
      -0.401
      -0.428
      -0.457
      -0.394
      -0.214
       0.065
       0.423
       0.840
       1.251
       1.527
       1.541
       1.272
       0.866
       0.556
       0.508
       0.692
       0.894
       0.858
       0.469
      -0.165
      -0.787
      -1.157
      -1.200
      -1.025
      -0.822
      -0.722
      -0.727
      -0.748
      -0.703
      -0.597
      -0.503
      -0.482
      -0.520
      -0.545
      -0.503
      -0.416
      -0.355
      -0.361
      -0.393
      -0.342
      -0.102
       0.357
       0.967
       1.574
       2.005
       2.139
       1.978
       1.644
       1.307
       1.075
       0.945
       0.840
       0.688
       0.453
       0.121
      -0.320
      -0.849
      -1.380
      -1.779
      -1.931
      -1.802
      -1.441
      -0.941
      -0.404
       0.068
       0.384
       0.494
       0.413
       0.203
      -0.059
      -0.299
      -0.451
      -0.457
      -0.312
      -0.084
       0.117
       0.216
       0.211
       0.149
       0.066
      -0.043
      -0.194
      -0.373
      -0.514
      -0.537
      -0.394
      -0.116
       0.187
       0.397
       0.464
       0.454
       0.492
       0.660
       0.921
       1.149
       1.216
       1.066
       0.726
       0.265
      -0.236
      -0.692
      -1.029
      -1.209
      -1.243
      -1.168
      -0.998
      -0.713
      -0.307
       0.156
       0.553
       0.775
       0.808
       0.739
       0.691
       0.724
       0.783
       0.722
       0.397
      -0.216
      -0.954
      -1.520
      -1.648
      -1.275
      -0.581
       0.125
       0.589
       0.734
       0.641
       0.437
       0.200
      -0.057
      -0.334
      -0.591
      -0.748
      -0.731
      -0.525
      -0.184
       0.190
       0.495
       0.663
       0.671
       0.535
       0.291
      -0.005
      -0.258
      -0.339
      -0.139
       0.334
       0.900
       1.276
       1.258
       0.862
       0.324
      -0.068
      -0.153
       0.021
       0.272
       0.422
       0.405
       0.275
       0.127
      -0.003
      -0.174
      -0.479
      -0.946
      -1.472
      -1.864
      -1.948
      -1.666
      -1.102
      -0.427
       0.181
       0.601
       0.784
       0.746
       0.550
       0.281
       0.021
      -0.166
      -0.228
      -0.120
       0.170
       0.575
       0.944
       1.099
       0.924
       0.439
      -0.212
      -0.825
      -1.237
      -1.384
      -1.307
      -1.088
      -0.778
      -0.374
       0.130
       0.681
       1.148
       1.389
       1.345
       1.093
       0.790
       0.582
       0.524
       0.570
       0.623
       0.589
       0.428
       0.167
      -0.113
      -0.329
      -0.447
      -0.507
      -0.585
      -0.729
      -0.908
      -1.017
      -0.938
      -0.620
      -0.127
       0.382
       0.721
       0.769
       0.529
       0.121
      -0.278
      -0.528
      -0.580
      -0.475
      -0.283
      -0.052
       0.205
       0.480
       0.741
       0.940
       1.026
       0.973
       0.777
       0.463
       0.087
      -0.263
      -0.495
      -0.552
      -0.443
      -0.246
      -0.075
      -0.017
      -0.092
      -0.242
      -0.389
      -0.492
      -0.569
      -0.668
      -0.813
      -0.973
      -1.080
      -1.067
      -0.920
      -0.692
      -0.469
      -0.306
      -0.175
       0.012
       0.310
       0.670
       0.965
       1.096
       1.078
       1.040
       1.120
       1.366
       1.683
       1.887
       1.814
       1.417
       0.793
       0.105
      -0.521
      -1.046
      -1.485
      -1.828
      -2.015
      -1.973
      -1.695
      -1.262
      -0.807
      -0.436
      -0.179
       0.011
       0.217
       0.497
       0.858
       1.257
       1.633
       1.927
       2.093
       2.082
       1.861
       1.442
       0.926
       0.468
       0.190
       0.088
       0.032
      -0.144
      -0.515
      -1.015
      -1.494
      -1.806
      -1.893
      -1.815
      -1.720
      -1.767
      -2.019
      -2.392
      -2.698
      -2.780
      -2.607
      -2.264
      -1.844
      -1.368
      -0.808
      -0.179
       0.434
       0.931
       1.278
       1.518
       1.712
       1.892
       2.063
       2.230
       2.400
       2.575
       2.751
       2.917
       3.042
       3.041
       2.785
       2.190
       1.312
       0.362
      -0.385
      -0.729
      -0.633
      -0.233
       0.230
       0.517
       0.506
       0.232
      -0.179
      -0.632
      -1.131
      -1.712
      -2.326
      -2.790
      -2.895
      -2.559
      -1.898
      -1.152
      -0.551
      -0.226
      -0.193
      -0.381
      -0.663
      -0.901
      -0.985
      -0.870
      -0.577
      -0.174
       0.247
       0.601
       0.846
       0.987
       1.057
       1.058
       0.930
       0.600
       0.060
      -0.570
      -1.072
      -1.236
      -0.967
      -0.350
       0.371
       0.890
       0.988
       0.648
       0.066
      -0.474
      -0.776
      -0.814
      -0.686
      -0.492
      -0.262
       0.012
       0.286
       0.434
       0.319
      -0.082
      -0.622
      -1.043
      -1.117
      -0.777
      -0.147
       0.537
       1.057
       1.314
       1.339
       1.232
       1.083
       0.952
       0.897
       0.978
       1.221
       1.568
       1.900
       2.132
       2.279
       2.418
       2.566
       2.605
       2.351
       1.702
       0.753
      -0.237
      -0.982
      -1.330
      -1.349
      -1.280
      -1.380
      -1.757
      -2.295
      -2.737
      -2.859
      -2.615
      -2.143
      -1.655
      -1.307
      -1.141
      -1.087
      -1.035
      -0.890
      -0.616
      -0.242
       0.166
       0.525
       0.754
       0.785
       0.602
       0.277
      -0.019
      -0.094
       0.144
       0.601
       1.027
       1.155
       0.860
       0.233
      -0.493
      -1.100
      -1.498
      -1.723
      -1.848
      -1.885
      -1.750
      -1.330
      -0.592
       0.326
       1.134
       1.540
       1.441
       1.004
       0.556
       0.353
       0.417
       0.556
       0.540
       0.267
      -0.178
      -0.592
      -0.761
      -0.553
       0.038
       0.896
       1.833
       2.660
       3.224
       3.431
       3.258
       2.773
       2.131
       1.516
       1.039
       0.684
       0.362
       0.023
      -0.273
      -0.401
      -0.303
      -0.074
       0.067
      -0.066
      -0.468
      -0.915
      -1.117
      -0.931
      -0.481
      -0.058
       0.102
      -0.013
      -0.230
      -0.377
      -0.452
      -0.608
      -0.990
      -1.584
      -2.226
      -2.742
      -3.094
      -3.401
      -3.814
      -4.363
      -4.884
      -5.109
      -4.842
      -4.096
      -3.102
      -2.152
      -1.409
      -0.806
      -0.125
       0.818
       2.026
       3.303
       4.374
       5.040
       5.275
       5.208
       5.030
       4.888
       4.830
       4.811
       4.743
       4.548
       4.189
       3.677
       3.064
       2.406
       1.722
       0.988
       0.168
      -0.720
      -1.601
      -2.393
      -3.065
      -3.636
      -4.105
      -4.403
      -4.428
      -4.148
      -3.668
      -3.191
      -2.890
      -2.801
      -2.793
      -2.638
      -2.126
      -1.182
       0.083
       1.403
       2.463
       3.052
       3.150
       2.911
       2.569
       2.308
       2.174
       2.062
       1.771
       1.121
       0.088
      -1.136
      -2.217
      -2.846
      -2.899
      -2.482
      -1.830
      -1.155
      -0.544
       0.042
       0.676
       1.359
       1.970
       2.316
       2.254
       1.795
       1.115
       0.461
       0.025
      -0.131
      -0.066
       0.112
       0.309
       0.461
       0.517
       0.422
       0.153
      -0.254
      -0.722
      -1.194
      -1.682
      -2.244
      -2.890
      -3.493
      -3.806
      -3.597
      -2.802
      -1.587
      -0.268
       0.849
       1.599
       1.990
       2.134
       2.153
       2.123
       2.071
       2.003
       1.911
       1.784
       1.636
       1.530
       1.557
       1.766
       2.118
       2.484
       2.719
       2.728
       2.481
       1.992
       1.293
       0.440
      -0.474
      -1.325
      -1.981
      -2.335
      -2.332
      -2.011
      -1.529
      -1.125
      -1.015
      -1.258
      -1.710
      -2.101
      -2.210
      -2.000
      -1.618
      -1.265
      -1.051
      -0.945
      -0.836
      -0.645
      -0.389
      -0.154
      -0.016
       0.009
      -0.034
      -0.090
      -0.148
      -0.259
      -0.492
      -0.859
      -1.253
      -1.491
      -1.441
      -1.141
      -0.792
      -0.612
      -0.669
      -0.835
      -0.894
      -0.722
      -0.365
       0.048
       0.455
       0.935
       1.621
       2.538
       3.527
       4.300
       4.610
       4.395
       3.816
       3.161
       2.693
       2.523
       2.585
       2.704
       2.704
       2.492
       2.055
       1.412
       0.564
      -0.489
      -1.700
      -2.947
      -4.056
      -4.864
      -5.262
      -5.218
      -4.778
      -4.048
      -3.162
      -2.250
      -1.420
      -0.754
      -0.286
       0.037
       0.369
       0.887
       1.677
       2.655
       3.622
       4.383
       4.848
       5.048
       5.085
       5.038
       4.889
       4.498
       3.684
       2.364
       0.656
      -1.155
      -2.787
      -4.131
      -5.287
      -6.421
      -7.592
      -8.663
      -9.384
      -9.544
      -9.091
      -8.159
      -7.012
      -5.942
      -5.145
      -4.634
      -4.240
      -3.727
      -2.942
      -1.905
      -0.765
       0.316
       1.271
       2.122
       2.915
       3.662
       4.344
       4.958
       5.570
       6.312
       7.316
       8.614
      10.075
      11.423
      12.333
      12.564
      12.064
      10.994
       9.643
       8.254
       6.854
       5.253
       3.242
       0.857
      -1.537
      -3.437
      -4.506
      -4.752
      -4.440
      -3.893
      -3.350
      -2.955
      -2.782
      -2.829
      -3.007
      -3.194
      -3.356
      -3.596
      -4.084
      -4.915
      -6.027
      -7.233
      -8.304
      -9.040
      -9.317
      -9.102
      -8.456
      -7.477
      -6.246
      -4.829
      -3.340
      -1.992
      -1.034
      -0.636
      -0.809
      -1.405
      -2.177
      -2.859
      -3.235
      -3.182
      -2.656
      -1.659
      -0.224
       1.561
       3.524
       5.435
       7.073
       8.274
       8.921
       8.937
       8.344
       7.357
       6.389
       5.867
       5.975
       6.543
       7.189
       7.606
       7.718
       7.619
       7.399
       7.062
       6.589
       6.052
       5.614
       5.414
       5.418
       5.394
       5.027
       4.092
       2.557
       0.552
      -1.708
      -4.004
      -6.139
      -7.945
      -9.286
     -10.065
     -10.248
      -9.898
      -9.197
      -8.417
      -7.838
      -7.655
      -7.908
      -8.470
      -9.090
      -9.490
      -9.504
      -9.145
      -8.557
      -7.860
      -7.037
      -5.988
      -4.675
      -3.217
      -1.824
      -0.642
       0.353
       1.318
       2.411
       3.689
       5.071
       6.389
       7.470
       8.220
       8.647
       8.821
       8.793
       8.552
       8.055
       7.309
       6.416
       5.545
       4.840
       4.366
       4.103
       3.993
       3.985
       4.038
       4.107
       4.113
       3.953
       3.534
       2.811
       1.801
       0.583
      -0.719
      -1.965
      -3.043
      -3.901
      -4.534
      -4.949
      -5.152
      -5.182
      -5.116
      -5.036
      -4.968
      -4.878
      -4.715
      -4.462
      -4.122
      -3.703
      -3.201
      -2.619
      -1.974
      -1.283
      -0.549
       0.215
       0.973
       1.661
       2.203
       2.509
       2.467
       1.986
       1.067
      -0.151
      -1.423
      -2.488
      -3.160
      -3.373
      -3.171
      -2.668
      -1.999
      -1.300
      -0.705
      -0.338
      -0.265
      -0.434
      -0.661
      -0.709
      -0.425
       0.165
       0.876
       1.476
       1.807
       1.855
       1.732
       1.614
       1.644
       1.857
       2.166
       2.425
       2.520
       2.418
       2.160
       1.848
       1.656
       1.809
       2.489
       3.689
       5.139
       6.418
       7.183
       7.343
       7.043
       6.497
       5.804
       4.892
       3.627
       1.986
       0.148
      -1.555
      -2.819
      -3.543
      -3.868
      -4.029
      -4.171
      -4.278
      -4.273
      -4.165
      -4.078
      -4.136
      -4.347
      -4.607
      -4.819
      -4.993
      -5.219
      -5.579
      -6.054
      -6.514
      -6.772
      -6.674
      -6.174
      -5.362
      -4.415
      -3.495
      -2.670
      -1.921
      -1.208
      -0.524
       0.127
       0.788
       1.557
       2.516
       3.650
       4.830
       5.872
       6.623
       7.023
       7.128
       7.083
       7.069
       7.217
       7.541
       7.945
       8.285
       8.422
       8.244
       7.678
       6.710
       5.408
       3.906
       2.345
       0.842
      -0.507
      -1.609
      -2.411
      -2.962
      -3.428
      -4.001
      -4.769
      -5.656
      -6.478
      -7.081
      -7.415
      -7.533
      -7.523
      -7.439
      -7.259
      -6.878
      -6.156
      -5.004
      -3.484
      -1.800
      -0.190
       1.203
       2.365
       3.342
       4.150
       4.744
       5.035
       4.933
       4.404
       3.517
       2.446
       1.394
       0.491
      -0.248
      -0.863
      -1.386
      -1.842
      -2.289
      -2.804
      -3.407
      -4.003
      -4.423
      -4.538
      -4.334
      -3.887
      -3.277
      -2.532
      -1.649
      -0.666
       0.313
       1.162
       1.831
       2.392
       2.976
       3.646
       4.304
       4.721
       4.682
       4.158
       3.374
       2.687
       2.354
       2.361
       2.472
       2.467
       2.331
       2.233
       2.325
       2.572
       2.765
       2.687
       2.263
       1.575
       0.771
      -0.019
      -0.687
      -1.129
      -1.291
      -1.239
      -1.178
      -1.336
      -1.803
      -2.461
      -3.082
      -3.527
      -3.852
      -4.221
      -4.713
      -5.222
      -5.555
      -5.615
      -5.473
      -5.244
      -4.928
      -4.384
      -3.478
      -2.231
      -0.822
       0.528
       1.680
       2.609
       3.370
       4.036
       4.628
       5.048
       5.086
       4.560
       3.507
       2.262
       1.308
       1.007
       1.404
       2.227
       3.074
       3.617
       3.722
       3.437
       2.908
       2.294
       1.714
       1.225
       0.839
       0.548
       0.346
       0.248
       0.272
       0.403
       0.559
       0.590
       0.331
      -0.319
      -1.299
      -2.383
      -3.279
      -3.785
      -3.886
      -3.711
      -3.397
      -2.970
      -2.351
      -1.462
      -0.324
       0.932
       2.116
       3.012
       3.413
       3.175
       2.314
       1.038
      -0.322
      -1.468
      -2.234
      -2.615
      -2.743
      -2.840
      -3.145
      -3.788
      -4.698
      -5.621
      -6.249
      -6.351
      -5.847
      -4.795
      -3.345
      -1.674
       0.047
       1.665
       3.029
       3.991
       4.462
       4.493
       4.306
       4.204
       4.402
       4.884
       5.408
       5.663
       5.446
       4.772
       3.840
       2.881
       2.004
       1.145
       0.181
