Origin Time       30/8/2009 19:27:44	
Lat.              25.4 N	
Long.             94.8 E	
Depth (Km)         85.0
Magnitude         5.3
 Region           MYANMAR-India-Manipuir-Border                                    
 Above details taken from IMD 
   
Station Code      tur
Station Lat.       25.511
Station Long.      90.220
Station Height(m)  374.0
Site Class        B   Vs30 between 375 m/sec to 700 m/sec *  
Record Time       30.08.2009 00:22:37.714
Sampling Rate     200. Hz
 Record Duration   67.485 Sec.
 Direction         Vert. (Up positive)
Max. Acceleration     -3.844 cm/sec**2
     
  * For reference see Site Classification link of website 
     
 Base Line Corrected and Low Pass Filtered (Cut Off at 35 Hz) Time History
 Acceleration data in cm/sec**2
    
[...]
       0.333
       0.358
       0.367
       0.325
       0.215
       0.050
      -0.127
      -0.262
      -0.317
      -0.299
      -0.246
      -0.197
      -0.162
      -0.128
      -0.083
      -0.040
      -0.028
      -0.075
      -0.177
      -0.302
      -0.401
      -0.443
      -0.436
      -0.417
      -0.419
      -0.443
      -0.457
      -0.417
      -0.304
      -0.139
       0.037
       0.191
       0.323
       0.452
       0.581
       0.688
       0.732
       0.690
       0.572
       0.428
       0.318
       0.273
       0.272
       0.255
       0.162
      -0.027
      -0.282
      -0.534
      -0.706
      -0.752
      -0.680
      -0.543
      -0.411
      -0.330
      -0.309
      -0.319
      -0.313
      -0.259
      -0.154
      -0.012
       0.150
       0.322
       0.495
       0.647
       0.748
       0.756
       0.641
       0.404
       0.091
      -0.225
      -0.476
      -0.622
      -0.659
      -0.609
      -0.512
      -0.409
      -0.339
      -0.315
      -0.323
      -0.323
      -0.270
      -0.143
       0.049
       0.273
       0.491
       0.661
       0.752
       0.748
       0.667
       0.547
       0.431
       0.342
       0.282
       0.230
       0.162
       0.067
      -0.038
      -0.121
      -0.155
      -0.142
      -0.103
      -0.069
      -0.057
      -0.067
      -0.086
      -0.105
      -0.131
      -0.182
      -0.271
      -0.401
      -0.549
      -0.671
      -0.716
      -0.664
      -0.542
      -0.403
      -0.286
      -0.190
      -0.084
       0.062
       0.250
       0.445
       0.597
       0.675
       0.684
       0.645
       0.570
       0.459
       0.315
       0.158
       0.023
      -0.058
      -0.074
      -0.042
       0.008
       0.046
       0.061
       0.061
       0.057
       0.049
       0.029
      -0.010
      -0.056
      -0.076
      -0.032
       0.085
       0.237
       0.365
       0.418
       0.382
       0.267
       0.088
      -0.138
      -0.393
      -0.640
      -0.828
      -0.913
      -0.891
      -0.813
      -0.753
      -0.756
      -0.810
      -0.864
      -0.865
      -0.796
      -0.678
      -0.532
      -0.348
      -0.089
       0.268
       0.696
       1.122
       1.464
       1.674
       1.748
       1.711
       1.596
       1.430
       1.232
       1.028
       0.848
       0.710
       0.602
       0.489
       0.343
       0.163
      -0.015
      -0.140
      -0.177
      -0.136
      -0.057
       0.016
       0.053
       0.048
       0.007
      -0.061
      -0.146
      -0.238
      -0.328
      -0.403
      -0.450
      -0.468
      -0.478
      -0.515
      -0.608
      -0.755
      -0.924
      -1.068
      -1.155
      -1.196
      -1.226
      -1.265
      -1.294
      -1.262
      -1.142
      -0.955
      -0.760
      -0.610
      -0.513
      -0.416
      -0.250
       0.018
       0.350
       0.668
       0.908
       1.057
       1.147
       1.213
       1.267
       1.300
       1.303
       1.280
       1.245
       1.204
       1.146
       1.063
       0.958
       0.847
       0.739
       0.630
       0.510
       0.383
       0.260
       0.165
       0.118
       0.111
       0.104
       0.043
      -0.104
      -0.329
      -0.595
      -0.857
      -1.085
      -1.270
      -1.417
      -1.524
      -1.581
      -1.580
      -1.529
      -1.447
      -1.352
      -1.245
      -1.112
      -0.937
      -0.726
      -0.507
      -0.307
      -0.129
       0.046
       0.232
       0.417
       0.574
       0.688
       0.767
       0.831
       0.897
       0.969
       1.036
       1.079
       1.088
       1.071
       1.038
       0.992
       0.918
       0.799
       0.629
       0.430
       0.242
       0.110
       0.056
       0.073
       0.131
       0.195
       0.227
       0.197
       0.101
      -0.034
      -0.169
      -0.276
      -0.351
      -0.401
      -0.432
      -0.453
      -0.485
      -0.554
      -0.665
      -0.789
      -0.863
      -0.825
      -0.654
      -0.387
      -0.096
       0.151
       0.320
       0.414
       0.454
       0.453
       0.397
       0.251
      -0.006
      -0.349
      -0.708
      -1.000
      -1.168
      -1.202
      -1.125
      -0.967
      -0.747
      -0.468
      -0.143
       0.189
       0.484
       0.709
       0.857
       0.942
       0.972
       0.949
       0.870
       0.747
       0.612
       0.501
       0.439
       0.430
       0.470
       0.556
       0.668
       0.758
       0.758
       0.614
       0.322
      -0.051
      -0.394
      -0.603
      -0.638
      -0.541
      -0.394
      -0.271
      -0.202
      -0.181
      -0.194
      -0.228
      -0.281
      -0.344
      -0.392
      -0.388
      -0.312
      -0.177
      -0.023
       0.095
       0.126
       0.044
      -0.143
      -0.386
      -0.612
      -0.752
      -0.773
      -0.684
      -0.534
      -0.375
      -0.232
      -0.091
       0.068
       0.237
       0.378
       0.441
       0.401
       0.268
       0.097
      -0.034
      -0.055
       0.063
       0.294
       0.580
       0.850
       1.037
       1.090
       0.986
       0.744
       0.425
       0.106
      -0.153
      -0.338
      -0.473
      -0.589
      -0.695
      -0.773
      -0.799
      -0.761
      -0.668
      -0.551
      -0.442
      -0.345
      -0.234
      -0.076
       0.130
       0.351
       0.533
       0.634
       0.650
       0.617
       0.583
       0.578
       0.599
       0.628
       0.646
       0.640
       0.585
       0.449
       0.213
      -0.105
      -0.441
      -0.705
      -0.821
      -0.768
      -0.600
      -0.410
      -0.280
      -0.236
      -0.252
      -0.289
      -0.335
      -0.412
      -0.545
      -0.718
      -0.878
      -0.966
      -0.962
      -0.878
      -0.736
      -0.542
      -0.300
      -0.033
       0.211
       0.376
       0.441
       0.453
       0.503
       0.660
       0.917
       1.183
       1.349
       1.358
       1.236
       1.052
       0.849
       0.607
       0.288
      -0.095
      -0.454
      -0.682
      -0.739
      -0.675
      -0.577
      -0.481
      -0.351
      -0.116
       0.255
       0.716
       1.164
       1.508
       1.716
       1.818
       1.870
       1.911
       1.927
       1.862
       1.645
       1.242
       0.682
       0.044
      -0.584
      -1.137
      -1.577
      -1.899
      -2.122
      -2.277
      -2.396
      -2.483
      -2.506
      -2.405
      -2.141
      -1.733
      -1.272
      -0.875
      -0.618
      -0.491
      -0.413
      -0.295
      -0.113
       0.068
       0.156
       0.120
       0.029
       0.001
       0.111
       0.341
       0.610
       0.847
       1.031
       1.183
       1.336
       1.501
       1.671
       1.835
       1.989
       2.120
       2.202
       2.198
       2.071
       1.795
       1.358
       0.776
       0.111
      -0.549
      -1.113
      -1.524
      -1.774
      -1.888
      -1.907
      -1.852
      -1.727
      -1.526
      -1.253
      -0.926
      -0.571
      -0.208
       0.155
       0.515
       0.867
       1.189
       1.450
       1.620
       1.684
       1.629
       1.443
       1.127
       0.712
       0.256
      -0.169
      -0.514
      -0.770
      -0.957
      -1.094
      -1.178
      -1.194
      -1.143
      -1.058
      -0.978
      -0.937
      -0.948
      -1.008
      -1.094
      -1.170
      -1.211
      -1.214
      -1.192
      -1.158
      -1.107
      -1.016
      -0.864
      -0.654
      -0.422
      -0.219
      -0.077
       0.006
       0.060
       0.112
       0.170
       0.217
       0.233
       0.215
       0.186
       0.181
       0.221
       0.308
       0.441
       0.624
       0.854
       1.104
       1.314
       1.417
       1.374
       1.206
       0.994
       0.843
       0.823
       0.940
       1.142
       1.359
       1.542
       1.672
       1.750
       1.774
       1.731
       1.609
       1.414
       1.171
       0.906
       0.630
       0.332
      -0.006
      -0.381
      -0.755
      -1.070
      -1.290
      -1.425
      -1.522
      -1.629
      -1.767
      -1.942
      -2.153
      -2.395
      -2.638
      -2.827
      -2.892
      -2.783
      -2.509
      -2.153
      -1.829
      -1.608
      -1.475
      -1.335
      -1.092
      -0.719
      -0.285
       0.097
       0.345
       0.453
       0.476
       0.473
       0.476
       0.484
       0.496
       0.520
       0.579
       0.692
       0.857
       1.058
       1.282
       1.521
       1.759
       1.959
       2.077
       2.096
       2.045
       1.984
       1.966
       2.003
       2.054
       2.052
       1.947
       1.748
       1.510
       1.287
       1.085
       0.867
       0.599
       0.284
      -0.030
      -0.295
      -0.510
      -0.719
      -0.976
      -1.300
      -1.670
      -2.044
      -2.393
      -2.696
      -2.930
      -3.055
      -3.021
      -2.797
      -2.403
      -1.916
      -1.431
      -1.008
      -0.647
      -0.302
       0.070
       0.458
       0.791
       0.974
       0.949
       0.742
       0.453
       0.201
       0.066
       0.067
       0.182
       0.378
       0.624
       0.894
       1.155
       1.378
       1.546
       1.665
       1.748
       1.801
       1.810
       1.741
       1.555
       1.232
       0.805
       0.353
      -0.033
      -0.303
      -0.472
      -0.598
      -0.728
      -0.877
      -1.020
      -1.124
      -1.173
      -1.177
      -1.150
      -1.089
      -0.971
      -0.783
      -0.544
      -0.294
      -0.066
       0.142
       0.359
       0.607
       0.868
       1.084
       1.190
       1.167
       1.051
       0.904
       0.763
       0.619
       0.430
       0.159
      -0.182
      -0.528
      -0.781
      -0.870
      -0.775
      -0.539
      -0.243
       0.036
       0.252
       0.398
       0.485
       0.516
       0.488
       0.405
       0.296
       0.198
       0.126
       0.059
      -0.050
      -0.230
      -0.463
      -0.678
      -0.804
      -0.817
      -0.750
      -0.664
      -0.602
      -0.570
      -0.548
      -0.517
      -0.480
      -0.456
      -0.467
      -0.510
      -0.566
      -0.605
      -0.599
      -0.536
      -0.422
      -0.271
      -0.095
       0.104
       0.323
       0.544
       0.742
       0.905
       1.043
       1.175
       1.314
       1.458
       1.598
       1.724
       1.828
       1.895
       1.905
       1.830
       1.644
       1.338
       0.924
       0.444
      -0.044
      -0.484
      -0.850
      -1.149
      -1.405
      -1.627
      -1.807
      -1.934
      -2.001
      -2.018
      -2.001
      -1.962
      -1.902
      -1.809
      -1.668
      -1.474
      -1.238
      -0.977
      -0.715
      -0.474
      -0.263
      -0.075
       0.094
       0.242
       0.359
       0.436
       0.471
       0.475
       0.473
       0.497
       0.559
       0.631
       0.661
       0.625
       0.561
       0.561
       0.701
       0.982
       1.311
       1.553
       1.609
       1.472
       1.215
       0.931
       0.677
       0.459
       0.244
       0.007
      -0.247
      -0.478
      -0.638
      -0.706
      -0.692
      -0.637
      -0.586
      -0.572
      -0.596
      -0.635
      -0.651
      -0.621
      -0.537
      -0.410
      -0.270
      -0.158
      -0.107
      -0.125
      -0.190
      -0.261
      -0.306
      -0.314
      -0.293
      -0.243
      -0.139
       0.059
       0.366
       0.732
       1.056
       1.241
       1.248
       1.111
       0.906
       0.695
       0.496
       0.294
       0.084
      -0.106
      -0.228
      -0.251
      -0.196
      -0.117
      -0.072
      -0.088
      -0.154
      -0.238
      -0.303
      -0.332
      -0.327
      -0.314
      -0.334
      -0.421
      -0.562
      -0.684
      -0.692
      -0.537
      -0.248
       0.084
       0.368
       0.562
       0.678
       0.749
       0.792
       0.788
       0.691
       0.470
       0.122
      -0.319
      -0.799
      -1.259
      -1.643
      -1.910
      -2.040
      -2.041
      -1.956
      -1.825
      -1.663
      -1.453
      -1.178
      -0.864
      -0.574
      -0.356
      -0.205
      -0.065
       0.135
       0.422
       0.764
       1.099
       1.388
       1.630
       1.848
       2.045
       2.194
       2.256
       2.217
       2.101
       1.960
       1.837
       1.738
       1.639
       1.517
       1.381
       1.255
       1.144
       1.022
       0.835
       0.542
       0.145
      -0.304
      -0.722
      -1.041
      -1.227
      -1.283
      -1.230
      -1.100
      -0.933
      -0.766
      -0.624
      -0.526
      -0.492
      -0.540
      -0.671
      -0.852
      -1.032
      -1.168
      -1.257
      -1.336
      -1.452
      -1.616
      -1.787
      -1.892
      -1.865
      -1.686
      -1.391
      -1.049
      -0.720
      -0.410
      -0.090
       0.260
       0.599
       0.852
       0.962
       0.951
       0.904
       0.918
       1.043
       1.254
       1.479
       1.659
       1.778
       1.857
       1.920
       1.967
       1.990
       1.992
       2.002
       2.059
       2.169
       2.276
       2.279
       2.075
       1.618
       0.936
       0.125
      -0.693
      -1.418
      -2.015
      -2.507
      -2.933
      -3.305
      -3.601
      -3.787
      -3.844
      -3.771
      -3.576
      -3.263
      -2.833
      -2.295
      -1.676
      -1.027
      -0.395
       0.192
       0.725
       1.199
       1.593
       1.879
       2.042
       2.099
       2.109
       2.126
       2.152
       2.130
       1.985
       1.688
       1.279
       0.838
       0.437
       0.120
      -0.096
      -0.208
      -0.225
      -0.180
      -0.127
      -0.124
      -0.204
      -0.361
      -0.547
      -0.690
      -0.715
      -0.584
      -0.323
      -0.026
       0.191
       0.255
       0.177
       0.042
      -0.039
      -0.007
       0.119
       0.262
       0.354
       0.380
       0.362
       0.321
       0.255
       0.147
      -0.009
      -0.208
      -0.443
      -0.706
      -0.978
      -1.212
      -1.350
      -1.354
      -1.241
      -1.073
      -0.896
      -0.712
      -0.479
      -0.167
       0.203
       0.560
       0.823
       0.955
       0.982
       0.965
       0.942
       0.911
       0.842
       0.711
       0.521
       0.297
       0.073
      -0.130
      -0.306
      -0.466
      -0.624
      -0.780
      -0.930
      -1.055
      -1.128
      -1.115
      -0.984
      -0.728
      -0.372
       0.031
       0.416
       0.725
       0.929
       1.026
       1.034
       0.978
       0.896
       0.837
       0.859
       0.993
       1.226
       1.494
       1.711
       1.807
       1.764
       1.614
       1.403
       1.161
       0.887
       0.575
       0.236
      -0.079
      -0.315
      -0.452
      -0.540
      -0.683
      -0.968
      -1.402
      -1.900
      -2.322
      -2.548
      -2.532
      -2.310
      -1.964
      -1.575
      -1.190
      -0.831
      -0.508
      -0.226
       0.021
       0.244
       0.451
       0.632
       0.759
       0.802
       0.758
       0.667
       0.596
       0.587
       0.615
       0.607
       0.496
       0.280
       0.029
      -0.167
      -0.253
      -0.240
      -0.167
      -0.060
       0.093
       0.307
       0.565
       0.816
       1.007
       1.114
       1.147
       1.130
       1.076
       0.975
       0.815
       0.602
       0.365
       0.136
      -0.074
      -0.274
      -0.469
      -0.641
      -0.745
      -0.727
      -0.562
      -0.279
       0.036
       0.279
       0.378
       0.311
       0.099
      -0.214
      -0.582
      -0.967
      -1.328
      -1.626
      -1.824
      -1.904
      -1.879
      -1.788
      -1.681
      -1.587
      -1.485
      -1.300
      -0.957
      -0.444
       0.166
       0.754
       1.228
       1.554
       1.744
       1.812
       1.757
       1.574
       1.285
       0.950
       0.644
       0.411
       0.256
       0.159
       0.114
       0.136
       0.233
       0.381
       0.509
       0.531
       0.405
       0.166
      -0.094
      -0.290
      -0.402
      -0.476
      -0.573
      -0.717
      -0.867
      -0.940
      -0.874
      -0.671
      -0.396
      -0.120
       0.123
       0.339
       0.540
       0.716
       0.849
       0.927
       0.952
       0.919
       0.803
       0.579
       0.255
      -0.113
      -0.443
      -0.678
      -0.814
      -0.886
      -0.932
      -0.966
      -0.978
      -0.958
      -0.914
      -0.880
      -0.888
      -0.929
      -0.951
      -0.888
      -0.711
      -0.445
      -0.157
       0.089
       0.263
       0.384
       0.498
       0.640
       0.812
       0.984
       1.118
       1.185
       1.166
       1.060
       0.882
       0.655
       0.415
       0.206
       0.065
       0.014
       0.052
       0.155
       0.275
       0.357
       0.361
       0.284
       0.162
       0.039
      -0.053
      -0.106
      -0.131
      -0.153
      -0.206
      -0.314
      -0.474
      -0.640
      -0.742
      -0.717
      -0.553
      -0.295
      -0.017
       0.226
       0.418
       0.555
       0.622
       0.596
       0.464
       0.241
      -0.024
      -0.271
      -0.459
      -0.585
      -0.668
      -0.730
      -0.781
      -0.824
      -0.868
      -0.920
      -0.972
      -0.991
      -0.926
      -0.741
      -0.437
      -0.067
       0.297
       0.609
       0.870
       1.108
       1.335
       1.523
       1.612
       1.558
       1.366
       1.089
       0.793
       0.514
       0.257
       0.017
      -0.198
      -0.369
      -0.481
      -0.528
      -0.516
      -0.468
      -0.408
      -0.351
      -0.299
      -0.249
      -0.206
      -0.184
      -0.196
      -0.246
      -0.323
      -0.402
      -0.449
      -0.437
      -0.359
      -0.234
      -0.085
       0.075
       0.257
       0.478
       0.740
       1.010
       1.244
       1.411
       1.504
       1.517
       1.436
       1.244
       0.940
       0.546
       0.109
      -0.310
      -0.655
      -0.893
      -1.020
      -1.053
      -1.014
      -0.930
      -0.825
      -0.727
      -0.658
      -0.631
      -0.650
      -0.705
      -0.778
      -0.834
      -0.826
      -0.710
      -0.472
      -0.154
       0.150
       0.341
       0.360
       0.229
       0.046
      -0.059
      -0.007
       0.184
       0.412
       0.566
       0.599
       0.537
       0.432
       0.317
       0.195
       0.056
      -0.090
      -0.205
      -0.246
      -0.206
      -0.121
      -0.050
      -0.029
      -0.050
      -0.069
      -0.048
       0.020
       0.107
       0.187
       0.261
       0.356
       0.484
       0.628
       0.747
       0.809
       0.812
       0.769
       0.696
       0.591
       0.439
       0.236
       0.006
      -0.208
      -0.376
      -0.498
      -0.599
      -0.695
      -0.787
      -0.861
      -0.913
      -0.957
      -1.011
      -1.068
      -1.081
      -0.991
      -0.761
      -0.414
