Origin Time       31/12/2009 09:57:00 UTC
Lat.              27.3°N	
Long.             91.4°E	
Depth (Km)          7.0
Magnitude         5.5
 Region           BHUTAN                                                           
 Above details taken from IMD 
    
Station Code      TUR
Station Lat.       25.511  N
Station Long.      90.220  E
Station Height(m)  376.2
Site Class        B   Vs30 between 375 m/sec to 700 m/sec *  
Record Time       31.12.2009 09:58:20.469 UTC
Sampling Rate     200. Hz
 Record Duration   74.815 Sec.
 Direction         N-S (N positive)
Max. Acceleration     14.389 cm/sec**2
     
  * For reference see Site Classification link of website 
     
 Base Line Corrected and Low Pass Filtered (Cut Off at 35 Hz) Time History
 Acceleration data in cm/sec**2
    
[...]
       0.031
       0.059
       0.068
       0.076
       0.103
       0.160
       0.244
       0.335
       0.407
       0.441
       0.433
       0.393
       0.336
       0.277
       0.221
       0.162
       0.100
       0.038
      -0.013
      -0.045
      -0.059
      -0.056
      -0.037
      -0.003
       0.043
       0.092
       0.131
       0.154
       0.160
       0.161
       0.172
       0.210
       0.280
       0.380
       0.493
       0.597
       0.674
       0.721
       0.743
       0.757
       0.774
       0.792
       0.800
       0.780
       0.720
       0.615
       0.467
       0.281
       0.069
      -0.157
      -0.382
      -0.591
      -0.765
      -0.894
      -0.976
      -1.023
      -1.049
      -1.068
      -1.087
      -1.105
      -1.113
      -1.097
      -1.047
      -0.954
      -0.822
      -0.664
      -0.500
      -0.348
      -0.215
      -0.101
      -0.004
       0.073
       0.126
       0.155
       0.167
       0.175
       0.190
       0.214
       0.244
       0.274
       0.300
       0.323
       0.339
       0.338
       0.312
       0.256
       0.181
       0.102
       0.034
      -0.014
      -0.039
      -0.046
      -0.042
      -0.034
      -0.030
      -0.034
      -0.050
      -0.078
      -0.111
      -0.139
      -0.154
      -0.150
      -0.126
      -0.088
      -0.047
      -0.011
       0.018
       0.041
       0.063
       0.088
       0.117
       0.149
       0.181
       0.213
       0.250
       0.304
       0.383
       0.479
       0.575
       0.648
       0.681
       0.672
       0.631
       0.571
       0.506
       0.446
       0.396
       0.362
       0.343
       0.334
       0.328
       0.323
       0.317
       0.309
       0.296
       0.278
       0.250
       0.211
       0.157
       0.089
       0.010
      -0.077
      -0.170
      -0.269
      -0.378
      -0.498
      -0.626
      -0.754
      -0.867
      -0.948
      -0.991
      -0.998
      -0.975
      -0.927
      -0.854
      -0.753
      -0.630
      -0.493
      -0.356
      -0.226
      -0.105
       0.015
       0.135
       0.246
       0.333
       0.380
       0.385
       0.354
       0.299
       0.228
       0.149
       0.069
      -0.006
      -0.076
      -0.146
      -0.219
      -0.292
      -0.350
      -0.378
      -0.367
      -0.319
      -0.247
      -0.163
      -0.077
       0.007
       0.090
       0.172
       0.252
       0.332
       0.416
       0.502
       0.588
       0.664
       0.722
       0.760
       0.779
       0.786
       0.783
       0.763
       0.716
       0.637
       0.532
       0.416
       0.303
       0.201
       0.115
       0.051
       0.011
      -0.006
      -0.001
       0.021
       0.058
       0.100
       0.135
       0.146
       0.115
       0.029
      -0.110
      -0.287
      -0.474
      -0.649
      -0.795
      -0.903
      -0.972
      -1.003
      -1.006
      -0.987
      -0.954
      -0.904
      -0.830
      -0.728
      -0.593
      -0.432
      -0.256
      -0.079
       0.084
       0.226
       0.341
       0.427
       0.482
       0.507
       0.502
       0.469
       0.410
       0.331
       0.241
       0.155
       0.092
       0.062
       0.064
       0.081
       0.093
       0.084
       0.050
       0.002
      -0.050
      -0.096
      -0.133
      -0.157
      -0.166
      -0.156
      -0.128
      -0.090
      -0.049
      -0.011
       0.021
       0.046
       0.058
       0.050
       0.016
      -0.040
      -0.108
      -0.174
      -0.229
      -0.267
      -0.282
      -0.273
      -0.243
      -0.206
      -0.177
      -0.166
      -0.164
      -0.155
      -0.120
      -0.054
       0.039
       0.148
       0.257
       0.353
       0.431
       0.488
       0.531
       0.571
       0.615
       0.669
       0.728
       0.784
       0.828
       0.850
       0.840
       0.791
       0.708
       0.605
       0.506
       0.431
       0.392
       0.382
       0.386
       0.381
       0.350
       0.285
       0.190
       0.081
      -0.027
      -0.117
      -0.183
      -0.234
      -0.285
      -0.354
      -0.445
      -0.547
      -0.643
      -0.724
      -0.787
      -0.832
      -0.863
      -0.878
      -0.878
      -0.867
      -0.849
      -0.828
      -0.800
      -0.759
      -0.700
      -0.622
      -0.534
      -0.446
      -0.370
      -0.309
      -0.258
      -0.210
      -0.158
      -0.098
      -0.034
       0.026
       0.075
       0.107
       0.122
       0.127
       0.129
       0.134
       0.141
       0.141
       0.127
       0.094
       0.052
       0.013
      -0.009
      -0.004
       0.034
       0.111
       0.225
       0.361
       0.499
       0.614
       0.692
       0.734
       0.753
       0.769
       0.799
       0.849
       0.914
       0.979
       1.027
       1.044
       1.024
       0.968
       0.884
       0.783
       0.679
       0.585
       0.505
       0.433
       0.356
       0.264
       0.153
       0.026
      -0.108
      -0.240
      -0.362
      -0.463
      -0.539
      -0.593
      -0.640
      -0.702
      -0.799
      -0.933
      -1.090
      -1.242
      -1.354
      -1.402
      -1.374
      -1.274
      -1.117
      -0.925
      -0.717
      -0.515
      -0.336
      -0.195
      -0.101
      -0.057
      -0.057
      -0.088
      -0.136
      -0.188
      -0.235
      -0.268
      -0.279
      -0.259
      -0.200
      -0.099
       0.037
       0.197
       0.366
       0.529
       0.670
       0.775
       0.836
       0.856
       0.849
       0.833
       0.819
       0.804
       0.774
       0.714
       0.618
       0.487
       0.330
       0.156
      -0.029
      -0.225
      -0.426
      -0.619
      -0.789
      -0.920
      -1.003
      -1.030
      -0.996
      -0.899
      -0.745
      -0.552
      -0.345
      -0.147
       0.028
       0.187
       0.344
       0.502
       0.650
       0.764
       0.821
       0.816
       0.759
       0.671
       0.570
       0.467
       0.369
       0.278
       0.193
       0.109
       0.011
      -0.113
      -0.263
      -0.419
      -0.549
      -0.621
      -0.614
      -0.524
      -0.362
      -0.147
       0.099
       0.354
       0.596
       0.809
       0.984
       1.123
       1.230
       1.309
       1.358
       1.375
       1.367
       1.347
       1.331
       1.326
       1.332
       1.334
       1.315
       1.257
       1.146
       0.975
       0.750
       0.486
       0.205
      -0.073
      -0.337
      -0.587
      -0.831
      -1.078
      -1.338
      -1.612
      -1.889
      -2.155
      -2.396
      -2.602
      -2.768
      -2.893
      -2.972
      -3.004
      -2.980
      -2.893
      -2.737
      -2.513
      -2.228
      -1.896
      -1.538
      -1.180
      -0.848
      -0.563
      -0.331
      -0.143
       0.016
       0.165
       0.312
       0.457
       0.599
       0.739
       0.882
       1.029
       1.175
       1.310
       1.430
       1.534
       1.622
       1.696
       1.753
       1.790
       1.800
       1.779
       1.725
       1.645
       1.543
       1.425
       1.298
       1.166
       1.033
       0.896
       0.748
       0.576
       0.375
       0.144
      -0.108
      -0.370
      -0.636
      -0.906
      -1.176
      -1.440
      -1.683
      -1.884
      -2.023
      -2.086
      -2.067
      -1.969
      -1.807
      -1.601
      -1.378
      -1.152
      -0.921
      -0.682
      -0.433
      -0.189
       0.029
       0.212
       0.364
       0.497
       0.620
       0.735
       0.841
       0.939
       1.030
       1.116
       1.195
       1.260
       1.301
       1.307
       1.270
       1.193
       1.086
       0.970
       0.865
       0.784
       0.731
       0.704
       0.700
       0.717
       0.753
       0.807
       0.872
       0.943
       1.014
       1.078
       1.123
       1.140
       1.119
       1.057
       0.956
       0.824
       0.670
       0.503
       0.331
       0.156
      -0.021
      -0.205
      -0.396
      -0.595
      -0.801
      -1.011
      -1.221
      -1.422
      -1.604
      -1.757
      -1.875
      -1.959
      -2.013
      -2.043
      -2.057
      -2.055
      -2.035
      -1.986
      -1.897
      -1.759
      -1.563
      -1.308
      -0.995
      -0.629
      -0.218
       0.233
       0.715
       1.209
       1.687
       2.116
       2.464
       2.718
       2.888
       3.001
       3.088
       3.170
       3.256
       3.351
       3.457
       3.572
       3.684
       3.770
       3.798
       3.737
       3.571
       3.301
       2.946
       2.532
       2.084
       1.622
       1.160
       0.704
       0.256
      -0.189
      -0.635
      -1.085
      -1.536
      -1.978
      -2.399
      -2.782
      -3.112
      -3.379
      -3.579
      -3.719
      -3.813
      -3.880
      -3.941
      -4.009
      -4.087
      -4.168
      -4.239
      -4.285
      -4.296
      -4.273
      -4.221
      -4.149
      -4.067
      -3.983
      -3.904
      -3.836
      -3.777
      -3.721
      -3.658
      -3.576
      -3.465
      -3.320
      -3.139
      -2.930
      -2.701
      -2.462
      -2.223
      -1.988
      -1.758
      -1.524
      -1.279
      -1.016
      -0.741
      -0.464
      -0.192
       0.073
       0.338
       0.611
       0.896
       1.197
       1.518
       1.862
       2.235
       2.637
       3.059
       3.485
       3.893
       4.271
       4.610
       4.911
       5.169
       5.378
       5.532
       5.627
       5.668
       5.665
       5.628
       5.570
       5.501
       5.431
       5.365
       5.299
       5.219
       5.103
       4.927
       4.680
       4.362
       3.990
       3.587
       3.173
       2.762
       2.360
       1.974
       1.608
       1.266
       0.952
       0.667
       0.413
       0.191
       0.001
      -0.156
      -0.288
      -0.411
      -0.539
      -0.684
      -0.849
      -1.034
      -1.234
      -1.449
      -1.679
      -1.927
      -2.195
      -2.480
      -2.769
      -3.045
      -3.292
      -3.501
      -3.667
      -3.788
      -3.864
      -3.897
      -3.892
      -3.865
      -3.830
      -3.795
      -3.757
      -3.710
      -3.647
      -3.572
      -3.487
      -3.397
      -3.303
      -3.202
      -3.087
      -2.957
      -2.817
      -2.676
      -2.540
      -2.417
      -2.307
      -2.211
      -2.131
      -2.068
      -2.032
      -2.028
      -2.057
      -2.109
      -2.167
      -2.218
      -2.256
      -2.282
      -2.292
      -2.278
      -2.231
      -2.148
      -2.026
      -1.862
      -1.640
      -1.338
      -0.942
      -0.458
       0.087
       0.655
       1.218
       1.766
       2.304
       2.840
       3.374
       3.896
       4.395
       4.860
       5.292
       5.693
       6.069
       6.423
       6.755
       7.061
       7.332
       7.565
       7.751
       7.882
       7.942
       7.914
       7.785
       7.549
       7.208
       6.771
       6.248
       5.644
       4.966
       4.231
       3.460
       2.682
       1.926
       1.218
       0.579
       0.022
      -0.447
      -0.829
      -1.136
      -1.389
      -1.615
      -1.845
      -2.104
      -2.405
      -2.744
      -3.099
      -3.435
      -3.726
      -3.959
      -4.141
      -4.287
      -4.414
      -4.535
      -4.662
      -4.807
      -4.975
      -5.157
      -5.333
      -5.472
      -5.552
      -5.569
      -5.538
      -5.483
      -5.411
      -5.312
      -5.167
      -4.974
      -4.756
      -4.561
      -4.435
      -4.395
      -4.422
      -4.469
      -4.480
      -4.415
      -4.255
      -4.005
      -3.683
      -3.313
      -2.917
      -2.513
      -2.111
      -1.708
      -1.286
      -0.816
      -0.275
       0.340
       1.016
       1.730
       2.461
       3.199
       3.934
       4.652
       5.319
       5.896
       6.365
       6.734
       7.028
       7.260
       7.422
       7.484
       7.423
       7.242
       6.973
       6.661
       6.330
       5.975
       5.560
       5.046
       4.425
       3.741
       3.066
       2.459
       1.920
       1.396
       0.819
       0.149
      -0.596
      -1.352
      -2.043
      -2.623
      -3.089
      -3.467
      -3.778
      -4.030
      -4.225
      -4.359
      -4.434
      -4.446
      -4.388
      -4.243
      -3.999
      -3.644
      -3.172
      -2.581
      -1.875
      -1.065
      -0.173
       0.771
       1.737
       2.704
       3.661
       4.592
       5.457
       6.205
       6.786
       7.165
       7.316
       7.220
       6.870
       6.285
       5.519
       4.647
       3.741
       2.850
       1.987
       1.140
       0.288
      -0.585
      -1.476
      -2.369
      -3.238
      -4.061
      -4.825
      -5.528
      -6.178
      -6.785
      -7.359
      -7.895
      -8.373
      -8.764
      -9.055
      -9.248
      -9.358
      -9.404
      -9.390
      -9.311
      -9.163
      -8.953
      -8.694
      -8.395
      -8.055
      -7.662
      -7.205
      -6.669
      -6.047
      -5.340
      -4.553
      -3.694
      -2.763
      -1.760
      -0.686
       0.442
       1.601
       2.761
       3.902
       5.012
       6.090
       7.138
       8.155
       9.134
      10.068
      10.951
      11.776
      12.526
      13.177
      13.700
      14.077
      14.304
      14.389
      14.334
      14.132
      13.773
      13.246
      12.552
      11.691
      10.674
       9.523
       8.273
       6.960
       5.612
       4.244
       2.868
       1.499
       0.165
      -1.105
      -2.288
      -3.373
      -4.347
      -5.200
      -5.924
      -6.540
      -7.085
      -7.594
      -8.069
      -8.475
      -8.768
      -8.917
      -8.919
      -8.794
      -8.570
      -8.273
      -7.934
      -7.581
      -7.241
      -6.930
      -6.651
      -6.394
      -6.155
      -5.940
      -5.765
      -5.636
      -5.547
      -5.471
      -5.374
      -5.232
      -5.039
      -4.802
      -4.530
      -4.224
      -3.883
      -3.512
      -3.124
      -2.745
      -2.395
      -2.087
      -1.812
      -1.549
      -1.276
      -0.975
      -0.631
      -0.244
       0.169
       0.576
       0.943
       1.263
       1.551
       1.838
       2.147
       2.490
       2.870
       3.283
       3.724
       4.179
       4.614
       4.981
       5.231
       5.333
       5.279
       5.080
       4.758
       4.353
       3.917
       3.507
       3.161
       2.885
       2.655
       2.446
       2.258
       2.122
       2.076
       2.139
       2.291
       2.486
       2.674
       2.815
       2.891
       2.905
       2.873
       2.818
       2.769
       2.755
       2.801
       2.917
       3.094
       3.315
       3.571
       3.873
       4.234
       4.653
       5.106
       5.546
       5.922
       6.189
       6.308
       6.246
       5.979
       5.501
       4.833
       4.023
       3.132
       2.213
       1.302
       0.414
      -0.451
      -1.298
      -2.127
      -2.923
      -3.654
      -4.277
      -4.770
      -5.146
      -5.458
      -5.776
      -6.146
      -6.576
      -7.037
      -7.491
      -7.910
      -8.282
      -8.604
      -8.867
      -9.050
      -9.128
      -9.084
      -8.914
      -8.627
      -8.240
      -7.777
      -7.263
      -6.718
      -6.152
      -5.569
      -4.966
      -4.333
      -3.659
      -2.942
      -2.192
      -1.421
      -0.645
       0.115
       0.825
       1.444
       1.932
       2.266
       2.448
       2.512
       2.509
       2.489
       2.486
       2.519
       2.604
       2.769
       3.035
       3.387
       3.756
       4.049
       4.192
       4.160
       3.969
       3.645
       3.217
       2.720
       2.209
       1.742
       1.359
       1.066
       0.840
       0.649
       0.479
       0.336
       0.233
       0.165
       0.107
       0.031
      -0.068
      -0.164
      -0.216
      -0.202
      -0.128
      -0.025
       0.079
       0.180
       0.296
       0.453
       0.665
       0.929
       1.241
       1.605
       2.042
       2.576
       3.211
       3.920
       4.647
       5.333
       5.931
       6.421
       6.803
       7.073
       7.210
       7.191
       7.003
       6.669
       6.227
       5.710
       5.131
       4.485
       3.773
       3.008
       2.213
       1.406
       0.590
      -0.241
      -1.092
      -1.960
      -2.839
      -3.718
      -4.579
      -5.398
      -6.143
      -6.782
      -7.290
      -7.662
      -7.915
      -8.081
      -8.182
      -8.227
      -8.214
      -8.140
      -8.021
      -7.878
      -7.728
      -7.570
      -7.379
      -7.124
      -6.780
      -6.337
      -5.794
      -5.162
      -4.449
      -3.662
      -2.804
      -1.876
      -0.888
       0.138
       1.162
       2.135
       3.009
       3.753
       4.364
       4.849
       5.210
       5.446
       5.559
       5.576
       5.549
       5.531
       5.546
       5.583
       5.609
       5.586
       5.490
       5.313
       5.055
       4.717
       4.290
       3.766
       3.152
       2.473
       1.767
       1.060
       0.363
      -0.328
      -1.027
      -1.752
      -2.514
      -3.310
      -4.104
      -4.831
      -5.417
      -5.798
      -5.946
      -5.866
      -5.589
      -5.156
      -4.606
      -3.975
      -3.291
      -2.583
      -1.874
      -1.179
      -0.499
       0.169
       0.832
       1.495
       2.158
       2.810
       3.428
       3.987
       4.470
       4.877
       5.213
       5.479
       5.668
       5.764
       5.755
       5.637
       5.416
       5.116
       4.765
       4.386
       3.985
       3.552
       3.069
       2.534
       1.962
       1.390
       0.865
       0.429
       0.106
      -0.108
      -0.236
      -0.316
      -0.393
      -0.510
      -0.710
      -1.023
      -1.460
      -2.008
      -2.634
      -3.287
      -3.910
      -4.439
      -4.826
      -5.046
      -5.111
      -5.063
      -4.955
      -4.836
      -4.738
      -4.672
      -4.630
      -4.592
      -4.534
      -4.439
      -4.298
      -4.109
      -3.877
      -3.607
      -3.301
      -2.954
      -2.563
      -2.125
      -1.641
      -1.120
      -0.576
      -0.028
       0.506
       1.009
       1.462
       1.841
       2.130
       2.320
       2.416
       2.440
       2.433
       2.441
       2.500
       2.626
       2.808
       3.026
       3.264
       3.527
       3.820
       4.123
       4.391
       4.577
       4.666
       4.666
       4.586
       4.425
       4.173
       3.823
       3.370
       2.829
       2.233
       1.633
       1.075
       0.584
       0.163
      -0.201
      -0.515
      -0.776
      -0.972
      -1.102
      -1.186
      -1.260
      -1.365
      -1.536
      -1.787
      -2.113
      -2.486
      -2.869
      -3.224
      -3.524
      -3.755
      -3.910
      -3.986
      -3.977
      -3.882
      -3.708
      -3.459
      -3.134
      -2.734
      -2.268
      -1.761
      -1.237
      -0.706
      -0.169
       0.366
       0.872
       1.300
       1.603
