Origin Time       30/8/2009 19:27:44	
Lat.              25.4 N	
Long.             94.8 E	
Depth (Km)         85.0
Magnitude         5.3
 Region           MYANMAR-India-Manipuir-Border                                    
 Above details taken from IMD 
     
Station Code      tur
Station Lat.       25.511  N
Station Long.      90.220  E
Station Height(m)  374.0
Site Class        B   Vs30 between 375 m/sec to 700 m/sec *  
Record Time       30.08.2009 00:22:37.714
Sampling Rate     200. Hz
 Record Duration   67.485 Sec.
 Direction         E-W (E positive)
Max. Acceleration      5.141 cm/sec**2
     
  * For reference see Site Classification link of website 
     
 Base Line Corrected and Low Pass Filtered (Cut Off at 35 Hz) Time History
 Acceleration data in cm/sec**2
    
[...]
      -0.166
      -0.203
      -0.241
      -0.278
      -0.306
      -0.317
      -0.301
      -0.256
      -0.189
      -0.112
      -0.033
       0.038
       0.091
       0.123
       0.146
       0.177
       0.220
       0.263
       0.283
       0.265
       0.209
       0.135
       0.073
       0.044
       0.040
       0.039
       0.027
       0.005
      -0.018
      -0.030
      -0.023
      -0.001
       0.023
       0.035
       0.029
       0.015
       0.008
       0.016
       0.038
       0.058
       0.053
       0.012
      -0.055
      -0.120
      -0.157
      -0.151
      -0.102
      -0.027
       0.049
       0.101
       0.120
       0.115
       0.096
       0.079
       0.074
       0.084
       0.099
       0.102
       0.082
       0.039
      -0.018
      -0.077
      -0.126
      -0.156
      -0.167
      -0.163
      -0.149
      -0.130
      -0.120
      -0.133
      -0.168
      -0.219
      -0.271
      -0.310
      -0.321
      -0.301
      -0.263
      -0.228
      -0.209
      -0.210
      -0.225
      -0.241
      -0.242
      -0.214
      -0.154
      -0.075
       0.006
       0.073
       0.112
       0.127
       0.132
       0.149
       0.192
       0.259
       0.340
       0.411
       0.451
       0.446
       0.401
       0.336
       0.269
       0.220
       0.201
       0.215
       0.245
       0.261
       0.239
       0.170
       0.066
      -0.044
      -0.124
      -0.152
      -0.133
      -0.090
      -0.052
      -0.039
      -0.061
      -0.117
      -0.191
      -0.266
      -0.322
      -0.349
      -0.340
      -0.301
      -0.248
      -0.200
      -0.164
      -0.137
      -0.111
      -0.073
      -0.019
       0.048
       0.108
       0.144
       0.157
       0.162
       0.177
       0.204
       0.236
       0.255
       0.247
       0.208
       0.152
       0.094
       0.045
       0.001
      -0.040
      -0.080
      -0.121
      -0.157
      -0.178
      -0.175
      -0.147
      -0.099
      -0.038
       0.024
       0.068
       0.076
       0.045
      -0.010
      -0.058
      -0.078
      -0.062
      -0.026
       0.003
       0.006
      -0.015
      -0.040
      -0.053
      -0.044
      -0.012
       0.034
       0.078
       0.106
       0.112
       0.101
       0.078
       0.044
       0.005
      -0.036
      -0.078
      -0.119
      -0.159
      -0.192
      -0.214
      -0.218
      -0.197
      -0.152
      -0.099
      -0.054
      -0.029
      -0.021
      -0.027
      -0.039
      -0.053
      -0.066
      -0.085
      -0.115
      -0.150
      -0.173
      -0.169
      -0.133
      -0.072
       0.000
       0.063
       0.106
       0.126
       0.122
       0.088
       0.028
      -0.043
      -0.098
      -0.122
      -0.112
      -0.077
      -0.034
       0.001
       0.019
       0.023
       0.028
       0.049
       0.096
       0.170
       0.261
       0.351
       0.416
       0.445
       0.437
       0.401
       0.351
       0.301
       0.255
       0.200
       0.126
       0.035
      -0.061
      -0.147
      -0.209
      -0.235
      -0.215
      -0.153
      -0.066
       0.021
       0.078
       0.081
       0.027
      -0.066
      -0.166
      -0.240
      -0.273
      -0.264
      -0.229
      -0.188
      -0.158
      -0.137
      -0.116
      -0.091
      -0.064
      -0.036
      -0.011
       0.008
       0.016
       0.021
       0.034
       0.067
       0.122
       0.189
       0.247
       0.270
       0.248
       0.189
       0.119
       0.055
       0.003
      -0.036
      -0.072
      -0.116
      -0.174
      -0.241
      -0.297
      -0.329
      -0.334
      -0.317
      -0.291
      -0.264
      -0.239
      -0.213
      -0.186
      -0.156
      -0.117
      -0.054
       0.042
       0.157
       0.262
       0.331
       0.355
       0.335
       0.283
       0.211
       0.133
       0.060
       0.003
      -0.028
      -0.032
      -0.016
       0.007
       0.038
       0.083
       0.151
       0.245
       0.359
       0.471
       0.544
       0.547
       0.468
       0.321
       0.137
      -0.048
      -0.197
      -0.289
      -0.326
      -0.331
      -0.326
      -0.326
      -0.330
      -0.322
      -0.279
      -0.193
      -0.082
       0.016
       0.065
       0.046
      -0.032
      -0.130
      -0.198
      -0.204
      -0.147
      -0.058
       0.020
       0.055
       0.032
      -0.039
      -0.128
      -0.203
      -0.245
      -0.250
      -0.227
      -0.188
      -0.149
      -0.120
      -0.092
      -0.043
       0.044
       0.169
       0.312
       0.441
       0.523
       0.546
       0.518
       0.459
       0.383
       0.298
       0.209
       0.121
       0.036
      -0.041
      -0.108
      -0.162
      -0.202
      -0.224
      -0.219
      -0.179
      -0.111
      -0.034
       0.028
       0.059
       0.059
       0.038
       0.018
       0.011
       0.011
       0.002
      -0.031
      -0.099
      -0.202
      -0.325
      -0.436
      -0.500
      -0.500
      -0.448
      -0.370
      -0.295
      -0.240
      -0.197
      -0.145
      -0.065
       0.039
       0.150
       0.248
       0.317
       0.349
       0.347
       0.326
       0.301
       0.281
       0.264
       0.246
       0.222
       0.189
       0.152
       0.121
       0.105
       0.104
       0.114
       0.135
       0.169
       0.204
       0.225
       0.220
       0.189
       0.144
       0.101
       0.076
       0.072
       0.076
       0.069
       0.035
      -0.029
      -0.115
      -0.204
      -0.278
      -0.322
      -0.338
      -0.333
      -0.314
      -0.283
      -0.250
      -0.225
      -0.216
      -0.219
      -0.228
      -0.230
      -0.216
      -0.185
      -0.149
      -0.121
      -0.101
      -0.081
      -0.053
      -0.015
       0.026
       0.056
       0.057
       0.025
      -0.020
      -0.042
      -0.016
       0.056
       0.149
       0.226
       0.257
       0.243
       0.208
       0.185
       0.190
       0.215
       0.240
       0.240
       0.205
       0.145
       0.093
       0.081
       0.121
       0.196
       0.276
       0.330
       0.340
       0.310
       0.261
       0.219
       0.197
       0.187
       0.173
       0.134
       0.054
      -0.063
      -0.195
      -0.312
      -0.389
      -0.420
      -0.416
      -0.396
      -0.384
      -0.384
      -0.384
      -0.365
      -0.317
      -0.247
      -0.170
      -0.105
      -0.061
      -0.035
      -0.009
       0.032
       0.086
       0.145
       0.196
       0.227
       0.224
       0.187
       0.128
       0.074
       0.040
       0.026
       0.022
       0.016
       0.004
      -0.007
      -0.003
       0.027
       0.079
       0.134
       0.178
       0.196
       0.180
       0.133
       0.072
       0.019
      -0.012
      -0.017
      -0.009
      -0.008
      -0.036
      -0.099
      -0.186
      -0.276
      -0.351
      -0.405
      -0.438
      -0.456
      -0.470
      -0.488
      -0.506
      -0.516
      -0.511
      -0.494
      -0.469
      -0.439
      -0.408
      -0.379
      -0.355
      -0.340
      -0.335
      -0.330
      -0.309
      -0.263
      -0.192
      -0.101
       0.012
       0.150
       0.309
       0.478
       0.638
       0.772
       0.856
       0.879
       0.848
       0.790
       0.737
       0.711
       0.714
       0.724
       0.716
       0.677
       0.610
       0.529
       0.444
       0.363
       0.291
       0.232
       0.182
       0.139
       0.111
       0.104
       0.113
       0.120
       0.117
       0.115
       0.137
       0.203
       0.307
       0.416
       0.480
       0.462
       0.355
       0.184
      -0.009
      -0.175
      -0.277
      -0.307
      -0.290
      -0.266
      -0.269
      -0.319
      -0.419
      -0.557
      -0.714
      -0.861
      -0.980
      -1.065
      -1.129
      -1.194
      -1.285
      -1.404
      -1.526
      -1.611
      -1.626
      -1.556
      -1.409
      -1.211
      -0.999
      -0.804
      -0.644
      -0.519
      -0.423
      -0.347
      -0.281
      -0.219
      -0.155
      -0.078
       0.028
       0.170
       0.344
       0.539
       0.753
       0.983
       1.218
       1.438
       1.627
       1.773
       1.873
       1.923
       1.923
       1.877
       1.790
       1.676
       1.548
       1.409
       1.247
       1.051
       0.821
       0.576
       0.340
       0.132
      -0.037
      -0.170
      -0.280
      -0.374
      -0.444
      -0.473
      -0.454
      -0.393
      -0.302
      -0.197
      -0.096
      -0.011
       0.049
       0.078
       0.069
       0.014
      -0.091
      -0.242
      -0.429
      -0.634
      -0.831
      -1.001
      -1.138
      -1.243
      -1.317
      -1.357
      -1.360
      -1.325
      -1.248
      -1.127
      -0.961
      -0.757
      -0.528
      -0.292
      -0.071
       0.127
       0.299
       0.439
       0.532
       0.567
       0.553
       0.520
       0.505
       0.525
       0.571
       0.608
       0.595
       0.518
       0.401
       0.292
       0.230
       0.226
       0.267
       0.323
       0.365
       0.368
       0.323
       0.226
       0.082
      -0.098
      -0.302
      -0.521
      -0.751
      -0.984
      -1.196
      -1.355
      -1.432
      -1.407
      -1.272
      -1.037
      -0.735
      -0.415
      -0.118
       0.137
       0.358
       0.571
       0.804
       1.057
       1.294
       1.469
       1.544
       1.508
       1.368
       1.149
       0.896
       0.659
       0.481
       0.381
       0.351
       0.351
       0.332
       0.259
       0.140
       0.012
      -0.075
      -0.084
      -0.005
       0.142
       0.310
       0.453
       0.543
       0.577
       0.576
       0.578
       0.612
       0.684
       0.758
       0.774
       0.679
       0.452
       0.112
      -0.283
      -0.655
      -0.938
      -1.105
      -1.169
      -1.174
      -1.169
      -1.190
      -1.253
      -1.347
      -1.446
      -1.526
      -1.572
      -1.579
      -1.557
      -1.517
      -1.458
      -1.362
      -1.214
      -1.015
      -0.789
      -0.571
      -0.391
      -0.257
      -0.151
      -0.035
       0.120
       0.316
       0.524
       0.710
       0.855
       0.965
       1.068
       1.195
       1.358
       1.541
       1.708
       1.826
       1.879
       1.871
       1.818
       1.741
       1.653
       1.546
       1.406
       1.222
       0.985
       0.691
       0.355
       0.006
      -0.322
      -0.605
      -0.836
      -1.018
      -1.155
      -1.254
      -1.312
      -1.324
      -1.290
      -1.219
      -1.125
      -1.019
      -0.905
      -0.787
      -0.664
      -0.541
      -0.432
      -0.355
      -0.324
      -0.336
      -0.374
      -0.419
      -0.449
      -0.440
      -0.375
      -0.261
      -0.114
       0.043
       0.196
       0.338
       0.464
       0.577
       0.676
       0.760
       0.837
       0.920
       1.027
       1.163
       1.326
       1.495
       1.643
       1.740
       1.768
       1.722
       1.598
       1.386
       1.078
       0.689
       0.251
      -0.189
      -0.579
      -0.872
      -1.040
      -1.083
      -1.032
      -0.936
      -0.839
      -0.774
      -0.744
      -0.726
      -0.696
      -0.645
      -0.592
      -0.574
      -0.624
      -0.758
      -0.967
      -1.214
      -1.456
      -1.649
      -1.760
      -1.767
      -1.665
      -1.473
      -1.220
      -0.940
      -0.666
      -0.430
      -0.246
      -0.108
      -0.001
       0.093
       0.184
       0.278
       0.377
       0.475
       0.569
       0.656
       0.745
       0.837
       0.932
       1.023
       1.093
       1.124
       1.106
       1.042
       0.950
       0.855
       0.789
       0.776
       0.811
       0.854
       0.858
       0.803
       0.707
       0.609
       0.532
       0.462
       0.357
       0.170
      -0.110
      -0.445
      -0.770
      -1.028
      -1.191
      -1.267
      -1.292
      -1.304
      -1.320
      -1.334
      -1.329
      -1.296
      -1.234
      -1.145
      -1.031
      -0.897
      -0.742
      -0.557
      -0.331
      -0.072
       0.192
       0.413
       0.549
       0.578
       0.520
       0.434
       0.383
       0.407
       0.511
       0.671
       0.849
       1.011
       1.145
       1.264
       1.395
       1.559
       1.746
       1.917
       2.006
       1.950
       1.721
       1.342
       0.873
       0.382
      -0.082
      -0.490
      -0.835
      -1.117
      -1.330
      -1.456
      -1.479
      -1.394
      -1.205
      -0.926
      -0.584
      -0.219
       0.121
       0.397
       0.588
       0.704
       0.779
       0.847
       0.923
       0.993
       1.034
       1.030
       0.977
       0.867
       0.687
       0.413
       0.018
      -0.509
      -1.143
      -1.816
      -2.439
      -2.940
      -3.294
      -3.512
      -3.631
      -3.686
      -3.692
      -3.640
      -3.505
      -3.267
      -2.916
      -2.462
      -1.943
      -1.421
      -0.960
      -0.590
      -0.295
      -0.020
       0.304
       0.715
       1.207
       1.732
       2.241
       2.706
       3.125
       3.490
       3.785
       3.994
       4.130
       4.238
       4.380
       4.592
       4.846
       5.059
       5.141
       5.045
       4.780
       4.386
       3.912
       3.394
       2.853
       2.287
       1.678
       1.010
       0.278
      -0.500
      -1.284
      -2.027
      -2.690
      -3.264
      -3.756
      -4.175
      -4.507
      -4.720
      -4.781
      -4.680
      -4.459
      -4.197
      -3.977
      -3.835
      -3.747
      -3.648
      -3.459
      -3.140
      -2.708
      -2.237
      -1.814
      -1.491
      -1.270
      -1.107
      -0.943
      -0.728
      -0.439
      -0.082
       0.324
       0.760
       1.214
       1.670
       2.110
       2.511
       2.842
       3.077
       3.204
       3.233
       3.189
       3.101
       2.998
       2.896
       2.790
       2.649
       2.442
       2.167
       1.851
       1.541
       1.270
       1.043
       0.830
       0.584
       0.276
      -0.087
      -0.474
      -0.845
      -1.167
      -1.412
      -1.561
      -1.602
      -1.540
      -1.393
      -1.199
      -1.009
      -0.874
      -0.822
      -0.862
      -0.974
      -1.116
      -1.236
      -1.292
      -1.265
      -1.155
      -0.970
      -0.721
      -0.424
      -0.089
       0.273
       0.643
       0.998
       1.312
       1.563
       1.732
       1.809
       1.795
       1.703
       1.547
       1.336
       1.073
       0.767
       0.431
       0.084
      -0.256
      -0.595
      -0.958
      -1.372
      -1.842
      -2.340
      -2.817
      -3.225
      -3.523
      -3.684
      -3.705
      -3.604
      -3.413
      -3.171
      -2.912
      -2.658
      -2.404
      -2.117
      -1.754
      -1.274
      -0.666
       0.035
       0.750
       1.391
       1.905
       2.287
       2.576
       2.823
       3.063
       3.297
       3.491
       3.598
       3.592
       3.478
       3.288
       3.064
       2.838
       2.616
       2.376
       2.088
       1.745
       1.369
       1.002
       0.682
       0.438
       0.282
       0.208
       0.195
       0.217
       0.249
       0.277
       0.299
       0.332
       0.398
       0.511
       0.663
       0.824
       0.944
       0.962
       0.819
       0.484
      -0.041
      -0.726
      -1.512
      -2.324
      -3.078
      -3.700
      -4.142
      -4.390
      -4.472
      -4.441
      -4.340
      -4.178
      -3.937
      -3.605
      -3.195
      -2.747
      -2.314
      -1.947
      -1.671
      -1.472
      -1.306
      -1.118
      -0.866
      -0.527
      -0.104
       0.371
       0.846
       1.269
       1.598
       1.812
       1.910
       1.909
       1.830
       1.697
       1.541
       1.415
       1.371
       1.437
       1.609
       1.858
       2.153
       2.458
       2.737
       2.955
       3.080
       3.090
       2.975
       2.744
       2.425
       2.059
       1.696
       1.394
       1.194
       1.107
       1.099
       1.115
       1.100
       1.022
       0.887
       0.739
       0.629
       0.578
       0.557
       0.509
       0.381
       0.158
      -0.125
      -0.401
      -0.614
      -0.744
      -0.810
      -0.848
      -0.904
      -1.020
      -1.223
      -1.517
      -1.876
      -2.272
      -2.680
      -3.076
      -3.438
      -3.733
      -3.922
      -3.963
      -3.831
      -3.538
      -3.130
      -2.682
      -2.272
      -1.965
      -1.783
      -1.708
      -1.687
      -1.662
      -1.581
      -1.410
      -1.143
      -0.811
      -0.466
      -0.156
       0.092
       0.279
       0.431
       0.591
       0.800
       1.079
       1.414
       1.758
       2.048
       2.218
       2.232
       2.108
       1.917
       1.755
       1.706
       1.807
       2.027
       2.290
       2.519
       2.682
       2.795
       2.895
       3.007
       3.129
       3.235
       3.287
       3.253
       3.123
       2.906
       2.624
       2.305
       1.973
       1.636
       1.283
       0.904
       0.509
       0.126
      -0.209
      -0.483
      -0.707
      -0.920
      -1.170
      -1.486
      -1.866
      -2.277
      -2.677
      -3.025
      -3.284
      -3.431
      -3.461
      -3.394
      -3.270
      -3.136
      -3.027
      -2.950
      -2.878
      -2.779
      -2.641
      -2.472
      -2.290
      -2.106
      -1.915
      -1.699
      -1.435
      -1.109
      -0.724
      -0.292
       0.179
       0.685
       1.211
       1.730
       2.210
       2.614
       2.910
       3.080
       3.124
       3.060
       2.917
       2.728
       2.520
       2.305
       2.073
       1.813
       1.525
       1.220
       0.920
       0.646
       0.423
       0.256
       0.131
       0.018
      -0.100
      -0.209
      -0.281
      -0.299
      -0.278
      -0.262
      -0.300
      -0.418
      -0.606
      -0.840
      -1.101
      -1.379
      -1.664
      -1.939
      -2.172
      -2.312
      -2.308
      -2.140
      -1.846
      -1.508
      -1.206
      -0.991
      -0.867
      -0.800
      -0.733
      -0.621
      -0.447
      -0.220
       0.035
       0.301
       0.565
       0.823
       1.071
       1.301
       1.489
       1.610
       1.644
       1.589
       1.455
       1.259
       1.016
       0.730
       0.401
       0.040
      -0.318
      -0.626
      -0.846
      -0.957
      -0.951
      -0.835
      -0.627
      -0.358
      -0.070
       0.184
       0.357
       0.430
       0.426
       0.393
       0.376
       0.409
       0.508
       0.675
       0.889
       1.110
       1.287
       1.377
       1.361
       1.257
       1.104
       0.935
       0.755
       0.544
       0.285
      -0.030
      -0.389
      -0.764
      -1.113
      -1.392
      -1.577
      -1.675
      -1.723
      -1.769
      -1.850
      -1.966
      -2.074
      -2.119
      -2.068
      -1.938
