Origin Time       29/12/2009 09:01:42
Lat.              24.5°N	
Long.             94.8°E	
Depth (Km)         80.0
Magnitude         5.5
 Region           MYANMAR-INDIA(MANIPUR)-BORDER                                    
 Above details taken from IMD 
   
Station Code      TUR
Station Lat.       25.511
Station Long.      90.220
Station Height(m)  376.2
Site Class        B   Vs30 between 375 m/sec to 700 m/sec *  
Record Time       29.12.2009 09:03:26.384
Sampling Rate     200. Hz
 Record Duration   70.640 Sec.
 Direction         Vert. (Up positive)
Max. Acceleration      6.257 cm/sec**2
     
  * For reference see Site Classification link of website 
     
 Base Line Corrected and Low Pass Filtered (Cut Off at 35 Hz) Time History
 Acceleration data in cm/sec**2
    
[...]
       0.690
       0.760
       0.717
       0.485
       0.054
      -0.475
      -0.921
      -1.123
      -1.025
      -0.700
      -0.288
       0.082
       0.340
       0.465
       0.458
       0.329
       0.104
      -0.151
      -0.344
      -0.399
      -0.293
      -0.071
       0.182
       0.372
       0.435
       0.366
       0.222
       0.098
       0.064
       0.122
       0.209
       0.246
       0.190
       0.060
      -0.085
      -0.175
      -0.170
      -0.083
       0.017
       0.058
       0.017
      -0.057
      -0.087
      -0.044
       0.026
       0.048
      -0.011
      -0.100
      -0.133
      -0.061
       0.086
       0.219
       0.263
       0.200
       0.076
      -0.046
      -0.130
      -0.176
      -0.206
      -0.239
      -0.276
      -0.313
      -0.357
      -0.408
      -0.448
      -0.431
      -0.324
      -0.137
       0.075
       0.250
       0.369
       0.453
       0.530
       0.593
       0.605
       0.536
       0.404
       0.264
       0.165
       0.103
       0.027
      -0.122
      -0.358
      -0.632
      -0.854
      -0.948
      -0.884
      -0.682
      -0.395
      -0.106
       0.090
       0.131
       0.039
      -0.079
      -0.108
      -0.013
       0.140
       0.248
       0.268
       0.241
       0.247
       0.322
       0.435
       0.510
       0.482
       0.340
       0.132
      -0.061
      -0.168
      -0.159
      -0.047
       0.129
       0.323
       0.507
       0.659
       0.756
       0.756
       0.637
       0.432
       0.222
       0.091
       0.064
       0.089
       0.071
      -0.044
      -0.233
      -0.410
      -0.514
      -0.562
      -0.628
      -0.744
      -0.845
      -0.820
      -0.624
      -0.329
      -0.073
       0.049
       0.042
      -0.011
      -0.029
       0.019
       0.096
       0.140
       0.120
       0.070
       0.061
       0.116
       0.187
       0.212
       0.173
       0.095
       0.014
      -0.047
      -0.080
      -0.102
      -0.158
      -0.277
      -0.432
      -0.552
      -0.590
      -0.563
      -0.530
      -0.522
      -0.509
      -0.432
      -0.265
      -0.031
       0.225
       0.471
       0.686
       0.845
       0.918
       0.895
       0.788
       0.618
       0.405
       0.165
      -0.069
      -0.258
      -0.374
      -0.426
      -0.449
      -0.466
      -0.461
      -0.401
      -0.279
      -0.138
      -0.039
       0.000
       0.030
       0.119
       0.276
       0.427
       0.471
       0.364
       0.147
      -0.081
      -0.231
      -0.272
      -0.239
      -0.200
      -0.210
      -0.266
      -0.315
      -0.276
      -0.105
       0.186
       0.528
       0.838
       1.043
       1.084
       0.935
       0.624
       0.250
      -0.050
      -0.176
      -0.124
       0.023
       0.151
       0.178
       0.092
      -0.066
      -0.235
      -0.355
      -0.402
      -0.399
      -0.393
      -0.412
      -0.430
      -0.396
      -0.284
      -0.133
      -0.015
       0.016
      -0.041
      -0.139
      -0.216
      -0.221
      -0.141
       0.011
       0.207
       0.416
       0.582
       0.631
       0.499
       0.188
      -0.213
      -0.574
      -0.786
      -0.798
      -0.612
      -0.279
       0.108
       0.433
       0.608
       0.622
       0.533
       0.408
       0.270
       0.109
      -0.082
      -0.266
      -0.386
      -0.405
      -0.337
      -0.234
      -0.135
      -0.041
       0.071
       0.205
       0.337
       0.432
       0.466
       0.424
       0.285
       0.037
      -0.289
      -0.599
      -0.761
      -0.676
      -0.345
       0.109
       0.495
       0.652
       0.548
       0.295
       0.062
      -0.042
      -0.027
       0.019
       0.034
       0.037
       0.085
       0.198
       0.319
       0.356
       0.256
       0.055
      -0.141
      -0.224
      -0.172
      -0.075
      -0.056
      -0.141
      -0.216
      -0.121
       0.182
       0.557
       0.803
       0.810
       0.629
       0.389
       0.190
       0.052
      -0.052
      -0.143
      -0.219
      -0.264
      -0.272
      -0.271
      -0.314
      -0.446
      -0.658
      -0.878
      -1.012
      -1.014
      -0.904
      -0.728
      -0.517
      -0.288
      -0.087
       0.022
       0.015
      -0.036
       0.000
       0.225
       0.629
       1.105
       1.509
       1.732
       1.721
       1.479
       1.055
       0.529
       0.000
      -0.437
      -0.708
      -0.786
      -0.695
      -0.503
      -0.288
      -0.115
      -0.031
      -0.064
      -0.213
      -0.437
      -0.650
      -0.772
      -0.770
      -0.674
      -0.535
      -0.399
      -0.297
      -0.266
      -0.331
      -0.477
      -0.624
      -0.665
      -0.543
      -0.296
      -0.029
       0.179
       0.330
       0.507
       0.778
       1.107
       1.349
       1.347
       1.066
       0.648
       0.330
       0.287
       0.508
       0.814
       0.982
       0.897
       0.605
       0.261
       0.011
      -0.090
      -0.087
      -0.067
      -0.093
      -0.163
      -0.222
      -0.208
      -0.110
       0.008
       0.050
      -0.041
      -0.233
      -0.424
      -0.526
      -0.529
      -0.489
      -0.467
      -0.467
      -0.451
      -0.400
      -0.344
      -0.330
      -0.357
      -0.363
      -0.297
      -0.194
      -0.172
      -0.327
      -0.628
      -0.919
      -1.043
      -0.979
      -0.844
      -0.784
      -0.840
      -0.915
      -0.862
      -0.578
      -0.073
       0.553
       1.172
       1.707
       2.157
       2.548
       2.836
       2.886
       2.557
       1.852
       0.959
       0.156
      -0.353
      -0.542
      -0.520
      -0.432
      -0.362
      -0.325
      -0.310
      -0.343
      -0.502
      -0.850
      -1.348
      -1.832
      -2.100
      -2.051
      -1.740
      -1.311
      -0.871
      -0.437
       0.015
       0.468
       0.829
       0.970
       0.813
       0.393
      -0.140
      -0.579
      -0.757
      -0.621
      -0.244
       0.233
       0.684
       1.037
       1.257
       1.310
       1.164
       0.824
       0.361
      -0.096
      -0.402
      -0.457
      -0.254
       0.113
       0.494
       0.765
       0.887
       0.892
       0.828
       0.714
       0.547
       0.319
       0.037
      -0.282
      -0.618
      -0.944
      -1.213
      -1.367
      -1.349
      -1.142
      -0.796
      -0.421
      -0.140
      -0.008
       0.018
       0.027
       0.066
       0.099
       0.060
      -0.073
      -0.240
      -0.342
      -0.318
      -0.181
      -0.001
       0.138
       0.177
       0.104
      -0.052
      -0.236
      -0.388
      -0.455
      -0.398
      -0.210
       0.057
       0.309
       0.458
       0.492
       0.490
       0.566
       0.793
       1.154
       1.534
       1.777
       1.761
       1.483
       1.067
       0.684
       0.442
       0.322
       0.226
       0.068
      -0.173
      -0.457
      -0.736
      -0.991
      -1.242
      -1.520
      -1.808
      -2.000
      -1.927
      -1.467
      -0.681
       0.188
       0.843
       1.111
       1.010
       0.681
       0.278
      -0.099
      -0.405
      -0.631
      -0.779
      -0.846
      -0.812
      -0.663
      -0.411
      -0.116
       0.138
       0.268
       0.228
       0.022
      -0.278
      -0.554
      -0.696
      -0.643
      -0.410
      -0.052
       0.361
       0.764
       1.090
       1.289
       1.357
       1.331
       1.261
       1.179
       1.108
       1.079
       1.114
       1.194
       1.258
       1.253
       1.178
       1.065
       0.920
       0.704
       0.383
      -0.016
      -0.394
      -0.638
      -0.702
      -0.642
      -0.598
      -0.713
      -1.039
      -1.486
      -1.889
      -2.133
      -2.239
      -2.302
      -2.357
      -2.321
      -2.077
      -1.616
      -1.088
      -0.706
      -0.583
      -0.646
      -0.692
      -0.541
      -0.157
       0.342
       0.792
       1.099
       1.274
       1.363
       1.383
       1.338
       1.263
       1.238
       1.316
       1.474
       1.627
       1.706
       1.688
       1.566
       1.314
       0.906
       0.368
      -0.188
      -0.617
      -0.812
      -0.751
      -0.494
      -0.146
       0.175
       0.379
       0.432
       0.382
       0.326
       0.348
       0.457
       0.580
       0.615
       0.508
       0.274
      -0.025
      -0.330
      -0.605
      -0.827
      -0.950
      -0.913
      -0.674
      -0.270
       0.166
       0.447
       0.428
       0.093
      -0.426
      -0.908
      -1.167
      -1.148
      -0.939
      -0.672
      -0.418
      -0.162
       0.126
       0.407
       0.593
       0.634
       0.581
       0.534
       0.537
       0.526
       0.381
       0.042
      -0.415
      -0.816
      -0.990
      -0.864
      -0.502
      -0.041
       0.394
       0.741
       0.977
       1.058
       0.917
       0.527
      -0.024
      -0.543
      -0.843
      -0.861
      -0.677
      -0.432
      -0.220
      -0.050
       0.116
       0.293
       0.427
       0.424
       0.239
      -0.057
      -0.279
      -0.246
       0.086
       0.576
       0.975
       1.085
       0.866
       0.437
      -0.024
      -0.404
      -0.717
      -1.068
      -1.535
      -2.050
      -2.393
      -2.341
      -1.853
      -1.143
      -0.538
      -0.244
      -0.223
      -0.282
      -0.272
      -0.216
      -0.242
      -0.426
      -0.681
      -0.806
      -0.640
      -0.182
       0.420
       0.975
       1.364
       1.588
       1.721
       1.843
       1.971
       2.051
       2.002
       1.783
       1.443
       1.118
       0.953
       1.001
       1.183
       1.328
       1.288
       1.014
       0.550
      -0.023
      -0.642
      -1.274
      -1.889
      -2.428
      -2.791
      -2.873
      -2.628
      -2.121
      -1.503
      -0.935
      -0.506
      -0.223
      -0.035
       0.121
       0.279
       0.429
       0.527
       0.539
       0.481
       0.422
       0.443
       0.587
       0.842
       1.155
       1.463
       1.697
       1.789
       1.687
       1.390
       0.971
       0.548
       0.227
       0.049
      -0.012
      -0.005
       0.052
       0.175
       0.389
       0.694
       1.060
       1.430
       1.731
       1.887
       1.857
       1.646
       1.293
       0.837
       0.307
      -0.251
      -0.764
      -1.150
      -1.375
      -1.493
      -1.623
      -1.868
      -2.246
      -2.675
      -3.033
      -3.232
      -3.260
      -3.156
      -2.954
      -2.656
      -2.257
      -1.794
      -1.360
      -1.067
      -0.985
      -1.092
      -1.259
      -1.308
      -1.103
      -0.644
      -0.070
       0.448
       0.845
       1.212
       1.671
       2.207
       2.627
       2.705
       2.375
       1.793
       1.217
       0.846
       0.735
       0.813
       0.967
       1.104
       1.178
       1.166
       1.007
       0.590
      -0.154
      -1.132
      -2.065
      -2.625
      -2.637
      -2.164
      -1.411
      -0.567
       0.285
       1.115
       1.852
       2.353
       2.475
       2.192
       1.648
       1.089
       0.727
       0.632
       0.703
       0.743
       0.581
       0.173
      -0.384
      -0.941
      -1.392
      -1.705
      -1.881
      -1.897
      -1.724
      -1.392
      -1.024
      -0.771
      -0.712
      -0.800
      -0.908
      -0.942
      -0.892
      -0.801
      -0.656
      -0.352
       0.226
       1.054
       1.921
       2.531
       2.695
       2.424
       1.889
       1.268
       0.650
       0.051
      -0.495
      -0.875
      -0.934
      -0.594
       0.047
       0.740
       1.220
       1.350
       1.162
       0.780
       0.293
      -0.273
      -0.898
      -1.490
      -1.878
      -1.899
      -1.505
      -0.805
      -0.021
       0.610
       0.924
       0.875
       0.525
       0.019
      -0.460
      -0.750
      -0.753
      -0.474
      -0.010
       0.504
       0.954
       1.294
       1.550
       1.787
       2.062
       2.370
       2.610
       2.620
       2.282
       1.616
       0.785
      -0.001
      -0.614
      -1.052
      -1.385
      -1.665
      -1.873
      -1.939
      -1.825
      -1.583
      -1.335
      -1.188
      -1.146
      -1.126
      -1.054
      -0.967
      -0.982
      -1.159
      -1.412
      -1.578
      -1.576
      -1.487
      -1.473
      -1.622
      -1.879
      -2.093
      -2.104
      -1.804
      -1.170
      -0.302
       0.579
       1.211
       1.425
       1.246
       0.874
       0.540
       0.363
       0.303
       0.251
       0.180
       0.212
       0.540
       1.237
       2.147
       2.951
       3.390
       3.448
       3.338
       3.298
       3.400
       3.541
       3.597
       3.534
       3.376
       3.095
       2.606
       1.877
       1.031
       0.314
      -0.081
      -0.170
      -0.200
      -0.487
      -1.203
      -2.250
      -3.326
      -4.122
      -4.507
      -4.554
      -4.431
      -4.261
      -4.092
      -3.951
      -3.899
      -3.999
      -4.247
      -4.531
      -4.668
      -4.495
      -3.952
      -3.114
      -2.139
      -1.171
      -0.260
       0.621
       1.498
       2.338
       3.080
       3.731
       4.383
       5.105
       5.816
       6.257
       6.153
       5.419
       4.239
       2.968
       1.908
       1.162
       0.650
       0.245
      -0.111
      -0.411
      -0.661
      -0.941
      -1.359
      -1.943
      -2.577
      -3.040
      -3.144
      -2.881
      -2.454
      -2.162
      -2.194
      -2.478
      -2.712
      -2.565
      -1.901
      -0.855
       0.306
       1.385
       2.342
       3.232
       4.080
       4.835
       5.417
       5.800
       6.021
       6.129
       6.102
       5.825
       5.155
       4.041
       2.606
       1.120
      -0.133
      -0.996
      -1.495
      -1.776
      -1.993
      -2.241
      -2.568
      -2.992
      -3.498
      -4.016
      -4.446
      -4.703
      -4.740
      -4.536
      -4.093
      -3.469
      -2.808
      -2.300
      -2.076
      -2.123
      -2.290
      -2.370
      -2.207
      -1.757
      -1.107
      -0.451
       0.000
       0.126
      -0.044
      -0.348
      -0.585
      -0.604
      -0.352
       0.118
       0.659
       1.073
       1.200
       1.008
       0.632
       0.291
       0.149
       0.201
       0.295
       0.268
       0.103
      -0.033
       0.080
       0.528
       1.187
       1.811
       2.222
       2.426
       2.597
       2.932
       3.491
       4.126
       4.548
       4.505
       3.961
       3.140
       2.372
       1.873
       1.634
       1.503
       1.360
       1.210
       1.137
       1.181
       1.271
       1.252
       0.982
       0.410
      -0.393
      -1.270
      -2.062
      -2.688
      -3.157
      -3.525
      -3.827
      -4.056
      -4.188
      -4.203
      -4.089
      -3.831
      -3.431
      -2.931
      -2.399
      -1.883
      -1.390
      -0.929
      -0.565
      -0.390
      -0.425
      -0.553
      -0.578
      -0.373
       0.014
       0.394
       0.588
       0.574
       0.494
       0.533
       0.753
       1.040
       1.208
       1.163
       1.000
       0.918
       1.053
       1.370
       1.708
       1.912
       1.926
       1.791
       1.574
       1.331
       1.105
       0.943
       0.897
       0.987
       1.159
       1.295
       1.266
       1.019
       0.611
       0.173
      -0.177
      -0.395
      -0.499
      -0.522
      -0.480
      -0.407
      -0.397
      -0.590
      -1.096
      -1.901
      -2.825
      -3.577
      -3.886
      -3.657
      -3.042
      -2.344
      -1.798
      -1.394
      -0.899
      -0.087
       1.020
       2.124
       2.856
       3.044
       2.816
       2.470
       2.248
       2.184
       2.115
       1.830
       1.232
       0.411
      -0.413
      -1.028
      -1.348
      -1.421
      -1.355
      -1.224
      -1.037
      -0.773
      -0.454
      -0.168
      -0.040
      -0.144
      -0.434
      -0.749
      -0.909
      -0.819
      -0.512
      -0.115
       0.254
       0.541
       0.756
       0.908
       0.965
       0.886
       0.685
       0.472
       0.408
       0.602
       1.012
       1.450
       1.714
       1.732
       1.619
       1.546
       1.561
       1.521
       1.193
       0.457
      -0.570
      -1.607
      -2.382
      -2.764
      -2.760
      -2.423
      -1.799
      -0.958
      -0.026
       0.826
       1.455
       1.808
       1.928
       1.917
       1.880
       1.872
       1.878
       1.828
       1.655
       1.349
       0.958
       0.542
       0.105
      -0.401
      -1.003
      -1.646
      -2.194
      -2.522
      -2.605
      -2.519
      -2.368
      -2.211
      -2.036
      -1.800
      -1.468
      -1.048
      -0.611
      -0.260
      -0.066
       0.001
       0.067
       0.263
       0.622
       1.041
       1.348
       1.418
       1.241
       0.906
       0.506
       0.070
      -0.430
      -1.012
      -1.626
      -2.182
      -2.599
      -2.833
      -2.847
      -2.598
      -2.075
      -1.339
      -0.532
       0.189
       0.722
       1.049
       1.210
       1.242
       1.145
       0.911
       0.591
       0.328
       0.286
       0.557
       1.112
       1.860
       2.696
       3.493
       4.062
       4.165
       3.639
       2.532
       1.139
      -0.117
      -0.893
      -1.087
      -0.854
      -0.469
      -0.162
      -0.041
      -0.117
      -0.350
      -0.652
      -0.899
      -0.975
      -0.850
      -0.589
      -0.301
      -0.063
       0.106
       0.205
       0.223
       0.143
      -0.020
      -0.199
      -0.305
      -0.279
      -0.160
      -0.083
      -0.213
      -0.628
      -1.238
      -1.816
      -2.131
      -2.060
      -1.611
      -0.874
       0.028
       0.951
       1.726
       2.184
       2.220
       1.836
       1.155
       0.380
      -0.273
      -0.644
      -0.685
      -0.476
      -0.161
       0.127
       0.307
       0.336
       0.181
      -0.158
      -0.607
      -1.027
      -1.285
      -1.345
      -1.275
      -1.185
      -1.150
      -1.167
      -1.156
      -0.990
      -0.589
       0.003
       0.607
       1.033
       1.222
       1.288
       1.395
       1.605
       1.825
       1.889
       1.679
       1.208
       0.613
       0.088
      -0.222
      -0.318
      -0.348
      -0.501
      -0.853
      -1.299
      -1.618
      -1.629
      -1.306
      -0.793
      -0.325
      -0.093
      -0.136
      -0.307
      -0.369
      -0.151
       0.325
       0.855
       1.187
       1.164
       0.794
       0.213
      -0.397
      -0.875
      -1.124
      -1.110
      -0.847
      -0.372
       0.252
       0.929
       1.522
       1.899
       2.012
       1.932
       1.788
       1.650
       1.487
       1.242
       0.938
       0.697
       0.634
       0.737
       0.848
       0.771
       0.405
      -0.179
      -0.779
      -1.183
