Origin Time       31/12/2009 09:57:00
Lat.              27.3°N	
Long.             91.4°E	
Depth (Km)          7.0
Magnitude         5.5
 Region           BHUTAN                                                           
 Above details taken from IMD 
     
Station Code      TUR
Station Lat.       25.511  N
Station Long.      90.220  E
Station Height(m)  376.2
Site Class        B   Vs30 between 375 m/sec to 700 m/sec *  
Record Time       31.12.2009 09:58:20.469
Sampling Rate     200. Hz
 Record Duration   74.815 Sec.
 Direction         E-W (E positive)
Max. Acceleration    -18.347 cm/sec**2
     
  * For reference see Site Classification link of website 
     
 Base Line Corrected and Low Pass Filtered (Cut Off at 35 Hz) Time History
 Acceleration data in cm/sec**2
    
[...]
       0.297
       0.213
       0.122
       0.036
      -0.036
      -0.082
      -0.099
      -0.094
      -0.080
      -0.068
      -0.060
      -0.056
      -0.048
      -0.033
      -0.009
       0.021
       0.049
       0.064
       0.060
       0.033
      -0.006
      -0.047
      -0.076
      -0.091
      -0.094
      -0.092
      -0.086
      -0.071
      -0.036
       0.025
       0.109
       0.197
       0.263
       0.284
       0.247
       0.156
       0.027
      -0.112
      -0.237
      -0.336
      -0.410
      -0.474
      -0.544
      -0.625
      -0.705
      -0.759
      -0.771
      -0.737
      -0.674
      -0.600
      -0.526
      -0.448
      -0.354
      -0.234
      -0.084
       0.086
       0.263
       0.427
       0.562
       0.651
       0.686
       0.667
       0.607
       0.525
       0.444
       0.379
       0.338
       0.314
       0.298
       0.281
       0.261
       0.244
       0.235
       0.241
       0.260
       0.290
       0.322
       0.342
       0.335
       0.294
       0.219
       0.121
       0.018
      -0.073
      -0.142
      -0.188
      -0.217
      -0.242
      -0.273
      -0.316
      -0.374
      -0.440
      -0.504
      -0.551
      -0.573
      -0.571
      -0.552
      -0.524
      -0.488
      -0.438
      -0.361
      -0.257
      -0.131
      -0.001
       0.117
       0.215
       0.290
       0.345
       0.384
       0.409
       0.423
       0.424
       0.409
       0.376
       0.328
       0.275
       0.233
       0.216
       0.235
       0.282
       0.339
       0.379
       0.380
       0.340
       0.272
       0.199
       0.144
       0.116
       0.109
       0.109
       0.100
       0.071
       0.020
      -0.047
      -0.118
      -0.181
      -0.232
      -0.275
      -0.323
      -0.384
      -0.458
      -0.529
      -0.574
      -0.577
      -0.537
      -0.467
      -0.384
      -0.300
      -0.224
      -0.164
      -0.126
      -0.113
      -0.121
      -0.133
      -0.133
      -0.107
      -0.054
       0.017
       0.094
       0.166
       0.230
       0.286
       0.340
       0.393
       0.441
       0.477
       0.489
       0.471
       0.420
       0.344
       0.256
       0.171
       0.104
       0.062
       0.047
       0.049
       0.059
       0.063
       0.053
       0.028
      -0.004
      -0.035
      -0.058
      -0.079
      -0.109
      -0.156
      -0.218
      -0.284
      -0.335
      -0.359
      -0.356
      -0.332
      -0.300
      -0.269
      -0.239
      -0.205
      -0.159
      -0.100
      -0.037
       0.015
       0.045
       0.059
       0.069
       0.086
       0.105
       0.108
       0.081
       0.024
      -0.041
      -0.092
      -0.118
      -0.125
      -0.132
      -0.152
      -0.187
      -0.231
      -0.271
      -0.295
      -0.295
      -0.272
      -0.235
      -0.196
      -0.166
      -0.149
      -0.138
      -0.116
      -0.071
       0.006
       0.108
       0.223
       0.333
       0.422
       0.486
       0.533
       0.574
       0.618
       0.660
       0.682
       0.662
       0.584
       0.446
       0.265
       0.072
      -0.097
      -0.213
      -0.266
      -0.261
      -0.225
      -0.186
      -0.172
      -0.195
      -0.248
      -0.312
      -0.364
      -0.390
      -0.388
      -0.369
      -0.349
      -0.343
      -0.358
      -0.389
      -0.417
      -0.410
      -0.345
      -0.213
      -0.035
       0.156
       0.328
       0.462
       0.552
       0.607
       0.639
       0.663
       0.690
       0.717
       0.735
       0.727
       0.680
       0.589
       0.463
       0.319
       0.177
       0.051
      -0.057
      -0.150
      -0.233
      -0.308
      -0.376
      -0.436
      -0.492
      -0.543
      -0.584
      -0.607
      -0.610
      -0.597
      -0.575
      -0.548
      -0.514
      -0.465
      -0.394
      -0.300
      -0.190
      -0.073
       0.040
       0.140
       0.223
       0.296
       0.372
       0.464
       0.572
       0.679
       0.755
       0.779
       0.746
       0.665
       0.552
       0.424
       0.295
       0.174
       0.069
      -0.018
      -0.093
      -0.163
      -0.233
      -0.302
      -0.367
      -0.425
      -0.474
      -0.517
      -0.553
      -0.582
      -0.601
      -0.602
      -0.580
      -0.534
      -0.475
      -0.416
      -0.366
      -0.328
      -0.298
      -0.271
      -0.248
      -0.227
      -0.204
      -0.171
      -0.121
      -0.048
       0.050
       0.174
       0.320
       0.476
       0.620
       0.725
       0.771
       0.753
       0.686
       0.595
       0.506
       0.435
       0.392
       0.374
       0.369
       0.359
       0.330
       0.273
       0.192
       0.100
       0.007
      -0.084
      -0.176
      -0.277
      -0.388
      -0.504
      -0.606
      -0.676
      -0.696
      -0.665
      -0.593
      -0.502
      -0.412
      -0.336
      -0.272
      -0.208
      -0.129
      -0.030
       0.086
       0.205
       0.311
       0.395
       0.452
       0.490
       0.519
       0.548
       0.576
       0.597
       0.597
       0.565
       0.492
       0.378
       0.234
       0.082
      -0.050
      -0.137
      -0.169
      -0.154
      -0.113
      -0.074
      -0.060
      -0.078
      -0.120
      -0.169
      -0.208
      -0.233
      -0.247
      -0.263
      -0.290
      -0.333
      -0.393
      -0.461
      -0.525
      -0.568
      -0.578
      -0.545
      -0.468
      -0.347
      -0.189
      -0.004
       0.191
       0.370
       0.510
       0.595
       0.626
       0.608
       0.555
       0.475
       0.381
       0.279
       0.175
       0.074
      -0.022
      -0.107
      -0.173
      -0.217
      -0.239
      -0.241
      -0.220
      -0.179
      -0.118
      -0.045
       0.037
       0.117
       0.188
       0.239
       0.263
       0.257
       0.224
       0.168
       0.093
       0.009
      -0.073
      -0.141
      -0.188
      -0.207
      -0.201
      -0.180
      -0.158
      -0.149
      -0.157
      -0.174
      -0.185
      -0.178
      -0.150
      -0.113
      -0.085
      -0.082
      -0.110
      -0.160
      -0.215
      -0.257
      -0.270
      -0.249
      -0.195
      -0.116
      -0.023
       0.068
       0.142
       0.188
       0.195
       0.157
       0.073
      -0.044
      -0.175
      -0.297
      -0.392
      -0.458
      -0.498
      -0.524
      -0.540
      -0.551
      -0.553
      -0.541
      -0.513
      -0.468
      -0.416
      -0.370
      -0.346
      -0.350
      -0.371
      -0.389
      -0.380
      -0.333
      -0.252
      -0.153
      -0.054
       0.025
       0.071
       0.074
       0.040
      -0.012
      -0.055
      -0.071
      -0.052
      -0.005
       0.060
       0.139
       0.233
       0.340
       0.455
       0.565
       0.661
       0.743
       0.818
       0.893
       0.970
       1.041
       1.095
       1.125
       1.130
       1.112
       1.069
       0.997
       0.895
       0.762
       0.607
       0.443
       0.285
       0.149
       0.044
      -0.032
      -0.087
      -0.137
      -0.198
      -0.274
      -0.361
      -0.445
      -0.515
      -0.560
      -0.577
      -0.566
      -0.535
      -0.491
      -0.437
      -0.371
      -0.287
      -0.181
      -0.059
       0.073
       0.209
       0.346
       0.484
       0.628
       0.776
       0.923
       1.055
       1.157
       1.217
       1.227
       1.192
       1.128
       1.055
       0.993
       0.952
       0.932
       0.927
       0.933
       0.943
       0.950
       0.934
       0.878
       0.772
       0.624
       0.455
       0.287
       0.133
      -0.002
      -0.120
      -0.228
      -0.337
      -0.463
      -0.619
      -0.800
      -0.993
      -1.179
      -1.344
      -1.491
      -1.622
      -1.740
      -1.834
      -1.883
      -1.870
      -1.790
      -1.661
      -1.512
      -1.375
      -1.261
      -1.165
      -1.070
      -0.962
      -0.837
      -0.704
      -0.577
      -0.474
      -0.403
      -0.366
      -0.351
      -0.340
      -0.312
      -0.254
      -0.162
      -0.036
       0.116
       0.284
       0.452
       0.601
       0.710
       0.769
       0.779
       0.753
       0.703
       0.640
       0.563
       0.475
       0.375
       0.267
       0.155
       0.043
      -0.071
      -0.188
      -0.314
      -0.453
      -0.605
      -0.762
      -0.915
      -1.054
      -1.178
      -1.291
      -1.399
      -1.508
      -1.624
      -1.751
      -1.889
      -2.032
      -2.172
      -2.301
      -2.414
      -2.507
      -2.575
      -2.609
      -2.601
      -2.544
      -2.434
      -2.273
      -2.068
      -1.835
      -1.587
      -1.329
      -1.058
      -0.759
      -0.422
      -0.038
       0.390
       0.854
       1.341
       1.840
       2.337
       2.814
       3.249
       3.625
       3.938
       4.196
       4.415
       4.610
       4.785
       4.929
       5.020
       5.037
       4.972
       4.835
       4.648
       4.437
       4.219
       4.004
       3.789
       3.570
       3.343
       3.108
       2.867
       2.629
       2.403
       2.201
       2.032
       1.897
       1.790
       1.695
       1.599
       1.495
       1.379
       1.250
       1.106
       0.949
       0.783
       0.616
       0.459
       0.320
       0.204
       0.110
       0.038
      -0.013
      -0.041
      -0.049
      -0.045
      -0.047
      -0.074
      -0.143
      -0.267
      -0.455
      -0.707
      -1.019
      -1.373
      -1.749
      -2.132
      -2.523
      -2.936
      -3.383
      -3.865
      -4.366
      -4.856
      -5.312
      -5.723
      -6.101
      -6.463
      -6.826
      -7.193
      -7.552
      -7.882
      -8.158
      -8.361
      -8.481
      -8.515
      -8.471
      -8.363
      -8.204
      -7.998
      -7.736
      -7.414
      -7.029
      -6.590
      -6.100
      -5.552
      -4.935
      -4.239
      -3.466
      -2.626
      -1.731
      -0.795
       0.172
       1.150
       2.117
       3.046
       3.919
       4.726
       5.466
       6.140
       6.745
       7.278
       7.737
       8.133
       8.489
       8.830
       9.170
       9.504
       9.808
      10.051
      10.208
      10.267
      10.224
      10.080
       9.838
       9.501
       9.084
       8.610
       8.105
       7.595
       7.091
       6.597
       6.103
       5.594
       5.054
       4.473
       3.851
       3.193
       2.509
       1.808
       1.100
       0.392
      -0.308
      -0.995
      -1.663
      -2.301
      -2.893
      -3.420
      -3.862
      -4.206
      -4.451
      -4.609
      -4.698
      -4.740
      -4.749
      -4.738
      -4.713
      -4.676
      -4.624
      -4.549
      -4.445
      -4.303
      -4.117
      -3.874
      -3.564
      -3.181
      -2.728
      -2.221
      -1.692
      -1.173
      -0.698
      -0.291
       0.022
       0.222
       0.301
       0.260
       0.114
      -0.119
      -0.428
      -0.809
      -1.259
      -1.767
      -2.310
      -2.866
      -3.423
      -3.983
      -4.557
      -5.156
      -5.779
      -6.412
      -7.036
      -7.637
      -8.206
      -8.740
      -9.232
      -9.661
      -9.999
     -10.221
     -10.310
     -10.260
     -10.067
      -9.733
      -9.258
      -8.645
      -7.896
      -7.010
      -5.990
      -4.840
      -3.564
      -2.170
      -0.671
       0.909
       2.542
       4.193
       5.818
       7.376
       8.836
      10.189
      11.438
      12.589
      13.635
      14.561
      15.348
      15.999
      16.533
      16.971
      17.318
      17.558
      17.666
      17.619
      17.390
      16.941
      16.230
      15.232
      13.972
      12.520
      10.972
       9.408
       7.873
       6.382
       4.931
       3.518
       2.142
       0.813
      -0.442
      -1.584
      -2.573
      -3.395
      -4.067
      -4.625
      -5.104
      -5.520
      -5.888
      -6.245
      -6.656
      -7.186
      -7.845
      -8.576
      -9.280
      -9.879
     -10.362
     -10.775
     -11.178
     -11.599
     -12.009
     -12.347
     -12.558
     -12.635
     -12.625
     -12.597
     -12.588
     -12.571
     -12.473
     -12.224
     -11.798
     -11.217
     -10.512
      -9.701
      -8.786
      -7.780
      -6.719
      -5.654
      -4.622
      -3.627
      -2.648
      -1.659
      -0.649
       0.357
       1.317
       2.199
       3.002
       3.763
       4.528
       5.326
       6.151
       6.970
       7.744
       8.439
       9.029
       9.494
       9.821
      10.013
      10.094
      10.094
      10.032
       9.914
       9.732
       9.483
       9.164
       8.780
       8.342
       7.866
       7.368
       6.858
       6.341
       5.818
       5.292
       4.776
       4.287
       3.837
       3.427
       3.051
       2.711
       2.421
       2.211
       2.107
       2.120
       2.243
       2.463
       2.769
       3.143
       3.560
       3.977
       4.351
       4.648
       4.856
       4.975
       5.011
       4.953
       4.779
       4.459
       3.965
       3.276
       2.381
       1.278
      -0.023
      -1.494
      -3.102
      -4.800
      -6.538
      -8.264
      -9.932
     -11.509
     -12.975
     -14.312
     -15.496
     -16.493
     -17.278
     -17.843
     -18.195
     -18.347
     -18.305
     -18.071
     -17.650
     -17.052
     -16.286
     -15.354
     -14.255
     -12.990
     -11.573
     -10.034
      -8.413
      -6.746
      -5.053
      -3.336
      -1.587
       0.193
       1.990
       3.774
       5.511
       7.161
       8.691
      10.070
      11.274
      12.286
      13.101
      13.719
      14.137
      14.351
      14.353
      14.151
      13.765
      13.231
      12.587
      11.874
      11.137
      10.417
       9.742
       9.111
       8.497
       7.859
       7.170
       6.420
       5.612
       4.748
       3.832
       2.884
       1.951
       1.106
       0.421
      -0.067
      -0.366
      -0.515
      -0.551
      -0.497
      -0.371
      -0.201
      -0.046
       0.019
      -0.076
      -0.381
      -0.906
      -1.628
      -2.490
      -3.419
      -4.338
      -5.186
      -5.931
      -6.570
      -7.113
      -7.566
      -7.914
      -8.126
      -8.170
      -8.028
      -7.696
      -7.186
      -6.516
      -5.715
      -4.817
      -3.855
      -2.852
      -1.822
      -0.770
       0.294
       1.361
       2.422
       3.475
       4.518
       5.535
       6.496
       7.363
       8.096
       8.658
       9.021
       9.157
       9.040
       8.656
       8.019
       7.167
       6.156
       5.044
       3.884
       2.716
       1.554
       0.387
      -0.808
      -2.058
      -3.368
      -4.720
      -6.077
      -7.395
      -8.637
      -9.772
     -10.776
     -11.639
     -12.367
     -12.975
     -13.480
     -13.885
     -14.171
     -14.291
     -14.188
     -13.817
     -13.153
     -12.199
     -10.972
      -9.507
      -7.858
      -6.092
      -4.267
      -2.421
      -0.573
       1.264
       3.062
       4.781
       6.381
       7.843
       9.169
      10.377
      11.487
      12.510
      13.434
      14.227
      14.850
      15.268
      15.462
      15.418
      15.127
      14.588
      13.807
      12.809
      11.632
      10.338
       8.996
       7.670
       6.401
       5.202
       4.069
       2.993
       1.958
       0.947
      -0.058
      -1.063
      -2.061
      -3.036
      -3.977
      -4.876
      -5.721
      -6.490
      -7.148
      -7.653
      -7.972
      -8.099
      -8.053
      -7.879
      -7.631
      -7.353
      -7.074
      -6.804
      -6.549
      -6.316
      -6.119
      -5.964
      -5.841
      -5.716
      -5.548
      -5.292
      -4.923
      -4.442
      -3.873
      -3.249
      -2.590
      -1.900
      -1.173
      -0.408
       0.377
       1.149
       1.876
       2.537
       3.121
       3.620
       4.027
       4.338
       4.561
       4.718
       4.834
       4.922
       4.978
       4.977
       4.893
       4.708
       4.433
       4.094
       3.725
       3.349
       2.966
       2.556
       2.099
       1.590
       1.050
       0.516
       0.019
      -0.434
      -0.852
      -1.252
      -1.633
      -1.973
      -2.251
      -2.462
      -2.628
      -2.779
      -2.936
      -3.093
      -3.221
      -3.285
      -3.261
      -3.144
      -2.946
      -2.687
      -2.379
      -2.027
      -1.630
      -1.192
      -0.726
      -0.246
       0.243
       0.745
       1.257
       1.767
       2.249
       2.685
       3.071
       3.418
       3.738
       4.032
       4.290
       4.494
       4.634
       4.717
       4.760
       4.782
       4.787
       4.764
       4.696
       4.572
       4.389
       4.140
       3.802
       3.341
       2.729
       1.971
       1.105
       0.191
      -0.719
      -1.596
      -2.432
      -3.230
      -3.986
      -4.694
      -5.347
      -5.943
      -6.481
      -6.956
      -7.356
      -7.671
      -7.903
      -8.064
      -8.175
      -8.248
      -8.276
      -8.229
      -8.064
      -7.748
      -7.277
      -6.683
      -6.006
      -5.274
      -4.492
      -3.655
      -2.770
      -1.859
      -0.944
      -0.037
       0.870
       1.793
       2.746
       3.733
       4.740
       5.735
       6.683
       7.546
       8.300
       8.925
       9.406
       9.729
       9.886
       9.880
       9.724
       9.438
       9.037
       8.528
       7.910
       7.176
       6.318
       5.343
       4.265
       3.108
       1.897
       0.650
      -0.620
      -1.900
      -3.169
      -4.405
      -5.588
      -6.698
      -7.716
      -8.623
      -9.395
     -10.006
     -10.430
     -10.638
     -10.613
     -10.346
      -9.838
      -9.094
      -8.121
      -6.934
      -5.572
      -4.101
      -2.603
      -1.155
       0.197
       1.447
       2.620
       3.752
       4.863
       5.945
       6.962
       7.863
       8.604
       9.157
       9.510
       9.661
       9.608
       9.345
       8.872
       8.205
       7.380
       6.443
       5.430
       4.365
       3.271
       2.180
       1.125
       0.132
      -0.795
      -1.665
      -2.486
      -3.249
      -3.937
      -4.532
      -5.034
      -5.456
      -5.811
      -6.104
      -6.319
      -6.438
      -6.440
      -6.317
      -6.071
      -5.715
      -5.270
      -4.758
      -4.203
      -3.620
      -3.029
      -2.451
      -1.912
      -1.434
      -1.026
      -0.682
      -0.371
      -0.050
       0.315
       0.733
       1.181
       1.613
       1.979
       2.236
       2.367
       2.372
       2.270
       2.089
       1.859
       1.619
       1.410
       1.274
       1.237
       1.300
       1.439
       1.622
       1.819
       2.011
       2.193
       2.366
       2.539
       2.718
       2.911
       3.121
       3.340
       3.547
       3.708
       3.791
       3.780
       3.671
       3.473
       3.190
       2.823
       2.370
       1.835
       1.235
       0.600
      -0.045
