Origin Time       29/10/2009 19:56:58
Lat.              26.6°N	
Long.             90.0°E	
Depth (Km)         10.0
Magnitude         4.2
 Region           KOKRAJHAR-ASSAM                                                  
 Above details taken from IMD 
     
Station Code      SAS
Station Lat.       25.511  N
Station Long.      90.220  E
Station Height(m)  376.2
Site Class        B   Vs30 between 375 m/sec to 700 m/sec *  
Record Time       29.10.2009 19:57:24.609
Sampling Rate     200. Hz
 Record Duration   67.915 Sec.
 Direction         E-W (E positive)
Max. Acceleration     -9.857 cm/sec**2
     
  * For reference see Site Classification link of website 
     
 Base Line Corrected and Low Pass Filtered (Cut Off at 35 Hz) Time History
 Acceleration data in cm/sec**2
    
[...]
       0.238
       0.339
       0.416
       0.439
       0.384
       0.256
       0.086
      -0.074
      -0.180
      -0.214
      -0.191
      -0.147
      -0.109
      -0.085
      -0.071
      -0.060
      -0.061
      -0.091
      -0.164
      -0.272
      -0.387
      -0.466
      -0.470
      -0.386
      -0.238
      -0.077
       0.036
       0.059
      -0.005
      -0.116
      -0.210
      -0.232
      -0.159
      -0.007
       0.179
       0.345
       0.451
       0.478
       0.434
       0.344
       0.240
       0.150
       0.091
       0.063
       0.062
       0.078
       0.105
       0.139
       0.177
       0.213
       0.238
       0.244
       0.229
       0.202
       0.176
       0.160
       0.153
       0.140
       0.106
       0.045
      -0.033
      -0.107
      -0.158
      -0.179
      -0.177
      -0.168
      -0.169
      -0.188
      -0.219
      -0.242
      -0.243
      -0.220
      -0.194
      -0.193
      -0.243
      -0.351
      -0.500
      -0.645
      -0.733
      -0.724
      -0.603
      -0.387
      -0.117
       0.158
       0.390
       0.541
       0.597
       0.571
       0.501
       0.423
       0.354
       0.279
       0.175
       0.039
      -0.098
      -0.180
      -0.156
      -0.014
       0.202
       0.409
       0.525
       0.513
       0.393
       0.233
       0.097
       0.022
       0.003
       0.011
       0.017
       0.008
      -0.012
      -0.036
      -0.056
      -0.071
      -0.086
      -0.108
      -0.145
      -0.194
      -0.243
      -0.272
      -0.261
      -0.203
      -0.113
      -0.023
       0.027
       0.017
      -0.037
      -0.089
      -0.088
      -0.012
       0.123
       0.259
       0.337
       0.320
       0.220
       0.086
      -0.027
      -0.085
      -0.091
      -0.073
      -0.064
      -0.081
      -0.126
      -0.181
      -0.221
      -0.221
      -0.170
      -0.080
       0.008
       0.053
       0.031
      -0.045
      -0.139
      -0.209
      -0.231
      -0.205
      -0.146
      -0.072
       0.002
       0.066
       0.116
       0.144
       0.143
       0.109
       0.055
       0.010
       0.004
       0.053
       0.148
       0.259
       0.354
       0.412
       0.430
       0.417
       0.386
       0.342
       0.283
       0.199
       0.078
      -0.086
      -0.280
      -0.474
      -0.623
      -0.693
      -0.674
      -0.576
      -0.424
      -0.249
      -0.077
       0.070
       0.181
       0.261
       0.316
       0.348
       0.351
       0.319
       0.256
       0.174
       0.082
      -0.018
      -0.132
      -0.257
      -0.376
      -0.451
      -0.443
      -0.330
      -0.127
       0.111
       0.311
       0.409
       0.384
       0.259
       0.089
      -0.069
      -0.176
      -0.217
      -0.200
      -0.144
      -0.081
      -0.037
      -0.026
      -0.040
      -0.053
      -0.038
       0.018
       0.107
       0.205
       0.285
       0.325
       0.311
       0.248
       0.154
       0.063
       0.011
       0.016
       0.072
       0.143
       0.184
       0.155
       0.043
      -0.129
      -0.309
      -0.440
      -0.485
      -0.442
      -0.339
      -0.217
      -0.110
      -0.031
       0.022
       0.060
       0.088
       0.107
       0.114
       0.111
       0.107
       0.106
       0.103
       0.081
       0.031
      -0.037
      -0.086
      -0.068
       0.039
       0.211
       0.379
       0.467
       0.431
       0.286
       0.097
      -0.055
      -0.107
      -0.042
       0.108
       0.279
       0.397
       0.411
       0.316
       0.147
      -0.041
      -0.210
      -0.349
      -0.471
      -0.589
      -0.693
      -0.752
      -0.733
      -0.620
      -0.434
      -0.217
      -0.021
       0.130
       0.237
       0.321
       0.398
       0.459
       0.474
       0.411
       0.258
       0.039
      -0.191
      -0.365
      -0.440
      -0.411
      -0.313
      -0.196
      -0.100
      -0.032
       0.021
       0.079
       0.149
       0.212
       0.236
       0.198
       0.097
      -0.038
      -0.165
      -0.241
      -0.248
      -0.188
      -0.083
       0.040
       0.149
       0.217
       0.231
       0.196
       0.134
       0.070
       0.020
      -0.016
      -0.039
      -0.043
      -0.024
       0.015
       0.054
       0.069
       0.055
       0.033
       0.034
       0.078
       0.153
       0.224
       0.256
       0.240
       0.191
       0.137
       0.098
       0.076
       0.054
       0.012
      -0.055
      -0.129
      -0.181
      -0.186
      -0.144
      -0.074
       0.005
       0.088
       0.184
       0.294
       0.396
       0.441
       0.384
       0.208
      -0.048
      -0.306
      -0.478
      -0.508
      -0.401
      -0.220
      -0.058
       0.011
      -0.039
      -0.176
      -0.332
      -0.434
      -0.443
      -0.358
      -0.216
      -0.067
       0.042
       0.092
       0.084
       0.039
      -0.016
      -0.059
      -0.074
      -0.055
      -0.002
       0.079
       0.168
       0.240
       0.272
       0.257
       0.208
       0.158
       0.139
       0.163
       0.217
       0.272
       0.301
       0.297
       0.270
       0.236
       0.201
       0.159
       0.102
       0.025
      -0.069
      -0.175
      -0.288
      -0.399
      -0.492
      -0.542
      -0.530
      -0.449
      -0.319
      -0.182
      -0.083
      -0.048
      -0.076
      -0.139
      -0.199
      -0.228
      -0.217
      -0.175
      -0.117
      -0.061
      -0.017
       0.018
       0.057
       0.122
       0.230
       0.384
       0.562
       0.720
       0.801
       0.767
       0.611
       0.366
       0.092
      -0.142
      -0.283
      -0.310
      -0.242
      -0.126
      -0.014
       0.063
       0.102
       0.118
       0.123
       0.118
       0.091
       0.035
      -0.041
      -0.113
      -0.161
      -0.183
      -0.194
      -0.214
      -0.247
      -0.276
      -0.272
      -0.228
      -0.164
      -0.126
      -0.155
      -0.257
      -0.400
      -0.530
      -0.597
      -0.575
      -0.467
      -0.299
      -0.106
       0.079
       0.233
       0.349
       0.426
       0.468
       0.478
       0.459
       0.422
       0.381
       0.352
       0.341
       0.345
       0.343
       0.317
       0.256
       0.173
       0.100
       0.063
       0.060
       0.067
       0.051
       0.001
      -0.071
      -0.139
      -0.181
      -0.190
      -0.165
      -0.113
      -0.047
       0.016
       0.052
       0.044
      -0.010
      -0.099
      -0.199
      -0.283
      -0.323
      -0.299
      -0.212
      -0.085
       0.049
       0.162
       0.242
       0.289
       0.306
       0.297
       0.271
       0.249
       0.258
       0.315
       0.409
       0.507
       0.560
       0.531
       0.413
       0.227
       0.017
      -0.171
      -0.303
      -0.370
      -0.386
      -0.376
      -0.366
      -0.375
      -0.405
      -0.444
      -0.472
      -0.474
      -0.441
      -0.385
      -0.332
      -0.314
      -0.353
      -0.440
      -0.540
      -0.598
      -0.572
      -0.453
      -0.274
      -0.092
       0.033
       0.071
       0.027
      -0.070
      -0.182
      -0.288
      -0.381
      -0.468
      -0.551
      -0.618
      -0.642
      -0.594
      -0.468
      -0.285
      -0.084
       0.096
       0.240
       0.357
       0.466
       0.583
       0.710
       0.833
       0.928
       0.974
       0.961
       0.887
       0.766
       0.627
       0.509
       0.451
       0.474
       0.571
       0.705
       0.826
       0.888
       0.870
       0.785
       0.670
       0.562
       0.476
       0.393
       0.284
       0.125
      -0.071
      -0.263
      -0.400
      -0.449
      -0.415
      -0.338
      -0.272
      -0.251
      -0.268
      -0.283
      -0.253
      -0.174
      -0.088
      -0.050
      -0.091
      -0.196
      -0.311
      -0.386
      -0.402
      -0.381
      -0.368
      -0.402
      -0.503
      -0.658
      -0.835
      -0.992
      -1.102
      -1.156
      -1.166
      -1.139
      -1.076
      -0.960
      -0.777
      -0.528
      -0.237
       0.051
       0.287
       0.431
       0.462
       0.389
       0.248
       0.096
      -0.004
      -0.014
       0.068
       0.211
       0.371
       0.519
       0.645
       0.748
       0.815
       0.819
       0.730
       0.544
       0.293
       0.035
      -0.174
      -0.301
      -0.345
      -0.320
      -0.247
      -0.136
       0.012
       0.196
       0.407
       0.627
       0.829
       0.985
       1.083
       1.122
       1.117
       1.081
       1.017
       0.909
       0.738
       0.497
       0.210
      -0.073
      -0.292
      -0.403
      -0.400
      -0.314
      -0.195
      -0.084
       0.008
       0.089
       0.166
       0.223
       0.226
       0.142
      -0.029
      -0.248
      -0.446
      -0.549
      -0.520
      -0.375
      -0.181
      -0.036
      -0.021
      -0.168
      -0.454
      -0.816
      -1.177
      -1.476
      -1.681
      -1.788
      -1.820
      -1.804
      -1.765
      -1.701
      -1.588
      -1.385
      -1.064
      -0.639
      -0.169
       0.265
       0.591
       0.777
       0.827
       0.777
       0.677
       0.583
       0.543
       0.583
       0.688
       0.806
       0.868
       0.826
       0.676
       0.468
       0.279
       0.178
       0.194
       0.309
       0.473
       0.630
       0.740
       0.788
       0.775
       0.702
       0.568
       0.376
       0.148
      -0.068
      -0.223
      -0.296
      -0.311
      -0.313
      -0.331
      -0.352
      -0.325
      -0.194
       0.070
       0.450
       0.890
       1.308
       1.634
       1.821
       1.859
       1.757
       1.535
       1.215
       0.834
       0.443
       0.104
      -0.136
      -0.256
      -0.280
      -0.258
      -0.254
      -0.318
      -0.479
      -0.728
      -1.023
      -1.303
      -1.508
      -1.599
      -1.570
      -1.443
      -1.248
      -0.998
      -0.690
      -0.317
       0.093
       0.463
       0.682
       0.651
       0.328
      -0.242
      -0.932
      -1.570
      -1.998
      -2.124
      -1.954
      -1.577
      -1.122
      -0.707
      -0.403
      -0.231
      -0.172
      -0.188
      -0.232
      -0.267
      -0.272
      -0.243
      -0.176
      -0.064
       0.104
       0.329
       0.583
       0.813
       0.965
       1.011
       0.964
       0.873
       0.791
       0.747
       0.738
       0.737
       0.722
       0.685
       0.646
       0.632
       0.674
       0.792
       0.978
       1.195
       1.377
       1.456
       1.392
       1.190
       0.896
       0.569
       0.248
      -0.059
      -0.374
      -0.721
      -1.101
      -1.479
      -1.797
      -2.003
      -2.086
      -2.088
      -2.073
      -2.083
      -2.102
      -2.075
      -1.938
      -1.658
      -1.242
      -0.720
      -0.140
       0.444
       0.977
       1.411
       1.724
       1.922
       2.031
       2.071
       2.058
       1.999
       1.907
       1.813
       1.755
       1.770
       1.874
       2.048
       2.246
       2.406
       2.480
       2.439
       2.267
       1.951
       1.482
       0.878
       0.200
      -0.448
      -0.963
      -1.280
      -1.409
      -1.423
      -1.427
      -1.509
      -1.723
      -2.071
      -2.513
      -2.983
      -3.410
      -3.728
      -3.889
      -3.869
      -3.664
      -3.296
      -2.808
      -2.247
      -1.650
      -1.034
      -0.391
       0.278
       0.941
       1.532
       1.977
       2.234
       2.315
       2.268
       2.144
       1.975
       1.771
       1.535
       1.275
       1.009
       0.757
       0.530
       0.331
       0.163
       0.029
      -0.064
      -0.109
      -0.103
      -0.044
       0.074
       0.261
       0.525
       0.856
       1.223
       1.561
       1.793
       1.846
       1.679
       1.299
       0.755
       0.125
      -0.498
      -1.032
      -1.430
      -1.689
      -1.843
      -1.937
      -2.000
      -2.038
      -2.039
      -1.986
      -1.873
      -1.706
      -1.503
      -1.282
      -1.049
      -0.783
      -0.441
       0.018
       0.597
       1.230
       1.791
       2.137
       2.160
       1.839
       1.245
       0.511
      -0.204
      -0.761
      -1.063
      -1.063
      -0.768
      -0.231
       0.461
       1.207
       1.920
       2.535
       3.009
       3.301
       3.373
       3.194
       2.762
       2.117
       1.333
       0.498
      -0.303
      -1.001
      -1.547
      -1.923
      -2.149
      -2.283
      -2.404
      -2.583
      -2.855
      -3.201
      -3.550
      -3.800
      -3.846
      -3.614
      -3.089
      -2.335
      -1.477
      -0.667
      -0.036
       0.333
       0.422
       0.261
      -0.073
      -0.475
      -0.824
      -1.015
      -0.987
      -0.729
      -0.271
       0.341
       1.061
       1.847
       2.663
       3.485
       4.293
       5.066
       5.778
       6.392
       6.857
       7.115
       7.105
       6.789
       6.183
       5.366
       4.465
       3.601
       2.845
       2.182
       1.522
       0.743
      -0.255
      -1.504
      -2.956
      -4.497
      -5.991
      -7.315
      -8.385
      -9.162
      -9.646
      -9.857
      -9.820
      -9.555
      -9.079
      -8.418
      -7.609
      -6.697
      -5.721
      -4.701
      -3.633
      -2.500
      -1.281
       0.033
       1.419
       2.812
       4.125
       5.273
       6.203
       6.905
       7.393
       7.683
       7.779
       7.677
       7.384
       6.944
       6.444
       5.993
       5.682
       5.542
       5.517
       5.477
       5.259
       4.734
       3.848
       2.632
       1.180
      -0.395
      -1.980
      -3.468
      -4.756
      -5.762
      -6.441
      -6.787
      -6.832
      -6.632
      -6.253
      -5.768
      -5.243
      -4.721
      -4.210
      -3.679
      -3.078
      -2.377
      -1.584
      -0.748
       0.054
       0.745
       1.268
       1.597
       1.753
       1.797
       1.821
       1.916
       2.142
       2.510
       2.990
       3.519
       4.018
       4.387
       4.519
       4.328
       3.782
       2.931
       1.900
       0.854
      -0.059
      -0.759
      -1.258
      -1.643
      -2.019
      -2.465
      -3.005
      -3.614
      -4.243
      -4.832
      -5.314
      -5.622
      -5.700
      -5.529
      -5.129
      -4.555
      -3.863
      -3.082
      -2.205
      -1.208
      -0.080
       1.163
       2.472
       3.772
       4.979
       6.005
       6.776
       7.253
       7.435
       7.358
       7.077
       6.646
       6.104
       5.474
       4.767
       3.985
       3.136
       2.238
       1.311
       0.368
      -0.596
      -1.591
      -2.612
      -3.616
      -4.531
      -5.291
      -5.855
      -6.213
      -6.373
      -6.340
      -6.117
      -5.719
      -5.167
      -4.486
      -3.701
      -2.853
      -2.005
      -1.245
      -0.656
      -0.277
      -0.073
       0.063
       0.264
       0.636
       1.209
       1.933
       2.703
       3.410
       3.968
       4.336
       4.503
       4.476
       4.285
       3.971
       3.579
       3.145
       2.688
       2.214
       1.732
       1.259
       0.821
       0.448
       0.158
      -0.056
      -0.221
      -0.387
      -0.603
      -0.901
      -1.280
      -1.705
      -2.119
      -2.463
      -2.694
      -2.792
      -2.759
      -2.608
      -2.365
      -2.064
      -1.741
      -1.429
      -1.151
      -0.912
      -0.700
      -0.493
      -0.281
      -0.078
       0.074
       0.133
       0.076
      -0.088
      -0.318
      -0.557
      -0.745
      -0.841
      -0.836
      -0.751
      -0.628
      -0.503
      -0.389
      -0.276
      -0.140
       0.036
       0.249
       0.482
       0.710
       0.918
       1.114
       1.321
       1.557
       1.806
       2.009
       2.080
       1.960
       1.655
       1.261
       0.937
       0.844
       1.077
       1.620
       2.352
       3.092
       3.660
       3.925
       3.842
       3.441
       2.807
       2.041
       1.216
       0.360
      -0.529
      -1.434
      -2.287
      -2.975
      -3.389
      -3.489
      -3.334
      -3.064
      -2.830
      -2.731
      -2.766
      -2.847
      -2.864
      -2.748
      -2.523
      -2.275
      -2.093
      -1.991
      -1.891
      -1.657
      -1.169
      -0.394
       0.591
       1.623
       2.512
       3.112
       3.366
       3.315
       3.063
       2.714
       2.331
       1.925
       1.480
       0.986
       0.463
      -0.046
      -0.496
      -0.867
      -1.167
      -1.430
      -1.684
      -1.935
      -2.158
      -2.307
      -2.344
      -2.261
      -2.094
      -1.909
      -1.768
      -1.700
      -1.687
      -1.679
      -1.629
      -1.519
      -1.360
      -1.176
      -0.980
      -0.751
      -0.443
      -0.009
       0.561
       1.227
       1.907
       2.509
       2.970
       3.269
       3.436
       3.536
       3.652
       3.853
       4.170
       4.576
       4.981
       5.256
       5.273
       4.949
       4.275
       3.319
       2.210
       1.098
       0.112
      -0.677
      -1.265
      -1.706
      -2.076
      -2.436
      -2.803
      -3.146
      -3.417
      -3.578
      -3.628
      -3.601
      -3.552
      -3.535
      -3.582
      -3.695
      -3.837
      -3.937
      -3.914
      -3.710
      -3.314
      -2.771
      -2.149
      -1.503
      -0.857
      -0.202
       0.470
       1.138
       1.753
       2.248
       2.577
       2.740
       2.787
       2.793
       2.823
       2.905
       3.030
       3.153
       3.214
       3.151
       2.922
       2.514
       1.954
       1.295
       0.601
      -0.074
      -0.690
      -1.221
      -1.649
      -1.968
      -2.181
      -2.292
      -2.303
      -2.204
      -1.975
      -1.609
      -1.123
      -0.564
       0.000
       0.506
       0.908
       1.192
       1.366
       1.452
       1.465
       1.404
       1.252
       1.004
       0.682
       0.338
       0.031
      -0.201
      -0.356
      -0.465
      -0.567
      -0.694
      -0.856
      -1.043
      -1.238
      -1.424
      -1.591
      -1.722
      -1.797
      -1.793
      -1.701
      -1.536
      -1.336
      -1.138
      -0.971
      -0.841
      -0.738
      -0.640
      -0.510
      -0.308
       0.007
       0.453
       1.006
       1.593
       2.103
       2.439
       2.555
       2.488
       2.341
       2.240
       2.267
       2.419
       2.600
       2.672
       2.527
       2.147
       1.605
       1.022
       0.503
       0.095
      -0.212
      -0.460
      -0.687
      -0.908
      -1.110
      -1.262
      -1.341
      -1.343
      -1.289
      -1.220
      -1.176
      -1.189
      -1.264
      -1.373
      -1.467
      -1.506
      -1.481
      -1.422
      -1.363
      -1.318
      -1.269
      -1.184
      -1.037
      -0.819
      -0.533
      -0.193
