Origin Time       29/10/2009 17:00:35
Lat.              27.3°N	
Long.             91.4°E	
Depth (Km)          5.0
Magnitude         5.2
 Region           BHUTAN                                                           
 Above details taken from IMD 
   
Station Code      SAS
Station Lat.       25.511
Station Long.      90.220
Station Height(m)  376.2
Site Class        B   Vs30 between 375 m/sec to 700 m/sec *  
Record Time       29.10.2009 17:01:26.344
Sampling Rate     200. Hz
 Record Duration   70.750 Sec.
 Direction         Vert. (Up positive)
Max. Acceleration      9.023 cm/sec**2
     
  * For reference see Site Classification link of website 
     
 Base Line Corrected and Low Pass Filtered (Cut Off at 35 Hz) Time History
 Acceleration data in cm/sec**2
    
[...]
      -0.155
      -0.045
       0.077
       0.204
       0.328
       0.445
       0.550
       0.637
       0.695
       0.710
       0.677
       0.597
       0.479
       0.337
       0.181
       0.019
      -0.143
      -0.301
      -0.445
      -0.568
      -0.661
      -0.723
      -0.755
      -0.760
      -0.740
      -0.692
      -0.615
      -0.512
      -0.395
      -0.277
      -0.170
      -0.073
       0.014
       0.092
       0.154
       0.194
       0.207
       0.199
       0.182
       0.169
       0.163
       0.162
       0.158
       0.146
       0.127
       0.106
       0.084
       0.063
       0.038
       0.004
      -0.041
      -0.089
      -0.131
      -0.157
      -0.168
      -0.168
      -0.158
      -0.133
      -0.083
      -0.006
       0.085
       0.174
       0.249
       0.309
       0.355
       0.387
       0.398
       0.384
       0.346
       0.292
       0.229
       0.155
       0.065
      -0.042
      -0.157
      -0.266
      -0.349
      -0.397
      -0.410
      -0.394
      -0.356
      -0.297
      -0.220
      -0.129
      -0.035
       0.047
       0.110
       0.162
       0.217
       0.286
       0.366
       0.444
       0.507
       0.553
       0.586
       0.606
       0.609
       0.584
       0.524
       0.429
       0.307
       0.168
       0.020
      -0.132
      -0.281
      -0.415
      -0.520
      -0.587
      -0.613
      -0.605
      -0.573
      -0.530
      -0.478
      -0.414
      -0.335
      -0.240
      -0.131
      -0.013
       0.110
       0.230
       0.338
       0.422
       0.471
       0.484
       0.464
       0.425
       0.378
       0.332
       0.288
       0.244
       0.194
       0.139
       0.082
       0.024
      -0.033
      -0.093
      -0.154
      -0.215
      -0.271
      -0.319
      -0.361
      -0.396
      -0.420
      -0.429
      -0.415
      -0.370
      -0.295
      -0.195
      -0.080
       0.036
       0.140
       0.226
       0.289
       0.329
       0.342
       0.332
       0.304
       0.265
       0.225
       0.187
       0.153
       0.122
       0.091
       0.057
       0.018
      -0.025
      -0.068
      -0.112
      -0.160
      -0.216
      -0.279
      -0.351
      -0.428
      -0.505
      -0.574
      -0.620
      -0.630
      -0.594
      -0.516
      -0.402
      -0.262
      -0.102
       0.080
       0.278
       0.480
       0.662
       0.800
       0.880
       0.905
       0.886
       0.834
       0.755
       0.655
       0.542
       0.431
       0.328
       0.234
       0.142
       0.044
      -0.061
      -0.170
      -0.276
      -0.371
      -0.448
      -0.506
      -0.541
      -0.549
      -0.520
      -0.456
      -0.370
      -0.281
      -0.200
      -0.131
      -0.069
      -0.009
       0.051
       0.107
       0.153
       0.181
       0.182
       0.153
       0.102
       0.040
      -0.017
      -0.063
      -0.094
      -0.110
      -0.110
      -0.097
      -0.075
      -0.054
      -0.043
      -0.045
      -0.054
      -0.059
      -0.044
      -0.001
       0.064
       0.137
       0.202
       0.247
       0.263
       0.251
       0.221
       0.188
       0.164
       0.154
       0.154
       0.161
       0.178
       0.208
       0.257
       0.320
       0.389
       0.455
       0.514
       0.562
       0.596
       0.608
       0.589
       0.533
       0.435
       0.297
       0.126
      -0.066
      -0.264
      -0.453
      -0.629
      -0.792
      -0.941
      -1.072
      -1.182
      -1.266
      -1.326
      -1.363
      -1.375
      -1.356
      -1.299
      -1.201
      -1.071
      -0.925
      -0.777
      -0.635
      -0.500
      -0.368
      -0.239
      -0.115
       0.005
       0.118
       0.219
       0.304
       0.373
       0.429
       0.484
       0.542
       0.605
       0.664
       0.710
       0.732
       0.730
       0.710
       0.685
       0.661
       0.640
       0.616
       0.587
       0.553
       0.521
       0.500
       0.495
       0.506
       0.531
       0.566
       0.608
       0.654
       0.698
       0.736
       0.762
       0.773
       0.764
       0.730
       0.664
       0.566
       0.443
       0.309
       0.180
       0.058
      -0.061
      -0.187
      -0.323
      -0.462
      -0.593
      -0.710
      -0.815
      -0.909
      -0.988
      -1.043
      -1.058
      -1.023
      -0.938
      -0.810
      -0.654
      -0.483
      -0.308
      -0.130
       0.051
       0.232
       0.405
       0.564
       0.702
       0.816
       0.904
       0.966
       1.000
       1.001
       0.966
       0.897
       0.801
       0.691
       0.576
       0.461
       0.339
       0.208
       0.070
      -0.070
      -0.209
      -0.349
      -0.492
      -0.631
      -0.755
      -0.855
      -0.932
      -0.991
      -1.038
      -1.072
      -1.083
      -1.064
      -1.016
      -0.945
      -0.862
      -0.777
      -0.691
      -0.605
      -0.517
      -0.433
      -0.360
      -0.304
      -0.270
      -0.259
      -0.272
      -0.305
      -0.352
      -0.399
      -0.435
      -0.449
      -0.444
      -0.428
      -0.407
      -0.384
      -0.360
      -0.337
      -0.316
      -0.299
      -0.281
      -0.253
      -0.207
      -0.145
      -0.080
      -0.028
      -0.001
       0.000
      -0.018
      -0.052
      -0.097
      -0.151
      -0.207
      -0.255
      -0.283
      -0.284
      -0.260
      -0.218
      -0.165
      -0.103
      -0.031
       0.054
       0.148
       0.246
       0.342
       0.431
       0.517
       0.605
       0.700
       0.802
       0.901
       0.981
       1.020
       1.007
       0.941
       0.833
       0.702
       0.562
       0.425
       0.295
       0.175
       0.067
      -0.030
      -0.113
      -0.183
      -0.241
      -0.285
      -0.310
      -0.313
      -0.297
      -0.271
      -0.246
      -0.225
      -0.201
      -0.171
      -0.133
      -0.091
      -0.047
       0.007
       0.081
       0.178
       0.285
       0.383
       0.459
       0.513
       0.558
       0.608
       0.665
       0.726
       0.787
       0.848
       0.913
       0.980
       1.042
       1.088
       1.110
       1.109
       1.087
       1.045
       0.973
       0.864
       0.713
       0.535
       0.354
       0.192
       0.057
      -0.062
      -0.180
      -0.308
      -0.447
      -0.590
      -0.728
      -0.852
      -0.952
      -1.020
      -1.053
      -1.060
      -1.050
      -1.033
      -1.006
      -0.960
      -0.883
      -0.769
      -0.618
      -0.436
      -0.228
       0.003
       0.252
       0.511
       0.758
       0.969
       1.114
       1.174
       1.141
       1.029
       0.862
       0.664
       0.446
       0.202
      -0.077
      -0.387
      -0.707
      -1.008
      -1.267
      -1.479
      -1.648
      -1.780
      -1.883
      -1.959
      -2.007
      -2.027
      -2.013
      -1.961
      -1.863
      -1.715
      -1.516
      -1.276
      -1.010
      -0.739
      -0.477
      -0.231
      -0.003
       0.197
       0.357
       0.465
       0.519
       0.529
       0.508
       0.464
       0.401
       0.329
       0.268
       0.241
       0.261
       0.330
       0.441
       0.588
       0.758
       0.930
       1.086
       1.219
       1.330
       1.421
       1.482
       1.502
       1.486
       1.446
       1.395
       1.336
       1.270
       1.203
       1.147
       1.111
       1.093
       1.096
       1.129
       1.214
       1.358
       1.550
       1.759
       1.957
       2.129
       2.270
       2.375
       2.435
       2.437
       2.371
       2.242
       2.063
       1.851
       1.614
       1.347
       1.038
       0.676
       0.271
      -0.151
      -0.572
      -0.989
      -1.413
      -1.841
      -2.246
      -2.581
      -2.807
      -2.920
      -2.961
      -3.002
      -3.100
      -3.270
      -3.477
      -3.671
      -3.816
      -3.903
      -3.941
      -3.934
      -3.872
      -3.744
      -3.555
      -3.329
      -3.090
      -2.843
      -2.566
      -2.227
      -1.803
      -1.298
      -0.740
      -0.173
       0.365
       0.852
       1.293
       1.706
       2.103
       2.475
       2.808
       3.106
       3.392
       3.697
       4.029
       4.369
       4.683
       4.937
       5.101
       5.150
       5.071
       4.863
       4.535
       4.091
       3.528
       2.842
       2.048
       1.181
       0.273
      -0.652
      -1.573
      -2.459
      -3.283
      -4.035
      -4.729
      -5.384
      -5.988
      -6.495
      -6.837
      -6.952
      -6.822
      -6.475
      -5.975
      -5.396
      -4.796
      -4.200
      -3.590
      -2.925
      -2.167
      -1.311
      -0.385
       0.566
       1.509
       2.429
       3.330
       4.219
       5.101
       5.965
       6.775
       7.471
       7.987
       8.293
       8.393
       8.311
       8.059
       7.638
       7.059
       6.360
       5.600
       4.817
       4.006
       3.128
       2.160
       1.128
       0.097
      -0.871
      -1.742
      -2.519
      -3.224
      -3.879
      -4.492
      -5.048
      -5.509
      -5.826
      -5.965
      -5.923
      -5.736
      -5.461
      -5.152
      -4.832
      -4.492
      -4.108
      -3.678
      -3.235
      -2.837
      -2.523
      -2.285
      -2.084
      -1.889
      -1.703
      -1.542
      -1.412
      -1.296
      -1.159
      -0.974
      -0.731
      -0.445
      -0.141
       0.164
       0.476
       0.812
       1.185
       1.578
       1.954
       2.288
       2.584
       2.871
       3.174
       3.491
       3.790
       4.020
       4.132
       4.110
       3.991
       3.857
       3.782
       3.789
       3.823
       3.786
       3.587
       3.175
       2.554
       1.767
       0.869
      -0.096
      -1.107
      -2.149
      -3.185
      -4.153
      -4.994
      -5.678
      -6.215
      -6.622
      -6.900
      -7.033
      -7.014
      -6.846
      -6.538
      -6.089
      -5.489
      -4.736
      -3.848
      -2.868
      -1.858
      -0.880
       0.020
       0.833
       1.578
       2.281
       2.946
       3.559
       4.120
       4.646
       5.153
       5.623
       6.023
       6.327
       6.530
       6.629
       6.612
       6.466
       6.197
       5.826
       5.382
       4.883
       4.340
       3.770
       3.193
       2.630
       2.085
       1.559
       1.049
       0.554
       0.072
      -0.393
      -0.834
      -1.250
      -1.649
      -2.043
      -2.434
      -2.811
      -3.162
      -3.475
      -3.744
      -3.960
      -4.118
      -4.228
      -4.303
      -4.347
      -4.344
      -4.274
      -4.142
      -3.985
      -3.848
      -3.747
      -3.664
      -3.567
      -3.439
      -3.281
      -3.104
      -2.912
      -2.694
      -2.438
      -2.128
      -1.750
      -1.298
      -0.769
      -0.175
       0.469
       1.142
       1.824
       2.497
       3.139
       3.736
       4.289
       4.811
       5.316
       5.800
       6.246
       6.640
       6.979
       7.253
       7.419
       7.417
       7.206
       6.783
       6.171
       5.395
       4.477
       3.457
       2.394
       1.344
       0.331
      -0.657
      -1.640
      -2.630
      -3.624
      -4.606
      -5.535
      -6.346
      -6.978
      -7.402
      -7.633
      -7.708
      -7.648
      -7.448
      -7.101
      -6.618
      -6.020
      -5.321
      -4.523
      -3.633
      -2.673
      -1.676
      -0.666
       0.335
       1.303
       2.216
       3.054
       3.797
       4.428
       4.923
       5.275
       5.487
       5.568
       5.513
       5.305
       4.934
       4.419
       3.806
       3.144
       2.464
       1.772
       1.065
       0.341
      -0.388
      -1.093
      -1.738
      -2.292
      -2.742
      -3.101
      -3.393
      -3.635
      -3.826
      -3.947
      -3.976
      -3.903
      -3.727
      -3.452
      -3.084
      -2.636
      -2.126
      -1.573
      -0.992
      -0.398
       0.184
       0.717
       1.163
       1.509
       1.774
       1.998
       2.212
       2.425
       2.627
       2.805
       2.955
       3.078
       3.177
       3.252
       3.292
       3.271
       3.162
       2.958
       2.687
       2.390
       2.086
       1.764
       1.411
       1.038
       0.668
       0.307
      -0.072
      -0.498
      -0.975
      -1.481
      -1.979
      -2.438
      -2.836
      -3.160
      -3.405
      -3.579
      -3.697
      -3.767
      -3.791
      -3.766
      -3.684
      -3.530
      -3.289
      -2.957
      -2.539
      -2.040
      -1.463
      -0.830
      -0.183
       0.430
       0.984
       1.491
       1.967
       2.411
       2.798
       3.100
       3.307
       3.423
       3.458
       3.430
       3.362
       3.278
       3.186
       3.064
       2.884
       2.639
       2.346
       2.023
       1.658
       1.222
       0.690
       0.062
      -0.639
      -1.387
      -2.157
      -2.929
      -3.690
      -4.430
      -5.139
      -5.794
      -6.354
      -6.782
      -7.058
      -7.189
      -7.181
      -7.033
      -6.736
      -6.286
      -5.685
      -4.940
      -4.051
      -3.025
      -1.878
      -0.634
       0.679
       2.021
       3.344
       4.590
       5.716
       6.694
       7.513
       8.162
       8.627
       8.909
       9.023
       8.991
       8.836
       8.576
       8.224
       7.792
       7.280
       6.676
       5.975
       5.188
       4.340
       3.464
       2.581
       1.703
       0.833
      -0.032
      -0.901
      -1.772
      -2.629
      -3.439
      -4.171
      -4.805
      -5.335
      -5.764
      -6.087
      -6.292
      -6.364
      -6.310
      -6.161
      -5.957
      -5.722
      -5.455
      -5.136
      -4.744
      -4.283
      -3.783
      -3.283
      -2.809
      -2.357
      -1.917
      -1.488
      -1.097
      -0.780
      -0.567
      -0.460
      -0.431
      -0.434
      -0.423
      -0.372
      -0.269
      -0.117
       0.067
       0.263
       0.458
       0.658
       0.881
       1.139
       1.429
       1.746
       2.082
       2.422
       2.733
       2.980
       3.149
       3.256
       3.326
       3.379
       3.419
       3.447
       3.467
       3.480
       3.474
       3.434
       3.357
       3.258
       3.148
       3.018
       2.838
       2.578
       2.226
       1.804
       1.354
       0.920
       0.520
       0.152
      -0.207
      -0.577
      -0.967
      -1.374
      -1.792
      -2.208
      -2.600
      -2.944
      -3.226
      -3.437
      -3.572
      -3.622
      -3.572
      -3.422
      -3.191
      -2.924
      -2.663
      -2.425
      -2.206
      -1.990
      -1.770
      -1.554
      -1.358
      -1.183
      -1.014
      -0.829
      -0.614
      -0.382
      -0.167
       0.001
       0.113
       0.190
       0.260
       0.344
       0.442
       0.546
       0.650
       0.755
       0.863
       0.967
       1.058
       1.129
       1.181
       1.218
       1.241
       1.254
       1.272
       1.312
       1.373
       1.423
       1.422
       1.341
       1.190
       1.001
       0.811
       0.635
       0.473
       0.323
       0.194
       0.106
       0.067
       0.065
       0.070
       0.053
       0.007
      -0.055
      -0.117
      -0.178
      -0.244
      -0.319
      -0.399
      -0.472
      -0.534
      -0.587
      -0.644
      -0.714
      -0.802
      -0.896
      -0.979
      -1.031
      -1.052
      -1.056
      -1.056
      -1.046
      -1.008
      -0.935
      -0.841
      -0.753
      -0.684
      -0.631
      -0.582
      -0.531
      -0.471
      -0.400
      -0.314
      -0.217
      -0.119
      -0.020
       0.094
       0.239
       0.412
       0.592
       0.752
       0.883
       0.991
       1.087
       1.178
       1.257
       1.316
       1.347
       1.355
       1.354
       1.362
       1.388
       1.430
       1.480
       1.536
       1.601
       1.682
       1.776
       1.877
       1.979
       2.075
       2.159
       2.219
       2.253
       2.266
       2.259
       2.218
       2.117
       1.938
       1.683
       1.368
       1.014
       0.623
       0.186
      -0.305
      -0.839
      -1.379
      -1.884
      -2.332
      -2.727
      -3.087
      -3.421
      -3.718
      -3.958
      -4.135
      -4.262
      -4.356
      -4.416
      -4.415
      -4.323
      -4.126
      -3.834
      -3.464
      -3.036
      -2.566
      -2.079
      -1.600
      -1.148
      -0.733
      -0.359
      -0.031
       0.249
       0.485
       0.697
       0.903
       1.108
       1.303
       1.478
       1.627
       1.750
       1.851
       1.943
       2.049
       2.195
       2.380
       2.576
       2.737
       2.829
       2.841
       2.773
       2.626
       2.406
       2.133
       1.839
       1.560
       1.314
       1.106
       0.928
       0.767
       0.611
       0.448
       0.271
       0.079
      -0.120
      -0.306
      -0.461
      -0.571
      -0.632
      -0.652
      -0.635
      -0.582
      -0.495
      -0.382
      -0.256
      -0.121
       0.030
       0.203
       0.384
       0.543
       0.651
       0.694
       0.677
       0.617
       0.530
       0.426
       0.303
       0.151
      -0.038
      -0.263
      -0.508
      -0.752
      -0.991
      -1.230
      -1.474
      -1.715
      -1.930
      -2.096
      -2.190
      -2.208
      -2.164
      -2.089
      -2.013
      -1.942
      -1.865
      -1.768
      -1.652
      -1.524
      -1.378
      -1.198
      -0.968
      -0.691
      -0.392
      -0.099
       0.172
       0.420
       0.661
       0.915
       1.189
       1.473
       1.745
       1.994
       2.226
       2.460
       2.701
       2.926
       3.097
       3.188
       3.196
       3.134
       3.015
       2.842
       2.611
       2.323
       1.988
       1.620
       1.237
       0.852
       0.478
       0.119
      -0.221
      -0.537
      -0.832
      -1.124
      -1.441
      -1.800
      -2.195
      -2.597
      -2.976
      -3.311
      -3.595
      -3.822
      -3.980
      -4.058
      -4.043
      -3.939
      -3.761
      -3.530
      -3.264
      -2.967
      -2.634
      -2.260
      -1.847
      -1.405
      -0.955
      -0.517
      -0.111
       0.257
       0.598
       0.931
       1.266
       1.598
       1.913
       2.203
       2.462
       2.689
       2.874
       3.002
       3.061
       3.051
       2.979
       2.865
       2.727
       2.579
       2.426
       2.263
       2.074
       1.846
       1.573
       1.261
       0.930
       0.610
       0.323
       0.084
      -0.109
      -0.265
      -0.387
      -0.474
      -0.530
      -0.569
      -0.613
      -0.668
      -0.729
      -0.770
      -0.769
      -0.717
      -0.625
      -0.511
      -0.397
      -0.287
      -0.178
      -0.062
       0.059
       0.176
       0.275
       0.353
       0.416
       0.468
       0.498
       0.487
       0.420
       0.299
       0.152
       0.012
      -0.099
      -0.181
      -0.254
      -0.345
