Origin Time       12/3/2010 23:19:54	
Lat.              23.0 N	
Long.             94.5 E	
Depth (Km)         96.0
Magnitude         5.6
 Region           MYANMAR                                                          
 Above details taken from IMD 
   
Station Code      TUR
Station Lat.       25.511
Station Long.      90.220
Station Height(m)  372.0
Site Class        B   Vs30 between 375 m/sec to 700 m/sec *  
Record Time       12.03.2010 23:21:34.864
Sampling Rate     200. Hz
 Record Duration   72.025 Sec.
 Direction         Vert. (Up positive)
Max. Acceleration      5.296 cm/sec**2
     
  * For reference see Site Classification link of website 
     
 Base Line Corrected and Low Pass Filtered (Cut Off at 35 Hz) Time History
 Acceleration data in cm/sec**2
    
[...]
       0.082
       0.071
       0.014
      -0.061
      -0.101
      -0.070
       0.027
       0.141
       0.223
       0.248
       0.235
       0.220
       0.223
       0.231
       0.214
       0.152
       0.063
      -0.012
      -0.044
      -0.038
      -0.035
      -0.071
      -0.148
      -0.229
      -0.266
      -0.236
      -0.149
      -0.040
       0.058
       0.128
       0.172
       0.200
       0.216
       0.207
       0.155
       0.053
      -0.081
      -0.212
      -0.306
      -0.348
      -0.343
      -0.304
      -0.243
      -0.171
      -0.104
      -0.065
      -0.070
      -0.111
      -0.156
      -0.166
      -0.127
      -0.062
      -0.006
       0.022
       0.037
       0.065
       0.115
       0.172
       0.205
       0.199
       0.168
       0.147
       0.164
       0.221
       0.278
       0.281
       0.196
       0.034
      -0.147
      -0.289
      -0.365
      -0.388
      -0.392
      -0.392
      -0.375
      -0.320
      -0.226
      -0.114
      -0.012
       0.067
       0.129
       0.190
       0.257
       0.330
       0.401
       0.452
       0.470
       0.445
       0.381
       0.291
       0.193
       0.096
       0.009
      -0.061
      -0.108
      -0.128
      -0.125
      -0.111
      -0.109
      -0.144
      -0.234
      -0.367
      -0.495
      -0.561
      -0.529
      -0.409
      -0.248
      -0.101
       0.006
       0.077
       0.133
       0.187
       0.238
       0.277
       0.300
       0.313
       0.318
       0.304
       0.250
       0.143
       0.000
      -0.132
      -0.205
      -0.207
      -0.174
      -0.162
      -0.201
      -0.265
      -0.292
      -0.238
      -0.113
       0.026
       0.120
       0.151
       0.157
       0.191
       0.278
       0.389
       0.462
       0.447
       0.348
       0.215
       0.110
       0.058
       0.038
       0.006
      -0.065
      -0.161
      -0.242
      -0.272
      -0.252
      -0.215
      -0.198
      -0.204
      -0.210
      -0.186
      -0.124
      -0.038
       0.048
       0.115
       0.156
       0.175
       0.181
       0.190
       0.206
       0.215
       0.186
       0.092
      -0.062
      -0.238
      -0.378
      -0.439
      -0.418
      -0.348
      -0.277
      -0.232
      -0.210
      -0.186
      -0.137
      -0.065
       0.013
       0.087
       0.161
       0.250
       0.352
       0.437
       0.471
       0.443
       0.380
       0.328
       0.313
       0.323
       0.314
       0.239
       0.089
      -0.099
      -0.268
      -0.383
      -0.452
      -0.513
      -0.589
      -0.662
      -0.679
      -0.599
      -0.428
      -0.227
      -0.067
       0.011
       0.022
       0.015
       0.048
       0.146
       0.298
       0.465
       0.598
       0.660
       0.633
       0.526
       0.369
       0.207
       0.075
      -0.014
      -0.067
      -0.097
      -0.121
      -0.156
      -0.221
      -0.313
      -0.400
      -0.424
      -0.344
      -0.172
       0.032
       0.192
       0.264
       0.255
       0.217
       0.206
       0.249
       0.323
       0.374
       0.353
       0.248
       0.097
      -0.040
      -0.131
      -0.187
      -0.247
      -0.341
      -0.458
      -0.555
      -0.581
      -0.511
      -0.359
      -0.163
       0.029
       0.178
       0.269
       0.314
       0.333
       0.332
       0.296
       0.217
       0.114
       0.030
       0.001
       0.023
       0.051
       0.037
      -0.034
      -0.138
      -0.227
      -0.264
      -0.250
      -0.217
      -0.205
      -0.229
      -0.267
      -0.273
      -0.211
      -0.085
       0.067
       0.209
       0.330
       0.446
       0.575
       0.702
       0.776
       0.745
       0.596
       0.368
       0.134
      -0.042
      -0.133
      -0.156
      -0.152
      -0.164
      -0.209
      -0.271
      -0.317
      -0.326
      -0.304
      -0.275
      -0.258
      -0.246
      -0.219
      -0.171
      -0.117
      -0.083
      -0.073
      -0.068
      -0.044
       0.006
       0.059
       0.084
       0.069
       0.030
      -0.001
      -0.001
       0.018
       0.018
      -0.039
      -0.150
      -0.263
      -0.308
      -0.241
      -0.079
       0.111
       0.251
       0.301
       0.274
       0.219
       0.182
       0.180
       0.198
       0.212
       0.209
       0.196
       0.197
       0.237
       0.315
       0.399
       0.434
       0.377
       0.227
       0.028
      -0.154
      -0.269
      -0.311
      -0.309
      -0.307
      -0.329
      -0.369
      -0.393
      -0.367
      -0.274
      -0.137
      -0.002
       0.094
       0.139
       0.156
       0.165
       0.168
       0.143
       0.073
      -0.035
      -0.147
      -0.222
      -0.229
      -0.161
      -0.037
       0.105
       0.218
       0.271
       0.263
       0.216
       0.153
       0.081
      -0.004
      -0.100
      -0.182
      -0.225
      -0.217
      -0.179
      -0.146
      -0.146
      -0.179
      -0.223
      -0.245
      -0.219
      -0.153
      -0.080
      -0.042
      -0.053
      -0.085
      -0.088
      -0.036
       0.057
       0.149
       0.210
       0.241
       0.262
       0.288
       0.316
       0.331
       0.315
       0.268
       0.206
       0.151
       0.111
       0.068
      -0.007
      -0.130
      -0.279
      -0.410
      -0.484
      -0.496
      -0.466
      -0.407
      -0.323
      -0.212
      -0.089
       0.018
       0.088
       0.119
       0.130
       0.143
       0.175
       0.233
       0.313
       0.396
       0.446
       0.426
       0.317
       0.133
      -0.091
      -0.308
      -0.471
      -0.546
      -0.527
      -0.440
      -0.335
      -0.259
      -0.225
      -0.208
      -0.168
      -0.089
       0.009
       0.085
       0.112
       0.107
       0.115
       0.169
       0.259
       0.339
       0.368
       0.341
       0.292
       0.257
       0.246
       0.246
       0.239
       0.220
       0.191
       0.155
       0.102
       0.022
      -0.088
      -0.212
      -0.319
      -0.383
      -0.396
      -0.373
      -0.335
      -0.279
      -0.177
      -0.001
       0.232
       0.455
       0.576
       0.543
       0.383
       0.185
       0.048
       0.020
       0.082
       0.167
       0.201
       0.147
       0.017
      -0.142
      -0.287
      -0.400
      -0.477
      -0.510
      -0.480
      -0.378
      -0.229
      -0.087
      -0.001
       0.015
      -0.014
      -0.046
      -0.057
      -0.058
      -0.076
      -0.126
      -0.185
      -0.211
      -0.181
      -0.113
      -0.049
      -0.017
       0.000
       0.040
       0.117
       0.198
       0.224
       0.161
       0.035
      -0.085
      -0.140
      -0.114
      -0.026
       0.097
       0.237
       0.379
       0.497
       0.557
       0.543
       0.472
       0.378
       0.291
       0.211
       0.121
       0.001
      -0.150
      -0.308
      -0.431
      -0.486
      -0.470
      -0.416
      -0.371
      -0.361
      -0.368
      -0.344
      -0.255
      -0.113
       0.034
       0.131
       0.162
       0.148
       0.133
       0.151
       0.206
       0.281
       0.347
       0.381
       0.367
       0.301
       0.183
       0.026
      -0.140
      -0.270
      -0.319
      -0.266
      -0.129
       0.032
       0.147
       0.175
       0.125
       0.040
      -0.041
      -0.111
      -0.190
      -0.288
      -0.377
      -0.405
      -0.343
      -0.215
      -0.093
      -0.034
      -0.033
      -0.026
       0.050
       0.192
       0.324
       0.365
       0.299
       0.184
       0.091
       0.037
      -0.023
      -0.135
      -0.288
      -0.409
      -0.426
      -0.322
      -0.152
       0.010
       0.125
       0.205
       0.273
       0.328
       0.329
       0.244
       0.084
      -0.087
      -0.200
      -0.232
      -0.214
      -0.197
      -0.198
      -0.181
      -0.096
       0.066
       0.247
       0.354
       0.332
       0.208
       0.070
      -0.005
      -0.011
      -0.005
      -0.044
      -0.129
      -0.211
      -0.235
      -0.190
      -0.119
      -0.079
      -0.103
      -0.175
      -0.245
      -0.266
      -0.212
      -0.096
       0.044
       0.171
       0.272
       0.356
       0.433
       0.485
       0.478
       0.388
       0.237
       0.079
      -0.029
      -0.076
      -0.088
      -0.105
      -0.144
      -0.193
      -0.226
      -0.226
      -0.200
      -0.172
      -0.165
      -0.182
      -0.207
      -0.225
      -0.231
      -0.228
      -0.200
      -0.115
       0.038
       0.225
       0.378
       0.450
       0.451
       0.431
       0.426
       0.424
       0.388
       0.293
       0.150
      -0.006
      -0.142
      -0.243
      -0.309
      -0.355
      -0.402
      -0.460
      -0.518
      -0.541
      -0.502
      -0.402
      -0.269
      -0.129
       0.006
       0.141
       0.265
       0.354
       0.389
       0.375
       0.336
       0.289
       0.238
       0.176
       0.111
       0.057
       0.024
       0.013
       0.022
       0.053
       0.101
       0.150
       0.177
       0.161
       0.103
       0.026
      -0.036
      -0.048
       0.010
       0.119
       0.230
       0.285
       0.252
       0.147
       0.022
      -0.076
      -0.128
      -0.149
      -0.156
      -0.148
      -0.108
      -0.030
       0.054
       0.083
       0.004
      -0.194
      -0.458
      -0.697
      -0.825
      -0.800
      -0.635
      -0.381
      -0.104
       0.138
       0.305
       0.375
       0.345
       0.236
       0.096
      -0.006
      -0.013
       0.083
       0.239
       0.383
       0.469
       0.488
       0.458
       0.387
       0.273
       0.116
      -0.059
      -0.211
      -0.302
      -0.324
      -0.300
      -0.268
      -0.258
      -0.277
      -0.301
      -0.290
      -0.219
      -0.091
       0.066
       0.217
       0.341
       0.436
       0.510
       0.571
       0.606
       0.584
       0.471
       0.264
       0.006
      -0.227
      -0.369
      -0.399
      -0.352
      -0.293
      -0.269
      -0.286
      -0.309
      -0.293
      -0.224
      -0.127
      -0.051
      -0.027
      -0.044
      -0.054
      -0.020
       0.056
       0.130
       0.152
       0.110
       0.032
      -0.041
      -0.092
      -0.124
      -0.139
      -0.114
      -0.026
       0.122
       0.274
       0.350
       0.305
       0.159
      -0.022
      -0.170
      -0.257
      -0.286
      -0.265
      -0.192
      -0.076
       0.045
       0.105
       0.049
      -0.118
      -0.325
      -0.478
      -0.511
      -0.432
      -0.304
      -0.196
      -0.131
      -0.074
       0.025
       0.174
       0.327
       0.419
       0.421
       0.361
       0.291
       0.236
       0.182
       0.097
      -0.021
      -0.134
      -0.187
      -0.150
      -0.045
       0.072
       0.152
       0.192
       0.217
       0.253
       0.289
       0.300
       0.285
       0.280
       0.328
       0.427
       0.523
       0.553
       0.496
       0.387
       0.280
       0.211
       0.172
       0.135
       0.073
      -0.018
      -0.118
      -0.195
      -0.226
      -0.210
      -0.172
      -0.156
      -0.204
      -0.330
      -0.500
      -0.646
      -0.705
      -0.665
      -0.575
      -0.514
      -0.533
      -0.625
      -0.745
      -0.840
      -0.883
      -0.869
      -0.804
      -0.698
      -0.566
      -0.432
      -0.319
      -0.237
      -0.176
      -0.117
      -0.045
       0.045
       0.151
       0.268
       0.383
       0.468
       0.496
       0.466
       0.422
       0.421
       0.487
       0.576
       0.612
       0.551
       0.428
       0.331
       0.326
       0.399
       0.470
       0.461
       0.353
       0.191
       0.044
      -0.053
      -0.101
      -0.114
      -0.089
      -0.013
       0.108
       0.235
       0.317
       0.339
       0.333
       0.356
       0.432
       0.531
       0.591
       0.568
       0.480
       0.391
       0.364
       0.413
       0.480
       0.472
       0.331
       0.074
      -0.208
      -0.422
      -0.530
      -0.574
      -0.635
      -0.760
      -0.922
      -1.052
      -1.097
      -1.066
      -1.007
      -0.963
      -0.940
      -0.926
      -0.917
      -0.933
      -0.995
      -1.095
      -1.183
      -1.192
      -1.081
      -0.862
      -0.589
      -0.318
      -0.069
       0.168
       0.399
       0.609
       0.772
       0.880
       0.953
       1.027
       1.124
       1.248
       1.389
       1.535
       1.680
       1.820
       1.948
       2.052
       2.122
       2.158
       2.169
       2.164
       2.137
       2.056
       1.875
       1.563
       1.141
       0.684
       0.288
       0.018
      -0.130
      -0.219
      -0.323
      -0.494
      -0.754
      -1.103
      -1.527
      -1.986
      -2.413
      -2.741
      -2.939
      -3.030
      -3.071
      -3.099
      -3.120
      -3.126
      -3.123
      -3.143
      -3.201
      -3.271
      -3.283
      -3.166
      -2.896
      -2.501
      -2.024
      -1.485
      -0.875
      -0.192
       0.523
       1.191
       1.751
       2.200
       2.592
       2.988
       3.399
       3.776
       4.055
       4.224
       4.342
       4.504
       4.762
       5.070
       5.294
       5.296
       5.009
       4.464
       3.751
       2.945
       2.077
       1.146
       0.170
      -0.781
      -1.606
      -2.222
      -2.606
      -2.805
      -2.897
      -2.944
      -2.978
      -3.000
      -3.009
      -3.008
      -3.000
      -2.990
      -2.981
      -2.980
      -2.990
      -3.003
      -2.981
      -2.873
      -2.632
      -2.248
      -1.755
      -1.226
      -0.747
      -0.381
      -0.148
      -0.017
       0.068
       0.164
       0.299
       0.473
       0.681
       0.929
       1.234
       1.607
       2.032
       2.467
       2.847
       3.106
       3.191
       3.084
       2.812
       2.450
       2.092
       1.821
       1.662
       1.566
       1.437
       1.192
       0.830
       0.442
       0.155
       0.042
       0.070
       0.121
       0.069
      -0.147
      -0.492
      -0.875
      -1.220
      -1.515
      -1.804
      -2.126
      -2.456
      -2.715
      -2.837
      -2.837
      -2.809
      -2.847
      -2.968
      -3.087
      -3.083
      -2.879
      -2.492
      -2.015
      -1.553
      -1.167
      -0.858
      -0.594
      -0.336
      -0.056
       0.268
       0.657
       1.120
       1.646
       2.203
       2.745
       3.222
       3.592
       3.840
       3.985
       4.075
       4.142
       4.167
       4.075
       3.771
       3.206
       2.422
       1.532
       0.663
      -0.111
      -0.771
      -1.317
      -1.733
      -1.983
      -2.057
      -2.007
      -1.934
      -1.936
      -2.040
      -2.187
      -2.275
      -2.231
      -2.063
      -1.857
      -1.714
      -1.670
      -1.667
      -1.591
      -1.365
      -1.007
      -0.618
      -0.302
      -0.093
       0.049
       0.184
       0.325
       0.429
       0.433
       0.312
       0.113
      -0.057
      -0.095
       0.042
       0.304
       0.581
       0.786
       0.908
       1.009
       1.148
       1.313
       1.422
       1.400
       1.258
       1.099
       1.037
       1.103
       1.221
       1.283
       1.249
       1.181
       1.181
       1.304
       1.504
       1.674
       1.726
       1.651
       1.519
       1.413
       1.356
       1.288
       1.105
       0.729
       0.157
      -0.539
      -1.262
      -1.941
      -2.545
      -3.060
      -3.464
      -3.732
      -3.857
      -3.868
      -3.807
      -3.691
      -3.488
      -3.148
      -2.657
      -2.079
      -1.533
      -1.118
      -0.837
      -0.600
      -0.305
       0.084
       0.510
       0.888
       1.167
       1.353
       1.473
       1.537
       1.536
       1.485
       1.439
       1.474
       1.630
       1.871
       2.097
       2.217
       2.217
       2.165
       2.133
       2.131
       2.100
       1.978
       1.765
       1.525
       1.337
       1.245
       1.252
       1.327
       1.435
       1.553
       1.681
       1.824
       1.959
       2.018
       1.907
       1.575
       1.055
       0.446
      -0.166
      -0.758
      -1.357
      -1.981
      -2.597
      -3.132
      -3.527
      -3.777
      -3.918
      -3.975
      -3.938
      -3.778
      -3.517
      -3.245
      -3.075
      -3.055
      -3.126
      -3.167
      -3.098
      -2.933
      -2.749
      -2.594
      -2.429
      -2.152
      -1.681
      -1.024
      -0.284
       0.405
       0.959
       1.394
       1.797
       2.246
       2.758
       3.276
       3.720
       4.043
       4.259
       4.427
       4.609
       4.820
       5.020
       5.143
       5.130
       4.946
       4.572
       3.996
       3.231
       2.329
       1.378
       0.472
      -0.335
      -1.048
      -1.702
      -2.324
      -2.899
      -3.369
      -3.667
      -3.754
      -3.635
      -3.357
      -2.982
      -2.560
      -2.115
      -1.648
      -1.151
      -0.648
      -0.208
       0.073
       0.135
       0.002
      -0.235
      -0.492
      -0.751
      -1.044
      -1.383
      -1.709
      -1.922
      -1.955
      -1.816
      -1.566
      -1.250
      -0.868
      -0.412
       0.090
       0.565
       0.945
       1.209
       1.389
       1.534
       1.676
       1.825
       1.968
       2.085
       2.157
       2.188
       2.191
       2.164
       2.060
       1.811
       1.376
       0.796
       0.174
      -0.380
      -0.813
      -1.138
      -1.400
      -1.626
      -1.794
      -1.853
      -1.769
      -1.557
      -1.269
      -0.952
      -0.627
      -0.312
      -0.055
       0.068
       0.017
      -0.170
      -0.382
      -0.512
      -0.513
      -0.404
      -0.238
      -0.071
       0.054
       0.123
       0.152
       0.174
       0.216
       0.283
       0.365
       0.454
       0.560
       0.697
       0.877
       1.085
       1.286
       1.428
       1.475
       1.426
       1.323
       1.229
       1.184
       1.179
       1.154
       1.036
       0.772
       0.361
      -0.157
      -0.726
      -1.300
      -1.852
      -2.353
      -2.755
      -2.994
      -3.028
      -2.874
      -2.607
      -2.314
      -2.034
      -1.749
      -1.422
      -1.043
      -0.652
      -0.302
      -0.019
       0.214
       0.439
       0.694
       0.980
       1.264
       1.488
       1.608
       1.633
       1.634
       1.711
       1.921
       2.233
       2.540
       2.734
       2.778
       2.705
       2.572
       2.401
       2.195
       1.974
       1.787
       1.681
       1.644
       1.597
       1.449
       1.158
       0.769
       0.377
       0.072
      -0.131
      -0.299
      -0.543
      -0.939
      -1.471
      -2.044
      -2.541
      -2.894
      -3.104
      -3.224
      -3.304
      -3.364
      -3.388
      -3.340
      -3.199
      -2.981
      -2.724
      -2.456
      -2.175
