Origin Time       31/12/2009 09:57:00
Lat.              27.3°N	
Long.             91.4°E	
Depth (Km)          7.0
Magnitude         5.5
 Region           BHUTAN                                                           
 Above details taken from IMD 
   
Station Code      TUR
Station Lat.       25.511
Station Long.      90.220
Station Height(m)  376.2
Site Class        B   Vs30 between 375 m/sec to 700 m/sec *  
Record Time       31.12.2009 09:58:20.469
Sampling Rate     200. Hz
 Record Duration   74.815 Sec.
 Direction         Vert. (Up positive)
Max. Acceleration     -5.926 cm/sec**2
     
  * For reference see Site Classification link of website 
     
 Base Line Corrected and Low Pass Filtered (Cut Off at 35 Hz) Time History
 Acceleration data in cm/sec**2
    
[...]
       0.100
       0.124
       0.143
       0.149
       0.138
       0.108
       0.056
      -0.014
      -0.089
      -0.147
      -0.174
      -0.169
      -0.148
      -0.128
      -0.114
      -0.102
      -0.084
      -0.058
      -0.022
       0.023
       0.072
       0.121
       0.165
       0.203
       0.233
       0.253
       0.252
       0.225
       0.171
       0.093
       0.000
      -0.103
      -0.211
      -0.320
      -0.421
      -0.504
      -0.549
      -0.541
      -0.474
      -0.361
      -0.230
      -0.116
      -0.045
      -0.025
      -0.046
      -0.092
      -0.148
      -0.203
      -0.251
      -0.283
      -0.283
      -0.241
      -0.159
      -0.051
       0.056
       0.139
       0.185
       0.193
       0.183
       0.182
       0.213
       0.282
       0.374
       0.456
       0.498
       0.481
       0.409
       0.307
       0.205
       0.126
       0.077
       0.051
       0.035
       0.023
       0.013
       0.003
      -0.013
      -0.036
      -0.058
      -0.063
      -0.039
       0.013
       0.073
       0.120
       0.142
       0.144
       0.136
       0.125
       0.108
       0.081
       0.045
       0.016
       0.008
       0.029
       0.065
       0.096
       0.099
       0.072
       0.024
      -0.031
      -0.085
      -0.139
      -0.196
      -0.258
      -0.325
      -0.395
      -0.460
      -0.509
      -0.533
      -0.526
      -0.491
      -0.435
      -0.369
      -0.297
      -0.222
      -0.153
      -0.095
      -0.055
      -0.033
      -0.018
       0.000
       0.029
       0.064
       0.104
       0.146
       0.196
       0.255
       0.312
       0.348
       0.342
       0.279
       0.161
       0.003
      -0.167
      -0.317
      -0.425
      -0.482
      -0.489
      -0.448
      -0.355
      -0.209
      -0.025
       0.171
       0.346
       0.483
       0.583
       0.660
       0.726
       0.779
       0.808
       0.798
       0.747
       0.668
       0.587
       0.527
       0.500
       0.495
       0.490
       0.461
       0.387
       0.258
       0.074
      -0.156
      -0.409
      -0.654
      -0.857
      -0.990
      -1.039
      -1.010
      -0.925
      -0.820
      -0.724
      -0.649
      -0.593
      -0.545
      -0.499
      -0.452
      -0.403
      -0.353
      -0.300
      -0.241
      -0.171
      -0.085
       0.017
       0.121
       0.208
       0.263
       0.279
       0.263
       0.228
       0.187
       0.151
       0.128
       0.123
       0.137
       0.169
       0.208
       0.235
       0.229
       0.178
       0.090
      -0.011
      -0.089
      -0.117
      -0.084
       0.006
       0.134
       0.278
       0.412
       0.515
       0.577
       0.596
       0.586
       0.556
       0.513
       0.451
       0.367
       0.259
       0.137
       0.014
      -0.104
      -0.225
      -0.355
      -0.493
      -0.625
      -0.735
      -0.811
      -0.840
      -0.809
      -0.700
      -0.506
      -0.245
       0.046
       0.322
       0.543
       0.693
       0.777
       0.814
       0.822
       0.807
       0.766
       0.693
       0.596
       0.491
       0.392
       0.302
       0.205
       0.088
      -0.057
      -0.216
      -0.366
      -0.487
      -0.566
      -0.608
      -0.622
      -0.619
      -0.606
      -0.589
      -0.577
      -0.579
      -0.599
      -0.626
      -0.641
      -0.631
      -0.599
      -0.560
      -0.528
      -0.497
      -0.446
      -0.354
      -0.217
      -0.056
       0.101
       0.232
       0.333
       0.414
       0.491
       0.576
       0.664
       0.740
       0.782
       0.781
       0.744
       0.685
       0.621
       0.564
       0.523
       0.503
       0.502
       0.503
       0.484
       0.429
       0.338
       0.229
       0.132
       0.076
       0.073
       0.106
       0.133
       0.111
       0.012
      -0.157
      -0.368
      -0.585
      -0.771
      -0.892
      -0.923
      -0.860
      -0.729
      -0.573
      -0.438
      -0.345
      -0.289
      -0.247
      -0.195
      -0.122
      -0.031
       0.072
       0.172
       0.256
       0.304
       0.296
       0.223
       0.093
      -0.064
      -0.213
      -0.325
      -0.385
      -0.396
      -0.369
      -0.318
      -0.254
      -0.179
      -0.092
       0.008
       0.116
       0.225
       0.325
       0.409
       0.468
       0.496
       0.487
       0.441
       0.365
       0.272
       0.172
       0.067
      -0.048
      -0.180
      -0.325
      -0.469
      -0.595
      -0.690
      -0.752
      -0.773
      -0.740
      -0.629
      -0.431
      -0.156
       0.160
       0.468
       0.722
       0.893
       0.969
       0.955
       0.868
       0.730
       0.562
       0.390
       0.229
       0.088
      -0.036
      -0.151
      -0.263
      -0.369
      -0.460
      -0.530
      -0.577
      -0.606
      -0.628
      -0.644
      -0.647
      -0.624
      -0.573
      -0.498
      -0.411
      -0.316
      -0.207
      -0.075
       0.084
       0.260
       0.434
       0.587
       0.715
       0.815
       0.887
       0.923
       0.913
       0.853
       0.751
       0.625
       0.492
       0.362
       0.238
       0.117
       0.003
      -0.099
      -0.182
      -0.244
      -0.290
      -0.326
      -0.356
      -0.376
      -0.372
      -0.332
      -0.253
      -0.154
      -0.059
       0.011
       0.047
       0.048
       0.015
      -0.054
      -0.152
      -0.264
      -0.365
      -0.433
      -0.460
      -0.455
      -0.434
      -0.411
      -0.380
      -0.327
      -0.241
      -0.126
      -0.005
       0.097
       0.163
       0.186
       0.171
       0.118
       0.032
      -0.080
      -0.199
      -0.300
      -0.359
      -0.364
      -0.317
      -0.231
      -0.123
      -0.005
       0.114
       0.233
       0.352
       0.473
       0.592
       0.703
       0.794
       0.854
       0.876
       0.858
       0.806
       0.737
       0.670
       0.612
       0.550
       0.461
       0.332
       0.170
       0.001
      -0.153
      -0.278
      -0.375
      -0.446
      -0.492
      -0.515
      -0.512
      -0.479
      -0.410
      -0.306
      -0.179
      -0.049
       0.061
       0.136
       0.166
       0.145
       0.069
      -0.055
      -0.206
      -0.352
      -0.464
      -0.525
      -0.538
      -0.515
      -0.472
      -0.421
      -0.366
      -0.314
      -0.267
      -0.222
      -0.170
      -0.100
      -0.016
       0.062
       0.108
       0.108
       0.065
      -0.002
      -0.076
      -0.144
      -0.202
      -0.245
      -0.266
      -0.255
      -0.210
      -0.139
      -0.056
       0.022
       0.088
       0.144
       0.197
       0.257
       0.327
       0.407
       0.492
       0.574
       0.645
       0.692
       0.702
       0.669
       0.607
       0.541
       0.497
       0.491
       0.521
       0.569
       0.605
       0.601
       0.545
       0.445
       0.328
       0.223
       0.142
       0.081
       0.024
      -0.039
      -0.109
      -0.183
      -0.265
      -0.364
      -0.492
      -0.647
      -0.813
      -0.967
      -1.086
      -1.159
      -1.190
      -1.198
      -1.207
      -1.227
      -1.242
      -1.224
      -1.146
      -1.005
      -0.814
      -0.592
      -0.354
      -0.111
       0.114
       0.292
       0.403
       0.444
       0.436
       0.410
       0.396
       0.410
       0.455
       0.522
       0.597
       0.672
       0.742
       0.806
       0.858
       0.892
       0.905
       0.895
       0.861
       0.795
       0.686
       0.529
       0.330
       0.114
      -0.087
      -0.242
      -0.330
      -0.349
      -0.315
      -0.248
      -0.160
      -0.052
       0.078
       0.218
       0.344
       0.433
       0.473
       0.471
       0.446
       0.416
       0.384
       0.332
       0.231
       0.060
      -0.179
      -0.459
      -0.738
      -0.976
      -1.142
      -1.223
      -1.223
      -1.161
      -1.055
      -0.914
      -0.734
      -0.512
      -0.263
      -0.019
       0.185
       0.331
       0.426
       0.490
       0.539
       0.574
       0.586
       0.566
       0.513
       0.439
       0.356
       0.277
       0.215
       0.185
       0.205
       0.284
       0.413
       0.565
       0.703
       0.799
       0.846
       0.849
       0.820
       0.764
       0.684
       0.581
       0.468
       0.361
       0.266
       0.175
       0.068
      -0.068
      -0.230
      -0.398
      -0.538
      -0.616
      -0.607
      -0.511
      -0.358
      -0.194
      -0.064
       0.009
       0.018
      -0.033
      -0.136
      -0.276
      -0.431
      -0.577
      -0.695
      -0.777
      -0.826
      -0.850
      -0.859
      -0.857
      -0.846
      -0.823
      -0.786
      -0.736
      -0.671
      -0.581
      -0.450
      -0.265
      -0.030
       0.236
       0.509
       0.782
       1.056
       1.329
       1.577
       1.755
       1.826
       1.783
       1.651
       1.474
       1.290
       1.118
       0.960
       0.818
       0.693
       0.586
       0.495
       0.412
       0.326
       0.229
       0.120
       0.006
      -0.106
      -0.207
      -0.302
      -0.402
      -0.520
      -0.665
      -0.826
      -0.978
      -1.090
      -1.140
      -1.122
      -1.052
      -0.953
      -0.857
      -0.793
      -0.784
      -0.838
      -0.945
      -1.079
      -1.208
      -1.307
      -1.362
      -1.369
      -1.333
      -1.260
      -1.168
      -1.081
      -1.015
      -0.974
      -0.942
      -0.905
      -0.859
      -0.821
      -0.809
      -0.824
      -0.852
      -0.870
      -0.871
      -0.858
      -0.837
      -0.806
      -0.752
      -0.659
      -0.523
      -0.358
      -0.188
      -0.034
       0.099
       0.213
       0.316
       0.412
       0.505
       0.598
       0.692
       0.786
       0.872
       0.938
       0.968
       0.951
       0.888
       0.784
       0.654
       0.515
       0.380
       0.256
       0.144
       0.052
      -0.009
      -0.031
      -0.013
       0.029
       0.076
       0.116
       0.156
       0.216
       0.314
       0.447
       0.590
       0.717
       0.811
       0.875
       0.921
       0.966
       1.024
       1.100
       1.193
       1.294
       1.383
       1.443
       1.464
       1.449
       1.413
       1.373
       1.338
       1.303
       1.257
       1.188
       1.095
       0.988
       0.883
       0.790
       0.717
       0.666
       0.636
       0.627
       0.636
       0.653
       0.664
       0.646
       0.576
       0.440
       0.251
       0.042
      -0.151
      -0.309
      -0.437
      -0.557
      -0.698
      -0.889
      -1.144
      -1.455
      -1.798
      -2.141
      -2.457
      -2.734
      -2.965
      -3.142
      -3.252
      -3.281
      -3.221
      -3.067
      -2.817
      -2.469
      -2.035
      -1.535
      -1.006
      -0.489
      -0.024
       0.359
       0.640
       0.820
       0.915
       0.951
       0.950
       0.922
       0.865
       0.772
       0.646
       0.500
       0.356
       0.234
       0.153
       0.123
       0.147
       0.225
       0.358
       0.544
       0.764
       0.986
       1.172
       1.294
       1.335
       1.292
       1.173
       0.998
       0.803
       0.629
       0.506
       0.443
       0.437
       0.480
       0.567
       0.689
       0.830
       0.969
       1.087
       1.173
       1.220
       1.232
       1.223
       1.210
       1.203
       1.200
       1.177
       1.109
       0.978
       0.786
       0.549
       0.292
       0.047
      -0.162
      -0.326
      -0.460
      -0.588
      -0.725
      -0.864
      -0.984
      -1.078
      -1.162
      -1.268
      -1.415
      -1.589
      -1.740
      -1.803
      -1.735
      -1.536
      -1.247
      -0.935
      -0.659
      -0.453
      -0.322
      -0.254
      -0.236
      -0.258
      -0.321
      -0.419
      -0.540
      -0.654
      -0.730
      -0.747
      -0.699
      -0.589
      -0.428
      -0.237
      -0.055
       0.077
       0.140
       0.155
       0.176
       0.250
       0.393
       0.589
       0.807
       1.030
       1.246
       1.438
       1.579
       1.637
       1.593
       1.465
       1.298
       1.140
       1.004
       0.880
       0.767
       0.684
       0.648
       0.646
       0.633
       0.567
       0.450
       0.321
       0.219
       0.138
       0.025
      -0.183
      -0.521
      -0.957
      -1.404
      -1.760
      -1.972
      -2.078
      -2.175
      -2.347
      -2.604
      -2.885
      -3.102
      -3.206
      -3.208
      -3.160
      -3.111
      -3.071
      -3.009
      -2.878
      -2.637
      -2.277
      -1.821
      -1.312
      -0.781
      -0.231
       0.347
       0.946
       1.525
       2.026
       2.425
       2.744
       3.032
       3.313
       3.573
       3.785
       3.938
       4.025
       4.037
       3.972
       3.857
       3.743
       3.672
       3.642
       3.626
       3.600
       3.559
       3.505
       3.421
       3.283
       3.075
       2.799
       2.469
       2.100
       1.697
       1.249
       0.734
       0.132
      -0.554
      -1.307
      -2.095
      -2.888
      -3.650
      -4.338
      -4.910
      -5.347
      -5.656
      -5.851
      -5.926
      -5.854
      -5.609
      -5.199
      -4.662
      -4.033
      -3.325
      -2.533
      -1.667
      -0.769
       0.099
       0.876
       1.527
       2.044
       2.445
       2.751
       2.960
       3.043
       2.960
       2.709
       2.344
       1.948
       1.581
       1.253
       0.931
       0.584
       0.203
      -0.183
      -0.534
      -0.811
      -0.992
      -1.075
      -1.072
      -0.995
      -0.850
      -0.645
      -0.397
      -0.139
       0.101
       0.316
       0.526
       0.753
       0.999
       1.243
       1.454
       1.606
       1.689
       1.700
       1.619
       1.412
       1.055
       0.572
       0.038
      -0.449
      -0.829
      -1.112
      -1.367
      -1.669
      -2.049
      -2.477
      -2.887
      -3.212
      -3.420
      -3.515
      -3.535
      -3.518
      -3.481
      -3.400
      -3.228
      -2.926
      -2.497
      -1.984
      -1.433
      -0.846
      -0.184
       0.596
       1.483
       2.408
       3.278
       4.024
       4.619
       5.062
       5.352
       5.480
       5.434
       5.216
       4.848
       4.372
       3.840
       3.287
       2.726
       2.157
       1.582
       1.021
       0.502
       0.047
      -0.336
      -0.656
      -0.933
      -1.189
      -1.438
      -1.676
      -1.878
      -2.011
      -2.055
      -2.012
      -1.898
      -1.734
      -1.540
      -1.332
      -1.118
      -0.909
      -0.716
      -0.547
      -0.407
      -0.307
      -0.262
      -0.286
      -0.379
      -0.521
      -0.680
      -0.825
      -0.933
      -0.978
      -0.925
      -0.749
      -0.469
      -0.157
       0.104
       0.275
       0.367
       0.416
       0.442
       0.434
       0.370
       0.241
       0.056
      -0.157
      -0.353
      -0.476
      -0.481
      -0.361
      -0.152
       0.090
       0.328
       0.557
       0.786
       1.029
       1.287
       1.538
       1.748
       1.879
       1.926
       1.916
       1.888
       1.855
       1.795
       1.675
       1.489
       1.262
       1.019
       0.762
       0.484
       0.194
      -0.084
      -0.336
      -0.581
      -0.845
      -1.130
      -1.397
      -1.594
      -1.700
      -1.741
      -1.765
      -1.804
      -1.867
      -1.941
      -2.012
      -2.068
      -2.099
      -2.105
      -2.087
      -2.053
      -2.015
      -1.992
      -1.989
      -1.995
      -1.982
      -1.920
      -1.785
      -1.558
      -1.225
      -0.791
      -0.296
       0.202
       0.661
       1.068
       1.428
       1.735
       1.981
       2.164
       2.295
       2.395
       2.474
       2.527
       2.533
       2.459
       2.282
       2.010
       1.698
       1.422
       1.238
       1.148
       1.111
       1.085
       1.059
       1.044
       1.060
       1.129
       1.260
       1.439
       1.616
       1.719
       1.686
       1.497
       1.185
       0.811
       0.430
       0.055
      -0.336
      -0.764
      -1.219
      -1.657
      -2.036
      -2.348
      -2.625
      -2.908
      -3.216
      -3.530
      -3.808
      -4.010
      -4.121
      -4.154
      -4.134
      -4.068
      -3.927
      -3.661
      -3.245
      -2.703
      -2.099
      -1.487
      -0.880
      -0.248
       0.443
       1.199
       1.977
       2.701
       3.305
       3.770
       4.122
       4.399
       4.609
       4.715
       4.672
       4.460
       4.101
       3.637
       3.104
       2.529
       1.929
       1.322
       0.735
       0.208
      -0.209
      -0.473
      -0.592
      -0.633
      -0.694
      -0.849
      -1.113
      -1.447
      -1.790
      -2.096
      -2.334
      -2.489
      -2.547
      -2.491
      -2.312
      -2.016
      -1.637
      -1.221
      -0.799
      -0.368
       0.103
       0.627
       1.181
       1.711
       2.175
       2.560
       2.869
       3.093
       3.210
       3.195
       3.044
       2.788
       2.472
       2.135
       1.789
       1.428
       1.046
       0.656
       0.280
      -0.062
      -0.363
      -0.629
      -0.851
      -1.004
      -1.063
      -1.025
      -0.913
      -0.759
      -0.591
      -0.425
      -0.262
      -0.106
       0.024
       0.082
       0.017
      -0.198
      -0.543
      -0.967
      -1.414
      -1.851
      -2.267
      -2.661
      -3.033
      -3.378
      -3.689
      -3.956
      -4.173
      -4.339
      -4.452
      -4.513
      -4.528
      -4.504
      -4.455
      -4.383
      -4.274
      -4.099
      -3.825
      -3.436
      -2.933
      -2.336
      -1.683
      -1.019
      -0.383
       0.196
       0.706
       1.147
       1.537
       1.908
       2.288
       2.683
       3.073
       3.433
       3.752
       4.045
       4.335
       4.636
       4.932
       5.180
       5.324
       5.327
       5.205
       5.019
       4.838
       4.678
       4.495
       4.232
       3.877
       3.477
       3.097
       2.775
       2.502
       2.255
       2.011
       1.756
       1.485
       1.194
       0.869
       0.485
       0.023
      -0.499
      -1.022
      -1.481
      -1.861
      -2.210
      -2.590
      -3.018
      -3.448
      -3.831
      -4.166
      -4.496
      -4.852
      -5.200
      -5.458
      -5.563
      -5.506
      -5.323
      -5.051
      -4.700
      -4.269
      -3.766
      -3.204
      -2.589
      -1.915
      -1.182
      -0.411
       0.365
       1.104
       1.766
       2.321
       2.751
       3.061
       3.264
       3.372
       3.397
       3.358
       3.296
       3.261
       3.287
       3.371
       3.480
       3.568
       3.594
       3.511
       3.286
       2.926
       2.483
       2.023
       1.583
       1.160
       0.736
       0.302
