Origin Time       29/10/2009 19:56:58
Lat.              26.6°N	
Long.             90.0°E	
Depth (Km)         10.0
Magnitude         4.2
 Region           KOKRAJHAR-ASSAM                                                  
 Above details taken from IMD 
   
Station Code      SAS
Station Lat.       25.511
Station Long.      90.220
Station Height(m)  376.2
Site Class        B   Vs30 between 375 m/sec to 700 m/sec *  
Record Time       29.10.2009 19:57:24.609
Sampling Rate     200. Hz
 Record Duration   67.915 Sec.
 Direction         Vert. (Up positive)
Max. Acceleration      5.304 cm/sec**2
     
  * For reference see Site Classification link of website 
     
 Base Line Corrected and Low Pass Filtered (Cut Off at 35 Hz) Time History
 Acceleration data in cm/sec**2
    
[...]
      -0.235
      -0.168
      -0.098
      -0.047
      -0.034
      -0.063
      -0.108
      -0.129
      -0.104
      -0.040
       0.027
       0.064
       0.054
       0.001
      -0.085
      -0.192
      -0.304
      -0.400
      -0.457
      -0.460
      -0.416
      -0.349
      -0.287
      -0.245
      -0.216
      -0.175
      -0.091
       0.045
       0.219
       0.399
       0.554
       0.672
       0.751
       0.791
       0.784
       0.717
       0.572
       0.345
       0.070
      -0.166
      -0.261
      -0.155
       0.114
       0.419
       0.607
       0.569
       0.283
      -0.179
      -0.680
      -1.080
      -1.280
      -1.257
      -1.052
      -0.743
      -0.411
      -0.123
       0.079
       0.177
       0.182
       0.132
       0.074
       0.046
       0.056
       0.089
       0.117
       0.124
       0.118
       0.117
       0.124
       0.124
       0.104
       0.072
       0.062
       0.111
       0.224
       0.368
       0.484
       0.522
       0.466
       0.343
       0.207
       0.105
       0.047
       0.006
      -0.059
      -0.165
      -0.288
      -0.376
      -0.385
      -0.309
      -0.188
      -0.083
      -0.048
      -0.098
      -0.207
      -0.318
      -0.382
      -0.378
      -0.320
      -0.240
      -0.163
      -0.094
      -0.016
       0.095
       0.249
       0.426
       0.582
       0.665
       0.644
       0.525
       0.344
       0.148
      -0.025
      -0.154
      -0.232
      -0.249
      -0.197
      -0.077
       0.078
       0.207
       0.240
       0.133
      -0.109
      -0.425
      -0.725
      -0.922
      -0.966
      -0.852
      -0.625
      -0.350
      -0.083
       0.148
       0.344
       0.515
       0.658
       0.752
       0.770
       0.690
       0.507
       0.239
      -0.071
      -0.359
      -0.557
      -0.623
      -0.559
      -0.399
      -0.197
      -0.004
       0.150
       0.256
       0.317
       0.335
       0.309
       0.243
       0.148
       0.044
      -0.045
      -0.090
      -0.078
      -0.016
       0.061
       0.113
       0.121
       0.093
       0.061
       0.057
       0.088
       0.121
       0.111
       0.040
      -0.053
      -0.111
      -0.108
      -0.079
      -0.097
      -0.211
      -0.403
      -0.590
      -0.668
      -0.569
      -0.307
       0.022
       0.287
       0.397
       0.341
       0.180
      -0.007
      -0.159
      -0.243
      -0.239
      -0.136
       0.059
       0.315
       0.569
       0.747
       0.786
       0.666
       0.424
       0.138
      -0.117
      -0.298
      -0.388
      -0.393
      -0.331
      -0.232
      -0.127
      -0.036
       0.038
       0.092
       0.109
       0.062
      -0.062
      -0.245
      -0.435
      -0.566
      -0.588
      -0.484
      -0.277
      -0.029
       0.181
       0.301
       0.321
       0.277
       0.224
       0.208
       0.243
       0.307
       0.363
       0.371
       0.312
       0.186
       0.006
      -0.207
      -0.430
      -0.626
      -0.748
      -0.746
      -0.591
      -0.298
       0.068
       0.411
       0.636
       0.687
       0.555
       0.286
      -0.038
      -0.320
      -0.474
      -0.462
      -0.298
      -0.046
       0.217
       0.432
       0.575
       0.652
       0.671
       0.623
       0.489
       0.264
      -0.024
      -0.308
      -0.508
      -0.576
      -0.516
      -0.377
      -0.220
      -0.078
       0.036
       0.123
       0.173
       0.170
       0.115
       0.031
      -0.041
      -0.061
      -0.013
       0.079
       0.161
       0.173
       0.086
      -0.080
      -0.263
      -0.388
      -0.412
      -0.333
      -0.192
      -0.045
       0.063
       0.101
       0.062
      -0.045
      -0.197
      -0.349
      -0.453
      -0.467
      -0.380
      -0.225
      -0.060
       0.069
       0.152
       0.215
       0.289
       0.376
       0.445
       0.456
       0.393
       0.276
       0.145
       0.043
      -0.013
      -0.031
      -0.031
      -0.032
      -0.037
      -0.039
      -0.032
      -0.021
      -0.012
      -0.009
      -0.014
      -0.035
      -0.076
      -0.128
      -0.159
      -0.134
      -0.038
       0.109
       0.257
       0.356
       0.374
       0.314
       0.208
       0.094
      -0.010
      -0.111
      -0.220
      -0.332
      -0.417
      -0.434
      -0.364
      -0.221
      -0.045
       0.117
       0.229
       0.275
       0.248
       0.149
      -0.011
      -0.204
      -0.380
      -0.492
      -0.513
      -0.452
      -0.341
      -0.215
      -0.092
       0.016
       0.094
       0.123
       0.098
       0.048
       0.035
       0.117
       0.308
       0.561
       0.783
       0.884
       0.822
       0.622
       0.357
       0.109
      -0.071
      -0.176
      -0.227
      -0.255
      -0.277
      -0.291
      -0.277
      -0.212
      -0.096
       0.041
       0.152
       0.202
       0.186
       0.118
       0.017
      -0.107
      -0.236
      -0.350
      -0.425
      -0.458
      -0.461
      -0.446
      -0.411
      -0.344
      -0.247
      -0.146
      -0.073
      -0.041
      -0.029
       0.001
       0.070
       0.160
       0.218
       0.194
       0.081
      -0.070
      -0.181
      -0.191
      -0.095
       0.066
       0.239
       0.394
       0.526
       0.624
       0.661
       0.597
       0.416
       0.148
      -0.133
      -0.350
      -0.446
      -0.411
      -0.267
      -0.066
       0.125
       0.225
       0.174
      -0.047
      -0.384
      -0.727
      -0.941
      -0.928
      -0.678
      -0.275
       0.140
       0.441
       0.572
       0.553
       0.446
       0.313
       0.203
       0.151
       0.187
       0.320
       0.519
       0.710
       0.809
       0.759
       0.562
       0.266
      -0.058
      -0.347
      -0.562
      -0.685
      -0.707
      -0.630
      -0.474
      -0.292
      -0.157
      -0.131
      -0.217
      -0.347
      -0.422
      -0.370
      -0.199
       0.018
       0.195
       0.282
       0.281
       0.225
       0.140
       0.037
      -0.077
      -0.181
      -0.241
      -0.230
      -0.153
      -0.051
       0.021
       0.035
       0.008
      -0.008
       0.035
       0.142
       0.268
       0.345
       0.323
       0.197
       0.013
      -0.165
      -0.293
      -0.375
      -0.449
      -0.535
      -0.614
      -0.633
      -0.562
      -0.422
      -0.274
      -0.158
      -0.055
       0.097
       0.352
       0.697
       1.045
       1.288
       1.350
       1.235
       1.003
       0.732
       0.482
       0.283
       0.154
       0.105
       0.120
       0.148
       0.115
      -0.033
      -0.294
      -0.601
      -0.859
      -0.998
      -1.009
      -0.925
      -0.788
      -0.607
      -0.371
      -0.073
       0.252
       0.529
       0.678
       0.666
       0.533
       0.368
       0.254
       0.223
       0.247
       0.264
       0.226
       0.114
      -0.060
      -0.283
      -0.538
      -0.796
      -1.014
      -1.138
      -1.142
      -1.035
      -0.862
      -0.666
      -0.465
      -0.242
       0.029
       0.345
       0.653
       0.865
       0.910
       0.773
       0.517
       0.239
       0.021
      -0.106
      -0.164
      -0.198
      -0.241
      -0.287
      -0.299
      -0.236
      -0.087
       0.117
       0.326
       0.513
       0.683
       0.849
       1.005
       1.105
       1.100
       0.961
       0.701
       0.361
      -0.017
      -0.392
      -0.726
      -0.973
      -1.090
      -1.044
      -0.841
      -0.527
      -0.175
       0.151
       0.418
       0.631
       0.810
       0.963
       1.069
       1.096
       1.028
       0.884
       0.707
       0.525
       0.330
       0.072
      -0.299
      -0.787
      -1.336
      -1.840
      -2.194
      -2.329
      -2.226
      -1.910
      -1.436
      -0.873
      -0.292
       0.244
       0.680
       0.978
       1.115
       1.097
       0.959
       0.758
       0.547
       0.352
       0.164
      -0.051
      -0.327
      -0.667
      -1.035
      -1.358
      -1.556
      -1.569
      -1.390
      -1.070
      -0.694
      -0.333
      -0.018
       0.275
       0.590
       0.955
       1.344
       1.685
       1.901
       1.945
       1.821
       1.560
       1.205
       0.794
       0.377
       0.018
      -0.215
      -0.280
      -0.188
      -0.007
       0.165
       0.246
       0.214
       0.112
       0.026
       0.034
       0.162
       0.380
       0.617
       0.797
       0.854
       0.746
       0.454
      -0.009
      -0.588
      -1.186
      -1.687
      -2.000
      -2.090
      -1.986
      -1.746
      -1.427
      -1.070
      -0.711
      -0.398
      -0.173
      -0.043
       0.043
       0.176
       0.434
       0.824
       1.272
       1.660
       1.881
       1.869
       1.597
       1.068
       0.323
      -0.541
      -1.371
      -2.003
      -2.320
      -2.296
      -1.996
      -1.533
      -1.009
      -0.482
       0.049
       0.618
       1.236
       1.853
       2.360
       2.635
       2.619
       2.344
       1.905
       1.408
       0.917
       0.452
       0.010
      -0.406
      -0.777
      -1.065
      -1.236
      -1.271
      -1.171
      -0.945
      -0.611
      -0.204
       0.211
       0.540
       0.702
       0.667
       0.466
       0.167
      -0.168
      -0.507
      -0.846
      -1.179
      -1.476
      -1.682
      -1.746
      -1.662
      -1.481
      -1.282
      -1.121
      -0.987
      -0.823
      -0.562
      -0.173
       0.332
       0.915
       1.523
       2.090
       2.534
       2.773
       2.755
       2.482
       2.000
       1.361
       0.601
      -0.258
      -1.178
      -2.083
      -2.857
      -3.366
      -3.500
      -3.203
      -2.503
      -1.503
      -0.357
       0.778
       1.778
       2.577
       3.159
       3.527
       3.677
       3.596
       3.286
       2.782
       2.152
       1.460
       0.737
      -0.018
      -0.806
      -1.592
      -2.297
      -2.825
      -3.109
      -3.131
      -2.927
      -2.564
      -2.112
      -1.634
      -1.172
      -0.749
      -0.364
       0.003
       0.379
       0.774
       1.169
       1.521
       1.783
       1.924
       1.940
       1.831
       1.594
       1.210
       0.665
      -0.020
      -0.770
      -1.465
      -1.976
      -2.225
      -2.212
      -1.994
      -1.635
      -1.175
      -0.638
      -0.056
       0.516
       1.007
       1.363
       1.576
       1.682
       1.738
       1.777
       1.773
       1.650
       1.338
       0.822
       0.160
      -0.539
      -1.158
      -1.597
      -1.781
      -1.667
      -1.255
      -0.603
       0.166
       0.887
       1.392
       1.574
       1.427
       1.041
       0.558
       0.108
      -0.231
      -0.430
      -0.488
      -0.413
      -0.233
      -0.005
       0.189
       0.258
       0.144
      -0.138
      -0.499
      -0.806
      -0.950
      -0.905
      -0.728
      -0.516
      -0.353
      -0.281
      -0.310
      -0.438
      -0.661
      -0.972
      -1.358
      -1.792
      -2.225
      -2.585
      -2.790
      -2.774
      -2.511
      -2.023
      -1.360
      -0.586
       0.236
       1.038
       1.755
       2.324
       2.693
       2.830
       2.731
       2.424
       1.969
       1.447
       0.956
       0.604
       0.486
       0.662
       1.112
       1.725
       2.324
       2.722
       2.789
       2.495
       1.910
       1.166
       0.395
      -0.312
      -0.924
      -1.436
      -1.827
      -2.033
      -1.983
      -1.655
      -1.126
      -0.558
      -0.126
       0.064
       0.023
      -0.145
      -0.306
      -0.365
      -0.292
      -0.103
       0.173
       0.513
       0.887
       1.234
       1.462
       1.469
       1.186
       0.611
      -0.186
      -1.066
      -1.851
      -2.372
      -2.518
      -2.265
      -1.682
      -0.908
      -0.116
       0.532
       0.932
       1.067
       1.002
       0.847
       0.705
       0.633
       0.643
       0.731
       0.896
       1.137
       1.424
       1.674
       1.749
       1.509
       0.887
      -0.061
      -1.167
      -2.211
      -3.011
      -3.473
      -3.610
      -3.515
      -3.315
      -3.107
      -2.906
      -2.648
      -2.234
      -1.604
      -0.794
       0.065
       0.802
       1.279
       1.444
       1.337
       1.054
       0.690
       0.317
      -0.017
      -0.261
      -0.359
      -0.269
      -0.005
       0.355
       0.687
       0.879
       0.892
       0.785
       0.685
       0.715
       0.933
       1.311
       1.770
       2.222
       2.587
       2.791
       2.777
       2.530
       2.101
       1.598
       1.136
       0.792
       0.589
       0.501
       0.471
       0.437
       0.345
       0.169
      -0.078
      -0.347
      -0.554
      -0.611
      -0.479
      -0.208
       0.067
       0.179
       0.023
      -0.393
      -0.946
      -1.463
      -1.795
      -1.890
      -1.804
      -1.666
      -1.603
      -1.677
      -1.878
      -2.159
      -2.473
      -2.783
      -3.058
      -3.261
      -3.345
      -3.269
      -3.006
      -2.550
      -1.904
      -1.075
      -0.078
       1.050
       2.236
       3.362
       4.299
       4.946
       5.269
       5.304
       5.121
       4.772
       4.270
       3.606
       2.805
       1.954
       1.187
       0.618
       0.275
       0.088
      -0.067
      -0.290
      -0.611
      -1.009
      -1.457
      -1.941
      -2.439
      -2.893
      -3.211
      -3.309
      -3.146
      -2.745
      -2.174
      -1.522
      -0.871
      -0.274
       0.236
       0.624
       0.832
       0.793
       0.490
      -0.016
      -0.588
      -1.075
      -1.370
      -1.432
      -1.280
      -0.975
      -0.604
      -0.260
      -0.025
       0.057
      -0.008
      -0.148
      -0.253
      -0.213
       0.023
       0.425
       0.894
       1.310
       1.594
       1.729
       1.747
       1.691
       1.598
       1.506
       1.470
       1.547
       1.751
       2.015
       2.191
       2.123
       1.729
       1.043
       0.187
      -0.695
      -1.493
      -2.154
      -2.653
      -2.959
      -3.019
      -2.772
      -2.204
      -1.369
      -0.386
       0.614
       1.513
       2.209
       2.617
       2.690
       2.465
       2.066
       1.650
       1.318
       1.074
       0.847
       0.553
       0.138
      -0.401
      -1.026
      -1.662
      -2.219
      -2.618
      -2.819
      -2.826
      -2.682
      -2.453
      -2.211
      -2.014
      -1.876
      -1.771
      -1.645
      -1.451
      -1.165
      -0.795
      -0.376
       0.031
       0.355
       0.550
       0.634
       0.683
       0.782
       0.967
       1.219
       1.497
       1.790
       2.127
       2.555
       3.090
       3.675
       4.182
       4.450
       4.362
       3.900
       3.148
       2.222
       1.208
       0.136
      -0.972
      -2.050
      -2.983
      -3.653
      -3.996
      -4.022
      -3.785
      -3.357
      -2.809
      -2.219
      -1.665
      -1.219
      -0.931
      -0.816
      -0.847
      -0.958
      -1.054
      -1.039
      -0.847
      -0.467
       0.045
       0.582
       1.014
       1.229
       1.177
       0.900
       0.537
       0.270
       0.252
       0.529
       1.021
       1.559
       1.973
       2.167
       2.148
       2.000
       1.820
       1.655
       1.496
       1.299
       1.045
       0.768
       0.526
       0.351
       0.208
       0.004
      -0.335
      -0.809
      -1.330
      -1.766
      -2.014
      -2.039
      -1.868
      -1.569
      -1.230
      -0.950
      -0.821
      -0.892
      -1.141
      -1.463
      -1.711
      -1.762
      -1.563
      -1.135
      -0.557
       0.065
       0.615
       0.995
       1.144
       1.068
       0.829
       0.522
       0.238
       0.045
      -0.020
       0.055
       0.250
       0.514
       0.771
       0.953
       1.033
       1.040
       1.040
       1.090
       1.196
       1.315
       1.382
       1.350
       1.202
       0.944
       0.599
       0.211
      -0.159
      -0.449
      -0.621
      -0.671
      -0.619
      -0.485
      -0.283
      -0.030
       0.233
       0.446
       0.546
       0.500
       0.324
       0.064
      -0.233
      -0.543
      -0.866
      -1.192
      -1.483
      -1.686
      -1.756
      -1.685
      -1.502
      -1.253
      -0.983
      -0.719
      -0.474
      -0.248
      -0.049
       0.100
       0.166
       0.142
       0.062
      -0.004
       0.013
       0.142
       0.356
       0.600
       0.817
       0.975
       1.072
       1.122
       1.141
       1.138
       1.114
       1.061
       0.974
       0.856
       0.717
       0.585
       0.500
       0.493
       0.562
       0.660
       0.714
       0.659
       0.466
       0.148
      -0.237
      -0.604
      -0.870
      -0.991
      -0.997
      -0.972
      -1.007
      -1.149
      -1.373
      -1.608
      -1.763
      -1.769
      -1.593
      -1.242
      -0.742
      -0.130
       0.531
       1.125
       1.492
       1.485
       1.065
       0.350
      -0.425
      -1.015
      -1.260
      -1.125
      -0.680
      -0.054
       0.598
       1.134
       1.457
       1.537
       1.418
       1.190
       0.959
       0.807
       0.771
       0.830
       0.912
       0.923
       0.779
       0.431
      -0.110
      -0.776
      -1.455
      -2.025
      -2.398
      -2.535
      -2.446
      -2.164
      -1.738
      -1.226
      -0.687
      -0.181
       0.242
       0.535
       0.671
       0.656
       0.542
       0.415
       0.357
       0.410
       0.570
       0.795
       1.014
       1.151
       1.150
       1.011
       0.802
       0.633
       0.598
       0.732
       1.005
       1.331
       1.598
       1.699
       1.583
       1.281
       0.894
       0.524
       0.223
      -0.029
      -0.281
      -0.574
      -0.906
      -1.247
      -1.558
      -1.805
      -1.964
      -2.017
      -1.963
      -1.830
      -1.670
      -1.534
      -1.443
      -1.368
      -1.249
      -1.020
      -0.652
      -0.167
       0.357
       0.816
       1.121
       1.239
       1.206
       1.113
       1.048
       1.065
       1.164
       1.305
       1.423
       1.442
       1.295
       0.951
       0.443
      -0.128
      -0.626
      -0.935
      -1.003
      -0.854
      -0.557
      -0.176
       0.243
       0.672
       1.064
       1.349
       1.453
       1.340
       1.032
       0.599
       0.132
      -0.299
      -0.661
      -0.957
      -1.200
      -1.381
      -1.454
      -1.366
      -1.098
      -0.693
      -0.248
       0.125
       0.342
       0.378
       0.265
       0.069
      -0.141
      -0.317
      -0.436
      -0.502
      -0.537
      -0.557
      -0.561
      -0.520
      -0.403
      -0.207
       0.041
       0.299
       0.548
       0.795
       1.043
       1.263
       1.396
       1.388
       1.227
