Origin Time       30/8/2009 19:27:44	 UTC
Lat.              25.4 N	
Long.             94.8 E	
Depth (Km)         85.0
Magnitude         5.3
 Region           MYANMAR-India-Manipuir-Border                                    
 Above details taken from IMD 
    
Station Code      tur
Station Lat.       25.511  N
Station Long.      90.220  E
Station Height(m)  374.0
Site Class        B   Vs30 between 375 m/sec to 700 m/sec *  
Record Time       30.08.2009 00:22:37.714 UTC
Sampling Rate     200. Hz
 Record Duration   67.485 Sec.
 Direction         N-S (N positive)
Max. Acceleration      5.412 cm/sec**2
     
  * For reference see Site Classification link of website 
     
 Base Line Corrected and Low Pass Filtered (Cut Off at 35 Hz) Time History
 Acceleration data in cm/sec**2
    
[...]
       0.684
       0.732
       0.795
       0.866
       0.925
       0.950
       0.933
       0.881
       0.813
       0.754
       0.718
       0.699
       0.677
       0.630
       0.550
       0.447
       0.345
       0.264
       0.212
       0.172
       0.126
       0.063
      -0.012
      -0.085
      -0.141
      -0.173
      -0.182
      -0.178
      -0.173
      -0.176
      -0.191
      -0.216
      -0.241
      -0.256
      -0.256
      -0.260
      -0.298
      -0.385
      -0.515
      -0.650
      -0.747
      -0.783
      -0.768
      -0.745
      -0.754
      -0.815
      -0.911
      -1.010
      -1.083
      -1.123
      -1.136
      -1.134
      -1.119
      -1.081
      -1.015
      -0.926
      -0.825
      -0.713
      -0.586
      -0.434
      -0.263
      -0.084
       0.091
       0.263
       0.444
       0.643
       0.848
       1.031
       1.165
       1.243
       1.278
       1.300
       1.332
       1.387
       1.453
       1.500
       1.499
       1.432
       1.303
       1.132
       0.952
       0.795
       0.679
       0.594
       0.510
       0.399
       0.254
       0.096
      -0.033
      -0.100
      -0.102
      -0.079
      -0.082
      -0.148
      -0.288
      -0.486
      -0.710
      -0.920
      -1.079
      -1.170
      -1.191
      -1.158
      -1.087
      -0.986
      -0.859
      -0.713
      -0.560
      -0.419
      -0.306
      -0.220
      -0.148
      -0.071
       0.021
       0.122
       0.209
       0.251
       0.232
       0.164
       0.080
       0.013
      -0.022
      -0.028
      -0.015
       0.010
       0.051
       0.111
       0.182
       0.244
       0.275
       0.274
       0.254
       0.235
       0.230
       0.240
       0.257
       0.274
       0.293
       0.331
       0.400
       0.501
       0.616
       0.710
       0.751
       0.724
       0.640
       0.525
       0.402
       0.270
       0.118
      -0.062
      -0.262
      -0.457
      -0.613
      -0.702
      -0.707
      -0.636
      -0.509
      -0.354
      -0.190
      -0.034
       0.104
       0.213
       0.279
       0.289
       0.242
       0.154
       0.047
      -0.054
      -0.134
      -0.177
      -0.176
      -0.131
      -0.051
       0.049
       0.153
       0.245
       0.314
       0.359
       0.389
       0.417
       0.451
       0.486
       0.496
       0.445
       0.307
       0.096
      -0.140
      -0.337
      -0.450
      -0.471
      -0.434
      -0.382
      -0.346
      -0.328
      -0.310
      -0.270
      -0.193
      -0.071
       0.094
       0.289
       0.494
       0.683
       0.832
       0.926
       0.964
       0.954
       0.904
       0.825
       0.729
       0.634
       0.549
       0.475
       0.399
       0.309
       0.197
       0.068
      -0.061
      -0.168
      -0.242
      -0.290
      -0.325
      -0.353
      -0.361
      -0.337
      -0.278
      -0.205
      -0.146
      -0.114
      -0.096
      -0.054
       0.044
       0.194
       0.351
       0.445
       0.417
       0.240
      -0.061
      -0.425
      -0.781
      -1.074
      -1.276
      -1.380
      -1.385
      -1.297
      -1.121
      -0.870
      -0.574
      -0.278
      -0.027
       0.154
       0.261
       0.307
       0.312
       0.296
       0.278
       0.273
       0.284
       0.298
       0.283
       0.212
       0.086
      -0.056
      -0.158
      -0.179
      -0.111
       0.019
       0.172
       0.307
       0.397
       0.428
       0.401
       0.329
       0.237
       0.149
       0.080
       0.028
      -0.015
      -0.061
      -0.110
      -0.147
      -0.146
      -0.085
       0.032
       0.167
       0.255
       0.247
       0.133
      -0.048
      -0.236
      -0.378
      -0.457
      -0.483
      -0.484
      -0.482
      -0.499
      -0.549
      -0.630
      -0.715
      -0.760
      -0.726
      -0.605
      -0.421
      -0.224
      -0.063
       0.032
       0.056
       0.024
      -0.041
      -0.117
      -0.182
      -0.225
      -0.253
      -0.286
      -0.345
      -0.443
      -0.562
      -0.655
      -0.667
      -0.569
      -0.378
      -0.153
       0.040
       0.154
       0.183
       0.154
       0.107
       0.065
       0.026
      -0.027
      -0.101
      -0.180
      -0.231
      -0.220
      -0.130
       0.024
       0.201
       0.361
       0.479
       0.554
       0.602
       0.642
       0.686
       0.737
       0.787
       0.818
       0.810
       0.747
       0.630
       0.483
       0.339
       0.230
       0.171
       0.157
       0.171
       0.188
       0.183
       0.149
       0.096
       0.047
       0.020
       0.023
       0.055
       0.101
       0.142
       0.156
       0.132
       0.069
      -0.028
      -0.146
      -0.279
      -0.426
      -0.592
      -0.778
      -0.977
      -1.181
      -1.374
      -1.536
      -1.643
      -1.676
      -1.634
      -1.526
      -1.367
      -1.168
      -0.944
      -0.715
      -0.499
      -0.308
      -0.138
       0.024
       0.188
       0.350
       0.502
       0.639
       0.769
       0.905
       1.050
       1.198
       1.340
       1.469
       1.586
       1.689
       1.766
       1.797
       1.767
       1.683
       1.579
       1.490
       1.441
       1.433
       1.450
       1.470
       1.465
       1.415
       1.312
       1.160
       0.966
       0.732
       0.460
       0.157
      -0.153
      -0.432
      -0.645
      -0.772
      -0.817
      -0.792
      -0.712
      -0.585
      -0.417
      -0.207
       0.040
       0.309
       0.564
       0.757
       0.843
       0.791
       0.592
       0.267
      -0.140
      -0.568
      -0.959
      -1.271
      -1.492
      -1.637
      -1.736
      -1.817
      -1.888
      -1.947
      -1.986
      -1.992
      -1.950
      -1.848
      -1.677
      -1.433
      -1.123
      -0.768
      -0.407
      -0.081
       0.183
       0.382
       0.540
       0.685
       0.835
       0.990
       1.135
       1.263
       1.373
       1.466
       1.530
       1.542
       1.481
       1.335
       1.102
       0.798
       0.452
       0.095
      -0.249
      -0.562
      -0.832
      -1.044
      -1.185
      -1.249
      -1.242
      -1.180
      -1.077
      -0.934
      -0.740
      -0.482
      -0.164
       0.192
       0.544
       0.852
       1.083
       1.222
       1.262
       1.197
       1.025
       0.761
       0.444
       0.127
      -0.134
      -0.305
      -0.374
      -0.357
      -0.287
      -0.191
      -0.085
       0.028
       0.141
       0.240
       0.298
       0.282
       0.156
      -0.106
      -0.509
      -1.032
      -1.621
      -2.201
      -2.681
      -2.988
      -3.079
      -2.956
      -2.658
      -2.244
      -1.776
      -1.297
      -0.832
      -0.388
       0.028
       0.415
       0.779
       1.126
       1.456
       1.759
       2.009
       2.174
       2.230
       2.181
       2.060
       1.913
       1.771
       1.641
       1.517
       1.399
       1.303
       1.243
       1.217
       1.200
       1.169
       1.126
       1.100
       1.115
       1.165
       1.218
       1.245
       1.241
       1.226
       1.221
       1.231
       1.230
       1.174
       1.030
       0.786
       0.446
       0.020
      -0.486
      -1.057
      -1.656
      -2.224
      -2.692
      -3.020
      -3.209
      -3.299
      -3.338
      -3.350
      -3.330
      -3.261
      -3.129
      -2.934
      -2.683
      -2.386
      -2.044
      -1.655
      -1.236
      -0.832
      -0.506
      -0.301
      -0.213
      -0.184
      -0.137
      -0.015
       0.195
       0.474
       0.800
       1.154
       1.514
       1.851
       2.124
       2.310
       2.410
       2.444
       2.432
       2.379
       2.269
       2.081
       1.813
       1.496
       1.186
       0.950
       0.838
       0.866
       1.000
       1.177
       1.331
       1.422
       1.437
       1.383
       1.278
       1.141
       0.984
       0.817
       0.644
       0.466
       0.287
       0.115
      -0.034
      -0.133
      -0.161
      -0.110
       0.004
       0.141
       0.251
       0.287
       0.225
       0.050
      -0.246
      -0.672
      -1.219
      -1.843
      -2.469
      -3.005
      -3.379
      -3.564
      -3.582
      -3.487
      -3.329
      -3.131
      -2.894
      -2.608
      -2.279
      -1.936
      -1.628
      -1.403
      -1.278
      -1.229
      -1.191
      -1.087
      -0.859
      -0.495
      -0.033
       0.467
       0.958
       1.421
       1.858
       2.270
       2.651
       2.994
       3.288
       3.520
       3.685
       3.778
       3.801
       3.765
       3.680
       3.540
       3.326
       3.025
       2.655
       2.267
       1.914
       1.612
       1.331
       1.012
       0.605
       0.104
      -0.451
      -1.005
      -1.519
      -1.986
      -2.406
      -2.768
      -3.040
      -3.179
      -3.153
      -2.956
      -2.617
      -2.192
      -1.747
      -1.340
      -1.007
      -0.749
      -0.536
      -0.322
      -0.079
       0.179
       0.393
       0.475
       0.345
      -0.015
      -0.541
      -1.090
      -1.507
      -1.686
      -1.605
      -1.316
      -0.912
      -0.476
      -0.071
       0.258
       0.473
       0.546
       0.474
       0.290
       0.046
      -0.195
      -0.385
      -0.495
      -0.516
      -0.456
      -0.324
      -0.135
       0.087
       0.304
       0.482
       0.596
       0.645
       0.645
       0.622
       0.592
       0.563
       0.537
       0.519
       0.513
       0.522
       0.540
       0.562
       0.585
       0.611
       0.651
       0.711
       0.784
       0.837
       0.828
       0.730
       0.550
       0.316
       0.061
      -0.194
      -0.444
      -0.695
      -0.953
      -1.223
      -1.495
      -1.740
      -1.899
      -1.896
      -1.677
      -1.249
      -0.682
      -0.077
       0.475
       0.926
       1.267
       1.514
       1.677
       1.755
       1.739
       1.630
       1.447
       1.218
       0.965
       0.698
       0.414
       0.118
      -0.170
      -0.409
      -0.554
      -0.577
      -0.471
      -0.247
       0.076
       0.463
       0.864
       1.211
       1.430
       1.461
       1.274
       0.884
       0.334
      -0.317
      -0.999
      -1.637
      -2.148
      -2.453
      -2.499
      -2.275
      -1.820
      -1.215
      -0.547
       0.117
       0.738
       1.295
       1.770
       2.143
       2.386
       2.474
       2.392
       2.145
       1.758
       1.261
       0.697
       0.116
      -0.430
      -0.893
      -1.241
      -1.462
      -1.574
      -1.610
      -1.608
      -1.592
      -1.569
      -1.534
      -1.471
      -1.361
      -1.184
      -0.932
      -0.605
      -0.219
       0.193
       0.577
       0.873
       1.033
       1.052
       0.969
       0.858
       0.789
       0.796
       0.864
       0.939
       0.961
       0.888
       0.719
       0.483
       0.237
       0.035
      -0.094
      -0.151
      -0.160
      -0.150
      -0.146
      -0.162
      -0.194
      -0.231
      -0.259
      -0.277
      -0.302
      -0.367
      -0.501
      -0.698
      -0.908
      -1.061
      -1.107
      -1.034
      -0.876
      -0.683
      -0.505
      -0.363
      -0.256
      -0.178
      -0.132
      -0.124
      -0.153
      -0.204
      -0.265
      -0.332
      -0.409
      -0.495
      -0.573
      -0.612
      -0.584
      -0.480
      -0.318
      -0.129
       0.066
       0.266
       0.486
       0.736
       1.008
       1.268
       1.470
       1.576
       1.582
       1.521
       1.444
       1.389
       1.360
       1.316
       1.184
       0.902
       0.446
      -0.142
      -0.776
      -1.350
      -1.779
      -2.031
      -2.129
      -2.135
      -2.110
      -2.090
      -2.074
      -2.040
      -1.962
      -1.833
      -1.657
      -1.429
      -1.135
      -0.767
      -0.349
       0.065
       0.416
       0.672
       0.841
       0.954
       1.049
       1.146
       1.256
       1.387
       1.559
       1.788
       2.074
       2.399
       2.732
       3.038
       3.276
       3.402
       3.373
       3.168
       2.806
       2.351
       1.896
       1.511
       1.212
       0.958
       0.685
       0.348
      -0.055
      -0.488
      -0.904
      -1.260
      -1.538
      -1.737
      -1.872
      -1.970
      -2.067
      -2.202
      -2.398
      -2.651
      -2.930
      -3.181
      -3.340
      -3.354
      -3.200
      -2.890
      -2.464
      -1.980
      -1.489
      -1.015
      -0.555
      -0.094
       0.366
       0.795
       1.158
       1.424
       1.596
       1.704
       1.794
       1.895
       2.012
       2.133
       2.243
       2.329
       2.382
       2.395
       2.375
       2.337
       2.291
       2.245
       2.190
       2.110
       1.977
       1.761
       1.432
       0.954
       0.300
      -0.524
      -1.452
      -2.375
      -3.176
      -3.786
      -4.195
      -4.444
      -4.592
      -4.681
      -4.723
      -4.706
      -4.610
      -4.411
      -4.095
      -3.663
      -3.134
      -2.533
      -1.880
      -1.193
      -0.490
       0.214
       0.911
       1.606
       2.308
       3.015
       3.700
       4.320
       4.825
       5.182
       5.378
       5.412
       5.293
       5.036
       4.670
       4.241
       3.808
       3.427
       3.132
       2.908
       2.703
       2.451
       2.117
       1.707
       1.248
       0.762
       0.251
      -0.296
      -0.880
      -1.484
      -2.085
      -2.669
      -3.232
      -3.758
      -4.214
      -4.565
      -4.796
      -4.921
      -4.977
      -4.989
      -4.968
      -4.905
      -4.788
      -4.614
      -4.385
      -4.090
      -3.690
      -3.127
      -2.354
      -1.370
      -0.235
       0.936
       2.015
       2.898
       3.526
       3.893
       4.034
       4.012
       3.890
       3.705
       3.461
       3.151
       2.790
       2.433
       2.159
       2.036
       2.085
       2.262
       2.465
       2.587
       2.553
       2.340
       1.968
       1.475
       0.900
       0.272
      -0.385
      -1.044
      -1.669
      -2.212
      -2.627
      -2.875
      -2.940
      -2.835
      -2.605
      -2.315
      -2.036
      -1.818
      -1.670
      -1.560
      -1.434
      -1.258
      -1.031
      -0.778
      -0.525
      -0.293
      -0.095
       0.062
       0.168
       0.212
       0.191
       0.116
       0.012
      -0.088
      -0.152
      -0.155
      -0.082
       0.061
       0.257
       0.483
       0.722
       0.956
       1.163
       1.321
       1.420
       1.463
       1.456
       1.402
       1.295
       1.138
       0.951
       0.779
       0.673
       0.667
       0.746
       0.850
       0.896
       0.823
       0.622
       0.345
       0.069
      -0.141
      -0.267
      -0.329
      -0.369
      -0.426
      -0.526
      -0.672
      -0.856
      -1.058
      -1.256
      -1.422
      -1.525
      -1.548
      -1.497
      -1.398
      -1.283
      -1.171
      -1.054
      -0.895
      -0.656
      -0.315
       0.114
       0.577
       0.999
       1.295
       1.402
       1.304
       1.047
       0.720
       0.411
       0.175
       0.018
      -0.086
      -0.168
      -0.245
      -0.311
      -0.350
      -0.341
      -0.265
      -0.113
       0.099
       0.328
       0.518
       0.619
       0.612
       0.512
       0.364
       0.221
       0.124
       0.086
       0.103
       0.163
       0.249
       0.338
       0.398
       0.405
       0.350
       0.257
       0.174
       0.149
       0.198
       0.298
       0.404
       0.477
       0.506
       0.503
       0.490
       0.489
       0.516
       0.574
       0.652
       0.724
       0.752
       0.695
       0.527
       0.245
      -0.133
      -0.574
      -1.035
      -1.458
      -1.789
      -1.990
      -2.053
      -2.003
      -1.888
      -1.760
      -1.645
      -1.545
      -1.449
      -1.346
      -1.237
      -1.118
      -0.984
      -0.816
      -0.593
      -0.295
       0.077
       0.497
       0.915
       1.276
       1.541
       1.705
       1.796
       1.854
       1.902
       1.933
       1.918
       1.839
       1.711
       1.575
       1.468
       1.398
       1.332
       1.216
       1.019
       0.747
       0.434
       0.123
      -0.158
      -0.403
      -0.627
      -0.853
      -1.103
      -1.380
      -1.669
      -1.942
      -2.162
      -2.303
      -2.359
      -2.341
      -2.271
      -2.168
      -2.039
      -1.869
      -1.631
      -1.294
      -0.852
      -0.329
       0.232
       0.786
       1.300
       1.745
       2.091
       2.309
       2.374
       2.288
       2.081
       1.809
       1.535
       1.306
       1.147
       1.056
       1.007
       0.956
       0.853
       0.647
       0.307
      -0.158
      -0.690
      -1.201
      -1.608
      -1.863
      -1.958
      -1.909
      -1.737
      -1.456
      -1.075
      -0.610
      -0.105
       0.374
       0.768
       1.044
       1.211
       1.308
       1.381
       1.463
       1.565
       1.675
       1.774
       1.842
       1.865
       1.833
       1.744
       1.604
       1.412
       1.154
       0.802
       0.331
      -0.267
      -0.961
      -1.683
      -2.344
      -2.878
      -3.268
      -3.533
      -3.708
      -3.806
      -3.810
      -3.689
      -3.423
      -3.018
      -2.506
      -1.924
      -1.312
      -0.708
      -0.151
       0.323
       0.693
       0.957
       1.134
       1.256
       1.349
       1.421
       1.457
       1.444
       1.387
       1.307
       1.229
       1.158
       1.077
       0.962
       0.802
       0.620
       0.452
       0.328
       0.260
       0.255
       0.333
       0.520
       0.825
       1.220
       1.635
       1.985
       2.191
       2.210
       2.034
       1.693
       1.248
       0.786
       0.392
       0.121
      -0.032
      -0.122
      -0.225
      -0.402
      -0.669
      -0.992
      -1.305
      -1.537
      -1.641
      -1.609
      -1.471
      -1.282
      -1.105
      -0.985
      -0.943
      -0.968
      -1.027
      -1.074
      -1.074
      -1.022
      -0.937
      -0.846
      -0.754
      -0.649
      -0.514
      -0.348
      -0.164
       0.024
       0.216
       0.429
       0.675
       0.936
       1.165
       1.314
       1.364
       1.331
       1.246
       1.132
       0.985
       0.783
       0.498
       0.128
      -0.299
      -0.731
      -1.102
      -1.359
      -1.476
      -1.463
      -1.358
      -1.201
      -1.012
      -0.797
      -0.556
      -0.291
      -0.012
       0.268
       0.541
       0.808
       1.076
       1.341
       1.587
       1.792
       1.939
       2.014
       2.013
       1.943
       1.821
       1.665
       1.488
       1.292
       1.071
       0.806
       0.484
       0.106
      -0.294
      -0.663
      -0.951
      -1.132
      -1.218
      -1.250
      -1.270
      -1.300
      -1.336
