Origin Time       15/2/2009 07:35:55 
Lat.              26.0 N 
Long.             90.2 E 
Depth (Km)         39.3
Magnitude         4.4
 Region           Assam-Meghalaya-Border                                           
 Above details taken from IMD 
   
Station Code      tur
Station Lat.       25.511
Station Long.      90.220
Station Height(m)  376.2
Site Class        B   Vs30 between 375 m/sec to 700 m/sec *  
Record Time       15.02.2009 19:36:00.899
Sampling Rate     200. Hz
 Record Duration   68.430 Sec.
 Direction         Vert. (Up positive)
Max. Acceleration      4.885 cm/sec**2
     
  * For reference see Site Classification link of website 
     
 Base Line Corrected and Low Pass Filtered (Cut Off at 35 Hz) Time History
 Acceleration data in cm/sec**2
    
[...]
       0.237
       0.349
       0.529
       0.712
       0.790
       0.667
       0.338
      -0.088
      -0.458
      -0.671
      -0.733
      -0.727
      -0.737
      -0.800
      -0.893
      -0.957
      -0.922
      -0.760
      -0.522
      -0.330
      -0.303
      -0.466
      -0.730
      -0.949
      -1.017
      -0.916
      -0.685
      -0.380
      -0.045
       0.273
       0.527
       0.679
       0.738
       0.759
       0.816
       0.935
       1.057
       1.067
       0.883
       0.533
       0.149
      -0.117
      -0.188
      -0.090
       0.107
       0.344
       0.586
       0.785
       0.856
       0.713
       0.344
      -0.156
      -0.621
      -0.910
      -0.956
      -0.766
      -0.395
       0.064
       0.474
       0.681
       0.581
       0.196
      -0.323
      -0.779
      -1.040
      -1.093
      -1.018
      -0.899
      -0.765
      -0.578
      -0.292
       0.093
       0.499
       0.802
       0.908
       0.824
       0.672
       0.606
       0.697
       0.873
       0.978
       0.897
       0.650
       0.366
       0.182
       0.135
       0.146
       0.102
      -0.047
      -0.255
      -0.447
      -0.593
      -0.727
      -0.891
      -1.076
      -1.217
      -1.239
      -1.102
      -0.817
      -0.438
      -0.032
       0.339
       0.641
       0.847
       0.905
       0.736
       0.292
      -0.351
      -0.961
      -1.259
      -1.103
      -0.599
      -0.031
       0.336
       0.410
       0.291
       0.162
       0.157
       0.299
       0.505
       0.651
       0.648
       0.509
       0.338
       0.257
       0.309
       0.437
       0.534
       0.534
       0.443
       0.320
       0.219
       0.146
       0.057
      -0.099
      -0.313
      -0.488
      -0.492
      -0.280
       0.031
       0.209
       0.078
      -0.346
      -0.865
      -1.242
      -1.345
      -1.169
      -0.772
      -0.226
       0.381
       0.922
       1.259
       1.324
       1.172
       0.930
       0.688
       0.434
       0.100
      -0.323
      -0.719
      -0.918
      -0.830
      -0.543
      -0.265
      -0.173
      -0.288
      -0.478
      -0.569
      -0.455
      -0.148
       0.257
       0.636
       0.875
       0.907
       0.732
       0.441
       0.176
       0.056
       0.098
       0.213
       0.282
       0.235
       0.077
      -0.149
      -0.402
      -0.640
      -0.809
      -0.858
      -0.775
      -0.610
      -0.435
      -0.279
      -0.098
       0.170
       0.527
       0.877
       1.089
       1.096
       0.931
       0.696
       0.473
       0.284
       0.111
      -0.046
      -0.160
      -0.205
      -0.188
      -0.152
      -0.148
      -0.224
      -0.415
      -0.717
      -1.041
      -1.226
      -1.126
      -0.738
      -0.248
       0.069
       0.042
      -0.272
      -0.618
      -0.715
      -0.443
       0.099
       0.676
       1.094
       1.298
       1.357
       1.345
       1.259
       1.029
       0.620
       0.100
      -0.371
      -0.647
      -0.687
      -0.572
      -0.434
      -0.353
      -0.309
      -0.205
       0.038
       0.398
       0.740
       0.901
       0.816
       0.572
       0.328
       0.177
       0.067
      -0.117
      -0.405
      -0.673
      -0.732
      -0.503
      -0.096
       0.268
       0.421
       0.347
       0.155
      -0.033
      -0.164
      -0.260
      -0.373
      -0.525
      -0.683
      -0.774
      -0.752
      -0.647
      -0.552
      -0.539
      -0.581
      -0.563
      -0.377
      -0.027
       0.360
       0.625
       0.691
       0.599
       0.457
       0.348
       0.286
       0.257
       0.273
       0.377
       0.585
       0.820
       0.940
       0.838
       0.524
       0.113
      -0.274
      -0.588
      -0.843
      -1.037
      -1.115
      -1.005
      -0.706
      -0.314
       0.028
       0.230
       0.304
       0.335
       0.381
       0.419
       0.373
       0.214
       0.017
      -0.083
      -0.011
       0.169
       0.303
       0.283
       0.146
       0.043
       0.093
       0.271
       0.424
       0.393
       0.134
      -0.258
      -0.611
      -0.763
      -0.638
      -0.286
       0.132
       0.417
       0.438
       0.206
      -0.147
      -0.467
      -0.670
      -0.756
      -0.747
      -0.640
      -0.424
      -0.132
       0.140
       0.282
       0.245
       0.066
      -0.171
      -0.398
      -0.563
      -0.602
      -0.414
       0.075
       0.806
       1.530
       1.917
       1.775
       1.208
       0.563
       0.183
       0.162
       0.319
       0.384
       0.220
      -0.102
      -0.418
      -0.621
      -0.710
      -0.727
      -0.685
      -0.577
      -0.435
      -0.340
      -0.365
      -0.507
      -0.680
      -0.759
      -0.655
      -0.369
      -0.003
       0.294
       0.420
       0.388
       0.311
       0.307
       0.402
       0.508
       0.493
       0.281
      -0.076
      -0.419
      -0.575
      -0.462
      -0.153
       0.162
       0.293
       0.175
      -0.098
      -0.349
      -0.437
      -0.343
      -0.142
       0.072
       0.254
       0.409
       0.556
       0.690
       0.789
       0.833
       0.818
       0.755
       0.662
       0.550
       0.423
       0.285
       0.145
       0.012
      -0.114
      -0.242
      -0.371
      -0.478
      -0.539
      -0.561
      -0.577
      -0.614
      -0.658
      -0.665
      -0.608
      -0.512
      -0.442
      -0.443
      -0.498
      -0.542
      -0.519
      -0.425
      -0.309
      -0.234
      -0.240
      -0.308
      -0.364
      -0.320
      -0.139
       0.123
       0.357
       0.485
       0.518
       0.544
       0.640
       0.809
       0.970
       1.023
       0.919
       0.685
       0.409
       0.195
       0.119
       0.188
       0.321
       0.381
       0.267
       0.011
      -0.223
      -0.263
      -0.086
       0.133
       0.139
      -0.193
      -0.747
      -1.229
      -1.374
      -1.123
      -0.644
      -0.180
       0.117
       0.236
       0.225
       0.107
      -0.126
      -0.438
      -0.706
      -0.761
      -0.495
       0.053
       0.709
       1.239
       1.481
       1.421
       1.188
       0.949
       0.794
       0.695
       0.564
       0.362
       0.131
      -0.049
      -0.167
      -0.315
      -0.612
      -1.069
      -1.529
      -1.749
      -1.568
      -1.028
      -0.345
       0.223
       0.512
       0.495
       0.247
      -0.117
      -0.494
      -0.809
      -1.010
      -1.056
      -0.926
      -0.648
      -0.309
      -0.009
       0.196
       0.326
       0.439
       0.571
       0.707
       0.801
       0.828
       0.809
       0.798
       0.826
       0.876
       0.899
       0.882
       0.871
       0.924
       1.020
       1.033
       0.823
       0.368
      -0.185
      -0.616
      -0.780
      -0.699
      -0.516
      -0.391
      -0.406
      -0.535
      -0.688
      -0.793
      -0.848
      -0.905
      -0.986
      -1.023
      -0.914
      -0.639
      -0.311
      -0.093
      -0.046
      -0.075
      -0.026
       0.163
       0.391
       0.494
       0.384
       0.143
      -0.045
      -0.031
       0.186
       0.463
       0.629
       0.603
       0.436
       0.255
       0.162
       0.169
       0.199
       0.144
      -0.055
      -0.354
      -0.619
      -0.713
      -0.601
      -0.394
      -0.262
      -0.285
      -0.365
      -0.308
      -0.009
       0.428
       0.765
       0.832
       0.653
       0.397
       0.218
       0.142
       0.108
       0.061
       0.021
       0.041
       0.147
       0.293
       0.388
       0.360
       0.219
       0.046
      -0.074
      -0.133
      -0.203
      -0.345
      -0.522
      -0.619
      -0.552
      -0.357
      -0.171
      -0.118
      -0.231
      -0.453
      -0.688
      -0.847
      -0.884
      -0.815
      -0.712
      -0.642
      -0.590
      -0.469
      -0.200
       0.203
       0.638
       1.007
       1.269
       1.423
       1.459
       1.365
       1.164
       0.922
       0.708
       0.552
       0.430
       0.288
       0.069
      -0.234
      -0.535
      -0.664
      -0.479
      -0.005
       0.520
       0.788
       0.641
       0.194
      -0.264
      -0.513
      -0.558
      -0.567
      -0.660
      -0.779
      -0.758
      -0.519
      -0.185
      -0.004
      -0.143
      -0.537
      -0.926
      -1.057
      -0.857
      -0.462
      -0.075
       0.188
       0.347
       0.480
       0.619
       0.716
       0.702
       0.568
       0.386
       0.254
       0.222
       0.266
       0.329
       0.372
       0.405
       0.448
       0.500
       0.523
       0.481
       0.379
       0.268
       0.205
       0.206
       0.242
       0.266
       0.251
       0.192
       0.093
      -0.052
      -0.261
      -0.544
      -0.869
      -1.157
      -1.307
      -1.268
      -1.090
      -0.902
      -0.820
      -0.859
      -0.945
      -0.991
      -0.965
      -0.881
      -0.739
      -0.503
      -0.137
       0.329
       0.783
       1.092
       1.166
       1.010
       0.715
       0.413
       0.214
       0.167
       0.251
       0.402
       0.555
       0.662
       0.694
       0.627
       0.427
       0.079
      -0.376
      -0.821
      -1.098
      -1.096
      -0.823
      -0.403
       0.001
       0.271
       0.372
       0.324
       0.179
       0.017
      -0.048
       0.108
       0.535
       1.132
       1.650
       1.829
       1.569
       1.009
       0.435
       0.089
       0.026
       0.132
       0.251
       0.300
       0.286
       0.227
       0.098
      -0.148
      -0.511
      -0.914
      -1.246
      -1.434
      -1.486
      -1.463
      -1.424
      -1.384
      -1.321
      -1.214
      -1.077
      -0.954
      -0.852
      -0.715
      -0.461
      -0.067
       0.380
       0.736
       0.882
       0.787
       0.517
       0.214
       0.037
       0.105
       0.435
       0.925
       1.412
       1.747
       1.852
       1.728
       1.439
       1.081
       0.758
       0.540
       0.437
       0.391
       0.320
       0.163
      -0.082
      -0.370
      -0.637
      -0.835
      -0.966
      -1.086
      -1.272
      -1.555
      -1.877
      -2.102
      -2.111
      -1.901
      -1.601
      -1.381
      -1.314
      -1.305
      -1.155
      -0.714
       0.010
       0.847
       1.576
       2.066
       2.330
       2.485
       2.639
       2.806
       2.899
       2.820
       2.559
       2.228
       1.982
       1.876
       1.786
       1.480
       0.802
      -0.163
      -1.109
      -1.707
      -1.851
      -1.735
      -1.706
      -1.994
      -2.535
      -3.039
      -3.224
      -3.024
      -2.590
      -2.129
      -1.741
      -1.387
      -0.980
      -0.488
       0.042
       0.521
       0.864
       1.024
       1.001
       0.854
       0.686
       0.594
       0.603
       0.643
       0.593
       0.385
       0.069
      -0.196
      -0.255
      -0.048
       0.360
       0.829
       1.216
       1.409
       1.348
       1.044
       0.600
       0.197
       0.012
       0.119
       0.438
       0.783
       0.976
       0.949
       0.744
       0.439
       0.065
      -0.390
      -0.908
      -1.385
      -1.669
      -1.679
      -1.488
      -1.267
      -1.131
      -1.031
      -0.796
      -0.300
       0.407
       1.117
       1.584
       1.685
       1.478
       1.162
       0.932
       0.839
       0.747
       0.447
      -0.137
      -0.831
      -1.295
      -1.266
      -0.770
      -0.120
       0.295
       0.287
      -0.022
      -0.324
      -0.364
      -0.111
       0.249
       0.487
       0.493
       0.321
       0.085
      -0.152
      -0.390
      -0.612
      -0.721
      -0.614
      -0.312
       0.008
       0.126
      -0.040
      -0.350
      -0.540
      -0.410
       0.026
       0.569
       0.984
       1.173
       1.213
       1.254
       1.370
       1.488
       1.436
       1.073
       0.399
      -0.434
      -1.214
      -1.786
      -2.107
      -2.221
      -2.205
      -2.128
      -2.034
      -1.935
      -1.815
      -1.658
      -1.488
      -1.361
      -1.301
      -1.249
      -1.074
      -0.655
       0.030
       0.893
       1.788
       2.577
       3.180
       3.582
       3.819
       3.940
       3.952
       3.807
       3.435
       2.814
       2.018
       1.182
       0.423
      -0.232
      -0.846
      -1.483
      -2.126
      -2.660
      -2.951
      -2.943
      -2.704
      -2.373
      -2.065
      -1.818
      -1.598
      -1.357
      -1.081
      -0.796
      -0.537
      -0.311
      -0.090
       0.171
       0.485
       0.801
       1.018
       1.045
       0.879
       0.625
       0.441
       0.434
       0.574
       0.723
       0.749
       0.633
       0.475
       0.383
       0.359
       0.284
       0.043
      -0.331
      -0.629
      -0.623
      -0.281
       0.173
       0.413
       0.267
      -0.168
      -0.645
      -0.982
      -1.188
      -1.385
      -1.662
      -1.990
      -2.271
      -2.415
      -2.377
      -2.150
      -1.772
      -1.340
      -0.987
      -0.782
      -0.644
      -0.367
       0.215
       1.078
       2.004
       2.755
       3.258
       3.634
       4.043
       4.507
       4.858
       4.885
       4.536
       3.982
       3.476
       3.139
       2.866
       2.442
       1.743
       0.853
      -0.012
      -0.668
      -1.076
      -1.322
      -1.525
      -1.746
      -1.949
      -2.056
      -2.024
      -1.907
      -1.843
      -1.969
      -2.348
      -2.931
      -3.570
      -4.067
      -4.241
      -4.022
      -3.498
      -2.866
      -2.304
      -1.843
      -1.384
      -0.816
      -0.142
       0.496
       0.930
       1.102
       1.113
       1.142
       1.302
       1.554
       1.749
       1.754
       1.539
       1.183
       0.820
       0.564
       0.453
       0.437
       0.418
       0.331
       0.214
       0.177
       0.310
       0.593
       0.906
       1.108
       1.133
       1.006
       0.786
       0.501
       0.146
      -0.272
      -0.705
      -1.088
      -1.385
      -1.617
      -1.828
      -2.043
      -2.238
      -2.349
      -2.302
      -2.045
      -1.578
      -0.958
      -0.275
       0.389
       0.986
       1.489
       1.878
       2.126
       2.221
       2.195
       2.120
       2.059
       2.010
       1.913
       1.716
       1.457
       1.261
       1.233
       1.341
       1.419
       1.305
       0.986
       0.616
       0.374
       0.292
       0.226
      -0.025
      -0.535
      -1.186
      -1.744
      -2.026
      -2.012
      -1.840
      -1.691
      -1.671
      -1.764
      -1.878
      -1.918
      -1.851
      -1.727
      -1.663
      -1.764
      -2.032
      -2.308
      -2.336
      -1.917
      -1.053
       0.041
       1.081
       1.911
       2.564
       3.160
       3.730
       4.150
       4.247
       3.967
       3.441
       2.882
       2.415
       2.002
       1.513
       0.876
       0.131
      -0.613
      -1.267
      -1.793
      -2.173
      -2.376
      -2.371
      -2.183
      -1.909
      -1.682
      -1.602
      -1.699
      -1.929
      -2.204
      -2.415
      -2.461
      -2.270
      -1.817
      -1.138
      -0.337
       0.427
       0.990
       1.281
       1.390
       1.526
       1.869
       2.421
       2.982
       3.288
       3.203
       2.810
       2.327
       1.923
       1.601
       1.235
       0.711
       0.051
      -0.583
      -1.011
      -1.179
      -1.202
      -1.271
      -1.488
      -1.782
      -1.949
      -1.809
      -1.345
      -0.721
      -0.186
       0.061
      -0.044
      -0.423
      -0.912
      -1.335
      -1.576
      -1.612
      -1.490
      -1.265
      -0.959
      -0.573
      -0.147
       0.221
       0.408
       0.346
       0.076
      -0.277
      -0.559
      -0.649
      -0.491
      -0.095
       0.469
       1.086
       1.616
       1.931
       1.961
       1.728
       1.350
       0.990
       0.776
       0.748
       0.852
       0.973
       0.993
       0.855
       0.604
       0.362
       0.224
       0.184
       0.154
       0.073
      -0.015
      -0.005
       0.163
       0.417
       0.574
       0.466
       0.059
      -0.514
      -1.054
      -1.439
      -1.679
      -1.853
      -1.989
      -2.039
      -1.950
      -1.759
      -1.587
      -1.534
      -1.562
      -1.507
      -1.214
      -0.676
      -0.057
       0.445
       0.745
       0.928
       1.136
       1.424
       1.717
       1.891
       1.903
       1.835
       1.833
       1.989
       2.264
       2.506
       2.554
       2.345
       1.952
       1.517
       1.142
       0.806
       0.382
      -0.244
      -1.060
      -1.902
      -2.559
      -2.921
      -3.036
      -3.040
      -3.022
      -2.950
      -2.722
      -2.297
      -1.749
      -1.215
      -0.770
      -0.377
       0.048
       0.509
       0.888
       1.028
       0.880
       0.571
       0.329
       0.325
       0.554
       0.844
       0.980
       0.850
       0.520
       0.185
       0.041
       0.161
       0.469
       0.795
       0.980
       0.961
       0.805
       0.651
       0.604
       0.671
       0.776
       0.838
       0.814
       0.701
       0.529
       0.363
       0.285
       0.328
       0.421
       0.413
       0.184
      -0.249
      -0.737
      -1.111
      -1.310
      -1.410
      -1.526
      -1.691
      -1.818
      -1.784
      -1.563
      -1.271
      -1.072
      -1.025
      -1.019
      -0.853
      -0.399
       0.301
       1.065
       1.690
       2.044
       2.099
       1.913
       1.601
       1.287
       1.055
       0.916
       0.836
       0.785
       0.779
       0.851
       0.993
       1.123
       1.120
       0.916
       0.574
       0.256
       0.093
       0.072
       0.049
      -0.114
      -0.435
      -0.800
      -1.073
      -1.202
      -1.247
      -1.322
      -1.497
      -1.756
      -2.001
      -2.121
      -2.052
      -1.794
      -1.404
      -0.973
      -0.600
      -0.345
      -0.180
      -0.002
       0.272
       0.602
       0.823
       0.778
       0.452
      -0.010
      -0.426
      -0.691
      -0.792
      -0.735
      -0.489
      -0.022
       0.627
       1.313
       1.841
       2.063
       1.968
       1.684
       1.398
       1.239
       1.197
       1.148
       0.961
       0.618
       0.227
      -0.079
      -0.270
      -0.442
      -0.723
      -1.137
      -1.553
      -1.775
      -1.687
      -1.350
      -0.973
      -0.763
      -0.783
      -0.906
      -0.907
      -0.642
      -0.161
       0.325
       0.588
       0.545
       0.296
       0.033
      -0.095
      -0.062
       0.072
       0.228
       0.366
       0.473
       0.533
       0.531
       0.469
       0.387
       0.345
       0.398
       0.562
       0.801
       1.040
       1.194
       1.220
       1.140
       1.018
       0.884
       0.699
       0.385
