Origin Time       12/3/2010 23:19:54	
Lat.              23.0 N	
Long.             94.5 E	
Depth (Km)         96.0
Magnitude         5.6
 Region           MYANMAR                                                          
 Above details taken from IMD 
     
Station Code      TUR
Station Lat.       25.511  N
Station Long.      90.220  E
Station Height(m)  372.0
Site Class        B   Vs30 between 375 m/sec to 700 m/sec *  
Record Time       12.03.2010 23:21:34.864
Sampling Rate     200. Hz
 Record Duration   72.025 Sec.
 Direction         E-W (E positive)
Max. Acceleration     11.586 cm/sec**2
     
  * For reference see Site Classification link of website 
     
 Base Line Corrected and Low Pass Filtered (Cut Off at 35 Hz) Time History
 Acceleration data in cm/sec**2
    
[...]
       0.647
       0.716
       0.781
       0.830
       0.859
       0.878
       0.891
       0.892
       0.863
       0.793
       0.681
       0.539
       0.384
       0.235
       0.112
       0.034
       0.003
      -0.008
      -0.049
      -0.167
      -0.376
      -0.644
      -0.917
      -1.157
      -1.359
      -1.545
      -1.735
      -1.929
      -2.109
      -2.250
      -2.336
      -2.362
      -2.327
      -2.230
      -2.074
      -1.869
      -1.639
      -1.403
      -1.165
      -0.904
      -0.592
      -0.219
       0.191
       0.587
       0.923
       1.174
       1.339
       1.433
       1.467
       1.454
       1.405
       1.344
       1.299
       1.307
       1.393
       1.556
       1.766
       1.963
       2.083
       2.080
       1.944
       1.697
       1.382
       1.051
       0.747
       0.493
       0.286
       0.107
      -0.061
      -0.224
      -0.378
      -0.526
      -0.686
      -0.887
      -1.145
      -1.447
      -1.748
      -1.999
      -2.164
      -2.237
      -2.231
      -2.160
      -2.026
      -1.820
      -1.542
      -1.209
      -0.854
      -0.500
      -0.148
       0.222
       0.623
       1.028
       1.379
       1.625
       1.769
       1.869
       1.995
       2.175
       2.374
       2.531
       2.600
       2.582
       2.508
       2.410
       2.295
       2.144
       1.932
       1.639
       1.273
       0.865
       0.454
       0.076
      -0.256
      -0.554
      -0.851
      -1.177
      -1.551
      -1.962
      -2.374
      -2.739
      -3.022
      -3.223
      -3.379
      -3.546
      -3.764
      -4.037
      -4.333
      -4.606
      -4.815
      -4.935
      -4.946
      -4.829
      -4.565
      -4.153
      -3.615
      -2.991
      -2.318
      -1.621
      -0.906
      -0.169
       0.593
       1.375
       2.154
       2.902
       3.597
       4.238
       4.840
       5.413
       5.939
       6.381
       6.701
       6.870
       6.876
       6.713
       6.393
       5.949
       5.443
       4.937
       4.461
       3.997
       3.487
       2.876
       2.138
       1.297
       0.412
      -0.458
      -1.276
      -2.042
      -2.776
      -3.488
      -4.160
      -4.746
      -5.202
      -5.506
      -5.675
      -5.757
      -5.820
      -5.918
      -6.079
      -6.286
      -6.485
      -6.611
      -6.619
      -6.497
      -6.251
      -5.882
      -5.362
      -4.646
      -3.706
      -2.564
      -1.301
      -0.028
       1.162
       2.224
       3.165
       4.010
       4.772
       5.435
       5.979
       6.403
       6.742
       7.046
       7.350
       7.648
       7.894
       8.026
       7.982
       7.710
       7.175
       6.381
       5.384
       4.293
       3.242
       2.334
       1.610
       1.042
       0.565
       0.116
      -0.339
      -0.798
      -1.245
      -1.672
      -2.091
      -2.529
      -3.012
      -3.546
      -4.119
      -4.701
      -5.258
      -5.763
      -6.202
      -6.580
      -6.913
      -7.205
      -7.434
      -7.552
      -7.504
      -7.262
      -6.826
      -6.222
      -5.485
      -4.650
      -3.750
      -2.809
      -1.825
      -0.781
       0.334
       1.496
       2.633
       3.650
       4.460
       5.021
       5.353
       5.526
       5.632
       5.749
       5.919
       6.138
       6.372
       6.575
       6.698
       6.691
       6.501
       6.092
       5.468
       4.674
       3.786
       2.869
       1.963
       1.089
       0.275
      -0.418
      -0.908
      -1.139
      -1.124
      -0.969
      -0.834
      -0.873
      -1.170
      -1.718
      -2.441
      -3.230
      -3.997
      -4.683
      -5.263
      -5.720
      -6.030
      -6.161
      -6.076
      -5.762
      -5.233
      -4.544
      -3.770
      -2.984
      -2.237
      -1.546
      -0.905
      -0.301
       0.270
       0.814
       1.336
       1.848
       2.351
       2.833
       3.270
       3.637
       3.920
       4.111
       4.213
       4.247
       4.255
       4.280
       4.345
       4.424
       4.448
       4.338
       4.045
       3.589
       3.044
       2.506
       2.037
       1.648
       1.303
       0.958
       0.590
       0.207
      -0.173
      -0.548
      -0.941
      -1.397
      -1.955
      -2.637
      -3.433
      -4.294
      -5.138
      -5.868
      -6.399
      -6.698
      -6.787
      -6.720
      -6.550
      -6.303
      -5.977
      -5.553
      -5.012
      -4.348
      -3.573
      -2.723
      -1.849
      -1.006
      -0.230
       0.469
       1.108
       1.722
       2.346
       2.999
       3.677
       4.343
       4.936
       5.398
       5.705
       5.887
       6.011
       6.139
       6.291
       6.421
       6.441
       6.268
       5.867
       5.269
       4.549
       3.797
       3.083
       2.440
       1.878
       1.388
       0.949
       0.527
       0.082
      -0.413
      -0.956
      -1.529
      -2.121
      -2.742
      -3.414
      -4.132
      -4.848
      -5.479
      -5.949
      -6.219
      -6.296
      -6.221
      -6.045
      -5.819
      -5.580
      -5.352
      -5.137
      -4.913
      -4.645
      -4.312
      -3.924
      -3.525
      -3.162
      -2.850
      -2.552
      -2.202
      -1.739
      -1.149
      -0.472
       0.222
       0.877
       1.482
       2.063
       2.663
       3.306
       3.991
       4.683
       5.331
       5.881
       6.288
       6.527
       6.604
       6.553
       6.423
       6.254
       6.056
       5.821
       5.538
       5.214
       4.877
       4.558
       4.261
       3.945
       3.533
       2.947
       2.152
       1.179
       0.109
      -0.965
      -1.976
      -2.893
      -3.712
      -4.437
      -5.069
      -5.595
      -6.001
      -6.279
      -6.436
      -6.484
      -6.430
      -6.259
      -5.960
      -5.544
      -5.063
      -4.583
      -4.149
      -3.752
      -3.336
      -2.830
      -2.182
      -1.386
      -0.494
       0.397
       1.182
       1.798
       2.254
       2.618
       2.963
       3.325
       3.694
       4.027
       4.278
       4.417
       4.428
       4.307
       4.059
       3.687
       3.199
       2.609
       1.949
       1.270
       0.631
       0.074
      -0.387
      -0.748
      -0.998
      -1.113
      -1.081
      -0.926
      -0.708
      -0.493
      -0.327
      -0.223
      -0.168
      -0.129
      -0.056
       0.097
       0.349
       0.679
       1.034
       1.359
       1.624
       1.822
       1.957
       2.019
       1.991
       1.856
       1.612
       1.276
       0.881
       0.463
       0.059
      -0.294
      -0.571
      -0.773
      -0.926
      -1.072
      -1.239
      -1.433
      -1.639
      -1.837
      -2.023
      -2.212
      -2.429
      -2.682
      -2.954
      -3.211
      -3.431
      -3.611
      -3.770
      -3.929
      -4.101
      -4.284
      -4.458
      -4.581
      -4.605
      -4.484
      -4.196
      -3.750
      -3.178
      -2.525
      -1.831
      -1.135
      -0.473
       0.129
       0.659
       1.113
       1.488
       1.774
       1.963
       2.065
       2.112
       2.157
       2.266
       2.499
       2.892
       3.442
       4.094
       4.747
       5.294
       5.658
       5.820
       5.813
       5.703
       5.563
       5.459
       5.440
       5.530
       5.715
       5.940
       6.104
       6.076
       5.740
       5.039
       4.006
       2.763
       1.474
       0.275
      -0.775
      -1.708
      -2.609
      -3.547
      -4.536
      -5.513
      -6.373
      -7.004
      -7.339
      -7.374
      -7.166
      -6.809
      -6.399
      -6.006
      -5.657
      -5.337
      -5.014
      -4.665
      -4.300
      -3.947
      -3.633
      -3.355
      -3.083
      -2.779
      -2.418
      -1.995
      -1.521
      -1.000
      -0.424
       0.218
       0.927
       1.689
       2.485
       3.286
       4.049
       4.705
       5.170
       5.380
       5.327
       5.072
       4.718
       4.368
       4.087
       3.894
       3.760
       3.624
       3.412
       3.061
       2.553
       1.916
       1.218
       0.536
      -0.068
      -0.559
      -0.921
      -1.149
      -1.235
      -1.175
      -0.981
      -0.691
      -0.359
      -0.049
       0.177
       0.268
       0.192
      -0.042
      -0.391
      -0.787
      -1.169
      -1.502
      -1.781
      -2.017
      -2.212
      -2.356
      -2.424
      -2.393
      -2.248
      -1.999
      -1.681
      -1.353
      -1.078
      -0.898
      -0.809
      -0.766
      -0.696
      -0.550
      -0.328
      -0.082
       0.106
       0.171
       0.084
      -0.129
      -0.397
      -0.629
      -0.740
      -0.689
      -0.486
      -0.174
       0.204
       0.620
       1.063
       1.515
       1.939
       2.288
       2.527
       2.652
       2.691
       2.685
       2.661
       2.617
       2.538
       2.416
       2.268
       2.125
       2.002
       1.894
       1.785
       1.674
       1.578
       1.503
       1.411
       1.223
       0.859
       0.285
      -0.458
      -1.275
      -2.061
      -2.725
      -3.207
      -3.473
      -3.519
      -3.376
      -3.101
      -2.759
      -2.403
      -2.077
      -1.819
      -1.667
      -1.641
      -1.731
      -1.887
      -2.031
      -2.079
      -1.975
      -1.715
      -1.353
      -0.980
      -0.696
      -0.569
      -0.612
      -0.782
      -1.005
      -1.209
      -1.358
      -1.451
      -1.517
      -1.581
      -1.652
      -1.707
      -1.700
      -1.585
      -1.328
      -0.933
      -0.444
       0.069
       0.540
       0.947
       1.329
       1.761
       2.294
       2.909
       3.501
       3.936
       4.123
       4.057
       3.809
       3.471
       3.120
       2.798
       2.533
       2.339
       2.215
       2.139
       2.072
       1.981
       1.868
       1.771
       1.740
       1.796
       1.909
       2.005
       2.020
       1.937
       1.791
       1.636
       1.481
       1.277
       0.941
       0.418
      -0.277
      -1.052
      -1.764
      -2.287
      -2.563
      -2.631
      -2.599
      -2.583
      -2.647
      -2.783
      -2.931
      -3.030
      -3.036
      -2.942
      -2.769
      -2.570
      -2.420
      -2.397
      -2.540
      -2.821
      -3.140
      -3.362
      -3.384
      -3.180
      -2.799
      -2.325
      -1.840
      -1.402
      -1.056
      -0.844
      -0.797
      -0.920
      -1.181
      -1.518
      -1.858
      -2.141
      -2.334
      -2.426
      -2.413
      -2.290
      -2.042
      -1.666
      -1.173
      -0.587
       0.075
       0.815
       1.649
       2.581
       3.584
       4.598
       5.553
       6.390
       7.078
       7.599
       7.931
       8.046
       7.921
       7.569
       7.053
       6.470
       5.906
       5.402
       4.941
       4.474
       3.946
       3.330
       2.630
       1.896
       1.213
       0.679
       0.362
       0.262
       0.313
       0.418
       0.501
       0.534
       0.531
       0.516
       0.498
       0.456
       0.345
       0.114
      -0.275
      -0.820
      -1.478
      -2.174
      -2.838
      -3.446
      -4.021
      -4.602
      -5.202
      -5.777
      -6.246
      -6.534
      -6.618
      -6.539
      -6.378
      -6.212
      -6.079
      -5.963
      -5.809
      -5.549
      -5.147
      -4.620
      -4.033
      -3.478
      -3.035
      -2.751
      -2.619
      -2.587
      -2.578
      -2.527
      -2.411
      -2.255
      -2.116
      -2.034
      -1.999
      -1.944
      -1.773
      -1.408
      -0.817
      -0.024
       0.910
       1.916
       2.940
       3.957
       4.958
       5.938
       6.882
       7.760
       8.536
       9.162
       9.587
       9.766
       9.679
       9.337
       8.774
       8.035
       7.167
       6.218
       5.250
       4.334
       3.528
       2.855
       2.283
       1.742
       1.156
       0.490
      -0.228
      -0.927
      -1.538
      -2.035
      -2.443
      -2.798
      -3.115
      -3.384
      -3.596
      -3.776
      -3.975
      -4.251
      -4.638
      -5.137
      -5.733
      -6.403
      -7.109
      -7.795
      -8.389
      -8.829
      -9.065
      -9.065
      -8.797
      -8.233
      -7.364
      -6.228
      -4.915
      -3.541
      -2.202
      -0.950
       0.211
       1.295
       2.305
       3.224
       4.034
       4.740
       5.378
       5.990
       6.589
       7.136
       7.575
       7.868
       8.020
       8.064
       8.037
       7.967
       7.882
       7.809
       7.755
       7.692
       7.565
       7.319
       6.928
       6.385
       5.690
       4.840
       3.837
       2.705
       1.495
       0.287
      -0.831
      -1.791
      -2.579
      -3.253
      -3.907
      -4.604
      -5.327
      -6.001
      -6.564
      -7.025
      -7.463
      -7.965
      -8.552
      -9.156
      -9.651
      -9.925
      -9.927
      -9.692
      -9.316
      -8.900
      -8.502
      -8.115
      -7.683
      -7.138
      -6.434
      -5.565
      -4.571
      -3.529
      -2.537
      -1.676
      -0.971
      -0.371
       0.218
       0.882
       1.658
       2.527
       3.442
       4.371
       5.305
       6.257
       7.227
       8.192
       9.104
       9.909
      10.566
      11.052
      11.369
      11.535
      11.586
      11.549
      11.436
      11.234
      10.916
      10.450
       9.820
       9.035
       8.131
       7.168
       6.206
       5.279
       4.373
       3.435
       2.394
       1.204
      -0.127
      -1.534
      -2.918
      -4.188
      -5.297
      -6.248
      -7.069
      -7.786
      -8.407
      -8.933
      -9.382
      -9.788
     -10.182
     -10.561
     -10.895
     -11.142
     -11.276
     -11.285
     -11.158
     -10.877
     -10.435
      -9.858
      -9.205
      -8.546
      -7.933
      -7.377
      -6.854
      -6.318
      -5.715
      -4.996
      -4.130
      -3.118
      -1.995
      -0.810
       0.394
       1.595
       2.781
       3.924
       4.969
       5.857
       6.562
       7.121
       7.619
       8.139
       8.713
       9.308
       9.853
      10.285
      10.582
      10.748
      10.795
      10.717
      10.499
      10.125
       9.592
       8.915
       8.120
       7.240
       6.312
       5.371
       4.455
       3.589
       2.786
       2.036
       1.314
       0.595
      -0.125
      -0.824
      -1.462
      -2.011
      -2.464
      -2.833
      -3.150
      -3.464
      -3.836
      -4.321
      -4.936
      -5.633
      -6.312
      -6.872
      -7.257
      -7.480
      -7.585
      -7.596
      -7.487
      -7.198
      -6.688
      -5.977
      -5.140
      -4.271
      -3.439
      -2.663
      -1.923
      -1.188
      -0.449
       0.267
       0.907
       1.417
       1.771
       1.981
       2.093
       2.165
       2.244
       2.349
       2.456
       2.518
       2.478
       2.298
       1.985
       1.597
       1.226
       0.963
       0.857
       0.894
       1.019
       1.174
       1.327
       1.479
       1.639
       1.804
       1.948
       2.038
       2.064
       2.044
       2.015
       1.993
       1.950
       1.823
       1.553
       1.122
       0.564
      -0.051
      -0.656
      -1.214
      -1.710
      -2.143
      -2.495
      -2.735
      -2.839
      -2.814
      -2.702
      -2.569
      -2.471
      -2.440
      -2.477
      -2.548
      -2.598
      -2.570
      -2.441
      -2.247
      -2.083
      -2.052
      -2.199
      -2.468
      -2.715
      -2.780
      -2.572
      -2.119
      -1.540
      -0.988
      -0.571
      -0.322
      -0.198
      -0.111
       0.026
       0.267
       0.619
       1.057
       1.541
       2.034
       2.506
       2.923
       3.256
       3.478
       3.586
       3.590
       3.521
       3.420
       3.335
       3.310
       3.362
       3.479
       3.627
       3.773
       3.889
       3.945
       3.909
       3.756
       3.499
       3.186
       2.886
       2.651
       2.497
       2.410
       2.357
       2.300
       2.198
       2.005
       1.684
       1.216
       0.610
      -0.097
      -0.853
      -1.615
      -2.355
      -3.064
      -3.733
      -4.339
      -4.846
      -5.223
      -5.472
      -5.638
      -5.791
      -5.995
      -6.264
      -6.550
      -6.762
      -6.811
      -6.669
      -6.375
      -6.014
      -5.648
      -5.275
      -4.826
      -4.221
      -3.430
      -2.504
      -1.544
      -0.646
       0.148
       0.849
       1.481
       2.044
       2.518
       2.895
       3.206
       3.511
       3.855
       4.245
       4.644
       5.008
       5.310
       5.542
       5.702
       5.784
       5.777
       5.677
       5.497
       5.268
       5.032
       4.832
       4.686
       4.581
       4.472
       4.297
       3.995
       3.513
       2.819
       1.916
       0.861
      -0.245
      -1.288
      -2.186
      -2.906
      -3.457
      -3.858
      -4.129
      -4.289
      -4.368
      -4.410
      -4.465
      -4.554
      -4.649
      -4.678
      -4.569
      -4.295
      -3.901
      -3.475
      -3.096
      -2.801
      -2.574
      -2.367
      -2.121
      -1.801
      -1.419
      -1.044
      -0.761
      -0.616
      -0.573
      -0.538
      -0.414
      -0.160
       0.205
       0.623
       1.038
       1.408
       1.709
       1.931
       2.079
       2.177
       2.266
       2.390
       2.581
       2.840
       3.139
       3.438
       3.698
       3.887
       3.967
       3.898
       3.653
       3.250
       2.767
       2.315
       1.989
       1.822
       1.772
       1.747
       1.651
       1.421
       1.053
       0.584
       0.073
      -0.442
      -0.951
      -1.458
      -1.942
      -2.347
      -2.590
      -2.614
      -2.437
      -2.163
      -1.941
      -1.883
      -1.996
      -2.180
      -2.293
      -2.234
      -1.994
      -1.643
      -1.285
      -1.015
      -0.887
      -0.906
      -1.040
      -1.232
      -1.418
      -1.548
      -1.588
      -1.524
      -1.364
      -1.132
      -0.850
      -0.527
      -0.156
       0.261
       0.697
       1.107
       1.442
       1.668
       1.770
       1.741
       1.592
       1.353
       1.071
       0.802
       0.585
       0.437
       0.358
       0.336
       0.344
       0.345
       0.298
       0.182
       0.014
      -0.158
      -0.279
      -0.312
      -0.262
      -0.175
      -0.121
      -0.156
      -0.296
      -0.502
      -0.711
      -0.866
      -0.938
      -0.921
      -0.813
      -0.616
      -0.348
      -0.037
       0.289
       0.622
       0.959
       1.281
       1.544
       1.695
       1.704
       1.582
       1.364
       1.088
       0.770
       0.410
       0.004
      -0.436
      -0.877
      -1.271
      -1.570
      -1.751
      -1.830
      -1.861
      -1.899
      -1.968
      -2.047
      -2.088
      -2.042
      -1.884
      -1.616
      -1.263
      -0.866
      -0.464
      -0.093
       0.221
       0.468
       0.651
       0.774
       0.846
