Origin Time       11/8/2009 21:43:39  UTC
Lat.              24.4 N 
Long.             94.8 E 
Depth (Km)         22.0
Magnitude         5.6
 Region           MYANMAR-INDIA(MANIPUR)BORDER                                     
 Above details taken from IMD 
    
Station Code      tur
Station Lat.       25.511  N
Station Long.      90.220  E
Station Height(m)  372.0
Site Class        B   Vs30 between 375 m/sec to 700 m/sec *  
Record Time       11.08.2009 17:55:50.219 UTC
Sampling Rate     200. Hz
 Record Duration   74.930 Sec.
 Direction         N-S (N positive)
Max. Acceleration     25.328 cm/sec**2
     
  * For reference see Site Classification link of website 
     
 Base Line Corrected and Low Pass Filtered (Cut Off at 35 Hz) Time History
 Acceleration data in cm/sec**2
    
[...]
       0.742
       0.703
       0.688
       0.653
       0.546
       0.346
       0.078
      -0.204
      -0.453
      -0.647
      -0.782
      -0.858
      -0.880
      -0.871
      -0.859
      -0.862
      -0.865
      -0.833
      -0.737
      -0.583
      -0.407
      -0.242
      -0.099
       0.034
       0.172
       0.311
       0.413
       0.427
       0.320
       0.105
      -0.153
      -0.377
      -0.517
      -0.562
      -0.515
      -0.371
      -0.134
       0.146
       0.379
       0.486
       0.449
       0.323
       0.184
       0.077
       0.005
      -0.046
      -0.083
      -0.106
      -0.118
      -0.126
      -0.127
      -0.099
      -0.003
       0.181
       0.434
       0.691
       0.873
       0.922
       0.835
       0.653
       0.437
       0.227
       0.036
      -0.133
      -0.264
      -0.330
      -0.306
      -0.189
      -0.007
       0.193
       0.355
       0.438
       0.418
       0.288
       0.049
      -0.288
      -0.683
      -1.049
      -1.275
      -1.281
      -1.078
      -0.765
      -0.471
      -0.272
      -0.161
      -0.075
       0.041
       0.191
       0.328
       0.380
       0.308
       0.134
      -0.053
      -0.152
      -0.112
       0.038
       0.215
       0.329
       0.331
       0.216
       0.010
      -0.244
      -0.492
      -0.685
      -0.790
      -0.808
      -0.751
      -0.613
      -0.366
       0.009
       0.464
       0.886
       1.142
       1.156
       0.953
       0.652
       0.405
       0.317
       0.388
       0.524
       0.608
       0.594
       0.529
       0.502
       0.559
       0.663
       0.735
       0.723
       0.634
       0.514
       0.395
       0.271
       0.109
      -0.115
      -0.395
      -0.683
      -0.915
      -1.047
      -1.091
      -1.116
      -1.190
      -1.320
      -1.436
      -1.439
      -1.274
      -0.970
      -0.620
      -0.328
      -0.152
      -0.088
      -0.098
      -0.138
      -0.192
      -0.266
      -0.366
      -0.460
      -0.486
      -0.381
      -0.146
       0.143
       0.370
       0.451
       0.382
       0.229
       0.085
       0.022
       0.066
       0.187
       0.322
       0.413
       0.436
       0.400
       0.324
       0.212
       0.070
      -0.073
      -0.152
      -0.115
       0.046
       0.297
       0.597
       0.932
       1.300
       1.684
       2.036
       2.289
       2.387
       2.313
       2.101
       1.829
       1.571
       1.355
       1.147
       0.893
       0.560
       0.160
      -0.281
      -0.752
      -1.247
      -1.742
      -2.167
      -2.420
      -2.423
      -2.181
      -1.802
      -1.460
      -1.320
      -1.450
      -1.784
      -2.146
      -2.342
      -2.264
      -1.947
      -1.536
      -1.192
      -0.985
      -0.868
      -0.703
      -0.345
       0.287
       1.156
       2.107
       2.936
       3.486
       3.716
       3.682
       3.468
       3.116
       2.624
       2.005
       1.317
       0.656
       0.104
      -0.316
      -0.629
      -0.882
      -1.102
      -1.289
      -1.418
      -1.469
      -1.447
      -1.404
      -1.413
      -1.524
      -1.737
      -2.001
      -2.255
      -2.446
      -2.525
      -2.430
      -2.105
      -1.537
      -0.790
       0.009
       0.725
       1.272
       1.629
       1.824
       1.897
       1.876
       1.773
       1.588
       1.326
       1.005
       0.660
       0.328
       0.038
      -0.204
      -0.399
      -0.530
      -0.549
      -0.399
      -0.074
       0.351
       0.734
       0.933
       0.879
       0.617
       0.278
       0.017
      -0.055
       0.100
       0.451
       0.935
       1.484
       2.035
       2.528
       2.902
       3.102
       3.099
       2.907
       2.581
       2.196
       1.806
       1.418
       1.003
       0.536
       0.025
      -0.492
      -0.976
      -1.416
      -1.826
      -2.224
      -2.614
      -2.973
      -3.265
      -3.451
      -3.511
      -3.456
      -3.326
      -3.161
      -2.974
      -2.739
      -2.431
      -2.083
      -1.797
      -1.689
      -1.797
      -2.047
      -2.291
      -2.384
      -2.252
      -1.920
      -1.488
      -1.073
      -0.747
      -0.490
      -0.223
       0.124
       0.543
       0.956
       1.279
       1.487
       1.624
       1.762
       1.948
       2.166
       2.346
       2.396
       2.262
       1.974
       1.655
       1.472
       1.552
       1.915
       2.448
       2.937
       3.154
       2.970
       2.436
       1.777
       1.285
       1.160
       1.405
       1.834
       2.194
       2.302
       2.124
       1.747
       1.306
       0.898
       0.560
       0.293
       0.095
      -0.034
      -0.117
      -0.217
      -0.429
      -0.822
      -1.391
      -2.048
      -2.673
      -3.176
      -3.529
      -3.752
      -3.867
      -3.876
      -3.751
      -3.431
      -2.842
      -1.943
      -0.785
       0.471
       1.598
       2.408
       2.826
       2.895
       2.714
       2.375
       1.946
       1.476
       1.001
       0.542
       0.090
      -0.388
      -0.935
      -1.565
      -2.240
      -2.852
      -3.269
      -3.399
      -3.243
      -2.892
      -2.473
      -2.093
      -1.814
      -1.660
      -1.626
      -1.685
      -1.785
      -1.843
      -1.762
      -1.458
      -0.902
      -0.145
       0.684
       1.429
       1.960
       2.227
       2.276
       2.243
       2.310
       2.622
       3.192
       3.855
       4.322
       4.352
       3.910
       3.211
       2.602
       2.354
       2.512
       2.895
       3.218
       3.253
       2.925
       2.317
       1.597
       0.919
       0.351
      -0.129
      -0.593
      -1.093
      -1.629
      -2.171
      -2.692
      -3.178
      -3.606
      -3.921
      -4.050
      -3.942
      -3.606
      -3.105
      -2.525
      -1.941
      -1.391
      -0.889
      -0.450
      -0.118
       0.048
       0.027
      -0.119
      -0.256
      -0.257
      -0.091
       0.158
       0.351
       0.395
       0.289
       0.116
      -0.018
      -0.036
       0.079
       0.277
       0.462
       0.526
       0.392
       0.035
      -0.512
      -1.164
      -1.783
      -2.209
      -2.305
      -2.016
      -1.389
      -0.539
       0.404
       1.318
       2.085
       2.592
       2.789
       2.740
       2.620
       2.617
       2.805
       3.108
       3.355
       3.383
       3.122
       2.615
       1.981
       1.366
       0.880
       0.569
       0.423
       0.408
       0.473
       0.549
       0.547
       0.379
      -0.005
      -0.604
      -1.374
      -2.245
      -3.115
      -3.852
      -4.301
      -4.334
      -3.912
      -3.116
      -2.116
      -1.101
      -0.215
       0.468
       0.921
       1.127
       1.078
       0.809
       0.433
       0.124
       0.034
       0.183
       0.429
       0.547
       0.374
      -0.107
      -0.779
      -1.482
      -2.100
      -2.584
      -2.925
      -3.129
      -3.204
      -3.168
      -3.058
      -2.918
      -2.765
      -2.574
      -2.284
      -1.853
      -1.313
      -0.777
      -0.368
      -0.142
      -0.049
       0.010
       0.126
       0.354
       0.746
       1.353
       2.197
       3.217
       4.280
       5.241
       5.999
       6.521
       6.816
       6.905
       6.804
       6.524
       6.067
       5.428
       4.622
       3.705
       2.799
       2.080
       1.719
       1.800
       2.240
       2.778
       3.059
       2.808
       1.963
       0.709
      -0.631
      -1.753
      -2.491
      -2.850
      -2.964
      -3.025
      -3.194
      -3.538
      -4.018
      -4.534
      -4.992
      -5.344
      -5.580
      -5.709
      -5.768
      -5.839
      -6.030
      -6.412
      -6.956
      -7.530
      -7.974
      -8.176
      -8.109
      -7.808
      -7.335
      -6.738
      -6.025
      -5.146
      -4.016
      -2.592
      -0.949
       0.705
       2.107
       3.067
       3.552
       3.681
       3.653
       3.656
       3.825
       4.224
       4.844
       5.599
       6.330
       6.865
       7.110
       7.117
       7.080
       7.250
       7.807
       8.776
      10.032
      11.367
      12.565
      13.423
      13.753
      13.397
      12.289
      10.504
       8.259
       5.835
       3.465
       1.262
      -0.771
      -2.666
      -4.399
      -5.865
      -6.934
      -7.545
      -7.766
      -7.775
      -7.770
      -7.869
      -8.075
      -8.301
      -8.431
      -8.379
      -8.123
      -7.717
      -7.292
      -7.017
      -7.030
      -7.378
      -7.984
      -8.690
      -9.309
      -9.683
      -9.694
      -9.276
      -8.431
      -7.253
      -5.918
      -4.637
      -3.569
      -2.743
      -2.021
      -1.154
       0.096
       1.822
       3.907
       6.085
       8.064
       9.628
      10.682
      11.243
      11.410
      11.330
      11.157
      10.982
      10.810
      10.567
      10.175
       9.602
       8.886
       8.109
       7.349
       6.649
       6.007
       5.404
       4.838
       4.331
       3.904
       3.542
       3.170
       2.690
       2.035
       1.211
       0.281
      -0.702
      -1.746
      -2.917
      -4.269
      -5.800
      -7.431
      -9.045
     -10.527
     -11.798
     -12.828
     -13.622
     -14.197
     -14.553
     -14.655
     -14.434
     -13.811
     -12.742
     -11.277
      -9.569
      -7.820
      -6.183
      -4.698
      -3.310
      -1.972
      -0.732
       0.269
       0.903
       1.179
       1.277
       1.464
       1.928
       2.685
       3.600
       4.511
       5.324
       6.026
       6.631
       7.130
       7.495
       7.731
       7.917
       8.188
       8.674
       9.416
      10.336
      11.257
      11.947
      12.184
      11.820
      10.851
       9.444
       7.891
       6.484
       5.384
       4.569
       3.894
       3.214
       2.477
       1.720
       1.005
       0.366
      -0.200
      -0.689
      -1.073
      -1.318
      -1.431
      -1.500
      -1.682
      -2.144
      -2.969
      -4.107
      -5.411
      -6.723
      -7.937
      -8.984
      -9.761
     -10.120
      -9.921
      -9.139
      -7.914
      -6.523
      -5.298
      -4.523
      -4.366
      -4.851
      -5.852
      -7.126
      -8.369
      -9.291
      -9.683
      -9.453
      -8.620
      -7.271
      -5.519
      -3.491
      -1.332
       0.782
       2.658
       4.131
       5.101
       5.544
       5.516
       5.157
       4.690
       4.375
       4.433
       4.946
       5.821
       6.823
       7.670
       8.128
       8.081
       7.545
       6.643
       5.564
       4.514
       3.680
       3.197
       3.133
       3.476
       4.129
       4.925
       5.675
       6.209
       6.414
       6.212
       5.549
       4.409
       2.861
       1.081
      -0.700
      -2.279
      -3.539
      -4.431
      -4.934
      -5.044
      -4.786
      -4.218
      -3.418
      -2.470
      -1.487
      -0.615
       0.008
       0.312
       0.334
       0.195
       0.026
      -0.092
      -0.153
      -0.223
      -0.404
      -0.797
      -1.456
      -2.373
      -3.492
      -4.731
      -5.991
      -7.140
      -8.008
      -8.428
      -8.311
      -7.707
      -6.792
      -5.808
      -4.966
      -4.385
      -4.062
      -3.893
      -3.725
      -3.427
      -2.943
      -2.303
      -1.597
      -0.922
      -0.337
       0.169
       0.682
       1.329
       2.211
       3.339
       4.611
       5.850
       6.872
       7.540
       7.800
       7.696
       7.369
       7.030
       6.889
       7.052
       7.460
       7.913
       8.181
       8.124
       7.746
       7.153
       6.459
       5.705
       4.847
       3.806
       2.540
       1.080
      -0.483
      -2.051
      -3.562
      -4.987
      -6.302
      -7.467
      -8.445
      -9.230
      -9.844
     -10.285
     -10.467
     -10.243
      -9.500
      -8.266
      -6.727
      -5.141
      -3.706
      -2.490
      -1.449
      -0.522
       0.292
       0.920
       1.278
       1.360
       1.282
       1.227
       1.336
       1.621
       1.974
       2.251
       2.359
       2.293
       2.087
       1.752
       1.244
       0.515
      -0.425
      -1.464
      -2.419
      -3.114
      -3.429
      -3.329
      -2.836
      -2.002
      -0.893
       0.396
       1.727
       2.924
       3.827
       4.364
       4.596
       4.690
       4.844
       5.188
       5.733
       6.382
       6.995
       7.467
       7.768
       7.931
       8.025
       8.119
       8.264
       8.469
       8.670
       8.731
       8.494
       7.865
       6.883
       5.719
       4.603
       3.721
       3.148
       2.838
       2.661
       2.439
       1.964
       1.032
      -0.499
      -2.625
      -5.176
      -7.876
     -10.454
     -12.739
     -14.691
     -16.371
     -17.869
     -19.246
     -20.501
     -21.576
     -22.365
     -22.733
     -22.526
     -21.615
     -19.968
     -17.702
     -15.073
     -12.380
      -9.841
      -7.526
      -5.381
      -3.327
      -1.354
       0.463
       2.016
       3.251
       4.194
       4.940
       5.626
       6.428
       7.536
       9.077
      11.041
      13.267
      15.547
      17.739
      19.801
      21.723
      23.421
      24.702
      25.328
      25.118
      24.021
      22.128
      19.651
      16.884
      14.139
      11.672
       9.621
       7.987
       6.668
       5.500
       4.301
       2.921
       1.298
      -0.497
      -2.276
      -3.807
      -4.926
      -5.621
      -6.043
      -6.453
      -7.124
      -8.251
      -9.873
     -11.855
     -13.930
     -15.791
     -17.203
     -18.078
     -18.464
     -18.485
     -18.258
     -17.837
     -17.228
     -16.432
     -15.512
     -14.616
     -13.922
     -13.544
     -13.428
     -13.348
     -12.983
     -12.054
     -10.441
      -8.229
      -5.677
      -3.108
      -0.781
       1.207
       2.927
       4.545
       6.225
       8.065
      10.067
      12.138
      14.104
      15.752
      16.896
      17.446
      17.417
      16.910
      16.062
      15.036
      14.003
      13.109
      12.393
      11.747
      10.955
       9.821
       8.295
       6.506
       4.710
       3.164
       2.021
       1.285
       0.842
       0.545
       0.267
      -0.071
      -0.515
      -1.086
      -1.762
      -2.472
      -3.115
      -3.608
      -3.934
      -4.141
      -4.308
      -4.503
      -4.759
      -5.075
      -5.422
      -5.746
      -5.974
      -6.040
      -5.906
      -5.581
      -5.123
      -4.641
      -4.275
      -4.139
      -4.247
      -4.485
      -4.674
      -4.697
      -4.582
      -4.477
      -4.525
      -4.748
      -5.036
      -5.226
      -5.207
      -4.958
      -4.512
      -3.896
      -3.100
      -2.104
      -0.926
       0.352
       1.600
       2.708
       3.654
       4.534
       5.504
       6.675
       8.033
       9.449
      10.745
      11.773
      12.445
      12.713
      12.533
      11.880
      10.803
       9.474
       8.162
       7.126
       6.506
       6.276
       6.290
       6.352
       6.265
       5.837
       4.900
       3.369
       1.304
      -1.068
      -3.414
      -5.420
      -6.896
      -7.834
      -8.372
      -8.717
      -9.042
      -9.449
      -9.988
     -10.687
     -11.560
     -12.571
     -13.620
     -14.571
     -15.338
     -15.922
     -16.384
     -16.757
     -16.998
     -17.008
     -16.698
     -16.020
     -14.950
     -13.462
     -11.533
      -9.180
      -6.482
      -3.590
      -0.699
       1.993
       4.353
       6.360
       8.104
       9.723
      11.337
      13.010
      14.760
      16.572
      18.398
      20.151
      21.710
      22.959
      23.829
      24.320
      24.485
      24.379
      23.997
      23.267
      22.077
      20.348
      18.072
      15.316
      12.196
       8.859
       5.460
       2.140
      -1.005
      -3.927
      -6.606
      -9.013
     -11.088
     -12.771
     -14.056
     -15.016
     -15.773
     -16.427
     -16.992
     -17.394
     -17.524
     -17.306
     -16.716
     -15.763
     -14.453
     -12.795
     -10.843
      -8.734
      -6.663
      -4.828
      -3.362
      -2.313
      -1.654
      -1.316
      -1.228
      -1.338
      -1.608
      -2.001
      -2.476
      -2.997
      -3.549
      -4.112
      -4.640
      -5.066
      -5.332
      -5.420
      -5.343
      -5.108
      -4.692
      -4.066
      -3.232
      -2.236
      -1.138
       0.021
       1.234
       2.520
       3.907
       5.405
       6.987
       8.593
      10.151
      11.609
      12.951
      14.172
      15.255
      16.167
      16.874
      17.341
      17.506
      17.254
      16.449
      15.002
      12.945
      10.442
       7.748
       5.146
       2.899
       1.199
       0.122
      -0.414
      -0.627
      -0.796
      -1.167
      -1.889
      -3.005
      -4.464
      -6.137
      -7.828
      -9.309
     -10.384
     -10.940
     -10.983
     -10.629
     -10.060
      -9.422
      -8.740
      -7.910
      -6.799
      -5.396
      -3.879
      -2.530
      -1.586
      -1.120
      -1.045
      -1.200
      -1.456
      -1.766
      -2.143
      -2.597
      -3.094
      -3.544
      -3.835
      -3.867
      -3.583
      -2.979
      -2.107
      -1.064
       0.016
       0.991
       1.731
       2.137
       2.155
       1.795
       1.148
       0.397
      -0.215
      -0.461
      -0.228
       0.426
       1.300
       2.132
       2.710
       2.933
       2.820
       2.463
       1.962
       1.355
       0.607
      -0.334
      -1.447
      -2.580
      -3.475
      -3.865
      -3.576
      -2.607
      -1.115
       0.648
       2.428
       4.032
       5.354
       6.360
       7.051
       7.431
       7.477
       7.156
       6.447
       5.392
       4.109
       2.787
       1.621
       0.743
       0.185
      -0.096
      -0.164
      -0.060
       0.183
       0.509
       0.812
       0.959
       0.839
       0.417
      -0.251
      -1.037
      -1.794
      -2.414
      -2.873
      -3.208
      -3.466
      -3.633
      -3.634
      -3.394
      -2.917
      -2.306
      -1.710
      -1.242
      -0.932
      -0.749
      -0.640
      -0.558
      -0.474
      -0.381
      -0.287
      -0.208
      -0.156
      -0.138
      -0.162
      -0.223
      -0.289
      -0.300
      -0.211
      -0.057
       0.037
      -0.080
      -0.475
      -1.087
      -1.761
      -2.325
      -2.659
      -2.714
      -2.506
      -2.105
      -1.614
      -1.126
      -0.695
      -0.310
       0.094
       0.606
       1.281
       2.078
       2.850
       3.392
       3.544
       3.275
       2.697
       2.005
       1.388
       0.950
       0.695
       0.547
       0.412
       0.235
       0.023
      -0.171
      -0.296
      -0.343
      -0.344
      -0.351
      -0.414
      -0.583
      -0.904
      -1.386
      -1.959
      -2.468
      -2.738
      -2.672
      -2.309
      -1.795
      -1.284
