Origin Time       3/9/2009 19:51:08	 
Lat.              24.3 N	
Long.             94.6 E	
Depth (Km)        100.0
Magnitude         5.9
 Region           MYANMAR-India-Manipuir-Border                                    
 Above details taken from IMD 
   
Station Code      tur
Station Lat.       25.511
Station Long.      90.220
Station Height(m)  376.2
Site Class        A   Vs30 between 700 m/sec to 1400 m/sec * 
Record Time       03.09.2009 00:57:05.054
Sampling Rate     200. Hz
 Record Duration   71.210 Sec.
 Direction         Vert. (Up positive)
Max. Acceleration      7.183 cm/sec**2
     
  * For reference see Site Classification link of website 
     
 Base Line Corrected and Low Pass Filtered (Cut Off at 35 Hz) Time History
 Acceleration data in cm/sec**2
    
[...]
       0.000
      -0.040
      -0.075
      -0.104
      -0.128
      -0.139
      -0.132
      -0.120
      -0.126
      -0.172
      -0.257
      -0.341
      -0.363
      -0.276
      -0.094
       0.118
       0.289
       0.398
       0.461
       0.485
       0.439
       0.297
       0.093
      -0.077
      -0.121
      -0.016
       0.169
       0.321
       0.348
       0.229
       0.005
      -0.250
      -0.468
      -0.608
      -0.665
      -0.664
      -0.640
      -0.598
      -0.499
      -0.290
       0.037
       0.408
       0.686
       0.748
       0.577
       0.286
       0.044
      -0.037
       0.013
       0.077
       0.060
      -0.021
      -0.068
      -0.008
       0.143
       0.299
       0.381
       0.372
       0.311
       0.247
       0.192
       0.115
      -0.008
      -0.145
      -0.211
      -0.133
       0.079
       0.328
       0.490
       0.494
       0.346
       0.113
      -0.125
      -0.313
      -0.445
      -0.554
      -0.675
      -0.802
      -0.874
      -0.816
      -0.596
      -0.259
       0.088
       0.340
       0.451
       0.440
       0.359
       0.247
       0.115
      -0.025
      -0.157
      -0.260
      -0.325
      -0.362
      -0.384
      -0.392
      -0.364
      -0.274
      -0.127
       0.020
       0.085
       0.019
      -0.142
      -0.290
      -0.317
      -0.170
       0.122
       0.468
       0.744
       0.838
       0.708
       0.413
       0.095
      -0.102
      -0.111
       0.030
       0.222
       0.380
       0.473
       0.517
       0.527
       0.492
       0.395
       0.258
       0.140
       0.096
       0.115
       0.131
       0.071
      -0.091
      -0.326
      -0.565
      -0.721
      -0.728
      -0.574
      -0.325
      -0.092
       0.030
       0.023
      -0.041
      -0.036
       0.134
       0.470
       0.854
       1.106
       1.097
       0.829
       0.434
       0.084
      -0.112
      -0.165
      -0.160
      -0.188
      -0.286
      -0.447
      -0.656
      -0.893
      -1.112
      -1.241
      -1.224
      -1.064
      -0.824
      -0.580
      -0.375
      -0.209
      -0.048
       0.146
       0.382
       0.616
       0.769
       0.784
       0.679
       0.541
       0.459
       0.465
       0.510
       0.505
       0.389
       0.181
      -0.027
      -0.133
      -0.104
       0.004
       0.094
       0.108
       0.058
      -0.020
      -0.113
      -0.249
      -0.438
      -0.632
      -0.729
      -0.650
      -0.409
      -0.117
       0.103
       0.203
       0.235
       0.288
       0.396
       0.522
       0.596
       0.587
       0.530
       0.495
       0.525
       0.608
       0.700
       0.764
       0.786
       0.749
       0.616
       0.348
      -0.054
      -0.526
      -0.966
      -1.276
      -1.397
      -1.331
      -1.156
      -0.998
      -0.956
      -1.013
      -1.038
      -0.883
      -0.516
      -0.073
       0.234
       0.278
       0.121
      -0.021
       0.064
       0.419
       0.883
       1.207
       1.225
       0.957
       0.564
       0.223
       0.016
      -0.080
      -0.133
      -0.188
      -0.242
      -0.278
      -0.296
      -0.321
      -0.380
      -0.473
      -0.568
      -0.607
      -0.540
      -0.356
      -0.101
       0.148
       0.348
       0.525
       0.740
       0.990
       1.179
       1.178
       0.936
       0.530
       0.118
      -0.160
      -0.253
      -0.205
      -0.114
      -0.071
      -0.118
      -0.257
      -0.468
      -0.710
      -0.906
      -0.954
      -0.795
      -0.474
      -0.126
       0.109
       0.180
       0.147
       0.123
       0.182
       0.316
       0.436
       0.438
       0.273
      -0.012
      -0.282
      -0.386
      -0.245
       0.090
       0.446
       0.626
       0.532
       0.226
      -0.124
      -0.367
      -0.457
      -0.446
      -0.403
      -0.348
      -0.259
      -0.124
       0.026
       0.138
       0.187
       0.200
       0.213
       0.219
       0.162
       0.006
      -0.193
      -0.296
      -0.176
       0.156
       0.521
       0.664
       0.428
      -0.126
      -0.737
      -1.098
      -1.037
      -0.596
       0.026
       0.599
       0.952
       1.018
       0.842
       0.558
       0.324
       0.235
       0.271
       0.342
       0.368
       0.332
       0.263
       0.202
       0.163
       0.146
       0.136
       0.118
       0.068
      -0.040
      -0.217
      -0.429
      -0.598
      -0.648
      -0.556
      -0.387
      -0.246
      -0.209
      -0.266
      -0.334
      -0.320
      -0.189
       0.026
       0.258
       0.469
       0.661
       0.841
       0.986
       1.041
       0.960
       0.740
       0.416
       0.042
      -0.322
      -0.620
      -0.793
      -0.804
      -0.657
      -0.424
      -0.236
      -0.217
      -0.402
      -0.691
      -0.893
      -0.862
      -0.591
      -0.214
       0.101
       0.268
       0.338
       0.436
       0.663
       1.005
       1.328
       1.463
       1.310
       0.901
       0.375
      -0.107
      -0.459
      -0.700
      -0.906
      -1.123
      -1.310
      -1.373
      -1.257
      -1.003
      -0.732
      -0.558
      -0.518
      -0.551
      -0.545
      -0.409
      -0.139
       0.174
       0.401
       0.462
       0.377
       0.256
       0.226
       0.354
       0.606
       0.866
       1.008
       0.963
       0.746
       0.440
       0.155
      -0.012
      -0.012
       0.131
       0.323
       0.462
       0.509
       0.518
       0.583
       0.753
       0.975
       1.128
       1.102
       0.881
       0.549
       0.226
      -0.025
      -0.226
      -0.441
      -0.681
      -0.871
      -0.893
      -0.684
      -0.304
       0.095
       0.366
       0.456
       0.404
       0.261
       0.020
      -0.370
      -0.903
      -1.459
      -1.834
      -1.860
      -1.517
      -0.955
      -0.431
      -0.178
      -0.275
      -0.604
      -0.930
      -1.056
      -0.953
      -0.759
      -0.652
      -0.700
      -0.802
      -0.776
      -0.512
      -0.061
       0.413
       0.779
       1.030
       1.248
       1.485
       1.695
       1.783
       1.704
       1.511
       1.314
       1.209
       1.227
       1.328
       1.425
       1.433
       1.314
       1.098
       0.854
       0.627
       0.415
       0.179
      -0.116
      -0.463
      -0.818
      -1.121
      -1.321
      -1.389
      -1.317
      -1.115
      -0.823
      -0.507
      -0.248
      -0.105
      -0.099
      -0.194
      -0.304
      -0.311
      -0.125
       0.259
       0.722
       1.080
       1.190
       1.044
       0.753
       0.453
       0.193
      -0.088
      -0.481
      -1.000
      -1.535
      -1.925
      -2.064
      -1.971
      -1.736
      -1.432
      -1.091
      -0.742
      -0.459
      -0.336
      -0.405
      -0.580
      -0.684
      -0.558
      -0.181
       0.302
       0.667
       0.770
       0.636
       0.416
       0.265
       0.249
       0.346
       0.503
       0.673
       0.807
       0.843
       0.714
       0.400
      -0.030
      -0.417
      -0.560
      -0.328
       0.258
       0.996
       1.588
       1.787
       1.533
       0.997
       0.470
       0.180
       0.156
       0.254
       0.308
       0.281
       0.275
       0.424
       0.766
       1.208
       1.581
       1.744
       1.658
       1.398
       1.099
       0.868
       0.699
       0.474
       0.044
      -0.647
      -1.482
      -2.222
      -2.640
      -2.662
      -2.386
      -1.989
      -1.591
      -1.209
      -0.797
      -0.344
       0.082
       0.359
       0.410
       0.276
       0.101
       0.026
       0.081
       0.167
       0.155
      -0.012
      -0.284
      -0.571
      -0.823
      -1.043
      -1.260
      -1.489
      -1.713
      -1.889
      -1.950
      -1.825
      -1.462
      -0.869
      -0.141
       0.566
       1.111
       1.460
       1.702
       1.983
       2.400
       2.934
       3.454
       3.775
       3.740
       3.305
       2.566
       1.722
       0.972
       0.420
       0.047
      -0.236
      -0.508
      -0.796
      -1.071
      -1.275
      -1.352
      -1.269
      -1.033
      -0.681
      -0.247
       0.249
       0.781
       1.280
       1.612
       1.637
       1.310
       0.736
       0.128
      -0.313
      -0.498
      -0.470
      -0.369
      -0.351
      -0.528
      -0.930
      -1.509
      -2.170
      -2.817
      -3.366
      -3.741
      -3.886
      -3.777
      -3.439
      -2.945
      -2.402
      -1.939
      -1.676
      -1.684
      -1.933
      -2.281
      -2.512
      -2.423
      -1.919
      -1.048
       0.031
       1.137
       2.129
       2.928
       3.489
       3.785
       3.824
       3.684
       3.515
       3.484
       3.679
       4.022
       4.271
       4.155
       3.563
       2.669
       1.837
       1.383
       1.359
       1.540
       1.608
       1.372
       0.852
       0.197
      -0.467
      -1.111
      -1.770
      -2.434
      -3.002
      -3.324
      -3.334
      -3.136
      -2.971
      -3.054
      -3.401
      -3.799
      -3.938
      -3.621
      -2.873
      -1.897
      -0.924
      -0.105
       0.510
       0.939
       1.218
       1.390
       1.493
       1.576
       1.717
       1.995
       2.426
       2.905
       3.236
       3.257
       2.961
       2.488
       1.981
       1.457
       0.797
      -0.127
      -1.307
      -2.556
      -3.597
      -4.206
      -4.316
      -4.020
      -3.498
      -2.924
      -2.393
      -1.912
      -1.442
      -0.961
      -0.507
      -0.153
       0.063
       0.172
       0.243
       0.331
       0.464
       0.673
       1.006
       1.476
       1.990
       2.364
       2.430
       2.171
       1.765
       1.488
       1.546
       1.952
       2.548
       3.132
       3.581
       3.867
       4.003
       3.974
       3.747
       3.323
       2.786
       2.292
       1.991
       1.919
       1.936
       1.782
       1.234
       0.259
      -0.951
      -2.097
      -2.946
      -3.444
      -3.693
      -3.836
      -3.958
      -4.057
      -4.095
      -4.045
      -3.883
      -3.566
      -3.032
      -2.260
      -1.330
      -0.422
       0.265
       0.598
       0.556
       0.218
      -0.296
      -0.879
      -1.460
      -1.987
      -2.390
      -2.564
      -2.409
      -1.892
      -1.110
      -0.278
       0.347
       0.598
       0.491
       0.222
       0.053
       0.170
       0.592
       1.184
       1.740
       2.079
       2.131
       1.956
       1.707
       1.545
       1.561
       1.757
       2.078
       2.442
       2.756
       2.906
       2.774
       2.298
       1.519
       0.603
      -0.224
      -0.769
      -0.944
      -0.777
      -0.388
       0.050
       0.362
       0.437
       0.266
      -0.069
      -0.443
      -0.739
      -0.871
      -0.809
      -0.609
      -0.397
      -0.302
      -0.374
      -0.572
      -0.823
      -1.095
      -1.402
      -1.752
      -2.118
      -2.443
      -2.665
      -2.747
      -2.708
      -2.623
      -2.568
      -2.535
      -2.406
      -2.036
      -1.382
      -0.550
       0.270
       0.916
       1.323
       1.520
       1.598
       1.656
       1.751
       1.858
       1.877
       1.696
       1.280
       0.715
       0.176
      -0.178
      -0.305
      -0.300
      -0.315
      -0.449
      -0.690
      -0.945
      -1.110
      -1.116
      -0.948
      -0.625
      -0.167
       0.415
       1.100
       1.832
       2.517
       3.049
       3.351
       3.417
       3.319
       3.184
       3.137
       3.241
       3.470
       3.724
       3.885
       3.883
       3.735
       3.524
       3.313
       3.061
       2.621
       1.860
       0.803
      -0.331
      -1.242
      -1.718
      -1.741
      -1.487
      -1.244
      -1.290
      -1.758
      -2.572
      -3.478
      -4.185
      -4.523
      -4.527
      -4.376
      -4.254
      -4.220
      -4.188
      -4.015
      -3.622
      -3.043
      -2.373
      -1.698
      -1.070
      -0.544
      -0.209
      -0.153
      -0.382
      -0.784
      -1.162
      -1.334
      -1.217
      -0.854
      -0.363
       0.119
       0.460
       0.547
       0.321
      -0.161
      -0.708
      -1.073
      -1.091
      -0.779
      -0.322
       0.041
       0.157
       0.035
      -0.185
      -0.339
      -0.327
      -0.146
       0.143
       0.462
       0.740
       0.936
       1.064
       1.184
       1.354
       1.578
       1.799
       1.951
       2.016
       2.040
       2.099
       2.244
       2.449
       2.610
       2.612
       2.429
       2.161
       1.959
       1.898
       1.903
       1.806
       1.483
       0.951
       0.355
      -0.145
      -0.489
      -0.753
      -1.058
      -1.434
      -1.768
      -1.880
      -1.663
      -1.165
      -0.555
      -0.026
       0.296
       0.384
       0.304
       0.159
       0.013
      -0.152
      -0.405
      -0.783
      -1.241
      -1.681
      -2.030
      -2.302
      -2.589
      -2.988
      -3.510
      -4.049
      -4.433
      -4.519
      -4.246
      -3.628
      -2.727
      -1.631
      -0.453
       0.691
       1.718
       2.603
       3.393
       4.160
       4.959
       5.779
       6.530
       7.053
       7.183
       6.813
       5.956
       4.760
       3.457
       2.267
       1.306
       0.560
      -0.073
      -0.693
      -1.329
      -1.921
      -2.370
      -2.615
      -2.697
      -2.747
      -2.905
      -3.222
      -3.631
      -3.980
      -4.111
      -3.907
      -3.332
      -2.451
      -1.432
      -0.482
       0.240
       0.709
       1.031
       1.363
       1.808
       2.349
       2.867
       3.213
       3.292
       3.093
       2.681
       2.157
       1.628
       1.172
       0.809
       0.490
       0.123
      -0.361
      -0.966
      -1.621
      -2.214
      -2.652
      -2.901
      -2.993
      -2.987
      -2.911
      -2.754
      -2.496
      -2.172
      -1.883
      -1.739
      -1.775
      -1.908
      -1.974
      -1.820
      -1.383
      -0.723
       0.020
       0.706
       1.269
       1.722
       2.121
       2.502
       2.836
       3.041
       3.042
       2.843
       2.530
       2.228
       2.023
       1.926
       1.879
       1.792
       1.595
       1.278
       0.892
       0.505
       0.156
      -0.149
      -0.390
      -0.514
      -0.482
      -0.333
      -0.186
      -0.164
      -0.304
      -0.542
      -0.769
      -0.902
      -0.909
      -0.794
      -0.591
      -0.374
      -0.259
      -0.356
      -0.711
      -1.278
      -1.948
      -2.604
      -3.136
      -3.430
      -3.382
      -2.961
      -2.248
      -1.422
      -0.681
      -0.169
       0.064
       0.087
       0.077
       0.254
       0.752
       1.530
       2.370
       3.007
       3.257
       3.104
       2.674
       2.156
       1.699
       1.374
       1.183
       1.109
       1.141
       1.252
       1.376
       1.414
       1.287
       0.980
       0.561
       0.137
      -0.204
      -0.453
      -0.664
      -0.882
      -1.085
      -1.196
      -1.160
      -1.003
      -0.813
      -0.680
      -0.648
      -0.705
      -0.798
      -0.870
      -0.895
      -0.905
      -0.960
      -1.080
      -1.200
      -1.201
      -1.011
      -0.667
      -0.286
       0.042
       0.329
       0.657
       1.051
       1.408
       1.549
       1.380
       1.014
       0.710
       0.683
       0.955
       1.351
       1.644
       1.702
       1.526
       1.178
       0.688
       0.050
      -0.728
      -1.549
      -2.255
      -2.709
      -2.883
      -2.854
      -2.721
      -2.509
      -2.159
      -1.600
      -0.873
      -0.172
       0.232
       0.177
      -0.250
      -0.736
      -0.929
      -0.659
      -0.026
       0.703
       1.280
       1.624
       1.804
       1.937
       2.057
       2.087
       1.903
       1.440
       0.770
       0.089
      -0.367
      -0.420
      -0.020
       0.753
       1.720
       2.653
       3.323
       3.547
       3.269
       2.612
       1.847
       1.248
       0.918
       0.733
       0.466
      -0.016
      -0.634
      -1.175
      -1.473
      -1.544
      -1.560
      -1.712
      -2.059
      -2.491
      -2.828
      -2.941
      -2.830
      -2.587
      -2.324
      -2.093
      -1.872
      -1.600
      -1.232
      -0.791
      -0.365
      -0.051
       0.119
       0.218
       0.385
       0.729
       1.241
       1.779
       2.155
       2.263
       2.132
       1.880
       1.613
       1.373
       1.151
       0.937
       0.725
       0.494
       0.200
      -0.195
      -0.684
      -1.200
      -1.653
      -1.992
      -2.233
      -2.432
      -2.626
      -2.788
      -2.851
      -2.769
      -2.564
      -2.297
      -2.001
      -1.632
      -1.113
      -0.418
       0.364
       1.072
       1.585
       1.903
       2.142
       2.418
       2.766
       3.136
       3.466
       3.743
       3.983
       4.198
       4.376
       4.490
       4.492
       4.304
       3.846
       3.088
       2.084
       0.960
      -0.149
      -1.159
      -2.048
      -2.834
      -3.535
      -4.139
      -4.622
      -4.985
      -5.273
      -5.540
      -5.784
      -5.901
      -5.727
      -5.143
      -4.168
      -2.953
      -1.696
      -0.535
       0.484
       1.369
       2.112
       2.662
       2.954
       2.960
       2.737
       2.427
       2.201
       2.164
       2.281
       2.398
       2.360
       2.129
       1.799
       1.486
       1.226
       0.974
       0.689
       0.382
       0.113
      -0.060
      -0.113
      -0.070
      -0.004
      -0.018
      -0.191
      -0.522
      -0.920
      -1.253
      -1.423
      -1.402
      -1.220
      -0.918
      -0.523
      -0.052
       0.455
       0.918
       1.230
       1.304
       1.122
       0.756
       0.328
      -0.054
      -0.337
      -0.506
      -0.543
      -0.428
      -0.196
       0.020
       0.041
      -0.226
      -0.708
      -1.218
      -1.584
      -1.752
      -1.781
      -1.753
      -1.692
      -1.554
      -1.279
      -0.864
      -0.389
       0.021
       0.274
       0.372
       0.390
       0.422
       0.516
       0.649
       0.756
       0.794
       0.779
       0.771
       0.811
       0.862
       0.823
       0.606
       0.216
      -0.231
      -0.576
      -0.711
      -0.639
      -0.456
      -0.280
      -0.178
      -0.139
      -0.109
      -0.042
       0.087
       0.304
       0.648
       1.134
       1.702
       2.200
       2.458
       2.393
       2.075
       1.679
       1.362
       1.158
       0.964
       0.637
       0.112
      -0.537
      -1.139
      -1.541
      -1.719
      -1.787
      -1.909
      -2.175
      -2.539
      -2.861
      -3.012
      -2.944
      -2.684
      -2.288
      -1.812
      -1.296
      -0.781
      -0.303
       0.111
       0.460
       0.780
       1.123
       1.505
       1.866
       2.087
