Origin Time       11/8/2009 21:43:39 
Lat.              24.4 N 
Long.             94.8 E 
Depth (Km)         22.0
Magnitude         5.6
 Region           MYANMAR-INDIA(MANIPUR)BORDER                                     
 Above details taken from IMD 
     
Station Code      tur
Station Lat.       25.511  N
Station Long.      90.220  E
Station Height(m)  372.0
Site Class        B   Vs30 between 375 m/sec to 700 m/sec *  
Record Time       11.08.2009 17:55:50.219
Sampling Rate     200. Hz
 Record Duration   74.930 Sec.
 Direction         E-W (E positive)
Max. Acceleration    -24.422 cm/sec**2
     
  * For reference see Site Classification link of website 
     
 Base Line Corrected and Low Pass Filtered (Cut Off at 35 Hz) Time History
 Acceleration data in cm/sec**2
    
[...]
       0.427
       0.522
       0.684
       0.853
       0.942
       0.892
       0.700
       0.406
       0.062
      -0.279
      -0.555
      -0.695
      -0.665
      -0.496
      -0.280
      -0.126
      -0.110
      -0.250
      -0.504
      -0.781
      -0.982
      -1.040
      -0.958
      -0.800
      -0.641
      -0.530
      -0.473
      -0.452
      -0.430
      -0.361
      -0.205
       0.032
       0.283
       0.450
       0.472
       0.366
       0.207
       0.070
       0.000
       0.004
       0.067
       0.156
       0.235
       0.280
       0.300
       0.316
       0.321
       0.277
       0.156
      -0.014
      -0.154
      -0.196
      -0.134
      -0.024
       0.065
       0.095
       0.066
       0.017
       0.013
       0.115
       0.331
       0.585
       0.752
       0.739
       0.550
       0.283
       0.077
       0.039
       0.200
       0.503
       0.827
       1.032
       1.031
       0.831
       0.522
       0.223
       0.021
      -0.064
      -0.075
      -0.086
      -0.170
      -0.361
      -0.641
      -0.944
      -1.190
      -1.324
      -1.340
      -1.270
      -1.160
      -1.047
      -0.936
      -0.804
      -0.615
      -0.359
      -0.073
       0.177
       0.340
       0.413
       0.430
       0.423
       0.399
       0.360
       0.328
       0.342
       0.414
       0.507
       0.552
       0.503
       0.357
       0.143
      -0.107
      -0.360
      -0.577
      -0.718
      -0.766
      -0.741
      -0.700
      -0.713
      -0.829
      -1.056
      -1.340
      -1.582
      -1.681
      -1.593
      -1.353
      -1.037
      -0.703
      -0.357
       0.022
       0.442
       0.881
       1.296
       1.644
       1.885
       1.989
       1.954
       1.816
       1.643
       1.505
       1.444
       1.468
       1.557
       1.662
       1.713
       1.642
       1.431
       1.118
       0.772
       0.439
       0.129
      -0.164
      -0.430
      -0.655
      -0.829
      -0.942
      -0.963
      -0.843
      -0.575
      -0.232
       0.052
       0.168
       0.100
      -0.084
      -0.290
      -0.461
      -0.583
      -0.677
      -0.778
      -0.918
      -1.095
      -1.267
      -1.373
      -1.379
      -1.304
      -1.195
      -1.089
      -1.001
      -0.942
      -0.920
      -0.926
      -0.922
      -0.874
      -0.793
      -0.740
      -0.776
      -0.900
      -1.030
      -1.049
      -0.871
      -0.484
       0.047
       0.601
       1.058
       1.359
       1.528
       1.635
       1.722
       1.769
       1.725
       1.575
       1.372
       1.205
       1.136
       1.176
       1.287
       1.410
       1.469
       1.396
       1.155
       0.775
       0.340
      -0.056
      -0.357
      -0.565
      -0.720
      -0.884
      -1.117
      -1.452
      -1.858
      -2.226
      -2.409
      -2.289
      -1.829
      -1.071
      -0.117
       0.897
       1.825
       2.541
       2.989
       3.187
       3.185
       3.021
       2.709
       2.263
       1.722
       1.139
       0.572
       0.086
      -0.246
      -0.364
      -0.275
      -0.077
       0.080
       0.069
      -0.158
      -0.573
      -1.105
      -1.658
      -2.134
      -2.452
      -2.587
      -2.580
      -2.499
      -2.394
      -2.283
      -2.181
      -2.121
      -2.151
      -2.285
      -2.485
      -2.693
      -2.868
      -3.002
      -3.096
      -3.115
      -2.976
      -2.569
      -1.807
      -0.680
       0.713
       2.178
       3.490
       4.478
       5.072
       5.316
       5.319
       5.201
       5.050
       4.892
       4.693
       4.383
       3.909
       3.267
       2.495
       1.638
       0.717
      -0.264
      -1.276
      -2.244
      -3.055
      -3.590
      -3.754
      -3.498
      -2.844
      -1.884
      -0.774
       0.309
       1.195
       1.761
       1.950
       1.804
       1.461
       1.098
       0.841
       0.711
       0.638
       0.533
       0.351
       0.101
      -0.175
      -0.432
      -0.643
      -0.814
      -0.996
      -1.246
      -1.570
      -1.902
      -2.139
      -2.225
      -2.193
      -2.124
      -2.074
      -2.042
      -1.990
      -1.890
      -1.735
      -1.538
      -1.328
      -1.157
      -1.081
      -1.127
      -1.271
      -1.454
      -1.620
      -1.723
      -1.708
      -1.500
      -1.034
      -0.303
       0.626
       1.632
       2.576
       3.332
       3.805
       3.965
       3.859
       3.591
       3.269
       2.959
       2.666
       2.358
       1.992
       1.542
       1.028
       0.513
       0.074
      -0.261
      -0.544
      -0.869
      -1.295
      -1.778
      -2.194
      -2.411
      -2.366
      -2.087
      -1.663
      -1.184
      -0.697
      -0.197
       0.354
       0.968
       1.600
       2.145
       2.492
       2.583
       2.433
       2.118
       1.742
       1.404
       1.163
       1.002
       0.827
       0.522
       0.040
      -0.544
      -1.067
      -1.362
      -1.342
      -1.031
      -0.543
      -0.032
       0.360
       0.565
       0.612
       0.604
       0.643
       0.763
       0.926
       1.061
       1.103
       1.012
       0.764
       0.367
      -0.128
      -0.645
      -1.128
      -1.574
      -2.023
      -2.512
      -3.041
      -3.566
      -4.024
      -4.355
      -4.527
      -4.547
      -4.459
      -4.318
      -4.168
      -4.030
      -3.920
      -3.864
      -3.880
      -3.949
      -3.994
      -3.910
      -3.609
      -3.051
      -2.258
      -1.300
      -0.287
       0.666
       1.475
       2.124
       2.656
       3.134
       3.615
       4.151
       4.809
       5.655
       6.706
       7.892
       9.070
      10.075
      10.771
      11.079
      10.983
      10.534
       9.833
       8.987
       8.072
       7.130
       6.191
       5.275
       4.371
       3.418
       2.325
       1.048
      -0.371
      -1.831
      -3.245
      -4.587
      -5.883
      -7.154
      -8.365
      -9.409
     -10.123
     -10.350
     -10.018
      -9.195
      -8.071
      -6.871
      -5.770
      -4.873
      -4.233
      -3.878
      -3.781
      -3.846
      -3.936
      -3.941
      -3.825
      -3.611
      -3.331
      -3.004
      -2.635
      -2.229
      -1.803
      -1.384
      -1.032
      -0.837
      -0.866
      -1.093
      -1.374
      -1.506
      -1.326
      -0.776
       0.100
       1.188
       2.346
       3.439
       4.384
       5.180
       5.895
       6.597
       7.284
       7.861
       8.174
       8.077
       7.488
       6.446
       5.127
       3.814
       2.804
       2.301
       2.345
       2.817
       3.496
       4.126
       4.489
       4.468
       4.081
       3.463
       2.795
       2.209
       1.742
       1.332
       0.870
       0.260
      -0.516
      -1.381
      -2.205
      -2.903
      -3.489
      -4.055
      -4.687
      -5.380
      -6.037
      -6.514
      -6.690
      -6.517
      -6.042
      -5.401
      -4.758
      -4.221
      -3.790
      -3.387
      -2.948
      -2.487
      -2.075
      -1.783
      -1.639
      -1.634
      -1.752
      -1.969
      -2.243
      -2.531
      -2.816
      -3.110
      -3.412
      -3.654
      -3.707
      -3.452
      -2.857
      -1.988
      -0.959
       0.127
       1.219
       2.319
       3.467
       4.691
       5.960
       7.162
       8.154
       8.843
       9.238
       9.415
       9.445
       9.340
       9.059
       8.537
       7.720
       6.598
       5.236
       3.771
       2.360
       1.116
       0.064
      -0.823
      -1.579
      -2.224
      -2.766
      -3.210
      -3.559
      -3.819
      -4.017
      -4.202
      -4.422
      -4.680
      -4.945
      -5.207
      -5.532
      -6.038
      -6.800
      -7.769
      -8.761
      -9.532
      -9.852
      -9.556
      -8.589
      -7.034
      -5.100
      -3.045
      -1.057
       0.808
       2.596
       4.360
       6.095
       7.741
       9.212
      10.422
      11.281
      11.676
      11.478
      10.567
       8.883
       6.494
       3.636
       0.697
      -1.897
      -3.828
      -4.979
      -5.427
      -5.351
      -4.944
      -4.377
      -3.787
      -3.276
      -2.902
      -2.671
      -2.543
      -2.466
      -2.404
      -2.365
      -2.401
      -2.546
      -2.748
      -2.834
      -2.560
      -1.728
      -0.287
       1.646
       3.842
       6.021
       7.916
       9.322
      10.147
      10.435
      10.312
       9.900
       9.252
       8.358
       7.190
       5.747
       4.067
       2.228
       0.354
      -1.402
      -2.901
      -4.066
      -4.902
      -5.464
      -5.822
      -6.032
      -6.142
      -6.189
      -6.182
      -6.091
      -5.851
      -5.386
      -4.641
      -3.619
      -2.410
      -1.179
      -0.094
       0.770
       1.464
       2.095
       2.717
       3.265
       3.591
       3.539
       2.990
       1.884
       0.251
      -1.767
      -3.921
      -5.956
      -7.717
      -9.186
     -10.424
     -11.478
     -12.335
     -12.937
     -13.226
     -13.147
     -12.635
     -11.611
     -10.025
      -7.903
      -5.385
      -2.704
      -0.132
       2.112
       3.920
       5.301
       6.334
       7.101
       7.678
       8.163
       8.705
       9.479
      10.620
      12.159
      13.996
      15.938
      17.750
      19.228
      20.246
      20.766
      20.816
      20.430
      19.595
      18.262
      16.395
      14.025
      11.270
       8.297
       5.285
       2.400
      -0.229
      -2.509
      -4.402
      -5.923
      -7.128
      -8.116
      -9.024
     -10.017
     -11.228
     -12.703
     -14.368
     -16.073
     -17.671
     -19.059
     -20.176
     -20.974
     -21.395
     -21.371
     -20.839
     -19.743
     -18.069
     -15.881
     -13.351
     -10.722
      -8.234
      -6.055
      -4.266
      -2.889
      -1.906
      -1.252
      -0.783
      -0.281
       0.500
       1.732
       3.430
       5.419
       7.400
       9.099
      10.371
      11.222
      11.731
      11.964
      11.951
      11.717
      11.316
      10.827
      10.337
       9.915
       9.608
       9.431
       9.374
       9.422
       9.586
       9.882
      10.288
      10.694
      10.923
      10.825
      10.351
       9.561
       8.551
       7.384
       6.078
       4.633
       3.061
       1.396
      -0.329
      -2.089
      -3.867
      -5.623
      -7.278
      -8.715
      -9.820
     -10.543
     -10.925
     -11.078
     -11.117
     -11.111
     -11.090
     -11.073
     -11.068
     -11.051
     -10.950
     -10.678
     -10.187
      -9.465
      -8.506
      -7.280
      -5.765
      -3.986
      -2.044
      -0.084
       1.748
       3.328
       4.557
       5.369
       5.752
       5.754
       5.465
       4.987
       4.419
       3.860
       3.387
       3.022
       2.709
       2.333
       1.778
       0.994
       0.035
      -0.945
      -1.747
      -2.215
      -2.324
      -2.196
      -2.005
      -1.839
      -1.622
      -1.189
      -0.430
       0.616
       1.791
       2.925
       3.932
       4.819
       5.657
       6.522
       7.452
       8.404
       9.241
       9.785
       9.900
       9.550
       8.784
       7.667
       6.227
       4.461
       2.387
       0.081
      -2.324
      -4.677
      -6.849
      -8.757
     -10.350
     -11.576
     -12.359
     -12.616
     -12.320
     -11.553
     -10.498
      -9.346
      -8.201
      -7.060
      -5.854
      -4.528
      -3.086
      -1.591
      -0.149
       1.126
       2.153
       2.904
       3.398
       3.658
       3.677
       3.441
       3.005
       2.549
       2.352
       2.664
       3.578
       4.952
       6.447
       7.661
       8.263
       8.100
       7.202
       5.711
       3.794
       1.593
      -0.768
      -3.144
      -5.346
      -7.154
      -8.352
      -8.780
      -8.382
      -7.258
      -5.665
      -3.943
      -2.392
      -1.170
      -0.257
       0.485
       1.216
       2.053
       3.044
       4.185
       5.443
       6.789
       8.198
       9.630
      10.999
      12.181
      13.064
      13.606
      13.817
      13.679
      13.085
      11.870
       9.943
       7.389
       4.473
       1.535
      -1.139
      -3.404
      -5.262
      -6.816
      -8.184
      -9.429
     -10.521
     -11.362
     -11.856
     -11.987
     -11.854
     -11.632
     -11.484
     -11.484
     -11.592
     -11.689
     -11.645
     -11.357
     -10.772
      -9.869
      -8.649
      -7.140
      -5.414
      -3.599
      -1.859
      -0.368
       0.734
       1.365
       1.531
       1.337
       0.958
       0.569
       0.281
       0.118
       0.056
       0.076
       0.183
       0.376
       0.630
       0.904
       1.190
       1.530
       1.994
       2.632
       3.477
       4.554
       5.869
       7.379
       8.976
      10.534
      11.969
      13.263
      14.426
      15.443
      16.256
      16.795
      17.021
      16.932
      16.548
      15.882
      14.942
      13.751
      12.359
      10.841
       9.264
       7.656
       5.978
       4.133
       2.004
      -0.489
      -3.339
      -6.427
      -9.557
     -12.515
     -15.157
     -17.432
     -19.353
     -20.930
     -22.141
     -22.988
     -23.548
     -23.944
     -24.249
     -24.422
     -24.370
     -24.063
     -23.572
     -22.983
     -22.277
     -21.317
     -19.953
     -18.133
     -15.895
     -13.288
     -10.313
      -6.942
      -3.180
       0.911
       5.215
       9.559
      13.704
      17.362
      20.276
      22.317
      23.522
      24.055
      24.136
      23.959
      23.652
      23.261
      22.778
      22.172
      21.404
      20.433
      19.219
      17.757
      16.122
      14.458
      12.904
      11.509
      10.224
       8.958
       7.658
       6.315
       4.920
       3.419
       1.741
      -0.137
      -2.153
      -4.159
      -5.964
      -7.385
      -8.320
      -8.798
      -8.981
      -9.086
      -9.280
      -9.614
     -10.044
     -10.530
     -11.086
     -11.765
     -12.591
     -13.512
     -14.400
     -15.092
     -15.448
     -15.401
     -14.999
     -14.411
     -13.871
     -13.579
     -13.618
     -13.922
     -14.300
     -14.490
     -14.233
     -13.355
     -11.814
      -9.689
      -7.107
      -4.183
      -1.014
       2.278
       5.518
       8.525
      11.170
      13.406
      15.249
      16.749
      17.991
      19.081
      20.113
      21.116
      22.049
      22.847
      23.461
      23.859
      23.969
      23.654
      22.726
      21.012
      18.434
      15.060
      11.126
       6.985
       3.001
      -0.561
      -3.595
      -6.113
      -8.181
      -9.865
     -11.219
     -12.278
     -13.053
     -13.537
     -13.762
     -13.856
     -14.018
     -14.415
     -15.056
     -15.775
     -16.323
     -16.496
     -16.213
     -15.504
     -14.470
     -13.255
     -12.039
     -11.001
     -10.264
      -9.837
      -9.609
      -9.402
      -9.038
      -8.385
      -7.356
      -5.876
      -3.872
      -1.310
       1.739
       5.048
       8.259
      10.990
      12.978
      14.159
      14.650
      14.674
      14.479
      14.277
      14.190
      14.226
      14.300
      14.296
      14.151
      13.906
      13.669
      13.522
      13.429
      13.199
      12.558
      11.281
       9.345
       6.970
       4.535
       2.375
       0.633
      -0.756
      -1.946
      -3.032
      -3.989
      -4.721
      -5.163
      -5.371
      -5.525
      -5.855
      -6.521
      -7.512
      -8.652
      -9.712
     -10.552
     -11.178
     -11.687
     -12.152
     -12.542
     -12.748
     -12.638
     -12.123
     -11.189
      -9.919
      -8.495
      -7.157
      -6.119
      -5.480
      -5.187
      -5.088
      -4.996
      -4.753
      -4.255
      -3.469
      -2.438
      -1.267
      -0.082
       1.019
       2.000
       2.886
       3.718
       4.509
       5.208
       5.726
       5.990
       6.012
       5.890
       5.761
       5.736
       5.873
       6.185
       6.648
       7.186
       7.658
       7.914
       7.885
       7.637
       7.336
       7.139
       7.105
       7.186
       7.277
       7.281
       7.133
       6.810
       6.315
       5.652
       4.792
       3.674
       2.256
       0.576
      -1.217
      -2.911
      -4.310
      -5.298
      -5.850
      -6.027
      -5.942
      -5.736
      -5.525
      -5.381
      -5.330
      -5.379
      -5.519
      -5.717
      -5.912
      -6.040
      -6.053
      -5.910
      -5.552
      -4.912
      -3.964
      -2.748
      -1.350
       0.156
       1.726
       3.308
       4.793
       6.030
       6.890
       7.318
       7.328
       6.954
       6.227
       5.183
       3.890
       2.454
       1.007
      -0.320
      -1.428
      -2.274
      -2.882
      -3.316
      -3.639
      -3.906
      -4.190
      -4.605
      -5.267
      -6.208
      -7.326
      -8.412
      -9.259
      -9.743
      -9.816
      -9.465
      -8.678
      -7.453
      -5.837
      -3.935
      -1.909
       0.039
       1.694
       2.888
       3.566
       3.813
       3.815
       3.767
       3.803
       3.982
       4.307
       4.750
       5.265
       5.802
       6.309
       6.729
       7.006
       7.112
       7.090
       7.050
       7.118
       7.346
       7.658
       7.871
       7.772
       7.213
       6.180
       4.816
       3.382
       2.162
       1.342
       0.942
       0.830
       0.814
       0.736
       0.527
       0.190
      -0.209
      -0.568
      -0.784
      -0.819
      -0.744
      -0.708
      -0.853
      -1.225
      -1.765
      -2.353
      -2.889
      -3.328
      -3.672
      -3.931
      -4.085
      -4.085
      -3.889
      -3.530
      -3.153
      -2.978
      -3.202
      -3.907
      -5.026
      -6.375
      -7.718
      -8.833
      -9.574
      -9.903
      -9.879
      -9.592
      -9.088
      -8.335
      -7.267
      -5.870
      -4.237
      -2.555
      -1.038
       0.143
       0.921
       1.356
       1.607
       1.869
       2.280
       2.881
       3.626
       4.431
       5.209
       5.884
       6.394
       6.712
       6.852
       6.849
       6.720
       6.444
       5.987
       5.355
       4.615
       3.886
       3.300
       2.951
       2.852
       2.907
       2.950
       2.827
       2.488
       2.016
       1.561
       1.249
       1.123
       1.151
       1.251
       1.331
       1.316
       1.189
       1.003
       0.844
       0.750
       0.670
       0.505
       0.182
      -0.290
      -0.847
      -1.414
      -1.940
      -2.396
      -2.771
      -3.073
      -3.323
      -3.527
      -3.655
      -3.646
      -3.439
      -3.017
      -2.436
      -1.816
      -1.317
      -1.074
      -1.128
      -1.391
      -1.683
      -1.820
      -1.697
      -1.316
      -0.767
      -0.186
       0.272
       0.480
       0.401
       0.111
      -0.237
      -0.503
      -0.640
      -0.696
      -0.749
      -0.832
