Origin Time       29/10/2009 17:00:35 UTC
Lat.              27.3°N	
Long.             91.4°E	
Depth (Km)          5.0
Magnitude         5.2
 Region           BHUTAN                                                           
 Above details taken from IMD 
    
Station Code      SAS
Station Lat.       25.511  N
Station Long.      90.220  E
Station Height(m)  376.2
Site Class        B   Vs30 between 375 m/sec to 700 m/sec *  
Record Time       29.10.2009 17:01:26.344 UTC
Sampling Rate     200. Hz
 Record Duration   70.750 Sec.
 Direction         N-S (N positive)
Max. Acceleration    -18.039 cm/sec**2
     
  * For reference see Site Classification link of website 
     
 Base Line Corrected and Low Pass Filtered (Cut Off at 35 Hz) Time History
 Acceleration data in cm/sec**2
    
[...]
       0.200
       0.123
       0.049
      -0.016
      -0.069
      -0.107
      -0.126
      -0.121
      -0.091
      -0.037
       0.031
       0.105
       0.174
       0.230
       0.265
       0.277
       0.266
       0.231
       0.170
       0.079
      -0.040
      -0.180
      -0.330
      -0.480
      -0.626
      -0.769
      -0.905
      -1.033
      -1.151
      -1.261
      -1.361
      -1.449
      -1.518
      -1.556
      -1.554
      -1.510
      -1.429
      -1.321
      -1.196
      -1.067
      -0.947
      -0.845
      -0.761
      -0.690
      -0.624
      -0.556
      -0.484
      -0.410
      -0.333
      -0.258
      -0.184
      -0.107
      -0.022
       0.078
       0.190
       0.309
       0.423
       0.527
       0.624
       0.719
       0.820
       0.926
       1.035
       1.146
       1.260
       1.379
       1.499
       1.613
       1.713
       1.798
       1.874
       1.945
       2.007
       2.051
       2.074
       2.079
       2.078
       2.083
       2.095
       2.105
       2.100
       2.067
       2.001
       1.900
       1.767
       1.606
       1.428
       1.241
       1.055
       0.877
       0.714
       0.565
       0.431
       0.310
       0.207
       0.127
       0.072
       0.042
       0.025
       0.008
      -0.022
      -0.068
      -0.126
      -0.186
      -0.243
      -0.302
      -0.368
      -0.447
      -0.535
      -0.627
      -0.720
      -0.815
      -0.909
      -0.994
      -1.064
      -1.115
      -1.156
      -1.195
      -1.242
      -1.296
      -1.352
      -1.401
      -1.438
      -1.467
      -1.498
      -1.534
      -1.572
      -1.605
      -1.632
      -1.659
      -1.695
      -1.745
      -1.808
      -1.878
      -1.947
      -2.004
      -2.042
      -2.058
      -2.052
      -2.027
      -1.983
      -1.919
      -1.832
      -1.717
      -1.565
      -1.372
      -1.139
      -0.873
      -0.588
      -0.299
      -0.021
       0.237
       0.474
       0.694
       0.903
       1.103
       1.291
       1.464
       1.618
       1.744
       1.831
       1.864
       1.830
       1.730
       1.574
       1.378
       1.156
       0.912
       0.649
       0.371
       0.089
      -0.184
      -0.439
      -0.668
      -0.866
      -1.025
      -1.133
      -1.181
      -1.166
      -1.095
      -0.976
      -0.819
      -0.624
      -0.390
      -0.117
       0.188
       0.512
       0.846
       1.183
       1.519
       1.847
       2.154
       2.421
       2.631
       2.771
       2.834
       2.821
       2.733
       2.573
       2.347
       2.063
       1.729
       1.356
       0.956
       0.536
       0.107
      -0.324
      -0.744
      -1.139
      -1.499
      -1.819
      -2.100
      -2.347
      -2.557
      -2.724
      -2.838
      -2.896
      -2.902
      -2.863
      -2.787
      -2.674
      -2.525
      -2.338
      -2.115
      -1.857
      -1.561
      -1.221
      -0.836
      -0.415
       0.020
       0.447
       0.851
       1.224
       1.566
       1.869
       2.121
       2.309
       2.424
       2.470
       2.456
       2.392
       2.284
       2.131
       1.928
       1.674
       1.378
       1.055
       0.723
       0.397
       0.093
      -0.175
      -0.392
      -0.544
      -0.626
      -0.637
      -0.584
      -0.467
      -0.285
      -0.038
       0.267
       0.614
       0.988
       1.377
       1.782
       2.205
       2.644
       3.092
       3.535
       3.962
       4.367
       4.745
       5.088
       5.379
       5.600
       5.735
       5.771
       5.699
       5.509
       5.191
       4.739
       4.151
       3.433
       2.601
       1.676
       0.684
      -0.351
      -1.408
      -2.469
      -3.517
      -4.540
      -5.523
      -6.458
      -7.339
      -8.163
      -8.928
      -9.623
     -10.234
     -10.756
     -11.185
     -11.517
     -11.741
     -11.844
     -11.819
     -11.671
     -11.412
     -11.050
     -10.582
      -9.999
      -9.284
      -8.427
      -7.426
      -6.297
      -5.072
      -3.789
      -2.486
      -1.191
       0.075
       1.306
       2.497
       3.647
       4.743
       5.764
       6.680
       7.466
       8.108
       8.613
       8.994
       9.263
       9.420
       9.454
       9.355
       9.123
       8.774
       8.328
       7.801
       7.203
       6.546
       5.853
       5.164
       4.517
       3.941
       3.449
       3.044
       2.726
       2.497
       2.361
       2.324
       2.386
       2.539
       2.769
       3.053
       3.367
       3.685
       3.986
       4.248
       4.460
       4.618
       4.727
       4.785
       4.776
       4.672
       4.447
       4.094
       3.623
       3.053
       2.396
       1.656
       0.830
      -0.087
      -1.089
      -2.166
      -3.298
      -4.465
      -5.647
      -6.822
      -7.961
      -9.027
      -9.982
     -10.792
     -11.440
     -11.920
     -12.237
     -12.391
     -12.369
     -12.149
     -11.706
     -11.026
     -10.110
      -8.966
      -7.621
      -6.116
      -4.514
      -2.891
      -1.317
       0.161
       1.532
       2.810
       4.010
       5.126
       6.130
       6.984
       7.656
       8.127
       8.392
       8.448
       8.288
       7.901
       7.276
       6.420
       5.362
       4.141
       2.788
       1.325
      -0.223
      -1.815
      -3.390
      -4.883
      -6.250
      -7.482
      -8.588
      -9.580
     -10.455
     -11.188
     -11.738
     -12.058
     -12.102
     -11.826
     -11.195
     -10.200
      -8.878
      -7.314
      -5.618
      -3.868
      -2.087
      -0.246
       1.700
       3.769
       5.922
       8.063
      10.060
      11.799
      13.220
      14.336
      15.212
      15.929
      16.541
      17.047
      17.396
      17.521
      17.371
      16.936
      16.231
      15.287
      14.141
      12.839
      11.440
      10.003
       8.574
       7.180
       5.831
       4.533
       3.301
       2.163
       1.144
       0.254
      -0.524
      -1.225
      -1.888
      -2.543
      -3.200
      -3.855
      -4.493
      -5.100
      -5.668
      -6.195
      -6.693
      -7.175
      -7.656
      -8.140
      -8.631
      -9.130
      -9.635
     -10.142
     -10.644
     -11.124
     -11.559
     -11.919
     -12.171
     -12.295
     -12.287
     -12.163
     -11.964
     -11.735
     -11.501
     -11.256
     -10.961
     -10.565
     -10.028
      -9.328
      -8.473
      -7.491
      -6.419
      -5.295
      -4.154
      -3.017
      -1.893
      -0.771
       0.374
       1.557
       2.775
       4.004
       5.211
       6.369
       7.462
       8.473
       9.377
      10.144
      10.749
      11.194
      11.500
      11.696
      11.806
      11.829
      11.739
      11.492
      11.048
      10.387
       9.522
       8.487
       7.323
       6.066
       4.748
       3.409
       2.086
       0.816
      -0.375
      -1.472
      -2.471
      -3.379
      -4.202
      -4.936
      -5.571
      -6.087
      -6.467
      -6.695
      -6.761
      -6.663
      -6.414
      -6.041
      -5.570
      -5.013
      -4.363
      -3.607
      -2.749
      -1.815
      -0.841
       0.146
       1.126
       2.093
       3.041
       3.966
       4.860
       5.705
       6.477
       7.152
       7.707
       8.123
       8.385
       8.489
       8.438
       8.234
       7.863
       7.305
       6.534
       5.542
       4.332
       2.930
       1.380
      -0.261
      -1.924
      -3.545
      -5.076
      -6.484
      -7.754
      -8.887
      -9.894
     -10.783
     -11.547
     -12.160
     -12.587
     -12.795
     -12.761
     -12.473
     -11.930
     -11.147
     -10.165
      -9.044
      -7.844
      -6.602
      -5.332
      -4.034
      -2.720
      -1.419
      -0.170
       0.998
       2.082
       3.100
       4.081
       5.045
       5.991
       6.900
       7.741
       8.483
       9.103
       9.588
       9.937
      10.162
      10.288
      10.339
      10.328
      10.240
      10.039
       9.696
       9.208
       8.605
       7.923
       7.183
       6.385
       5.526
       4.611
       3.660
       2.703
       1.774
       0.903
       0.107
      -0.618
      -1.288
      -1.926
      -2.542
      -3.139
      -3.710
      -4.248
      -4.741
      -5.180
      -5.559
      -5.873
      -6.118
      -6.293
      -6.400
      -6.447
      -6.438
      -6.368
      -6.222
      -5.988
      -5.668
      -5.279
      -4.839
      -4.358
      -3.844
      -3.312
      -2.777
      -2.248
      -1.722
      -1.200
      -0.690
      -0.207
       0.235
       0.629
       0.961
       1.202
       1.315
       1.275
       1.082
       0.768
       0.367
      -0.098
      -0.631
      -1.243
      -1.942
      -2.719
      -3.545
      -4.366
      -5.112
      -5.714
      -6.120
      -6.313
      -6.293
      -6.063
      -5.621
      -4.974
      -4.152
      -3.210
      -2.210
      -1.190
      -0.162
       0.883
       1.953
       3.040
       4.124
       5.183
       6.199
       7.158
       8.042
       8.830
       9.502
      10.055
      10.494
      10.832
      11.071
      11.200
      11.202
      11.062
      10.785
      10.384
       9.880
       9.292
       8.643
       7.956
       7.246
       6.506
       5.724
       4.891
       4.020
       3.133
       2.243
       1.356
       0.476
      -0.388
      -1.226
      -2.031
      -2.800
      -3.534
      -4.238
      -4.923
      -5.594
      -6.245
      -6.859
      -7.414
      -7.884
      -8.254
      -8.517
      -8.687
      -8.787
      -8.840
      -8.857
      -8.846
      -8.816
      -8.783
      -8.757
      -8.731
      -8.677
      -8.570
      -8.387
      -8.118
      -7.752
      -7.280
      -6.693
      -5.997
      -5.210
      -4.352
      -3.440
      -2.488
      -1.516
      -0.559
       0.340
       1.145
       1.845
       2.449
       2.975
       3.432
       3.810
       4.089
       4.255
       4.302
       4.232
       4.047
       3.740
       3.312
       2.770
       2.140
       1.463
       0.782
       0.132
      -0.462
      -0.983
      -1.406
      -1.702
      -1.840
      -1.800
      -1.586
      -1.225
      -0.748
      -0.165
       0.532
       1.357
       2.301
       3.332
       4.411
       5.509
       6.601
       7.661
       8.659
       9.565
      10.358
      11.026
      11.559
      11.940
      12.155
      12.194
      12.067
      11.792
      11.394
      10.892
      10.294
       9.605
       8.820
       7.931
       6.933
       5.837
       4.667
       3.455
       2.230
       1.014
      -0.180
      -1.347
      -2.483
      -3.587
      -4.660
      -5.706
      -6.731
      -7.736
      -8.721
      -9.673
     -10.569
     -11.377
     -12.069
     -12.637
     -13.094
     -13.461
     -13.751
     -13.961
     -14.076
     -14.081
     -13.977
     -13.778
     -13.511
     -13.199
     -12.849
     -12.450
     -11.973
     -11.383
     -10.657
      -9.785
      -8.776
      -7.657
      -6.459
      -5.209
      -3.928
      -2.629
      -1.329
      -0.034
       1.255
       2.544
       3.828
       5.093
       6.316
       7.471
       8.523
       9.435
      10.173
      10.729
      11.126
      11.409
      11.629
      11.824
      12.007
      12.172
      12.291
      12.334
      12.273
      12.101
      11.822
      11.450
      10.990
      10.437
       9.783
       9.023
       8.159
       7.206
       6.188
       5.139
       4.091
       3.075
       2.109
       1.200
       0.345
      -0.463
      -1.224
      -1.926
      -2.555
      -3.099
      -3.550
      -3.913
      -4.200
      -4.425
      -4.598
      -4.720
      -4.792
      -4.817
      -4.799
      -4.744
      -4.653
      -4.533
      -4.399
      -4.265
      -4.149
      -4.056
      -3.984
      -3.924
      -3.878
      -3.850
      -3.845
      -3.862
      -3.895
      -3.936
      -3.980
      -4.022
      -4.054
      -4.066
      -4.043
      -3.980
      -3.879
      -3.746
      -3.581
      -3.371
      -3.109
      -2.802
      -2.476
      -2.157
      -1.861
      -1.589
      -1.335
      -1.093
      -0.866
      -0.660
      -0.480
      -0.326
      -0.190
      -0.059
       0.080
       0.234
       0.403
       0.581
       0.765
       0.955
       1.158
       1.376
       1.603
       1.823
       2.010
       2.143
       2.214
       2.231
       2.208
       2.156
       2.075
       1.966
       1.834
       1.685
       1.522
       1.348
       1.161
       0.955
       0.726
       0.472
       0.198
      -0.091
      -0.379
      -0.645
      -0.862
      -1.009
      -1.078
      -1.072
      -0.996
      -0.854
      -0.646
      -0.369
      -0.022
       0.397
       0.893
       1.473
       2.135
       2.868
       3.647
       4.449
       5.260
       6.070
       6.881
       7.687
       8.478
       9.229
       9.908
      10.484
      10.936
      11.252
      11.421
      11.430
      11.262
      10.902
      10.339
       9.571
       8.609
       7.472
       6.187
       4.783
       3.283
       1.708
       0.081
      -1.578
      -3.243
      -4.894
      -6.513
      -8.084
      -9.589
     -11.011
     -12.332
     -13.537
     -14.619
     -15.571
     -16.390
     -17.065
     -17.577
     -17.907
     -18.039
     -17.966
     -17.680
     -17.179
     -16.458
     -15.519
     -14.376
     -13.056
     -11.595
     -10.027
      -8.389
      -6.714
      -5.034
      -3.373
      -1.746
      -0.162
       1.374
       2.852
       4.249
       5.537
       6.687
       7.679
       8.500
       9.152
       9.645
       9.998
      10.233
      10.360
      10.386
      10.314
      10.145
       9.883
       9.535
       9.124
       8.682
       8.240
       7.817
       7.414
       7.029
       6.663
       6.330
       6.046
       5.818
       5.634
       5.466
       5.285
       5.067
       4.802
       4.483
       4.107
       3.675
       3.200
       2.710
       2.235
       1.800
       1.406
       1.036
       0.658
       0.243
      -0.236
      -0.791
      -1.425
      -2.130
      -2.882
      -3.643
      -4.363
      -4.997
      -5.523
      -5.954
      -6.318
      -6.645
      -6.945
      -7.212
      -7.440
      -7.628
      -7.771
      -7.854
      -7.851
      -7.734
      -7.492
      -7.125
      -6.648
      -6.073
      -5.414
      -4.678
      -3.873
      -3.012
      -2.115
      -1.202
      -0.294
       0.596
       1.457
       2.280
       3.062
       3.798
       4.486
       5.126
       5.724
       6.286
       6.804
       7.259
       7.618
       7.855
       7.959
       7.929
       7.770
       7.480
       7.057
       6.503
       5.830
       5.051
       4.190
       3.275
       2.337
       1.402
       0.487
      -0.401
      -1.251
      -2.048
      -2.775
      -3.423
      -3.991
      -4.480
      -4.891
      -5.225
      -5.484
      -5.669
      -5.779
      -5.814
      -5.784
      -5.704
      -5.590
      -5.452
      -5.288
      -5.094
      -4.860
      -4.576
      -4.228
      -3.799
      -3.273
      -2.642
      -1.917
      -1.132
      -0.333
       0.436
       1.147
       1.791
       2.371
       2.893
       3.363
       3.784
       4.160
       4.497
       4.793
       5.044
       5.243
       5.383
       5.458
       5.458
       5.383
       5.240
       5.042
       4.792
       4.479
       4.084
       3.602
       3.044
       2.437
       1.805
       1.157
       0.497
      -0.175
      -0.849
      -1.507
      -2.132
      -2.710
      -3.239
      -3.712
      -4.129
      -4.485
      -4.780
      -5.011
      -5.180
      -5.288
      -5.337
      -5.332
      -5.271
      -5.152
      -4.971
      -4.724
      -4.408
      -4.025
      -3.584
      -3.103
      -2.603
      -2.103
      -1.615
      -1.143
      -0.687
      -0.248
       0.179
       0.599
       1.015
       1.424
       1.816
       2.180
       2.515
       2.828
       3.126
       3.414
       3.688
       3.943
       4.172
       4.368
       4.528
       4.651
       4.738
       4.795
       4.823
       4.821
       4.787
       4.715
       4.599
       4.429
       4.189
       3.867
       3.462
       2.989
       2.476
       1.948
       1.425
       0.923
       0.452
       0.019
      -0.374
      -0.736
      -1.085
      -1.441
      -1.822
      -2.237
      -2.679
      -3.137
      -3.598
      -4.050
      -4.481
      -4.875
      -5.206
      -5.447
      -5.579
      -5.595
      -5.496
      -5.292
      -4.997
      -4.636
      -4.241
      -3.850
      -3.493
      -3.187
      -2.930
      -2.708
      -2.506
      -2.313
      -2.122
      -1.929
      -1.722
      -1.481
      -1.185
      -0.826
      -0.410
       0.042
       0.498
       0.923
       1.293
       1.596
       1.837
       2.027
       2.177
       2.298
       2.394
       2.473
       2.543
       2.619
       2.719
       2.860
       3.049
       3.285
       3.554
       3.838
       4.114
       4.360
       4.560
       4.701
       4.777
       4.783
       4.712
       4.555
       4.308
       3.977
       3.570
       3.102
       2.590
       2.059
       1.539
       1.058
       0.631
       0.258
      -0.078
      -0.402
      -0.732
      -1.074
      -1.425
      -1.774
      -2.111
      -2.425
      -2.701
      -2.922
      -3.073
      -3.152
      -3.168
      -3.141
      -3.089
      -3.024
      -2.956
      -2.893
      -2.832
      -2.767
      -2.680
      -2.554
      -2.377
      -2.143
      -1.857
      -1.528
      -1.164
      -0.771
      -0.353
       0.079
       0.510
       0.920
       1.298
       1.637
       1.933
       2.179
       2.366
       2.481
       2.513
       2.460
       2.328
       2.132
       1.887
       1.613
       1.324
       1.028
       0.721
       0.391
       0.032
      -0.358
      -0.773
      -1.208
      -1.654
      -2.104
      -2.543
      -2.955
      -3.328
      -3.655
      -3.927
      -4.141
      -4.287
      -4.357
      -4.344
      -4.246
      -4.065
      -3.802
      -3.459
      -3.038
      -2.548
      -2.000
      -1.408
      -0.791
      -0.168
       0.441
       1.020
       1.555
       2.039
       2.472
       2.861
       3.209
       3.515
       3.762
       3.927
       3.997
       3.969
       3.854
       3.663
       3.402
       3.077
       2.694
       2.264
       1.798
       1.306
       0.794
       0.270
      -0.249
      -0.733
      -1.148
      -1.473
      -1.706
      -1.858
      -1.948
      -1.986
      -1.976
      -1.922
      -1.832
      -1.711
      -1.556
      -1.355
      -1.100
      -0.794
      -0.448
      -0.074
       0.319
       0.729
       1.146
       1.557
       1.945
       2.296
       2.601
       2.858
       3.071
       3.244
       3.388
       3.510
       3.618
       3.708
       3.775
       3.805
       3.783
       3.697
       3.538
       3.305
       3.003
       2.641
       2.228
       1.774
       1.288
