Origin Time       29/12/2009 09:01:42 UTC
Lat.              24.5°N	
Long.             94.8°E	
Depth (Km)         80.0
Magnitude         5.5
 Region           MYANMAR-INDIA(MANIPUR)-BORDER                                    
 Above details taken from IMD 
    
Station Code      TUR
Station Lat.       25.511  N
Station Long.      90.220  E
Station Height(m)  376.2
Site Class        B   Vs30 between 375 m/sec to 700 m/sec *  
Record Time       29.12.2009 09:03:26.384 UTC
Sampling Rate     200. Hz
 Record Duration   70.640 Sec.
 Direction         N-S (N positive)
Max. Acceleration      7.777 cm/sec**2
     
  * For reference see Site Classification link of website 
     
 Base Line Corrected and Low Pass Filtered (Cut Off at 35 Hz) Time History
 Acceleration data in cm/sec**2
    
[...]
       0.153
      -0.070
      -0.152
      -0.124
      -0.025
       0.116
       0.297
       0.525
       0.786
       1.027
       1.178
       1.195
       1.088
       0.910
       0.720
       0.546
       0.385
       0.224
       0.071
      -0.035
      -0.045
       0.061
       0.245
       0.432
       0.555
       0.592
       0.559
       0.473
       0.320
       0.063
      -0.312
      -0.767
      -1.206
      -1.511
      -1.597
      -1.439
      -1.079
      -0.621
      -0.205
       0.030
       0.006
      -0.245
      -0.584
      -0.835
      -0.886
      -0.730
      -0.445
      -0.129
       0.155
       0.386
       0.565
       0.682
       0.706
       0.616
       0.431
       0.221
       0.067
       0.016
       0.060
       0.157
       0.261
       0.347
       0.405
       0.434
       0.441
       0.440
       0.439
       0.421
       0.339
       0.136
      -0.218
      -0.691
      -1.186
      -1.584
      -1.792
      -1.781
      -1.581
      -1.254
      -0.863
      -0.453
      -0.055
       0.317
       0.662
       0.985
       1.281
       1.511
       1.598
       1.449
       1.007
       0.291
      -0.604
      -1.517
      -2.268
      -2.697
      -2.712
      -2.313
      -1.592
      -0.699
       0.195
       0.934
       1.404
       1.549
       1.387
       1.011
       0.567
       0.210
       0.051
       0.124
       0.381
       0.724
       1.050
       1.282
       1.371
       1.291
       1.048
       0.682
       0.274
      -0.082
      -0.299
      -0.332
      -0.190
       0.058
       0.305
       0.441
       0.391
       0.144
      -0.250
      -0.697
      -1.092
      -1.335
      -1.360
      -1.165
      -0.815
      -0.421
      -0.086
       0.144
       0.288
       0.404
       0.550
       0.740
       0.938
       1.081
       1.124
       1.063
       0.931
       0.772
       0.608
       0.430
       0.212
      -0.073
      -0.431
      -0.830
      -1.206
      -1.478
      -1.580
      -1.480
      -1.192
      -0.777
      -0.321
       0.088
       0.386
       0.545
       0.575
       0.513
       0.414
       0.345
       0.358
       0.455
       0.561
       0.549
       0.304
      -0.203
      -0.890
      -1.594
      -2.128
      -2.360
      -2.260
      -1.909
      -1.451
      -1.040
      -0.787
      -0.745
      -0.912
      -1.232
      -1.604
      -1.890
      -1.940
      -1.637
      -0.953
       0.023
       1.104
       2.076
       2.791
       3.218
       3.426
       3.508
       3.517
       3.454
       3.306
       3.084
       2.817
       2.533
       2.233
       1.901
       1.530
       1.142
       0.799
       0.587
       0.562
       0.689
       0.826
       0.801
       0.531
       0.089
      -0.349
      -0.625
      -0.712
      -0.710
      -0.768
      -0.989
      -1.392
      -1.927
      -2.521
      -3.099
      -3.584
      -3.889
      -3.936
      -3.696
      -3.220
      -2.611
      -1.966
      -1.335
      -0.728
      -0.158
       0.328
       0.665
       0.819
       0.832
       0.814
       0.883
       1.091
       1.386
       1.646
       1.753
       1.660
       1.393
       1.020
       0.603
       0.191
      -0.179
      -0.485
      -0.732
      -0.952
      -1.178
      -1.405
      -1.579
      -1.633
      -1.552
      -1.396
      -1.266
      -1.228
      -1.266
      -1.306
      -1.264
      -1.089
      -0.757
      -0.253
       0.418
       1.199
       1.950
       2.478
       2.612
       2.277
       1.527
       0.508
      -0.582
      -1.538
      -2.179
      -2.394
      -2.176
      -1.636
      -0.953
      -0.302
       0.222
       0.624
       0.990
       1.417
       1.944
       2.525
       3.046
       3.378
       3.434
       3.203
       2.754
       2.208
       1.699
       1.321
       1.097
       0.975
       0.860
       0.680
       0.438
       0.216
       0.113
       0.177
       0.372
       0.616
       0.844
       1.044
       1.233
       1.417
       1.574
       1.685
       1.747
       1.773
       1.750
       1.625
       1.341
       0.884
       0.313
      -0.275
      -0.808
      -1.277
      -1.728
      -2.205
      -2.709
      -3.190
      -3.569
      -3.789
      -3.843
      -3.775
      -3.637
      -3.451
      -3.206
      -2.893
      -2.547
      -2.241
      -2.045
      -1.968
      -1.950
      -1.913
      -1.810
      -1.646
      -1.451
      -1.235
      -0.979
      -0.647
      -0.205
       0.365
       1.059
       1.845
       2.655
       3.395
       3.975
       4.334
       4.464
       4.394
       4.165
       3.812
       3.365
       2.860
       2.333
       1.796
       1.218
       0.547
      -0.251
      -1.144
      -2.039
      -2.816
      -3.376
      -3.678
      -3.748
      -3.662
      -3.506
      -3.341
      -3.180
      -2.997
      -2.751
      -2.421
      -2.015
      -1.564
      -1.092
      -0.609
      -0.138
       0.263
       0.524
       0.625
       0.628
       0.652
       0.797
       1.089
       1.483
       1.880
       2.161
       2.232
       2.073
       1.765
       1.460
       1.291
       1.288
       1.365
       1.382
       1.234
       0.911
       0.497
       0.122
      -0.094
      -0.072
       0.219
       0.754
       1.441
       2.121
       2.590
       2.659
       2.237
       1.386
       0.324
      -0.647
      -1.252
      -1.371
      -1.086
      -0.639
      -0.307
      -0.258
      -0.471
      -0.779
      -0.984
      -0.987
      -0.832
      -0.651
      -0.576
      -0.655
      -0.844
      -1.042
      -1.153
      -1.132
      -0.999
      -0.821
      -0.663
      -0.550
      -0.444
      -0.282
      -0.026
       0.302
       0.633
       0.904
       1.101
       1.259
       1.416
       1.567
       1.645
       1.567
       1.306
       0.927
       0.565
       0.341
       0.285
       0.330
       0.366
       0.317
       0.169
      -0.045
      -0.263
      -0.417
      -0.466
      -0.419
      -0.333
      -0.276
      -0.270
      -0.272
      -0.183
       0.091
       0.570
       1.165
       1.716
       2.071
       2.174
       2.064
       1.822
       1.500
       1.111
       0.675
       0.263
      -0.012
      -0.065
       0.077
       0.259
       0.272
      -0.043
      -0.712
      -1.629
      -2.612
      -3.477
      -4.096
      -4.414
      -4.441
      -4.213
      -3.783
      -3.214
      -2.576
      -1.929
      -1.297
      -0.675
      -0.078
       0.430
       0.734
       0.733
       0.412
      -0.113
      -0.623
      -0.891
      -0.797
      -0.384
       0.178
       0.700
       1.073
       1.298
       1.433
       1.517
       1.521
       1.365
       0.976
       0.335
      -0.506
      -1.443
      -2.358
      -3.134
      -3.658
      -3.827
      -3.581
      -2.945
      -2.043
      -1.071
      -0.228
       0.343
       0.573
       0.464
       0.085
      -0.429
      -0.897
      -1.133
      -1.004
      -0.478
       0.361
       1.345
       2.263
       2.926
       3.208
       3.079
       2.600
       1.899
       1.135
       0.466
       0.025
      -0.091
       0.166
       0.766
       1.592
       2.461
       3.177
       3.596
       3.644
       3.303
       2.616
       1.688
       0.690
      -0.178
      -0.755
      -0.973
      -0.859
      -0.499
       0.020
       0.642
       1.344
       2.106
       2.880
       3.573
       4.075
       4.298
       4.208
       3.822
       3.181
       2.347
       1.401
       0.452
      -0.368
      -0.917
      -1.079
      -0.801
      -0.141
       0.718
       1.507
       1.971
       1.963
       1.505
       0.768
      -0.033
      -0.748
      -1.340
      -1.853
      -2.336
      -2.791
      -3.172
      -3.411
      -3.458
      -3.293
      -2.943
      -2.476
      -1.990
      -1.590
      -1.370
      -1.404
      -1.737
      -2.368
      -3.241
      -4.241
      -5.204
      -5.953
      -6.340
      -6.289
      -5.813
      -4.995
      -3.964
      -2.857
      -1.799
      -0.870
      -0.107
       0.477
       0.879
       1.110
       1.196
       1.167
       1.025
       0.749
       0.359
      -0.023
      -0.175
       0.128
       0.974
       2.248
       3.658
       4.847
       5.523
       5.564
       5.046
       4.190
       3.245
       2.401
       1.751
       1.300
       0.999
       0.745
       0.405
      -0.135
      -0.903
      -1.799
      -2.623
      -3.170
      -3.328
      -3.114
      -2.625
      -1.965
      -1.200
      -0.369
       0.474
       1.236
       1.816
       2.155
       2.265
       2.211
       2.061
       1.858
       1.623
       1.395
       1.246
       1.251
       1.433
       1.732
       2.052
       2.327
       2.560
       2.793
       3.037
       3.244
       3.327
       3.200
       2.807
       2.127
       1.186
       0.080
      -1.042
      -2.028
      -2.797
      -3.368
      -3.825
      -4.240
      -4.623
      -4.933
      -5.112
      -5.135
      -5.011
      -4.762
      -4.398
      -3.922
      -3.348
      -2.723
      -2.104
      -1.533
      -0.988
      -0.391
       0.328
       1.143
       1.903
       2.418
       2.585
       2.457
       2.198
       1.975
       1.887
       1.944
       2.092
       2.245
       2.303
       2.191
       1.876
       1.377
       0.754
       0.079
      -0.581
      -1.177
      -1.676
      -2.056
      -2.286
      -2.311
      -2.055
      -1.468
      -0.582
       0.478
       1.526
       2.396
       2.998
       3.333
       3.453
       3.411
       3.237
       2.935
       2.515
       2.018
       1.531
       1.176
       1.060
       1.226
       1.615
       2.095
       2.517
       2.781
       2.852
       2.739
       2.454
       1.995
       1.355
       0.550
      -0.371
      -1.332
      -2.259
      -3.104
      -3.852
      -4.504
      -5.049
      -5.451
      -5.661
      -5.656
      -5.469
      -5.193
      -4.957
      -4.878
      -5.007
      -5.297
      -5.593
      -5.702
      -5.481
      -4.926
      -4.170
      -3.392
      -2.710
      -2.122
      -1.536
      -0.851
      -0.022
       0.921
       1.905
       2.864
       3.768
       4.608
       5.374
       6.036
       6.568
       6.971
       7.268
       7.472
       7.558
       7.461
       7.116
       6.499
       5.661
       4.713
       3.789
       3.004
       2.418
       2.032
       1.806
       1.677
       1.571
       1.409
       1.125
       0.679
       0.061
      -0.717
      -1.641
      -2.692
      -3.829
      -4.955
      -5.927
      -6.594
      -6.859
      -6.722
      -6.274
      -5.664
      -5.053
      -4.557
      -4.193
      -3.860
      -3.382
      -2.628
      -1.615
      -0.538
       0.329
       0.782
       0.813
       0.600
       0.402
       0.409
       0.669
       1.110
       1.604
       2.036
       2.337
       2.499
       2.563
       2.596
       2.650
       2.737
       2.829
       2.881
       2.862
       2.754
       2.550
       2.251
       1.871
       1.440
       1.013
       0.647
       0.373
       0.160
      -0.091
      -0.516
      -1.208
      -2.141
      -3.153
      -4.002
      -4.473
      -4.474
      -4.056
      -3.371
      -2.590
      -1.832
      -1.133
      -0.462
       0.212
       0.871
       1.432
       1.778
       1.825
       1.558
       1.046
       0.417
      -0.184
      -0.637
      -0.875
      -0.885
      -0.703
      -0.401
      -0.072
       0.200
       0.366
       0.439
       0.477
       0.557
       0.716
       0.926
       1.093
       1.126
       1.003
       0.819
       0.734
       0.877
       1.251
       1.739
       2.185
       2.497
       2.680
       2.798
       2.909
       3.015
       3.046
       2.881
       2.407
       1.595
       0.549
      -0.523
      -1.402
      -1.960
      -2.213
      -2.314
      -2.482
      -2.909
      -3.677
      -4.727
      -5.882
      -6.895
      -7.511
      -7.537
      -6.906
      -5.709
      -4.170
      -2.557
      -1.091
       0.117
       1.064
       1.826
       2.490
       3.105
       3.653
       4.060
       4.227
       4.062
       3.536
       2.715
       1.777
       0.953
       0.439
       0.334
       0.633
       1.249
       2.034
       2.791
       3.301
       3.380
       2.951
       2.091
       1.015
      -0.001
      -0.738
      -1.121
      -1.216
      -1.149
      -1.007
      -0.794
      -0.453
       0.060
       0.719
       1.413
       1.999
       2.376
       2.537
       2.555
       2.513
       2.441
       2.311
       2.070
       1.691
       1.193
       0.632
       0.068
      -0.454
      -0.917
      -1.323
      -1.662
      -1.898
      -1.971
      -1.840
      -1.529
      -1.151
      -0.867
      -0.811
      -1.018
      -1.406
      -1.827
      -2.154
      -2.337
      -2.392
      -2.364
      -2.292
      -2.203
      -2.130
      -2.120
      -2.225
      -2.480
      -2.871
      -3.311
      -3.660
      -3.775
      -3.580
      -3.093
      -2.413
      -1.675
      -1.002
      -0.486
      -0.174
      -0.070
      -0.145
      -0.351
      -0.632
      -0.907
      -1.050
      -0.903
      -0.339
       0.664
       2.005
       3.509
       4.992
       6.292
       7.263
       7.777
       7.767
       7.265
       6.416
       5.439
       4.567
       3.969
       3.684
       3.607
       3.533
       3.236
       2.563
       1.493
       0.166
      -1.159
      -2.210
      -2.841
      -3.102
      -3.192
      -3.320
      -3.594
      -3.994
      -4.429
      -4.794
      -5.006
      -5.005
      -4.775
      -4.347
      -3.782
      -3.140
      -2.464
      -1.785
      -1.136
      -0.547
      -0.020
       0.472
       0.975
       1.519
       2.090
       2.633
       3.074
       3.359
       3.482
       3.484
       3.430
       3.359
       3.254
       3.055
       2.695
       2.149
       1.441
       0.642
      -0.150
      -0.818
      -1.271
      -1.494
      -1.567
      -1.632
      -1.822
      -2.223
      -2.857
      -3.679
      -4.560
      -5.306
      -5.708
      -5.638
      -5.097
      -4.220
      -3.206
      -2.242
      -1.435
      -0.800
      -0.275
       0.231
       0.805
       1.492
       2.277
       3.070
       3.727
       4.082
       4.010
       3.479
       2.590
       1.562
       0.664
       0.106
      -0.056
       0.064
       0.259
       0.351
       0.274
       0.085
      -0.082
      -0.089
       0.153
       0.649
       1.313
       1.998
       2.550
       2.878
       3.002
       3.053
       3.188
       3.475
       3.819
       3.995
       3.773
       3.058
       1.940
       0.639
      -0.601
      -1.616
      -2.358
      -2.871
      -3.231
      -3.489
      -3.663
      -3.756
      -3.783
      -3.766
      -3.725
      -3.684
      -3.678
      -3.753
      -3.936
      -4.183
      -4.372
      -4.331
      -3.923
      -3.122
      -2.049
      -0.916
       0.085
       0.877
       1.516
       2.123
       2.803
       3.591
       4.451
       5.287
       5.971
       6.378
       6.439
       6.167
       5.649
       5.009
       4.348
       3.729
       3.179
       2.709
       2.321
       2.002
       1.698
       1.332
       0.836
       0.195
      -0.544
      -1.298
      -1.986
      -2.547
      -2.948
      -3.203
      -3.381
      -3.589
      -3.899
      -4.278
      -4.581
      -4.618
      -4.267
      -3.549
      -2.606
      -1.630
      -0.777
      -0.132
       0.280
       0.473
       0.474
       0.313
       0.026
      -0.335
      -0.703
      -1.025
      -1.290
      -1.544
      -1.863
      -2.294
      -2.812
      -3.303
      -3.603
      -3.583
      -3.224
      -2.640
      -2.024
      -1.531
      -1.212
      -1.007
      -0.817
      -0.575
      -0.278
       0.029
       0.300
       0.524
       0.729
       0.955
       1.231
       1.561
       1.936
       2.355
       2.821
       3.326
       3.825
       4.248
       4.537
       4.686
       4.739
       4.763
       4.797
       4.827
       4.789
       4.608
       4.239
       3.696
       3.037
       2.330
       1.631
       0.985
       0.434
       0.013
      -0.259
      -0.394
      -0.421
      -0.367
      -0.246
      -0.073
       0.123
       0.278
       0.312
       0.153
      -0.211
      -0.714
      -1.220
      -1.581
      -1.713
      -1.643
      -1.494
      -1.400
      -1.427
      -1.547
      -1.686
      -1.779
      -1.813
      -1.834
      -1.926
      -2.175
      -2.620
      -3.209
      -3.810
      -4.271
      -4.485
      -4.438
      -4.196
      -3.871
      -3.565
      -3.330
      -3.145
      -2.935
      -2.608
      -2.109
      -1.459
      -0.758
      -0.142
       0.281
       0.492
       0.572
       0.655
       0.852
       1.198
       1.659
       2.168
       2.676
       3.164
       3.636
       4.083
       4.461
       4.682
       4.656
       4.353
       3.834
       3.241
       2.730
       2.405
       2.278
       2.276
       2.278
       2.164
       1.849
       1.302
       0.551
      -0.305
      -1.122
      -1.752
      -2.096
      -2.151
      -2.005
      -1.792
      -1.623
      -1.562
      -1.614
      -1.750
      -1.903
      -1.986
      -1.925
      -1.696
      -1.352
      -1.004
      -0.771
      -0.720
      -0.823
      -0.957
      -0.964
      -0.744
      -0.317
       0.193
       0.629
       0.883
       0.930
       0.817
       0.628
       0.455
       0.369
       0.400
       0.533
       0.725
       0.936
       1.152
       1.382
       1.625
       1.833
       1.900
       1.693
       1.119
       0.199
      -0.913
      -1.969
      -2.725
      -3.041
      -2.935
      -2.553
      -2.093
      -1.712
      -1.473
      -1.335
      -1.184
      -0.905
      -0.460
       0.088
       0.618
       1.039
       1.359
       1.649
       1.960
       2.237
       2.344
       2.154
       1.661
       1.006
       0.407
       0.042
      -0.027
       0.149
       0.459
       0.790
       1.061
       1.226
       1.253
       1.118
       0.813
       0.367
      -0.173
      -0.750
      -1.309
      -1.768
      -2.018
      -1.975
      -1.647
      -1.144
      -0.629
      -0.236
      -0.031
      -0.011
      -0.122
      -0.281
      -0.404
      -0.446
      -0.429
      -0.427
      -0.533
      -0.818
      -1.293
      -1.892
      -2.476
      -2.880
      -2.985
      -2.760
      -2.261
      -1.591
      -0.864
      -0.191
       0.325
       0.596
       0.575
       0.298
      -0.107
      -0.453
      -0.562
      -0.343
       0.175
       0.865
       1.571
       2.172
       2.621
       2.941
       3.194
       3.443
       3.705
       3.932
       4.032
       3.922
       3.583
       3.079
       2.525
       2.026
       1.634
       1.352
       1.169
       1.087
       1.100
       1.155
       1.137
       0.915
       0.414
      -0.336
      -1.218
      -2.086
