Origin Time       29/10/2009 17:00:35
Lat.              27.3°N	
Long.             91.4°E	
Depth (Km)          5.0
Magnitude         5.2
 Region           BHUTAN                                                           
 Above details taken from IMD 
     
Station Code      SAS
Station Lat.       25.511  N
Station Long.      90.220  E
Station Height(m)  376.2
Site Class        B   Vs30 between 375 m/sec to 700 m/sec *  
Record Time       29.10.2009 17:01:26.344
Sampling Rate     200. Hz
 Record Duration   70.750 Sec.
 Direction         E-W (E positive)
Max. Acceleration     13.976 cm/sec**2
     
  * For reference see Site Classification link of website 
     
 Base Line Corrected and Low Pass Filtered (Cut Off at 35 Hz) Time History
 Acceleration data in cm/sec**2
    
[...]
       0.216
       0.262
       0.292
       0.298
       0.280
       0.240
       0.180
       0.101
       0.002
      -0.113
      -0.237
      -0.359
      -0.476
      -0.588
      -0.692
      -0.780
      -0.842
      -0.868
      -0.855
      -0.808
      -0.735
      -0.649
      -0.559
      -0.473
      -0.395
      -0.324
      -0.261
      -0.207
      -0.165
      -0.133
      -0.104
      -0.070
      -0.027
       0.023
       0.071
       0.113
       0.154
       0.200
       0.252
       0.305
       0.350
       0.380
       0.396
       0.409
       0.423
       0.436
       0.440
       0.433
       0.423
       0.419
       0.425
       0.430
       0.424
       0.403
       0.373
       0.349
       0.337
       0.335
       0.330
       0.309
       0.272
       0.225
       0.177
       0.128
       0.076
       0.021
      -0.026
      -0.056
      -0.065
      -0.059
      -0.045
      -0.026
      -0.001
       0.032
       0.074
       0.117
       0.156
       0.182
       0.192
       0.182
       0.153
       0.106
       0.047
      -0.019
      -0.086
      -0.150
      -0.213
      -0.274
      -0.336
      -0.398
      -0.462
      -0.527
      -0.588
      -0.637
      -0.673
      -0.702
      -0.736
      -0.782
      -0.830
      -0.863
      -0.860
      -0.815
      -0.736
      -0.634
      -0.518
      -0.384
      -0.231
      -0.069
       0.087
       0.223
       0.333
       0.422
       0.500
       0.574
       0.641
       0.697
       0.738
       0.769
       0.794
       0.813
       0.814
       0.788
       0.732
       0.655
       0.569
       0.480
       0.388
       0.289
       0.184
       0.082
      -0.008
      -0.078
      -0.128
      -0.161
      -0.186
      -0.204
      -0.216
      -0.222
      -0.225
      -0.228
      -0.234
      -0.240
      -0.242
      -0.239
      -0.234
      -0.234
      -0.242
      -0.253
      -0.260
      -0.251
      -0.222
      -0.180
      -0.132
      -0.089
      -0.054
      -0.024
       0.004
       0.033
       0.062
       0.086
       0.105
       0.121
       0.134
       0.144
       0.145
       0.132
       0.106
       0.075
       0.049
       0.030
       0.010
      -0.021
      -0.068
      -0.125
      -0.175
      -0.210
      -0.224
      -0.221
      -0.206
      -0.182
      -0.149
      -0.109
      -0.068
      -0.036
      -0.018
      -0.013
      -0.012
      -0.003
       0.018
       0.050
       0.085
       0.117
       0.149
       0.181
       0.210
       0.230
       0.233
       0.221
       0.201
       0.184
       0.174
       0.166
       0.152
       0.129
       0.102
       0.083
       0.076
       0.076
       0.070
       0.053
       0.029
       0.010
       0.006
       0.016
       0.031
       0.041
       0.044
       0.047
       0.055
       0.063
       0.065
       0.051
       0.024
      -0.008
      -0.035
      -0.053
      -0.069
      -0.089
      -0.119
      -0.156
      -0.199
      -0.246
      -0.304
      -0.376
      -0.460
      -0.543
      -0.611
      -0.654
      -0.670
      -0.666
      -0.647
      -0.609
      -0.545
      -0.449
      -0.320
      -0.168
      -0.007
       0.146
       0.283
       0.400
       0.499
       0.576
       0.627
       0.649
       0.647
       0.630
       0.610
       0.586
       0.554
       0.503
       0.430
       0.345
       0.257
       0.174
       0.091
       0.001
      -0.095
      -0.192
      -0.284
      -0.371
      -0.456
      -0.534
      -0.597
      -0.632
      -0.631
      -0.603
      -0.559
      -0.511
      -0.462
      -0.401
      -0.318
      -0.212
      -0.096
       0.008
       0.086
       0.140
       0.187
       0.243
       0.315
       0.391
       0.458
       0.508
       0.543
       0.569
       0.591
       0.609
       0.622
       0.631
       0.639
       0.650
       0.654
       0.642
       0.606
       0.552
       0.493
       0.436
       0.378
       0.307
       0.215
       0.103
      -0.018
      -0.131
      -0.223
      -0.291
      -0.336
      -0.366
      -0.386
      -0.400
      -0.412
      -0.423
      -0.436
      -0.450
      -0.463
      -0.474
      -0.482
      -0.486
      -0.485
      -0.473
      -0.447
      -0.406
      -0.353
      -0.296
      -0.240
      -0.191
      -0.153
      -0.129
      -0.119
      -0.123
      -0.139
      -0.164
      -0.197
      -0.236
      -0.274
      -0.305
      -0.326
      -0.341
      -0.356
      -0.372
      -0.384
      -0.382
      -0.362
      -0.324
      -0.270
      -0.200
      -0.109
       0.006
       0.140
       0.277
       0.402
       0.505
       0.589
       0.664
       0.737
       0.807
       0.864
       0.901
       0.916
       0.912
       0.895
       0.864
       0.817
       0.754
       0.680
       0.601
       0.519
       0.432
       0.332
       0.215
       0.087
      -0.036
      -0.141
      -0.219
      -0.272
      -0.309
      -0.337
      -0.359
      -0.371
      -0.375
      -0.375
      -0.377
      -0.384
      -0.394
      -0.403
      -0.415
      -0.434
      -0.463
      -0.496
      -0.528
      -0.550
      -0.563
      -0.571
      -0.581
      -0.594
      -0.608
      -0.618
      -0.618
      -0.610
      -0.597
      -0.587
      -0.580
      -0.571
      -0.546
      -0.497
      -0.421
      -0.323
      -0.209
      -0.078
       0.070
       0.234
       0.402
       0.558
       0.692
       0.806
       0.905
       0.991
       1.055
       1.084
       1.071
       1.028
       0.974
       0.928
       0.890
       0.846
       0.778
       0.678
       0.552
       0.413
       0.278
       0.156
       0.056
      -0.014
      -0.051
      -0.054
      -0.033
      -0.003
       0.020
       0.027
       0.019
       0.003
      -0.016
      -0.040
      -0.073
      -0.116
      -0.164
      -0.204
      -0.224
      -0.224
      -0.210
      -0.195
      -0.188
      -0.189
      -0.197
      -0.209
      -0.227
      -0.257
      -0.301
      -0.356
      -0.413
      -0.467
      -0.519
      -0.574
      -0.630
      -0.677
      -0.703
      -0.702
      -0.678
      -0.644
      -0.612
      -0.590
      -0.573
      -0.553
      -0.521
      -0.476
      -0.422
      -0.363
      -0.296
      -0.216
      -0.121
      -0.016
       0.084
       0.169
       0.235
       0.286
       0.320
       0.332
       0.315
       0.269
       0.202
       0.131
       0.068
       0.019
      -0.017
      -0.042
      -0.052
      -0.042
      -0.008
       0.043
       0.101
       0.153
       0.195
       0.233
       0.272
       0.316
       0.357
       0.382
       0.381
       0.358
       0.327
       0.303
       0.290
       0.283
       0.272
       0.252
       0.228
       0.208
       0.192
       0.174
       0.144
       0.100
       0.049
      -0.001
      -0.048
      -0.095
      -0.144
      -0.193
      -0.238
      -0.277
      -0.311
      -0.346
      -0.389
      -0.436
      -0.476
      -0.492
      -0.478
      -0.441
      -0.396
      -0.356
      -0.322
      -0.288
      -0.248
      -0.201
      -0.156
      -0.118
      -0.090
      -0.067
      -0.043
      -0.020
      -0.001
       0.009
       0.014
       0.028
       0.063
       0.121
       0.195
       0.273
       0.344
       0.410
       0.480
       0.558
       0.637
       0.704
       0.749
       0.776
       0.797
       0.825
       0.862
       0.902
       0.943
       0.985
       1.039
       1.108
       1.187
       1.260
       1.314
       1.344
       1.356
       1.360
       1.358
       1.344
       1.308
       1.243
       1.150
       1.032
       0.895
       0.739
       0.567
       0.381
       0.192
       0.011
      -0.155
      -0.308
      -0.450
      -0.586
      -0.710
      -0.815
      -0.899
      -0.972
      -1.047
      -1.135
      -1.236
      -1.339
      -1.431
      -1.506
      -1.569
      -1.629
      -1.691
      -1.755
      -1.813
      -1.862
      -1.901
      -1.936
      -1.969
      -1.993
      -2.000
      -1.985
      -1.953
      -1.916
      -1.882
      -1.852
      -1.822
      -1.785
      -1.738
      -1.680
      -1.605
      -1.505
      -1.374
      -1.210
      -1.021
      -0.822
      -0.624
      -0.433
      -0.243
      -0.045
       0.165
       0.389
       0.621
       0.849
       1.067
       1.274
       1.474
       1.670
       1.862
       2.048
       2.231
       2.418
       2.608
       2.795
       2.960
       3.087
       3.165
       3.193
       3.172
       3.107
       2.999
       2.852
       2.674
       2.478
       2.273
       2.061
       1.840
       1.607
       1.363
       1.120
       0.889
       0.673
       0.467
       0.261
       0.047
      -0.178
      -0.421
      -0.686
      -0.979
      -1.297
      -1.631
      -1.962
      -2.272
      -2.551
      -2.795
      -3.012
      -3.201
      -3.357
      -3.463
      -3.508
      -3.489
      -3.414
      -3.293
      -3.132
      -2.928
      -2.678
      -2.380
      -2.035
      -1.650
      -1.234
      -0.795
      -0.341
       0.117
       0.564
       0.985
       1.367
       1.708
       2.014
       2.293
       2.543
       2.751
       2.907
       3.007
       3.065
       3.091
       3.091
       3.055
       2.971
       2.831
       2.640
       2.404
       2.130
       1.821
       1.481
       1.112
       0.725
       0.330
      -0.067
      -0.466
      -0.866
      -1.259
      -1.628
      -1.954
      -2.226
      -2.442
      -2.607
      -2.719
      -2.773
      -2.762
      -2.681
      -2.532
      -2.320
      -2.045
      -1.712
      -1.321
      -0.882
      -0.407
       0.082
       0.565
       1.020
       1.436
       1.802
       2.112
       2.356
       2.525
       2.611
       2.615
       2.540
       2.390
       2.168
       1.879
       1.528
       1.125
       0.689
       0.242
      -0.197
      -0.621
      -1.029
      -1.419
      -1.777
      -2.088
      -2.338
      -2.522
      -2.644
      -2.710
      -2.720
      -2.668
      -2.547
      -2.349
      -2.075
      -1.734
      -1.341
      -0.911
      -0.458
       0.001
       0.449
       0.865
       1.232
       1.544
       1.800
       1.997
       2.133
       2.208
       2.229
       2.208
       2.152
       2.063
       1.936
       1.771
       1.573
       1.351
       1.114
       0.859
       0.582
       0.275
      -0.060
      -0.413
      -0.762
      -1.093
      -1.399
      -1.680
      -1.933
      -2.150
      -2.318
      -2.434
      -2.507
      -2.550
      -2.569
      -2.556
      -2.501
      -2.400
      -2.269
      -2.135
      -2.016
      -1.913
      -1.809
      -1.682
      -1.523
      -1.329
      -1.109
      -0.866
      -0.600
      -0.313
      -0.012
       0.291
       0.583
       0.856
       1.106
       1.332
       1.531
       1.696
       1.820
       1.905
       1.964
       2.017
       2.087
       2.189
       2.332
       2.518
       2.741
       2.991
       3.253
       3.507
       3.742
       3.952
       4.141
       4.317
       4.484
       4.636
       4.755
       4.826
       4.843
       4.815
       4.754
       4.660
       4.519
       4.309
       4.017
       3.643
       3.191
       2.668
       2.075
       1.409
       0.667
      -0.147
      -1.020
      -1.924
      -2.827
      -3.699
      -4.524
      -5.306
      -6.048
      -6.755
      -7.424
      -8.057
      -8.650
      -9.194
      -9.667
     -10.043
     -10.309
     -10.465
     -10.517
     -10.463
     -10.290
      -9.981
      -9.524
      -8.923
      -8.187
      -7.333
      -6.379
      -5.345
      -4.247
      -3.108
      -1.953
      -0.809
       0.304
       1.381
       2.427
       3.441
       4.402
       5.271
       6.008
       6.591
       7.025
       7.332
       7.533
       7.637
       7.644
       7.548
       7.349
       7.048
       6.647
       6.148
       5.566
       4.935
       4.297
       3.692
       3.134
       2.617
       2.127
       1.652
       1.193
       0.760
       0.363
       0.017
      -0.260
      -0.444
      -0.511
      -0.442
      -0.233
       0.105
       0.550
       1.078
       1.670
       2.313
       2.997
       3.697
       4.380
       5.001
       5.526
       5.933
       6.217
       6.384
       6.444
       6.417
       6.325
       6.186
       6.002
       5.758
       5.430
       4.992
       4.428
       3.746
       2.970
       2.133
       1.255
       0.342
      -0.615
      -1.628
      -2.700
      -3.807
      -4.899
      -5.899
      -6.734
      -7.372
      -7.841
      -8.215
      -8.577
      -8.982
      -9.448
      -9.956
     -10.464
     -10.915
     -11.260
     -11.463
     -11.509
     -11.409
     -11.188
     -10.879
     -10.509
     -10.089
      -9.620
      -9.095
      -8.513
      -7.887
      -7.246
      -6.614
      -5.997
      -5.371
      -4.704
      -3.975
      -3.191
      -2.377
      -1.549
      -0.714
       0.129
       0.972
       1.791
       2.556
       3.242
       3.836
       4.343
       4.789
       5.213
       5.655
       6.147
       6.698
       7.305
       7.953
       8.630
       9.322
      10.015
      10.691
      11.332
      11.930
      12.480
      12.977
      13.404
      13.734
      13.935
      13.976
      13.835
      13.499
      12.967
      12.247
      11.363
      10.348
       9.241
       8.081
       6.888
       5.669
       4.418
       3.132
       1.816
       0.476
      -0.887
      -2.269
      -3.646
      -4.969
      -6.176
      -7.215
      -8.081
      -8.815
      -9.482
     -10.133
     -10.769
     -11.348
     -11.810
     -12.106
     -12.213
     -12.129
     -11.866
     -11.445
     -10.890
     -10.231
      -9.486
      -8.666
      -7.774
      -6.822
      -5.836
      -4.848
      -3.888
      -2.976
      -2.119
      -1.316
      -0.561
       0.145
       0.802
       1.404
       1.940
       2.399
       2.772
       3.054
       3.240
       3.323
       3.301
       3.177
       2.963
       2.666
       2.291
       1.843
       1.340
       0.819
       0.331
      -0.082
      -0.403
      -0.641
      -0.819
      -0.954
      -1.049
      -1.094
      -1.072
      -0.975
      -0.807
      -0.580
      -0.303
       0.022
       0.394
       0.810
       1.255
       1.709
       2.143
       2.536
       2.875
       3.148
       3.343
       3.452
       3.479
       3.447
       3.379
       3.284
       3.164
       3.018
       2.855
       2.696
       2.549
       2.411
       2.270
       2.118
       1.959
       1.797
       1.626
       1.424
       1.173
       0.867
       0.521
       0.159
      -0.193
      -0.518
      -0.816
      -1.100
      -1.386
      -1.676
      -1.953
      -2.188
      -2.354
      -2.447
      -2.474
      -2.444
      -2.360
      -2.222
      -2.044
      -1.850
      -1.659
      -1.472
      -1.277
      -1.063
      -0.831
      -0.594
      -0.367
      -0.161
       0.019
       0.165
       0.264
       0.298
       0.257
       0.139
      -0.040
      -0.257
      -0.485
      -0.705
      -0.907
      -1.084
      -1.226
      -1.313
      -1.322
      -1.246
      -1.094
      -0.887
      -0.643
      -0.362
      -0.027
       0.385
       0.880
       1.445
       2.048
       2.656
       3.245
       3.794
       4.277
       4.669
       4.944
       5.093
       5.121
       5.031
       4.819
       4.476
       4.006
       3.432
       2.793
       2.131
       1.480
       0.865
       0.308
      -0.182
      -0.605
      -0.978
      -1.324
      -1.657
      -1.981
      -2.282
      -2.544
      -2.750
      -2.895
      -2.985
      -3.036
      -3.068
      -3.097
      -3.127
      -3.155
      -3.179
      -3.198
      -3.223
      -3.262
      -3.321
      -3.402
      -3.503
      -3.622
      -3.756
      -3.898
      -4.033
      -4.145
      -4.214
      -4.226
      -4.180
      -4.086
      -3.964
      -3.833
      -3.710
      -3.605
      -3.523
      -3.458
      -3.401
      -3.341
      -3.266
      -3.167
      -3.033
      -2.853
      -2.610
      -2.290
      -1.887
      -1.397
      -0.815
      -0.135
       0.644
       1.506
       2.423
       3.357
       4.276
       5.156
       5.986
       6.764
       7.490
       8.157
       8.752
       9.265
       9.696
      10.055
      10.346
      10.552
      10.641
      10.580
      10.350
       9.953
       9.405
       8.725
       7.923
       7.008
       5.999
       4.925
       3.832
       2.763
       1.746
       0.794
      -0.087
      -0.888
      -1.586
      -2.154
      -2.571
      -2.845
      -3.006
      -3.099
      -3.166
      -3.223
      -3.266
      -3.284
      -3.275
      -3.253
      -3.236
      -3.239
      -3.272
      -3.348
      -3.481
      -3.682
      -3.955
      -4.295
      -4.695
      -5.149
      -5.651
      -6.187
      -6.726
      -7.237
      -7.694
      -8.085
      -8.407
      -8.657
      -8.836
      -8.942
      -8.969
      -8.906
      -8.744
      -8.480
      -8.119
      -7.678
      -7.172
      -6.611
      -5.991
      -5.295
      -4.512
      -3.643
      -2.708
      -1.744
      -0.779
       0.173
       1.114
       2.063
       3.039
       4.055
       5.113
       6.195
       7.274
       8.318
       9.304
      10.213
      11.031
      11.745
      12.346
      12.831
      13.205
      13.473
      13.625
      13.631
      13.452
      13.066
      12.473
      11.705
      10.801
       9.793
       8.697
       7.520
       6.264
       4.938
       3.562
       2.159
       0.756
      -0.624
      -1.956
      -3.205
      -4.339
      -5.333
      -6.181
      -6.903
      -7.527
      -8.075
      -8.550
      -8.943
      -9.239
      -9.434
      -9.527
      -9.517
      -9.399
      -9.179
      -8.871
      -8.497
      -8.079
      -7.637
      -7.183
      -6.721
      -6.254
      -5.780
      -5.295
      -4.787
      -4.239
      -3.640
      -2.991
      -2.305
      -1.598
      -0.878
      -0.141
       0.616
       1.385
       2.145
       2.867
       3.524
       4.098
       4.576
       4.952
       5.227
       5.406
       5.493
       5.490
       5.402
       5.238
       5.007
       4.714
       4.361
       3.952
       3.501
       3.027
       2.548
       2.072
       1.599
       1.131
       0.673
       0.235
      -0.178
      -0.563
      -0.920
      -1.243
      -1.518
      -1.732
      -1.875
      -1.941
      -1.931
      -1.851
      -1.711
      -1.518
      -1.281
      -1.015
      -0.743
      -0.489
      -0.278
      -0.123
      -0.029
       0.006
      -0.011
      -0.070
      -0.152
      -0.235
      -0.294
      -0.317
      -0.307
      -0.276
      -0.239
      -0.205
      -0.179
      -0.170
      -0.193
      -0.262
      -0.372
      -0.508
      -0.648
      -0.773
      -0.874
      -0.943
      -0.980
      -0.990
      -0.982
      -0.960
      -0.923
      -0.858
      -0.752
      -0.586
      -0.342
