Origin Time       15/2/2009 07:35:55 
Lat.              26.0 N 
Long.             90.2 E 
Depth (Km)         39.3
Magnitude         4.4
 Region           Assam-Meghalaya-Border                                           
 Above details taken from IMD 
     
Station Code      tur
Station Lat.       25.511  N
Station Long.      90.220  E
Station Height(m)  376.2
Site Class        B   Vs30 between 375 m/sec to 700 m/sec *  
Record Time       15.02.2009 19:36:00.899
Sampling Rate     200. Hz
 Record Duration   68.430 Sec.
 Direction         E-W (E positive)
Max. Acceleration     10.838 cm/sec**2
     
  * For reference see Site Classification link of website 
     
 Base Line Corrected and Low Pass Filtered (Cut Off at 35 Hz) Time History
 Acceleration data in cm/sec**2
    
[...]
       1.582
       1.325
       1.134
       0.985
       0.828
       0.621
       0.369
       0.109
      -0.114
      -0.284
      -0.418
      -0.553
      -0.721
      -0.932
      -1.171
      -1.404
      -1.589
      -1.697
      -1.715
      -1.648
      -1.512
      -1.325
      -1.110
      -0.892
      -0.698
      -0.541
      -0.417
      -0.299
      -0.153
       0.044
       0.278
       0.506
       0.681
       0.779
       0.812
       0.806
       0.777
       0.720
       0.628
       0.509
       0.384
       0.273
       0.175
       0.073
      -0.038
      -0.131
      -0.155
      -0.078
       0.081
       0.246
       0.320
       0.233
      -0.023
      -0.393
      -0.785
      -1.092
      -1.222
      -1.128
      -0.841
      -0.469
      -0.163
      -0.033
      -0.082
      -0.206
      -0.265
      -0.181
       0.016
       0.217
       0.317
       0.278
       0.141
      -0.014
      -0.112
      -0.111
      -0.004
       0.183
       0.397
       0.565
       0.632
       0.589
       0.484
       0.393
       0.378
       0.454
       0.587
       0.731
       0.859
       0.965
       1.043
       1.069
       1.003
       0.816
       0.526
       0.188
      -0.126
      -0.371
      -0.535
      -0.632
      -0.678
      -0.680
      -0.642
      -0.572
      -0.479
      -0.373
      -0.269
      -0.201
      -0.223
      -0.367
      -0.604
      -0.834
      -0.940
      -0.865
      -0.653
      -0.411
      -0.241
      -0.167
      -0.127
      -0.014
       0.237
       0.592
       0.916
       1.047
       0.894
       0.495
      -0.001
      -0.413
      -0.622
      -0.614
      -0.468
      -0.292
      -0.175
      -0.151
      -0.202
      -0.272
      -0.292
      -0.208
      -0.017
       0.229
       0.434
       0.508
       0.399
       0.117
      -0.275
      -0.669
      -0.937
      -0.975
      -0.747
      -0.317
       0.173
       0.570
       0.785
       0.834
       0.816
       0.841
       0.952
       1.102
       1.180
       1.086
       0.791
       0.367
      -0.043
      -0.295
      -0.314
      -0.131
       0.131
       0.316
       0.310
       0.092
      -0.260
      -0.608
      -0.811
      -0.784
      -0.542
      -0.194
       0.107
       0.241
       0.176
      -0.026
      -0.263
      -0.459
      -0.597
      -0.699
      -0.783
      -0.832
      -0.807
      -0.679
      -0.455
      -0.167
       0.150
       0.462
       0.727
       0.890
       0.905
       0.773
       0.556
       0.342
       0.198
       0.134
       0.115
       0.095
       0.047
      -0.039
      -0.168
      -0.339
      -0.542
      -0.737
      -0.859
      -0.844
      -0.670
      -0.373
      -0.045
       0.206
       0.307
       0.257
       0.124
       0.010
      -0.006
       0.094
       0.270
       0.449
       0.566
       0.591
       0.538
       0.448
       0.358
       0.285
       0.215
       0.127
       0.011
      -0.119
      -0.228
      -0.279
      -0.255
      -0.175
      -0.099
      -0.110
      -0.260
      -0.528
      -0.816
      -1.000
      -1.002
      -0.828
      -0.550
      -0.253
       0.010
       0.232
       0.430
       0.609
       0.751
       0.830
       0.832
       0.768
       0.653
       0.494
       0.295
       0.079
      -0.101
      -0.189
      -0.172
      -0.096
      -0.040
      -0.060
      -0.156
      -0.278
      -0.364
      -0.375
      -0.307
      -0.179
      -0.015
       0.161
       0.324
       0.449
       0.512
       0.498
       0.412
       0.276
       0.126
      -0.005
      -0.096
      -0.148
      -0.168
      -0.172
      -0.170
      -0.159
      -0.123
      -0.031
       0.135
       0.352
       0.542
       0.611
       0.504
       0.250
      -0.042
      -0.250
      -0.303
      -0.221
      -0.095
      -0.028
      -0.068
      -0.193
      -0.328
      -0.411
      -0.427
      -0.415
      -0.425
      -0.481
      -0.567
      -0.640
      -0.665
      -0.635
      -0.568
      -0.479
      -0.368
      -0.221
      -0.031
       0.193
       0.421
       0.614
       0.745
       0.795
       0.767
       0.686
       0.588
       0.504
       0.434
       0.351
       0.226
       0.060
      -0.109
      -0.233
      -0.284
      -0.261
      -0.178
      -0.056
       0.080
       0.191
       0.232
       0.167
      -0.008
      -0.254
      -0.508
      -0.707
      -0.814
      -0.822
      -0.751
      -0.632
      -0.490
      -0.332
      -0.155
       0.045
       0.251
       0.423
       0.512
       0.486
       0.360
       0.199
       0.094
       0.116
       0.280
       0.537
       0.811
       1.037
       1.171
       1.180
       1.037
       0.745
       0.366
       0.012
      -0.212
      -0.277
      -0.244
      -0.211
      -0.238
      -0.306
      -0.344
      -0.291
      -0.150
       0.016
       0.129
       0.146
       0.075
      -0.048
      -0.191
      -0.343
      -0.501
      -0.646
      -0.736
      -0.714
      -0.549
      -0.263
       0.067
       0.342
       0.493
       0.511
       0.436
       0.317
       0.175
      -0.006
      -0.245
      -0.529
      -0.793
      -0.944
      -0.907
      -0.681
      -0.348
      -0.032
       0.161
       0.195
       0.112
      -0.003
      -0.061
      -0.022
       0.088
       0.183
       0.169
       0.007
      -0.244
      -0.449
      -0.475
      -0.283
       0.046
       0.354
       0.508
       0.478
       0.344
       0.238
       0.256
       0.406
       0.628
       0.838
       0.973
       1.007
       0.935
       0.765
       0.523
       0.261
       0.043
      -0.088
      -0.144
      -0.186
      -0.277
      -0.431
      -0.605
      -0.743
      -0.826
      -0.880
      -0.933
      -0.970
      -0.929
      -0.753
      -0.443
      -0.075
       0.237
       0.397
       0.380
       0.230
       0.034
      -0.144
      -0.280
      -0.380
      -0.449
      -0.464
      -0.387
      -0.190
       0.120
       0.494
       0.848
       1.091
       1.174
       1.116
       0.992
       0.877
       0.801
       0.732
       0.610
       0.391
       0.079
      -0.264
      -0.536
      -0.635
      -0.516
      -0.223
       0.119
       0.360
       0.403
       0.253
       0.004
      -0.217
      -0.338
      -0.375
      -0.404
      -0.492
      -0.650
      -0.828
      -0.950
      -0.959
      -0.848
      -0.659
      -0.453
      -0.273
      -0.129
      -0.015
       0.057
       0.063
      -0.010
      -0.138
      -0.259
      -0.312
      -0.271
      -0.155
      -0.014
       0.113
       0.216
       0.313
       0.432
       0.583
       0.756
       0.932
       1.091
       1.205
       1.238
       1.155
       0.948
       0.659
       0.360
       0.111
      -0.071
      -0.214
      -0.351
      -0.474
      -0.537
      -0.498
      -0.371
      -0.236
      -0.189
      -0.282
      -0.485
      -0.713
      -0.882
      -0.948
      -0.916
      -0.820
      -0.700
      -0.593
      -0.526
      -0.513
      -0.541
      -0.565
      -0.525
      -0.369
      -0.086
       0.273
       0.611
       0.823
       0.853
       0.730
       0.560
       0.476
       0.553
       0.757
       0.959
       1.030
       0.930
       0.729
       0.547
       0.464
       0.476
       0.520
       0.535
       0.487
       0.366
       0.178
      -0.059
      -0.309
      -0.518
      -0.637
      -0.644
      -0.551
      -0.403
      -0.251
      -0.129
      -0.064
      -0.083
      -0.206
      -0.426
      -0.678
      -0.863
      -0.901
      -0.790
      -0.602
      -0.432
      -0.329
      -0.274
      -0.208
      -0.087
       0.087
       0.259
       0.362
       0.354
       0.254
       0.138
       0.102
       0.208
       0.449
       0.745
       0.983
       1.065
       0.947
       0.668
       0.333
       0.073
      -0.024
       0.038
       0.161
       0.217
       0.130
      -0.083
      -0.329
      -0.499
      -0.533
      -0.442
      -0.298
      -0.191
      -0.191
      -0.322
      -0.558
      -0.838
      -1.083
      -1.217
      -1.203
      -1.061
      -0.859
      -0.674
      -0.532
      -0.396
      -0.206
       0.059
       0.343
       0.546
       0.598
       0.513
       0.376
       0.290
       0.311
       0.433
       0.600
       0.741
       0.800
       0.764
       0.671
       0.598
       0.616
       0.741
       0.911
       1.005
       0.916
       0.614
       0.179
      -0.244
      -0.523
      -0.595
      -0.477
      -0.230
       0.079
       0.393
       0.662
       0.834
       0.862
       0.714
       0.399
      -0.029
      -0.470
      -0.814
      -0.975
      -0.932
      -0.735
      -0.494
      -0.330
      -0.326
      -0.477
      -0.687
      -0.818
      -0.767
      -0.530
      -0.205
       0.067
       0.185
       0.145
       0.038
      -0.008
       0.103
       0.374
       0.707
       0.950
       0.978
       0.757
       0.366
      -0.043
      -0.313
      -0.358
      -0.195
       0.069
       0.300
       0.394
       0.313
       0.082
      -0.216
      -0.470
      -0.578
      -0.511
      -0.341
      -0.204
      -0.212
      -0.375
      -0.599
      -0.755
      -0.765
      -0.647
      -0.495
      -0.414
      -0.454
      -0.585
      -0.713
      -0.738
      -0.617
      -0.380
      -0.102
       0.153
       0.359
       0.525
       0.665
       0.784
       0.870
       0.912
       0.917
       0.915
       0.945
       1.017
       1.093
       1.098
       0.963
       0.678
       0.307
      -0.042
      -0.264
      -0.306
      -0.185
       0.014
       0.183
       0.241
       0.165
      -0.015
      -0.242
      -0.450
      -0.575
      -0.575
      -0.458
      -0.293
      -0.171
      -0.153
      -0.230
      -0.331
      -0.379
      -0.339
      -0.242
      -0.156
      -0.133
      -0.177
      -0.239
      -0.248
      -0.166
      -0.011
       0.153
       0.255
       0.259
       0.185
       0.092
       0.063
       0.161
       0.394
       0.677
       0.854
       0.774
       0.398
      -0.156
      -0.665
      -0.930
      -0.882
      -0.605
      -0.266
      -0.031
       0.007
      -0.155
      -0.444
      -0.746
      -0.952
      -0.993
      -0.866
      -0.636
      -0.406
      -0.260
      -0.211
      -0.188
      -0.088
       0.146
       0.476
       0.794
       0.988
       1.013
       0.905
       0.749
       0.639
       0.635
       0.742
       0.902
       1.019
       1.012
       0.854
       0.584
       0.276
       0.004
      -0.190
      -0.295
      -0.333
      -0.349
      -0.386
      -0.464
      -0.571
      -0.683
      -0.795
      -0.920
      -1.060
      -1.180
      -1.215
      -1.112
      -0.870
      -0.545
      -0.219
       0.044
       0.223
       0.340
       0.444
       0.576
       0.753
       0.948
       1.100
       1.139
       1.028
       0.801
       0.558
       0.417
       0.437
       0.567
       0.677
       0.639
       0.411
       0.054
      -0.305
      -0.541
      -0.590
      -0.473
      -0.287
      -0.152
      -0.150
      -0.276
      -0.465
      -0.640
      -0.770
      -0.864
      -0.932
      -0.962
      -0.935
      -0.850
      -0.725
      -0.580
      -0.413
      -0.209
       0.033
       0.290
       0.517
       0.672
       0.734
       0.716
       0.653
       0.572
       0.476
       0.352
       0.205
       0.065
      -0.030
      -0.072
      -0.090
      -0.131
      -0.209
      -0.282
      -0.282
      -0.170
       0.027
       0.239
       0.400
       0.480
       0.482
       0.420
       0.308
       0.174
       0.068
       0.028
       0.042
       0.044
      -0.034
      -0.200
      -0.385
      -0.477
      -0.404
      -0.177
       0.109
       0.333
       0.418
       0.362
       0.231
       0.098
       0.017
       0.002
       0.051
       0.149
       0.272
       0.382
       0.439
       0.417
       0.318
       0.173
       0.039
      -0.041
      -0.070
      -0.104
      -0.207
      -0.378
      -0.516
      -0.480
      -0.190
       0.302
       0.828
       1.197
       1.285
       1.097
       0.756
       0.440
       0.303
       0.407
       0.696
       1.025
       1.224
       1.185
       0.928
       0.600
       0.393
       0.438
       0.735
       1.172
       1.602
       1.918
       2.085
       2.129
       2.109
       2.085
       2.087
       2.110
       2.128
       2.113
       2.050
       1.940
       1.792
       1.616
       1.405
       1.131
       0.754
       0.243
      -0.384
      -1.065
      -1.721
      -2.299
      -2.790
      -3.211
      -3.587
      -3.936
      -4.280
      -4.648
      -5.059
      -5.497
      -5.908
      -6.227
      -6.423
      -6.521
      -6.587
      -6.685
      -6.841
      -7.035
      -7.210
      -7.296
      -7.223
      -6.944
      -6.463
      -5.837
      -5.158
      -4.502
      -3.892
      -3.309
      -2.722
      -2.113
      -1.487
      -0.843
      -0.169
       0.563
       1.367
       2.218
       3.045
       3.762
       4.318
       4.734
       5.093
       5.490
       5.969
       6.503
       7.019
       7.455
       7.796
       8.078
       8.368
       8.732
       9.199
       9.737
      10.255
      10.647
      10.838
      10.800
      10.544
      10.094
       9.486
       8.767
       7.975
       7.120
       6.171
       5.093
       3.885
       2.606
       1.360
       0.256
      -0.636
      -1.300
      -1.784
      -2.164
      -2.513
      -2.868
      -3.228
      -3.572
      -3.877
      -4.126
      -4.319
      -4.480
      -4.644
      -4.841
      -5.087
      -5.388
      -5.755
      -6.208
      -6.749
      -7.353
      -7.971
      -8.558
      -9.089
      -9.564
      -9.977
     -10.296
     -10.459
     -10.404
     -10.097
      -9.544
      -8.779
      -7.842
      -6.775
      -5.630
      -4.469
      -3.355
      -2.335
      -1.432
      -0.640
       0.057
       0.674
       1.207
       1.631
       1.914
       2.047
       2.050
       1.983
       1.936
       2.013
       2.282
       2.721
       3.194
       3.522
       3.600
       3.495
       3.422
       3.615
       4.179
       5.033
       5.964
       6.752
       7.273
       7.529
       7.623
       7.690
       7.831
       8.071
       8.341
       8.521
       8.502
       8.237
       7.758
       7.155
       6.535
       5.980
       5.521
       5.127
       4.727
       4.249
       3.667
       3.008
       2.335
       1.719
       1.209
       0.827
       0.558
       0.346
       0.112
      -0.215
      -0.671
      -1.242
      -1.886
      -2.565
      -3.280
      -4.061
      -4.917
      -5.785
      -6.528
      -7.010
      -7.187
      -7.146
      -7.048
      -7.031
      -7.146
      -7.359
      -7.611
      -7.854
      -8.075
      -8.288
      -8.516
      -8.781
      -9.078
      -9.355
      -9.516
      -9.458
      -9.126
      -8.530
      -7.744
      -6.861
      -5.974
      -5.148
      -4.407
      -3.716
      -2.992
      -2.137
      -1.102
       0.071
       1.265
       2.349
       3.253
       3.992
       4.639
       5.272
       5.924
       6.581
       7.190
       7.686
       8.018
       8.170
       8.177
       8.119
       8.091
       8.165
       8.359
       8.626
       8.884
       9.070
       9.168
       9.207
       9.203
       9.118
       8.861
       8.343
       7.535
       6.506
       5.396
       4.352
       3.453
       2.685
       1.966
       1.208
       0.381
      -0.462
      -1.212
      -1.763
      -2.078
      -2.218
      -2.311
      -2.481
      -2.782
      -3.170
      -3.541
      -3.810
      -3.955
      -4.026
      -4.100
      -4.236
      -4.442
      -4.676
      -4.883
      -5.030
      -5.130
      -5.227
      -5.357
      -5.525
      -5.697
      -5.820
      -5.855
      -5.800
      -5.695
      -5.598
      -5.551
      -5.541
      -5.507
      -5.365
      -5.045
      -4.525
      -3.836
      -3.058
      -2.309
      -1.716
      -1.357
      -1.211
      -1.150
      -1.005
      -0.676
      -0.199
       0.269
       0.562
       0.609
       0.476
       0.303
       0.213
       0.246
       0.373
       0.555
       0.784
       1.080
       1.466
       1.951
       2.535
       3.208
       3.935
       4.642
       5.227
       5.613
       5.806
       5.885
       5.947
       6.041
       6.149
       6.223
       6.219
       6.110
       5.871
       5.490
       4.987
       4.443
       3.990
       3.747
       3.757
       3.954
       4.205
       4.385
       4.426
       4.317
       4.060
       3.634
       3.010
       2.189
       1.232
       0.247
      -0.669
      -1.472
      -2.185
      -2.857
      -3.524
      -4.179
      -4.783
      -5.264
      -5.543
      -5.563
      -5.343
      -5.014
      -4.785
      -4.830
      -5.177
      -5.676
      -6.100
      -6.295
      -6.264
      -6.118
      -5.952
      -5.758
      -5.425
      -4.831
      -3.937
      -2.820
      -1.642
      -0.561
       0.335
       1.041
       1.602
       2.060
       2.434
       2.721
       2.894
       2.904
       2.701
       2.261
       1.620
       0.874
       0.152
      -0.444
      -0.868
      -1.146
      -1.330
      -1.454
      -1.513
      -1.483
      -1.361
      -1.183
      -1.000
      -0.851
      -0.750
      -0.695
      -0.694
      -0.758
      -0.886
      -1.023
      -1.067
      -0.908
      -0.502
       0.086
       0.704
       1.207
       1.549
       1.792
       2.042
       2.361
       2.730
       3.075
       3.325
       3.464
       3.535
       3.608
       3.718
       3.837
       3.895
       3.848
       3.725
       3.616
       3.603
       3.687
       3.768
       3.716
       3.456
       3.032
       2.571
       2.192
       1.929
       1.719
       1.465
       1.098
       0.613
       0.056
      -0.507
      -1.026
      -1.490
      -1.917
      -2.337
      -2.761
      -3.162
      -3.471
      -3.612
      -3.534
      -3.250
      -2.835
      -2.385
      -1.967
      -1.595
      -1.242
      -0.880
      -0.530
      -0.261
      -0.150
      -0.227
      -0.432
      -0.645
      -0.764
      -0.773
      -0.752
      -0.831
      -1.113
      -1.609
      -2.235
      -2.847
      -3.307
      -3.546
      -3.590
      -3.539
      -3.506
      -3.550
      -3.649
      -3.724
      -3.697
      -3.529
      -3.239
      -2.880
      -2.517
      -2.194
      -1.917
      -1.644
      -1.300
      -0.809
      -0.131
       0.714
       1.642
       2.525
       3.233
       3.672
       3.834
       3.802
       3.728
       3.772
       4.033
       4.507
       5.096
       5.668
       6.116
       6.397
       6.515
       6.481
       6.274
       5.854
       5.205
       4.367
       3.421
       2.440
       1.450
       0.445
      -0.564
      -1.510
      -2.271
      -2.741
      -2.906
      -2.875
      -2.839
      -2.967
      -3.316
