Origin Time       29/10/2009 19:56:58 UTC
Lat.              26.6°N	
Long.             90.0°E	
Depth (Km)         10.0
Magnitude         4.2
 Region           KOKRAJHAR-ASSAM                                                  
 Above details taken from IMD 
    
Station Code      SAS
Station Lat.       25.511  N
Station Long.      90.220  E
Station Height(m)  376.2
Site Class        B   Vs30 between 375 m/sec to 700 m/sec *  
Record Time       29.10.2009 19:57:24.609 UTC
Sampling Rate     200. Hz
 Record Duration   67.915 Sec.
 Direction         N-S (N positive)
Max. Acceleration     -7.509 cm/sec**2
     
  * For reference see Site Classification link of website 
     
 Base Line Corrected and Low Pass Filtered (Cut Off at 35 Hz) Time History
 Acceleration data in cm/sec**2
    
[...]
      -0.116
      -0.031
       0.067
       0.159
       0.216
       0.217
       0.162
       0.086
       0.037
       0.050
       0.119
       0.203
       0.255
       0.251
       0.200
       0.141
       0.109
       0.116
       0.146
       0.170
       0.169
       0.145
       0.116
       0.107
       0.128
       0.176
       0.226
       0.239
       0.174
       0.007
      -0.245
      -0.526
      -0.760
      -0.887
      -0.885
      -0.778
      -0.615
      -0.449
      -0.313
      -0.217
      -0.152
      -0.100
      -0.043
       0.027
       0.101
       0.164
       0.199
       0.205
       0.188
       0.166
       0.160
       0.185
       0.248
       0.337
       0.423
       0.471
       0.463
       0.408
       0.341
       0.299
       0.287
       0.282
       0.250
       0.178
       0.084
       0.011
      -0.005
       0.047
       0.139
       0.224
       0.258
       0.223
       0.133
       0.015
      -0.106
      -0.222
      -0.333
      -0.443
      -0.541
      -0.616
      -0.659
      -0.674
      -0.671
      -0.656
      -0.629
      -0.586
      -0.517
      -0.418
      -0.289
      -0.138
       0.023
       0.183
       0.336
       0.477
       0.601
       0.693
       0.731
       0.704
       0.616
       0.492
       0.363
       0.253
       0.174
       0.130
       0.124
       0.159
       0.227
       0.310
       0.372
       0.382
       0.323
       0.202
       0.038
      -0.144
      -0.329
      -0.496
      -0.625
      -0.685
      -0.648
      -0.506
      -0.281
      -0.028
       0.189
       0.312
       0.317
       0.215
       0.045
      -0.131
      -0.254
      -0.290
      -0.245
      -0.160
      -0.087
      -0.063
      -0.096
      -0.173
      -0.276
      -0.389
      -0.499
      -0.580
      -0.601
      -0.525
      -0.342
      -0.081
       0.200
       0.432
       0.566
       0.591
       0.534
       0.449
       0.395
       0.408
       0.482
       0.574
       0.626
       0.600
       0.497
       0.359
       0.244
       0.197
       0.227
       0.304
       0.368
       0.356
       0.235
       0.022
      -0.224
      -0.428
      -0.536
      -0.547
      -0.505
      -0.477
      -0.506
      -0.580
      -0.650
      -0.655
      -0.570
      -0.418
      -0.251
      -0.111
      -0.012
       0.062
       0.136
       0.224
       0.319
       0.395
       0.422
       0.379
       0.265
       0.107
      -0.060
      -0.202
      -0.297
      -0.333
      -0.306
      -0.215
      -0.065
       0.122
       0.304
       0.434
       0.478
       0.436
       0.337
       0.225
       0.134
       0.074
       0.032
      -0.024
      -0.117
      -0.249
      -0.392
      -0.496
      -0.521
      -0.456
      -0.327
      -0.179
      -0.055
       0.018
       0.038
       0.019
      -0.018
      -0.055
      -0.091
      -0.128
      -0.166
      -0.188
      -0.163
      -0.067
       0.103
       0.317
       0.527
       0.688
       0.776
       0.799
       0.782
       0.745
       0.694
       0.620
       0.516
       0.387
       0.245
       0.098
      -0.054
      -0.215
      -0.376
      -0.520
      -0.619
      -0.655
      -0.633
      -0.577
      -0.523
      -0.497
      -0.506
      -0.538
      -0.567
      -0.562
      -0.495
      -0.349
      -0.129
       0.136
       0.394
       0.595
       0.702
       0.704
       0.606
       0.427
       0.195
      -0.054
      -0.276
      -0.425
      -0.467
      -0.393
      -0.220
       0.009
       0.242
       0.427
       0.526
       0.529
       0.455
       0.344
       0.235
       0.151
       0.085
       0.015
      -0.082
      -0.213
      -0.363
      -0.504
      -0.611
      -0.671
      -0.685
      -0.657
      -0.585
      -0.464
      -0.299
      -0.111
       0.064
       0.187
       0.238
       0.224
       0.175
       0.133
       0.130
       0.184
       0.293
       0.440
       0.592
       0.710
       0.766
       0.751
       0.674
       0.557
       0.420
       0.279
       0.145
       0.031
      -0.054
      -0.106
      -0.130
      -0.136
      -0.139
      -0.149
      -0.178
      -0.234
      -0.317
      -0.415
      -0.501
      -0.548
      -0.540
      -0.487
      -0.417
      -0.355
      -0.312
      -0.279
      -0.246
      -0.209
      -0.173
      -0.141
      -0.109
      -0.071
      -0.017
       0.057
       0.162
       0.305
       0.486
       0.680
       0.843
       0.924
       0.892
       0.755
       0.552
       0.334
       0.141
      -0.005
      -0.093
      -0.117
      -0.074
       0.021
       0.132
       0.209
       0.206
       0.104
      -0.088
      -0.334
      -0.585
      -0.794
      -0.917
      -0.931
      -0.834
      -0.650
      -0.424
      -0.211
      -0.052
       0.033
       0.055
       0.044
       0.026
       0.010
      -0.017
      -0.070
      -0.149
      -0.235
      -0.299
      -0.320
      -0.285
      -0.193
      -0.048
       0.135
       0.330
       0.501
       0.621
       0.682
       0.698
       0.698
       0.701
       0.706
       0.684
       0.606
       0.455
       0.247
       0.029
      -0.140
      -0.216
      -0.181
      -0.056
       0.110
       0.264
       0.359
       0.369
       0.288
       0.130
      -0.077
      -0.299
      -0.505
      -0.677
      -0.803
      -0.876
      -0.884
      -0.816
      -0.672
      -0.469
      -0.248
      -0.058
       0.062
       0.105
       0.096
       0.074
       0.062
       0.057
       0.046
       0.028
       0.028
       0.083
       0.212
       0.391
       0.565
       0.665
       0.645
       0.500
       0.267
       0.015
      -0.191
      -0.305
      -0.320
      -0.260
      -0.165
      -0.073
      -0.007
       0.030
       0.046
       0.053
       0.054
       0.047
       0.029
       0.003
      -0.015
      -0.006
       0.033
       0.086
       0.130
       0.150
       0.159
       0.185
       0.244
       0.327
       0.404
       0.438
       0.414
       0.334
       0.208
       0.052
      -0.119
      -0.286
      -0.426
      -0.521
      -0.569
      -0.576
      -0.558
      -0.519
      -0.451
      -0.347
      -0.213
      -0.077
       0.022
       0.056
       0.029
      -0.027
      -0.071
      -0.074
      -0.035
       0.020
       0.057
       0.058
       0.033
       0.017
       0.051
       0.154
       0.312
       0.476
       0.594
       0.635
       0.604
       0.522
       0.408
       0.269
       0.104
      -0.080
      -0.261
      -0.411
      -0.507
      -0.544
      -0.535
      -0.502
      -0.460
      -0.419
      -0.376
      -0.321
      -0.246
      -0.152
      -0.055
       0.020
       0.054
       0.047
       0.017
      -0.010
      -0.013
       0.010
       0.054
       0.103
       0.152
       0.199
       0.252
       0.314
       0.381
       0.439
       0.472
       0.469
       0.436
       0.398
       0.382
       0.410
       0.484
       0.586
       0.690
       0.765
       0.789
       0.749
       0.640
       0.469
       0.254
       0.031
      -0.147
      -0.242
      -0.248
      -0.206
      -0.187
      -0.255
      -0.430
      -0.675
      -0.910
      -1.053
      -1.058
      -0.937
      -0.753
      -0.583
      -0.484
      -0.471
      -0.521
      -0.591
      -0.636
      -0.630
      -0.568
      -0.467
      -0.349
      -0.224
      -0.088
       0.070
       0.249
       0.421
       0.545
       0.584
       0.532
       0.415
       0.281
       0.172
       0.104
       0.053
      -0.027
      -0.174
      -0.386
      -0.603
      -0.741
      -0.728
      -0.557
      -0.282
       0.007
       0.240
       0.395
       0.497
       0.586
       0.697
       0.840
       1.007
       1.178
       1.330
       1.443
       1.499
       1.476
       1.353
       1.111
       0.756
       0.321
      -0.133
      -0.533
      -0.815
      -0.941
      -0.903
      -0.728
      -0.455
      -0.136
       0.178
       0.439
       0.613
       0.677
       0.629
       0.484
       0.262
      -0.010
      -0.308
      -0.604
      -0.866
      -1.059
      -1.153
      -1.136
      -1.025
      -0.860
      -0.690
      -0.547
      -0.434
      -0.324
      -0.179
       0.019
       0.244
       0.441
       0.547
       0.524
       0.370
       0.110
      -0.222
      -0.590
      -0.949
      -1.237
      -1.383
      -1.331
      -1.070
      -0.647
      -0.154
       0.301
       0.633
       0.808
       0.848
       0.815
       0.776
       0.771
       0.799
       0.828
       0.814
       0.725
       0.548
       0.285
      -0.051
      -0.435
      -0.822
      -1.148
      -1.346
      -1.374
      -1.234
      -0.967
      -0.622
      -0.236
       0.172
       0.591
       0.996
       1.336
       1.549
       1.581
       1.412
       1.066
       0.611
       0.136
      -0.279
      -0.574
      -0.720
      -0.713
      -0.568
      -0.327
      -0.047
       0.213
       0.420
       0.570
       0.685
       0.773
       0.815
       0.766
       0.598
       0.325
       0.010
      -0.266
      -0.443
      -0.512
      -0.502
      -0.461
      -0.431
      -0.432
      -0.465
      -0.515
      -0.560
      -0.572
      -0.534
      -0.442
      -0.306
      -0.142
       0.039
       0.238
       0.464
       0.732
       1.041
       1.373
       1.689
       1.931
       2.046
       2.000
       1.793
       1.464
       1.071
       0.666
       0.271
      -0.117
      -0.508
      -0.899
      -1.266
      -1.576
      -1.812
      -1.976
      -2.092
      -2.188
      -2.280
      -2.353
      -2.347
      -2.178
      -1.778
      -1.146
      -0.365
       0.414
       1.033
       1.377
       1.408
       1.162
       0.718
       0.163
      -0.428
      -0.990
      -1.463
      -1.794
      -1.952
      -1.939
      -1.787
      -1.543
      -1.256
      -0.960
      -0.680
      -0.429
      -0.211
      -0.004
       0.244
       0.609
       1.151
       1.874
       2.704
       3.504
       4.120
       4.429
       4.372
       3.966
       3.293
       2.473
       1.638
       0.903
       0.340
      -0.024
      -0.202
      -0.229
      -0.154
      -0.031
       0.069
       0.073
      -0.076
      -0.396
      -0.854
      -1.376
      -1.865
      -2.224
      -2.382
      -2.304
      -1.996
      -1.493
      -0.854
      -0.160
       0.490
       0.990
       1.250
       1.227
       0.935
       0.448
      -0.126
      -0.668
      -1.075
      -1.285
      -1.285
      -1.098
      -0.767
      -0.342
       0.120
       0.556
       0.903
       1.110
       1.159
       1.069
       0.884
       0.653
       0.414
       0.182
      -0.041
      -0.259
      -0.472
      -0.678
      -0.871
      -1.048
      -1.211
      -1.366
      -1.520
      -1.670
      -1.796
      -1.875
      -1.891
      -1.847
      -1.767
      -1.675
      -1.586
      -1.484
      -1.326
      -1.060
      -0.647
      -0.099
       0.522
       1.113
       1.571
       1.826
       1.865
       1.738
       1.538
       1.372
       1.315
       1.393
       1.580
       1.831
       2.099
       2.348
       2.549
       2.672
       2.697
       2.624
       2.483
       2.324
       2.200
       2.130
       2.078
       1.960
       1.672
       1.153
       0.417
      -0.432
      -1.257
      -1.946
      -2.465
      -2.859
      -3.206
      -3.559
      -3.910
      -4.195
      -4.330
      -4.256
      -3.965
      -3.500
      -2.940
      -2.374
      -1.871
      -1.462
      -1.144
      -0.887
      -0.657
      -0.427
      -0.179
       0.090
       0.370
       0.639
       0.863
       1.013
       1.074
       1.061
       1.012
       0.984
       1.035
       1.205
       1.504
       1.906
       2.355
       2.786
       3.139
       3.374
       3.467
       3.405
       3.182
       2.811
       2.331
       1.806
       1.312
       0.914
       0.647
       0.521
       0.519
       0.604
       0.721
       0.781
       0.674
       0.293
      -0.415
      -1.418
      -2.594
      -3.763
      -4.736
      -5.358
      -5.532
      -5.232
      -4.494
      -3.407
      -2.090
      -0.670
       0.732
       2.006
       3.048
       3.770
       4.119
       4.113
       3.851
       3.488
       3.174
       3.002
       2.982
       3.055
       3.128
       3.119
       2.986
       2.726
       2.363
       1.918
       1.393
       0.778
       0.062
      -0.745
      -1.606
      -2.456
      -3.212
      -3.798
      -4.172
      -4.355
      -4.427
      -4.494
      -4.640
      -4.886
      -5.198
      -5.517
      -5.801
      -6.040
      -6.251
      -6.446
      -6.602
      -6.659
      -6.542
      -6.194
      -5.609
      -4.825
      -3.910
      -2.933
      -1.940
      -0.945
       0.060
       1.082
       2.107
       3.102
       4.027
       4.854
       5.572
       6.178
       6.661
       7.006
       7.199
       7.240
       7.146
       6.948
       6.695
       6.456
       6.296
       6.253
       6.306
       6.384
       6.390
       6.251
       5.950
       5.528
       5.044
       4.525
       3.943
       3.229
       2.316
       1.175
      -0.178
      -1.684
      -3.250
      -4.755
      -6.052
      -6.998
      -7.490
      -7.509
      -7.126
      -6.493
      -5.791
      -5.184
      -4.776
      -4.585
      -4.547
      -4.535
      -4.404
      -4.038
      -3.393
      -2.513
      -1.513
      -0.534
       0.317
       1.006
       1.574
       2.092
       2.596
       3.045
       3.340
       3.388
       3.169
       2.759
       2.294
       1.911
       1.685
       1.607
       1.608
       1.600
       1.519
       1.345
       1.105
       0.851
       0.624
       0.441
       0.291
       0.157
       0.023
      -0.128
      -0.318
      -0.577
      -0.930
      -1.381
      -1.902
      -2.432
      -2.890
      -3.198
      -3.315
      -3.258
      -3.103
      -2.956
      -2.909
      -2.989
      -3.138
      -3.236
      -3.147
      -2.776
      -2.101
      -1.174
      -0.095
       1.019
       2.056
       2.934
       3.605
       4.051
       4.271
       4.275
       4.088
       3.751
       3.307
       2.794
       2.236
       1.648
       1.050
       0.466
      -0.082
      -0.585
      -1.047
      -1.466
      -1.813
      -2.027
      -2.043
      -1.839
      -1.468
      -1.055
      -0.749
      -0.674
      -0.869
      -1.271
      -1.733
      -2.078
      -2.175
      -1.981
      -1.538
      -0.931
      -0.233
       0.521
       1.325
       2.180
       3.076
       3.984
       4.848
       5.592
       6.134
       6.414
       6.403
       6.118
       5.611
       4.958
       4.239
       3.519
       2.835
       2.191
       1.557
       0.874
       0.071
      -0.900
      -2.028
      -3.219
      -4.333
      -5.234
      -5.856
      -6.215
      -6.376
      -6.399
      -6.313
      -6.110
      -5.781
      -5.333
      -4.812
      -4.292
      -3.848
      -3.522
      -3.289
      -3.071
      -2.772
      -2.338
      -1.783
      -1.184
      -0.638
      -0.217
       0.065
       0.260
       0.463
       0.755
       1.155
       1.611
       2.033
       2.347
       2.536
       2.646
       2.757
       2.942
       3.230
       3.601
       3.999
       4.360
       4.633
       4.789
       4.827
       4.771
       4.663
       4.546
       4.447
       4.359
       4.237
       4.013
       3.616
       3.000
       2.160
       1.127
      -0.025
      -1.187
      -2.248
      -3.118
      -3.768
      -4.223
      -4.540
      -4.761
      -4.882
      -4.853
      -4.617
      -4.145
      -3.473
      -2.692
      -1.934
      -1.324
      -0.946
      -0.819
      -0.899
      -1.109
      -1.366
      -1.599
      -1.761
      -1.829
      -1.798
      -1.671
      -1.452
      -1.156
      -0.811
      -0.464
      -0.162
       0.062
       0.202
       0.289
       0.376
       0.528
       0.794
       1.172
       1.601
       1.973
       2.188
       2.202
       2.056
       1.848
       1.682
       1.626
       1.685
       1.812
       1.932
       1.980
       1.921
       1.750
       1.492
       1.180
       0.852
       0.530
       0.221
      -0.081
      -0.375
      -0.629
      -0.788
      -0.799
      -0.637
      -0.331
       0.038
       0.359
       0.525
       0.463
       0.162
      -0.318
      -0.866
      -1.343
      -1.628
      -1.651
      -1.426
      -1.033
      -0.589
      -0.198
       0.079
       0.237
       0.314
       0.361
       0.399
       0.417
       0.381
       0.279
       0.130
      -0.025
      -0.159
      -0.264
      -0.348
      -0.411
      -0.444
      -0.444
      -0.441
      -0.489
      -0.645
      -0.928
      -1.305
      -1.700
      -2.018
      -2.167
      -2.077
      -1.712
      -1.102
      -0.340
       0.432
       1.072
       1.503
       1.736
       1.857
       1.961
       2.096
       2.245
       2.342
       2.319
       2.139
       1.811
       1.389
       0.953
       0.583
       0.339
       0.240
       0.264
       0.359
       0.463
       0.519
       0.480
       0.320
       0.043
      -0.314
      -0.697
      -1.057
      -1.373
      -1.654
      -1.919
      -2.170
      -2.364
      -2.423
      -2.263
      -1.841
      -1.186
      -0.417
       0.289
       0.750
       0.853
       0.597
       0.086
      -0.528
      -1.093
      -1.496
      -1.656
      -1.526
      -1.101
      -0.432
       0.372
       1.163
       1.804
       2.210
       2.365
       2.305
       2.086
       1.751
       1.332
       0.869
       0.423
       0.077
      -0.096
      -0.074
       0.089
       0.283
       0.379
       0.285
      -0.016
      -0.463
      -0.947
      -1.364
      -1.654
      -1.823
      -1.913
      -1.957
      -1.941
      -1.808
      -1.488
      -0.941
      -0.186
       0.687
       1.544
       2.248
       2.704
       2.887
       2.831
       2.606
       2.291
       1.951
       1.617
       1.293
       0.964
       0.627
       0.300
       0.026
      -0.157
      -0.238
      -0.246
      -0.245
      -0.296
      -0.434
      -0.649
      -0.895
      -1.118
      -1.282
      -1.373
      -1.394
      -1.370
      -1.334
      -1.325
      -1.361
      -1.424
      -1.476
      -1.478
      -1.415
      -1.292
      -1.124
      -0.925
      -0.719
      -0.536
      -0.404
      -0.317
      -0.225
      -0.058
       0.234
       0.631
       1.048
       1.376
       1.535
       1.507
       1.338
       1.112
       0.905
       0.758
       0.667
       0.605
       0.546
       0.490
       0.457
       0.465
       0.509
       0.559
       0.577
       0.539
       0.445
       0.320
       0.194
       0.089
       0.006
      -0.083
      -0.225
      -0.451
      -0.755
      -1.078
      -1.338
      -1.461
      -1.413
      -1.199
      -0.853
      -0.420
       0.054
       0.515
       0.904
       1.161
       1.249
