Origin Time       12/3/2010 23:19:54	 UTC
Lat.              23.0 N	
Long.             94.5 E	
Depth (Km)         96.0
Magnitude         5.6
 Region           MYANMAR                                                          
 Above details taken from IMD 
    
Station Code      TUR
Station Lat.       25.511  N
Station Long.      90.220  E
Station Height(m)  372.0
Site Class        B   Vs30 between 375 m/sec to 700 m/sec *  
Record Time       12.03.2010 23:21:34.864 UTC
Sampling Rate     200. Hz
 Record Duration   72.025 Sec.
 Direction         N-S (N positive)
Max. Acceleration      9.403 cm/sec**2
     
  * For reference see Site Classification link of website 
     
 Base Line Corrected and Low Pass Filtered (Cut Off at 35 Hz) Time History
 Acceleration data in cm/sec**2
    
[...]
      -0.219
      -0.139
      -0.068
      -0.013
       0.025
       0.050
       0.066
       0.073
       0.071
       0.064
       0.052
       0.032
       0.000
      -0.040
      -0.080
      -0.104
      -0.106
      -0.086
      -0.049
       0.000
       0.049
       0.082
       0.081
       0.043
      -0.020
      -0.079
      -0.106
      -0.083
      -0.016
       0.078
       0.173
       0.252
       0.313
       0.361
       0.402
       0.430
       0.434
       0.397
       0.313
       0.190
       0.050
      -0.076
      -0.155
      -0.170
      -0.128
      -0.059
       0.001
       0.029
       0.023
      -0.004
      -0.039
      -0.072
      -0.099
      -0.119
      -0.129
      -0.126
      -0.103
      -0.053
       0.024
       0.118
       0.207
       0.269
       0.287
       0.258
       0.193
       0.112
       0.028
      -0.052
      -0.124
      -0.186
      -0.221
      -0.213
      -0.147
      -0.031
       0.103
       0.208
       0.247
       0.213
       0.132
       0.045
      -0.011
      -0.021
       0.006
       0.044
       0.064
       0.048
      -0.003
      -0.070
      -0.135
      -0.195
      -0.260
      -0.340
      -0.433
      -0.523
      -0.593
      -0.633
      -0.643
      -0.629
      -0.595
      -0.543
      -0.480
      -0.409
      -0.329
      -0.232
      -0.111
       0.025
       0.157
       0.264
       0.341
       0.398
       0.446
       0.490
       0.522
       0.530
       0.508
       0.458
       0.393
       0.330
       0.285
       0.265
       0.267
       0.278
       0.283
       0.276
       0.249
       0.198
       0.122
       0.034
      -0.043
      -0.085
      -0.083
      -0.053
      -0.020
      -0.011
      -0.031
      -0.072
      -0.116
      -0.153
      -0.181
      -0.205
      -0.224
      -0.233
      -0.223
      -0.189
      -0.136
      -0.079
      -0.037
      -0.028
      -0.053
      -0.092
      -0.116
      -0.105
      -0.067
      -0.023
       0.008
       0.029
       0.057
       0.102
       0.155
       0.193
       0.197
       0.162
       0.107
       0.063
       0.056
       0.086
       0.129
       0.152
       0.128
       0.055
      -0.050
      -0.152
      -0.221
      -0.240
      -0.216
      -0.177
      -0.152
      -0.151
      -0.162
      -0.163
      -0.142
      -0.104
      -0.066
      -0.036
      -0.008
       0.028
       0.076
       0.131
       0.181
       0.220
       0.250
       0.277
       0.298
       0.299
       0.265
       0.186
       0.075
      -0.040
      -0.125
      -0.160
      -0.157
      -0.152
      -0.181
      -0.253
      -0.351
      -0.441
      -0.491
      -0.476
      -0.387
      -0.233
      -0.045
       0.126
       0.234
       0.263
       0.229
       0.173
       0.132
       0.122
       0.134
       0.145
       0.132
       0.085
       0.013
      -0.054
      -0.082
      -0.055
       0.017
       0.094
       0.135
       0.118
       0.054
      -0.022
      -0.067
      -0.054
       0.008
       0.082
       0.121
       0.100
       0.031
      -0.050
      -0.106
      -0.122
      -0.106
      -0.076
      -0.044
      -0.013
       0.019
       0.046
       0.059
       0.041
      -0.012
      -0.089
      -0.160
      -0.196
      -0.180
      -0.123
      -0.046
       0.029
       0.095
       0.162
       0.238
       0.319
       0.380
       0.391
       0.342
       0.251
       0.152
       0.074
       0.020
      -0.022
      -0.067
      -0.118
      -0.170
      -0.208
      -0.218
      -0.197
      -0.157
      -0.126
      -0.126
      -0.155
      -0.189
      -0.193
      -0.150
      -0.066
       0.031
       0.110
       0.148
       0.134
       0.068
      -0.032
      -0.138
      -0.224
      -0.276
      -0.299
      -0.305
      -0.299
      -0.273
      -0.218
      -0.125
       0.004
       0.159
       0.324
       0.472
       0.574
       0.598
       0.526
       0.360
       0.136
      -0.086
      -0.238
      -0.280
      -0.215
      -0.086
       0.057
       0.180
       0.274
       0.336
       0.357
       0.320
       0.226
       0.099
      -0.023
      -0.102
      -0.119
      -0.075
       0.006
       0.090
       0.141
       0.142
       0.107
       0.069
       0.059
       0.079
       0.094
       0.057
      -0.059
      -0.238
      -0.428
      -0.571
      -0.631
      -0.607
      -0.520
      -0.396
      -0.253
      -0.103
       0.037
       0.145
       0.192
       0.163
       0.064
      -0.077
      -0.212
      -0.292
      -0.278
      -0.161
       0.031
       0.246
       0.421
       0.515
       0.518
       0.449
       0.332
       0.192
       0.049
      -0.071
      -0.142
      -0.151
      -0.106
      -0.035
       0.028
       0.055
       0.035
      -0.025
      -0.097
      -0.152
      -0.169
      -0.150
      -0.119
      -0.110
      -0.147
      -0.220
      -0.295
      -0.324
      -0.281
      -0.178
      -0.067
      -0.004
      -0.012
      -0.067
      -0.118
      -0.131
      -0.115
      -0.108
      -0.149
      -0.238
      -0.348
      -0.441
      -0.498
      -0.519
      -0.513
      -0.487
      -0.453
      -0.423
      -0.413
      -0.427
      -0.458
      -0.491
      -0.522
      -0.553
      -0.585
      -0.607
      -0.593
      -0.527
      -0.418
      -0.301
      -0.215
      -0.170
      -0.142
      -0.086
       0.029
       0.193
       0.361
       0.488
       0.559
       0.593
       0.629
       0.696
       0.797
       0.917
       1.044
       1.174
       1.313
       1.465
       1.624
       1.778
       1.916
       2.028
       2.108
       2.156
       2.188
       2.230
       2.306
       2.422
       2.562
       2.695
       2.789
       2.818
       2.767
       2.633
       2.415
       2.111
       1.724
       1.270
       0.785
       0.310
      -0.127
      -0.534
      -0.938
      -1.359
      -1.793
      -2.210
      -2.577
      -2.881
      -3.138
      -3.375
      -3.616
      -3.867
      -4.114
      -4.329
      -4.483
      -4.547
      -4.506
      -4.357
      -4.113
      -3.802
      -3.466
      -3.148
      -2.879
      -2.657
      -2.447
      -2.191
      -1.840
      -1.377
      -0.818
      -0.194
       0.458
       1.101
       1.696
       2.215
       2.646
       2.995
       3.281
       3.519
       3.718
       3.885
       4.029
       4.170
       4.328
       4.512
       4.705
       4.854
       4.891
       4.766
       4.468
       4.027
       3.486
       2.866
       2.173
       1.416
       0.634
      -0.114
      -0.778
      -1.338
      -1.799
      -2.170
      -2.453
      -2.657
      -2.816
      -2.982
      -3.201
      -3.481
      -3.786
      -4.058
      -4.251
      -4.342
      -4.336
      -4.243
      -4.073
      -3.825
      -3.491
      -3.079
      -2.617
      -2.155
      -1.743
      -1.413
      -1.171
      -1.009
      -0.907
      -0.837
      -0.762
      -0.640
      -0.438
      -0.136
       0.266
       0.760
       1.335
       1.983
       2.693
       3.437
       4.166
       4.816
       5.331
       5.670
       5.815
       5.776
       5.583
       5.277
       4.898
       4.472
       4.017
       3.543
       3.053
       2.540
       1.993
       1.408
       0.797
       0.186
      -0.401
      -0.959
      -1.506
      -2.062
      -2.634
      -3.199
      -3.711
      -4.123
      -4.403
      -4.538
      -4.528
      -4.384
      -4.133
      -3.822
      -3.515
      -3.277
      -3.146
      -3.125
      -3.185
      -3.282
      -3.378
      -3.447
      -3.463
      -3.412
      -3.292
      -3.118
      -2.910
      -2.668
      -2.372
      -2.001
      -1.556
      -1.074
      -0.603
      -0.167
       0.248
       0.684
       1.177
       1.732
       2.315
       2.876
       3.359
       3.719
       3.924
       3.975
       3.908
       3.780
       3.645
       3.517
       3.375
       3.182
       2.919
       2.614
       2.329
       2.126
       2.037
       2.043
       2.086
       2.098
       2.027
       1.858
       1.613
       1.324
       1.016
       0.695
       0.367
       0.052
      -0.220
      -0.421
      -0.549
      -0.633
      -0.717
      -0.842
      -1.027
      -1.262
      -1.518
      -1.755
      -1.936
      -2.027
      -2.002
      -1.856
      -1.598
      -1.238
      -0.785
      -0.248
       0.346
       0.949
       1.511
       2.004
       2.431
       2.820
       3.196
       3.553
       3.844
       3.998
       3.953
       3.680
       3.203
       2.577
       1.858
       1.078
       0.247
      -0.637
      -1.558
      -2.475
      -3.325
      -4.052
      -4.620
      -5.024
      -5.277
      -5.392
      -5.372
      -5.201
      -4.851
      -4.291
      -3.524
      -2.603
      -1.627
      -0.705
       0.072
       0.659
       1.056
       1.297
       1.426
       1.468
       1.424
       1.272
       0.998
       0.613
       0.159
      -0.306
      -0.725
      -1.057
      -1.281
      -1.391
      -1.385
      -1.255
      -0.992
      -0.607
      -0.145
       0.317
       0.707
       0.999
       1.233
       1.494
       1.861
       2.365
       2.957
       3.538
       4.000
       4.270
       4.329
       4.211
       3.982
       3.721
       3.484
       3.275
       3.034
       2.672
       2.126
       1.401
       0.577
      -0.223
      -0.882
      -1.338
      -1.605
      -1.760
      -1.898
      -2.088
      -2.347
      -2.647
      -2.936
      -3.174
      -3.349
      -3.469
      -3.547
      -3.590
      -3.596
      -3.557
      -3.467
      -3.328
      -3.150
      -2.934
      -2.654
      -2.266
      -1.739
      -1.097
      -0.424
       0.180
       0.657
       1.029
       1.370
       1.740
       2.143
       2.518
       2.787
       2.901
       2.870
       2.759
       2.649
       2.596
       2.595
       2.583
       2.472
       2.197
       1.752
       1.188
       0.587
       0.024
      -0.447
      -0.799
      -1.027
      -1.140
      -1.152
      -1.084
      -0.968
      -0.834
      -0.708
      -0.604
      -0.530
      -0.497
      -0.516
      -0.588
      -0.695
      -0.811
      -0.917
      -1.002
      -1.073
      -1.141
      -1.210
      -1.278
      -1.333
      -1.370
      -1.392
      -1.422
      -1.488
      -1.617
      -1.808
      -2.021
      -2.193
      -2.270
      -2.234
      -2.098
      -1.891
      -1.635
      -1.330
      -0.954
      -0.481
       0.100
       0.762
       1.434
       2.036
       2.514
       2.864
       3.127
       3.350
       3.548
       3.707
       3.804
       3.843
       3.863
       3.907
       3.993
       4.098
       4.173
       4.162
       4.030
       3.767
       3.391
       2.932
       2.415
       1.867
       1.327
       0.841
       0.455
       0.195
       0.071
       0.079
       0.195
       0.371
       0.532
       0.603
       0.542
       0.361
       0.123
      -0.110
      -0.325
      -0.578
      -0.964
      -1.549
      -2.321
      -3.182
      -3.995
      -4.660
      -5.145
      -5.481
      -5.710
      -5.861
      -5.952
      -6.005
      -6.051
      -6.109
      -6.166
      -6.174
      -6.073
      -5.830
      -5.461
      -5.020
      -4.570
      -4.147
      -3.747
      -3.340
      -2.890
      -2.367
      -1.758
      -1.067
      -0.324
       0.426
       1.143
       1.808
       2.417
       2.974
       3.481
       3.945
       4.376
       4.766
       5.088
       5.313
       5.433
       5.477
       5.489
       5.498
       5.513
       5.519
       5.496
       5.420
       5.258
       4.962
       4.500
       3.877
       3.145
       2.377
       1.634
       0.944
       0.312
      -0.257
      -0.742
      -1.102
      -1.291
      -1.275
      -1.051
      -0.654
      -0.153
       0.375
       0.860
       1.259
       1.553
       1.746
       1.853
       1.890
       1.863
       1.775
       1.634
       1.465
       1.305
       1.177
       1.076
       0.974
       0.837
       0.634
       0.338
      -0.060
      -0.529
      -1.000
      -1.388
      -1.641
      -1.768
      -1.825
      -1.876
      -1.952
      -2.048
      -2.144
      -2.221
      -2.260
      -2.238
      -2.136
      -1.946
      -1.684
      -1.379
      -1.070
      -0.798
      -0.594
      -0.464
      -0.388
      -0.332
      -0.278
      -0.243
      -0.275
      -0.423
      -0.713
      -1.132
      -1.634
      -2.153
      -2.608
      -2.925
      -3.060
      -3.019
      -2.853
      -2.630
      -2.402
      -2.178
      -1.929
      -1.615
      -1.216
      -0.746
      -0.243
       0.245
       0.672
       1.005
       1.229
       1.350
       1.390
       1.369
       1.292
       1.139
       0.881
       0.495
      -0.016
      -0.605
      -1.198
      -1.725
      -2.155
      -2.513
      -2.861
      -3.261
      -3.743
      -4.286
      -4.823
      -5.268
      -5.555
      -5.659
      -5.589
      -5.366
      -5.016
      -4.569
      -4.065
      -3.556
      -3.090
      -2.691
      -2.354
      -2.048
      -1.728
      -1.346
      -0.858
      -0.230
       0.547
       1.454
       2.446
       3.471
       4.477
       5.423
       6.280
       7.040
       7.712
       8.306
       8.813
       9.195
       9.403
       9.401
       9.189
       8.807
       8.318
       7.787
       7.255
       6.732
       6.207
       5.653
       5.041
       4.360
       3.632
       2.904
       2.226
       1.621
       1.072
       0.549
       0.045
      -0.412
      -0.767
      -0.978
      -1.041
      -1.003
      -0.939
      -0.924
      -1.006
      -1.193
      -1.464
      -1.791
      -2.148
      -2.521
      -2.902
      -3.283
      -3.644
      -3.945
      -4.134
      -4.174
      -4.064
      -3.836
      -3.523
      -3.142
      -2.683
      -2.127
      -1.469
      -0.748
      -0.044
       0.557
       1.004
       1.299
       1.476
       1.574
       1.631
       1.682
       1.763
       1.902
       2.107
       2.354
       2.589
       2.747
       2.790
       2.717
       2.565
       2.372
       2.168
       1.957
       1.728
       1.455
       1.106
       0.663
       0.142
      -0.399
      -0.893
      -1.296
      -1.625
      -1.947
      -2.325
      -2.775
      -3.246
      -3.668
      -3.996
      -4.226
      -4.370
      -4.436
      -4.421
      -4.339
      -4.229
      -4.143
      -4.114
      -4.139
      -4.189
      -4.226
      -4.222
      -4.152
      -4.008
      -3.796
      -3.545
      -3.288
      -3.043
      -2.803
      -2.550
      -2.286
      -2.037
      -1.834
      -1.687
      -1.572
      -1.442
      -1.256
      -1.004
      -0.708
      -0.405
      -0.113
       0.177
       0.504
       0.922
       1.458
       2.091
       2.739
       3.291
       3.647
       3.759
       3.634
       3.322
       2.876
       2.340
       1.746
       1.133
       0.551
       0.052
      -0.327
      -0.572
      -0.683
      -0.658
      -0.492
      -0.193
       0.209
       0.655
       1.073
       1.409
       1.647
       1.801
       1.907
       1.997
       2.094
       2.201
       2.307
       2.394
       2.446
       2.461
       2.457
       2.467
       2.517
       2.587
       2.601
       2.458
       2.099
       1.562
       0.975
       0.497
       0.231
       0.172
       0.231
       0.303
       0.336
       0.346
       0.385
       0.482
       0.613
       0.699
       0.638
       0.351
      -0.165
      -0.823
      -1.466
      -1.935
      -2.146
      -2.120
      -1.948
      -1.739
      -1.571
      -1.479
      -1.461
      -1.496
      -1.550
      -1.578
      -1.533
      -1.369
      -1.062
      -0.628
      -0.122
       0.380
       0.806
       1.110
       1.269
       1.288
       1.198
       1.052
       0.904
       0.784
       0.709
       0.698
       0.769
       0.934
       1.179
       1.482
       1.825
       2.206
       2.623
       3.061
       3.484
       3.848
       4.114
       4.259
       4.299
       4.286
       4.295
       4.374
       4.513
       4.644
       4.688
       4.599
       4.387
       4.097
       3.772
       3.417
       3.002
       2.497
       1.891
       1.201
       0.442
      -0.382
      -1.278
      -2.229
      -3.176
      -4.045
      -4.790
      -5.421
      -5.983
      -6.514
      -7.028
      -7.520
      -7.980
      -8.388
      -8.709
      -8.895
      -8.907
      -8.735
      -8.396
      -7.924
      -7.360
      -6.755
      -6.161
      -5.621
      -5.156
      -4.753
      -4.373
      -3.964
      -3.493
      -2.955
      -2.384
      -1.829
      -1.333
      -0.914
      -0.565
      -0.255
       0.055
       0.399
       0.785
       1.196
       1.603
       1.979
       2.299
       2.551
       2.727
       2.836
       2.912
       3.010
       3.186
       3.455
       3.769
       4.043
       4.196
       4.204
       4.099
       3.951
       3.830
       3.783
       3.821
       3.923
       4.053
       4.172
       4.239
       4.210
       4.043
       3.715
       3.241
       2.671
       2.081
       1.538
       1.075
       0.678
       0.307
      -0.078
      -0.493
      -0.929
      -1.350
      -1.702
      -1.924
      -1.969
      -1.829
      -1.535
      -1.147
      -0.722
      -0.292
       0.129
       0.525
       0.863
       1.100
       1.214
       1.215
       1.135
       0.990
       0.750
       0.364
      -0.190
      -0.869
      -1.568
      -2.166
      -2.575
      -2.749
      -2.674
      -2.351
      -1.801
      -1.086
      -0.321
       0.350
       0.815
       1.049
       1.120
       1.132
       1.162
       1.228
       1.306
       1.365
       1.395
       1.412
       1.448
       1.526
       1.647
       1.778
       1.854
       1.802
       1.568
       1.143
       0.587
       0.007
      -0.471
      -0.760
      -0.847
      -0.782
      -0.641
      -0.492
      -0.375
      -0.320
      -0.352
      -0.489
      -0.727
      -1.038
      -1.377
      -1.698
      -1.978
      -2.217
      -2.422
      -2.601
      -2.756
      -2.904
      -3.073
      -3.280
      -3.517
      -3.763
      -4.007
      -4.258
      -4.513
      -4.729
      -4.812
      -4.660
      -4.208
      -3.468
      -2.526
      -1.520
      -0.588
       0.182
       0.783
       1.274
       1.742
       2.258
       2.841
       3.466
       4.088
       4.664
       5.170
       5.606
       5.984
       6.316
       6.601
       6.823
       6.968
       7.032
       7.022
       6.940
       6.785
       6.559
       6.274
       5.943
       5.566
       5.129
       4.616
       4.022
       3.359
       2.651
       1.928
       1.203
       0.473
      -0.283
      -1.077
      -1.907
      -2.745
      -3.558
      -4.321
      -5.022
      -5.658
      -6.224
      -6.719
      -7.153
      -7.545
      -7.916
      -8.274
      -8.618
      -8.932
      -9.190
      -9.359
      -9.391
      -9.240
      -8.873
