Origin Time       21/08/2013 08:41:51
Lat.              26.7 N	
Long.             92.4 E	
Depth (Km)         22.0
Magnitude         3.9
 Region           Sonitpur-Assam                                                   
 Above details taken from IMD 
   
Station Code      TZP
Station Lat.       26.619
Station Long.      92.797
Station Height(m)   76.0
Site Class        B   Vs30 between 375 m/sec to 700 m/sec *  
Record Time       21.08.2013 08:41:35.284
Sampling Rate     200. Hz
 Record Duration   82.210 Sec.
 Direction         Vert. (Up positive)
Max. Acceleration      7.666 cm/sec**2
     
  * For reference see Site Classification link of website 
     
 Base Line Corrected and Low Pass Filtered (Cut Off at 35 Hz) Time History
 Acceleration data in cm/sec**2
    
[...]
      -0.804
      -0.720
      -0.563
      -0.330
       0.023
       0.465
       0.848
       0.984
       0.802
       0.415
       0.071
      -0.004
       0.223
       0.527
       0.580
       0.238
      -0.294
      -0.628
      -0.553
      -0.226
      -0.012
      -0.144
      -0.547
      -0.951
      -1.118
      -0.969
      -0.567
      -0.028
       0.535
       1.007
       1.268
       1.238
       0.962
       0.586
       0.226
      -0.118
      -0.491
      -0.864
      -1.107
      -1.099
      -0.854
      -0.539
      -0.354
      -0.353
      -0.396
      -0.273
       0.119
       0.716
       1.338
       1.780
       1.873
       1.556
       0.905
       0.113
      -0.575
      -0.937
      -0.873
      -0.488
      -0.054
       0.144
      -0.006
      -0.375
      -0.706
      -0.811
      -0.693
      -0.514
      -0.449
      -0.511
      -0.527
      -0.297
       0.158
       0.570
       0.659
       0.399
       0.050
      -0.060
       0.192
       0.613
       0.850
       0.691
       0.234
      -0.215
      -0.385
      -0.187
       0.272
       0.740
       0.929
       0.692
       0.138
      -0.428
      -0.714
      -0.656
      -0.450
      -0.389
      -0.613
      -0.986
      -1.194
      -0.967
      -0.290
       0.534
       1.046
       0.970
       0.447
      -0.104
      -0.354
      -0.287
      -0.102
       0.012
       0.000
      -0.074
      -0.105
      -0.041
       0.100
       0.280
       0.456
       0.547
       0.468
       0.224
      -0.043
      -0.157
      -0.049
       0.205
       0.432
       0.461
       0.209
      -0.239
      -0.638
      -0.707
      -0.327
       0.319
       0.814
       0.771
       0.128
      -0.769
      -1.379
      -1.311
      -0.579
       0.399
       1.064
       1.087
       0.568
      -0.084
      -0.475
      -0.471
      -0.200
       0.119
       0.341
       0.427
       0.376
       0.173
      -0.141
      -0.417
      -0.470
      -0.242
       0.130
       0.405
       0.383
       0.032
      -0.480
      -0.857
      -0.857
      -0.438
       0.218
       0.822
       1.121
       1.002
       0.513
      -0.151
      -0.709
      -0.926
      -0.755
      -0.354
       0.051
       0.329
       0.467
       0.498
       0.443
       0.316
       0.129
      -0.105
      -0.354
      -0.550
      -0.606
      -0.448
      -0.062
       0.453
       0.883
       1.013
       0.773
       0.297
      -0.170
      -0.428
      -0.454
      -0.390
      -0.394
      -0.489
      -0.558
      -0.494
      -0.306
      -0.088
       0.096
       0.247
       0.389
       0.526
       0.640
       0.712
       0.726
       0.647
       0.424
       0.039
      -0.425
      -0.769
      -0.784
      -0.448
      -0.019
       0.115
      -0.244
      -0.903
      -1.412
      -1.385
      -0.765
       0.144
       0.891
       1.178
       1.022
       0.658
       0.319
       0.108
       0.013
      -0.017
      -0.023
      -0.034
      -0.084
      -0.219
      -0.434
      -0.610
      -0.584
      -0.301
       0.112
       0.471
       0.681
       0.769
       0.777
       0.672
       0.396
      -0.008
      -0.357
      -0.483
      -0.392
      -0.246
      -0.178
      -0.162
      -0.073
       0.121
       0.272
       0.175
      -0.196
      -0.624
      -0.834
      -0.734
      -0.466
      -0.245
      -0.175
      -0.191
      -0.134
       0.101
       0.470
       0.836
       1.089
       1.208
       1.181
       0.938
       0.428
      -0.204
      -0.600
      -0.467
       0.082
       0.533
       0.396
      -0.340
      -1.168
      -1.490
      -1.094
      -0.294
       0.348
       0.454
       0.077
      -0.393
      -0.546
      -0.246
       0.304
       0.738
       0.800
       0.492
       0.012
      -0.421
      -0.678
      -0.720
      -0.564
      -0.276
       0.044
       0.299
       0.447
       0.501
       0.494
       0.458
       0.410
       0.342
       0.216
      -0.007
      -0.307
      -0.564
      -0.611
      -0.359
       0.094
       0.501
       0.627
       0.428
       0.068
      -0.224
      -0.319
      -0.257
      -0.161
      -0.114
      -0.103
      -0.077
      -0.040
      -0.062
      -0.174
      -0.287
      -0.253
      -0.037
       0.198
       0.230
       0.001
      -0.290
      -0.347
      -0.046
       0.425
       0.704
       0.541
       0.013
      -0.528
      -0.697
      -0.353
       0.289
       0.821
       0.936
       0.628
       0.123
      -0.344
      -0.660
      -0.797
      -0.737
      -0.482
      -0.123
       0.152
       0.190
       0.029
      -0.095
       0.038
       0.400
       0.692
       0.585
       0.019
      -0.697
      -1.072
      -0.786
       0.028
       0.828
       1.035
       0.477
      -0.461
      -1.139
      -1.142
      -0.552
       0.196
       0.689
       0.839
       0.875
       1.037
       1.288
       1.343
       0.996
       0.369
      -0.217
      -0.569
      -0.772
      -1.023
      -1.359
      -1.565
      -1.379
      -0.792
      -0.123
       0.232
       0.133
      -0.210
      -0.455
      -0.398
      -0.082
       0.289
       0.518
       0.543
       0.440
       0.333
       0.276
       0.244
       0.196
       0.160
       0.218
       0.422
       0.702
       0.895
       0.873
       0.636
       0.266
      -0.157
      -0.572
      -0.891
      -0.998
      -0.829
      -0.448
      -0.036
       0.196
       0.141
      -0.115
      -0.335
      -0.314
      -0.051
       0.235
       0.285
       0.024
      -0.368
      -0.631
      -0.661
      -0.561
      -0.460
      -0.343
      -0.125
       0.162
       0.330
       0.242
       0.027
       0.014
       0.410
       1.060
       1.577
       1.696
       1.439
       0.988
       0.481
      -0.021
      -0.461
      -0.768
      -0.909
      -0.940
      -0.969
      -1.048
      -1.105
      -1.001
      -0.674
      -0.207
       0.232
       0.495
       0.520
       0.355
       0.160
       0.129
       0.339
       0.655
       0.801
       0.589
       0.092
      -0.398
      -0.633
      -0.607
      -0.509
      -0.479
      -0.465
      -0.312
       0.043
       0.477
       0.755
       0.714
       0.407
       0.088
       0.018
       0.250
       0.582
       0.719
       0.504
       0.050
      -0.360
      -0.507
      -0.435
      -0.413
      -0.673
      -1.148
      -1.484
      -1.352
      -0.754
      -0.026
       0.445
       0.513
       0.355
       0.300
       0.545
       0.950
       1.120
       0.748
      -0.077
      -0.867
      -1.089
      -0.582
       0.287
       0.899
       0.880
       0.385
      -0.091
      -0.165
       0.153
       0.552
       0.738
       0.677
       0.610
       0.796
       1.192
       1.413
       1.067
       0.145
      -0.945
      -1.730
      -2.021
      -1.976
      -1.882
      -1.890
      -1.923
      -1.788
      -1.371
      -0.711
       0.039
       0.678
       1.063
       1.213
       1.321
       1.570
       1.928
       2.157
       2.019
       1.454
       0.602
      -0.299
      -1.015
      -1.359
      -1.212
      -0.605
       0.159
       0.569
       0.255
      -0.633
      -1.465
      -1.609
      -0.933
       0.126
       0.947
       1.175
       0.884
       0.406
       0.052
      -0.075
      -0.076
      -0.137
      -0.383
      -0.790
      -1.193
      -1.360
      -1.133
      -0.567
       0.083
       0.529
       0.651
       0.543
       0.409
       0.407
       0.576
       0.859
       1.146
       1.313
       1.258
       0.959
       0.477
      -0.105
      -0.725
      -1.303
      -1.701
      -1.782
      -1.508
      -0.965
      -0.294
       0.375
       0.939
       1.313
       1.438
       1.296
       0.932
       0.447
      -0.015
      -0.341
      -0.503
      -0.572
      -0.654
      -0.796
      -0.940
      -0.955
      -0.724
      -0.265
       0.218
       0.439
       0.258
      -0.146
      -0.368
      -0.087
       0.653
       1.433
       1.765
       1.456
       0.722
      -0.012
      -0.397
      -0.346
      -0.070
       0.051
      -0.248
      -0.877
      -1.457
      -1.662
      -1.474
      -1.096
      -0.693
      -0.265
       0.264
       0.857
       1.276
       1.221
       0.639
      -0.110
      -0.461
      -0.126
       0.624
       1.159
       1.017
       0.272
      -0.552
      -0.926
      -0.697
      -0.102
       0.491
       0.856
       0.961
       0.850
       0.536
       0.043
      -0.492
      -0.817
      -0.742
      -0.321
       0.146
       0.333
       0.112
      -0.367
      -0.794
      -0.917
      -0.728
      -0.438
      -0.257
      -0.193
      -0.124
      -0.017
       0.010
      -0.118
      -0.249
      -0.102
       0.419
       1.037
       1.270
       0.858
       0.037
      -0.643
      -0.795
      -0.468
      -0.012
       0.264
       0.299
       0.228
       0.197
       0.229
       0.241
       0.171
       0.064
       0.018
       0.059
       0.110
       0.090
       0.023
       0.012
       0.103
       0.208
       0.169
      -0.087
      -0.461
      -0.736
      -0.735
      -0.457
      -0.086
       0.128
       0.022
      -0.356
      -0.735
      -0.785
      -0.382
       0.265
       0.779
       0.931
       0.777
       0.533
       0.400
       0.438
       0.528
       0.449
       0.091
      -0.384
      -0.653
      -0.534
      -0.155
       0.164
       0.191
      -0.008
      -0.113
       0.147
       0.673
       1.031
       0.856
       0.213
      -0.482
      -0.831
      -0.757
      -0.513
      -0.456
      -0.756
      -1.237
      -1.526
      -1.365
      -0.809
      -0.143
       0.368
       0.671
       0.927
       1.311
       1.807
       2.190
       2.206
       1.763
       0.963
       0.048
      -0.726
      -1.223
      -1.480
      -1.599
      -1.617
      -1.509
      -1.298
      -1.086
      -0.954
      -0.850
      -0.616
      -0.113
       0.635
       1.391
       1.799
       1.639
       1.045
       0.435
       0.175
       0.316
       0.615
       0.716
       0.376
      -0.337
      -1.035
      -1.302
      -1.053
      -0.558
      -0.140
       0.075
       0.137
       0.140
       0.136
       0.137
       0.182
       0.400
       0.888
       1.497
       1.808
       1.446
       0.414
      -0.854
      -1.759
      -1.916
      -1.405
      -0.698
      -0.278
      -0.285
      -0.507
      -0.671
      -0.656
      -0.504
      -0.321
      -0.188
      -0.089
       0.095
       0.494
       1.106
       1.740
       2.112
       2.016
       1.460
       0.679
      -0.017
      -0.478
      -0.806
      -1.160
      -1.486
      -1.515
      -1.057
      -0.266
       0.419
       0.615
       0.286
      -0.229
      -0.489
      -0.276
       0.251
       0.702
       0.768
       0.456
       0.064
      -0.079
       0.128
       0.490
       0.687
       0.509
       0.023
      -0.481
      -0.710
      -0.601
      -0.367
      -0.292
      -0.443
      -0.617
      -0.557
      -0.218
       0.190
       0.394
       0.293
       0.042
      -0.091
       0.048
       0.373
       0.637
       0.647
       0.403
       0.058
      -0.259
      -0.544
      -0.873
      -1.234
      -1.447
      -1.279
      -0.674
       0.132
       0.769
       1.006
       0.883
       0.621
       0.429
       0.385
       0.461
       0.612
       0.812
       0.971
       0.900
       0.476
      -0.128
      -0.500
      -0.366
       0.115
       0.483
       0.379
      -0.163
      -0.781
      -1.106
      -1.049
      -0.825
      -0.713
      -0.814
      -0.984
      -0.980
      -0.659
      -0.084
       0.502
       0.850
       0.908
       0.915
       1.198
       1.792
       2.305
       2.231
       1.434
       0.293
      -0.607
      -0.885
      -0.536
       0.177
       0.936
       1.502
       1.738
       1.565
       0.947
      -0.042
      -1.141
      -1.936
      -2.074
      -1.538
      -0.733
      -0.225
      -0.364
      -1.103
      -2.099
      -2.934
      -3.289
      -3.044
      -2.296
      -1.279
      -0.255
       0.543
       0.938
       0.917
       0.734
       0.766
       1.175
       1.715
       1.942
       1.622
       0.914
       0.197
      -0.247
      -0.415
      -0.484
      -0.548
      -0.444
       0.081
       1.063
       2.206
       3.068
       3.312
       2.820
       1.669
       0.075
      -1.643
      -3.105
      -3.945
      -3.923
      -3.052
      -1.668
      -0.345
       0.381
       0.339
      -0.143
      -0.494
      -0.351
       0.180
       0.657
       0.653
       0.063
      -0.805
      -1.414
      -1.370
      -0.737
       0.022
       0.434
       0.378
       0.102
      -0.046
       0.107
       0.517
       1.082
       1.812
       2.785
       3.918
       4.816
       4.961
       4.110
       2.523
       0.798
      -0.530
      -1.295
      -1.706
      -2.083
      -2.520
      -2.787
      -2.620
      -2.143
      -1.867
      -2.142
      -2.665
      -2.705
      -1.900
      -0.725
      -0.065
      -0.354
      -1.190
      -1.791
      -1.762
      -1.421
      -1.394
      -1.886
      -2.377
      -2.029
      -0.440
       1.974
       4.316
       5.945
       6.876
       7.452
       7.666
       7.011
       5.157
       2.655
       0.681
      -0.019
       0.192
       0.268
      -0.542
      -2.166
      -3.984
      -5.421
      -6.289
      -6.675
      -6.628
      -6.035
      -4.803
      -3.125
      -1.491
      -0.384
       0.013
      -0.153
      -0.560
      -0.842
      -0.655
       0.154
       1.331
       2.242
       2.321
       1.620
       0.885
       0.966
       2.059
       3.502
       4.367
       4.300
       3.790
       3.638
       4.162
       4.938
       5.245
       4.701
       3.462
       1.921
       0.346
      -1.163
      -2.482
      -3.421
      -3.928
      -4.234
      -4.663
      -5.289
      -5.805
      -5.726
      -4.748
      -2.989
      -1.011
       0.400
       0.643
      -0.335
      -1.924
      -3.111
      -3.036
      -1.572
       0.538
       2.193
       2.706
       2.161
       1.163
       0.395
       0.348
       1.219
       2.834
       4.644
       5.898
       5.999
       4.852
       2.984
       1.265
       0.337
       0.177
       0.205
      -0.179
      -1.101
      -2.168
      -2.805
      -2.677
      -1.929
      -1.113
      -0.834
      -1.342
      -2.356
      -3.246
      -3.475
      -3.004
      -2.287
      -1.831
      -1.711
      -1.545
      -0.926
       0.184
       1.459
       2.486
       3.047
       3.231
       3.355
       3.656
       3.968
       3.736
       2.524
       0.582
      -1.174
      -1.873
      -1.462
      -0.778
      -0.765
      -1.573
      -2.436
      -2.494
      -1.697
      -0.823
      -0.650
      -1.159
      -1.597
      -1.274
      -0.263
       0.690
       0.885
       0.281
      -0.563
      -1.032
      -0.890
      -0.274
       0.592
       1.573
       2.557
       3.297
       3.436
       2.753
       1.422
      -0.012
      -0.933
      -0.983
      -0.201
       1.022
       2.091
       2.448
       1.840
       0.485
      -1.049
      -2.177
      -2.612
      -2.451
      -2.003
      -1.542
      -1.203
      -1.036
      -1.079
      -1.301
      -1.513
      -1.451
      -1.028
      -0.489
      -0.239
      -0.499
      -1.105
      -1.643
      -1.743
      -1.296
      -0.478
       0.404
       1.100
       1.543
       1.836
       2.120
       2.413
       2.583
       2.501
       2.238
       2.059
       2.162
       2.461
       2.652
       2.493
       2.002
       1.407
       0.910
       0.493
      -0.034
      -0.778
      -1.657
      -2.545
      -3.410
      -4.215
      -4.731
      -4.591
      -3.601
      -2.030
      -0.558
       0.128
      -0.184
      -1.047
      -1.651
      -1.408
      -0.352
       0.980
       2.058
       2.711
       3.053
       3.189
       3.078
       2.655
       2.021
       1.470
       1.275
       1.364
       1.273
       0.552
      -0.749
      -2.039
      -2.676
      -2.489
      -1.862
      -1.384
      -1.361
      -1.596
      -1.627
      -1.207
      -0.512
       0.080
       0.330
       0.240
      -0.041
      -0.290
      -0.277
       0.102
       0.695
       1.169
       1.297
       1.182
       1.145
       1.355
       1.621
       1.599
       1.225
       0.841
       0.837
       1.189
       1.423
       1.087
       0.264
      -0.458
      -0.571
      -0.203
      -0.028
      -0.592
      -1.745
      -2.753
      -2.959
      -2.331
      -1.406
      -0.766
      -0.606
      -0.765
      -1.034
      -1.311
      -1.493
      -1.406
      -0.932
      -0.154
       0.684
       1.340
       1.688
       1.742
       1.646
       1.585
       1.654
       1.785
       1.806
       1.561
       1.028
       0.397
      -0.010
      -0.011
       0.193
       0.126
      -0.515
      -1.516
      -2.275
      -2.275
      -1.473
      -0.330
       0.501
       0.610
       0.086
      -0.562
      -0.790
      -0.409
       0.302
       0.831
       0.831
       0.355
      -0.243
      -0.625
      -0.703
      -0.598
      -0.429
      -0.231
      -0.046
       0.000
      -0.183
      -0.486
      -0.612
      -0.328
       0.266
       0.735
       0.667
       0.124
      -0.351
      -0.250
       0.372
       0.972
       1.106
       0.831
       0.537
       0.487
       0.610
       0.690
       0.658
       0.637
       0.744
       0.915
       0.956
       0.748
       0.384
       0.111
       0.120
       0.358
       0.534
       0.354
      -0.213
      -0.875
      -1.244
      -1.163
      -0.873
      -0.846
      -1.368
      -2.245
      -2.920
      -2.914
      -2.219
      -1.321
      -0.816
      -0.927
      -1.327
      -1.448
      -0.986
      -0.090
       0.896
       1.780
       2.563
       3.218
       3.565
       3.384
       2.656
       1.641
       0.705
       0.056
      -0.356
      -0.654
      -0.819
      -0.732
      -0.417
      -0.094
       0.043
      -0.001
      -0.098
      -0.130
      -0.003
       0.346
       0.848
       1.228
       1.165
       0.577
      -0.260
      -0.890
      -1.029
      -0.779
      -0.504
      -0.479
      -0.645
      -0.734
      -0.611
      -0.434
      -0.438
      -0.623
      -0.741
      -0.591
      -0.216
       0.183
       0.453
       0.567
       0.564
       0.458
       0.199
      -0.276
      -0.958
      -1.684
      -2.166
      -2.152
      -1.627
      -0.852
      -0.162
       0.285
       0.551
       0.757
       0.957
       1.177
       1.446
       1.737
       1.900
       1.735
       1.168
       0.356
      -0.392
      -0.804
      -0.787
      -0.443
       0.016
       0.382
       0.556
       0.586
       0.614
       0.731
       0.874
       0.878
       0.630
       0.190
      -0.254
      -0.528
      -0.590
      -0.553
      -0.600
      -0.849
