Origin Time       01/04/2014 17:45:09
Lat.              26.4 N	
Long.             92.4 E	
Depth (Km)         33.0
Magnitude         4.4
 Region           Naogaon-Assam                                                    
 Above details taken from IMD 
     
Station Code      TZP
Station Lat.       26.619  N
Station Long.      92.797  E
Station Height(m)   76.0
Site Class        B   Vs30 between 375 m/sec to 700 m/sec *  
Record Time       01.04.2014 17:44:53.539
Sampling Rate     200. Hz
 Record Duration   88.985 Sec.
 Direction         E-W (E positive)
Max. Acceleration     -5.688 cm/sec**2
     
  * For reference see Site Classification link of website 
     
 Base Line Corrected and Low Pass Filtered (Cut Off at 35 Hz) Time History
 Acceleration data in cm/sec**2
    
[...]
      -0.055
      -0.199
      -0.348
      -0.459
      -0.432
      -0.220
       0.074
       0.249
       0.174
      -0.103
      -0.408
      -0.582
      -0.566
      -0.390
      -0.132
       0.109
       0.248
       0.261
       0.197
       0.144
       0.144
       0.168
       0.169
       0.147
       0.142
       0.176
       0.213
       0.202
       0.124
       0.007
      -0.118
      -0.233
      -0.311
      -0.309
      -0.209
      -0.052
       0.077
       0.122
       0.108
       0.112
       0.175
       0.256
       0.269
       0.170
       0.001
      -0.150
      -0.217
      -0.210
      -0.190
      -0.220
      -0.318
      -0.440
      -0.518
      -0.487
      -0.317
      -0.026
       0.312
       0.590
       0.724
       0.701
       0.575
       0.421
       0.289
       0.185
       0.084
      -0.036
      -0.175
      -0.299
      -0.361
      -0.334
      -0.230
      -0.089
       0.030
       0.066
       0.004
      -0.099
      -0.140
      -0.049
       0.138
       0.303
       0.340
       0.236
       0.069
      -0.064
      -0.123
      -0.131
      -0.121
      -0.103
      -0.082
      -0.081
      -0.138
      -0.254
      -0.371
      -0.414
      -0.358
      -0.252
      -0.162
      -0.110
      -0.067
      -0.001
       0.081
       0.146
       0.188
       0.242
       0.349
       0.482
       0.542
       0.431
       0.148
      -0.187
      -0.428
      -0.498
      -0.426
      -0.302
      -0.210
      -0.184
      -0.197
      -0.196
      -0.135
      -0.007
       0.150
       0.269
       0.303
       0.273
       0.266
       0.349
       0.488
       0.574
       0.530
       0.381
       0.211
       0.085
       0.003
      -0.070
      -0.148
      -0.195
      -0.160
      -0.048
       0.070
       0.119
       0.085
       0.019
      -0.026
      -0.051
      -0.092
      -0.164
      -0.234
      -0.264
      -0.259
      -0.259
      -0.279
      -0.282
      -0.215
      -0.083
       0.043
       0.093
       0.061
       0.008
      -0.002
       0.043
       0.112
       0.173
       0.214
       0.220
       0.155
       0.006
      -0.175
      -0.289
      -0.268
      -0.136
       0.018
       0.116
       0.129
       0.070
      -0.044
      -0.191
      -0.328
      -0.404
      -0.388
      -0.283
      -0.114
       0.080
       0.243
       0.303
       0.221
       0.037
      -0.139
      -0.220
      -0.197
      -0.120
      -0.033
       0.043
       0.088
       0.093
       0.086
       0.113
       0.188
       0.263
       0.280
       0.237
       0.188
       0.190
       0.250
       0.337
       0.405
       0.418
       0.359
       0.236
       0.091
      -0.027
      -0.096
      -0.130
      -0.144
      -0.127
      -0.071
      -0.005
       0.014
      -0.038
      -0.134
      -0.223
      -0.266
      -0.246
      -0.156
      -0.023
       0.087
       0.109
       0.033
      -0.078
      -0.133
      -0.082
       0.037
       0.128
       0.110
      -0.014
      -0.169
      -0.265
      -0.256
      -0.147
       0.009
       0.138
       0.188
       0.153
       0.064
      -0.049
      -0.172
      -0.282
      -0.332
      -0.280
      -0.133
       0.027
       0.097
       0.025
      -0.153
      -0.348
      -0.488
      -0.546
      -0.523
      -0.416
      -0.228
       0.013
       0.243
       0.407
       0.484
       0.496
       0.475
       0.442
       0.406
       0.364
       0.312
       0.255
       0.210
       0.193
       0.200
       0.209
       0.189
       0.125
       0.026
      -0.061
      -0.076
      -0.006
       0.081
       0.078
      -0.067
      -0.298
      -0.487
      -0.539
      -0.460
      -0.344
      -0.291
      -0.313
      -0.322
      -0.202
       0.080
       0.420
       0.638
       0.624
       0.430
       0.227
       0.167
       0.263
       0.409
       0.483
       0.437
       0.297
       0.118
      -0.041
      -0.124
      -0.107
      -0.026
       0.041
       0.042
      -0.006
      -0.057
      -0.092
      -0.131
      -0.177
      -0.200
      -0.183
      -0.162
      -0.188
      -0.255
      -0.301
      -0.281
      -0.229
      -0.209
      -0.235
      -0.250
      -0.197
      -0.082
       0.014
       0.013
      -0.096
      -0.255
      -0.391
      -0.461
      -0.449
      -0.363
      -0.221
      -0.057
       0.090
       0.196
       0.276
       0.379
       0.537
       0.704
       0.757
       0.597
       0.252
      -0.122
      -0.346
      -0.360
      -0.236
      -0.088
       0.031
       0.132
       0.216
       0.236
       0.162
       0.048
       0.007
       0.100
       0.298
       0.523
       0.697
       0.745
       0.596
       0.262
      -0.108
      -0.315
      -0.283
      -0.132
      -0.054
      -0.132
      -0.281
      -0.370
      -0.346
      -0.250
      -0.144
      -0.053
       0.026
       0.084
       0.091
       0.027
      -0.087
      -0.192
      -0.229
      -0.175
      -0.049
       0.104
       0.232
       0.285
       0.227
       0.071
      -0.108
      -0.198
      -0.138
       0.026
       0.160
       0.156
       0.023
      -0.141
      -0.246
      -0.272
      -0.252
      -0.216
      -0.188
      -0.192
      -0.237
      -0.278
      -0.239
      -0.076
       0.159
       0.340
       0.351
       0.173
      -0.096
      -0.303
      -0.338
      -0.199
       0.022
       0.205
       0.266
       0.190
       0.051
      -0.024
       0.049
       0.227
       0.378
       0.394
       0.286
       0.145
       0.043
      -0.016
      -0.059
      -0.093
      -0.101
      -0.063
       0.015
       0.118
       0.225
       0.311
       0.351
       0.338
       0.286
       0.205
       0.088
      -0.072
      -0.254
      -0.413
      -0.511
      -0.532
      -0.467
      -0.318
      -0.112
       0.093
       0.248
       0.349
       0.425
       0.493
       0.529
       0.495
       0.385
       0.237
       0.099
      -0.009
      -0.090
      -0.142
      -0.163
      -0.161
      -0.153
      -0.141
      -0.124
      -0.120
      -0.159
      -0.246
      -0.342
      -0.397
      -0.396
      -0.371
      -0.355
      -0.351
      -0.321
      -0.219
      -0.042
       0.153
       0.280
       0.299
       0.243
       0.167
       0.085
      -0.019
      -0.131
      -0.198
      -0.182
      -0.111
      -0.050
      -0.036
      -0.043
      -0.018
       0.058
       0.159
       0.241
       0.275
       0.260
       0.218
       0.176
       0.142
       0.078
      -0.068
      -0.284
      -0.458
      -0.448
      -0.200
       0.189
       0.541
       0.715
       0.690
       0.554
       0.422
       0.344
       0.264
       0.101
      -0.128
      -0.285
      -0.247
      -0.042
       0.164
       0.215
       0.075
      -0.176
      -0.413
      -0.527
      -0.469
      -0.273
      -0.045
       0.103
       0.123
       0.046
      -0.056
      -0.113
      -0.076
       0.049
       0.174
       0.181
       0.031
      -0.177
      -0.290
      -0.235
      -0.071
       0.077
       0.128
       0.093
       0.050
       0.081
       0.204
       0.353
       0.415
       0.307
       0.045
      -0.251
      -0.432
      -0.418
      -0.245
      -0.037
       0.065
      -0.006
      -0.185
      -0.314
      -0.271
      -0.089
       0.070
       0.068
      -0.081
      -0.238
      -0.272
      -0.158
       0.040
       0.228
       0.332
       0.323
       0.228
       0.118
       0.066
       0.104
       0.208
       0.320
       0.371
       0.307
       0.131
      -0.085
      -0.231
      -0.242
      -0.137
       0.010
       0.127
       0.171
       0.130
       0.024
      -0.106
      -0.219
      -0.283
      -0.275
      -0.190
      -0.070
       0.000
      -0.047
      -0.193
      -0.332
      -0.347
      -0.201
       0.028
       0.196
       0.193
       0.043
      -0.112
      -0.134
      -0.001
       0.188
       0.328
       0.400
       0.449
       0.491
       0.480
       0.356
       0.120
      -0.149
      -0.350
      -0.420
      -0.370
      -0.262
      -0.167
      -0.117
      -0.094
      -0.046
       0.065
       0.222
       0.365
       0.420
       0.341
       0.130
      -0.142
      -0.361
      -0.431
      -0.350
      -0.206
      -0.098
      -0.064
      -0.084
      -0.111
      -0.101
      -0.030
       0.097
       0.251
       0.396
       0.489
       0.482
       0.333
       0.065
      -0.215
      -0.377
      -0.381
      -0.304
      -0.253
      -0.243
      -0.201
      -0.075
       0.080
       0.149
       0.074
      -0.079
      -0.169
      -0.102
       0.082
       0.233
       0.219
       0.048
      -0.153
      -0.262
      -0.242
      -0.120
       0.082
       0.339
       0.578
       0.694
       0.629
       0.443
       0.253
       0.116
      -0.032
      -0.274
      -0.585
      -0.822
      -0.865
      -0.729
      -0.521
      -0.308
      -0.088
       0.123
       0.245
       0.228
       0.164
       0.232
       0.487
       0.744
       0.732
       0.378
      -0.096
      -0.381
      -0.374
      -0.220
      -0.103
      -0.047
       0.044
       0.198
       0.302
       0.235
       0.028
      -0.150
      -0.159
      -0.023
       0.118
       0.148
       0.046
      -0.139
      -0.328
      -0.431
      -0.373
      -0.158
       0.110
       0.303
       0.363
       0.311
       0.192
       0.038
      -0.109
      -0.198
      -0.203
      -0.151
      -0.104
      -0.116
      -0.193
      -0.291
      -0.338
      -0.278
      -0.107
       0.128
       0.367
       0.549
       0.621
       0.546
       0.320
      -0.014
      -0.360
      -0.594
      -0.634
      -0.511
      -0.349
      -0.260
      -0.256
      -0.257
      -0.160
       0.076
       0.375
       0.567
       0.508
       0.219
      -0.109
      -0.269
      -0.196
       0.014
       0.219
       0.325
       0.300
       0.161
      -0.024
      -0.153
      -0.159
      -0.070
       0.014
       0.006
      -0.104
      -0.259
      -0.372
      -0.363
      -0.201
       0.049
       0.240
       0.247
       0.087
      -0.076
      -0.078
       0.097
       0.323
       0.461
       0.482
       0.454
       0.439
       0.417
       0.321
       0.130
      -0.080
      -0.191
      -0.148
      -0.029
       0.022
      -0.072
      -0.263
      -0.438
      -0.518
      -0.489
      -0.377
      -0.231
      -0.111
      -0.052
      -0.048
      -0.080
      -0.132
      -0.168
      -0.102
       0.141
       0.509
       0.791
       0.766
       0.406
      -0.087
      -0.455
      -0.574
      -0.498
      -0.349
      -0.217
      -0.118
      -0.005
       0.181
       0.428
       0.617
       0.616
       0.404
       0.092
      -0.193
      -0.416
      -0.621
      -0.818
      -0.932
      -0.880
      -0.669
      -0.403
      -0.178
      -0.007
       0.145
       0.295
       0.434
       0.569
       0.717
       0.870
       0.974
       0.958
       0.796
       0.540
       0.290
       0.106
      -0.051
      -0.262
      -0.533
      -0.755
      -0.807
      -0.686
      -0.523
      -0.479
      -0.591
      -0.716
      -0.627
      -0.210
       0.401
       0.909
       1.080
       0.896
       0.508
       0.087
      -0.254
      -0.456
      -0.489
      -0.373
      -0.173
       0.045
       0.254
       0.445
       0.569
       0.537
       0.286
      -0.126
      -0.538
      -0.790
      -0.841
      -0.759
      -0.613
      -0.396
      -0.061
       0.365
       0.744
       0.909
       0.793
       0.472
       0.101
      -0.184
      -0.328
      -0.371
      -0.401
      -0.477
      -0.574
      -0.586
      -0.412
      -0.045
       0.410
       0.791
       0.961
       0.880
       0.622
       0.347
       0.196
       0.191
       0.250
       0.293
       0.319
       0.348
       0.338
       0.209
      -0.063
      -0.400
      -0.677
      -0.807
      -0.790
      -0.694
      -0.588
      -0.473
      -0.286
       0.007
       0.350
       0.625
       0.721
       0.577
       0.183
      -0.396
      -0.995
      -1.399
      -1.466
      -1.227
      -0.853
      -0.513
      -0.270
      -0.077
       0.127
       0.348
       0.530
       0.597
       0.500
       0.237
      -0.128
      -0.466
      -0.640
      -0.614
      -0.498
      -0.446
      -0.508
      -0.605
      -0.641
      -0.599
      -0.535
      -0.513
      -0.558
      -0.641
      -0.661
      -0.472
       0.025
       0.756
       1.467
       1.860
       1.786
       1.344
       0.791
       0.351
       0.087
      -0.058
      -0.119
      -0.055
       0.147
       0.380
       0.504
       0.537
       0.676
       1.060
       1.560
       1.898
       1.993
       2.100
       2.517
       3.199
       3.736
       3.729
       3.138
       2.251
       1.373
       0.614
      -0.066
      -0.689
      -1.201
      -1.549
      -1.754
      -1.893
      -2.027
      -2.192
      -2.420
      -2.716
      -2.990
      -3.034
      -2.623
      -1.696
      -0.452
       0.744
       1.591
       2.046
       2.301
       2.550
       2.777
       2.775
       2.388
       1.696
       0.914
       0.127
      -0.805
      -2.032
      -3.445
      -4.686
      -5.443
      -5.688
      -5.606
      -5.332
      -4.827
      -4.001
      -2.911
      -1.793
      -0.903
      -0.351
      -0.065
       0.123
       0.351
       0.650
       0.946
       1.126
       1.121
       0.946
       0.690
       0.474
       0.409
       0.542
       0.815
       1.076
       1.184
       1.127
       1.058
       1.174
       1.551
       2.064
       2.468
       2.557
       2.251
       1.593
       0.702
      -0.265
      -1.135
      -1.714
      -1.808
      -1.283
      -0.149
       1.389
       2.947
       4.095
       4.561
       4.393
       3.919
       3.499
       3.248
       2.979
       2.408
       1.482
       0.520
       0.032
       0.312
       1.145
       1.899
       1.983
       1.270
       0.124
      -0.989
      -1.894
      -2.723
      -3.603
      -4.409
      -4.872
      -4.866
      -4.538
      -4.124
      -3.686
      -3.047
      -2.013
      -0.642
       0.678
       1.443
       1.371
       0.590
      -0.454
      -1.288
      -1.678
      -1.678
      -1.489
      -1.276
      -1.089
      -0.894
      -0.660
      -0.423
      -0.276
      -0.329
      -0.663
      -1.269
      -1.988
      -2.529
      -2.631
      -2.275
      -1.717
      -1.281
      -1.077
      -0.916
      -0.478
       0.438
       1.759
       3.175
       4.291
       4.819
       4.701
       4.121
       3.396
       2.784
       2.350
       1.995
       1.630
       1.303
       1.123
       1.069
       0.937
       0.521
      -0.148
      -0.784
      -1.059
      -0.841
      -0.263
       0.407
       0.945
       1.240
       1.259
       0.998
       0.512
      -0.046
      -0.482
      -0.665
      -0.581
      -0.308
       0.040
       0.367
       0.636
       0.865
       1.069
       1.207
       1.198
       0.960
       0.448
      -0.339
      -1.325
      -2.309
      -2.999
      -3.168
      -2.816
      -2.175
      -1.530
      -1.035
      -0.678
      -0.389
      -0.156
      -0.058
      -0.220
      -0.724
      -1.508
      -2.328
      -2.841
      -2.786
      -2.131
      -1.082
       0.039
       0.959
       1.552
       1.818
       1.815
       1.600
       1.252
       0.891
       0.644
       0.545
       0.485
       0.287
      -0.131
      -0.647
      -0.987
      -0.931
      -0.488
       0.115
       0.605
       0.847
       0.898
       0.916
       0.995
       1.043
       0.849
       0.314
      -0.354
      -0.732
      -0.543
       0.071
       0.659
       0.841
       0.610
       0.293
       0.225
       0.470
       0.793
       0.891
       0.668
       0.312
       0.134
       0.306
       0.735
       1.154
       1.322
       1.167
       0.794
       0.389
       0.134
       0.139
       0.375
       0.652
       0.698
       0.360
      -0.239
      -0.759
      -0.908
      -0.666
      -0.270
       0.016
       0.095
       0.037
      -0.056
      -0.152
      -0.298
      -0.582
      -1.054
      -1.672
      -2.288
      -2.721
      -2.860
      -2.713
      -2.373
      -1.961
      -1.581
      -1.308
      -1.185
      -1.218
      -1.319
      -1.298
      -0.948
      -0.207
       0.743
       1.561
       1.929
       1.747
       1.180
       0.566
       0.207
       0.170
       0.253
       0.156
      -0.247
      -0.775
      -1.061
      -0.845
      -0.164
       0.702
       1.472
       2.032
       2.403
       2.596
       2.558
       2.285
       1.900
       1.572
       1.356
       1.160
       0.893
       0.617
       0.497
       0.586
       0.719
       0.658
       0.359
       0.069
       0.096
       0.471
       0.881
       0.969
       0.682
       0.248
      -0.139
      -0.518
      -1.005
      -1.538
      -1.873
      -1.821
      -1.426
      -0.913
      -0.503
      -0.304
      -0.347
      -0.643
      -1.164
      -1.769
      -2.191
      -2.191
      -1.738
      -1.065
      -0.492
      -0.173
      -0.004
       0.225
       0.600
       1.008
       1.245
       1.185
       0.865
       0.453
       0.128
      -0.033
      -0.085
      -0.149
      -0.286
      -0.443
      -0.514
      -0.486
      -0.506
      -0.785
      -1.375
      -2.028
      -2.305
      -1.889
      -0.864
       0.279
       0.972
       0.978
       0.544
       0.151
       0.098
       0.307
       0.502
       0.524
       0.446
       0.443
       0.601
       0.855
       1.060
       1.095
       0.928
       0.607
       0.238
      -0.035
      -0.046
       0.320
       1.021
       1.824
       2.414
       2.577
       2.293
       1.686
       0.937
       0.254
      -0.164
      -0.222
      -0.006
       0.266
       0.404
       0.351
       0.150
      -0.136
      -0.445
      -0.661
      -0.597
      -0.115
       0.706
       1.526
       1.944
       1.773
       1.159
       0.414
      -0.255
      -0.849
      -1.452
      -2.068
      -2.577
      -2.839
      -2.788
      -2.465
      -1.992
      -1.536
      -1.276
      -1.355
      -1.800
      -2.468
      -3.070
      -3.313
      -3.066
      -2.444
      -1.704
      -1.054
      -0.534
      -0.077
       0.347
       0.677
       0.834
       0.814
       0.697
       0.586
       0.547
       0.589
       0.688
       0.834
       1.048
       1.354
       1.722
       2.074
       2.337
       2.477
       2.483
       2.365
       2.187
       2.088
       2.200
       2.520
       2.872
       2.996
       2.721
       2.052
       1.133
       0.143
      -0.740
      -1.326
      -1.432
      -1.008
      -0.250
       0.447
       0.730
       0.532
       0.095
      -0.247
      -0.354
      -0.357
      -0.491
      -0.851
      -1.335
      -1.772
      -2.069
      -2.263
      -2.462
      -2.723
