Origin Time       07/10/2013 20:54:03 UTC
Lat.              26.3 N	
Long.             92.5 E	
Depth (Km)         10.0
Magnitude         3.7
 Region           Naogaon-Assam                                                    
 Above details taken from IMD 
    
Station Code      TZP
Station Lat.       26.619  N
Station Long.      92.797  E
Station Height(m)   76.0
Site Class        B   Vs30 between 375 m/sec to 700 m/sec *  
Record Time       07.10.2013 20:53:42.314 UTC
Sampling Rate     200. Hz
 Record Duration   88.100 Sec.
 Direction         N-S (N positive)
Max. Acceleration      5.544 cm/sec**2
     
  * For reference see Site Classification link of website 
     
 Base Line Corrected and Low Pass Filtered (Cut Off at 35 Hz) Time History
 Acceleration data in cm/sec**2
    
[...]
       0.669
       0.419
       0.082
      -0.034
       0.160
       0.467
       0.578
       0.346
      -0.095
      -0.450
      -0.509
      -0.304
      -0.070
      -0.049
      -0.296
      -0.629
      -0.775
      -0.593
      -0.189
       0.177
       0.307
       0.212
       0.076
       0.085
       0.272
       0.512
       0.639
       0.592
       0.466
       0.436
       0.607
       0.912
       1.151
       1.153
       0.933
       0.681
       0.577
       0.589
       0.486
       0.066
      -0.606
      -1.188
      -1.315
      -0.915
      -0.286
       0.137
       0.122
      -0.203
      -0.490
      -0.469
      -0.150
       0.210
       0.318
       0.071
      -0.373
      -0.724
      -0.776
      -0.537
      -0.192
       0.055
       0.103
      -0.016
      -0.201
      -0.335
      -0.326
      -0.142
       0.180
       0.543
       0.823
       0.910
       0.744
       0.363
      -0.085
      -0.413
      -0.508
      -0.402
      -0.229
      -0.127
      -0.153
      -0.265
      -0.375
      -0.419
      -0.403
      -0.397
      -0.457
      -0.553
      -0.578
      -0.441
      -0.171
       0.108
       0.289
       0.384
       0.500
       0.698
       0.903
       0.949
       0.726
       0.287
      -0.172
      -0.453
      -0.490
      -0.379
      -0.268
      -0.222
      -0.182
      -0.074
       0.073
       0.135
       0.045
      -0.096
      -0.086
       0.179
       0.567
       0.804
       0.710
       0.345
      -0.062
      -0.301
      -0.321
      -0.228
      -0.175
      -0.248
      -0.401
      -0.493
      -0.386
      -0.063
       0.348
       0.663
       0.766
       0.669
       0.466
       0.245
       0.045
      -0.129
      -0.254
      -0.268
      -0.123
       0.133
       0.328
       0.278
      -0.057
      -0.494
      -0.741
      -0.597
      -0.101
       0.490
       0.880
       0.915
       0.660
       0.319
       0.076
      -0.013
      -0.026
      -0.086
      -0.259
      -0.502
      -0.691
      -0.701
      -0.500
      -0.174
       0.116
       0.229
       0.115
      -0.172
      -0.511
      -0.768
      -0.851
      -0.741
      -0.503
      -0.249
      -0.088
      -0.051
      -0.068
      -0.009
       0.218
       0.566
       0.853
       0.878
       0.575
       0.081
      -0.337
      -0.462
      -0.278
       0.045
       0.275
       0.278
       0.073
      -0.211
      -0.419
      -0.446
      -0.260
       0.098
       0.530
       0.891
       1.031
       0.891
       0.560
       0.225
       0.011
      -0.124
      -0.335
      -0.699
      -1.096
      -1.291
      -1.140
      -0.715
      -0.219
       0.176
       0.422
       0.561
       0.644
       0.680
       0.647
       0.521
       0.323
       0.125
       0.020
       0.055
       0.179
       0.283
       0.285
       0.190
       0.074
       0.003
      -0.008
       0.019
       0.079
       0.197
       0.380
       0.573
       0.661
       0.531
       0.159
      -0.353
      -0.819
      -1.061
      -1.009
      -0.733
      -0.410
      -0.210
      -0.205
      -0.309
      -0.337
      -0.132
       0.301
       0.768
       0.997
       0.826
       0.325
      -0.248
      -0.616
      -0.667
      -0.496
      -0.280
      -0.126
      -0.020
       0.095
       0.219
       0.294
       0.265
       0.136
      -0.041
      -0.216
      -0.373
      -0.510
      -0.606
      -0.611
      -0.477
      -0.208
       0.129
       0.437
       0.635
       0.684
       0.586
       0.378
       0.131
      -0.046
      -0.061
       0.089
       0.273
       0.298
       0.059
      -0.345
      -0.649
      -0.630
      -0.297
       0.114
       0.341
       0.291
       0.074
      -0.131
      -0.213
      -0.175
      -0.070
       0.044
       0.114
       0.077
      -0.093
      -0.318
      -0.422
      -0.282
       0.045
       0.340
       0.425
       0.328
       0.249
       0.362
       0.647
       0.903
       0.918
       0.629
       0.149
      -0.320
      -0.598
      -0.602
      -0.368
      -0.027
       0.251
       0.327
       0.143
      -0.259
      -0.735
      -1.064
      -1.041
      -0.605
       0.077
       0.690
       0.953
       0.795
       0.382
      -0.002
      -0.156
      -0.102
      -0.053
      -0.221
      -0.598
      -0.925
      -0.886
      -0.378
       0.378
       0.979
       1.115
       0.764
       0.178
      -0.316
      -0.512
      -0.419
      -0.204
      -0.067
      -0.107
      -0.260
      -0.343
      -0.213
       0.093
       0.367
       0.417
       0.248
       0.055
       0.017
       0.105
       0.113
      -0.112
      -0.470
      -0.669
      -0.487
      -0.004
       0.447
       0.555
       0.290
      -0.088
      -0.259
      -0.100
       0.255
       0.542
       0.571
       0.325
      -0.061
      -0.412
      -0.602
      -0.594
      -0.431
      -0.204
       0.003
       0.161
       0.297
       0.441
       0.574
       0.629
       0.553
       0.359
       0.113
      -0.113
      -0.288
      -0.426
      -0.540
      -0.597
      -0.538
      -0.345
      -0.083
       0.133
       0.227
       0.197
       0.094
      -0.021
      -0.096
      -0.109
      -0.072
      -0.024
       0.010
       0.040
       0.092
       0.171
       0.259
       0.322
       0.339
       0.318
       0.300
       0.327
       0.390
       0.404
       0.269
      -0.025
      -0.349
      -0.517
      -0.432
      -0.162
       0.119
       0.236
       0.117
      -0.186
      -0.513
      -0.683
      -0.594
      -0.299
       0.027
       0.199
       0.138
      -0.088
      -0.323
      -0.421
      -0.328
      -0.088
       0.194
       0.408
       0.487
       0.422
       0.255
       0.055
      -0.115
      -0.228
      -0.293
      -0.317
      -0.270
      -0.108
       0.152
       0.393
       0.470
       0.322
       0.013
      -0.305
      -0.482
      -0.424
      -0.134
       0.266
       0.562
       0.568
       0.268
      -0.135
      -0.347
      -0.204
       0.183
       0.509
       0.519
       0.223
      -0.121
      -0.241
      -0.078
       0.196
       0.355
       0.313
       0.160
       0.024
      -0.058
      -0.154
      -0.327
      -0.534
      -0.662
      -0.628
      -0.436
      -0.141
       0.205
       0.546
       0.786
       0.806
       0.552
       0.107
      -0.341
      -0.619
      -0.673
      -0.577
      -0.436
      -0.296
      -0.130
       0.084
       0.315
       0.480
       0.519
       0.446
       0.342
       0.281
       0.270
       0.252
       0.176
       0.044
      -0.102
      -0.225
      -0.308
      -0.353
      -0.371
      -0.372
      -0.337
      -0.216
       0.017
       0.301
       0.486
       0.433
       0.133
      -0.256
      -0.500
      -0.457
      -0.198
       0.042
       0.060
      -0.141
      -0.355
      -0.350
      -0.065
       0.343
       0.618
       0.590
       0.285
      -0.109
      -0.390
      -0.487
      -0.457
      -0.379
      -0.262
      -0.071
       0.180
       0.398
       0.481
       0.416
       0.299
       0.240
       0.259
       0.256
       0.117
      -0.160
      -0.413
      -0.427
      -0.128
       0.305
       0.555
       0.419
      -0.017
      -0.458
      -0.630
      -0.460
      -0.062
       0.369
       0.669
       0.754
       0.636
       0.392
       0.121
      -0.096
      -0.205
      -0.195
      -0.120
      -0.082
      -0.148
      -0.297
      -0.436
      -0.483
      -0.407
      -0.227
       0.005
       0.200
       0.248
       0.089
      -0.204
      -0.434
      -0.430
      -0.187
       0.126
       0.313
       0.289
       0.122
      -0.042
      -0.091
      -0.029
       0.030
      -0.018
      -0.156
      -0.248
      -0.170
       0.068
       0.331
       0.457
       0.347
       0.020
      -0.372
      -0.587
      -0.432
       0.063
       0.613
       0.855
       0.624
       0.098
      -0.353
      -0.451
      -0.202
       0.175
       0.434
       0.453
       0.260
      -0.012
      -0.203
      -0.231
      -0.148
      -0.079
      -0.087
      -0.109
      -0.030
       0.168
       0.358
       0.368
       0.132
      -0.239
      -0.530
      -0.577
      -0.377
      -0.086
       0.097
       0.056
      -0.178
      -0.461
      -0.616
      -0.533
      -0.236
       0.123
       0.370
       0.430
       0.374
       0.322
       0.313
       0.279
       0.147
      -0.031
      -0.087
       0.114
       0.532
       0.927
       1.011
       0.648
      -0.027
      -0.672
      -0.952
      -0.753
      -0.235
       0.298
       0.606
       0.616
       0.379
      -0.008
      -0.445
      -0.820
      -1.019
      -0.969
      -0.693
      -0.313
       0.010
       0.163
       0.137
       0.007
      -0.124
      -0.188
      -0.149
      -0.008
       0.198
       0.369
       0.371
       0.140
      -0.210
      -0.414
      -0.266
       0.163
       0.559
       0.649
       0.449
       0.225
       0.193
       0.314
       0.387
       0.282
       0.059
      -0.134
      -0.206
      -0.168
      -0.060
       0.083
       0.215
       0.248
       0.096
      -0.232
      -0.584
      -0.746
      -0.599
      -0.225
       0.158
       0.360
       0.351
       0.236
       0.141
       0.106
       0.088
       0.041
      -0.011
       0.012
       0.165
       0.402
       0.597
       0.626
       0.453
       0.145
      -0.184
      -0.451
      -0.648
      -0.799
      -0.892
      -0.860
      -0.643
      -0.287
       0.013
       0.024
      -0.315
      -0.775
      -0.944
      -0.536
       0.358
       1.319
       1.886
       1.849
       1.329
       0.631
       0.046
      -0.281
      -0.358
      -0.290
      -0.201
      -0.173
      -0.245
      -0.433
      -0.721
      -1.011
      -1.137
      -0.968
      -0.520
       0.039
       0.502
       0.763
       0.850
       0.852
       0.799
       0.636
       0.316
      -0.077
      -0.337
      -0.295
       0.033
       0.440
       0.681
       0.626
       0.291
      -0.211
      -0.741
      -1.156
      -1.328
      -1.175
      -0.714
      -0.087
       0.476
       0.771
       0.744
       0.519
       0.300
       0.248
       0.423
       0.772
       1.142
       1.308
       1.062
       0.356
      -0.591
      -1.350
      -1.527
      -1.049
      -0.246
       0.367
       0.457
       0.084
      -0.405
      -0.651
      -0.514
      -0.119
       0.263
       0.398
       0.232
      -0.095
      -0.362
      -0.419
      -0.275
      -0.078
      -0.029
      -0.252
      -0.692
      -1.098
      -1.162
      -0.717
       0.119
       1.009
       1.609
       1.765
       1.530
       1.041
       0.423
      -0.181
      -0.569
      -0.583
      -0.289
       0.012
      -0.002
      -0.414
      -1.014
      -1.474
      -1.557
      -1.225
      -0.622
      -0.004
       0.365
       0.353
       0.079
      -0.121
       0.095
       0.801
       1.676
       2.169
       1.889
       0.919
      -0.214
      -0.921
      -0.960
      -0.550
      -0.116
       0.062
      -0.006
      -0.138
      -0.186
      -0.102
       0.108
       0.424
       0.744
       0.840
       0.482
      -0.305
      -1.101
      -1.320
      -0.671
       0.532
       1.510
       1.556
       0.558
      -0.878
      -1.829
      -1.720
      -0.739
       0.336
       0.774
       0.438
      -0.217
      -0.616
      -0.532
      -0.142
       0.271
       0.584
       0.825
       0.972
       0.892
       0.494
      -0.073
      -0.447
      -0.338
       0.189
       0.718
       0.803
       0.309
      -0.533
      -1.372
      -1.987
      -2.330
      -2.415
      -2.232
      -1.800
      -1.267
      -0.900
      -0.919
      -1.307
      -1.780
      -1.966
      -1.664
      -0.966
      -0.173
       0.410
       0.642
       0.581
       0.411
       0.301
       0.304
       0.339
       0.265
      -0.013
      -0.457
      -0.866
      -0.930
      -0.398
       0.732
       2.153
       3.422
       4.255
       4.660
       4.800
       4.704
       4.150
       2.888
       1.013
      -0.919
      -2.174
      -2.301
      -1.408
      -0.034
       1.194
       1.869
       1.918
       1.556
       1.149
       1.021
       1.235
       1.505
       1.359
       0.512
      -0.844
      -2.094
      -2.575
      -1.986
      -0.512
       1.338
       2.972
       3.876
       3.730
       2.559
       0.859
      -0.530
      -0.882
      -0.111
       1.054
       1.492
       0.472
      -1.774
      -4.138
      -5.359
      -4.852
      -3.046
      -1.017
       0.231
       0.332
      -0.397
      -1.321
      -1.937
      -2.132
      -2.129
      -2.244
      -2.618
      -3.098
      -3.331
      -3.022
      -2.176
      -1.122
      -0.276
       0.166
       0.314
       0.397
       0.495
       0.505
       0.335
       0.059
      -0.172
      -0.310
      -0.415
      -0.482
      -0.352
       0.111
       0.794
       1.332
       1.389
       0.957
       0.362
      -0.014
      -0.051
       0.063
       0.091
       0.022
       0.039
       0.222
       0.329
      -0.033
      -0.973
      -2.065
      -2.580
      -2.007
      -0.410
       1.672
       3.606
       4.960
       5.544
       5.334
       4.463
       3.270
       2.225
       1.680
       1.623
       1.698
       1.514
       0.948
       0.160
      -0.631
      -1.295
      -1.729
      -1.764
      -1.287
      -0.504
      -0.006
      -0.403
      -1.747
      -3.287
      -3.888
      -2.882
      -0.649
       1.614
       2.783
       2.587
       1.664
       0.910
       0.752
       0.945
       0.954
       0.529
      -0.066
      -0.289
       0.185
       1.151
       1.957
       1.917
       0.774
      -1.099
      -2.903
      -3.895
      -3.825
      -3.039
      -2.201
      -1.880
      -2.252
      -3.047
      -3.708
      -3.666
      -2.653
      -0.930
       0.756
       1.590
       1.235
       0.074
      -1.081
      -1.578
      -1.297
      -0.556
       0.203
       0.656
       0.680
       0.361
      -0.037
      -0.206
       0.011
       0.492
       0.912
       0.995
       0.748
       0.492
       0.609
       1.168
       1.753
       1.700
       0.640
      -1.104
      -2.643
      -3.106
      -2.221
      -0.424
       1.494
       2.839
       3.276
       2.868
       1.988
       1.186
       0.975
       1.586
       2.809
       4.064
       4.725
       4.506
       3.604
       2.501
       1.614
       1.099
       0.906
       0.917
       1.013
       1.071
       0.972
       0.656
       0.142
      -0.500
      -1.198
      -1.879
      -2.452
      -2.803
      -2.808
      -2.387
      -1.600
      -0.721
      -0.173
      -0.298
      -1.104
      -2.208
      -3.050
      -3.215
      -2.645
      -1.637
      -0.672
      -0.193
      -0.421
      -1.276
      -2.408
      -3.356
      -3.781
      -3.648
      -3.185
      -2.660
      -2.189
      -1.744
      -1.286
      -0.789
      -0.178
       0.668
       1.745
       2.789
       3.383
       3.289
       2.687
       2.064
       1.794
       1.814
       1.692
       1.065
       0.050
      -0.738
      -0.614
       0.622
       2.443
       3.894
       4.211
       3.287
       1.669
       0.150
      -0.736
      -0.953
      -0.844
      -0.777
      -0.840
      -0.826
      -0.508
       0.048
       0.450
       0.270
      -0.589
      -1.774
      -2.691
      -2.870
      -2.209
      -0.994
       0.283
       1.158
       1.381
       1.017
       0.410
      -0.007
       0.030
       0.433
       0.834
       0.879
       0.517
       0.077
       0.040
       0.668
       1.752
       2.717
       3.014
       2.474
       1.344
       0.038
      -1.093
      -1.784
      -1.797
      -0.998
       0.439
       1.961
       2.888
       2.814
       1.831
       0.429
      -0.815
      -1.496
      -1.507
      -1.023
      -0.418
      -0.093
      -0.263
      -0.827
      -1.471
      -1.942
      -2.228
      -2.446
      -2.566
      -2.311
      -1.453
      -0.239
       0.536
       0.067
      -1.684
      -3.721
      -4.634
      -3.658
      -1.259
       1.233
       2.578
       2.394
       1.225
       0.018
      -0.521
      -0.283
       0.323
       0.752
       0.715
       0.308
      -0.144
      -0.374
      -0.338
      -0.182
      -0.083
      -0.141
      -0.351
      -0.634
      -0.878
      -0.977
      -0.846
      -0.451
       0.167
       0.840
       1.319
       1.448
       1.349
       1.393
       1.881
       2.717
       3.408
       3.444
       2.707
       1.550
       0.517
      -0.038
      -0.136
      -0.054
      -0.041
      -0.097
      -0.020
       0.347
       0.886
       1.226
       1.003
       0.159
      -0.945
      -1.701
      -1.608
      -0.587
       0.949
       2.339
       3.063
       3.023
       2.516
       1.934
       1.435
       0.852
      -0.096
      -1.473
      -2.963
      -4.035
      -4.282
      -3.676
      -2.544
      -1.336
      -0.404
       0.086
       0.148
      -0.043
      -0.230
      -0.220
      -0.044
       0.049
      -0.205
      -0.821
      -1.476
      -1.681
      -1.125
       0.053
       1.275
       1.856
       1.440
       0.216
      -1.264
      -2.490
      -3.273
      -3.696
      -3.879
      -3.858
      -3.649
      -3.317
      -2.929
      -2.462
      -1.836
      -1.059
      -0.287
       0.299
       0.692
       1.116
       1.819
       2.769
       3.566
       3.730
       3.171
       2.372
       2.052
       2.566
       3.582
       4.332
       4.204
       3.209
       1.964
       1.250
       1.484
       2.465
       3.551
       4.103
       3.848
       2.913
       1.618
       0.281
      -0.817
      -1.431
      -1.426
      -0.900
      -0.218
       0.157
      -0.079
      -0.883
      -1.880
      -2.577
      -2.627
      -2.008
      -1.013
      -0.095
       0.367
       0.230
      -0.383
      -1.204
      -2.001
      -2.690
      -3.297
      -3.836
      -4.211
      -4.275
      -3.957
      -3.339
      -2.579
      -1.774
      -0.920
      -0.004
       0.885
       1.552
       1.799
       1.544
       0.857
      -0.037
      -0.787
      -1.030
      -0.610
       0.256
       1.078
       1.439
       1.304
       1.007
       0.930
       1.162
       1.446
       1.431
       0.970
       0.208
      -0.565
      -1.110
      -1.333
      -1.264
      -0.998
      -0.614
      -0.145
       0.394
       0.927
       1.269
       1.202
       0.648
      -0.182
      -0.821
      -0.784
       0.093
       1.489
       2.747
       3.266
       2.853
       1.810
       0.737
       0.197
       0.425
       1.211
       2.046
       2.449
       2.269
       1.715
       1.121
       0.660
       0.225
      -0.430
      -1.402
      -2.416
      -2.912
      -2.473
      -1.255
       0.015
       0.558
       0.175
      -0.592
      -0.935
