Origin Time       16/4/2013 01:23:19	 UTC
Lat.              26.3 N	
Long.             92.0 E	
Depth (Km)         16.0
Magnitude         4.6
 Region           Assam-Darrang                                                    
 Above details taken from IMD 
    
Station Code      TZP
Station Lat.       26.619  N
Station Long.      92.797  E
Station Height(m)   76.0
Site Class        B   Vs30 between 375 m/sec to 700 m/sec *  
Record Time       16.04.2013 01:23:29.389 UTC
Sampling Rate     200. Hz
 Record Duration   83.915 Sec.
 Direction         N-S (N positive)
Max. Acceleration     -5.308 cm/sec**2
     
  * For reference see Site Classification link of website 
     
 Base Line Corrected and Low Pass Filtered (Cut Off at 35 Hz) Time History
 Acceleration data in cm/sec**2
    
[...]
       0.067
       0.201
       0.298
       0.240
      -0.024
      -0.410
      -0.736
      -0.833
      -0.668
      -0.359
      -0.087
       0.019
      -0.054
      -0.216
      -0.339
      -0.333
      -0.190
       0.003
       0.117
       0.069
      -0.100
      -0.239
      -0.204
       0.016
       0.265
       0.341
       0.162
      -0.159
      -0.401
      -0.411
      -0.211
       0.040
       0.183
       0.180
       0.109
       0.074
       0.120
       0.212
       0.294
       0.336
       0.345
       0.346
       0.344
       0.322
       0.252
       0.119
      -0.053
      -0.200
      -0.253
      -0.187
      -0.053
       0.056
       0.085
       0.062
       0.073
       0.177
       0.345
       0.483
       0.513
       0.427
       0.270
       0.089
      -0.103
      -0.300
      -0.477
      -0.585
      -0.589
      -0.500
      -0.369
      -0.253
      -0.185
      -0.161
      -0.143
      -0.082
       0.050
       0.233
       0.400
       0.474
       0.415
       0.260
       0.111
       0.073
       0.177
       0.342
       0.428
       0.344
       0.127
      -0.076
      -0.127
      -0.016
       0.132
       0.158
       0.016
      -0.194
      -0.309
      -0.239
      -0.036
       0.156
       0.205
       0.082
      -0.135
      -0.332
      -0.432
      -0.436
      -0.392
      -0.341
      -0.293
      -0.251
      -0.236
      -0.286
      -0.414
      -0.574
      -0.671
      -0.618
      -0.399
      -0.087
       0.197
       0.350
       0.341
       0.220
       0.078
      -0.012
      -0.030
      -0.016
      -0.022
      -0.066
      -0.108
      -0.078
       0.057
       0.250
       0.394
       0.397
       0.255
       0.060
      -0.051
       0.004
       0.189
       0.350
       0.323
       0.063
      -0.295
      -0.523
      -0.468
      -0.173
       0.161
       0.332
       0.293
       0.154
       0.061
       0.072
       0.145
       0.215
       0.278
       0.387
       0.572
       0.768
       0.846
       0.711
       0.396
       0.051
      -0.166
      -0.197
      -0.110
      -0.024
      -0.010
      -0.051
      -0.082
      -0.053
       0.022
       0.085
       0.081
      -0.004
      -0.131
      -0.240
      -0.291
      -0.284
      -0.255
      -0.240
      -0.253
      -0.284
      -0.321
      -0.360
      -0.398
      -0.412
      -0.368
      -0.250
      -0.085
       0.067
       0.154
       0.169
       0.141
       0.109
       0.095
       0.107
       0.143
       0.182
       0.175
       0.069
      -0.141
      -0.384
      -0.544
      -0.543
      -0.400
      -0.214
      -0.082
      -0.027
       0.008
       0.090
       0.218
       0.317
       0.297
       0.136
      -0.088
      -0.252
      -0.271
      -0.161
      -0.020
       0.044
      -0.007
      -0.123
      -0.214
      -0.222
      -0.148
      -0.027
       0.111
       0.240
       0.329
       0.340
       0.261
       0.137
       0.049
       0.062
       0.166
       0.286
       0.334
       0.279
       0.165
       0.071
       0.045
       0.080
       0.130
       0.150
       0.127
       0.084
       0.061
       0.077
       0.121
       0.157
       0.157
       0.125
       0.095
       0.101
       0.142
       0.182
       0.170
       0.071
      -0.098
      -0.271
      -0.359
      -0.313
      -0.165
      -0.014
       0.049
       0.009
      -0.063
      -0.078
      -0.012
       0.076
       0.105
       0.044
      -0.064
      -0.139
      -0.128
      -0.027
       0.133
       0.303
       0.423
       0.425
       0.262
      -0.048
      -0.408
      -0.676
      -0.750
      -0.626
      -0.392
      -0.174
      -0.069
      -0.106
      -0.235
      -0.354
      -0.358
      -0.201
       0.065
       0.313
       0.419
       0.354
       0.195
       0.058
       0.000
      -0.025
      -0.109
      -0.303
      -0.566
      -0.789
      -0.871
      -0.788
      -0.589
      -0.349
      -0.105
       0.162
       0.487
       0.856
       1.181
       1.344
       1.280
       1.035
       0.743
       0.530
       0.434
       0.392
       0.309
       0.151
      -0.020
      -0.084
       0.043
       0.341
       0.701
       0.981
       1.081
       0.965
       0.661
       0.248
      -0.151
      -0.405
      -0.437
      -0.297
      -0.166
      -0.266
      -0.705
      -1.378
      -2.017
      -2.367
      -2.361
      -2.144
      -1.943
      -1.889
      -1.943
      -1.957
      -1.811
      -1.496
      -1.106
      -0.752
      -0.490
      -0.318
      -0.213
      -0.183
      -0.258
      -0.449
      -0.704
      -0.910
      -0.953
      -0.785
      -0.458
      -0.088
       0.228
       0.487
       0.767
       1.149
       1.625
       2.086
       2.382
       2.429
       2.252
       1.970
       1.721
       1.599
       1.616
       1.725
       1.844
       1.897
       1.828
       1.616
       1.283
       0.890
       0.525
       0.267
       0.158
       0.182
       0.275
       0.363
       0.426
       0.527
       0.762
       1.154
       1.590
       1.861
       1.804
       1.425
       0.907
       0.484
       0.295
       0.307
       0.366
       0.311
       0.075
      -0.295
      -0.693
      -1.021
      -1.217
      -1.243
      -1.078
      -0.728
      -0.253
       0.225
       0.558
       0.635
       0.457
       0.131
      -0.208
      -0.508
      -0.839
      -1.307
      -1.921
      -2.549
      -3.009
      -3.214
      -3.225
      -3.172
      -3.122
      -3.031
      -2.813
      -2.448
      -2.007
      -1.599
      -1.290
      -1.089
      -0.985
      -0.988
      -1.116
      -1.355
      -1.643
      -1.887
      -1.992
      -1.878
      -1.495
      -0.844
      -0.002
       0.885
       1.662
       2.237
       2.609
       2.819
       2.872
       2.708
       2.256
       1.533
       0.691
      -0.026
      -0.405
      -0.368
       0.003
       0.527
       1.019
       1.368
       1.575
       1.727
       1.947
       2.304
       2.754
       3.143
       3.289
       3.100
       2.650
       2.127
       1.700
       1.398
       1.113
       0.734
       0.270
      -0.139
      -0.338
      -0.278
      -0.037
       0.258
       0.514
       0.699
       0.786
       0.711
       0.388
      -0.210
      -0.975
      -1.678
      -2.085
      -2.105
      -1.848
      -1.534
      -1.313
      -1.163
      -0.929
      -0.486
       0.118
       0.676
       0.959
       0.888
       0.572
       0.203
      -0.105
      -0.390
      -0.775
      -1.317
      -1.908
      -2.327
      -2.404
      -2.154
      -1.776
      -1.501
      -1.428
      -1.467
      -1.435
      -1.230
      -0.919
      -0.684
      -0.662
      -0.819
      -0.978
      -0.978
      -0.822
      -0.675
      -0.707
      -0.921
      -1.145
      -1.173
      -0.935
      -0.525
      -0.095
       0.271
       0.569
       0.805
       0.956
       1.003
       0.995
       1.047
       1.240
       1.540
       1.806
       1.899
       1.790
       1.576
       1.407
       1.402
       1.601
       1.979
       2.466
       2.961
       3.331
       3.445
       3.224
       2.687
       1.964
       1.234
       0.632
       0.180
      -0.206
      -0.624
      -1.088
      -1.494
      -1.680
      -1.537
      -1.079
      -0.439
       0.206
       0.705
       0.952
       0.871
       0.395
      -0.496
      -1.703
      -2.987
      -4.050
      -4.678
      -4.843
      -4.670
      -4.312
      -3.841
      -3.245
      -2.507
      -1.681
      -0.879
      -0.214
       0.259
       0.552
       0.724
       0.839
       0.951
       1.095
       1.274
       1.463
       1.633
       1.779
       1.920
       2.059
       2.137
       2.061
       1.791
       1.403
       1.060
       0.886
       0.868
       0.861
       0.715
       0.407
       0.079
      -0.060
       0.092
       0.440
       0.739
       0.767
       0.480
       0.025
      -0.379
      -0.604
      -0.688
      -0.773
      -0.964
      -1.207
      -1.303
      -1.037
      -0.335
       0.654
       1.626
       2.278
       2.466
       2.248
       1.818
       1.365
       0.978
       0.650
       0.348
       0.068
      -0.182
      -0.415
      -0.666
      -0.944
      -1.182
      -1.259
      -1.094
      -0.733
      -0.355
      -0.195
      -0.413
      -1.005
      -1.809
      -2.580
      -3.110
      -3.326
      -3.302
      -3.194
      -3.131
      -3.134
      -3.101
      -2.873
      -2.323
      -1.448
      -0.397
       0.575
       1.228
       1.462
       1.365
       1.153
       1.040
       1.123
       1.359
       1.628
       1.825
       1.929
       2.011
       2.181
       2.503
       2.939
       3.358
       3.598
       3.541
       3.157
       2.502
       1.701
       0.935
       0.400
       0.238
       0.457
       0.902
       1.325
       1.514
       1.401
       1.086
       0.742
       0.474
       0.242
      -0.095
      -0.649
      -1.386
      -2.129
      -2.672
      -2.884
      -2.752
      -2.335
      -1.720
      -1.032
      -0.432
      -0.088
      -0.081
      -0.350
      -0.729
      -1.045
      -1.215
      -1.256
      -1.240
      -1.236
      -1.283
      -1.368
      -1.439
      -1.424
      -1.282
      -1.034
      -0.759
      -0.550
      -0.443
      -0.385
      -0.281
      -0.078
       0.173
       0.341
       0.321
       0.125
      -0.109
      -0.202
      -0.054
       0.270
       0.554
       0.552
       0.145
      -0.558
      -1.259
      -1.627
      -1.482
      -0.888
      -0.092
       0.626
       1.091
       1.285
       1.296
       1.236
       1.176
       1.130
       1.051
       0.854
       0.470
      -0.067
      -0.579
      -0.815
      -0.602
       0.019
       0.818
       1.519
       1.967
       2.183
       2.289
       2.394
       2.533
       2.666
       2.712
       2.568
       2.144
       1.419
       0.504
      -0.374
      -0.982
      -1.231
      -1.222
      -1.151
      -1.138
      -1.134
      -0.991
      -0.615
      -0.092
       0.356
       0.521
       0.356
       0.007
      -0.312
      -0.477
      -0.552
      -0.730
      -1.167
      -1.827
      -2.453
      -2.725
      -2.472
      -1.799
      -1.014
      -0.436
      -0.211
      -0.271
      -0.417
      -0.460
      -0.323
      -0.068
       0.153
       0.195
       0.003
      -0.368
      -0.814
      -1.252
      -1.643
      -1.938
      -2.029
      -1.795
      -1.214
      -0.437
       0.275
       0.714
       0.862
       0.892
       1.006
       1.266
       1.535
       1.607
       1.405
       1.080
       0.932
       1.207
       1.917
       2.808
       3.486
       3.633
       3.178
       2.339
       1.507
       1.024
       0.995
       1.225
       1.347
       1.059
       0.326
      -0.593
      -1.311
      -1.548
      -1.274
      -0.676
      -0.017
       0.507
       0.799
       0.817
       0.529
      -0.079
      -0.934
      -1.839
      -2.529
      -2.818
      -2.720
      -2.459
      -2.329
      -2.490
      -2.851
      -3.117
      -2.983
      -2.344
      -1.375
      -0.424
       0.205
       0.421
       0.351
       0.200
       0.103
       0.061
      -0.010
      -0.190
      -0.488
      -0.841
      -1.120
      -1.180
      -0.915
      -0.336
       0.400
       1.059
       1.468
       1.620
       1.664
       1.784
       2.053
       2.386
       2.591
       2.490
       2.023
       1.277
       0.447
      -0.254
      -0.681
      -0.795
      -0.653
      -0.342
       0.063
       0.523
       1.013
       1.504
       1.945
       2.263
       2.369
       2.200
       1.768
       1.185
       0.612
       0.153
      -0.210
      -0.582
      -1.032
      -1.495
      -1.799
      -1.788
      -1.437
      -0.882
      -0.337
       0.025
       0.152
       0.106
       0.004
      -0.058
      -0.035
       0.072
       0.218
       0.316
       0.252
      -0.045
      -0.522
      -0.987
      -1.202
      -1.031
      -0.547
      -0.011
       0.288
       0.218
      -0.120
      -0.489
      -0.700
      -0.731
      -0.689
      -0.672
      -0.670
      -0.607
      -0.454
      -0.286
      -0.217
      -0.279
      -0.369
      -0.330
      -0.105
       0.181
       0.295
       0.076
      -0.433
      -1.010
      -1.400
      -1.471
      -1.261
      -0.908
      -0.556
      -0.289
      -0.127
      -0.054
      -0.044
      -0.097
      -0.237
      -0.486
      -0.810
      -1.101
      -1.219
      -1.090
      -0.760
      -0.363
      -0.028
       0.216
       0.421
       0.644
       0.873
       1.053
       1.153
       1.201
       1.228
       1.186
       0.963
       0.513
      -0.016
      -0.308
      -0.065
       0.767
       1.932
       3.001
       3.602
       3.586
       3.055
       2.273
       1.525
       0.997
       0.712
       0.562
       0.426
       0.278
       0.213
       0.345
       0.696
       1.166
       1.611
       1.940
       2.134
       2.182
       2.020
       1.562
       0.806
      -0.096
      -0.888
      -1.358
      -1.466
      -1.339
      -1.153
      -1.012
      -0.916
      -0.833
      -0.792
      -0.911
      -1.343
      -2.161
      -3.264
      -4.368
      -5.123
      -5.308
      -4.974
      -4.420
      -3.999
      -3.886
      -3.977
      -3.981
      -3.627
      -2.852
      -1.828
      -0.850
      -0.150
       0.216
       0.356
       0.419
       0.488
       0.541
       0.528
       0.454
       0.422
       0.580
       1.013
       1.667
       2.364
       2.911
       3.218
       3.325
       3.332
       3.300
       3.220
       3.050
       2.798
       2.542
       2.373
       2.319
       2.309
       2.222
       1.978
       1.594
       1.163
       0.796
       0.565
       0.483
       0.500
       0.524
       0.462
       0.292
       0.110
       0.087
       0.338
       0.799
       1.238
       1.412
       1.253
       0.901
       0.555
       0.296
       0.039
      -0.338
      -0.837
      -1.313
      -1.595
      -1.644
      -1.592
      -1.630
      -1.857
      -2.196
      -2.442
      -2.380
      -1.926
      -1.200
      -0.504
      -0.175
      -0.408
      -1.136
      -2.059
      -2.813
      -3.161
      -3.090
      -2.737
      -2.240
      -1.638
      -0.925
      -0.163
       0.473
       0.783
       0.687
       0.281
      -0.223
      -0.623
      -0.814
      -0.792
      -0.614
      -0.358
      -0.105
       0.069
       0.132
       0.120
       0.133
       0.280
       0.608
       1.063
       1.514
       1.822
       1.916
       1.832
       1.691
       1.629
       1.719
       1.940
       2.200
       2.394
       2.450
       2.347
       2.115
       1.814
       1.510
       1.232
       0.969
       0.687
       0.392
       0.156
       0.082
       0.213
       0.457
       0.615
       0.504
       0.093
      -0.445
      -0.838
      -0.907
      -0.709
      -0.527
      -0.677
      -1.273
      -2.102
      -2.740
      -2.821
      -2.270
      -1.329
      -0.378
       0.297
       0.608
       0.607
       0.370
      -0.064
      -0.647
      -1.260
      -1.725
      -1.895
      -1.762
      -1.477
      -1.261
      -1.255
      -1.421
      -1.562
      -1.461
      -1.029
      -0.381
       0.211
       0.471
       0.286
      -0.210
      -0.704
      -0.898
      -0.701
      -0.275
       0.103
       0.267
       0.293
       0.435
       0.925
       1.783
       2.768
       3.507
       3.689
       3.226
       2.279
       1.182
       0.295
      -0.121
       0.006
       0.546
       1.217
       1.696
       1.746
       1.329
       0.641
       0.029
      -0.185
       0.119
       0.780
       1.420
       1.623
       1.144
       0.060
      -1.247
      -2.273
      -2.670
      -2.435
      -1.885
      -1.424
      -1.279
      -1.390
      -1.529
      -1.519
      -1.368
      -1.207
      -1.118
      -1.036
      -0.819
      -0.416
       0.045
       0.339
       0.328
       0.080
      -0.174
      -0.224
      -0.036
       0.230
       0.372
       0.320
       0.199
       0.209
       0.430
       0.732
       0.861
       0.638
       0.088
      -0.561
      -1.018
      -1.067
      -0.662
       0.066
       0.859
       1.426
       1.583
       1.355
       0.982
       0.781
       0.940
       1.362
       1.706
       1.604
       0.911
      -0.184
      -1.266
      -1.927
      -1.965
      -1.446
      -0.621
       0.198
       0.747
       0.884
       0.622
       0.129
      -0.347
      -0.590
      -0.512
      -0.178
       0.253
       0.603
       0.738
       0.592
       0.181
      -0.392
      -0.971
      -1.406
      -1.622
      -1.637
      -1.524
      -1.357
      -1.183
      -1.016
      -0.848
      -0.665
      -0.474
      -0.316
      -0.236
      -0.227
      -0.197
      -0.022
       0.346
       0.804
       1.149
       1.209
       0.977
       0.626
       0.399
       0.455
       0.789
       1.268
       1.726
       2.038
       2.143
       2.027
       1.727
       1.319
       0.895
       0.532
       0.281
       0.170
       0.201
       0.312
       0.375
       0.248
      -0.121
      -0.614
      -0.991
      -1.036
      -0.711
      -0.193
       0.231
       0.324
      -0.005
      -0.695
      -1.573
      -2.376
      -2.809
      -2.667
      -1.988
      -1.091
      -0.396
      -0.141
      -0.224
      -0.319
      -0.165
       0.240
       0.688
       0.954
       0.950
       0.733
       0.421
       0.123
      -0.085
      -0.157
      -0.088
       0.054
       0.143
       0.061
      -0.204
      -0.519
      -0.684
      -0.572
      -0.227
       0.170
       0.442
       0.534
       0.521
       0.501
       0.488
       0.407
       0.197
      -0.077
      -0.230
      -0.089
       0.346
       0.857
       1.147
       1.047
       0.651
       0.243
       0.090
       0.251
       0.556
       0.753
       0.708
       0.490
       0.289
       0.240
       0.304
       0.305
       0.086
      -0.343
      -0.813
      -1.134
      -1.235
      -1.188
      -1.097
      -0.994
      -0.828
      -0.541
      -0.150
       0.234
       0.467
       0.460
       0.232
      -0.104
      -0.420
      -0.653
      -0.827
      -0.993
      -1.143
      -1.197
      -1.078
      -0.808
      -0.513
      -0.316
      -0.227
      -0.139
       0.049
       0.323
       0.557
       0.627
       0.516
       0.322
       0.180
       0.188
       0.363
       0.651
       0.939
       1.088
       0.995
       0.680
       0.318
       0.171
       0.417
       1.002
       1.648
       2.023
       1.962
       1.551
       1.019
       0.547
       0.175
      -0.150
      -0.439
      -0.616
      -0.588
      -0.364
      -0.077
       0.098
       0.082
      -0.066
      -0.212
      -0.271
      -0.260
      -0.257
      -0.320
      -0.445
      -0.591
      -0.734
      -0.876
      -1.021
