Origin Time       21/08/2013 08:41:51
Lat.              26.7 N	
Long.             92.4 E	
Depth (Km)         22.0
Magnitude         3.9
 Region           Sonitpur-Assam                                                   
 Above details taken from IMD 
     
Station Code      TZP
Station Lat.       26.619  N
Station Long.      92.797  E
Station Height(m)   76.0
Site Class        B   Vs30 between 375 m/sec to 700 m/sec *  
Record Time       21.08.2013 08:41:35.284
Sampling Rate     200. Hz
 Record Duration   82.210 Sec.
 Direction         E-W (E positive)
Max. Acceleration     -7.527 cm/sec**2
     
  * For reference see Site Classification link of website 
     
 Base Line Corrected and Low Pass Filtered (Cut Off at 35 Hz) Time History
 Acceleration data in cm/sec**2
    
[...]
      -0.095
      -0.090
      -0.107
      -0.119
      -0.087
      -0.002
       0.090
       0.130
       0.107
       0.057
       0.017
      -0.020
      -0.087
      -0.195
      -0.317
      -0.421
      -0.498
      -0.551
      -0.558
      -0.471
      -0.263
       0.027
       0.304
       0.489
       0.576
       0.617
       0.652
       0.648
       0.522
       0.230
      -0.162
      -0.513
      -0.717
      -0.765
      -0.714
      -0.599
      -0.422
      -0.184
       0.069
       0.272
       0.378
       0.383
       0.316
       0.212
       0.085
      -0.056
      -0.184
      -0.246
      -0.199
      -0.065
       0.065
       0.101
       0.045
       0.009
       0.123
       0.408
       0.744
       0.946
       0.902
       0.641
       0.308
       0.052
      -0.075
      -0.133
      -0.219
      -0.374
      -0.540
      -0.598
      -0.470
      -0.203
       0.039
       0.099
      -0.051
      -0.285
      -0.415
      -0.314
       0.007
       0.394
       0.626
       0.550
       0.200
      -0.216
      -0.460
      -0.443
      -0.256
      -0.036
       0.171
       0.402
       0.653
       0.823
       0.790
       0.531
       0.150
      -0.203
      -0.420
      -0.462
      -0.345
      -0.132
       0.074
       0.160
       0.069
      -0.151
      -0.365
      -0.449
      -0.387
      -0.270
      -0.210
      -0.261
      -0.397
      -0.554
      -0.652
      -0.624
      -0.442
      -0.159
       0.111
       0.255
       0.236
       0.103
      -0.036
      -0.062
       0.097
       0.405
       0.702
       0.796
       0.598
       0.200
      -0.186
      -0.372
      -0.310
      -0.107
       0.070
       0.101
      -0.006
      -0.128
      -0.123
       0.057
       0.318
       0.498
       0.475
       0.239
      -0.118
      -0.442
      -0.575
      -0.436
      -0.087
       0.300
       0.567
       0.680
       0.708
       0.714
       0.688
       0.580
       0.396
       0.223
       0.149
       0.161
       0.146
      -0.005
      -0.281
      -0.560
      -0.728
      -0.769
      -0.742
      -0.676
      -0.538
      -0.298
      -0.016
       0.177
       0.190
       0.066
      -0.044
      -0.028
       0.076
       0.121
       0.010
      -0.199
      -0.350
      -0.335
      -0.185
      -0.035
       0.003
      -0.057
      -0.082
       0.025
       0.192
       0.218
      -0.011
      -0.383
      -0.644
      -0.619
      -0.340
       0.015
       0.263
       0.304
       0.151
      -0.093
      -0.277
      -0.290
      -0.138
       0.081
       0.271
       0.396
       0.453
       0.433
       0.343
       0.236
       0.186
       0.223
       0.304
       0.366
       0.380
       0.348
       0.256
       0.079
      -0.163
      -0.367
      -0.415
      -0.266
      -0.005
       0.228
       0.318
       0.221
      -0.038
      -0.382
      -0.686
      -0.797
      -0.606
      -0.144
       0.383
       0.693
       0.621
       0.237
      -0.198
      -0.421
      -0.339
      -0.061
       0.220
       0.381
       0.431
       0.448
       0.463
       0.425
       0.261
      -0.015
      -0.268
      -0.344
      -0.201
       0.048
       0.225
       0.216
       0.031
      -0.213
      -0.369
      -0.354
      -0.210
      -0.073
      -0.052
      -0.120
      -0.132
       0.036
       0.343
       0.591
       0.595
       0.341
      -0.017
      -0.307
      -0.476
      -0.575
      -0.635
      -0.600
      -0.397
      -0.077
       0.153
       0.073
      -0.339
      -0.829
      -1.044
      -0.817
      -0.302
       0.180
       0.421
       0.454
       0.439
       0.463
       0.472
       0.371
       0.166
      -0.021
      -0.044
       0.144
       0.445
       0.681
       0.711
       0.534
       0.282
       0.111
       0.069
       0.074
       0.032
      -0.053
      -0.094
      -0.046
       0.017
      -0.026
      -0.216
      -0.448
      -0.562
      -0.479
      -0.278
      -0.121
      -0.096
      -0.135
      -0.082
       0.136
       0.409
       0.527
       0.380
       0.065
      -0.192
      -0.231
      -0.071
       0.140
       0.278
       0.325
       0.338
       0.351
       0.326
       0.190
      -0.067
      -0.335
      -0.425
      -0.236
       0.120
       0.350
       0.206
      -0.292
      -0.840
      -1.063
      -0.797
      -0.209
       0.330
       0.529
       0.371
       0.086
      -0.080
      -0.059
       0.032
       0.045
      -0.047
      -0.144
      -0.149
      -0.069
      -0.001
      -0.012
      -0.066
      -0.063
       0.043
       0.181
       0.226
       0.116
      -0.075
      -0.196
      -0.164
      -0.043
       0.015
      -0.085
      -0.278
      -0.382
      -0.250
       0.093
       0.442
       0.572
       0.439
       0.215
       0.132
       0.261
       0.456
       0.514
       0.377
       0.175
       0.076
       0.111
       0.150
       0.052
      -0.195
      -0.463
      -0.587
      -0.471
      -0.136
       0.290
       0.619
       0.690
       0.471
       0.098
      -0.211
      -0.311
      -0.222
      -0.071
       0.024
       0.015
      -0.086
      -0.218
      -0.284
      -0.210
      -0.029
       0.114
       0.085
      -0.108
      -0.298
      -0.308
      -0.104
       0.177
       0.346
       0.306
       0.102
      -0.141
      -0.314
      -0.401
      -0.460
      -0.542
      -0.607
      -0.537
      -0.263
       0.129
       0.425
       0.444
       0.181
      -0.189
      -0.439
      -0.434
      -0.184
       0.180
       0.500
       0.666
       0.668
       0.577
       0.486
       0.442
       0.425
       0.388
       0.299
       0.155
      -0.037
      -0.266
      -0.509
      -0.702
      -0.752
      -0.595
      -0.271
       0.077
       0.289
       0.303
       0.194
       0.102
       0.122
       0.244
       0.381
       0.449
       0.422
       0.312
       0.139
      -0.083
      -0.311
      -0.458
      -0.439
      -0.243
       0.035
       0.250
       0.291
       0.136
      -0.148
      -0.432
      -0.590
      -0.573
      -0.440
      -0.310
      -0.264
      -0.301
      -0.364
      -0.389
      -0.346
      -0.245
      -0.129
      -0.047
      -0.017
      -0.010
       0.014
       0.060
       0.099
       0.128
       0.197
       0.351
       0.546
       0.675
       0.674
       0.576
       0.445
       0.287
       0.072
      -0.165
      -0.307
      -0.258
      -0.045
       0.190
       0.308
       0.282
       0.173
       0.034
      -0.138
      -0.359
      -0.573
      -0.646
      -0.454
       0.006
       0.564
       0.968
       1.060
       0.884
       0.615
       0.389
       0.207
       0.005
      -0.220
      -0.374
      -0.350
      -0.153
       0.059
       0.067
      -0.219
      -0.646
      -0.905
      -0.781
      -0.347
       0.092
       0.260
       0.133
      -0.091
      -0.203
      -0.171
      -0.110
      -0.122
      -0.177
      -0.181
      -0.105
      -0.041
      -0.103
      -0.295
      -0.488
      -0.541
      -0.431
      -0.271
      -0.195
      -0.232
      -0.283
      -0.209
       0.050
       0.404
       0.643
       0.572
       0.173
      -0.330
      -0.609
      -0.471
      -0.011
       0.479
       0.741
       0.717
       0.507
       0.214
      -0.125
      -0.457
      -0.639
      -0.516
      -0.105
       0.359
       0.600
       0.563
       0.447
       0.484
       0.689
       0.851
       0.742
       0.337
      -0.170
      -0.513
      -0.549
      -0.319
       0.017
       0.298
       0.417
       0.327
       0.065
      -0.218
      -0.319
      -0.126
       0.266
       0.607
       0.688
       0.496
       0.201
      -0.020
      -0.128
      -0.217
      -0.364
      -0.523
      -0.562
      -0.413
      -0.162
      -0.004
      -0.091
      -0.396
      -0.722
      -0.838
      -0.648
      -0.272
       0.031
       0.045
      -0.256
      -0.687
      -0.973
      -0.922
      -0.535
       0.002
       0.436
       0.598
       0.488
       0.242
       0.021
      -0.092
      -0.105
      -0.069
      -0.014
       0.079
       0.232
       0.397
       0.456
       0.332
       0.093
      -0.085
      -0.082
       0.060
       0.184
       0.177
       0.075
       0.038
       0.199
       0.502
       0.700
       0.558
       0.084
      -0.448
      -0.717
      -0.609
      -0.263
       0.101
       0.364
       0.523
       0.579
       0.467
       0.128
      -0.362
      -0.764
      -0.797
      -0.341
       0.443
       1.177
       1.497
       1.277
       0.693
       0.077
      -0.302
      -0.372
      -0.234
      -0.042
       0.100
       0.159
       0.139
       0.053
      -0.088
      -0.259
      -0.414
      -0.496
      -0.471
      -0.373
      -0.299
      -0.333
      -0.451
      -0.512
      -0.372
      -0.037
       0.309
       0.428
       0.214
      -0.226
      -0.643
      -0.797
      -0.613
      -0.214
       0.161
       0.313
       0.209
      -0.015
      -0.157
      -0.091
       0.137
       0.323
       0.264
      -0.073
      -0.508
      -0.789
      -0.782
      -0.541
      -0.224
       0.036
       0.185
       0.217
       0.137
      -0.028
      -0.203
      -0.275
      -0.178
       0.070
       0.391
       0.692
       0.880
       0.871
       0.653
       0.336
       0.098
       0.051
       0.146
       0.251
       0.300
       0.347
       0.460
       0.597
       0.615
       0.411
       0.043
      -0.303
      -0.467
      -0.425
      -0.272
      -0.104
       0.042
       0.169
       0.259
       0.259
       0.134
      -0.063
      -0.201
      -0.166
       0.043
       0.301
       0.428
       0.290
      -0.105
      -0.564
      -0.810
      -0.687
      -0.307
       0.036
       0.097
      -0.129
      -0.426
      -0.553
      -0.441
      -0.246
      -0.175
      -0.271
      -0.376
      -0.293
       0.017
       0.399
       0.632
       0.601
       0.362
       0.073
      -0.119
      -0.165
      -0.121
      -0.096
      -0.164
      -0.293
      -0.352
      -0.234
       0.022
       0.226
       0.202
      -0.036
      -0.281
      -0.320
      -0.130
       0.109
       0.197
       0.103
      -0.030
      -0.050
       0.052
       0.157
       0.146
       0.010
      -0.160
      -0.244
      -0.174
       0.016
       0.216
       0.309
       0.268
       0.191
       0.244
       0.510
       0.878
       1.099
       0.998
       0.616
       0.160
      -0.189
      -0.384
      -0.463
      -0.443
      -0.298
      -0.040
       0.218
       0.304
       0.124
      -0.245
      -0.592
      -0.715
      -0.557
      -0.223
       0.106
       0.302
       0.343
       0.281
       0.164
      -0.002
      -0.223
      -0.452
      -0.588
      -0.550
      -0.349
      -0.086
       0.153
       0.359
       0.545
       0.658
       0.597
       0.322
      -0.077
      -0.435
      -0.636
      -0.661
      -0.543
      -0.305
       0.034
       0.414
       0.731
       0.866
       0.741
       0.372
      -0.088
      -0.382
      -0.293
       0.180
       0.780
       1.127
       0.950
       0.238
      -0.778
      -1.751
      -2.368
      -2.461
      -2.075
      -1.459
      -0.944
      -0.734
      -0.781
      -0.865
      -0.809
      -0.615
      -0.413
      -0.354
      -0.570
      -1.171
      -2.170
      -3.365
      -4.324
      -4.584
      -3.957
      -2.703
      -1.381
      -0.480
      -0.121
      -0.072
       0.000
       0.305
       0.929
       1.921
       3.292
       4.870
       6.247
       6.964
       6.845
       6.144
       5.320
       4.654
       4.085
       3.393
       2.511
       1.633
       1.055
       0.950
       1.258
       1.716
       1.942
       1.568
       0.446
      -1.183
      -2.739
      -3.620
      -3.576
      -2.845
      -1.961
      -1.423
      -1.466
      -2.033
      -2.832
      -3.381
      -3.133
      -1.746
       0.621
       3.272
       5.285
       5.972
       5.160
       3.203
       0.804
      -1.192
      -2.041
      -1.411
       0.342
       2.222
       3.100
       2.401
       0.425
      -1.958
      -3.920
      -5.086
      -5.506
      -5.398
      -4.985
      -4.485
      -4.087
      -3.806
      -3.373
      -2.422
      -0.902
       0.673
       1.514
       1.199
       0.072
      -0.996
      -1.272
      -0.639
       0.507
       1.704
       2.715
       3.445
       3.730
       3.320
       2.096
       0.266
      -1.686
      -3.248
      -4.132
      -4.318
      -3.883
      -2.831
      -1.153
       0.906
       2.732
       3.620
       3.235
       1.810
      -0.061
      -1.755
      -2.730
      -2.511
      -0.846
       1.943
       4.823
       6.493
       6.178
       4.142
       1.482
      -0.597
      -1.435
      -1.078
       0.013
       1.339
       2.559
       3.465
       3.888
       3.664
       2.696
       1.070
      -0.869
      -2.549
      -3.367
      -2.956
      -1.384
       0.842
       2.975
       4.346
       4.623
       3.870
       2.419
       0.662
      -1.065
      -2.509
      -3.475
      -3.823
      -3.515
      -2.665
      -1.567
      -0.632
      -0.263
      -0.721
      -2.033
      -3.953
      -5.954
      -7.342
      -7.527
      -6.335
      -4.135
      -1.665
       0.313
       1.279
       1.093
       0.021
      -1.336
      -2.260
      -2.254
      -1.293
       0.214
       1.731
       2.916
       3.701
       4.140
       4.239
       3.923
       3.141
       1.993
       0.796
       0.020
       0.081
       1.055
       2.519
       3.707
       3.948
       3.093
       1.564
      -0.011
      -1.275
      -2.297
      -3.307
      -4.294
      -4.881
      -4.600
      -3.305
      -1.344
       0.637
       2.034
       2.529
       2.167
       1.336
       0.624
       0.544
       1.236
       2.392
       3.472
       4.012
       3.826
       3.027
       1.982
       1.146
       0.785
       0.738
       0.526
      -0.202
      -1.286
      -2.136
      -2.204
      -1.383
      -0.009
       1.423
       2.514
       3.031
       2.876
       2.104
       0.953
      -0.218
      -1.122
      -1.715
      -2.187
      -2.767
      -3.517
      -4.276
      -4.804
      -4.963
      -4.784
      -4.376
      -3.804
      -3.069
      -2.152
      -1.053
       0.193
       1.466
       2.502
       2.947
       2.559
       1.450
       0.113
      -0.842
      -1.061
      -0.621
       0.070
       0.536
       0.451
      -0.234
      -1.289
      -2.306
      -2.859
      -2.643
      -1.569
       0.202
       2.267
       4.078
       5.111
       5.098
       4.185
       2.887
       1.800
       1.238
       1.063
       0.875
       0.405
      -0.216
      -0.563
      -0.295
       0.558
       1.628
       2.471
       2.783
       2.487
       1.738
       0.913
       0.482
       0.722
       1.479
       2.224
       2.429
       1.924
       0.908
      -0.351
      -1.757
      -3.325
      -4.936
      -6.256
      -6.907
      -6.739
      -5.948
      -4.956
      -4.168
      -3.728
      -3.440
      -2.900
      -1.811
      -0.239
       1.397
       2.600
       3.114
       3.018
       2.570
       2.011
       1.505
       1.168
       1.061
       1.116
       1.125
       0.899
       0.468
       0.109
       0.122
       0.545
       1.102
       1.406
       1.245
       0.703
       0.070
      -0.349
      -0.363
       0.028
       0.633
       1.129
       1.233
       0.885
       0.315
      -0.104
      -0.118
       0.214
       0.574
       0.655
       0.415
       0.074
      -0.109
      -0.050
       0.169
       0.435
       0.685
       0.861
       0.834
       0.482
      -0.131
      -0.692
      -0.843
      -0.492
       0.080
       0.438
       0.340
      -0.106
      -0.594
      -0.888
      -0.951
      -0.865
      -0.682
      -0.390
       0.014
       0.462
       0.858
       1.154
       1.337
       1.370
       1.200
       0.838
       0.416
       0.086
      -0.126
      -0.341
      -0.663
      -1.026
      -1.232
      -1.144
      -0.814
      -0.434
      -0.187
      -0.172
      -0.409
      -0.838
      -1.304
      -1.564
      -1.411
      -0.844
      -0.145
       0.275
       0.169
      -0.346
      -0.882
      -1.069
      -0.811
      -0.341
      -0.076
      -0.374
      -1.287
      -2.440
      -3.181
      -2.979
      -1.834
      -0.342
       0.678
       0.740
      -0.004
      -0.916
      -1.353
      -1.071
      -0.285
       0.591
       1.240
       1.578
       1.700
       1.771
       1.942
       2.286
       2.739
       3.105
       3.169
       2.858
       2.334
       1.888
       1.714
       1.749
       1.752
       1.543
       1.184
       0.935
       1.036
       1.511
       2.142
       2.614
       2.676
       2.259
       1.484
       0.610
      -0.081
      -0.444
      -0.561
      -0.668
      -0.971
      -1.510
      -2.178
      -2.824
      -3.345
      -3.704
      -3.905
      -3.964
      -3.896
      -3.706
      -3.369
      -2.829
      -2.075
      -1.238
      -0.599
      -0.436
      -0.810
      -1.469
      -1.972
      -1.952
      -1.326
      -0.315
       0.705
       1.411
       1.697
       1.682
       1.562
       1.426
       1.204
       0.811
       0.307
      -0.078
      -0.108
       0.274
       0.900
       1.472
       1.723
       1.537
       0.978
       0.261
      -0.316
      -0.478
      -0.096
       0.720
       1.644
       2.287
       2.397
       1.983
       1.306
       0.743
       0.579
       0.840
       1.283
       1.563
       1.457
       0.987
       0.384
      -0.060
      -0.162
       0.057
       0.390
       0.581
       0.499
       0.218
      -0.070
      -0.254
      -0.421
      -0.773
      -1.412
      -2.189
      -2.778
      -2.936
      -2.700
      -2.330
      -2.063
      -1.937
      -1.830
      -1.624
      -1.288
      -0.852
      -0.363
       0.114
       0.465
       0.586
       0.497
       0.381
       0.454
       0.756
       1.089
       1.182
       0.924
       0.473
       0.145
       0.189
       0.594
       1.073
       1.239
       0.884
       0.140
      -0.597
      -0.934
      -0.707
      -0.029
       0.798
       1.420
       1.561
       1.141
       0.334
      -0.501
      -1.025
      -1.120
      -0.925
      -0.685
      -0.539
      -0.435
      -0.241
       0.093
       0.478
       0.760
       0.833
       0.680
       0.339
      -0.119
      -0.574
      -0.866
      -0.871
      -0.622
      -0.320
      -0.195
      -0.295
      -0.419
      -0.284
       0.219
       0.898
       1.411
       1.532
       1.317
       1.023
       0.898
       1.032
       1.353
       1.706
       1.933
       1.893
       1.513
       0.849
       0.115
      -0.404
      -0.521
      -0.277
       0.103
       0.373
       0.409
       0.223
      -0.086
      -0.407
      -0.672
      -0.909
      -1.209
