Origin Time       21/08/2013 06:57:20
Lat.              26.7 N	
Long.             92.5 E	
Depth (Km)         30.0
Magnitude         4.2
 Region           Sonitpur-Assam                                                   
 Above details taken from IMD 
     
Station Code      TZP
Station Lat.       26.619  N
Station Long.      92.797  E
Station Height(m)   76.0
Site Class        B   Vs30 between 375 m/sec to 700 m/sec *  
Record Time       21.08.2013 06:57:04.889
Sampling Rate     200. Hz
 Record Duration   82.320 Sec.
 Direction         E-W (E positive)
Max. Acceleration     13.473 cm/sec**2
     
  * For reference see Site Classification link of website 
     
 Base Line Corrected and Low Pass Filtered (Cut Off at 35 Hz) Time History
 Acceleration data in cm/sec**2
    
[...]
       0.159
       0.158
       0.121
       0.091
       0.087
       0.089
       0.062
      -0.001
      -0.061
      -0.066
      -0.004
       0.058
       0.021
      -0.152
      -0.371
      -0.474
      -0.365
      -0.102
       0.149
       0.268
       0.272
       0.265
       0.304
       0.345
       0.312
       0.191
       0.046
      -0.056
      -0.110
      -0.160
      -0.229
      -0.290
      -0.300
      -0.247
      -0.162
      -0.079
      -0.001
       0.086
       0.181
       0.246
       0.238
       0.148
       0.015
      -0.110
      -0.190
      -0.203
      -0.148
      -0.063
      -0.010
      -0.008
       0.002
       0.098
       0.276
       0.431
       0.445
       0.300
       0.091
      -0.071
      -0.146
      -0.169
      -0.188
      -0.218
      -0.244
      -0.253
      -0.234
      -0.181
      -0.098
      -0.012
       0.047
       0.071
       0.084
       0.101
       0.103
       0.065
      -0.002
      -0.043
      -0.006
       0.096
       0.164
       0.096
      -0.098
      -0.266
      -0.239
       0.002
       0.303
       0.472
       0.434
       0.250
       0.036
      -0.136
      -0.263
      -0.362
      -0.405
      -0.315
      -0.056
       0.276
       0.472
       0.378
       0.052
      -0.253
      -0.297
      -0.063
       0.229
       0.317
       0.124
      -0.193
      -0.404
      -0.410
      -0.281
      -0.140
      -0.026
       0.101
       0.264
       0.412
       0.470
       0.424
       0.338
       0.280
       0.248
       0.176
       0.007
      -0.251
      -0.525
      -0.724
      -0.777
      -0.654
      -0.388
      -0.065
       0.189
       0.281
       0.220
       0.137
       0.185
       0.396
       0.633
       0.697
       0.505
       0.160
      -0.133
      -0.242
      -0.196
      -0.135
      -0.178
      -0.342
      -0.533
      -0.612
      -0.484
      -0.180
       0.151
       0.339
       0.317
       0.153
      -0.016
      -0.086
      -0.031
       0.105
       0.231
       0.256
       0.142
      -0.061
      -0.243
      -0.318
      -0.271
      -0.147
       0.003
       0.148
       0.260
       0.310
       0.286
       0.220
       0.160
       0.102
      -0.012
      -0.218
      -0.449
      -0.553
      -0.433
      -0.152
       0.111
       0.219
       0.171
       0.065
      -0.015
      -0.031
       0.041
       0.207
       0.400
       0.471
       0.301
      -0.050
      -0.357
      -0.416
      -0.224
       0.031
       0.154
       0.100
      -0.031
      -0.120
      -0.125
      -0.078
      -0.030
      -0.014
      -0.029
      -0.037
       0.019
       0.160
       0.333
       0.441
       0.413
       0.249
       0.008
      -0.226
      -0.372
      -0.370
      -0.211
       0.042
       0.266
       0.337
       0.216
      -0.030
      -0.267
      -0.385
      -0.361
      -0.260
      -0.169
      -0.118
      -0.065
       0.034
       0.147
       0.181
       0.082
      -0.097
      -0.247
      -0.294
      -0.226
      -0.070
       0.131
       0.322
       0.455
       0.517
       0.514
       0.432
       0.239
      -0.045
      -0.300
      -0.374
      -0.229
      -0.006
       0.072
      -0.100
      -0.431
      -0.708
      -0.772
      -0.603
      -0.294
       0.056
       0.399
       0.717
       0.940
       0.934
       0.613
       0.073
      -0.409
      -0.571
      -0.376
      -0.046
       0.141
       0.083
      -0.097
      -0.207
      -0.173
      -0.071
       0.006
       0.069
       0.205
       0.432
       0.621
       0.579
       0.232
      -0.278
      -0.685
      -0.783
      -0.559
      -0.182
       0.121
       0.217
       0.138
       0.037
       0.046
       0.172
       0.302
       0.310
       0.159
      -0.079
      -0.277
      -0.334
      -0.232
      -0.045
       0.093
       0.077
      -0.086
      -0.257
      -0.266
      -0.060
       0.249
       0.472
       0.491
       0.321
       0.067
      -0.161
      -0.296
      -0.315
      -0.221
      -0.042
       0.176
       0.369
       0.453
       0.358
       0.085
      -0.258
      -0.496
      -0.503
      -0.298
      -0.027
       0.140
       0.113
      -0.076
      -0.309
      -0.452
      -0.440
      -0.306
      -0.144
      -0.013
       0.124
       0.351
       0.675
       0.961
       1.004
       0.699
       0.151
      -0.375
      -0.644
      -0.605
      -0.392
      -0.182
      -0.057
      -0.004
      -0.004
      -0.084
      -0.254
      -0.434
      -0.495
      -0.380
      -0.157
       0.061
       0.209
       0.284
       0.290
       0.226
       0.120
       0.033
       0.018
       0.065
       0.115
       0.126
       0.114
       0.127
       0.183
       0.255
       0.294
       0.252
       0.099
      -0.152
      -0.407
      -0.523
      -0.419
      -0.167
       0.057
       0.119
       0.033
      -0.080
      -0.105
      -0.016
       0.134
       0.248
       0.241
       0.101
      -0.074
      -0.129
      -0.001
       0.190
       0.236
       0.055
      -0.207
      -0.319
      -0.191
       0.053
       0.211
       0.186
       0.044
      -0.070
      -0.065
       0.035
       0.147
       0.205
       0.207
       0.175
       0.109
      -0.018
      -0.221
      -0.440
      -0.550
      -0.448
      -0.168
       0.121
       0.237
       0.136
      -0.068
      -0.210
      -0.203
      -0.079
       0.074
       0.176
       0.196
       0.151
       0.098
       0.109
       0.208
       0.334
       0.376
       0.255
      -0.006
      -0.286
      -0.432
      -0.352
      -0.075
       0.245
       0.401
       0.257
      -0.155
      -0.627
      -0.875
      -0.716
      -0.201
       0.385
       0.685
       0.517
       0.020
      -0.420
      -0.468
      -0.114
       0.322
       0.468
       0.217
      -0.190
      -0.391
      -0.207
       0.215
       0.554
       0.584
       0.351
       0.093
       0.001
       0.060
       0.115
       0.065
      -0.042
      -0.119
      -0.170
      -0.283
      -0.485
      -0.654
      -0.618
      -0.328
       0.073
       0.362
       0.388
       0.156
      -0.177
      -0.379
      -0.271
       0.135
       0.590
       0.771
       0.554
       0.146
      -0.100
      -0.016
       0.221
       0.279
      -0.001
      -0.451
      -0.734
      -0.623
      -0.165
       0.369
       0.660
       0.537
       0.079
      -0.432
      -0.688
      -0.566
      -0.193
       0.165
       0.323
       0.281
       0.172
       0.116
       0.138
       0.175
       0.157
       0.054
      -0.117
      -0.300
      -0.420
      -0.412
      -0.262
      -0.026
       0.191
       0.286
       0.229
       0.086
      -0.027
      -0.022
       0.093
       0.233
       0.292
       0.221
       0.061
      -0.098
      -0.189
      -0.208
      -0.196
      -0.194
      -0.204
      -0.203
      -0.176
      -0.135
      -0.102
      -0.067
      -0.001
       0.103
       0.200
       0.227
       0.161
       0.042
      -0.054
      -0.083
      -0.070
      -0.073
      -0.111
      -0.131
      -0.061
       0.108
       0.306
       0.441
       0.444
       0.291
       0.022
      -0.255
      -0.403
      -0.343
      -0.115
       0.154
       0.326
       0.325
       0.158
      -0.096
      -0.321
      -0.407
      -0.316
      -0.109
       0.101
       0.231
       0.276
       0.261
       0.191
       0.063
      -0.084
      -0.182
      -0.201
      -0.174
      -0.142
      -0.098
      -0.010
       0.100
       0.147
       0.077
      -0.054
      -0.127
      -0.080
       0.035
       0.137
       0.211
       0.288
       0.362
       0.357
       0.219
      -0.005
      -0.196
      -0.271
      -0.230
      -0.122
       0.008
       0.116
       0.141
       0.028
      -0.217
      -0.490
      -0.652
      -0.619
      -0.408
      -0.119
       0.108
       0.163
       0.031
      -0.172
      -0.275
      -0.182
       0.048
       0.278
       0.421
       0.487
       0.517
       0.509
       0.445
       0.351
       0.269
       0.178
      -0.004
      -0.303
      -0.588
      -0.651
      -0.396
       0.054
       0.434
       0.530
       0.311
      -0.075
      -0.411
      -0.545
      -0.464
      -0.268
      -0.081
       0.018
       0.026
      -0.009
      -0.027
       0.023
       0.161
       0.359
       0.537
       0.592
       0.469
       0.222
      -0.013
      -0.121
      -0.102
      -0.078
      -0.181
      -0.421
      -0.646
      -0.660
      -0.407
      -0.027
       0.261
       0.334
       0.236
       0.105
       0.053
       0.100
       0.190
       0.236
       0.180
       0.031
      -0.128
      -0.201
      -0.164
      -0.088
      -0.051
      -0.048
      -0.025
       0.022
       0.023
      -0.062
      -0.170
      -0.200
      -0.135
      -0.073
      -0.121
      -0.280
      -0.426
      -0.413
      -0.198
       0.115
       0.363
       0.463
       0.465
       0.477
       0.539
       0.594
       0.561
       0.431
       0.256
       0.071
      -0.139
      -0.405
      -0.693
      -0.913
      -0.975
      -0.857
      -0.608
      -0.290
       0.065
       0.436
       0.747
       0.883
       0.790
       0.560
       0.360
       0.274
       0.240
       0.154
       0.011
      -0.089
      -0.079
      -0.023
      -0.068
      -0.279
      -0.545
      -0.671
      -0.548
      -0.247
       0.056
       0.231
       0.252
       0.155
      -0.003
      -0.167
      -0.281
      -0.321
      -0.297
      -0.222
      -0.092
       0.080
       0.231
       0.276
       0.200
       0.102
       0.122
       0.300
       0.524
       0.625
       0.518
       0.258
      -0.041
      -0.294
      -0.473
      -0.552
      -0.484
      -0.274
      -0.039
       0.062
      -0.014
      -0.146
      -0.169
      -0.043
       0.111
       0.137
      -0.011
      -0.237
      -0.393
      -0.399
      -0.258
      -0.015
       0.264
       0.479
       0.517
       0.350
       0.095
      -0.076
      -0.096
      -0.045
      -0.028
      -0.034
       0.039
       0.222
       0.385
       0.361
       0.143
      -0.070
      -0.067
       0.160
       0.405
       0.448
       0.260
       0.011
      -0.109
      -0.073
      -0.034
      -0.154
      -0.435
      -0.707
      -0.790
      -0.640
      -0.351
      -0.063
       0.128
       0.200
       0.209
       0.238
       0.323
       0.415
       0.437
       0.377
       0.313
       0.333
       0.439
       0.516
       0.429
       0.160
      -0.160
      -0.372
      -0.439
      -0.455
      -0.520
      -0.626
      -0.694
      -0.687
      -0.637
      -0.565
      -0.439
      -0.235
      -0.014
       0.132
       0.197
       0.282
       0.460
       0.662
       0.715
       0.520
       0.154
      -0.178
      -0.303
      -0.177
       0.101
       0.364
       0.476
       0.397
       0.193
      -0.045
      -0.280
      -0.514
      -0.701
      -0.710
      -0.454
      -0.034
       0.288
       0.318
       0.109
      -0.085
      -0.056
       0.161
       0.339
       0.295
       0.078
      -0.105
      -0.114
      -0.006
       0.060
       0.002
      -0.131
      -0.234
      -0.239
      -0.141
       0.021
       0.181
       0.286
       0.337
       0.381
       0.447
       0.495
       0.449
       0.286
       0.086
      -0.039
      -0.063
      -0.069
      -0.161
      -0.338
      -0.483
      -0.469
      -0.290
      -0.084
      -0.027
      -0.174
      -0.405
      -0.519
      -0.391
      -0.061
       0.287
       0.470
       0.444
       0.309
       0.192
       0.119
       0.031
      -0.104
      -0.231
      -0.261
      -0.175
      -0.036
       0.094
       0.225
       0.389
       0.544
       0.558
       0.331
      -0.085
      -0.498
      -0.723
      -0.720
      -0.587
      -0.451
      -0.366
      -0.318
      -0.270
      -0.192
      -0.072
       0.057
       0.119
       0.082
       0.040
       0.158
       0.476
       0.813
       0.899
       0.636
       0.212
      -0.078
      -0.093
       0.054
       0.166
       0.168
       0.141
       0.170
       0.218
       0.170
      -0.016
      -0.237
      -0.341
      -0.277
      -0.146
      -0.112
      -0.255
      -0.497
      -0.642
      -0.509
      -0.080
       0.463
       0.839
       0.882
       0.675
       0.475
       0.463
       0.558
       0.507
       0.155
      -0.357
      -0.697
      -0.643
      -0.297
       0.009
       0.008
      -0.286
      -0.617
      -0.716
      -0.495
      -0.074
       0.330
       0.562
       0.602
       0.528
       0.401
       0.215
      -0.075
      -0.477
      -0.933
      -1.344
      -1.635
      -1.821
      -2.022
      -2.369
      -2.868
      -3.354
      -3.597
      -3.454
      -2.918
      -2.055
      -0.943
       0.326
       1.624
       2.836
       3.927
       4.909
       5.730
       6.212
       6.167
       5.577
       4.640
       3.578
       2.419
       1.012
      -0.703
      -2.503
      -4.003
      -4.973
      -5.494
      -5.801
      -6.056
      -6.273
      -6.422
      -6.497
      -6.436
      -6.007
      -4.855
      -2.740
       0.230
       3.606
       6.849
       9.589
      11.672
      13.007
      13.473
      12.978
      11.558
       9.354
       6.510
       3.145
      -0.563
      -4.252
      -7.376
      -9.366
      -9.872
      -8.924
      -6.924
      -4.484
      -2.217
      -0.575
       0.251
       0.373
       0.114
      -0.208
      -0.489
      -0.812
      -1.220
      -1.531
      -1.426
      -0.710
       0.494
       1.796
       2.772
       3.216
       3.230
       3.122
       3.183
       3.451
       3.621
       3.194
       1.845
      -0.250
      -2.430
      -3.963
      -4.514
      -4.295
      -3.807
      -3.464
      -3.422
      -3.649
      -4.001
      -4.213
      -3.902
      -2.777
      -0.941
       1.008
       2.260
       2.310
       1.299
      -0.095
      -1.085
      -1.184
      -0.324
       1.244
       3.092
       4.700
       5.606
       5.639
       5.071
       4.432
       4.081
       3.897
       3.368
       1.992
      -0.356
      -3.323
      -6.229
      -8.347
      -9.199
      -8.771
      -7.525
      -6.127
      -4.992
      -3.970
      -2.430
       0.248
       4.074
       8.165
      11.068
      11.555
       9.416
       5.676
       2.041
      -0.079
      -0.320
       0.627
       1.655
       1.993
       1.521
       0.609
      -0.261
      -0.780
      -0.940
      -1.011
      -1.371
      -2.211
      -3.311
      -4.132
      -4.248
      -3.762
      -3.271
      -3.330
      -3.899
      -4.311
      -3.836
      -2.307
      -0.236
       1.632
       2.824
       3.269
       3.119
       2.579
       1.930
       1.558
       1.812
       2.716
       3.838
       4.512
       4.315
       3.385
       2.255
       1.329
       0.501
      -0.712
      -2.650
      -5.106
      -7.406
      -8.841
      -9.076
      -8.253
      -6.794
      -5.107
      -3.388
      -1.625
       0.240
       2.153
       3.913
       5.283
       6.125
       6.462
       6.449
       6.259
       5.937
       5.332
       4.209
       2.520
       0.608
      -0.920
      -1.617
      -1.575
      -1.376
      -1.601
      -2.324
      -3.038
      -3.098
      -2.271
      -0.898
       0.413
       1.235
       1.513
       1.425
       1.159
       0.825
       0.509
       0.312
       0.293
       0.373
       0.319
      -0.092
      -0.843
      -1.582
      -1.804
      -1.221
      -0.030
       1.160
       1.714
       1.409
       0.572
      -0.180
      -0.405
      -0.157
       0.098
      -0.111
      -0.869
      -1.813
      -2.406
      -2.308
      -1.592
      -0.674
      -0.066
      -0.074
      -0.629
      -1.344
      -1.811
      -1.871
      -1.639
      -1.279
      -0.789
      -0.015
       1.148
       2.574
       3.877
       4.575
       4.331
       3.110
       1.184
      -1.001
      -2.964
      -4.282
      -4.683
      -4.129
      -2.846
      -1.229
       0.327
       1.553
       2.335
       2.666
       2.596
       2.208
       1.620
       1.001
       0.547
       0.400
       0.540
       0.755
       0.768
       0.455
      -0.033
      -0.391
      -0.443
      -0.280
      -0.120
      -0.047
       0.052
       0.325
       0.743
       1.078
       1.076
       0.659
      -0.032
      -0.760
      -1.322
      -1.562
      -1.322
      -0.505
       0.737
       1.927
       2.461
       1.999
       0.714
      -0.808
      -1.931
      -2.325
      -2.087
      -1.620
      -1.364
      -1.502
      -1.793
      -1.702
      -0.815
       0.753
       2.320
       3.061
       2.594
       1.236
      -0.264
      -1.242
      -1.460
      -1.093
      -0.521
      -0.137
      -0.232
      -0.878
      -1.836
      -2.597
      -2.640
      -1.798
      -0.442
       0.717
       1.107
       0.675
      -0.141
      -0.797
      -1.010
      -0.794
      -0.244
       0.621
       1.761
       2.939
       3.754
       3.896
       3.380
       2.487
       1.522
       0.669
       0.048
      -0.189
       0.043
       0.563
       0.897
       0.585
      -0.453
      -1.843
      -3.061
      -3.778
      -3.954
      -3.687
      -3.058
      -2.126
      -1.014
       0.046
       0.791
       1.076
       0.994
       0.875
       1.149
       2.097
       3.635
       5.278
       6.359
       6.352
       5.108
       2.931
       0.486
      -1.455
      -2.376
      -2.318
      -1.856
      -1.735
      -2.361
      -3.537
      -4.630
      -5.042
      -4.617
      -3.671
      -2.686
      -1.949
      -1.414
      -0.852
      -0.125
       0.661
       1.284
       1.660
       1.955
       2.412
       3.080
       3.718
       3.967
       3.608
       2.709
       1.536
       0.356
      -0.714
      -1.680
      -2.543
      -3.211
      -3.550
      -3.507
      -3.175
      -2.744
      -2.383
      -2.182
      -2.136
      -2.155
      -2.052
      -1.587
      -0.574
       0.970
       2.782
       4.433
       5.526
       5.865
       5.524
       4.772
       3.909
       3.125
       2.443
       1.762
       0.943
      -0.078
      -1.228
      -2.317
      -3.149
      -3.636
      -3.812
      -3.750
      -3.481
      -3.005
      -2.376
      -1.737
      -1.241
      -0.917
      -0.630
      -0.195
       0.435
       1.108
       1.617
       1.891
       2.059
       2.328
       2.784
       3.302
       3.624
       3.548
       3.050
       2.285
       1.472
       0.769
       0.205
      -0.300
      -0.841
      -1.444
      -2.073
      -2.720
      -3.416
      -4.121
      -4.604
      -4.505
      -3.601
      -2.070
      -0.497
       0.459
       0.502
      -0.088
      -0.649
      -0.596
       0.191
       1.354
       2.354
       2.814
       2.665
       2.085
       1.348
       0.691
       0.222
      -0.094
      -0.370
      -0.680
