Origin Time       06/11/2013 04:16:16
Lat.              26.5 N	
Long.             93.5 E	
Depth (Km)         20.0
Magnitude         5.5
 Region           Karbi-Assam                                                      
 Above details taken from IMD 
   
Station Code      TZP
Station Lat.       26.619
Station Long.      92.797
Station Height(m)   76.0
Site Class        B   Vs30 between 375 m/sec to 700 m/sec *  
Record Time       06.11.2013 04:16:13.009
Sampling Rate     200. Hz
 Record Duration   90.020 Sec.
 Direction         Vert. (Up positive)
Max. Acceleration    -11.291 cm/sec**2
     
  * For reference see Site Classification link of website 
     
 Base Line Corrected and Low Pass Filtered (Cut Off at 35 Hz) Time History
 Acceleration data in cm/sec**2
    
[...]
      -1.561
      -0.996
      -0.177
       0.721
       1.438
       1.726
       1.506
       0.951
       0.383
       0.065
       0.077
       0.307
       0.534
       0.531
       0.171
      -0.509
      -1.316
      -1.979
      -2.266
      -2.092
      -1.562
      -0.894
      -0.273
       0.251
       0.726
       1.174
       1.477
       1.436
       0.968
       0.257
      -0.341
      -0.579
      -0.507
      -0.362
      -0.301
      -0.280
      -0.171
       0.058
       0.299
       0.421
       0.398
       0.335
       0.348
       0.454
       0.564
       0.567
       0.420
       0.152
      -0.166
      -0.472
      -0.752
      -1.015
      -1.224
      -1.265
      -1.040
      -0.589
      -0.072
       0.361
       0.645
       0.749
       0.610
       0.200
      -0.352
      -0.748
      -0.683
      -0.074
       0.831
       1.575
       1.795
       1.462
       0.883
       0.465
       0.407
       0.562
       0.557
       0.115
      -0.675
      -1.361
      -1.436
      -0.721
       0.460
       1.445
       1.657
       0.972
      -0.228
      -1.321
      -1.845
      -1.754
      -1.375
      -1.108
      -1.096
      -1.148
      -0.942
      -0.335
       0.496
       1.172
       1.363
       1.001
       0.312
      -0.329
      -0.620
      -0.498
      -0.124
       0.282
       0.589
       0.773
       0.832
       0.745
       0.502
       0.172
      -0.104
      -0.238
      -0.284
      -0.368
      -0.503
      -0.518
      -0.230
       0.323
       0.841
       0.952
       0.473
      -0.442
      -1.367
      -1.837
      -1.600
      -0.746
       0.348
       1.216
       1.558
       1.361
       0.816
       0.150
      -0.464
      -0.893
      -1.044
      -0.911
      -0.601
      -0.272
      -0.028
       0.129
       0.258
       0.367
       0.344
       0.040
      -0.538
      -1.119
      -1.291
      -0.787
       0.277
       1.426
       2.107
       2.027
       1.315
       0.409
      -0.225
      -0.383
      -0.236
      -0.166
      -0.418
      -0.856
      -1.084
      -0.815
      -0.163
       0.443
       0.626
       0.385
       0.051
      -0.060
       0.063
       0.182
       0.102
      -0.167
      -0.465
      -0.620
      -0.524
      -0.160
       0.383
       0.930
       1.305
       1.393
       1.163
       0.675
       0.080
      -0.404
      -0.572
      -0.352
       0.113
       0.491
       0.447
      -0.128
      -1.019
      -1.824
      -2.219
      -2.113
      -1.621
      -0.943
      -0.268
       0.285
       0.687
       0.972
       1.177
       1.291
       1.255
       1.034
       0.676
       0.307
       0.053
      -0.029
       0.043
       0.219
       0.418
       0.529
       0.473
       0.291
       0.154
       0.229
       0.507
       0.771
       0.762
       0.412
      -0.096
      -0.522
      -0.809
      -1.097
      -1.501
      -1.903
      -2.006
      -1.595
      -0.752
       0.171
       0.807
       1.032
       0.983
       0.835
       0.629
       0.320
      -0.044
      -0.292
      -0.268
       0.011
       0.337
       0.443
       0.217
      -0.193
      -0.489
      -0.467
      -0.160
       0.223
       0.460
       0.460
       0.328
       0.284
       0.461
       0.754
       0.862
       0.517
      -0.267
      -1.153
      -1.699
      -1.663
      -1.153
      -0.503
       0.013
       0.380
       0.785
       1.318
       1.761
       1.712
       0.957
      -0.280
      -1.432
      -1.956
      -1.689
      -0.912
      -0.087
       0.498
       0.853
       1.113
       1.310
       1.297
       0.890
       0.109
      -0.729
      -1.180
      -1.026
      -0.476
      -0.023
      -0.071
      -0.621
      -1.278
      -1.574
      -1.337
      -0.798
      -0.344
      -0.128
       0.083
       0.632
       1.560
       2.457
       2.752
       2.137
       0.799
      -0.693
      -1.726
      -1.971
      -1.482
      -0.573
       0.365
       1.004
       1.178
       0.936
       0.471
      -0.020
      -0.414
      -0.646
      -0.686
      -0.548
      -0.278
       0.064
       0.387
       0.556
       0.425
      -0.046
      -0.675
      -1.068
      -0.823
       0.149
       1.446
       2.377
       2.418
       1.576
       0.328
      -0.756
      -1.347
      -1.408
      -1.048
      -0.420
       0.274
       0.776
       0.888
       0.617
       0.179
      -0.172
      -0.345
      -0.454
      -0.675
      -1.040
      -1.373
      -1.418
      -1.044
      -0.366
       0.296
       0.615
       0.468
       0.028
      -0.355
      -0.389
      -0.004
       0.646
       1.282
       1.600
       1.384
       0.660
      -0.201
      -0.638
      -0.304
       0.634
       1.576
       1.900
       1.371
       0.305
      -0.656
      -1.015
      -0.787
      -0.387
      -0.199
      -0.254
      -0.337
      -0.325
      -0.355
      -0.645
      -1.199
      -1.735
      -1.931
      -1.702
      -1.255
      -0.860
      -0.598
      -0.328
       0.065
       0.416
       0.382
      -0.178
      -0.944
      -1.339
      -0.964
       0.147
       1.619
       2.954
       3.701
       3.569
       2.538
       0.929
      -0.676
      -1.684
      -1.804
      -1.231
      -0.502
      -0.101
      -0.110
      -0.233
      -0.166
       0.098
       0.311
       0.261
      -0.011
      -0.247
      -0.168
       0.330
       1.080
       1.686
       1.714
       0.942
      -0.427
      -1.812
      -2.572
      -2.408
      -1.525
      -0.467
       0.240
       0.388
       0.151
      -0.113
      -0.148
       0.065
       0.389
       0.696
       0.933
       1.077
       1.087
       0.926
       0.626
       0.297
       0.027
      -0.222
      -0.556
      -0.945
      -1.118
      -0.769
       0.088
       1.008
       1.412
       1.036
       0.120
      -0.803
      -1.307
      -1.329
      -1.102
      -0.879
      -0.718
      -0.487
      -0.027
       0.694
       1.530
       2.221
       2.534
       2.358
       1.736
       0.845
      -0.046
      -0.696
      -1.038
      -1.202
      -1.365
      -1.579
      -1.721
      -1.606
      -1.137
      -0.397
       0.394
       1.001
       1.273
       1.162
       0.716
       0.129
      -0.248
      -0.078
       0.647
       1.435
       1.575
       0.707
      -0.808
      -2.113
      -2.497
      -1.917
      -0.954
      -0.282
      -0.105
      -0.059
       0.362
       1.272
       2.244
       2.649
       2.137
       0.881
      -0.551
      -1.536
      -1.739
      -1.270
      -0.578
      -0.143
      -0.193
      -0.618
      -1.101
      -1.352
      -1.278
      -0.947
      -0.438
       0.215
       0.917
       1.461
       1.658
       1.514
       1.222
       0.976
       0.825
       0.681
       0.439
       0.080
      -0.321
      -0.656
      -0.831
      -0.756
      -0.362
       0.276
       0.850
       0.961
       0.413
      -0.611
      -1.676
      -2.383
      -2.572
      -2.317
      -1.784
      -1.095
      -0.342
       0.340
       0.789
       0.959
       0.973
       0.985
       0.976
       0.753
       0.184
      -0.566
      -1.068
      -0.951
      -0.229
       0.694
       1.365
       1.614
       1.587
       1.514
       1.494
       1.471
       1.308
       0.874
       0.111
      -0.897
      -1.889
      -2.538
      -2.650
      -2.290
      -1.702
      -1.123
      -0.687
      -0.461
      -0.458
      -0.542
      -0.425
       0.125
       1.024
       1.863
       2.229
       2.064
       1.735
       1.713
       2.076
       2.313
       1.717
       0.117
      -1.795
      -2.919
      -2.643
      -1.320
       0.049
       0.653
       0.491
       0.255
       0.584
       1.395
       1.917
       1.409
      -0.132
      -1.897
      -2.888
      -2.648
      -1.504
      -0.175
       0.796
       1.290
       1.444
       1.399
       1.228
       1.019
       0.920
       1.044
       1.329
       1.533
       1.396
       0.833
      -0.005
      -0.817
      -1.337
      -1.484
      -1.370
      -1.168
      -0.955
      -0.685
      -0.275
       0.246
       0.646
       0.605
      -0.004
      -0.920
      -1.635
      -1.773
      -1.352
      -0.674
       0.005
       0.668
       1.391
       2.041
       2.223
       1.614
       0.341
      -1.019
      -1.824
      -1.808
      -1.202
      -0.494
      -0.007
       0.328
       0.797
       1.466
       1.976
       1.839
       0.922
      -0.352
      -1.279
      -1.382
      -0.775
      -0.088
       0.043
      -0.525
      -1.378
      -1.908
      -1.720
      -0.813
       0.418
       1.352
       1.497
       0.856
      -0.083
      -0.781
      -1.096
      -1.328
      -1.820
      -2.509
      -2.873
      -2.391
      -1.084
       0.414
       1.388
       1.629
       1.478
       1.333
       1.197
       0.741
      -0.256
      -1.578
      -2.678
      -3.092
      -2.755
      -1.964
      -1.104
      -0.406
       0.073
       0.339
       0.409
       0.361
       0.365
       0.584
       1.003
       1.390
       1.493
       1.279
       0.971
       0.820
       0.850
       0.808
       0.357
      -0.678
      -2.182
      -3.794
      -5.081
      -5.762
      -5.843
      -5.537
      -5.045
      -4.426
      -3.640
      -2.691
      -1.701
      -0.874
      -0.358
      -0.106
       0.109
       0.524
       1.192
       1.941
       2.526
       2.876
       3.186
       3.738
       4.601
       5.523
       6.146
       6.295
       6.053
       5.616
       5.093
       4.455
       3.646
       2.707
       1.768
       0.922
       0.155
      -0.593
      -1.322
      -1.936
      -2.300
      -2.348
      -2.115
      -1.695
      -1.194
      -0.755
      -0.605
      -0.983
      -1.916
      -3.046
      -3.781
      -3.711
      -2.925
      -1.921
      -1.178
      -0.814
      -0.602
      -0.256
       0.315
       0.989
       1.597
       2.095
       2.576
       3.144
       3.782
       4.326
       4.560
       4.336
       3.613
       2.419
       0.815
      -1.046
      -2.840
      -4.170
      -4.814
      -4.893
      -4.751
      -4.614
      -4.379
      -3.739
      -2.584
      -1.252
      -0.319
      -0.043
      -0.031
       0.502
       2.083
       4.481
       6.757
       7.864
       7.364
       5.699
       3.784
       2.322
       1.479
       1.102
       1.057
       1.315
       1.791
       2.256
       2.423
       2.148
       1.538
       0.854
       0.272
      -0.288
      -1.059
      -2.132
      -3.262
      -3.997
      -4.073
      -3.704
      -3.459
      -3.768
      -4.503
      -5.037
      -4.739
      -3.464
      -1.641
       0.064
       1.251
       2.081
       3.073
       4.502
       5.977
       6.693
       6.182
       4.864
       3.841
       4.089
       5.679
       7.623
       8.532
       7.642
       5.355
       2.778
       0.715
      -0.853
      -2.389
      -4.085
      -5.623
      -6.580
      -6.919
      -7.054
      -7.451
      -8.216
      -9.038
      -9.479
      -9.294
      -8.501
      -7.221
      -5.512
      -3.392
      -1.026
       1.206
       2.912
       3.937
       4.414
       4.602
       4.770
       5.120
       5.661
       6.112
       6.045
       5.266
       4.046
       2.927
       2.224
       1.674
       0.603
      -1.465
      -4.265
      -6.848
      -8.265
      -8.256
      -7.349
      -6.285
      -5.392
      -4.486
      -3.306
      -1.899
      -0.515
       0.774
       2.186
       3.869
       5.494
       6.327
       5.818
       4.154
       2.198
       0.814
       0.228
       0.000
      -0.406
      -1.001
      -1.193
      -0.338
       1.556
       3.653
       4.884
       4.817
       4.032
       3.634
       4.268
       5.510
       6.216
       5.577
       3.852
       2.027
       0.806
      -0.011
      -1.178
      -3.113
      -5.378
      -6.963
      -7.093
      -5.816
      -3.909
      -2.288
      -1.473
      -1.464
      -1.922
      -2.420
      -2.629
      -2.438
      -1.990
      -1.598
      -1.545
      -1.887
      -2.406
      -2.752
      -2.684
      -2.212
      -1.559
      -0.960
      -0.448
       0.213
       1.321
       2.862
       4.336
       5.023
       4.534
       3.159
       1.717
       1.031
       1.372
       2.252
       2.756
       2.242
       0.866
      -0.525
      -1.051
      -0.499
       0.491
       0.912
       0.199
      -1.280
      -2.466
      -2.407
      -0.989
       0.959
       2.268
       2.297
       1.355
       0.402
       0.332
       1.432
       3.256
       4.877
       5.355
       4.250
       1.886
      -0.837
      -2.974
      -4.102
      -4.527
      -4.929
      -5.654
      -6.263
      -5.855
      -3.954
      -1.197
       0.886
       0.932
      -1.151
      -4.017
      -5.834
      -5.635
      -3.961
      -2.306
      -1.875
      -2.671
      -3.660
      -3.745
      -2.585
      -0.592
       1.631
       3.740
       5.628
       7.196
       8.283
       8.841
       9.088
       9.372
       9.844
      10.278
      10.257
       9.541
       8.257
       6.733
       5.116
       3.167
       0.506
      -2.866
      -6.307
      -8.817
      -9.703
      -9.108
      -7.999
      -7.566
      -8.370
      -9.937
     -11.174
     -11.291
     -10.338
      -8.934
      -7.557
      -6.162
      -4.421
      -2.250
      -0.034
       1.668
       2.647
       3.254
       4.089
       5.492
       7.320
       9.119
      10.445
      11.053
      10.890
       9.992
       8.454
       6.504
       4.523
       2.861
       1.602
       0.547
      -0.577
      -1.959
      -3.697
      -5.770
      -7.892
      -9.455
      -9.755
      -8.356
      -5.404
      -1.678
       1.695
       3.822
       4.537
       4.385
       4.033
       3.647
       2.828
       1.150
      -1.211
      -3.326
      -4.069
      -2.980
      -0.693
       1.529
       2.753
       2.943
       2.680
       2.476
       2.370
       2.022
       1.061
      -0.628
      -2.847
      -5.208
      -7.308
      -8.823
      -9.555
      -9.492
      -8.858
      -7.999
      -7.089
      -5.923
      -4.044
      -1.195
       2.275
       5.438
       7.332
       7.668
       7.055
       6.479
       6.464
       6.752
       6.761
       6.295
       5.763
       5.752
       6.390
       7.103
       7.034
       5.751
       3.597
       1.392
      -0.200
      -1.070
      -1.578
      -2.135
      -2.853
      -3.565
      -4.129
      -4.608
      -5.127
      -5.585
      -5.616
      -4.901
      -3.530
      -2.034
      -0.998
      -0.626
      -0.690
      -0.856
      -0.971
      -1.047
      -1.095
      -1.064
      -0.958
      -0.928
      -1.163
      -1.655
      -2.104
      -2.099
      -1.433
      -0.317
       0.675
       0.973
       0.483
      -0.234
      -0.375
       0.403
       1.632
       2.421
       2.277
       1.593
       1.302
       1.938
       3.073
       3.702
       3.189
       1.821
       0.538
       0.158
       0.748
       1.677
       2.297
       2.535
       2.746
       3.026
       2.939
       2.059
       0.649
      -0.445
      -0.625
      -0.183
      -0.011
      -0.651
      -1.704
      -2.244
      -1.860
      -1.212
      -1.474
      -3.154
      -5.482
      -6.970
      -6.600
      -4.520
      -1.750
       0.672
       2.291
       3.191
       3.545
       3.342
       2.572
       1.530
       0.733
       0.446
       0.375
      -0.072
      -1.189
      -2.597
      -3.516
      -3.455
      -2.630
      -1.667
      -0.942
      -0.283
       0.668
       1.867
       2.706
       2.510
       1.229
      -0.391
      -1.422
      -1.515
      -0.979
      -0.167
       0.985
       2.711
       4.810
       6.490
       6.957
       6.163
       4.898
       4.043
       3.718
       3.230
       1.870
      -0.294
      -2.437
      -3.723
      -3.992
      -3.770
      -3.680
      -3.862
      -3.951
      -3.580
      -2.859
      -2.284
      -2.201
      -2.465
      -2.696
      -2.779
      -2.995
      -3.669
      -4.751
      -5.743
      -6.012
      -5.224
      -3.574
      -1.643
       0.046
       1.376
       2.555
       3.730
       4.765
       5.426
       5.715
       5.884
       6.125
       6.332
       6.234
       5.719
       4.963
       4.249
       3.690
       3.154
       2.450
       1.571
       0.708
       0.021
      -0.581
      -1.369
      -2.496
      -3.742
      -4.571
      -4.550
      -3.802
      -2.987
      -2.723
      -2.997
      -3.225
      -2.911
      -2.131
      -1.347
      -0.810
      -0.274
       0.636
       1.814
       2.558
       2.193
       0.816
      -0.679
      -1.422
      -1.374
      -1.265
      -1.714
      -2.499
      -2.718
      -1.682
       0.346
       2.275
       3.085
       2.664
       1.773
       1.223
       1.149
       1.093
       0.643
      -0.118
      -0.693
      -0.588
       0.277
       1.437
       2.171
       2.083
       1.477
       1.089
       1.360
       1.960
       2.073
       1.240
      -0.063
      -0.836
      -0.612
      -0.018
      -0.145
      -1.407
      -3.106
      -4.132
      -3.946
      -2.875
      -1.578
      -0.453
       0.429
       0.999
       1.073
       0.597
      -0.118
      -0.593
      -0.591
      -0.299
      -0.058
       0.066
       0.379
       1.165
       2.166
       2.581
       1.745
      -0.112
      -1.875
      -2.419
      -1.590
      -0.363
       0.045
      -0.706
      -1.817
      -2.246
      -1.791
      -1.167
      -1.058
      -1.320
      -1.225
      -0.390
       0.702
       1.157
       0.618
      -0.279
      -0.441
       0.617
       2.269
       3.374
       3.370
       2.713
       2.262
       2.348
       2.497
       1.985
       0.595
      -1.130
      -2.335
      -2.576
      -2.174
      -1.897
      -2.268
      -3.127
      -3.827
      -3.844
      -3.228
      -2.511
      -2.200
      -2.330
      -2.446
      -1.985
      -0.747
       0.919
       2.346
       2.998
       2.803
       2.130
       1.490
       1.225
       1.374
       1.767
       2.166
       2.354
       2.162
       1.558
       0.759
       0.158
       0.002
       0.133
       0.162
      -0.054
      -0.202
       0.109
       0.795
       1.229
       0.807
      -0.387
      -1.491
      -1.572
      -0.495
       0.934
       1.781
       1.893
       1.921
       2.475
       3.371
       3.761
       2.935
       1.013
      -1.084
      -2.333
      -2.370
      -1.645
      -0.886
      -0.427
      -0.060
       0.546
       1.376
       2.003
       1.916
       0.940
      -0.624
      -2.187
      -3.229
      -3.517
      -3.117
      -2.254
      -1.196
      -0.204
       0.453
       0.547
       0.065
      -0.638
      -0.973
      -0.525
       0.634
       2.024
       3.115
       3.660
       3.759
       3.613
       3.213
       2.314
       0.818
      -0.849
      -1.846
      -1.530
      -0.055
       1.616
