Origin Time       19/08/2012 19:04:56
Lat.              26.7°N	
Long.             92.6°E	
Depth (Km)         40.0
Magnitude         4.0
 Region           SONITPUR-ASSAM                                                   
 Above details taken from IMD 
     
Station Code      TZP
Station Lat.       26.619  N
Station Long.      92.797  E
Station Height(m)   76.0
Site Class        B   Vs30 between 375 m/sec to 700 m/sec *  
Record Time       19.08.2012 19:04:54.854
Sampling Rate     200. Hz
 Record Duration   65.070 Sec.
 Direction         E-W (E positive)
Max. Acceleration     -8.993 cm/sec**2
     
  * For reference see Site Classification link of website 
     
 Base Line Corrected and Low Pass Filtered (Cut Off at 35 Hz) Time History
 Acceleration data in cm/sec**2
    
[...]
       0.650
       0.126
      -0.429
      -0.697
      -0.545
      -0.115
       0.302
       0.476
       0.359
       0.055
      -0.274
      -0.481
      -0.485
      -0.304
      -0.049
       0.139
       0.191
       0.140
       0.082
       0.086
       0.151
       0.216
       0.207
       0.092
      -0.096
      -0.261
      -0.303
      -0.188
      -0.006
       0.072
      -0.062
      -0.319
      -0.434
      -0.183
       0.379
       0.916
       1.046
       0.640
      -0.093
      -0.745
      -0.964
      -0.642
       0.024
       0.645
       0.865
       0.575
      -0.022
      -0.555
      -0.737
      -0.532
      -0.136
       0.178
       0.247
       0.097
      -0.098
      -0.165
      -0.063
       0.089
       0.138
       0.045
      -0.088
      -0.120
      -0.011
       0.157
       0.269
       0.278
       0.222
       0.153
       0.075
      -0.037
      -0.167
      -0.230
      -0.159
       0.006
       0.130
       0.109
      -0.034
      -0.172
      -0.184
      -0.053
       0.125
       0.206
       0.114
      -0.077
      -0.181
      -0.060
       0.223
       0.419
       0.295
      -0.116
      -0.497
      -0.498
      -0.058
       0.514
       0.799
       0.616
       0.136
      -0.322
      -0.551
      -0.516
      -0.263
       0.129
       0.492
       0.588
       0.298
      -0.216
      -0.596
      -0.590
      -0.257
       0.122
       0.305
       0.255
       0.101
      -0.021
      -0.090
      -0.180
      -0.321
      -0.396
      -0.221
       0.241
       0.752
       0.937
       0.594
      -0.118
      -0.763
      -0.943
      -0.576
       0.058
       0.531
       0.558
       0.185
      -0.271
      -0.482
      -0.376
      -0.170
      -0.116
      -0.220
      -0.246
      -0.002
       0.398
       0.613
       0.410
      -0.096
      -0.520
      -0.537
      -0.144
       0.348
       0.568
       0.366
      -0.083
      -0.436
      -0.460
      -0.196
       0.128
       0.310
       0.316
       0.232
       0.139
       0.054
      -0.019
      -0.037
       0.063
       0.280
       0.516
       0.615
       0.446
      -0.017
      -0.635
      -1.119
      -1.170
      -0.678
       0.170
       0.977
       1.373
       1.214
       0.616
      -0.168
      -0.870
      -1.258
      -1.164
      -0.565
       0.307
       1.015
       1.186
       0.791
       0.140
      -0.390
      -0.624
      -0.606
      -0.457
      -0.269
      -0.104
       0.014
       0.108
       0.200
       0.224
       0.065
      -0.265
      -0.541
      -0.505
      -0.129
       0.349
       0.665
       0.735
       0.628
       0.402
       0.060
      -0.356
      -0.690
      -0.757
      -0.495
      -0.034
       0.363
       0.464
       0.229
      -0.127
      -0.273
      -0.055
       0.325
       0.482
       0.231
      -0.211
      -0.445
      -0.301
       0.020
       0.182
       0.062
      -0.162
      -0.238
      -0.092
       0.123
       0.218
       0.164
       0.089
       0.098
       0.131
       0.033
      -0.241
      -0.529
      -0.590
      -0.327
       0.129
       0.514
       0.610
       0.376
      -0.015
      -0.270
      -0.189
       0.157
       0.465
       0.468
       0.179
      -0.141
      -0.253
      -0.163
      -0.085
      -0.198
      -0.458
      -0.625
      -0.474
       0.014
       0.630
       1.063
       1.080
       0.636
      -0.096
      -0.801
      -1.149
      -0.965
      -0.327
       0.444
       0.961
       0.986
       0.555
      -0.079
      -0.603
      -0.789
      -0.585
      -0.113
       0.394
       0.707
       0.714
       0.453
       0.071
      -0.282
      -0.528
      -0.651
      -0.642
      -0.464
      -0.124
       0.249
       0.447
       0.352
       0.049
      -0.229
      -0.281
      -0.073
       0.259
       0.504
       0.497
       0.228
      -0.135
      -0.355
      -0.299
      -0.048
       0.181
       0.230
       0.120
      -0.003
      -0.047
      -0.055
      -0.135
      -0.310
      -0.464
      -0.427
      -0.104
       0.414
       0.861
       0.936
       0.514
      -0.232
      -0.905
      -1.137
      -0.812
      -0.132
       0.506
       0.745
       0.494
      -0.011
      -0.376
      -0.346
       0.010
       0.383
       0.506
       0.360
       0.129
      -0.016
      -0.067
      -0.122
      -0.230
      -0.320
      -0.290
      -0.132
       0.038
       0.086
      -0.013
      -0.151
      -0.188
      -0.062
       0.178
       0.414
       0.524
       0.429
       0.128
      -0.297
      -0.696
      -0.906
      -0.807
      -0.378
       0.269
       0.908
       1.276
       1.189
       0.644
      -0.147
      -0.825
      -1.058
      -0.734
      -0.056
       0.561
       0.746
       0.420
      -0.156
      -0.584
      -0.627
      -0.347
       0.012
       0.258
       0.357
       0.355
       0.281
       0.142
      -0.008
      -0.079
      -0.029
       0.073
       0.106
       0.015
      -0.141
      -0.245
      -0.231
      -0.127
      -0.025
       0.016
       0.024
       0.084
       0.228
       0.365
       0.332
       0.029
      -0.469
      -0.911
      -1.014
      -0.655
       0.007
       0.617
       0.860
       0.668
       0.217
      -0.237
      -0.500
      -0.469
      -0.136
       0.374
       0.785
       0.810
       0.375
      -0.272
      -0.711
      -0.682
      -0.294
       0.103
       0.250
       0.177
       0.092
       0.118
       0.191
       0.181
       0.061
      -0.060
      -0.045
       0.124
       0.305
       0.293
       0.010
      -0.389
      -0.614
      -0.478
      -0.053
       0.386
       0.573
       0.426
       0.080
      -0.223
      -0.287
      -0.086
       0.232
       0.451
       0.430
       0.174
      -0.203
      -0.552
      -0.741
      -0.678
      -0.350
       0.126
       0.522
       0.623
       0.400
       0.058
      -0.144
      -0.122
      -0.025
      -0.050
      -0.226
      -0.388
      -0.353
      -0.120
       0.127
       0.189
       0.057
      -0.077
      -0.006
       0.291
       0.611
       0.692
       0.409
      -0.134
      -0.664
      -0.887
      -0.661
      -0.101
       0.464
       0.709
       0.538
       0.129
      -0.235
      -0.372
      -0.288
      -0.102
       0.071
       0.188
       0.260
       0.315
       0.356
       0.340
       0.193
      -0.124
      -0.535
      -0.830
      -0.770
      -0.291
       0.374
       0.824
       0.784
       0.328
      -0.189
      -0.421
      -0.291
      -0.001
       0.182
       0.154
      -0.003
      -0.160
      -0.259
      -0.316
      -0.340
      -0.301
      -0.171
       0.022
       0.187
       0.242
       0.184
       0.093
       0.063
       0.123
       0.221
       0.264
       0.177
      -0.049
      -0.327
      -0.490
      -0.387
      -0.018
       0.426
       0.693
       0.661
       0.407
       0.100
      -0.149
      -0.327
      -0.454
      -0.504
      -0.420
      -0.189
       0.103
       0.287
       0.232
      -0.036
      -0.336
      -0.458
      -0.314
       0.029
       0.410
       0.666
       0.701
       0.536
       0.302
       0.145
       0.098
       0.048
      -0.142
      -0.459
      -0.701
      -0.640
      -0.244
       0.250
       0.509
       0.370
      -0.030
      -0.383
      -0.444
      -0.189
       0.206
       0.500
       0.539
       0.314
      -0.059
      -0.414
      -0.608
      -0.575
      -0.333
       0.036
       0.397
       0.589
       0.491
       0.127
      -0.301
      -0.514
      -0.358
       0.070
       0.497
       0.670
       0.497
       0.049
      -0.511
      -0.962
      -1.090
      -0.797
      -0.188
       0.460
       0.863
       0.876
       0.545
       0.049
      -0.374
      -0.521
      -0.324
       0.087
       0.443
       0.525
       0.346
       0.128
       0.086
       0.210
       0.281
       0.101
      -0.286
      -0.607
      -0.593
      -0.207
       0.315
       0.638
       0.574
       0.216
      -0.126
      -0.181
       0.041
       0.240
       0.108
      -0.368
      -0.872
      -1.034
      -0.731
      -0.153
       0.375
       0.616
       0.541
       0.298
       0.087
       0.029
       0.103
       0.187
       0.167
       0.034
      -0.114
      -0.169
      -0.130
      -0.111
      -0.219
      -0.416
      -0.532
      -0.406
      -0.048
       0.354
       0.576
       0.519
       0.258
      -0.042
      -0.248
      -0.319
      -0.284
      -0.200
      -0.115
      -0.053
      -0.006
       0.063
       0.186
       0.349
       0.488
       0.517
       0.386
       0.128
      -0.151
      -0.330
      -0.342
      -0.200
       0.028
       0.257
       0.416
       0.455
       0.346
       0.106
      -0.183
      -0.377
      -0.349
      -0.098
       0.218
       0.375
       0.249
      -0.091
      -0.440
      -0.624
      -0.619
      -0.533
      -0.474
      -0.417
      -0.218
       0.230
       0.820
       1.238
       1.173
       0.572
      -0.282
      -0.942
      -1.085
      -0.698
      -0.073
       0.395
       0.462
       0.194
      -0.104
      -0.152
       0.065
       0.328
       0.412
       0.266
      -0.010
      -0.290
      -0.484
      -0.539
      -0.443
      -0.249
      -0.051
       0.086
       0.147
       0.134
       0.038
      -0.115
      -0.208
      -0.105
       0.183
       0.457
       0.489
       0.249
      -0.061
      -0.200
      -0.101
       0.097
       0.201
       0.114
      -0.124
      -0.383
      -0.513
      -0.405
      -0.047
       0.435
       0.815
       0.888
       0.620
       0.162
      -0.251
      -0.447
      -0.392
      -0.180
       0.039
       0.148
       0.128
       0.043
      -0.053
      -0.162
      -0.303
      -0.415
      -0.354
      -0.006
       0.563
       1.075
       1.185
       0.726
      -0.121
      -0.889
      -1.135
      -0.748
      -0.034
       0.518
       0.570
       0.140
      -0.463
      -0.862
      -0.846
      -0.434
       0.187
       0.761
       1.046
       0.893
       0.341
      -0.361
      -0.880
      -1.002
      -0.732
      -0.248
       0.216
       0.475
       0.453
       0.217
      -0.072
      -0.263
      -0.289
      -0.167
       0.037
       0.233
       0.336
       0.303
       0.175
       0.062
       0.056
       0.136
       0.169
       0.013
      -0.341
      -0.708
      -0.790
      -0.404
       0.316
       0.942
       1.042
       0.535
      -0.223
      -0.721
      -0.699
      -0.298
       0.111
       0.238
       0.053
      -0.238
      -0.352
      -0.125
       0.380
       0.882
       1.056
       0.748
       0.100
      -0.543
      -0.861
      -0.742
      -0.312
       0.186
       0.545
       0.694
       0.670
       0.503
       0.159
      -0.379
      -0.973
      -1.323
      -1.155
      -0.477
       0.365
       0.907
       0.909
       0.520
       0.112
      -0.064
      -0.079
      -0.175
      -0.442
      -0.655
      -0.479
       0.159
       0.919
       1.287
       0.974
       0.141
      -0.734
      -1.186
      -1.055
      -0.551
      -0.062
       0.166
       0.213
       0.347
       0.679
       0.973
       0.850
       0.178
      -0.748
      -1.406
      -1.435
      -0.864
      -0.026
       0.696
       1.071
       1.060
       0.744
       0.255
      -0.255
      -0.640
      -0.798
      -0.692
      -0.338
       0.177
       0.675
       0.921
       0.745
       0.186
      -0.483
      -0.914
      -0.915
      -0.571
      -0.134
       0.205
       0.416
       0.523
       0.481
       0.232
      -0.144
      -0.412
      -0.357
       0.029
       0.524
       0.821
       0.690
       0.110
      -0.687
      -1.303
      -1.394
      -0.887
      -0.034
       0.759
       1.163
       1.076
       0.634
       0.112
      -0.213
      -0.214
       0.018
       0.245
       0.253
      -0.004
      -0.379
      -0.628
      -0.545
      -0.095
       0.520
       0.950
       0.919
       0.441
      -0.183
      -0.596
      -0.629
      -0.388
      -0.118
      -0.015
      -0.112
      -0.294
      -0.390
      -0.288
      -0.011
       0.296
       0.471
       0.470
       0.397
       0.372
       0.374
       0.253
      -0.104
      -0.614
      -1.026
      -1.119
      -0.876
      -0.470
      -0.082
       0.236
       0.524
       0.783
       0.944
       0.950
       0.816
       0.585
       0.250
      -0.211
      -0.725
      -1.112
      -1.198
      -0.948
      -0.486
       0.006
       0.380
       0.574
       0.622
       0.606
       0.561
       0.434
       0.144
      -0.275
      -0.636
      -0.726
      -0.486
      -0.090
       0.189
       0.205
       0.053
      -0.039
       0.053
       0.247
       0.377
       0.392
       0.379
       0.419
       0.456
       0.360
       0.071
      -0.319
      -0.625
      -0.687
      -0.473
      -0.097
       0.256
       0.443
       0.449
       0.388
       0.419
       0.611
       0.837
       0.806
       0.252
      -0.857
      -2.259
      -3.516
      -4.209
      -4.077
      -3.077
      -1.393
       0.644
       2.707
       4.572
       6.021
       6.674
       5.985
       3.591
      -0.249
      -4.513
      -7.801
      -8.993
      -7.789
      -4.786
      -1.126
       2.014
       3.825
       4.053
       3.027
       1.513
       0.375
       0.151
       0.790
       1.728
       2.243
       1.845
       0.550
      -1.071
      -2.145
      -2.021
      -0.774
       0.757
       1.493
       0.872
      -0.739
      -2.293
      -2.747
      -1.705
       0.402
       2.644
       4.123
       4.374
       3.438
       1.711
      -0.244
      -1.822
      -2.509
      -2.081
      -0.778
       0.744
       1.767
       1.922
       1.375
       0.637
       0.176
       0.106
       0.142
      -0.154
      -0.954
      -1.876
      -2.158
      -1.257
       0.559
       2.219
       2.525
       1.051
      -1.458
      -3.507
      -3.835
      -2.211
       0.518
       3.085
       4.553
       4.648
       3.603
       1.849
      -0.220
      -2.336
      -4.337
      -6.012
      -6.947
      -6.582
      -4.576
      -1.229
       2.446
       5.185
       6.143
       5.317
       3.397
       1.218
      -0.750
      -2.492
      -4.105
      -5.391
      -5.788
      -4.724
      -2.104
       1.425
       4.642
       6.293
       5.727
       3.281
       0.124
      -2.367
      -3.299
      -2.573
      -0.715
       1.489
       3.245
       3.903
       3.152
       1.232
      -1.097
      -2.921
      -3.623
      -3.101
      -1.655
       0.244
       2.126
       3.585
       4.319
       4.169
       3.136
       1.364
      -0.855
      -3.046
      -4.588
      -4.916
      -3.842
      -1.743
       0.588
       2.397
       3.361
       3.604
       3.373
       2.732
       1.585
      -0.045
      -1.819
      -3.186
      -3.698
      -3.274
      -2.224
      -1.075
      -0.317
      -0.171
      -0.486
      -0.826
      -0.746
      -0.106
       0.818
       1.508
       1.551
       0.892
      -0.157
      -1.117
      -1.600
      -1.475
      -0.897
      -0.206
       0.285
       0.462
       0.438
       0.421
       0.548
       0.833
       1.221
       1.645
       2.011
       2.125
       1.727
       0.672
      -0.828
      -2.189
      -2.748
      -2.208
      -0.868
       0.542
       1.312
       1.163
       0.341
      -0.600
      -1.111
      -0.868
       0.124
       1.502
       2.628
       2.863
       1.970
       0.316
      -1.362
      -2.475
      -2.904
      -2.866
      -2.533
      -1.874
      -0.841
       0.365
       1.339
       1.808
       1.887
       1.925
       2.099
       2.196
       1.838
       0.898
      -0.312
      -1.250
      -1.521
      -1.111
      -0.348
       0.288
       0.380
      -0.224
      -1.288
      -2.259
      -2.567
      -2.004
      -0.870
       0.228
       0.763
       0.596
       0.059
      -0.217
       0.332
       1.780
       3.488
       4.357
       3.548
       1.163
      -1.683
      -3.558
      -3.657
      -2.272
      -0.478
       0.635
       0.613
      -0.194
      -0.963
      -0.973
      -0.061
       1.303
       2.326
       2.383
       1.391
      -0.163
      -1.537
      -2.181
      -2.004
      -1.336
      -0.666
      -0.363
      -0.449
      -0.538
      -0.082
       1.111
       2.536
       3.236
       2.541
       0.657
      -1.403
      -2.477
      -1.991
      -0.285
       1.629
       2.713
       2.505
       1.300
      -0.194
      -1.425
      -2.280
      -2.900
      -3.295
      -3.178
      -2.192
      -0.296
       2.027
       3.903
       4.503
       3.545
       1.521
      -0.563
      -1.796
      -1.882
      -1.210
      -0.485
      -0.233
      -0.522
      -1.041
      -1.395
      -1.374
      -1.039
      -0.615
      -0.319
      -0.217
      -0.184
       0.035
       0.630
       1.526
       2.338
       2.592
       2.078
       1.019
      -0.085
      -0.801
      -0.994
      -0.830
      -0.618
      -0.609
      -0.861
      -1.202
      -1.350
      -1.114
      -0.525
       0.181
       0.732
       0.969
       0.899
       0.631
       0.293
      -0.004
      -0.174
      -0.193
      -0.138
      -0.173
      -0.396
      -0.684
      -0.694
      -0.124
       0.970
       2.110
       2.683
       2.346
       1.226
      -0.202
      -1.401
      -1.981
      -1.786
      -0.919
       0.260
       1.241
       1.596
       1.233
       0.448
      -0.284
      -0.624
      -0.525
      -0.182
       0.116
       0.105
      -0.342
      -1.119
      -1.868
      -2.148
      -1.704
      -0.632
       0.677
       1.761
       2.304
       2.237
       1.705
       0.953
       0.193
      -0.470
      -1.006
      -1.375
      -1.491
      -1.302
      -0.900
      -0.508
      -0.340
      -0.467
      -0.806
      -1.194
      -1.438
      -1.323
      -0.684
       0.427
       1.653
       2.472
       2.527
       1.869
       0.894
       0.075
      -0.296
      -0.189
       0.213
       0.632
       0.818
       0.689
       0.380
       0.152
       0.173
       0.342
       0.316
      -0.212
      -1.188
      -2.129
      -2.458
      -1.975
      -1.024
      -0.194
       0.150
       0.062
      -0.147
      -0.205
      -0.034
       0.283
       0.630
       0.946
       1.234
       1.493
       1.653
       1.554
       1.035
       0.110
      -0.944
      -1.713
      -1.917
      -1.591
      -1.027
      -0.558
      -0.343
      -0.312
      -0.275
      -0.101
       0.179
       0.435
       0.589
       0.699
       0.864
       1.065
       1.138
       0.949
       0.577
       0.266
       0.181
       0.250
       0.274
       0.169
       0.062
       0.159
       0.542
       1.072
       1.435
       1.293
       0.505
      -0.711
      -1.832
      -2.318
      -1.957
      -0.996
       0.015
       0.551
       0.407
