Origin Time       02/10/2012 18:37:39
Lat.              26.9 N	
Long.             92.8 E	
Depth (Km)         35.0
Magnitude         5.1
 Region           Sonitpur-Assam                                                   
 Above details taken from IMD 
     
Station Code      TZP
Station Lat.       26.619  N
Station Long.      92.797  E
Station Height(m)   76.0
Site Class        B   Vs30 between 375 m/sec to 700 m/sec *  
Record Time       02.10.2012 18:37:31.559
Sampling Rate     200. Hz
 Record Duration   80.005 Sec.
 Direction         E-W (E positive)
Max. Acceleration     26.314 cm/sec**2
     
  * For reference see Site Classification link of website 
     
 Base Line Corrected and Low Pass Filtered (Cut Off at 35 Hz) Time History
 Acceleration data in cm/sec**2
    
[...]
      -3.454
      -4.127
      -3.571
      -2.165
      -0.610
       0.472
       0.791
       0.417
      -0.333
      -1.080
      -1.582
      -1.793
      -1.734
      -1.338
      -0.498
       0.725
       2.019
       2.985
       3.380
       3.219
       2.680
       1.954
       1.124
       0.149
      -1.035
      -2.346
      -3.500
      -4.142
      -4.052
      -3.252
      -1.990
      -0.694
       0.155
       0.342
       0.208
       0.473
       1.580
       3.182
       4.390
       4.550
       3.756
       2.634
       1.722
       1.129
       0.697
       0.352
       0.204
       0.359
       0.697
       0.873
       0.542
      -0.375
      -1.576
      -2.485
      -2.577
      -1.745
      -0.412
       0.772
       1.412
       1.589
       1.595
       1.497
       1.014
      -0.140
      -1.792
      -3.211
      -3.581
      -2.645
      -0.961
       0.525
       1.195
       1.150
       0.946
       0.956
       1.005
       0.592
      -0.553
      -2.133
      -3.443
      -3.833
      -3.115
      -1.666
      -0.196
       0.663
       0.679
       0.041
      -0.860
      -1.639
      -2.004
      -1.803
      -1.106
      -0.245
       0.326
       0.344
      -0.020
      -0.229
       0.240
       1.471
       2.996
       4.062
       4.081
       2.953
       1.104
      -0.756
      -1.997
      -2.358
      -1.984
      -1.236
      -0.401
       0.478
       1.515
       2.696
       3.678
       3.966
       3.356
       2.169
       0.977
       0.126
      -0.408
      -0.734
      -0.770
      -0.353
       0.388
       0.877
       0.464
      -0.944
      -2.588
      -3.324
      -2.523
      -0.608
       1.276
       2.147
       1.814
       0.804
      -0.187
      -0.764
      -0.958
      -1.026
      -1.168
      -1.346
      -1.344
      -1.014
      -0.455
       0.055
       0.326
       0.437
       0.611
       0.899
       0.999
       0.457
      -0.881
      -2.599
      -3.910
      -4.198
      -3.458
      -2.288
      -1.389
      -0.972
      -0.585
       0.400
       2.055
       3.672
       4.323
       3.657
       2.187
       0.860
       0.326
       0.508
       0.756
       0.423
      -0.601
      -1.804
      -2.428
      -1.981
      -0.560
       1.178
       2.379
       2.499
       1.656
       0.538
      -0.113
      -0.068
       0.247
       0.168
      -0.571
      -1.550
      -2.003
      -1.474
      -0.192
       1.155
       1.973
       2.106
       1.771
       1.261
       0.720
       0.148
      -0.400
      -0.662
      -0.340
       0.502
       1.276
       1.256
       0.227
      -1.261
      -2.306
      -2.364
      -1.622
      -0.771
      -0.400
      -0.525
      -0.650
      -0.308
       0.415
       0.936
       0.778
       0.105
      -0.383
      -0.074
       1.043
       2.377
       3.164
       2.914
       1.627
      -0.257
      -2.064
      -3.170
      -3.289
      -2.620
      -1.718
      -1.089
      -0.823
      -0.600
      -0.059
       0.862
       1.894
       2.631
       2.701
       1.880
       0.240
      -1.739
      -3.262
      -3.608
      -2.596
      -0.787
       0.837
       1.530
       1.247
       0.540
      -0.005
      -0.225
      -0.353
      -0.616
      -0.920
      -0.923
      -0.383
       0.555
       1.398
       1.620
       1.028
      -0.083
      -1.103
      -1.515
      -1.264
      -0.764
      -0.512
      -0.640
      -0.835
      -0.683
      -0.055
       0.823
       1.581
       1.941
       1.839
       1.433
       1.019
       0.857
       0.986
       1.206
       1.262
       1.038
       0.644
       0.372
       0.549
       1.301
       2.331
       2.962
       2.574
       1.130
      -0.679
      -1.926
      -2.194
      -1.888
      -1.788
      -2.260
      -2.900
      -2.934
      -1.957
      -0.326
       1.085
       1.508
       0.777
      -0.607
      -1.796
      -2.058
      -1.158
       0.489
       1.991
       2.476
       1.687
       0.214
      -0.881
      -0.815
       0.358
       1.789
       2.423
       1.711
      -0.001
      -1.693
      -2.391
      -1.916
      -1.035
      -0.852
      -1.880
      -3.579
      -4.760
      -4.500
      -2.788
      -0.414
       1.656
       2.836
       3.067
       2.664
       2.087
       1.716
       1.679
       1.803
       1.761
       1.311
       0.455
      -0.544
      -1.279
      -1.387
      -0.764
       0.284
       1.143
       1.255
       0.536
      -0.491
      -1.022
      -0.583
       0.527
       1.400
       1.278
       0.232
      -0.872
      -1.130
      -0.327
       0.964
       1.883
       1.874
       0.973
      -0.265
      -1.103
      -1.048
      -0.185
       0.826
       1.145
       0.349
      -1.201
      -2.527
      -2.672
      -1.394
       0.623
       2.221
       2.578
       1.784
       0.749
       0.501
       1.362
       2.645
       3.127
       1.991
      -0.517
      -3.248
      -4.990
      -5.240
      -4.298
      -2.812
      -1.328
      -0.210
       0.265
      -0.024
      -0.802
      -1.380
      -1.091
       0.113
       1.528
       2.285
       2.137
       1.669
       1.707
       2.496
       3.425
       3.527
       2.283
       0.064
      -2.077
      -3.101
      -2.693
      -1.525
      -0.779
      -1.241
      -2.662
      -3.977
      -4.151
      -2.910
      -0.814
       1.203
       2.388
       2.494
       1.820
       1.002
       0.631
       0.892
       1.469
       1.811
       1.533
       0.663
      -0.408
      -1.173
      -1.287
      -0.747
       0.115
       0.850
       1.187
       1.185
       1.103
       1.158
       1.377
       1.648
       1.828
       1.802
       1.499
       0.902
       0.081
      -0.802
      -1.550
      -2.029
      -2.232
      -2.221
      -2.011
      -1.542
      -0.802
       0.015
       0.527
       0.412
      -0.277
      -1.013
      -1.068
      -0.030
       1.802
       3.470
       3.918
       2.713
       0.413
      -1.769
      -2.784
      -2.439
      -1.430
      -0.751
      -0.955
      -1.815
      -2.556
      -2.436
      -1.242
       0.592
       2.275
       3.082
       2.704
       1.384
      -0.206
      -1.339
      -1.671
      -1.382
      -0.891
      -0.439
       0.073
       0.823
       1.712
       2.295
       2.127
       1.197
      -0.014
      -0.914
      -1.260
      -1.306
      -1.524
      -2.155
      -2.917
      -3.111
      -2.114
       0.050
       2.547
       4.204
       4.317
       3.146
       1.675
       0.845
       0.904
       1.372
       1.579
       1.240
       0.576
      -0.069
      -0.655
      -1.453
      -2.652
      -3.986
      -4.750
      -4.256
      -2.391
       0.125
       2.061
       2.456
       1.331
      -0.304
      -1.210
      -0.840
       0.362
       1.430
       1.627
       0.858
      -0.448
      -1.711
      -2.479
      -2.509
      -1.769
      -0.498
       0.788
       1.561
       1.671
       1.471
       1.449
       1.720
       1.882
       1.398
       0.141
      -1.352
      -2.173
      -1.674
       0.031
       2.092
       3.490
       3.685
       2.841
       1.555
       0.376
      -0.497
      -1.159
      -1.694
      -1.969
      -1.778
      -1.169
      -0.510
      -0.168
      -0.182
      -0.325
      -0.433
      -0.539
      -0.707
      -0.822
      -0.587
       0.263
       1.671
       3.094
       3.643
       2.602
       0.037
      -3.026
      -5.096
      -5.143
      -3.270
      -0.648
       1.240
       1.504
       0.348
      -1.103
      -1.546
      -0.358
       1.973
       4.162
       4.958
       3.909
       1.544
      -1.054
      -2.915
      -3.596
      -3.186
      -2.093
      -0.850
       0.048
       0.343
       0.168
      -0.073
      -0.099
      -0.043
      -0.272
      -0.882
      -1.426
      -1.231
      -0.026
       1.735
       3.144
       3.434
       2.412
       0.531
      -1.348
      -2.368
      -2.114
      -0.812
       0.815
       1.950
       2.078
       1.199
      -0.195
      -1.364
      -1.714
      -1.177
      -0.274
       0.290
       0.229
      -0.078
       0.031
       0.869
       2.131
       3.147
       3.351
       2.551
       0.920
      -1.090
      -2.849
      -3.780
      -3.721
      -3.108
      -2.697
      -2.922
      -3.445
      -3.387
      -2.109
       0.178
       2.512
       3.890
       3.938
       3.073
       2.110
       1.666
       1.777
       1.999
       1.885
       1.419
       1.044
       1.236
       1.945
       2.412
       1.661
      -0.591
      -3.422
      -5.171
      -4.658
      -2.153
       0.755
       2.334
       1.969
       0.496
      -0.611
      -0.460
       0.666
       1.752
       2.079
       1.910
       2.212
       3.638
       5.692
       6.967
       6.334
       3.959
       1.146
      -0.814
      -1.598
      -1.757
      -1.845
      -1.776
      -1.024
       0.607
       2.526
       3.714
       3.577
       2.502
       1.561
       1.617
       2.556
       3.313
       2.713
       0.437
      -2.677
      -5.284
      -6.557
      -6.707
      -6.577
      -6.754
      -7.072
      -6.949
      -6.137
      -5.049
      -4.319
      -4.128
      -4.107
      -3.901
      -3.684
      -3.984
      -5.025
      -6.341
      -7.049
      -6.580
      -5.245
      -4.175
      -4.524
      -6.495
      -8.979
     -10.158
      -8.705
      -4.691
       0.431
       4.735
       6.958
       7.053
       5.856
       4.320
       3.014
       2.200
       2.135
       3.053
       4.713
       6.025
       5.450
       2.166
      -2.911
      -7.327
      -8.552
      -5.595
       0.558
       7.855
      14.506
      19.613
      22.811
      23.596
      21.229
      15.414
       7.092
      -1.563
      -8.124
     -11.159
     -10.836
      -8.545
      -5.912
      -3.887
      -2.441
      -0.954
       1.097
       3.663
       6.132
       7.691
       7.732
       6.110
       3.208
      -0.152
      -2.920
      -4.101
      -3.054
       0.260
       5.101
       9.975
      13.007
      12.719
       8.844
       2.641
      -3.625
      -7.744
      -8.472
      -5.875
      -1.176
       3.605
       6.211
       5.029
       0.057
      -6.733
     -12.270
     -14.229
     -12.549
      -9.353
      -7.266
      -7.499
      -9.184
     -10.298
      -9.241
      -5.848
      -1.414
       2.015
       2.618
      -0.234
      -5.427
     -10.476
     -12.851
     -11.435
      -7.029
      -1.626
       2.865
       5.534
       6.572
       6.750
       6.756
       6.782
       6.526
       5.528
       3.645
       1.375
      -0.234
      -0.152
       1.875
       4.930
       7.339
       7.693
       5.730
       2.382
      -0.916
      -2.999
      -3.325
      -1.933
       0.750
       4.066
       7.183
       9.196
       9.371
       7.452
       3.740
      -1.073
      -6.019
      -9.819
     -11.081
      -9.011
      -4.170
       1.534
       5.789
       7.115
       5.553
       2.476
      -0.300
      -1.522
      -0.954
       0.955
       3.637
       6.541
       8.846
       9.465
       7.650
       3.585
      -1.745
      -7.261
     -12.234
     -16.129
     -18.361
     -18.469
     -16.520
     -13.195
      -9.355
      -5.523
      -1.806
       1.749
       4.814
       6.877
       7.627
       7.164
       5.770
       3.542
       0.381
      -3.590
      -7.616
     -10.476
     -11.178
      -9.571
      -6.392
      -2.825
       0.051
       1.684
       2.283
       2.712
       3.987
       6.582
      10.021
      13.118
      14.788
      14.897
      14.386
      14.369
      14.876
      14.469
      11.313
       4.924
      -2.909
      -8.871
     -10.112
      -6.151
       0.596
       6.107
       7.086
       2.786
      -4.812
     -12.352
     -16.937
     -17.397
     -14.465
      -9.925
      -5.340
      -1.249
       2.643
       6.548
       9.907
      11.627
      10.987
       8.269
       4.558
       1.016
      -1.617
      -3.019
      -3.124
      -2.221
      -1.144
      -1.040
      -2.608
      -5.437
      -8.171
      -9.469
      -8.936
      -7.323
      -5.913
      -5.628
      -6.407
      -7.229
      -6.791
      -4.495
      -1.063
       1.792
       2.555
       1.079
      -1.249
      -2.492
      -1.518
       1.340
       4.722
       7.314
       8.638
       9.041
       9.053
       8.762
       7.728
       5.469
       2.047
      -1.746
      -4.743
      -5.990
      -5.212
      -2.961
      -0.394
       1.250
       1.292
       0.013
      -1.464
      -1.767
      -0.030
       3.614
       8.077
      11.847
      13.693
      13.156
      10.627
       7.096
       3.720
       1.347
       0.180
      -0.169
      -0.273
      -0.418
      -0.483
      -0.212
       0.391
       1.005
       1.377
       1.666
       2.252
       3.065
       3.205
       1.446
      -2.628
      -7.869
     -12.052
     -13.347
     -11.570
      -8.137
      -4.861
      -2.746
      -1.795
      -1.733
      -2.630
      -4.691
      -7.471
      -9.517
      -9.100
      -5.615
      -0.442
       3.615
       4.083
       0.510
      -5.251
     -10.380
     -12.921
     -12.634
     -10.402
      -7.019
      -2.563
       3.229
      10.168
      17.278
      23.110
      26.314
      26.058
      22.233
      15.544
       7.414
      -0.343
      -6.069
      -8.866
      -8.994
      -7.783
      -7.023
      -8.084
     -11.179
     -15.134
     -17.890
     -17.603
     -13.724
      -7.331
      -0.495
       4.869
       7.940
       9.173
       9.727
      10.611
      12.126
      13.856
      15.023
      14.925
      13.339
      10.711
       7.989
       6.075
       5.256
       5.100
       4.886
       4.131
       2.758
       0.877
      -1.462
      -4.280
      -7.393
     -10.127
     -11.482
     -10.827
      -8.580
      -6.145
      -4.985
      -5.534
      -6.845
      -7.291
      -5.842
      -2.943
      -0.298
       0.268
      -1.985
      -6.335
     -11.151
     -14.754
     -15.979
     -14.434
     -10.693
      -6.251
      -2.867
      -1.443
      -1.371
      -1.046
       0.819
       4.175
       7.727
       9.968
      10.235
       8.960
       7.081
       5.286
       3.739
       2.317
       0.924
      -0.439
      -1.744
      -2.904
      -3.631
      -3.397
      -1.755
       1.101
       4.036
       5.478
       4.574
       2.064
      -0.054
       0.035
       2.591
       6.179
       8.842
       9.575
       8.899
       8.154
       8.215
       8.797
       8.922
       7.960
       6.237
       4.746
       4.378
       5.313
       6.870
       7.807
       6.975
       4.074
       0.016
      -3.524
      -5.165
      -4.658
      -2.907
      -1.297
      -0.953
      -2.315
      -4.986
      -7.791
      -9.170
      -8.015
      -4.532
      -0.426
       2.024
       1.514
      -1.269
      -3.995
      -4.212
      -0.943
       4.685
      10.116
      12.837
      11.730
       7.521
       2.112
      -2.676
      -6.085
      -8.522
     -10.930
     -14.018
     -17.821
     -21.663
     -24.458
     -25.203
     -23.454
     -19.571
     -14.587
      -9.714
      -5.712
      -2.523
       0.428
       3.428
       5.970
       7.132
       6.523
       4.810
       3.264
       2.761
       3.123
       3.329
       2.321
      -0.239
      -3.667
      -6.510
      -7.176
      -4.705
       0.622
       7.196
      12.739
      15.436
      14.853
      12.063
       8.963
       7.249
       7.603
       9.408
      11.053
      10.755
       7.664
       2.712
      -1.581
      -2.646
       0.192
       4.975
       8.371
       7.978
       3.872
      -1.648
      -5.710
      -6.590
      -4.436
      -0.803
       2.432
       4.065
       4.043
       3.314
       3.158
       4.370
       6.832
       9.695
      11.889
      12.536
      11.181
       7.968
       3.654
      -0.808
      -4.895
      -8.741
     -12.599
     -16.073
     -18.031
     -17.460
     -14.504
     -10.674
      -7.944
      -7.441
      -8.740
     -10.251
     -10.329
      -8.298
      -4.752
      -1.032
       1.689
       3.089
       3.687
       4.210
       4.923
       5.428
       4.987
       3.038
      -0.424
      -4.718
      -8.600
     -10.637
      -9.794
      -6.067
      -0.744
       4.094
       6.689
       6.582
       4.641
       2.157
      -0.154
      -2.322
      -4.418
      -5.880
      -5.729
      -3.504
       0.077
       3.495
       5.515
       5.994
       5.798
       6.040
       7.280
       9.220
      11.014
      11.909
      11.697
      10.644
       9.060
       6.962
       4.190
       0.863
      -2.288
      -4.138
      -3.891
      -1.749
       1.103
       3.295
       4.153
       3.886
       2.983
       1.565
      -0.592
      -3.435
      -6.217
      -7.881
      -7.911
      -6.726
      -5.185
      -3.799
      -2.462
      -0.793
       1.392
       3.898
       6.150
       7.287
       6.413
       3.064
      -2.351
      -8.501
     -13.555
     -15.847
     -14.463
      -9.633
      -2.812
       3.681
       7.579
       7.744
       4.738
       0.411
      -3.233
      -5.150
      -5.654
      -5.899
      -6.816
      -8.288
      -9.242
      -8.610
      -6.329
      -3.468
      -1.395
      -0.792
      -1.321
      -2.061
      -2.227
      -1.618
      -0.596
       0.287
       0.717
       0.852
       1.230
       2.409
       4.537
       7.117
       9.167
       9.733
       8.482
       5.967
       3.336
       1.614
       1.111
       1.420
       1.978
       2.657
       3.878
       6.082
       8.967
      11.230
      11.280
       8.538
       4.208
       0.655
      -0.295
       1.318
       3.804
       5.345
       5.422
       4.911
       4.935
       5.634
       6.006
       4.891
       2.097
      -1.377
      -4.120
      -5.252
      -4.771
      -3.304
      -1.706
      -0.739
      -0.749
      -1.469
      -2.272
      -2.769
      -3.170
      -3.945
      -5.207
      -6.527
      -7.400
      -7.743
      -7.852
      -7.919
      -7.740
      -6.975
      -5.661
      -4.384
      -3.820
      -4.045
      -4.295
      -3.569
      -1.604
       0.705
       1.893
       1.053
      -1.512
      -4.559
      -6.781
      -7.516
      -6.853
      -5.257
      -3.156
      -0.824
       1.478
       3.357
       4.356
       4.196
       3.029
       1.483
       0.351
       0.063
       0.389
       0.761
       0.965
       1.426
       2.680
       4.622
       6.414
       7.201
       6.867
       6.083
       5.654
       5.847
       6.292
       6.383
       5.673
       3.936
       1.160
      -2.250
      -5.266
      -6.604
      -5.651
      -3.140
      -0.826
      -0.289
      -1.836
      -4.302
      -5.824
      -5.011
      -1.812
       2.439
       5.804
       6.926
       5.830
       3.792
       2.396
       2.486
       3.761
       5.201
       5.860
       5.363
       3.858
       1.728
      -0.581
