Origin Time       19/08/2012 19:04:56
Lat.              26.7°N	
Long.             92.6°E	
Depth (Km)         40.0
Magnitude         4.0
 Region           SONITPUR-ASSAM                                                   
 Above details taken from IMD 
   
Station Code      TZP
Station Lat.       26.619
Station Long.      92.797
Station Height(m)   76.0
Site Class        B   Vs30 between 375 m/sec to 700 m/sec *  
Record Time       19.08.2012 19:04:54.854
Sampling Rate     200. Hz
 Record Duration   65.070 Sec.
 Direction         Vert. (Up positive)
Max. Acceleration      9.962 cm/sec**2
     
  * For reference see Site Classification link of website 
     
 Base Line Corrected and Low Pass Filtered (Cut Off at 35 Hz) Time History
 Acceleration data in cm/sec**2
    
[...]
       0.109
      -0.497
      -0.901
      -0.946
      -0.705
      -0.281
       0.287
       0.920
       1.396
       1.427
       0.910
       0.094
      -0.553
      -0.688
      -0.354
       0.091
       0.291
       0.150
      -0.187
      -0.517
      -0.714
      -0.732
      -0.590
      -0.367
      -0.154
       0.043
       0.326
       0.745
       1.143
       1.196
       0.694
      -0.209
      -1.013
      -1.175
      -0.497
       0.690
       1.669
       1.759
       0.782
      -0.773
      -2.048
      -2.391
      -1.775
      -0.732
       0.081
       0.320
       0.106
      -0.154
      -0.098
       0.326
       0.823
       0.976
       0.587
      -0.115
      -0.600
      -0.435
       0.371
       1.371
       2.007
       1.956
       1.214
      -0.032
      -1.471
      -2.646
      -3.037
      -2.382
      -0.948
       0.561
       1.461
       1.517
       1.006
       0.423
       0.126
       0.179
       0.425
       0.638
       0.639
       0.366
      -0.095
      -0.540
      -0.761
      -0.678
      -0.385
      -0.080
       0.082
       0.084
       0.040
       0.060
       0.133
       0.125
      -0.063
      -0.335
      -0.439
      -0.204
       0.266
       0.644
       0.634
       0.194
      -0.424
      -0.827
      -0.699
       0.003
       0.962
       1.591
       1.347
       0.141
      -1.444
      -2.453
      -2.222
      -0.863
       0.854
       2.067
       2.324
       1.675
       0.479
      -0.799
      -1.668
      -1.714
      -0.838
       0.526
       1.505
       1.345
       0.069
      -1.391
      -1.870
      -0.937
       0.730
       1.892
       1.734
       0.422
      -1.141
      -2.031
      -1.879
      -0.939
       0.227
       1.128
       1.536
       1.433
       0.912
       0.153
      -0.551
      -0.874
      -0.678
      -0.175
       0.228
       0.302
       0.192
       0.215
       0.457
       0.654
       0.465
      -0.154
      -0.874
      -1.235
      -0.973
      -0.192
       0.682
       1.128
       0.866
       0.109
      -0.539
      -0.562
      -0.004
       0.558
       0.523
      -0.220
      -1.223
      -1.831
      -1.610
      -0.565
       0.866
       2.028
       2.387
       1.825
       0.664
      -0.572
      -1.410
      -1.572
      -1.074
      -0.283
       0.233
       0.132
      -0.380
      -0.714
      -0.458
       0.259
       0.934
       1.149
       0.845
       0.271
      -0.233
      -0.445
      -0.380
      -0.226
      -0.106
       0.075
       0.463
       0.928
       1.019
       0.394
      -0.724
      -1.608
      -1.630
      -0.790
       0.314
       0.977
       0.885
       0.256
      -0.378
      -0.574
      -0.276
       0.203
       0.504
       0.525
       0.418
       0.345
       0.279
       0.067
      -0.338
      -0.731
      -0.748
      -0.175
       0.750
       1.372
       1.109
      -0.013
      -1.343
      -2.147
      -2.155
      -1.575
      -0.729
       0.198
       1.086
       1.767
       2.073
       1.944
       1.421
       0.597
      -0.345
      -1.086
      -1.348
      -1.146
      -0.786
      -0.518
      -0.291
       0.057
       0.445
       0.570
       0.303
      -0.087
      -0.216
      -0.011
       0.251
       0.294
       0.115
      -0.063
      -0.031
       0.243
       0.595
       0.737
       0.421
      -0.328
      -1.114
      -1.372
      -0.803
       0.319
       1.257
       1.334
       0.461
      -0.770
      -1.528
      -1.347
      -0.412
       0.657
       1.279
       1.230
       0.665
      -0.061
      -0.583
      -0.681
      -0.390
       0.033
       0.281
       0.225
      -0.010
      -0.198
      -0.247
      -0.227
      -0.189
      -0.052
       0.270
       0.675
       0.879
       0.651
       0.018
      -0.750
      -1.310
      -1.391
      -0.871
       0.146
       1.267
       1.928
       1.753
       0.857
      -0.239
      -1.032
      -1.356
      -1.335
      -1.131
      -0.798
      -0.336
       0.210
       0.730
       1.107
       1.255
       1.133
       0.770
       0.262
      -0.279
      -0.769
      -1.124
      -1.215
      -0.935
      -0.342
       0.303
       0.694
       0.693
       0.396
       0.003
      -0.331
      -0.516
      -0.467
      -0.138
       0.380
       0.844
       0.989
       0.710
       0.157
      -0.365
      -0.612
      -0.551
      -0.316
      -0.039
       0.212
       0.391
       0.423
       0.262
      -0.031
      -0.304
      -0.428
      -0.377
      -0.185
       0.118
       0.461
       0.651
       0.451
      -0.127
      -0.677
      -0.695
      -0.093
       0.623
       0.797
       0.246
      -0.581
      -1.038
      -0.866
      -0.335
       0.084
       0.159
       0.041
       0.034
       0.278
       0.625
       0.784
       0.582
       0.106
      -0.352
      -0.505
      -0.290
       0.084
       0.314
       0.224
      -0.125
      -0.506
      -0.671
      -0.498
      -0.053
       0.451
       0.786
       0.821
       0.546
       0.033
      -0.586
      -1.106
      -1.266
      -0.890
      -0.062
       0.839
       1.366
       1.335
       0.921
       0.421
      -0.058
      -0.580
      -1.087
      -1.271
      -0.875
      -0.050
       0.691
       0.903
       0.557
      -0.011
      -0.408
      -0.422
      -0.085
       0.383
       0.660
       0.507
      -0.023
      -0.566
      -0.720
      -0.402
       0.106
       0.446
       0.471
       0.267
      -0.020
      -0.281
      -0.423
      -0.360
      -0.098
       0.209
       0.334
       0.148
      -0.262
      -0.633
      -0.694
      -0.346
       0.262
       0.809
       0.980
       0.667
       0.051
      -0.505
      -0.703
      -0.497
      -0.104
       0.198
       0.277
       0.185
       0.031
      -0.147
      -0.336
      -0.442
      -0.314
       0.079
       0.551
       0.855
       0.912
       0.805
       0.554
       0.048
      -0.706
      -1.349
      -1.378
      -0.667
       0.300
       0.814
       0.562
      -0.136
      -0.660
      -0.606
      -0.031
       0.667
       1.050
       0.913
       0.398
      -0.134
      -0.425
      -0.526
      -0.646
      -0.809
      -0.780
      -0.369
       0.266
       0.724
       0.749
       0.455
       0.160
       0.094
       0.268
       0.525
       0.645
       0.450
      -0.071
      -0.687
      -1.054
      -0.981
      -0.588
      -0.185
      -0.014
      -0.092
      -0.252
      -0.294
      -0.113
       0.256
       0.670
       0.957
       0.988
       0.725
       0.265
      -0.177
      -0.404
      -0.416
      -0.429
      -0.638
      -0.954
      -1.026
      -0.583
       0.254
       1.028
       1.322
       1.091
       0.634
       0.307
       0.256
       0.375
       0.447
       0.310
      -0.053
      -0.533
      -0.963
      -1.225
      -1.322
      -1.341
      -1.317
      -1.130
      -0.585
       0.362
       1.442
       2.184
       2.218
       1.542
       0.538
      -0.269
      -0.549
      -0.371
      -0.117
      -0.158
      -0.551
      -1.013
      -1.201
      -1.002
      -0.559
      -0.059
       0.439
       0.946
       1.386
       1.562
       1.314
       0.690
      -0.056
      -0.634
      -0.902
      -0.929
      -0.893
      -0.902
      -0.884
      -0.675
      -0.242
       0.207
       0.411
       0.339
       0.230
       0.336
       0.655
       0.948
       0.963
       0.627
       0.057
      -0.510
      -0.798
      -0.634
      -0.110
       0.411
       0.542
       0.173
      -0.439
      -0.862
      -0.803
      -0.291
       0.359
       0.759
       0.711
       0.340
      -0.022
      -0.148
      -0.118
      -0.163
      -0.342
      -0.468
      -0.363
      -0.101
       0.084
       0.094
       0.086
       0.254
       0.551
       0.702
       0.504
       0.050
      -0.337
      -0.399
      -0.157
       0.104
       0.082
      -0.284
      -0.741
      -0.899
      -0.546
       0.159
       0.792
       1.022
       0.873
       0.633
       0.507
       0.393
       0.045
      -0.574
      -1.144
      -1.228
      -0.710
       0.026
       0.385
       0.076
      -0.598
      -0.965
      -0.548
       0.518
       1.564
       1.898
       1.319
       0.246
      -0.624
      -0.844
      -0.506
      -0.086
      -0.016
      -0.362
      -0.831
      -1.052
      -0.839
      -0.245
       0.556
       1.336
       1.780
       1.554
       0.573
      -0.756
      -1.691
      -1.678
      -0.787
       0.350
       1.029
       0.967
       0.405
      -0.175
      -0.420
      -0.261
       0.157
       0.605
       0.828
       0.646
       0.088
      -0.560
      -0.928
      -0.843
      -0.459
      -0.102
       0.021
      -0.041
      -0.106
      -0.077
       0.017
       0.116
       0.195
       0.231
       0.171
       0.009
      -0.134
      -0.060
       0.289
       0.681
       0.735
       0.276
      -0.466
      -1.032
      -1.099
      -0.694
      -0.082
       0.461
       0.784
       0.842
       0.670
       0.364
       0.034
      -0.268
      -0.546
      -0.787
      -0.898
      -0.757
      -0.338
       0.217
       0.667
       0.833
       0.686
       0.317
      -0.139
      -0.535
      -0.724
      -0.622
      -0.290
       0.094
       0.370
       0.522
       0.605
       0.573
       0.262
      -0.383
      -1.091
      -1.390
      -0.989
      -0.022
       1.067
       1.816
       1.915
       1.260
       0.065
      -1.069
      -1.436
      -0.811
       0.259
       0.887
       0.617
      -0.237
      -0.989
      -1.204
      -0.940
      -0.507
      -0.143
       0.073
       0.146
       0.123
       0.127
       0.305
       0.675
       1.044
       1.128
       0.766
       0.041
      -0.778
      -1.383
      -1.546
      -1.206
      -0.474
       0.435
       1.300
       1.919
       2.056
       1.507
       0.308
      -1.106
      -2.077
      -2.124
      -1.251
       0.082
       1.240
       1.718
       1.342
       0.340
      -0.791
      -1.555
      -1.713
      -1.304
      -0.526
       0.378
       1.124
       1.411
       1.088
       0.322
      -0.441
      -0.752
      -0.476
       0.120
       0.576
       0.559
       0.070
      -0.579
      -0.960
      -0.780
      -0.076
       0.785
       1.346
       1.387
       1.039
       0.593
       0.203
      -0.179
      -0.611
      -1.001
      -1.182
      -1.122
      -0.973
      -0.878
      -0.803
      -0.582
      -0.102
       0.575
       1.243
       1.650
       1.602
       1.059
       0.200
      -0.616
      -1.067
      -1.065
      -0.765
      -0.383
      -0.059
       0.154
       0.261
       0.315
       0.369
       0.422
       0.421
       0.335
       0.188
       0.016
      -0.162
      -0.324
      -0.432
      -0.467
      -0.456
      -0.434
      -0.373
      -0.197
       0.100
       0.379
       0.456
       0.315
       0.153
       0.175
       0.357
       0.451
       0.261
      -0.147
      -0.505
      -0.617
      -0.524
      -0.414
      -0.373
      -0.284
       0.004
       0.414
       0.642
       0.462
       0.007
      -0.325
      -0.249
       0.177
       0.667
       0.967
       0.952
       0.565
      -0.165
      -1.026
      -1.651
      -1.745
      -1.290
      -0.503
       0.361
       1.092
       1.464
       1.284
       0.595
      -0.215
      -0.648
      -0.486
       0.050
       0.491
       0.494
       0.084
      -0.386
      -0.549
      -0.366
      -0.163
      -0.264
      -0.581
      -0.661
      -0.201
       0.539
       0.951
       0.736
       0.218
      -0.025
       0.201
       0.564
       0.650
       0.399
       0.038
      -0.276
      -0.598
      -0.992
      -1.319
      -1.324
      -0.897
      -0.210
       0.415
       0.754
       0.844
       0.902
       1.095
       1.338
       1.327
       0.793
      -0.229
      -1.366
      -2.133
      -2.223
      -1.666
      -0.774
       0.083
       0.706
       1.099
       1.304
       1.251
       0.824
       0.096
      -0.583
      -0.811
      -0.474
       0.126
       0.523
       0.493
       0.186
      -0.083
      -0.153
      -0.111
      -0.129
      -0.249
      -0.339
      -0.256
      -0.028
       0.152
       0.133
      -0.009
      -0.057
       0.076
       0.256
       0.306
       0.223
       0.133
       0.087
       0.015
      -0.115
      -0.207
      -0.185
      -0.165
      -0.345
      -0.734
      -1.060
      -0.981
      -0.382
       0.505
       1.234
       1.413
       0.948
       0.114
      -0.589
      -0.742
      -0.308
       0.313
       0.583
       0.297
      -0.225
      -0.439
      -0.106
       0.457
       0.685
       0.295
      -0.492
      -1.236
      -1.683
      -1.853
      -1.792
      -1.372
      -0.407
       1.033
       2.474
       3.254
       2.963
       1.724
       0.112
      -1.185
      -1.736
      -1.540
      -0.948
      -0.353
       0.104
       0.535
       1.016
       1.302
       0.948
      -0.226
      -1.784
      -2.860
      -2.770
      -1.452
       0.608
       2.784
       4.562
       5.513
       5.249
       3.576
       0.707
      -2.723
      -5.883
      -7.984
      -8.441
      -6.989
      -3.812
       0.426
       4.757
       8.199
       9.962
       9.562
       6.967
       2.802
      -1.702
      -5.238
      -7.124
      -7.551
      -7.120
      -6.155
      -4.473
      -1.794
       1.633
       4.853
       6.677
       6.450
       4.507
       1.958
      -0.014
      -0.815
      -0.641
      -0.153
       0.069
      -0.100
      -0.408
      -0.627
      -0.843
      -1.338
      -2.215
      -3.175
      -3.643
      -3.137
      -1.587
       0.610
       2.805
       4.372
       4.879
       4.170
       2.459
       0.357
      -1.367
      -2.255
      -2.508
      -2.793
      -3.562
      -4.473
      -4.491
      -2.684
       0.899
       4.974
       7.670
       7.683
       5.109
       1.369
      -1.731
      -3.107
      -2.876
      -1.970
      -1.310
      -1.208
      -1.337
      -1.132
      -0.281
       1.011
       2.100
       2.243
       1.051
      -1.208
      -3.612
      -4.966
      -4.409
      -1.966
       1.348
       4.061
       5.120
       4.452
       2.791
       1.057
      -0.122
      -0.517
      -0.216
       0.418
       0.828
       0.491
      -0.765
      -2.565
      -4.060
      -4.297
      -2.809
      -0.094
       2.498
       3.613
       2.862
       1.052
      -0.541
      -1.128
      -0.750
       0.071
       0.794
       1.018
       0.502
      -0.726
      -2.194
      -3.102
      -2.803
      -1.328
       0.526
       1.721
       1.767
       1.103
       0.696
       1.199
       2.428
       3.568
       3.758
       2.558
       0.105
      -2.920
      -5.481
      -6.603
      -5.881
      -3.675
      -0.860
       1.610
       3.009
       3.077
       2.246
       1.536
       1.836
       3.058
       4.099
       3.829
       2.127
      -0.115
      -1.937
      -3.094
      -3.898
      -4.487
      -4.520
      -3.615
      -1.928
      -0.118
       1.212
       1.925
       2.217
       2.297
       2.321
       2.494
       2.994
       3.652
       3.834
       2.836
       0.524
      -2.370
      -4.632
      -5.323
      -4.361
      -2.495
      -0.787
       0.014
      -0.177
      -0.808
      -1.095
      -0.584
       0.518
       1.569
       2.106
       2.173
       2.020
       1.610
       0.662
      -0.777
      -1.980
      -2.035
      -0.753
       0.995
       1.956
       1.502
       0.028
      -1.493
      -2.245
      -1.975
      -0.940
       0.382
       1.580
       2.452
       2.936
       2.927
       2.216
       0.742
      -1.078
      -2.440
      -2.779
      -2.311
      -1.838
      -1.873
      -2.048
      -1.519
       0.031
       1.914
       3.027
       2.880
       1.952
       1.065
       0.530
       0.009
      -0.880
      -1.962
      -2.548
      -2.011
      -0.351
       1.679
       2.970
       2.737
       1.037
      -1.226
      -2.882
      -3.254
      -2.505
      -1.325
      -0.304
       0.433
       1.034
       1.516
       1.645
       1.273
       0.683
       0.429
       0.751
       1.224
       1.137
       0.211
      -1.111
      -2.065
      -2.138
      -1.302
       0.073
       1.390
       2.057
       1.799
       0.834
      -0.306
      -1.161
      -1.538
      -1.406
      -0.797
       0.072
       0.724
       0.710
       0.100
      -0.475
      -0.412
       0.193
       0.575
       0.060
      -1.170
      -2.119
      -1.838
      -0.300
       1.545
       2.577
       2.373
       1.345
       0.208
      -0.569
      -0.865
      -0.749
      -0.365
       0.066
       0.329
       0.350
       0.200
      -0.031
      -0.303
      -0.541
      -0.612
      -0.456
      -0.212
      -0.087
      -0.087
       0.041
       0.527
       1.251
       1.766
       1.668
       0.947
       0.000
      -0.693
      -0.900
      -0.738
      -0.513
      -0.472
      -0.668
      -0.984
      -1.225
      -1.193
      -0.791
      -0.122
       0.550
       0.961
       0.990
       0.687
       0.245
      -0.048
       0.039
       0.433
       0.706
       0.437
      -0.304
      -0.948
      -0.954
      -0.307
       0.530
       1.078
       1.181
       0.961
       0.629
       0.374
       0.328
       0.497
       0.703
       0.695
       0.348
      -0.261
      -0.988
      -1.759
      -2.503
      -2.979
      -2.849
      -1.997
      -0.726
       0.443
       1.203
       1.636
       1.978
       2.282
       2.369
       2.037
       1.283
       0.332
      -0.488
      -0.914
      -0.899
      -0.673
      -0.627
      -0.996
      -1.586
      -1.873
      -1.473
      -0.518
       0.466
       1.058
       1.263
       1.340
       1.378
       1.158
       0.465
      -0.534
      -1.313
      -1.391
      -0.728
       0.260
       1.011
       1.170
       0.755
       0.125
      -0.247
      -0.092
       0.422
       0.778
       0.532
      -0.266
      -1.066
      -1.296
      -0.886
      -0.333
      -0.223
      -0.653
      -1.128
      -1.027
      -0.202
       0.886
       1.560
       1.449
       0.717
      -0.125
      -0.595
      -0.526
      -0.122
       0.242
       0.316
       0.128
      -0.130
      -0.331
      -0.478
      -0.537
      -0.314
       0.344
       1.227
       1.780
       1.566
       0.697
      -0.243
      -0.707
      -0.614
      -0.322
      -0.258
      -0.592
      -1.150
      -1.548
      -1.416
      -0.640
       0.518
       1.547
       1.973
       1.620
       0.671
      -0.437
      -1.214
      -1.362
      -0.941
      -0.320
       0.108
       0.208
       0.118
       0.027
      -0.015
      -0.056
      -0.077
       0.029
       0.320
       0.723
       1.058
       1.088
       0.571
      -0.519
      -1.730
      -2.249
      -1.529
       0.133
       1.716
       2.276
       1.648
       0.460
