Origin Time       07/10/2013 20:54:03
Lat.              26.3 N	
Long.             92.5 E	
Depth (Km)         10.0
Magnitude         3.7
 Region           Naogaon-Assam                                                    
 Above details taken from IMD 
     
Station Code      TZP
Station Lat.       26.619  N
Station Long.      92.797  E
Station Height(m)   76.0
Site Class        B   Vs30 between 375 m/sec to 700 m/sec *  
Record Time       07.10.2013 20:53:42.314
Sampling Rate     200. Hz
 Record Duration   88.100 Sec.
 Direction         E-W (E positive)
Max. Acceleration     -7.591 cm/sec**2
     
  * For reference see Site Classification link of website 
     
 Base Line Corrected and Low Pass Filtered (Cut Off at 35 Hz) Time History
 Acceleration data in cm/sec**2
    
[...]
      -0.547
      -0.761
      -0.788
      -0.563
      -0.187
       0.109
       0.134
      -0.108
      -0.411
      -0.540
      -0.423
      -0.194
      -0.037
      -0.006
       0.003
       0.113
       0.308
       0.428
       0.320
      -0.011
      -0.383
      -0.591
      -0.570
      -0.421
      -0.295
      -0.254
      -0.258
      -0.254
      -0.251
      -0.289
      -0.361
      -0.384
      -0.259
       0.050
       0.472
       0.869
       1.116
       1.173
       1.075
       0.877
       0.612
       0.292
      -0.044
      -0.310
      -0.403
      -0.281
      -0.006
       0.297
       0.520
       0.637
       0.693
       0.736
       0.751
       0.664
       0.390
      -0.101
      -0.730
      -1.301
      -1.575
      -1.427
      -0.959
      -0.446
      -0.122
      -0.010
       0.045
       0.179
       0.385
       0.567
       0.690
       0.794
       0.867
       0.770
       0.359
      -0.321
      -0.993
      -1.324
      -1.142
      -0.533
       0.233
       0.847
       1.087
       0.924
       0.537
       0.204
       0.090
       0.117
       0.060
      -0.222
      -0.636
      -0.947
      -0.998
      -0.824
      -0.581
      -0.394
      -0.277
      -0.172
      -0.034
       0.103
       0.154
       0.054
      -0.154
      -0.322
      -0.283
       0.006
       0.392
       0.610
       0.486
       0.085
      -0.325
      -0.485
      -0.333
      -0.024
       0.210
       0.241
       0.128
       0.041
       0.103
       0.280
       0.424
       0.416
       0.272
       0.113
       0.047
       0.071
       0.091
       0.028
      -0.106
      -0.214
      -0.199
      -0.047
       0.140
       0.223
       0.134
      -0.055
      -0.184
      -0.140
       0.043
       0.224
       0.288
       0.231
       0.116
      -0.019
      -0.197
      -0.430
      -0.650
      -0.714
      -0.503
      -0.032
       0.528
       0.933
       1.017
       0.802
       0.473
       0.230
       0.139
       0.106
      -0.006
      -0.247
      -0.546
      -0.779
      -0.841
      -0.685
      -0.349
       0.053
       0.371
       0.507
       0.458
       0.274
       0.002
      -0.328
      -0.641
      -0.807
      -0.729
      -0.441
      -0.090
       0.179
       0.322
       0.387
       0.424
       0.421
       0.322
       0.109
      -0.133
      -0.250
      -0.126
       0.217
       0.611
       0.846
       0.804
       0.504
       0.057
      -0.404
      -0.766
      -0.941
      -0.895
      -0.660
      -0.315
       0.057
       0.394
       0.646
       0.766
       0.729
       0.546
       0.258
      -0.086
      -0.418
      -0.661
      -0.756
      -0.696
      -0.536
      -0.348
      -0.180
      -0.043
       0.059
       0.134
       0.224
       0.397
       0.670
       0.951
       1.063
       0.891
       0.491
       0.061
      -0.209
      -0.280
      -0.265
      -0.305
      -0.432
      -0.546
      -0.520
      -0.325
      -0.074
       0.066
       0.014
      -0.163
      -0.309
      -0.309
      -0.171
       0.004
       0.106
       0.084
      -0.044
      -0.227
      -0.406
      -0.523
      -0.516
      -0.335
       0.007
       0.389
       0.624
       0.579
       0.281
      -0.093
      -0.328
      -0.313
      -0.101
       0.152
       0.309
       0.348
       0.331
       0.320
       0.318
       0.295
       0.231
       0.133
       0.017
      -0.085
      -0.126
      -0.067
       0.079
       0.242
       0.346
       0.356
       0.284
       0.162
       0.037
      -0.036
      -0.019
       0.045
       0.040
      -0.125
      -0.397
      -0.582
      -0.510
      -0.198
       0.148
       0.315
       0.261
       0.134
       0.102
       0.199
       0.307
       0.292
       0.115
      -0.159
      -0.429
      -0.612
      -0.644
      -0.485
      -0.172
       0.155
       0.314
       0.218
      -0.048
      -0.292
      -0.367
      -0.270
      -0.105
       0.026
       0.084
       0.080
       0.021
      -0.104
      -0.295
      -0.482
      -0.545
      -0.412
      -0.148
       0.065
       0.086
      -0.055
      -0.174
      -0.095
       0.187
       0.500
       0.645
       0.558
       0.335
       0.123
       0.000
      -0.052
      -0.081
      -0.100
      -0.079
       0.007
       0.141
       0.275
       0.374
       0.434
       0.463
       0.455
       0.389
       0.254
       0.071
      -0.115
      -0.268
      -0.372
      -0.417
      -0.385
      -0.277
      -0.148
      -0.074
      -0.068
      -0.051
       0.071
       0.316
       0.608
       0.841
       0.929
       0.836
       0.577
       0.213
      -0.179
      -0.529
      -0.774
      -0.835
      -0.649
      -0.240
       0.238
       0.556
       0.546
       0.211
      -0.267
      -0.644
      -0.750
      -0.581
      -0.289
      -0.090
      -0.131
      -0.385
      -0.661
      -0.738
      -0.542
      -0.197
       0.081
       0.160
       0.067
      -0.068
      -0.119
      -0.046
       0.100
       0.219
       0.240
       0.168
       0.082
       0.086
       0.235
       0.488
       0.717
       0.782
       0.617
       0.273
      -0.111
      -0.386
      -0.481
      -0.433
      -0.343
      -0.281
      -0.227
      -0.116
       0.077
       0.292
       0.430
       0.425
       0.285
       0.073
      -0.116
      -0.201
      -0.150
      -0.006
       0.136
       0.189
       0.119
      -0.039
      -0.200
      -0.268
      -0.186
       0.030
       0.292
       0.487
       0.536
       0.435
       0.244
       0.051
      -0.067
      -0.064
       0.046
       0.174
       0.188
      -0.003
      -0.359
      -0.710
      -0.860
      -0.709
      -0.305
       0.204
       0.653
       0.898
       0.858
       0.553
       0.129
      -0.216
      -0.352
      -0.286
      -0.127
       0.007
       0.063
       0.056
       0.027
      -0.004
      -0.049
      -0.150
      -0.332
      -0.555
      -0.703
      -0.648
      -0.367
       0.004
       0.253
       0.256
       0.059
      -0.183
      -0.338
      -0.372
      -0.321
      -0.225
      -0.089
       0.116
       0.417
       0.773
       1.039
       1.020
       0.634
       0.027
      -0.482
      -0.630
      -0.413
      -0.093
       0.020
      -0.190
      -0.566
      -0.810
      -0.700
      -0.239
       0.356
       0.793
       0.888
       0.663
       0.297
      -0.016
      -0.192
      -0.270
      -0.334
      -0.414
      -0.445
      -0.323
      -0.004
       0.425
       0.771
       0.855
       0.640
       0.275
       0.002
      -0.004
       0.236
       0.523
       0.643
       0.536
       0.309
       0.101
      -0.062
      -0.232
      -0.420
      -0.559
      -0.586
      -0.511
      -0.387
      -0.244
      -0.104
      -0.033
      -0.102
      -0.273
      -0.385
      -0.290
      -0.004
       0.292
       0.413
       0.305
       0.045
      -0.245
      -0.468
      -0.560
      -0.487
      -0.275
       0.003
       0.261
       0.437
       0.483
       0.352
       0.038
      -0.358
      -0.642
      -0.648
      -0.370
       0.025
       0.318
       0.391
       0.284
       0.127
       0.043
       0.071
       0.177
       0.277
       0.272
       0.106
      -0.172
      -0.411
      -0.454
      -0.259
       0.074
       0.381
       0.548
       0.532
       0.335
       0.005
      -0.344
      -0.560
      -0.556
      -0.388
      -0.198
      -0.073
       0.046
       0.282
       0.653
       0.987
       1.036
       0.694
       0.103
      -0.426
      -0.623
      -0.423
      -0.001
       0.351
       0.416
       0.202
      -0.078
      -0.190
      -0.076
       0.115
       0.185
       0.077
      -0.087
      -0.140
      -0.043
       0.070
       0.018
      -0.249
      -0.586
      -0.752
      -0.590
      -0.147
       0.333
       0.566
       0.431
       0.059
      -0.270
      -0.344
      -0.165
       0.088
       0.246
       0.280
       0.278
       0.312
       0.351
       0.303
       0.130
      -0.097
      -0.255
      -0.281
      -0.206
      -0.113
      -0.082
      -0.159
      -0.345
      -0.591
      -0.809
      -0.895
      -0.759
      -0.385
       0.115
       0.530
       0.696
       0.601
       0.355
       0.059
      -0.243
      -0.501
      -0.615
      -0.501
      -0.188
       0.174
       0.422
       0.474
       0.364
       0.210
       0.168
       0.340
       0.675
       0.972
       1.022
       0.776
       0.364
      -0.035
      -0.307
      -0.403
      -0.301
      -0.030
       0.264
       0.370
       0.174
      -0.206
      -0.499
      -0.492
      -0.191
       0.201
       0.435
       0.371
       0.063
      -0.281
      -0.427
      -0.266
       0.104
       0.433
       0.492
       0.240
      -0.152
      -0.425
      -0.427
      -0.213
       0.005
       0.031
      -0.158
      -0.409
      -0.534
      -0.464
      -0.284
      -0.155
      -0.194
      -0.389
      -0.569
      -0.517
      -0.172
       0.273
       0.504
       0.372
       0.025
      -0.242
      -0.260
      -0.091
       0.097
       0.202
       0.231
       0.232
       0.236
       0.258
       0.287
       0.266
       0.134
      -0.084
      -0.241
      -0.183
       0.083
       0.351
       0.387
       0.152
      -0.157
      -0.271
      -0.082
       0.259
       0.463
       0.355
       0.034
      -0.218
      -0.212
      -0.035
       0.058
      -0.061
      -0.256
      -0.282
      -0.040
       0.324
       0.570
       0.547
       0.274
      -0.092
      -0.346
      -0.332
      -0.052
       0.298
       0.453
       0.292
      -0.048
      -0.292
      -0.275
      -0.085
       0.029
      -0.115
      -0.478
      -0.827
      -0.897
      -0.559
       0.090
       0.765
       1.142
       1.046
       0.556
      -0.062
      -0.539
      -0.732
      -0.655
      -0.411
      -0.125
       0.101
       0.212
       0.204
       0.118
       0.015
      -0.065
      -0.115
      -0.122
      -0.051
       0.104
       0.255
       0.239
      -0.046
      -0.525
      -0.977
      -1.173
      -0.993
      -0.463
       0.267
       0.954
       1.343
       1.296
       0.870
       0.276
      -0.260
      -0.597
      -0.674
      -0.461
       0.017
       0.603
       1.008
       0.970
       0.453
      -0.321
      -1.003
      -1.302
      -1.101
      -0.502
       0.216
       0.726
       0.831
       0.568
       0.140
      -0.256
      -0.523
      -0.621
      -0.487
      -0.073
       0.551
       1.158
       1.479
       1.378
       0.937
       0.376
      -0.089
      -0.354
      -0.435
      -0.416
      -0.382
      -0.370
      -0.360
      -0.321
      -0.279
      -0.331
      -0.544
      -0.823
      -0.928
      -0.680
      -0.166
       0.295
       0.420
       0.197
      -0.123
      -0.255
      -0.106
       0.201
       0.481
       0.626
       0.618
       0.448
       0.111
      -0.321
      -0.673
      -0.771
      -0.591
      -0.260
       0.071
       0.338
       0.520
       0.558
       0.376
       0.009
      -0.349
      -0.477
      -0.331
      -0.081
       0.069
       0.071
       0.027
       0.004
      -0.063
      -0.251
      -0.470
      -0.500
      -0.240
       0.145
       0.389
       0.436
       0.482
       0.701
       0.992
       1.074
       0.788
       0.239
      -0.329
      -0.707
      -0.777
      -0.511
      -0.027
       0.399
       0.470
       0.111
      -0.447
      -0.849
      -0.915
      -0.718
      -0.432
      -0.157
       0.070
       0.198
       0.174
       0.032
      -0.111
      -0.130
       0.008
       0.250
       0.518
       0.773
       1.015
       1.204
       1.213
       0.896
       0.220
      -0.628
      -1.284
      -1.375
      -0.756
       0.339
       1.378
       1.825
       1.454
       0.457
      -0.713
      -1.603
      -1.944
      -1.709
      -1.096
      -0.459
      -0.113
      -0.120
      -0.260
      -0.256
      -0.037
       0.218
       0.279
       0.087
      -0.209
      -0.380
      -0.272
       0.114
       0.628
       1.047
       1.180
       0.961
       0.470
      -0.108
      -0.550
      -0.671
      -0.403
       0.143
       0.700
       0.951
       0.711
       0.070
      -0.635
      -1.034
      -0.956
      -0.496
       0.080
       0.478
       0.505
       0.156
      -0.360
      -0.716
      -0.657
      -0.185
       0.430
       0.828
       0.810
       0.441
      -0.041
      -0.393
      -0.502
      -0.428
      -0.349
      -0.408
      -0.570
      -0.627
      -0.402
       0.038
       0.376
       0.302
      -0.186
      -0.765
      -1.048
      -0.883
      -0.407
       0.125
       0.519
       0.662
       0.450
      -0.188
      -1.127
      -1.983
      -2.317
      -1.960
      -1.126
      -0.220
       0.425
       0.679
       0.598
       0.374
       0.293
       0.626
       1.442
       2.502
       3.365
       3.663
       3.315
       2.498
       1.485
       0.533
      -0.122
      -0.262
       0.229
       1.260
       2.516
       3.568
       4.042
       3.730
       2.695
       1.314
       0.200
      -0.117
       0.416
       1.215
       1.335
       0.090
      -2.421
      -5.284
      -7.283
      -7.591
      -6.200
      -3.878
      -1.749
      -0.725
      -1.016
      -1.981
      -2.504
      -1.755
       0.160
       2.206
       3.152
       2.484
       0.769
      -0.800
      -1.284
      -0.590
       0.602
       1.457
       1.599
       1.258
       0.922
       0.850
       0.866
       0.532
      -0.467
      -2.030
      -3.651
      -4.718
      -4.877
      -4.235
      -3.271
      -2.551
      -2.422
      -2.836
      -3.376
      -3.440
      -2.547
      -0.633
       1.816
       3.954
       5.050
       4.945
       4.141
       3.404
       3.182
       3.334
       3.430
       3.278
       3.122
       3.315
       3.845
       4.212
       3.778
       2.259
      -0.020
      -2.285
      -3.724
      -3.907
      -3.027
      -1.826
      -1.189
      -1.565
      -2.639
      -3.540
      -3.445
      -2.132
      -0.059
       2.033
       3.629
       4.629
       5.157
       5.268
       4.899
       4.051
       2.971
       2.093
       1.814
       2.243
       3.080
       3.670
       3.279
       1.525
      -1.278
      -4.167
      -6.022
      -6.214
      -4.980
      -3.294
      -2.316
      -2.736
      -4.375
      -6.283
      -7.289
      -6.667
      -4.530
      -1.729
       0.628
       1.739
       1.423
       0.130
      -1.261
      -1.775
      -0.798
       1.487
       4.064
       5.669
       5.613
       4.172
       2.234
       0.594
      -0.495
      -1.217
      -1.807
      -2.313
      -2.617
      -2.625
      -2.392
      -2.113
      -1.979
      -1.989
      -1.893
      -1.364
      -0.300
       1.028
       2.145
       2.716
       2.729
       2.397
       1.948
       1.525
       1.199
       0.989
       0.849
       0.700
       0.539
       0.492
       0.701
       1.146
       1.623
       1.916
       1.957
       1.785
       1.377
       0.626
      -0.439
      -1.453
      -1.850
      -1.331
      -0.244
       0.567
       0.400
      -0.702
      -1.904
      -2.149
      -0.888
       1.543
       4.117
       5.696
       5.648
       4.122
       1.878
      -0.198
      -1.536
      -2.030
      -1.922
      -1.590
      -1.384
      -1.529
      -2.036
      -2.657
      -2.976
      -2.677
      -1.807
      -0.742
       0.124
       0.642
       0.861
       0.795
       0.330
      -0.596
      -1.780
      -2.775
      -3.200
      -3.006
      -2.467
      -1.912
      -1.482
      -1.081
      -0.491
       0.431
       1.547
       2.424
       2.622
       2.102
       1.340
       0.951
       1.140
       1.513
       1.446
       0.669
      -0.502
      -1.424
      -1.600
      -0.974
       0.089
       1.035
       1.418
       1.103
       0.318
      -0.464
      -0.779
      -0.431
       0.399
       1.280
       1.821
       1.886
       1.599
       1.158
       0.667
       0.121
      -0.479
      -1.012
      -1.263
      -1.075
      -0.502
       0.148
       0.452
       0.146
      -0.616
      -1.273
      -1.217
      -0.251
       1.211
       2.364
       2.508
       1.481
      -0.242
      -1.842
      -2.620
      -2.338
      -1.289
      -0.084
       0.693
       0.775
       0.278
      -0.426
      -0.917
      -0.884
      -0.263
       0.673
       1.374
       1.330
       0.456
      -0.785
      -1.695
      -1.838
      -1.303
      -0.528
       0.109
       0.530
       0.862
       1.188
       1.449
       1.584
       1.682
       1.898
       2.191
       2.224
       1.628
       0.411
      -0.935
      -1.801
      -1.983
      -1.837
      -1.900
      -2.384
      -3.007
      -3.284
      -2.910
      -1.916
      -0.605
       0.596
       1.300
       1.384
       1.113
       0.964
       1.203
       1.608
       1.677
       1.124
       0.166
      -0.662
      -0.993
      -0.931
      -0.909
      -1.251
      -1.840
      -2.174
      -1.758
      -0.496
       1.219
       2.753
       3.603
       3.589
       2.822
       1.587
       0.265
      -0.764
      -1.255
      -1.219
      -0.890
      -0.537
      -0.276
      -0.025
       0.377
       0.994
       1.678
       2.116
       2.046
       1.478
       0.726
       0.193
       0.091
       0.345
       0.732
       1.052
       1.177
       0.994
       0.394
      -0.645
      -1.961
      -3.197
      -3.912
      -3.792
      -2.844
      -1.457
      -0.229
       0.354
       0.195
      -0.371
      -0.799
      -0.682
       0.004
       0.915
       1.568
       1.626
       1.061
       0.116
      -0.864
      -1.608
      -1.976
      -1.933
      -1.539
      -0.974
      -0.525
      -0.438
      -0.746
      -1.192
      -1.355
      -0.925
       0.071
       1.272
       2.224
       2.629
       2.425
       1.717
       0.702
      -0.345
      -1.099
      -1.311
      -0.959
      -0.262
       0.465
       1.016
       1.354
       1.507
       1.453
       1.152
       0.679
       0.283
       0.265
       0.753
       1.597
       2.469
       3.069
       3.257
       3.018
       2.361
       1.310
       0.021
      -1.140
      -1.723
      -1.500
      -0.672
       0.219
       0.599
       0.198
      -0.815
      -1.946
      -2.675
      -2.762
      -2.358
      -1.888
      -1.755
      -2.059
      -2.503
      -2.564
      -1.884
      -0.615
       0.566
       0.870
      -0.034
      -1.719
      -3.237
      -3.695
      -2.788
      -0.942
       0.956
       2.050
       1.970
       0.993
      -0.151
      -0.746
      -0.492
       0.414
       1.533
       2.520
       3.263
       3.774
       3.999
       3.785
       3.016
       1.786
       0.435
      -0.618
      -1.112
      -1.074
      -0.745
      -0.385
      -0.109
       0.110
       0.331
       0.521
