Origin Time       19/08/2012 09:24:49
Lat.              26.7°N	
Long.             92.5°E	
Depth (Km)         35.0
Magnitude         5.0
 Region           TEZPUR-ASSAM                                                     
 Above details taken from IMD 
   
Station Code      TZP
Station Lat.       26.619
Station Long.      92.797
Station Height(m)   76.0
Site Class        B   Vs30 between 375 m/sec to 700 m/sec *  
Record Time       19.08.2012 09:24:42.139
Sampling Rate     200. Hz
 Record Duration   74.495 Sec.
 Direction         Vert. (Up positive)
Max. Acceleration     17.313 cm/sec**2
     
  * For reference see Site Classification link of website 
     
 Base Line Corrected and Low Pass Filtered (Cut Off at 35 Hz) Time History
 Acceleration data in cm/sec**2
    
[...]
       0.105
       8.531
      14.758
      16.029
      12.203
       5.295
      -1.631
      -5.625
      -5.195
      -1.442
       2.271
       2.641
      -0.906
      -5.819
      -8.718
      -7.986
      -4.246
       0.892
       5.767
       8.657
       8.121
       4.318
      -0.284
      -2.434
      -0.896
       2.340
       3.821
       1.636
      -3.145
      -7.508
      -8.781
      -6.397
      -2.114
       1.372
       2.506
       2.014
       1.968
       3.486
       5.394
       5.415
       2.666
      -1.308
      -4.012
      -4.192
      -2.459
      -0.240
       1.388
       2.031
       1.858
       1.459
       1.464
       1.953
       2.345
       2.090
       1.342
       0.694
       0.315
      -0.298
      -1.505
      -2.710
      -2.760
      -1.316
       0.470
       1.000
      -0.042
      -1.274
      -1.134
       0.272
       1.072
      -0.447
      -3.801
      -6.348
      -5.547
      -1.261
       4.098
       7.531
       7.543
       4.736
       1.002
      -1.654
      -2.066
      -0.564
       1.086
       0.962
      -1.203
      -3.523
      -3.649
      -1.126
       2.046
       3.255
       1.562
      -1.724
      -4.353
      -4.772
      -2.829
       0.425
       3.363
       4.606
       3.797
       1.721
      -0.447
      -2.015
      -2.862
      -2.964
      -2.287
      -1.236
      -0.683
      -1.067
      -1.541
      -0.575
       2.262
       5.296
       5.926
       2.983
      -2.040
      -6.043
      -6.638
      -3.742
       0.662
       4.117
       5.245
       4.254
       2.378
       0.931
       0.618
       1.337
       2.410
       3.077
       2.966
       2.174
       0.868
      -1.095
      -3.848
      -6.728
      -8.218
      -7.160
      -4.047
      -0.744
       1.220
       1.901
       2.405
       3.385
       4.346
       4.354
       3.094
       1.150
      -0.548
      -1.373
      -1.276
      -0.716
      -0.379
      -0.736
      -1.665
      -2.474
      -2.423
      -1.291
       0.496
       2.246
       3.404
       3.619
       2.665
       0.590
      -2.000
      -4.089
      -4.917
      -4.516
      -3.444
      -2.072
      -0.385
       1.454
       2.702
       2.615
       1.469
       0.623
       1.280
       3.228
       4.981
       5.174
       3.683
       1.398
      -0.770
      -2.479
      -3.729
      -4.445
      -4.413
      -3.561
      -2.217
      -1.011
      -0.426
      -0.332
      -0.054
       0.917
       2.213
       2.745
       1.740
      -0.381
      -2.276
      -2.806
      -1.844
      -0.127
       1.408
       2.129
       1.923
       1.258
       0.971
       1.601
       2.778
       3.434
       2.802
       1.169
      -0.486
      -1.463
      -1.772
      -1.731
      -1.489
      -1.093
      -0.818
      -1.178
      -2.483
      -4.361
      -5.701
      -5.243
      -2.537
       1.434
       4.704
       5.723
       4.528
       2.599
       1.489
       1.552
       1.882
       1.331
      -0.422
      -2.579
      -3.816
      -3.338
      -1.600
      -0.009
       0.278
      -0.609
      -1.457
      -1.271
      -0.251
       0.597
       0.687
       0.441
       0.687
       1.691
       2.926
       3.633
       3.426
       2.417
       0.996
      -0.379
      -1.302
      -1.534
      -1.136
      -0.429
       0.233
       0.649
       0.736
       0.433
      -0.222
      -0.945
      -1.297
      -1.060
      -0.517
      -0.232
      -0.490
      -0.967
      -0.998
      -0.193
       1.148
       2.209
       2.276
       1.317
       0.055
      -0.564
      -0.126
       0.920
       1.683
       1.616
       0.892
       0.039
      -0.647
      -1.308
      -2.233
      -3.450
      -4.584
      -5.052
      -4.439
      -2.828
      -0.795
       0.932
       1.889
       2.024
       1.569
       0.866
       0.309
       0.274
       0.842
       1.562
       1.727
       1.044
      -0.034
      -0.726
      -0.598
       0.239
       1.398
       2.397
       2.641
       1.627
      -0.500
      -2.707
      -3.717
      -3.085
      -1.551
      -0.274
       0.205
       0.183
       0.168
       0.312
       0.482
       0.622
       0.804
       0.990
       1.004
       0.773
       0.482
       0.403
       0.620
       0.951
       1.102
       0.866
       0.264
      -0.453
      -0.945
      -0.970
      -0.491
       0.359
       1.340
       2.120
       2.344
       1.849
       0.833
      -0.246
      -1.021
      -1.438
      -1.653
      -1.786
      -1.849
      -1.836
      -1.761
      -1.620
      -1.481
      -1.616
      -2.347
      -3.546
      -4.335
      -3.532
      -0.659
       3.413
       6.886
       8.234
       7.167
       4.632
       1.950
      -0.115
      -1.615
      -2.952
      -4.217
      -4.980
      -4.674
      -3.135
      -0.761
       1.786
       3.905
       5.094
       4.865
       2.992
       0.075
      -2.305
      -2.479
      -0.130
       3.116
       4.803
       3.606
       0.353
      -2.803
      -4.187
      -3.713
      -2.528
      -1.797
      -1.805
      -1.971
      -1.541
      -0.337
       1.000
       1.481
       0.655
      -0.787
      -1.373
      -0.117
       2.439
       4.524
       4.646
       2.835
       0.436
      -1.170
      -1.555
      -1.155
      -0.584
      -0.185
      -0.083
      -0.376
      -1.101
      -2.046
      -2.704
      -2.529
      -1.381
       0.226
       1.344
       1.240
       0.011
      -1.349
      -1.614
      -0.322
       1.714
       2.924
       2.206
      -0.142
      -2.626
      -3.732
      -3.061
      -1.460
      -0.138
       0.333
       0.256
       0.285
       0.786
       1.613
       2.318
       2.481
       1.941
       0.883
      -0.179
      -0.587
       0.049
       1.422
       2.538
       2.396
       0.882
      -0.987
      -1.825
      -1.071
       0.473
       1.312
       0.579
      -1.190
      -2.555
      -2.474
      -1.164
       0.280
       1.009
       1.044
       0.857
       0.609
       0.025
      -1.043
      -2.192
      -2.721
      -2.273
      -1.165
      -0.131
       0.264
       0.019
      -0.388
      -0.423
       0.107
       0.955
       1.658
       1.855
       1.444
       0.562
      -0.492
      -1.311
      -1.528
      -1.030
      -0.014
       1.246
       2.583
       3.758
       4.238
       3.491
       1.630
      -0.431
      -1.665
      -1.792
      -1.402
      -1.300
      -1.817
      -2.691
      -3.400
      -3.479
      -2.716
      -1.290
       0.215
       1.110
       1.087
       0.471
      -0.031
       0.124
       0.953
       2.034
       2.832
       2.960
       2.320
       1.213
       0.305
       0.239
       1.056
       1.995
       2.045
       0.819
      -1.121
      -2.773
      -3.519
      -3.444
      -2.974
      -2.365
      -1.606
      -0.733
      -0.012
       0.278
       0.205
       0.224
       0.784
       1.878
       2.940
       3.223
       2.375
       0.759
      -0.789
      -1.613
      -1.677
      -1.384
      -1.047
      -0.657
      -0.121
       0.451
       0.799
       0.771
       0.428
      -0.036
      -0.357
      -0.197
       0.699
       2.148
       3.420
       3.664
       2.576
       0.618
      -1.410
      -2.965
      -3.887
      -4.119
      -3.541
      -2.186
      -0.475
       0.898
       1.349
       0.733
      -0.524
      -1.551
      -1.489
      -0.183
       1.500
       2.249
       1.443
      -0.241
      -1.380
      -0.987
       0.787
       2.900
       4.185
       3.964
       2.296
      -0.122
      -2.347
      -3.652
      -3.787
      -2.977
      -1.759
      -0.777
      -0.502
      -0.911
      -1.359
      -0.948
       0.721
       3.075
       4.854
       4.968
       3.224
       0.470
      -1.878
      -2.685
      -1.893
      -0.616
      -0.247
      -1.224
      -2.657
      -3.176
      -2.132
      -0.011
       2.097
       3.276
       3.216
       2.230
       0.994
       0.115
      -0.236
      -0.319
      -0.409
      -0.452
      -0.243
       0.079
      -0.042
      -0.963
      -2.238
      -2.836
      -2.099
      -0.427
       1.047
       1.432
       0.760
      -0.130
      -0.258
       0.793
       2.528
       3.755
       3.366
       1.194
      -1.739
      -3.845
      -4.014
      -2.344
      -0.086
       1.207
       0.847
      -0.444
      -1.235
      -0.784
       0.272
       0.708
       0.142
      -0.527
      -0.201
       1.078
       2.077
       1.674
       0.078
      -1.299
      -1.119
       0.695
       2.853
       3.695
       2.484
       0.029
      -1.927
      -2.192
      -1.168
      -0.393
      -0.952
      -2.403
      -3.355
      -2.960
      -1.635
      -0.369
       0.293
       0.442
       0.358
       0.243
       0.327
       0.854
       1.764
       2.552
       2.642
       1.917
       0.820
      -0.062
      -0.457
      -0.409
       0.031
       0.864
       1.819
       2.209
       1.411
      -0.409
      -2.211
      -2.837
      -1.939
      -0.203
       1.260
       1.723
       1.150
      -0.069
      -1.463
      -2.563
      -2.909
      -2.250
      -0.812
       0.753
       1.786
       1.979
       1.394
       0.330
      -0.731
      -1.204
      -0.771
       0.208
       0.842
       0.490
      -0.579
      -1.415
      -1.318
      -0.464
       0.386
       0.673
       0.476
       0.307
       0.584
       1.262
       1.863
       1.856
       1.072
      -0.210
      -1.556
      -2.677
      -3.428
      -3.588
      -2.891
      -1.385
       0.370
       1.677
       2.313
       2.620
       2.983
       3.354
       3.314
       2.505
       0.974
      -0.761
      -1.932
      -1.998
      -1.077
       0.104
       0.754
       0.540
      -0.367
      -1.560
      -2.543
      -2.832
      -2.231
      -1.147
      -0.400
      -0.527
      -1.277
      -1.870
      -1.705
      -0.788
       0.439
       1.532
       2.326
       2.939
       3.554
       4.153
       4.432
       4.032
       2.893
       1.371
      -0.029
      -1.030
      -1.715
      -2.358
      -3.160
      -4.107
      -4.965
      -5.388
      -5.100
      -4.103
      -2.714
      -1.327
      -0.079
       1.177
       2.595
       4.102
       5.407
       6.127
       5.920
       4.662
       2.675
       0.723
      -0.393
      -0.351
       0.500
       1.356
       1.429
       0.382
      -1.494
      -3.482
      -4.847
      -5.224
      -4.795
      -4.157
      -3.861
      -3.919
      -3.745
      -2.659
      -0.525
       2.056
       4.125
       4.984
       4.640
       3.812
       3.412
       3.770
       4.252
       3.781
       1.876
      -0.790
      -2.933
      -3.821
      -3.859
      -3.958
      -4.382
      -4.411
      -3.218
      -0.943
       1.344
       2.711
       3.129
       3.068
       2.671
       1.714
       0.292
      -0.901
      -1.205
      -0.705
      -0.057
       0.305
       0.522
       0.837
       1.092
       0.926
       0.307
      -0.400
      -0.853
      -0.983
      -0.816
      -0.355
       0.228
       0.548
       0.405
       0.175
       0.502
       1.515
       2.498
       2.516
       1.339
      -0.316
      -1.427
      -1.488
      -0.816
      -0.238
      -0.456
      -1.476
      -2.497
      -2.527
      -1.340
       0.161
       0.685
      -0.280
      -1.973
      -2.956
      -2.150
       0.477
       3.891
       6.491
       6.911
       4.839
       1.332
      -1.782
      -3.113
      -2.588
      -1.234
      -0.130
       0.437
       0.803
       1.083
       0.775
      -0.591
      -2.563
      -3.864
      -3.574
      -2.130
      -0.948
      -0.959
      -1.619
      -1.497
       0.149
       2.502
       3.964
       3.732
       2.476
       1.467
       1.200
       1.008
      -0.019
      -1.862
      -3.438
      -3.602
      -2.232
      -0.336
       0.802
       0.582
      -0.639
      -1.943
      -2.442
      -1.705
       0.017
       1.879
       3.010
       3.221
       3.090
       3.198
       3.374
       2.862
       1.195
      -1.253
      -3.593
      -5.110
      -5.579
      -5.083
      -3.767
      -1.765
       0.724
       3.335
       5.481
       6.478
       5.935
       4.139
       1.982
       0.391
      -0.331
      -0.673
      -1.391
      -2.711
      -4.068
      -4.657
      -4.174
      -2.941
      -1.417
       0.216
       1.921
       3.416
       4.166
       3.883
       2.929
       2.068
       1.765
       1.852
       1.893
       1.692
       1.258
       0.496
      -0.669
      -1.850
      -2.324
      -1.892
      -1.378
      -1.963
      -3.986
      -6.597
      -8.600
      -9.398
      -9.069
      -7.804
      -5.723
      -3.224
      -1.066
       0.248
       1.039
       2.066
       3.598
       5.119
       6.052
       6.506
       7.043
       7.812
       8.206
       7.495
       5.655
       3.474
       1.889
       1.236
       1.014
       0.357
      -1.151
      -3.100
      -4.751
      -5.832
      -6.673
      -7.495
      -7.838
      -6.996
      -4.945
      -2.461
      -0.231
       1.802
       3.965
       5.998
       7.016
       6.321
       3.990
       0.697
      -2.762
      -5.668
      -7.352
      -7.250
      -5.060
      -0.834
       4.920
      11.065
      15.818
      17.313
      14.636
       8.507
       0.981
      -5.590
      -9.548
     -10.438
      -9.022
      -6.722
      -4.637
      -2.833
      -0.665
       2.151
       4.901
       6.356
       5.808
       3.554
       0.568
      -2.105
      -3.746
      -4.171
      -3.760
      -3.226
      -3.118
      -3.415
      -3.629
      -3.346
      -2.599
      -1.667
      -0.700
       0.230
       0.831
       0.745
       0.105
      -0.278
       0.493
       2.569
       5.108
       6.719
       6.197
       3.174
      -1.440
      -5.597
      -7.176
      -5.434
      -1.604
       1.990
       3.569
       2.957
       1.359
       0.251
       0.308
       1.106
       1.643
       1.150
      -0.447
      -2.563
      -4.267
      -4.626
      -3.110
       0.001
       3.539
       5.982
       6.358
       4.813
       2.374
       0.104
      -1.627
      -3.145
      -4.810
      -6.338
      -6.822
      -5.424
      -2.150
       1.943
       5.282
       6.683
       6.008
       4.159
       2.432
       1.684
       1.911
       2.527
       2.916
       2.688
       1.579
      -0.582
      -3.564
      -6.391
      -7.610
      -6.250
      -2.642
       1.794
       5.574
       7.874
       8.443
       7.226
       4.385
       0.569
      -3.160
      -5.934
      -7.582
      -8.438
      -8.746
      -8.443
      -7.552
      -6.474
      -5.640
      -4.948
      -3.766
      -1.527
       1.777
       5.587
       9.031
      11.130
      11.033
       8.491
       4.285
       0.093
      -2.316
      -2.075
       0.275
       3.077
       4.540
       3.845
       1.633
      -0.570
      -1.572
      -1.386
      -1.033
      -1.507
      -2.912
      -4.448
      -5.132
      -4.551
      -3.128
      -1.739
      -0.984
      -0.743
      -0.428
       0.347
       1.447
       2.522
       3.402
       4.051
       4.272
       3.711
       2.196
       0.007
      -2.147
      -3.384
      -3.056
      -1.188
       1.403
       3.572
       4.543
       4.193
       2.806
       0.785
      -1.364
      -3.000
      -3.601
      -3.188
      -2.398
      -1.993
      -2.230
      -2.685
      -2.671
      -1.821
      -0.399
       0.846
       1.196
       0.557
      -0.315
      -0.297
       1.141
       3.352
       5.001
       5.201
       4.102
       2.377
       0.417
      -1.720
      -3.705
      -4.802
      -4.639
      -3.892
      -3.782
      -4.809
      -6.207
      -6.714
      -5.766
      -3.855
      -1.798
       0.114
       2.167
       4.585
       7.033
       8.790
       9.296
       8.496
       6.749
       4.546
       2.321
       0.400
      -0.957
      -1.556
      -1.353
      -0.521
       0.609
       1.623
       2.029
       1.415
      -0.120
      -1.737
      -2.392
      -1.872
      -1.147
      -1.478
      -3.199
      -5.516
      -7.358
      -8.125
      -7.708
      -6.238
      -4.102
      -1.933
      -0.166
       1.453
       3.618
       6.536
       9.422
      11.147
      11.288
      10.275
       8.539
       5.944
       2.295
      -1.791
      -4.963
      -6.201
      -5.675
      -4.533
      -3.958
      -4.412
      -5.521
      -6.410
      -6.192
      -4.458
      -1.636
       1.101
       2.553
       2.414
       1.564
       1.289
       2.082
       3.167
       3.259
       1.806
      -0.475
      -2.211
      -2.489
      -1.473
      -0.039
       1.093
       1.890
       2.732
       3.782
       4.719
       5.082
       4.721
       3.788
       2.379
       0.371
      -2.269
      -5.092
      -7.254
      -8.073
      -7.527
      -6.168
      -4.585
      -3.028
      -1.498
      -0.071
       0.984
       1.378
       1.049
       0.248
      -0.571
      -0.932
      -0.497
       0.810
       2.777
       4.950
       6.725
       7.485
       6.913
       5.331
       3.647
       2.709
       2.585
       2.545
       1.878
       0.669
      -0.353
      -0.677
      -0.560
      -0.686
      -1.475
      -2.861
      -4.577
      -6.343
      -7.696
      -7.905
      -6.456
      -3.750
      -1.100
       0.224
      -0.029
      -1.098
      -2.063
      -2.490
      -2.279
      -1.224
       0.924
       3.899
       6.665
       7.980
       7.363
       5.510
       3.671
       2.493
       1.492
      -0.245
      -2.834
      -5.159
      -5.780
      -4.329
      -1.975
      -0.474
      -0.734
      -2.200
      -3.474
      -3.448
      -1.943
       0.449
       2.937
       4.960
       6.282
       6.856
       6.640
       5.575
       3.749
       1.542
      -0.553
      -2.322
      -3.894
      -5.247
      -5.771
      -4.650
      -1.832
       1.506
       3.662
       3.672
       1.984
      -0.067
      -1.407
      -1.934
      -2.300
      -3.160
      -4.564
      -5.911
      -6.388
      -5.575
      -3.745
      -1.637
       0.112
       1.311
       2.061
       2.443
       2.511
       2.526
       2.953
       4.029
       5.338
       6.003
       5.491
       4.158
       2.898
       2.270
       2.083
       1.744
       0.860
      -0.484
      -1.814
      -2.523
      -2.248
      -1.232
      -0.345
      -0.540
      -2.061
      -4.095
      -5.309
      -4.874
      -3.092
      -1.045
       0.343
       0.881
       0.912
       0.771
       0.519
       0.073
      -0.553
      -1.165
      -1.518
      -1.479
      -1.090
      -0.457
       0.450
       1.831
       3.704
       5.526
       6.372
       5.723
       4.093
       2.688
       2.250
       2.331
       1.880
       0.481
      -1.258
      -2.569
      -3.469
      -4.569
      -6.075
      -7.297
      -7.306
      -5.992
      -4.337
      -3.550
      -3.933
      -4.562
      -4.098
      -1.930
