Origin Time       06/11/2013 04:16:16
Lat.              26.5 N	
Long.             93.5 E	
Depth (Km)         20.0
Magnitude         5.5
 Region           Karbi-Assam                                                      
 Above details taken from IMD 
     
Station Code      TZP
Station Lat.       26.619  N
Station Long.      92.797  E
Station Height(m)   76.0
Site Class        B   Vs30 between 375 m/sec to 700 m/sec *  
Record Time       06.11.2013 04:16:13.009
Sampling Rate     200. Hz
 Record Duration   90.020 Sec.
 Direction         E-W (E positive)
Max. Acceleration     13.635 cm/sec**2
     
  * For reference see Site Classification link of website 
     
 Base Line Corrected and Low Pass Filtered (Cut Off at 35 Hz) Time History
 Acceleration data in cm/sec**2
    
[...]
       0.321
       0.052
       0.162
       0.522
       0.846
       0.885
       0.573
       0.044
      -0.466
      -0.761
      -0.773
      -0.574
      -0.319
      -0.157
      -0.162
      -0.313
      -0.527
      -0.714
      -0.819
      -0.828
      -0.740
      -0.561
      -0.330
      -0.153
      -0.165
      -0.412
      -0.743
      -0.869
      -0.581
       0.024
       0.571
       0.704
       0.393
      -0.057
      -0.291
      -0.211
      -0.002
       0.084
      -0.035
      -0.250
      -0.401
      -0.423
      -0.342
      -0.197
      -0.012
       0.169
       0.269
       0.222
       0.045
      -0.173
      -0.324
      -0.349
      -0.255
      -0.092
       0.084
       0.241
       0.371
       0.476
       0.556
       0.609
       0.636
       0.657
       0.695
       0.779
       0.935
       1.173
       1.444
       1.603
       1.461
       0.902
       0.017
      -0.902
      -1.521
      -1.664
      -1.415
      -1.015
      -0.677
      -0.451
      -0.268
      -0.064
       0.142
       0.299
       0.397
       0.468
       0.525
       0.534
       0.468
       0.369
       0.315
       0.324
       0.287
       0.062
      -0.357
      -0.754
      -0.818
      -0.404
       0.297
       0.845
       0.860
       0.301
      -0.505
      -1.108
      -1.241
      -0.945
      -0.459
      -0.037
       0.162
       0.080
      -0.273
      -0.793
      -1.278
      -1.501
      -1.359
      -0.940
      -0.453
      -0.070
       0.169
       0.334
       0.503
       0.692
       0.865
       0.985
       1.047
       1.052
       0.986
       0.837
       0.624
       0.393
       0.175
      -0.023
      -0.184
      -0.263
      -0.226
      -0.105
      -0.003
      -0.023
      -0.208
      -0.522
      -0.879
      -1.173
      -1.298
      -1.166
      -0.756
      -0.158
       0.427
       0.776
       0.761
       0.423
      -0.054
      -0.442
      -0.581
      -0.450
      -0.142
       0.229
       0.590
       0.902
       1.103
       1.109
       0.898
       0.595
       0.430
       0.568
       0.964
       1.368
       1.485
       1.179
       0.563
      -0.062
      -0.396
      -0.332
      -0.012
       0.280
       0.326
       0.097
      -0.286
      -0.663
      -0.913
      -0.978
      -0.869
      -0.678
      -0.538
      -0.548
      -0.706
      -0.925
      -1.084
      -1.094
      -0.929
      -0.629
      -0.300
      -0.088
      -0.091
      -0.280
      -0.481
      -0.485
      -0.205
       0.250
       0.629
       0.700
       0.404
      -0.111
      -0.575
      -0.762
      -0.628
      -0.318
      -0.047
       0.054
       0.001
      -0.098
      -0.143
      -0.101
       0.017
       0.210
       0.503
       0.901
       1.314
       1.554
       1.442
       0.942
       0.228
      -0.389
      -0.619
      -0.348
       0.284
       0.938
       1.253
       1.080
       0.593
       0.154
       0.037
       0.229
       0.480
       0.544
       0.382
       0.169
       0.108
       0.235
       0.385
       0.342
       0.050
      -0.320
      -0.499
      -0.347
       0.012
       0.253
       0.101
      -0.440
      -1.048
      -1.308
      -1.039
      -0.464
      -0.051
      -0.156
      -0.733
      -1.387
      -1.692
      -1.488
      -0.925
      -0.266
       0.315
       0.770
       1.079
       1.177
       0.983
       0.507
      -0.110
      -0.667
      -1.003
      -1.055
      -0.840
      -0.438
       0.029
       0.407
       0.563
       0.459
       0.184
      -0.105
      -0.277
      -0.291
      -0.182
      -0.021
       0.116
       0.152
       0.025
      -0.256
      -0.562
      -0.688
      -0.490
      -0.008
       0.556
       0.993
       1.207
       1.219
       1.088
       0.856
       0.553
       0.211
      -0.140
      -0.457
      -0.671
      -0.697
      -0.480
      -0.043
       0.491
       0.926
       1.078
       0.878
       0.439
       0.004
      -0.204
      -0.145
       0.002
      -0.031
      -0.381
      -0.918
      -1.303
      -1.239
      -0.708
      -0.005
       0.465
       0.487
       0.167
      -0.174
      -0.255
      -0.018
       0.355
       0.594
       0.528
       0.208
      -0.116
      -0.164
       0.155
       0.639
       0.937
       0.834
       0.422
       0.002
      -0.201
      -0.219
      -0.268
      -0.505
      -0.861
      -1.106
      -1.060
      -0.739
      -0.323
       0.006
       0.182
       0.235
       0.205
       0.100
      -0.058
      -0.175
      -0.128
       0.132
       0.519
       0.861
       0.991
       0.835
       0.444
      -0.008
      -0.297
      -0.265
       0.048
       0.392
       0.457
       0.107
      -0.512
      -1.062
      -1.265
      -1.078
      -0.694
      -0.364
      -0.208
      -0.177
      -0.149
      -0.061
       0.047
       0.101
       0.081
       0.054
       0.101
       0.235
       0.384
       0.448
       0.356
       0.121
      -0.147
      -0.272
      -0.107
       0.345
       0.906
       1.309
       1.335
       0.912
       0.143
      -0.728
      -1.378
      -1.519
      -1.050
      -0.155
       0.742
       1.179
       0.932
       0.162
      -0.672
      -1.098
      -0.922
      -0.330
       0.263
       0.504
       0.340
       0.026
      -0.110
       0.054
       0.359
       0.540
       0.484
       0.317
       0.254
       0.371
       0.520
       0.464
       0.099
      -0.439
      -0.866
      -0.972
      -0.782
      -0.541
      -0.525
      -0.830
      -1.292
      -1.592
      -1.480
      -0.956
      -0.289
       0.158
       0.157
      -0.231
      -0.683
      -0.803
      -0.364
       0.540
       1.518
       2.094
       1.984
       1.245
       0.240
      -0.569
      -0.851
      -0.551
       0.115
       0.793
       1.181
       1.169
       0.855
       0.456
       0.182
       0.142
       0.308
       0.543
       0.668
       0.560
       0.230
      -0.192
      -0.551
      -0.782
      -0.919
      -0.995
      -0.954
      -0.714
      -0.305
       0.087
       0.256
       0.151
      -0.123
      -0.430
      -0.694
      -0.858
      -0.805
      -0.433
       0.196
       0.802
       1.075
       0.929
       0.575
       0.350
       0.424
       0.654
       0.699
       0.324
      -0.363
      -0.953
      -1.055
      -0.617
       0.023
       0.425
       0.413
       0.184
       0.086
       0.291
       0.671
       0.957
       0.980
       0.777
       0.503
       0.294
       0.207
       0.244
       0.349
       0.394
       0.245
      -0.096
      -0.428
      -0.506
      -0.264
       0.117
       0.375
       0.390
       0.249
       0.112
       0.051
       0.007
      -0.110
      -0.322
      -0.584
      -0.839
      -1.051
      -1.141
      -0.975
      -0.483
       0.181
       0.657
       0.644
       0.158
      -0.478
      -0.917
      -1.048
      -0.997
      -0.915
      -0.809
      -0.572
      -0.140
       0.400
       0.854
       1.028
       0.835
       0.352
      -0.197
      -0.566
      -0.616
      -0.373
       0.045
       0.505
       0.890
       1.101
       1.085
       0.878
       0.602
       0.374
       0.236
       0.135
       0.001
      -0.175
      -0.331
      -0.399
      -0.374
      -0.321
      -0.338
      -0.486
      -0.745
      -1.002
      -1.091
      -0.903
      -0.472
      -0.005
       0.240
       0.148
      -0.122
      -0.237
       0.022
       0.538
       0.917
       0.820
       0.265
      -0.367
      -0.633
      -0.368
       0.212
       0.683
       0.710
       0.242
      -0.485
      -1.116
      -1.365
      -1.144
      -0.578
       0.074
       0.544
       0.669
       0.464
       0.107
      -0.157
      -0.145
       0.173
       0.667
       1.108
       1.286
       1.127
       0.758
       0.425
       0.299
       0.327
       0.312
       0.139
      -0.086
      -0.147
       0.029
       0.251
       0.221
      -0.174
      -0.711
      -0.979
      -0.722
      -0.073
       0.515
       0.604
       0.091
      -0.724
      -1.344
      -1.389
      -0.813
       0.082
       0.828
       1.053
       0.695
       0.044
      -0.444
      -0.462
      -0.076
       0.361
       0.522
       0.355
       0.041
      -0.235
      -0.423
      -0.524
      -0.464
      -0.136
       0.436
       1.021
       1.309
       1.134
       0.582
      -0.089
      -0.613
      -0.834
      -0.740
      -0.448
      -0.150
      -0.021
      -0.118
      -0.343
      -0.521
      -0.532
      -0.367
      -0.090
       0.249
       0.655
       1.134
       1.617
       1.931
       1.894
       1.441
       0.713
       0.004
      -0.396
      -0.378
      -0.060
       0.323
       0.588
       0.688
       0.674
       0.600
       0.492
       0.362
       0.222
       0.077
      -0.071
      -0.207
      -0.292
      -0.312
      -0.312
      -0.341
      -0.353
      -0.204
       0.204
       0.754
       1.123
       1.006
       0.366
      -0.501
      -1.145
      -1.262
      -0.903
      -0.428
      -0.235
      -0.495
      -1.078
      -1.683
      -2.022
      -1.958
      -1.548
      -1.007
      -0.600
      -0.507
      -0.733
      -1.124
      -1.481
      -1.684
      -1.719
      -1.597
      -1.292
      -0.778
      -0.147
       0.358
       0.482
       0.172
      -0.335
      -0.665
      -0.586
      -0.150
       0.419
       0.947
       1.411
       1.841
       2.162
       2.208
       1.910
       1.424
       1.041
       0.949
       1.098
       1.272
       1.293
       1.150
       0.970
       0.874
       0.851
       0.771
       0.517
       0.110
      -0.294
      -0.520
      -0.500
      -0.273
       0.098
       0.572
       1.073
       1.428
       1.418
       0.920
       0.018
      -1.032
      -1.915
      -2.375
      -2.298
      -1.781
      -1.132
      -0.739
      -0.864
      -1.492
      -2.342
      -3.023
      -3.245
      -2.954
      -2.325
      -1.642
      -1.144
      -0.943
      -1.022
      -1.254
      -1.423
      -1.294
      -0.741
       0.131
       0.997
       1.499
       1.454
       0.954
       0.267
      -0.327
      -0.649
      -0.640
      -0.328
       0.186
       0.769
       1.327
       1.877
       2.507
       3.215
       3.815
       4.031
       3.735
       3.083
       2.383
       1.810
       1.267
       0.561
      -0.297
      -0.975
      -1.061
      -0.423
       0.651
       1.665
       2.270
       2.448
       2.410
       2.345
       2.263
       2.044
       1.624
       1.091
       0.596
       0.201
      -0.159
      -0.563
      -1.000
      -1.408
      -1.791
      -2.238
      -2.807
      -3.410
      -3.842
      -3.929
      -3.646
      -3.161
      -2.766
      -2.709
      -3.021
      -3.453
      -3.631
      -3.344
      -2.724
      -2.170
      -2.037
      -2.327
      -2.640
      -2.426
      -1.378
       0.320
       2.083
       3.266
       3.548
       3.077
       2.320
       1.769
       1.691
       2.035
       2.474
       2.566
       1.992
       0.798
      -0.555
      -1.414
      -1.336
      -0.355
       1.067
       2.342
       3.060
       3.134
       2.754
       2.204
       1.695
       1.303
       1.036
       0.916
       0.953
       1.067
       1.058
       0.723
       0.040
      -0.751
      -1.247
      -1.146
      -0.455
       0.503
       1.324
       1.806
       2.056
       2.309
       2.644
       2.828
       2.478
       1.413
      -0.111
      -1.536
      -2.380
      -2.525
      -2.173
      -1.603
      -0.993
      -0.434
       0.006
       0.280
       0.407
       0.475
       0.573
       0.736
       0.944
       1.116
       1.087
       0.648
      -0.301
      -1.549
      -2.585
      -2.918
      -2.484
      -1.731
      -1.254
      -1.313
      -1.692
      -1.993
      -2.052
      -2.059
      -2.328
      -2.989
      -3.904
      -4.838
      -5.647
      -6.303
      -6.764
      -6.870
      -6.367
      -5.080
      -3.107
      -0.892
       0.942
       1.945
       2.091
       1.747
       1.362
       1.169
       1.116
       1.029
       0.803
       0.496
       0.304
       0.484
       1.212
       2.412
       3.693
       4.547
       4.751
       4.630
       4.886
       6.079
       8.172
      10.509
      12.205
      12.624
      11.638
       9.579
       6.992
       4.404
       2.204
       0.583
      -0.487
      -1.205
      -1.801
      -2.413
      -3.062
      -3.723
      -4.347
      -4.830
      -4.990
      -4.650
      -3.795
      -2.657
      -1.620
      -0.970
      -0.662
      -0.344
       0.308
       1.193
       1.742
       1.364
      -0.013
      -1.833
      -3.355
      -4.178
      -4.398
      -4.357
      -4.339
      -4.452
      -4.666
      -4.831
      -4.671
      -3.887
      -2.379
      -0.398
       1.564
       3.042
       3.797
       3.784
       3.036
       1.636
      -0.238
      -2.313
      -4.281
      -5.862
      -6.820
      -7.019
      -6.568
      -5.894
      -5.575
      -5.984
      -7.008
      -8.113
      -8.698
      -8.435
      -7.345
      -5.641
      -3.547
      -1.242
       1.115
       3.389
       5.516
       7.508
       9.377
      11.052
      12.384
      13.244
      13.626
      13.635
      13.318
      12.495
      10.816
       8.115
       4.784
       1.802
       0.244
       0.588
       2.362
       4.446
       5.830
       6.248
       6.197
       6.381
       7.014
       7.575
       7.196
       5.366
       2.414
      -0.583
      -2.417
      -2.481
      -1.166
       0.358
       0.837
      -0.324
      -2.758
      -5.462
      -7.491
      -8.512
      -8.822
      -8.945
      -9.183
      -9.511
      -9.805
     -10.093
     -10.544
     -11.234
     -11.970
     -12.373
     -12.147
     -11.246
      -9.821
      -8.078
      -6.219
      -4.483
      -3.127
      -2.299
      -1.898
      -1.616
      -1.150
      -0.398
       0.507
       1.339
       1.946
       2.334
       2.660
       3.166
       4.089
       5.516
       7.247
       8.804
       9.673
       9.667
       9.120
       8.703
       8.925
       9.689
      10.277
       9.830
       7.955
       5.009
       1.865
      -0.595
      -1.918
      -2.205
      -1.933
      -1.648
      -1.721
      -2.257
      -3.131
      -4.052
      -4.673
      -4.724
      -4.137
      -3.089
      -1.905
      -0.878
      -0.120
       0.456
       1.035
       1.752
       2.575
       3.334
       3.886
       4.301
       4.843
       5.709
       6.741
       7.431
       7.268
       6.130
       4.367
       2.535
       1.030
      -0.083
      -0.962
      -1.770
      -2.521
      -3.122
      -3.530
      -3.870
      -4.373
      -5.140
      -5.947
      -6.280
      -5.655
      -4.041
      -2.035
      -0.589
      -0.392
      -1.400
      -2.875
      -3.907
      -3.961
      -3.033
      -1.453
       0.343
       1.889
       2.710
       2.442
       1.009
      -1.317
      -4.074
      -6.823
      -9.264
     -11.199
     -12.491
     -13.092
     -13.065
     -12.501
     -11.377
      -9.535
      -6.822
      -3.279
       0.775
       4.801
       8.216
      10.589
      11.768
      11.862
      11.149
      10.018
       8.931
       8.270
       8.065
       7.869
       7.066
       5.456
       3.571
       2.376
       2.562
       4.033
       6.012
       7.563
       8.066
       7.370
       5.720
       3.628
       1.708
       0.418
      -0.184
      -0.422
      -0.662
      -0.929
      -0.869
      -0.134
       1.176
       2.474
       3.084
       2.732
       1.676
       0.396
      -0.855
      -2.229
      -4.060
      -6.481
      -9.193
     -11.554
     -12.876
     -12.764
     -11.322
      -9.146
      -7.083
      -5.798
      -5.399
      -5.404
      -5.149
      -4.313
      -3.092
      -1.910
      -1.005
      -0.302
       0.413
       1.301
       2.432
       3.823
       5.376
       6.768
       7.505
       7.206
       5.903
       4.080
       2.405
       1.346
       0.967
       1.005
       1.143
       1.237
       1.347
       1.561
       1.780
       1.712
       1.136
       0.203
      -0.577
      -0.756
      -0.373
       0.036
      -0.101
      -0.897
      -1.947
      -2.707
      -2.906
      -2.599
      -1.929
      -0.948
       0.306
       1.617
       2.583
       2.857
       2.451
       1.777
       1.358
       1.437
       1.811
       1.993
       1.530
       0.249
      -1.654
      -3.667
      -5.106
      -5.344
      -4.096
      -1.657
       1.094
       3.074
       3.596
       2.773
       1.383
       0.308
       0.028
       0.517
       1.477
       2.598
       3.646
       4.434
       4.802
       4.668
       4.129
       3.503
       3.203
       3.461
       4.104
       4.608
       4.457
       3.488
       1.963
       0.320
      -1.116
      -2.213
      -2.971
      -3.488
      -4.027
      -4.964
      -6.521
      -8.481
     -10.227
     -11.156
     -11.110
     -10.424
      -9.618
      -9.079
      -8.962
      -9.216
      -9.568
      -9.506
      -8.437
      -6.053
      -2.657
       0.842
       3.382
       4.398
       4.232
       3.950
       4.614
       6.496
       8.861
      10.504
      10.671
       9.619
       8.367
       7.841
       8.131
       8.482
       7.964
       6.214
       3.610
       0.904
      -1.251
      -2.488
      -2.677
      -1.894
      -0.448
       1.158
       2.457
       3.290
       3.857
       4.451
       5.106
       5.499
       5.191
       3.991
       2.142
       0.184
      -1.347
      -2.176
      -2.342
      -2.066
      -1.591
      -1.116
      -0.835
      -0.932
      -1.480
      -2.334
      -3.174
      -3.714
      -3.878
      -3.785
      -3.610
      -3.477
      -3.451
      -3.549
      -3.695
      -3.728
      -3.543
      -3.288
      -3.348
      -4.044
      -5.290
      -6.570
      -7.285
      -7.153
      -6.332
      -5.249
      -4.272
      -3.430
      -2.378
      -0.681
       1.731
       4.335
       6.269
       6.887
       6.142
       4.528
       2.720
       1.243
       0.353
       0.072
       0.288
       0.843
       1.587
       2.348
       2.876
       2.888
       2.276
       1.331
       0.708
       1.034
       2.432
       4.383
       6.054
       6.814
       6.556
       5.668
       4.748
       4.246
       4.223
       4.359
       4.173
       3.289
       1.631
      -0.516
      -2.567
      -3.878
      -4.079
      -3.280
      -1.948
      -0.543
       0.711
       1.712
       2.235
       1.952
       0.758
      -0.998
      -2.689
      -3.877
      -4.596
      -5.196
      -5.920
      -6.655
      -7.078
      -7.005
      -6.511
      -5.693
      -4.389
      -2.310
       0.483
       3.279
       5.035
       5.140
       3.916
       2.381
       1.450
       1.270
       1.269
       0.813
      -0.164
      -1.116
      -1.394
      -0.758
       0.506
       1.850
