Origin Time       01/04/2014 17:45:09
Lat.              26.4 N	
Long.             92.4 E	
Depth (Km)         33.0
Magnitude         4.4
 Region           Naogaon-Assam                                                    
 Above details taken from IMD 
   
Station Code      TZP
Station Lat.       26.619
Station Long.      92.797
Station Height(m)   76.0
Site Class        B   Vs30 between 375 m/sec to 700 m/sec *  
Record Time       01.04.2014 17:44:53.539
Sampling Rate     200. Hz
 Record Duration   88.985 Sec.
 Direction         Vert. (Up positive)
Max. Acceleration      5.615 cm/sec**2
     
  * For reference see Site Classification link of website 
     
 Base Line Corrected and Low Pass Filtered (Cut Off at 35 Hz) Time History
 Acceleration data in cm/sec**2
    
[...]
       0.000
       0.003
       0.004
       0.003
       0.001
      -0.001
      -0.001
       0.003
       0.007
       0.011
       0.013
       0.011
       0.009
       0.009
       0.010
       0.011
       0.009
       0.006
       0.005
       0.006
       0.008
       0.010
       0.010
       0.010
       0.009
       0.010
       0.011
       0.009
       0.006
       0.005
       0.009
       0.014
       0.017
       0.014
       0.007
       0.002
      -0.001
      -0.001
      -0.001
      -0.002
       0.000
       0.005
       0.012
       0.018
       0.018
       0.011
       0.002
      -0.004
      -0.003
       0.004
       0.011
       0.015
       0.016
       0.015
       0.011
       0.004
      -0.003
      -0.008
      -0.006
       0.003
       0.014
       0.021
       0.020
       0.015
       0.010
       0.012
       0.018
       0.025
       0.027
       0.024
       0.015
       0.006
       0.001
       0.002
       0.006
       0.010
       0.010
       0.005
       0.000
      -0.001
       0.005
       0.012
       0.016
       0.014
       0.010
       0.007
       0.006
       0.005
       0.003
       0.001
       0.001
       0.002
       0.002
       0.000
      -0.003
      -0.004
      -0.003
       0.000
       0.003
       0.005
       0.006
       0.004
       0.003
       0.003
       0.003
       0.004
       0.003
       0.004
       0.008
       0.015
       0.022
       0.025
       0.023
       0.017
       0.013
       0.013
       0.018
       0.022
       0.023
       0.020
       0.017
       0.015
       0.016
       0.018
       0.018
       0.015
       0.009
       0.003
      -0.001
       0.001
       0.006
       0.010
       0.009
       0.005
       0.002
       0.002
       0.005
       0.007
       0.008
       0.009
       0.011
       0.013
       0.013
       0.010
       0.006
       0.004
       0.004
       0.007
       0.010
       0.008
       0.004
       0.001
       0.001
       0.004
       0.006
       0.004
      -0.001
      -0.006
      -0.008
      -0.007
      -0.002
       0.003
       0.008
       0.011
       0.014
       0.014
       0.012
       0.006
       0.000
      -0.002
       0.001
       0.004
       0.005
       0.004
       0.002
       0.003
       0.005
       0.008
       0.010
       0.011
       0.010
       0.007
       0.002
      -0.001
      -0.002
      -0.002
      -0.001
       0.001
       0.002
       0.005
       0.007
       0.010
       0.012
       0.012
       0.012
       0.010
       0.007
       0.003
      -0.001
      -0.002
       0.000
       0.004
       0.008
       0.007
       0.005
       0.003
       0.004
       0.006
       0.007
       0.008
       0.008
       0.009
       0.010
       0.007
       0.000
      -0.004
      -0.003
       0.003
       0.006
       0.001
      -0.010
      -0.019
      -0.016
      -0.005
       0.007
       0.010
       0.006
       0.003
       0.004
       0.007
       0.008
       0.007
       0.005
       0.006
       0.008
       0.011
       0.012
       0.009
       0.003
      -0.004
      -0.010
      -0.010
      -0.006
       0.001
       0.006
       0.008
       0.007
       0.002
      -0.004
      -0.009
      -0.011
      -0.010
      -0.007
      -0.005
      -0.005
      -0.008
      -0.009
      -0.007
      -0.003
       0.001
       0.000
      -0.004
      -0.008
      -0.008
      -0.004
       0.002
       0.005
       0.004
       0.001
       0.001
       0.003
       0.006
       0.006
       0.003
      -0.002
      -0.005
      -0.004
       0.000
       0.003
       0.002
      -0.004
      -0.012
      -0.014
      -0.012
      -0.006
      -0.003
      -0.001
      -0.001
       0.001
       0.003
       0.002
       0.001
       0.000
       0.000
       0.000
       0.001
       0.002
       0.004
       0.004
       0.002
      -0.004
      -0.009
      -0.011
      -0.007
      -0.002
       0.001
       0.000
      -0.003
      -0.004
      -0.005
      -0.008
      -0.012
      -0.016
      -0.014
      -0.009
      -0.005
      -0.005
      -0.006
      -0.005
      -0.001
       0.004
       0.005
       0.002
      -0.005
      -0.010
      -0.009
      -0.004
       0.004
       0.010
       0.012
       0.012
       0.011
       0.010
       0.010
       0.010
       0.010
       0.010
       0.009
       0.006
       0.002
      -0.005
      -0.011
      -0.013
      -0.010
      -0.002
       0.008
       0.014
       0.013
       0.007
      -0.001
      -0.006
      -0.009
      -0.009
      -0.007
      -0.005
      -0.004
      -0.004
      -0.004
      -0.001
       0.004
       0.009
       0.010
       0.009
       0.006
       0.003
       0.002
       0.002
       0.001
      -0.001
      -0.004
      -0.005
      -0.003
       0.001
       0.003
       0.001
      -0.002
      -0.003
       0.000
       0.003
       0.007
       0.008
       0.007
       0.006
       0.004
       0.002
      -0.001
      -0.002
       0.000
       0.005
       0.011
       0.016
       0.015
       0.011
       0.006
       0.001
      -0.003
      -0.004
      -0.003
      -0.002
       0.000
       0.000
       0.001
       0.003
       0.006
       0.008
       0.007
       0.002
      -0.004
      -0.008
      -0.006
       0.000
       0.008
       0.013
       0.013
       0.010
       0.006
       0.005
       0.005
       0.005
       0.002
      -0.002
      -0.004
      -0.001
       0.006
       0.012
       0.012
       0.008
       0.002
      -0.003
      -0.004
      -0.003
      -0.001
       0.000
       0.002
       0.005
       0.008
       0.010
       0.010
       0.010
       0.010
       0.009
       0.005
       0.000
      -0.005
      -0.006
      -0.002
       0.004
       0.009
       0.012
       0.012
       0.013
       0.013
       0.012
       0.011
       0.008
       0.004
       0.002
       0.002
       0.007
       0.013
       0.017
       0.018
       0.015
       0.008
       0.001
      -0.003
      -0.004
      -0.002
       0.001
       0.005
       0.009
       0.014
       0.016
       0.011
       0.003
      -0.004
      -0.005
       0.000
       0.005
       0.008
       0.007
       0.006
       0.006
       0.007
       0.008
       0.007
       0.005
       0.002
       0.001
       0.000
       0.000
      -0.001
      -0.002
      -0.003
      -0.003
      -0.002
      -0.001
       0.002
       0.006
       0.011
       0.011
       0.008
       0.004
       0.001
       0.002
       0.005
       0.010
       0.012
       0.010
       0.005
       0.001
       0.000
       0.004
       0.009
       0.009
       0.005
       0.001
       0.000
       0.004
       0.011
       0.014
       0.012
       0.007
       0.004
       0.007
       0.014
       0.017
       0.013
       0.005
       0.000
       0.000
       0.004
       0.009
       0.012
       0.013
       0.014
       0.012
       0.009
       0.005
       0.004
       0.005
       0.007
       0.005
       0.001
      -0.001
       0.002
       0.012
       0.021
       0.023
       0.018
       0.008
       0.000
      -0.002
      -0.001
       0.002
       0.005
       0.006
       0.008
       0.010
       0.011
       0.010
       0.007
       0.003
       0.001
       0.003
       0.009
       0.016
       0.021
       0.022
       0.017
       0.010
       0.006
       0.006
       0.011
       0.016
       0.015
       0.009
       0.002
      -0.003
      -0.004
      -0.003
      -0.001
       0.000
       0.002
       0.005
       0.010
       0.014
       0.015
       0.012
       0.009
       0.005
       0.003
       0.003
       0.003
       0.004
       0.004
       0.003
       0.003
       0.002
       0.003
       0.004
       0.005
       0.006
       0.006
       0.005
       0.003
       0.003
       0.003
       0.004
       0.007
       0.009
       0.010
       0.008
       0.003
       0.000
      -0.001
       0.002
       0.006
       0.008
       0.009
       0.007
       0.006
       0.004
       0.005
       0.006
       0.006
       0.006
       0.004
       0.004
       0.005
       0.006
       0.007
       0.006
       0.004
       0.004
       0.005
       0.005
       0.003
       0.001
       0.001
       0.005
       0.008
       0.008
       0.003
      -0.001
      -0.002
       0.002
       0.007
       0.008
       0.008
       0.007
       0.008
       0.011
       0.013
       0.012
       0.008
       0.004
       0.002
       0.002
       0.005
       0.010
       0.014
       0.017
       0.018
       0.017
       0.016
       0.014
       0.010
       0.008
       0.008
       0.010
       0.012
       0.014
       0.016
       0.018
       0.018
       0.017
       0.014
       0.013
       0.014
       0.015
       0.016
       0.015
       0.013
       0.012
       0.013
       0.015
       0.015
       0.013
       0.008
       0.005
       0.006
       0.012
       0.018
       0.020
       0.016
       0.009
       0.002
       0.000
       0.000
       0.002
       0.002
       0.001
      -0.002
      -0.003
      -0.002
       0.000
       0.002
       0.003
       0.004
       0.004
       0.004
       0.003
       0.003
       0.004
       0.010
       0.016
       0.018
       0.012
       0.002
      -0.006
      -0.006
       0.001
       0.008
       0.010
       0.008
       0.005
       0.004
       0.006
       0.006
       0.004
       0.000
      -0.003
      -0.001
       0.004
       0.008
       0.008
       0.006
       0.003
       0.001
       0.002
       0.004
       0.007
       0.009
       0.010
       0.008
       0.002
      -0.002
      -0.002
       0.005
       0.013
       0.017
       0.015
       0.008
       0.002
       0.001
       0.004
       0.007
       0.007
       0.004
       0.002
       0.003
       0.007
       0.012
       0.014
       0.014
       0.013
       0.013
       0.015
       0.015
       0.012
       0.006
      -0.001
      -0.006
      -0.006
      -0.002
       0.005
       0.010
       0.009
       0.006
       0.003
       0.005
       0.012
       0.018
       0.020
       0.017
       0.011
       0.006
       0.003
       0.001
       0.001
       0.003
       0.008
       0.012
       0.014
       0.013
       0.011
       0.009
       0.008
       0.004
       0.001
       0.001
       0.005
       0.011
       0.017
       0.018
       0.014
       0.009
       0.005
       0.005
       0.010
       0.014
       0.014
       0.008
      -0.001
      -0.005
      -0.001
       0.010
       0.020
       0.021
       0.012
      -0.001
      -0.006
      -0.002
       0.008
       0.013
       0.011
       0.005
       0.002
       0.001
       0.001
       0.000
      -0.002
      -0.001
       0.002
       0.003
       0.003
       0.000
      -0.002
      -0.003
      -0.002
       0.001
       0.003
       0.004
       0.002
      -0.002
      -0.004
      -0.003
       0.000
       0.005
       0.009
       0.012
       0.012
       0.010
       0.007
       0.005
       0.002
      -0.001
      -0.005
      -0.007
      -0.005
       0.001
       0.009
       0.014
       0.014
       0.010
       0.004
       0.000
      -0.001
       0.002
       0.008
       0.013
       0.011
       0.004
      -0.005
      -0.010
      -0.007
      -0.001
       0.004
       0.004
      -0.001
      -0.005
      -0.005
      -0.002
       0.001
       0.001
       0.001
       0.001
       0.002
       0.003
       0.001
      -0.002
      -0.003
       0.001
       0.008
       0.013
       0.013
       0.011
       0.008
       0.008
       0.009
       0.009
       0.006
       0.002
      -0.002
      -0.003
      -0.001
       0.001
       0.002
       0.001
      -0.001
      -0.001
       0.000
       0.003
       0.004
       0.004
       0.005
       0.008
       0.009
       0.007
       0.001
      -0.004
      -0.006
      -0.002
       0.004
       0.009
       0.010
       0.008
       0.004
       0.000
      -0.003
      -0.004
      -0.002
       0.004
       0.008
       0.010
       0.007
       0.003
       0.001
       0.003
       0.009
       0.014
       0.015
       0.011
       0.008
       0.007
       0.010
       0.013
       0.011
       0.006
      -0.001
      -0.005
      -0.003
       0.002
       0.008
       0.012
       0.011
       0.007
       0.002
       0.000
       0.002
       0.006
       0.007
       0.005
       0.001
      -0.001
       0.002
       0.008
       0.014
       0.015
       0.012
       0.005
       0.000
      -0.003
      -0.002
       0.000
       0.002
       0.006
       0.011
       0.014
       0.014
       0.011
       0.008
       0.008
       0.008
       0.005
       0.001
      -0.002
       0.000
       0.006
       0.011
       0.014
       0.015
       0.015
       0.017
       0.018
       0.019
       0.019
       0.021
       0.033
       0.063
       0.110
       0.166
       0.218
       0.265
       0.328
       0.438
       0.603
       0.784
       0.914
       0.945
       0.887
       0.798
       0.712
       0.601
       0.377
      -0.035
      -0.654
      -1.448
      -2.357
      -3.292
      -4.094
      -4.526
      -4.364
      -3.532
      -2.181
      -0.641
       0.734
       1.722
       2.333
       2.798
       3.413
       4.294
       5.198
       5.615
       5.132
       3.779
       2.022
       0.379
      -0.969
      -2.190
      -3.465
      -4.674
      -5.431
      -5.394
      -4.538
      -3.137
      -1.553
      -0.067
       1.155
       2.038
       2.608
       2.969
       3.168
       3.065
       2.411
       1.194
      -0.135
      -0.899
      -0.794
      -0.231
       0.007
      -0.501
      -1.423
      -2.009
      -1.799
      -0.978
      -0.109
       0.401
       0.558
       0.602
       0.686
       0.781
       0.811
       0.785
       0.749
       0.665
       0.437
       0.081
      -0.200
      -0.193
       0.035
       0.102
      -0.353
      -1.244
      -2.006
      -2.049
      -1.293
      -0.239
       0.487
       0.677
       0.632
       0.777
       1.219
       1.693
       1.868
       1.633
       1.100
       0.423
      -0.287
      -0.934
      -1.403
      -1.615
      -1.599
      -1.467
      -1.300
      -1.075
      -0.721
      -0.233
       0.299
       0.774
       1.167
       1.483
       1.637
       1.453
       0.855
       0.073
      -0.450
      -0.442
      -0.092
       0.103
      -0.162
      -0.703
      -1.057
      -0.974
      -0.637
      -0.406
      -0.410
      -0.440
      -0.207
       0.350
       0.998
       1.396
       1.345
       0.885
       0.223
      -0.398
      -0.786
      -0.858
      -0.683
      -0.442
      -0.296
      -0.238
      -0.133
       0.112
       0.446
       0.761
       1.017
       1.235
       1.395
       1.406
       1.191
       0.770
       0.237
      -0.329
      -0.896
      -1.414
      -1.753
      -1.762
      -1.429
      -0.942
      -0.561
      -0.407
      -0.392
      -0.363
      -0.277
      -0.201
      -0.137
       0.071
       0.575
       1.264
       1.768
       1.781
       1.360
       0.856
       0.555
       0.428
       0.215
      -0.260
      -0.874
      -1.317
      -1.386
      -1.167
      -0.914
      -0.787
      -0.732
      -0.598
      -0.311
       0.086
       0.512
       0.916
       1.242
       1.389
       1.267
       0.908
       0.492
       0.205
       0.075
      -0.055
      -0.347
      -0.764
      -1.057
      -0.984
      -0.559
      -0.058
       0.230
       0.226
       0.050
      -0.137
      -0.228
      -0.152
       0.126
       0.547
       0.911
       0.959
       0.569
      -0.104
      -0.718
      -1.001
      -0.938
      -0.688
      -0.391
      -0.080
       0.212
       0.363
       0.243
      -0.092
      -0.368
      -0.311
       0.089
       0.564
       0.834
       0.839
       0.715
       0.560
       0.310
      -0.143
      -0.734
      -1.177
      -1.180
      -0.706
      -0.001
       0.632
       1.052
       1.273
       1.302
       1.080
       0.598
       0.033
      -0.344
      -0.418
      -0.371
      -0.492
      -0.840
      -1.158
      -1.151
      -0.825
      -0.502
      -0.495
      -0.778
      -0.994
      -0.785
      -0.132
       0.636
       1.141
       1.238
       1.048
       0.782
       0.580
       0.458
       0.367
       0.263
       0.157
       0.103
       0.154
       0.301
       0.461
       0.505
       0.343
       0.009
      -0.335
      -0.504
      -0.432
      -0.237
      -0.128
      -0.232
      -0.486
      -0.722
      -0.840
      -0.877
      -0.901
      -0.869
      -0.657
      -0.222
       0.307
       0.721
       0.917
       0.961
       0.950
       0.880
       0.686
       0.393
       0.143
       0.039
      -0.005
      -0.183
      -0.566
      -0.969
      -1.100
      -0.861
      -0.450
      -0.144
      -0.003
       0.161
       0.525
       1.005
       1.303
       1.183
       0.705
       0.170
      -0.150
      -0.208
      -0.148
      -0.119
      -0.176
      -0.293
      -0.403
      -0.428
      -0.324
      -0.132
       0.025
       0.044
      -0.026
      -0.013
       0.195
       0.479
       0.554
       0.252
      -0.297
      -0.767
      -0.926
      -0.809
      -0.622
      -0.504
      -0.409
      -0.214
       0.088
       0.352
       0.436
       0.368
       0.324
       0.433
       0.614
       0.630
       0.349
      -0.076
      -0.308
      -0.137
       0.299
       0.634
       0.602
       0.262
      -0.089
      -0.204
      -0.090
       0.055
       0.073
      -0.026
      -0.149
      -0.252
      -0.357
      -0.469
      -0.538
      -0.534
      -0.494
      -0.477
      -0.450
      -0.273
       0.124
       0.582
       0.792
       0.595
       0.170
      -0.128
      -0.109
       0.109
       0.277
       0.265
       0.121
      -0.054
      -0.228
      -0.399
      -0.507
      -0.451
      -0.224
       0.019
       0.089
      -0.031
      -0.160
      -0.099
       0.170
       0.485
       0.655
       0.616
       0.450
       0.293
       0.221
       0.211
       0.194
       0.122
       0.009
      -0.099
      -0.171
      -0.211
      -0.240
      -0.253
      -0.212
      -0.084
       0.104
       0.233
       0.165
      -0.129
      -0.485
      -0.654
      -0.532
      -0.278
      -0.161
      -0.281
      -0.461
      -0.425
      -0.104
       0.287
       0.471
       0.394
       0.246
       0.231
       0.354
       0.456
       0.413
       0.262
       0.129
       0.080
       0.062
       0.015
      -0.024
       0.017
       0.131
       0.212
       0.185
       0.072
      -0.061
      -0.191
      -0.341
      -0.505
      -0.604
      -0.538
      -0.289
       0.036
       0.268
       0.308
       0.183
       0.008
      -0.104
      -0.115
      -0.067
      -0.021
       0.019
       0.105
       0.260
       0.415
       0.463
       0.358
       0.144
      -0.078
      -0.208
      -0.205
      -0.116
      -0.052
