Origin Time       06/11/2013 04:16:16 UTC
Lat.              26.5 N	
Long.             93.5 E	
Depth (Km)         20.0
Magnitude         5.5
 Region           Karbi-Assam                                                      
 Above details taken from IMD 
    
Station Code      TZP
Station Lat.       26.619  N
Station Long.      92.797  E
Station Height(m)   76.0
Site Class        B   Vs30 between 375 m/sec to 700 m/sec *  
Record Time       06.11.2013 04:16:13.009 UTC
Sampling Rate     200. Hz
 Record Duration   90.020 Sec.
 Direction         N-S (N positive)
Max. Acceleration     18.488 cm/sec**2
     
  * For reference see Site Classification link of website 
     
 Base Line Corrected and Low Pass Filtered (Cut Off at 35 Hz) Time History
 Acceleration data in cm/sec**2
    
[...]
       1.868
       1.720
       1.253
       0.623
       0.075
      -0.190
      -0.122
       0.151
       0.408
       0.484
       0.370
       0.183
       0.047
       0.003
       0.018
       0.035
       0.014
      -0.080
      -0.267
      -0.525
      -0.788
      -0.989
      -1.104
      -1.137
      -1.084
      -0.937
      -0.719
      -0.501
      -0.370
      -0.375
      -0.499
      -0.653
      -0.713
      -0.594
      -0.341
      -0.124
      -0.134
      -0.430
      -0.883
      -1.249
      -1.324
      -1.062
      -0.607
      -0.209
      -0.082
      -0.275
      -0.641
      -0.927
      -0.917
      -0.543
       0.101
       0.829
       1.430
       1.732
       1.653
       1.243
       0.694
       0.258
       0.100
       0.207
       0.427
       0.592
       0.630
       0.572
       0.484
       0.405
       0.352
       0.354
       0.479
       0.776
       1.198
       1.569
       1.686
       1.466
       1.020
       0.560
       0.233
       0.022
      -0.185
      -0.451
      -0.715
      -0.876
      -0.907
      -0.893
      -0.934
      -1.033
      -1.075
      -0.933
      -0.570
      -0.081
       0.363
       0.595
       0.533
       0.226
      -0.140
      -0.329
      -0.191
       0.216
       0.634
       0.753
       0.413
      -0.283
      -1.017
      -1.433
      -1.339
      -0.817
      -0.173
       0.260
       0.326
       0.125
      -0.116
      -0.254
      -0.323
      -0.438
      -0.602
      -0.649
      -0.387
       0.188
       0.823
       1.162
       1.003
       0.459
      -0.102
      -0.307
      -0.040
       0.488
       0.909
       0.970
       0.690
       0.290
      -0.012
      -0.158
      -0.243
      -0.375
      -0.531
      -0.567
      -0.372
      -0.013
       0.278
       0.298
       0.040
      -0.311
      -0.546
      -0.593
      -0.532
      -0.488
      -0.526
      -0.616
      -0.693
      -0.722
      -0.733
      -0.776
      -0.836
      -0.786
      -0.438
       0.288
       1.205
       1.877
       1.888
       1.176
       0.161
      -0.503
      -0.390
       0.373
       1.190
       1.429
       0.884
      -0.099
      -0.895
      -1.051
      -0.557
       0.224
       0.843
       1.035
       0.800
       0.340
      -0.071
      -0.221
      -0.082
       0.153
       0.193
      -0.125
      -0.676
      -1.131
      -1.205
      -0.870
      -0.353
       0.058
       0.219
       0.194
       0.147
       0.180
       0.262
       0.280
       0.176
       0.039
       0.068
       0.403
       0.960
       1.412
       1.376
       0.708
      -0.346
      -1.264
      -1.580
      -1.175
      -0.336
       0.455
       0.806
       0.611
       0.046
      -0.570
      -0.960
      -1.009
      -0.793
      -0.508
      -0.369
      -0.495
      -0.836
      -1.187
      -1.303
      -1.057
      -0.529
       0.055
       0.453
       0.552
       0.417
       0.232
       0.168
       0.271
       0.455
       0.605
       0.672
       0.702
       0.782
       0.964
       1.215
       1.411
       1.407
       1.147
       0.755
       0.476
       0.507
       0.831
       1.198
       1.265
       0.814
      -0.089
      -1.102
      -1.795
      -1.889
      -1.400
      -0.590
       0.191
       0.680
       0.787
       0.618
       0.396
       0.337
       0.512
       0.797
       0.940
       0.710
       0.064
      -0.765
      -1.362
      -1.398
      -0.910
      -0.326
      -0.162
      -0.610
      -1.383
      -1.959
      -2.018
      -1.656
      -1.215
      -0.917
      -0.671
      -0.228
       0.497
       1.256
       1.625
       1.354
       0.588
      -0.212
      -0.605
      -0.476
      -0.074
       0.231
       0.242
       0.044
      -0.114
      -0.039
       0.263
       0.599
       0.736
       0.583
       0.270
       0.052
       0.087
       0.293
       0.418
       0.269
      -0.098
      -0.409
      -0.395
      -0.038
       0.396
       0.544
       0.249
      -0.300
      -0.706
      -0.683
      -0.280
       0.187
       0.449
       0.520
       0.641
       0.974
       1.359
       1.422
       0.933
       0.087
      -0.589
      -0.644
      -0.087
       0.605
       0.856
       0.436
      -0.370
      -0.999
      -1.031
      -0.468
       0.293
       0.768
       0.691
       0.141
      -0.571
      -1.126
      -1.350
      -1.245
      -0.919
      -0.516
      -0.170
       0.032
       0.085
       0.072
       0.086
       0.127
       0.067
      -0.233
      -0.744
      -1.222
      -1.355
      -1.004
      -0.327
       0.300
       0.517
       0.207
      -0.421
      -0.941
      -0.962
      -0.372
       0.592
       1.492
       1.964
       1.923
       1.543
       1.066
       0.603
       0.126
      -0.391
      -0.838
      -0.999
      -0.739
      -0.165
       0.386
       0.559
       0.239
      -0.356
      -0.818
      -0.844
      -0.443
       0.085
       0.393
       0.347
       0.102
      -0.066
      -0.021
       0.129
       0.182
       0.076
      -0.029
       0.099
       0.521
       1.052
       1.399
       1.391
       1.085
       0.678
       0.313
      -0.010
      -0.359
      -0.730
      -1.020
      -1.134
      -1.104
      -1.083
      -1.191
      -1.369
      -1.390
      -1.059
      -0.417
       0.241
       0.581
       0.483
       0.106
      -0.278
      -0.503
      -0.570
      -0.541
      -0.427
      -0.199
       0.135
       0.485
       0.740
       0.849
       0.845
       0.788
       0.685
       0.490
       0.185
      -0.143
      -0.336
      -0.304
      -0.123
      -0.002
      -0.104
      -0.417
      -0.742
      -0.828
      -0.540
       0.040
       0.641
       0.986
       0.988
       0.816
       0.732
       0.833
       0.946
       0.790
       0.255
      -0.453
      -0.921
      -0.802
      -0.060
       0.987
       1.848
       2.150
       1.812
       1.025
       0.104
      -0.647
      -0.997
      -0.841
      -0.257
       0.489
       1.040
       1.108
       0.641
      -0.148
      -0.889
      -1.269
      -1.197
      -0.835
      -0.466
      -0.306
      -0.363
      -0.450
      -0.360
      -0.070
       0.223
       0.305
       0.191
       0.134
       0.350
       0.745
       0.933
       0.560
      -0.375
      -1.486
      -2.252
      -2.325
      -1.690
      -0.639
       0.381
       0.948
       0.841
       0.131
      -0.834
      -1.574
      -1.697
      -1.094
      -0.019
       1.025
       1.559
       1.400
       0.750
       0.041
      -0.355
      -0.354
      -0.157
      -0.036
      -0.098
      -0.211
      -0.180
       0.024
       0.182
       0.015
      -0.529
      -1.162
      -1.439
      -1.105
      -0.307
       0.516
       0.965
       0.972
       0.823
       0.907
       1.379
       1.987
       2.229
       1.724
       0.529
      -0.855
      -1.794
      -1.930
      -1.367
      -0.533
       0.139
       0.437
       0.390
       0.137
      -0.179
      -0.443
      -0.550
      -0.422
      -0.042
       0.515
       1.101
       1.552
       1.742
       1.622
       1.231
       0.699
       0.207
      -0.104
      -0.232
      -0.313
      -0.514
      -0.894
      -1.357
      -1.710
      -1.772
      -1.452
      -0.791
       0.025
       0.711
       0.989
       0.726
       0.040
      -0.731
      -1.195
      -1.126
      -0.595
       0.090
       0.588
       0.732
       0.572
       0.278
      -0.015
      -0.280
      -0.544
      -0.784
      -0.865
      -0.618
       0.017
       0.895
       1.695
       2.063
       1.785
       0.919
      -0.195
      -1.086
      -1.388
      -1.051
      -0.381
       0.121
       0.078
      -0.494
      -1.159
      -1.364
      -0.858
       0.108
       0.967
       1.271
       1.003
       0.534
       0.285
       0.407
       0.728
       0.959
       0.962
       0.841
       0.813
       0.972
       1.167
       1.099
       0.579
      -0.268
      -1.044
      -1.342
      -1.029
      -0.327
       0.343
       0.634
       0.464
       0.008
      -0.446
      -0.672
      -0.622
      -0.432
      -0.329
      -0.455
      -0.712
      -0.786
      -0.387
       0.462
       1.352
       1.728
       1.295
       0.256
      -0.787
      -1.230
      -0.864
       0.012
       0.832
       1.159
       0.953
       0.507
       0.161
       0.032
      -0.035
      -0.271
      -0.743
      -1.258
      -1.501
      -1.293
      -0.740
      -0.162
       0.146
       0.091
      -0.209
      -0.532
      -0.671
      -0.494
       0.000
       0.655
       1.176
       1.266
       0.812
       0.006
      -0.735
      -1.014
      -0.705
      -0.031
       0.590
       0.836
       0.677
       0.355
       0.168
       0.239
       0.475
       0.706
       0.859
       0.977
       1.111
       1.210
       1.153
       0.847
       0.319
      -0.280
      -0.744
      -0.904
      -0.717
      -0.267
       0.283
       0.766
       1.044
       1.031
       0.712
       0.139
      -0.596
      -1.376
      -2.030
      -2.320
      -2.040
      -1.196
      -0.082
       0.873
       1.409
       1.608
       1.765
       2.071
       2.406
       2.435
       1.912
       0.917
      -0.166
      -0.920
      -1.176
      -1.088
      -0.956
      -0.980
      -1.139
      -1.263
      -1.186
      -0.817
      -0.137
       0.803
       1.826
       2.595
       2.727
       2.039
       0.739
      -0.636
      -1.551
      -1.813
      -1.664
      -1.523
      -1.648
      -1.978
      -2.283
      -2.412
      -2.413
      -2.433
      -2.541
      -2.653
      -2.604
      -2.303
      -1.802
      -1.257
      -0.796
      -0.423
      -0.036
       0.459
       1.043
       1.581
       1.917
       1.963
       1.701
       1.115
       0.164
      -1.145
      -2.640
      -3.957
      -4.672
      -4.527
      -3.599
      -2.277
      -1.088
      -0.457
      -0.530
      -1.141
      -1.926
      -2.504
      -2.635
      -2.307
      -1.740
      -1.265
      -1.128
      -1.312
      -1.525
      -1.413
      -0.846
      -0.045
       0.580
       0.781
       0.707
       0.813
       1.497
       2.775
       4.269
       5.508
       6.277
       6.748
       7.300
       8.207
       9.404
      10.490
      10.958
      10.484
       9.117
       7.262
       5.452
       4.053
       3.069
       2.164
       0.921
      -0.852
      -2.934
      -4.780
      -5.823
      -5.835
      -5.074
      -4.136
      -3.592
      -3.634
      -3.956
      -3.933
      -3.012
      -1.091
       1.353
       3.489
       4.608
       4.513
       3.564
       2.368
       1.375
       0.680
       0.083
      -0.703
      -1.841
      -3.243
      -4.578
      -5.455
      -5.660
      -5.289
      -4.665
      -4.124
      -3.846
      -3.844
      -4.049
      -4.377
      -4.726
      -4.966
      -4.996
      -4.816
      -4.523
      -4.207
      -3.846
      -3.325
      -2.562
      -1.627
      -0.720
      -0.021
       0.479
       1.008
       1.859
       3.155
       4.692
       6.019
       6.702
       6.614
       6.025
       5.418
       5.144
       5.182
       5.188
       4.800
       3.937
       2.865
       2.003
       1.619
       1.670
       1.882
       2.018
       2.088
       2.337
       2.987
       3.953
       4.789
       4.947
       4.157
       2.621
       0.896
      -0.427
      -0.984
      -0.735
       0.067
       0.963
       1.428
       1.112
       0.100
      -1.024
      -1.479
      -0.836
       0.596
       1.923
       2.276
       1.389
      -0.305
      -2.102
      -3.583
      -4.866
      -6.384
      -8.400
     -10.684
     -12.597
     -13.520
     -13.252
     -12.122
     -10.765
      -9.766
      -9.361
      -9.352
      -9.269
      -8.727
      -7.722
      -6.635
      -5.910
      -5.657
      -5.493
      -4.771
      -3.035
      -0.378
       2.550
       4.925
       6.231
       6.501
       6.198
       5.882
       5.921
       6.368
       6.993
       7.410
       7.299
       6.621
       5.682
       4.978
       4.908
       5.529
       6.473
       7.112
       6.899
       5.699
       3.868
       1.983
       0.452
      -0.664
      -1.482
      -2.021
      -2.134
      -1.700
      -0.839
       0.116
       0.867
       1.376
       1.845
       2.465
       3.187
       3.720
       3.736
       3.119
       2.084
       1.136
       0.892
       1.777
       3.682
       5.847
       7.187
       6.984
       5.441
       3.607
       2.660
       3.119
       4.580
       6.129
       6.979
       6.845
       5.856
       4.286
       2.398
       0.458
      -1.250
      -2.556
      -3.526
      -4.417
      -5.484
      -6.848
      -8.510
     -10.405
     -12.370
     -14.067
     -15.030
     -14.860
     -13.463
     -11.138
      -8.458
      -6.032
      -4.286
      -3.346
      -3.059
      -3.089
      -3.015
      -2.428
      -1.069
       0.984
       3.176
       4.606
       4.488
       2.701
       0.000
      -2.381
      -3.528
      -3.457
      -3.017
      -3.187
      -4.338
      -6.015
      -7.316
      -7.466
      -6.193
      -3.741
      -0.693
       2.285
       4.683
       6.387
       7.773
       9.499
      12.004
      15.026
      17.570
      18.488
      17.300
      14.601
      11.688
       9.686
       8.838
       8.523
       7.903
       6.658
       5.217
       4.314
       4.271
       4.591
       4.231
       2.367
      -0.944
      -4.722
      -7.713
      -9.210
      -9.414
      -9.096
      -8.911
      -8.951
      -8.851
      -8.232
      -7.038
      -5.551
      -4.173
      -3.210
      -2.756
      -2.682
      -2.691
      -2.442
      -1.717
      -0.567
       0.676
       1.538
       1.637
       0.852
      -0.623
      -2.381
      -3.958
      -4.979
      -5.237
      -4.712
      -3.591
      -2.304
      -1.457
      -1.583
      -2.812
      -4.675
      -6.265
      -6.729
      -5.751
      -3.713
      -1.425
       0.336
       1.146
       0.977
       0.043
      -1.334
      -2.758
      -3.736
      -3.769
      -2.566
      -0.268
       2.504
       4.866
       6.078
       5.914
       4.811
       3.704
       3.595
       5.045
       7.809
      10.875
      12.943
      13.149
      11.570
       9.161
       7.133
       6.182
       6.115
       6.112
       5.406
       3.817
       1.765
      -0.132
      -1.489
      -2.279
      -2.709
      -3.053
      -3.520
      -4.149
      -4.734
      -4.894
      -4.330
      -3.124
      -1.806
      -1.035
      -1.108
      -1.706
      -2.146
      -1.922
      -1.060
      -0.010
       0.760
       1.050
       0.885
       0.280
      -0.869
      -2.615
      -4.700
      -6.503
      -7.350
      -6.982
      -5.804
      -4.667
      -4.303
      -4.818
      -5.621
      -5.848
      -4.969
      -3.133
      -1.047
       0.458
       0.878
       0.252
      -0.877
      -1.696
      -1.456
       0.163
       2.797
       5.471
       7.083
       7.099
       5.949
       4.757
       4.503
       5.262
       6.148
       6.028
       4.390
       1.675
      -1.101
      -3.000
      -3.583
      -2.938
      -1.515
       0.040
       1.056
       1.059
      -0.001
      -1.735
      -3.535
      -4.879
      -5.502
      -5.397
      -4.734
      -3.768
      -2.725
      -1.701
      -0.632
       0.603
       2.070
       3.732
       5.472
       7.074
       8.186
       8.387
       7.411
       5.384
       2.889
       0.750
      -0.332
      -0.083
       1.225
       2.850
       3.840
       3.451
       1.590
      -0.998
      -3.051
      -3.516
      -2.245
      -0.175
       1.207
       0.815
      -1.286
      -3.898
      -5.472
      -5.119
      -3.146
      -0.790
       0.595
       0.333
      -1.277
      -3.251
      -4.560
      -4.706
      -3.925
      -2.941
      -2.470
      -2.786
      -3.605
      -4.289
      -4.247
      -3.279
      -1.680
      -0.050
       1.032
       1.256
       0.661
      -0.417
      -1.476
      -2.008
      -1.669
      -0.419
       1.431
       3.305
       4.563
       4.770
       3.944
       2.595
       1.480
       1.145
       1.603
       2.396
       3.018
       3.350
       3.715
       4.509
       5.709
       6.716
       6.710
       5.278
       2.785
       0.197
      -1.535
      -2.031
      -1.593
      -0.880
      -0.497
      -0.790
      -1.809
      -3.280
      -4.595
      -4.992
      -3.988
      -1.763
       0.864
       2.890
       3.699
       3.330
       2.352
       1.467
       1.095
       1.174
       1.268
       0.923
       0.007
      -1.206
      -2.291
      -3.035
      -3.603
      -4.356
      -5.466
      -6.665
      -7.334
      -6.912
      -5.295
      -2.938
      -0.582
       1.168
       2.109
       2.406
       2.350
       2.185
       2.133
       2.484
       3.500
       5.099
       6.647
       7.205
       6.189
       3.943
       1.662
       0.608
       1.173
       2.545
       3.249
       2.192
      -0.582
      -3.953
      -6.504
      -7.405
      -6.799
      -5.484
      -4.249
      -3.395
      -2.755
      -2.029
      -1.088
      -0.033
       0.886
       1.361
       1.140
       0.229
      -0.935
      -1.607
      -1.208
       0.162
       1.657
       2.258
       1.612
       0.436
       0.048
       1.330
       3.922
       6.364
       7.115
       5.728
       3.249
       1.485
       1.621
       3.290
       4.885
       4.888
       3.096
       0.730
      -0.576
       0.010
       2.026
       4.153
       5.092
       4.228
       1.809
      -1.296
      -4.026
      -5.576
      -5.708
      -4.830
      -3.787
      -3.430
      -4.164
      -5.724
      -7.358
      -8.337
      -8.428
      -7.999
      -7.665
      -7.792
      -8.270
      -8.677
      -8.618
      -7.950
      -6.775
      -5.304
      -3.742
      -2.216
      -0.730
       0.792
       2.375
       3.826
       4.764
       4.866
       4.196
       3.285
       2.869
       3.465
       5.082
       7.271
       9.402
      10.915
      11.418
      10.726
       8.947
       6.567
       4.331
       2.887
       2.431
       2.645
       3.002
       3.170
       3.168
       3.176
       3.228
       3.154
       2.846
       2.518
       2.581
       3.198
       3.951
       4.039
       2.881
       0.601
      -2.015
      -4.011
      -4.778
      -4.315
      -3.182
      -2.254
      -2.309
      -3.580
      -5.542
      -7.174
      -7.593
      -6.630
      -4.940
      -3.555
      -3.212
      -3.934
      -5.105
      -5.937
      -5.935
      -5.074
      -3.663
      -2.115
      -0.815
      -0.107
      -0.231
      -1.148
      -2.392
      -3.173
      -2.779
      -1.043
       1.480
       3.788
       4.991
       4.789
       3.559
       2.060
       0.971
       0.556
       0.593
       0.580
       0.107
      -0.838
      -1.817
      -2.244
      -1.830
      -0.822
       0.154
       0.528
