Origin Time       02/10/2012 18:37:39
Lat.              26.9 N	
Long.             92.8 E	
Depth (Km)         35.0
Magnitude         5.1
 Region           Sonitpur-Assam                                                   
 Above details taken from IMD 
   
Station Code      TZP
Station Lat.       26.619
Station Long.      92.797
Station Height(m)   76.0
Site Class        B   Vs30 between 375 m/sec to 700 m/sec *  
Record Time       02.10.2012 18:37:31.559
Sampling Rate     200. Hz
 Record Duration   80.005 Sec.
 Direction         Vert. (Up positive)
Max. Acceleration     45.497 cm/sec**2
     
  * For reference see Site Classification link of website 
     
 Base Line Corrected and Low Pass Filtered (Cut Off at 35 Hz) Time History
 Acceleration data in cm/sec**2
    
[...]
       2.657
       1.441
       0.721
       0.158
      -0.733
      -2.094
      -3.595
      -4.700
      -5.029
      -4.535
      -3.473
      -2.253
      -1.260
      -0.686
      -0.419
      -0.117
       0.543
       1.559
       2.532
       2.932
       2.573
       1.809
       1.194
       0.871
       0.365
      -0.890
      -2.788
      -4.419
      -4.856
      -4.049
      -2.804
      -1.852
      -1.076
       0.230
       2.412
       4.902
       6.603
       6.764
       5.506
       3.636
       2.027
       1.052
       0.436
      -0.430
      -1.939
      -3.853
      -5.437
      -6.091
      -5.934
      -5.706
      -5.981
      -6.464
      -6.146
      -4.279
      -1.188
       1.961
       4.244
       5.780
       7.364
       9.344
      10.972
      11.014
       8.985
       5.733
       2.738
       0.830
      -0.398
      -1.941
      -4.169
      -6.272
      -6.930
      -5.526
      -2.768
      -0.129
       1.296
       1.477
       1.173
       1.103
       1.378
       1.575
       1.221
       0.181
      -1.282
      -2.695
      -3.616
      -3.800
      -3.258
      -2.232
      -1.137
      -0.428
      -0.351
      -0.707
      -0.915
      -0.475
       0.519
       1.354
       1.309
       0.402
      -0.501
      -0.405
       0.880
       2.454
       2.977
       1.746
      -0.704
      -3.006
      -4.030
      -3.681
      -2.735
      -1.950
      -1.352
      -0.401
       1.270
       3.398
       5.302
       6.367
       6.246
       4.811
       2.177
      -1.065
      -3.763
      -4.647
      -3.168
      -0.076
       2.872
       3.947
       2.527
      -0.552
      -3.593
      -5.137
      -4.755
      -3.093
      -1.328
      -0.458
      -0.785
      -1.781
      -2.503
      -2.317
      -1.350
      -0.179
       0.852
       1.895
       3.247
       4.929
       6.601
       7.677
       7.467
       5.516
       2.142
      -1.422
      -3.794
      -4.575
      -4.614
      -5.021
      -5.959
      -6.486
      -5.526
      -2.910
       0.449
       3.238
       4.581
       4.437
       3.442
       2.415
       1.828
       1.568
       1.146
       0.203
      -1.168
      -2.510
      -3.340
      -3.407
      -2.728
      -1.447
       0.292
       2.285
       4.065
       4.835
       3.812
       0.890
      -2.917
      -5.846
      -6.515
      -4.897
      -2.218
       0.122
       1.529
       2.281
       2.856
       3.311
       3.273
       2.393
       0.803
      -0.849
      -1.763
      -1.473
      -0.074
       1.866
       3.547
       4.225
       3.543
       1.758
      -0.370
      -2.071
      -2.999
      -3.197
      -2.752
      -1.718
      -0.394
       0.581
       0.655
      -0.144
      -1.322
      -2.458
      -3.457
      -4.236
      -4.393
      -3.452
      -1.452
       0.908
       2.788
       3.821
       4.148
       3.985
       3.372
       2.398
       1.459
       0.997
       0.943
       0.615
      -0.649
      -2.689
      -4.385
      -4.394
      -2.198
       1.418
       4.843
       6.690
       6.647
       5.522
       4.421
       3.700
       2.653
       0.298
      -3.447
      -7.336
      -9.580
      -9.192
      -6.753
      -3.947
      -2.249
      -1.844
      -1.722
      -0.822
       0.905
       2.557
       3.257
       2.881
       1.892
       0.765
      -0.190
      -0.649
      -0.312
       0.718
       1.791
       2.191
       1.771
       1.062
       0.726
       0.985
       1.569
       2.101
       2.358
       2.181
       1.369
      -0.091
      -1.749
      -2.880
      -3.053
      -2.492
      -1.804
      -1.365
      -1.072
      -0.740
      -0.549
      -0.856
      -1.579
      -2.068
      -1.714
      -0.526
       0.968
       2.214
       2.876
       2.777
       1.898
       0.515
      -0.825
      -1.569
      -1.398
      -0.342
       1.160
       2.334
       2.536
       1.849
       1.104
       1.132
       1.983
       2.891
       2.971
       1.937
       0.262
      -1.246
      -2.026
      -2.079
      -1.870
      -1.906
      -2.308
      -2.703
      -2.571
      -1.754
      -0.671
      -0.077
      -0.549
      -1.993
      -3.549
      -4.151
      -3.396
      -1.894
      -0.649
      -0.066
       0.378
       1.476
       3.365
       5.306
       6.308
       5.875
       4.186
       1.815
      -0.552
      -2.251
      -2.856
      -2.482
      -1.820
      -1.653
      -2.203
      -2.922
      -2.931
      -1.693
       0.599
       3.087
       4.716
       4.886
       3.878
       2.657
       2.104
       2.259
       2.275
       1.250
      -0.817
      -2.933
      -4.052
      -4.024
      -3.561
      -3.343
      -3.299
      -2.821
      -1.571
       0.053
       1.254
       1.549
       1.138
       0.638
       0.541
       0.942
       1.684
       2.524
       3.095
       2.900
       1.689
      -0.110
      -1.549
      -1.917
      -1.318
      -0.476
      -0.033
      -0.122
      -0.525
      -1.048
      -1.645
      -2.272
      -2.811
      -3.183
      -3.424
      -3.510
      -3.159
      -1.987
       0.014
       2.234
       3.832
       4.399
       4.225
       3.921
       3.875
       4.078
       4.339
       4.478
       4.232
       3.165
       0.974
      -1.962
      -4.528
      -5.634
      -5.168
      -4.139
      -3.793
      -4.480
      -5.258
      -4.624
      -1.803
       2.431
       6.177
       7.760
       6.871
       4.560
       2.218
       0.545
      -0.679
      -2.073
      -3.929
      -5.819
      -6.782
      -6.021
      -3.613
      -0.597
       1.760
       2.874
       3.084
       3.093
       3.293
       3.600
       3.699
       3.287
       2.219
       0.671
      -0.759
      -1.312
      -0.670
       0.631
       1.489
       1.080
      -0.502
      -2.370
      -3.548
      -3.629
      -2.903
      -2.011
      -1.439
      -1.283
      -1.418
      -1.761
      -2.241
      -2.551
      -2.194
      -0.971
       0.669
       1.978
       2.658
       3.102
       3.787
       4.534
       4.540
       3.174
       0.673
      -1.934
      -3.521
      -3.519
      -2.113
      -0.016
       1.931
       3.126
       3.427
       3.155
       2.813
       2.599
       2.098
       0.569
      -2.219
      -5.338
      -7.033
      -6.004
      -2.566
       1.421
       3.816
       3.589
       1.275
      -1.609
      -3.541
      -3.743
      -2.456
      -0.678
       0.501
       0.571
      -0.171
      -0.980
      -1.247
      -0.813
       0.104
       1.148
       1.999
       2.483
       2.657
       2.812
       3.252
       3.959
       4.472
       4.152
       2.646
       0.208
      -2.381
      -4.205
      -4.696
      -3.984
      -2.821
      -2.045
      -1.916
      -1.972
      -1.568
      -0.581
       0.496
       1.113
       1.168
       0.916
       0.558
       0.115
      -0.389
      -0.879
      -1.363
      -1.933
      -2.535
      -2.850
      -2.506
      -1.406
       0.158
       1.694
       2.827
       3.521
       4.047
       4.685
       5.405
       5.859
       5.692
       4.802
       3.295
       1.308
      -0.953
      -3.074
      -4.560
      -5.284
      -5.734
      -6.598
      -8.002
      -9.204
      -9.062
      -6.837
      -2.661
       2.500
       7.229
      10.193
      10.721
       9.155
       6.596
       4.086
       1.889
      -0.434
      -3.269
      -6.277
      -8.500
      -9.070
      -7.849
      -5.433
      -2.597
       0.278
       3.258
       6.345
       8.989
      10.260
       9.626
       7.521
       4.996
       2.747
       0.611
      -1.897
      -4.677
      -6.890
      -7.730
      -7.233
      -6.216
      -5.462
      -5.035
      -4.333
      -2.707
      -0.061
       2.979
       5.400
       6.446
       6.128
       5.127
       4.118
       3.143
       1.648
      -0.856
      -4.106
      -6.969
      -8.008
      -6.423
      -2.704
       1.529
       4.503
       5.384
       4.670
       3.598
       3.066
       2.935
       2.319
       0.583
      -1.863
      -3.753
      -3.980
      -2.501
      -0.339
       1.243
       1.587
       0.895
      -0.111
      -0.739
      -0.712
      -0.254
       0.139
       0.097
      -0.394
      -1.104
      -1.819
      -2.404
      -2.683
      -2.461
      -1.739
      -0.773
       0.172
       1.097
       2.177
       3.418
       4.517
       5.067
       4.857
       3.952
       2.548
       0.854
      -0.877
      -2.283
      -2.992
      -2.863
      -2.085
      -1.070
      -0.293
      -0.208
      -1.056
      -2.487
      -3.482
      -3.028
      -1.141
       0.899
       1.641
       0.875
      -0.242
      -0.551
      -0.167
      -0.234
      -1.507
      -3.372
      -4.315
      -3.268
      -0.540
       2.413
       4.086
       3.925
       2.527
       1.041
       0.398
       0.905
       2.243
       3.619
       4.109
       3.271
       1.651
       0.468
       0.527
       1.373
       1.685
       0.587
      -1.437
      -2.999
      -3.096
      -1.956
      -0.740
      -0.561
      -1.719
      -3.605
      -5.162
      -5.566
      -4.721
      -3.269
      -2.037
      -1.376
      -0.974
      -0.296
       0.828
       2.050
       2.854
       3.041
       2.910
       3.050
       3.874
       5.212
       6.334
       6.558
       5.911
       5.041
       4.356
       3.384
       1.225
      -2.309
      -6.124
      -8.539
      -8.608
      -6.812
      -4.589
      -3.272
      -3.314
      -4.166
      -4.645
      -3.600
      -0.675
       3.250
       6.420
       7.313
       5.651
       2.428
      -0.965
      -3.608
      -5.219
      -5.796
      -5.317
      -3.790
      -1.493
       1.002
       3.161
       4.865
       6.358
       7.780
       8.794
       8.783
       7.402
       4.914
       2.037
      -0.493
      -2.236
      -3.118
      -3.388
      -3.509
      -3.895
      -4.532
      -4.898
      -4.431
      -3.180
      -1.935
      -1.596
      -2.365
      -3.557
      -4.216
      -3.938
      -3.092
      -2.249
      -1.449
      -0.124
       2.237
       5.380
       8.244
       9.610
       8.882
       6.430
       3.316
       0.717
      -0.584
      -0.486
       0.443
       1.247
       1.072
      -0.373
      -2.644
      -4.819
      -6.048
      -6.071
      -5.349
      -4.669
      -4.493
      -4.532
      -3.930
      -1.976
       1.182
       4.361
       5.999
       5.301
       3.006
       0.975
       0.733
       2.163
       3.602
       3.360
       1.245
      -1.338
      -2.754
      -2.574
      -1.675
      -1.079
      -0.901
      -0.509
       0.508
       1.838
       2.944
       3.783
       4.706
       5.667
       5.854
       4.288
       0.788
      -3.726
      -7.830
     -10.434
     -11.134
     -10.003
      -7.249
      -3.174
       1.608
       6.052
       8.970
       9.638
       8.240
       5.705
       3.015
       0.558
      -1.868
      -4.436
      -6.722
      -7.858
      -7.270
      -5.220
      -2.593
      -0.196
       1.670
       3.037
       3.859
       3.945
       3.329
       2.485
       1.960
       1.793
       1.544
       0.962
       0.401
       0.328
       0.540
       0.166
      -1.367
      -3.504
      -4.825
      -4.143
      -1.387
       2.337
       5.356
       6.300
       4.812
       1.756
      -1.360
      -3.405
      -4.269
      -4.589
      -4.971
      -5.503
      -5.892
      -5.798
      -4.938
      -2.974
       0.380
       4.913
       9.658
      13.311
      15.047
      14.886
      13.257
      10.345
       5.992
       0.209
      -6.319
     -12.326
     -16.563
     -18.362
     -17.806
     -15.486
     -12.091
      -8.013
      -3.242
       2.287
       8.101
      13.009
      15.697
      15.590
      13.163
       9.433
       5.251
       1.073
      -2.779
      -5.973
      -8.381
     -10.148
     -11.240
     -10.989
      -8.498
      -3.739
       1.924
       6.581
       9.221
      10.236
      10.480
      10.064
       8.317
       4.938
       0.906
      -2.056
      -3.051
      -2.912
      -3.410
      -5.489
      -8.254
      -9.627
      -7.960
      -3.209
       3.083
       8.727
      12.096
      12.935
      12.293
      11.553
      11.225
      10.534
       8.230
       3.907
      -1.436
      -6.124
      -8.993
      -9.867
      -9.099
      -7.003
      -3.856
      -0.305
       2.556
       3.732
       3.056
       1.388
       0.013
      -0.313
       0.110
       0.207
      -1.066
      -3.973
      -7.763
     -11.116
     -13.015
     -13.332
     -12.540
     -10.927
      -8.306
      -4.542
      -0.119
       3.970
       6.813
       7.965
       7.413
       5.475
       2.796
       0.229
      -1.555
      -2.446
      -2.894
      -3.493
      -4.464
      -5.357
      -5.193
      -3.020
       1.441
       7.509
      13.754
      18.471
      20.121
      17.765
      11.650
       3.652
      -3.204
      -6.390
      -5.509
      -2.353
       0.697
       2.294
       2.367
       1.329
      -0.588
      -3.329
      -6.761
     -10.624
     -14.649
     -18.586
     -22.068
     -24.516
     -25.334
     -24.304
     -21.803
     -18.562
     -15.113
     -11.375
      -6.668
      -0.103
       8.858
      19.882
      31.430
      40.903
      45.497
      43.580
      35.715
      24.462
      13.003
       3.562
      -3.260
      -7.883
     -10.571
     -10.914
      -8.544
      -4.289
      -0.294
       1.433
       0.682
      -0.995
      -2.104
      -2.816
      -4.586
      -8.314
     -13.042
     -16.548
     -17.248
     -15.519
     -13.170
     -11.638
     -10.616
      -8.291
      -2.921
       5.488
      14.747
      21.600
      23.567
      20.255
      13.485
       6.312
       1.462
      -0.038
       0.782
       1.858
       1.914
       1.636
       3.021
       7.276
      13.167
      17.452
      17.071
      11.236
       1.905
      -7.476
     -14.014
     -16.900
     -17.437
     -17.576
     -18.180
     -18.551
     -17.594
     -15.346
     -13.211
     -12.582
     -13.203
     -12.940
      -9.417
      -2.160
       6.761
      14.257
      18.494
      19.872
      19.980
      19.798
      18.894
      16.251
      11.753
       6.765
       3.188
       1.993
       2.667
       3.921
       4.677
       4.463
       3.217
       1.099
      -1.485
      -3.920
      -5.690
      -6.757
      -7.667
      -9.277
     -12.226
     -16.376
     -20.647
     -23.450
     -23.385
     -19.640
     -12.122
      -1.749
       9.166
      17.364
      20.346
      18.193
      13.600
       9.716
       7.662
       6.239
       3.995
       1.193
      -0.498
       0.042
       2.153
       4.122
       4.848
       4.702
       4.928
       6.407
       8.959
      11.499
      12.505
      10.415
       4.256
      -5.459
     -16.461
     -25.829
     -31.715
     -33.948
     -32.955
     -28.441
     -19.624
      -6.948
       6.640
      16.584
      19.469
      15.415
       7.960
       1.411
      -2.117
      -3.405
      -4.197
      -4.768
      -3.519
       1.112
       8.591
      16.205
      20.882
      21.136
      17.731
      13.076
       9.976
      10.081
      12.586
      14.272
      11.507
       3.094
      -8.440
     -18.500
     -23.780
     -24.416
     -23.214
     -23.009
     -24.678
     -27.072
     -28.132
     -25.961
     -19.551
      -9.404
       2.252
      12.331
      18.700
      21.510
      22.678
      23.943
      25.421
      25.923
      24.373
      20.757
      15.904
      10.735
       5.857
       1.642
      -1.672
      -4.026
      -5.478
      -5.977
      -5.304
      -3.409
      -0.851
       1.151
       1.276
      -1.098
      -5.475
     -10.474
     -14.468
     -16.253
     -15.517
     -12.918
      -9.566
      -6.251
      -3.143
      -0.306
       1.664
       1.875
       0.163
      -2.294
      -3.680
      -2.995
      -0.784
       1.650
       3.736
       6.180
       9.772
      13.727
      15.658
      13.626
       8.295
       2.876
       0.697
       2.540
       6.122
       8.140
       7.008
       3.897
       1.340
       0.801
       1.318
       0.331
      -4.001
     -10.910
     -17.269
     -20.037
     -18.887
     -16.512
     -16.032
     -17.844
     -19.025
     -15.978
      -7.772
       2.936
      11.988
      16.702
      17.288
      16.032
      15.298
      15.836
      16.364
      14.694
       9.773
       3.026
      -2.467
      -4.547
      -3.839
      -2.833
      -3.112
      -3.786
      -2.788
       0.564
       4.661
       7.273
       7.771
       7.352
       7.153
       6.567
       3.834
      -1.685
      -8.170
     -12.602
     -13.363
     -11.466
      -9.218
      -7.805
      -6.333
      -3.270
       1.305
       5.136
       5.618
       2.165
      -3.199
      -7.408
      -8.433
      -6.232
      -2.258
       1.717
       4.573
       6.183
       7.167
       8.212
       9.368
       9.918
       9.038
       6.692
       3.793
       1.327
      -0.636
      -2.848
      -5.732
      -8.549
      -9.931
      -9.168
      -6.706
      -3.386
       0.457
       4.904
       9.680
      13.740
      15.692
      14.584
      10.394
       3.943
      -3.503
     -10.617
     -16.267
     -19.768
     -21.042
     -20.405
     -18.060
     -13.846
      -7.665
      -0.348
       6.006
       9.016
       7.846
       4.177
       1.191
       1.288
       4.462
       8.553
      10.992
      10.612
       8.186
       5.449
       3.566
       2.452
       1.472
       0.614
       0.684
       2.236
       4.442
       5.299
       3.315
      -0.806
      -4.357
      -4.918
      -2.682
      -0.401
      -0.865
      -4.332
      -8.335
      -9.925
      -8.155
      -4.633
      -1.904
      -1.375
      -2.540
      -3.794
      -3.780
      -2.243
      -0.046
       1.529
       1.803
       1.416
       1.897
       4.183
       7.464
       9.718
       9.482
       7.053
       3.982
       1.663
       0.500
       0.152
       0.138
       0.102
      -0.240
      -1.127
      -2.596
      -4.249
      -5.235
      -4.689
      -2.475
       0.402
       2.381
       2.607
       1.681
       1.031
       1.450
       2.315
       2.344
       0.967
      -1.164
      -2.922
      -3.673
      -3.523
      -2.891
      -2.137
      -1.510
      -1.154
      -1.071
      -1.273
      -1.991
      -3.452
      -5.253
      -6.219
      -5.268
      -2.445
       1.196
       4.779
       8.403
      12.523
      16.698
      19.293
      18.636
      14.465
       8.276
       2.278
      -2.162
      -5.271
      -8.184
     -11.436
     -14.075
     -14.386
     -11.662
      -7.226
      -3.480
      -1.821
      -1.590
      -1.067
       0.655
       2.846
       3.995
       3.244
       1.097
      -0.987
      -1.627
      -0.460
       1.594
       2.946
       2.415
      -0.090
      -3.745
      -7.442
     -10.146
     -10.940
      -9.230
      -5.231
      -0.228
       3.951
