Origin Time       01/04/2014 17:45:09 UTC
Lat.              26.4 N	
Long.             92.4 E	
Depth (Km)         33.0
Magnitude         4.4
 Region           Naogaon-Assam                                                    
 Above details taken from IMD 
    
Station Code      TZP
Station Lat.       26.619  N
Station Long.      92.797  E
Station Height(m)   76.0
Site Class        B   Vs30 between 375 m/sec to 700 m/sec *  
Record Time       01.04.2014 17:44:53.539 UTC
Sampling Rate     200. Hz
 Record Duration   88.985 Sec.
 Direction         N-S (N positive)
Max. Acceleration      4.022 cm/sec**2
     
  * For reference see Site Classification link of website 
     
 Base Line Corrected and Low Pass Filtered (Cut Off at 35 Hz) Time History
 Acceleration data in cm/sec**2
    
[...]
      -0.052
      -0.025
      -0.036
      -0.085
      -0.098
      -0.006
       0.173
       0.328
       0.350
       0.235
       0.089
       0.032
       0.090
       0.190
       0.231
       0.166
       0.017
      -0.150
      -0.268
      -0.306
      -0.281
      -0.246
      -0.238
      -0.245
      -0.223
      -0.148
      -0.056
      -0.011
      -0.038
      -0.087
      -0.073
       0.045
       0.221
       0.367
       0.418
       0.371
       0.263
       0.130
      -0.004
      -0.119
      -0.189
      -0.198
      -0.149
      -0.068
       0.018
       0.095
       0.159
       0.190
       0.160
       0.069
      -0.024
      -0.033
       0.074
       0.223
       0.280
       0.156
      -0.108
      -0.376
      -0.523
      -0.519
      -0.423
      -0.309
      -0.199
      -0.075
       0.059
       0.146
       0.121
       0.003
      -0.090
      -0.033
       0.183
       0.421
       0.515
       0.421
       0.239
       0.098
       0.035
      -0.014
      -0.112
      -0.236
      -0.304
      -0.267
      -0.164
      -0.088
      -0.101
      -0.185
      -0.258
      -0.237
      -0.110
       0.049
       0.132
       0.085
      -0.040
      -0.123
      -0.074
       0.110
       0.359
       0.588
       0.721
       0.692
       0.474
       0.136
      -0.151
      -0.222
      -0.067
       0.142
       0.191
       0.013
      -0.264
      -0.441
      -0.427
      -0.278
      -0.105
       0.035
       0.155
       0.255
       0.284
       0.179
      -0.034
      -0.223
      -0.247
      -0.099
       0.089
       0.153
       0.040
      -0.176
      -0.363
      -0.424
      -0.323
      -0.090
       0.200
       0.436
       0.506
       0.361
       0.055
      -0.266
      -0.456
      -0.461
      -0.339
      -0.188
      -0.068
       0.011
       0.053
       0.065
       0.078
       0.158
       0.341
       0.567
       0.698
       0.625
       0.376
       0.108
      -0.018
       0.032
       0.143
       0.153
       0.000
      -0.238
      -0.422
      -0.462
      -0.377
      -0.253
      -0.172
      -0.166
      -0.208
      -0.256
      -0.283
      -0.296
      -0.310
      -0.324
      -0.315
      -0.269
      -0.198
      -0.132
      -0.076
       0.007
       0.164
       0.383
       0.574
       0.624
       0.501
       0.280
       0.083
      -0.015
      -0.017
       0.024
       0.066
       0.105
       0.158
       0.238
       0.348
       0.475
       0.592
       0.659
       0.637
       0.512
       0.303
       0.049
      -0.214
      -0.466
      -0.685
      -0.839
      -0.885
      -0.797
      -0.591
      -0.325
      -0.073
       0.104
       0.189
       0.213
       0.233
       0.278
       0.312
       0.257
       0.073
      -0.179
      -0.376
      -0.430
      -0.353
      -0.232
      -0.144
      -0.099
      -0.052
       0.038
       0.163
       0.260
       0.260
       0.146
      -0.020
      -0.128
      -0.101
       0.037
       0.171
       0.181
       0.044
      -0.151
      -0.280
      -0.282
      -0.186
      -0.062
       0.039
       0.109
       0.161
       0.192
       0.169
       0.072
      -0.055
      -0.112
      -0.026
       0.164
       0.317
       0.299
       0.097
      -0.152
      -0.262
      -0.144
       0.119
       0.339
       0.379
       0.260
       0.113
       0.039
       0.029
      -0.002
      -0.104
      -0.225
      -0.261
      -0.157
       0.030
       0.167
       0.149
      -0.018
      -0.217
      -0.319
      -0.284
      -0.170
      -0.056
       0.023
       0.066
       0.059
      -0.017
      -0.130
      -0.188
      -0.110
       0.079
       0.251
       0.291
       0.195
       0.065
      -0.001
       0.012
       0.042
       0.026
      -0.030
      -0.070
      -0.060
      -0.047
      -0.107
      -0.242
      -0.328
      -0.220
       0.095
       0.453
       0.632
       0.522
       0.190
      -0.195
      -0.477
      -0.566
      -0.455
      -0.212
       0.038
       0.178
       0.167
       0.051
      -0.081
      -0.163
      -0.171
      -0.110
       0.009
       0.169
       0.337
       0.446
       0.414
       0.204
      -0.101
      -0.326
      -0.324
      -0.107
       0.163
       0.300
       0.239
       0.065
      -0.094
      -0.178
      -0.209
      -0.231
      -0.249
      -0.231
      -0.175
      -0.119
      -0.103
      -0.112
      -0.081
       0.032
       0.197
       0.327
       0.364
       0.335
       0.303
       0.291
       0.247
       0.118
      -0.069
      -0.217
      -0.260
      -0.227
      -0.202
      -0.221
      -0.233
      -0.178
      -0.060
       0.044
       0.055
      -0.030
      -0.139
      -0.170
      -0.065
       0.151
       0.387
       0.527
       0.485
       0.246
      -0.112
      -0.431
      -0.555
      -0.440
      -0.194
       0.005
       0.042
      -0.063
      -0.192
      -0.212
      -0.059
       0.236
       0.572
       0.827
       0.912
       0.792
       0.486
       0.062
      -0.370
      -0.689
      -0.806
      -0.716
      -0.499
      -0.273
      -0.131
      -0.101
      -0.142
      -0.166
      -0.087
       0.115
       0.354
       0.482
       0.400
       0.158
      -0.068
      -0.108
       0.056
       0.270
       0.346
       0.214
      -0.028
      -0.225
      -0.294
      -0.264
      -0.206
      -0.152
      -0.084
       0.009
       0.086
       0.086
       0.000
      -0.088
      -0.065
       0.102
       0.308
       0.370
       0.171
      -0.214
      -0.563
      -0.674
      -0.526
      -0.258
      -0.029
       0.102
       0.154
       0.137
       0.039
      -0.099
      -0.165
      -0.067
       0.143
       0.295
       0.239
      -0.012
      -0.282
      -0.375
      -0.224
       0.073
       0.343
       0.470
       0.446
       0.328
       0.181
       0.052
      -0.020
      -0.026
       0.010
       0.050
       0.082
       0.109
       0.112
       0.036
      -0.150
      -0.377
      -0.482
      -0.333
       0.030
       0.392
       0.525
       0.376
       0.111
      -0.052
      -0.037
       0.042
       0.038
      -0.056
      -0.117
      -0.056
       0.065
       0.100
      -0.011
      -0.180
      -0.257
      -0.195
      -0.090
      -0.071
      -0.156
      -0.240
      -0.210
      -0.055
       0.133
       0.253
       0.268
       0.207
       0.110
      -0.013
      -0.170
      -0.348
      -0.488
      -0.507
      -0.384
      -0.212
      -0.146
      -0.246
      -0.409
      -0.451
      -0.286
      -0.004
       0.217
       0.283
       0.263
       0.306
       0.481
       0.696
       0.775
       0.618
       0.284
      -0.059
      -0.276
      -0.351
      -0.371
      -0.428
      -0.529
      -0.589
      -0.509
      -0.276
       0.001
       0.172
       0.178
       0.116
       0.161
       0.400
       0.721
       0.887
       0.743
       0.376
       0.051
      -0.022
       0.131
       0.287
       0.237
      -0.033
      -0.343
      -0.493
      -0.428
      -0.270
      -0.190
      -0.262
      -0.416
      -0.523
      -0.510
      -0.395
      -0.236
      -0.066
       0.107
       0.269
       0.398
       0.494
       0.579
       0.656
       0.691
       0.634
       0.463
       0.191
      -0.136
      -0.452
      -0.670
      -0.709
      -0.559
      -0.313
      -0.141
      -0.182
      -0.440
      -0.761
      -0.916
      -0.745
      -0.270
       0.308
       0.751
       0.938
       0.908
       0.771
       0.594
       0.394
       0.196
       0.050
      -0.019
      -0.061
      -0.160
      -0.345
      -0.539
      -0.616
      -0.516
      -0.304
      -0.124
      -0.085
      -0.163
      -0.230
      -0.173
      -0.001
       0.171
       0.243
       0.234
       0.250
       0.364
       0.534
       0.621
       0.508
       0.202
      -0.153
      -0.378
      -0.401
      -0.301
      -0.227
      -0.257
      -0.351
      -0.406
      -0.342
      -0.151
       0.114
       0.347
       0.425
       0.281
       0.010
      -0.144
       0.021
       0.455
       0.838
       0.836
       0.387
      -0.244
      -0.679
      -0.728
      -0.500
      -0.266
      -0.203
      -0.272
      -0.303
      -0.188
       0.046
       0.305
       0.516
       0.638
       0.638
       0.494
       0.232
      -0.067
      -0.300
      -0.392
      -0.335
      -0.201
      -0.101
      -0.108
      -0.207
      -0.332
      -0.437
      -0.512
      -0.524
      -0.397
      -0.081
       0.343
       0.684
       0.789
       0.664
       0.453
       0.287
       0.172
       0.012
      -0.251
      -0.543
      -0.705
      -0.659
      -0.489
      -0.346
      -0.274
      -0.161
       0.131
       0.593
       1.033
       1.210
       1.019
       0.565
       0.087
      -0.199
      -0.224
      -0.062
       0.159
       0.326
       0.329
       0.079
      -0.411
      -0.965
      -1.338
      -1.397
      -1.218
      -0.987
      -0.824
      -0.698
      -0.493
      -0.133
       0.343
       0.797
       1.090
       1.156
       1.015
       0.710
       0.268
      -0.267
      -0.799
      -1.222
      -1.513
      -1.746
      -1.986
      -2.168
      -2.126
      -1.746
      -1.086
      -0.358
       0.207
       0.492
       0.526
       0.418
       0.257
       0.074
      -0.099
      -0.172
      -0.056
       0.199
       0.356
       0.170
      -0.357
      -0.898
      -1.027
      -0.547
       0.378
       1.383
       2.179
       2.702
       3.042
       3.269
       3.359
       3.248
       2.940
       2.533
       2.141
       1.796
       1.452
       1.066
       0.677
       0.415
       0.401
       0.616
       0.855
       0.832
       0.377
      -0.420
      -1.262
      -1.848
      -2.059
      -1.989
      -1.799
      -1.538
      -1.092
      -0.325
       0.715
       1.754
       2.445
       2.583
       2.205
       1.523
       0.804
       0.231
      -0.169
      -0.511
      -0.920
      -1.384
      -1.735
      -1.821
      -1.692
      -1.582
      -1.671
      -1.849
      -1.794
      -1.318
      -0.644
      -0.277
      -0.549
      -1.289
      -1.979
      -2.255
      -2.231
      -2.322
      -2.745
      -3.229
      -3.234
      -2.451
      -1.106
       0.228
       1.085
       1.402
       1.439
       1.454
       1.472
       1.315
       0.851
       0.183
      -0.385
      -0.598
      -0.458
      -0.215
      -0.135
      -0.281
      -0.506
      -0.631
      -0.610
      -0.495
      -0.280
       0.166
       0.942
       1.897
       2.626
       2.740
       2.201
       1.375
       0.759
       0.615
       0.836
       1.114
       1.232
       1.200
       1.142
       1.129
       1.141
       1.175
       1.303
       1.563
       1.800
       1.691
       1.031
       0.019
      -0.787
      -0.899
      -0.322
       0.445
       0.848
       0.745
       0.470
       0.451
       0.763
       1.027
       0.745
      -0.241
      -1.582
      -2.668
      -3.090
      -2.913
      -2.560
      -2.419
      -2.525
      -2.596
      -2.352
      -1.787
      -1.149
      -0.681
      -0.395
      -0.097
       0.361
       0.881
       1.164
       0.986
       0.449
      -0.054
      -0.163
       0.126
       0.454
       0.444
       0.115
      -0.075
       0.373
       1.488
       2.688
       3.162
       2.448
       0.761
      -1.188
      -2.658
      -3.295
      -3.202
      -2.728
      -2.196
      -1.755
      -1.370
      -0.898
      -0.231
       0.576
       1.267
       1.538
       1.292
       0.763
       0.392
       0.511
       1.094
       1.797
       2.226
       2.214
       1.872
       1.425
       1.021
       0.685
       0.396
       0.164
       0.026
      -0.002
       0.029
       0.009
      -0.169
      -0.532
      -0.976
      -1.298
      -1.293
      -0.881
      -0.180
       0.525
       0.932
       0.910
       0.586
       0.221
      -0.009
      -0.124
      -0.253
      -0.449
      -0.604
      -0.535
      -0.118
       0.631
       1.551
       2.370
       2.760
       2.447
       1.370
      -0.216
      -1.810
      -2.913
      -3.308
      -3.136
      -2.708
      -2.239
      -1.762
      -1.256
      -0.810
      -0.587
      -0.664
      -0.930
      -1.158
      -1.150
      -0.829
      -0.220
       0.582
       1.427
       2.100
       2.356
       2.051
       1.275
       0.363
      -0.295
      -0.529
      -0.517
      -0.617
      -1.020
      -1.518
      -1.642
      -1.051
       0.173
       1.600
       2.777
       3.470
       3.643
       3.295
       2.401
       1.048
      -0.421
      -1.469
      -1.658
      -0.960
       0.190
       1.156
       1.485
       1.115
       0.321
      -0.506
      -1.051
      -1.186
      -0.997
      -0.718
      -0.592
      -0.712
      -0.960
      -1.110
      -1.007
      -0.698
      -0.394
      -0.289
      -0.398
      -0.544
      -0.516
      -0.248
       0.117
       0.328
       0.215
      -0.167
      -0.561
      -0.694
      -0.486
      -0.113
       0.150
       0.140
      -0.101
      -0.416
      -0.674
      -0.828
      -0.895
      -0.920
      -0.962
      -1.054
      -1.119
      -0.934
      -0.236
       1.031
       2.545
       3.709
       4.022
       3.431
       2.374
       1.440
       0.956
       0.847
       0.837
       0.730
       0.502
       0.204
      -0.135
      -0.472
      -0.669
      -0.538
      -0.026
       0.615
       0.922
       0.593
      -0.189
      -0.825
      -0.791
      -0.100
       0.697
       0.977
       0.547
      -0.263
      -0.949
      -1.250
      -1.257
      -1.210
      -1.260
      -1.415
      -1.631
      -1.866
      -2.042
      -2.024
      -1.696
      -1.067
      -0.296
       0.376
       0.752
       0.773
       0.555
       0.310
       0.195
       0.195
       0.158
      -0.048
      -0.393
      -0.697
      -0.802
      -0.744
      -0.756
      -1.067
      -1.627
      -2.066
      -1.974
      -1.298
      -0.478
      -0.119
      -0.459
      -1.137
      -1.469
      -0.997
       0.158
       1.414
       2.179
       2.254
       1.883
       1.502
       1.433
       1.717
       2.160
       2.503
       2.593
       2.450
       2.200
       1.952
       1.709
       1.399
       0.992
       0.605
       0.475
       0.783
       1.468
       2.197
       2.549
       2.296
       1.552
       0.674
      -0.026
      -0.489
      -0.862
      -1.264
      -1.615
      -1.705
      -1.461
      -1.114
      -1.069
      -1.552
      -2.345
      -2.867
      -2.571
      -1.367
       0.253
       1.489
       1.727
       0.926
      -0.394
      -1.540
      -2.097
      -2.131
      -2.017
      -2.099
      -2.449
      -2.860
      -3.043
      -2.833
      -2.267
      -1.540
      -0.882
      -0.458
      -0.297
      -0.295
      -0.298
      -0.208
      -0.029
       0.192
       0.435
       0.707
       0.986
       1.187
       1.221
       1.092
       0.929
       0.902
       1.071
       1.308
       1.380
       1.167
       0.817
       0.671
       0.979
       1.651
       2.300
       2.553
       2.357
       1.985
       1.757
       1.747
       1.756
       1.525
       0.971
       0.273
      -0.257
      -0.399
      -0.157
       0.274
       0.669
       0.903
       0.953
       0.825
       0.518
       0.082
      -0.331
      -0.518
      -0.380
      -0.041
       0.210
       0.114
      -0.367
      -1.026
      -1.550
      -1.713
      -1.483
      -1.026
      -0.607
      -0.462
      -0.672
      -1.108
      -1.494
      -1.571
      -1.272
      -0.773
      -0.393
      -0.400
      -0.848
      -1.564
      -2.260
      -2.692
      -2.739
      -2.405
      -1.782
      -1.033
      -0.367
       0.046
       0.193
       0.257
       0.469
       0.867
       1.214
       1.192
       0.722
       0.080
      -0.327
      -0.302
      -0.015
       0.161
      -0.021
      -0.466
      -0.823
      -0.796
      -0.426
      -0.064
      -0.049
      -0.379
      -0.693
      -0.585
       0.051
       0.934
       1.658
       2.057
       2.307
       2.691
       3.257
       3.735
       3.787
       3.324
       2.567
       1.818
       1.222
       0.753
       0.357
       0.055
      -0.110
      -0.173
      -0.224
      -0.293
      -0.270
      -0.010
       0.487
       1.000
       1.228
       1.042
       0.585
       0.116
      -0.228
      -0.517
      -0.873
      -1.266
      -1.487
      -1.345
      -0.917
      -0.560
      -0.652
      -1.263
      -2.081
      -2.661
      -2.765
      -2.497
      -2.148
      -1.936
      -1.871
      -1.819
      -1.652
      -1.349
      -0.986
      -0.668
      -0.434
      -0.216
       0.112
       0.585
       1.045
       1.209
       0.921
       0.347
      -0.101
      -0.114
       0.231
       0.538
       0.468
       0.057
      -0.337
      -0.374
      -0.011
       0.510
       0.905
       1.057
       1.049
       1.032
       1.067
       1.066
       0.883
       0.462
      -0.072
      -0.468
      -0.517
      -0.190
       0.330
       0.756
       0.881
       0.726
       0.525
       0.537
       0.829
       1.229
       1.469
       1.387
       1.033
       0.624
       0.390
       0.384
       0.393
       0.081
      -0.695
      -1.674
      -2.324
      -2.242
      -1.466
      -0.436
       0.338
       0.606
       0.470
       0.236
       0.154
       0.266
       0.435
       0.500
       0.404
       0.200
      -0.019
      -0.167
      -0.183
      -0.054
       0.140
       0.228
       0.051
      -0.407
      -0.964
      -1.332
      -1.310
      -0.925
      -0.403
       0.010
       0.219
       0.298
       0.369
       0.470
       0.520
       0.403
       0.070
      -0.429
      -0.989
      -1.487
      -1.812
      -1.874
      -1.648
      -1.196
      -0.658
      -0.202
       0.053
       0.097
       0.059
       0.136
       0.460
       0.987
       1.525
       1.866
       1.914
       1.704
       1.321
       0.838
       0.340
      -0.035
      -0.149
       0.008
       0.263
       0.370
       0.210
      -0.118
      -0.398
      -0.495
      -0.449
      -0.382
      -0.351
      -0.298
      -0.154
       0.044
       0.153
       0.052
      -0.240
      -0.568
      -0.735
      -0.621
      -0.244
       0.250
       0.666
       0.861
       0.815
       0.605
       0.334
       0.076
      -0.118
      -0.205
      -0.184
      -0.135
      -0.182
      -0.384
      -0.643
      -0.737
      -0.464
       0.185
       0.968
       1.504
       1.507
       0.974
       0.205
      -0.383
      -0.508
      -0.185
       0.310
       0.641
       0.638
       0.383
       0.121
       0.070
       0.297
       0.715
       1.142
       1.371
       1.225
       0.637
      -0.278
      -1.217
      -1.818
      -1.862
      -1.414
      -0.787
      -0.352
      -0.324
      -0.658
      -1.110
      -1.412
      -1.434
