Origin Time       21/08/2013 06:57:20 UTC
Lat.              26.7 N	
Long.             92.5 E	
Depth (Km)         30.0
Magnitude         4.2
 Region           Sonitpur-Assam                                                   
 Above details taken from IMD 
    
Station Code      TZP
Station Lat.       26.619  N
Station Long.      92.797  E
Station Height(m)   76.0
Site Class        B   Vs30 between 375 m/sec to 700 m/sec *  
Record Time       21.08.2013 06:57:04.889 UTC
Sampling Rate     200. Hz
 Record Duration   82.320 Sec.
 Direction         N-S (N positive)
Max. Acceleration    -11.227 cm/sec**2
     
  * For reference see Site Classification link of website 
     
 Base Line Corrected and Low Pass Filtered (Cut Off at 35 Hz) Time History
 Acceleration data in cm/sec**2
    
[...]
      -0.548
      -0.629
      -0.495
      -0.238
       0.013
       0.187
       0.285
       0.320
       0.296
       0.224
       0.148
       0.110
       0.111
       0.110
       0.084
       0.053
       0.051
       0.070
       0.055
      -0.034
      -0.184
      -0.331
      -0.402
      -0.357
      -0.215
      -0.056
       0.012
      -0.069
      -0.246
      -0.375
      -0.313
      -0.023
       0.383
       0.708
       0.790
       0.610
       0.288
      -0.020
      -0.219
      -0.300
      -0.283
      -0.188
      -0.052
       0.044
       0.019
      -0.122
      -0.278
      -0.322
      -0.211
      -0.009
       0.166
       0.228
       0.172
       0.058
      -0.042
      -0.082
      -0.062
      -0.008
       0.031
       0.010
      -0.085
      -0.206
      -0.254
      -0.158
       0.054
       0.246
       0.286
       0.169
       0.035
       0.037
       0.193
       0.360
       0.362
       0.142
      -0.190
      -0.444
      -0.494
      -0.359
      -0.166
      -0.040
      -0.013
      -0.034
      -0.036
       0.007
       0.089
       0.196
       0.315
       0.408
       0.413
       0.280
       0.024
      -0.259
      -0.445
      -0.472
      -0.377
      -0.254
      -0.164
      -0.095
       0.002
       0.139
       0.269
       0.332
       0.312
       0.251
       0.201
       0.157
       0.058
      -0.140
      -0.372
      -0.472
      -0.316
       0.024
       0.289
       0.234
      -0.138
      -0.542
      -0.630
      -0.290
       0.250
       0.614
       0.575
       0.209
      -0.200
      -0.394
      -0.305
      -0.039
       0.238
       0.399
       0.371
       0.141
      -0.220
      -0.535
      -0.602
      -0.334
       0.147
       0.571
       0.715
       0.544
       0.206
      -0.117
      -0.327
      -0.418
      -0.400
      -0.267
      -0.050
       0.141
       0.179
       0.044
      -0.135
      -0.172
      -0.002
       0.249
       0.360
       0.213
      -0.116
      -0.420
      -0.526
      -0.401
      -0.143
       0.102
       0.221
       0.183
       0.045
      -0.077
      -0.062
       0.135
       0.436
       0.647
       0.576
       0.190
      -0.314
      -0.614
      -0.502
      -0.065
       0.353
       0.412
       0.041
      -0.504
      -0.834
      -0.725
      -0.277
       0.186
       0.384
       0.286
       0.088
      -0.003
       0.043
       0.096
       0.041
      -0.079
      -0.103
       0.063
       0.325
       0.462
       0.315
      -0.066
      -0.445
      -0.578
      -0.386
      -0.003
       0.334
       0.445
       0.306
       0.039
      -0.201
      -0.319
      -0.311
      -0.228
      -0.138
      -0.103
      -0.141
      -0.200
      -0.185
      -0.049
       0.142
       0.253
       0.199
       0.034
      -0.085
      -0.039
       0.147
       0.317
       0.316
       0.123
      -0.127
      -0.254
      -0.183
       0.004
       0.151
       0.185
       0.163
       0.188
       0.269
       0.309
       0.215
       0.000
      -0.220
      -0.325
      -0.274
      -0.115
       0.051
       0.131
       0.097
      -0.006
      -0.115
      -0.205
      -0.295
      -0.384
      -0.398
      -0.247
       0.057
       0.354
       0.444
       0.264
      -0.040
      -0.230
      -0.161
       0.109
       0.361
       0.380
       0.130
      -0.201
      -0.349
      -0.220
       0.020
       0.104
      -0.057
      -0.286
      -0.317
      -0.075
       0.257
       0.426
       0.346
       0.133
      -0.062
      -0.207
      -0.353
      -0.483
      -0.466
      -0.202
       0.206
       0.461
       0.305
      -0.229
      -0.786
      -0.930
      -0.476
       0.354
       1.078
       1.287
       0.924
       0.278
      -0.258
      -0.449
      -0.319
      -0.051
       0.160
       0.204
       0.068
      -0.185
      -0.436
      -0.547
      -0.426
      -0.102
       0.254
       0.422
       0.280
      -0.093
      -0.440
      -0.503
      -0.208
       0.266
       0.604
       0.564
       0.143
      -0.416
      -0.769
      -0.680
      -0.168
       0.496
       0.952
       0.965
       0.562
       0.001
      -0.418
      -0.532
      -0.379
      -0.110
       0.119
       0.208
       0.125
      -0.083
      -0.295
      -0.378
      -0.282
      -0.081
       0.084
       0.125
       0.068
       0.017
       0.051
       0.149
       0.204
       0.112
      -0.136
      -0.426
      -0.584
      -0.486
      -0.128
       0.371
       0.817
       1.004
       0.807
       0.268
      -0.374
      -0.801
      -0.813
      -0.467
      -0.023
       0.250
       0.250
       0.062
      -0.157
      -0.296
      -0.328
      -0.261
      -0.111
       0.095
       0.300
       0.422
       0.406
       0.268
       0.095
      -0.010
      -0.015
       0.025
       0.031
      -0.025
      -0.089
      -0.088
      -0.008
       0.086
       0.110
       0.034
      -0.095
      -0.206
      -0.249
      -0.226
      -0.173
      -0.141
      -0.149
      -0.164
      -0.122
       0.003
       0.153
       0.237
       0.222
       0.172
       0.179
       0.264
       0.334
       0.269
       0.029
      -0.284
      -0.488
      -0.455
      -0.208
       0.109
       0.345
       0.420
       0.330
       0.099
      -0.229
      -0.548
      -0.677
      -0.455
       0.103
       0.731
       1.043
       0.809
       0.163
      -0.464
      -0.655
      -0.319
       0.246
       0.595
       0.485
       0.036
      -0.396
      -0.521
      -0.329
      -0.040
       0.104
       0.031
      -0.154
      -0.299
      -0.329
      -0.263
      -0.149
      -0.008
       0.134
       0.214
       0.171
       0.016
      -0.140
      -0.161
      -0.001
       0.264
       0.477
       0.500
       0.294
      -0.053
      -0.361
      -0.454
      -0.285
       0.022
       0.239
       0.211
      -0.017
      -0.232
      -0.238
      -0.037
       0.178
       0.205
       0.028
      -0.172
      -0.197
      -0.035
       0.132
       0.118
      -0.074
      -0.252
      -0.228
      -0.018
       0.171
       0.155
      -0.044
      -0.217
      -0.169
       0.107
       0.427
       0.580
       0.491
       0.274
       0.121
       0.141
       0.267
       0.324
       0.176
      -0.156
      -0.518
      -0.748
      -0.783
      -0.671
      -0.502
      -0.342
      -0.194
      -0.018
       0.198
       0.384
       0.411
       0.224
      -0.049
      -0.154
       0.073
       0.520
       0.850
       0.771
       0.291
      -0.271
      -0.536
      -0.377
      -0.011
       0.195
       0.035
      -0.359
      -0.648
      -0.571
      -0.160
       0.297
       0.491
       0.326
      -0.039
      -0.324
      -0.342
      -0.105
       0.206
       0.376
       0.299
       0.039
      -0.213
      -0.266
      -0.063
       0.264
       0.463
       0.344
      -0.067
      -0.517
      -0.697
      -0.463
       0.045
       0.511
       0.658
       0.423
      -0.040
      -0.470
      -0.645
      -0.471
      -0.013
       0.533
       0.915
       0.932
       0.548
      -0.058
      -0.569
      -0.710
      -0.432
       0.057
       0.441
       0.497
       0.223
      -0.205
      -0.559
      -0.689
      -0.574
      -0.301
       0.015
       0.284
       0.459
       0.515
       0.438
       0.235
      -0.033
      -0.251
      -0.313
      -0.203
      -0.021
       0.096
       0.069
      -0.073
      -0.233
      -0.325
      -0.323
      -0.251
      -0.134
       0.023
       0.208
       0.372
       0.446
       0.401
       0.275
       0.136
       0.024
      -0.067
      -0.156
      -0.220
      -0.206
      -0.100
       0.032
       0.082
      -0.008
      -0.193
      -0.374
      -0.479
      -0.489
      -0.415
      -0.264
      -0.047
       0.196
       0.397
       0.511
       0.547
       0.550
       0.541
       0.497
       0.397
       0.263
       0.156
       0.114
       0.120
       0.109
       0.022
      -0.149
      -0.360
      -0.530
      -0.584
      -0.492
      -0.306
      -0.134
      -0.073
      -0.144
      -0.282
      -0.377
      -0.335
      -0.128
       0.192
       0.505
       0.682
       0.652
       0.428
       0.098
      -0.208
      -0.353
      -0.254
       0.044
       0.362
       0.488
       0.341
       0.027
      -0.257
      -0.388
      -0.389
      -0.347
      -0.303
      -0.221
      -0.057
       0.160
       0.310
       0.269
       0.037
      -0.226
      -0.313
      -0.154
       0.102
       0.218
       0.090
      -0.158
      -0.298
      -0.226
      -0.049
       0.043
      -0.011
      -0.078
       0.022
       0.317
       0.643
       0.776
       0.616
       0.257
      -0.093
      -0.274
      -0.288
      -0.260
      -0.293
      -0.370
      -0.394
      -0.314
      -0.177
      -0.071
      -0.039
      -0.051
      -0.032
       0.083
       0.311
       0.585
       0.773
       0.749
       0.474
       0.046
      -0.336
      -0.484
      -0.356
      -0.115
      -0.018
      -0.212
      -0.590
      -0.862
      -0.797
      -0.413
       0.050
       0.347
       0.424
       0.416
       0.476
       0.600
       0.640
       0.468
       0.144
      -0.128
      -0.192
      -0.099
      -0.045
      -0.164
      -0.390
      -0.531
      -0.465
      -0.260
      -0.081
      -0.013
       0.022
       0.158
       0.407
       0.622
       0.637
       0.451
       0.238
       0.171
       0.239
       0.257
       0.047
      -0.360
      -0.721
      -0.780
      -0.496
      -0.092
       0.135
       0.068
      -0.131
      -0.185
       0.023
       0.321
       0.405
       0.138
      -0.297
      -0.547
      -0.395
       0.050
       0.452
       0.524
       0.238
      -0.184
      -0.473
      -0.503
      -0.338
      -0.125
       0.026
       0.096
       0.131
       0.167
       0.195
       0.167
       0.061
      -0.074
      -0.140
      -0.067
       0.116
       0.296
       0.350
       0.227
      -0.028
      -0.292
      -0.429
      -0.349
      -0.061
       0.311
       0.563
       0.523
       0.178
      -0.285
      -0.588
      -0.566
      -0.293
      -0.024
       0.012
      -0.189
      -0.396
      -0.335
       0.066
       0.585
       0.880
       0.771
       0.376
      -0.009
      -0.155
      -0.054
       0.134
       0.235
       0.193
       0.080
       0.008
       0.032
       0.123
       0.201
       0.198
       0.082
      -0.130
      -0.376
      -0.562
      -0.613
      -0.528
      -0.375
      -0.243
      -0.169
      -0.118
      -0.030
       0.110
       0.241
       0.279
       0.214
       0.138
       0.159
       0.276
       0.371
       0.324
       0.152
       0.000
      -0.002
       0.134
       0.266
       0.246
       0.026
      -0.323
      -0.657
      -0.829
      -0.776
      -0.565
      -0.354
      -0.263
      -0.274
      -0.265
      -0.130
       0.118
       0.379
       0.564
       0.656
       0.680
       0.644
       0.538
       0.383
       0.234
       0.125
       0.016
      -0.161
      -0.400
      -0.581
      -0.574
      -0.388
      -0.184
      -0.123
      -0.203
      -0.264
      -0.164
       0.060
       0.234
       0.240
       0.158
       0.186
       0.409
       0.663
       0.660
       0.263
      -0.348
      -0.779
      -0.733
      -0.268
       0.232
       0.353
       0.004
      -0.488
      -0.640
      -0.230
       0.499
       1.033
       1.002
       0.474
      -0.115
      -0.321
      -0.035
       0.452
       0.697
       0.452
      -0.159
      -0.754
      -0.989
      -0.796
      -0.382
      -0.043
       0.056
      -0.037
      -0.121
      -0.019
       0.279
       0.593
       0.694
       0.477
       0.039
      -0.375
      -0.528
      -0.335
       0.058
       0.345
       0.271
      -0.164
      -0.671
      -0.870
      -0.580
       0.051
       0.668
       0.973
       0.896
       0.571
       0.175
      -0.178
      -0.430
      -0.526
      -0.413
      -0.136
       0.121
       0.130
      -0.192
      -0.683
      -1.009
      -0.889
      -0.315
       0.383
       0.731
       0.460
      -0.245
      -0.829
      -0.771
      -0.005
       0.997
       1.566
       1.333
       0.482
      -0.422
      -0.831
      -0.554
       0.177
       0.879
       1.127
       0.792
       0.106
      -0.526
      -0.800
      -0.678
      -0.354
      -0.085
      -0.034
      -0.203
      -0.466
      -0.656
      -0.667
      -0.498
      -0.219
       0.085
       0.333
       0.434
       0.304
      -0.047
      -0.435
      -0.571
      -0.280
       0.261
       0.559
       0.171
      -0.876
      -2.014
      -2.516
      -2.035
      -0.832
       0.480
       1.394
       1.801
       1.915
       2.028
       2.316
       2.801
       3.353
       3.687
       3.447
       2.429
       0.815
      -0.864
      -2.107
      -2.835
      -3.419
      -4.250
      -5.263
      -5.927
      -5.723
      -4.667
      -3.328
      -2.309
      -1.688
      -0.956
       0.488
       2.771
       5.397
       7.620
       8.957
       9.385
       9.131
       8.351
       7.060
       5.310
       3.314
       1.297
      -0.760
      -3.113
      -5.896
      -8.737
     -10.786
     -11.227
      -9.875
      -7.331
      -4.549
      -2.158
      -0.142
       1.880
       4.059
       5.972
       6.833
       6.081
       3.882
       1.122
      -1.098
      -2.110
      -1.975
      -1.259
      -0.552
      -0.125
       0.092
       0.333
       0.808
       1.553
       2.330
       2.652
       2.000
       0.146
      -2.626
      -5.522
      -7.448
      -7.392
      -4.946
      -0.732
       3.642
       6.304
       6.185
       3.684
       0.386
      -2.000
      -2.695
      -2.150
      -1.471
      -1.520
      -2.367
      -3.401
      -3.857
      -3.292
      -1.746
       0.365
       2.490
       4.187
       5.303
       5.960
       6.345
       6.419
       5.835
       4.219
       1.626
      -1.239
      -3.321
      -3.899
      -3.068
      -1.624
      -0.452
      -0.008
      -0.264
      -1.014
      -2.078
      -3.211
      -3.946
      -3.716
      -2.288
      -0.115
       1.800
       2.565
       2.080
       1.161
       0.941
       1.977
       3.769
       5.082
       4.827
       2.833
      -0.043
      -2.490
      -3.513
      -2.897
      -1.191
       0.617
       1.543
       1.062
      -0.538
      -2.207
      -2.759
      -1.773
      -0.039
       0.961
       0.203
      -2.023
      -4.294
      -5.105
      -3.911
      -1.366
       1.268
       2.938
       3.229
       2.322
       0.780
      -0.625
      -1.138
      -0.390
       1.248
       2.717
       2.874
       1.297
      -1.319
      -3.554
      -4.168
      -2.883
      -0.501
       1.645
       2.469
       1.650
      -0.334
      -2.532
      -3.934
      -3.857
      -2.194
       0.499
       3.199
       4.843
       4.856
       3.467
       1.577
       0.194
      -0.240
      -0.135
      -0.351
      -1.381
      -2.810
      -3.589
      -2.934
      -1.038
       1.040
       2.237
       2.336
       2.065
       2.390
       3.596
       4.955
       5.240
       3.670
       0.534
      -2.967
      -5.484
      -6.286
      -5.494
      -3.752
      -1.735
       0.099
       1.447
       2.041
       1.753
       0.797
      -0.255
      -0.817
      -0.718
      -0.305
      -0.091
      -0.272
      -0.542
      -0.405
       0.309
       1.224
       1.726
       1.541
       1.017
       0.793
       1.189
       1.902
       2.326
       2.158
       1.670
       1.403
       1.593
       1.887
       1.633
       0.466
      -1.326
      -2.977
      -3.821
      -3.786
      -3.416
      -3.380
      -3.897
      -4.530
      -4.526
      -3.432
      -1.513
       0.370
       1.375
       1.319
       0.811
       0.760
       1.629
       3.073
       4.223
       4.346
       3.332
       1.692
       0.171
      -0.721
      -0.938
      -0.793
      -0.668
      -0.745
      -0.951
      -1.089
      -1.020
      -0.773
      -0.504
      -0.385
      -0.497
      -0.819
      -1.272
      -1.735
      -2.016
      -1.863
      -1.088
       0.264
       1.857
       3.211
       3.959
       4.014
       3.554
       2.863
       2.157
       1.476
       0.708
      -0.250
      -1.304
      -2.128
      -2.367
      -1.943
      -1.182
      -0.621
      -0.608
      -1.016
      -1.309
      -0.920
       0.336
       2.079
       3.554
       4.061
       3.386
       1.932
       0.449
      -0.488
      -0.860
      -1.134
      -1.791
      -2.843
      -3.774
      -3.927
      -3.015
      -1.330
       0.454
       1.698
       2.107
       1.775
       1.045
       0.302
      -0.178
      -0.327
      -0.272
      -0.205
      -0.211
      -0.222
      -0.141
      -0.012
      -0.008
      -0.252
      -0.639
      -0.860
      -0.647
      -0.024
       0.678
       1.057
       0.931
       0.441
      -0.101
      -0.466
      -0.639
      -0.762
      -0.958
      -1.228
      -1.479
      -1.628
      -1.636
      -1.480
      -1.105
      -0.458
       0.415
       1.323
       2.007
       2.273
       2.069
       1.464
       0.607
      -0.273
      -0.893
      -1.047
      -0.775
      -0.390
      -0.265
      -0.515
      -0.861
      -0.810
      -0.083
       1.086
       2.037
       2.159
       1.366
       0.180
      -0.655
      -0.704
      -0.110
       0.592
       0.908
       0.727
       0.327
       0.082
       0.174
       0.523
       0.944
       1.324
       1.649
       1.897
       1.943
       1.595
       0.777
      -0.304
      -1.178
      -1.387
      -0.829
       0.091
       0.701
       0.554
      -0.211
      -0.955
      -1.044
      -0.346
       0.661
       1.255
       0.994
      -0.007
      -1.204
      -2.002
      -2.115
      -1.668
      -1.035
      -0.545
      -0.289
      -0.145
       0.039
       0.261
       0.365
       0.221
      -0.078
      -0.247
      -0.074
       0.329
       0.577
       0.367
      -0.219
      -0.779
      -0.982
      -0.894
      -0.921
      -1.424
      -2.356
      -3.245
      -3.527
      -2.959
      -1.784
      -0.543
       0.300
       0.613
       0.577
       0.485
       0.538
       0.762
       1.060
       1.311
       1.424
       1.356
       1.124
       0.835
       0.683
       0.853
       1.367
       2.008
       2.416
       2.327
       1.764
       1.035
       0.523
       0.428
       0.644
       0.834
       0.651
      -0.045
      -1.092
      -2.091
      -2.586
      -2.293
      -1.292
      -0.058
       0.778
       0.833
       0.264
      -0.329
      -0.334
       0.432
       1.628
       2.667
       3.110
       2.883
       2.206
       1.382
       0.649
       0.131
      -0.155
      -0.298
      -0.464
      -0.788
      -1.256
      -1.674
      -1.826
      -1.686
      -1.495
      -1.568
      -1.987
      -2.489
