Origin Time       16/4/2013 01:23:19	
Lat.              26.3 N	
Long.             92.0 E	
Depth (Km)         16.0
Magnitude         4.6
 Region           Assam-Darrang                                                    
 Above details taken from IMD 
     
Station Code      TZP
Station Lat.       26.619  N
Station Long.      92.797  E
Station Height(m)   76.0
Site Class        B   Vs30 between 375 m/sec to 700 m/sec *  
Record Time       16.04.2013 01:23:29.389
Sampling Rate     200. Hz
 Record Duration   83.915 Sec.
 Direction         E-W (E positive)
Max. Acceleration      4.948 cm/sec**2
     
  * For reference see Site Classification link of website 
     
 Base Line Corrected and Low Pass Filtered (Cut Off at 35 Hz) Time History
 Acceleration data in cm/sec**2
    
[...]
      -0.361
      -0.410
      -0.358
      -0.240
      -0.125
      -0.070
      -0.087
      -0.133
      -0.139
      -0.060
       0.084
       0.219
       0.269
       0.209
       0.084
      -0.022
      -0.048
       0.001
       0.062
       0.073
       0.034
       0.004
       0.051
       0.192
       0.382
       0.548
       0.638
       0.642
       0.591
       0.526
       0.467
       0.404
       0.310
       0.179
       0.045
      -0.046
      -0.086
      -0.130
      -0.251
      -0.449
      -0.625
      -0.637
      -0.410
      -0.005
       0.411
       0.662
       0.667
       0.464
       0.161
      -0.135
      -0.366
      -0.520
      -0.614
      -0.662
      -0.662
      -0.605
      -0.486
      -0.322
      -0.152
      -0.021
       0.044
       0.045
       0.006
      -0.048
      -0.100
      -0.142
      -0.176
      -0.214
      -0.263
      -0.312
      -0.336
      -0.317
      -0.253
      -0.152
      -0.022
       0.136
       0.314
       0.481
       0.589
       0.592
       0.473
       0.273
       0.078
      -0.030
      -0.025
       0.056
       0.146
       0.193
       0.182
       0.122
       0.043
      -0.014
      -0.015
       0.036
       0.100
       0.131
       0.112
       0.060
      -0.001
      -0.064
      -0.132
      -0.202
      -0.255
      -0.270
      -0.238
      -0.178
      -0.124
      -0.098
      -0.092
      -0.071
      -0.011
       0.071
       0.136
       0.165
       0.170
       0.168
       0.157
       0.119
       0.058
      -0.001
      -0.031
      -0.032
      -0.030
      -0.056
      -0.114
      -0.169
      -0.164
      -0.052
       0.158
       0.392
       0.546
       0.538
       0.371
       0.129
      -0.063
      -0.112
      -0.001
       0.195
       0.351
       0.351
       0.156
      -0.162
      -0.467
      -0.631
      -0.602
      -0.422
      -0.188
       0.000
       0.077
       0.032
      -0.085
      -0.198
      -0.253
      -0.256
      -0.254
      -0.280
      -0.327
      -0.366
      -0.382
      -0.377
      -0.351
      -0.287
      -0.182
      -0.064
       0.012
       0.008
      -0.054
      -0.102
      -0.057
       0.107
       0.342
       0.560
       0.677
       0.652
       0.508
       0.314
       0.154
       0.079
       0.084
       0.119
       0.131
       0.097
       0.027
      -0.060
      -0.140
      -0.185
      -0.159
      -0.040
       0.154
       0.365
       0.529
       0.610
       0.608
       0.546
       0.445
       0.329
       0.221
       0.140
       0.091
       0.056
      -0.003
      -0.124
      -0.313
      -0.533
      -0.711
      -0.773
      -0.681
      -0.454
      -0.171
       0.067
       0.185
       0.160
       0.024
      -0.166
      -0.352
      -0.479
      -0.501
      -0.403
      -0.217
      -0.014
       0.139
       0.202
       0.173
       0.082
      -0.024
      -0.097
      -0.109
      -0.059
       0.021
       0.073
       0.040
      -0.090
      -0.253
      -0.355
      -0.337
      -0.230
      -0.123
      -0.079
      -0.089
      -0.093
      -0.035
       0.086
       0.233
       0.359
       0.441
       0.472
       0.452
       0.390
       0.312
       0.256
       0.243
       0.258
       0.265
       0.252
       0.245
       0.286
       0.370
       0.431
       0.395
       0.260
       0.114
       0.059
       0.110
       0.174
       0.131
      -0.058
      -0.320
      -0.528
      -0.597
      -0.535
      -0.415
      -0.313
      -0.257
      -0.226
      -0.180
      -0.095
       0.017
       0.109
       0.117
       0.001
      -0.218
      -0.439
      -0.535
      -0.444
      -0.224
      -0.014
       0.065
      -0.006
      -0.144
      -0.230
      -0.197
      -0.068
       0.067
       0.121
       0.069
      -0.039
      -0.122
      -0.127
      -0.058
       0.029
       0.067
       0.017
      -0.118
      -0.286
      -0.414
      -0.445
      -0.368
      -0.199
       0.036
       0.310
       0.572
       0.745
       0.775
       0.675
       0.527
       0.417
       0.371
       0.348
       0.301
       0.217
       0.120
       0.031
      -0.046
      -0.111
      -0.139
      -0.101
      -0.003
       0.099
       0.134
       0.075
      -0.033
      -0.121
      -0.152
      -0.152
      -0.167
      -0.215
      -0.272
      -0.290
      -0.247
      -0.158
      -0.073
      -0.039
      -0.066
      -0.113
      -0.117
      -0.042
       0.077
       0.159
       0.134
       0.000
      -0.170
      -0.281
      -0.286
      -0.202
      -0.086
       0.006
       0.049
       0.037
      -0.023
      -0.115
      -0.214
      -0.290
      -0.319
      -0.302
      -0.257
      -0.201
      -0.139
      -0.068
       0.005
       0.066
       0.102
       0.111
       0.114
       0.149
       0.254
       0.418
       0.569
       0.603
       0.466
       0.198
      -0.086
      -0.277
      -0.331
      -0.278
      -0.173
      -0.057
       0.041
       0.097
       0.091
       0.038
      -0.019
      -0.042
      -0.024
       0.024
       0.092
       0.181
       0.270
       0.312
       0.247
       0.055
      -0.215
      -0.441
      -0.496
      -0.333
      -0.026
       0.264
       0.401
       0.352
       0.181
      -0.017
      -0.171
      -0.247
      -0.227
      -0.120
       0.026
       0.129
       0.130
       0.038
      -0.073
      -0.122
      -0.075
       0.040
       0.152
       0.191
       0.121
      -0.032
      -0.192
      -0.269
      -0.231
      -0.127
      -0.048
      -0.045
      -0.091
      -0.110
      -0.060
       0.022
       0.050
      -0.021
      -0.155
      -0.274
      -0.335
      -0.357
      -0.381
      -0.411
      -0.400
      -0.296
      -0.096
       0.132
       0.290
       0.315
       0.214
       0.047
      -0.126
      -0.268
      -0.352
      -0.345
      -0.221
      -0.004
       0.227
       0.380
       0.421
       0.395
       0.380
       0.428
       0.524
       0.603
       0.584
       0.435
       0.202
       0.002
      -0.059
       0.042
       0.225
       0.367
       0.388
       0.300
       0.176
       0.084
       0.045
       0.040
       0.050
       0.077
       0.115
       0.135
       0.098
       0.003
      -0.100
      -0.145
      -0.099
       0.009
       0.106
       0.124
       0.032
      -0.143
      -0.339
      -0.496
      -0.584
      -0.590
      -0.516
      -0.382
      -0.230
      -0.122
      -0.098
      -0.151
      -0.231
      -0.278
      -0.251
      -0.144
       0.005
       0.119
       0.113
      -0.051
      -0.314
      -0.546
      -0.637
      -0.572
      -0.428
      -0.307
      -0.254
      -0.243
      -0.213
      -0.136
      -0.037
       0.031
       0.043
       0.018
       0.014
       0.077
       0.214
       0.378
       0.494
       0.498
       0.378
       0.189
       0.017
      -0.070
      -0.069
      -0.023
       0.015
       0.034
       0.061
       0.131
       0.241
       0.347
       0.391
       0.350
       0.251
       0.155
       0.120
       0.181
       0.319
       0.465
       0.530
       0.465
       0.301
       0.125
       0.013
      -0.020
      -0.015
      -0.017
      -0.031
      -0.031
       0.008
       0.078
       0.145
       0.183
       0.201
       0.230
       0.291
       0.364
       0.392
       0.324
       0.156
      -0.056
      -0.230
      -0.296
      -0.233
      -0.079
       0.083
       0.160
       0.098
      -0.080
      -0.280
      -0.383
      -0.320
      -0.127
       0.074
       0.174
       0.167
       0.147
       0.207
       0.346
       0.476
       0.520
       0.493
       0.486
       0.577
       0.755
       0.928
       0.982
       0.875
       0.662
       0.465
       0.379
       0.414
       0.510
       0.603
       0.677
       0.746
       0.799
       0.773
       0.599
       0.264
      -0.153
      -0.529
      -0.779
      -0.895
      -0.929
      -0.947
      -0.997
      -1.093
      -1.219
      -1.348
      -1.455
      -1.536
      -1.585
      -1.583
      -1.499
      -1.321
      -1.087
      -0.881
      -0.778
      -0.813
      -0.963
      -1.177
      -1.387
      -1.529
      -1.564
      -1.502
      -1.407
      -1.353
      -1.373
      -1.433
      -1.456
      -1.371
      -1.166
      -0.885
      -0.602
      -0.371
      -0.213
      -0.130
      -0.123
      -0.193
      -0.331
      -0.508
      -0.685
      -0.826
      -0.909
      -0.938
      -0.936
      -0.925
      -0.888
      -0.770
      -0.510
      -0.083
       0.479
       1.107
       1.714
       2.213
       2.534
       2.641
       2.564
       2.396
       2.246
       2.184
       2.213
       2.293
       2.408
       2.589
       2.874
       3.243
       3.593
       3.795
       3.780
       3.589
       3.333
       3.118
       2.991
       2.938
       2.916
       2.871
       2.738
       2.444
       1.937
       1.222
       0.377
      -0.471
      -1.200
      -1.751
      -2.136
      -2.418
      -2.650
      -2.828
      -2.893
      -2.769
      -2.431
      -1.939
      -1.428
      -1.046
      -0.887
      -0.958
      -1.196
      -1.525
      -1.906
      -2.345
      -2.846
      -3.369
      -3.832
      -4.159
      -4.329
      -4.381
      -4.375
      -4.332
      -4.211
      -3.927
      -3.410
      -2.659
      -1.751
      -0.816
       0.004
       0.596
       0.913
       0.990
       0.929
       0.854
       0.852
       0.933
       1.031
       1.074
       1.047
       1.009
       1.034
       1.131
       1.235
       1.273
       1.240
       1.201
       1.232
       1.360
       1.554
       1.766
       1.960
       2.121
       2.230
       2.259
       2.168
       1.935
       1.583
       1.178
       0.805
       0.534
       0.400
       0.393
       0.459
       0.530
       0.558
       0.549
       0.553
       0.613
       0.735
       0.890
       1.056
       1.250
       1.508
       1.821
       2.092
       2.171
       1.973
       1.554
       1.064
       0.611
       0.169
      -0.381
      -1.100
      -1.892
      -2.542
      -2.876
      -2.886
      -2.711
      -2.508
      -2.334
      -2.150
      -1.903
      -1.587
      -1.210
      -0.745
      -0.134
       0.646
       1.518
       2.327
       2.900
       3.100
       2.853
       2.174
       1.190
       0.117
      -0.832
      -1.552
      -2.066
      -2.446
      -2.710
      -2.781
      -2.561
      -2.025
      -1.268
      -0.455
       0.263
       0.812
       1.200
       1.473
       1.671
       1.795
       1.804
       1.646
       1.294
       0.790
       0.236
      -0.266
      -0.668
      -0.990
      -1.277
      -1.537
      -1.722
      -1.769
      -1.657
      -1.435
      -1.194
      -1.013
      -0.917
      -0.874
      -0.833
      -0.761
      -0.661
      -0.572
      -0.545
      -0.611
      -0.746
      -0.865
      -0.867
      -0.715
      -0.478
      -0.288
      -0.229
      -0.276
      -0.312
      -0.224
       0.016
       0.337
       0.617
       0.750
       0.704
       0.542
       0.379
       0.307
       0.348
       0.469
       0.630
       0.813
       1.030
       1.306
       1.663
       2.086
       2.505
       2.805
       2.865
       2.613
       2.063
       1.319
       0.549
      -0.068
      -0.405
      -0.422
      -0.180
       0.184
       0.508
       0.680
       0.684
       0.583
       0.441
       0.262
      -0.001
      -0.366
      -0.750
      -0.996
      -0.954
      -0.574
       0.066
       0.806
       1.461
       1.888
       2.012
       1.830
       1.403
       0.837
       0.263
      -0.212
      -0.547
      -0.779
      -0.988
      -1.241
      -1.551
      -1.882
      -2.177
      -2.393
      -2.506
      -2.514
      -2.430
      -2.267
      -2.027
      -1.704
      -1.303
      -0.869
      -0.485
      -0.234
      -0.158
      -0.245
      -0.437
      -0.651
      -0.795
      -0.790
      -0.616
      -0.355
      -0.179
      -0.261
      -0.656
      -1.248
      -1.800
      -2.072
      -1.929
      -1.390
      -0.602
       0.233
       0.951
       1.483
       1.833
       2.008
       1.978
       1.697
       1.185
       0.549
      -0.060
      -0.546
      -0.898
      -1.137
      -1.242
      -1.127
      -0.707
       0.004
       0.859
       1.648
       2.224
       2.574
       2.799
       3.007
       3.224
       3.372
       3.348
       3.105
       2.695
       2.234
       1.846
       1.620
       1.574
       1.648
       1.729
       1.712
       1.560
       1.316
       1.058
       0.847
       0.700
       0.572
       0.371
       0.002
      -0.558
      -1.216
      -1.791
      -2.118
      -2.134
      -1.907
      -1.591
      -1.343
      -1.245
      -1.273
      -1.320
      -1.272
      -1.082
      -0.808
      -0.600
      -0.628
      -1.006
      -1.732
      -2.676
      -3.633
      -4.397
      -4.831
      -4.905
      -4.671
      -4.231
      -3.705
      -3.210
      -2.837
      -2.605
      -2.455
      -2.286
      -2.026
      -1.677
      -1.293
      -0.929
      -0.603
      -0.294
       0.039
       0.428
       0.884
       1.386
       1.878
       2.308
       2.675
       3.036
       3.453
       3.932
       4.407
       4.775
       4.948
       4.900
       4.674
       4.382
       4.158
       4.092
       4.177
       4.307
       4.330
       4.136
       3.712
       3.133
       2.500
       1.898
       1.387
       1.022
       0.840
       0.821
       0.862
       0.800
       0.487
      -0.143
      -1.018
      -1.945
      -2.681
      -3.065
      -3.130
      -3.087
      -3.171
      -3.464
      -3.850
      -4.138
      -4.233
      -4.203
      -4.202
      -4.320
      -4.493
      -4.555
      -4.369
      -3.948
      -3.461
      -3.131
      -3.091
      -3.296
      -3.533
      -3.530
      -3.084
      -2.167
      -0.942
       0.320
       1.377
       2.127
       2.600
       2.882
       3.030
       3.070
       3.043
       3.013
       3.018
       3.009
       2.870
       2.510
       1.973
       1.454
       1.198
       1.357
       1.887
       2.566
       3.115
       3.334
       3.194
       2.839
       2.507
       2.381
       2.496
       2.733
       2.916
       2.910
       2.671
       2.223
       1.615
       0.882
       0.044
      -0.855
      -1.718
      -2.420
      -2.875
      -3.106
      -3.227
      -3.352
      -3.495
      -3.563
      -3.469
      -3.234
      -2.970
      -2.766
      -2.601
      -2.372
      -2.012
      -1.566
      -1.179
      -1.012
      -1.150
      -1.536
      -1.967
      -2.171
      -1.951
      -1.306
      -0.435
       0.384
       0.963
       1.284
       1.453
       1.597
       1.777
       1.983
       2.149
       2.179
       1.987
       1.564
       0.999
       0.432
      -0.033
      -0.369
      -0.588
      -0.680
      -0.606
      -0.367
      -0.055
       0.177
       0.216
       0.083
      -0.089
      -0.153
      -0.059
       0.126
       0.291
       0.367
       0.364
       0.327
       0.270
       0.157
      -0.037
      -0.260
      -0.388
      -0.298
       0.039
       0.531
       1.011
       1.331
       1.427
       1.339
       1.174
       1.030
       0.931
       0.831
       0.675
       0.477
       0.334
       0.363
       0.605
       0.981
       1.333
       1.513
       1.460
       1.233
       0.961
       0.765
       0.669
       0.584
       0.374
      -0.035
      -0.568
      -1.028
      -1.220
      -1.088
      -0.760
      -0.463
      -0.360
      -0.443
      -0.559
      -0.535
      -0.297
       0.078
       0.419
       0.550
       0.374
      -0.095
      -0.759
      -1.483
      -2.135
      -2.617
      -2.888
      -2.965
      -2.911
      -2.807
      -2.727
      -2.739
      -2.876
      -3.089
      -3.221
      -3.069
      -2.523
      -1.679
      -0.809
      -0.189
       0.065
       0.035
      -0.078
      -0.084
       0.116
       0.517
       1.032
       1.545
       1.941
       2.154
       2.185
       2.111
       2.044
       2.078
       2.263
       2.603
       3.062
       3.556
       3.954
       4.110
       3.933
       3.437
       2.750
       2.055
       1.520
       1.239
       1.216
       1.376
       1.598
       1.750
       1.747
       1.584
       1.325
       1.041
       0.762
       0.488
       0.236
       0.056
      -0.015
      -0.021
      -0.085
      -0.327
      -0.758
      -1.275
      -1.739
      -2.081
      -2.313
      -2.488
      -2.654
      -2.854
      -3.135
      -3.511
      -3.930
      -4.279
      -4.446
      -4.380
      -4.108
      -3.723
      -3.356
      -3.120
      -3.048
      -3.044
      -2.920
      -2.506
      -1.780
      -0.909
      -0.151
       0.300
       0.422
       0.355
       0.287
       0.354
       0.585
       0.908
       1.204
       1.390
       1.481
       1.578
       1.766
       2.025
       2.222
       2.225
       2.016
       1.722
       1.534
       1.573
       1.814
       2.099
       2.237
       2.127
       1.831
       1.536
       1.433
       1.587
       1.887
       2.141
       2.225
       2.171
       2.090
       2.046
       2.009
       1.908
       1.704
       1.395
       0.980
       0.466
      -0.090
      -0.568
      -0.850
      -0.907
      -0.834
      -0.777
      -0.828
      -0.971
      -1.113
      -1.140
      -0.971
      -0.587
      -0.065
       0.424
       0.664
       0.511
      -0.007
      -0.666
      -1.156
      -1.271
      -1.044
      -0.710
      -0.542
      -0.688
      -1.126
      -1.713
      -2.249
      -2.545
      -2.496
      -2.161
      -1.765
      -1.575
      -1.713
      -2.055
      -2.312
      -2.227
      -1.731
      -0.946
      -0.097
       0.594
       0.958
       0.920
       0.536
      -0.009
      -0.483
      -0.736
      -0.787
      -0.792
      -0.915
      -1.211
      -1.606
      -1.939
      -2.040
      -1.796
      -1.198
      -0.364
       0.487
       1.127
       1.434
       1.452
       1.357
       1.341
       1.521
       1.892
       2.348
       2.718
       2.851
       2.713
       2.446
       2.304
       2.482
       2.946
       3.411
       3.495
       2.959
       1.879
       0.619
      -0.365
      -0.786
      -0.668
      -0.283
       0.060
       0.213
       0.241
       0.311
       0.524
       0.814
       0.977
       0.806
       0.253
      -0.514
      -1.202
      -1.579
      -1.616
      -1.463
      -1.316
      -1.278
      -1.315
      -1.332
      -1.265
      -1.128
      -0.986
      -0.882
      -0.807
      -0.747
      -0.746
      -0.914
      -1.340
      -1.989
      -2.684
      -3.180
      -3.281
      -2.920
      -2.177
      -1.245
      -0.374
       0.213
       0.413
       0.288
       0.021
      -0.199
      -0.275
      -0.220
      -0.096
       0.065
       0.273
       0.532
       0.810
       1.057
       1.247
       1.393
       1.499
