Origin Time       07/10/2013 20:54:03
Lat.              26.3 N	
Long.             92.5 E	
Depth (Km)         10.0
Magnitude         3.7
 Region           Naogaon-Assam                                                    
 Above details taken from IMD 
   
Station Code      TZP
Station Lat.       26.619
Station Long.      92.797
Station Height(m)   76.0
Site Class        B   Vs30 between 375 m/sec to 700 m/sec *  
Record Time       07.10.2013 20:53:42.314
Sampling Rate     200. Hz
 Record Duration   88.100 Sec.
 Direction         Vert. (Up positive)
Max. Acceleration     -6.242 cm/sec**2
     
  * For reference see Site Classification link of website 
     
 Base Line Corrected and Low Pass Filtered (Cut Off at 35 Hz) Time History
 Acceleration data in cm/sec**2
    
[...]
      -0.011
      -0.010
      -0.005
      -0.002
      -0.003
      -0.006
      -0.006
      -0.001
       0.008
       0.014
       0.013
       0.003
      -0.010
      -0.017
      -0.016
      -0.008
       0.000
       0.005
       0.007
       0.008
       0.008
       0.007
       0.003
      -0.002
      -0.007
      -0.007
      -0.004
       0.001
       0.003
       0.002
       0.000
       0.001
       0.004
       0.006
       0.004
      -0.002
      -0.006
      -0.007
      -0.005
      -0.002
       0.000
       0.002
       0.005
       0.007
       0.009
       0.009
       0.008
       0.006
       0.003
      -0.001
      -0.005
      -0.009
      -0.010
      -0.007
      -0.002
       0.003
       0.006
       0.006
       0.004
       0.002
       0.000
       0.000
       0.000
       0.002
       0.002
       0.002
       0.001
       0.001
       0.001
       0.000
      -0.002
      -0.003
      -0.004
      -0.004
      -0.006
      -0.007
      -0.006
      -0.004
      -0.001
      -0.001
      -0.004
      -0.006
      -0.007
      -0.007
      -0.008
      -0.008
      -0.004
       0.003
       0.008
       0.006
      -0.001
      -0.008
      -0.011
      -0.008
      -0.005
      -0.003
      -0.001
       0.001
       0.005
       0.007
       0.006
       0.002
      -0.003
      -0.004
      -0.002
       0.001
       0.004
       0.002
      -0.003
      -0.006
      -0.004
       0.002
       0.008
       0.008
       0.003
      -0.004
      -0.008
      -0.009
      -0.007
      -0.006
      -0.006
      -0.004
       0.000
       0.006
       0.010
       0.008
       0.002
      -0.005
      -0.012
      -0.013
      -0.011
      -0.005
       0.001
       0.003
       0.002
      -0.003
      -0.008
      -0.013
      -0.014
      -0.012
      -0.009
      -0.004
      -0.002
      -0.001
      -0.003
      -0.004
      -0.002
       0.003
       0.006
       0.006
       0.001
      -0.004
      -0.007
      -0.006
      -0.003
      -0.002
      -0.003
      -0.006
      -0.008
      -0.008
      -0.007
      -0.007
      -0.008
      -0.007
      -0.005
      -0.003
      -0.003
      -0.004
      -0.006
      -0.005
      -0.004
      -0.002
      -0.001
       0.000
       0.002
       0.004
       0.005
       0.005
       0.003
       0.001
       0.000
       0.001
       0.001
       0.001
      -0.001
      -0.004
      -0.005
      -0.005
      -0.005
      -0.006
      -0.007
      -0.005
      -0.001
       0.004
       0.006
       0.005
       0.001
      -0.002
      -0.002
      -0.001
       0.000
      -0.002
      -0.004
      -0.005
      -0.005
      -0.006
      -0.008
      -0.010
      -0.011
      -0.008
      -0.002
       0.002
       0.003
       0.001
       0.000
       0.002
       0.005
       0.006
       0.002
      -0.003
      -0.006
      -0.006
      -0.004
      -0.002
      -0.001
      -0.001
       0.000
      -0.001
      -0.003
      -0.007
      -0.011
      -0.015
      -0.016
      -0.015
      -0.012
      -0.008
      -0.004
       0.000
       0.003
       0.004
      -0.001
      -0.008
      -0.012
      -0.010
      -0.006
      -0.005
      -0.006
      -0.008
      -0.009
      -0.009
      -0.011
      -0.013
      -0.015
      -0.014
      -0.008
      -0.002
       0.002
       0.001
      -0.003
      -0.009
      -0.014
      -0.018
      -0.020
      -0.021
      -0.019
      -0.014
      -0.010
      -0.006
      -0.005
      -0.007
      -0.011
      -0.017
      -0.019
      -0.016
      -0.009
      -0.002
       0.002
       0.002
       0.000
      -0.003
      -0.005
      -0.008
      -0.013
      -0.018
      -0.019
      -0.017
      -0.013
      -0.011
      -0.012
      -0.013
      -0.012
      -0.007
      -0.003
      -0.001
       0.000
       0.001
       0.004
       0.010
       0.014
       0.013
       0.007
       0.002
       0.000
       0.002
       0.003
       0.000
      -0.004
      -0.005
      -0.001
       0.005
       0.010
       0.009
       0.003
      -0.004
      -0.008
      -0.007
      -0.003
       0.001
       0.001
      -0.004
      -0.010
      -0.013
      -0.011
      -0.004
       0.001
       0.003
       0.002
       0.001
       0.000
      -0.001
      -0.002
      -0.003
      -0.004
      -0.004
      -0.001
       0.002
       0.003
       0.000
      -0.005
      -0.008
      -0.006
      -0.003
      -0.001
      -0.005
      -0.012
      -0.018
      -0.017
      -0.011
      -0.005
      -0.005
      -0.011
      -0.019
      -0.023
      -0.021
      -0.014
      -0.008
      -0.005
      -0.002
       0.000
       0.000
      -0.003
      -0.010
      -0.017
      -0.019
      -0.017
      -0.013
      -0.008
      -0.002
       0.004
       0.009
       0.009
       0.005
      -0.002
      -0.007
      -0.009
      -0.008
      -0.006
      -0.003
       0.001
       0.004
       0.003
      -0.002
      -0.008
      -0.010
      -0.008
      -0.005
      -0.002
       0.000
       0.000
       0.001
       0.001
       0.001
      -0.001
      -0.002
      -0.002
      -0.002
      -0.002
      -0.004
      -0.005
      -0.004
      -0.003
      -0.001
       0.000
       0.000
      -0.003
      -0.009
      -0.016
      -0.020
      -0.018
      -0.011
      -0.002
       0.000
      -0.003
      -0.008
      -0.010
      -0.006
       0.001
       0.005
       0.004
      -0.002
      -0.008
      -0.010
      -0.008
      -0.005
      -0.002
      -0.004
      -0.008
      -0.012
      -0.015
      -0.016
      -0.014
      -0.013
      -0.014
      -0.015
      -0.017
      -0.015
      -0.011
      -0.006
      -0.002
      -0.002
      -0.006
      -0.010
      -0.012
      -0.010
      -0.007
      -0.006
      -0.009
      -0.013
      -0.016
      -0.015
      -0.010
      -0.004
       0.000
       0.001
      -0.002
      -0.006
      -0.010
      -0.010
      -0.008
      -0.005
      -0.004
      -0.005
      -0.006
      -0.005
      -0.003
      -0.002
      -0.002
      -0.006
      -0.012
      -0.017
      -0.018
      -0.017
      -0.014
      -0.011
      -0.009
      -0.007
      -0.003
       0.002
       0.008
       0.010
       0.009
       0.004
      -0.001
      -0.007
      -0.011
      -0.014
      -0.013
      -0.010
      -0.005
       0.001
       0.003
       0.000
      -0.006
      -0.010
      -0.009
      -0.004
       0.001
       0.002
      -0.001
      -0.004
      -0.008
      -0.011
      -0.013
      -0.013
      -0.008
      -0.001
       0.007
       0.010
       0.005
      -0.004
      -0.012
      -0.013
      -0.007
       0.001
       0.003
       0.000
      -0.007
      -0.010
      -0.009
      -0.007
      -0.008
      -0.011
      -0.015
      -0.017
      -0.019
      -0.019
      -0.018
      -0.015
      -0.010
      -0.002
       0.006
       0.010
       0.009
       0.003
      -0.003
      -0.008
      -0.010
      -0.009
      -0.008
      -0.008
      -0.010
      -0.012
      -0.012
      -0.008
      -0.005
      -0.003
      -0.003
      -0.006
      -0.008
      -0.007
      -0.005
      -0.005
      -0.005
      -0.006
      -0.004
       0.000
       0.002
      -0.001
      -0.006
      -0.009
      -0.007
      -0.002
       0.005
       0.011
       0.012
       0.011
       0.008
       0.006
       0.006
       0.008
       0.008
       0.006
       0.004
       0.003
       0.002
       0.001
      -0.002
      -0.007
      -0.012
      -0.016
      -0.015
      -0.010
      -0.001
       0.005
       0.006
       0.003
       0.000
      -0.001
      -0.002
      -0.004
      -0.006
      -0.004
       0.001
       0.004
       0.005
       0.001
      -0.003
      -0.006
      -0.008
      -0.010
      -0.012
      -0.013
      -0.011
      -0.007
      -0.003
       0.002
       0.005
       0.007
       0.007
       0.008
       0.009
       0.008
       0.004
       0.000
      -0.003
      -0.001
       0.003
       0.006
       0.006
       0.004
       0.000
      -0.004
      -0.007
      -0.008
      -0.006
      -0.004
      -0.002
      -0.003
      -0.006
      -0.010
      -0.012
      -0.013
      -0.011
      -0.008
      -0.003
       0.002
       0.008
       0.010
       0.009
       0.005
       0.001
      -0.001
       0.001
       0.004
       0.006
       0.005
       0.002
       0.001
       0.002
       0.005
       0.007
       0.005
       0.000
      -0.005
      -0.006
      -0.001
       0.005
       0.007
       0.004
       0.000
      -0.001
       0.005
       0.012
       0.016
       0.016
       0.013
       0.010
       0.008
       0.004
       0.001
      -0.002
      -0.002
      -0.001
      -0.001
      -0.002
      -0.006
      -0.008
      -0.008
      -0.007
      -0.004
      -0.003
      -0.001
       0.001
       0.006
       0.011
       0.014
       0.013
       0.011
       0.008
       0.006
       0.003
      -0.002
      -0.005
      -0.005
      -0.001
       0.003
       0.005
       0.004
       0.004
       0.007
       0.012
       0.013
       0.007
       0.000
      -0.002
       0.003
       0.012
       0.018
       0.017
       0.012
       0.008
       0.007
       0.009
       0.011
       0.010
       0.007
       0.005
       0.005
       0.006
       0.006
       0.004
       0.004
       0.006
       0.009
       0.009
       0.004
      -0.004
      -0.010
      -0.011
      -0.007
       0.000
       0.006
       0.008
       0.009
       0.009
       0.010
       0.009
       0.007
       0.003
      -0.001
      -0.003
      -0.001
       0.001
       0.003
       0.005
       0.007
       0.006
       0.002
      -0.005
      -0.011
      -0.012
      -0.008
      -0.003
       0.002
       0.004
       0.005
       0.004
       0.003
       0.002
      -0.001
      -0.003
      -0.003
      -0.002
       0.000
       0.001
       0.003
       0.005
       0.008
       0.011
       0.013
       0.011
       0.003
      -0.005
      -0.007
      -0.001
       0.010
       0.016
       0.015
       0.008
       0.001
       0.001
       0.005
       0.009
       0.006
      -0.002
      -0.010
      -0.012
      -0.007
       0.001
       0.005
       0.004
      -0.001
      -0.003
      -0.002
       0.003
       0.008
       0.011
       0.009
       0.002
      -0.006
      -0.012
      -0.014
      -0.013
      -0.011
      -0.010
      -0.009
      -0.007
      -0.007
      -0.008
      -0.011
      -0.012
      -0.009
      -0.004
      -0.001
      -0.001
      -0.004
      -0.007
      -0.009
      -0.007
      -0.002
       0.003
       0.006
       0.006
       0.001
      -0.005
      -0.009
      -0.008
      -0.004
      -0.002
      -0.003
      -0.008
      -0.012
      -0.011
      -0.006
       0.000
       0.002
      -0.001
      -0.004
      -0.004
      -0.001
       0.003
       0.004
       0.003
       0.000
      -0.001
       0.000
       0.002
       0.004
       0.003
       0.000
      -0.005
      -0.008
      -0.006
       0.001
       0.011
       0.017
       0.016
       0.009
       0.002
      -0.001
       0.002
       0.005
       0.005
       0.003
       0.001
       0.002
       0.005
       0.009
       0.011
       0.008
       0.003
      -0.001
      -0.002
      -0.002
      -0.003
      -0.007
      -0.011
      -0.013
      -0.011
      -0.005
       0.001
       0.006
       0.008
       0.008
       0.006
       0.004
       0.003
       0.001
       0.000
       0.000
       0.000
       0.001
       0.003
       0.006
       0.008
       0.009
       0.007
       0.004
      -0.001
      -0.005
      -0.006
      -0.005
      -0.002
       0.003
       0.007
       0.008
       0.007
       0.004
       0.001
      -0.002
      -0.004
      -0.007
      -0.009
      -0.010
      -0.007
      -0.002
       0.004
       0.006
       0.006
       0.004
       0.004
       0.006
       0.008
       0.008
       0.006
       0.004
       0.006
       0.010
       0.013
       0.013
       0.010
       0.005
       0.003
       0.005
       0.009
       0.012
       0.012
       0.009
       0.007
       0.006
       0.007
       0.008
       0.008
       0.005
       0.001
      -0.001
       0.002
       0.006
       0.009
       0.006
      -0.003
      -0.012
      -0.013
      -0.006
       0.005
       0.011
       0.010
       0.005
       0.003
       0.004
       0.004
      -0.001
      -0.007
      -0.009
      -0.006
       0.001
       0.006
       0.007
       0.004
       0.001
       0.001
       0.003
       0.005
       0.006
       0.002
      -0.004
      -0.009
      -0.008
      -0.003
       0.001
       0.000
      -0.006
      -0.013
      -0.017
      -0.014
      -0.007
      -0.001
       0.000
      -0.003
      -0.004
      -0.003
       0.001
       0.002
       0.001
      -0.003
      -0.004
      -0.003
       0.000
       0.004
       0.004
       0.003
       0.003
       0.004
       0.005
       0.001
      -0.022
      -0.077
      -0.175
      -0.320
      -0.509
      -0.729
      -0.955
      -1.153
      -1.290
      -1.348
      -1.319
      -1.179
      -0.862
      -0.301
       0.509
       1.464
       2.386
       3.113
       3.577
       3.796
       3.811
       3.604
       3.082
       2.124
       0.675
      -1.174
      -3.167
      -4.932
      -6.064
      -6.242
      -5.347
      -3.520
      -1.141
       1.296
       3.321
       4.601
       4.992
       4.546
       3.482
       2.104
       0.707
      -0.518
      -1.509
      -2.289
      -2.888
      -3.276
      -3.363
      -3.040
      -2.248
      -1.044
       0.359
       1.636
       2.478
       2.743
       2.515
       2.013
       1.428
       0.796
       0.030
      -0.913
      -1.869
      -2.464
      -2.335
      -1.420
      -0.055
       1.216
       1.958
       2.047
       1.623
       0.913
       0.086
      -0.746
      -1.433
      -1.754
      -1.536
      -0.837
       0.022
       0.631
       0.747
       0.424
      -0.073
      -0.460
      -0.576
      -0.402
       0.001
       0.509
       0.920
       1.002
       0.635
      -0.038
      -0.651
      -0.861
      -0.624
      -0.204
       0.094
       0.206
       0.319
       0.601
       0.955
       1.058
       0.669
      -0.101
      -0.840
      -1.163
      -0.998
      -0.589
      -0.266
      -0.205
      -0.345
      -0.483
      -0.443
      -0.182
       0.209
       0.594
       0.884
       1.068
       1.180
       1.221
       1.121
       0.792
       0.230
      -0.414
      -0.900
      -1.058
      -0.920
      -0.697
      -0.617
      -0.736
      -0.885
      -0.800
      -0.343
       0.365
       1.038
       1.440
       1.518
       1.346
       1.001
       0.499
      -0.154
      -0.879
      -1.507
      -1.821
      -1.674
      -1.077
      -0.231
       0.559
       1.029
       1.087
       0.844
       0.520
       0.298
       0.242
       0.312
       0.448
       0.604
       0.743
       0.796
       0.664
       0.264
      -0.418
      -1.295
      -2.174
      -2.802
      -2.973
      -2.666
      -2.091
      -1.527
      -1.073
      -0.544
       0.323
       1.549
       2.801
       3.593
       3.634
       3.049
       2.297
       1.823
       1.711
       1.637
       1.151
       0.048
      -1.452
      -2.804
      -3.477
      -3.303
      -2.560
      -1.703
      -0.993
      -0.365
       0.371
       1.232
       1.955
       2.175
       1.746
       0.896
       0.072
      -0.399
      -0.525
      -0.571
      -0.781
      -1.158
      -1.490
      -1.560
      -1.331
      -0.928
      -0.477
       0.005
       0.553
       1.116
       1.536
       1.679
       1.577
       1.399
       1.266
       1.106
       0.730
       0.065
      -0.708
      -1.252
      -1.350
      -1.076
      -0.692
      -0.389
      -0.155
       0.109
       0.392
       0.530
       0.368
      -0.064
      -0.534
      -0.772
      -0.657
      -0.305
       0.036
       0.190
       0.184
       0.171
       0.261
       0.440
       0.614
       0.674
       0.513
       0.071
      -0.592
      -1.249
      -1.599
      -1.466
      -0.937
      -0.283
       0.263
       0.662
       0.990
       1.252
       1.320
       1.073
       0.596
       0.195
       0.149
       0.434
       0.704
       0.597
       0.057
      -0.615
      -1.026
      -1.016
      -0.764
      -0.596
      -0.662
      -0.795
      -0.704
      -0.297
       0.207
       0.483
       0.388
       0.060
      -0.251
      -0.383
      -0.324
      -0.148
       0.055
       0.217
       0.308
       0.366
       0.449
       0.545
       0.539
       0.324
      -0.060
      -0.411
      -0.511
      -0.284
       0.170
       0.658
       1.005
       1.134
       1.089
       0.984
       0.881
       0.719
       0.346
      -0.309
      -1.088
      -1.654
      -1.767
      -1.503
      -1.159
      -0.933
      -0.764
      -0.468
       0.008
       0.493
       0.711
       0.519
       0.063
      -0.300
      -0.296
       0.047
       0.450
       0.646
       0.575
       0.372
       0.205
       0.142
       0.122
       0.047
      -0.111
      -0.266
      -0.292
      -0.145
       0.080
       0.223
       0.181
      -0.001
      -0.153
      -0.136
      -0.003
       0.040
      -0.122
      -0.337
      -0.333
      -0.040
       0.316
       0.442
       0.262
      -0.046
      -0.256
      -0.301
      -0.283
      -0.304
      -0.330
      -0.237
       0.046
       0.467
       0.872
       1.084
       0.989
       0.602
       0.069
      -0.398
      -0.644
      -0.658
      -0.558
      -0.495
      -0.537
      -0.629
      -0.636
      -0.457
      -0.131
       0.172
       0.289
       0.213
       0.093
       0.094
       0.282
       0.584
       0.830
       0.849
       0.596
       0.182
      -0.221
      -0.509
      -0.651
      -0.642
      -0.495
      -0.267
      -0.035
       0.134
       0.193
       0.141
       0.049
       0.038
       0.165
       0.345
       0.405
       0.235
      -0.096
      -0.359
      -0.305
       0.121
       0.675
       0.939
       0.642
      -0.096
      -0.842
      -1.204
      -1.123
      -0.833
      -0.572
      -0.392
      -0.198
       0.083
       0.405
       0.622
       0.625
       0.446
       0.253
       0.188
       0.242
       0.283
       0.204
       0.032
      -0.105
      -0.130
      -0.112
      -0.186
      -0.385
      -0.581
      -0.598
      -0.361
       0.051
       0.481
       0.808
       0.987
       1.002
       0.817
       0.424
      -0.070
      -0.457
      -0.585
      -0.494
      -0.382
      -0.408
      -0.543
      -0.613
      -0.490
      -0.231
      -0.039
      -0.085
      -0.332
      -0.524
      -0.385
       0.103
       0.644
       0.870
       0.661
       0.219
      -0.137
      -0.219
      -0.059
       0.177
       0.333
       0.382
       0.414
       0.515
       0.631
       0.596
       0.295
      -0.203
      -0.664
      -0.861
      -0.746
      -0.493
      -0.349
