Origin Time       23/02/2014 17:04:50
Lat.              27.2 N	
Long.             92.5 E	
Depth (Km)         10.0
Magnitude         4.8
 Region           Kameng-Arunachal-Pradesh                                         
 Above details taken from IMD 
     
Station Code      TZP
Station Lat.       26.619  N
Station Long.      92.797  E
Station Height(m)   76.0
Site Class        B   Vs30 between 375 m/sec to 700 m/sec *  
Record Time       23.02.2014 17:04:43.879
Sampling Rate     200. Hz
 Record Duration   82.685 Sec.
 Direction         E-W (E positive)
Max. Acceleration     -7.671 cm/sec**2
     
  * For reference see Site Classification link of website 
     
 Base Line Corrected and Low Pass Filtered (Cut Off at 35 Hz) Time History
 Acceleration data in cm/sec**2
    
[...]
      -0.251
      -0.097
       0.002
      -0.022
      -0.109
      -0.132
      -0.012
       0.207
       0.398
       0.457
       0.390
       0.290
       0.259
       0.330
       0.458
       0.559
       0.554
       0.414
       0.174
      -0.076
      -0.234
      -0.237
      -0.103
       0.085
       0.218
       0.228
       0.120
      -0.020
      -0.078
      -0.001
       0.153
       0.250
       0.192
       0.009
      -0.157
      -0.169
      -0.016
       0.182
       0.269
       0.181
      -0.019
      -0.201
      -0.271
      -0.241
      -0.196
      -0.217
      -0.313
      -0.430
      -0.519
      -0.586
      -0.663
      -0.740
      -0.747
      -0.627
      -0.421
      -0.259
      -0.244
      -0.349
      -0.428
      -0.351
      -0.120
       0.121
       0.201
       0.053
      -0.231
      -0.467
      -0.509
      -0.345
      -0.095
       0.102
       0.192
       0.226
       0.292
       0.415
       0.547
       0.613
       0.581
       0.485
       0.396
       0.371
       0.410
       0.454
       0.429
       0.315
       0.170
       0.079
       0.078
       0.123
       0.153
       0.155
       0.163
       0.200
       0.240
       0.241
       0.202
       0.168
       0.194
       0.283
       0.378
       0.408
       0.345
       0.224
       0.115
       0.059
       0.050
       0.043
       0.002
      -0.085
      -0.197
      -0.289
      -0.316
      -0.266
      -0.188
      -0.167
      -0.258
      -0.432
      -0.578
      -0.585
      -0.422
      -0.167
       0.047
       0.120
       0.046
      -0.105
      -0.241
      -0.312
      -0.324
      -0.317
      -0.328
      -0.361
      -0.406
      -0.442
      -0.455
      -0.428
      -0.350
      -0.234
      -0.135
      -0.116
      -0.194
      -0.304
      -0.338
      -0.235
      -0.039
       0.139
       0.223
       0.232
       0.245
       0.303
       0.353
       0.306
       0.142
      -0.050
      -0.143
      -0.092
       0.037
       0.133
       0.151
       0.145
       0.212
       0.385
       0.591
       0.699
       0.627
       0.414
       0.191
       0.083
       0.126
       0.260
       0.392
       0.452
       0.409
       0.269
       0.077
      -0.106
      -0.231
      -0.293
      -0.307
      -0.275
      -0.175
       0.003
       0.214
       0.370
       0.401
       0.317
       0.191
       0.088
       0.001
      -0.135
      -0.349
      -0.572
      -0.674
      -0.570
      -0.303
      -0.034
       0.071
      -0.045
      -0.291
      -0.500
      -0.555
      -0.455
      -0.281
      -0.112
       0.027
       0.145
       0.235
       0.253
       0.155
      -0.034
      -0.219
      -0.290
      -0.205
      -0.008
       0.196
       0.304
       0.262
       0.097
      -0.091
      -0.189
      -0.144
       0.002
       0.147
       0.220
       0.221
       0.191
       0.148
       0.072
      -0.051
      -0.177
      -0.228
      -0.156
       0.012
       0.185
       0.283
       0.277
       0.178
       0.011
      -0.192
      -0.374
      -0.458
      -0.400
      -0.237
      -0.056
       0.076
       0.157
       0.228
       0.308
       0.372
       0.377
       0.314
       0.214
       0.117
       0.043
      -0.012
      -0.053
      -0.090
      -0.134
      -0.189
      -0.225
      -0.188
      -0.047
       0.147
       0.293
       0.312
       0.220
       0.104
       0.041
       0.043
       0.062
       0.049
      -0.011
      -0.090
      -0.137
      -0.111
      -0.008
       0.136
       0.259
       0.309
       0.277
       0.199
       0.130
       0.096
       0.090
       0.071
      -0.009
      -0.178
      -0.405
      -0.601
      -0.667
      -0.576
      -0.396
      -0.246
      -0.193
      -0.208
      -0.206
      -0.137
      -0.026
       0.056
       0.068
       0.023
      -0.037
      -0.089
      -0.143
      -0.213
      -0.291
      -0.349
      -0.356
      -0.298
      -0.192
      -0.092
      -0.069
      -0.159
      -0.308
      -0.387
      -0.283
      -0.007
       0.302
       0.474
       0.447
       0.304
       0.192
       0.193
       0.276
       0.349
       0.359
       0.337
       0.363
       0.474
       0.618
       0.683
       0.588
       0.342
       0.042
      -0.191
      -0.280
      -0.216
      -0.052
       0.126
       0.239
       0.250
       0.179
       0.083
       0.020
       0.006
       0.015
       0.001
      -0.050
      -0.100
      -0.084
       0.030
       0.191
       0.274
       0.167
      -0.139
      -0.510
      -0.742
      -0.702
      -0.435
      -0.132
       0.028
       0.018
      -0.034
       0.008
       0.141
       0.231
       0.148
      -0.083
      -0.300
      -0.339
      -0.188
      -0.002
       0.026
      -0.181
      -0.517
      -0.767
      -0.770
      -0.526
      -0.186
       0.071
       0.166
       0.150
       0.136
       0.192
       0.289
       0.340
       0.270
       0.084
      -0.136
      -0.269
      -0.238
      -0.075
       0.095
       0.143
       0.039
      -0.128
      -0.225
      -0.178
      -0.008
       0.205
       0.376
       0.442
       0.380
       0.224
       0.061
      -0.009
       0.065
       0.257
       0.477
       0.625
       0.637
       0.511
       0.298
       0.067
      -0.129
      -0.268
      -0.331
      -0.295
      -0.156
       0.025
       0.138
       0.093
      -0.098
      -0.332
      -0.484
      -0.494
      -0.375
      -0.189
      -0.012
       0.096
       0.101
       0.014
      -0.117
      -0.232
      -0.305
      -0.355
      -0.397
      -0.409
      -0.335
      -0.162
       0.044
       0.163
       0.120
      -0.055
      -0.250
      -0.356
      -0.331
      -0.196
      -0.011
       0.156
       0.250
       0.252
       0.206
       0.190
       0.258
       0.387
       0.492
       0.504
       0.425
       0.324
       0.258
       0.222
       0.170
       0.078
      -0.024
      -0.079
      -0.060
       0.030
       0.179
       0.374
       0.564
       0.661
       0.586
       0.356
       0.090
      -0.089
      -0.141
      -0.112
      -0.066
      -0.043
      -0.078
      -0.209
      -0.424
      -0.624
      -0.664
      -0.483
      -0.184
       0.021
      -0.016
      -0.253
      -0.485
      -0.518
      -0.330
      -0.073
       0.054
      -0.045
      -0.304
      -0.553
      -0.633
      -0.491
      -0.209
       0.050
       0.141
       0.031
      -0.187
      -0.363
      -0.393
      -0.275
      -0.078
       0.114
       0.244
       0.290
       0.253
       0.160
       0.053
      -0.026
      -0.059
      -0.059
      -0.051
      -0.046
      -0.032
       0.011
       0.084
       0.172
       0.248
       0.290
       0.274
       0.185
       0.030
      -0.147
      -0.272
      -0.278
      -0.137
       0.128
       0.439
       0.696
       0.817
       0.780
       0.614
       0.378
       0.145
       0.002
       0.015
       0.164
       0.314
       0.298
       0.056
      -0.289
      -0.520
      -0.497
      -0.257
       0.040
       0.242
       0.293
       0.230
       0.129
       0.050
       0.016
       0.010
       0.005
      -0.007
      -0.027
      -0.074
      -0.166
      -0.274
      -0.315
      -0.228
      -0.055
       0.071
       0.048
      -0.091
      -0.212
      -0.210
      -0.097
       0.038
       0.126
       0.153
       0.119
      -0.007
      -0.257
      -0.589
      -0.878
      -0.979
      -0.828
      -0.492
      -0.121
       0.145
       0.251
       0.225
       0.120
      -0.030
      -0.199
      -0.341
      -0.387
      -0.301
      -0.128
       0.020
       0.049
      -0.034
      -0.115
      -0.049
       0.216
       0.583
       0.862
       0.894
       0.651
       0.247
      -0.131
      -0.332
      -0.316
      -0.158
       0.020
       0.128
       0.146
       0.112
       0.084
       0.107
       0.186
       0.292
       0.384
       0.452
       0.518
       0.598
       0.660
       0.620
       0.425
       0.111
      -0.207
      -0.421
      -0.498
      -0.464
      -0.364
      -0.232
      -0.097
       0.009
       0.076
       0.114
       0.142
       0.159
       0.150
       0.110
       0.058
       0.015
      -0.006
      -0.014
      -0.030
      -0.091
      -0.241
      -0.487
      -0.757
      -0.916
      -0.855
      -0.583
      -0.237
       0.013
       0.078
      -0.006
      -0.134
      -0.216
      -0.222
      -0.169
      -0.083
       0.014
       0.094
       0.120
       0.073
      -0.017
      -0.078
      -0.056
       0.021
       0.058
      -0.014
      -0.168
      -0.304
      -0.342
      -0.274
      -0.142
       0.014
       0.170
       0.303
       0.403
       0.482
       0.559
       0.614
       0.598
       0.491
       0.349
       0.263
       0.269
       0.320
       0.334
       0.274
       0.176
       0.106
       0.093
       0.104
       0.083
       0.016
      -0.053
      -0.068
      -0.033
      -0.009
      -0.042
      -0.102
      -0.106
      -0.010
       0.140
       0.247
       0.251
       0.179
       0.111
       0.110
       0.168
       0.215
       0.177
       0.033
      -0.176
      -0.364
      -0.454
      -0.419
      -0.311
      -0.238
      -0.288
      -0.446
      -0.594
      -0.597
      -0.417
      -0.145
       0.070
       0.129
       0.048
      -0.085
      -0.194
      -0.275
      -0.385
      -0.567
      -0.787
      -0.932
      -0.886
      -0.628
      -0.257
       0.064
       0.203
       0.131
      -0.065
      -0.214
      -0.160
       0.127
       0.502
       0.733
       0.664
       0.343
      -0.018
      -0.191
      -0.093
       0.178
       0.431
       0.522
       0.433
       0.271
       0.172
       0.217
       0.374
       0.528
       0.573
       0.491
       0.368
       0.316
       0.377
       0.485
       0.535
       0.487
       0.406
       0.395
       0.473
       0.538
       0.465
       0.237
      -0.027
      -0.188
      -0.209
      -0.172
      -0.167
      -0.205
      -0.223
      -0.173
      -0.080
      -0.010
      -0.013
      -0.082
      -0.180
      -0.270
      -0.345
      -0.419
      -0.498
      -0.555
      -0.536
      -0.414
      -0.228
      -0.077
      -0.057
      -0.194
      -0.423
      -0.620
      -0.681
      -0.580
      -0.377
      -0.170
      -0.041
      -0.025
      -0.108
      -0.238
      -0.338
      -0.351
      -0.269
      -0.145
      -0.058
      -0.069
      -0.177
      -0.306
      -0.348
      -0.247
      -0.052
       0.116
       0.163
       0.076
      -0.088
      -0.245
      -0.319
      -0.267
      -0.097
       0.127
       0.319
       0.431
       0.477
       0.513
       0.566
       0.605
       0.572
       0.440
       0.247
       0.076
      -0.008
       0.005
       0.069
       0.114
       0.105
       0.079
       0.122
       0.290
       0.537
       0.730
       0.744
       0.564
       0.311
       0.168
       0.251
       0.522
       0.806
       0.911
       0.776
       0.491
       0.202
      -0.024
      -0.216
      -0.399
      -0.518
      -0.482
      -0.285
      -0.060
       0.017
      -0.139
      -0.460
      -0.780
      -0.943
      -0.873
      -0.596
      -0.232
       0.052
       0.114
      -0.068
      -0.379
      -0.634
      -0.712
      -0.625
      -0.489
      -0.425
      -0.474
      -0.597
      -0.727
      -0.813
      -0.821
      -0.719
      -0.500
      -0.213
       0.053
       0.255
       0.438
       0.698
       1.077
       1.505
       1.837
       1.962
       1.881
       1.699
       1.530
       1.417
       1.334
       1.236
       1.088
       0.831
       0.373
      -0.349
      -1.261
      -2.136
      -2.701
      -2.798
      -2.457
      -1.845
      -1.156
      -0.525
      -0.014
       0.374
       0.678
       0.971
       1.343
       1.861
       2.551
       3.379
       4.242
       4.953
       5.292
       5.107
       4.420
       3.439
       2.451
       1.671
       1.142
       0.744
       0.271
      -0.456
      -1.511
      -2.820
      -4.178
      -5.314
      -6.002
      -6.159
      -5.866
      -5.299
      -4.631
      -3.961
      -3.305
      -2.631
      -1.894
      -1.088
      -0.294
       0.307
       0.527
       0.339
      -0.020
      -0.163
       0.159
       0.816
       1.345
       1.251
       0.344
      -1.160
      -2.787
      -4.067
      -4.726
      -4.746
      -4.332
      -3.823
      -3.553
      -3.694
      -4.152
      -4.601
      -4.663
      -4.119
      -3.003
      -1.555
      -0.059
       1.305
       2.519
       3.663
       4.795
       5.855
       6.648
       6.958
       6.718
       6.117
       5.527
       5.262
       5.334
       5.430
       5.141
       4.261
       2.893
       1.329
      -0.132
      -1.236
      -1.748
      -1.526
      -0.687
       0.334
       0.987
       0.965
       0.406
      -0.230
      -0.487
      -0.163
       0.641
       1.647
       2.552
       3.149
       3.396
       3.396
       3.314
       3.283
       3.374
       3.583
       3.813
       3.829
       3.320
       2.089
       0.252
      -1.743
      -3.350
      -4.259
      -4.573
      -4.693
      -5.016
      -5.680
      -6.538
      -7.297
      -7.671
      -7.448
      -6.546
      -5.115
      -3.592
      -2.555
      -2.371
      -2.901
      -3.568
      -3.733
      -3.096
      -1.814
      -0.332
       0.896
       1.610
       1.844
       1.875
       2.034
       2.474
       3.047
       3.414
       3.286
       2.630
       1.665
       0.684
      -0.124
      -0.720
      -1.134
      -1.365
      -1.366
      -1.106
      -0.643
      -0.119
       0.317
       0.604
       0.825
       1.158
       1.748
       2.599
       3.569
       4.477
       5.197
       5.677
       5.903
       5.880
       5.644
       5.264
       4.796
       4.227
       3.488
       2.519
       1.332
       0.046
      -1.129
      -1.943
      -2.241
      -2.092
      -1.803
      -1.745
      -2.102
      -2.768
      -3.476
      -4.024
      -4.367
      -4.527
      -4.475
      -4.127
      -3.453
      -2.574
      -1.726
      -1.110
      -0.768
      -0.573
      -0.341
       0.024
       0.468
       0.820
       0.907
       0.657
       0.143
      -0.442
      -0.865
      -0.959
      -0.740
      -0.456
      -0.471
      -1.031
      -2.077
      -3.273
      -4.202
      -4.560
      -4.226
      -3.271
      -1.967
      -0.735
       0.045
       0.273
       0.218
       0.328
       0.901
       1.886
       2.960
       3.784
       4.212
       4.349
       4.439
       4.674
       5.028
       5.229
       4.953
       4.091
       2.885
       1.782
       1.107
       0.847
       0.717
       0.418
      -0.159
      -0.927
      -1.726
      -2.414
      -2.868
      -2.985
      -2.728
      -2.178
      -1.520
      -0.941
      -0.513
      -0.147
       0.334
       1.041
       1.888
       2.617
       2.970
       2.882
       2.530
       2.170
       1.906
       1.586
       0.950
      -0.112
      -1.407
      -2.531
      -3.130
      -3.116
      -2.686
      -2.185
      -1.906
      -1.948
      -2.196
      -2.424
      -2.461
      -2.283
      -1.960
      -1.547
      -1.058
      -0.549
      -0.156
      -0.016
      -0.136
      -0.387
      -0.642
      -0.875
      -1.139
      -1.463
      -1.822
      -2.168
      -2.450
      -2.605
      -2.568
      -2.322
      -1.906
      -1.372
      -0.750
      -0.058
       0.653
       1.322
       1.920
       2.478
       3.035
       3.565
       3.951
       4.047
       3.779
       3.226
       2.610
       2.175
       2.018
       2.003
       1.857
       1.379
       0.624
      -0.113
      -0.474
      -0.259
       0.484
       1.514
       2.528
       3.261
       3.552
       3.393
       2.950
       2.506
       2.311
       2.408
       2.582
       2.479
       1.834
       0.658
      -0.741
      -1.941
      -2.669
      -2.980
      -3.204
      -3.674
      -4.444
      -5.208
      -5.498
      -5.032
      -3.944
      -2.720
      -1.882
      -1.654
      -1.838
      -2.006
      -1.827
      -1.295
      -0.677
      -0.275
      -0.208
      -0.380
      -0.585
      -0.620
      -0.335
       0.304
       1.147
       1.876
       2.174
       1.947
       1.403
       0.872
       0.557
       0.405
       0.205
      -0.201
      -0.787
      -1.332
      -1.558
      -1.308
      -0.672
       0.047
       0.520
       0.616
       0.479
       0.414
       0.666
       1.272
       2.050
       2.711
       3.005
       2.836
       2.284
       1.552
       0.849
       0.289
      -0.146
      -0.532
      -0.906
      -1.222
      -1.404
      -1.437
      -1.401
      -1.407
      -1.463
      -1.431
      -1.127
      -0.516
       0.164
       0.511
       0.251
      -0.497
      -1.247
      -1.467
      -0.969
      -0.039
       0.803
       1.201
       1.196
       1.117
       1.257
       1.639
       2.036
       2.170
       1.929
       1.416
       0.862
       0.469
       0.296
       0.260
       0.214
       0.044
      -0.283
      -0.713
      -1.145
      -1.459
      -1.568
      -1.451
      -1.156
      -0.772
      -0.387
      -0.077
       0.089
       0.062
      -0.123
      -0.293
      -0.197
       0.314
       1.122
       1.876
       2.208
       1.980
       1.351
       0.648
       0.130
      -0.176
      -0.464
      -0.949
      -1.644
      -2.299
      -2.581
      -2.359
      -1.839
      -1.425
      -1.413
      -1.770
      -2.159
      -2.174
      -1.609
      -0.577
       0.573
       1.462
       1.868
       1.793
       1.408
       0.931
       0.539
       0.327
       0.325
       0.523
       0.873
       1.275
       1.579
       1.636
       1.376
       0.856
       0.247
      -0.249
      -0.485
      -0.432
      -0.215
      -0.070
      -0.207
      -0.620
      -1.038
      -1.108
      -0.667
       0.120
       0.884
       1.300
       1.259
       0.863
       0.315
      -0.211
      -0.624
      -0.906
      -1.030
      -0.928
      -0.545
       0.055
       0.656
       0.993
       0.927
       0.544
       0.077
      -0.280
      -0.502
      -0.694
      -0.936
      -1.162
      -1.227
      -1.070
      -0.812
      -0.651
      -0.658
      -0.685
      -0.489
       0.040
       0.755
       1.353
       1.600
       1.478
       1.152
       0.826
       0.646
       0.693
       0.966
       1.341
       1.588
       1.521
       1.172
       0.797
       0.677
       0.882
       1.229
       1.427
       1.281
       0.795
       0.127
      -0.510
      -0.950
      -1.128
      -1.101
      -1.017
      -1.037
      -1.225
      -1.482
      -1.591
      -1.368
      -0.832
      -0.230
       0.102
      -0.043
      -0.601
      -1.263
      -1.674
      -1.644
      -1.250
      -0.742
      -0.346
      -0.137
      -0.079
      -0.151
      -0.376
      -0.735
